{"version": 0.6, "generator": "Overpass API 0.7.62.8 e802775f", "osm3s": {"timestamp_osm_base": "2026-01-13T09:39:50Z", "copyright": "The data included in this document is from www.openstreetmap.org. The data is made available under ODbL."}, "elements": [{"type": "node", "id": 462257802, "lat": 18.9679263, "lon": 72.8061792}, {"type": "node", "id": 469871436, "lat": 18.9723999, "lon": 72.803795}, {"type": "node", "id": 469871437, "lat": 18.9723187, "lon": 72.8041555}, {"type": "node", "id": 469871439, "lat": 18.972619, "lon": 72.8043958}, {"type": "node", "id": 469871440, "lat": 18.9727408, "lon": 72.8048336}, {"type": "node", "id": 469871442, "lat": 18.9728706, "lon": 72.8047992}, {"type": "node", "id": 469871451, "lat": 18.9727408, "lon": 72.80431}, {"type": "node", "id": 469871456, "lat": 18.9724486, "lon": 72.8040954}, {"type": "node", "id": 469871460, "lat": 18.9725135, "lon": 72.8038294}, {"type": "node", "id": 477566128, "lat": 18.9578361, "lon": 72.8092481}, {"type": "node", "id": 477566136, "lat": 18.95769, "lon": 72.809128}, {"type": "node", "id": 477566141, "lat": 18.957625, "lon": 72.8093254}, {"type": "node", "id": 477566145, "lat": 18.9577387, "lon": 72.8094198}, {"type": "node", "id": 631563658, "lat": 18.9700539, "lon": 72.823728}, {"type": "node", "id": 631563659, "lat": 18.969876, "lon": 72.8244258}, {"type": "node", "id": 631563664, "lat": 18.970699, "lon": 72.8246659}, {"type": "node", "id": 705199179, "lat": 18.9521343, "lon": 72.8185702}, {"type": "node", "id": 705199184, "lat": 18.9522816, "lon": 72.8187022}, {"type": "node", "id": 705199187, "lat": 18.9529406, "lon": 72.8177592}, {"type": "node", "id": 705199190, "lat": 18.9528291, "lon": 72.8176647}, {"type": "node", "id": 1633921573, "lat": 18.9714558, "lon": 72.8096463}, {"type": "node", "id": 1633921579, "lat": 18.9711294, "lon": 72.8099342}, {"type": "node", "id": 1633921603, "lat": 18.9711607, "lon": 72.8102836}, {"type": "node", "id": 1633921605, "lat": 18.9719764, "lon": 72.810202}, {"type": "node", "id": 1633921606, "lat": 18.9719226, "lon": 72.8095997}, {"type": "node", "id": 1633921609, "lat": 18.9714784, "lon": 72.8098993}, {"type": "node", "id": 2175184770, "lat": 18.9407465, "lon": 72.8273848}, {"type": "node", "id": 2175184773, "lat": 18.9408293, "lon": 72.8276324}, {"type": "node", "id": 2175184789, "lat": 18.941192, "lon": 72.8272184}, {"type": "node", "id": 2175184791, "lat": 18.9412747, "lon": 72.827466}, {"type": "node", "id": 2919868260, "lat": 18.9546271, "lon": 72.8210141}, {"type": "node", "id": 2919868261, "lat": 18.9546933, "lon": 72.8212241}, {"type": "node", "id": 2919868262, "lat": 18.9548643, "lon": 72.8212193}, {"type": "node", "id": 2919868263, "lat": 18.9548273, "lon": 72.8209701}, {"type": "node", "id": 2920083397, "lat": 18.9593086, "lon": 72.820231}, {"type": "node", "id": 2920084101, "lat": 18.9581453, "lon": 72.820371}, {"type": "node", "id": 2920084103, "lat": 18.9581415, "lon": 72.8198888}, {"type": "node", "id": 3591335931, "lat": 18.9702543, "lon": 72.8144121}, {"type": "node", "id": 3591335932, "lat": 18.9701239, "lon": 72.8145366}, {"type": "node", "id": 3591335933, "lat": 18.9701331, "lon": 72.8144188}, {"type": "node", "id": 3591335934, "lat": 18.9701788, "lon": 72.8148546}, {"type": "node", "id": 3591335935, "lat": 18.9702487, "lon": 72.8146535}, {"type": "node", "id": 3591335936, "lat": 18.970263, "lon": 72.8148582}, {"type": "node", "id": 3591335949, "lat": 18.9705713, "lon": 72.8146167}, {"type": "node", "id": 4209578999, "lat": 18.9656765, "lon": 72.8135089, "tags": {"addr:district": "Mumbai", "addr:full": "Chikalwadi, J Dadaji Road, Tardeo", "addr:postcode": "400007", "addr:state": "Maharashtra", "addr:street": "Tukaram Javji Marg", "amenity": "hospital", "email": "info@bhatiahospital.org", "healthcare": "hospital", "name": "Bhatia", "name:en": "Bhatia Hospital", "opening_hours": "24/7", "operator:type": "private", "source": "OpenGovernmentData", "website": "www.bhatiahospital.org"}}, {"type": "node", "id": 5090930970, "lat": 19.0066529, "lon": 72.8179411, "tags": {"amenity": "hospital", "name": "Peoples Mobile Hospitals"}}, {"type": "node", "id": 5206554121, "lat": 18.9645402, "lon": 72.8054881, "tags": {"addr:housenumber": "7", "addr:street": "August Kranti Marg", "amenity": "hospital", "healthcare": "hospital", "name:en": "Dr. Sunil n. vasani", "opening_hours": "Mo-Su 16:00-18:00"}}, {"type": "node", "id": 7043448094, "lat": 18.9603152, "lon": 72.8102066, "tags": {"addr:district": "Mumbai", "addr:full": "(Dr Mangeshikar Clinic) Madhav Niwas , 8. Laburnum Road , Bombay", "addr:postcode": "400007", "addr:state": "Maharashtra", "amenity": "hospital", "name": "Mangeshikar Access Gynecology and Infertility Center", "source": "OpenGovernmentData"}}, {"type": "node", "id": 7044466685, "lat": 18.9576821, "lon": 72.821319, "tags": {"addr:district": "Mumbai", "addr:full": "E -1st Floor, Bhaveshwar Vihar Svp Road, Prathna Samaj,Opposite Hurkiondas Hospital, Girgaum", "addr:postcode": "400004", "addr:state": "Maharashtra", "amenity": "hospital", "healthcare": "hospital", "name": "Dr. Yash Shah Total Eye Care", "source": "OpenGovernmentData"}}, {"type": "node", "id": 7048433639, "lat": 18.956311, "lon": 72.8133863, "tags": {"addr:district": "Mumbai", "addr:full": "105 A&C & 405 A Sukh Sagar, N.S. Patkar Marg, Opera House", "addr:postcode": "400007", "addr:state": "Maharashtra", "amenity": "hospital", "healthcare": "hospital", "name": "Foresight Eye Center", "source": "OpenGovernmentData"}}, {"type": "node", "id": 7048777736, "lat": 18.9590608, "lon": 72.8116697, "tags": {"addr:district": "Mumbai", "addr:full": "Modi Bhavan, Pandita Ramabai Road, Gamdevi, Grant Road (W)", "addr:postcode": "400007", "addr:state": "Maharashtra", "amenity": "hospital", "name": "Dr. Nisars Eye Care Centre", "source": "OpenGovernmentData"}}, {"type": "node", "id": 7051070010, "lat": 19.0050283, "lon": 72.8225555, "tags": {"addr:district": "Mumbai", "addr:full": "3Road Floor, Sadhana House Behind Mahindra Towers, Pandurang Budhkar Marg, Worli Mumbai", "addr:postcode": "400018", "addr:state": "Maharashtra", "amenity": "hospital", "name": "Reliance Life Sciences Pvt. Ltd", "source": "OpenGovernmentData"}}, {"type": "node", "id": 7052365607, "lat": 18.9568031, "lon": 72.8190404, "tags": {"addr:district": "Mumbai", "addr:full": "9,Dr, D.D. Sathe Marg", "addr:postcode": "400004", "addr:state": "Maharashtra", "amenity": "hospital", "healthcare": "hospital", "healthcare:speciality": "general;gynaecology", "name": "Brahman Sabha, Mhaskar Gruh and General Nursing Home", "phone": "+91 22 23871999", "source": "OpenGovernmentData"}}, {"type": "node", "id": 7054423656, "lat": 18.9747946, "lon": 72.8128391, "tags": {"addr:district": "Mumbai", "addr:full": "Between Cross Roads Shopping Centre And Tardeo A/C Market, 50, Tardeo Road", "addr:postcode": "400034", "addr:state": "Maharashtra", "amenity": "hospital", "name": "Shetty Nursing Home (Shetty Health Services Pvt. Ltd.)", "source": "OpenGovernmentData"}}, {"type": "node", "id": 7055428168, "lat": 18.957344, "lon": 72.8248367, "tags": {"addr:district": "Mumbai", "addr:full": "Mahaprabhu Krupa, 1st Floor, Room No.5, Near Alankar Cinema, Girgaum -Charni Road", "addr:postcode": "400004", "addr:state": "Maharashtra", "amenity": "hospital", "name": "Yogeshwar Surgical Clinic and Nursing Home - Mumbai", "source": "OpenGovernmentData"}}, {"type": "node", "id": 7055759633, "lat": 18.9925482, "lon": 72.8243351, "tags": {"addr:district": "Mumbai", "addr:full": "Mumbai", "addr:postcode": "400008", "addr:state": "Maharashtra", "amenity": "hospital", "healthcare": "hospital", "name": "Ipc Heart Care", "source": "OpenGovernmentData"}}, {"type": "node", "id": 7064364272, "lat": 19.0128124, "lon": 72.8225863, "tags": {"addr:district": "Mumbai", "addr:full": "Pupala Sadan", "addr:postcode": "400030", "addr:state": "Maharashtra", "amenity": "hospital", "name": "Worli Hospital For Women", "source": "OpenGovernmentData"}}, {"type": "node", "id": 7066505700, "lat": 18.9580372, "lon": 72.8095293, "tags": {"addr:district": "Mumbai", "addr:full": "Apex centre, 5 Babulnath Road, OppositeBabulnath Temple, Grant Road", "addr:postcode": "400007", "addr:state": "Maharashtra", "amenity": "hospital", "email": "Contact@EyeCareForAll.in", "name": "Bombay City Eye Institute and Research Centre", "operator:type": "private", "source": "OpenGovernmentData", "website": "http://www.eyecareforall.in/eyecareforall/index.html"}}, {"type": "node", "id": 7066505804, "lat": 18.9547128, "lon": 72.8182693, "tags": {"addr:district": "Mumbai", "addr:full": "266 , Patel Bldg Opposite Central Cinema Girgaum", "addr:postcode": "400004", "addr:state": "Maharashtra", "amenity": "hospital", "healthcare": "hospital", "name": "Beramjis Hospital", "source": "OpenGovernmentData"}}, {"type": "node", "id": 7069814052, "lat": 18.9634974, "lon": 72.8087763, "tags": {"addr:district": "Mumbai", "addr:full": "93/95, August Kranti Marg, August Kranti Maidan", "addr:postcode": "400036", "addr:state": "Maharashtra", "amenity": "hospital", "email": "support@cumbalahillhospital.com", "healthcare": "hospital", "name": "Cumbala Hill Hospital and Heart Institute", "operator:type": "private", "source": "OpenGovernmentData", "website": "www.chh.co.in/"}}, {"type": "node", "id": 7070857459, "lat": 18.9661811, "lon": 72.8195715, "tags": {"addr:district": "Mumbai", "addr:full": "Bldg. No.2, 1st Floor, R.No. 4, 5 & 10, Navjivan Society, Lamington Road", "addr:postcode": "400008", "addr:state": "Maharashtra", "amenity": "hospital", "name": "Sadhu-Kamal Eye Hospital", "source": "OpenGovernmentData"}}, {"type": "node", "id": 7073672865, "lat": 18.9571912, "lon": 72.8229122, "tags": {"addr:district": "Mumbai", "addr:full": "V.P.Road", "addr:postcode": "400004", "addr:state": "Maharashtra", "amenity": "hospital", "name": "Dr.Pai Dhungat Maternity and Nursing Home", "source": "OpenGovernmentData"}}, {"type": "node", "id": 7073944671, "lat": 18.9498421, "lon": 72.8201012, "tags": {"addr:district": "Mumbai", "addr:full": "Netaji Subash Road", "addr:postcode": "400002", "addr:state": "Maharashtra", "amenity": "hospital", "healthcare": "hospital", "name": "Smt. Kamladevi Gauridutt Mittal Ayurvedic Hospital", "source": "OpenGovernmentData"}}, {"type": "node", "id": 7073949849, "lat": 18.9563909, "lon": 72.8133488, "tags": {"addr:district": "Mumbai", "addr:full": "202-A, Sukh Sagar,2nd Floor, N S Patkar Marg", "addr:postcode": "400007", "addr:state": "Maharashtra", "amenity": "hospital", "healthcare": "hospital", "name": "Samyak Drishti Eye Centre", "source": "OpenGovernmentData"}}, {"type": "node", "id": 7080205222, "lat": 18.9639954, "lon": 72.8078722, "tags": {"addr:district": "Mumbai", "addr:full": "Mumbai", "addr:postcode": "400026", "addr:state": "Maharashtra", "amenity": "hospital", "healthcare": "hospital", "name": "Gynaecworld", "source": "OpenGovernmentData"}}, {"type": "node", "id": 7082733172, "lat": 18.9734559, "lon": 72.8145584, "tags": {"addr:district": "Mumbai", "addr:full": "47-A, Walchand Terraces, Opp Tardeo A/C Market, Tardeo", "addr:postcode": "400034", "addr:state": "Maharashtra", "amenity": "hospital", "name": "Anudhiti Care", "source": "OpenGovernmentData"}}, {"type": "node", "id": 7086409761, "lat": 18.9755408, "lon": 72.8237459}, {"type": "node", "id": 7086734179, "lat": 18.9654379, "lon": 72.8116241, "tags": {"addr:district": "Mumbai", "addr:full": "6,Jaymahal,French Bridge,Opera House, Next To Patidar Samaj Hall", "addr:postcode": "400007", "addr:state": "Maharashtra", "amenity": "hospital", "name": "Infiniti Eye Hospital", "source": "OpenGovernmentData"}}, {"type": "node", "id": 7206373661, "lat": 18.9703512, "lon": 72.8235975}, {"type": "node", "id": 7225067153, "lat": 19.0017314, "lon": 72.816903, "tags": {"addr:district": "Mumbai", "addr:full": "BDD Chawls Worli, behind Poddar Hospital", "addr:postcode": "400018", "addr:state": "Maharashtra", "amenity": "hospital", "name": "ESIS Hospital WORLI", "source": "OpenGovernmentData"}}, {"type": "node", "id": 7225067192, "lat": 19.0022803, "lon": 72.8162624, "tags": {"addr:district": "Mumbai", "addr:full": "Dr Annie Besant Road, B Wing, BDD Chawls Worli", "addr:postcode": "400018", "addr:state": "Maharashtra", "amenity": "hospital", "name": "Poddar Hospital", "source": "OpenGovernmentData"}}, {"type": "node", "id": 7225067213, "lat": 18.971194, "lon": 72.820968, "tags": {"addr:district": "Mumbai", "addr:full": "55, Dr Anandrao Nair Marg, Near Mumbai Central Railway Station, Mumbai", "addr:postcode": "400008", "addr:state": "Maharashtra", "amenity": "hospital", "description": "Medical Colleges Hospital", "name": "Nair Hospital Dental College", "source": "OpenGovernmentData"}}, {"type": "node", "id": 7225067284, "lat": 18.9742153, "lon": 72.8219188, "tags": {"addr:district": "Mumbai", "addr:full": "Dr. A. L. Nair Road, Mumbai", "addr:postcode": "400008", "addr:state": "Maharashtra", "amenity": "hospital", "description": "Medical Colleges Hospital", "name": "BYL Nair hospital", "source": "OpenGovernmentData"}}, {"type": "node", "id": 7607557871, "lat": 18.961983, "lon": 72.8265104, "tags": {"addr:district": "Mumbai", "addr:full": "MS Ali Road, Siddharth Nagar, Kamathipura, Mumbai", "addr:postcode": "400008", "addr:state": "Maharashtra", "amenity": "hospital", "healthcare": "hospital", "name": "BMC Eye Hospital ,Kamathipura", "source": "Local Knowledge"}}, {"type": "node", "id": 7607886540, "lat": 18.9785849, "lon": 72.8128747, "tags": {"addr:district": "Mumbai", "addr:full": "Haji Ali, Keshavrao Khadye Marg", "addr:postcode": "400034", "addr:state": "Maharashtra", "amenity": "hospital", "name": "All India Institute of Physical Medicine and Rehabilitation", "source": "Local Knowledge"}}, {"type": "node", "id": 7664032187, "lat": 18.959185, "lon": 72.823862, "tags": {"addr:district": "Mumbai City", "addr:full": "Khemraj Srikrishna Das Marg, Grant Road, Khetwadi, Girgaon, Mumbai", "addr:postcode": "400004", "addr:state": "Maharastra", "amenity": "hospital", "healthcare": "hospital", "name": "Dr. Sanjay Shah Hospital", "source": "Local Knowledge"}}, {"type": "node", "id": 7664032188, "lat": 18.9513853, "lon": 72.8236501, "tags": {"addr:district": "Mumbai City", "addr:full": "Zaobawadi Road, Marine Lines East, Thakurdwar, Kalbadevi, Mumbai", "addr:postcode": "400002", "addr:state": "Maharastra", "amenity": "hospital", "healthcare": "hospital", "name": "Suryakant Wagal Maternity Hospital", "source": "Local Knowledge"}}, {"type": "node", "id": 7664032196, "lat": 18.9887771, "lon": 72.8230369, "tags": {"addr:district": "Mumbai City", "addr:full": "20, Dr E Moses Road, Gandhi Nagar, Upper Worli, Lower Parel, Mumbai", "addr:postcode": "400013", "addr:state": "Maharastra", "amenity": "hospital", "name": "Anand Niketan Hospital", "opening_hours": "24/7", "source": "Local Knowledge"}}, {"type": "node", "id": 7664032197, "lat": 18.956001, "lon": 72.807685, "tags": {"addr:district": "Mumbai City", "addr:full": "Dadyseth Road, Opp Bombay Garage, Chowpatty, Mumbai", "addr:postcode": "400007", "addr:state": "Maharastra", "amenity": "hospital", "name": "Desa's Hospital", "source": "Local Knowledge"}}, {"type": "node", "id": 7664032200, "lat": 18.9570962, "lon": 72.8115973, "tags": {"addr:district": "Mumbai City", "addr:full": "KM Munshi Road, Gamdevi, Mumbai", "addr:postcode": "400007", "addr:state": "Maharastra", "amenity": "hospital", "name": "Dolby Hospital", "source": "Local Knowledge"}}, {"type": "node", "id": 7664032214, "lat": 18.9582867, "lon": 72.8102818, "tags": {"addr:district": "Mumbai City", "addr:full": "N S Patkar Marg, Opp Westside, Babulnath, Dadi Sheth Wadi, Gamdevi, Mumbai", "addr:postcode": "400007", "addr:state": "Maharastra", "amenity": "hospital", "name": "Smt. Motiben B. Dalvi Hospital", "source": "Local Knowledge"}}, {"type": "node", "id": 7664032217, "lat": 18.9459308, "lon": 72.7952414, "tags": {"addr:district": "Mumbai City", "addr:full": "2, Banganga Cross Lane, Teen Batti, Malabar Hill, Mumbai", "addr:postcode": "400006", "addr:state": "Maharastra", "amenity": "hospital", "name": "Khimji Jeeva Sanitorium Hospital", "source": "Local Knowledge"}}, {"type": "node", "id": 7664032219, "lat": 19.015443, "lon": 72.8261774, "tags": {"addr:district": "Mumbai City", "addr:full": "Old Prabhadevi Road, G-South Ward, Dadar West, Prabhadevi, Mumbai", "addr:postcode": "400025", "addr:state": "Maharastra", "amenity": "hospital", "healthcare": "hospital", "healthcare:speciality": "general", "name": "BMC Hospital", "source": "Local Knowledge"}}, {"type": "node", "id": 7664032220, "lat": 18.957089, "lon": 72.807333, "tags": {"addr:district": "Mumbai City", "addr:full": "Rambha Bhavan, Near Babulnath Temple, Khareghat Colony, Malabar Hill, Mumbai", "addr:postcode": "400007", "addr:state": "Maharastra", "amenity": "hospital", "name": "Hospital For Women Care", "source": "Local Knowledge"}}, {"type": "node", "id": 7664032225, "lat": 18.9559782, "lon": 72.8084083, "tags": {"addr:district": "Mumbai City", "addr:full": "Baig Mansion, Chowpatty Medical Centre 3, Babulnath Road, Mumbai", "addr:postcode": "400007", "addr:state": "Maharastra", "amenity": "hospital", "name": "Dr. Nadeem Rais Endocrinologist", "source": "Local Knowledge"}}, {"type": "node", "id": 7664032237, "lat": 18.9730222, "lon": 72.8219132, "tags": {"addr:district": "Mumbai City", "addr:full": "43-A/43B, Dr Anandrao Nair Marg, RTO Colony, Mumbai Central, Mumbai", "addr:postcode": "400008", "addr:state": "Maharastra", "amenity": "hospital", "healthcare": "hospital", "name": "Nair Hospital", "source": "Local Knowledge"}}, {"type": "node", "id": 7664032242, "lat": 18.9705472, "lon": 72.8143779}, {"type": "node", "id": 8740874636, "lat": 18.9594, "lon": 72.8201793}, {"type": "node", "id": 8797109108, "lat": 18.9789397, "lon": 72.812933}, {"type": "node", "id": 8817020641, "lat": 18.9752297, "lon": 72.8237596, "tags": {"addr:city": "Mumbai", "addr:housenumber": "1877", "addr:postcode": "400011", "addr:street": "Doctor Anandrao Nair Marg, Near Agripada Police Station Mumbai Central East, Agripada", "amenity": "hospital", "healthcare": "hospital", "healthcare:speciality": "Arthroplasty;Arthroscopy;Hip_Replacement;Knee_Replacement;Trauma", "name": "Dr Mudit Khanna", "website": "https://www.drmuditkhanna.com/"}}, {"type": "node", "id": 10257874080, "lat": 18.9701052, "lon": 72.8235251}, {"type": "node", "id": 10257874081, "lat": 18.9703817, "lon": 72.8234902}, {"type": "node", "id": 10257874082, "lat": 18.9709854, "lon": 72.8236753}, {"type": "node", "id": 10561467200, "lat": 18.969953, "lon": 72.8064769}, {"type": "node", "id": 10561467202, "lat": 18.9691997, "lon": 72.8063482}, {"type": "node", "id": 10616180012, "lat": 18.9783359, "lon": 72.8271144, "tags": {"amenity": "hospital", "healthcare": "hospital"}}, {"type": "node", "id": 10785298037, "lat": 18.967781, "lon": 72.8053241, "tags": {"access": "private", "barrier": "gate"}}, {"type": "node", "id": 10785298040, "lat": 18.9683068, "lon": 72.804755}, {"type": "node", "id": 10785298041, "lat": 18.9681419, "lon": 72.8050634}, {"type": "node", "id": 10785298042, "lat": 18.9680734, "lon": 72.8051358}, {"type": "node", "id": 10785298043, "lat": 18.9676955, "lon": 72.8053531}, {"type": "node", "id": 10785298044, "lat": 18.9676371, "lon": 72.8059298}, {"type": "node", "id": 10785298045, "lat": 18.967665, "lon": 72.8060344}, {"type": "node", "id": 10785298046, "lat": 18.9691703, "lon": 72.8065335}, {"type": "node", "id": 10785298047, "lat": 18.9700088, "lon": 72.8057635}, {"type": "node", "id": 10785298048, "lat": 18.9697678, "lon": 72.8057018}, {"type": "node", "id": 10785298049, "lat": 18.9697729, "lon": 72.8050205}, {"type": "node", "id": 10785298051, "lat": 18.9683626, "lon": 72.8047121}, {"type": "node", "id": 10956481065, "lat": 18.9689029, "lon": 72.8047201}, {"type": "node", "id": 11017453070, "lat": 18.9784348, "lon": 72.812977, "tags": {"access": "private", "barrier": "gate"}}, {"type": "node", "id": 11953366500, "lat": 18.9753404, "lon": 72.8243547}, {"type": "node", "id": 11953366501, "lat": 18.9750793, "lon": 72.823576}, {"type": "node", "id": 11953366502, "lat": 18.9748789, "lon": 72.8241849}, {"type": "node", "id": 11953432846, "lat": 18.9784451, "lon": 72.813051}, {"type": "node", "id": 11953432847, "lat": 18.9794952, "lon": 72.8133407}, {"type": "node", "id": 11953432848, "lat": 18.9798325, "lon": 72.8128794}, {"type": "node", "id": 11953432849, "lat": 18.979064, "lon": 72.8122544}, {"type": "node", "id": 11953432850, "lat": 18.9787444, "lon": 72.8125146}, {"type": "node", "id": 11953432851, "lat": 18.9783589, "lon": 72.8126112}, {"type": "node", "id": 12666377119, "lat": 18.9591663, "lon": 72.8200021}, {"type": "node", "id": 12666377120, "lat": 18.9590488, "lon": 72.8199139}, {"type": "node", "id": 12666377121, "lat": 18.9590559, "lon": 72.8198272}, {"type": "node", "id": 12666377122, "lat": 18.9590291, "lon": 72.8198311}, {"type": "node", "id": 12781978288, "lat": 18.9527596, "lon": 72.8176966}, {"type": "node", "id": 12904796701, "lat": 18.9590414, "lon": 72.8197259}, {"type": "node", "id": 12972287923, "lat": 18.9888128, "lon": 72.8228181}, {"type": "node", "id": 12972287924, "lat": 18.9890428, "lon": 72.8229443}, {"type": "node", "id": 12972287925, "lat": 18.9891972, "lon": 72.8230391}, {"type": "node", "id": 12972287926, "lat": 18.9889097, "lon": 72.8234646}, {"type": "node", "id": 12972287927, "lat": 18.9888744, "lon": 72.8234773}, {"type": "node", "id": 12972287928, "lat": 18.9888329, "lon": 72.8234866}, {"type": "node", "id": 12972287929, "lat": 18.9887889, "lon": 72.823577}, {"type": "node", "id": 12972287930, "lat": 18.9880801, "lon": 72.8231836}, {"type": "node", "id": 12972287931, "lat": 18.9883528, "lon": 72.8230613}, {"type": "node", "id": 12972287932, "lat": 18.9889018, "lon": 72.8233038}, {"type": "node", "id": 12972287933, "lat": 18.9891035, "lon": 72.8231794}, {"type": "node", "id": 12972287934, "lat": 18.9889788, "lon": 72.8232496}, {"type": "way", "id": 39223162, "nodes": [469871436, 469871437, 469871439, 469871440, 469871442, 469871451, 469871456, 469871460, 469871436], "tags": {"amenity": "hospital", "building:levels": "10", "emergency": "yes", "healthcare": "hospital", "name": "\u092c\u094d\u0930\u0940\u091a \u0915\u0901\u0921\u0940 \u0939\u0949\u0938\u094d\u092a\u093f\u091f\u0932", "name:en": "Breach Candy Hospital", "name:hi": "\u092c\u094d\u0930\u0940\u091a \u0915\u0948\u0902\u0921\u0940 \u0905\u0938\u094d\u092a\u0924\u093e\u0932", "source": "Yahoo", "wikidata": "Q4959103", "wikipedia": "en:Breach Candy Hospital"}}, {"type": "way", "id": 39838498, "nodes": [477566128, 477566136, 477566141, 477566145, 477566128], "tags": {"amenity": "hospital", "building": "apartments", "name": "Ruxmani Lying in Hospital"}}, {"type": "way", "id": 56199740, "nodes": [705199179, 705199184, 705199187, 705199190, 12781978288, 705199179], "tags": {"addr:city": "Mumbai", "addr:district": "Mumbai", "addr:full": "15/17, Maharshi Karve Marg", "addr:postcode": "400004", "addr:state": "Maharashtra", "addr:street": "Maharshi Karve Road", "amenity": "hospital", "building": "yes", "email": "write@saifeehospital.com", "emergency": "yes", "healthcare": "hospital", "healthcare:speciality": "general;gynaecology;cardiology;surgery", "name": "Saifee Hospital", "name:en": "Saifee Hospital", "name:etymology:wikidata": "Q7675438", "operator:type": "private", "source": "OpenGovernmentData", "website": "https://www.saifeehospital.com/", "wikidata": "Q7400018", "wikimedia_commons": "Category:Saifee Hospital", "wikipedia": "en:Saifee Hospital"}}, {"type": "way", "id": 150485811, "nodes": [1633921606, 1633921605, 1633921603, 1633921579, 1633921609, 1633921573, 1633921606], "tags": {"addr:district": "Mumbai", "addr:full": "15, Near Sophia College, Dr.G.Deshmukh Marg,Pedder Road, Cumballa Hill", "addr:postcode": "400026", "addr:state": "Maharashtra", "addr:street": "Pedder Road (Gopalrao Deshmukh Marg)", "amenity": "hospital", "emergency": "yes", "healthcare": "hospital", "name": "Jaslok Hospital and Research Centre", "name:hi": "\u091c\u0938\u0932\u094b\u0915 \u0930\u0941\u0917\u094d\u0923\u093e\u0932\u092f", "source": "OpenGovernmentData", "wikidata": "Q6161662", "wikipedia": "en:Jaslok Hospital"}}, {"type": "way", "id": 207324961, "nodes": [2175184791, 2175184789, 2175184770, 2175184773, 2175184791], "tags": {"addr:city": "Mumbai", "addr:district": "Mumbai", "addr:full": "12, New Marine Lines, Marine Lines", "addr:postcode": "400020", "addr:state": "Maharashtra", "amenity": "hospital", "building": "apartments", "healthcare": "hospital", "name": "Bombay Hospital and Medical Research Center", "operator:type": "private", "source": "OpenGovernmentData", "website": "https://www.bombayhospital.com/", "wikidata": "Q4940562", "wikipedia": "en:Bombay Hospital"}}, {"type": "way", "id": 288426702, "nodes": [2919868260, 2919868261, 2919868262, 2919868263, 2919868260], "tags": {"addr:city": "Mumbai", "addr:district": "Mumbai", "addr:full": "8-10 S V Sovani Path Conwest Jain Clinic Chowk Khadilkar Road Girgaum", "addr:postcode": "400004", "addr:state": "Maharashtra", "addr:street": "Kotachi Wadi", "amenity": "hospital", "building": "hospital", "building:levels": "6", "healthcare": "hospital", "healthcare:speciality": "general", "name": "Conwest And Manjula S. Badani Jain Hospital", "source": "OpenGovernmentData", "website": "https://www.cmjhospital.in/"}}, {"type": "way", "id": 288446227, "nodes": [12904796701, 12666377121, 12666377122, 12666377120, 12666377119, 8740874636, 2920083397, 2920084101, 2920084103, 12904796701], "tags": {"addr:city": "Mumbai", "addr:district": "Mumbai", "addr:full": "Padmashri Gordhanbapa Chowk, Raja Ram Mohan Roy Road Girgaon", "addr:postcode": "400004", "addr:state": "Maharashtra", "addr:street": "Raja Ram Mohan Roy Road (Charni Road)", "amenity": "hospital", "building": "hospital", "building:levels": "15", "healthcare": "hospital", "name": "Sir H. N. Hospital & Research Centre;Sir H.N Reliance foundation hospital", "outdoor_seating": "no", "source": "OpenGovernmentData", "wikidata": "Q16892546", "wikimedia_commons": "Category:Sir H. N. Reliance Foundation Hospital", "wikipedia": "en:Sir H. N. Reliance Foundation Hospital"}}, {"type": "way", "id": 353353382, "nodes": [7664032242, 3591335949, 3591335935, 3591335936, 3591335934, 3591335932, 3591335933, 3591335931, 7664032242], "tags": {"addr:district": "Mumbai City", "addr:full": "Everest Building, 156, Tardeo Road, Tardeo, Mumbai", "addr:postcode": "400034", "addr:state": "Maharastra", "amenity": "hospital", "building": "hospital", "building:levels": "10", "healthcare": "hospital", "name": "Apollo Spectra Hospitals", "source": "Local Knowledge"}}, {"type": "way", "id": 1121494180, "nodes": [631563664, 10257874082, 10257874081, 7206373661, 10257874080, 631563658, 631563659, 631563664], "tags": {"addr:city": "Mumbai", "addr:postcode": "400008", "addr:street": "Maratha Mandir Marg, RBI Staff Colony", "amenity": "hospital", "emergency": "yes", "healthcare": "hospital", "name": "Jagjivan Ram Hospital", "name:etymology:wikidata": "Q1471625", "phone": "+91 22 6764 3224"}}, {"type": "way", "id": 1159753733, "nodes": [10785298051, 10956481065, 10785298049, 10785298048, 10785298047, 10561467200, 10561467202, 10785298046, 462257802, 10785298045, 10785298044, 10785298043, 10785298037, 10785298042, 10785298041, 10785298040, 10785298051], "tags": {"addr:district": "Mumbai", "addr:full": "Bomanjee Petit Road, Cumballa Hill", "addr:postcode": "400036", "addr:state": "Maharashtra", "amenity": "hospital", "email": "ceo@bdppgh.org; contact@bdppgh.org", "name": "The B.D.Petit Parsee General Hospital", "operator:type": "private", "source": "OpenGovernmentData", "website": "https://www.bdpetitparseegeneralhospital.org/", "wikidata": "Q60765656", "wikipedia": "en:B.D. Petit Parsee General Hospital"}}, {"type": "way", "id": 1289063015, "nodes": [11953366502, 11953366500, 7086409761, 11953366501, 11953366502], "tags": {"addr:district": "Thane", "addr:full": "Police Station, 1877 Doctor Anandrao Nair Marg Near Agripada, Mumbai Central", "addr:postcode": "400011", "addr:state": "Maharashtra", "amenity": "hospital", "name": "Wockhardt Hospitals, South Mumbai", "source": "OpenGovernmentData"}}, {"type": "way", "id": 1289073489, "nodes": [11953432851, 11953432850, 11953432849, 11953432848, 11953432847, 8797109108, 11953432846, 11017453070, 11953432851], "tags": {"addr:district": "Mumbai", "addr:full": "1-1A, Keshavrao Khadye Marg, Haji Ali, Mumbai", "addr:postcode": "400034", "addr:state": "Maharashtra", "amenity": "hospital", "name": "NH SRCC Children's Hospital", "source": "Local Knowledge"}}, {"type": "way", "id": 1411712168, "nodes": [12972287923, 12972287924, 12972287925, 12972287933, 12972287934, 12972287932, 12972287926, 12972287927, 12972287928, 12972287929, 12972287930, 12972287931, 12972287923], "tags": {"amenity": "hospital", "healthcare": "hospital", "name": "King George V Infimary"}}]}