{"version": 0.6, "generator": "Overpass API 0.7.62.8 e802775f", "osm3s": {"timestamp_osm_base": "2026-01-12T01:36:21Z", "copyright": "The data included in this document is from www.openstreetmap.org. The data is made available under ODbL."}, "elements": [{"type": "node", "id": 634123949, "lat": 17.407574, "lon": 78.512174, "tags": {"amenity": "hospital", "name": "Satya Hospital"}}, {"type": "node", "id": 665132280, "lat": 17.4293162, "lon": 78.533452, "tags": {"addr:district": "Hyderabad", "addr:full": "12-5-30, Whith House, Moulali Road, Tarnaka", "addr:postcode": "500017", "addr:state": "Telangana", "amenity": "hospital", "contact:phone": "040 2700 7272 ; 9000991535", "name": "Innova Children's Heart Hospital", "source": "OpenGovernmentData", "website": "https://www.innovahospitals.in/"}}, {"type": "node", "id": 665132281, "lat": 17.4290954, "lon": 78.5333362, "tags": {"amenity": "hospital", "name": "Apollo Clinic"}}, {"type": "node", "id": 1435322433, "lat": 17.4512881, "lon": 78.5354859, "tags": {"amenity": "hospital", "emergency": "yes", "name": "L.K. Diagnostic"}}, {"type": "node", "id": 1435322445, "lat": 17.4513853, "lon": 78.5352525, "tags": {"addr:district": "Hyderabad", "addr:full": "4-159 & 4-172, Near Raghavendra Theatre, Maruthi Nagar, Malkajgiri", "addr:postcode": "500047", "addr:state": "Telangana", "amenity": "hospital", "emergency": "yes", "name": "L.K. Hospitals", "source": "OpenGovernmentData"}}, {"type": "node", "id": 1438252866, "lat": 17.451435, "lon": 78.5311968, "tags": {"amenity": "hospital", "emergency": "yes", "name": "Dental Hospital"}}, {"type": "node", "id": 1504756065, "lat": 17.3688309, "lon": 78.5301893, "tags": {"amenity": "hospital", "healthcare": "hospital", "healthcare:speciality": "paediatrics", "name": "Lakshmi Childrens Hospital"}}, {"type": "node", "id": 1598149460, "lat": 17.3684777, "lon": 78.5387483, "tags": {"addr:district": "Hyderabad", "addr:full": "11-9-46, Sri Sai Shivani Complex, Opposite P.V.T Market, Kothapet 'X' Road, New Nagole Main Road, Dilsukhnagar, Laxmi Nagar Colony, Kothapet", "addr:postcode": "500060", "addr:state": "Telangana", "amenity": "hospital", "healthcare": "hospital", "healthcare:speciality": "multi speciality", "medical_system": "Allopathic", "name": "Omni Hospital", "operator:type": "private", "phone": "040 49871690;040 67369999", "source": "OpenGovernmentData", "website": "https://omnihospitals.in/"}}, {"type": "node", "id": 2461282035, "lat": 17.4012592, "lon": 78.5102495}, {"type": "node", "id": 2461282040, "lat": 17.4019139, "lon": 78.5094778}, {"type": "node", "id": 2461282045, "lat": 17.4021591, "lon": 78.511088}, {"type": "node", "id": 2461282049, "lat": 17.4028138, "lon": 78.5103163}, {"type": "node", "id": 2583708951, "lat": 17.4255371, "lon": 78.5306786, "tags": {"amenity": "hospital", "name": "Tarnaka Flyover;TGSRTC Hospital", "place": "locality"}}, {"type": "node", "id": 2583734761, "lat": 17.4241623, "lon": 78.5297591}, {"type": "node", "id": 2583734762, "lat": 17.4250792, "lon": 78.529218}, {"type": "node", "id": 2583734763, "lat": 17.4264175, "lon": 78.5308078}, {"type": "node", "id": 2583734764, "lat": 17.4264585, "lon": 78.5310653}, {"type": "node", "id": 2583734772, "lat": 17.4253171, "lon": 78.5317868}, {"type": "node", "id": 2583734773, "lat": 17.4255961, "lon": 78.5324775}, {"type": "node", "id": 2593895374, "lat": 17.4011535, "lon": 78.5707964}, {"type": "node", "id": 2593895376, "lat": 17.4010382, "lon": 78.5707944}, {"type": "node", "id": 2593895378, "lat": 17.4010369, "lon": 78.5708786}, {"type": "node", "id": 2593895380, "lat": 17.4011522, "lon": 78.5708806}, {"type": "node", "id": 2593908683, "lat": 17.4058981, "lon": 78.5913809}, {"type": "node", "id": 2593908685, "lat": 17.40581, "lon": 78.5914073}, {"type": "node", "id": 2593908687, "lat": 17.4058377, "lon": 78.5915092}, {"type": "node", "id": 2593908689, "lat": 17.4059258, "lon": 78.5914829}, {"type": "node", "id": 2706889270, "lat": 17.3645563, "lon": 78.5334923}, {"type": "node", "id": 2706889273, "lat": 17.3650319, "lon": 78.5335397}, {"type": "node", "id": 2706889276, "lat": 17.3650343, "lon": 78.5336571}, {"type": "node", "id": 2706889279, "lat": 17.3653157, "lon": 78.5337596}, {"type": "node", "id": 2706889282, "lat": 17.3647903, "lon": 78.534709}, {"type": "node", "id": 2706889285, "lat": 17.364488, "lon": 78.5346782}, {"type": "node", "id": 3259917634, "lat": 17.4222219, "lon": 78.5042709}, {"type": "node", "id": 3259917635, "lat": 17.4223103, "lon": 78.5032185}, {"type": "node", "id": 3259917636, "lat": 17.4223984, "lon": 78.5032517}, {"type": "node", "id": 3259917637, "lat": 17.4225158, "lon": 78.5018861}, {"type": "node", "id": 3259917638, "lat": 17.4225866, "lon": 78.5046247}, {"type": "node", "id": 3259919819, "lat": 17.3953582, "lon": 78.5017416}, {"type": "node", "id": 3259919820, "lat": 17.395606, "lon": 78.5003677}, {"type": "node", "id": 3259919821, "lat": 17.3957086, "lon": 78.4993981}, {"type": "node", "id": 3259919822, "lat": 17.3956695, "lon": 78.5025333}, {"type": "node", "id": 3259919823, "lat": 17.3960319, "lon": 78.502881}, {"type": "node", "id": 3259919824, "lat": 17.3960992, "lon": 78.5029174}, {"type": "node", "id": 3259919825, "lat": 17.3961238, "lon": 78.4989226}, {"type": "node", "id": 3259919826, "lat": 17.3963094, "lon": 78.5029846}, {"type": "node", "id": 3259919827, "lat": 17.396476, "lon": 78.4994843}, {"type": "node", "id": 3259919828, "lat": 17.3966922, "lon": 78.5019221}, {"type": "node", "id": 3259919829, "lat": 17.3967925, "lon": 78.5018486}, {"type": "node", "id": 3259919830, "lat": 17.3968844, "lon": 78.4998427}, {"type": "node", "id": 3259919831, "lat": 17.3969712, "lon": 78.5008857}, {"type": "node", "id": 3259919832, "lat": 17.3970004, "lon": 78.5014588}, {"type": "node", "id": 3259919833, "lat": 17.397354, "lon": 78.5001583}, {"type": "node", "id": 3259919981, "lat": 17.423659, "lon": 78.5053207}, {"type": "node", "id": 3259919983, "lat": 17.4237189, "lon": 78.5019831}, {"type": "node", "id": 3259919985, "lat": 17.4239802, "lon": 78.5021885}, {"type": "node", "id": 3388737434, "lat": 17.3967128, "lon": 78.5191458}, {"type": "node", "id": 3388737435, "lat": 17.3965944, "lon": 78.5190767}, {"type": "node", "id": 3388737436, "lat": 17.3965549, "lon": 78.5191592}, {"type": "node", "id": 3388737437, "lat": 17.39667, "lon": 78.5192306}, {"type": "node", "id": 3390837564, "lat": 17.3940456, "lon": 78.5104248, "tags": {"amenity": "hospital"}}, {"type": "node", "id": 3506878894, "lat": 17.44165, "lon": 78.5218514, "tags": {"addr:district": "Hyderabad", "addr:full": "Sai Ranga Towers, North Lallaguda, Tukaram Gate", "addr:postcode": "500026", "addr:state": "Telangana", "amenity": "hospital", "building": "yes", "email": "meenahospital@yahoo.com", "name": "Meena Hospital", "phone": "040 2773 0674", "source": "OpenGovernmentData", "website": "www.meenahospital.in"}}, {"type": "node", "id": 3533084115, "lat": 17.4289946, "lon": 78.5120703, "tags": {"addr:district": "Hyderabad", "addr:full": "H. No: 11-4-523, Near Gandhi Statue and Chilkalguda Bus Stop, Chilkalguda, Secunderabad", "addr:postcode": "500025", "addr:state": "Telangana", "amenity": "hospital", "contact:email": "info@lifespring.in", "contact:phone": "+91 7893851613", "healthcare": "hospital", "name": "Life Spring Hospitals", "source": "OpenGovernmentData"}}, {"type": "node", "id": 3617223289, "lat": 17.4502067, "lon": 78.5350026}, {"type": "node", "id": 3617223292, "lat": 17.4502139, "lon": 78.5349168}, {"type": "node", "id": 3617223522, "lat": 17.450312, "lon": 78.5350123}, {"type": "node", "id": 3617223525, "lat": 17.4503191, "lon": 78.5349265}, {"type": "node", "id": 3617224045, "lat": 17.4507987, "lon": 78.5340616}, {"type": "node", "id": 3617224055, "lat": 17.4509845, "lon": 78.533685}, {"type": "node", "id": 3617224234, "lat": 17.4512422, "lon": 78.5338443}, {"type": "node", "id": 3617245033, "lat": 17.4215739, "lon": 78.5043259}, {"type": "node", "id": 3617245040, "lat": 17.4215929, "lon": 78.5042069}, {"type": "node", "id": 3617245100, "lat": 17.421742, "lon": 78.5043554}, {"type": "node", "id": 3617245110, "lat": 17.421761, "lon": 78.5042364}, {"type": "node", "id": 3619549990, "lat": 17.4349313, "lon": 78.5065075}, {"type": "node", "id": 3619550003, "lat": 17.4350139, "lon": 78.5067982}, {"type": "node", "id": 3619550048, "lat": 17.4354726, "lon": 78.5063385}, {"type": "node", "id": 3619550068, "lat": 17.4355552, "lon": 78.5066292}, {"type": "node", "id": 3628246393, "lat": 17.4000225, "lon": 78.5407192}, {"type": "node", "id": 3628246395, "lat": 17.4000362, "lon": 78.5408232}, {"type": "node", "id": 3628246431, "lat": 17.4002331, "lon": 78.5406888}, {"type": "node", "id": 3628246433, "lat": 17.4002467, "lon": 78.5407928}, {"type": "node", "id": 3630403304, "lat": 17.3869267, "lon": 78.526213}, {"type": "node", "id": 3630403308, "lat": 17.3869682, "lon": 78.5261069}, {"type": "node", "id": 3630403309, "lat": 17.3869748, "lon": 78.5262337}, {"type": "node", "id": 3630403310, "lat": 17.3869876, "lon": 78.5262485}, {"type": "node", "id": 3630403312, "lat": 17.3870164, "lon": 78.5261276}, {"type": "node", "id": 3630403313, "lat": 17.3870272, "lon": 78.5261311}, {"type": "node", "id": 3630403314, "lat": 17.3870486, "lon": 78.5262711}, {"type": "node", "id": 3630403316, "lat": 17.3870883, "lon": 78.5261538}, {"type": "node", "id": 3658594189, "lat": 17.4476651, "lon": 78.5091106}, {"type": "node", "id": 3658594191, "lat": 17.4477135, "lon": 78.5087658}, {"type": "node", "id": 3658594202, "lat": 17.4478774, "lon": 78.5091563}, {"type": "node", "id": 3658594206, "lat": 17.4479283, "lon": 78.5089814}, {"type": "node", "id": 3658594220, "lat": 17.448006, "lon": 78.5088077}, {"type": "node", "id": 4146349126, "lat": 17.4394356, "lon": 78.5049106}, {"type": "node", "id": 4146349129, "lat": 17.4394931, "lon": 78.5044654}, {"type": "node", "id": 4146349142, "lat": 17.439641, "lon": 78.5047977}, {"type": "node", "id": 4146349144, "lat": 17.4396667, "lon": 78.5049434}, {"type": "node", "id": 4146349145, "lat": 17.4396805, "lon": 78.504492}, {"type": "node", "id": 4146349146, "lat": 17.4396847, "lon": 78.5048039}, {"type": "node", "id": 4146661495, "lat": 17.4402051, "lon": 78.5049218}, {"type": "node", "id": 4146661496, "lat": 17.4402935, "lon": 78.5041986}, {"type": "node", "id": 4146661497, "lat": 17.440712, "lon": 78.5049879}, {"type": "node", "id": 4146661498, "lat": 17.4408053, "lon": 78.5042691}, {"type": "node", "id": 4366549489, "lat": 17.4377225, "lon": 78.521976, "tags": {"amenity": "hospital", "healthcare": "hospital", "name:en": "South Central Railway Central Hospital Lallaguda"}}, {"type": "node", "id": 4715099192, "lat": 17.4439091, "lon": 78.5043433, "tags": {"addr:district": "Hyderabad", "addr:full": "241, Uma Plaza, Road No. 9, West Maredpally, Secunderabad", "addr:postcode": "500026", "addr:state": "Telangana", "alt_name": "Pushpagiri Vitreo Retinal Institute", "amenity": "hospital", "contact:email": "pvri.india@gmail.com", "contact:phone": "040-27804949/5959", "healthcare": "hospital", "name": "Pushpagiri Eye Institute", "shop": "optician", "source": "OpenGovernmentData", "website": "https://pvri.org"}}, {"type": "node", "id": 5538998266, "lat": 17.4027495, "lon": 78.5826543, "tags": {"addr:district": "Hyderabad", "addr:full": "Plot No 2&3,Beside Axis Bank, Peerzadiguda,Near Uppal.", "addr:postcode": "500039", "addr:state": "Telangana", "amenity": "hospital", "email": "info@sparkhospitals.com", "fax": "040 27206622", "name": "Spark Hospitals", "phone": "040-27206777/621", "source": "OpenGovernmentData", "website": "www.sparkhospitals.com"}}, {"type": "node", "id": 5539039096, "lat": 17.405751, "lon": 78.5871698, "tags": {"addr:district": "Hyderabad", "addr:full": "P. No. 6, H. No. 3-13/2, Mallikarjuna Nagar, Opposite Uppal Bus Depot, Peerzadiguda, Ghatkesar Mdl", "addr:postcode": "500092", "addr:state": "Telangana", "amenity": "hospital", "name": "Surya Hospital, Hyderabad", "source": "OpenGovernmentData"}}, {"type": "node", "id": 5608460083, "lat": 17.4227862, "lon": 78.5165968, "tags": {"addr:district": "Hyderabad", "addr:full": "12-11-253, Prasad Hospitals, Warasiguda, Secunderabad", "addr:postcode": "500061", "addr:state": "Telangana", "amenity": "hospital", "health_facility:type": "ENT; General Surgery; General Medicine; Plastic Surgery; Dermatology; Obstetrics and Gynaecology; Infertility and IVF; Paediatrics; Orthopedics and Trauma; Anesthesia and Critical Care", "healthcare:speciality": "Ultrasound Workup; Human Embryo Biopsy; Intraterine Insemination IUI ; In Vitro Fertilization IVF ; Sperm Retrieval Assisted Hatching; Blastocyst Culture; Egg Donation; Embryo Donation", "medical_system": "Allopathic", "name": "Sri Devi Maternity & Nursing Home", "operator:type": "private", "phone": "040 27509124; 040 27500143", "source": "OpenGovernmentData"}}, {"type": "node", "id": 5763499578, "lat": 17.4124431, "lon": 78.5839032}, {"type": "node", "id": 5763499579, "lat": 17.4123356, "lon": 78.5839002}, {"type": "node", "id": 5763499580, "lat": 17.4123381, "lon": 78.5838019}, {"type": "node", "id": 5763499581, "lat": 17.4124456, "lon": 78.583805}, {"type": "node", "id": 5773420134, "lat": 17.446158, "lon": 78.5383502, "tags": {"addr:district": "Hyderabad", "addr:full": "10-191/2, Vasanthpuri Colony, Malkajgiri", "addr:postcode": "500047", "addr:state": "Telangana", "amenity": "hospital", "name": "Anukrushna Hospitals", "source": "OpenGovernmentData"}}, {"type": "node", "id": 6372428649, "lat": 17.3709786, "lon": 78.5425682, "tags": {"addr:city": "Hyderabad", "addr:full": "Plot No:10 B& C, ROAD NO. 2 B, LAXMI NAGAR COLONY, KOTHAPET", "addr:postcode": "500035", "addr:state": "Telangana", "amenity": "hospital", "healthcare": "hospital", "healthcare:speciality": "gynaecology", "name": "sri sai womens hospital", "operator:type": "private", "phone": "+91 40 24050020", "source": "OpenGovernmentData"}}, {"type": "node", "id": 6375038698, "lat": 17.3703144, "lon": 78.5276104, "tags": {"addr:district": "Hyderabad", "addr:full": "4-85/3, Vikas Nagar, Lane Beside Rajadhani Theatre, Dilsukhnagar", "addr:postcode": "500060", "addr:state": "Telangana", "amenity": "hospital", "healthcare": "hospital", "name": "Siva Eye Hospital", "source": "OpenGovernmentData"}}, {"type": "node", "id": 6400644686, "lat": 17.3682666, "lon": 78.5135597, "tags": {"amenity": "hospital", "healthcare": "hospital"}}, {"type": "node", "id": 6477150039, "lat": 17.3767587, "lon": 78.5583415}, {"type": "node", "id": 6477150040, "lat": 17.3767732, "lon": 78.5581735}, {"type": "node", "id": 6477150041, "lat": 17.3767476, "lon": 78.5584698}, {"type": "node", "id": 6477150042, "lat": 17.3769249, "lon": 78.5584866}, {"type": "node", "id": 6477150043, "lat": 17.3769505, "lon": 78.5581902}, {"type": "node", "id": 6482123642, "lat": 17.3676358, "lon": 78.5404511, "tags": {"addr:district": "Hyderabad", "addr:full": "11-9-1, Vimal Complex, Opposite Kothapet Bus Stop, Dilsukhnagar", "addr:postcode": "500035", "addr:state": "Telangana", "amenity": "hospital", "contact:tollfree": "1800 1033 363", "fax": "040 40045671", "health_facility:type": "Optical Dispensing Showroom;Pharmacy;Laboratory Services", "healthcare": "hospital", "healthcare:speciality": "Glaucoma Services;Retina Services;Oculoplasty Services;Strabismus and Neurophthalmology Services;Cornea Services;Contact Lens Clinic;Low Visual Aid Clinic", "medical_system": "Allopathic", "name": "Sree Netralaya Eye Hospital and Laser Centre", "operator:type": "private", "phone": "040 40045670", "source": "OpenGovernmentData", "website": "https://sreenetralaya.org/"}}, {"type": "node", "id": 6484699042, "lat": 17.447062, "lon": 78.5082445, "tags": {"addr:district": "Hyderabad", "addr:full": "Road No.4, West Marredpally, Secunderabad", "addr:postcode": "500026", "addr:state": "Telangana", "amenity": "hospital", "email": "geethahospitals@gmail.com", "fax": "040 27716287", "name": "Geetha Multi Speciality Hospital", "phone": "040-27800703; 040-27801272; 040-27802138", "source": "OpenGovernmentData", "website": "https://www.geethahospitals.com/"}}, {"type": "node", "id": 6484704654, "lat": 17.3987452, "lon": 78.5069785, "tags": {"addr:district": "Hyderabad", "addr:full": "H.No.2-1-514/D, Nallakunta", "addr:postcode": "500044", "addr:state": "Telangana", "amenity": "hospital", "name": "Amar Maternity Nursing Home", "source": "OpenGovernmentData"}}, {"type": "node", "id": 6484965004, "lat": 17.3942993, "lon": 78.5079373, "tags": {"addr:district": "Hyderabad", "addr:full": "2-2-1167/11/1/A, Tilak Nagar Main Road", "addr:postcode": "500044", "addr:state": "Telangana", "amenity": "hospital", "name": "Kishan Rao Hospital", "source": "OpenGovernmentData"}}, {"type": "node", "id": 6485236733, "lat": 17.4500557, "lon": 78.5115261, "tags": {"addr:district": "Hyderabad", "addr:full": "Plot No 23 & 24, Sanjeev Hosping Colony East Marredpally", "addr:postcode": "500026", "addr:state": "Telangana", "amenity": "hospital", "name": "Tanvi Eye Center", "source": "OpenGovernmentData"}}, {"type": "node", "id": 6485458540, "lat": 17.4017218, "lon": 78.5756557, "tags": {"addr:district": "Hyderabad", "addr:full": "Survey Number 93/2 and 125, Opposite Bharath Petrol Pump, Warangal Highway Mainroad, Shanthi Nagar, Uppal", "addr:postcode": "500039", "addr:state": "Telangana", "amenity": "hospital", "email": "uppal@adityahospital.com", "fax": "040 33855644", "health_facility:type": "Clinical Services;Diagnostic Services;Laboratory Services and Transfusion Services;Pharmacy;Ambulance Services;Dietetics;Physiotherapy;Laboratory Service", "healthcare:speciality": "Cardiology;Nephrology;Orthopaedics;Internal Medicine;Critical Care;Radiology;General Medicine;Gastroenterology;Endocrinalogy;Dermatology;Pulmonology;Pediatrics", "medical_system": "Allopathic", "name": "Aditya Hospital, Uppal", "operator:type": "private", "phone": "040 33855555", "source": "OpenGovernmentData", "website": "https://www.adityahospital.com/"}}, {"type": "node", "id": 6485873602, "lat": 17.4350761, "lon": 78.5028817, "tags": {"addr:district": "Hyderabad", "addr:full": "9-4-269, Regimental Bazar, Opp Main Gate", "addr:postcode": "500025", "addr:state": "Telangana", "amenity": "hospital", "healthcare": "hospital", "name": "Saluja Hospital", "source": "OpenGovernmentData"}}, {"type": "node", "id": 6486935781, "lat": 17.4255423, "lon": 78.5340929, "tags": {"addr:district": "Hyderabad", "addr:full": "401 to 404, 4th Floor, Tara Tycoon Tower, Opp. Aradhana Theatre, Tarnaka", "addr:postcode": "500017", "addr:state": "Telangana", "amenity": "hospital", "name": "Anand Vitreo Retina Institute Pvt Ltd", "source": "OpenGovernmentData"}}, {"type": "node", "id": 6486957243, "lat": 17.4028902, "lon": 78.5828997, "tags": {"addr:district": "Hyderabad", "addr:full": "Beside ICICI Bank, Main Road, Peerzadiguda, Boduppal", "addr:state": "Telangana", "amenity": "hospital", "contact:mobile": "9849554545", "email": "boduppal@ankurahospital.com", "medical_system": "Allopathic", "name": "Ankura Hospital, Boduppal", "operator:type": "private", "phone": "040 49799999", "source": "OpenGovernmentData", "website": "https://www.ankurahospital.com/"}}, {"type": "node", "id": 6487102159, "lat": 17.3760514, "lon": 78.5569091, "tags": {"addr:district": "Hyderabad", "addr:full": "Plot No. 21, Nagole", "addr:postcode": "500035", "addr:state": "Telangana", "amenity": "hospital", "fax": "24221935", "name": "SRI LAXMI MULTI SPECIALITY HOSPITAL, LAPROSCOPIC AND RESEARCH CENTRE", "source": "OpenGovernmentData"}}, {"type": "node", "id": 6487122129, "lat": 17.3974654, "lon": 78.5366464, "tags": {"addr:district": "Hyderabad", "addr:full": "3-9-9-10/14, Saradhanagar, Ramantapur", "addr:postcode": "500013", "addr:state": "Telangana", "amenity": "hospital", "name": "Anantha Lakshmi Kidney and Multi Specialty Hospital", "source": "OpenGovernmentData"}}, {"type": "node", "id": 6487281382, "lat": 17.4502892, "lon": 78.5099416, "tags": {"addr:district": "Secunderabad", "addr:full": "1st & 2nd Floor, Gude\u2019s Plaza, Above ICICI Bank, #77, Seshachala Colony, East Marredpally main Road", "addr:postcode": "500026", "addr:state": "Telangana", "amenity": "hospital", "name": "NephroPlus Dialysis Centre", "phone": "040-40063765", "source": "OpenGovernmentData", "website": "https://www.nephroplus.com/"}}, {"type": "node", "id": 6487326328, "lat": 17.4232391, "lon": 78.5163756, "tags": {"addr:district": "Hyderabad", "addr:full": "H.No.12-11-251, Namalagundu, Seethafalmandi", "addr:postcode": "500061", "addr:state": "Telangana", "amenity": "hospital", "name": "Sri Tirumala Maternity and Nursing Home", "source": "OpenGovernmentData"}}, {"type": "node", "id": 6487635185, "lat": 17.3682886, "lon": 78.5220303, "tags": {"addr:city": "Hyderabad", "addr:district": "Hyderabad", "addr:full": "H.No: 16-11-739/1 & 2, Kamala Complex, Dilsukhnagar", "addr:postcode": "500060", "addr:state": "Telangana", "alt_name": "KAMALA HOSPITAL", "amenity": "hospital", "contact:phone": "04024152266 ; 24152277 ; 24150698;3753053", "healthcare": "hospital", "name": "SRESHTA SRI KAMALA HOSPITALS", "operator:type": "private", "source": "OpenGovernmentData"}}, {"type": "node", "id": 6487654694, "lat": 17.4549634, "lon": 78.5087728, "tags": {"addr:district": "Hyderabad", "addr:full": "Plot No. 18, Indrapuri Railway Colony, West Marredpally", "addr:postcode": "500026", "addr:state": "Telangana", "amenity": "hospital", "fax": "040 27712131", "name": "Sree Maruthi Nursing Home", "source": "OpenGovernmentData"}}, {"type": "node", "id": 6487677480, "lat": 17.3695416, "lon": 78.5213698, "tags": {"addr:district": "Hyderabad", "addr:full": "Near Andhra Bank ATM,Indira Nagar,Dilsukhnagar", "addr:postcode": "500036", "addr:state": "Telangana", "amenity": "hospital", "healthcare": "hospital", "name": "Shashi Hospital", "source": "OpenGovernmentData"}}, {"type": "node", "id": 6487777184, "lat": 17.3771559, "lon": 78.557005, "tags": {"addr:district": "Hyderabad", "addr:full": "Plot No. 65, Near Bank of Baroda, Nagole Cross Road", "addr:postcode": "500035", "addr:state": "Telangana", "amenity": "hospital", "fax": "040 24051203", "name": "Bhavya Hospital", "source": "OpenGovernmentData"}}, {"type": "node", "id": 6487920155, "lat": 17.421726, "lon": 78.5041333, "tags": {"addr:district": "Hyderabad", "addr:full": "6-1-103&109, Padmaraonagar, Secunderabad", "addr:postcode": "500025", "addr:state": "Telangana", "amenity": "hospital", "name": "Pulse Hospitals", "source": "OpenGovernmentData"}}, {"type": "node", "id": 6488483046, "lat": 17.3973433, "lon": 78.5603427, "tags": {"addr:district": "Hyderabad", "addr:full": "Adjacent to Raj Lakshmi Theatre, Rajnagar Colony, Uppal 'X' Roads", "addr:postcode": "500039", "addr:state": "Telangana", "amenity": "hospital", "name": "Krishna Multi Speciality Hospital", "source": "OpenGovernmentData"}}, {"type": "node", "id": 6489610677, "lat": 17.4002374, "lon": 78.5405061, "tags": {"addr:district": "Hyderabad", "addr:full": "Plot Number 4, 5, 14 and 15, Pragati Nagar, Ramanthapur, Opposite Ramanthapur Lake", "addr:postcode": "500013", "addr:state": "Telangana", "amenity": "hospital", "email": "contact@matrixhospital.com", "healthcare:speciality": "Medical Specialities;Surgical Specialities;Plastic Surgery;Obstetrics and Gynaecology;Physiotherapy;Dietitics;Dentistry;Bariatric Surgery", "medical_system": "Allopathic", "name": "Matrix Hospital", "operator:type": "private", "phone": "040 27035678; 040 64647575; 040 27030101", "source": "OpenGovernmentData", "website": "http://matrixhospital.com"}}, {"type": "node", "id": 6489762038, "lat": 17.397102, "lon": 78.5319123, "tags": {"addr:district": "Hyderabad", "addr:full": "3-11-48, Opp. Govt Homeo College, Ramanthapur, Rangareddy", "addr:postcode": "500013", "addr:state": "Telangana", "amenity": "hospital", "name": "Shree Jaya Krishna Hospital", "source": "OpenGovernmentData"}}, {"type": "node", "id": 6489835094, "lat": 17.401288, "lon": 78.5648384, "tags": {"addr:district": "Hyderabad", "addr:full": "Near Gandhi Statue, Uppal Main Road", "addr:postcode": "500039", "addr:state": "Telangana", "amenity": "hospital", "name": "Sathya Hospital", "source": "OpenGovernmentData"}}, {"type": "node", "id": 6490016089, "lat": 17.373217, "lon": 78.5032857, "tags": {"addr:district": "Hyderabad", "addr:full": "H.No.16-2-701/51/1, Opposite Mahboob Mansion, Malakpet", "addr:postcode": "500036", "addr:state": "Telangana", "amenity": "hospital", "fax": "24540258", "healthcare": "hospital", "name": "Susrutha Hospital", "source": "OpenGovernmentData"}}, {"type": "node", "id": 6490857331, "lat": 17.4281006, "lon": 78.5170508, "tags": {"addr:district": "Hyderabad", "addr:full": "11-1-15, Seethaphalmandi", "addr:postcode": "500061", "addr:state": "Telangana", "amenity": "hospital", "healthcare": "hospital", "name": "Krishna Maternity And Nursing Home", "source": "OpenGovernmentData"}}, {"type": "node", "id": 6491342836, "lat": 17.410791, "lon": 78.5434699, "tags": {"addr:district": "Hyderabad", "addr:full": "4-96/2, Street No. 8, Sneha Nagar Colony, Habsiguda", "addr:postcode": "500007", "addr:state": "Telangana", "amenity": "hospital", "fax": "040 27154758", "name": "Rajagiri Hospitals", "source": "OpenGovernmentData"}}, {"type": "node", "id": 6491362879, "lat": 17.3937202, "lon": 78.5095339, "tags": {"addr:district": "Hyderabad", "addr:full": "2-2-1105/10/A, Tilak Nagar", "addr:postcode": "500044", "addr:state": "Telangana", "amenity": "hospital", "name": "Ramana Maternity Nursing Home", "source": "OpenGovernmentData"}}, {"type": "node", "id": 6494385067, "lat": 17.4173069, "lon": 78.5412021, "tags": {"addr:district": "Hyderabad", "addr:full": "Kakatiya Nagar, Habsiguda", "addr:postcode": "500007", "addr:state": "Telangana", "amenity": "hospital", "name": "Habsiguda Poly Clinic and Nursing Home", "source": "OpenGovernmentData"}}, {"type": "node", "id": 6494422626, "lat": 17.4458107, "lon": 78.504999, "tags": {"addr:city": "Hyderabad", "addr:district": "Rangareddy", "addr:full": "10-2-256, West Maredpally", "addr:postcode": "500026", "addr:state": "Telangana", "amenity": "hospital", "contact:phone": "04066329777; 27800716", "email": "secunderabadnursinghome@gmail.com", "fax": "27800717", "name": "SECUNDERABAD NURSING HOME", "operator:type": "private", "phone": "04040061181", "source": "OpenGovernmentData"}}, {"type": "node", "id": 6494447237, "lat": 17.3974917, "lon": 78.5339528, "tags": {"addr:district": "Hyderabad", "addr:full": "H.No. 3-10-4/B/1, Near St. Joseph's School, Lane Beside Bharat Petrol Pump, Gokhale Nagar, Ramantapur", "addr:postcode": "500013", "addr:state": "Telangana", "amenity": "hospital", "fax": "040 27035444", "name": "Ramantapur Hospital", "source": "OpenGovernmentData"}}, {"type": "node", "id": 6494474204, "lat": 17.4097327, "lon": 78.5084336, "tags": {"addr:district": "Hyderabad", "addr:full": "1-9-49/B/1, Near E-Seva, Musheerabad, Ramnagar", "addr:postcode": "500020", "addr:state": "Telangana", "amenity": "hospital", "fax": "040-27628708", "name": "Sowmya Hospital", "source": "OpenGovernmentData"}}, {"type": "node", "id": 6495079282, "lat": 17.4466174, "lon": 78.5360288, "tags": {"addr:district": "Hyderabad", "addr:full": "9-120, North Venkateswara Nagar, Sairam Theatre, Malkagiri", "addr:postcode": "500047", "addr:state": "Telangana", "amenity": "hospital", "name": "Santoshi Maternity Hospital", "source": "OpenGovernmentData"}}, {"type": "node", "id": 6496578004, "lat": 17.4171112, "lon": 78.5440868, "tags": {"addr:district": "Hyderabad", "addr:full": "7-102/7, Sandhya Enclave, 1st Floor, Habsiguda", "addr:postcode": "500007", "addr:state": "Telangana", "amenity": "hospital", "fax": "040 27177618", "name": "Neo Vision Eye Care and Laser Center", "phone": "040-40122177", "source": "OpenGovernmentData", "website": "https://neovisioneyecare.in/"}}, {"type": "node", "id": 6496940849, "lat": 17.4348983, "lon": 78.5429897, "tags": {"addr:district": "Hyderabad", "addr:full": "Lalapet,Tarnaka", "addr:postcode": "500017", "addr:state": "Telangana", "amenity": "hospital", "name": "Manjary Multispeciality Hospital", "source": "OpenGovernmentData"}}, {"type": "node", "id": 6496953497, "lat": 17.4465502, "lon": 78.5133715, "tags": {"addr:district": "Hyderabad", "addr:full": "10-3-32/9/32, Near Tagore's Home Junior College, East Marredpally", "addr:postcode": "500026", "addr:state": "Telangana", "amenity": "hospital", "name": "Taraporewalla Nursing Home", "source": "OpenGovernmentData"}}, {"type": "node", "id": 6496960846, "lat": 17.4478066, "lon": 78.508915, "tags": {"addr:district": "Hyderabad", "addr:full": "10-3-4, Entrenchment Road, East Marredpally, Opp Playground, Secunderabad,", "addr:postcode": "500026", "addr:state": "Telangana", "amenity": "hospital", "email": "info@shenoyhospitals.com", "name": "Shenoy Nursing Home", "phone": "040 4151 9999", "source": "OpenGovernmentData", "website": "https://www.shenoyhospitals.com/"}}, {"type": "node", "id": 6497172349, "lat": 17.3692242, "lon": 78.5189867, "tags": {"addr:district": "Hyderabad", "addr:full": "No. 16-11-741/10/G/1, Moosarambagh, Saidabad Mandal, Dilsukh Nagar", "addr:postcode": "500060", "addr:state": "Telangana", "amenity": "hospital", "fax": "040 27760225", "healthcare": "hospital", "medical_system": "Allopathic", "name": "Vasan Healthcare", "name:te": "\u0c35\u0c3e\u0c38\u0c28\u0c4d \u0c39\u0c46\u0c32\u0c4d\u0c24\u0c4d \u0c15\u0c47\u0c30\u0c4d", "operator:type": "private", "phone": "040 30141200", "source": "OpenGovernmentData", "website": "https://vasaneye.com/"}}, {"type": "node", "id": 6497354554, "lat": 17.4097647, "lon": 78.5441056, "tags": {"addr:district": "Hyderabad", "addr:full": "8-12-65, Street No 8, Habsiguda", "addr:postcode": "500007", "addr:state": "Telangana", "amenity": "hospital", "name": "Siris Hospital", "source": "OpenGovernmentData"}}, {"type": "node", "id": 6497366546, "lat": 17.3937938, "lon": 78.5302003, "tags": {"addr:district": "Hyderabad", "addr:full": "3-12-58/2, Srinivasapuram Road, Ganesh Nagar, Ramanthapur, Opp T. V. Studio", "addr:postcode": "500013", "addr:state": "Telangana", "amenity": "hospital", "contact:phone": "+91 8686873245; 040 27033300", "name": "Janani Hospital", "source": "OpenGovernmentData", "website": "http://jananiihospital.com"}}, {"type": "node", "id": 6497571978, "lat": 17.3688485, "lon": 78.5343739, "tags": {"addr:district": "Hyderabad", "addr:full": "2-41/5, Prabhath Nagar Colony, Chaitanyapuri", "addr:postcode": "500060", "addr:state": "Telangana", "amenity": "hospital", "fax": "040 24054116", "healthcare": "hospital", "name": "Oarchid Hospital", "source": "OpenGovernmentData"}}, {"type": "node", "id": 6497611600, "lat": 17.43595, "lon": 78.5425988, "tags": {"addr:district": "Hyderabad", "addr:full": "12-1-371/1, Lalapet, Secunderabad", "addr:postcode": "500017", "addr:state": "Telangana", "amenity": "hospital", "name": "Sri Santosh Hospital", "source": "OpenGovernmentData"}}, {"type": "node", "id": 6497913444, "lat": 17.3682105, "lon": 78.5203962, "tags": {"addr:district": "Rangareddy", "addr:full": "Gaddi Annaram Cross Road, Dilsukh Nagar", "addr:postcode": "500060", "addr:state": "Telangana", "amenity": "hospital", "healthcare": "hospital", "name": "Nikhil Hospital", "name:te": "\u0c28\u0c3f\u0c16\u0c3f\u0c32\u0c4d \u0c39\u0c3e\u0c38\u0c4d\u0c2a\u0c3f\u0c1f\u0c32\u0c4d", "source": "OpenGovernmentData"}}, {"type": "node", "id": 6498031548, "lat": 17.4381142, "lon": 78.5049681, "tags": {"addr:district": "Hyderabad", "addr:full": "10-3-72, St. John's Road, Opp Keyes High School, Chilakalguda, Secunderabad", "addr:postcode": "500025", "addr:state": "Telangana", "amenity": "hospital", "healthcare": "hospital", "name": "Shubhodaya Nursing Home", "source": "OpenGovernmentData"}}, {"type": "node", "id": 6503145065, "lat": 17.3709739, "lon": 78.5147515, "tags": {"addr:district": "Hyderabad", "addr:full": "#16-11-310/8/B, MOOSARAMBAGH, MALAKPET, HYDERABAD", "addr:postcode": "500036", "addr:state": "Telangana", "amenity": "hospital", "email": "INFO@HEGDEHOSPITAL.COM", "healthcare": "hospital", "name": "Hedge Maternity and Nursing Home", "phone": "8880 74 74 74", "source": "OpenGovernmentData", "website": "HTTP://HEGDEHOSPITAL.COM/"}}, {"type": "node", "id": 6503302425, "lat": 17.3674854, "lon": 78.5358477, "tags": {"addr:district": "Hyderabad", "addr:full": "Opposite Kothapet Fruit Market, Near Miraj Cinemas, Krishna Veni Nagar Colony, Kothapet, Sri Sai Shivani Complex, HUDA Complex, Saroornagar.", "addr:postcode": "500035", "addr:state": "Telangana", "amenity": "hospital", "fax": "040 65126514", "healthcare": "hospital", "name": "Induss Hospitals", "source": "OpenGovernmentData"}}, {"type": "node", "id": 6503660417, "lat": 17.4002489, "lon": 78.5665409, "tags": {"addr:district": "Hyderabad", "addr:full": "Vijayapuri Colony, Uppal", "addr:postcode": "500039", "addr:state": "Telangana", "amenity": "hospital", "healthcare": "hospital", "healthcare:speciality": "paediatrics", "name": "Ammaji Childrens Hospital", "source": "OpenGovernmentData"}}, {"type": "node", "id": 6504077179, "lat": 17.3946084, "lon": 78.5304907, "tags": {"addr:district": "Hyderabad", "addr:full": "3-12-51, Ganesh Nagar, Opp. TV Studio, Ramanthapur", "addr:postcode": "500013", "addr:state": "Telangana", "amenity": "hospital", "name": "Sri Krishna Swathi Children's Hospital", "source": "OpenGovernmentData"}}, {"type": "node", "id": 6504123689, "lat": 17.398678, "lon": 78.5136256, "tags": {"addr:district": "Hyderabad", "addr:full": "#3-2-312, Central Excise Colony, Shivam Road, Bagh Amberpet", "addr:postcode": "500013", "addr:state": "Telangana", "amenity": "hospital", "name": "Shantilal Navodaya Multi Speciality Hospital", "source": "OpenGovernmentData"}}, {"type": "node", "id": 6504150659, "lat": 17.3941335, "lon": 78.5099286, "tags": {"addr:district": "Hyderabad", "addr:full": "2-2-1108/1/A/2, Tilak Nagar", "addr:postcode": "500044", "addr:state": "Telangana", "amenity": "hospital", "healthcare": "hospital", "name": "Tilaknagar ABHAYA-BBC HOSPITAL", "source": "OpenGovernmentData"}}, {"type": "node", "id": 6505167632, "lat": 17.4004716, "lon": 78.5666549, "tags": {"addr:city": "Hyderabad", "addr:district": "Hyderabad", "addr:full": "Uppal Main Road", "addr:postcode": "500039", "addr:state": "Telangana", "amenity": "hospital", "healthcare": "hospital", "name": "Shiva Sai Hospital", "source": "OpenGovernmentData"}}, {"type": "node", "id": 6505207797, "lat": 17.3727325, "lon": 78.509658, "tags": {"addr:district": "Hyderabad", "addr:full": "16-11-16-45/B, Beside HDFC Bank, Saleemnagar Colony, Malakpet", "addr:postcode": "500036", "addr:state": "Telangana", "amenity": "hospital", "contact:mobile": "9849018333", "contact:phone": "040 24546057; 040 66789424", "healthcare": "hospital", "name": "K.G.H The Family Hospital", "source": "OpenGovernmentData"}}, {"type": "node", "id": 6505370525, "lat": 17.3724317, "lon": 78.5077295, "tags": {"addr:district": "Hyderabad", "addr:full": "16-2-705/9/12/A-F, Beside Hanuman Temple, opp Reliance Trends, New Malakpet Ganj", "addr:postcode": "500036", "addr:state": "Telangana", "amenity": "hospital", "healthcare": "hospital", "name": "Spark Eye Care Hospital", "phone": "040 24542000", "source": "OpenGovernmentData", "website": "https://www.sparkhealth.in/"}}, {"type": "node", "id": 6505386986, "lat": 17.3719492, "lon": 78.5358806, "tags": {"addr:district": "Hyderabad", "addr:full": "1-54, Lane Beside Food World, Chaitanyapuri", "addr:postcode": "500060", "addr:state": "Telangana", "amenity": "hospital", "name": "Ganga Orthopaedic and Maternity Hospital", "source": "OpenGovernmentData"}}, {"type": "node", "id": 6505499664, "lat": 17.3689017, "lon": 78.5168678, "tags": {"addr:district": "Hyderabad", "addr:full": "H.No. 16-2-741 / 2, A.B. Colony, Asmangadh, Malakpet", "addr:postcode": "500036", "addr:state": "Telangana", "amenity": "hospital", "healthcare": "hospital", "name": "Midas ENT Head and Neck Super Speciality Hospital", "source": "OpenGovernmentData"}}, {"type": "node", "id": 6505503898, "lat": 17.45035, "lon": 78.5034782, "tags": {"addr:district": "Hyderabad", "addr:full": "Street No:4, Road No:7, New Muncipal Park, West Maredpally", "addr:postcode": "500026", "addr:state": "Telangana", "amenity": "hospital", "name": "Lions Patny Hospital", "source": "OpenGovernmentData"}}, {"type": "node", "id": 6505556901, "lat": 17.4030515, "lon": 78.5100617, "tags": {"addr:district": "Hyderabad", "addr:full": "S.K.Mall, Opposite Durga Bhai Deshmukh Hospital, Above Bata Showroom, Vidyanagar, O.U. Road", "addr:postcode": "500044", "addr:state": "Telangana", "amenity": "hospital", "contact:email": "neobbc@gmail.com", "contact:mobile": "8008804684", "emergency": "yes", "emergency_telephone_code": "08008804685; 08008804686; 040 27663232; 040 27663535", "fax": "040 27661020", "healthcare:speciality": "Pediatric Intensive Care Services;Neonatal Intensive Care Services;Pediatric Surgical Services", "medical_system": "Allopathic", "name": "NEO BBC Childrens Hospital", "opening_hours": "24/7", "operator:type": "private", "source": "OpenGovernmentData", "website": "www.neobbc.com/"}}, {"type": "node", "id": 6505593241, "lat": 17.3900901, "lon": 78.5314, "tags": {"addr:district": "Hyderabad", "addr:full": "Opposite Anand Jyothi Hogh School, Srinivasapuram", "addr:postcode": "500013", "addr:state": "Telangana", "amenity": "hospital", "name": "Sri Gayatri Hospital", "source": "OpenGovernmentData"}}, {"type": "node", "id": 6505613357, "lat": 17.4261322, "lon": 78.5324286, "tags": {"addr:district": "Hyderabad", "addr:full": "12-13-64, Beside Tarnaka Flyover, Tarnaka", "addr:postcode": "500017", "addr:state": "Telangana", "amenity": "hospital", "email": "info@surakshachildhospital.com", "emergency_telephone_code": "040 27016600;040 27016611;040 27016622", "fax": "040 2701 6623", "health_facility:type": "24 Hours Ambulance Services;Round The Clock Pharmacy;Imaging;Diagnostic Services;Antenatal Counselling;Neonatal and Paediatric Surgery;Neonatal Intensive Care Unit NICU ;Paediatric Intensive Care Unit PICU ;24 Hours Emergency Services;Out Patient Services", "healthcare:speciality": "multi specialty", "medical_system": "Allopathic", "name": "Suraksha Childrens Hospital", "operator:type": "private", "phone": "040 2706600;040 2706611;040 2706622", "source": "OpenGovernmentData", "website": "https://www.surakshachildrenshospital.com/"}}, {"type": "node", "id": 6507570343, "lat": 17.4422795, "lon": 78.5043204, "tags": {"addr:district": "Hyderabad", "addr:full": "F-14, First Floor, Deepthi Apartments, Beside St.Ann's High School, S.P.Road", "addr:postcode": "500003", "addr:state": "Telangana", "amenity": "hospital", "contact:email": "contact@drgowd.com", "contact:mobile": "+91 8886664790", "contact:phone": "040 66338377; 040 66312447", "healthcare": "hospital", "name": "The Dental Venue Multi Speciality Hospital (unit of Dr.Gowd\u2019s)", "source": "OpenGovernmentData", "website": "https://www.drgowd.com/"}}, {"type": "node", "id": 6510205415, "lat": 17.3676268, "lon": 78.5508728, "tags": {"addr:district": "Hyderabad", "addr:full": "Road No. 5, Ramakrishnapuram, Kothapet", "addr:postcode": "500035", "addr:state": "Telangana", "amenity": "hospital", "name": "Hyma Children's Hospital", "source": "OpenGovernmentData"}}, {"type": "node", "id": 6510820223, "lat": 17.4505451, "lon": 78.5032415, "tags": {"addr:district": "Hyderabad", "addr:full": "Beside Lions Club Hospital, West Marredpally,Secunderabad", "addr:postcode": "500026", "addr:state": "Telangana", "amenity": "hospital", "name": "Basant Sahney Hospitals", "source": "OpenGovernmentData"}}, {"type": "node", "id": 6513267731, "lat": 17.4504779, "lon": 78.5062201, "tags": {"addr:district": "Hyderabad", "addr:full": "10-1-254, Near Check Post, West Marredpally", "addr:postcode": "500026", "addr:state": "Telangana", "amenity": "hospital", "fax": "040 27716646", "name": "Lions Dundoo Eye Institute", "source": "OpenGovernmentData"}}, {"type": "node", "id": 6518192361, "lat": 17.4183783, "lon": 78.5835349, "tags": {"addr:city": "Hyderabad", "addr:postcode": "500092", "addr:street": "West Hanuman Nagar", "amenity": "hospital", "emergency": "yes", "healthcare": "hospital", "healthcare:speciality": "general", "name": "RBM Multi-Speciality Hospital"}}, {"type": "node", "id": 6518297217, "lat": 17.4090144, "lon": 78.5864131, "tags": {"addr:city": "Hyderabad", "addr:postcode": "500092", "addr:street": "Mallikarjuna Nagar, Boduppal", "amenity": "hospital", "healthcare": "hospital", "healthcare:speciality": "paediatrics", "name": "AVI Clinic", "operator": "Dr Suman"}}, {"type": "node", "id": 6518592570, "lat": 17.4124176, "lon": 78.5838042}, {"type": "node", "id": 6518592571, "lat": 17.4124076, "lon": 78.5838039}, {"type": "node", "id": 6527832466, "lat": 17.4174357, "lon": 78.5118319, "tags": {"addr:district": "Hyderabad", "addr:full": "Near Raghav Garden, Padmarao Nagar, Secunderabad", "addr:postcode": "500061", "addr:state": "Telangana", "amenity": "hospital", "name": "Akshaya Care Multi Speciality Hospital", "source": "OpenGovernmentData"}}, {"type": "node", "id": 6527839627, "lat": 17.4150148, "lon": 78.5452451, "tags": {"addr:district": "Hyderabad", "addr:full": "Street No. 7, Near TVS Show Room and Habsiguda Metro station, Habsiguda", "addr:postcode": "500007", "addr:state": "Telangana", "amenity": "hospital", "name": "Dr.Padmaja Fertility Centre and Nursing Home", "source": "OpenGovernmentData"}}, {"type": "node", "id": 6528552348, "lat": 17.370156, "lon": 78.5320289, "tags": {"addr:district": "Hyderabad", "addr:full": "1-7-90, Chaitanyapuri", "addr:postcode": "500060", "addr:state": "Telangana", "amenity": "hospital", "healthcare": "hospital", "name": "Geeta Multispeciality Hospital", "source": "OpenGovernmentData"}}, {"type": "node", "id": 6528608362, "lat": 17.4227606, "lon": 78.5469769, "tags": {"addr:district": "Hyderabad", "addr:full": "Plot No. 7-44, Bapuji Nagar, Nacharam", "addr:postcode": "500076", "addr:state": "Telangana", "amenity": "hospital", "name": "Bapuji Maternity and Nursing Home", "source": "OpenGovernmentData"}}, {"type": "node", "id": 6528632311, "lat": 17.3700395, "lon": 78.5278568, "tags": {"addr:district": "Hyderabad", "addr:full": "Near Ganesh Function Hall, Beside Rajadhani Theatre Lane, Vikas Nagar", "addr:postcode": "500060", "addr:state": "Telangana", "amenity": "hospital", "healthcare": "hospital", "healthcare:speciality": "orthopaedics", "name": "Abinav Orthopedic Hospital", "source": "OpenGovernmentData"}}, {"type": "node", "id": 6530772004, "lat": 17.4524815, "lon": 78.5685701, "tags": {"addr:district": "Hyderabad", "addr:full": "3-5-85, Road No. 4, Krishna Nagar Colony, NFC Main Road, H B Colony, Moula Ali", "addr:postcode": "500040", "addr:state": "Telangana", "amenity": "hospital", "fixme": "Please verify the accurate position of the hospital as I have mapped the facility based on the address provided in Open Government Data", "name": "Dhanunjaya Nursing Home", "source": "OpenGovernmentData"}}, {"type": "node", "id": 6531352585, "lat": 17.4273708, "lon": 78.5517687, "tags": {"addr:district": "Hyderabad", "addr:full": "Near St. Peter's School, Raghavendra Nagar, Nacharam", "addr:postcode": "500076", "addr:state": "Telangana", "amenity": "hospital", "healthcare": "hospital", "healthcare:speciality": "general", "name": "Chandamama Hospital", "operator": "xyz", "operator:type": "private", "source": "OpenGovernmentData;local knowledge"}}, {"type": "node", "id": 6531745861, "lat": 17.369612, "lon": 78.5302386, "tags": {"addr:district": "Hyderabad", "addr:full": "Pochamma Temple Lane, Near Chaitanyapuri Bridge, Dilsukhnagar", "addr:postcode": "500060", "addr:state": "Telangana", "amenity": "hospital", "fax": "040 24041789", "healthcare": "hospital", "healthcare:speciality": "paediatrics", "name": "Lakshmi Children's Hospital", "source": "OpenGovernmentData"}}, {"type": "node", "id": 6531874857, "lat": 17.3692696, "lon": 78.5346776, "tags": {"addr:district": "Hyderabad", "addr:full": "Beside Fruit Market Road, Prabath Nagar, Chaitanyapuri, Dilsukhnagar", "addr:postcode": "500060", "addr:state": "Telangana", "amenity": "hospital", "contact:email": "info@gbrfertility.com", "contact:mobile": "+91 9248009789", "healthcare": "hospital", "name": "G.B.R. Hospital", "opening_hours": "Mo-Sa 08:00-17:00", "source": "OpenGovernmentData", "website": "https://www.gbrfertility.com"}}, {"type": "node", "id": 6532260599, "lat": 17.3696005, "lon": 78.5292421, "tags": {"addr:district": "Hyderabad", "addr:full": "H.No: 4-20/A, Near E Seva Lane, Vikas Nagar, Dilsukhnagar", "addr:postcode": "500060", "addr:state": "Telangana", "amenity": "hospital", "contact:phone": "040-24046464", "healthcare": "hospital", "name": "Manju Sudha Multispeciality Hospital", "source": "OpenGovernmentData"}}, {"type": "node", "id": 6532274757, "lat": 17.3693752, "lon": 78.5209313, "tags": {"addr:district": "Hyderabad", "addr:full": "#16-11-741/C/1/15, Near Reliance Fresh, Dilsukhnagar", "addr:postcode": "500036", "addr:state": "Telangana", "amenity": "hospital", "contact:email": "info@tkrikonhospital.com", "contact:phone": "040-66443355; 040-24058833", "healthcare": "hospital", "name": "TKR's IKON Hospital", "source": "OpenGovernmentData", "website": "http://www.tkrikonhospital.com"}}, {"type": "node", "id": 6532277404, "lat": 17.3665529, "lon": 78.535367, "tags": {"addr:district": "Hyderabad", "addr:full": "Lane Opposite Fruit Market, Dilsukhnagar", "addr:postcode": "500060", "addr:state": "Telangana", "amenity": "hospital", "healthcare": "hospital", "name": "Sri JRD Hospital", "source": "OpenGovernmentData"}}, {"type": "node", "id": 6532315949, "lat": 17.3716433, "lon": 78.5340057, "tags": {"addr:district": "Hyderabad", "addr:full": "2-45/1, Behind HP Petrol Bunk, Chaitanyapuri, Dilsukhnagar", "addr:postcode": "500060", "addr:state": "Telangana", "amenity": "hospital", "fax": "040 24045950", "name": "Raghava Hospital", "source": "OpenGovernmentData"}}, {"type": "node", "id": 6532327359, "lat": 17.3681674, "lon": 78.5267378, "tags": {"addr:district": "Hyderabad", "addr:full": "Beside R.S Brothers, Dilshuknagar", "addr:postcode": "500060", "addr:state": "Telangana", "amenity": "hospital", "healthcare": "hospital", "name": "Harsha Neuro and General Hospital", "source": "OpenGovernmentData"}}, {"type": "node", "id": 6532335482, "lat": 17.3689234, "lon": 78.5299851, "tags": {"addr:district": "Hyderabad", "addr:full": "2-127, Badam Complex, Beside Lakshmi Childrens Hospital", "addr:postcode": "500060", "addr:state": "Telangana", "amenity": "hospital", "healthcare": "hospital", "healthcare:speciality": "orthopaedics", "name": "Anurag Orthopedic and Multispecial Hospital", "source": "OpenGovernmentData"}}, {"type": "node", "id": 6532348899, "lat": 17.36803, "lon": 78.5206215, "tags": {"addr:district": "Hyderabad", "addr:full": "16-11-740/3/14, P.No. 32, Near Narayana Junior College, Gaddi Annaram 'X' Roads, Dilsukhnagar", "addr:postcode": "500060", "addr:state": "Telangana", "amenity": "hospital", "fax": "040 66106660", "healthcare": "hospital", "name": "Sigma Hospitals", "name:te": "\u0c38\u0c3f\u0c17\u0c4d\u0c2e\u0c3e \u0c39\u0c3e\u0c38\u0c4d\u0c2a\u0c3f\u0c1f\u0c32\u0c4d\u0c38\u0c4d", "source": "OpenGovernmentData"}}, {"type": "node", "id": 6532379590, "lat": 17.3694424, "lon": 78.5314201, "tags": {"addr:district": "Hyderabad", "addr:full": "D.No. 1-7-309, Hanuman Nagar, Opp Jagini's Foodland, Chaitanyapuri 'X' Roads, Dilsukhnagar", "addr:postcode": "500060", "addr:state": "Telangana", "amenity": "hospital", "healthcare": "hospital", "name": "Goodlife Hospitals", "source": "OpenGovernmentData"}}, {"type": "node", "id": 6536327470, "lat": 17.4455011, "lon": 78.5678539, "tags": {"addr:district": "Hyderabad", "addr:full": "M.V. Rama Rao Complex, Opposite Sai Towers, Mallapur Main Road", "addr:postcode": "500076", "addr:state": "Telangana", "amenity": "hospital", "name": "Aashritha Hospital", "source": "OpenGovernmentData"}}, {"type": "node", "id": 6537138789, "lat": 17.3697132, "lon": 78.5319766, "tags": {"addr:district": "Hyderabad", "addr:full": "1-7-97, Khazana Jewellers Lane, Chaitanyapuri, Dilsukhnagar", "addr:postcode": "500060", "addr:state": "Telangana", "amenity": "hospital", "healthcare": "hospital", "name": "Swapna Hospital Private Limited", "source": "OpenGovernmentData"}}, {"type": "node", "id": 6537306558, "lat": 17.3740649, "lon": 78.5409902, "tags": {"addr:district": "Hyderabad", "addr:full": "1-5-22/3, Maruthi Nagar Bus Stop, Kothapet", "addr:postcode": "500060", "addr:state": "Telangana", "amenity": "hospital", "name": "Sai Nikith Speciality Hospital And Laproscopic Centre", "source": "OpenGovernmentData"}}, {"type": "node", "id": 6538849589, "lat": 17.3707739, "lon": 78.5275, "tags": {"addr:district": "Hyderabad", "addr:full": "4-85/1, Lane Beside Rajadhani Theatre, Dilsukhnagar", "addr:postcode": "500060", "addr:state": "Telangana", "amenity": "hospital", "fixme": "Please verify the accurate position of the hospital as I have mapped the facility based on the address provided in Open Government data", "healthcare": "hospital", "name": "The Doctors Multi Speciality Hospital", "source": "OpenGovernmentData"}}, {"type": "node", "id": 6548826056, "lat": 17.4389273, "lon": 78.5060866, "tags": {"addr:city": "Hyderabad", "addr:full": "#10-3-167/A, Lane opp apollo hospitals, St.Johns road, Secunderabad", "addr:postcode": "500025", "addr:state": "Telangana", "amenity": "hospital", "contact:phone": "040-27830534, 040-27831534, +91-7207375534", "healthcare": "hospital", "name": "KASTURI MULTISPECIALITY HOSPITAL", "operator:type": "private", "source": "OpenGovernmentData", "website": "https://kasturihospitals.com/"}}, {"type": "node", "id": 6548833978, "lat": 17.3658656, "lon": 78.5522434, "tags": {"addr:full": "H.No: 11-13-123/1, Plot No: 14, NEAR SAI BABA TEMPLE, ALKAPURI SAROORNAGAR MANDAL", "addr:postcode": "500035", "addr:state": "Telangana", "amenity": "hospital", "contact:phone": "74610 94932", "email": "contact@avanieyehospital.com", "name": "AVANI LASER EYE HOSPITAL", "operator:type": "private", "source": "OpenGovernmentData", "website": "https://www.avanieyehospital.com/"}}, {"type": "node", "id": 6548846382, "lat": 17.3739165, "lon": 78.5521227, "tags": {"addr:city": "Hyderabad", "addr:full": "Road No.1, Beside Swathi Nivas Apt., Opp Heritage Fresh, New Nagole, Mohan Nagar", "addr:postcode": "500035", "addr:state": "Telangana", "amenity": "hospital", "contact:phone": "9849184513", "name": "SANJEEVANI HOSPITAL", "operator:type": "private", "source": "OpenGovernmentData"}}, {"type": "node", "id": 6549172458, "lat": 17.426232, "lon": 78.5322033, "tags": {"addr:district": "Hyderabad", "addr:full": "Plot No: 12-13-67/2, Street No.5, Sadhashiva Nagar, Lane Adjacent to Sanman Hotel, Tarnaka", "addr:postcode": "500017", "addr:state": "Telangana", "amenity": "hospital", "contact:phone": "040 27007111", "name": "PADMVATI MEDICAL CENTRE", "operator:type": "private", "source": "OpenGovernmentData"}}, {"type": "node", "id": 6549197262, "lat": 17.4185789, "lon": 78.5179152, "tags": {"addr:city": "Hyderabad", "addr:full": "12-11-1256, BOUDHA NAGAR ROAD, SECUNDERABAD", "addr:postcode": "500061", "addr:state": "Telangana", "amenity": "hospital", "contact:phone": "27077484", "name": "B.V.K. REDDY HOSPITAL", "operator:type": "private", "source": "OpenGovernmentData"}}, {"type": "node", "id": 6549209512, "lat": 17.4183281, "lon": 78.5427846, "tags": {"addr:district": "Hyderabad", "addr:full": "#7-147/1, Nagendra Nagar Colony, Habsiguda Main Road", "addr:postcode": "500007", "addr:state": "Telangana", "amenity": "hospital", "contact:phone": "040-27151999", "fax": "040 27151999", "name": "ANAND EYE INSITUTE", "operator:type": "private", "source": "OpenGovernmentData"}}, {"type": "node", "id": 6549295174, "lat": 17.3690962, "lon": 78.5301608, "tags": {"addr:city": "Hyderabad", "addr:full": "H.No: 3-8, Chaitanayapuri 'X' roads, Dilshuknagar", "addr:postcode": "500060", "addr:state": "Telangana", "amenity": "hospital", "contact:phone": "040 66905566", "healthcare": "hospital", "name": "Saptagiri Hospital", "operator:type": "private", "source": "OpenGovernmentData"}}, {"type": "node", "id": 6549301063, "lat": 17.3984982, "lon": 78.536071, "tags": {"addr:city": "Hyderabad", "addr:full": "H.No: 3-9-2, Plot No: 3, RAMANATHAPUR", "addr:postcode": "500013", "addr:state": "Telangana", "amenity": "hospital", "contact:phone": "27038744", "name": "ADRM HOSPITAL", "operator:type": "private", "source": "OpenGovernmentData"}}, {"type": "node", "id": 6549341748, "lat": 17.4230318, "lon": 78.5470144, "tags": {"addr:city": "Hyderabad", "addr:full": "1-29, NACHARAM MALLAPUR ROAD, HMT NAGAR, TARNAKA", "addr:postcode": "500076", "addr:state": "Telangana", "amenity": "hospital", "contact:phone": "040 40121000", "name": "SHREE POOJA HOSPITAL", "operator:type": "private", "source": "OpenGovernmentData"}}, {"type": "node", "id": 6549364392, "lat": 17.3673811, "lon": 78.5358068, "tags": {"addr:city": "Hyderabad", "addr:full": "Plot No: 34, KRISNAVENI NAGAR, Opp. KOTHAPET FRUIT MARKET, NEAR GADDIANNARAM MUNICIPAL OFFICE", "addr:postcode": "500034", "addr:state": "Telangana", "amenity": "hospital", "contact:phone": "24050104", "healthcare": "hospital", "name": "SBR Pulse Hospital", "operator:type": "private", "source": "OpenGovernmentData"}}, {"type": "node", "id": 6549371813, "lat": 17.368126, "lon": 78.530836, "tags": {"addr:city": "Hyderabad", "addr:full": "H.No: 18-79, Manikanta Crown Complex, Beside Indian Bank, Chaitanyapuri 'X' Roads, Dilsukhnagar", "addr:postcode": "500060", "addr:state": "Telangana", "amenity": "hospital", "contact:phone": "4024059511", "healthcare": "hospital", "name": "Magnas ENT Hospital", "operator:type": "private", "source": "OpenGovernmentData"}}, {"type": "node", "id": 6549439100, "lat": 17.3960244, "lon": 78.559704, "tags": {"addr:city": "Hyderabad", "addr:full": "H.No: 1-30/F, Saraswathi Colony, Near Rajlakshmi Theatre, Beside Uppal Ring Road, Uppal", "addr:postcode": "500039", "addr:state": "Telangana", "amenity": "hospital", "contact:phone": "04027202741 ; 04027202742", "healthcare": "hospital", "name": "SUMITHRA HOSPITALS", "operator:type": "private", "source": "OpenGovernmentData"}}, {"type": "node", "id": 6563028513, "lat": 17.3678054, "lon": 78.5496034, "tags": {"addr:district": "Hyderabad", "addr:full": "Road No.3, Near S.R.K Puram Bus Stop, Rangareddy", "addr:postcode": "500035", "addr:state": "Telangana", "amenity": "hospital", "name": "Susheela Hospital - R.K Puram", "source": "OpenGovernmentData"}}, {"type": "node", "id": 6563256137, "lat": 17.3690898, "lon": 78.5224923, "tags": {"addr:district": "Hyderabad", "addr:full": "#16-11-477/7 to 26, Chikoti Green Building, Opp. Kamala Hospital, Gaddiannaram, Dilsukhnagar", "addr:postcode": "500060", "addr:state": "Telangana", "amenity": "hospital", "email": "Dilsukhnagar@dragarwal.com", "healthcare": "hospital", "healthcare:speciality": "Cataract Surgery;Cornea and Refractive;Retina;Oculoplastic;Glaucoma;Uvea;Neuro Ophthamology;Squint and Pediatric Opthalmology;Lasik", "medical_system": "Allopathic", "name": "Dr.Agarwal's Eye Hospital - Dilsukhnagar", "operator:type": "private", "phone": "040-42209153 ; 07702355510", "source": "OpenGovernmentData", "website": "https://www.dragarwal.com/"}}, {"type": "node", "id": 6567338346, "lat": 17.4186403, "lon": 78.5420912, "tags": {"addr:district": "Hyderabad", "addr:full": "4-7-75, Opposite Indian Petrol Pump, Habsiguda 'X' Roads", "addr:state": "Telangana", "amenity": "hospital", "fixme": "Please verify the accurate position of the hospital as I have mapped the facility based on the address provided in Open Data Government", "name": "Whitus Hospital (A Unit Of Sri Shikhara Hospitals India Pvt Ltd)", "source": "OpenGovernmentData"}}, {"type": "node", "id": 6573966514, "lat": 17.3696696, "lon": 78.5142714, "tags": {"addr:district": "Hyderabad", "addr:full": "16-2-741/D/5, BESIDE T.V TOWER, MOOSARAMBAGH X ROAD, MALAKPET", "addr:postcode": "500036", "addr:state": "Telangana", "amenity": "hospital", "contact:phone": "8466996364 ; 8466996365", "email": "safechildrenhospital@gmail.com", "healthcare": "hospital", "name": "SAFE CHLIDRENS HOSPITAL", "operator:type": "private", "source": "OpenGovernmentData", "website": "http://www.safechildrenshospital.com"}}, {"type": "node", "id": 6632844432, "lat": 17.4189151, "lon": 78.5654264, "tags": {"amenity": "hospital", "healthcare": "hospital", "healthcare:speciality": "laparascopic_surgery", "name": "Satya Multi Speciality Hospital", "phone": "+91 7093088502;+91 9030911252"}}, {"type": "node", "id": 6811749024, "lat": 17.372487, "lon": 78.522991, "tags": {"addr:district": "Medchal Malkajgiri", "addr:full": "16-11-511/D/16, Shalivahana Nagar, Near Bhashyam School Dilsukhnagar", "addr:postcode": "500036", "addr:state": "Telangana", "amenity": "hospital", "contact:phone": "040 30091234", "healthcare": "hospital", "name": "Amma Hospitals", "source": "OpenGovernmentData"}}, {"type": "node", "id": 6811749031, "lat": 17.367644, "lon": 78.529654, "tags": {"addr:district": "Medchal Malkajgiri", "addr:full": "Kamala Nagar, Lane opp. To Pulla Reddy Sweets, Dilsukhnagar", "addr:postcode": "500060", "addr:state": "Telangana", "amenity": "hospital", "healthcare": "hospital", "name": "Srihitha Hospital", "source": "OpenGovernmentData"}}, {"type": "node", "id": 6811749148, "lat": 17.4028303, "lon": 78.5741446, "tags": {"addr:district": "Hyderabad", "addr:full": "Opp. Aditya Hospital, Beside Petrol Bunk Lane , Uppal", "addr:state": "Telangana", "amenity": "hospital", "contact:mobile": "9246542348", "contact:phone": "040 64552348", "name": "Lakshmi Priya Nursing", "source": "OpenGovernmentData"}}, {"type": "node", "id": 6811749151, "lat": 17.4023438, "lon": 78.5670163, "tags": {"addr:district": "Medchal Malkajgiri", "addr:full": "2-6-71/A, Bharath Nagar Colony, Near Masjid, Uppal", "addr:postcode": "500039", "addr:state": "Telangana", "amenity": "hospital", "name": "SKIMS Hospital", "source": "OpenGovernmentData"}}, {"type": "node", "id": 6811749182, "lat": 17.3659362, "lon": 78.5255259, "tags": {"addr:district": "Hyderabad", "addr:full": "H.No: 7-78/1, Madhura Puri, Konark Theatre Lane, P & T Colony Road, Dilsukhnagar", "addr:state": "Telangana", "amenity": "hospital", "contact:mobile": "8341966249", "healthcare": "hospital", "name": "SAI RAM MULTI SPECIALITY HOSPITAL (ARK HEALTH CARE PVT LTD)", "operator:type": "private", "source": "OpenGovernmentData"}}, {"type": "node", "id": 6868572410, "lat": 17.4234633, "lon": 78.5478069, "tags": {"addr:city": "Hyderabad", "addr:street": "HMT colony", "amenity": "hospital", "healthcare": "hospital", "healthcare:speciality": "general;gynaecology;surgery", "name": "Durga prasad"}}, {"type": "node", "id": 6868777710, "lat": 17.4274323, "lon": 78.5191123}, {"type": "node", "id": 6868777711, "lat": 17.4272453, "lon": 78.5190814}, {"type": "node", "id": 6868777712, "lat": 17.427219, "lon": 78.5192361}, {"type": "node", "id": 6868777713, "lat": 17.427429, "lon": 78.5192637}, {"type": "node", "id": 6934778614, "lat": 17.3745451, "lon": 78.5455972, "tags": {"amenity": "hospital", "healthcare": "hospital"}}, {"type": "node", "id": 6935636792, "lat": 17.4324216, "lon": 78.5525978}, {"type": "node", "id": 7243974409, "lat": 17.3954186, "lon": 78.5014069}, {"type": "node", "id": 7244033607, "lat": 17.3685916, "lon": 78.5187388, "tags": {"amenity": "hospital", "healthcare": "hospital", "name": "konark diagonistic center", "name:te": "\u0c15\u0c4a\u0c28\u0c3e\u0c30\u0c4d\u0c15\u0c4d \u0c21\u0c3f\u0c2f\u0c3e\u0c17\u0c4b\u0c28\u0c3f\u0c38\u0c4d\u0c1f\u0c3f\u0c15\u0c4d \u0c38\u0c46\u0c02\u0c1f\u0c30\u0c4d"}}, {"type": "node", "id": 8233132093, "lat": 17.4376777, "lon": 78.5220997, "tags": {"amenity": "hospital", "healthcare": "hospital"}}, {"type": "node", "id": 8387157871, "lat": 17.3914914, "lon": 78.5113902, "tags": {"amenity": "hospital", "name": "yashoda"}}, {"type": "node", "id": 8752914428, "lat": 17.393868, "lon": 78.5226426, "tags": {"addr:district": "Hyderabad", "addr:full": "2-2-74 & 75, Amberpet Main Rd, opp. maruti suzuki service center, Hyderabad", "addr:postcode": "500013", "addr:state": "Telangana", "amenity": "hospital", "name": "Tricolour Hospital", "source": "Local Knowledge"}}, {"type": "node", "id": 8759230773, "lat": 17.4012471, "lon": 78.5636616, "tags": {"addr:district": "Hyderabad", "addr:full": "Vijayapuri Colony, Uppal, Hyderabad", "addr:postcode": "500039", "addr:state": "Telangana", "amenity": "hospital", "name": "Tapadia Diagnostics Centre", "source": "Local Knowledge"}}, {"type": "node", "id": 8759287302, "lat": 17.4444622, "lon": 78.5048595, "tags": {"addr:district": "Hyderabad", "addr:full": "Nehru Nagar Colony, West Marredpally, Secunderabad", "addr:postcode": "500026", "addr:state": "Telangana", "amenity": "hospital", "name": "Basant Sahney Hospital", "source": "Local Knowledge"}}, {"type": "node", "id": 8760858403, "lat": 17.4384053, "lon": 78.5551261, "tags": {"addr:district": "Medchal", "addr:full": "44-617/12, IDA, behind Telephone Exchange, Nacharam, Secunderabad", "addr:postcode": "500076", "addr:state": "Telangana", "amenity": "hospital", "name": "Prasad Hospitals ,Nacharam", "source": "Local Knowledge"}}, {"type": "node", "id": 8760959031, "lat": 17.4058368, "lon": 78.5875386, "tags": {"addr:district": "Medchal", "addr:full": "H-NO, 3-13/3, Mallikarjuna Nagar Colony,Boduppal, Hyderabad", "addr:postcode": "500092", "addr:state": "Telangana", "amenity": "hospital", "name": "Save Hospitals", "source": "Local Knowledge"}}, {"type": "node", "id": 8763259938, "lat": 17.3931001, "lon": 78.5575394, "tags": {"addr:district": "Medchal", "addr:full": "Opposite Metro Rail Pillar No. NUP-9, Survey Colony, Industrial Development Area, Uppal, Hyderabad", "addr:postcode": "500039", "addr:state": "Telangana", "amenity": "hospital", "name": "Centre for DNA Fingerprinting and Diagnostics", "source": "Local Knowledge"}}, {"type": "node", "id": 8763598296, "lat": 17.4009873, "lon": 78.5794678, "tags": {"addr:district": "Medchal", "addr:full": "H.No.: 2-3-214/156/NR, beside kattamaisamma Temple, Hyderabad", "addr:postcode": "500039", "addr:state": "Telangana", "amenity": "hospital", "name": "Shree Healthcare Multi Specialty Hospital", "source": "Local Knowledge"}}, {"type": "node", "id": 8941817855, "lat": 17.4475965, "lon": 78.5089418, "tags": {"addr:city": "East Marredpally", "addr:housenumber": "5A Ground Floor", "addr:postcode": "500026", "addr:street": "Main Rd", "amenity": "hospital", "description": "Senior Ayurvedic Doctor specializing in Gastric, Piles, Joint, Skin Complaints and other conditions.", "email": "office@ayurdoctor.in", "emergency": "no", "healthcare": "hospital", "healthcare:speciality": "ayurveda;Piles;general", "name": "Shakti Ayurvedic Clinic", "operator": "Dr Prashant Kumar", "operator:type": "private", "phone": "+91-9848574437", "website": "www.ayurdoctor.in"}}, {"type": "node", "id": 9369549952, "lat": 17.4527375, "lon": 78.5648775, "tags": {"amenity": "hospital", "healthcare": "hospital", "name": "Rahul Meidials"}}, {"type": "node", "id": 9369555762, "lat": 17.4527443, "lon": 78.5647251, "tags": {"amenity": "hospital", "healthcare": "hospital", "name": "Nandini"}}, {"type": "node", "id": 9391261140, "lat": 17.4274216, "lon": 78.5517653, "tags": {"amenity": "hospital", "healthcare": "hospital"}}, {"type": "node", "id": 9870554869, "lat": 17.4113015, "lon": 78.5859926, "tags": {"amenity": "hospital", "healthcare": "hospital", "name": "Vijaya Diagnostics Center"}}, {"type": "node", "id": 9903919151, "lat": 17.4287042, "lon": 78.5182344, "tags": {"amenity": "hospital", "healthcare": "hospital"}}, {"type": "node", "id": 9924565993, "lat": 17.4434504, "lon": 78.5461318, "tags": {"amenity": "hospital", "healthcare": "hospital", "name": "Railway hospital"}}, {"type": "node", "id": 10277927480, "lat": 17.4359366, "lon": 78.5426952, "tags": {"amenity": "hospital", "healthcare": "hospital", "name": "hs"}}, {"type": "node", "id": 10836251320, "lat": 17.4510364, "lon": 78.5341953}, {"type": "node", "id": 10898562903, "lat": 17.400154, "lon": 78.5405264, "tags": {"amenity": "hospital", "healthcare": "hospital"}}, {"type": "node", "id": 10959100965, "lat": 17.4410992, "lon": 78.5720791, "tags": {"addr:city": "Hyderabad", "addr:postcode": "500076", "addr:street": "sv nagar", "amenity": "hospital", "healthcare": "hospital", "name": "Sri rama clinic"}}, {"type": "node", "id": 10969330843, "lat": 17.4388301, "lon": 78.54187, "tags": {"addr:district": "Hyderabad", "addr:place": "Lalapet", "addr:state": "Telangana", "addr:street": "Lane opposite Ram theatre", "addr:subdistrict": "Marredpally", "amenity": "hospital", "healthcare": "hospital", "name": "Community Health Centre, Lalapet", "operational_status": "operational", "operator:type": "government", "source": "OpenDataTelangana"}}, {"type": "node", "id": 10989359035, "lat": 17.3921953, "lon": 78.5178213, "tags": {"addr:district": "Hyderabad", "addr:place": "Amberpet", "addr:state": "Telangana", "addr:street": "MCH, colony", "addr:subdistrict": "Amberpet", "amenity": "hospital", "healthcare": "hospital", "name": "Community Health Centre, AMBERPET", "operational_status": "operational", "operator:type": "government", "source": "OpenDataTelangana"}}, {"type": "node", "id": 11001513668, "lat": 17.4265349, "lon": 78.5192979, "tags": {"addr:district": "Hyderabad", "addr:place": "Trt Quarters", "addr:state": "Telangana", "addr:street": "Seethaphalmandi", "addr:subdistrict": "Musheerabad", "amenity": "hospital", "healthcare": "hospital", "name": "Community Health Centre, Seethaphalmandi", "operational_status": "operational", "operator:type": "government", "source": "OpenDataTelangana"}}, {"type": "node", "id": 11001544010, "lat": 17.4504805, "lon": 78.5321201, "tags": {"addr:district": "Medchal Malkajgiri", "addr:place": "Geetha Nagar Malkajgiri", "addr:state": "Telangana", "addr:street": "Geetha Nagar Malkajgiri", "addr:subdistrict": "Malkajgiri", "amenity": "hospital", "healthcare": "hospital", "name": "AREA HOSPITAL MALKAJGIRI", "operational_status": "operational", "operator:type": "government", "source": "OpenDataTelangana"}}, {"type": "node", "id": 11005197974, "lat": 17.3979133, "lon": 78.5310178, "tags": {"addr:district": "Hyderabad", "addr:place": "Ramanthapur, Uppal Road", "addr:state": "Telangana", "addr:street": "Warangal Highway Road", "addr:subdistrict": "Amberpet", "amenity": "hospital", "healthcare": "hospital", "name": "DK Govt Homoeopathic Hospital, Ramanthapur, Hyd", "operational_status": "operational", "operator:type": "government", "source": "OpenDataTelangana"}}, {"type": "node", "id": 11098927505, "lat": 17.3934464, "lon": 78.5365962, "tags": {"addr:postcode": "500013", "addr:street": "RTC Colony", "amenity": "hospital", "name": "Susheela Hospital"}}, {"type": "node", "id": 12289411655, "lat": 17.3667392, "lon": 78.5811285, "tags": {"addr:city": "Hyderabad", "addr:country": "IN", "addr:district": "k.v.rangareddy", "addr:housenumber": "H.No. 12-1-468/2P/2F, 2nd floor", "addr:postcode": "500068", "addr:street": "beside ace ajanta apartments, bandlaguda, nagole", "amenity": "hospital", "email": "info@swasthyadental.in", "healthcare": "hospital", "healthcare:speciality": "dentist;dental_oral_maxillo_facial_surgery", "mobile": "+919676814469", "name": "Swasthya Dental Clinic", "operator": "Dr Ramya Surapaneni", "operator:type": "private", "payment:cash": "yes", "payment:credit_cards": "yes", "payment:debit_cards": "yes", "payment:wallets": "yes", "website": "https://swasthyadental.in", "wheelchair": "yes"}}, {"type": "node", "id": 12852366410, "lat": 17.3959816, "lon": 78.5299056, "tags": {"amenity": "hospital", "healthcare": "hospital", "name": "Sai charan Children's hospital"}}, {"type": "node", "id": 12852371077, "lat": 17.3943514, "lon": 78.5299096, "tags": {"amenity": "hospital", "healthcare": "hospital", "name": "Janani infertility center"}}, {"type": "node", "id": 12890299914, "lat": 17.4319353, "lon": 78.5522966}, {"type": "node", "id": 12890299915, "lat": 17.4314769, "lon": 78.5531095}, {"type": "node", "id": 12890299916, "lat": 17.4319634, "lon": 78.5534108}, {"type": "node", "id": 12949577900, "lat": 17.365035, "lon": 78.534275}, {"type": "node", "id": 12949589701, "lat": 17.3649201, "lon": 78.534507}, {"type": "node", "id": 12949589702, "lat": 17.3651591, "lon": 78.533683}, {"type": "node", "id": 12949589703, "lat": 17.3645297, "lon": 78.5338632}, {"type": "node", "id": 13152123729, "lat": 17.4504161, "lon": 78.503069}, {"type": "node", "id": 13152123730, "lat": 17.4503955, "lon": 78.5030634}, {"type": "node", "id": 13152123731, "lat": 17.4503922, "lon": 78.5031109}, {"type": "node", "id": 13152123732, "lat": 17.4504153, "lon": 78.5031148}, {"type": "node", "id": 13152123733, "lat": 17.450419, "lon": 78.5030919}, {"type": "way", "id": 238282935, "nodes": [2461282040, 2461282035, 2461282045, 2461282049, 2461282040], "tags": {"addr:district": "Hyderabad", "addr:full": "2-1-569 , Vidyanaga, Osmainia University Road", "addr:postcode": "500044", "addr:state": "Telangana", "amenity": "hospital", "contact:email": "durgabaihospital@gmail.com", "contact:phone": "040-27681500; 040-27617801/802/803", "name": "Durgabai Deshmukh Hospital and Research Centre", "source": "OpenGovernmentData", "website": "http://durgabaideshmukhhospitals.com"}}, {"type": "way", "id": 252285892, "nodes": [2583734761, 2583734762, 2583734763, 2583734764, 2583734773, 2583734772, 2583734761], "tags": {"amenity": "hospital", "emergency": "yes"}}, {"type": "way", "id": 253465843, "nodes": [2593895374, 2593895376, 2593895378, 2593895380, 2593895374], "tags": {"addr:district": "Hyderabad", "addr:full": "Opposite Vegetable Market, Uppal Main Road", "addr:postcode": "500039", "addr:state": "Telangana", "amenity": "hospital", "building": "yes", "name": "Shreeda Children's Hospital", "source": "OpenGovernmentData"}}, {"type": "way", "id": 253467402, "nodes": [2593908683, 2593908685, 2593908687, 2593908689, 2593908683], "tags": {"addr:district": "Hyderabad", "addr:full": "H.No-9-1/3, Sri Ram Nagar Colony,Peerjadiguda (Village),Gatkeswar(Mandal)", "addr:postcode": "500039", "addr:state": "Telangana", "amenity": "hospital", "building": "yes", "emergency": "yes", "name": "Anitha Nursing Home", "source": "OpenGovernmentData"}}, {"type": "way", "id": 265036384, "nodes": [2706889270, 2706889273, 2706889276, 12949589702, 2706889279, 12949577900, 12949589701, 2706889282, 2706889285, 12949589703, 2706889270], "tags": {"amenity": "hospital", "healthcare": "hospital", "healthcare:speciality": "dentistry", "name": "pananeeya dental hospital"}}, {"type": "way", "id": 319567707, "nodes": [3259919825, 3259919827, 3259919830, 3259919833, 3259919831, 3259919832, 3259919829, 3259919828, 3259919826, 3259919824, 3259919823, 3259919822, 3259919819, 7243974409, 3259919820, 3259919821, 3259919825], "tags": {"addr:district": "Hyderabad", "addr:full": "Government Fever Hospital, Nallakunta Main Road, Bagh Lingampally, Nallakunta", "addr:postcode": "500044", "addr:state": "Telangana", "addr:street": "Nallakunta Main Road", "addr:subdistrict": "Himayathnagar", "alt_name": "Government Fever Hospital", "amenity": "hospital", "contact:phone": "040 27667844", "healthcare": "hospital", "healthcare:speciality": "general;emergency;physiatry", "layer": "1", "name": "Sir Ronald Ross Institute of Tropical and Communicable Diseases (FEVER HOSPITAL)", "name:etymology:wikidata": "Q102034", "source": "OpenGovernmentData"}}, {"type": "way", "id": 319567708, "nodes": [3259917637, 3259917635, 3259917636, 3259917634, 3259917638, 3259919981, 3259919985, 3259919983, 3259917637], "tags": {"addr:district": "Hyderabad", "addr:full": "Gandhi Building, Musheerbad, Secunderabad", "addr:postcode": "500003", "addr:state": "Telangana", "amenity": "hospital", "contact:phone": "040-27505566", "health_facility:type": "Out Patient Services, Emergency Services, Blood Bank", "medical_system": "Allopathic", "name": "Gandhi Hospital", "operator:type": "public; government", "phone": "040 27505566", "source": "OpenGovernmentData", "website": "http://www.gandhihospital.in"}}, {"type": "way", "id": 331773168, "nodes": [3388737434, 3388737435, 3388737436, 3388737437, 3388737434], "tags": {"addr:district": "Hyderabad", "addr:full": "Near Ayyappa Temple, Somasunder Nagar, Bagh Amberpet", "addr:postcode": "500013", "addr:state": "Telangana", "addr:street": "CENTRAL EXCISE COLONY, AMBERPET", "amenity": "hospital", "building": "yes", "building:levels": "5", "name": "Sai Datta Hospital", "source": "OpenGovernmentData", "website": "www.saidattahospital.com"}}, {"type": "way", "id": 356248376, "nodes": [3617224234, 10836251320, 3617224045, 3617224055, 3617224234], "tags": {"amenity": "hospital", "healthcare": "hospital", "name": "Govt hospital"}}, {"type": "way", "id": 356249092, "nodes": [3617223525, 3617223522, 3617223289, 3617223292, 3617223525], "tags": {"addr:city": "Hyderabad", "addr:housenumber": "5-12", "addr:postcode": "500047", "addr:street": "Geetha nagar Malkajgiri", "amenity": "hospital", "building:levels": "1", "description": "Premium dental & orofacial clinic", "emergency": "yes", "healthcare": "hospital", "healthcare:speciality": "dentistry;emergency", "image": "https://www.ctomatodont.com/wp-content/uploads/2017/03/cropped-logo-transparent-192x192.png", "name": "Ctomatodont Dental Care", "operator": "Ctomatodont", "operator:type": "private", "website": "https://www.ctomatodont.com/"}}, {"type": "way", "id": 356253303, "nodes": [3617245110, 3617245100, 3617245033, 3617245040, 3617245110], "tags": {"addr:city": "Secunderabad", "addr:postcode": "500025", "amenity": "hospital", "emergency": "yes", "name": "Pulse hospital"}}, {"type": "way", "id": 356548444, "nodes": [3619550068, 3619550003, 3619549990, 3619550048, 3619550068], "tags": {"addr:city": "Hyderabad", "addr:full": "St. Johns Road, Opposite Railway Reservation Counter Lane, Beside Ramakrishna Hotel, Railway Colony, Chilakalguda, Secunderabad", "addr:postcode": "500025", "addr:state": "Telangana", "addr:street": "Station Road", "addr:unit": "1", "amenity": "hospital", "building": "yes", "building:levels": "3", "contact:phone": "040 27833388 ; 040 46460000", "healthcare": "hospital", "name": "SRIKARA HOSPITALS", "operator:type": "private", "source": "OpenGovernmentData", "website": "https://www.srikarahospitals.com/"}}, {"type": "way", "id": 357971564, "nodes": [3630403312, 3630403309, 3630403304, 3630403308, 3630403312], "tags": {"amenity": "hospital", "name": "Pharmacy"}}, {"type": "way", "id": 357971577, "nodes": [3630403316, 3630403314, 3630403310, 3630403313, 3630403316], "tags": {"amenity": "hospital", "name": "Vasudeva Rao Clinic"}}, {"type": "way", "id": 361374554, "nodes": [3658594220, 3658594206, 3658594202, 3658594189, 3658594191, 3658594220], "tags": {"amenity": "hospital", "emergency": "yes", "healthcare": "hospital", "name": "Shenoy Hospital", "operator": "Shenoy Multi-Speciality Hospitals", "operator:type": "private"}}, {"type": "way", "id": 413292045, "nodes": [4146349129, 4146349145, 4146349142, 4146349146, 4146349144, 4146349126, 4146349129], "tags": {"addr:city": "Secunderabad", "addr:district": "Hyderabad", "addr:postcode": "500003", "addr:street": "Pollicetty Towers, St Johns Rd, Regimental Bazaar, Shivaji Nagar", "amenity": "hospital", "emergency": "yes", "healthcare": "hospital", "healthcare:speciality": "general", "name": "Apollo Hospitals", "operator": "Apollo Hospitals", "operator:type": "private", "operator:wikidata": "Q4780321", "phone": "+91-040-69071299", "website": "https://www.apollohospitals.com/hyderabad/our-centres/secunderabad/"}}, {"type": "way", "id": 413327528, "nodes": [4146661496, 4146661498, 4146661497, 4146661495, 4146661496], "tags": {"addr:city": "Secunderabad", "addr:district": "Hyderabad", "addr:housenumber": "9", "addr:postcode": "500003", "addr:street": "Sarojini Devi Rd, Regimental Bazaar, Shivaji Nagar", "amenity": "hospital", "emergency": "yes", "healthcare": "hospital", "healthcare:speciality": "orthopaedics;cardiology;neurology;urology;vascular_surgery;general", "image": "https://images-ik.practo.com/tr:w-500,q-auto,f-auto,pr-true,dpr-auto/practices/1154496/medicover-hospitals-hyderabad-68d3dac007d61.png", "name": "Medicover Hospitals Secunderabad", "note": "Previously known as Sangeet Theater", "operator": "Medicover AB", "operator:type": "private", "phone": "+91-040-68334455", "website": "https://www.medicoverhospitals.in/hospitals/telangana/secunderabad/", "wheelchair": "yes"}}, {"type": "way", "id": 608308376, "nodes": [5763499581, 5763499578, 5763499579, 5763499580, 6518592571, 6518592570, 5763499581], "tags": {"addr:city": "Hyderabad", "addr:postcode": "500092", "addr:street": "Boduppal", "amenity": "hospital", "building:levels": "1", "emergency": "no", "healthcare": "hospital", "name": "Primary Healthcare Center", "operator": "Government"}}, {"type": "way", "id": 690384774, "nodes": [6477150043, 6477150042, 6477150041, 6477150039, 6477150040, 6477150043], "tags": {"addr:district": "Hyderabad", "addr:full": "Nagole 'X' Road", "addr:state": "Telangana", "amenity": "hospital", "building": "yes", "fax": "040 30979798", "healthcare:speciality": "Meditrina;Orthopedics;ENT;Spine;Neurology;Cancer Care", "medical_system": "Allopathic", "name": "Supraja Hospital", "operator:type": "private", "phone": "040 30979797", "source": "OpenGovernmentData"}}, {"type": "way", "id": 733458157, "nodes": [6868777710, 6868777711, 6868777712, 6868777713, 6868777710], "tags": {"amenity": "hospital", "healthcare": "hospital"}}, {"type": "way", "id": 1076262700, "nodes": [3628246431, 3628246393, 3628246395, 3628246433, 3628246431], "tags": {"amenity": "hospital", "healthcare": "hospital", "name": "ground"}}, {"type": "way", "id": 1392514385, "nodes": [6935636792, 12890299914, 12890299915, 12890299916, 6935636792], "tags": {"addr:city": "Hyderabad", "addr:postcode": "500076", "addr:street": "Nacharam", "amenity": "hospital", "emergency": "yes", "healthcare": "hospital", "name": "ESI Hospital", "operator": "Employees' State Insurance", "operator:short": "ESI", "operator:type": "private", "operator:wikidata": "Q3595726"}}, {"type": "way", "id": 1430785676, "nodes": [13152123729, 13152123730, 13152123731, 13152123732, 13152123733, 13152123729], "tags": {"addr:city": "Hyderabad", "addr:district": "Hyderabad", "addr:housenumber": "plot no 28", "addr:postcode": "500026", "addr:street": "shriraghava garden rd near punjab nation bank west marredpally secunderabad", "amenity": "hospital", "healthcare": "hospital", "healthcare:speciality": "paediatrics;diabetology;diagnostics;general;vaccination;blood_check;pathology;vascular_surgery", "name": "Pulse Clinics and Diagnostics", "operator": "owner", "operator:type": "business"}}]}