{"version": 0.6, "generator": "Overpass API 0.7.62.8 e802775f", "osm3s": {"timestamp_osm_base": "2026-01-12T04:40:25Z", "copyright": "The data included in this document is from www.openstreetmap.org. The data is made available under ODbL."}, "elements": [{"type": "node", "id": 42440935, "lat": 40.7704036, "lon": -73.9875948, "tags": {"highway": "traffic_signals", "traffic_signals:direction": "forward"}}, {"type": "node", "id": 42450341, "lat": 40.7697859, "lon": -73.9880556, "tags": {"highway": "traffic_signals", "traffic_signals:direction": "forward"}}, {"type": "node", "id": 357558861, "lat": 40.7651137, "lon": -73.9577419}, {"type": "node", "id": 357568917, "lat": 40.7736575, "lon": -73.9616995}, {"type": "node", "id": 357572587, "lat": 40.7884033, "lon": -73.9527703}, {"type": "node", "id": 357607743, "lat": 40.7638031, "lon": -73.9561779}, {"type": "node", "id": 357642730, "lat": 40.7697091, "lon": -73.9529748, "tags": {"addr:city": "New York", "addr:housenumber": "420", "addr:postcode": "10021", "addr:street": "East 76th Street", "amenity": "hospital", "emergency": "no", "gnis:feature_id": "2420554", "healthcare": "hospital", "healthcare:speciality": "psychiatry", "name": "Gracie Square Hospital", "opening_hours": "24/7", "phone": "+1 212 434 5300", "website": "https://www.nygsh.org/", "wikidata": "Q5591536", "wikipedia": "en:Gracie Square Hospital"}}, {"type": "node", "id": 357642735, "lat": 40.7620381, "lon": -73.9553606, "tags": {"access": "private", "addr:city": "New York", "addr:housenumber": "1230", "addr:postcode": "10021", "addr:street": "York Avenue", "amenity": "hospital", "beds": "40", "check_date": "2024-09-16", "emergency": "no", "gnis:feature_id": "2420556", "healthcare": "hospital", "name": "Rockefeller University Hospital", "note": "Specialty research hospital.", "phone": "+1 212 327 7511", "website": "https://rucares.org/", "wikidata": "Q30265216"}}, {"type": "node", "id": 357642750, "lat": 40.764233, "lon": -73.963647, "tags": {"addr:city": "New York", "addr:housenumber": "210", "addr:postcode": "10065", "addr:street": "East 64th Street", "amenity": "hospital", "emergency": "no", "gnis:feature_id": "2420561", "healthcare": "hospital", "healthcare:speciality": "ophthalmology", "name": "Manhattan Eye Ear and Throat Hospital", "operator": "Northwell Health", "operator:type": "private", "operator:wikidata": "Q7056650", "operator:wikipedia": "en:Northwell Health", "phone": "+1 212 838 9200", "short_name": "MEETH", "website": "https://www.northwell.edu/find-care/locations/manhattan-eye-ear-and-throat-hospital", "wikidata": "Q6749254"}}, {"type": "node", "id": 2710212189, "lat": 40.7691292, "lon": -73.986274}, {"type": "node", "id": 2710212205, "lat": 40.7696082, "lon": -73.985919}, {"type": "node", "id": 2717876703, "lat": 40.7609528, "lon": -73.9687909, "tags": {"addr:housenumber": "139", "addr:postcode": "10022", "addr:street": "East 57th Street", "amenity": "hospital", "healthcare": "hospital", "name": "MRHS Primary Care", "website": "https://www.mrhsclinics.com/"}}, {"type": "node", "id": 2723697657, "lat": 40.7649928, "lon": -73.9531679}, {"type": "node", "id": 2723697672, "lat": 40.7654742, "lon": -73.95282}, {"type": "node", "id": 2724295531, "lat": 40.7897771, "lon": -73.9539862}, {"type": "node", "id": 2724295565, "lat": 40.7898381, "lon": -73.9541351}, {"type": "node", "id": 2724295585, "lat": 40.7899279, "lon": -73.953787}, {"type": "node", "id": 2724295597, "lat": 40.7899572, "lon": -73.9538585}, {"type": "node", "id": 2724295602, "lat": 40.7899626, "lon": -73.9537625}, {"type": "node", "id": 2724295613, "lat": 40.7899722, "lon": -73.9537293}, {"type": "node", "id": 2724295626, "lat": 40.7899922, "lon": -73.953715}, {"type": "node", "id": 2724295630, "lat": 40.790018, "lon": -73.9537232}, {"type": "node", "id": 2724295639, "lat": 40.7900505, "lon": -73.9537002}, {"type": "node", "id": 2724295645, "lat": 40.7900669, "lon": -73.9537401}, {"type": "node", "id": 2724295649, "lat": 40.7900719, "lon": -73.9537365}, {"type": "node", "id": 2724295651, "lat": 40.790078, "lon": -73.9537515}, {"type": "node", "id": 2724295691, "lat": 40.7902636, "lon": -73.95362}, {"type": "node", "id": 2724295693, "lat": 40.7902669, "lon": -73.9536586}, {"type": "node", "id": 2724295697, "lat": 40.7902766, "lon": -73.9536517}, {"type": "node", "id": 2724295701, "lat": 40.7903098, "lon": -73.9537633}, {"type": "node", "id": 2724295702, "lat": 40.7903194, "lon": -73.9537564}, {"type": "node", "id": 2724295703, "lat": 40.7903313, "lon": -73.9537855}, {"type": "node", "id": 2796616508, "lat": 40.805122, "lon": -73.9608452}, {"type": "node", "id": 2796616526, "lat": 40.8051929, "lon": -73.9607937}, {"type": "node", "id": 2796616537, "lat": 40.8052197, "lon": -73.9607743}, {"type": "node", "id": 2796616545, "lat": 40.8052548, "lon": -73.9607488}, {"type": "node", "id": 2796616556, "lat": 40.8053269, "lon": -73.9606965}, {"type": "node", "id": 2796616558, "lat": 40.8053365, "lon": -73.9606895}, {"type": "node", "id": 3501718995, "lat": 40.7637074, "lon": -73.9542327}, {"type": "node", "id": 3501723876, "lat": 40.7638548, "lon": -73.9544317}, {"type": "node", "id": 3982139312, "lat": 40.7876521, "lon": -73.9520587}, {"type": "node", "id": 3982139313, "lat": 40.7880517, "lon": -73.953032}, {"type": "node", "id": 3982139316, "lat": 40.7907225, "lon": -73.9526772}, {"type": "node", "id": 3982139317, "lat": 40.7909424, "lon": -73.9522043}, {"type": "node", "id": 3982139318, "lat": 40.7913547, "lon": -73.9518916}, {"type": "node", "id": 3982139319, "lat": 40.7910298, "lon": -73.9515539}, {"type": "node", "id": 3998699939, "lat": 40.7697409, "lon": -73.9879519, "tags": {"crossing": "traffic_signals", "crossing:island": "no", "highway": "crossing", "kerb": "lowered"}}, {"type": "node", "id": 4541041393, "lat": 40.7651489, "lon": -73.9548622}, {"type": "node", "id": 4541041394, "lat": 40.7634013, "lon": -73.9534367}, {"type": "node", "id": 4541041397, "lat": 40.7654647, "lon": -73.9546247}, {"type": "node", "id": 4548733717, "lat": 40.7953346, "lon": -73.995608}, {"type": "node", "id": 4548733718, "lat": 40.7953265, "lon": -73.9954363}, {"type": "node", "id": 4548733719, "lat": 40.7947538, "lon": -73.9940925}, {"type": "node", "id": 4548733720, "lat": 40.7945691, "lon": -73.9941837}, {"type": "node", "id": 4548733721, "lat": 40.7945102, "lon": -73.9942722}, {"type": "node", "id": 4548733722, "lat": 40.7945284, "lon": -73.9943983}, {"type": "node", "id": 4548733723, "lat": 40.7941528, "lon": -73.9945378}, {"type": "node", "id": 4548733724, "lat": 40.7938015, "lon": -73.9945565}, {"type": "node", "id": 4548733725, "lat": 40.7935538, "lon": -73.9946263}, {"type": "node", "id": 4548733726, "lat": 40.7932695, "lon": -73.9948409}, {"type": "node", "id": 4548733727, "lat": 40.7927821, "lon": -73.995549}, {"type": "node", "id": 4548733728, "lat": 40.7929852, "lon": -73.9964877}, {"type": "node", "id": 4548733729, "lat": 40.7931107, "lon": -73.9965556}, {"type": "node", "id": 4548733730, "lat": 40.79317, "lon": -73.9967492}, {"type": "node", "id": 4548733731, "lat": 40.7934106, "lon": -73.997342}, {"type": "node", "id": 4548733732, "lat": 40.7946188, "lon": -73.9970483}, {"type": "node", "id": 4548733733, "lat": 40.7945213, "lon": -73.9964488}, {"type": "node", "id": 4548733734, "lat": 40.7954544, "lon": -73.9961833}, {"type": "node", "id": 5421562456, "lat": 40.7655074, "lon": -73.9527962}, {"type": "node", "id": 5421562457, "lat": 40.7660672, "lon": -73.9541613}, {"type": "node", "id": 5421562458, "lat": 40.7648823, "lon": -73.9532429}, {"type": "node", "id": 5421562459, "lat": 40.7645219, "lon": -73.9524117}, {"type": "node", "id": 5421562460, "lat": 40.7640074, "lon": -73.9548123}, {"type": "node", "id": 5421562461, "lat": 40.765164, "lon": -73.9526899, "tags": {"addr:city": "New York", "addr:housenumber": "535", "addr:postcode": "10021", "addr:street": "East 70th Street", "amenity": "hospital", "beds": "215", "check_date": "2024-02-23", "emergency": "no", "gnis:feature_id": "1984534", "healthcare": "hospital", "healthcare:speciality": "orthopaedics", "name": "Hospital for Special Surgery", "nycdoitt:bin": "1046255", "phone": "+1 877 606 1555", "website": "https://www.hss.edu/", "wikidata": "Q5908726", "wikipedia": "en:Hospital for Special Surgery"}}, {"type": "node", "id": 5421562462, "lat": 40.7642949, "lon": -73.9554683}, {"type": "node", "id": 5421562463, "lat": 40.7645955, "lon": -73.958104}, {"type": "node", "id": 5421562464, "lat": 40.7642881, "lon": -73.955822}, {"type": "node", "id": 5421574980, "lat": 40.7731071, "lon": -73.9603783}, {"type": "node", "id": 5421574981, "lat": 40.773628, "lon": -73.960025}, {"type": "node", "id": 5421574982, "lat": 40.7741772, "lon": -73.9613151}, {"type": "node", "id": 5421663662, "lat": 40.7885153, "lon": -73.9514246}, {"type": "node", "id": 5421663663, "lat": 40.7891325, "lon": -73.9529553}, {"type": "node", "id": 5421663665, "lat": 40.7910102, "lon": -73.9533394}, {"type": "node", "id": 5421663666, "lat": 40.7892064, "lon": -73.9546784}, {"type": "node", "id": 5422685109, "lat": 40.8057502, "lon": -73.9608055}, {"type": "node", "id": 5422685110, "lat": 40.8060168, "lon": -73.9614427}, {"type": "node", "id": 5422685112, "lat": 40.8049013, "lon": -73.9622594}, {"type": "node", "id": 5422685114, "lat": 40.8044538, "lon": -73.9612179}, {"type": "node", "id": 5608368611, "lat": 40.7915685, "lon": -73.9516625}, {"type": "node", "id": 5608368612, "lat": 40.7915994, "lon": -73.9524539}, {"type": "node", "id": 5608368613, "lat": 40.791187, "lon": -73.9519379}, {"type": "node", "id": 5608368614, "lat": 40.791832, "lon": -73.9522774}, {"type": "node", "id": 7246154631, "lat": 40.7696153, "lon": -73.9876546}, {"type": "node", "id": 7557417154, "lat": 40.7700992, "lon": -73.9878187}, {"type": "node", "id": 7618401987, "lat": 40.8053584, "lon": -73.9606739}, {"type": "node", "id": 7644293501, "lat": 40.7690551, "lon": -73.9863287}, {"type": "node", "id": 7644293502, "lat": 40.7696849, "lon": -73.9858617}, {"type": "node", "id": 7921614459, "lat": 40.7910499, "lon": -73.9524521}, {"type": "node", "id": 9441141805, "lat": 40.770354, "lon": -73.9876313, "tags": {"button_operated": "no", "crossing": "traffic_signals", "crossing:island": "no", "crossing:markings": "zebra", "crossing:signals": "yes", "highway": "crossing", "tactile_paving": "no", "traffic_calming": "no", "traffic_signals:arrow": "yes", "traffic_signals:sound": "yes", "traffic_signals:vibration": "no"}}, {"type": "node", "id": 9484067011, "lat": 40.8054927, "lon": -73.9609935}, {"type": "node", "id": 10363943866, "lat": 40.768828, "lon": -73.9927766, "tags": {"amenity": "hospital", "check_date": "2023-01-09", "healthcare": "hospital", "name": "Mount Sinai", "operator:type": "public"}}, {"type": "node", "id": 10897792586, "lat": 40.7852797, "lon": -74.0574789, "tags": {"amenity": "hospital", "beds": "174", "healthcare": "hospital", "healthcare:speciality": "psychiatry", "name": "Hudson County Meadowview Psychiatric Hospital", "phone": "+1 201 369 5252", "website": "https://www.hcnj.us/health-and-human-services/psychiatric-hospital"}}, {"type": "node", "id": 11953023714, "lat": 40.8049801, "lon": -73.9609468}, {"type": "node", "id": 11953023715, "lat": 40.8049416, "lon": -73.960858}, {"type": "node", "id": 12095092700, "lat": 40.7645657, "lon": -73.955956, "tags": {"addr:housenumber": "1283", "addr:street": "York Avenue", "amenity": "hospital", "check_date": "2024-08-06", "healthcare": "hospital", "level": "0", "name": "New York Presbyterian Alexandra Cohen Hospital for Women and Newborns", "wheelchair": "yes"}}, {"type": "node", "id": 12771176929, "lat": 40.7616923, "lon": -73.9637818, "tags": {"addr:city": "New York", "addr:housenumber": "1153", "addr:postcode": "10065", "addr:state": "NY", "addr:street": "2nd Avenue", "amenity": "hospital", "emergency": "no", "healthcare": "hospital", "healthcare:speciality": "optician;glasses", "name": "Micheal's Optical"}}, {"type": "node", "id": 13287358562, "lat": 40.7561643, "lon": -73.9818704, "tags": {"addr:city": "New York", "addr:housenumber": "56", "addr:postcode": "10036", "addr:state": "NY", "addr:street": "West 45th Street", "amenity": "hospital", "email": "info@manhattangastroenterology.com", "emergency": "yes", "healthcare": "hospital", "healthcare:speciality": "gastroenterology", "name": "Manhattan Gastroenterology \u2013 Midtown Manhattan", "opening_hours": "Mo-Th 07:30-19:00; Fr 07:30-17:00; Sa, Su off", "operator": "Dr. Shawn Khodadadian, MD", "operator:type": "public", "phone": "+1-212-533-2400", "website": "https://www.manhattangastroenterology.com/new-york/midtown/"}}, {"type": "way", "id": 266941944, "nodes": [2724295565, 2724295703, 2724295702, 2724295701, 2724295693, 2724295697, 2724295691, 2724295651, 2724295649, 2724295645, 2724295639, 2724295630, 2724295626, 2724295613, 2724295602, 2724295585, 2724295597, 2724295531, 2724295565], "tags": {"addr:city": "New York", "addr:housename": "The Warren Alpert Pavillion", "addr:housenumber": "1184", "addr:postcode": "10029", "addr:state": "NY", "addr:street": "5th Avenue", "amenity": "hospital", "building": "hospital", "building:levels": "7", "check_date": "2024-08-14", "healthcare": "hospital", "height": "35.0", "name": "Mount Sinai Kravis Children's Hospital", "nycdoitt:bin": "1083921", "phone": "+1 212-241-9500", "website": "https://www.mountsinai.org/locations/kravis-childrens"}}, {"type": "way", "id": 395304938, "nodes": [3982139312, 3982139313, 357572587, 5421663666, 5421663665, 3982139316, 7921614459, 3982139317, 3982139318, 5608368612, 5608368614, 5608368611, 5608368613, 3982139319, 5421663663, 5421663662, 3982139312], "tags": {"addr:city": "New York", "addr:housenumber": "1", "addr:postcode": "10129", "addr:street": "Gustave L. Levy Place", "amenity": "hospital", "check_date": "2025-07-30", "emergency": "yes", "gnis:feature_id": "957912", "healthcare": "hospital", "name": "The Mount Sinai Hospital", "opening_hours": "24/7", "operator": "Mount Sinai", "phone": "+1 212-241-6500", "website": "http://www.mountsinai.org/locations/mount-sinai", "wikidata": "Q1476505", "wikipedia": "en:Mount Sinai Hospital (Manhattan)"}}, {"type": "way", "id": 458061825, "nodes": [4541041393, 5421562462, 5421562460, 3501723876, 3501718995, 4541041394, 5421562459, 5421562458, 2723697657, 2723697672, 5421562456, 5421562457, 4541041397, 4541041393], "tags": {"addr:city": "New York", "addr:housenumber": "525", "addr:postcode": "10065", "addr:street": "East 68th Street", "amenity": "hospital", "check_date": "2024-03-23", "emergency": "yes", "healthcare": "hospital", "name": "NewYork-Presbyterian / Weill Cornell Medical Center", "opening_hours": "24/7", "operator": "NewYork-Presbyterian", "phone": "+1 212 746 5454", "website": "https://www.nyp.org/locations/newyork-presbyterian-weill-cornell-medical-center"}}, {"type": "way", "id": 458950443, "nodes": [4548733734, 4548733733, 4548733732, 4548733731, 4548733730, 4548733729, 4548733728, 4548733727, 4548733726, 4548733725, 4548733724, 4548733723, 4548733722, 4548733721, 4548733720, 4548733719, 4548733718, 4548733717, 4548733734], "tags": {"addr:city": "North Bergen", "addr:housenumber": "7600", "addr:postcode": "07047", "addr:street": "River Road", "amenity": "hospital", "beds": "206", "emergency": "yes", "healthcare": "hospital", "name": "Palisades Medical Center", "opening_hours": "24/7", "operator": "Hackensack Meridian Health", "phone": "+1 201 854 5000", "website": "http://www.palisadesmedical.org/", "wikidata": "Q7127603", "wikipedia": "en:Palisades Medical Center"}}, {"type": "way", "id": 562360129, "nodes": [357607743, 5421562464, 357558861, 5421562463, 357607743], "tags": {"addr:city": "New York", "addr:housenumber": "1275", "addr:postcode": "10065", "addr:street": "York Avenue", "amenity": "hospital", "check_date": "2024-04-09", "emergency": "no", "gnis:feature_id": "2042641", "healthcare": "hospital", "healthcare:speciality": "oncology", "name": "Memorial Sloan Kettering Cancer Center", "operator": "Memorial Sloan Kettering Cancer Center", "phone": "+1 212 639 2000", "website": "https://www.mskcc.org/", "wikidata": "Q1808012", "wikipedia": "en:Memorial Sloan Kettering Cancer Center"}}, {"type": "way", "id": 562361553, "nodes": [357568917, 5421574982, 5421574981, 5421574980, 357568917], "tags": {"addr:city": "New York", "addr:housenumber": "100", "addr:postcode": "10075", "addr:street": "East 77th Street", "amenity": "hospital", "beds": "652", "check_date": "2024-03-13", "emergency": "yes", "gnis:feature_id": "955201", "healthcare": "hospital", "name": "Lenox Hill Hospital", "opening_hours": "24/7", "operator": "Northwell Health", "operator:wikidata": "Q7056650", "operator:wikipedia": "en:Northwell Health", "phone": "+1 212 434 2000", "website": "https://lenoxhill.northwell.edu", "wikidata": "Q6523170", "wikipedia": "en:Lenox Hill Hospital"}}, {"type": "way", "id": 562510587, "nodes": [5422685114, 11953023715, 11953023714, 2796616508, 2796616526, 2796616537, 2796616545, 2796616556, 2796616558, 7618401987, 9484067011, 5422685109, 5422685110, 5422685112, 5422685114], "tags": {"addr:city": "New York", "addr:housenumber": "1111", "addr:postcode": "10029", "addr:street": "Amsterdam Avenue", "amenity": "hospital", "emergency": "yes", "gnis:feature_id": "963825", "healthcare": "hospital", "name": "Mount Sinai Morningside", "old_name": "Saint Luke's Hospital Center", "opening_hours": "24/7", "operator": "Mount Sinai", "phone": "+1-212-523-4000", "website": "https://www.mountsinai.org/locations/morningside", "wikidata": "Q41559830", "wikipedia": "en:Mount Sinai Morningside"}}, {"type": "way", "id": 818557074, "nodes": [42440935, 9441141805, 7557417154, 42450341, 3998699939, 7246154631, 7644293501, 2710212189, 2710212205, 7644293502, 42440935], "tags": {"addr:city": "New York", "addr:housenumber": "1000", "addr:postcode": "10019", "addr:state": "NY", "addr:street": "10th Avenue", "amenity": "hospital", "emergency": "yes", "healthcare": "hospital", "healthcare:speciality": "oncology;otolaryngology;emergency;cardiology;neurology;surgery;radiology;urology;psychiatry;gynaecology;orthopaedics;general;pulmonology;neurosurgery;palliative;paediatrics;haematology;physiatry;radiotherapy", "name": "Mount Sinai West", "old_name": "Roosevelt Hospital", "opening_hours": "24/7", "operator": "Mount Sinai Health System", "operator:type": "private", "operator:wikidata": "Q5165549", "phone": "+1-212-523-4000", "website": "https://www.mountsinai.org/locations/west", "wheelchair": "yes", "wikidata": "Q41559869", "wikipedia": "en:Mount Sinai West"}}]}