{"version": 0.6, "generator": "Overpass API 0.7.62.8 e802775f", "osm3s": {"timestamp_osm_base": "2026-01-11T18:42:58Z", "copyright": "The data included in this document is from www.openstreetmap.org. The data is made available under ODbL."}, "elements": [{"type": "node", "id": 268376845, "lat": 34.101069, "lon": -118.105328}, {"type": "node", "id": 268535282, "lat": 34.1010739, "lon": -118.1050912}, {"type": "node", "id": 282579823, "lat": 34.0996162, "lon": -118.1056724}, {"type": "node", "id": 358808233, "lat": 34.142112, "lon": -118.0893937}, {"type": "node", "id": 358828394, "lat": 34.0903966, "lon": -118.1434855}, {"type": "node", "id": 738595567, "lat": 34.1023341, "lon": -118.1049958}, {"type": "node", "id": 738595577, "lat": 34.1008898, "lon": -118.1064343}, {"type": "node", "id": 738595598, "lat": 34.1019671, "lon": -118.1049912}, {"type": "node", "id": 738595603, "lat": 34.1011694, "lon": -118.1050787}, {"type": "node", "id": 738595616, "lat": 34.1018239, "lon": -118.1062}, {"type": "node", "id": 738595620, "lat": 34.102324, "lon": -118.1060131}, {"type": "node", "id": 738595627, "lat": 34.0998244, "lon": -118.1068411}, {"type": "node", "id": 738595646, "lat": 34.101682, "lon": -118.1049942}, {"type": "node", "id": 738595652, "lat": 34.1012932, "lon": -118.1049979}, {"type": "node", "id": 738595709, "lat": 34.1017583, "lon": -118.1062145}, {"type": "node", "id": 988903865, "lat": 34.1324534, "lon": -118.1504873}, {"type": "node", "id": 1919958773, "lat": 34.131691, "lon": -118.150499}, {"type": "node", "id": 1919958777, "lat": 34.1316601, "lon": -118.1539013}, {"type": "node", "id": 1919958778, "lat": 34.1322425, "lon": -118.1540176}, {"type": "node", "id": 1919958789, "lat": 34.1319352, "lon": -118.1539823}, {"type": "node", "id": 1919958793, "lat": 34.1320987, "lon": -118.154003}, {"type": "node", "id": 1919958797, "lat": 34.1356473, "lon": -118.1518905}, {"type": "node", "id": 1919958804, "lat": 34.1356182, "lon": -118.1539976}, {"type": "node", "id": 1919958813, "lat": 34.1339987, "lon": -118.1514402}, {"type": "node", "id": 3696005504, "lat": 34.1340046, "lon": -118.1540072}, {"type": "node", "id": 4657759276, "lat": 34.0971649, "lon": -118.1220771}, {"type": "node", "id": 4657759540, "lat": 34.0969133, "lon": -118.1219018}, {"type": "node", "id": 4657759699, "lat": 34.0971874, "lon": -118.1213335}, {"type": "node", "id": 4657759769, "lat": 34.097439, "lon": -118.1215088}, {"type": "node", "id": 4657795625, "lat": 34.1010705, "lon": -118.1052574}, {"type": "node", "id": 4657796668, "lat": 34.1003854, "lon": -118.105486}, {"type": "node", "id": 5420751483, "lat": 34.1492996, "lon": -118.0828633}, {"type": "node", "id": 5420754388, "lat": 34.1493417, "lon": -118.0832163}, {"type": "node", "id": 5420754402, "lat": 34.1498197, "lon": -118.0835935}, {"type": "node", "id": 5420754605, "lat": 34.1496704, "lon": -118.0831878}, {"type": "node", "id": 5420754633, "lat": 34.1498343, "lon": -118.0827959}, {"type": "node", "id": 5420754937, "lat": 34.1494871, "lon": -118.083028}, {"type": "node", "id": 5420755014, "lat": 34.149566, "lon": -118.0831877}, {"type": "node", "id": 5420755867, "lat": 34.1498682, "lon": -118.0828452}, {"type": "node", "id": 5420755878, "lat": 34.149487, "lon": -118.0831876}, {"type": "node", "id": 5420755968, "lat": 34.1497508, "lon": -118.0831878}, {"type": "node", "id": 5420756025, "lat": 34.1495659, "lon": -118.0833268}, {"type": "node", "id": 5420756518, "lat": 34.149768, "lon": -118.0827958}, {"type": "node", "id": 5420756881, "lat": 34.1493956, "lon": -118.0827564}, {"type": "node", "id": 5420758284, "lat": 34.1498935, "lon": -118.0829589}, {"type": "node", "id": 5420758385, "lat": 34.1493972, "lon": -118.0835931}, {"type": "node", "id": 5420758527, "lat": 34.1497342, "lon": -118.0827568}, {"type": "node", "id": 5420759094, "lat": 34.1497507, "lon": -118.083327}, {"type": "node", "id": 5420759204, "lat": 34.1498931, "lon": -118.0835189}, {"type": "node", "id": 5420759753, "lat": 34.1493415, "lon": -118.0835187}, {"type": "node", "id": 5420760474, "lat": 34.1498681, "lon": -118.0829232}, {"type": "node", "id": 5420760479, "lat": 34.1492994, "lon": -118.0831602}, {"type": "node", "id": 5420760894, "lat": 34.1496705, "lon": -118.0830282}, {"type": "node", "id": 5496002977, "lat": 34.1401495, "lon": -118.0926847}, {"type": "node", "id": 5496002978, "lat": 34.1402383, "lon": -118.0928645}, {"type": "node", "id": 5496002979, "lat": 34.1403671, "lon": -118.0930898}, {"type": "node", "id": 5496002980, "lat": 34.141204, "lon": -118.0931059}, {"type": "node", "id": 5496002981, "lat": 34.141224, "lon": -118.0930334}, {"type": "node", "id": 5496002982, "lat": 34.1413128, "lon": -118.0929503}, {"type": "node", "id": 5496002983, "lat": 34.1413994, "lon": -118.0929449}, {"type": "node", "id": 5496002984, "lat": 34.1414926, "lon": -118.0929798}, {"type": "node", "id": 5496002985, "lat": 34.1415481, "lon": -118.0931005}, {"type": "node", "id": 5496002986, "lat": 34.1420631, "lon": -118.0930924}, {"type": "node", "id": 5496002987, "lat": 34.1396523, "lon": -118.0894527}, {"type": "node", "id": 5496002988, "lat": 34.1396634, "lon": -118.0926579}, {"type": "node", "id": 5496088831, "lat": 34.1340134, "lon": -118.1504634}, {"type": "node", "id": 5496088832, "lat": 34.1347322, "lon": -118.1516688}, {"type": "node", "id": 5496088833, "lat": 34.13479, "lon": -118.1518544}, {"type": "node", "id": 5496088834, "lat": 34.1346794, "lon": -118.1515382}, {"type": "node", "id": 5496088835, "lat": 34.1346032, "lon": -118.1514788}, {"type": "node", "id": 5496088836, "lat": 34.1341793, "lon": -118.1514743}, {"type": "node", "id": 5496088837, "lat": 34.1341375, "lon": -118.1514847}, {"type": "node", "id": 5496088838, "lat": 34.1341117, "lon": -118.1515085}, {"type": "node", "id": 5496088839, "lat": 34.1339999, "lon": -118.1514936}, {"type": "node", "id": 5496088840, "lat": 34.1348293, "lon": -118.1518855}, {"type": "node", "id": 5496394678, "lat": 34.0899415, "lon": -118.1434475}, {"type": "node", "id": 5496394679, "lat": 34.0899818, "lon": -118.1435038}, {"type": "node", "id": 5496394680, "lat": 34.0908089, "lon": -118.1449181}, {"type": "node", "id": 5496394681, "lat": 34.0895002, "lon": -118.1449166}, {"type": "node", "id": 5496394682, "lat": 34.0895216, "lon": -118.1434551}, {"type": "node", "id": 5496394683, "lat": 34.0908278, "lon": -118.1434825}, {"type": "node", "id": 8519665340, "lat": 34.102044, "lon": -118.1046952, "tags": {"addr:city": "San Gabriel", "addr:housenumber": "416", "addr:postcode": "91776", "addr:state": "CA", "addr:street": "West Las Tunas Drive", "addr:unit": "203", "amenity": "hospital", "check_date": "2025-10-12", "contact:yelp": "https://www.yelp.com/biz/endocare-center-san-gabriel", "email": "info@endocarecenter.com", "healthcare": "dentist", "healthcare:speciality": "dentist;endodontics", "name": "EndoCare Center, Endodontic Office of Dr. John Yu", "operator": "Dr. John Yu", "operator:type": "business", "phone": "+1 626-678-0167", "website": "https://www.endocarecenter.com/"}}, {"type": "node", "id": 10760971306, "lat": 34.0895094, "lon": -118.1442859}, {"type": "node", "id": 10760971313, "lat": 34.0902686, "lon": -118.1434906}, {"type": "node", "id": 10866464472, "lat": 34.0884364, "lon": -118.0740196, "tags": {"addr:city": "Rosemead", "addr:housenumber": "4619", "addr:postcode": "91770-1478", "addr:street": "Rosemead Boulevard", "amenity": "hospital", "beds": "97", "healthcare": "hospital", "healthcare:speciality": "psychiatry", "name": "BHC Alhambra Hospital", "phone": "+1 626 286 1191", "website": "https://www.bhcalhambra.com"}}, {"type": "way", "id": 59546380, "nodes": [738595620, 738595567, 738595598, 738595646, 738595652, 738595603, 268535282, 4657795625, 268376845, 4657796668, 282579823, 738595627, 738595577, 738595709, 738595616, 738595620], "tags": {"addr:city": "San Gabriel", "addr:housenumber": "438", "addr:postcode": "91776", "addr:state": "CA", "addr:street": "West Las Tunas Drive", "amenity": "hospital", "beds": "273", "check_date": "2025-10-27", "contact:yelp": "https://www.yelp.com/biz/san-gabriel-valley-medical-center-san-gabriel", "emergency": "yes", "healthcare": "hospital", "name": "San Gabriel Valley Medical Center", "name:zh": "\u5723\u76d6\u535a", "opening_hours": "24/7", "operator": "AHMC Healthcare", "phone": "+1 626-289-5454", "source": "usgs_imagery;survey;image", "source_ref": "AM909_DSCU3306", "website": "https://www.ahmchealth.com/sgvmc/"}}, {"type": "way", "id": 181582600, "nodes": [1919958804, 1919958797, 5496088840, 5496088833, 5496088832, 5496088834, 5496088835, 5496088836, 5496088837, 5496088838, 5496088839, 1919958813, 5496088831, 988903865, 1919958773, 1919958777, 1919958789, 1919958793, 1919958778, 3696005504, 1919958804], "tags": {"addr:city": "Pasadena", "addr:housenumber": "100", "addr:postcode": "91105", "addr:state": "CA", "addr:street": "West California Boulevard", "alt_name": "Huntington Memorial Hospital", "amenity": "hospital", "beds": "619", "check_date": "2025-11-16", "emergency": "yes", "healthcare": "hospital", "name": "Huntington Hospital", "opening_hours": "24/7", "operator": "Cedars Sinai", "operator:wikidata": "Q1052562", "phone": "+1-626-397-5000", "website": "https://www.huntingtonhealth.org/", "wikidata": "Q5945374"}}, {"type": "way", "id": 471613246, "nodes": [4657759540, 4657759276, 4657759769, 4657759699, 4657759540], "tags": {"addr:city": "Alhambra", "addr:housenumber": "500", "addr:postcode": "91801", "addr:state": "CA", "addr:street": "East Main Street", "amenity": "hospital", "building": "hospital", "check_date": "2025-08-11", "ele": "168.1", "height": "28.6", "lacounty:ain": "5345016807", "lacounty:bld_id": "524828857770", "name": "AHMC Healthcare", "operator": "AHMC Healthcare", "operator:wikidata": "Q4651769", "phone": "+1 626-457-7400", "website": "https://www.ahmchealth.com/"}}, {"type": "way", "id": 562292275, "nodes": [5420751483, 5420760479, 5420754388, 5420759753, 5420758385, 5420754402, 5420759204, 5420758284, 5420760474, 5420755867, 5420754633, 5420756518, 5420758527, 5420756881, 5420751483]}, {"type": "way", "id": 562292346, "nodes": [5420756025, 5420755014, 5420755878, 5420754937, 5420760894, 5420754605, 5420755968, 5420759094, 5420756025]}, {"type": "way", "id": 571991516, "nodes": [5496002988, 5496002987, 358808233, 5496002986, 5496002985, 5496002984, 5496002983, 5496002982, 5496002981, 5496002980, 5496002979, 5496002978, 5496002977, 5496002988], "tags": {"addr:city": "Pasadena", "addr:housenumber": "2900", "addr:postcode": "91107", "addr:street": "East Del Mar Boulevard", "amenity": "hospital", "emergency": "no", "gnis:feature_id": "1660895", "healthcare": "hospital", "healthcare:speciality": "psychiatry", "name": "Las Encinas Hospital", "phone": "+1 800 792 2345", "website": "https://www.lasencinashospital.com/"}}, {"type": "way", "id": 572047613, "nodes": [5496394683, 358828394, 10760971313, 5496394679, 5496394678, 5496394682, 10760971306, 5496394681, 5496394680, 5496394683], "tags": {"addr:city": "Alhambra", "addr:housenumber": "100", "addr:postcode": "91801", "addr:state": "CA", "addr:street": "South Raymond Avenue", "amenity": "hospital", "beds": "144", "check_date": "2025-10-28", "contact:facebook": "https://www.facebook.com/Alhambra-Hospital-Medical-Center-113474088687300/", "contact:yelp": "https://www.yelp.com/biz/alhambra-hospital-medical-center-alhambra", "email": "info@alhambrahospital.com", "emergency": "yes", "gnis:feature_id": "1762982", "healthcare": "hospital", "name": "Alhambra Hospital Medical Center", "opening_hours": "24/7", "phone": "+1 626-570-1606", "website": "https://www.alhambrahospital.com/"}}, {"type": "relation", "id": 8032981, "members": [{"type": "way", "ref": 562292275, "role": "outer"}, {"type": "way", "ref": 562292346, "role": "inner"}], "tags": {"addr:city": "Pasadena", "addr:housenumber": "3280", "addr:postcode": "91107", "addr:state": "CA", "addr:street": "East Foothill Boulevard", "amenity": "hospital", "branch": "Pasadena Medical Offices", "building": "hospital", "check_date": "2026-01-06", "contact:yelp": "https://www.yelp.com/biz/kaiser-permanente-pasadena-medical-offices-pasadena", "emergency": "no", "healthcare": "hospital", "lacounty:ain": "5752023031", "lacounty:bld_id": "PAS72676", "name": "Kaiser Permanente", "opening_hours": "Mo-Fr 07:30-23:00; Sa-Su 08:00-23:00", "operator": "Kaiser Permanente", "operator:short": "KP", "operator:type": "private", "operator:website": "https://healthy.kaiserpermanente.org/", "operator:wikidata": "Q1721601", "operator:wikipedia": "en:Kaiser Permanente", "type": "multipolygon", "website": "https://healthy.kaiserpermanente.org/southern-california/facilities/Pasadena-Medical-Offices-100070"}}]}