{"version": 0.6, "generator": "Overpass API 0.7.62.8 e802775f", "osm3s": {"timestamp_osm_base": "2026-01-15T04:06:05Z", "copyright": "The data included in this document is from www.openstreetmap.org. The data is made available under ODbL."}, "elements": [{"type": "node", "id": 27475330, "lat": 53.5912729, "lon": 9.9810918}, {"type": "node", "id": 27475333, "lat": 53.5883686, "lon": 9.9682758}, {"type": "node", "id": 27475334, "lat": 53.5919096, "lon": 9.9715272}, {"type": "node", "id": 27475335, "lat": 53.5935037, "lon": 9.9718432}, {"type": "node", "id": 27475336, "lat": 53.593992, "lon": 9.9755644}, {"type": "node", "id": 27475337, "lat": 53.5939946, "lon": 9.9779525}, {"type": "node", "id": 27475338, "lat": 53.5936803, "lon": 9.9780801}, {"type": "node", "id": 127505665, "lat": 53.5600858, "lon": 10.0149832}, {"type": "node", "id": 127505668, "lat": 53.5578822, "lon": 10.0188153}, {"type": "node", "id": 127505673, "lat": 53.5592652, "lon": 10.0211957}, {"type": "node", "id": 127505677, "lat": 53.560923, "lon": 10.0181737}, {"type": "node", "id": 127505685, "lat": 53.5610657, "lon": 10.0170985}, {"type": "node", "id": 127505689, "lat": 53.5615798, "lon": 10.0161446}, {"type": "node", "id": 127505692, "lat": 53.5606274, "lon": 10.0152963}, {"type": "node", "id": 258079118, "lat": 53.5876837, "lon": 9.9683983}, {"type": "node", "id": 258079119, "lat": 53.5892645, "lon": 9.970674}, {"type": "node", "id": 258079120, "lat": 53.5906397, "lon": 9.9701146}, {"type": "node", "id": 258079557, "lat": 53.5880854, "lon": 9.9700181}, {"type": "node", "id": 258079558, "lat": 53.5871576, "lon": 9.9709682}, {"type": "node", "id": 258079618, "lat": 53.5895695, "lon": 9.9704264}, {"type": "node", "id": 258080075, "lat": 53.5911206, "lon": 9.970443}, {"type": "node", "id": 258080076, "lat": 53.5911804, "lon": 9.9709983}, {"type": "node", "id": 258080077, "lat": 53.5913625, "lon": 9.9714419}, {"type": "node", "id": 258080078, "lat": 53.5915407, "lon": 9.9715844}, {"type": "node", "id": 258080079, "lat": 53.5917288, "lon": 9.9716136}, {"type": "node", "id": 258080080, "lat": 53.59296, "lon": 9.9719948}, {"type": "node", "id": 258080082, "lat": 53.594341, "lon": 9.9754066}, {"type": "node", "id": 293616359, "lat": 53.5711632, "lon": 9.9656154}, {"type": "node", "id": 293616361, "lat": 53.5722131, "lon": 9.9671688}, {"type": "node", "id": 303256191, "lat": 53.5724599, "lon": 9.9666959}, {"type": "node", "id": 309352905, "lat": 53.5914352, "lon": 9.9715932, "tags": {"access": "private", "barrier": "gate", "bicycle": "yes", "emergency": "yes", "foot": "yes", "locked": "yes"}}, {"type": "node", "id": 313468592, "lat": 53.5609367, "lon": 10.0179546}, {"type": "node", "id": 331755708, "lat": 53.5587843, "lon": 10.0201697}, {"type": "node", "id": 331755709, "lat": 53.5589556, "lon": 10.020357}, {"type": "node", "id": 331755710, "lat": 53.5589191, "lon": 10.0206358}, {"type": "node", "id": 334019672, "lat": 53.5609003, "lon": 10.0153786}, {"type": "node", "id": 389416222, "lat": 53.5714107, "lon": 9.9651413}, {"type": "node", "id": 439759648, "lat": 53.5692573, "lon": 9.9677238}, {"type": "node", "id": 439759655, "lat": 53.5695977, "lon": 9.9681011}, {"type": "node", "id": 439759657, "lat": 53.569687, "lon": 9.9678822}, {"type": "node", "id": 439759714, "lat": 53.569662, "lon": 9.9678492}, {"type": "node", "id": 439764032, "lat": 53.5693051, "lon": 9.9676226}, {"type": "node", "id": 442926861, "lat": 53.558944, "lon": 10.0169962, "tags": {"barrier": "gate", "bicycle": "no", "foot": "no"}}, {"type": "node", "id": 446049419, "lat": 53.561557, "lon": 10.0162635}, {"type": "node", "id": 446049420, "lat": 53.5614587, "lon": 10.0164893}, {"type": "node", "id": 446049421, "lat": 53.5612128, "lon": 10.0167926}, {"type": "node", "id": 446049422, "lat": 53.5612274, "lon": 10.015615}, {"type": "node", "id": 762635051, "lat": 53.5928417, "lon": 9.9791527, "tags": {"barrier": "gate", "bicycle": "yes", "foot": "yes", "maxwidth:physical": "2"}}, {"type": "node", "id": 762635064, "lat": 53.5942634, "lon": 9.9746227, "tags": {"barrier": "gate", "bicycle": "yes", "foot": "yes", "locked": "no"}}, {"type": "node", "id": 789465098, "lat": 53.5587202, "lon": 10.0201777}, {"type": "node", "id": 789465132, "lat": 53.5589179, "lon": 10.0201805}, {"type": "node", "id": 946777648, "lat": 53.5900056, "lon": 9.9781746}, {"type": "node", "id": 948030802, "lat": 53.5940018, "lon": 9.9763501}, {"type": "node", "id": 948031038, "lat": 53.5940194, "lon": 9.9776394}, {"type": "node", "id": 948031160, "lat": 53.5939979, "lon": 9.9760653}, {"type": "node", "id": 949554432, "lat": 53.5871074, "lon": 9.971419}, {"type": "node", "id": 1287843348, "lat": 53.5876641, "lon": 9.9723055, "tags": {"barrier": "gate", "bicycle": "no", "foot": "yes", "locked": "no", "maxwidth:physical": "1.5", "source:maxwidth:physical": "ARCore"}}, {"type": "node", "id": 1479490960, "lat": 53.5713422, "lon": 9.9652724, "tags": {"access": "customers", "comment": "Eingang zur Cafeteria. Haupteingang des Krankenhauses ist links daneben", "entrance": "service"}}, {"type": "node", "id": 1480282548, "lat": 53.5940015, "lon": 9.9763282}, {"type": "node", "id": 1480282549, "lat": 53.5940048, "lon": 9.9765687}, {"type": "node", "id": 1480282550, "lat": 53.5940071, "lon": 9.9767388}, {"type": "node", "id": 1480282551, "lat": 53.5940078, "lon": 9.976788}, {"type": "node", "id": 1480282552, "lat": 53.5940085, "lon": 9.9768392}, {"type": "node", "id": 1480282553, "lat": 53.5940091, "lon": 9.9768821}, {"type": "node", "id": 1480282554, "lat": 53.5940098, "lon": 9.9769375}, {"type": "node", "id": 1480282555, "lat": 53.5940102, "lon": 9.9769664}, {"type": "node", "id": 1480282556, "lat": 53.5940106, "lon": 9.9769966}, {"type": "node", "id": 1480282557, "lat": 53.5940169, "lon": 9.9774584}, {"type": "node", "id": 1480282558, "lat": 53.5940176, "lon": 9.9775134}, {"type": "node", "id": 1480378068, "lat": 53.5943384, "lon": 9.9750864}, {"type": "node", "id": 1481064068, "lat": 53.5918813, "lon": 9.9715432}, {"type": "node", "id": 1481064070, "lat": 53.5920825, "lon": 9.9713908}, {"type": "node", "id": 1481064570, "lat": 53.5934481, "lon": 9.9715835}, {"type": "node", "id": 1481064571, "lat": 53.5931387, "lon": 9.9718691}, {"type": "node", "id": 1481278563, "lat": 53.5927318, "lon": 9.9708988}, {"type": "node", "id": 1481393014, "lat": 53.5905013, "lon": 9.9701431}, {"type": "node", "id": 1481593717, "lat": 53.587927, "lon": 9.9695568}, {"type": "node", "id": 1481593723, "lat": 53.5880656, "lon": 9.9694151}, {"type": "node", "id": 1482361966, "lat": 53.5888816, "lon": 9.9736268}, {"type": "node", "id": 1484619679, "lat": 53.5935823, "lon": 9.9781993}, {"type": "node", "id": 2648385668, "lat": 53.5716669, "lon": 9.9655205}, {"type": "node", "id": 2657525212, "lat": 53.5612851, "lon": 10.0167034}, {"type": "node", "id": 2719940082, "lat": 53.5906896, "lon": 9.970567}, {"type": "node", "id": 2724344874, "lat": 53.5938442, "lon": 9.9717769}, {"type": "node", "id": 3209771622, "lat": 53.5713189, "lon": 9.9655827}, {"type": "node", "id": 3209771623, "lat": 53.5713458, "lon": 9.9656223}, {"type": "node", "id": 3209771624, "lat": 53.5713578, "lon": 9.9655077}, {"type": "node", "id": 3209771625, "lat": 53.5713847, "lon": 9.9655473}, {"type": "node", "id": 3209771627, "lat": 53.5714194, "lon": 9.9657436}, {"type": "node", "id": 3209771629, "lat": 53.5715355, "lon": 9.9659151}, {"type": "node", "id": 3209771630, "lat": 53.5715304, "lon": 9.9655309}, {"type": "node", "id": 3209771631, "lat": 53.5716106, "lon": 9.9660216}, {"type": "node", "id": 3209771634, "lat": 53.5716464, "lon": 9.9657026}, {"type": "node", "id": 3209771635, "lat": 53.5716376, "lon": 9.9660612}, {"type": "node", "id": 3209771636, "lat": 53.5716496, "lon": 9.9659466}, {"type": "node", "id": 3209771637, "lat": 53.5716765, "lon": 9.9659863}, {"type": "node", "id": 3209771641, "lat": 53.5717361, "lon": 9.9661378}, {"type": "node", "id": 3209771642, "lat": 53.5717732, "lon": 9.9660669}, {"type": "node", "id": 3209771643, "lat": 53.571812, "lon": 9.9662498}, {"type": "node", "id": 3209771644, "lat": 53.571849, "lon": 9.9661787}, {"type": "node", "id": 3209771645, "lat": 53.571909, "lon": 9.9664543}, {"type": "node", "id": 3209771646, "lat": 53.571936, "lon": 9.9664939}, {"type": "node", "id": 3209771647, "lat": 53.5719479, "lon": 9.9663793}, {"type": "node", "id": 3209771648, "lat": 53.5719749, "lon": 9.9664189}, {"type": "node", "id": 3209771649, "lat": 53.5720129, "lon": 9.9666164}, {"type": "node", "id": 3209771650, "lat": 53.5721288, "lon": 9.9667876}, {"type": "node", "id": 3209771652, "lat": 53.5721231, "lon": 9.9664052}, {"type": "node", "id": 3209771653, "lat": 53.5721919, "lon": 9.9662975}, {"type": "node", "id": 3209771655, "lat": 53.5722002, "lon": 9.9668863}, {"type": "node", "id": 3209771658, "lat": 53.5722389, "lon": 9.9665766}, {"type": "node", "id": 3209771659, "lat": 53.5722271, "lon": 9.9669259}, {"type": "node", "id": 3209771660, "lat": 53.5722391, "lon": 9.9668113}, {"type": "node", "id": 3209773761, "lat": 53.572266, "lon": 9.9668509}, {"type": "node", "id": 3506189304, "lat": 53.5883783, "lon": 9.9741832}, {"type": "node", "id": 3506238371, "lat": 53.5904974, "lon": 9.9758294, "tags": {"amenity": "doctors", "healthcare": "doctor", "healthcare:speciality": "otolaryngology", "level": "0", "name": "Hals-, Nasen- und Ohrenheilkunde", "phone": "+49 40 7410 22500", "source": "survey", "website": "https://www.uke.de/kliniken-institute/kliniken/hals-nasen-und-ohrenheilkunde/index.html", "wheelchair": "yes", "wikidata": "Q316207", "wikipedia": "de:Universit\u00e4tsklinikum Hamburg-Eppendorf"}}, {"type": "node", "id": 3506238372, "lat": 53.5904071, "lon": 9.9756196, "tags": {"addr:city": "Hamburg", "addr:housename": "Haus Ost 58 (O 58)", "addr:housenumber": "52", "addr:postcode": "20251", "addr:street": "Martinistra\u00dfe", "amenity": "doctors", "healthcare": "doctor", "healthcare:speciality": "oral_and_maxillofacial_surgery", "level": "0", "name": "Mund-, Kiefer- und Gesichtschirurgie (MKG)", "phone": "+49 40 7410 52260", "website": "https://www.uke.de/kliniken-institute/kliniken/mund-kiefer-und-gesichtschirurgie-(mkg)/index.html", "wheelchair": "yes"}}, {"type": "node", "id": 3506239893, "lat": 53.5905631, "lon": 9.9759777, "tags": {"amenity": "doctors", "healthcare": "doctor", "level": "0", "name": "H\u00f6r-, Stimm- und Sprachheilkunde", "phone": "+49 40 7410 22500", "source": "survey", "website": "https://www.uke.de/kliniken/phoniatrie/", "wheelchair": "yes"}}, {"type": "node", "id": 3506247335, "lat": 53.5903435, "lon": 9.9748537, "tags": {"amenity": "doctors", "healthcare": "doctor", "level": "0", "name": "Blutentnahme", "phone": "+49 40 74100", "source": "survey", "website": "https://www.uke.de/", "wheelchair": "yes"}}, {"type": "node", "id": 3506260117, "lat": 53.5905936, "lon": 9.9743811, "tags": {"amenity": "doctors", "healthcare": "doctor", "level": "0", "name": "AEP", "phone": "+49 40 74100", "source": "survey", "website": "https://www.uke.de/", "wheelchair": "yes"}}, {"type": "node", "id": 3506260118, "lat": 53.5902388, "lon": 9.9745521, "tags": {"amenity": "doctors", "healthcare": "doctor", "level": "0", "name": "Adipositas-Zentrum", "phone": "+49 40 7410 23800", "source": "survey", "website": "https://www.uke.de/", "wheelchair": "yes"}}, {"type": "node", "id": 3506260119, "lat": 53.5905912, "lon": 9.9744975, "tags": {"amenity": "doctors", "healthcare": "doctor", "level": "0", "name": "EEG", "phone": "+49 40 74100", "source": "survey", "website": "https://www.uke.de/", "wheelchair": "yes"}}, {"type": "node", "id": 3506260120, "lat": 53.5906107, "lon": 9.9744751, "tags": {"amenity": "doctors", "healthcare": "doctor", "level": "0", "name": "EMG", "phone": "+49 40 74100", "source": "survey", "website": "https://www.uke.de/", "wheelchair": "yes"}}, {"type": "node", "id": 3506260121, "lat": 53.590178, "lon": 9.974623, "tags": {"amenity": "doctors", "healthcare": "doctor", "healthcare:speciality": "endocrinology", "level": "0", "name": "Endokrinologie", "operator": "UKE", "phone": "+49 40 7410 23800", "source": "survey", "website": "https://www.uke.de/kliniken/medizinische-klinik-3/", "wheelchair": "yes", "wikidata": "Q316207", "wikipedia": "de:Universit\u00e4tsklinikum Hamburg-Eppendorf"}}, {"type": "node", "id": 3506260122, "lat": 53.5906162, "lon": 9.9743709, "tags": {"amenity": "doctors", "healthcare": "doctor", "level": "0", "name": "Funktionsdiagnostik", "phone": "+49 40 74100", "source": "survey", "website": "https://www.uke.de/", "wheelchair": "yes"}}, {"type": "node", "id": 3506260123, "lat": 53.5901376, "lon": 9.9745315, "tags": {"amenity": "doctors", "healthcare": "doctor", "healthcare:speciality": "gynaecology", "level": "0", "name": "Gyn\u00e4kologie", "opening_hours": "Mo-Fr 07:00-19:00; Sa 07:00-18:00; Su off", "phone": "+49 40 7410 23800", "source": "survey", "website": "https://www.uke.de/kliniken/frauenklinik/", "wheelchair": "yes", "wikidata": "Q316207", "wikipedia": "de:Universit\u00e4tsklinikum Hamburg-Eppendorf"}}, {"type": "node", "id": 3506260124, "lat": 53.5903081, "lon": 9.9743219, "tags": {"amenity": "doctors", "healthcare": "doctor", "level": "0", "name": "Hepatobili\u00e4re Chirurgie", "phone": "+49 40 7410 20900", "source": "survey", "website": "https://www.uke.de/kliniken/hepatobiliaere-chirurgie/", "wheelchair": "yes", "wikidata": "Q316207", "wikipedia": "de:Universit\u00e4tsklinikum Hamburg-Eppendorf"}}, {"type": "node", "id": 3506260125, "lat": 53.5903535, "lon": 9.9744124, "tags": {"amenity": "doctors", "healthcare": "doctor", "healthcare:speciality": "internal", "level": "0", "name": "Innere Medizin", "operator": "UKE", "phone": "+49 40 7410 20900", "source": "survey", "website": "https://www.uke.de/", "wheelchair": "yes", "wikidata": "Q316207", "wikipedia": "de:Universit\u00e4tsklinikum Hamburg-Eppendorf"}}, {"type": "node", "id": 3506260126, "lat": 53.5906302, "lon": 9.9744468, "tags": {"amenity": "doctors", "healthcare": "doctor", "level": "0", "name": "MEP", "phone": "+49 40 74100", "source": "survey", "website": "https://www.uke.de/", "wheelchair": "yes"}}, {"type": "node", "id": 3506260127, "lat": 53.5906128, "lon": 9.9744171, "tags": {"amenity": "doctors", "healthcare": "doctor", "level": "0", "name": "NLG", "phone": "+49 40 74100", "source": "survey", "website": "https://www.uke.de/", "wheelchair": "yes"}}, {"type": "node", "id": 3506260128, "lat": 53.5905548, "lon": 9.9744395, "tags": {"amenity": "doctors", "healthcare": "doctor", "level": "0", "name": "Neurologie", "phone": "+49 40 74100", "source": "survey", "website": "https://www.uke.de/kliniken/neurologie/", "wheelchair": "yes"}}, {"type": "node", "id": 3506260129, "lat": 53.590572, "lon": 9.9744733, "tags": {"amenity": "doctors", "healthcare": "doctor", "level": "0", "name": "Neurosonografie", "phone": "+49 40 74100", "source": "survey", "website": "https://www.uke.de/", "wheelchair": "yes"}}, {"type": "node", "id": 3506261759, "lat": 53.5901964, "lon": 9.9744609, "tags": {"amenity": "doctors", "healthcare": "doctor", "healthcare:speciality": "rheumatology", "level": "0", "name": "Rheumatologie", "phone": "+49 40 7410 23800", "source": "survey", "website": "https://www.uke.de/kliniken/medizinische-klinik-3/", "wheelchair": "yes"}}, {"type": "node", "id": 3506261760, "lat": 53.5905902, "lon": 9.9744402, "tags": {"amenity": "doctors", "healthcare": "doctor", "level": "0", "name": "SEP", "phone": "+49 40 74100", "source": "survey", "website": "https://www.uke.de/", "wheelchair": "yes"}}, {"type": "node", "id": 3506261761, "lat": 53.5913223, "lon": 9.9738123, "tags": {"healthcare": "doctor", "healthcare:counselling": "psychiatry", "level": "2", "name": "Seelsorge", "phone": "+49 40 7410 57003", "source": "survey", "website": "https://www.uke.de/patienten-besucher/index_11323.php", "wheelchair": "yes"}}, {"type": "node", "id": 3506261762, "lat": 53.5904037, "lon": 9.9747386, "tags": {"amenity": "doctors", "healthcare": "doctor", "level": "0", "name": "Sozialdienst", "phone": "+49 40 74100", "source": "survey", "website": "https://www.uke.de/", "wheelchair": "yes"}}, {"type": "node", "id": 3506261763, "lat": 53.5905738, "lon": 9.9744077, "tags": {"amenity": "doctors", "healthcare": "doctor", "level": "0", "name": "VEP", "phone": "+49 40 74100", "source": "survey", "website": "https://www.uke.de/", "wheelchair": "yes"}}, {"type": "node", "id": 3506267967, "lat": 53.5910231, "lon": 9.973572, "tags": {"amenity": "doctors", "healthcare": "doctor", "healthcare:speciality": "surgery", "level": "0", "name": "Chirurgie", "phone": "+49 40 7410 23400", "source": "survey", "website": "https://www.uke.de/", "wheelchair": "yes"}}, {"type": "node", "id": 3506267969, "lat": 53.5909535, "lon": 9.974318, "tags": {"amenity": "doctors", "healthcare": "doctor", "healthcare:speciality": "pulmonology", "level": "0", "name": "Pneumologische Ambulanz", "phone": "+49 40 74100", "source": "survey", "website": "https://www.uke.de/", "wheelchair": "yes"}}, {"type": "node", "id": 3506267970, "lat": 53.5909545, "lon": 9.9740131, "tags": {"amenity": "doctors", "level": "0", "name": "R\u00f6ntgen", "phone": "+49 40 7410 23700", "source": "survey", "website": "https://www.uke.de/", "wheelchair": "yes"}}, {"type": "node", "id": 3506267971, "lat": 53.5908253, "lon": 9.974169, "tags": {"amenity": "doctors", "level": "0", "name": "Sonografie", "phone": "+49 40 74100", "source": "survey", "website": "https://www.uke.de/", "wheelchair": "yes"}}, {"type": "node", "id": 3506267972, "lat": 53.5910167, "lon": 9.9739308, "tags": {"amenity": "doctors", "healthcare": "doctor", "healthcare:speciality": "urology", "level": "0", "name": "Urologie", "phone": "+49 40 7410 23700", "source": "survey", "website": "https://www.uke.de/", "wheelchair": "yes"}}, {"type": "node", "id": 3506270615, "lat": 53.5906433, "lon": 9.9740868, "tags": {"amenity": "doctors", "level": "0", "name": "Neurochirurgie", "phone": "+49 40 74100", "source": "survey", "website": "https://www.uke.de/", "wheelchair": "yes"}}, {"type": "node", "id": 3506270616, "lat": 53.5905967, "lon": 9.9739827, "tags": {"amenity": "doctors", "healthcare": "doctor", "healthcare:speciality": "neurology", "level": "0", "name": "Neurologie", "phone": "+49 40 74100", "source": "survey", "website": "https://www.uke.de/kliniken/neurologie/", "wheelchair": "yes", "wikidata": "Q316207", "wikipedia": "de:Universit\u00e4tsklinikum Hamburg-Eppendorf"}}, {"type": "node", "id": 3506270617, "lat": 53.5906571, "lon": 9.9739012, "tags": {"amenity": "doctors", "healthcare": "doctor", "level": "0", "name": "Schmerzambulanz", "phone": "+49 40 74100", "source": "survey", "website": "https://www.uke.de/", "wheelchair": "yes", "wikidata": "Q316207", "wikipedia": "de:Universit\u00e4tsklinikum Hamburg-Eppendorf"}}, {"type": "node", "id": 3506270618, "lat": 53.5907993, "lon": 9.9738484, "tags": {"amenity": "doctors", "healthcare": "doctor", "healthcare:speciality": "urology", "level": "0", "name": "Urologie", "phone": "+49 40 7410 23700", "source": "survey", "website": "https://www.uke.de/", "wheelchair": "yes", "wikidata": "Q316207", "wikipedia": "de:Universit\u00e4tsklinikum Hamburg-Eppendorf"}}, {"type": "node", "id": 3506270619, "lat": 53.5907034, "lon": 9.9740029, "tags": {"amenity": "doctors", "healthcare": "doctor", "level": "0", "name": "Wirbels\u00e4ule", "phone": "+49 40 74100", "source": "survey", "website": "https://www.uke.de/", "wheelchair": "yes"}}, {"type": "node", "id": 3761057530, "lat": 53.5921787, "lon": 9.9756013, "tags": {"amenity": "doctors", "healthcare": "doctor", "healthcare:speciality": "cardiology", "level": "0", "name": "Universit\u00e4res Herz- und Gef\u00e4\u00dfzentrum UKE Hamburg", "source": "survey", "website": "https://www.uke.de/zentren/herz/", "wheelchair": "yes"}}, {"type": "node", "id": 3761057532, "lat": 53.5919291, "lon": 9.975139, "tags": {"amenity": "doctors", "healthcare": "doctor", "level": "0", "name": "Herzkatheter Labor", "source": "survey", "website": "https://www.uke.de/zentren/herz/", "wheelchair": "yes"}}, {"type": "node", "id": 3761060446, "lat": 53.5907575, "lon": 9.9767667, "tags": {"amenity": "doctors", "healthcare": "doctor", "healthcare:speciality": "infectious_diseases", "level": "0", "name": "Infektiologie und Tropenmedizin", "operator": "A. W. Lohse", "source": "survey", "website": "https://www.uke.de/kliniken/medizinische-klinik-1/", "wheelchair": "yes"}}, {"type": "node", "id": 3761075452, "lat": 53.5906184, "lon": 9.9773179, "tags": {"amenity": "doctors", "healthcare": "clinic", "healthcare:speciality": "anaesthetics", "level": "0", "name": "Klinik f\u00fcr An\u00e4sthesiologie", "source": "survey", "toilets:wheelchair": "no", "wheelchair": "yes"}}, {"type": "node", "id": 3761075453, "lat": 53.5904729, "lon": 9.9769428, "tags": {"amenity": "doctors", "healthcare": "polyclinic", "healthcare:speciality": "psychiatry", "level": "0", "name": "Poliklinik f\u00fcr Psychosomatik und Psychotherapie", "source": "survey", "wheelchair": "yes"}}, {"type": "node", "id": 3763193606, "lat": 53.5938489, "lon": 9.9718187, "tags": {"barrier": "gate"}}, {"type": "node", "id": 3763193609, "lat": 53.5938949, "lon": 9.9723841}, {"type": "node", "id": 3763193610, "lat": 53.5939774, "lon": 9.9727872, "tags": {"barrier": "gate", "bicycle": "yes", "foot": "yes"}}, {"type": "node", "id": 3763193616, "lat": 53.5940356, "lon": 9.9731578, "tags": {"barrier": "gate"}}, {"type": "node", "id": 3763194832, "lat": 53.5931076, "lon": 9.9717086}, {"type": "node", "id": 3763194834, "lat": 53.5931978, "lon": 9.9716485}, {"type": "node", "id": 3763194836, "lat": 53.5932134, "lon": 9.9717201}, {"type": "node", "id": 3763194854, "lat": 53.5941234, "lon": 9.9737254, "tags": {"barrier": "gate", "bicycle": "yes", "foot": "yes"}}, {"type": "node", "id": 3763194856, "lat": 53.5942525, "lon": 9.9754053}, {"type": "node", "id": 3763197218, "lat": 53.5912285, "lon": 9.9711826}, {"type": "node", "id": 3763197219, "lat": 53.5912857, "lon": 9.9713224}, {"type": "node", "id": 3763197220, "lat": 53.5914017, "lon": 9.9715687}, {"type": "node", "id": 3763197221, "lat": 53.5914151, "lon": 9.9714909}, {"type": "node", "id": 3763197222, "lat": 53.591476, "lon": 9.9716231}, {"type": "node", "id": 3763197223, "lat": 53.5914972, "lon": 9.9715543}, {"type": "node", "id": 3763197224, "lat": 53.5915889, "lon": 9.9716007}, {"type": "node", "id": 3763225556, "lat": 53.5912882, "lon": 9.9794777, "tags": {"healthcare": "occupational_therapist", "level": "0", "name": "Kinderklinik Krankengymnastik", "operator:wikidata": "Q108545288", "website": "https://www.uke.de/kliniken/kinderklinik/", "wheelchair": "yes"}}, {"type": "node", "id": 3763231758, "lat": 53.5916229, "lon": 9.9717996, "tags": {"amenity": "doctors", "level": "0", "name": "MediGate", "source": "survey", "website": "https://www.uke.de/", "wheelchair": "yes"}}, {"type": "node", "id": 3763238294, "lat": 53.5913442, "lon": 9.9794004, "tags": {"amenity": "doctors", "healthcare": "doctor", "healthcare:speciality": "haematology;oncology", "level": "0", "name": "P\u00e4diatrische H\u00e4matologie und Onkologie", "operator:wikidata": "Q108545288", "source": "survey", "website": "https://www.uke.de/kliniken/kinderklinik/", "wheelchair": "yes"}}, {"type": "node", "id": 3771238745, "lat": 53.5884409, "lon": 9.9718044, "tags": {"amenity": "doctors", "healthcare": "doctor", "name": "Andrologie", "phone": "+49 40 7410 53640", "source": "survey", "website": "https://www.uke.de/kliniken/andrologie/"}}, {"type": "node", "id": 3771238746, "lat": 53.5883005, "lon": 9.9719509, "tags": {"amenity": "doctors", "healthcare": "doctor", "name": "Institut f\u00fcr Forensische Psychiatrie", "source": "survey", "wheelchair": "yes"}}, {"type": "node", "id": 3771238747, "lat": 53.5883707, "lon": 9.9718738, "tags": {"check_date": "2024-05-13", "name": "Institut f\u00fcr Sexualforschung", "office": "research", "source": "survey", "wheelchair": "yes"}}, {"type": "node", "id": 3771238748, "lat": 53.5882383, "lon": 9.9720301, "tags": {"amenity": "doctors", "healthcare": "doctor", "name": "M\u00e4nnergesundheit", "source": "survey", "wheelchair": "yes"}}, {"type": "node", "id": 3771239644, "lat": 53.5861933, "lon": 9.9708885}, {"type": "node", "id": 3771239646, "lat": 53.5866444, "lon": 9.9719641}, {"type": "node", "id": 3771239647, "lat": 53.5867069, "lon": 9.9703455}, {"type": "node", "id": 3771250966, "lat": 53.5881524, "lon": 9.9721531, "tags": {"name": "Institut f\u00fcr Versorgungsforschung in der Dermatologie und bei Pflegeberufen", "office": "research", "source": "survey", "wheelchair": "yes"}}, {"type": "node", "id": 3771252799, "lat": 53.5883825, "lon": 9.9727614, "tags": {"amenity": "doctors", "healthcare": "doctor", "name": "An\u00e4sthesie Zentrum Hamburg", "source": "survey", "wheelchair": "yes"}}, {"type": "node", "id": 3771252800, "lat": 53.588205, "lon": 9.9722885, "tags": {"amenity": "doctors", "healthcare": "doctor", "healthcare:speciality": "oncology", "name": "Dermato-Onkologie, \u00c4sthetik", "source": "survey", "wheelchair": "yes"}}, {"type": "node", "id": 3771252801, "lat": 53.5884479, "lon": 9.972926, "tags": {"amenity": "doctors", "healthcare": "doctor", "name": "Die Anaesthesie", "source": "survey", "wheelchair": "yes"}}, {"type": "node", "id": 3771857694, "lat": 53.5878165, "lon": 9.9710365, "tags": {"amenity": "doctors", "healthcare": "centre", "healthcare:speciality": "ophthalmology", "layer": "3", "level": "3", "name": "Ambulantes Augen OP-Zentrum", "phone": "+49 40 7410 52350", "website": "https://www.uke.de/kliniken/augenklinik/", "wheelchair": "yes"}}, {"type": "node", "id": 3771857698, "lat": 53.5877669, "lon": 9.9708979, "tags": {"amenity": "doctors", "healthcare": "centre", "healthcare:speciality": "ophthalmology", "layer": "2", "level": "2", "name": "Augen-Diagnostik-Centrum", "website": "https://www.uke.de/kliniken/augenklinik/", "wheelchair": "yes"}}, {"type": "node", "id": 3771857699, "lat": 53.588153, "lon": 9.9709183, "tags": {"amenity": "doctors", "healthcare": "doctor", "healthcare:speciality": "ophthalmology", "level": "0", "name": "CareVision Augenlaserkorrekturen", "opening_hours": "Tu-Fr 09:00-18:00; Sa 09:00-15:00", "phone": "+49 800 8888474", "website": "https://www.care-vision.de/", "wheelchair": "yes"}}, {"type": "node", "id": 3771857700, "lat": 53.5897656, "lon": 9.971155, "tags": {"amenity": "doctors", "healthcare": "doctor", "layer": "0", "level": "0", "name": "Drogenambulanz", "wheelchair": "yes"}}, {"type": "node", "id": 3771857708, "lat": 53.5895877, "lon": 9.9713973, "tags": {"amenity": "doctors", "healthcare": "doctor", "layer": "0", "level": "0", "name": "Institut f\u00fcr Medizinische Psychologie", "wheelchair": "yes"}}, {"type": "node", "id": 3771857710, "lat": 53.5879302, "lon": 9.9707251, "tags": {"amenity": "doctors", "healthcare": "doctor", "level": "0", "name": "Ple- und Orthoptik", "opening_hours": "Mo-Fr 07:30-19:30; Sa,Su 10:00-16:30", "phone": "+49 40 7410 52350", "website": "https://www.uke.de/kliniken/augenklinik/", "wheelchair": "yes"}}, {"type": "node", "id": 3771857711, "lat": 53.5879733, "lon": 9.9708469, "tags": {"amenity": "doctors", "healthcare": "polyclinic", "healthcare:speciality": "ophthalmology", "level": "0", "name": "Poliklinik f\u00fcr Augenheilkunde", "opening_hours": "Mo-Fr 07:30-19:30; Sa,Su 10:00-16:30", "phone": "+49 40 7410 52350", "website": "https://www.uke.de/kliniken/augenklinik/", "wheelchair": "yes"}}, {"type": "node", "id": 3771872348, "lat": 53.590936, "lon": 9.9713626, "tags": {"amenity": "doctors", "healthcare": "doctor", "level": "0", "name": "AG Toxikologie", "source": "survey", "wheelchair": "yes"}}, {"type": "node", "id": 3771872350, "lat": 53.5900898, "lon": 9.9720919, "tags": {"amenity": "doctors", "healthcare": "doctor", "name": "Deutsches Zentrum f\u00fcr Suchtfragen des Kindes- und Jugendalters DZSKJ", "wheelchair": "yes"}}, {"type": "node", "id": 3771872352, "lat": 53.5904598, "lon": 9.971299, "tags": {"name": "Forschungssektion Kinder- und Jugendgesundheit", "office": "research", "wheelchair": "yes"}}, {"type": "node", "id": 3771872353, "lat": 53.5908744, "lon": 9.9710801, "tags": {"amenity": "doctors", "healthcare": "doctor", "level": "0", "name": "Gef\u00e4\u00dfmedizin Forschung", "source": "survey", "wheelchair": "yes"}}, {"type": "node", "id": 3771898757, "lat": 53.591029, "lon": 9.9713335, "tags": {"amenity": "doctors", "healthcare": "doctor", "level": "0", "name": "Kinderchirurgie Forschung", "source": "survey", "wheelchair": "yes"}}, {"type": "node", "id": 3771898759, "lat": 53.5909706, "lon": 9.9710528, "tags": {"amenity": "doctors", "healthcare": "doctor", "level": "0", "name": "Molekulare Andrologie", "source": "survey", "wheelchair": "yes"}}, {"type": "node", "id": 3771898761, "lat": 53.5900228, "lon": 9.9719424, "tags": {"amenity": "doctors", "healthcare": "doctor", "name": "Poliklinik f\u00fcr Kinder- und Jugendpsychomatik Ambulanz und Forschungsabteilung", "wheelchair": "yes"}}, {"type": "node", "id": 3771943886, "lat": 53.5896193, "lon": 9.9706843, "tags": {"amenity": "doctors", "healthcare": "doctor", "name": "Ambulanz f\u00fcr seelisch erkrankte Kinder und Jugendliche", "wheelchair": "yes"}}, {"type": "node", "id": 3771943887, "lat": 53.5895329, "lon": 9.9707845, "tags": {"amenity": "doctors", "healthcare": "doctor", "name": "Jugend-Suchtstation", "wheelchair": "yes"}}, {"type": "node", "id": 3771943888, "lat": 53.5894489, "lon": 9.9708959, "tags": {"amenity": "doctors", "healthcare": "doctor", "name": "Suchttagesklinik f\u00fcr Jugendliche", "wheelchair": "yes"}}, {"type": "node", "id": 3771948703, "lat": 53.5884084, "lon": 9.9720151, "tags": {"amenity": "doctors", "healthcare": "centre", "healthcare:speciality": "dermatology", "name": "Ambulanzzentrum Dermatologie", "source": "survey", "wheelchair": "yes"}}, {"type": "node", "id": 3771948704, "lat": 53.588762, "lon": 9.9747104, "tags": {"amenity": "doctors", "healthcare": "doctor", "name": "Clinical Trial Center North", "source": "survey", "toilets:wheelchair": "no"}}, {"type": "node", "id": 3771948707, "lat": 53.5887207, "lon": 9.9746031, "tags": {"amenity": "doctors", "healthcare": "doctor", "name": "Institut f\u00fcr Allgemeinmedizin", "source": "survey"}}, {"type": "node", "id": 3771948709, "lat": 53.5886241, "lon": 9.974382, "tags": {"amenity": "doctors", "healthcare": "doctor", "name": "Institut f\u00fcr Medizinische Biometrie und Epidemiologie", "source": "survey"}}, {"type": "node", "id": 3771948711, "lat": 53.5886719, "lon": 9.9744964, "tags": {"amenity": "doctors", "healthcare": "doctor", "name": "Institut f\u00fcr syst. Neurowissenschaften", "source": "survey"}}, {"type": "node", "id": 3771948712, "lat": 53.5884901, "lon": 9.9719348, "tags": {"amenity": "doctors", "healthcare": "doctor", "name": "Interdisziplin\u00e4res Kompetenzzentrum f\u00fcr Sexuelle Gesundheit", "source": "survey", "wheelchair": "yes"}}, {"type": "node", "id": 3771948713, "lat": 53.5883405, "lon": 9.9720959, "tags": {"amenity": "doctors", "healthcare": "doctor", "name": "Klinik f\u00fcr Interdisziplin\u00e4re Endoskopie", "source": "survey", "wheelchair": "yes"}}, {"type": "node", "id": 3771948717, "lat": 53.5888062, "lon": 9.9748099, "tags": {"amenity": "doctors", "healthcare": "doctor", "name": "Multiple Sklerose Tagesklinik", "source": "survey"}}, {"type": "node", "id": 3771948718, "lat": 53.5885729, "lon": 9.9742596, "tags": {"amenity": "doctors", "healthcare": "laboratory", "name": "Neurologie Wissenschaftliche Labore", "source": "survey"}}, {"type": "node", "id": 3771948719, "lat": 53.5890289, "lon": 9.9743876, "tags": {"amenity": "doctors", "healthcare": "doctor", "name": "Neurowissenschaftliches MRT", "source": "survey"}}, {"type": "node", "id": 3771948995, "lat": 53.5882719, "lon": 9.9721671, "tags": {"amenity": "doctors", "healthcare": "doctor", "name": "Zentrum f\u00fcr Sto\u00dfwellentherapie", "source": "survey", "wheelchair": "yes"}}, {"type": "node", "id": 3771984001, "lat": 53.5892069, "lon": 9.9753418, "tags": {"check_date": "2025-03-31", "name": "Sicherheitsdienst", "office": "yes", "phone": "+49 40 7410 55555", "website": "https://www.uke.de/zentrale-dienste/sicherheit"}}, {"type": "node", "id": 3841589505, "lat": 53.593875, "lon": 9.9720928}, {"type": "node", "id": 5922872034, "lat": 53.5884487, "lon": 9.9733108}, {"type": "node", "id": 6351184393, "lat": 53.5720538, "lon": 9.9669312}, {"type": "node", "id": 6351184394, "lat": 53.5719381, "lon": 9.9667598}, {"type": "node", "id": 6351184395, "lat": 53.5717561, "lon": 9.9664905}, {"type": "node", "id": 6351184398, "lat": 53.5716407, "lon": 9.9663207}, {"type": "node", "id": 6351184399, "lat": 53.5714622, "lon": 9.9660561}, {"type": "node", "id": 6351184400, "lat": 53.5713449, "lon": 9.9658843}, {"type": "node", "id": 6351184423, "lat": 53.5713642, "lon": 9.9652304}, {"type": "node", "id": 6351253939, "lat": 53.5697243, "lon": 9.9677153}, {"type": "node", "id": 6351253942, "lat": 53.5694967, "lon": 9.9670373}, {"type": "node", "id": 6351253948, "lat": 53.5693829, "lon": 9.9671591}, {"type": "node", "id": 6351253949, "lat": 53.56936, "lon": 9.9672072}, {"type": "node", "id": 6351253951, "lat": 53.5693475, "lon": 9.9672676}, {"type": "node", "id": 6351253952, "lat": 53.5693943, "lon": 9.9673306}, {"type": "node", "id": 6351253955, "lat": 53.5692883, "lon": 9.9676579}, {"type": "node", "id": 6351253956, "lat": 53.5694367, "lon": 9.9670451}, {"type": "node", "id": 6351253957, "lat": 53.5693384, "lon": 9.9672527}, {"type": "node", "id": 6351253959, "lat": 53.5692761, "lon": 9.9675883}, {"type": "node", "id": 6351253960, "lat": 53.5695411, "lon": 9.9680981}, {"type": "node", "id": 6351253961, "lat": 53.569561, "lon": 9.9680528}, {"type": "node", "id": 6351253962, "lat": 53.5696568, "lon": 9.967974}, {"type": "node", "id": 6351253963, "lat": 53.569649, "lon": 9.9679637}, {"type": "node", "id": 6351253964, "lat": 53.5699363, "lon": 9.9672853}, {"type": "node", "id": 6351253965, "lat": 53.5695866, "lon": 9.9668171}, {"type": "node", "id": 6351253966, "lat": 53.5693468, "lon": 9.9678408}, {"type": "node", "id": 6351254094, "lat": 53.5692624, "lon": 9.9677117}, {"type": "node", "id": 6373927721, "lat": 53.5920618, "lon": 9.9800578}, {"type": "node", "id": 6373927722, "lat": 53.5918044, "lon": 9.9794417}, {"type": "node", "id": 6373927723, "lat": 53.591681, "lon": 9.9795596}, {"type": "node", "id": 6373927724, "lat": 53.5910354, "lon": 9.9780723}, {"type": "node", "id": 6373927725, "lat": 53.5905968, "lon": 9.9785954}, {"type": "node", "id": 6373927726, "lat": 53.5906692, "lon": 9.978759}, {"type": "node", "id": 6373927727, "lat": 53.5904073, "lon": 9.9791028}, {"type": "node", "id": 6390624282, "lat": 53.5866605, "lon": 9.9703255}, {"type": "node", "id": 7149888806, "lat": 53.5602145, "lon": 10.0151911}, {"type": "node", "id": 7149888813, "lat": 53.5602753, "lon": 10.0150903}, {"type": "node", "id": 7156477769, "lat": 53.5583254, "lon": 10.0180184}, {"type": "node", "id": 7156477871, "lat": 53.5596893, "lon": 10.0156709}, {"type": "node", "id": 8044139190, "lat": 53.5712258, "lon": 9.9657074}, {"type": "node", "id": 8297298380, "lat": 53.5713866, "lon": 9.9651876, "tags": {"comment": "Haupteingang", "emergency": "emergency_ward_entrance", "emergency_ward_entrance": "walk-in", "entrance": "main"}}, {"type": "node", "id": 8297298381, "lat": 53.5714124, "lon": 9.9659833, "tags": {"access": "permit", "door": "sliding", "emergency": "emergency_ward_entrance", "emergency_ward_entrance": "rescue_service", "entrance": "service", "wheelchair": "yes"}}, {"type": "node", "id": 8855157930, "lat": 53.5889274, "lon": 9.9755551}, {"type": "node", "id": 8855157931, "lat": 53.5889586, "lon": 9.9756329}, {"type": "node", "id": 8855157944, "lat": 53.5893215, "lon": 9.9764983}, {"type": "node", "id": 8855157945, "lat": 53.5890896, "lon": 9.9759383}, {"type": "node", "id": 8888982901, "lat": 53.5940224, "lon": 9.9779558}, {"type": "node", "id": 8988350517, "lat": 53.5713168, "lon": 9.9653207}, {"type": "node", "id": 8988350520, "lat": 53.571232, "lon": 9.9654841}, {"type": "node", "id": 8996728886, "lat": 53.591834, "lon": 9.9795127}, {"type": "node", "id": 9276224102, "lat": 53.5696226, "lon": 9.9668653}, {"type": "node", "id": 9276224105, "lat": 53.5697756, "lon": 9.96707}, {"type": "node", "id": 9434514991, "lat": 53.5893546, "lon": 9.9766436}, {"type": "node", "id": 9693571065, "lat": 53.5873607, "lon": 9.9707602}, {"type": "node", "id": 10011642817, "lat": 53.5883283, "lon": 9.9727691, "tags": {"addr:city": "Hamburg", "addr:country": "DE", "addr:housenumber": "78", "addr:postcode": "20251", "addr:street": "Martinistra\u00dfe", "amenity": "hospital", "email": "info@facharztklinik-hamburg.de", "internet_access": "wlan", "name": "Die Facharztklinik Hamburg", "phone": "+49 40 49065-0", "website": "https://www.facharztklinik-hamburg.de"}}, {"type": "node", "id": 10788847850, "lat": 53.572441, "lon": 9.9666678}, {"type": "node", "id": 11042463753, "lat": 53.5877292, "lon": 9.9724767}, {"type": "node", "id": 11042463754, "lat": 53.5880172, "lon": 9.972184}, {"type": "node", "id": 11042463755, "lat": 53.5886715, "lon": 9.9730731}, {"type": "node", "id": 12758733545, "lat": 53.5937863, "lon": 9.9779758}, {"type": "way", "id": 4482267, "nodes": [1287843348, 258079558, 9693571065, 258079557, 1481593717, 1481593723, 258079118, 27475333, 258079119, 258079618, 1481393014, 258079120, 2719940082, 258080075, 258080076, 3763197218, 3763197219, 258080077, 3763197221, 3763197220, 309352905, 3763197222, 3763197223, 258080078, 3763197224, 258080079, 1481064068, 27475334, 1481064070, 1481278563, 258080080, 1481064571, 3763194832, 3763194834, 3763194836, 1481064570, 27475335, 2724344874, 3763193606, 3841589505, 3763193609, 3763193610, 3763193616, 3763194854, 762635064, 1480378068, 258080082, 3763194856, 27475336, 948031160, 1480282548, 948030802, 1480282549, 1480282550, 1480282551, 1480282552, 1480282553, 1480282554, 1480282555, 1480282556, 1480282557, 1480282558, 948031038, 8888982901, 27475337, 12758733545, 27475338, 1484619679, 762635051, 6373927721, 27475330, 6373927727, 946777648, 9434514991, 8855157944, 8855157945, 8855157931, 8855157930, 3506189304, 1482361966, 11042463755, 5922872034, 11042463754, 11042463753, 1287843348], "tags": {"addr:city": "Hamburg", "addr:country": "DE", "addr:housenumber": "52", "addr:postcode": "20251", "addr:street": "Martinistra\u00dfe", "amenity": "hospital", "contact:email": "info@uke.de", "contact:instagram": "uke_hamburg", "contact:linkedin": "universit-tsklinikum-hamburg-eppendorf", "contact:phone": "+49 40 7410-0", "contact:twitter": "UKEHamburg", "contact:website": "https://www.uke.de/", "contact:xing": "universitatsklinikumhamburg-eppendorf-uke", "contact:youtube": "UKEkanal", "emergency": "yes", "healthcare": "hospital", "healthcare:speciality": "psychiatry;paediatrics;ophthalmology;intensive;orthopaedics;gynaecology;emergency;dialysis;dermatology;surgery;cardiology;radiology;oncology;internal", "image": "https://upload.wikimedia.org/wikipedia/commons/thumb/c/c6/Dachmarke_universitaetsklinikum_hamburg-eppendorf.svg/192px-Dachmarke_universitaetsklinikum_hamburg-eppendorf.svg.png", "internet_access": "wlan", "internet_access:fee": "no", "internet_access:ssid": "UKE_freeWiFi", "logo": "https://upload.wikimedia.org/wikipedia/commons/thumb/c/c6/Dachmarke_universitaetsklinikum_hamburg-eppendorf.svg/192px-Dachmarke_universitaetsklinikum_hamburg-eppendorf.svg.png", "name": "Universit\u00e4tsklinikum Eppendorf", "official_name": "Universit\u00e4tsklinikum Hamburg-Eppendorf", "opening_hours": "24/7", "operator": "Beh\u00f6rde f\u00fcr Wissenschaft, Forschung, Gleichstellung und Bezirke", "operator:wikidata": "Q814590", "phone": "+49 40 74100", "ref:isil": "DE-18-64", "short_name": "UKE", "website": "https://www.uke.de/", "wheelchair": "yes", "wikidata": "Q316207", "wikipedia": "de:Universit\u00e4tsklinikum Hamburg-Eppendorf"}}, {"type": "way", "id": 24339487, "nodes": [313468592, 127505685, 446049421, 2657525212, 446049420, 446049419, 127505689, 446049422, 334019672, 127505692, 7149888813, 7149888806, 127505665, 7156477871, 442926861, 7156477769, 127505668, 789465098, 331755708, 789465132, 331755709, 331755710, 127505673, 127505677, 313468592], "tags": {"addr:city": "Hamburg", "addr:country": "DE", "addr:housenumber": "5", "addr:postcode": "20099", "addr:street": "Lohm\u00fchlenstra\u00dfe", "amenity": "hospital", "capacity:beds": "707", "check_date": "2024-04-09", "contact:phone": "+49 40 181885-0", "contact:website": "https://www.asklepios.com/sanktgeorg", "emergency": "yes", "healthcare": "hospital", "name": "Asklepios Klinik St. Georg", "opening_hours": "24/7", "operator": "Asklepios Kliniken", "operator:type": "private", "operator:wikidata": "Q732068", "operator:wikipedia": "de:Asklepios Kliniken", "short_name": "AK St. Georg", "toilets:wheelchair": "yes", "wheelchair": "yes", "wikidata": "Q732056", "wikipedia": "de:Asklepios Klinik St. Georg"}}, {"type": "way", "id": 33995350, "nodes": [389416222, 8297298380, 6351184423, 1479490960, 8988350517, 8988350520, 293616359, 8044139190, 6351184400, 8297298381, 6351184399, 6351184398, 6351184395, 6351184394, 6351184393, 293616361, 303256191, 10788847850, 3209771653, 2648385668, 389416222]}, {"type": "way", "id": 314914111, "nodes": [3209771629, 3209771627, 3209771630, 3209771634, 3209771629], "tags": {"source": "Bing"}}, {"type": "way", "id": 314914112, "nodes": [3209771631, 3209771636, 3209771637, 3209771635, 3209771631], "tags": {"source": "Bing"}}, {"type": "way", "id": 314914113, "nodes": [3209771622, 3209771624, 3209771625, 3209771623, 3209771622], "tags": {"source": "Bing"}}, {"type": "way", "id": 314914114, "nodes": [3209771645, 3209771647, 3209771648, 3209771646, 3209771645], "tags": {"source": "Bing"}}, {"type": "way", "id": 314914115, "nodes": [3209771655, 3209771660, 3209773761, 3209771659, 3209771655], "tags": {"source": "Bing"}}, {"type": "way", "id": 314914116, "nodes": [3209771643, 3209771641, 3209771642, 3209771644, 3209771643], "tags": {"source": "Bing"}}, {"type": "way", "id": 314914117, "nodes": [3209771650, 3209771649, 3209771652, 3209771658, 3209771650], "tags": {"source": "Bing"}}, {"type": "way", "id": 678297488, "nodes": [6351253965, 9276224102, 9276224105, 6351253964, 6351253939, 439759714, 439759657, 6351253963, 6351253962, 439759655, 6351253961, 6351253960, 6351253966, 439759648, 6351254094, 6351253955, 439764032, 6351253959, 6351253952, 6351253951, 6351253957, 6351253949, 6351253948, 6351253956, 6351253942, 6351253965], "tags": {"addr:city": "Hamburg", "addr:country": "DE", "addr:housenumber": "6", "addr:postcode": "20357", "addr:street": "Moorkamp", "amenity": "hospital", "contact:email": "info@jerusalem-hamburg.de", "contact:fax": "+49 40 4106973", "contact:phone": "+49 40 44190-0", "contact:website": "https://jerusalem-hamburg.de/", "emergency": "no", "healthcare": "hospital", "name": "Krankenhaus Jerusalem", "opening_hours": "24/7", "operator": "Krankenhaus Jerusalem GmbH", "wheelchair": "yes", "wikidata": "Q28859939", "wikipedia": "de:Krankenhaus Jerusalem"}}, {"type": "way", "id": 680707042, "nodes": [6373927727, 6373927726, 6373927725, 6373927724, 6373927723, 6373927722, 8996728886, 6373927721, 27475330, 6373927727], "tags": {"addr:city": "Hamburg", "addr:country": "DE", "addr:housenumber": "52", "addr:postcode": "20251", "addr:street": "Martinistra\u00dfe", "amenity": "hospital", "emergency": "yes", "healthcare": "hospital", "name": "Klinik f\u00fcr Kinder- und Jugendmedizin Eppendorf", "operator": "Universit\u00e4tsklinikum Eppendorf", "phone": "+49 40 7410-0", "short_name": "Kinder-UKE", "website": "https://www.kinder-uke.de/", "wheelchair": "yes", "wikidata": "Q108545288"}}, {"type": "way", "id": 682409966, "nodes": [3771239647, 949554432, 3771239646, 3771239644, 6390624282, 3771239647], "tags": {"landuse": "commercial"}}, {"type": "relation", "id": 4233544, "members": [{"type": "way", "ref": 33995350, "role": "outer"}, {"type": "way", "ref": 314914111, "role": "inner"}, {"type": "way", "ref": 314914116, "role": "inner"}, {"type": "way", "ref": 314914117, "role": "inner"}, {"type": "way", "ref": 314914115, "role": "inner"}, {"type": "way", "ref": 314914114, "role": "inner"}, {"type": "way", "ref": 314914112, "role": "inner"}, {"type": "way", "ref": 314914113, "role": "inner"}], "tags": {"addr:city": "Hamburg", "addr:country": "DE", "addr:housenumber": "17", "addr:postcode": "20259", "addr:street": "Hohe Weide", "amenity": "hospital", "building": "hospital", "building:levels": "5", "email": "info@d-k-h.de", "emergency": "yes", "fax": "+49 40 790201079", "healthcare": "hospital", "name": "Agaplesion Diakonieklinikum Hamburg", "operator": "Agaplesion", "operator:type": "private", "operator:wikidata": "Q55445", "phone": "+49 40 790200", "roof:shape": "flat", "type": "multipolygon", "website": "https://www.d-k-h.de", "wheelchair": "yes"}}, {"type": "relation", "id": 8743422, "members": [{"type": "node", "ref": 3771984001, "role": ""}, {"type": "node", "ref": 3771948707, "role": ""}, {"type": "node", "ref": 3771948704, "role": ""}, {"type": "node", "ref": 3771948717, "role": ""}, {"type": "node", "ref": 3771948711, "role": ""}, {"type": "node", "ref": 3771948709, "role": ""}, {"type": "node", "ref": 3771948718, "role": ""}, {"type": "node", "ref": 3771948719, "role": ""}, {"type": "node", "ref": 3771252799, "role": ""}, {"type": "node", "ref": 3771252801, "role": ""}, {"type": "node", "ref": 3771252800, "role": ""}, {"type": "node", "ref": 3771250966, "role": ""}, {"type": "node", "ref": 3771238748, "role": ""}, {"type": "node", "ref": 3771948995, "role": ""}, {"type": "node", "ref": 3771948713, "role": ""}, {"type": "node", "ref": 3771238746, "role": ""}, {"type": "node", "ref": 3771238747, "role": ""}, {"type": "node", "ref": 3771948703, "role": ""}, {"type": "node", "ref": 3771948712, "role": ""}, {"type": "node", "ref": 3771238745, "role": ""}, {"type": "node", "ref": 3771857698, "role": ""}, {"type": "node", "ref": 3771857710, "role": ""}, {"type": "node", "ref": 3771857711, "role": ""}, {"type": "node", "ref": 3771857699, "role": ""}, {"type": "node", "ref": 3771857694, "role": ""}, {"type": "node", "ref": 3771943888, "role": ""}, {"type": "node", "ref": 3771943887, "role": ""}, {"type": "node", "ref": 3771943886, "role": ""}, {"type": "node", "ref": 3771857700, "role": ""}, {"type": "node", "ref": 3771857708, "role": ""}, {"type": "node", "ref": 3771898761, "role": ""}, {"type": "node", "ref": 3771872350, "role": ""}, {"type": "node", "ref": 3771872352, "role": ""}, {"type": "node", "ref": 3771872353, "role": ""}, {"type": "node", "ref": 3771898759, "role": ""}, {"type": "node", "ref": 3771898757, "role": ""}, {"type": "node", "ref": 3771872348, "role": ""}, {"type": "node", "ref": 3763231758, "role": ""}, {"type": "node", "ref": 3506260123, "role": ""}, {"type": "node", "ref": 3506260121, "role": ""}, {"type": "node", "ref": 3506260118, "role": ""}, {"type": "node", "ref": 3506261759, "role": ""}, {"type": "node", "ref": 3506260125, "role": ""}, {"type": "node", "ref": 3506260124, "role": ""}, {"type": "node", "ref": 3506247335, "role": ""}, {"type": "node", "ref": 3506261762, "role": ""}, {"type": "node", "ref": 3506260128, "role": ""}, {"type": "node", "ref": 3506261763, "role": ""}, {"type": "node", "ref": 3506260117, "role": ""}, {"type": "node", "ref": 3506260122, "role": ""}, {"type": "node", "ref": 3506260127, "role": ""}, {"type": "node", "ref": 3506260129, "role": ""}, {"type": "node", "ref": 3506261760, "role": ""}, {"type": "node", "ref": 3506260120, "role": ""}, {"type": "node", "ref": 3506260126, "role": ""}, {"type": "node", "ref": 3506260119, "role": ""}, {"type": "node", "ref": 3506270619, "role": ""}, {"type": "node", "ref": 3506270617, "role": ""}, {"type": "node", "ref": 3506270616, "role": ""}, {"type": "node", "ref": 3506270615, "role": ""}, {"type": "node", "ref": 3506270618, "role": ""}, {"type": "node", "ref": 3506267971, "role": ""}, {"type": "node", "ref": 3506267970, "role": ""}, {"type": "node", "ref": 3506267972, "role": ""}, {"type": "node", "ref": 3506267969, "role": ""}, {"type": "node", "ref": 3506267967, "role": ""}, {"type": "node", "ref": 3506261761, "role": ""}, {"type": "node", "ref": 3761057532, "role": ""}, {"type": "node", "ref": 3763225556, "role": ""}, {"type": "node", "ref": 3763238294, "role": ""}, {"type": "node", "ref": 3761057530, "role": ""}, {"type": "node", "ref": 3761075453, "role": ""}, {"type": "node", "ref": 3761075452, "role": ""}, {"type": "node", "ref": 3761060446, "role": ""}, {"type": "node", "ref": 3506238371, "role": ""}, {"type": "node", "ref": 3506239893, "role": ""}, {"type": "node", "ref": 3506238372, "role": ""}, {"type": "way", "ref": 682409966, "role": "perimeter"}, {"type": "way", "ref": 4482267, "role": "perimeter"}, {"type": "way", "ref": 680707042, "role": ""}], "tags": {"amenity": "hospital", "healthcare": "hospital", "name": "Universit\u00e4tsklinikum Eppendorf", "phone": "+49 40 74100", "type": "site", "website": "https://www.uke.de", "wheelchair": "yes", "wikidata": "Q316207"}}]}