{"version": 0.6, "generator": "Overpass API 0.7.62.8 e802775f", "osm3s": {"timestamp_osm_base": "2026-01-09T09:22:52Z", "copyright": "The data included in this document is from www.openstreetmap.org. The data is made available under ODbL."}, "elements": [{"type": "node", "id": 846238607, "lat": 40.4286691, "lon": -86.9008068, "tags": {"bench": "yes", "bus": "yes", "highway": "bus_stop", "line": "5A", "name": "Happy Hollow BUS602W", "operator": "CItyBus", "operator:wikidata": "Q5600598", "operator:wikipedia": "en:Greater Lafayette Public Transportation Corporation", "public_transport": "platform", "ref": "BUS602W", "shelter": "yes", "website": "https://www.gocitybus.com/"}}, {"type": "node", "id": 846238617, "lat": 40.4273154, "lon": -86.9014471, "tags": {"bus": "yes", "highway": "bus_stop", "name": "Happy Hollow bus stop", "public_transport": "platform"}}, {"type": "node", "id": 2498478175, "lat": 40.4240033, "lon": -86.9172303, "tags": {"bench": "yes", "bin": "no", "bus": "yes", "highway": "bus_stop", "name": "Lilly Hall", "operator": "City Bus", "public_transport": "platform", "shelter": "yes", "tactile_paving": "no"}}, {"type": "node", "id": 3046239936, "lat": 40.426403, "lon": -86.9102961, "tags": {"bench": "yes", "bus": "yes", "highway": "bus_stop", "line": "4B, 5A", "name": "Grissom Hall on Grant St: BUS184", "operator": "CItyBus", "operator:wikidata": "Q5600598", "operator:wikipedia": "en:Greater Lafayette Public Transportation Corporation", "public_transport": "platform", "ref": "BUS184", "shelter": "yes", "website": "https://www.gocitybus.com/"}}, {"type": "node", "id": 3046239937, "lat": 40.4275497, "lon": -86.9102786, "tags": {"bench": "no", "bus": "yes", "highway": "bus_stop", "line": "4B, 5A", "name": "Northwestern Ave & Grant St (SE Corner): BUS135", "operator": "CItyBus", "operator:wikidata": "Q5600598", "operator:wikipedia": "en:Greater Lafayette Public Transportation Corporation", "public_transport": "platform", "ref": "BUS135", "shelter": "no", "website": "https://www.gocitybus.com/"}}, {"type": "node", "id": 3151822871, "lat": 40.4575408, "lon": -86.9340745, "tags": {"bench": "yes", "bus": "yes", "highway": "bus_stop", "name": "West Lafayette Walmart BUS403", "operator": "CityBus", "operator:wikidata": "Q5600598", "operator:wikipedia": "en:Greater Lafayette Public Transportation Corporation", "public_transport": "platform", "shelter": "yes", "website": "https://www.gocitybus.com/"}}, {"type": "node", "id": 3151822872, "lat": 40.4554112, "lon": -86.9158108, "tags": {"bench": "no", "bin": "no", "bus": "yes", "departures_board": "no", "highway": "bus_stop", "name": "Kent Ave & Salisbury BUS149", "network": "CityBus", "operator": "CityBus", "operator:wikidata": "Q5600598", "operator:wikipedia": "en:Greater Lafayette Public Transportation Corporation", "public_transport": "platform", "ref": "BUS149", "ref:ctb": "BUS149", "shelter": "yes", "website": "https://www.gocitybus.com/"}}, {"type": "node", "id": 3394220041, "lat": 40.4241055, "lon": -86.9118794, "tags": {"bench": "yes", "bus": "yes", "highway": "bus_stop", "line": "5A", "name": "BUS271", "operator": "CityBus", "public_transport": "platform", "ref": "BUS271", "shelter": "no"}}, {"type": "node", "id": 3394220042, "lat": 40.4230833, "lon": -86.9102617, "tags": {"bench": "yes", "bus": "yes", "highway": "bus_stop", "line": "5A", "name": "BUS154", "operator": "CityBus", "public_transport": "platform", "ref": "BUS145W", "shelter": "yes"}}, {"type": "node", "id": 3394744316, "lat": 40.428679, "lon": -86.9113155, "tags": {"bench": "yes", "bus": "yes", "covered": "yes", "highway": "bus_stop", "name": "BUS538", "operator": "CityBus", "public_transport": "platform", "ref": "BUS145W", "shelter": "yes"}}, {"type": "node", "id": 3399049880, "lat": 40.4304118, "lon": -86.9131697, "tags": {"bus": "yes", "highway": "bus_stop", "line": "4B, 5A", "name": "Physics (pulloff on Northwestern): BUS557", "operator": "CItyBus", "public_transport": "platform", "ref": "BUS135"}}, {"type": "node", "id": 3399249829, "lat": 40.4233103, "lon": -86.9036839, "tags": {"bench": "no", "bus": "yes", "covered": "no", "highway": "bus_stop", "name": "(South of) Howard Ave & River Rd: BUS580W", "public_transport": "platform", "shelter": "no"}}, {"type": "node", "id": 3399249848, "lat": 40.4219628, "lon": -86.9102462, "tags": {"bench": "no", "bus": "yes", "highway": "bus_stop", "line": "5A", "name": "Grant Street & Wood Street (SE Corner): BUS320", "operator": "CityBus", "public_transport": "platform", "ref": "BUS460", "shelter": "no"}}, {"type": "node", "id": 3402051239, "lat": 40.4257146, "lon": -86.9165937, "tags": {"bench": "no", "bus": "yes", "covered": "no", "highway": "bus_stop", "name": "Beering Hall on University Street: BUS389", "operator": "CityBus", "public_transport": "platform", "ref": "BUS145W", "shelter": "no"}}, {"type": "node", "id": 6952490896, "lat": 40.4549113, "lon": -86.9246271, "tags": {"bench": "yes", "bin": "no", "bus": "yes", "departures_board": "no", "highway": "bus_stop", "lit": "no", "name": "Beau Jardin Apts on Yeager Rd (at Shelter) BUS100W", "network": "CityBus", "operator": "Greater Lafayette Public Transportation Corporation", "operator:wikidata": "Q5600598", "operator:wikipedia": "en:Greater Lafayette Public Transportation Corporation", "public_transport": "platform", "ref": "BUS100W", "ref:ctb": "BUS100W", "shelter": "yes", "surface": "concrete", "tactile_paving": "no", "website": "https://www.gocitybus.com/"}}, {"type": "node", "id": 6955501479, "lat": 40.4545279, "lon": -86.9244216, "tags": {"bench": "no", "bin": "no", "bus": "yes", "departures_board": "no", "highway": "bus_stop", "lit": "no", "name": "Beau Jardin Apts on Yeager Rd (SE Corner) BUS100E", "network": "CityBus", "operator": "Greater Lafayette Public Transportation Corporation", "operator:wikidata": "Q5600598", "operator:wikipedia": "en:Greater Lafayette Public Transportation Corporation", "public_transport": "platform", "ref": "BUS100E", "ref:ctb": "BUS100E", "shelter": "no", "surface": "grass", "tactile_paving": "no", "website": "https://www.gocitybus.com/"}}, {"type": "node", "id": 6955501480, "lat": 40.4520508, "lon": -86.9243258, "tags": {"bench": "no", "bin": "no", "bus": "yes", "departures_board": "no", "highway": "bus_stop", "lit": "no", "name": "Anthrop Dr & Yeager Rd (NE Corner) BUS104N", "network": "CityBus", "operator": "Greater Lafayette Public Transportation Corporation", "operator:wikidata": "Q5600598", "operator:wikipedia": "en:Greater Lafayette Public Transportation Corporation", "public_transport": "platform", "ref": "BUS104N", "ref:ctb": "BUS104N", "shelter": "no", "surface": "concrete", "tactile_paving": "no", "website": "https://www.gocitybus.com/"}}, {"type": "node", "id": 6955501481, "lat": 40.4519087, "lon": -86.9241339, "tags": {"bench": "no", "bin": "no", "bus": "yes", "departures_board": "no", "highway": "bus_stop", "lit": "no", "name": "Yeager Rd & Anthrop Dr (at Shelter) BUS104S", "network": "CityBus", "operator": "Greater Lafayette Public Transportation Corporation", "operator:wikidata": "Q5600598", "operator:wikipedia": "en:Greater Lafayette Public Transportation Corporation", "public_transport": "platform", "ref": "BUS104S", "ref:ctb": "BUS104S", "shelter": "yes", "surface": "concrete", "tactile_paving": "no", "website": "https://www.gocitybus.com/"}}, {"type": "node", "id": 6955501482, "lat": 40.4520242, "lon": -86.9217317, "tags": {"bench": "no", "bin": "no", "bus": "yes", "departures_board": "no", "highway": "bus_stop", "lit": "no", "name": "Mayfair Village Apts on Sycamore Ln BUS101SW", "network": "CityBus", "operator": ":Greater Lafayette Public Transportation Corporation", "operator:wikidata": "Q5600598", "operator:wikipedia": "en:Greater Lafayette Public Transportation Corporation", "public_transport": "platform", "ref": "BUS101SW", "ref:ctb": "BUS101SW", "shelter": "no", "surface": "concrete", "tactile_paving": "no", "website": "https://www.gocitybus.com/"}}, {"type": "node", "id": 6955501483, "lat": 40.4521153, "lon": -86.9216416, "tags": {"bench": "no", "bin": "no", "bus": "yes", "departures_board": "no", "highway": "bus_stop", "lit": "no", "name": "Mayfair Village Apts on Sycamore Ln BUS101NE", "network": "CityBus", "operator": "Greater Lafayette Public Transportation Corporation", "operator:wikidata": "Q5600598", "operator:wikipedia": "en:Greater Lafayette Public Transportation Corporation", "public_transport": "platform", "ref": "BUS101NE", "ref:ctb": "BUS101NE", "shelter": "no", "surface": "concrete", "tactile_paving": "no", "website": "https://www.gocitybus.com/"}}, {"type": "node", "id": 6955583699, "lat": 40.4503028, "lon": -86.9193557, "tags": {"bench": "no", "bin": "no", "bus": "yes", "departures_board": "no", "highway": "bus_stop", "lit": "yes", "name": "Sycamore Ln & Carlisle Rd (SE Corner) BUS624E", "network": "CityBus", "operator": "Greater Lafayette Public Transportation Corporation", "operator:wikidata": "Q5600598", "operator:wikipedia": "en:Greater Lafayette Public Transportation Corporation", "public_transport": "platform", "ref:ctb": "BUS624E", "shelter": "no", "surface": "grass", "tactile_paving": "no", "website": "https://www.gocitybus.com/"}}, {"type": "node", "id": 6955583700, "lat": 40.4504885, "lon": -86.9195676, "tags": {"bench": "no", "bin": "no", "bus": "yes", "departures_board": "no", "highway": "bus_stop", "lit": "no", "name": "Sycamore Ln & Carlisle Rd (West of) BUS624W", "network": "CityBus", "operator": "Greater Lafayette Public Transportation Corporation", "operator:wikidata": "Q5600598", "operator:wikipedia": "en:Greater Lafayette Public Transportation Corporation", "public_transport": "platform", "ref:ctb": "BUS624W", "shelter": "no", "surface": "grass", "tactile_paving": "no", "website": "https://www.gocitybus.com/"}}, {"type": "node", "id": 6955583701, "lat": 40.4480191, "lon": -86.9196169, "tags": {"bench": "no", "bin": "no", "bus": "yes", "departures_board": "no", "highway": "bus_stop", "lit": "no", "name": "Carlisle Rd & Windsor Dr (NW Corner) BUS623NW", "network": "CityBus", "operator": "Greater Lafayette Public Transportation Corporation", "operator:wikidata": "Q5600598", "operator:wikipedia": "en:Greater Lafayette Public Transportation Corporation", "public_transport": "platform", "ref:ctb": "BUS623NW", "shelter": "no", "surface": "grass", "tactile_paving": "no", "website": "https://www.gocitybus.com/"}}, {"type": "node", "id": 6955583702, "lat": 40.4478396, "lon": -86.9194067, "tags": {"bench": "no", "bin": "no", "bus": "yes", "departures_board": "no", "highway": "bus_stop", "lit": "no", "name": "Carlisle Rd & Windsor Dr (SE Corner) BUS623SE", "network": "CityBus", "operator": "Greater Lafayette Public Transportation Corporation", "operator:wikidata": "Q5600598", "operator:wikipedia": "en:Greater Lafayette Public Transportation Corporation", "public_transport": "platform", "ref:ctb": "BUS623SE", "shelter": "no", "surface": "grass", "tactile_paving": "no", "website": "https://www.gocitybus.com/"}}, {"type": "node", "id": 6955583703, "lat": 40.4460628, "lon": -86.9191366, "tags": {"bench": "no", "bin": "no", "bus": "yes", "departures_board": "no", "highway": "bus_stop", "lit": "no", "name": "Carlisle Rd & Lindberg Rd (North of) BUS102NE", "network": "CityBus", "operator": "Greater Lafayette Public Transportation Corporation", "operator:wikidata": "Q5600598", "operator:wikipedia": "en:Greater Lafayette Public Transportation Corporation", "public_transport": "platform", "ref:ctb": "BUS102NE", "shelter": "no", "surface": "grass", "tactile_paving": "no", "website": "https://www.gocitybus.com/"}}, {"type": "node", "id": 6955583704, "lat": 40.4460118, "lon": -86.9193316, "tags": {"bench": "no", "bin": "no", "bus": "yes", "departures_board": "no", "highway": "bus_stop", "lit": "no", "name": "Carlisle Rd & Lindberg Rd (NW Corner) BUS102NW", "network": "CityBus", "operator": "Greater Lafayette Public Transportation Corporation", "operator:wikidata": "Q5600598", "operator:wikipedia": "en:Greater Lafayette Public Transportation Corporation", "public_transport": "platform", "ref:ctb": "BUS102NW", "shelter": "no", "surface": "grass", "tactile_paving": "no", "website": "https://www.gocitybus.com/"}}, {"type": "node", "id": 6955583705, "lat": 40.4460406, "lon": -86.9209558, "tags": {"bench": "no", "bin": "no", "bus": "yes", "departures_board": "no", "highway": "bus_stop", "lit": "no", "name": "Lindberg & Northwestern (North East of) BUS952", "network": "CityBus", "operator": "Greater Lafayette Public Transportation Corporation", "operator:wikidata": "Q5600598", "operator:wikipedia": "en:Greater Lafayette Public Transportation Corporation", "public_transport": "platform", "ref:ctb": "BUS952", "shelter": "no", "surface": "grass", "tactile_paving": "no", "website": "https://www.gocitybus.com/"}}, {"type": "node", "id": 6955583706, "lat": 40.4459091, "lon": -86.9211113, "tags": {"bench": "no", "bin": "no", "bus": "yes", "departures_board": "no", "highway": "bus_stop", "lit": "no", "name": "Lindberg & Northwestern (East of) BUS375SE", "network": "CityBus", "operator": "Greater Lafayette Public Transportation Corporation", "operator:wikidata": "Q5600598", "operator:wikipedia": "en:Greater Lafayette Public Transportation Corporation", "public_transport": "platform", "ref:ctb": "BUS375SE", "shelter": "no", "surface": "concrete", "tactile_paving": "no", "website": "https://www.gocitybus.com/"}}, {"type": "node", "id": 6955583707, "lat": 40.4455884, "lon": -86.9215005, "tags": {"bench": "no", "bin": "no", "bus": "yes", "departures_board": "no", "highway": "bus_stop", "lit": "no", "name": "Northwestern Ave & Lindberg Rd (SW of) BUS375SW", "network": "CityBus", "operator": "Greater Lafayette Public Transportation Corporation", "operator:wikidata": "Q5600598", "operator:wikipedia": "en:Greater Lafayette Public Transportation Corporation", "public_transport": "platform", "ref:ctb": "BUS375SW", "shelter": "no", "surface": "concrete", "tactile_paving": "no", "website": "https://www.gocitybus.com/"}}, {"type": "node", "id": 6955655792, "lat": 40.4446119, "lon": -86.920414, "tags": {"bench": "no", "bin": "no", "bus": "yes", "departures_board": "no", "highway": "bus_stop", "lit": "no", "name": "Northwestern Ave & Elm Dr (SE Corner) BUS126", "network": "CityBus", "operator": "Greater Lafayette Public Transportation Corporation", "operator:wikidata": "Q5600598", "operator:wikipedia": "en:Greater Lafayette Public Transportation Corporation", "public_transport": "platform", "ref:ctb": "BUS126", "shelter": "no", "surface": "concrete", "tactile_paving": "no", "website": "https://www.gocitybus.com/"}}, {"type": "node", "id": 6955655793, "lat": 40.4427922, "lon": -86.9195915, "tags": {"bench": "no", "bin": "no", "bus": "yes", "departures_board": "no", "highway": "bus_stop", "lit": "no", "name": "Garden St & Northwestern (NW Corner) BUS629", "network": "CityBus", "operator": "Greater Lafayette Public Transportation Corporation", "operator:wikidata": "Q5600598", "operator:wikipedia": "en:Greater Lafayette Public Transportation Corporation", "public_transport": "platform", "ref:ctb": "BUS629", "shelter": "no", "surface": "concrete", "tactile_paving": "no", "website": "https://www.gocitybus.com/"}}, {"type": "node", "id": 6955655794, "lat": 40.4426175, "lon": -86.9192089, "tags": {"bench": "no", "bin": "no", "bus": "yes", "departures_board": "no", "highway": "bus_stop", "lit": "no", "name": "Garden St & Northwestern (SE Corner) BUS632", "network": "CityBus", "operator": "Greater Lafayette Public Transportation Corporation", "operator:wikidata": "Q5600598", "operator:wikipedia": "en:Greater Lafayette Public Transportation Corporation", "public_transport": "platform", "ref:ctb": "BUS632", "shelter": "no", "surface": "concrete", "tactile_paving": "no", "website": "https://www.gocitybus.com/"}}, {"type": "node", "id": 6955655795, "lat": 40.4418022, "lon": -86.9190846, "tags": {"bench": "no", "bin": "no", "bus": "yes", "departures_board": "no", "highway": "bus_stop", "lit": "no", "name": "Carrolton Blvd & Northwestern (NW Corner) BUS476", "network": "CityBus", "operator": "Greater Lafayette Public Transportation Corporation", "operator:wikidata": "Q5600598", "operator:wikipedia": "en:Greater Lafayette Public Transportation Corporation", "public_transport": "platform", "ref:ctb": "BUS476", "shelter": "no", "surface": "concrete", "tactile_paving": "no", "website": "https://www.gocitybus.com/"}}, {"type": "node", "id": 6955655796, "lat": 40.4403064, "lon": -86.9180564, "tags": {"bench": "no", "bin": "no", "bus": "yes", "departures_board": "no", "highway": "bus_stop", "lit": "no", "name": "Hillcrest Rd & Northwestern (SE Corner) BUS901", "network": "CityBus", "operator": "Greater Lafayette Public Transportation Corporation", "operator:wikidata": "Q5600598", "operator:wikipedia": "en:Greater Lafayette Public Transportation Corporation", "public_transport": "platform", "ref:ctb": "BUS901", "shelter": "no", "surface": "concrete", "tactile_paving": "no", "website": "https://www.gocitybus.com/"}}, {"type": "node", "id": 6955655797, "lat": 40.4383264, "lon": -86.9170091, "tags": {"bench": "no", "bin": "no", "bus": "yes", "departures_board": "no", "highway": "bus_stop", "lit": "no", "name": "Cherry Ln & Northwestern Ave (South of) BUS431", "network": "CityBus", "operator": "Greater Lafayette Public Transportation Corporation", "operator:wikidata": "Q5600598", "operator:wikipedia": "en:Greater Lafayette Public Transportation Corporation", "public_transport": "platform", "ref:ctb": "BUS431", "shelter": "no", "surface": "concrete", "tactile_paving": "no", "website": "https://www.gocitybus.com/"}}, {"type": "node", "id": 6955655798, "lat": 40.4367722, "lon": -86.915388, "tags": {"bench": "no", "bin": "no", "bus": "yes", "departures_board": "no", "highway": "bus_stop", "lit": "no", "name": "Northwestern Ave & Northridge Dr(SE Corner) BUS203", "network": "CityBus", "operator": "Greater Lafayette Public Transportation Corporation", "operator:wikidata": "Q5600598", "operator:wikipedia": "en:Greater Lafayette Public Transportation Corporation", "public_transport": "platform", "ref:ctb": "BUS203", "shelter": "no", "surface": "concrete", "tactile_paving": "no", "website": "https://www.gocitybus.com/"}}, {"type": "node", "id": 10035296604, "lat": 40.4275168, "lon": -86.9307578, "tags": {"bus": "yes", "highway": "bus_stop", "public_transport": "platform", "ref": "BUS501"}}, {"type": "node", "id": 10035296605, "lat": 40.4272194, "lon": -86.9305509, "tags": {"bus": "yes", "highway": "bus_stop", "public_transport": "platform", "ref": "BUS251E"}}, {"type": "node", "id": 12591335622, "lat": 40.4243176, "lon": -86.9227943, "tags": {"bench": "no", "bin": "no", "bus": "yes", "departures_board": "no", "highway": "bus_stop", "lit": "yes", "name": "First Street Towers on Mitch Daniels Blvd", "network": "CityBus of Greater Lafayette", "network:short": "CityBus", "operator": "Greater Lafayette Public Transportation Corporation", "operator:short": "CityBus", "public_transport": "platform", "ref": "898", "shelter": "no", "surface": "dirt", "tactile_paving": "no"}}, {"type": "node", "id": 12591335623, "lat": 40.42435, "lon": -86.9294993, "tags": {"bench": "no", "bin": "no", "bus": "yes", "departures_board": "no", "highway": "bus_stop", "name": "Purdue West on Mitch Daniels Blvd", "network": "CityBus of Greater Lafayette", "network:short": "CityBus", "operator": "Greater Lafayette Public Transportation Corporation", "operator:short": "CityBus", "public_transport": "platform", "ref": "566", "tactile_paving": "no"}}, {"type": "node", "id": 12591335624, "lat": 40.4254971, "lon": -86.9288584, "tags": {"bench": "yes", "bin": "no", "bus": "yes", "departures_board": "no", "highway": "bus_stop", "lit": "yes", "name": "McCutcheon Hall on McCutcheon", "network": "CityBus of Greater Lafayette", "network:short": "CityBus", "operator": "Greater Lafayette Public Transportation Corporation", "operator:short": "CityBus", "public_transport": "platform", "ref": "491E", "shelter": "yes", "tactile_paving": "no"}}, {"type": "node", "id": 13097149070, "lat": 40.4239117, "lon": -86.9113312, "tags": {"bus": "yes", "highway": "bus_stop", "name": "BUS260", "operator": "CityBus", "public_transport": "platform", "ref": "BUS260"}}]}