{"version": 0.6, "generator": "Overpass API 0.7.62.8 e802775f", "osm3s": {"timestamp_osm_base": "2026-01-13T07:53:35Z", "copyright": "The data included in this document is from www.openstreetmap.org. The data is made available under ODbL."}, "elements": [{"type": "node", "id": 1174929416, "lat": 19.1597156, "lon": 72.8399209, "tags": {"addr:district": "Mumbai", "addr:full": "Siddarth Municipal General Hospital, Opp Motilal Nagar Post Office, Goregaon (W), Mumbai", "addr:postcode": "400104", "addr:state": "Maharashtra", "amenity": "hospital", "description": "Civil Hospital/General Hospital", "emergency": "yes", "healthcare": "hospital", "name": "Siddarth Municipal Hospital", "operator": "BMC", "operator:type": "government", "source": "OpenGovernmentData"}}, {"type": "node", "id": 2148673069, "lat": 19.1383055, "lon": 72.8099298}, {"type": "node", "id": 2148673071, "lat": 19.138164, "lon": 72.8094627}, {"type": "node", "id": 2148673121, "lat": 19.1376757, "lon": 72.8102108}, {"type": "node", "id": 2148673123, "lat": 19.1379854, "lon": 72.8091461}, {"type": "node", "id": 2148673134, "lat": 19.1376703, "lon": 72.8087569}, {"type": "node", "id": 2148673135, "lat": 19.137511, "lon": 72.8095858}, {"type": "node", "id": 2148673136, "lat": 19.1375056, "lon": 72.8098539}, {"type": "node", "id": 2148673144, "lat": 19.1373108, "lon": 72.8090762}, {"type": "node", "id": 3585584992, "lat": 19.2194151, "lon": 72.8380741}, {"type": "node", "id": 3585584993, "lat": 19.2194172, "lon": 72.8381493}, {"type": "node", "id": 3585585054, "lat": 19.2196295, "lon": 72.8380674}, {"type": "node", "id": 3585585055, "lat": 19.2196316, "lon": 72.8381426}, {"type": "node", "id": 3596174404, "lat": 19.1843907, "lon": 72.8423524}, {"type": "node", "id": 3596174405, "lat": 19.1843907, "lon": 72.8426404}, {"type": "node", "id": 3596174444, "lat": 19.1845202, "lon": 72.8423524}, {"type": "node", "id": 3596174445, "lat": 19.1845202, "lon": 72.8426404}, {"type": "node", "id": 3642528546, "lat": 19.184452, "lon": 72.8424695}, {"type": "node", "id": 3642528547, "lat": 19.184452, "lon": 72.8425594}, {"type": "node", "id": 3642528551, "lat": 19.1845202, "lon": 72.8424695}, {"type": "node", "id": 3642528552, "lat": 19.1845202, "lon": 72.8425594}, {"type": "node", "id": 4498900764, "lat": 19.2007076, "lon": 72.8221715, "tags": {"addr:district": "Mumbai", "addr:full": "Bafhira Nagar Road, Near Jankalyan Nagar Police Chowky, Malad", "addr:postcode": "400095", "addr:state": "Maharashtra", "amenity": "hospital", "name": "Government General Hospital, Malwani Malad", "source": "OpenGovernmentData"}}, {"type": "node", "id": 5115140442, "lat": 19.206618, "lon": 72.8419209, "tags": {"addr:district": "Mumbai", "addr:full": "2-4/A, Kokil Kunj, Behind Patel Nagar, Kandivli (West)", "addr:postcode": "400067", "addr:state": "Maharashtra", "amenity": "hospital", "healthcare": "hospital", "name": "Dr. Vora's Premature Critical Care and General Hospital", "source": "OpenGovernmentData"}}, {"type": "node", "id": 5201099224, "lat": 19.1372375, "lon": 72.8366102, "tags": {"addr:street": "Hanuman Mandir road", "amenity": "hospital", "healthcare": "hospital", "name:en": "R G Stone"}}, {"type": "node", "id": 7042870633, "lat": 19.2020207, "lon": 72.827885, "tags": {"addr:district": "Mumbai", "addr:full": "B-1st Floor, Mitnayan C.H.S Ltd, Linking Road ,Ganesh Ngr,Kandivali(W)", "addr:postcode": "400067", "addr:state": "Maharashtra", "amenity": "hospital", "name": "Sumangal Hospital", "source": "OpenGovernmentData"}}, {"type": "node", "id": 7042873531, "lat": 19.1631084, "lon": 72.8434806, "tags": {"addr:district": "Mumbai", "addr:full": "Manali Alankar Soc., M.G.Road, Goregaon(W), Opposite Raga Hotel", "addr:postcode": "400062", "addr:state": "Maharashtra", "amenity": "hospital", "name": "Kapadia Multi Speciality Hospital", "operator:type": "private", "source": "OpenGovernmentData", "website": "https://www.kapadiahospital.com/"}}, {"type": "node", "id": 7042873546, "lat": 19.155501, "lon": 72.845498, "tags": {"addr:district": "Mumbai", "addr:full": "Omyx Bldg,S V Road Next To Bses Office Goregaon - West", "addr:postcode": "400104", "addr:state": "Maharashtra", "amenity": "hospital", "name": "Pooja Hospital, Mumbai", "source": "OpenGovernmentData"}}, {"type": "node", "id": 7042945057, "lat": 19.1932665, "lon": 72.8397135, "tags": {"addr:district": "Mumbai", "addr:full": "Anita Apartment, Groung Floor, Bavari Cross Road, Next To Dena Bank,Opposite Osite City Of Joy, Orlem", "addr:postcode": "400064", "addr:state": "Maharashtra", "amenity": "hospital", "name": "Dr. Bet Hospital and Polyclinic", "source": "OpenGovernmentData"}}, {"type": "node", "id": 7042997510, "lat": 19.1905421, "lon": 72.8463601, "tags": {"addr:district": "Mumbai", "addr:full": "Tagore Park, Opposite U T I Bank, A Wing, Flat No.4, S V Road, Opp Axis Bank", "addr:postcode": "400064", "addr:state": "Maharashtra", "amenity": "hospital", "name": "Manorama Hospital", "source": "OpenGovernmentData"}}, {"type": "node", "id": 7043003793, "lat": 19.1759439, "lon": 72.8463833, "tags": {"addr:district": "Mumbai", "addr:full": "Laxmipalace Above Feast India Restaurant Off S V Road Opp Sunder Nagar Malad West", "addr:postcode": "400064", "addr:state": "Maharashtra", "amenity": "hospital", "name": "Le Nest Hospital", "source": "OpenGovernmentData"}}, {"type": "node", "id": 7043230054, "lat": 19.1930526, "lon": 72.8418451, "tags": {"addr:district": "Mumbai", "addr:full": "Malad(W)", "addr:postcode": "400064", "addr:state": "Maharashtra", "amenity": "hospital", "name": "Sunflowar Laboratory and Diagnostic Centre", "source": "OpenGovernmentData"}}, {"type": "node", "id": 7043397913, "lat": 19.2030731, "lon": 72.8470266, "tags": {"addr:district": "Mumbai", "addr:full": "1st Floor,Kalpataru,Mathuradas Road,Opposite Punjab National Bank,Kandivali (W)", "addr:postcode": "400067", "addr:state": "Maharashtra", "amenity": "hospital", "name": "Ankur Hospital", "source": "OpenGovernmentData"}}, {"type": "node", "id": 7044982117, "lat": 19.1937801, "lon": 72.8394373, "tags": {"addr:district": "Mumbai", "addr:full": "C-Wing Meenakshi Apt , Orlem Marve Road Malad(W)", "addr:postcode": "400064", "addr:state": "Maharashtra", "amenity": "hospital", "name": "Adarsh Hospital, Mumbai", "source": "OpenGovernmentData"}}, {"type": "node", "id": 7045283817, "lat": 19.2213057, "lon": 72.8401212, "tags": {"addr:district": "Mumbai", "addr:full": "C-01, Parasmani, Chikuwadi, Shimpoli, Borivali (W)", "addr:postcode": "400092", "addr:state": "Maharashtra", "amenity": "hospital", "name": "Niramay Mother-Care Centre (Maternity and Surgical)", "source": "OpenGovernmentData"}}, {"type": "node", "id": 7047690741, "lat": 19.1880874, "lon": 72.8433922, "tags": {"addr:district": "Mumbai", "addr:full": "Divya Trusha, Mamlatdar Wadi Road, Malad- West", "addr:postcode": "400064", "addr:state": "Maharashtra", "amenity": "hospital", "name": "Abhijit Hospital", "source": "OpenGovernmentData"}}, {"type": "node", "id": 7048562946, "lat": 19.1750295, "lon": 72.8459443, "tags": {"addr:district": "Mumbai", "addr:full": "Himachal Building, Opposite Sunder Nagar, S V Road", "addr:postcode": "400064", "addr:state": "Maharashtra", "amenity": "hospital", "name": "Maa Nursing Home and Netra Jyoti Eye Care Center", "operator:type": "private", "source": "OpenGovernmentData"}}, {"type": "node", "id": 7048562947, "lat": 19.1901368, "lon": 72.8441191, "tags": {"addr:district": "Mumbai", "addr:full": "61 Shreeji Apt, Ramchandra Lane, Opp Chate Classes, Malad West", "addr:postcode": "400064", "addr:state": "Maharashtra", "amenity": "hospital", "name": "Vardhaman Iccu and Nursing Home", "source": "OpenGovernmentData"}}, {"type": "node", "id": 7048747817, "lat": 19.215374, "lon": 72.8153551, "tags": {"addr:district": "Mumbai", "addr:full": "Plot No 6,R.S.C.7, Building Charkop Sector 8 ,Kandivali W,Behind Sai Prem", "addr:postcode": "400067", "addr:state": "Maharashtra", "amenity": "hospital", "name": "Dr.Reena Mokal Nursing Home and Polyclinic", "phone": "9324385177,9323409140.", "source": "OpenGovernmentData"}}, {"type": "node", "id": 7048747818, "lat": 19.1352084, "lon": 72.8140642, "tags": {"addr:district": "Mumbai", "addr:full": "Flat No 7, Near Police Officer progressive HSG, SOC near Agha Khan Baugh", "addr:postcode": "400061", "addr:state": "Maharashtra", "amenity": "hospital", "name": "Saket Maternity and Nursing Home", "source": "OpenGovernmentData"}}, {"type": "node", "id": 7048911653, "lat": 19.1468937, "lon": 72.8311546, "tags": {"addr:district": "Mumbai", "addr:full": "A-1 Ground Floor Building No 20, Manish Nagar 4. Bunglows Andheri (W)", "addr:postcode": "400053", "addr:state": "Maharashtra", "amenity": "hospital", "healthcare": "hospital", "name": "Vital Care Centre", "source": "OpenGovernmentData"}}, {"type": "node", "id": 7049047978, "lat": 19.1940087, "lon": 72.8392093, "tags": {"addr:district": "Mumbai", "addr:full": "3Road Floor, Deora Commercial Centre, Malad, Marve Road, Malad (West)", "addr:postcode": "400064", "addr:state": "Maharashtra", "amenity": "hospital", "name": "Neon Critical Care", "source": "OpenGovernmentData"}}, {"type": "node", "id": 7049051361, "lat": 19.1951758, "lon": 72.8475892, "tags": {"addr:district": "Mumbai", "addr:full": "123,Milap Apartment, 1st Floor, Opposite Milap Cinema, S. V. Road, Malad (West)", "addr:postcode": "400064", "addr:state": "Maharashtra", "amenity": "hospital", "name": "Darshan Orthopaedic and Surgical Clinic - Malad (W)", "source": "OpenGovernmentData"}}, {"type": "node", "id": 7049344773, "lat": 19.1433248, "lon": 72.8427203, "tags": {"addr:district": "Mumbai", "addr:full": "1st Floor, Aftab Classic, Opposite City Hospital, S.V Road, Jogeshwari(West)", "addr:postcode": "400102", "addr:state": "Maharashtra", "amenity": "hospital", "contact:phone": "2226771188", "email": "info@orbiteyehospital.in", "healthcare": "hospital", "name": "Orbit Eye Hospital, Mumbai", "operator:type": "private", "source": "OpenGovernmentData", "website": "https://orbiteyehospital.in/"}}, {"type": "node", "id": 7049785373, "lat": 19.2078553, "lon": 72.8360476, "tags": {"addr:district": "Mumbai", "addr:full": "Nishita Apart., Dahanukar Wadi, M.G.Road, Kandivli (W)", "addr:postcode": "400067", "addr:state": "Maharashtra", "amenity": "hospital", "healthcare": "hospital", "name": "Raichura Prasuti Gruha", "source": "OpenGovernmentData"}}, {"type": "node", "id": 7051070001, "lat": 19.2183374, "lon": 72.8289404, "tags": {"addr:district": "Mumbai", "addr:full": "2,Ratnadeep, Sector 3, OppositeApna Bazaar,Near Saibaba Mandir, Charkop Kandivli (W)", "addr:postcode": "400067", "addr:state": "Maharashtra", "amenity": "hospital", "name": "Jaydeep Eye and Physiotherapy Clinic - Kandivli", "source": "OpenGovernmentData"}}, {"type": "node", "id": 7051070842, "lat": 19.1373789, "lon": 72.8466645, "tags": {"addr:district": "Mumbai", "addr:full": "Sharma Estate, Next To Dlwan Shopping Centre,S.V.Road, Jogeswari (W)", "addr:postcode": "400102", "addr:state": "Maharashtra", "amenity": "hospital", "name": "Mallika Hospital and Envision Eye Centre", "source": "OpenGovernmentData"}}, {"type": "node", "id": 7051345894, "lat": 19.2106923, "lon": 72.8257466, "tags": {"addr:district": "Mumbai", "addr:full": "Ground Floor, Gharkul, Charkop Modern Society, Sector No.1, Charkop, Kandivali West", "addr:postcode": "400067", "addr:state": "Maharashtra", "amenity": "hospital", "name": "Shakuntala Maternity Home", "source": "OpenGovernmentData"}}, {"type": "node", "id": 7051688587, "lat": 19.2062254, "lon": 72.8440869, "tags": {"addr:district": "Mumbai", "addr:full": "Neelyog Apts, Ground Floor, M. G. Road-4, Opposite Patel Nagar, Kandivali(W)", "addr:postcode": "400067", "addr:state": "Maharashtra", "amenity": "hospital", "name": "Nidhi Nursing Home and Iccu", "source": "OpenGovernmentData"}}, {"type": "node", "id": 7051973313, "lat": 19.1953626, "lon": 72.8319351, "tags": {"addr:district": "Mumbai", "addr:full": "Sahadev, Vishal Nagar, Mith Chowki, Marve Road, Malad (W)", "addr:postcode": "400064", "addr:state": "Maharashtra", "amenity": "hospital", "name": "Dr Pagruts Fracture Orthopaedic and Surgical Hospital", "source": "OpenGovernmentData"}}, {"type": "node", "id": 7052124558, "lat": 19.193877, "lon": 72.8474611, "tags": {"addr:district": "Mumbai", "addr:full": "559/1, Pushpachandra Apartment, S V Road, Riddhi Vinayak Temple Lane, Malad West", "addr:postcode": "400064", "addr:state": "Maharashtra", "amenity": "hospital", "name": "Riddhivinayak Critical Care and Cardiac Centre", "operator:type": "private", "source": "OpenGovernmentData", "website": "http://www.rvcc.co.in/"}}, {"type": "node", "id": 7052285550, "lat": 19.1918378, "lon": 72.8437878, "tags": {"addr:district": "Mumbai", "addr:full": "Ashwin B Ground Floor, Marve Road, Malad (West)", "addr:postcode": "400064", "addr:state": "Maharashtra", "amenity": "hospital", "name": "Shree Surgical and Maternity Nursing Home", "source": "OpenGovernmentData"}}, {"type": "node", "id": 7052744110, "lat": 19.1869158, "lon": 72.8405692, "tags": {"addr:district": "Mumbai", "addr:full": "Chheda Apartment Liberty Garden Cross Road No-3, Below Malad Sahakar Bank Malad(W)", "addr:postcode": "400064", "addr:state": "Maharashtra", "amenity": "hospital", "name": "The Laser Vision Centre", "source": "OpenGovernmentData"}}, {"type": "node", "id": 7052855546, "lat": 19.2056922, "lon": 72.8453777, "tags": {"addr:district": "Mumbai", "addr:full": "Kalyan Apt., M.G. Road, Behind Swaminarayan Temple, Kandivali(W)", "addr:postcode": "400067", "addr:state": "Maharashtra", "amenity": "hospital", "name": "Paarth Hospital", "source": "OpenGovernmentData"}}, {"type": "node", "id": 7052877579, "lat": 19.1898379, "lon": 72.8465733, "tags": {"addr:district": "Mumbai", "addr:full": "Khetan Appts., S.V.Road, Malad(W)", "addr:postcode": "400064", "addr:state": "Maharashtra", "amenity": "hospital", "name": "Saraogi Maternity and General Hospital", "source": "OpenGovernmentData"}}, {"type": "node", "id": 7053711443, "lat": 19.1988025, "lon": 72.8383416, "tags": {"addr:district": "Mumbai", "addr:full": "Tank Road, Next To Skywalk Tower, Near Orlem Church, End Of Shankar Lane Malad - West", "addr:postcode": "400064", "addr:state": "Maharashtra", "amenity": "hospital", "name": "Surana Hospital and Research Centre, Mumbai", "source": "OpenGovernmentData"}}, {"type": "node", "id": 7054555638, "lat": 19.1809405, "lon": 72.8368664, "tags": {"addr:district": "Mumbai", "addr:full": "Divya Smurti, Opposite Toyata Showroom, Near Ichhapuri Hanuman Temple, Link Road, Malad(W)", "addr:postcode": "400064", "addr:state": "Maharashtra", "amenity": "hospital", "name": "Saraswati Hospital, Mumbai", "source": "OpenGovernmentData"}}, {"type": "node", "id": 7054831098, "lat": 19.1852661, "lon": 72.8471252, "tags": {"addr:district": "Mumbai", "addr:full": "Kashi Kunj(Sahajanand), 1st Flr, Next To Malad Shopping Centre, 62, S.V.Road, Malad(W)", "addr:postcode": "400064", "addr:state": "Maharashtra", "amenity": "hospital", "name": "Kumta Eye and Retina Clinic and Laser Center", "source": "OpenGovernmentData"}}, {"type": "node", "id": 7054965709, "lat": 19.2078566, "lon": 72.8266338, "tags": {"addr:district": "Mumbai", "addr:full": "1st Floor, Kesar Plaza, Charkop Market Above Noble Medical Store, Kandivali(W)", "addr:postcode": "400067", "addr:state": "Maharashtra", "amenity": "hospital", "name": "Matushree Maternity, Surgical and General Nursing Home", "source": "OpenGovernmentData"}}, {"type": "node", "id": 7055330884, "lat": 19.1386865, "lon": 72.8321403, "tags": {"addr:district": "Mumbai", "addr:full": "Spenta Mansion, S.V.Road, Andheri(W)", "addr:postcode": "400058", "addr:state": "Maharashtra", "amenity": "hospital", "healthcare": "hospital", "name": "Dr Eye Institute Pvt Ltd", "source": "OpenGovernmentData"}}, {"type": "node", "id": 7055739367, "lat": 19.1453506, "lon": 72.8230691, "tags": {"addr:district": "Mumbai", "addr:full": "33 Nebula 4Th Cross Road Lokhandwala Complex Andheri W", "addr:postcode": "400053", "addr:state": "Maharashtra", "amenity": "hospital", "name": "Pushpa Maternity Home", "source": "OpenGovernmentData"}}, {"type": "node", "id": 7062490982, "lat": 19.2064788, "lon": 72.8384505, "tags": {"addr:district": "Mumbai", "addr:full": "Atlanta, 1277/C, M. G. Road, Kandivali (W)", "addr:postcode": "400067", "addr:state": "Maharashtra", "amenity": "hospital", "healthcare": "hospital", "name": "Grace Maternity and Nursing Home - Kandivli (W)", "source": "OpenGovernmentData"}}, {"type": "node", "id": 7063077054, "lat": 19.1864928, "lon": 72.8460878, "tags": {"addr:district": "Mumbai", "addr:full": "Param Ratan,1st Floor,OppositeNew Post Office,Jakaria Road,Malad(W)", "addr:postcode": "400097", "addr:state": "Maharashtra", "amenity": "hospital", "name": "Aditi Hospital, Mumbai", "source": "OpenGovernmentData"}}, {"type": "node", "id": 7063805583, "lat": 19.1950719, "lon": 72.8342687, "tags": {"addr:district": "Mumbai", "addr:full": "Parth Business Plaza, Mith Chowky, Malad West", "addr:postcode": "400064", "addr:state": "Maharashtra", "amenity": "hospital", "email": "info@zenithhospital.com", "name": "Zenith Hospital, Malad West", "operator:type": "private", "source": "OpenGovernmentData", "website": "https://zenithhospital.com/"}}, {"type": "node", "id": 7064087335, "lat": 19.221495, "lon": 72.829037, "tags": {"addr:district": "Mumbai", "addr:full": "Sushila Sadan, Near Charkop Bus Depot & Mtnl, Kandivali(W)", "addr:postcode": "400067", "addr:state": "Maharashtra", "amenity": "hospital", "name": "Saraswati Hospital(Kandivali)", "source": "OpenGovernmentData"}}, {"type": "node", "id": 7064683480, "lat": 19.1976487, "lon": 72.8388378, "tags": {"addr:district": "Mumbai", "addr:full": "Ronda Apartments,Shankar Lane & Tank Lane Junction", "addr:postcode": "400001", "addr:state": "Maharashtra", "amenity": "hospital", "name": "Dr.Apte Maternity and Nursing Home", "source": "OpenGovernmentData"}}, {"type": "node", "id": 7066497775, "lat": 19.1946863, "lon": 72.8334036, "tags": {"addr:district": "Mumbai", "addr:full": "A-1, Vikas Park, Linking Road, Opposite Uncle's Kitchen, Malad(W)", "addr:postcode": "400064", "addr:state": "Maharashtra", "amenity": "hospital", "name": "Vinayak Maternity and General Hospital", "source": "OpenGovernmentData"}}, {"type": "node", "id": 7066505750, "lat": 19.2069967, "lon": 72.8352108, "tags": {"addr:district": "Mumbai", "addr:full": "First Floor, Om Shivechha Chs Ltd Jun Of Link Road And M G Road Dahanukarwadi Kandivali West", "addr:postcode": "400067", "addr:state": "Maharashtra", "amenity": "hospital", "healthcare": "hospital", "name": "Arya Womens Health Care Centre Surgical and Maternity Home", "source": "OpenGovernmentData"}}, {"type": "node", "id": 7067113516, "lat": 19.1849348, "lon": 72.8450726, "tags": {"addr:district": "Mumbai", "addr:full": "Shree Dutt Apartment, Amarshi Road, Malad West", "addr:postcode": "400064", "addr:state": "Maharashtra", "amenity": "hospital", "name": "Jay Polyclinic Maternity Surgical Nursing Home and Eye Hospital", "source": "OpenGovernmentData"}}, {"type": "node", "id": 7067961276, "lat": 19.1455128, "lon": 72.8291899, "tags": {"addr:district": "Mumbai", "addr:full": "Bldg.No.15, Flat No.102,Mhada Complex,New Link Road,Near Oshiwara Police Station, Andheri (West)", "addr:postcode": "400053", "addr:state": "Maharashtra", "amenity": "hospital", "healthcare": "hospital", "name": "Dr. M.I.Doongerwala - andheri", "source": "OpenGovernmentData"}}, {"type": "node", "id": 7070737920, "lat": 19.1846986, "lon": 72.8470279, "tags": {"addr:district": "Mumbai", "addr:full": "33,Dattani Chembers,S.V.Road,OppositeBank Of Baroda,Near New Era Cinema,Malad(W)", "addr:postcode": "400064", "addr:state": "Maharashtra", "amenity": "hospital", "name": "Elite Maternity Home and Polyclinic", "source": "OpenGovernmentData"}}, {"type": "node", "id": 7070857483, "lat": 19.1439215, "lon": 72.8430556, "tags": {"addr:district": "Mumbai", "addr:full": "Hafizi House, S.V. Road, Oshiwara Jogeshwari(W)", "addr:postcode": "400102", "addr:state": "Maharashtra", "amenity": "hospital", "healthcare": "hospital", "name": "Shivam Netram Eye Hospital", "source": "OpenGovernmentData"}}, {"type": "node", "id": 7070859101, "lat": 19.2079921, "lon": 72.8365418, "tags": {"addr:district": "Mumbai", "addr:full": "Yashwant Hosp.Bldg., Datta Mandir Road, Off.M.G.Road, Dahanukar Wadi, Kandivli (West)", "addr:postcode": "400067", "addr:state": "Maharashtra", "amenity": "hospital", "healthcare": "hospital", "name": "Parvatibai Chavan Charitable Trust", "source": "OpenGovernmentData"}}, {"type": "node", "id": 7073099556, "lat": 19.139644, "lon": 72.8435008, "tags": {"addr:district": "Mumbai", "addr:full": "105, First Floor , Markaz View, Opposite Excel Industries , S.V Road, Jogeshwari(W)", "addr:postcode": "400059", "addr:state": "Maharashtra", "amenity": "hospital", "healthcare": "hospital", "name": "Diamond Hospital", "source": "OpenGovernmentData"}}, {"type": "node", "id": 7073438341, "lat": 19.2063698, "lon": 72.8392328, "tags": {"addr:district": "Mumbai", "addr:full": "Assumption View,Opp St.Joseph School, Off. M G Road,Kandivali Village,Kandivali West", "addr:postcode": "400101", "addr:state": "Maharashtra", "amenity": "hospital", "name": "Noble Hospital, Mumbai", "source": "OpenGovernmentData"}}, {"type": "node", "id": 7073651578, "lat": 19.1366428, "lon": 72.8364225, "tags": {"addr:district": "Mumbai", "addr:full": "C Wing, Dhananjay Apt Behind Balaji Studio, Opp Veera Desai Road Andheri", "addr:postcode": "400059", "addr:state": "Maharashtra", "amenity": "hospital", "healthcare": "hospital", "name": "Rg Stone Urology and Laparoscopy Hospital, Mumbai", "source": "OpenGovernmentData"}}, {"type": "node", "id": 7073949902, "lat": 19.1878962, "lon": 72.8365955, "tags": {"addr:district": "Thane", "addr:full": "101, Eden Rose Shopping Complex,Opposite Cinemax Multiplex,Beverly Park, Mira Road(E)", "addr:postcode": "400601", "addr:state": "Maharashtra", "amenity": "hospital", "name": "Apex Kidney Care Pvt. Ltd (Mira Road)", "source": "OpenGovernmentData"}}, {"type": "node", "id": 7073949916, "lat": 19.2149992, "lon": 72.8475013, "tags": {"addr:district": "Mumbai", "addr:full": "A-2/B-3, Gaurav Dhruv, Behind Bhatia School, Off Saibaba Nagar Road, Borivali West", "addr:postcode": "400092", "addr:state": "Maharashtra", "amenity": "hospital", "healthcare": "hospital", "name": "Shreeji Kripa Surgical Center Icu and Nursing Home", "source": "OpenGovernmentData"}}, {"type": "node", "id": 7076367516, "lat": 19.1998183, "lon": 72.8460167, "tags": {"addr:district": "Mumbai", "addr:full": "1,2 & 3, Shiv Kripa C.H.S., S.V.P. Lane, Opposite Municipal Garden, Kandivali (W)", "addr:postcode": "400067", "addr:state": "Maharashtra", "amenity": "hospital", "name": "Shree Krishna Hospital", "source": "OpenGovernmentData"}}, {"type": "node", "id": 7076609444, "lat": 19.174305, "lon": 72.8443739, "tags": {"addr:district": "Mumbai", "addr:full": "A-1,Gagan Chembers - 5,Near Gokuldham,Medicare Centre,Goregaon (E)", "addr:postcode": "400063", "addr:state": "Maharashtra", "amenity": "hospital", "name": "Life Line Medicare Hospital Pvt Ltd", "source": "OpenGovernmentData"}}, {"type": "node", "id": 7080205226, "lat": 19.1953512, "lon": 72.8331435, "tags": {"addr:district": "Mumbai", "addr:full": "Shweta Bldg, Khandelwal Layout, Link Road Malad West", "addr:postcode": "400064", "addr:state": "Maharashtra", "amenity": "hospital", "name": "Dr.Ronak Prakash Bhandari", "source": "OpenGovernmentData"}}, {"type": "node", "id": 7082518991, "lat": 19.1352453, "lon": 72.8381807, "tags": {"addr:district": "Mumbai", "addr:full": "Andheri", "addr:postcode": "400102", "addr:state": "Maharashtra", "amenity": "hospital", "healthcare": "hospital", "name": "Society Of The Helpers Of Mary Shraddha Vihar Hospital", "source": "OpenGovernmentData"}}, {"type": "node", "id": 7082519016, "lat": 19.1424177, "lon": 72.8234661, "tags": {"addr:district": "Mumbai", "addr:full": "17-B/007-008, Girnar Swami Samarth Nagar,Off Four Bungalows, Andheri (W)", "addr:postcode": "400053", "addr:state": "Maharashtra", "amenity": "hospital", "healthcare": "hospital", "name": "Ameya Maternity and Nursing Home", "source": "OpenGovernmentData"}}, {"type": "node", "id": 7082623483, "lat": 19.1921424, "lon": 72.8449076, "tags": {"addr:district": "Mumbai", "addr:full": "techKNEEque, Flat 7, Nilanjana CHS, Next to Nutan Vidyamandir, Marve Road, Malad West\\", "addr:postcode": "400064", "addr:state": "Maharashtra", "amenity": "hospital", "name": "Shah Fracture-Orthopaedic Hospital", "source": "OpenGovernmentData"}}, {"type": "node", "id": 7082733171, "lat": 19.1455229, "lon": 72.8230771, "tags": {"addr:district": "Mumbai", "addr:full": "Nebula Apartment, Lokhandwala, Andheri West", "addr:housename": "Nebula Apartment", "addr:place": "Lokhandwala", "addr:postcode": "400053", "addr:state": "Maharashtra", "addr:suburb": "Andheri West", "amenity": "hospital", "name": "Sanghvi Clinic", "name:hi": "\u0938\u093e\u0902\u0918\u0935\u0940 \u0915\u094d\u0932\u093f\u0928\u093f\u0915", "source": "OpenGovernmentData"}}, {"type": "node", "id": 7085988157, "lat": 19.1936338, "lon": 72.8466564, "tags": {"addr:district": "Mumbai", "addr:full": "Vishal Complex, S.V.Road, Malad (West)", "addr:postcode": "400064", "addr:state": "Maharashtra", "amenity": "hospital", "contact:phone": "8080221110", "email": "info@lifelinehospitalmumbai.in", "name": "Lifeline Hospital, Mumbai", "operator:type": "private", "source": "OpenGovernmentData", "website": "http://www.lifelinehospitalmumbai.in/"}}, {"type": "node", "id": 7086532343, "lat": 19.1836916, "lon": 72.846468, "tags": {"addr:district": "Mumbai", "addr:full": "Sriniwas Apartment, 78, S.V. Road, Opposite New Era Talkies, Malad", "addr:postcode": "400064", "addr:state": "Maharashtra", "amenity": "hospital", "name": "AR Hospital Orthopaedic & ICU", "source": "OpenGovernmentData"}}, {"type": "node", "id": 7087491721, "lat": 19.1631829, "lon": 72.8351136, "tags": {"addr:district": "Mumbai", "addr:full": "1st Floor, M.G.Road Junction,Motilal Nagar", "addr:postcode": "400104", "addr:state": "Maharashtra", "amenity": "hospital", "name": "Prarthana Hospital And ICU", "source": "OpenGovernmentData"}}, {"type": "node", "id": 7087636852, "lat": 19.2150866, "lon": 72.8287527, "tags": {"addr:district": "Mumbai", "addr:full": "105-108. 1st Floor, Kesar Plaza, A-Wing, Sector 3, Charkop", "addr:postcode": "400067", "addr:state": "Maharashtra", "amenity": "hospital", "name": "Shree Nagesh Childrens Hospital", "source": "OpenGovernmentData"}}, {"type": "node", "id": 7210907978, "lat": 19.1941028, "lon": 72.8213186, "tags": {"addr:district": "Mumbai", "addr:full": "Rose Apts Near Fire Brigade, Malvani Rd, BMC Colony, Malad West", "addr:postcode": "400095", "addr:state": "Maharashtra", "amenity": "hospital", "name": "Mangalmurti Hospital", "source": "OpenGovernmentData"}}, {"type": "node", "id": 7622282442, "lat": 19.2037678, "lon": 72.8244846, "tags": {"addr:district": "Mumbai", "addr:full": "Kandivali, Babrekar Nagar", "addr:postcode": "400095", "addr:state": "Maharashtra", "amenity": "hospital", "name": "BMC Hospital", "source": "Local Knowledge"}}, {"type": "node", "id": 7663833079, "lat": 19.163103, "lon": 72.846337, "tags": {"addr:district": "Mumbai Suburban", "addr:full": "Ashok Raj Building, SV Road, Above Ratan Hotel, Kakaji Nagar, Jawahar Nagar, Goregaon West, Mumbai", "addr:postcode": "400062", "addr:state": "Maharastra", "amenity": "hospital", "name": "Singhi Hospital", "source": "Local Knowledge"}}, {"type": "node", "id": 7663833086, "lat": 19.178818, "lon": 72.842829, "tags": {"addr:district": "Mumbai Suburban", "addr:full": "Chincholi Bunder Road, Mandlik Nagar, Sunder Nagar, Malad West, Mumbai", "addr:postcode": "400064", "addr:state": "Maharastra", "amenity": "hospital", "name": "Vivanta Multispeciality Hospital", "source": "Local Knowledge"}}, {"type": "node", "id": 7663833088, "lat": 19.163211, "lon": 72.835036, "tags": {"addr:district": "Mumbai Suburban", "addr:full": "JP Residency, Vivanta Hospital, Chincholi Bunder, Malad West, Mumbai", "addr:postcode": "400064", "addr:state": "Maharastra", "amenity": "hospital", "name": "Vivanta Hospital", "source": "Local Knowledge"}}, {"type": "node", "id": 7663833093, "lat": 19.175631, "lon": 72.837464, "tags": {"addr:district": "Mumbai Suburban", "addr:full": "New Link Road, Malad, Sunder Nagar, Malad West, Mumbai", "addr:postcode": "400064", "addr:state": "Maharastra", "amenity": "hospital", "check_date": "2025-12-29", "name": "Cloud Nine Children's Hospital", "source": "Local Knowledge"}}, {"type": "node", "id": 7663833098, "lat": 19.1816744, "lon": 72.8467421, "tags": {"addr:district": "Mumbai Suburban", "addr:full": "SV Road, Malad, Vijaykar Wadi, Malad West, Mumbai", "addr:postcode": "400064", "addr:state": "Maharastra", "amenity": "hospital", "name": "L. M Patel Eye Hospital", "source": "Local Knowledge"}}, {"type": "node", "id": 7663833111, "lat": 19.1636085, "lon": 72.8377227, "tags": {"addr:district": "Mumbai Suburban", "addr:full": "Mahatma Gandhi Road, Opposite Rosary Church, Goregaon West, Mumbai", "addr:postcode": "400090", "addr:state": "Maharastra", "amenity": "hospital", "name": "Jain Hospital", "source": "Local Knowledge"}}, {"type": "node", "id": 7663833113, "lat": 19.1903949, "lon": 72.834907, "tags": {"addr:district": "Mumbai Suburban", "addr:full": "Shweta Building, New Link Road, Khandelwal Layout, Kanchpada, Malad West, Mumbai", "addr:postcode": "400064", "addr:state": "Maharastra", "amenity": "hospital", "name": "The Children's Hospital", "source": "Local Knowledge"}}, {"type": "node", "id": 7663833117, "lat": 19.1612265, "lon": 72.840181, "tags": {"addr:district": "Mumbai Suburban", "addr:full": "L.T. Nagar, 4th Lane, Mahatma Gandhi Road, Goregaon West, Mumbai", "addr:postcode": "400104", "addr:state": "Maharastra", "amenity": "hospital", "name": "Matushree Gomati Hospital", "source": "Local Knowledge"}}, {"type": "node", "id": 7663833118, "lat": 19.1952374, "lon": 72.8461978, "tags": {"addr:district": "Mumbai Suburban", "addr:full": "Goraswadi Road, Opp. Nirman Hitech Diagnostics, Malad West, Mumbai", "addr:postcode": "400064", "addr:state": "Maharastra", "amenity": "hospital", "name": "Thunga Hospital", "source": "Local Knowledge"}}, {"type": "node", "id": 7663833129, "lat": 19.1754936, "lon": 72.8338516, "tags": {"addr:district": "Mumbai Suburban", "addr:full": "Rustomjee Elanza, Ground Floor, Aditya Heritage, Industrial Society, Chincholi Bunder Road, Ram Nagar, Malad West, Mumbai", "addr:postcode": "400064", "addr:state": "Maharastra", "amenity": "hospital", "name": "Sage Hospital", "source": "Local Knowledge"}}, {"type": "node", "id": 7663833142, "lat": 19.195545, "lon": 72.8364295, "tags": {"addr:district": "Mumbai Suburban", "addr:full": "Janet Castle, Opp St Joseph School, Marve Road, Orlem, Mumbai", "addr:postcode": "400064", "addr:state": "Maharastra", "amenity": "hospital", "name": "Gosalia Hospital", "source": "Local Knowledge"}}, {"type": "node", "id": 7663833156, "lat": 19.1632392, "lon": 72.8453083, "tags": {"addr:district": "Mumbai Suburban", "addr:full": "Hirnen Shopping Centre, Mahatma Gandhi Road, Goregaon West, Mumbai", "addr:postcode": "400062", "addr:state": "Maharastra", "amenity": "hospital", "check_date": "2025-12-29", "name": "Dr. Bhatt's Hospital", "source": "Local Knowledge"}}, {"type": "node", "id": 7663833161, "lat": 19.200971, "lon": 72.847381, "tags": {"addr:district": "Mumbai Suburban", "addr:full": "Paradise Building, Shantilal Modi Road, Kandivali West, Mumbai", "addr:postcode": "400067", "addr:state": "Maharastra", "amenity": "hospital", "name": "Usha Maternity Home", "source": "Local Knowledge"}}, {"type": "node", "id": 7663833165, "lat": 19.191427, "lon": 72.844352, "tags": {"addr:district": "Mumbai Suburban", "addr:full": "Marve Road, Adarsh Nagar, Malad West, Opposite Nutan School, Mumbai", "addr:postcode": "400064", "addr:state": "Maharastra", "amenity": "hospital", "name": "Choksi Nursing Home", "source": "Local Knowledge"}}, {"type": "node", "id": 7663833169, "lat": 19.1929, "lon": 72.834065, "tags": {"addr:district": "Mumbai Suburban", "addr:full": "21/22, Blue Haven, New Link Road, Evershine Nagar, Malad West, Mumbai", "addr:postcode": "400064", "addr:state": "Maharastra", "amenity": "hospital", "name": "Evershine Ortho & Surgical Hospital", "source": "Local Knowledge"}}, {"type": "node", "id": 7663833171, "lat": 19.1905141, "lon": 72.8463432, "tags": {"addr:district": "Mumbai Suburban", "addr:full": "BJ Patel Road, Opp. SNDT college, Near Liberty Garden, Malad, Kanchpada, Mumbai", "addr:postcode": "400064", "addr:state": "Maharastra", "amenity": "hospital", "name": "Sun Hospital", "source": "Local Knowledge"}}, {"type": "node", "id": 7663833172, "lat": 19.1843797, "lon": 72.8450285, "tags": {"addr:district": "Mumbai Suburban", "addr:full": "Malad, Navy Colony, Mamledarwadi, Malad West, Mumbai", "addr:postcode": "400064", "addr:state": "Maharastra", "amenity": "hospital", "name": "Savla Hospital", "source": "Local Knowledge"}}, {"type": "node", "id": 7663961414, "lat": 19.1433169, "lon": 72.8431331, "tags": {"addr:district": "Mumbai Suburban", "addr:full": "Ripon Apartment, 176, 1st Floor, Tulsi Pipe Road, Mumbai", "addr:postcode": "400102", "addr:state": "Maharastra", "amenity": "hospital", "healthcare": "hospital", "name": "City Hospital", "source": "Local Knowledge"}}, {"type": "node", "id": 7663961426, "lat": 19.1358754, "lon": 72.8446193, "tags": {"addr:district": "Mumbai Suburban", "addr:full": "Anmol Apartment, Ground Floor, Sankar Road, Jogeshwari West, Mumbai", "addr:postcode": "400102", "addr:state": "Maharastra", "amenity": "hospital", "healthcare": "hospital", "name": "Jogeshwari Hospital", "source": "Local Knowledge"}}, {"type": "node", "id": 7663961461, "lat": 19.1566348, "lon": 72.8466609, "tags": {"addr:district": "Mumbai Suburban", "addr:full": "Jawahar Nagar, Goregaon West, Mumbai", "addr:postcode": "400104", "addr:state": "Maharastra", "amenity": "hospital", "name": "Suvidha Hospital & PolyClinic", "source": "Local Knowledge"}}, {"type": "node", "id": 7663961473, "lat": 19.1447706, "lon": 72.8431122, "tags": {"addr:district": "Mumbai Suburban", "addr:full": "Sufi Sayed Kamal Ahmed Marg, Khoja Society, Vaishali Nagar, Jogeshwari, Mumbai", "addr:postcode": "400102", "addr:state": "Maharastra", "amenity": "hospital", "healthcare": "hospital", "name": "Ruby Hospital", "source": "Local Knowledge"}}, {"type": "node", "id": 7663961477, "lat": 19.1437117, "lon": 72.8426357, "tags": {"addr:district": "Mumbai Suburban", "addr:full": "Mathra Apartment, Swami Vivekanand Marg, Beside Jain Mandir, Jogeshwari, Mumbai", "addr:postcode": "400102", "addr:state": "Maharastra", "amenity": "hospital", "healthcare": "hospital", "name": "Noor Nursing Home", "source": "Local Knowledge"}}, {"type": "node", "id": 7663961490, "lat": 19.1450501, "lon": 72.8436497, "tags": {"addr:district": "Mumbai Suburban", "addr:full": "Dreamland Apartments, 1st, Govindji Shroff Marg, Vaishali Nagar, Jogeshwari, Mumbai", "addr:postcode": "400102", "addr:state": "Maharastra", "amenity": "hospital", "healthcare": "hospital", "name": "Fathima Children Hospital & Criticare Centre", "source": "Local Knowledge"}}, {"type": "node", "id": 8260890189, "lat": 19.2130035, "lon": 72.8235436, "tags": {"addr:city": "Mumbai", "addr:housenumber": "sector2 charkop, 122", "addr:postcode": "400067", "addr:street": "RSC Rd Number 11, Kandivali west", "amenity": "hospital", "emergency": "yes", "healthcare": "hospital", "healthcare:speciality": "general;orthopaedics;physician;diabetologist", "name": "Oscar hospital charkop naka", "opening_hours": "24/7"}}, {"type": "node", "id": 8796982088, "lat": 19.2155665, "lon": 72.830932, "tags": {"addr:district": "Mumbai", "addr:full": "214, Kandivali West, Mumbai", "addr:postcode": "400067", "addr:state": "Maharashtra", "amenity": "hospital", "name": "Charkop Maternity Home", "source": "Local Knowledge"}}, {"type": "node", "id": 8797130860, "lat": 19.1401815, "lon": 72.842786, "tags": {"addr:district": "Mumbai", "addr:full": "Shastri Nagar, Jogeshwari West, Mumbai", "addr:postcode": "400062", "addr:state": "Maharashtra", "amenity": "hospital", "healthcare": "hospital", "name": "Millat Dialysis Center", "source": "Local Knowledge"}}, {"type": "node", "id": 8797247003, "lat": 19.2034924, "lon": 72.8279212, "tags": {"addr:district": "Mumbai", "addr:full": "D And E Wing, 15-22 Pooja Enclave, Kandivali, Nilkanth Nagar, Ganesh Nagar, Mumbai", "addr:postcode": "400067", "addr:state": "Maharashtra", "amenity": "hospital", "name": "Oscar Hospital", "source": "Local Knowledge"}}, {"type": "node", "id": 8802125729, "lat": 19.188038, "lon": 72.8179488, "tags": {"addr:district": "Mumbai", "addr:full": "Malad, Azad Nagar, Malvani", "addr:postcode": "400095", "addr:state": "Maharashtra", "amenity": "hospital", "name": "Government Hospital, Malvani", "source": "Local Knowledge"}}, {"type": "node", "id": 9215424189, "lat": 19.1362893, "lon": 72.8273781, "tags": {"addr:district": "Mumbai", "addr:full": "Suresh Nagar, Andheri West, Mumbai", "addr:postcode": "400047", "addr:state": "Maharashtra", "amenity": "hospital", "description": "Private Hospital", "healthcare": "hospital", "name": "Axis Orthopaedic Hospital", "source": "Local Knowledge"}}, {"type": "node", "id": 9215451400, "lat": 19.136067, "lon": 72.8122383, "tags": {"addr:district": "Mumbai", "addr:full": "Jeet Nagar, Versova, Andheri West", "addr:postcode": "400061", "addr:state": "Maharashtra", "amenity": "hospital", "description": "Private Hospital", "name": "AL Kaleskar Hospital", "source": "Local Knowledge"}}, {"type": "node", "id": 9215501855, "lat": 19.1908993, "lon": 72.8335458, "tags": {"addr:district": "Mumbai", "addr:full": "Rajendra Vihar, Evershine Nagar, Malad West", "addr:postcode": "400064", "addr:state": "Maharashtra", "amenity": "hospital", "description": "SubCentre", "name": "Navkar Skin Hair And Laser Clinic", "source": "Local Knowledge"}}, {"type": "node", "id": 9215979185, "lat": 19.1469381, "lon": 72.829265, "tags": {"addr:district": "Mumbai", "addr:full": "Unit-3 1st Flore, Samrath Vaibhav' Off-K.L Walawalkar Marg, Oshiwara Lokhandwala", "addr:postcode": "400053", "addr:state": "Maharashtra", "amenity": "hospital", "healthcare": "hospital", "name": "Clear Vision Eye Care", "source": "OpenGovernmentData"}}, {"type": "node", "id": 11301648369, "lat": 19.2073234, "lon": 72.8181432}, {"type": "node", "id": 11301648370, "lat": 19.2073322, "lon": 72.818267}, {"type": "node", "id": 11301648371, "lat": 19.2069331, "lon": 72.8182833}, {"type": "node", "id": 11301648372, "lat": 19.2069419, "lon": 72.8181105}, {"type": "node", "id": 11301648373, "lat": 19.2070809, "lon": 72.8181105}, {"type": "node", "id": 11301648374, "lat": 19.2070831, "lon": 72.8181526}, {"type": "node", "id": 12487546421, "lat": 19.1856384, "lon": 72.8189267}, {"type": "node", "id": 12487546422, "lat": 19.1855307, "lon": 72.8194536}, {"type": "node", "id": 12487546423, "lat": 19.1852353, "lon": 72.8194058}, {"type": "node", "id": 12487546424, "lat": 19.1853488, "lon": 72.8188543}, {"type": "node", "id": 13294133382, "lat": 19.2068922, "lon": 72.8185123, "tags": {"addr:city": "Mumbai", "addr:district": "Charkop Village", "addr:housenumber": "Shop 1", "addr:postcode": "400067", "addr:street": "Charkop Gaon", "amenity": "hospital", "emergency": "yes", "healthcare": "hospital", "healthcare:speciality": "community", "name": "Sirvi Medical", "operator": "Suresh", "operator:type": "private"}}, {"type": "node", "id": 13430184140, "lat": 19.1624076, "lon": 72.8345101, "tags": {"amenity": "hospital", "healthcare": "hospital", "name": "GDHGDHGF"}}, {"type": "way", "id": 204886718, "nodes": [2148673134, 2148673144, 2148673135, 2148673136, 2148673121, 2148673069, 2148673071, 2148673123, 2148673134], "tags": {"amenity": "hospital", "building": "yes", "name": "Vimala Dermatological Centra"}}, {"type": "way", "id": 352788940, "nodes": [3585585054, 3585585055, 3585584993, 3585584992, 3585585054], "tags": {"addr:city": "Mumbai", "addr:district": "Mumbai Suburban", "addr:full": "CTS 374 / B(21), Padma Nagar, Chikuwadi, Borivali West, Mumbai", "addr:housenumber": "123", "addr:postcode": "400092", "addr:state": "Maharastra", "addr:street": "Chikuwadi", "amenity": "hospital", "email": "xyz@gmail.com", "healthcare": "hospital", "name": "Phoenix Hospital", "source": "Local Knowledge;gps"}}, {"type": "way", "id": 353815190, "nodes": [3596174444, 3642528551, 3642528546, 3642528547, 3642528552, 3596174445, 3596174405, 3596174404, 3596174444], "tags": {"addr:street": "turel pakhadi road", "amenity": "hospital", "healthcare": "hospital", "name": "janhavi nursing home"}}, {"type": "way", "id": 1219694090, "nodes": [11301648369, 11301648370, 11301648371, 11301648372, 11301648373, 11301648374, 11301648369], "tags": {"amenity": "hospital", "healthcare": "hospital", "name": "Lifelline"}}, {"type": "way", "id": 1349894554, "nodes": [12487546421, 12487546422, 12487546423, 12487546424, 12487546421], "tags": {"amenity": "hospital", "healthcare": "hospital", "name": "Government Hospita"}}]}