{"version": 0.6, "generator": "Overpass API 0.7.62.8 e802775f", "osm3s": {"timestamp_osm_base": "2026-01-12T13:22:51Z", "copyright": "The data included in this document is from www.openstreetmap.org. The data is made available under ODbL."}, "elements": [{"type": "node", "id": 288860407, "lat": 13.0364082, "lon": 77.7351029, "tags": {"highway": "bus_stop", "loc_name": "AVALAHALLI", "name": "Avalahalli", "name:kn": "\u0cac\u0cc0\u0ca6\u0cb0\u0cb9\u0cb3\u0ccd\u0cb3\u0cbf"}}, {"type": "node", "id": 307941901, "lat": 13.0533535, "lon": 77.7620152, "tags": {"highway": "bus_stop", "name": "Kattumnallur Gate", "public_transport": "platform"}}, {"type": "node", "id": 308220124, "lat": 13.0822133, "lon": 77.7384202, "tags": {"highway": "bus_stop", "loc_name": "MANDURU", "name": "Mandooru", "name:kn": "\u0cae\u0c82\u0ca1\u0cc2\u0cb0\u0cc1"}}, {"type": "node", "id": 308517615, "lat": 13.0608885, "lon": 77.7620717, "tags": {"highway": "bus_stop", "name": "Huskur", "name:kn": "\u0cb9\u0cc1\u0cb8\u0ccd\u0c95\u0cb0\u0ccd"}}, {"type": "node", "id": 308518058, "lat": 13.0936867, "lon": 77.7510339, "tags": {"highway": "bus_stop", "loc_name": "ANCHARAHALLI", "name": "Hancharahalli", "name:kn": "\u0cb9\u0c82\u0c9a\u0cb0\u0cb9\u0cb3\u0ccd\u0cb3\u0cbf"}}, {"type": "node", "id": 355848134, "lat": 13.0709002, "lon": 77.6739661, "tags": {"highway": "bus_stop", "loc_name": "DODDAGUBBI", "name": "Dodda Gubbi", "name:kn": "\u0ca6\u0cca\u0ca1\u0ccd\u0ca1 \u0c97\u0cc1\u0cac\u0ccd\u0cac\u0cbf"}}, {"type": "node", "id": 420080578, "lat": 13.0684965, "lon": 77.6824191, "tags": {"highway": "bus_stop", "loc_name": "ANGALAPURA", "name": "Anagalipura", "name:kn": "\u0c85\u0ca3\u0c97\u0cb2\u0cbf\u0caa\u0cc1\u0cb0"}}, {"type": "node", "id": 440670284, "lat": 13.0554156, "lon": 77.7058727, "tags": {"alt_name": "Adur", "highway": "bus_stop", "name": "Aduru", "name:en": "Aduru", "name:kn": "\u0c86\u0ca6\u0cc2\u0cb0\u0cc1", "network": "BMTC", "operator": "BMTC", "public_transport": "platform"}}, {"type": "node", "id": 440670318, "lat": 13.0497448, "lon": 77.72014, "tags": {"bench": "no", "bin": "no", "highway": "bus_stop", "lit": "yes", "loc_name": "AVALAHALLI", "name": "East Point College", "shelter": "yes"}}, {"type": "node", "id": 440673929, "lat": 13.0603575, "lon": 77.7163583, "tags": {"highway": "bus_stop", "loc_name": "BIDRAHALLI", "name": "Bidrahalli", "name:kn": "\u0cac\u0cc0\u0ca6\u0cb0\u0cb9\u0cb3\u0ccd\u0cb3\u0cbf"}}, {"type": "node", "id": 440673949, "lat": 13.0720108, "lon": 77.7210069, "tags": {"bus": "yes", "highway": "bus_stop", "loc_name": "BYAPANAHALLI", "name": "Byappana Halli", "name:kn": "\u0cac\u0cc8\u0caa\u0ca8\u0cb9\u0cb3\u0ccd\u0cb3\u0cbf", "public_transport": "platform"}}, {"type": "node", "id": 440673975, "lat": 13.0873705, "lon": 77.7146571, "tags": {"highway": "bus_stop", "loc_name": "GUNDURU", "name": "Gunduru", "name:kn": "\u0c97\u0cc1\u0c82\u0ca1\u0cc2\u0cb0\u0cc1"}}, {"type": "node", "id": 440675851, "lat": 13.0476354, "lon": 77.73803, "tags": {"highway": "bus_stop", "name": "Chimasandra", "name:kn": "\u0c9a\u0cc0\u0cae\u0cb8\u0c82\u0ca6\u0ccd\u0cb0"}}, {"type": "node", "id": 440678720, "lat": 13.0402048, "lon": 77.6794539, "tags": {"highway": "bus_stop", "loc_name": "K.CHANNASANDRA", "name": "K Channsandra", "name:en": "K Channsandra", "network": "BMTC", "operator": "BMTC", "public_transport": "platform"}}, {"type": "node", "id": 440678727, "lat": 13.0391332, "lon": 77.6776432, "tags": {"bus": "yes", "name": "Pooja Garden", "name:en": "Pooja Garden", "network": "BMTC", "operator": "BMTC", "public_transport": "stop_position"}}, {"type": "node", "id": 440678729, "lat": 13.0391741, "lon": 77.6775047, "tags": {"highway": "bus_stop", "loc_name": "VAISHNAVI LAYOUT", "name": "Pooja Garden", "name:en": "Pooja Garden", "network": "BMTC", "operator": "BMTC", "public_transport": "platform"}}, {"type": "node", "id": 440704155, "lat": 13.0376489, "lon": 77.6922232, "tags": {"highway": "bus_stop", "name": "Maragondanahalli", "name:kn": "\u0cae\u0cbe\u0cb0\u0c97\u0cca\u0c82\u0ca1\u0ca8\u0cb9\u0cb3\u0ccd\u0cb3\u0cbf"}}, {"type": "node", "id": 536301751, "lat": 13.0853455, "lon": 77.6871407, "tags": {"highway": "bus_stop", "loc_name": "YERAPANAHALLI", "name": "Yarappanahalli", "name:kn": "\u0caf\u0cb0\u0caa\u0ccd\u0caa\u0ca8\u0cb9\u0cb3\u0ccd\u0cb3\u0cbf"}}, {"type": "node", "id": 543322642, "lat": 13.0836729, "lon": 77.6756214, "tags": {"highway": "bus_stop", "loc_name": "N.G GOLLAHALLI", "name": "Gollarahalli", "name:kn": "\u0c97\u0cca\u0cb2\u0ccd\u0cb2\u0cb0\u0cb9\u0cb3\u0ccd\u0cb3\u0cbf"}}, {"type": "node", "id": 543331009, "lat": 13.1180544, "lon": 77.688751, "tags": {"highway": "bus_stop", "loc_name": "DASA NAYAKANA HALLI", "name": "Dasanayakanahalli"}}, {"type": "node", "id": 1104250533, "lat": 13.0531119, "lon": 77.7619544, "tags": {"bus": "yes", "name": "Katamanallur Gate", "name:en": "Katamanallur Gate", "network": "BMTC", "operator": "BMTC", "public_transport": "stop_position"}}, {"type": "node", "id": 1356096198, "lat": 13.061207, "lon": 77.7419046, "tags": {"highway": "bus_stop", "loc_name": "NIMBEKAIPURA", "name": "S K F Factory"}}, {"type": "node", "id": 1356101107, "lat": 13.0744584, "lon": 77.7469875, "tags": {"highway": "bus_stop", "loc_name": "BOMMANAHALLI", "name": "Bommenahalli", "name:kn": "\u0cac\u0cca\u0cae\u0ccd\u0cae\u0cc7\u0ca8\u0cb9\u0cb3\u0ccd\u0cb3\u0cbf"}}, {"type": "node", "id": 1459986597, "lat": 13.0626717, "lon": 77.740183, "tags": {"bus": "yes", "highway": "bus_stop", "loc_name": "BOMMANAHALLI", "name": "Grind Well", "public_transport": "platform"}}, {"type": "node", "id": 1490428102, "lat": 13.0463995, "lon": 77.7502058, "tags": {"bus": "yes", "highway": "bus_stop", "name": "Budigere Cross", "name:kn": "\u0cac\u0cc2\u0ca6\u0cbf\u0c97\u0cc6\u0cb0\u0cc6 \u0c85\u0ca1\u0ccd\u0ca1\u0cb0\u0cb8\u0ccd\u0ca4\u0cc6", "public_transport": "platform"}}, {"type": "node", "id": 2247666551, "lat": 13.044075, "lon": 77.7620238, "tags": {"highway": "bus_stop", "name": "Goravigere gate"}}, {"type": "node", "id": 2451436793, "lat": 13.0520794, "lon": 77.6811267, "tags": {"highway": "bus_stop", "loc_name": "K.CHANNASANDRA", "name": "Jn of Channasandra"}}, {"type": "node", "id": 2451437189, "lat": 13.0516355, "lon": 77.6908858, "tags": {"highway": "bus_stop", "loc_name": "RAMPURA", "name": "Rampura", "name:kn": "\u0cac\u0cc0\u0ca6\u0cb0\u0cb9\u0cb3\u0ccd\u0cb3\u0cbf"}}, {"type": "node", "id": 2451439952, "lat": 13.0568947, "lon": 77.7149969, "tags": {"highway": "bus_stop", "loc_name": "BIDRAHALLI", "name": "Bidrahalli Cross"}}, {"type": "node", "id": 2451441548, "lat": 13.0454466, "lon": 77.7235974, "tags": {"highway": "bus_stop", "loc_name": "HIRANDAHALLI", "name": "Hirandahalli", "name:kn": "\u0cb9\u0cbf\u0cb0\u0c82\u0ca1\u0cb9\u0cb3\u0ccd\u0cb3\u0cbf"}}, {"type": "node", "id": 2451455544, "lat": 13.0421114, "lon": 77.7444709, "tags": {"highway": "bus_stop", "name": "BPL"}}, {"type": "node", "id": 2451455553, "lat": 13.0416228, "lon": 77.7443991, "tags": {"highway": "bus_stop", "name": "BPL"}}, {"type": "node", "id": 2451458060, "lat": 13.0461708, "lon": 77.7506815, "tags": {"highway": "bus_stop", "name": "Boodigere Cross"}}, {"type": "node", "id": 2451741394, "lat": 13.0946973, "lon": 77.6833256, "tags": {"highway": "bus_stop", "loc_name": "YERAPANAHALLI", "name": "Yarappana Bande"}}, {"type": "node", "id": 2451743037, "lat": 13.0951323, "lon": 77.6936376, "tags": {"highway": "bus_stop", "name": "D Group Layout"}}, {"type": "node", "id": 2461826945, "lat": 13.1195669, "lon": 77.6787169, "tags": {"bus": "yes", "highway": "bus_stop", "loc_name": "MARENAHALLI", "name": "Marenahalli", "name:kn": "\u0cae\u0cbe\u0cb0\u0cc7\u0ca8\u0cb9\u0cb3\u0ccd\u0cb3\u0cbf", "public_transport": "platform"}}, {"type": "node", "id": 2461833644, "lat": 13.1134906, "lon": 77.6877066, "tags": {"highway": "bus_stop", "loc_name": "CHOKKANAHALLI", "name": "Chokkanahalli", "name:kn": "\u0c9a\u0cca\u0c95\u0ccd\u0c95\u0ca8\u0cb9\u0cb3\u0ccd\u0cb3\u0cbf"}}, {"type": "node", "id": 2462619972, "lat": 13.1234888, "lon": 77.7442695, "tags": {"highway": "bus_stop", "loc_name": "ITTHARAHALLI", "name": "Andrahalli", "name:kn": "\u0c85\u0c82\u0ca6\u0ccd\u0cb0\u0cb9\u0cb3\u0ccd\u0cb3\u0cbf", "public_transport": "platform"}}, {"type": "node", "id": 2462624244, "lat": 13.110631, "lon": 77.7450622, "tags": {"highway": "bus_stop", "loc_name": "THIRUMENAHALLI", "name": "Thirumenahalli Gate"}}, {"type": "node", "id": 2462630147, "lat": 13.1026869, "lon": 77.7440848, "tags": {"highway": "bus_stop", "loc_name": "JYOTHI PURA", "name": "Jyotipura", "name:kn": "\u0c9c\u0ccd\u0caf\u0ccb\u0ca4\u0cbf\u0caa\u0cc1\u0cb0"}}, {"type": "node", "id": 2462633912, "lat": 13.0918442, "lon": 77.7416817, "tags": {"highway": "bus_stop", "loc_name": "ANCHARAHALLI", "name": "Ancharahalli Gate"}}, {"type": "node", "id": 2462650048, "lat": 13.072684, "lon": 77.7371219, "tags": {"highway": "bus_stop", "loc_name": "MANDURU", "name": "Premium Farm Budigere"}}, {"type": "node", "id": 2462656835, "lat": 13.053787, "lon": 77.7618285, "tags": {"highway": "bus_stop", "name": "Kattumnallur Gate"}}, {"type": "node", "id": 2462858866, "lat": 13.0996654, "lon": 77.7152139, "tags": {"highway": "bus_stop", "loc_name": "MARASANDRA", "name": "Marasandra Circle", "name:kn": "\u0cae\u0cbe\u0cb0\u0cb8\u0c82\u0ca6\u0ccd\u0cb0 \u0cb5\u0cc3\u0ca4\u0ccd\u0ca4"}}, {"type": "node", "id": 2468952721, "lat": 13.0810966, "lon": 77.6826061, "tags": {"highway": "bus_stop", "name": "Bande Bommasandra Cross"}}, {"type": "node", "id": 2468954093, "lat": 13.0806006, "lon": 77.6916643, "tags": {"highway": "bus_stop", "loc_name": "KADA AGRAHARA", "name": "Kada Agrahara", "name:kn": "\u0c95\u0cbe\u0ca1\u0c85\u0c97\u0ccd\u0cb0\u0cb9\u0cbe\u0cb0"}}, {"type": "node", "id": 2474965699, "lat": 13.0358933, "lon": 77.7357104, "tags": {"highway": "bus_stop", "name": "Avalahalli", "name:kn": "\u0cac\u0cc0\u0ca6\u0cb0\u0cb9\u0cb3\u0ccd\u0cb3\u0cbf"}}, {"type": "node", "id": 2474965701, "lat": 13.0356039, "lon": 77.7358993, "tags": {"highway": "bus_stop", "name": "Avalahalli", "name:kn": "\u0cac\u0cc0\u0ca6\u0cb0\u0cb9\u0cb3\u0ccd\u0cb3\u0cbf"}}, {"type": "node", "id": 2474986112, "lat": 13.0618479, "lon": 77.6867831, "tags": {"highway": "bus_stop", "name": "Annagalpura Cross"}}, {"type": "node", "id": 2477436172, "lat": 13.0373116, "lon": 77.7104943, "tags": {"highway": "bus_stop", "loc_name": "KITHAGANURU", "name": "Kittaganuru"}}, {"type": "node", "id": 2477698030, "lat": 13.0992458, "lon": 77.7434476, "tags": {"highway": "bus_stop", "name": "Shringarapura", "name:kn": "\u0cb6\u0ccd\u0cb0\u0cc0\u0cb0\u0c82\u0c97\u0caa\u0cc1\u0cb0"}}, {"type": "node", "id": 2477706708, "lat": 13.0389419, "lon": 77.7399628, "tags": {"highway": "bus_stop", "name": "Chimmasandra Cross"}}, {"type": "node", "id": 2477785927, "lat": 13.0945321, "lon": 77.7356396, "tags": {"highway": "bus_stop", "loc_name": "KATTUGOLLAHALLI", "name": "Kattugollahalli", "name:kn": "\u0c95\u0c9f\u0ccd\u0c9f\u0cc1\u0c97\u0cca\u0cb2\u0ccd\u0cb2\u0cb9\u0cb3\u0ccd\u0cb3\u0cbf"}}, {"type": "node", "id": 2481231858, "lat": 13.0584698, "lon": 77.7559258, "tags": {"highway": "bus_stop", "name": "Nimbekayipura"}}, {"type": "node", "id": 2481235515, "lat": 13.1112668, "lon": 77.7533825, "tags": {"highway": "bus_stop", "loc_name": "THIRUMENAHALLI", "name": "Thirumenahalli", "name:kn": "\u0ca4\u0cbf\u0cb0\u0cc1\u0cae\u0cc7\u0ca8\u0cb9\u0cb3\u0ccd\u0cb3\u0cbf"}}, {"type": "node", "id": 6168012417, "lat": 13.0479162, "lon": 77.7606414, "tags": {"bus": "yes", "name": "Sannathammanahalli", "name:en": "Sannathammanahalli", "network": "BMTC", "operator": "BMTC", "public_transport": "stop_position"}}, {"type": "node", "id": 9363060449, "lat": 13.0400484, "lon": 77.6794318, "tags": {"bus": "yes", "highway": "bus_stop", "loc_name": "K.CHANNASANDRA", "name": "K Channasandra", "name:en": "K Channasandra", "network": "BMTC", "operator": "BMTC", "public_transport": "platform"}}, {"type": "node", "id": 10723877829, "lat": 13.0464988, "lon": 77.7504582, "tags": {"bus": "yes", "highway": "bus_stop", "name": "Budigere Cross", "name:en": "Budigere Cross", "name:kn": "\u0cac\u0cc2\u0ca6\u0cbf\u0c97\u0cc6\u0cb0\u0cc6 \u0c85\u0ca1\u0ccd\u0ca1\u0cb0\u0cb8\u0ccd\u0ca4\u0cc6", "network": "BMTC", "operator": "BMTC", "public_transport": "platform"}}, {"type": "node", "id": 10723877900, "lat": 13.0628297, "lon": 77.7403394, "tags": {"bus": "yes", "highway": "bus_stop", "loc_name": "BOMMANAHALLI", "name": "Grind Well", "public_transport": "platform"}}, {"type": "node", "id": 10828665718, "lat": 13.0820076, "lon": 77.7387486, "tags": {"highway": "bus_stop", "loc_name": "MANDURU", "name": "Mandooru", "name:kn": "\u0cae\u0c82\u0ca1\u0cc2\u0cb0\u0cc1", "public_transport": "platform"}}, {"type": "node", "id": 11598213071, "lat": 13.0554373, "lon": 77.7058824, "tags": {"alt_name": "Adur", "bus": "yes", "name": "Aduru", "name:en": "Aduru", "network": "BMTC", "operator": "BMTC", "public_transport": "stop_position"}}, {"type": "node", "id": 12001070312, "lat": 13.0391348, "lon": 77.677677, "tags": {"highway": "bus_stop", "loc_name": "VAISHNAVI LAYOUT", "name": "Pooja Garden", "name:en": "Pooja Garden", "network": "BMTC", "operator": "BMTC", "public_transport": "platform"}}, {"type": "node", "id": 12001070313, "lat": 13.0400901, "lon": 77.6794292, "tags": {"bus": "yes", "name": "K Channasandra", "name:en": "K Channasandra", "network": "BMTC", "operator": "BMTC", "public_transport": "stop_position"}}, {"type": "node", "id": 12001070320, "lat": 13.0401523, "lon": 77.6794578, "tags": {"bus": "yes", "name": "K Channsandra", "name:en": "K Channsandra", "network": "BMTC", "operator": "BMTC", "public_transport": "stop_position"}}, {"type": "node", "id": 12001070322, "lat": 13.0391705, "lon": 77.6775803, "tags": {"bus": "yes", "name": "Pooja Garden", "name:en": "Pooja Garden", "network": "BMTC", "operator": "BMTC", "public_transport": "stop_position"}}, {"type": "node", "id": 12989027171, "lat": 13.0379112, "lon": 77.7598089, "tags": {"bus": "yes", "name": "Safal Market", "name:en": "Safal Market", "network": "BMTC", "operator": "BMTC", "public_transport": "stop_position"}}, {"type": "node", "id": 12989027172, "lat": 13.0379012, "lon": 77.7598598, "tags": {"bench": "no", "highway": "bus_stop", "name": "Safal Market", "name:en": "Safal Market", "network": "BMTC", "operator": "BMTC", "public_transport": "platform", "shelter": "no"}}, {"type": "node", "id": 12989027173, "lat": 13.044071, "lon": 77.7604514, "tags": {"bus": "yes", "name": "Gorivegere Gate", "name:en": "Gorivegere Gate", "network": "BMTC", "operator": "BMTC", "public_transport": "stop_position"}}, {"type": "node", "id": 12989027174, "lat": 13.0440731, "lon": 77.7604855, "tags": {"highway": "bus_stop", "name": "Gorivegere Gate", "name:en": "Gorivegere Gate", "network": "BMTC", "operator": "BMTC", "public_transport": "platform"}}, {"type": "node", "id": 12989027175, "lat": 13.047903, "lon": 77.7607185, "tags": {"highway": "bus_stop", "name": "Sannathammanahalli", "name:en": "Sannathammanahalli", "network": "BMTC", "operator": "BMTC", "public_transport": "platform"}}, {"type": "node", "id": 12989027176, "lat": 13.0530682, "lon": 77.7620071, "tags": {"highway": "bus_stop", "name": "Katamanallur Gate", "name:en": "Katamanallur Gate", "network": "BMTC", "operator": "BMTC", "public_transport": "platform"}}, {"type": "node", "id": 12989027194, "lat": 13.0464358, "lon": 77.7505035, "tags": {"bus": "yes", "name": "Budigere Cross", "name:en": "Budigere Cross", "network": "BMTC", "operator": "BMTC", "public_transport": "stop_position"}}, {"type": "node", "id": 12989027195, "lat": 13.0507872, "lon": 77.7566385, "tags": {"bus": "yes", "name": "Sapthagiri Convention Hall", "name:en": "Sapthagiri Convention Hall", "network": "BMTC", "operator": "BMTC", "public_transport": "stop_position"}}, {"type": "node", "id": 12989027196, "lat": 13.0508236, "lon": 77.7566129, "tags": {"highway": "bus_stop", "name": "Sapthagiri Convention Hall", "name:en": "Sapthagiri Convention Hall", "network": "BMTC", "operator": "BMTC", "public_transport": "platform"}}, {"type": "relation", "id": 17173076, "members": [{"type": "node", "ref": 11598213071, "role": "stop"}, {"type": "node", "ref": 440670284, "role": "platform"}], "tags": {"alt_name": "Adur", "name": "Aduru", "name:en": "Aduru", "network": "BMTC", "operator": "BMTC", "public_transport": "stop_area", "type": "public_transport"}}, {"type": "relation", "id": 17750703, "members": [{"type": "node", "ref": 440678727, "role": "stop"}, {"type": "node", "ref": 12001070312, "role": "platform"}], "tags": {"name": "Pooja Garden", "name:en": "Pooja Garden", "network": "BMTC", "operator": "BMTC", "public_transport": "stop_area", "type": "public_transport"}}, {"type": "relation", "id": 17750704, "members": [{"type": "node", "ref": 12001070313, "role": "stop"}, {"type": "node", "ref": 9363060449, "role": "platform"}], "tags": {"name": "K Channasandra", "name:en": "K Channasandra", "network": "BMTC", "operator": "BMTC", "public_transport": "stop_area", "type": "public_transport"}}, {"type": "relation", "id": 17750708, "members": [{"type": "node", "ref": 12001070320, "role": "stop"}, {"type": "node", "ref": 440678720, "role": "platform"}], "tags": {"name": "K Channsandra", "name:en": "K Channsandra", "network": "BMTC", "operator": "BMTC", "public_transport": "stop_area", "type": "public_transport"}}, {"type": "relation", "id": 17750709, "members": [{"type": "node", "ref": 12001070322, "role": "stop"}, {"type": "node", "ref": 440678729, "role": "platform"}], "tags": {"name": "Pooja Garden", "name:en": "Pooja Garden", "network": "BMTC", "operator": "BMTC", "public_transport": "stop_area", "type": "public_transport"}}, {"type": "relation", "id": 19336789, "members": [{"type": "node", "ref": 12989027171, "role": "stop"}, {"type": "node", "ref": 12989027172, "role": "platform"}], "tags": {"name": "Safal Market", "name:en": "Safal Market", "network": "BMTC", "operator": "BMTC", "public_transport": "stop_area", "type": "public_transport"}}, {"type": "relation", "id": 19336790, "members": [{"type": "node", "ref": 12989027173, "role": "stop"}, {"type": "node", "ref": 12989027174, "role": "platform"}], "tags": {"name": "Gorivegere Gate", "name:en": "Gorivegere Gate", "network": "BMTC", "operator": "BMTC", "public_transport": "stop_area", "type": "public_transport"}}, {"type": "relation", "id": 19336791, "members": [{"type": "node", "ref": 6168012417, "role": "stop"}, {"type": "node", "ref": 12989027175, "role": "platform"}], "tags": {"name": "Sannathammanahalli", "name:en": "Sannathammanahalli", "network": "BMTC", "operator": "BMTC", "public_transport": "stop_area", "type": "public_transport"}}, {"type": "relation", "id": 19336792, "members": [{"type": "node", "ref": 1104250533, "role": "stop"}, {"type": "node", "ref": 12989027176, "role": "platform"}], "tags": {"name": "Katamanallur Gate", "name:en": "Katamanallur Gate", "network": "BMTC", "operator": "BMTC", "public_transport": "stop_area", "type": "public_transport"}}, {"type": "relation", "id": 19336793, "members": [{"type": "node", "ref": 12989027194, "role": "stop"}, {"type": "node", "ref": 10723877829, "role": "platform"}], "tags": {"name": "Budigere Cross", "name:en": "Budigere Cross", "network": "BMTC", "operator": "BMTC", "public_transport": "stop_area", "type": "public_transport"}}, {"type": "relation", "id": 19336794, "members": [{"type": "node", "ref": 12989027195, "role": "stop"}, {"type": "node", "ref": 12989027196, "role": "platform"}], "tags": {"name": "Sapthagiri Convention Hall", "name:en": "Sapthagiri Convention Hall", "network": "BMTC", "operator": "BMTC", "public_transport": "stop_area", "type": "public_transport"}}]}