{"version": 0.6, "generator": "Overpass API 0.7.62.8 e802775f", "osm3s": {"timestamp_osm_base": "2026-01-12T12:41:44Z", "copyright": "The data included in this document is from www.openstreetmap.org. The data is made available under ODbL."}, "elements": [{"type": "node", "id": 303924572, "lat": 12.9235041, "lon": 77.5857517, "tags": {"amenity": "hospital", "name": "Shanti Hospital", "name:kn": "\u0cb6\u0cbe\u0c82\u0ca4\u0cbf \u0c86\u0cb8\u0ccd\u0caa\u0ca4\u0ccd\u0cb0\u0cc6"}}, {"type": "node", "id": 364629422, "lat": 12.9207173, "lon": 77.5745968, "tags": {"addr:street": "Kanakapura Road", "amenity": "hospital", "name": "JBS Hospital", "name:kn": "\u0c9c\u0cc6 \u0cac\u0cbf \u0c8e\u0cb8\u0ccd \u0c86\u0cb8\u0ccd\u0caa\u0ca4\u0ccd\u0cb0\u0cc6"}}, {"type": "node", "id": 364629734, "lat": 12.9231684, "lon": 77.584433, "tags": {"amenity": "hospital", "check_date": "2025-01-11", "healthcare": "hospital", "name": "Jayanagar heart Centre"}}, {"type": "node", "id": 456039710, "lat": 12.9934872, "lon": 77.5708719}, {"type": "node", "id": 456039711, "lat": 12.993419, "lon": 77.5696323}, {"type": "node", "id": 456039712, "lat": 12.9965469, "lon": 77.5686143}, {"type": "node", "id": 456039713, "lat": 12.9965279, "lon": 77.569993}, {"type": "node", "id": 456039714, "lat": 12.995708, "lon": 77.5699876}, {"type": "node", "id": 456039715, "lat": 12.9956702, "lon": 77.5708417}, {"type": "node", "id": 456209036, "lat": 12.9704823, "lon": 77.5844827}, {"type": "node", "id": 456209040, "lat": 12.969032, "lon": 77.5861597}, {"type": "node", "id": 456209041, "lat": 12.9698959, "lon": 77.5870036}, {"type": "node", "id": 456209042, "lat": 12.9716341, "lon": 77.5867497}, {"type": "node", "id": 456209045, "lat": 12.9715663, "lon": 77.5849896}, {"type": "node", "id": 456209046, "lat": 12.9713608, "lon": 77.5852082}, {"type": "node", "id": 456209054, "lat": 12.9726031, "lon": 77.5855842}, {"type": "node", "id": 458105013, "lat": 12.9412769, "lon": 77.5219293}, {"type": "node", "id": 519549595, "lat": 12.9981215, "lon": 77.5404836, "tags": {"addr:city": "Basaveshwara Nagar, Bangalore", "addr:district": "Bengaluru Urban", "addr:full": "#100/101, Lic Colony West Of Chord, Basaveshwaranagar", "addr:housenumber": "100", "addr:postcode": "560079", "addr:state": "Karnataka", "addr:street": "West of Chord Road (LIC Colony)", "amenity": "hospital", "email": "chordroadhospital100@yahoo.co.in", "healthcare:speciality": "multi speciality", "name": "Chord Road Hospital Pvt Ltd", "name:kn": "\u0c95\u0cca\u0cb0\u0ccd\u0ca1\u0ccd \u0cb0\u0cb8\u0ccd\u0ca4\u0cc6 \u0c86\u0cb8\u0ccd\u0caa\u0ca4\u0ccd\u0cb0\u0cc6", "operator:type": "private", "phone": "+91-80-23225858;+91-80-23225868;+91-80-23225878", "source": "OpenGovernmentData", "website": "http://www.chordroadhospitalent.com/", "wheelchair": "yes"}}, {"type": "node", "id": 530353033, "lat": 12.9978931, "lon": 77.5436127, "tags": {"addr:city": "Basaveshwara Nagar, Bangalore", "addr:housenumber": "877", "addr:postcode": "560079", "addr:street": "Modi Hospital Road (West of Chord Road)", "amenity": "hospital", "email": "pristinehospitals@pristinehospitals.com", "fax": "+91-80-41354455", "healthcare": "hospital", "name": "Pristline Hospital", "name:kn": "\u0caa\u0ccd\u0cb0\u0cbf\u0cb8\u0ccd\u0c9f\u0cc0\u0ca8\u0ccd \u0c86\u0cb8\u0ccd\u0caa\u0ca4\u0ccd\u0cb0\u0cc6", "phone": "+91-80-41354444;+91-80-51270776", "website": "http://www.pristinehospitals.com/"}}, {"type": "node", "id": 582384953, "lat": 12.9376734, "lon": 77.5802836, "tags": {"addr:district": "Bengaluru Urban", "addr:full": "202, R.V.Road", "addr:postcode": "560001", "addr:state": "Karnataka", "addr:street": "Rashtriya Vidyalaya Road", "amenity": "hospital", "email": "info@Bengaluruhospital.co.in", "healthcare": "hospital", "name": "Bengaluru Hospital, Susruta Medical Aid AndResearch Home Limited", "name:kn": "\u0cac\u0cc6\u0c82\u0c97\u0cb3\u0cc2\u0cb0\u0cc1 \u0c86\u0cb8\u0ccd\u0caa\u0ca4\u0ccd\u0cb0\u0cc6", "operator:type": "private", "source": "OpenGovernmentData", "website": "http://dpal.kar.nic.in/Kanunu%20padakosha%20PDF%20Files/Recognised%20Hospitals.pdf"}}, {"type": "node", "id": 625856709, "lat": 13.0011275, "lon": 77.5639285, "tags": {"addr:city": "bangalore", "addr:district": "Bengaluru Urban", "addr:full": "71, 11Th Main Road, Opposite Malleshwaram Railway Station, Malleshwaram", "addr:housenumber": "71", "addr:postcode": "560003", "addr:state": "Karnataka", "addr:street": "11th Main Road, Opp Railway Station, Malleswaram", "amenity": "hospital", "name": "Manipal Northside Hospital", "phone": "080 2222 1111", "source": "OpenGovernmentData", "wheelchair": "yes"}}, {"type": "node", "id": 679886725, "lat": 12.9649071, "lon": 77.5681542}, {"type": "node", "id": 679886767, "lat": 12.9635035, "lon": 77.5674932}, {"type": "node", "id": 679886785, "lat": 12.9647552, "lon": 77.5672137}, {"type": "node", "id": 679886814, "lat": 12.9639958, "lon": 77.5681757}, {"type": "node", "id": 679886851, "lat": 12.9633987, "lon": 77.5673373}, {"type": "node", "id": 679886893, "lat": 12.9637968, "lon": 77.5680521}, {"type": "node", "id": 680004360, "lat": 12.9802166, "lon": 77.56574}, {"type": "node", "id": 680004373, "lat": 12.9794404, "lon": 77.564481}, {"type": "node", "id": 680004435, "lat": 12.9793627, "lon": 77.5656525}, {"type": "node", "id": 680004477, "lat": 12.9802981, "lon": 77.5645109}, {"type": "node", "id": 769216417, "lat": 12.9364329, "lon": 77.583477, "tags": {"amenity": "hospital", "healthcare": "hospital", "name": "Ramakrishna Nursing Home and Hospital"}}, {"type": "node", "id": 954623054, "lat": 12.939058, "lon": 77.5510802, "tags": {"addr:city": "bangalore", "addr:housenumber": "8/45", "addr:postcode": "560050", "addr:street": "80 Feet Road, SBM Colony, Near-Bank Colony Bus Stop, Banashankari 1st Stage", "amenity": "hospital", "name": "Sri Vinayaka Poly Clinic", "phone": "080 2672 8455", "source": "justdial"}}, {"type": "node", "id": 1006462338, "lat": 12.985247, "lon": 77.5803846, "tags": {"addr:city": "Bangalore", "addr:housenumber": "31/32", "addr:postcode": "560001", "addr:street": "Crescent Rd,Nehru Nagar,Gandhi Nagar", "amenity": "hospital", "name": "Mallige Medical Centre", "phone": "080 2220 3333", "website": "https://www.mallige.com/"}}, {"type": "node", "id": 1101622501, "lat": 12.9988604, "lon": 77.5817424, "tags": {"amenity": "hospital", "name": "Government Maternity Hospital", "name:kn": "\u0cb8\u0cb0\u0c95\u0cbe\u0cb0\u0cbf \u0cb9\u0cc6\u0cb0\u0cbf\u0c97\u0cc6 \u0c86\u0cb8\u0ccd\u0caa\u0ca4\u0ccd\u0cb0\u0cc6"}}, {"type": "node", "id": 1108014134, "lat": 12.9681189, "lon": 77.54325, "tags": {"amenity": "hospital", "emergency": "no", "name": "Soujanya Clinic"}}, {"type": "node", "id": 1108040901, "lat": 12.967291, "lon": 77.5429164, "tags": {"amenity": "hospital", "name": "Kanva Diagnostics Collection Centre"}}, {"type": "node", "id": 1118254826, "lat": 12.9883175, "lon": 77.5596746}, {"type": "node", "id": 1290125198, "lat": 13.0043642, "lon": 77.5652959, "tags": {"amenity": "hospital"}}, {"type": "node", "id": 1440343668, "lat": 12.942614, "lon": 77.5854533, "tags": {"addr:district": "Bengaluru Urban", "addr:full": "34, 10Th Main 1st Block, Jayanagar", "addr:postcode": "560011", "addr:state": "Karnataka", "amenity": "hospital", "name": "Maiya Multispecialty Hospital", "source": "OpenGovernmentData", "wheelchair": "yes"}}, {"type": "node", "id": 1463507632, "lat": 12.9746134, "lon": 77.5129757, "tags": {"addr:district": "Bengaluru Urban", "addr:full": "No-5, 20 Th Cross, Malagala Under Pass Ring Road", "addr:postcode": "560091", "addr:state": "Karnataka", "addr:subdistrict": "Nagarbhavi", "amenity": "hospital", "name": "Vasan Eye Care Hospital, Nagarabhavi", "name:kn": "\u0cb5\u0cbf\u0c9c\u0caf \u0ca8\u0cc7\u0ca4\u0ccd\u0cb0\u0cbe\u0cb2\u0caf", "operator:type": "private", "source": "OpenGovernmentData", "website": "http://www.vasaneye.in/"}}, {"type": "node", "id": 1463555571, "lat": 12.930936, "lon": 77.5153776, "tags": {"addr:district": "Bengaluru Urban", "addr:full": "No. 484/A, Ideal Homes Township, 18th Main Road, Rajarajeshwarinagar", "addr:postcode": "560098", "addr:state": "Karnataka", "amenity": "hospital", "name": "Rc Hospital", "source": "OpenGovernmentData"}}, {"type": "node", "id": 1463563608, "lat": 12.9263226, "lon": 77.5156579, "tags": {"amenity": "hospital", "name": "Veturi Child Health Centre"}}, {"type": "node", "id": 1464035837, "lat": 12.9246977, "lon": 77.5004222}, {"type": "node", "id": 1464035839, "lat": 12.9244782, "lon": 77.5006593}, {"type": "node", "id": 1466477036, "lat": 12.9256842, "lon": 77.5489346, "tags": {"addr:district": "Bengaluru Urban", "addr:full": "No:114, 100 Feet Ring Road, 3Road Stage Banashankari", "addr:postcode": "560085", "addr:state": "Karnataka", "amenity": "hospital", "emergency": "yes", "name": "Udhbhava Hospital", "name:kn": "\u0c89\u0ca6\u0ccd\u0cad\u0cb5 \u0c86\u0cb8\u0ccd\u0caa\u0ca4\u0ccd\u0cb0\u0cc6", "source": "OpenGovernmentData"}}, {"type": "node", "id": 1466576385, "lat": 12.9206648, "lon": 77.5598673, "tags": {"addr:district": "Bengaluru Urban", "addr:full": "274 / 275, M K Puttalingaiah Road, Padmanabhanagar", "addr:postcode": "560073", "addr:state": "Karnataka", "amenity": "hospital", "emergency": "yes", "name": "DG Hospital", "operator:type": "private", "source": "OpenGovernmentData", "website": "http://dpal.kar.nic.in/Kanunu%20padakosha%20PDF%20Files/Recognised%20Hospitals.pdf"}}, {"type": "node", "id": 1467778591, "lat": 12.9336501, "lon": 77.5660602, "tags": {"amenity": "hospital", "emergency": "yes", "name": "Kangila Clinic"}}, {"type": "node", "id": 1468296636, "lat": 12.9410014, "lon": 77.5454222}, {"type": "node", "id": 1468296638, "lat": 12.9408975, "lon": 77.5456958}, {"type": "node", "id": 1468296641, "lat": 12.9409341, "lon": 77.5454222}, {"type": "node", "id": 1468296642, "lat": 12.9410197, "lon": 77.545551}, {"type": "node", "id": 1468296644, "lat": 12.9410249, "lon": 77.5457012}, {"type": "node", "id": 1468296645, "lat": 12.9409184, "lon": 77.5455644}, {"type": "node", "id": 1471781028, "lat": 13.0037682, "lon": 77.5498337, "tags": {"addr:district": "Bengaluru Urban", "addr:full": "359 / 360, 19Th Main 1 St Block Rajajinagar Near Indian Bank", "addr:postcode": "560010", "addr:state": "Karnataka", "amenity": "hospital", "healthcare": "hospital", "name": "Diacon Hospital", "source": "OpenGovernmentData", "wheelchair": "yes"}}, {"type": "node", "id": 1472808792, "lat": 13.0047859, "lon": 77.543073, "tags": {"amenity": "hospital", "name": "Namratha Hospital", "name:kn": "\u0ca8\u0cae\u0ccd\u0cb0\u0ca4 \u0c86\u0cb8\u0ccd\u0caa\u0ca4\u0ccd\u0cb0\u0cc6"}}, {"type": "node", "id": 1473921774, "lat": 12.9458714, "lon": 77.5675192, "tags": {"addr:district": "Bengaluru Urban", "addr:full": "No.81,Bulltemple Road,Near Ramakrishna Ashram", "addr:postcode": "560019", "addr:state": "Karnataka", "addr:street": "Shyamaraja Iyengar Road", "amenity": "hospital", "emergency": "no", "name": "Shekar Hospital", "name:en": "Shekhar Hospital", "name:hi": "\u0936\u0947\u0916\u0930 \u0939\u0949\u0938\u094d\u092a\u093f\u091f\u0932", "name:kn": "\u0cb6\u0cc7\u0c96\u0cb0\u0ccd \u0cb9\u0cbe\u0cb8\u0ccd\u0caa\u0cbf\u0c9f\u0cb2\u0ccd", "source": "OpenGovernmentData"}}, {"type": "node", "id": 1473997305, "lat": 12.9162804, "lon": 77.5798278}, {"type": "node", "id": 1473997310, "lat": 12.9162881, "lon": 77.5793963}, {"type": "node", "id": 1473997317, "lat": 12.9166469, "lon": 77.5794031}, {"type": "node", "id": 1474001855, "lat": 13.0011459, "lon": 77.5359798, "tags": {"amenity": "hospital", "emergency": "yes", "healthcare": "hospital", "name": "Punya Hospital"}}, {"type": "node", "id": 1474062996, "lat": 12.9266424, "lon": 77.5774782}, {"type": "node", "id": 1474062998, "lat": 12.9271858, "lon": 77.5774895}, {"type": "node", "id": 1474819886, "lat": 13.0022409, "lon": 77.5490879, "tags": {"addr:district": "Bengaluru Urban", "addr:full": "111, West Of Chord Road, Mahalakshmipuram, Rajajinagar I Block", "addr:postcode": "560086", "addr:state": "Karnataka", "alt_name": "Fortis Hospitals Limited, Rajajinagar", "amenity": "hospital", "healthcare": "hospital", "name": "Fortis Hospital", "name:kn": "\u0cab\u0ccb\u0cb0\u0ccd\u0c9f\u0cbf\u0cb8\u0ccd \u0c86\u0cb8\u0ccd\u0caa\u0ca4\u0ccd\u0cb0\u0cc6", "source": "OpenGovernmentData"}}, {"type": "node", "id": 1474819896, "lat": 12.9956506, "lon": 77.5510696, "tags": {"addr:city": "Bangalore", "addr:district": "Bengaluru Urban", "addr:full": "25/91, Chord Road, Iind Block, Rajajinagar", "addr:housenumber": "25/91", "addr:postcode": "560010", "addr:state": "Karnataka", "addr:street": "Chord Road", "amenity": "hospital", "name": "Citi Hospital", "opening_hours": "24/7", "phone": "+(91)-80-23131778", "phone_1": "23131777", "phone_2": "23526910", "source": "OpenGovernmentData"}}, {"type": "node", "id": 1474819897, "lat": 12.9995223, "lon": 77.5505328, "tags": {"addr:city": "Bengaluru", "addr:country": "IN", "addr:district": "Bengaluru Urban", "addr:full": "Old 389, New 46, 19th Main, 1st Block, Rajaji Nagar", "addr:hamlet": "Rajajinagar 1st Block", "addr:housenumber": "46", "addr:postcode": "560010", "addr:state": "Karnataka", "addr:street": "19th Cross Road", "amenity": "hospital", "healthcare": "hospital", "name": "Vasan Eye Care Hospital, Rajaji Nagar", "source": "OpenGovernmentData", "wheelchair": "no"}}, {"type": "node", "id": 1474819898, "lat": 12.9998205, "lon": 77.55045, "tags": {"addr:district": "Bengaluru Urban", "addr:full": "No.389/44, 19th Main, 1st Block, Rajajinagar", "addr:postcode": "560010", "addr:state": "Karnataka", "amenity": "hospital", "contact:email": "enquiries@ananyahospital.org", "emergency_telephone_code": "080 23527411;09980783835", "healthcare": "hospital", "healthcare:speciality": "Cardiology;Cosmetology;Dermatology;Diabetology;Emergency Medicine;ENT;Gastroenterology;General Medicine;General Surgery;Internal Medicine;Laparoscopic Surgery;Medical Oncology;Nephrology;Obesity;Obstetricsand Gynaecology", "medical_system": "Allopathic", "name": "Ananya Hospital", "name:kn": "\u0c85\u0ca8\u0ca8\u0ccd\u0caf \u0c86\u0cb8\u0ccd\u0caa\u0ca4\u0ccd\u0cb0\u0cc6", "operator:type": "private", "source": "https://data.gov.in", "website": "www.ananyahospital.org"}}, {"type": "node", "id": 1474820321, "lat": 12.9970915, "lon": 77.5719766, "tags": {"amenity": "hospital", "healthcare": "hospital", "name": "Baptist"}}, {"type": "node", "id": 1474827898, "lat": 12.973967, "lon": 77.5479135, "tags": {"amenity": "hospital", "name": "Shivakrupa Hospital", "name:kn": "\u0cb6\u0cbf\u0cb5\u0c95\u0cc3\u0caa \u0c86\u0cb8\u0ccd\u0caa\u0ca4\u0ccd\u0cb0\u0cc6"}}, {"type": "node", "id": 1520843420, "lat": 12.9900817, "lon": 77.5525369}, {"type": "node", "id": 1520843445, "lat": 12.9918867, "lon": 77.5526093}, {"type": "node", "id": 1520843455, "lat": 12.990019, "lon": 77.5543434}, {"type": "node", "id": 1551996910, "lat": 12.9307467, "lon": 77.5415644}, {"type": "node", "id": 1551996911, "lat": 12.9311353, "lon": 77.5410146}, {"type": "node", "id": 1551996916, "lat": 12.9308423, "lon": 77.5408805}, {"type": "node", "id": 1551996934, "lat": 12.93049, "lon": 77.5414278}, {"type": "node", "id": 1617398469, "lat": 12.9926441, "lon": 77.5742046, "tags": {"addr:city": "bangalore", "addr:district": "Bengaluru Urban", "addr:full": "No.67,Link Road,Sheshadripuram", "addr:housenumber": "67", "addr:postcode": "560020", "addr:state": "Karnataka", "addr:street": "Link Rd, Malleswaram, Jai Bheema Nagar, Seshadripuram", "amenity": "hospital", "healthcare": "hospital", "name": "Sri Maruthi hospital, Sheshadripuram", "phone": "080 2344 9632", "source": "OpenGovernmentData"}}, {"type": "node", "id": 1632708776, "lat": 12.9635923, "lon": 77.5735617}, {"type": "node", "id": 1632708781, "lat": 12.9609064, "lon": 77.5720128}, {"type": "node", "id": 1632708784, "lat": 12.9610663, "lon": 77.5733989}, {"type": "node", "id": 1632708796, "lat": 12.9609362, "lon": 77.5720543}, {"type": "node", "id": 1632708808, "lat": 12.9613103, "lon": 77.5722069}, {"type": "node", "id": 1632708811, "lat": 12.9611323, "lon": 77.5719575}, {"type": "node", "id": 1632708861, "lat": 12.9618872, "lon": 77.5734058}, {"type": "node", "id": 1632708866, "lat": 12.961672, "lon": 77.5733164}, {"type": "node", "id": 1632708889, "lat": 12.9634706, "lon": 77.57357}, {"type": "node", "id": 1632708898, "lat": 12.9633993, "lon": 77.5735928}, {"type": "node", "id": 1632708906, "lat": 12.9616998, "lon": 77.5735952}, {"type": "node", "id": 1632708925, "lat": 12.9637386, "lon": 77.5737248}, {"type": "node", "id": 1632708928, "lat": 12.9619056, "lon": 77.573637}, {"type": "node", "id": 1632708934, "lat": 12.9636543, "lon": 77.5735268}, {"type": "node", "id": 1632708941, "lat": 12.9633974, "lon": 77.5736089}, {"type": "node", "id": 1632708947, "lat": 12.9615975, "lon": 77.5732888}, {"type": "node", "id": 1632708951, "lat": 12.9614968, "lon": 77.5732328}, {"type": "node", "id": 1632708968, "lat": 12.9634411, "lon": 77.5735601}, {"type": "node", "id": 1632708973, "lat": 12.9609748, "lon": 77.5720251}, {"type": "node", "id": 1632708976, "lat": 12.9611299, "lon": 77.5735103}, {"type": "node", "id": 1632709009, "lat": 12.9610084, "lon": 77.5726205}, {"type": "node", "id": 1632709017, "lat": 12.9615949, "lon": 77.5735579}, {"type": "node", "id": 1632709027, "lat": 12.9613888, "lon": 77.5741417}, {"type": "node", "id": 1632709048, "lat": 12.9633443, "lon": 77.5737318}, {"type": "node", "id": 1632709052, "lat": 12.9614382, "lon": 77.573406}, {"type": "node", "id": 1632709056, "lat": 12.9634811, "lon": 77.573582}, {"type": "node", "id": 1632709065, "lat": 12.9613965, "lon": 77.572327}, {"type": "node", "id": 1632709074, "lat": 12.960893, "lon": 77.5721517}, {"type": "node", "id": 1632709078, "lat": 12.9609988, "lon": 77.5720585}, {"type": "node", "id": 1632709079, "lat": 12.9611431, "lon": 77.5719724}, {"type": "node", "id": 1632709086, "lat": 12.9634018, "lon": 77.5736268}, {"type": "node", "id": 1632709091, "lat": 12.9619383, "lon": 77.5734103}, {"type": "node", "id": 1632709096, "lat": 12.9617719, "lon": 77.5735024}, {"type": "node", "id": 1632709098, "lat": 12.963528, "lon": 77.5738818}, {"type": "node", "id": 1632709106, "lat": 12.9611219, "lon": 77.5721183}, {"type": "node", "id": 1632709111, "lat": 12.9632805, "lon": 77.5739684}, {"type": "node", "id": 1632709127, "lat": 12.9634181, "lon": 77.5735675}, {"type": "node", "id": 1632709139, "lat": 12.9631721, "lon": 77.5737306}, {"type": "node", "id": 1632709141, "lat": 12.9632032, "lon": 77.5737886}, {"type": "node", "id": 1632709144, "lat": 12.9615532, "lon": 77.5734148}, {"type": "node", "id": 1632709146, "lat": 12.9608908, "lon": 77.572297}, {"type": "node", "id": 1632709151, "lat": 12.963591, "lon": 77.5737667}, {"type": "node", "id": 1632709163, "lat": 12.9632317, "lon": 77.5739593}, {"type": "node", "id": 1632709170, "lat": 12.9618173, "lon": 77.5741956}, {"type": "node", "id": 1632709175, "lat": 12.9632677, "lon": 77.573775}, {"type": "node", "id": 1632709181, "lat": 12.961012, "lon": 77.5724621}, {"type": "node", "id": 1632709198, "lat": 12.9634884, "lon": 77.5735951}, {"type": "node", "id": 1632709210, "lat": 12.9614134, "lon": 77.5734345}, {"type": "node", "id": 1632709213, "lat": 12.9618153, "lon": 77.5733792}, {"type": "node", "id": 1632709223, "lat": 12.9618579, "lon": 77.5737696}, {"type": "node", "id": 1632709230, "lat": 12.961258, "lon": 77.5738403}, {"type": "node", "id": 1632709263, "lat": 12.9634798, "lon": 77.5735144}, {"type": "node", "id": 1632709265, "lat": 12.9635149, "lon": 77.5735802}, {"type": "node", "id": 1632709272, "lat": 12.9615343, "lon": 77.5734966}, {"type": "node", "id": 1632709273, "lat": 12.9634065, "lon": 77.5735785}, {"type": "node", "id": 1632709285, "lat": 12.9632948, "lon": 77.5736392}, {"type": "node", "id": 1632709327, "lat": 12.9617111, "lon": 77.573562}, {"type": "node", "id": 1632709348, "lat": 12.9637216, "lon": 77.5736931}, {"type": "node", "id": 1632709354, "lat": 12.9616277, "lon": 77.5734424}, {"type": "node", "id": 1632709372, "lat": 12.9636224, "lon": 77.573467}, {"type": "node", "id": 1632709374, "lat": 12.9634077, "lon": 77.5736406}, {"type": "node", "id": 1632709375, "lat": 12.961969, "lon": 77.5733195}, {"type": "node", "id": 1632709376, "lat": 12.9633609, "lon": 77.5739231}, {"type": "node", "id": 1632709386, "lat": 12.9611334, "lon": 77.5739135}, {"type": "node", "id": 1632709394, "lat": 12.9612431, "lon": 77.5722834}, {"type": "node", "id": 1632709403, "lat": 12.9634257, "lon": 77.5735635}, {"type": "node", "id": 1632709422, "lat": 12.9612609, "lon": 77.5735601}, {"type": "node", "id": 1632709424, "lat": 12.9633727, "lon": 77.5736603}, {"type": "node", "id": 1632709425, "lat": 12.9612827, "lon": 77.5733848}, {"type": "node", "id": 1632709439, "lat": 12.9618438, "lon": 77.573529}, {"type": "node", "id": 1632709440, "lat": 12.9635468, "lon": 77.5734767}, {"type": "node", "id": 1632709442, "lat": 12.9638365, "lon": 77.5736696}, {"type": "node", "id": 1632709444, "lat": 12.9637036, "lon": 77.5734212}, {"type": "node", "id": 1632709474, "lat": 12.9608586, "lon": 77.5720489}, {"type": "node", "id": 1632709477, "lat": 12.9608893, "lon": 77.5720917}, {"type": "node", "id": 1632709511, "lat": 12.9610247, "lon": 77.573802}, {"type": "node", "id": 1632709513, "lat": 12.9611249, "lon": 77.573937}, {"type": "node", "id": 1632709549, "lat": 12.9617947, "lon": 77.5735918}, {"type": "node", "id": 1632709550, "lat": 12.9631549, "lon": 77.5738158}, {"type": "node", "id": 1632709559, "lat": 12.9618927, "lon": 77.573673}, {"type": "node", "id": 1632709561, "lat": 12.9617574, "lon": 77.5740375}, {"type": "node", "id": 1632709565, "lat": 12.9615834, "lon": 77.5731822}, {"type": "node", "id": 1632709569, "lat": 12.9619709, "lon": 77.5734219}, {"type": "node", "id": 1632709571, "lat": 12.9615515, "lon": 77.5734447}, {"type": "node", "id": 1632709574, "lat": 12.9614219, "lon": 77.5740498}, {"type": "node", "id": 1632709576, "lat": 12.9613585, "lon": 77.5735723}, {"type": "node", "id": 1632709577, "lat": 12.9634567, "lon": 77.5735624}, {"type": "node", "id": 1632709578, "lat": 12.9636238, "lon": 77.5738279}, {"type": "node", "id": 1632709594, "lat": 12.9608638, "lon": 77.572111}, {"type": "node", "id": 1632709611, "lat": 12.9614809, "lon": 77.5740678}, {"type": "node", "id": 1632709618, "lat": 12.9634922, "lon": 77.5738149}, {"type": "node", "id": 1632709626, "lat": 12.9633469, "lon": 77.5738968}, {"type": "node", "id": 1632709641, "lat": 12.9616069, "lon": 77.5735225}, {"type": "node", "id": 1632709654, "lat": 12.9613956, "lon": 77.573484}, {"type": "node", "id": 1632709661, "lat": 12.9615588, "lon": 77.5732549}, {"type": "node", "id": 1632709688, "lat": 12.9620052, "lon": 77.5736748}, {"type": "node", "id": 1632709691, "lat": 12.9609333, "lon": 77.5737673}, {"type": "node", "id": 1632709699, "lat": 12.9607496, "lon": 77.5722602}, {"type": "node", "id": 1632709701, "lat": 12.9614463, "lon": 77.5741635}, {"type": "node", "id": 1632709704, "lat": 12.9632273, "lon": 77.5736995}, {"type": "node", "id": 1632709707, "lat": 12.9618108, "lon": 77.5735443}, {"type": "node", "id": 1632709717, "lat": 12.9619168, "lon": 77.5735821}, {"type": "node", "id": 1632709722, "lat": 12.9632654, "lon": 77.5739403}, {"type": "node", "id": 1632709734, "lat": 12.963346, "lon": 77.5736104}, {"type": "node", "id": 1632709738, "lat": 12.9612522, "lon": 77.5734695}, {"type": "node", "id": 1739362236, "lat": 12.9647429, "lon": 77.5849317}, {"type": "node", "id": 1739362251, "lat": 12.9646929, "lon": 77.5842044}, {"type": "node", "id": 1739362285, "lat": 12.9639833, "lon": 77.5840472}, {"type": "node", "id": 1739362319, "lat": 12.9639525, "lon": 77.5849664}, {"type": "node", "id": 1739362370, "lat": 12.9643655, "lon": 77.585004}, {"type": "node", "id": 1739362385, "lat": 12.9645671, "lon": 77.5841174}, {"type": "node", "id": 1739366976, "lat": 12.9645699, "lon": 77.5842}, {"type": "node", "id": 1778854020, "lat": 12.9593144, "lon": 77.5265054, "tags": {"addr:district": "Bengaluru Urban", "addr:full": "No. 1558, Opposite Chandra Layout Bus Stand, Chandra Layout, Vijaynagar", "addr:postcode": "560048", "addr:state": "Karnataka", "amenity": "hospital", "designation": "Gurushree Multi speciality Hospital", "emergency": "yes", "name": "Gurushree Hitech Multispeciality Hospital", "source": "OpenGovernmentData"}}, {"type": "node", "id": 1778897704, "lat": 12.9755854, "lon": 77.5313495, "tags": {"addr:district": "Bengaluru Urban", "addr:full": "29 And 30, Nagarbhavi Road, Opp To Prashanthnagar Bus Stop, Vijaynagar", "addr:postcode": "560040", "addr:state": "Karnataka", "amenity": "hospital", "emergency": "no", "name": "Shobha Hospital, Bengaluru Urban", "name:kn": "\u0cb6\u0ccb\u0cad\u0cbe \u0c86\u0cb8\u0ccd\u0caa\u0ca4\u0ccd\u0cb0\u0cc6", "source": "OpenGovernmentData"}}, {"type": "node", "id": 1778953072, "lat": 12.9744053, "lon": 77.5426819, "tags": {"addr:district": "Bengaluru Urban", "addr:full": "# 91, Magadi Chord Road", "addr:postcode": "560040", "addr:state": "Karnataka", "amenity": "hospital", "designation": "Gayathri Nursing Home", "emergency": "yes", "name": "Gayathri Hospital, Bengaluru Urban", "operator:type": "private", "source": "OpenGovernmentData", "website": "http://dpal.kar.nic.in/Kanunu%20padakosha%20PDF%20Files/Recognised%20Hospitals.pdf", "wheelchair": "no"}}, {"type": "node", "id": 1780474089, "lat": 12.9736183, "lon": 77.5647794}, {"type": "node", "id": 1791567114, "lat": 12.9534505, "lon": 77.5705954}, {"type": "node", "id": 1794166166, "lat": 13.003447, "lon": 77.504284, "tags": {"addr:district": "Bangalore", "addr:full": "Hegganahalli", "addr:postcode": "560091", "addr:state": "Karnataka", "addr:subdistrict": "Bangalore North", "amenity": "hospital", "emergency": "no", "healthcare": "centre", "name": "Government Primary Health Centre", "name:kn": "\u0cb8\u0cb0\u0ccd\u0c95\u0cbe\u0cb0\u0cbf \u0caa\u0ccd\u0cb0\u0cbe\u0ca5\u0cae\u0cbf\u0c95 \u0c86\u0cb0\u0ccb\u0c97\u0ccd\u0caf \u0c95\u0cc7\u0c82\u0ca6\u0ccd\u0cb0", "source": "OpenGovernmentData"}}, {"type": "node", "id": 1809622904, "lat": 12.9799069, "lon": 77.5389254}, {"type": "node", "id": 1809622908, "lat": 12.9800265, "lon": 77.5387148}, {"type": "node", "id": 1809622909, "lat": 12.9807207, "lon": 77.539317}, {"type": "node", "id": 1809622910, "lat": 12.9808268, "lon": 77.5390417}, {"type": "node", "id": 1809622941, "lat": 12.9776656, "lon": 77.5430998}, {"type": "node", "id": 1809622942, "lat": 12.9770135, "lon": 77.5424279}, {"type": "node", "id": 1809622943, "lat": 12.9769482, "lon": 77.543187}, {"type": "node", "id": 1809622944, "lat": 12.9777715, "lon": 77.5425472}, {"type": "node", "id": 1809734261, "lat": 12.9761294, "lon": 77.5326369, "tags": {"addr:district": "Bengaluru Urban", "addr:full": "No.4, Nagarabhavi Main Road,Prashanth Nagar,Near Shopper City Shop", "addr:postcode": "560079", "addr:state": "Karnataka", "amenity": "hospital", "name": "Bharathy Hospital", "name:kn": "\u0cad\u0cbe\u0cb0\u0ca4\u0cbf \u0c86\u0cb8\u0ccd\u0caa\u0ca4\u0ccd\u0cb0\u0cc6", "source": "OpenGovernmentData"}}, {"type": "node", "id": 1812673570, "lat": 12.9202791, "lon": 77.5598033, "tags": {"addr:district": "Bengaluru Urban", "addr:full": "No. 277, M.K. Puttalingaiah Road, Padmanabha Nagar", "addr:postcode": "560070", "addr:state": "Karnataka", "amenity": "hospital", "emergency": "yes", "name": "Yogananda Medical and Research Centre", "source": "OpenGovernmentData"}}, {"type": "node", "id": 1905152108, "lat": 12.9411061, "lon": 77.5850591, "tags": {"amenity": "hospital", "emergency": "no", "name": "Kottakkal Arya Vaidya Sala", "source": "survey"}}, {"type": "node", "id": 2026076836, "lat": 12.9993857, "lon": 77.5606403, "tags": {"addr:district": "Bengaluru Urban", "addr:full": "No 3367,5Th Cross, Gayathri Nagar", "addr:postcode": "560021", "addr:state": "Karnataka", "amenity": "hospital", "emergency": "yes", "name": "Nayak Hospital, Gayathri Nagar", "source": "OpenGovernmentData"}}, {"type": "node", "id": 2123564200, "lat": 12.915903, "lon": 77.5550223, "tags": {"addr:district": "Bengaluru Urban", "addr:full": "15Th Main, 17Th Cross Padmanabhanagar", "addr:postcode": "560070", "addr:state": "Karnataka", "amenity": "hospital", "emergency": "yes", "name": "Maharaja Agrasen Hospital, Bengaluru Urban", "source": "OpenGovernmentData"}}, {"type": "node", "id": 2123630630, "lat": 12.9231342, "lon": 77.5642974, "tags": {"addr:district": "Bengaluru Urban", "addr:full": "17Th, Main,27Th Cross, Banashankari 2nd Stage, South", "addr:postcode": "560070", "addr:state": "Karnataka", "amenity": "hospital", "healthcare": "hospital", "name": "Banashankari Referral Hospital", "source": "OpenGovernmentData"}}, {"type": "node", "id": 2124813862, "lat": 12.9179548, "lon": 77.555816, "tags": {"amenity": "hospital", "name": "Bangalore Kidney Foundation - NU Hospital"}}, {"type": "node", "id": 2212459207, "lat": 12.9613237, "lon": 77.511726, "tags": {"addr:district": "Bengaluru Urban", "addr:full": "# 611 /612, Nagarabhavi Main Road", "addr:postcode": "560072", "addr:state": "Karnataka", "addr:subdistrict": "Nagarbhavi", "amenity": "hospital", "name": "Panacea Hospital, Nagarabhavi", "operator:type": "private", "source": "OpenGovernmentData", "website": "http://www.panaceahospital.com/"}}, {"type": "node", "id": 2249069522, "lat": 12.9856882, "lon": 77.5435424, "tags": {"addr:district": "Bengaluru Urban", "addr:full": "#6, Thimmaiah Layout, 1st Main 3rd D Cross, 3rd Stage, 2nd Block", "addr:postcode": "560079", "addr:state": "Karnataka", "addr:subdistrict": "Basaveshwaranagar", "amenity": "hospital", "name": "Shanbhag Hospital", "operator:type": "private", "source": "OpenGovernmentData", "website": "http://snsvo7.seekandsource.com/shanbhag/", "wheelchair": "yes"}}, {"type": "node", "id": 2268407035, "lat": 12.9946566, "lon": 77.5397544, "tags": {"addr:district": "Bengaluru Urban", "addr:full": "No. 463, 1st Block, 3Road Stage, Dr.Siddaiah Puranika Road, Basaveshwaranagear", "addr:postcode": "560079", "addr:state": "Karnataka", "amenity": "hospital", "healthcare": "hospital", "name": "Trupti Nursing Home", "source": "OpenGovernmentData"}}, {"type": "node", "id": 2296630617, "lat": 12.998445, "lon": 77.5463468}, {"type": "node", "id": 2296638505, "lat": 13.000431, "lon": 77.5411664, "tags": {"amenity": "hospital", "emergency": "no", "healthcare": "hospital", "name": "Krupa Medical center"}}, {"type": "node", "id": 2480870848, "lat": 12.9744193, "lon": 77.5336479, "tags": {"addr:city": "Bangalore", "addr:postcode": "560040", "addr:street": "Vijayanagar Water Tank Road", "amenity": "hospital", "emergency": "no", "name": "Happy Tooth"}}, {"type": "node", "id": 2480884777, "lat": 12.9745812, "lon": 77.532699, "tags": {"addr:city": "Bangalore", "addr:housename": "Vijayanagar", "addr:postcode": "560040", "addr:street": "Vijayanagar Water Tank Road", "amenity": "hospital", "name": "Rishi Women and Child Clinic"}}, {"type": "node", "id": 2483779679, "lat": 12.9736894, "lon": 77.5369482, "tags": {"addr:city": "Bangalore", "addr:housename": "Near Ganapathi Temple", "addr:postcode": "560040", "addr:street": "Vijayanagar Water Tank Road", "amenity": "hospital", "name": "Penta Care Ayurvedic Hospital"}}, {"type": "node", "id": 2484900084, "lat": 12.9436624, "lon": 77.5419997, "tags": {"addr:city": "Bangalore", "addr:housename": "Near BDA Park", "addr:housenumber": "63", "addr:postcode": "560085", "addr:street": "6th Main Road", "amenity": "hospital", "name": "Shalini Nursing & MAternity Home"}}, {"type": "node", "id": 2487658338, "lat": 12.9729127, "lon": 77.5394723, "tags": {"addr:city": "Bangalore", "addr:housename": "Service Road, Near Park View, Vijayanagar", "addr:postcode": "560040", "addr:street": "6th Main", "amenity": "hospital", "name": "Shreya Poly Clinic"}}, {"type": "node", "id": 2514705828, "lat": 12.9612829, "lon": 77.5271683, "tags": {"addr:city": "Bangalore", "addr:housename": "Below Food World, Chandra Layout", "addr:street": "4th Main Road", "amenity": "hospital", "emergency": "no", "healthcare": "hospital", "name": "Anurag Medical Center"}}, {"type": "node", "id": 2554302512, "lat": 12.9843701, "lon": 77.555666, "tags": {"amenity": "hospital", "name": "Pragathi Ayurvedic Center", "wheelchair": "no"}}, {"type": "node", "id": 2649089255, "lat": 12.9172238, "lon": 77.5849242}, {"type": "node", "id": 2649089256, "lat": 12.9172158, "lon": 77.5852762}, {"type": "node", "id": 2649089257, "lat": 12.9174445, "lon": 77.5849295}, {"type": "node", "id": 2649089258, "lat": 12.9174365, "lon": 77.5852815}, {"type": "node", "id": 2767224739, "lat": 12.9905166, "lon": 77.5647289}, {"type": "node", "id": 2767224740, "lat": 12.99098, "lon": 77.5647436}, {"type": "node", "id": 2767224741, "lat": 12.9905063, "lon": 77.5650728}, {"type": "node", "id": 2767224743, "lat": 12.9905093, "lon": 77.5649713}, {"type": "node", "id": 2767224744, "lat": 12.9909697, "lon": 77.5650875}, {"type": "node", "id": 2914260121, "lat": 12.9623406, "lon": 77.5342853, "tags": {"addr:district": "Bengaluru Urban", "addr:full": "No.1133/F,30 Ft.Service Road, R.P.C. Layout,Vijaynagar", "addr:postcode": "560040", "addr:state": "Karnataka", "amenity": "hospital", "healthcare": "hospital", "name": "Sharavathi Hospitals (P) Ltd.", "source": "OpenGovernmentData"}}, {"type": "node", "id": 2932851733, "lat": 12.9169288, "lon": 77.5592568, "tags": {"addr:city": "Bangalore", "addr:district": "Bengaluru Urban", "addr:full": "No. 30, Pavana Dhama, 80 Feet Main Road,Opposite Nilgiris,Padmanabha Nagar", "addr:postcode": "560070", "addr:state": "Karnataka", "amenity": "hospital", "healthcare": "hospital", "name": "Dr.Agarwal's Eye Hospital Ltd, Padmanabha Nagar", "operator": "Dr. Agarwal's Eye Hospital", "operator:wikidata": "Q17052044", "source": "OpenGovernmentData"}}, {"type": "node", "id": 2984295033, "lat": 12.9184617, "lon": 77.5555842, "tags": {"addr:district": "Bengaluru Urban", "addr:full": "Thimmaiah Road, Padmanabhanagar, Bengaluru", "addr:postcode": "560070", "addr:state": "Karnataka", "amenity": "hospital", "name": "Shraddha Eye Care", "source": "Local Knowledge"}}, {"type": "node", "id": 3004275434, "lat": 12.931334, "lon": 77.5154779, "tags": {"addr:district": "Bengaluru Urban", "addr:full": "#483, 16 Th Cross, 8 Th Main", "addr:postcode": "560098", "addr:state": "Karnataka", "addr:subdistrict": "Rajarajeswarinagar", "amenity": "hospital", "healthcare": "doctor", "healthcare:speciality": "ophthalmology", "name": "Vasan Eye Care Hospital, Rajarajeswari Nagar", "operator:type": "private", "source": "OpenGovernmentData", "website": "http://www.vasaneye.in/"}}, {"type": "node", "id": 3039639118, "lat": 12.9417609, "lon": 77.5676447}, {"type": "node", "id": 3118322042, "lat": 12.9293654, "lon": 77.5639296}, {"type": "node", "id": 3118322043, "lat": 12.9293415, "lon": 77.5640447}, {"type": "node", "id": 3118322044, "lat": 12.9295056, "lon": 77.5640805}, {"type": "node", "id": 3118322045, "lat": 12.9295294, "lon": 77.5639654}, {"type": "node", "id": 3118790621, "lat": 12.9364674, "lon": 77.5841345}, {"type": "node", "id": 3118790622, "lat": 12.9361197, "lon": 77.5841318}, {"type": "node", "id": 3118790623, "lat": 12.9360962, "lon": 77.5845073}, {"type": "node", "id": 3118790624, "lat": 12.9362321, "lon": 77.5845529}, {"type": "node", "id": 3118790625, "lat": 12.9364595, "lon": 77.5845503}, {"type": "node", "id": 3121618244, "lat": 12.9218676, "lon": 77.5719475}, {"type": "node", "id": 3121618245, "lat": 12.9215947, "lon": 77.5718802}, {"type": "node", "id": 3121618246, "lat": 12.921477, "lon": 77.5723822}, {"type": "node", "id": 3121618247, "lat": 12.9217499, "lon": 77.5724495}, {"type": "node", "id": 3121629369, "lat": 12.9253799, "lon": 77.5772433}, {"type": "node", "id": 3121629370, "lat": 12.9252275, "lon": 77.5772421}, {"type": "node", "id": 3121629372, "lat": 12.9253774, "lon": 77.5775707}, {"type": "node", "id": 3198616664, "lat": 12.9863154, "lon": 77.5788564}, {"type": "node", "id": 3198616666, "lat": 12.9866991, "lon": 77.5791557}, {"type": "node", "id": 3388805879, "lat": 12.9413723, "lon": 77.5220207}, {"type": "node", "id": 3400223539, "lat": 13.0002667, "lon": 77.5694894, "tags": {"addr:district": "Bengaluru Urban", "addr:full": "# 133, Margosa Road,10Th Cross, Malleshwaram", "addr:postcode": "560003", "addr:state": "Karnataka", "amenity": "hospital", "healthcare": "hospital", "name": "Leela Hospital and Diagnostic Center", "source": "OpenGovernmentData"}}, {"type": "node", "id": 3425328776, "lat": 12.9406537, "lon": 77.5678462}, {"type": "node", "id": 3425328780, "lat": 12.9414736, "lon": 77.5678339}, {"type": "node", "id": 3450573832, "lat": 12.9756047, "lon": 77.5643777}, {"type": "node", "id": 3450573833, "lat": 12.9743718, "lon": 77.5648704}, {"type": "node", "id": 3450573834, "lat": 12.9747892, "lon": 77.5630258}, {"type": "node", "id": 3450573835, "lat": 12.975074, "lon": 77.5650884}, {"type": "node", "id": 3450573836, "lat": 12.9733045, "lon": 77.5631586}, {"type": "node", "id": 3450573837, "lat": 12.9754479, "lon": 77.5629561}, {"type": "node", "id": 3450573838, "lat": 12.9754308, "lon": 77.5648577}, {"type": "node", "id": 3535301811, "lat": 12.9264501, "lon": 77.5807661}, {"type": "node", "id": 3535301812, "lat": 12.9264501, "lon": 77.5809123}, {"type": "node", "id": 3535301845, "lat": 12.926569, "lon": 77.5807661}, {"type": "node", "id": 3535301846, "lat": 12.926569, "lon": 77.5809123}, {"type": "node", "id": 3535630375, "lat": 12.9786302, "lon": 77.5744195}, {"type": "node", "id": 3535630381, "lat": 12.978641, "lon": 77.5745168}, {"type": "node", "id": 3535630510, "lat": 12.978747, "lon": 77.5744059}, {"type": "node", "id": 3535630517, "lat": 12.9787577, "lon": 77.5745031}, {"type": "node", "id": 3537802305, "lat": 12.9882064, "lon": 77.5726591}, {"type": "node", "id": 3537802306, "lat": 12.9882411, "lon": 77.5723901}, {"type": "node", "id": 3537802307, "lat": 12.988224, "lon": 77.5726601}, {"type": "node", "id": 3537802308, "lat": 12.9882195, "lon": 77.5727387}, {"type": "node", "id": 3537802309, "lat": 12.9882714, "lon": 77.5729925}, {"type": "node", "id": 3537802310, "lat": 12.9882796, "lon": 77.5728496}, {"type": "node", "id": 3537802311, "lat": 12.9883684, "lon": 77.5729983}, {"type": "node", "id": 3537802313, "lat": 12.988387, "lon": 77.5726725}, {"type": "node", "id": 3537802314, "lat": 12.9884132, "lon": 77.5724732}, {"type": "node", "id": 3537802315, "lat": 12.9884125, "lon": 77.572674}, {"type": "node", "id": 3537802316, "lat": 12.9884174, "lon": 77.5724007}, {"type": "node", "id": 3537802317, "lat": 12.988424, "lon": 77.5724739}, {"type": "node", "id": 3537864040, "lat": 12.9927273, "lon": 77.5387084}, {"type": "node", "id": 3537864045, "lat": 12.9927873, "lon": 77.5385401}, {"type": "node", "id": 3537864051, "lat": 12.9928589, "lon": 77.5387518}, {"type": "node", "id": 3537864052, "lat": 12.9929001, "lon": 77.5385824}, {"type": "node", "id": 3537864054, "lat": 12.9929167, "lon": 77.5385897}, {"type": "node", "id": 3537864061, "lat": 12.9930336, "lon": 77.5386336}, {"type": "node", "id": 3544299986, "lat": 12.9391198, "lon": 77.5512468}, {"type": "node", "id": 3544300103, "lat": 12.9391862, "lon": 77.5514089}, {"type": "node", "id": 3544300106, "lat": 12.9391903, "lon": 77.5512164}, {"type": "node", "id": 3544300124, "lat": 12.9392567, "lon": 77.5513785}, {"type": "node", "id": 3570997782, "lat": 12.925225, "lon": 77.5775695}, {"type": "node", "id": 3570997943, "lat": 12.9261251, "lon": 77.5777697}, {"type": "node", "id": 3570997945, "lat": 12.9261338, "lon": 77.5772486}, {"type": "node", "id": 3570997969, "lat": 12.9263134, "lon": 77.577773}, {"type": "node", "id": 3570997970, "lat": 12.9263221, "lon": 77.5772519}, {"type": "node", "id": 3602104364, "lat": 12.9954824, "lon": 77.535466}, {"type": "node", "id": 3602104369, "lat": 12.9954992, "lon": 77.5353546}, {"type": "node", "id": 3602104516, "lat": 12.995634, "lon": 77.5354901}, {"type": "node", "id": 3602104521, "lat": 12.9956509, "lon": 77.5353788}, {"type": "node", "id": 3602433012, "lat": 12.9882971, "lon": 77.5343608}, {"type": "node", "id": 3602433030, "lat": 12.988331, "lon": 77.534258}, {"type": "node", "id": 3602433054, "lat": 12.9883934, "lon": 77.5343943}, {"type": "node", "id": 3602433072, "lat": 12.9884273, "lon": 77.5342914}, {"type": "node", "id": 3700542233, "lat": 12.9882181, "lon": 77.5724539}, {"type": "node", "id": 3700542234, "lat": 12.9882374, "lon": 77.572455}, {"type": "node", "id": 3719549886, "lat": 12.9159249, "lon": 77.5856011, "tags": {"addr:district": "Bengaluru Urban", "addr:full": "Jayanagar, J P Nagar, Bengaluru", "addr:postcode": "560041", "addr:state": "Karnataka", "amenity": "hospital", "healthcare": "clinic", "healthcare:speciality": "fertility", "name": "Milann Fertility Center", "source": "Local Knowledge"}}, {"type": "node", "id": 3770161958, "lat": 12.9543778, "lon": 77.5714995}, {"type": "node", "id": 4107785991, "lat": 12.9601534, "lon": 77.5840184}, {"type": "node", "id": 4107785992, "lat": 12.9602284, "lon": 77.583911}, {"type": "node", "id": 4127931135, "lat": 12.9542849, "lon": 77.5721857}, {"type": "node", "id": 4171032289, "lat": 12.9767055, "lon": 77.5424167, "tags": {"addr:street": "8th cross", "amenity": "hospital"}}, {"type": "node", "id": 4343881190, "lat": 12.9850421, "lon": 77.5460481, "tags": {"addr:district": "Bengaluru Urban", "addr:full": "No 370.371,I Stage West Of Cord Road", "addr:postcode": "560079", "addr:state": "Karnataka", "amenity": "hospital", "name": "Dr Raos Maternity Hospital", "source": "OpenGovernmentData"}}, {"type": "node", "id": 4349307192, "lat": 12.9485535, "lon": 77.5748248, "tags": {"amenity": "hospital", "check_date": "2024-03-09", "healthcare:speciality": "gynaecology", "name": "Sagar Chandramma Hospitals", "name:en": "Sagar Chandramma Hospitals"}}, {"type": "node", "id": 4406333893, "lat": 12.9717049, "lon": 77.5493718, "tags": {"amenity": "hospital", "name": "Shiva Kumaraswamy Building", "name:en": "shiva kumaraswamy building"}}, {"type": "node", "id": 4443301971, "lat": 12.9151071, "lon": 77.5624888, "tags": {"addr:city": "bangalore", "addr:housenumber": "5", "addr:postcode": "560050", "addr:street": "80 feet road,banashankari", "amenity": "hospital", "name": "NRS Medical & Dental Specialists Centre", "phone": "08026696054"}}, {"type": "node", "id": 4444989840, "lat": 12.9390944, "lon": 77.5619057, "tags": {"addr:city": "bangalore", "addr:housenumber": "11/2", "addr:postcode": "560079", "addr:street": "Magadi Main Road", "amenity": "hospital", "name": "Sarvodaya Hospital", "name:kn": "\u0cb8\u0cb0\u0ccd\u0cb5\u0ccb\u0ca6\u0caf \u0c86\u0cb8\u0ccd\u0caa\u0ca4\u0ccd\u0cb0\u0cc6", "phone": "098440 74946"}}, {"type": "node", "id": 4445356902, "lat": 12.966771, "lon": 77.5349228, "tags": {"addr:city": "Bangalore", "addr:postcode": "560040", "addr:street": "17th Cross Rd, Service Road, Opp. Maruthi Mandir, TTMC Bus Stop, Govindaraja Nagar Ward, PF Layout, Vijayanagar", "amenity": "hospital", "healthcare": "hospital", "name": "Employees State Insurance Dispensary", "operator": "Employees' State Insurance", "operator:short": "ESI", "operator:type": "private", "operator:wikidata": "Q3595726", "phone": "080 2845 2785", "website": "globalhospitalsindia.com"}}, {"type": "node", "id": 4445397516, "lat": 12.9951627, "lon": 77.5738144, "tags": {"addr:city": "Bangalore", "addr:district": "Bengaluru Urban", "addr:full": "No: 2, Sirur Park Road (Behind Natraja Theatre) Seshadripuram", "addr:housenumber": "191/1", "addr:postcode": "560020", "addr:state": "Karnataka", "addr:street": ", 2nd cross, Link Road, Malleswaram", "amenity": "hospital", "name": "Dr Solankis Eye Hospital", "phone": "080 2356 2211", "source": "OpenGovernmentData"}}, {"type": "node", "id": 4446346449, "lat": 12.9705436, "lon": 77.5834769, "tags": {"addr:city": "Bangalore", "addr:housenumber": "5", "addr:postcode": "560001", "addr:street": "Nrupathunga Rd, RBI Colony, Sampangi Rama Nagar", "amenity": "hospital", "name": "St. Martha's Heart Centre", "phone": "+9195380 43453", "website": "locations.narayanahealth.org"}}, {"type": "node", "id": 4446518811, "lat": 12.9863736, "lon": 77.5793154, "tags": {"addr:city": "Bangalore", "addr:housenumber": "6/6", "addr:postcode": "560001", "addr:street": "Kumarakrupa Road, High Grounds, Madhava Nagar, Gandhi Nagar", "amenity": "hospital", "name": "Desai Nursing Home", "phone": "+9180 2226 0307"}}, {"type": "node", "id": 4446664412, "lat": 12.9881648, "lon": 77.5548179, "tags": {"addr:city": "bangalore", "addr:housenumber": "111", "addr:postcode": "560010", "addr:street": "West of Chord Road,, Opp Rajajinagar 1st Block Junction", "amenity": "hospital", "name": "Fortis Hospital", "name:kn": "\u0cab\u0ccb\u0cb0\u0ccd\u0c9f\u0cbf\u0cb8\u0ccd \u0c86\u0cb8\u0ccd\u0caa\u0ca4\u0ccd\u0cb0\u0cc6", "phone": "080-2300-4444", "website": "fortisbangalore.com"}}, {"type": "node", "id": 4446881168, "lat": 12.9378359, "lon": 77.5573329, "tags": {"addr:city": "Bangalore", "addr:housenumber": "5", "addr:postcode": "560050", "addr:street": "80 Feet Road, 1st Stage, Srinivasa Nagar, Banashankari", "amenity": "hospital", "name": "\" NRS Medical & Dental Specialists Centre\"", "phone": "080-26696054"}}, {"type": "node", "id": 4446891375, "lat": 12.9386994, "lon": 77.5518394, "tags": {"addr:city": "bangalore", "addr:district": "Bengaluru Urban", "addr:housenumber": "60", "addr:postcode": "560050", "addr:state": "Karnataka", "addr:street": "2nd Main, Bsk 1st Stage, 80 Feet Road, Srinivasa Nagar,Sree Manjunatha Temple Street", "amenity": "hospital", "name": "Chiranjeevi Hospital & Maternity Home", "phone": "080 2691 7676", "source": "OpenGovernmentData"}}, {"type": "node", "id": 4446893667, "lat": 12.9373748, "lon": 77.5494778, "tags": {"addr:city": "bangalore", "addr:district": "Bengaluru Urban", "addr:full": "110, 1st Main, Sbm Colony, Bsk 1st Stage Hanumantha Nagar", "addr:housenumber": "110", "addr:postcode": "560050", "addr:state": "Karnataka", "addr:street": "State Bank Of Mysore Colony, 1st Stage,80 Feet Road,, Banashankari", "amenity": "hospital", "name": "Vinayaka Hospital, Hanumantha Nagar", "operator:type": "private", "phone": "080 2679 6167", "source": "OpenGovernmentData", "website": "http://dpal.kar.nic.in/Kanunu%20padakosha%20PDF%20Files/Recognised%20Hospitals.pdf"}}, {"type": "node", "id": 4446894388, "lat": 12.9354293, "lon": 77.5477956, "tags": {"addr:city": "Banglore", "addr:housenumber": "788", "addr:postcode": "560050", "addr:street": "11th Cross, 2nd Main, 80ft Main Road, SBM Colony, Giri Nagar 4th Phase", "amenity": "hospital", "name": "Diavista Diabetes & Multispeciality Hospital", "phone": "080 4096 9392", "source": "justdail", "website": "diavista.co.in"}}, {"type": "node", "id": 4446897063, "lat": 12.9420715, "lon": 77.553698, "tags": {"addr:city": "Bengaluru", "addr:housenumber": "979/A", "addr:postcode": "560085", "addr:street": "50 Feet Road", "amenity": "hospital", "name": "Meenakshi Hospital", "name:kn": "\u0cae\u0cc0\u0ca8\u0cbe\u0c95\u0ccd\u0cb7\u0cbf \u0c86\u0cb8\u0ccd\u0caa\u0ca4\u0ccd\u0cb0\u0cc6", "phone": "+918026755800"}}, {"type": "node", "id": 4446899253, "lat": 12.9408667, "lon": 77.5603657, "tags": {"addr:city": "bangalore", "addr:district": "Bengaluru Urban", "addr:full": "#795/1, 9Th Main ,Bsk 1st, Stage,2nd Block,Hanumantha Nagar", "addr:housenumber": "795/1", "addr:postcode": "560050", "addr:state": "Karnataka", "addr:street": "9th Main, 2nd Block, Hanumantha Nagar, Near-Shaneshwara Temple Road, Banashankari 1st Stage", "amenity": "hospital", "name": "Medi-Tech Multi Speciality Hospital", "phone": "080 2660 2910", "source": "OpenGovernmentData"}}, {"type": "node", "id": 4446900247, "lat": 12.9420124, "lon": 77.5506918, "tags": {"addr:city": "bangalore", "addr:housenumber": "237/37", "addr:postcode": "560050", "addr:street": "Nagendra Block, 50ft Road, 10th Main Rd, Srinagar, Banashankari", "amenity": "hospital", "name": "Kusuma Hospital", "phone": "080 2642 1177", "source": "justdail"}}, {"type": "node", "id": 4446907220, "lat": 12.9274553, "lon": 77.5516293, "tags": {"addr:city": "Bangalore", "addr:housenumber": "165", "addr:postcode": "560085", "addr:street": "1st Main Road, Kathreguppe Cross Road, Kathreguppe, Banashankari 3rd Stage", "amenity": "hospital", "name": "Ring Road Hospital", "phone": "080 2679 7040", "source": "just dial"}}, {"type": "node", "id": 4446907712, "lat": 12.9389007, "lon": 77.5438808, "tags": {"addr:city": "bangalore", "addr:housenumber": "5/8/1", "addr:postcode": "560085", "addr:street": "20th Main Road, Muneshwara Block, Girinagar, 1st phase Girinagar, Kadavanthra, Banashankari", "amenity": "hospital", "name": "Pulse Multispecialty Hospital", "phone": "080 2672 4466", "source": "just dial"}}, {"type": "node", "id": 4446909294, "lat": 12.9316792, "lon": 77.5450887, "tags": {"addr:city": "bangalore", "addr:housenumber": "103,994", "addr:postcode": "560085", "addr:street": ",2nd Main,1st Block,4th Phase,Kathriguppe,BSK 3rd Stage, Water Tank Road, Banashankari", "amenity": "hospital", "name": "Surya Galaxy Hospital", "phone": "080 2642 1051", "source": "just dial"}}, {"type": "node", "id": 4447009524, "lat": 12.9984229, "lon": 77.5403887, "tags": {"addr:city": "Bangalore", "addr:housenumber": "877", "addr:postcode": "560010", "addr:street": "Dr. Modi Hospital Road, 2nd stage extension", "amenity": "hospital", "name": "Pristine Hospital", "name:kn": "\u0caa\u0ccd\u0cb0\u0cbf\u0cb8\u0ccd\u0c9f\u0cc0\u0ca8\u0ccd \u0c86\u0cb8\u0ccd\u0caa\u0ca4\u0ccd\u0cb0\u0cc6", "phone": "+9180 4135 4444", "source": "www.justdial.com", "website": "pristinehospitals.com"}}, {"type": "node", "id": 4447013195, "lat": 12.9575029, "lon": 77.5276466, "tags": {"addr:city": "Bangalore", "addr:district": "Bengaluru Urban", "addr:full": "#1222, 80, Feet Road, Chandra Layout", "addr:housenumber": "1222", "addr:postcode": "560040", "addr:state": "Karnataka", "addr:street": "14th Main Road", "amenity": "hospital", "healthcare": "hospital", "name": "Sri Vinayaka Hospital", "phone": "080 2339 8062", "source": "OpenGovernmentData"}}, {"type": "node", "id": 4447015118, "lat": 12.9573897, "lon": 77.5276882, "tags": {"addr:city": "Bangalore", "addr:postcode": "560040", "addr:street": "14th Main Road", "amenity": "hospital", "healthcare": "hospital", "name": "Shathayu Ayurveda Wellness Centre", "phone": "+91 8040999110"}}, {"type": "node", "id": 4447072265, "lat": 12.9594984, "lon": 77.5275515, "tags": {"addr:city": "Bangalore", "addr:housenumber": "1133/f", "addr:postcode": "560040", "addr:street": "30 Service Road Rpc Layout Vijaynagar, Chandra Layout", "amenity": "hospital", "name": "Hospital Sharavathi", "phone": "+918023300222"}}, {"type": "node", "id": 4447072624, "lat": 12.9735891, "lon": 77.5443283, "tags": {"addr:city": "Bangalore", "addr:postcode": "560040", "addr:street": "Adichunchangiri Shopping Complex Adichunchangirishpgcplx Vjyngrb40 Vijaynagar, Attiguppe", "amenity": "hospital", "name": "Arogya Kendra", "name:kn": "\u0c86\u0cb0\u0ccb\u0c97\u0ccd\u0caf \u0c95\u0cc7\u0c82\u0ca6\u0ccd\u0cb0", "phone": "+918023400463"}}, {"type": "node", "id": 4447073029, "lat": 13.0029689, "lon": 77.5526666, "tags": {"addr:city": "bangalore", "addr:postcode": "560010", "addr:street": "10A Crossroad", "amenity": "hospital", "healthcare": "hospital", "name": "The Family Doctor Malleswaram", "phone": "+9180 2337 6262", "source": "www.yellowpages.co.in", "website": "https://thefamilydoctor.co.in/"}}, {"type": "node", "id": 4447075424, "lat": 12.9644231, "lon": 77.5333324, "tags": {"addr:city": "Bangalore", "addr:housenumber": "3437", "addr:postcode": "560040", "addr:street": "7 Subbanna Garden Vijaynagar, Attiguppe", "amenity": "hospital", "healthcare": "hospital", "name": "Venkat Charmalaya", "phone": "+918023392788"}}, {"type": "node", "id": 4447076167, "lat": 12.9787049, "lon": 77.5403581, "tags": {"addr:housenumber": "30/2", "addr:street": "S V Complex Magadi Main\u00a0Vijaynagar, Magadi Road", "amenity": "hospital", "name": "V Care\u00a0Medical\u00a0Systems P Ltd", "phone": "+918023110651"}}, {"type": "node", "id": 4447076314, "lat": 12.968821, "lon": 77.5246297, "tags": {"addr:city": "Bangalore", "addr:district": "Bengaluru Urban", "addr:full": "189, Shiva Complex, Shivananda Nagar, Near Vijay Bank, Moodalapalya", "addr:postcode": "560040", "addr:state": "Karnataka", "addr:street": "Nagarabhavi Road", "amenity": "hospital", "name": "Manasa Hospital", "name:kn": "\u0cae\u0cbe\u0ca8\u0cb8 \u0c86\u0cb8\u0ccd\u0caa\u0ca4\u0ccd\u0cb0\u0cc6", "phone": "+918023104640", "source": "OpenGovernmentData", "website": "http://www.manasa.in/"}}, {"type": "node", "id": 4447079172, "lat": 12.9691657, "lon": 77.5351921, "tags": {"addr:city": "Bangalore", "addr:district": "Vijayapura", "addr:full": "20th B Cross, Marenahalli Main Road, Vijayanagar", "addr:housenumber": "51/88", "addr:postcode": "560040", "addr:state": "Karnataka", "addr:street": "20th B Cross, Marenahalli Main Road, Govindaraja Nagar Ward, Vijayanagar", "amenity": "hospital", "name": "Saikrupa Hospital For Women's and Surgical Centre", "operator:type": "private", "phone": "+91080 2311 9592", "source": "OpenGovernmentData", "website": "http://dpal.kar.nic.in/Kanunu%20padakosha%20PDF%20Files/Recognised%20Hospitals.pdf"}}, {"type": "node", "id": 4447082866, "lat": 12.9768117, "lon": 77.5449094, "tags": {"addr:city": "Bangalore", "addr:housenumber": "5/1", "addr:postcode": "560040", "addr:street": "4th Main, MRCR Layout, Vijayanagar, Behind Godrej Interio, Near Veeresh Theatre, Govindaraja Nagar Ward, MC Layout, Vijayanagar", "amenity": "hospital", "healthcare": "hospital", "name": "Cutis Academy of Cutaneous Sciences", "phone": "080 4115 9049"}}, {"type": "node", "id": 4447083784, "lat": 12.9621516, "lon": 77.533401, "tags": {"addr:city": "Bangalore", "addr:postcode": "560040", "addr:street": "Chord Road", "amenity": "hospital", "healthcare": "hospital", "name": "Shreya Hearing Clinic", "phone": "\" 080 2318 0012\""}}, {"type": "node", "id": 4447088630, "lat": 12.9603312, "lon": 77.5300796, "tags": {"addr:city": "Bangalore", "addr:housenumber": "NO.105", "addr:postcode": "560040", "addr:street": "Widia Layout, Chandra Layout Main Road, Govindaraja Nagar Ward, Widia Layout, Vijayanagar", "amenity": "hospital", "name": "Prasad Nethralaya", "phone": "080 2339 2807"}}, {"type": "node", "id": 4447097087, "lat": 12.9717905, "lon": 77.5372864, "tags": {"addr:city": "Bangalore", "addr:housenumber": "46", "addr:postcode": "560040", "addr:street": "17th Cross, Near Main Bus Stand, M.C. Road, Vijayanagar", "amenity": "hospital", "name": "Vijayanagar Global Hospital", "phone": "080 4240 8200"}}, {"type": "node", "id": 4447100075, "lat": 12.9649703, "lon": 77.5389842, "tags": {"addr:city": "Bangalore", "addr:housenumber": "221", "addr:postcode": "560040", "addr:street": "1st Floor, Next to Sai Prasadam Hotel, 5th Main Rd, Hampi Nagar 2nd Stage, RPC Layout", "amenity": "hospital", "healthcare": "hospital", "name": "Blossom Infertility Center", "phone": "+91 99009 99116"}}, {"type": "node", "id": 4447105332, "lat": 12.958321, "lon": 77.5350434, "tags": {"addr:city": "Bangalore", "addr:housenumber": "30", "addr:postcode": "560040", "addr:street": "1108/30 10Th Main 4Th Cross, Rpc Layout, Vijayanagar", "amenity": "hospital", "name": "Padmashree Nursing Home and Maternity Home", "phone": "080 2311 8372"}}, {"type": "node", "id": 4447119911, "lat": 12.9639998, "lon": 77.5302683, "tags": {"addr:city": "Bangalore", "addr:housenumber": "17", "addr:postcode": "560040p", "addr:street": "1st Main Rd, Kaveri Layout, Govindaraja Nagar Ward, Anubhav Nagar, Vijayanagar", "amenity": "hospital", "healthcare": "hospital", "phone": "080 2335 2200"}}, {"type": "node", "id": 4447142720, "lat": 12.9706209, "lon": 77.5151893, "tags": {"addr:city": "Bangalore", "addr:housenumber": "63", "addr:postcode": "560072", "addr:street": ", Byraveshwara Nagar, 2nd Main, Moodalapalya, Nagarabhavi Main Road, 2nd Block, Govindaraja Nagar Ward", "amenity": "hospital", "name": "Dhanush Hospital", "name:kn": "\u0ca7\u0ca8\u0cc1\u0cb7\u0ccd \u0c86\u0cb8\u0ccd\u0caa\u0ca4\u0ccd\u0cb0\u0cc6", "phone": "080 2318 5544"}}, {"type": "node", "id": 4447155158, "lat": 12.957572, "lon": 77.5184436, "tags": {"addr:city": "Bangalore", "addr:district": "Bengaluru Urban", "addr:full": "No3 Ist Cross Janabharathi Road Nagarabhvi Circle", "addr:postcode": "560072", "addr:state": "Karnataka", "addr:street": "Nagarabhavi Road", "amenity": "hospital", "name": "S K Hospital, Bengaluru Urban", "phone": "080 2321 3699", "source": "OpenGovernmentData"}}, {"type": "node", "id": 4447171840, "lat": 12.9947201, "lon": 77.5715879, "tags": {"addr:city": "Bangalore", "addr:housenumber": "1", "addr:postcode": "560003", "addr:street": "2nd Cross Rd, Malleshwaram", "amenity": "hospital", "name": "The Homoeo World", "phone": "080 2346 1995"}}, {"type": "node", "id": 4447213952, "lat": 12.9698405, "lon": 77.5327211, "tags": {"addr:city": "Bangalore", "addr:housenumber": "17", "addr:postcode": "560040", "addr:street": "1st Main Rd, Kaveri Layout, Govindaraja Nagar Ward, Anubhav Nagar, Vijayanagar,", "amenity": "hospital", "name": "Modern Family Doctor Pvt Ltd", "phone": "080 2335 2200"}}, {"type": "node", "id": 4447273084, "lat": 12.9312101, "lon": 77.5756907, "tags": {"addr:city": "Bangalore", "addr:postcode": "560078", "addr:street": "Mnr Arcade, Saraki Gate, Kanakapura Road, Saraki Gate", "amenity": "hospital", "healthcare": "hospital", "name": "Oxford Hospital", "phone": "080 2245 2500", "source": "justdial"}}, {"type": "node", "id": 4448118314, "lat": 12.924274, "lon": 77.5680927, "tags": {"addr:city": "Bangalore", "addr:housenumber": "#3", "addr:postcode": "560068", "addr:street": "Ground Floor, 1st Phase, 2nd Stage, Oppo. Ias Colony Ground, BTM Layout, Mahadeshwara Nagar, Stage 2, BTM 2nd Stage", "amenity": "hospital", "emergency": "yes", "name": "Dr Lal PathLabs", "phone": "080 4091 6014", "source": "http://www.bangalorean.co.in/", "website": "https://www.lalpathlabs.com/"}}, {"type": "node", "id": 4484938764, "lat": 13.0044499, "lon": 77.5530755, "tags": {"addr:city": "bangalore", "addr:housenumber": "34/3", "addr:postcode": "560010", "addr:street": "Vidhya Vardhaka Sangha Road", "amenity": "hospital", "healthcare": "hospital", "name": "Tamara Hospital & IVF Centre", "phone": "+91 80 2337 0780", "website": "https://tamarahealthcare.com/"}}, {"type": "node", "id": 4509817152, "lat": 12.995573, "lon": 77.5354215, "tags": {"amenity": "hospital", "healthcare": "hospital", "name": "ChanRe Rheumatology and Immunology Center and Research", "name_1": "Chan re hospital", "name_2": "Chanre hospital"}}, {"type": "node", "id": 4533735695, "lat": 12.9709463, "lon": 77.5451059, "tags": {"addr:district": "Bengaluru Urban", "addr:full": "No. 318, 6Th Main,2nd Cross,Vijayanagar", "addr:postcode": "560040", "addr:state": "Karnataka", "amenity": "hospital", "name": "Manasa Hospital, Vijayanagar", "source": "OpenGovernmentData"}}, {"type": "node", "id": 4578753189, "lat": 12.9306876, "lon": 77.5794541, "tags": {"addr:housenumber": "46", "addr:postcode": "560082", "addr:street": "3 Main Road", "amenity": "hospital", "email": "radiologylucid@gmail.com", "healthcare": "hospital", "internet_access": "wlan", "name": "Lucid Medical Diagnostics", "opening_hours": "24/7", "phone": "08049364444", "website": "https://luciddiagnostics.com/"}}, {"type": "node", "id": 4597833389, "lat": 12.9984887, "lon": 77.5504219, "tags": {"addr:district": "Bengaluru Urban", "addr:full": "No. 408, 20Th Main, 1st Block,Opp Swathi Hotel, Woc Road, Rajajinagar", "addr:postcode": "560010", "addr:state": "Karnataka", "amenity": "hospital", "healthcare": "hospital", "healthcare:speciality": "orthopaedics", "name": "Cauvery Orthopaedic Centre", "source": "OpenGovernmentData"}}, {"type": "node", "id": 4609603646, "lat": 12.9168014, "lon": 77.5851878, "tags": {"addr:district": "Bengaluru Urban", "addr:full": "No.25, 46th Cross, 5th Block, Jayanagar", "addr:postcode": "560011", "addr:state": "Karnataka", "amenity": "hospital", "email": "contactus@apollocradle.com", "healthcare": "hospital", "name": "Apollo Bengaluru Cradle Limited, Jayanagar", "operator:type": "private", "source": "OpenGovernmentData", "website": "https://www.apollocradle.com/"}}, {"type": "node", "id": 4623723101, "lat": 12.997613, "lon": 77.5509423, "tags": {"addr:district": "Bengaluru Urban", "addr:full": "No.607/77, 1st Main, Dr.Rajkumar Road, Rajajinagar 2nd Block", "addr:postcode": "560021", "addr:state": "Karnataka", "amenity": "hospital", "healthcare": "hospital", "name": "Nethradhama Superspeciality Eye Hospital, Rajajinagar", "name:en": "Nethradhama", "name:kn": "\u0ca8\u0cc7\u0ca4\u0ccd\u0cb0\u0ca7\u0cbe\u0cae", "source": "OpenGovernmentData"}}, {"type": "node", "id": 4884890996, "lat": 12.9376934, "lon": 77.5694845}, {"type": "node", "id": 4884890997, "lat": 12.9379575, "lon": 77.5699754}, {"type": "node", "id": 4884890998, "lat": 12.93776, "lon": 77.5700872}, {"type": "node", "id": 4884890999, "lat": 12.9374959, "lon": 77.5695964}, {"type": "node", "id": 5157373807, "lat": 12.9849537, "lon": 77.5569222, "tags": {"addr:district": "Bengaluru Urban", "addr:full": "6/63, 59Th Cross, 4Th Block, Rajajinagar Entrance, Mei Polytechnic, Rajajinagar", "addr:postcode": "560010", "addr:state": "Karnataka", "alt_name": "Altius Cancer Center", "amenity": "hospital", "healthcare": "hospital", "name": "Altius Hospital", "source": "OpenGovernmentData"}}, {"type": "node", "id": 5234739990, "lat": 12.933223, "lon": 77.5842632, "tags": {"addr:city": "Bangalore", "addr:district": "Bengaluru Urban", "addr:full": "No.1537/1, 9th Main Road, 3rd Block, Jayanagar", "addr:housenumber": "1537/1", "addr:postcode": "560011", "addr:state": "Karnataka", "addr:street": "9th Main Road", "addr:suburb": "Jayanagar 3rd Block", "amenity": "hospital", "email": "infokpcpt@gmail.com", "healthcare": "hospital", "name": "Nature Cure Hospital", "opening_hours": "We-Mo 07:00-12:00,13:00-18:00", "operator:type": "private", "phone": "+91 80 2663 1945;+91 80 2244 6035", "source": "OpenGovernmentData", "website": "https://www.jayanagarnaturecure.in/"}}, {"type": "node", "id": 5259407821, "lat": 12.966103, "lon": 77.5549647, "tags": {"amenity": "hospital", "healthcare": "hospital", "name": "Government Hospital", "name:kn": "\u0cb8\u0cb0\u0ccd\u0c95\u0cbe\u0cb0\u0cbf \u0c86\u0cb8\u0ccd\u0caa\u0ca4\u0ccd\u0cb0\u0cc6"}}, {"type": "node", "id": 5306746595, "lat": 12.9495993, "lon": 77.5802119}, {"type": "node", "id": 5306746596, "lat": 12.9495944, "lon": 77.5803999}, {"type": "node", "id": 5306746597, "lat": 12.949704, "lon": 77.5804029}, {"type": "node", "id": 5306746598, "lat": 12.9497089, "lon": 77.5802149}, {"type": "node", "id": 5716797221, "lat": 12.9542624, "lon": 77.5709473, "tags": {"addr:district": "Bengaluru Urban", "addr:full": "1st Cross, Shankarapuram, Basavanaagudi", "addr:postcode": "560004", "addr:state": "Karnataka", "amenity": "hospital", "name": "Sri Shankara Cancer Hospital And Research Centre (A Service Unit Of Sscf)", "operator:type": "private", "phone": "080-26981000", "source": "OpenGovernmentData", "website": "http://shankaracancerfoundation.org/"}}, {"type": "node", "id": 5825292845, "lat": 12.9939752, "lon": 77.5391801, "tags": {"addr:district": "Bengaluru Urban", "addr:full": "565 Iii Stage 4Th Block", "addr:postcode": "560079", "addr:state": "Karnataka", "amenity": "hospital", "healthcare": "hospital", "healthcare:speciality": "gynaecology", "name": "Vathsalya Speciality Hospital", "source": "OpenGovernmentData"}}, {"type": "node", "id": 5879132707, "lat": 12.9677607, "lon": 77.5413282, "tags": {"addr:district": "Bengaluru Urban", "addr:full": "No.14 , Maruthi Nagar , Near Maruthi Temple , Nagarbhavi Main Road", "addr:postcode": "560072", "addr:state": "Karnataka", "amenity": "hospital", "name": "Maruthi Hospital", "name:kn": "\u0cae\u0cbe\u0cb0\u0cc1\u0ca4\u0cbf \u0c86\u0cb8\u0ccd\u0caa\u0ca4\u0ccd\u0cb0\u0cc6", "source": "OpenGovernmentData"}}, {"type": "node", "id": 6345494316, "lat": 12.9900436, "lon": 77.5537173, "tags": {"access": "private", "barrier": "gate"}}, {"type": "node", "id": 6442518238, "lat": 12.9416008, "lon": 77.5678464}, {"type": "node", "id": 6442518239, "lat": 12.9420317, "lon": 77.567355}, {"type": "node", "id": 6442518240, "lat": 12.9417076, "lon": 77.5670895}, {"type": "node", "id": 6442518241, "lat": 12.9415246, "lon": 77.5673389}, {"type": "node", "id": 6442518242, "lat": 12.940641, "lon": 77.5673336}, {"type": "node", "id": 6502980174, "lat": 12.9821954, "lon": 77.5493143, "tags": {"addr:district": "Bengaluru Urban", "addr:full": "1032, 5th Block Opp Ganesh Temple, Chor Road Rajajinagar", "addr:postcode": "560010", "addr:state": "Karnataka", "amenity": "hospital", "healthcare": "hospital", "name": "The Eye Surgical Centre"}}, {"type": "node", "id": 6531332483, "lat": 12.9248001, "lon": 77.500522}, {"type": "node", "id": 6531332484, "lat": 12.9246684, "lon": 77.5006643}, {"type": "node", "id": 6531332485, "lat": 12.9247366, "lon": 77.5007308}, {"type": "node", "id": 6531332486, "lat": 12.9246489, "lon": 77.5008256}, {"type": "node", "id": 6546893768, "lat": 12.9975999, "lon": 77.5456096}, {"type": "node", "id": 6546893769, "lat": 12.9983899, "lon": 77.5454543}, {"type": "node", "id": 6852266953, "lat": 12.9158516, "lon": 77.5593919, "tags": {"addr:district": "Bengaluru Urban", "addr:full": "Padmanabhanagar, Bengaluru", "addr:postcode": "560070", "addr:state": "Karnataka", "amenity": "hospital", "healthcare": "hospital", "name": "Yogananda Multi Speciality Hospital", "name:kn": "\u0caf\u0ccb\u0c97\u0ca8\u0c82\u0ca6 \u0c86\u0cb8\u0ccd\u0caa\u0ca4\u0ccd\u0cb0\u0cc6", "source": "Local Knowledge"}}, {"type": "node", "id": 6855409793, "lat": 12.9998982, "lon": 77.5501121, "tags": {"addr:district": "Bengaluru Urban", "addr:full": "Laxmi, No.20, Shankarmutt Main Road", "addr:postcode": "560004", "addr:state": "Karnataka", "amenity": "hospital", "healthcare": "hospital", "name": "Dr. Agrawal's Eye Hospital", "source": "OpenGovernmentData"}}, {"type": "node", "id": 6900054522, "lat": 13.0039532, "lon": 77.5499571}, {"type": "node", "id": 6937748988, "lat": 12.9948905, "lon": 77.5347984, "tags": {"addr:district": "Bengaluru Urban", "addr:full": "No.65,N.H.C.S. Layout,3Road Stage,4Th Block,Basaveshwar Nagar,Kamalanagar Main Road", "addr:postcode": "560079", "addr:state": "Karnataka", "amenity": "hospital", "healthcare": "hospital", "name": "Ashok Hospital", "source": "OpenGovernmentData"}}, {"type": "node", "id": 6937814427, "lat": 12.9376087, "lon": 77.5666429, "tags": {"addr:district": "Bengaluru Urban", "addr:full": "#118, 5 Th Main , 7Th Cross, N R Colony , Bull Temple Road", "addr:postcode": "560019", "addr:state": "Karnataka", "amenity": "hospital", "name": "Balaji Hospital and Gastroenterology Center", "source": "OpenGovernmentData"}}, {"type": "node", "id": 6937844482, "lat": 12.9517481, "lon": 77.4939886, "tags": {"addr:district": "Bengaluru Urban", "addr:full": "#43/2, 3Road Cross, OppositeSaroja Memorial School, Jnanajyothi Nagar, Ullal Main Road", "addr:postcode": "560056", "addr:state": "Karnataka", "amenity": "hospital", "name": "Abhay Hospital", "name:kn": "\u0c85\u0cad\u0caf \u0c86\u0cb8\u0ccd\u0caa\u0ca4\u0ccd\u0cb0\u0cc6", "source": "OpenGovernmentData"}}, {"type": "node", "id": 6937892396, "lat": 12.9981979, "lon": 77.568151, "tags": {"addr:district": "Bengaluru Urban", "addr:full": "53, 7Th Cross , 4Th Main Road, Malleswaram", "addr:postcode": "560003", "addr:state": "Karnataka", "amenity": "hospital", "name": "Dr. B. Venkatasubbarao Memorial Hospital", "source": "OpenGovernmentData"}}, {"type": "node", "id": 6937898160, "lat": 12.9497745, "lon": 77.5802779, "tags": {"addr:district": "Bengaluru Urban", "addr:full": "#53/1 (45), Shalini,Susheela Road,Lalbagh Upparahalli ( Lalbagh West Gate)", "addr:postcode": "560004", "addr:state": "Karnataka", "amenity": "hospital", "healthcare": "hospital", "name": "South City Hospital, Bengaluru Urban", "source": "OpenGovernmentData"}}, {"type": "node", "id": 6938414183, "lat": 12.9998457, "lon": 77.5663653, "tags": {"addr:district": "Bengaluru Urban", "addr:full": "28, 7Th Main 9Th Cross, Malleshwaram", "addr:postcode": "560003", "addr:state": "Karnataka", "amenity": "hospital", "name": "Jupiter Hospital And Institute Of Vascular Surgery", "source": "OpenGovernmentData"}}, {"type": "node", "id": 6938540502, "lat": 12.9829857, "lon": 77.5309655, "tags": {"addr:district": "Bengaluru Urban", "addr:full": "No. 2/3, 5Th Main Shiva Complex, Kamakshipalya, Nagadimain Road , Opp Vishal Theatre", "addr:postcode": "560043", "addr:state": "Karnataka", "amenity": "hospital", "name": "Shreyas Hospital, Bengaluru Urban", "source": "OpenGovernmentData"}}, {"type": "node", "id": 6938544594, "lat": 12.9166392, "lon": 77.5798346}, {"type": "node", "id": 6938690597, "lat": 12.9690441, "lon": 77.5688544, "tags": {"addr:district": "Bengaluru Urban", "addr:full": "No.71, Mill Road, Cottonpet", "addr:postcode": "560053", "addr:state": "Karnataka", "amenity": "hospital", "name": "Radha Maternity and Surgical Hospital", "source": "OpenGovernmentData"}}, {"type": "node", "id": 6938690598, "lat": 12.9878104, "lon": 77.5809833, "tags": {"addr:district": "Bengaluru Urban", "addr:full": "No.6/7, Crescent Road Cross, Kumar Park East", "addr:postcode": "560001", "addr:state": "Karnataka", "amenity": "hospital", "healthcare:speciality": "Dornier AlphaLithotripsy Treatment; X-Rays; US Scan; Urologist Consultation", "name": "Hitech Kidney Stone Hospital, Bengaluru Urban", "operator:type": "private", "source": "OpenGovernmentData", "website": "http://www.hitechkidneystonehospital.org/"}}, {"type": "node", "id": 6938690600, "lat": 12.9822186, "lon": 77.5599374, "tags": {"addr:district": "Bengaluru Urban", "addr:full": "1033,4 Th Block Dr Rajdumar Road", "addr:postcode": "560010", "addr:state": "Karnataka", "amenity": "hospital", "name": "Sri Dhavantari Ayurveda Hoapital", "source": "OpenGovernmentData"}}, {"type": "node", "id": 6938690603, "lat": 12.9845512, "lon": 77.5528322, "tags": {"addr:district": "Bengaluru Urban", "addr:full": "No. 851/D , 5Th Block , Rajajinagar , 60Th Cross", "addr:postcode": "560040", "addr:state": "Karnataka", "amenity": "hospital", "name": "Vaidyam Hospital", "source": "OpenGovernmentData"}}, {"type": "node", "id": 6938690604, "lat": 12.9897745, "lon": 77.5551014, "tags": {"addr:district": "Bengaluru Urban", "addr:full": "723 / B Main E S I Hospital Raod, 3Road Block, Rajajinagar", "addr:postcode": "560010", "addr:state": "Karnataka", "amenity": "hospital", "name": "Suresh Hospital - Bangalore", "source": "OpenGovernmentData"}}, {"type": "node", "id": 6938690626, "lat": 12.9932806, "lon": 77.580691, "tags": {"addr:district": "Bengaluru Urban", "addr:full": "# 111 Railway Parallel Road, 7 Th Cross, Kumara Park (W)", "addr:postcode": "560020", "addr:state": "Karnataka", "addr:subdistrict": "Kumara Park (W)", "amenity": "hospital", "email": "info@squinteyehospital.com", "name": "Samprathi Eye Hospital And Squint Centre", "operator:type": "private", "source": "OpenGovernmentData", "website": "https://squinteyehospital.com/"}}, {"type": "node", "id": 6938695148, "lat": 12.9992083, "lon": 77.550269, "tags": {"addr:district": "Bengaluru Urban", "addr:full": "No. 414/65, 20th Main, West of Chord road, 1st Block, Rajajinagar, Bangalore", "addr:postcode": "560010", "addr:state": "Karnataka", "amenity": "hospital", "contact:email": "info@chanrericr.com", "contact:phone": "080 - 42516699", "healthcare": "hospital", "name": "ChanRe Rheumatology and Immunology Center and Research", "source": "OpenGovernmentData", "website": "https://www.chanrericr.com/"}}, {"type": "node", "id": 6938695149, "lat": 12.9579894, "lon": 77.5114394, "tags": {"addr:district": "Bengaluru Urban", "addr:full": "54, 4th cross,4th main, NGEF Layout, Nrupathunganagar, Nagarabhavi, Bengaluru, Karnataka 560072", "addr:postcode": "560072", "addr:state": "Karnataka", "amenity": "hospital", "name": "Chandana Hospital", "source": "OpenGovernmentData"}}, {"type": "node", "id": 6938708338, "lat": 12.9215013, "lon": 77.5655432, "tags": {"addr:district": "Bengaluru Urban", "addr:full": "No 154, 17 Th Main, 29 Th Cross, Near Bnm Institution", "addr:postcode": "560070", "addr:state": "Karnataka", "amenity": "hospital", "healthcare": "hospital", "name": "Sri Krishna Hospital", "source": "OpenGovernmentData"}}, {"type": "node", "id": 6938717990, "lat": 12.9966677, "lon": 77.5716037, "tags": {"addr:district": "Bengaluru Urban", "addr:full": "24/1 5Th Cross Malleswaram", "addr:postcode": "560003", "addr:state": "Karnataka", "amenity": "hospital", "healthcare": "hospital", "name": "Malleswaram Eye Day Care Hospital - Bengalore", "source": "OpenGovernmentData"}}, {"type": "node", "id": 6938717991, "lat": 12.9933551, "lon": 77.5729595, "tags": {"addr:district": "Bengaluru Urban", "addr:full": "No.02, Sirur Park Road, Seshadripuram", "addr:postcode": "560020", "addr:state": "Karnataka", "amenity": "hospital", "healthcare": "hospital", "name": "Mahaveer Eye Hospital Private Limited", "operator:type": "private", "source": "OpenGovernmentData", "website": "http://dpal.kar.nic.in/Kanunu%20padakosha%20PDF%20Files/Recognised%20Hospitals.pdf"}}, {"type": "node", "id": 6938717993, "lat": 12.9989833, "lon": 77.5802015, "tags": {"addr:district": "Bengaluru Urban", "addr:full": "No.21,22,2nd Main Road, Palace Guttahalli", "addr:postcode": "560003", "addr:state": "Karnataka", "amenity": "hospital", "name": "Bilva Hospital", "name:kn": "\u0cac\u0cbf\u0cb2\u0ccd\u0cb5\u0cbe \u0c86\u0cb8\u0ccd\u0caa\u0ca4\u0ccd\u0cb0\u0cc6", "source": "OpenGovernmentData"}}, {"type": "node", "id": 6938727983, "lat": 12.9256932, "lon": 77.5773127, "tags": {"addr:district": "Bengaluru Urban", "addr:full": "256/14, Kanakapura Main Road, 7th Block, Jayanagar", "addr:postcode": "560082", "addr:state": "Karnataka", "amenity": "hospital", "healthcare:speciality": "ophthalmology", "name": "Nethradhama Superspeciality Eye Hospital, Jayanagar", "operator:type": "private", "source": "OpenGovernmentData", "website": "https://www.nethradhama.org/"}}, {"type": "node", "id": 6938774143, "lat": 12.9650437, "lon": 77.5435022, "tags": {"addr:district": "Bengaluru Urban", "addr:full": "No.10, Pipeline Road, RPC Layout, Vijayanagar, 2nd Stage", "addr:postcode": "560104", "addr:state": "Karnataka", "amenity": "hospital", "email": "skamcBengaluru@gmail.com", "healthcare": "hospital", "name": "Sri Kalabyraveshwara Swamy Ayurvedic Medical College hospital", "operator:type": "private", "source": "OpenGovernmentData", "website": "http://skayurvediccollegeandhospital.com/"}}, {"type": "node", "id": 6938775801, "lat": 12.9765645, "lon": 77.5455876, "tags": {"addr:district": "Bengaluru Urban", "addr:full": "No 18/2, 1st Cross, M.C. Layout, Vijayanagar", "addr:postcode": "560079", "addr:state": "Karnataka", "amenity": "hospital", "name": "Anugraha Hospital, Vijayanagar", "name:kn": "\u0c85\u0ca8\u0cc1\u0c97\u0ccd\u0cb0\u0cb9 \u0c86\u0cb8\u0ccd\u0caa\u0ca4\u0ccd\u0cb0\u0cc6", "source": "OpenGovernmentData"}}, {"type": "node", "id": 6938775840, "lat": 12.9711822, "lon": 77.5781228, "tags": {"addr:district": "Bengaluru Urban", "addr:full": "7Th Cross, Rangaswamy Temple Street", "addr:postcode": "560053", "addr:state": "Karnataka", "amenity": "hospital", "name": "Amar Hospital", "name:kn": "\u0c85\u0cae\u0cb0\u0ccd \u0c86\u0cb8\u0ccd\u0caa\u0ca4\u0ccd\u0cb0\u0cc6", "source": "OpenGovernmentData"}}, {"type": "node", "id": 6938775845, "lat": 12.95727, "lon": 77.5640827, "tags": {"addr:district": "Bengaluru Urban", "addr:full": "# 122, 5th Main Road, Chamarajpet", "addr:postcode": "560018", "addr:state": "Karnataka", "amenity": "hospital", "email": "retinaKarnatakaa@gmail.com", "name": "Retina Institute Of Karnataka", "operator:type": "private", "source": "OpenGovernmentData", "website": "https://www.retinainstitute.org/"}}, {"type": "node", "id": 6938775846, "lat": 12.9572978, "lon": 77.5644522, "tags": {"addr:district": "Bengaluru Urban", "addr:full": "123, 5Th Main Road, Chamarajpet", "addr:postcode": "560018", "addr:state": "Karnataka", "amenity": "hospital", "name": "The Venlakh Hospital", "source": "OpenGovernmentData"}}, {"type": "node", "id": 6938775854, "lat": 12.9406698, "lon": 77.5644596, "tags": {"addr:district": "Bengaluru Urban", "addr:full": "No.10/4 & 10/5, 3Road Main Road, Hanumanthanagar", "addr:postcode": "560019", "addr:state": "Karnataka", "amenity": "hospital", "name": "Vishwabharathi Hospital Pvt. Ltd", "source": "OpenGovernmentData"}}, {"type": "node", "id": 6938775855, "lat": 12.9404548, "lon": 77.5578493, "tags": {"addr:district": "Bengaluru Urban", "addr:full": "No 519/34, 2nd Cross 10Th Main, Bsk 1st Stage Banashankari", "addr:postcode": "560050", "addr:state": "Karnataka", "amenity": "hospital", "name": "Sunetra Eye Hospital, Bengaluru Urban", "source": "OpenGovernmentData"}}, {"type": "node", "id": 6938775856, "lat": 12.9253299, "lon": 77.5711893, "tags": {"addr:district": "Bengaluru Urban", "addr:full": "No. 39, 8Th B Main Raod, Bsk 2nd Stage", "addr:postcode": "560070", "addr:state": "Karnataka", "amenity": "hospital", "name": "Sri Vivekananda Sevashrama", "source": "OpenGovernmentData"}}, {"type": "node", "id": 6938775857, "lat": 12.9276382, "lon": 77.568896, "tags": {"addr:district": "Bengaluru Urban", "addr:full": "# 39, 17Thc Cross, 8Thb Main, Banashankari Ii Stage", "addr:postcode": "560070", "addr:state": "Karnataka", "amenity": "hospital", "name": "Saraswathi Hospital", "name:kn": "\u0cb8\u0cb0\u0cb8\u0ccd\u0cb5\u0ca4\u0cbf \u0c86\u0cb8\u0ccd\u0caa\u0ca4\u0ccd\u0cb0\u0cc6", "source": "OpenGovernmentData"}}, {"type": "node", "id": 6938777925, "lat": 12.9291283, "lon": 77.5461361, "tags": {"addr:district": "Bengaluru Urban", "addr:full": "No.160, 1st Floor,Rashi Complex,2nd Stage,2nd Block,Near Bda Complex, Nagarabhavi", "addr:postcode": "560072", "addr:state": "Karnataka", "amenity": "hospital", "name": "Netraspandana Healthcare and Research Pvt. Ltd", "source": "OpenGovernmentData"}}, {"type": "node", "id": 6938777945, "lat": 12.9176216, "lon": 77.5550705, "tags": {"addr:district": "Bengaluru Urban", "addr:full": "Bkf Chand , Nephro- Urology Centre, Ca - 6,15Th, Main Street, 11Th Cross, Padmanabhanagar", "addr:postcode": "560070", "addr:state": "Karnataka", "amenity": "hospital", "name": "Nu Trust", "source": "OpenGovernmentData"}}, {"type": "node", "id": 6938777957, "lat": 12.9817311, "lon": 77.5333714, "tags": {"addr:district": "Bengaluru Urban", "addr:full": "67/1, H V R Complex Magadi Main Road Kanakapura", "addr:postcode": "560079", "addr:state": "Karnataka", "amenity": "hospital", "name": "Padmavathi Hospital, Bengaluru Urban", "source": "OpenGovernmentData"}}, {"type": "node", "id": 6938777962, "lat": 12.9957177, "lon": 77.5031644, "tags": {"addr:district": "Bengaluru Rural", "addr:full": "# 1/3, Heggenanalli Main Road, Opposite Ganesh Temple, Near Peenya 2nd Stage, , Last Bus Stop", "addr:postcode": "560091", "addr:state": "Karnataka", "amenity": "hospital", "name": "Panchamukhi Specialityu Hospital", "source": "OpenGovernmentData"}}, {"type": "node", "id": 6938779562, "lat": 12.9881868, "lon": 77.5087273, "tags": {"addr:district": "Bengaluru Urban", "addr:full": "No. 127/1, Sri Gandhanda Kaval, Sunkadakatte, Viswaneedam Post, Magadi Main Road", "addr:postcode": "560054", "addr:state": "Karnataka", "amenity": "hospital", "name": "Sri Lakshmi Multi Speciality Hospital", "source": "OpenGovernmentData"}}, {"type": "node", "id": 6938783140, "lat": 12.9278657, "lon": 77.5519297, "tags": {"addr:district": "Bengaluru Urban", "addr:full": "#129, 1 Main Road, Kattriguppe, Banashankari Iii Stage", "addr:postcode": "560085", "addr:state": "Karnataka", "amenity": "hospital", "name": "Ring Road Hospital", "source": "OpenGovernmentData"}}, {"type": "node", "id": 6938995621, "lat": 12.9163994, "lon": 77.5847384, "tags": {"addr:district": "Bengaluru Urban", "addr:full": "909, 47Th Cross, 9Thmain, 5Th Block, Opposite Adarshapalace Apts And Near Raghavendra Matha, Jayanagar", "addr:postcode": "560041", "addr:state": "Karnataka", "amenity": "hospital", "healthcare": "hospital", "name": "Dr Kamini Rao Hospital(A Unit Of Bacc Health Care Pvt Ltd)", "source": "OpenGovernmentData"}}, {"type": "node", "id": 6939075872, "lat": 12.9929043, "lon": 77.5588015, "tags": {"addr:district": "Bengaluru Urban", "addr:full": "15/1 Iyappaswamy Templestraight Road", "addr:postcode": "560021", "addr:state": "Karnataka", "amenity": "hospital", "healthcare": "hospital", "name": "Supriya Hospital, Bengaluru Urban", "source": "OpenGovernmentData"}}, {"type": "node", "id": 6939257334, "lat": 12.974865, "lon": 77.5096312, "tags": {"addr:district": "Bengaluru Urban", "addr:full": "42, 7Th Block,Ii Stage,Nagarabhavi Ring Road,Near Bhojana Shale Hotel", "addr:postcode": "560072", "addr:state": "Karnataka", "amenity": "hospital", "name": "Essential Hospital", "source": "OpenGovernmentData"}}, {"type": "node", "id": 6939319393, "lat": 12.9548208, "lon": 77.5672585, "tags": {"addr:district": "Bengaluru Urban", "addr:full": "127/1, Bull Temple Road", "addr:postcode": "560019", "addr:state": "Karnataka", "amenity": "hospital", "name": "Kalasa Maternity Home", "source": "OpenGovernmentData"}}, {"type": "node", "id": 6939438895, "lat": 12.982442, "lon": 77.5493681, "tags": {"addr:district": "Bengaluru Urban", "addr:full": "1031, 20Th Main Road, 5Th Block, Rajajinagar", "addr:postcode": "560010", "addr:state": "Karnataka", "amenity": "hospital", "name": "Sidvin Hospital Pvt Ltd", "source": "OpenGovernmentData"}}, {"type": "node", "id": 6939444286, "lat": 12.9246384, "lon": 77.5509238, "tags": {"addr:district": "Bengaluru Urban", "addr:full": "#271, 5Th Block, 100 Feet Road, 3Road Phase, Banashankari", "addr:postcode": "560085", "addr:state": "Karnataka", "amenity": "hospital", "name": "Abhilash Hospital And Sara Rehabilitation Centre", "source": "OpenGovernmentData"}}, {"type": "node", "id": 6939582677, "lat": 12.9275311, "lon": 77.5457901, "tags": {"addr:district": "Bengaluru Urban", "addr:full": "30, 2nd Cross Anjaneya Nagar, 3Road Stage Banashankari", "addr:postcode": "560085", "addr:state": "Karnataka", "amenity": "hospital", "name": "Sg Hospital", "source": "OpenGovernmentData"}}, {"type": "node", "id": 6939617697, "lat": 12.9272213, "lon": 77.5764289}, {"type": "node", "id": 6939699617, "lat": 12.9988238, "lon": 77.5819892, "tags": {"addr:district": "Bengaluru Urban", "addr:full": "Near Nti Qtrs, Jataka Stand, P.G.Halli, East", "addr:postcode": "560003", "addr:state": "Karnataka", "amenity": "hospital", "name": "Place Guttahalli Maternity Home", "source": "OpenGovernmentData"}}, {"type": "node", "id": 6944128588, "lat": 12.9563016, "lon": 77.5747874, "tags": {"addr:district": "Bengaluru Urban", "addr:full": "K. R. Road, V. V. Puram", "addr:postcode": "560004", "addr:state": "Karnataka", "amenity": "hospital", "name": "Kims Hospital and Research Centre", "source": "OpenGovernmentData"}}, {"type": "node", "id": 6944201468, "lat": 12.9271131, "lon": 77.5471291, "tags": {"addr:district": "Bengaluru Urban", "addr:full": "# 77, 100 Ft.Ring Road, B.S.K.3rd Stage, 5th Block", "addr:postcode": "560085", "addr:state": "Karnataka", "amenity": "hospital", "email": "abhayaeye@yahoo.com", "healthcare:speciality": "Cataract", "name": "Abhaya Eye Hospital, Super Speciality Eye Care Centre", "operator:type": "private", "source": "OpenGovernmentData", "website": "http://www.abhayaeyehospital.com/"}}, {"type": "node", "id": 6944256035, "lat": 13.0045747, "lon": 77.5432728, "tags": {"addr:district": "Bengaluru Urban", "addr:full": "158, 6Th Main Road 4Th Stage, Ii Phase West Of Chord Road", "addr:postcode": "560086", "addr:state": "Karnataka", "amenity": "hospital", "name": "Namratha Nursing And Maternity Home", "source": "OpenGovernmentData"}}, {"type": "node", "id": 6944256036, "lat": 12.9424801, "lon": 77.5473283, "tags": {"addr:district": "Bengaluru Urban", "addr:full": "5/81, 50 Feet Road, 20Th Main Road, Muneshwara Block, Girinagar", "addr:postcode": "560085", "addr:state": "Karnataka", "amenity": "hospital", "name": "The Pulse Multi Speciality Hospital", "source": "OpenGovernmentData"}}, {"type": "node", "id": 6944256037, "lat": 12.9514854, "lon": 77.5703564, "tags": {"addr:city": "Bangaluru", "addr:district": "Bengaluru Urban", "addr:full": "No. 16, 3Road Cross, Shankarpuram", "addr:housenumber": "16", "addr:postcode": "560004", "addr:state": "Karnataka", "addr:street": "3rd Cross Road", "amenity": "hospital", "emergency": "yes", "healthcare": "hospital", "healthcare:speciality": "general", "name": "Popular Hospital", "operator": "Dr Lingham Murali", "operator:type": "private", "source": "local knowledge"}}, {"type": "node", "id": 6944269353, "lat": 12.9526505, "lon": 77.5548633, "tags": {"addr:district": "Bengaluru Urban", "addr:full": "Kempegoudanagara, Near Police Station, South", "addr:postcode": "560018", "addr:state": "Karnataka", "amenity": "hospital", "name": "Gavipuramguttahalli Maternity Home", "source": "OpenGovernmentData"}}, {"type": "node", "id": 6944276882, "lat": 12.9745134, "lon": 77.5493883, "tags": {"addr:district": "Bengaluru Urban", "addr:full": "No-170, 12th, Ist Main, Near Anjaneya Temple, Opposite Karnatakaa Bank", "addr:postcode": "560086", "addr:state": "Karnataka", "amenity": "hospital", "email": "info@bengaluruspinecare.com", "name": "Spine Care And Ortho Care Hospital", "operator:type": "private", "source": "OpenGovernmentData", "website": "https://www.bengaluruspinecare.com/"}}, {"type": "node", "id": 6944287716, "lat": 12.9733764, "lon": 77.5474034, "tags": {"addr:district": "Bengaluru Urban", "addr:full": "66 B/7, Pipe Line Road, Vijayanagara", "addr:postcode": "560040", "addr:state": "Karnataka", "amenity": "hospital", "name": "Tanmay Hospital", "source": "OpenGovernmentData"}}, {"type": "node", "id": 6944309977, "lat": 12.9645006, "lon": 77.5427189, "tags": {"addr:district": "Bengaluru Urban", "addr:full": "No. 1869, 5Th Main, 13Th Cross, R.P.C. Lay Out, Vijayanagar", "addr:postcode": "560040", "addr:state": "Karnataka", "amenity": "hospital", "healthcare": "hospital", "name": "Susheel Hospital", "source": "OpenGovernmentData"}}, {"type": "node", "id": 6944332151, "lat": 12.9654318, "lon": 77.52312, "tags": {"addr:district": "Bengaluru Urban", "addr:full": "#63, 2nd Main, Byraveshwara Nagar,2nd Main , Nagarbhavi Main Road", "addr:postcode": "560072", "addr:state": "Karnataka", "amenity": "hospital", "name": "Dhanush Hospital", "name:kn": "\u0ca7\u0ca8\u0cc1\u0cb7\u0ccd \u0c86\u0cb8\u0ccd\u0caa\u0ca4\u0ccd\u0cb0\u0cc6", "source": "OpenGovernmentData"}}, {"type": "node", "id": 6944392363, "lat": 12.938853, "lon": 77.5786096, "tags": {"addr:district": "Bengaluru Urban", "addr:full": "9, Patalamma Temple Street, Basavanagudi", "addr:postcode": "560004", "addr:state": "Karnataka", "amenity": "hospital", "name": "Av Hospital", "source": "OpenGovernmentData"}}, {"type": "node", "id": 6944392364, "lat": 12.9632506, "lon": 77.5602901, "tags": {"addr:district": "Bengaluru Urban", "addr:full": "No. 40/1, J.J.R. Nagar Main Road, K.H. Ranganath Colony, Behind Sadarshini Hotel", "addr:postcode": "560018", "addr:state": "Karnataka", "amenity": "hospital", "healthcare": "hospital", "name": "Balaji Hospital, K.H. Ranganath Colony", "source": "OpenGovernmentData"}}, {"type": "node", "id": 6944464994, "lat": 12.9559644, "lon": 77.5485635, "tags": {"addr:district": "Bengaluru Urban", "addr:full": "Kasturabanagar, Mysore Road , South", "addr:postcode": "560026", "addr:state": "Karnataka", "amenity": "hospital", "name": "Azad Nagar Maternity Home", "source": "OpenGovernmentData"}}, {"type": "node", "id": 6944507652, "lat": 12.9403012, "lon": 77.5764705, "tags": {"addr:district": "Bengaluru Urban", "addr:full": "1,Dewan N, Madhava Rao Road, Basavanagudi", "addr:postcode": "560004", "addr:state": "Karnataka", "amenity": "hospital", "healthcare": "hospital", "name": "Gunasheela Surgical and Maternity Hospital", "source": "OpenGovernmentData"}}, {"type": "node", "id": 6944507653, "lat": 12.9207314, "lon": 77.5736019, "tags": {"addr:district": "Bengaluru Urban", "addr:full": "#3/2, 27Th Cross, Banashankari 2nd Stage,Near Brigade Software Park", "addr:postcode": "560070", "addr:state": "Karnataka", "amenity": "hospital", "healthcare": "hospital", "name": "Excel Care Hospital", "source": "OpenGovernmentData"}}, {"type": "node", "id": 6944507654, "lat": 12.9292015, "lon": 77.5819811, "tags": {"addr:district": "Bengaluru Urban", "addr:full": "No 28&29, 7Th Main Diagnal Road, Jayanagar 4Th Blook", "addr:postcode": "560011", "addr:state": "Karnataka", "amenity": "hospital", "name": "Vasan Eye Care Hospital, Jayanagar", "source": "OpenGovernmentData"}}, {"type": "node", "id": 6944507655, "lat": 12.9271389, "lon": 77.579028, "tags": {"addr:district": "Bengaluru Urban", "addr:full": "#240, 32nd Cross, 7 Th Block", "addr:postcode": "560001", "addr:state": "Karnataka", "addr:subdistrict": "Jayanagar", "amenity": "hospital", "email": "shridhar@hitechkidneystonehospital.org; suresh@hitechkidneystonehospital.org", "healthcare:speciality": "Dornier AlphaLithotripsy Treatment; X-Rays; US Scan; Urologist Consultation", "name": "Hi Tech Kidney Stone Hospital", "operator:type": "private", "source": "OpenGovernmentData", "website": "http://www.hitechkidneystonehospital.org/"}}, {"type": "node", "id": 6944507660, "lat": 12.9242515, "lon": 77.573217, "tags": {"addr:district": "Bengaluru Urban", "addr:full": "2269, 22nd Cross K R Road, K.R.Road", "addr:postcode": "560070", "addr:state": "Karnataka", "amenity": "hospital", "name": "Dr. Vidyananda's Surgery and Dia Centre", "source": "OpenGovernmentData"}}, {"type": "node", "id": 6944525393, "lat": 12.9819768, "lon": 77.5108275, "tags": {"addr:district": "Bengaluru Urban", "addr:full": "No 193, So Feet Road, 2nd Block 2nd Stage", "addr:postcode": "560072", "addr:state": "Karnataka", "amenity": "hospital", "name": "Unity Lifline Hospital Pvt Ltd", "source": "OpenGovernmentData"}}, {"type": "node", "id": 6944888150, "lat": 12.9496114, "lon": 77.5790786, "tags": {"addr:district": "Bengaluru Urban", "addr:full": "37, M.N. Krishna Rao Road, Opp Lalbagh West Gate", "addr:postcode": "560004", "addr:state": "Karnataka", "amenity": "hospital", "healthcare": "hospital", "name": "Jyothi The Lasik Vision Centre", "source": "OpenGovernmentData"}}, {"type": "node", "id": 6944925493, "lat": 12.9563042, "lon": 77.5830996, "tags": {"addr:district": "Bengaluru Urban", "addr:full": "J.C.Road", "addr:postcode": "560002", "addr:state": "Karnataka", "amenity": "hospital", "name": "Bengaluru West Lions Hospital", "operator:type": "private", "source": "OpenGovernmentData", "website": "http://dpal.kar.nic.in/Kanunu%20padakosha%20PDF%20Files/Recognised%20Hospitals.pdf"}}, {"type": "node", "id": 6944983789, "lat": 12.9716291, "lon": 77.5371969, "tags": {"addr:district": "Bengaluru Urban", "addr:full": "17th Cross, Near Main Bus Stand, MC Road, Vijayanagar", "addr:postcode": "560040", "addr:state": "Karnataka", "amenity": "hospital", "check_date": "2024-12-21", "healthcare": "hospital", "name": "Vijayanagar Hospital", "operator:type": "private", "source": "OpenGovernmentData", "website": "http://dpal.kar.nic.in/Kanunu%20padakosha%20PDF%20Files/Recognised%20Hospitals.pdf"}}, {"type": "node", "id": 6945001435, "lat": 12.9550181, "lon": 77.5683897, "tags": {"addr:district": "Bengaluru Urban", "addr:full": "No. 36, Vagdevi, Shankara Park, Opposite Jnanodaya School", "addr:postcode": "560004", "addr:state": "Karnataka", "amenity": "hospital", "healthcare": "hospital", "name": "Abhinava Eye Hospital", "source": "OpenGovernmentData"}}, {"type": "node", "id": 6945020140, "lat": 12.9685305, "lon": 77.5843965, "tags": {"addr:district": "Bengaluru Urban", "addr:full": "No 37, Next To Ganesha Temple Near Cubbonpet Market Near Cubbonpet Market", "addr:postcode": "560002", "addr:state": "Karnataka", "amenity": "hospital", "name": "Punarjyoti Eye Hospital, Bengaluru Urban", "source": "OpenGovernmentData"}}, {"type": "node", "id": 6945309984, "lat": 12.9601022, "lon": 77.5315556, "tags": {"addr:district": "Bengaluru Urban", "addr:full": "No.20/1, 2nd Cross, Widia Layout, Chandra Layout Main Road,Vijayanagar", "addr:postcode": "560040", "addr:state": "Karnataka", "amenity": "hospital", "healthcare": "hospital", "name": "A.M. Hospital", "source": "OpenGovernmentData"}}, {"type": "node", "id": 6945348721, "lat": 12.9586907, "lon": 77.5352668, "tags": {"addr:district": "Bengaluru Urban", "addr:full": "#966/ 22, Service Road, RPC Layout, Vijayanagar, Opposite Syndicate Bank", "addr:postcode": "560104", "addr:state": "Karnataka", "amenity": "hospital", "healthcare": "hospital", "healthcare:speciality": "Cataract Treatment; Cornea Clinic; Retina Clinic; Glaucoma Clinic", "name": "Divya Drishti Eye Hospital, Vijayanagar", "operator:type": "private", "source": "OpenGovernmentData", "website": "http://divyadrishtieyehospital.com/"}}, {"type": "node", "id": 6945398483, "lat": 12.9617045, "lon": 77.5217172, "tags": {"addr:district": "Bengaluru Urban", "addr:full": "No-14, Maruthi Nagar, Nagarabhavi Main Road", "addr:postcode": "560072", "addr:state": "Karnataka", "amenity": "hospital", "name": "Shridevi Hospital, Bengaluru Urban", "source": "OpenGovernmentData"}}, {"type": "node", "id": 6945768862, "lat": 12.9732706, "lon": 77.5725357, "tags": {"addr:district": "Bengaluru Urban", "addr:full": "No. 12, Park Road, Bale Peth", "addr:postcode": "560053", "addr:state": "Karnataka", "amenity": "hospital", "name": "Sreeniwasa Hospital", "name:kn": "\u0cb6\u0ccd\u0cb0\u0cc0\u0ca8\u0cbf\u0cb5\u0cbe\u0cb8 \u0ca6\u0cc7\u0cb5\u0cb8\u0ccd\u0ca5\u0cbe\u0ca8", "source": "OpenGovernmentData"}}, {"type": "node", "id": 6946978667, "lat": 12.988865, "lon": 77.5078006, "tags": {"addr:district": "Bengaluru Rural", "addr:full": "Magadi Main Road, Sunkadakatte", "addr:postcode": "560091", "addr:state": "Karnataka", "amenity": "hospital", "name": "Ashraya Medinova Pvt Ltd", "source": "OpenGovernmentData"}}, {"type": "node", "id": 6947003707, "lat": 12.9741253, "lon": 77.561823, "tags": {"addr:district": "Bengaluru Urban", "addr:full": "2nd Cross, Magadi Road", "addr:postcode": "560023", "addr:state": "Karnataka", "amenity": "hospital", "name": "Magadi Road Maternity Home", "source": "OpenGovernmentData"}}, {"type": "node", "id": 6947033494, "lat": 12.9980009, "lon": 77.5432779, "tags": {"addr:district": "Bengaluru Urban", "addr:full": "No.877, Modi Hospital Road, West of Chord Road, II Stage Extension", "addr:postcode": "560086", "addr:state": "Karnataka", "amenity": "hospital", "healthcare": "hospital", "name": "Pristine Hospital", "name:kn": "\u0caa\u0ccd\u0cb0\u0cbf\u0cb8\u0ccd\u0c9f\u0cc0\u0ca8\u0ccd \u0c86\u0cb8\u0ccd\u0caa\u0ca4\u0ccd\u0cb0\u0cc6", "operator:type": "private", "source": "OpenGovernmentData", "website": "http://pristinehospitals.com/"}}, {"type": "node", "id": 6947226705, "lat": 13.0004769, "lon": 77.5054027, "tags": {"addr:district": "Bengaluru Rural", "addr:full": "Ktg Educational Campus, Sy No. 93, Srigandadakaval, Sunkadakatte Road, Vishwaneedam Post", "addr:postcode": "560091", "addr:state": "Karnataka", "amenity": "hospital", "name": "K.T.G. Hospital", "source": "OpenGovernmentData"}}, {"type": "node", "id": 6947682067, "lat": 12.9619528, "lon": 77.5728562, "tags": {"addr:district": "Bengaluru Urban", "addr:full": "Victoria Hospital Campus", "addr:postcode": "560002", "addr:state": "Karnataka", "amenity": "hospital", "healthcare": "hospital", "name": "Institute Of Nephro Urology hospital", "source": "OpenGovernmentData"}}, {"type": "node", "id": 6947707895, "lat": 12.9862161, "lon": 77.5374853, "tags": {"addr:district": "Bengaluru Urban", "addr:full": "# 52 /10 80 Ft Road, Khb Colony Basaveshwaranagar", "addr:postcode": "560079", "addr:state": "Karnataka", "amenity": "hospital", "email": "support@punyahospitals.com", "healthcare": "hospital", "name": "Punya Hospital, Bengaluru Urban", "operator:type": "private", "source": "OpenGovernmentData", "website": "https://punyahospitals.com/"}}, {"type": "node", "id": 6947716888, "lat": 12.9761802, "lon": 77.5261763, "tags": {"addr:district": "Bengaluru Urban", "addr:full": "No. 8, 60Ft. Road, Pattegara Palya, Vijayanagar", "addr:postcode": "560079", "addr:state": "Karnataka", "amenity": "hospital", "name": "Sandhyashree Hospital", "name:kn": "\u0cb8\u0c82\u0ca7\u0ccd\u0caf\u0cbe\u0cb6\u0ccd\u0cb0\u0cc0 \u0c86\u0cb8\u0ccd\u0caa\u0ca4\u0ccd\u0cb0\u0cc6", "source": "OpenGovernmentData"}}, {"type": "node", "id": 6947750361, "lat": 12.9162753, "lon": 77.5589544, "tags": {"addr:district": "Bengaluru Urban", "addr:full": "No. 113, 4Th Cross, R. K. Layout, Padmanabhanagar", "addr:postcode": "560070", "addr:state": "Karnataka", "amenity": "hospital", "healthcare": "hospital", "name": "Hillside Hospital", "source": "OpenGovernmentData"}}, {"type": "node", "id": 6948030294, "lat": 12.9986239, "lon": 77.542782, "tags": {"addr:district": "Bengaluru Urban", "addr:full": "1078 11Th Main 9Th Cross Above Punjab National Bank Mahalakshmipura", "addr:postcode": "560086", "addr:state": "Karnataka", "amenity": "hospital", "healthcare": "hospital", "name": "Sri Ranga Arogyadhama", "source": "OpenGovernmentData"}}, {"type": "node", "id": 6948059664, "lat": 12.978053, "lon": 77.5115959, "tags": {"addr:district": "Bengaluru Urban", "addr:full": "No.4, 5Th Block,2nd Stage Nagarabhavi", "addr:postcode": "560072", "addr:state": "Karnataka", "amenity": "hospital", "name": "Brinda Hospital", "source": "OpenGovernmentData"}}, {"type": "node", "id": 6948391975, "lat": 12.9705902, "lon": 77.5108503, "tags": {"addr:district": "Bengaluru Urban", "addr:full": "No. 86, 2nd Main,16Th D Cross,Malagala,Inner Ring Road,Underpass, Nagarabhavi 2nd Stag", "addr:postcode": "560072", "addr:state": "Karnataka", "amenity": "hospital", "name": "Deepashri Hospital", "source": "OpenGovernmentData"}}, {"type": "node", "id": 6948438892, "lat": 12.9817233, "lon": 77.5549364, "tags": {"addr:district": "Bengaluru Urban", "addr:full": "10Th, A Main, 68Th Cross, 5Th Block, Rajajinagar Near Bhasyam Circle", "addr:postcode": "560010", "addr:state": "Karnataka", "amenity": "hospital", "name": "Rotary Eye Hospital (A Unit Of Bangalore North Rotary Trust)", "source": "OpenGovernmentData"}}, {"type": "node", "id": 6948604083, "lat": 13.0001802, "lon": 77.5461146, "tags": {"addr:district": "Bengaluru Urban", "addr:full": "No - 30,1st Cross, Opp Geleyara Balaga Bus Stop,Mahalakshmipuram,Banglore", "addr:postcode": "560086", "addr:state": "Karnataka", "amenity": "hospital", "name": "Gurukripa Hospital and Health Care Centre", "source": "OpenGovernmentData"}}, {"type": "node", "id": 6950124308, "lat": 12.9543465, "lon": 77.5755649, "tags": {"addr:district": "Bengaluru Urban", "addr:full": "506, Aswathankatte Road V V Puram", "addr:postcode": "560004", "addr:state": "Karnataka", "amenity": "hospital", "name": "Venkateswara Hospital, Bengaluru Urban", "name:kn": "\u0cb5\u0cc6\u0c82\u0c95\u0c9f\u0cc7\u0cb6\u0ccd\u0cb5\u0cb0 \u0c86\u0cb8\u0ccd\u0caa\u0ca4\u0ccd\u0cb0\u0cc6", "source": "OpenGovernmentData"}}, {"type": "node", "id": 6950185730, "lat": 12.9783164, "lon": 77.5429603, "tags": {"addr:district": "Bengaluru Urban", "addr:full": "58, M. Muniyappa Complex Magadi Main Road, Agrahara Dasarahalli,", "addr:postcode": "560079", "addr:state": "Karnataka", "amenity": "hospital", "name": "Madhu Hospital, Bengaluru Urban", "source": "OpenGovernmentData"}}, {"type": "node", "id": 6952164952, "lat": 12.9408227, "lon": 77.5227942}, {"type": "node", "id": 6952164953, "lat": 12.9415717, "lon": 77.523348}, {"type": "node", "id": 6952164960, "lat": 12.9420357, "lon": 77.5225983}, {"type": "node", "id": 7007284257, "lat": 12.9848995, "lon": 77.5568087}, {"type": "node", "id": 7139631443, "lat": 12.9745983, "lon": 77.5436792, "tags": {"amenity": "hospital", "name": "Padmashree Diagnostics"}}, {"type": "node", "id": 7202935829, "lat": 12.993382, "lon": 77.5694167, "tags": {"addr:district": "Chitradurga", "addr:full": "K.C. General Hospital, Srirampura", "addr:postcode": "560003", "addr:state": "Karnataka", "addr:subdistrict": "Hosdurga", "amenity": "hospital", "contact:phone": "08199-242555", "name": "K.C. General Hospital", "source": "OpenGovernmentData"}}, {"type": "node", "id": 7229958802, "lat": 12.9427937, "lon": 77.5256266}, {"type": "node", "id": 7229958803, "lat": 12.9428107, "lon": 77.5254495}, {"type": "node", "id": 7229958804, "lat": 12.9426696, "lon": 77.5254013}, {"type": "node", "id": 7229958805, "lat": 12.9426291, "lon": 77.5255233}, {"type": "node", "id": 7235403686, "lat": 12.9853993, "lon": 77.5454024, "tags": {"amenity": "hospital", "name": "Yashas Neurocare"}}, {"type": "node", "id": 7235403985, "lat": 12.9870634, "lon": 77.549951, "tags": {"amenity": "hospital", "name": "Focus Diagnostic Center"}}, {"type": "node", "id": 7258378647, "lat": 12.931298, "lon": 77.5412566, "tags": {"amenity": "hospital", "healthcare": "hospital", "healthcare:speciality": "optometry;optometrist", "name": "Vittal Eye HOspital"}}, {"type": "node", "id": 7292235598, "lat": 12.9850791, "lon": 77.5569447}, {"type": "node", "id": 7292337020, "lat": 12.963623, "lon": 77.5673169}, {"type": "node", "id": 7413376528, "lat": 12.9984165, "lon": 77.5458615}, {"type": "node", "id": 7413376529, "lat": 12.9980263, "lon": 77.5463388}, {"type": "node", "id": 7413376530, "lat": 12.9980298, "lon": 77.5462056}, {"type": "node", "id": 7413376531, "lat": 12.9975687, "lon": 77.546189}, {"type": "node", "id": 7572526686, "lat": 12.975501, "lon": 77.534972, "tags": {"addr:district": "Bengaluru Urban", "addr:full": "Govindarajanagar, Bengaluru", "addr:postcode": "560040", "addr:state": "Karnataka", "amenity": "hospital", "name": "Kamadhenu Hospital", "source": "Local Knowledge"}}, {"type": "node", "id": 7572526693, "lat": 12.9835824, "lon": 77.5289448, "tags": {"addr:district": "Bengaluru Urban", "addr:full": "Govindaraja Nagar Ward, Priyadarshini Layout, Kamakshipalya, Bengaluru", "addr:postcode": "560079", "addr:state": "Karnataka", "amenity": "hospital", "name": "Benaka Hospital", "source": "Local Knowledge"}}, {"type": "node", "id": 7572526698, "lat": 12.9744928, "lon": 77.5342045, "tags": {"addr:district": "Bengaluru Urban", "addr:full": "Stage 2, Vijayanagar, Bengaluru", "addr:postcode": "560040", "addr:state": "Karnataka", "amenity": "hospital", "name": "Goverment Hospital, Hosahalli", "source": "Local Knowledge"}}, {"type": "node", "id": 7572526700, "lat": 12.96767, "lon": 77.5226459, "tags": {"addr:district": "Bengaluru Urban", "addr:full": "Govindaraja Nagar Ward, Kalyan Nagar, Vijayanagar, Bengaluru", "addr:postcode": "560072", "addr:state": "Karnataka", "amenity": "hospital", "name": "Vijaya Hospital", "source": "Local Knowledge"}}, {"type": "node", "id": 7572526703, "lat": 12.9780731, "lon": 77.5251934, "tags": {"addr:district": "Bengaluru Urban", "addr:full": "Govindaraja Nagar Ward, Pattegarhpalya, Vijayanagar, Bengaluru", "addr:postcode": "560079", "addr:state": "Karnataka", "amenity": "hospital", "name": "Government Hospital", "name:kn": "\u0cb8\u0cb0\u0ccd\u0c95\u0cbe\u0cb0\u0cbf \u0c86\u0cb8\u0ccd\u0caa\u0ca4\u0ccd\u0cb0\u0cc6", "source": "Local Knowledge"}}, {"type": "node", "id": 7572526708, "lat": 12.9734087, "lon": 77.5462808, "tags": {"addr:district": "Bengaluru Urban", "addr:full": "Hoshalli Extension, Vijayanagar, Bengaluru", "addr:postcode": "560040", "addr:state": "Karnataka", "amenity": "hospital", "name": "Sriprasad Ayurveda", "source": "Local Knowledge"}}, {"type": "node", "id": 7572526709, "lat": 12.9707429, "lon": 77.5377684, "tags": {"addr:district": "Bengaluru Urban", "addr:full": "Near Vijayanagar Police Station, Vijaya Nagar, Bengaluru", "addr:postcode": "560040", "addr:state": "Karnataka", "amenity": "hospital", "healthcare": "hospital", "name": "Vidya Eye Hospital", "source": "Local Knowledge"}}, {"type": "node", "id": 7572526718, "lat": 12.9615606, "lon": 77.5222312, "tags": {"addr:district": "Bengaluru Urban", "addr:full": "Maruthi Nagar, Attiguppe, Bengaluru", "addr:postcode": "560040", "addr:state": "Karnataka", "amenity": "hospital", "name": "Shree Dhanvantari Ayurveda Hospital", "source": "Local Knowledge"}}, {"type": "node", "id": 7572526728, "lat": 12.961509, "lon": 77.523151, "tags": {"addr:district": "Bengaluru Urban", "addr:full": "Netravati Road, Maruthi Nagar, Bengaluru", "addr:postcode": "560072", "addr:state": "Karnataka", "amenity": "hospital", "name": "Srinivasam Cancer Care Multi Speciality Hospital", "source": "Local Knowledge"}}, {"type": "node", "id": 7572526752, "lat": 12.9802303, "lon": 77.5548818, "tags": {"addr:district": "Bengaluru Urban", "addr:full": "Rajajinagar, Bengaluru", "addr:postcode": "560010", "addr:state": "Karnataka", "amenity": "hospital", "name": "G.R. Hospital", "source": "Local Knowledge"}}, {"type": "node", "id": 7572526753, "lat": 12.9754301, "lon": 77.5358001, "tags": {"addr:district": "Bengaluru Urban", "addr:full": "Nagarabhavi Main Road, Govindaraja Nagar Ward, Vijayanagar, Bengaluru", "addr:postcode": "560040", "addr:state": "Karnataka", "amenity": "hospital", "name": "Sneha Horizon Hospital", "source": "Local Knowledge"}}, {"type": "node", "id": 7572526756, "lat": 12.968292, "lon": 77.524492, "tags": {"addr:district": "Bengaluru Urban", "addr:full": "Nagarabavi Main Road, Mudalapalya, Vijayanagar, Bengaluru", "addr:postcode": "560072", "addr:state": "Karnataka", "amenity": "hospital", "name": "Jagjeevanram Hospital", "source": "Local Knowledge"}}, {"type": "node", "id": 7572526757, "lat": 12.974339, "lon": 77.542325, "tags": {"addr:district": "Bengaluru Urban", "addr:full": "CHBS Layout, Vijayanagar, Bengaluru", "addr:postcode": "560040", "addr:state": "Karnataka", "amenity": "hospital", "name": "Kangroo Hospital", "source": "Local Knowledge"}}, {"type": "node", "id": 7572526762, "lat": 12.9757486, "lon": 77.553782, "tags": {"addr:district": "Bengaluru Urban", "addr:full": "Rajajinagar, Bengaluru", "addr:postcode": "560023", "addr:state": "Karnataka", "amenity": "hospital", "name": "Abhinav Hospital", "source": "Local Knowledge"}}, {"type": "node", "id": 7572526763, "lat": 12.969102, "lon": 77.534951, "tags": {"addr:district": "Bengaluru Urban", "addr:full": "Govindaraja Nagar Ward, PF Layout, Vijayanagar, Bengaluru", "addr:postcode": "560040", "addr:state": "Karnataka", "amenity": "hospital", "name": "Suhusannidhi Hospital", "source": "Local Knowledge"}}, {"type": "node", "id": 7572526764, "lat": 12.963967, "lon": 77.4973049, "tags": {"addr:district": "Bengaluru Urban", "addr:full": "Vishweshwaraiah Layout, Annapurneshwari Nagar, Bengaluru", "addr:postcode": "560056", "addr:state": "Karnataka", "amenity": "hospital", "name": "Abivrud Cancer Care & Research Centre", "source": "Local Knowledge"}}, {"type": "node", "id": 7572526766, "lat": 12.9745497, "lon": 77.5208943, "tags": {"addr:district": "Bengaluru Urban", "addr:full": "Govindaraja Nagar Ward, Panchasheel Nagar, Vijayanagar, Bengaluru", "addr:postcode": "560072", "addr:state": "Karnataka", "amenity": "hospital", "name": "Panchsheela Nagar Hospital", "source": "Local Knowledge"}}, {"type": "node", "id": 7572526776, "lat": 12.9698191, "lon": 77.5360801, "tags": {"addr:district": "Bengaluru Urban", "addr:full": "CHBS Layout, MC Layout, Vijayanagar, Bengaluru", "addr:postcode": "560040", "addr:state": "Karnataka", "amenity": "hospital", "name": "Sai Ortho and Dental Centre", "source": "Local Knowledge"}}, {"type": "node", "id": 7572526781, "lat": 12.9794315, "lon": 77.5441641, "tags": {"addr:district": "Bengaluru Urban", "addr:full": "Agrahara Dasarahalli, Rajajinagar, Bengaluru", "addr:postcode": "560010", "addr:state": "Karnataka", "amenity": "hospital", "name": "Ammashrees Hospital", "source": "Local Knowledge"}}, {"type": "node", "id": 7572526783, "lat": 12.9639829, "lon": 77.5188899, "tags": {"addr:district": "Bengaluru Urban", "addr:full": "Govindrajanagar, Anubhav Nagar, Mudalapalya, Vijayanagar, Bengaluru", "addr:postcode": "560072", "addr:state": "Karnataka", "amenity": "hospital", "name": "Government Hospital", "name:kn": "\u0cb8\u0cb0\u0ccd\u0c95\u0cbe\u0cb0\u0cbf \u0c86\u0cb8\u0ccd\u0caa\u0ca4\u0ccd\u0cb0\u0cc6", "source": "Local Knowledge"}}, {"type": "node", "id": 7572526785, "lat": 12.9679971, "lon": 77.5015759, "tags": {"addr:district": "Bengaluru Urban", "addr:full": "Radhakrishna Main Road, Mines &,Geology Layout, Mallathahalli, Bengaluru", "addr:postcode": "560056", "addr:state": "Karnataka", "amenity": "hospital", "name": "Revathi Hospital", "source": "Local Knowledge"}}, {"type": "node", "id": 7572526787, "lat": 12.9637162, "lon": 77.5188263, "tags": {"addr:district": "Bengaluru Urban", "addr:full": "Govindaraja Nagar Ward, Garden Villas, Vijayanagar, Bengaluru", "addr:postcode": "560072", "addr:state": "Karnataka", "amenity": "hospital", "name": "Shanthakumari Hospital", "source": "Local Knowledge"}}, {"type": "node", "id": 7572526791, "lat": 12.9735574, "lon": 77.5461246, "tags": {"addr:district": "Bengaluru Urban", "addr:full": "Hans Complex, Manuvana, Vijayanagar, Bengaluru", "addr:postcode": "560040", "addr:state": "Karnataka", "amenity": "hospital", "name": "Bengaluru Child Neurology and Rehabilitaion Centre", "source": "Local Knowledge"}}, {"type": "node", "id": 7572526792, "lat": 12.976379, "lon": 77.524439, "tags": {"addr:district": "Bengaluru Urban", "addr:full": "Srinivasnagar, Amarajyothi Nagar, Vijayanagar, Bengaluru", "addr:postcode": "560072", "addr:state": "Karnataka", "amenity": "hospital", "name": "Sumati Hospital", "source": "Local Knowledge"}}, {"type": "node", "id": 7572526800, "lat": 12.975423, "lon": 77.540659, "tags": {"addr:district": "Bengaluru Urban", "addr:full": "Near SBI, Vijayanagar, Bengaluru", "addr:postcode": "560040", "addr:state": "Karnataka", "amenity": "hospital", "name": "Dr. Nothesh Child Specialist", "source": "Local Knowledge"}}, {"type": "node", "id": 7572526804, "lat": 12.9698787, "lon": 77.5332834, "tags": {"addr:district": "Bengaluru Urban", "addr:full": "Vijaya Nagar, Bengaluru", "addr:postcode": "560040", "addr:state": "Karnataka", "amenity": "hospital", "name": "Sastry Memorial Hospital", "source": "Local Knowledge"}}, {"type": "node", "id": 7576958025, "lat": 12.93753, "lon": 77.549675, "tags": {"addr:district": "Bengaluru Urban", "addr:full": "Srinivasnagar, Banashankari, Bengaluru", "addr:state": "Karnataka", "amenity": "hospital", "name": "Vinayaka Hospital", "source": "Local Knowledge"}}, {"type": "node", "id": 7576958028, "lat": 12.9633185, "lon": 77.5790145, "tags": {"addr:district": "Bengaluru Urban", "addr:full": "Near Jamia Masjid, NR Road, Bengaluru", "addr:postcode": "560002", "addr:state": "Karnataka", "amenity": "hospital", "name": "Unani Hospital", "source": "Local Knowledge"}}, {"type": "node", "id": 7576958033, "lat": 12.9405198, "lon": 77.5794387, "tags": {"addr:district": "Bengaluru Urban", "addr:full": "Basavanagudi, Bengaluru", "addr:postcode": "560004", "addr:state": "Karnataka", "amenity": "hospital", "name": "Bangaluru Unani Hospital", "source": "Local Knowledge"}}, {"type": "node", "id": 7576958037, "lat": 12.953049, "lon": 77.574203, "tags": {"addr:district": "Bengaluru Urban", "addr:full": "S.S. Temple Street, V V Puram, Bengaluru", "addr:postcode": "560004", "addr:state": "Karnataka", "amenity": "hospital", "name": "Medcare Hospital", "source": "Local Knowledge"}}, {"type": "node", "id": 7576958039, "lat": 12.9417439, "lon": 77.5601782, "tags": {"addr:district": "Bengaluru Urban", "addr:full": "50 Feet Road, Basavanagadi, Banashankari, Bengaluru", "addr:postcode": "560019", "addr:state": "Karnataka", "amenity": "hospital", "name": "Sumanjara Hospital", "source": "Local Knowledge"}}, {"type": "node", "id": 7576958043, "lat": 12.961345, "lon": 77.560893, "tags": {"addr:district": "Bengaluru Urban", "addr:full": "Mahaveer Arcade, Sirsi Road, Chamrajpet, Bengaluru", "addr:postcode": "560018", "addr:state": "Karnataka", "amenity": "hospital", "name": "Corporation Hospital", "source": "Local Knowledge"}}, {"type": "node", "id": 7576958045, "lat": 12.945591, "lon": 77.5712865, "tags": {"addr:district": "Bengaluru Urban", "addr:full": "DVG Road, Gandhi Bazaar, Basavanagudi, Bengaluru", "addr:postcode": "560004", "addr:state": "Karnataka", "amenity": "hospital", "name": "Mitralaya Hospital", "source": "Local Knowledge"}}, {"type": "node", "id": 7576958048, "lat": 12.942076, "lon": 77.553598, "tags": {"addr:district": "Bengaluru Urban", "addr:full": "Dasarhalli, Srinagar, Banashankari, Bengaluru", "addr:state": "Karnataka", "amenity": "hospital", "name": "People Tree Hospitals", "source": "Local Knowledge"}}, {"type": "node", "id": 7576958051, "lat": 12.936459, "lon": 77.584422, "tags": {"addr:district": "Bengaluru Urban", "addr:full": "Jaya Nagar East, Jayanagar, Bengaluru", "addr:postcode": "560011", "addr:state": "Karnataka", "amenity": "hospital", "healthcare": "hospital", "name": "Apollo Specialty Hospital", "source": "Local Knowledge"}}, {"type": "node", "id": 7576958052, "lat": 12.9609494, "lon": 77.5613939, "tags": {"addr:district": "Bengaluru Urban", "addr:full": "Sirsi Road, Chamrajpet, Bengaluru", "addr:postcode": "560018", "addr:state": "Karnataka", "amenity": "hospital", "name": "Government Hospital", "name:kn": "\u0c9a\u0cbe\u0cae\u0cb0\u0cbe\u0c9c\u0caa\u0cc7\u0c9f\u0cc6 \u0cb8\u0cb0\u0ccd\u0c95\u0cbe\u0cb0\u0cbf \u0c86\u0cb8\u0ccd\u0caa\u0ca4\u0ccd\u0cb0\u0cc6", "source": "Local Knowledge"}}, {"type": "node", "id": 7576958060, "lat": 12.940404, "lon": 77.5580361, "tags": {"addr:district": "Bengaluru Urban", "addr:full": "SBM Colony, Banashankari, Bengaluru", "addr:postcode": "560050", "addr:state": "Karnataka", "amenity": "hospital", "name": "Verna Hospital", "source": "Local Knowledge"}}, {"type": "node", "id": 7576958061, "lat": 12.9587464, "lon": 77.5573456, "tags": {"addr:district": "Bengaluru Urban", "addr:full": "Ramachandra Agrahara, Azad Nagar, Bengaluru", "addr:postcode": "560026", "addr:state": "Karnataka", "amenity": "hospital", "name": "Government Hospital, Banglore", "source": "Local Knowledge"}}, {"type": "node", "id": 7576958062, "lat": 12.960311, "lon": 77.568274, "tags": {"addr:district": "Bengaluru Urban", "addr:full": "Kamalanagar, Chamrajpet, Bengaluru", "addr:postcode": "560018", "addr:state": "Karnataka", "amenity": "hospital", "name": "Royan Maternity & Child Welfare Centre", "source": "Local Knowledge"}}, {"type": "node", "id": 7576958065, "lat": 12.945944, "lon": 77.567404, "tags": {"addr:district": "Bengaluru Urban", "addr:full": "Bull Temple Road, Hanumanthnagar, Bengaluru", "addr:postcode": "560019", "addr:state": "Karnataka", "amenity": "hospital", "name": "Shekhar Hospital", "source": "Local Knowledge"}}, {"type": "node", "id": 7576958066, "lat": 12.949104, "lon": 77.563226, "tags": {"addr:district": "Bengaluru Urban", "addr:full": "RK Mutt Layout, Kempegowda Nagar, Bengaluru", "addr:state": "Karnataka", "amenity": "hospital", "name": "Government Hospital", "name:kn": "\u0cb8\u0cb0\u0ccd\u0c95\u0cbe\u0cb0\u0cbf \u0c86\u0cb8\u0ccd\u0caa\u0ca4\u0ccd\u0cb0\u0cc6", "source": "Local Knowledge"}}, {"type": "node", "id": 7576958068, "lat": 12.9415883, "lon": 77.5641917, "tags": {"addr:district": "Bengaluru Urban", "addr:full": "Hanumanthnagar, Banashankari, Bengaluru", "addr:postcode": "560019", "addr:state": "Karnataka", "amenity": "hospital", "name": "Jeevini Sarvodaya Hospital", "source": "Local Knowledge"}}, {"type": "node", "id": 7576958070, "lat": 12.9569684, "lon": 77.5695045, "tags": {"addr:district": "Bengaluru Urban", "addr:full": "Shankar Mutt Road, Chikkanna Garden, Shankarapura, Bengaluru", "addr:postcode": "560004", "addr:state": "Karnataka", "amenity": "hospital", "name": "Mahaveer Ortho Care Speciality Centre", "source": "Local Knowledge"}}, {"type": "node", "id": 7576958071, "lat": 12.938787, "lon": 77.554296, "tags": {"addr:district": "Bengaluru Urban", "addr:full": "Banashankari, Bengaluru", "addr:state": "Karnataka", "amenity": "hospital", "name": "Raghavendra Hospital", "source": "Local Knowledge"}}, {"type": "node", "id": 7576958074, "lat": 12.938453, "lon": 77.551329, "tags": {"addr:district": "Bengaluru Urban", "addr:full": "Srinivasnagar, Banashankari, Bengaluru", "addr:state": "Karnataka", "amenity": "hospital", "name": "Apaara Multi Speciality", "source": "Local Knowledge"}}, {"type": "node", "id": 7576958078, "lat": 12.939882, "lon": 77.573989, "tags": {"addr:district": "Bengaluru Urban", "addr:full": "Krishna Rajendra Road, Basavanagudi, Bengaluru", "addr:postcode": "560004", "addr:state": "Karnataka", "amenity": "hospital", "healthcare": "hospital", "name": "Khincha Orthopaedic Centre", "source": "Local Knowledge"}}, {"type": "node", "id": 7576958080, "lat": 12.948971, "lon": 77.563543, "tags": {"addr:district": "Bengaluru Urban", "addr:full": "RK Mutt Layout, Gavipura, Kempegowda Nagar, Bengaluru", "addr:state": "Karnataka", "amenity": "hospital", "name": "Parameshwari Hospital", "source": "Local Knowledge"}}, {"type": "node", "id": 7576958083, "lat": 12.9422541, "lon": 77.5506328, "tags": {"addr:district": "Bengaluru Urban", "addr:full": "Giri Nagar, Banashankari, Bengaluru", "addr:state": "Karnataka", "amenity": "hospital", "name": "Drishti Nethralaya", "name:kn": "\u0ca6\u0cc3\u0cb7\u0ccd\u0c9f\u0cbf \u0ca8\u0cc7\u0ca4\u0ccd\u0cb0\u0cbe\u0cb2\u0caf", "source": "Local Knowledge"}}, {"type": "node", "id": 7576958086, "lat": 12.9702549, "lon": 77.5734571, "tags": {"addr:district": "Bengaluru Urban", "addr:full": "Santhusapet, Bengaluru", "addr:postcode": "560053", "addr:state": "Karnataka", "amenity": "hospital", "name": "Manavarthapet Pregnancy Hospital", "source": "Local Knowledge"}}, {"type": "node", "id": 7576958089, "lat": 12.9434996, "lon": 77.5796583, "tags": {"addr:district": "Bengaluru Urban", "addr:full": "Basavanagudi, Bengaluru", "addr:postcode": "560004", "addr:state": "Karnataka", "amenity": "hospital", "healthcare": "hospital", "name": "Trinity Hospital and Heart Foundation", "source": "Local Knowledge"}}, {"type": "node", "id": 7576958091, "lat": 12.957222, "lon": 77.566486, "tags": {"addr:district": "Bengaluru Urban", "addr:full": "Chamrajpet, Bengaluru", "addr:postcode": "560018", "addr:state": "Karnataka", "amenity": "hospital", "name": "Spandana Heart Centre", "source": "Local Knowledge"}}, {"type": "node", "id": 7576958093, "lat": 12.9420276, "lon": 77.575634, "tags": {"addr:district": "Bengaluru Urban", "addr:full": "M N Krishna Rao Park Road, Basavanagudi, Bengaluru", "addr:postcode": "560070", "addr:state": "Karnataka", "amenity": "hospital", "healthcare": "hospital", "name": "Matha Pitha Hospital", "source": "Local Knowledge"}}, {"type": "node", "id": 7576958095, "lat": 12.972126, "lon": 77.573351, "tags": {"addr:district": "Bengaluru Urban", "addr:full": "JM Road, Upparpete, Bengaluru", "addr:postcode": "560053", "addr:state": "Karnataka", "amenity": "hospital", "healthcare": "hospital", "name": "ESI Hospital", "operator": "Employees' State Insurance", "operator:short": "ESI", "operator:wikidata": "Q3595726", "source": "Local Knowledge"}}, {"type": "node", "id": 7576958096, "lat": 12.960972, "lon": 77.5609696, "tags": {"addr:district": "Bengaluru Urban", "addr:full": "Chamrajpet, Bengaluru", "addr:postcode": "560018", "addr:state": "Karnataka", "amenity": "hospital", "name": "Herige Hospital", "source": "Local Knowledge"}}, {"type": "node", "id": 7576958117, "lat": 12.9479647, "lon": 77.5696395, "tags": {"addr:district": "Bengaluru Urban", "addr:full": "Vanivilas Road, Gandhi Bazaar, Basavanagudi, Bengaluru", "addr:postcode": "560004", "addr:state": "Karnataka", "amenity": "hospital", "name": "Swastik Eye Hospital", "source": "Local Knowledge"}}, {"type": "node", "id": 7576958118, "lat": 12.9458294, "lon": 77.5799015, "tags": {"addr:district": "Bengaluru Urban", "addr:full": "Rashtriya Vidyalaya Road, Basavanagudi, Bengaluru", "addr:postcode": "560004", "addr:state": "Karnataka", "amenity": "hospital", "healthcare": "hospital", "name": "Dave Gray Hospital", "source": "Local Knowledge"}}, {"type": "node", "id": 7579924715, "lat": 12.9215119, "lon": 77.5724702, "tags": {"addr:district": "Bengaluru Urban", "addr:full": "Banashankari, Bengaluru", "addr:postcode": "560070", "addr:state": "Karnataka", "amenity": "hospital", "healthcare": "hospital", "name": "Sevakshetra Hospital", "name:kn": "\u0cb8\u0cc7\u0cb5\u0cbe\u0c95\u0ccd\u0cb7\u0cc7\u0ca4\u0ccd\u0cb0 \u0c86\u0cb8\u0ccd\u0caa\u0ca4\u0ccd\u0cb0\u0cc6", "source": "Local Knowledge"}}, {"type": "node", "id": 7579924732, "lat": 12.9334096, "lon": 77.5622345, "tags": {"addr:district": "Bengaluru Urban", "addr:full": "Vidyapeeta Layout, Basavanagudi, Bengaluru", "addr:postcode": "560050", "addr:state": "Karnataka", "amenity": "hospital", "name": "Bharathi Hospitals", "source": "Local Knowledge"}}, {"type": "node", "id": 7579924744, "lat": 12.924153, "lon": 77.565797, "tags": {"addr:district": "Bengaluru Urban", "addr:full": "Banashankari, Bengaluru", "addr:postcode": "560070", "addr:state": "Karnataka", "amenity": "hospital", "name": "Devagiri Hospital", "source": "Local Knowledge"}}, {"type": "node", "id": 7579924760, "lat": 12.9254569, "lon": 77.5467101, "tags": {"addr:district": "Bengaluru Urban", "addr:full": "Banashankari, Bengaluru", "addr:postcode": "560085", "addr:state": "Karnataka", "amenity": "hospital", "name": "Sudha Prevention Centre", "source": "Local Knowledge"}}, {"type": "node", "id": 7579924762, "lat": 12.920651, "lon": 77.5746118, "tags": {"addr:district": "Bengaluru Urban", "addr:full": "Jayanagar, Bengaluru", "addr:postcode": "560082", "addr:state": "Karnataka", "amenity": "hospital", "name": "Sahasra Hospital", "name:kn": "\u0cb8\u0cb9\u0cb8\u0ccd\u0cb0 \u0c86\u0cb8\u0ccd\u0caa\u0ca4\u0ccd\u0cb0\u0cc6", "source": "Local Knowledge"}}, {"type": "node", "id": 7579924768, "lat": 12.9202202, "lon": 77.5772991, "tags": {"addr:district": "Bengaluru Urban", "addr:full": "Jayanagar, Bengaluru", "addr:postcode": "560070", "addr:state": "Karnataka", "amenity": "hospital", "name": "Shanti Hospital", "name:kn": "\u0cb6\u0cbe\u0c82\u0ca4\u0cbf \u0c86\u0cb8\u0ccd\u0caa\u0ca4\u0ccd\u0cb0\u0cc6", "source": "Local Knowledge"}}, {"type": "node", "id": 7579924780, "lat": 12.916885, "lon": 77.585258, "tags": {"addr:district": "Bengaluru Urban", "addr:full": "TMC Layout, Jayanagar, Bengaluru", "addr:postcode": "560011", "addr:state": "Karnataka", "amenity": "hospital", "healthcare": "hospital", "name": "Apollo Cradle Maternity & Children's Hospital", "source": "Local Knowledge"}}, {"type": "node", "id": 7658279911, "lat": 12.9918362, "lon": 77.5540454}, {"type": "node", "id": 7658279912, "lat": 12.9914957, "lon": 77.5540356}, {"type": "node", "id": 7658279913, "lat": 12.9914862, "lon": 77.5543788}, {"type": "node", "id": 8188038681, "lat": 13.004596, "lon": 77.5540033, "tags": {"addr:full": "8/3, E Block, I Block, I Stage, Rajajinagar, E block, 2nd Stage, Rajajinagar, Bengaluru, Karnataka", "addr:state": "Karnataka", "amenity": "hospital", "healthcare": "hospital", "name": "ESI Hospital", "operator": "Employees' State Insurance", "operator:short": "ESI", "operator:wikidata": "Q3595726"}}, {"type": "node", "id": 8188038683, "lat": 13.0044307, "lon": 77.5785238, "tags": {"addr:full": "5/19, 1st Main, Vyalikaval, Lower Palace Orchards, Guttahalli, Bengaluru, Karnataka", "addr:state": "Karnataka", "amenity": "hospital", "healthcare": "hospital", "healthcare:speciality": "orthopaedics", "name": "Ramani Orthopaedic Hospital"}}, {"type": "node", "id": 8188038684, "lat": 13.004314, "lon": 77.547749, "tags": {"addr:full": "233, 1st A Main Rd, West of Chord Road 2nd Stage, 2nd Stage, Mahalakshmipuram, Bengaluru, Karnataka", "addr:state": "Karnataka", "amenity": "hospital", "healthcare": "hospital", "name": "Atharva Ayurdhama Ayurvedic Hospital"}}, {"type": "node", "id": 8188038691, "lat": 13.0015461, "lon": 77.5721683, "tags": {"addr:full": "11th Cross Rd, HN Layout, Malleshwaram, Bengaluru, Karnataka", "addr:state": "Karnataka", "amenity": "hospital", "healthcare": "hospital", "name": "RICH CARE HOMEOPATHY"}}, {"type": "node", "id": 8188038705, "lat": 12.998238, "lon": 77.551173, "tags": {"addr:full": "69/26, 19th Main, 19th Cross, Rajajinagar 1st Block, 1st Block, Rajajinagar, Bengaluru, Karnataka", "addr:state": "Karnataka", "amenity": "hospital", "healthcare": "hospital", "name": "Poornayu Ayurveda Hospital"}}, {"type": "node", "id": 8188038712, "lat": 12.9969996, "lon": 77.5730038, "tags": {"addr:full": "Sangeetha Apts, Malleshwaram, Bengaluru, Karnataka", "addr:state": "Karnataka", "amenity": "hospital", "healthcare": "hospital", "name": "Supra Diagnostics Spine Care And Ortho Care Hospital"}}, {"type": "node", "id": 8188038718, "lat": 12.9960244, "lon": 77.5693714, "tags": {"addr:full": "89, 5th Cross Rd, Behind Police Station, Malleshwaram, Bengaluru, Karnataka", "addr:state": "Karnataka", "amenity": "hospital", "healthcare": "hospital", "name": "K.C.General Hospital"}}, {"type": "node", "id": 8188038735, "lat": 12.9916924, "lon": 77.5539007, "tags": {"addr:full": "620/A/1, 12th Main Rd, 2nd Block, Rajajinagar, Bengaluru, Karnataka", "addr:state": "Karnataka", "amenity": "hospital", "healthcare": "hospital", "name": "ESIC Model Hospital"}}, {"type": "node", "id": 8188038742, "lat": 12.9905045, "lon": 77.5566355, "tags": {"addr:full": "172/A, 8th Main Rd, 2nd Block, Rajajinagar, Bengaluru, Karnataka", "addr:state": "Karnataka", "amenity": "hospital", "healthcare": "hospital", "name": "Government Hospital", "name:kn": "\u0cb8\u0cb0\u0ccd\u0c95\u0cbe\u0cb0\u0cbf \u0c86\u0cb8\u0ccd\u0caa\u0ca4\u0ccd\u0cb0\u0cc6"}}, {"type": "node", "id": 8188038743, "lat": 12.9904985, "lon": 77.5530924, "tags": {"addr:full": "3rd Block, Rajajinagar, Bengaluru, Karnataka", "addr:state": "Karnataka", "amenity": "hospital", "healthcare": "hospital", "name": "Esi Hospital Bangalore", "operator": "Employees' State Insurance", "operator:short": "ESI", "operator:wikidata": "Q3595726"}}, {"type": "node", "id": 8188038786, "lat": 12.9844963, "lon": 77.5551801, "tags": {"addr:full": "20th Main Rd, 5 Block, 3rd Block, Rajajinagar, Bengaluru, Karnataka", "addr:state": "Karnataka", "amenity": "hospital", "name": "Government Hospital", "name:kn": "\u0cb8\u0cb0\u0ccd\u0c95\u0cbe\u0cb0\u0cbf \u0c86\u0cb8\u0ccd\u0caa\u0ca4\u0ccd\u0cb0\u0cc6"}}, {"type": "node", "id": 8240881787, "lat": 12.9980688, "lon": 77.5463413, "tags": {"access": "private", "barrier": "gate"}}, {"type": "node", "id": 8873805759, "lat": 12.9288444, "lon": 77.5828703, "tags": {"amenity": "hospital", "name": "Narayan Multispeciality clinic"}}, {"type": "node", "id": 9141920972, "lat": 12.9966756, "lon": 77.5695477}, {"type": "node", "id": 9141920973, "lat": 12.9965383, "lon": 77.5695464}, {"type": "node", "id": 9141920974, "lat": 12.9965462, "lon": 77.5689121}, {"type": "node", "id": 9141920975, "lat": 12.9966873, "lon": 77.5689107}, {"type": "node", "id": 9161008293, "lat": 12.9835071, "lon": 77.5364935}, {"type": "node", "id": 9161008294, "lat": 12.9834692, "lon": 77.5364855}, {"type": "node", "id": 9161008295, "lat": 12.9834966, "lon": 77.5363889}, {"type": "node", "id": 9161008296, "lat": 12.9834182, "lon": 77.5363621}, {"type": "node", "id": 9161008297, "lat": 12.9835006, "lon": 77.5360242}, {"type": "node", "id": 9161008298, "lat": 12.9830589, "lon": 77.5358739}, {"type": "node", "id": 9161008299, "lat": 12.982889, "lon": 77.5363675}, {"type": "node", "id": 9161008300, "lat": 12.9828027, "lon": 77.5363407}, {"type": "node", "id": 9161008301, "lat": 12.9825603, "lon": 77.5371675}, {"type": "node", "id": 9161008302, "lat": 12.9826903, "lon": 77.5371808}, {"type": "node", "id": 9161008303, "lat": 12.9834169, "lon": 77.5369361}, {"type": "node", "id": 9214185048, "lat": 12.9860175, "lon": 77.5792829}, {"type": "node", "id": 9214185049, "lat": 12.9863918, "lon": 77.5795658}, {"type": "node", "id": 9296328828, "lat": 12.9700244, "lon": 77.5850201, "tags": {"access": "private", "barrier": "gate"}}, {"type": "node", "id": 9296328829, "lat": 12.9701892, "lon": 77.5869643, "tags": {"access": "private", "barrier": "gate"}}, {"type": "node", "id": 9296328875, "lat": 12.9723578, "lon": 77.5858792}, {"type": "node", "id": 9296328876, "lat": 12.9725562, "lon": 77.5856406}, {"type": "node", "id": 9574153227, "lat": 13.0036303, "lon": 77.5500007}, {"type": "node", "id": 9574153228, "lat": 13.0035917, "lon": 77.5496998}, {"type": "node", "id": 9574153229, "lat": 13.0039146, "lon": 77.5496562}, {"type": "node", "id": 9574153230, "lat": 13.0021052, "lon": 77.5492586}, {"type": "node", "id": 9574153231, "lat": 13.0020643, "lon": 77.5489828}, {"type": "node", "id": 9574153232, "lat": 13.0023382, "lon": 77.5492168}, {"type": "node", "id": 9574153233, "lat": 13.0023092, "lon": 77.5489437}, {"type": "node", "id": 9872645096, "lat": 12.9848314, "lon": 77.5569034}, {"type": "node", "id": 9872645097, "lat": 12.9850109, "lon": 77.5570394}, {"type": "node", "id": 9881508847, "lat": 13.0009266, "lon": 77.5638843}, {"type": "node", "id": 9881508848, "lat": 13.0009295, "lon": 77.5641845}, {"type": "node", "id": 9881508849, "lat": 13.001292, "lon": 77.5641808}, {"type": "node", "id": 9881508850, "lat": 13.0012737, "lon": 77.56371}, {"type": "node", "id": 9934012104, "lat": 12.9429852, "lon": 77.5460604, "tags": {"amenity": "hospital", "healthcare": "hospital", "healthcare:speciality": "dentist", "name": "My Dentist", "operator": "Dr Katta R Venkatesh", "operator:type": "public"}}, {"type": "node", "id": 10041139974, "lat": 12.9829636, "lon": 77.537095}, {"type": "node", "id": 10188080243, "lat": 12.9755907, "lon": 77.5642512, "tags": {"access": "private", "barrier": "gate"}}, {"type": "node", "id": 10580572136, "lat": 12.9639533, "lon": 77.5846015, "tags": {"access": "private", "barrier": "gate"}}, {"type": "node", "id": 10632697474, "lat": 12.9880155, "lon": 77.5598488}, {"type": "node", "id": 10632697475, "lat": 12.9880077, "lon": 77.560404}, {"type": "node", "id": 10632697476, "lat": 12.9884527, "lon": 77.560398}, {"type": "node", "id": 10978269863, "lat": 12.9698589, "lon": 77.585217, "tags": {"access": "private", "barrier": "gate"}}, {"type": "node", "id": 10979388706, "lat": 12.926271, "lon": 77.5210091}, {"type": "node", "id": 10979388707, "lat": 12.9258632, "lon": 77.5221571}, {"type": "node", "id": 10979388708, "lat": 12.9266631, "lon": 77.5223475}, {"type": "node", "id": 10979388709, "lat": 12.9269742, "lon": 77.5211835}, {"type": "node", "id": 11009573409, "lat": 12.9542655, "lon": 77.5721858, "tags": {"access": "permissive", "barrier": "gate"}}, {"type": "node", "id": 11009573410, "lat": 12.9532977, "lon": 77.5706279, "tags": {"access": "permissive", "barrier": "gate"}}, {"type": "node", "id": 11009588219, "lat": 12.9533132, "lon": 77.5711327, "tags": {"access": "private", "barrier": "gate"}}, {"type": "node", "id": 11019492853, "lat": 12.9611542, "lon": 77.5840357}, {"type": "node", "id": 11028992215, "lat": 12.980308, "lon": 77.5647761}, {"type": "node", "id": 11031908387, "lat": 12.9918503, "lon": 77.5437825, "tags": {"addr:city": "Basaveshwara Nagar, Bangalore", "addr:housenumber": "629", "addr:postcode": "560079", "addr:street": "8th B Main Road, 3rd Stage, 2nd Block, Basaveshwaranagara", "amenity": "hospital", "healthcare": "hospital", "healthcare:speciality": "gynaecology;orthodontics;dentist;vaccination;plastic_surgery", "name": "Janani Clinics", "operator": "Dr. V. Jeevan Prakash", "operator:type": "private", "phone": "9036817877"}}, {"type": "node", "id": 11168817968, "lat": 12.9880423, "lon": 77.5598239}, {"type": "node", "id": 11174291857, "lat": 12.9607734, "lon": 77.5615429}, {"type": "node", "id": 11174291858, "lat": 12.9607666, "lon": 77.5608063}, {"type": "node", "id": 11174291859, "lat": 12.961076, "lon": 77.5608032}, {"type": "node", "id": 11174291860, "lat": 12.9610829, "lon": 77.5615398}, {"type": "node", "id": 11215840017, "lat": 12.941992, "lon": 77.5673974}, {"type": "node", "id": 11341218790, "lat": 12.9734141, "lon": 77.5638984}, {"type": "node", "id": 11385217932, "lat": 12.9596032, "lon": 77.5112481, "tags": {"addr:district": "Bengaluru Urban", "addr:full": "No 23, 80 Feet Road, Gurukrupa Layout", "addr:postcode": "560072", "addr:state": "Karnataka", "addr:subdistrict": "Nagarbhavi", "amenity": "hospital", "healthcare": "hospital", "healthcare:speciality": "multi speciality", "name": "Fortis Hospital, Nagarbhavi", "name:kn": "\u0cab\u0ccb\u0cb0\u0ccd\u0c9f\u0cbf\u0cb8\u0ccd \u0c86\u0cb8\u0ccd\u0caa\u0ca4\u0ccd\u0cb0\u0cc6", "operator:type": "private", "source": "OpenGovernmentData", "website": "https://www.fortishealthcare.com/"}}, {"type": "node", "id": 11757261198, "lat": 12.9411586, "lon": 77.5230597}, {"type": "node", "id": 11757261199, "lat": 12.9418461, "lon": 77.522475}, {"type": "node", "id": 11799695217, "lat": 12.9269958, "lon": 77.5767958}, {"type": "node", "id": 11881863274, "lat": 12.9772225, "lon": 77.5430381}, {"type": "node", "id": 11881863275, "lat": 12.9771899, "lon": 77.5432125}, {"type": "node", "id": 11982389397, "lat": 12.9988382, "lon": 77.5550964, "tags": {"amenity": "hospital", "check_date": "2024-06-15", "healthcare": "hospital", "name": "New Varalakshmi Hospital"}}, {"type": "node", "id": 11991711393, "lat": 12.9609956, "lon": 77.5844209}, {"type": "node", "id": 11991711396, "lat": 12.9605387, "lon": 77.5842262}, {"type": "node", "id": 12103684982, "lat": 13.002768, "lon": 77.5536287, "tags": {"amenity": "hospital", "check_date": "2024-08-11", "healthcare": "hospital", "name": "Apollo Cradle Children's Hospital"}}, {"type": "node", "id": 12112511977, "lat": 12.954204, "lon": 77.5721861, "tags": {"access": "permissive", "barrier": "gate"}}, {"type": "node", "id": 12112511980, "lat": 12.9544849, "lon": 77.5715125}, {"type": "node", "id": 12112511993, "lat": 12.9533256, "lon": 77.5715353}, {"type": "node", "id": 12112511994, "lat": 12.9537451, "lon": 77.5715192}, {"type": "node", "id": 12112511995, "lat": 12.9537726, "lon": 77.5721884}, {"type": "node", "id": 12112511996, "lat": 12.9544568, "lon": 77.5701039}, {"type": "node", "id": 12112511997, "lat": 12.9536023, "lon": 77.5701234}, {"type": "node", "id": 12112511998, "lat": 12.9536043, "lon": 77.5702191}, {"type": "node", "id": 12112511999, "lat": 12.9534424, "lon": 77.5702228}, {"type": "node", "id": 12112512000, "lat": 12.9532968, "lon": 77.5705989}, {"type": "node", "id": 12112512013, "lat": 12.9544853, "lon": 77.5714193}, {"type": "node", "id": 12135993276, "lat": 12.960193, "lon": 77.5840398}, {"type": "node", "id": 12135993283, "lat": 12.9604331, "lon": 77.5836597}, {"type": "node", "id": 12137671788, "lat": 12.963954, "lon": 77.5842459}, {"type": "node", "id": 12137671789, "lat": 12.9644672, "lon": 77.5849845}, {"type": "node", "id": 12155267775, "lat": 12.924584, "lon": 77.500545}, {"type": "node", "id": 12179846004, "lat": 12.9691487, "lon": 77.5860213}, {"type": "node", "id": 12240737170, "lat": 12.99743, "lon": 77.5510293, "tags": {"amenity": "hospital", "name": "Netradhama"}}, {"type": "node", "id": 12438173201, "lat": 12.9754354, "lon": 77.5358965, "tags": {"amenity": "hospital", "check_date": "2024-12-21", "healthcare": "hospital", "name": "Hiremath Hospital"}}, {"type": "node", "id": 12541779301, "lat": 12.9569057, "lon": 77.5824398, "tags": {"amenity": "hospital", "name": "H Siddiah Referral Hospital"}}, {"type": "node", "id": 12651764011, "lat": 12.9519863, "lon": 77.4989075, "tags": {"addr:city": "Bengaluru", "addr:postcode": "560056", "addr:street": "Ullal Main Road", "amenity": "hospital", "healthcare": "hospital", "healthcare:speciality": "gynaecology", "mobile": "09980816643", "name": "Shri Mokambika Women's Clinic, Child care and Nethralaya", "note": "Plus Code: XF2X+QJ Bengaluru, Karnataka"}}, {"type": "node", "id": 12651764012, "lat": 12.9519538, "lon": 77.4990341, "tags": {"addr:city": "Bengaluru", "addr:postcode": "560056", "addr:street": "Ullal Main Road", "amenity": "hospital", "healthcare": "hospital", "healthcare:speciality": "diagnostic_centre;blood_check;scanning;x-ray;ecg;laboratory", "mobile": "9972629415", "name": "Suraksha Diagnostic Centre", "opening_hours": "Mo-Sa 07:00-21:00,Su 07:00-14:00"}}, {"type": "node", "id": 12676261338, "lat": 12.9937247, "lon": 77.5539724, "tags": {"amenity": "hospital", "check_date": "2025-03-18", "healthcare": "hospital", "name": "Jindal Charitable Hospital"}}, {"type": "node", "id": 12809319202, "lat": 13.0010485, "lon": 77.5641833}, {"type": "node", "id": 12917083993, "lat": 12.9271997, "lon": 77.5764275}, {"type": "node", "id": 12917083995, "lat": 12.9269971, "lon": 77.5768886}, {"type": "node", "id": 12917083996, "lat": 12.9272219, "lon": 77.5768588}, {"type": "node", "id": 12917083997, "lat": 12.9269903, "lon": 77.5764275}, {"type": "node", "id": 12917083998, "lat": 12.9271847, "lon": 77.5771049}, {"type": "node", "id": 12917083999, "lat": 12.9267808, "lon": 77.5771431}, {"type": "node", "id": 12917084000, "lat": 12.9264082, "lon": 77.5771464}, {"type": "node", "id": 12917084002, "lat": 12.9264017, "lon": 77.5774733}, {"type": "node", "id": 12917084092, "lat": 12.9296701, "lon": 77.5764082, "tags": {"amenity": "hospital", "name": "AMC Multispeciality Hospital"}}, {"type": "node", "id": 12995318310, "lat": 12.9405054, "lon": 77.5848675, "tags": {"amenity": "hospital", "check_date": "2025-07-12", "healthcare": "hospital", "name": "Big Hospitals"}}, {"type": "node", "id": 13374340555, "lat": 12.9929758, "lon": 77.5387957}, {"type": "node", "id": 13374340556, "lat": 12.9928401, "lon": 77.5387508}, {"type": "way", "id": 38536360, "nodes": [456039710, 456039711, 456039712, 9141920974, 9141920975, 9141920972, 9141920973, 456039713, 456039714, 456039715, 456039710], "tags": {"addr:district": "Bengaluru Urban", "addr:full": "Malleswaran", "addr:postcode": "560003", "addr:state": "Karnataka", "amenity": "hospital", "healthcare": "hospital", "name": "K C General Hospital", "name:kn": "\u0c95\u0cc6 \u0cb8\u0cbf \u0c9c\u0ca8\u0cb0\u0cb2\u0ccd \u0c86\u0cb8\u0ccd\u0caa\u0ca4\u0ccd\u0cb0\u0cc6", "source": "OpenGovernmentData", "wheelchair": "limited"}}, {"type": "way", "id": 38542913, "nodes": [456209036, 9296328828, 10978269863, 12179846004, 456209040, 456209041, 9296328829, 456209042, 9296328875, 9296328876, 456209054, 456209045, 456209046, 456209036], "tags": {"addr:district": "Bengaluru Urban", "addr:full": "Office No-05, Nrupathunga Road", "addr:postcode": "560001", "addr:state": "Karnataka", "amenity": "hospital", "email": "info.sm@nhhospitals.org", "emergency": "yes", "healthcare": "hospital", "name": "St Marthas Hospital", "name:kn": "\u0cb8\u0cc6\u0c82\u0c9f\u0ccd \u0cae\u0cbe\u0cb0\u0ccd\u0ca5 \u0c86\u0cb8\u0ccd\u0caa\u0ca4\u0ccd\u0cb0\u0cc6", "operator:type": "private", "source": "OpenGovernmentData", "website": "https://www.narayanahealth.org/"}}, {"type": "way", "id": 53849361, "nodes": [679886785, 679886725, 679886814, 679886893, 679886767, 679886851, 7292337020, 679886785], "tags": {"amenity": "hospital", "healthcare": "hospital", "name": "Government Veterinary Hospital", "name:kn": "\u0cb8\u0cb0\u0ccd\u0c95\u0cbe\u0cb0\u0cbf \u0caa\u0cb6\u0cc1\u0cb5\u0cc8\u0ca6\u0ccd\u0caf \u0c86\u0cb8\u0ccd\u0caa\u0ca4\u0ccd\u0cb0\u0cc6"}}, {"type": "way", "id": 53859295, "nodes": [680004360, 11028992215, 680004477, 680004373, 680004435, 680004360], "tags": {"amenity": "hospital", "name": "Railways Hospital", "name:kn": "\u0cb0\u0cc8\u0cb2\u0ccd\u0cb5\u0cc7 \u0c86\u0cb8\u0ccd\u0caa\u0ca4\u0ccd\u0cb0\u0cc6"}}, {"type": "way", "id": 133379520, "nodes": [1468296644, 1468296642, 1468296636, 1468296641, 1468296645, 1468296638, 1468296644], "tags": {"addr:city": "bangalore", "addr:district": "Bengaluru Urban", "addr:full": "3/4, Sunrise Tower, J.P. Road, Girinagar", "addr:housenumber": "3-4", "addr:postcode": "560085", "addr:state": "Karnataka", "addr:street": "Sunrise Towers, 30th crs JP Rd. Girinagar.,opp Canara Bank", "amenity": "hospital", "emergency": "yes", "name": "Radhakrishna Multispeciality Hospital", "name:kn": "\u0cb0\u0cbe\u0ca7\u0cbe\u0c95\u0cc3\u0cb7\u0ccd\u0ca3 \u0c86\u0cb8\u0ccd\u0caa\u0ca4\u0ccd\u0cb0\u0cc6", "phone": "080 2642 2977", "source": "OpenGovernmentData"}}, {"type": "way", "id": 133951786, "nodes": [1473997317, 1473997310, 1473997305, 6938544594, 1473997317], "tags": {"addr:district": "Bengaluru Urban", "addr:full": "VR Layout, J. P. Nagar, Bengaluru", "addr:postcode": "560078", "addr:state": "Karnataka", "amenity": "hospital", "healthcare": "hospital", "name": "Rajalakshmi Multispeciality Hospital", "name:kn": "\u0cb0\u0cbe\u0c9c\u0cbe\u0c9c\u0cbf\u0ca8\u0c97\u0cb0 \u0c86\u0cb8\u0ccd\u0caa\u0ca4\u0ccd\u0cb0\u0cc6"}}, {"type": "way", "id": 138697265, "nodes": [7658279911, 7658279912, 7658279913, 1520843455, 6345494316, 1520843420, 1520843445, 7658279911], "tags": {"alt_name": "ESI Hospital", "amenity": "hospital", "emergency": "yes", "healthcare": "hospital", "int_name": "ESICMH", "name": "Employees' State Insurance Corporation Model Hospital", "operator": "Employees' State Insurance", "operator:short": "ESI", "operator:wikidata": "Q3595726", "wheelchair": "yes"}}, {"type": "way", "id": 141791769, "nodes": [1551996916, 1551996934, 1551996910, 1551996911, 1551996916], "tags": {"addr:district": "Bengaluru Urban", "addr:full": "#1,2nd Cross, 2nd Main,7Th Block, Banashankari 3Road Stage, Hosakerehalli", "addr:postcode": "560085", "addr:state": "Karnataka", "amenity": "hospital", "emergency": "yes", "name": "Vittala International Institute Of Ophthalmology, Hosakerehalli", "source": "OpenGovernmentData"}}, {"type": "way", "id": 150350446, "nodes": [1632709106, 1632709146, 1632709181, 1632709394, 1632709106]}, {"type": "way", "id": 150350462, "nodes": [1632708866, 1632708947, 1632709144, 1632709354, 1632708866]}, {"type": "way", "id": 150350476, "nodes": [1632709348, 1632708925, 1632709442, 1632709444, 1632709372, 1632708934, 1632708776, 1632709440, 1632709263, 1632709265, 1632709198, 1632709056, 1632708889, 1632709577, 1632708968, 1632709403, 1632709127, 1632709273, 1632708898, 1632708941, 1632709086, 1632709374, 1632709424, 1632709734, 1632709285, 1632709048, 1632709175, 1632709704, 1632709139, 1632709141, 1632709550, 1632709163, 1632709722, 1632709111, 1632709376, 1632709626, 1632709618, 1632709098, 1632709578, 1632709151, 1632709348], "tags": {"amenity": "hospital", "building": "hospital", "emergency": "yes", "healthcare": "hospital", "heritage": "2", "heritage:operator": "nmma", "heritage:website": "https://nmma.nic.in/nmma/exploreBuiltState.do?state=29", "name": "Victoria Hospital", "name:etymology:wikidata": "Q9439", "name:kn": "\u0cb5\u0cbf\u0c95\u0ccd\u0c9f\u0ccb\u0cb0\u0cbf\u0caf\u0cbe \u0c86\u0cb8\u0ccd\u0caa\u0ca4\u0ccd\u0cb0\u0cc6", "ref:nmma": "KR20011022", "wheelchair": "yes", "wikidata": "Q7926782", "wikimedia_commons": "Category:Victoria Hospital, Bangalore", "wikipedia": "en:Victoria Hospital (Bangalore Medical College)"}}, {"type": "way", "id": 150350482, "nodes": [1632709230, 1632709561, 1632709223, 1632709576, 1632709230]}, {"type": "way", "id": 150350483, "nodes": [1632708811, 1632709078, 1632708973, 1632708796, 1632708781, 1632709474, 1632709477, 1632709594, 1632709074, 1632709699, 1632709009, 1632709065, 1632708808, 1632709079, 1632708811]}, {"type": "way", "id": 150350484, "nodes": [1632708861, 1632709213, 1632709096, 1632709439, 1632708861]}, {"type": "way", "id": 150350487, "nodes": [1632708906, 1632709559, 1632708928, 1632709688, 1632709170, 1632709611, 1632709701, 1632709027, 1632709574, 1632709513, 1632709386, 1632709422, 1632708976, 1632709511, 1632709691, 1632708784, 1632709738, 1632709425, 1632709210, 1632709654, 1632709017, 1632709641, 1632709272, 1632709571, 1632709052, 1632708951, 1632709661, 1632709565, 1632709375, 1632709091, 1632709569, 1632709717, 1632709707, 1632709549, 1632709327, 1632708906]}, {"type": "way", "id": 161984945, "nodes": [1739362251, 1739366976, 1739362385, 1739362285, 12137671788, 10580572136, 1739362319, 1739362370, 12137671789, 1739362236, 1739362251], "tags": {"addr:district": "Bengaluru Urban", "addr:full": "Near Town Hall, Sjp Road , South", "addr:postcode": "560002", "addr:state": "Karnataka", "amenity": "hospital", "emergency": "yes", "healthcare": "hospital", "name": "Dasappa Maternity Hospital", "name:kn": "\u0ca6\u0cbe\u0cb8\u0caa\u0ccd\u0caa \u0ca4\u0cbf\u0cb0\u0cc1\u0cae\u0cb2\u0cae\u0ccd\u0cae \u0c86\u0cb8\u0ccd\u0caa\u0ca4\u0ccd\u0cb0\u0cc6", "source": "OpenGovernmentData"}}, {"type": "way", "id": 169801514, "nodes": [1809622910, 1809622909, 1809622904, 1809622908, 1809622910], "tags": {"addr:district": "Bengaluru Urban", "addr:full": "#11/2, Magadi Main Road ,Agrahara , Dasarahalli,Next To Raheja Park", "addr:postcode": "560079", "addr:state": "Karnataka", "amenity": "hospital", "emergency": "yes", "name": "Sarvodaya Hospital", "name:kn": "\u0cb8\u0cb0\u0ccd\u0cb5\u0ccb\u0ca6\u0caf \u0c86\u0cb8\u0ccd\u0caa\u0ca4\u0ccd\u0cb0\u0cc6", "source": "OpenGovernmentData"}}, {"type": "way", "id": 169801520, "nodes": [1809622944, 1809622941, 11881863274, 11881863275, 1809622943, 1809622942, 1809622944], "tags": {"addr:district": "Bengaluru Urban", "addr:full": "5th Main Road, 7th Cross Road, MC Layout, Vijaynagar", "addr:postcode": "560040", "addr:state": "Karnataka", "amenity": "hospital", "name": "Dasarahalli Referral Hospital", "name:kn": "\u0cb8\u0cb0\u0ccd\u0c95\u0cbe\u0cb0\u0cbf \u0c86\u0cb8\u0ccd\u0caa\u0ca4\u0ccd\u0cb0\u0cc6", "source": "OpenGovernmentData"}}, {"type": "way", "id": 259487871, "nodes": [2649089257, 2649089258, 2649089256, 2649089255, 2649089257], "tags": {"addr:city": "Bangalore", "addr:district": "Bengaluru Urban", "addr:full": "#523, 10th Main,45th Cross, 5th Block, Jayanagar", "addr:housename": "523", "addr:postcode": "560041", "addr:state": "Karnataka", "amenity": "hospital", "building": "yes", "email": "admin@sksh.com", "healthcare": "hospital", "name": "Shri Krishna Sevashrama Hospital", "name:kn": "\u0cb6\u0ccd\u0cb0\u0cc0\u0c95\u0ccd\u0cb7\u0cc7\u0ca4\u0ccd\u0cb0 \u0cb8\u0cc7\u0cb5\u0cbe\u0cb6\u0ccd\u0cb0\u0cae \u0c86\u0cb8\u0ccd\u0caa\u0ca4\u0ccd\u0cb0\u0cc6", "operator:type": "private", "phone": "+918022441631", "source": "OpenGovernmentData", "website": "http://www.sks-hospital.org/"}}, {"type": "way", "id": 271786067, "nodes": [2767224739, 2767224740, 2767224744, 2767224741, 2767224743, 2767224739], "tags": {"addr:district": "Bengaluru Urban", "addr:full": "Bhashyam Circle,Rajajinagar 5Th Block", "addr:postcode": "560010", "addr:state": "Karnataka", "amenity": "hospital", "healthcare": "hospital", "name": "Sreerampura Referal Hospital", "name:kn": "\u0cb6\u0ccd\u0cb0\u0cc0\u0cb0\u0c82\u0caa\u0cc1\u0cb0 \u0cb0\u0cc6\u0cab\u0cb0\u0cb2\u0ccd \u0c86\u0cb8\u0ccd\u0caa\u0ca4\u0ccd\u0cb0\u0cc6", "source": "OpenGovernmentData"}}, {"type": "way", "id": 306826547, "nodes": [3118322042, 3118322043, 3118322044, 3118322045, 3118322042], "tags": {"addr:district": "Bengaluru Urban", "addr:full": "Banashankari, Bengaluru", "addr:postcode": "560070", "addr:state": "Karnataka", "amenity": "hospital", "building": "hospital", "name": "Pro MED Hospital", "name:kn": "\u0caa\u0ccd\u0cb0\u0ccb\u0cae\u0cc6\u0ca1\u0ccd\u200c \u0c86\u0cb8\u0ccd\u0caa\u0ca4\u0ccd\u0cb0\u0cc6", "source": "Local Knowledge"}}, {"type": "way", "id": 306861065, "nodes": [3118790621, 3118790622, 3118790623, 3118790624, 3118790625, 3118790621], "tags": {"addr:district": "Bengaluru Urban", "addr:full": "21/2, 14th Cross, 3rd Block, Jayanagar", "addr:postcode": "560011", "addr:state": "Karnataka", "amenity": "hospital", "building": "yes", "building:levels": "6", "email": "customercarebengaluru@apollohospitals.com", "healthcare": "hospital", "healthcare:speciality": "Cardiac surgery; General and Gastro-intestinal surgery; Gynecology; Pediatric surgery; Thoracic surgery; Urology; Colorectal surgery; Cancer surgery; Orthopedics; Neurosurgery and Ear; Nose and Throat surgery", "name": "Apollo Speciality Hospital", "name:kn": "\u0c85\u0caa\u0ccb\u0cb2\u0ccb \u0c86\u0cb8\u0ccd\u0caa\u0ca4\u0ccd\u0cb0\u0cc6", "operator:type": "private", "source": "OpenGovernmentData", "website": "https://www.apollohospitals.com/"}}, {"type": "way", "id": 307097150, "nodes": [3121618244, 3121618247, 3121618246, 3121618245, 3121618244], "tags": {"addr:city": "Bangalore", "addr:district": "Bengaluru Urban", "addr:full": "B 70, 27Th Cross Banashankari 2nd Stage Banashankari", "addr:postcode": "560070", "addr:state": "Karnataka", "addr:street": "27th Cross", "amenity": "hospital", "emergency": "yes", "healthcare": "hospital", "name": "Sevakshetra Hospital, Bengaluru Urban", "name:kn": "\u0cb8\u0cc7\u0cb5\u0cbe\u0c95\u0ccd\u0cb7\u0cc7\u0ca4\u0ccd\u0cb0 \u0c86\u0cb8\u0ccd\u0caa\u0ca4\u0ccd\u0cb0\u0cc6", "source": "OpenGovernmentData"}}, {"type": "way", "id": 307098232, "nodes": [3121629369, 3121629372, 3570997782, 3121629370, 3121629369], "tags": {"addr:street": "Kanakapura Road", "amenity": "hospital", "emergency": "yes", "name": "Netradhama Hospital", "name:kn": "\u0ca8\u0cc7\u0ca4\u0ccd\u0cb0\u0ca7\u0cbe\u0cae \u0c86\u0cb8\u0ccd\u0caa\u0ca4\u0ccd\u0cb0\u0cc6"}}, {"type": "way", "id": 337987686, "nodes": [3450573835, 3450573833, 1780474089, 11341218790, 3450573836, 3450573834, 3450573837, 10188080243, 3450573832, 3450573838, 3450573835], "tags": {"amenity": "hospital", "healthcare": "hospital", "name": "Leprosy Hospital"}}, {"type": "way", "id": 347120748, "nodes": [3535301845, 3535301846, 3535301812, 3535301811, 3535301845], "tags": {"addr:city": "Bengaluru", "addr:district": "Bengaluru Urban", "addr:housenumber": "175", "addr:postcode": "560011", "addr:street": "5th Main Road", "amenity": "hospital", "healthcare": "hospital", "healthcare:speciality": "general;emergency", "name": "Shashank Clinic", "operator": "Dr. Satish", "operator:type": "public"}}, {"type": "way", "id": 347175871, "nodes": [3535630510, 3535630517, 3535630381, 3535630375, 3535630510], "tags": {"addr:city": "Gandhi Nagar, Bangalore", "addr:housename": "Near Gandhrava Uapahara", "addr:street": "4th Cross", "amenity": "hospital", "building": "yes", "emergency": "no", "healthcare": "hospital", "name": "Ramakrishna Clinic"}}, {"type": "way", "id": 347485349, "nodes": [3537802316, 3537802314, 3537802317, 3537802315, 3537802313, 3537802311, 3537802309, 3537802310, 3537802308, 3537802307, 3537802305, 3700542233, 3700542234, 3537802306, 3537802316], "tags": {"amenity": "hospital", "building": "commercial", "building:levels": "5", "name": "Apollo Hospital", "name:kn": "\u0c85\u0caa\u0ccb\u0cb2\u0ccb \u0c86\u0cb8\u0ccd\u0caa\u0ca4\u0ccd\u0cb0\u0cc6"}}, {"type": "way", "id": 347497660, "nodes": [3537864045, 3537864052, 13374340556, 3537864040, 3537864045], "tags": {"addr:district": "Bengaluru Urban", "addr:full": "334, 3rd Stage, 4th Block, Basaveshwaranagar", "addr:postcode": "560079", "addr:state": "Karnataka", "amenity": "hospital", "building": "hospital", "healthcare": "hospital", "name": "Supra Hospital", "operator:type": "private", "website": "http://www.panaceahospital.com/"}}, {"type": "way", "id": 347497848, "nodes": [3537864054, 3537864061, 13374340555, 3537864051, 3537864054], "tags": {"addr:city": "Basaveshwara Nagar, Bangalore", "addr:housenumber": "334", "addr:postcode": "560079", "addr:street": "8th Main, 3rd Stage", "amenity": "hospital", "building": "yes", "emergency": "yes", "healthcare": "hospital", "name": "GM Hospital", "wheelchair": "yes"}}, {"type": "way", "id": 348287598, "nodes": [3544299986, 3544300106, 3544300124, 3544300103, 3544299986], "tags": {"addr:district": "Bengaluru Urban", "addr:full": "SBM Colony, Banashankari, Bengaluru", "addr:state": "Karnataka", "amenity": "hospital", "building": "yes", "name": "Prashanth Hospitals", "name:kn": "\u0caa\u0cbf\u0c87\u0c8e\u0cb8\u0ccd \u0cb5\u0cbf\u0cb6\u0ccd\u0cb5\u0cb5\u0cbf\u0ca6\u0ccd\u0caf\u0cbe\u0cb2\u0caf \u0c95\u0ccd\u0cb0\u0cbf\u0c95\u0cc6\u0c9f\u0ccd \u0cae\u0cc8\u0ca6\u0cbe\u0ca8", "source": "Local Knowledge"}}, {"type": "way", "id": 351326759, "nodes": [3570997970, 3570997969, 3570997943, 3570997945, 3570997970], "tags": {"amenity": "hospital", "building": "yes", "name": "Deepak Hospital"}}, {"type": "way", "id": 354497944, "nodes": [3602104521, 3602104516, 3602104364, 3602104369, 3602104521], "tags": {"amenity": "hospital", "healthcare": "hospital", "name": "ChanRe Rheumatology And Immunology Center And Research"}}, {"type": "way", "id": 354557914, "nodes": [3602433072, 3602433054, 3602433012, 3602433030, 3602433072], "tags": {"amenity": "hospital", "building": "yes", "name": "Gopala Eye Care Centre"}}, {"type": "way", "id": 496821816, "nodes": [4884890999, 4884890996, 4884890997, 4884890998, 4884890999], "tags": {"amenity": "hospital", "building": "yes", "healthcare": "hospital", "name": "Government Maternity Hospital", "name:kn": "\u0cb8\u0cb0\u0c95\u0cbe\u0cb0\u0cbf \u0cb9\u0cc6\u0cb0\u0cbf\u0c97\u0cc6 \u0c86\u0cb8\u0ccd\u0caa\u0ca4\u0ccd\u0cb0\u0cc6"}}, {"type": "way", "id": 549373054, "nodes": [5306746598, 5306746597, 5306746596, 5306746595, 5306746598], "tags": {"amenity": "hospital", "building": "yes", "healthcare": "hospital", "name": "South City Hospital"}}, {"type": "way", "id": 687319732, "nodes": [3425328776, 6442518242, 6442518241, 6442518240, 6442518239, 11215840017, 3039639118, 6442518238, 3425328780, 3425328776], "tags": {"addr:district": "Bengaluru Urban", "addr:full": "618, Sri Mallikarjuna Swamy Temple St, N.R. Colony", "addr:postcode": "560019", "addr:state": "Karnataka", "amenity": "hospital", "name": "BMS Hospital", "source": "OpenGovernmentData"}}, {"type": "way", "id": 695545711, "nodes": [1464035837, 12155267775, 1464035839, 6531332486, 6531332485, 6531332484, 6531332483, 1464035837], "tags": {"amenity": "hospital", "healthcare": "hospital", "name": "Medical Centre"}}, {"type": "way", "id": 697081723, "nodes": [6546893769, 6546893768, 7413376531, 7413376530, 7413376529, 8240881787, 2296630617, 7413376528, 6546893769], "tags": {"addr:district": "Bengaluru Urban", "addr:full": "Modi Hospital Road, Mahalakshmipuram", "addr:postcode": "560086", "addr:state": "Karnataka", "amenity": "hospital", "email": "modihospital@hotmail.com", "healthcare": "hospital", "name": "M C Modi Eye Hospital", "name:etymology:wikidata": "Q1880759", "name:kn": "\u0cae\u0ccb\u0ca6\u0cbf \u0c95\u0ca3\u0ccd\u0ca3\u0cbf\u0ca8 \u0c86\u0cb8\u0ccd\u0caa\u0ca4\u0ccd\u0cb0\u0cc6", "operator:type": "private", "source": "OpenGovernmentData", "website": "http://www.modieyehospital.com/", "wheelchair": "yes"}}, {"type": "way", "id": 742634558, "nodes": [6952164953, 11757261198, 6952164952, 458105013, 3388805879, 11757261199, 6952164960, 6952164953], "tags": {"amenity": "hospital", "name": "Puneeth Rajkumar Multispeciality Hospital", "name:etymology:wikidata": "Q3351697", "operator": "BBMP"}}, {"type": "way", "id": 774947265, "nodes": [7229958805, 7229958804, 7229958803, 7229958802, 7229958805], "tags": {"amenity": "hospital", "name": "Natus Woman and Children Hospital"}}, {"type": "way", "id": 991531036, "nodes": [9161008303, 10041139974, 9161008302, 9161008301, 9161008300, 9161008299, 9161008298, 9161008297, 9161008296, 9161008295, 9161008294, 9161008293, 9161008303], "tags": {"addr:full": "Stage 1, KHB Colony, Basaveshwar Nagar, Bengaluru, Karnataka", "addr:state": "Karnataka", "amenity": "hospital", "healthcare": "hospital", "name": "Government Homeopathic Hospital"}}, {"type": "way", "id": 997923996, "nodes": [3198616666, 9214185049, 9214185048, 3198616664, 3198616666], "tags": {"addr:district": "Bengaluru Urban", "addr:full": "6/6 Kumarakrupa Road OppositeShivananda Circle , High Grounds", "addr:postcode": "560001", "addr:state": "Karnataka", "amenity": "hospital", "name": "Dr. P.R. Desai Hospital Pvt Ltd", "source": "OpenGovernmentData"}}, {"type": "way", "id": 1039760096, "nodes": [9574153229, 9574153228, 9574153227, 6900054522, 9574153229], "tags": {"addr:district": "Bengaluru Urban", "addr:full": "359 / 360, 19Th Main 1 St Block Rajajinagar Near Indian Bank", "addr:postcode": "560010", "addr:state": "Karnataka", "amenity": "hospital", "healthcare": "hospital", "name": "Diacon Hospital", "source": "OpenGovernmentData", "wheelchair": "yes"}}, {"type": "way", "id": 1039760097, "nodes": [9574153232, 9574153230, 9574153231, 9574153233, 9574153232], "tags": {"addr:district": "Bengaluru Urban", "addr:full": "111, West Of Chord Road, Mahalakshmipuram, Rajajinagar I Block", "addr:postcode": "560086", "addr:state": "Karnataka", "alt_name": "Fortis Hospitals Limited, Rajajinagar", "amenity": "hospital", "healthcare": "hospital", "name": "Fortis Hospital", "name:kn": "\u0cab\u0ccb\u0cb0\u0ccd\u0c9f\u0cbf\u0cb8\u0ccd \u0c86\u0cb8\u0ccd\u0caa\u0ca4\u0ccd\u0cb0\u0cc6", "source": "OpenGovernmentData"}}, {"type": "way", "id": 1076618915, "nodes": [7292235598, 9872645097, 9872645096, 7007284257, 7292235598], "tags": {"amenity": "hospital"}}, {"type": "way", "id": 1077744680, "nodes": [9881508850, 9881508849, 12809319202, 9881508848, 9881508847, 9881508850], "tags": {"amenity": "hospital"}}, {"type": "way", "id": 1141353122, "nodes": [1118254826, 10632697476, 10632697475, 10632697474, 11168817968, 1118254826], "tags": {"addr:district": "Bengaluru Urban", "addr:full": "1A/87, Dr Rajkumar Road, 4th Block, Rajajinagar", "addr:postcode": "560010", "addr:state": "Karnataka", "addr:street": "Dr Rajkumar Road", "amenity": "hospital", "emergency": "yes", "name": "Suguna Hospital", "name:kn": "\u0cb8\u0cc1\u0c97\u0cc1\u0ca3 \u0c86\u0cb8\u0ccd\u0caa\u0ca4\u0ccd\u0cb0\u0cc6", "source": "OpenGovernmentData"}}, {"type": "way", "id": 1182315656, "nodes": [10979388709, 10979388708, 10979388707, 10979388706, 10979388709], "tags": {"amenity": "hospital", "name": "SS Sparsh Hospital"}}, {"type": "way", "id": 1205832181, "nodes": [11174291860, 11174291859, 11174291858, 11174291857, 11174291860], "tags": {"amenity": "hospital"}}, {"type": "way", "id": 1307949928, "nodes": [12112512000, 1791567114, 12112511999, 12112511998, 12112511997, 12112511996, 12112512013, 12112511980, 3770161958, 4127931135, 11009573409, 12112511977, 12112511995, 12112511994, 12112511993, 11009588219, 11009573410, 12112512000], "tags": {"addr:district": "Bengaluru Urban", "addr:full": "1st Cross, Shankarapuram, Basavanagudi", "addr:postcode": "560004", "addr:state": "Karnataka", "addr:street": "DV Gundappa Road", "amenity": "hospital", "emergency": "yes", "healthcare": "hospital", "name": "Rangadore Memorial Hospital", "source": "OpenGovernmentData", "wheelchair": "yes"}}, {"type": "way", "id": 1311064558, "nodes": [11019492853, 12135993283, 4107785992, 4107785991, 12135993276, 11991711396, 11991711393, 11019492853], "tags": {"addr:district": "Bengaluru Urban", "addr:full": "Chandrika Tower, JC Road, Bengaluru", "addr:postcode": "560002", "addr:state": "Karnataka", "addr:street": "Jayachamaraja Wodeyar Road", "amenity": "hospital", "healthcare": "hospital", "name": "Trustwell Hospitals", "source": "Local Knowledge", "website": "https://trustwellhospitals.com/"}}, {"type": "way", "id": 1395462349, "nodes": [12917083997, 12917083993, 6939617697, 12917083996, 12917083995, 11799695217, 12917083997], "tags": {"addr:district": "Bengaluru Rural", "addr:full": "7Th Main, 4Th Cross, Kanakpura Main Road , Bangalore North", "addr:postcode": "560082", "addr:state": "Karnataka", "amenity": "hospital", "name": "Yadiyuru Maternity Hospital", "name:kn": "\u0caf\u0ca1\u0cbf\u0caf\u0cc2\u0cb0\u0cc1 \u0cb9\u0cc6\u0cb0\u0cbf\u0c97\u0cc6 \u0c86\u0cb8\u0ccd\u0caa\u0ca4\u0ccd\u0cb0\u0cc6", "source": "OpenGovernmentData"}}, {"type": "way", "id": 1395462350, "nodes": [12917084002, 12917084000, 12917083999, 12917083998, 1474062998, 1474062996, 12917084002], "tags": {"amenity": "hospital", "name": "Ayurveda Prathisthana Hospital"}}, {"type": "relation", "id": 2025893, "members": [{"type": "way", "ref": 150350487, "role": "outer"}, {"type": "way", "ref": 150350482, "role": "inner"}, {"type": "way", "ref": 150350484, "role": "inner"}, {"type": "way", "ref": 150350462, "role": "inner"}], "tags": {"addr:district": "Bengaluru Urban", "addr:postcode": "560002", "addr:state": "Karnataka", "amenity": "hospital", "building": "yes", "emergency": "yes", "healthcare": "hospital", "heritage": "2", "heritage:operator": "nmma", "heritage:website": "https://nmma.nic.in/nmma/exploreBuiltState.do?state=29", "name": "Vanivilas Women and Children Hospital", "name:kn": "\u0cb5\u0cbe\u0ca3\u0cbf \u0cb5\u0cbf\u0cb2\u0cbe\u0cb8 \u0cae\u0cb9\u0cbf\u0cb3\u0cc6 \u0cae\u0ca4\u0ccd\u0ca4\u0cc1 \u0cae\u0c95\u0ccd\u0c95\u0cb3 \u0c86\u0cb8\u0ccd\u0caa\u0ca4\u0ccd\u0cb0\u0cc6", "ref:nmma": "KR20010691", "source": "OpenGovernmentData", "type": "multipolygon"}}, {"type": "relation", "id": 2025895, "members": [{"type": "way", "ref": 150350483, "role": "outer"}, {"type": "way", "ref": 150350446, "role": "inner"}], "tags": {"alt_name": "Minto Opthalmic Hospital", "amenity": "hospital", "building": "yes", "emergency": "yes", "heritage": "2", "heritage:operator": "nmma", "heritage:website": "https://nmma.nic.in/nmma/exploreBuiltState.do?state=29", "name": "Minto Eye Hospital", "name:kn": "\u0cae\u0cbf\u0c82\u0c9f\u0ccb \u0c95\u0ca3\u0ccd\u0ca3\u0cbf\u0ca8 \u0c86\u0cb8\u0ccd\u0caa\u0ca4\u0ccd\u0cb0\u0cc6", "ref:nmma": "KR20010694", "type": "multipolygon", "wikidata": "Q6869655"}}]}