{"version": 0.6, "generator": "Overpass API 0.7.62.8 e802775f", "osm3s": {"timestamp_osm_base": "2026-01-13T17:43:43Z", "copyright": "The data included in this document is from www.openstreetmap.org. The data is made available under ODbL."}, "elements": [{"type": "node", "id": 542383450, "lat": 12.2922036, "lon": 76.6423443, "tags": {"amenity": "hospital", "name": "Ashoka Clinic"}}, {"type": "node", "id": 1221006184, "lat": 12.2655089, "lon": 76.644961, "tags": {"amenity": "hospital", "name": "Bone & Joint Clinic"}}, {"type": "node", "id": 1636785470, "lat": 12.2951389, "lon": 76.6412904, "tags": {"amenity": "hospital", "designation": "Diagnostic Centre", "emergency": "no", "name": "Clumax Diagnostics", "source": "MedAll"}}, {"type": "node", "id": 1637367301, "lat": 12.2972634, "lon": 76.6545837}, {"type": "node", "id": 1637367303, "lat": 12.2969061, "lon": 76.6545291}, {"type": "node", "id": 1637367304, "lat": 12.2965234, "lon": 76.6550015}, {"type": "node", "id": 1637367305, "lat": 12.2968746, "lon": 76.654744}, {"type": "node", "id": 1637367306, "lat": 12.2948195, "lon": 76.6555141}, {"type": "node", "id": 1637367318, "lat": 12.2946889, "lon": 76.655495}, {"type": "node", "id": 1637367320, "lat": 12.2962194, "lon": 76.6568201}, {"type": "node", "id": 1637367322, "lat": 12.2954437, "lon": 76.6536014}, {"type": "node", "id": 1637367323, "lat": 12.2945684, "lon": 76.6567074}, {"type": "node", "id": 1637367324, "lat": 12.2965654, "lon": 76.6546958}, {"type": "node", "id": 1637367325, "lat": 12.294951, "lon": 76.6545348}, {"type": "node", "id": 1637367326, "lat": 12.2964843, "lon": 76.6549956}, {"type": "node", "id": 1637367327, "lat": 12.2952707, "lon": 76.6546046}, {"type": "node", "id": 1637367328, "lat": 12.2973952, "lon": 76.6539717}, {"type": "node", "id": 1681456812, "lat": 12.2849783, "lon": 76.6259464, "tags": {"amenity": "hospital", "emergency": "no", "name": "Sharan Dental Care"}}, {"type": "node", "id": 1798920952, "lat": 12.2727527, "lon": 76.6272273}, {"type": "node", "id": 1798920953, "lat": 12.2730515, "lon": 76.6270047}, {"type": "node", "id": 1798920954, "lat": 12.272754, "lon": 76.6269406}, {"type": "node", "id": 1798920955, "lat": 12.2730751, "lon": 76.6272381}, {"type": "node", "id": 1798920956, "lat": 12.2728523, "lon": 76.6274567}, {"type": "node", "id": 1936807283, "lat": 12.2955672, "lon": 76.6319664}, {"type": "node", "id": 1936807310, "lat": 12.2954818, "lon": 76.63196}, {"type": "node", "id": 1936807315, "lat": 12.2962459, "lon": 76.6320174}, {"type": "node", "id": 1936807321, "lat": 12.2962087, "lon": 76.6329057}, {"type": "node", "id": 1936807322, "lat": 12.2956249, "lon": 76.6319707}, {"type": "node", "id": 1936807327, "lat": 12.2954592, "lon": 76.6328896}, {"type": "node", "id": 2499182938, "lat": 12.3151994, "lon": 76.6513152}, {"type": "node", "id": 2499182941, "lat": 12.3153042, "lon": 76.6515334}, {"type": "node", "id": 2499182943, "lat": 12.3152464, "lon": 76.6519515}, {"type": "node", "id": 2499182945, "lat": 12.3145994, "lon": 76.6518664}, {"type": "node", "id": 2499182947, "lat": 12.3146066, "lon": 76.6515667}, {"type": "node", "id": 2499182949, "lat": 12.3147078, "lon": 76.651452}, {"type": "node", "id": 3002889703, "lat": 12.3141277, "lon": 76.6513617}, {"type": "node", "id": 3002889704, "lat": 12.3123634, "lon": 76.649091}, {"type": "node", "id": 3002889705, "lat": 12.312284, "lon": 76.6518172}, {"type": "node", "id": 3002889710, "lat": 12.3146668, "lon": 76.6479132}, {"type": "node", "id": 3002889712, "lat": 12.3144252, "lon": 76.6510812}, {"type": "node", "id": 3002889713, "lat": 12.3121914, "lon": 76.6507848}, {"type": "node", "id": 3002889714, "lat": 12.3126588, "lon": 76.6479081}, {"type": "node", "id": 3002889715, "lat": 12.3124912, "lon": 76.6491201}, {"type": "node", "id": 3002889717, "lat": 12.3147647, "lon": 76.6480076}, {"type": "node", "id": 3207381826, "lat": 12.3000443, "lon": 76.6229936}, {"type": "node", "id": 3207381827, "lat": 12.3000896, "lon": 76.623177}, {"type": "node", "id": 3207381828, "lat": 12.3001176, "lon": 76.6234531}, {"type": "node", "id": 3207381829, "lat": 12.3001284, "lon": 76.6236011}, {"type": "node", "id": 3207381830, "lat": 12.3000076, "lon": 76.6245532}, {"type": "node", "id": 3207381831, "lat": 12.2989975, "lon": 76.6242594}, {"type": "node", "id": 3207381832, "lat": 12.2990601, "lon": 76.6239678}, {"type": "node", "id": 3207381833, "lat": 12.2991788, "lon": 76.6235812}, {"type": "node", "id": 3207381834, "lat": 12.2992845, "lon": 76.6233139}, {"type": "node", "id": 3207381835, "lat": 12.2994011, "lon": 76.6231593}, {"type": "node", "id": 3207381836, "lat": 12.2995392, "lon": 76.6230864}, {"type": "node", "id": 3207381837, "lat": 12.2998284, "lon": 76.6229848}, {"type": "node", "id": 3207381838, "lat": 12.3000184, "lon": 76.6229185}, {"type": "node", "id": 3224353374, "lat": 12.3121104, "lon": 76.6507986}, {"type": "node", "id": 3229089054, "lat": 12.3088189, "lon": 76.6676595}, {"type": "node", "id": 3229089055, "lat": 12.3087807, "lon": 76.6682066}, {"type": "node", "id": 3229089056, "lat": 12.3084116, "lon": 76.6681871}, {"type": "node", "id": 3229089057, "lat": 12.3084593, "lon": 76.6676367}, {"type": "node", "id": 3254793250, "lat": 12.2973151, "lon": 76.6539565}, {"type": "node", "id": 3254793251, "lat": 12.2973206, "lon": 76.6539216}, {"type": "node", "id": 3254793252, "lat": 12.2971502, "lon": 76.6539297}, {"type": "node", "id": 3254793253, "lat": 12.2971731, "lon": 76.6538458}, {"type": "node", "id": 3254793254, "lat": 12.2972839, "lon": 76.6539156}, {"type": "node", "id": 3254793255, "lat": 12.2972924, "lon": 76.6538727}, {"type": "node", "id": 3272654654, "lat": 12.2961243, "lon": 76.6435138}, {"type": "node", "id": 3272654655, "lat": 12.2961243, "lon": 76.6438127}, {"type": "node", "id": 3272655174, "lat": 12.2962491, "lon": 76.6438026}, {"type": "node", "id": 3272655175, "lat": 12.2962491, "lon": 76.6438127}, {"type": "node", "id": 3272655176, "lat": 12.2962518, "lon": 76.6435138}, {"type": "node", "id": 3272655177, "lat": 12.2962518, "lon": 76.6435535}, {"type": "node", "id": 3272655182, "lat": 12.2962716, "lon": 76.6435535}, {"type": "node", "id": 3272655183, "lat": 12.2962716, "lon": 76.6438026}, {"type": "node", "id": 3358924721, "lat": 12.2888478, "lon": 76.6520122}, {"type": "node", "id": 3358924722, "lat": 12.2889281, "lon": 76.6524037}, {"type": "node", "id": 3358924723, "lat": 12.2887275, "lon": 76.6522295}, {"type": "node", "id": 3358927311, "lat": 12.2887558, "lon": 76.6520436}, {"type": "node", "id": 3358927312, "lat": 12.2887086, "lon": 76.6523623}, {"type": "node", "id": 3377620761, "lat": 12.3120415, "lon": 76.6927032, "tags": {"addr:city": "Mysore", "addr:housenumber": "237", "addr:postcode": "5700029", "addr:street": "Teachers Layout", "amenity": "hospital", "name": "Dr S Kalyana Sundaram"}}, {"type": "node", "id": 3577976680, "lat": 12.3056143, "lon": 76.6958704}, {"type": "node", "id": 3577976681, "lat": 12.3055901, "lon": 76.6960343}, {"type": "node", "id": 3577976682, "lat": 12.3049953, "lon": 76.6959425}, {"type": "node", "id": 3577976683, "lat": 12.3050195, "lon": 76.6957785}, {"type": "node", "id": 3630605049, "lat": 12.2599361, "lon": 76.6443444, "tags": {"addr:district": "Mysuru", "addr:full": "1075/B Akkamahadevi Road,Killa Mohalla Jp Nagar, 2nd Stage", "addr:postcode": "570008", "addr:state": "Karnataka", "amenity": "hospital", "name": "Panacea Hospital", "source": "OpenGovernmentData"}}, {"type": "node", "id": 3630708635, "lat": 12.291938, "lon": 76.6251452, "tags": {"amenity": "hospital", "name": "Medical Shop"}}, {"type": "node", "id": 3630719491, "lat": 12.2594555, "lon": 76.6449273, "tags": {"amenity": "hospital", "name": "Government Hospital", "name:kn": "\u0cb8\u0cb0\u0ccd\u0c95\u0cbe\u0cb0\u0cbf \u0c86\u0cb8\u0ccd\u0caa\u0ca4\u0ccd\u0cb0\u0cc6"}}, {"type": "node", "id": 3630740152, "lat": 12.306409, "lon": 76.6455915, "tags": {"addr:district": "Mysuru", "addr:full": "313, Deewans Road Near Marimallappa College Deewans Road", "addr:postcode": "570024", "addr:state": "Karnataka", "amenity": "hospital", "name": "Sushrutha Eye Hospital", "source": "OpenGovernmentData"}}, {"type": "node", "id": 3632571466, "lat": 12.2949273, "lon": 76.6547116}, {"type": "node", "id": 3997947136, "lat": 12.3023267, "lon": 76.6324517, "tags": {"addr:city": "Mysuru", "addr:postcode": "570009", "addr:street": "Sarasvatipuram 4th Main", "amenity": "hospital", "name": "Katil Dental clinic"}}, {"type": "node", "id": 4326778366, "lat": 12.3145687, "lon": 76.6498592}, {"type": "node", "id": 4326778367, "lat": 12.3146873, "lon": 76.6488488}, {"type": "node", "id": 4326778374, "lat": 12.3145644, "lon": 76.649896}, {"type": "node", "id": 4326778385, "lat": 12.3144588, "lon": 76.650795}, {"type": "node", "id": 4326781882, "lat": 12.3146939, "lon": 76.6487768}, {"type": "node", "id": 4326786590, "lat": 12.3144417, "lon": 76.6479126}, {"type": "node", "id": 4692464008, "lat": 12.2780204, "lon": 76.6294552}, {"type": "node", "id": 4692464009, "lat": 12.2780827, "lon": 76.6292598}, {"type": "node", "id": 4692464010, "lat": 12.2778146, "lon": 76.6291703}, {"type": "node", "id": 4692464011, "lat": 12.2777523, "lon": 76.6293656}, {"type": "node", "id": 4852190221, "lat": 12.2973328, "lon": 76.6413368, "tags": {"amenity": "hospital", "name": "Nethradhama Eye Hospital", "name:kn": "\u0ca8\u0cc7\u0ca4\u0ccd\u0cb0\u0ca7\u0cbe\u0cae \u0c95\u0ca3\u0ccd\u0ca3\u0cbf\u0ca8 \u0c86\u0cb8\u0ccd\u0caa\u0ca4\u0ccd\u0cb0\u0cc6"}}, {"type": "node", "id": 4892779430, "lat": 12.2882524, "lon": 76.6269171, "tags": {"addr:district": "Mysuru", "addr:full": "981, Panchamantra Road, Kuvempu Nagara, Mysore", "addr:postcode": "570023", "addr:state": "Karnataka", "addr:street": "Pancamantra Road", "amenity": "hospital", "name": "Netra Jyothi Eye Hospital & Phaco Cataract Surgery Centre", "name:en": "Netra Jyothi Eye Hospital, Dr Mahesh Kumar", "source": "Local Knowledge"}}, {"type": "node", "id": 4896307138, "lat": 12.3038177, "lon": 76.679032}, {"type": "node", "id": 4896307139, "lat": 12.3033522, "lon": 76.6790185}, {"type": "node", "id": 4896307140, "lat": 12.3033423, "lon": 76.6793758}, {"type": "node", "id": 4896307141, "lat": 12.3038077, "lon": 76.6793894}, {"type": "node", "id": 4896313429, "lat": 12.2918611, "lon": 76.6941472}, {"type": "node", "id": 4896313430, "lat": 12.2916986, "lon": 76.6951315}, {"type": "node", "id": 4896313431, "lat": 12.2908861, "lon": 76.6953461}, {"type": "node", "id": 4896313432, "lat": 12.2905769, "lon": 76.6942893}, {"type": "node", "id": 5112209424, "lat": 12.3147301, "lon": 76.6518836}, {"type": "node", "id": 5773582342, "lat": 12.2918023, "lon": 76.6359379, "tags": {"amenity": "hospital", "healthcare": "hospital", "name": "Government Hospital", "name:kn": "\u0cb8\u0cb0\u0ccd\u0c95\u0cbe\u0cb0\u0cbf \u0c86\u0cb8\u0ccd\u0caa\u0ca4\u0ccd\u0cb0\u0cc6"}}, {"type": "node", "id": 5977292538, "lat": 12.2963218, "lon": 76.6568356}, {"type": "node", "id": 6938637672, "lat": 12.3019925, "lon": 76.6201584, "tags": {"addr:district": "Mysuru", "addr:full": "No.25, 1st Main , T.K. Layout, Near Maruthi Temple Kuvempunagar", "addr:postcode": "570009", "addr:state": "Karnataka", "amenity": "hospital", "name": "Murthy Eye Hospital", "source": "OpenGovernmentData"}}, {"type": "node", "id": 6938762575, "lat": 12.2988923, "lon": 76.6455086, "tags": {"addr:district": "Mysuru", "addr:full": "No. 873, M. G. Road, Laksmipuram", "addr:postcode": "570004", "addr:state": "Karnataka", "amenity": "hospital", "healthcare": "hospital", "name": "Preethi Centre For Oncology", "source": "OpenGovernmentData"}}, {"type": "node", "id": 6938777920, "lat": 12.3161539, "lon": 76.6510481, "tags": {"addr:district": "Mysuru", "addr:full": "1475, 1 st Floor , Above Hotel Venkatesh Bhavan , Near Ayurvedic Hospital , Mission Hospital Road", "addr:postcode": "570001", "addr:state": "Karnataka", "amenity": "hospital", "healthcare": "hospital", "name": "Netra Jyothi Eye Hospital", "name:kn": "\u0ca8\u0cc7\u0ca4\u0ccd\u0cb0\u0c9c\u0ccd\u0caf\u0ccb\u0ca4\u0cbf \u0c95\u0ca3\u0ccd\u0ca3\u0cbf\u0ca8 \u0c86\u0cb8\u0ccd\u0caa\u0ca4\u0ccd\u0cb0\u0cc6", "source": "OpenGovernmentData"}}, {"type": "node", "id": 6938830624, "lat": 12.3165288, "lon": 76.6294833, "tags": {"addr:district": "Mysuru", "addr:full": "Near Nilgiris Super Market, Vinoba Road, Hunsur Road", "addr:postcode": "570012", "addr:state": "Karnataka", "amenity": "hospital", "name": "City Bone and Joint Center", "source": "OpenGovernmentData"}}, {"type": "node", "id": 6938918643, "lat": 12.2927546, "lon": 76.6271737, "tags": {"addr:district": "Mysuru", "addr:full": "#P2, Jcst, E & F Block,Anikethana Road, Kuvemu Nagar,Behind Gnana Ganga School", "addr:postcode": "570023", "addr:state": "Karnataka", "amenity": "hospital", "name": "Bhanavi Hospital", "name:kn": "\u0cad\u0cbe\u0ca8\u0cb5\u0cbf \u0c86\u0cb8\u0ccd\u0caa\u0ca4\u0ccd\u0cb0\u0cc6", "source": "OpenGovernmentData"}}, {"type": "node", "id": 6944194878, "lat": 12.2902204, "lon": 76.6494012, "tags": {"addr:district": "Mysuru", "addr:full": "Narayana Shastry Road, Chamundipuram", "addr:postcode": "570004", "addr:state": "Karnataka", "amenity": "hospital", "name": "Mythri Hospital, Mysuru", "name:kn": "\u0cae\u0cc8\u0ca4\u0ccd\u0cb0\u0cbf \u0c86\u0cb8\u0ccd\u0caa\u0ca4\u0ccd\u0cb0\u0cc6", "source": "OpenGovernmentData"}}, {"type": "node", "id": 6944231442, "lat": 12.2972852, "lon": 76.6536548, "tags": {"addr:district": "Mysuru", "addr:full": "OppositeTo Sbm Bank, J.S.S Hospital, Ramanuja Road, Agrahara", "addr:postcode": "570004", "addr:state": "Karnataka", "amenity": "hospital", "name": "Mithi Surgery Hospital", "source": "OpenGovernmentData"}}, {"type": "node", "id": 6944276822, "lat": 12.2887482, "lon": 76.6496627, "tags": {"addr:district": "Mysuru", "addr:full": "#2876, 4Th Cross,Narayana Shastry Road, Chamundipuram,Opposite G.R.T,Chamundipuram", "addr:postcode": "570004", "addr:state": "Karnataka", "amenity": "hospital", "name": "Vidyaranya Hospital (P) Ltd", "source": "OpenGovernmentData"}}, {"type": "node", "id": 6944276841, "lat": 12.2982394, "lon": 76.6443821, "tags": {"addr:district": "Mysuru", "addr:full": "No. 877 / 1, Dewans Road, Lakshmipuram", "addr:postcode": "570004", "addr:state": "Karnataka", "amenity": "hospital", "healthcare": "hospital", "name": "Usha Kiran Eye Hospital and Usha Kiran Charitable Trust", "source": "OpenGovernmentData"}}, {"type": "node", "id": 6944276847, "lat": 12.3040307, "lon": 76.6814382, "tags": {"addr:district": "Mysuru", "addr:full": "No. 73/B, Vinaya Marga, Siddarthanagar", "addr:postcode": "570011", "addr:state": "Karnataka", "amenity": "hospital", "name": "A V Hospital", "source": "OpenGovernmentData"}}, {"type": "node", "id": 6944561971, "lat": 12.2861464, "lon": 76.6518205, "tags": {"addr:district": "Mysuru", "addr:full": "# 1120/F-58 B, 1st Main, J. L. B. Road, Vidyaranyapuram", "addr:postcode": "570008", "addr:state": "Karnataka", "amenity": "hospital", "name": "Rama Krishna Hospital, Mysuru", "source": "OpenGovernmentData"}}, {"type": "node", "id": 6944996519, "lat": 12.2952836, "lon": 76.648398, "tags": {"addr:district": "Mysuru", "addr:full": "Sita Ranga Healthcare Complex,No.1659, Narayan Shastri Road,Narayan Shastri Road, Lakshmipuram", "addr:postcode": "570008", "addr:state": "Karnataka", "amenity": "hospital", "healthcare": "hospital", "name": "Vaatsalaya Hospital, Mysuru", "source": "OpenGovernmentData"}}, {"type": "node", "id": 6945192067, "lat": 12.3101589, "lon": 76.6563984, "tags": {"addr:district": "Mysuru", "addr:full": "410 Contour Road Gokulam 3Road Stage", "addr:postcode": "570007", "addr:state": "Karnataka", "amenity": "hospital", "healthcare": "hospital", "name": "Ramesh Hospital For Piles and Proctology", "source": "OpenGovernmentData"}}, {"type": "node", "id": 6945716390, "lat": 12.2965546, "lon": 76.6466251, "tags": {"addr:district": "Mysuru", "addr:full": "933 Hemaganga 1st Main Laxmipuram", "addr:postcode": "570004", "addr:state": "Karnataka", "amenity": "hospital", "healthcare": "hospital", "name": "Simha Heart Foundation", "source": "OpenGovernmentData"}}, {"type": "node", "id": 6947293187, "lat": 12.3113639, "lon": 76.647771, "tags": {"addr:district": "Mysuru", "addr:full": "Opposite Sangeetha Lodge, 1374, Naryana Shastri Road", "addr:postcode": "570001", "addr:state": "Karnataka", "amenity": "hospital", "healthcare": "hospital", "name": "Sharda Surgery and Cyro- Surgery Centre", "source": "OpenGovernmentData"}}, {"type": "node", "id": 6948503464, "lat": 12.2922659, "lon": 76.6422933, "tags": {"addr:district": "Mysuru", "addr:full": "1498, Ramaiyer Road, K.M.Puram, Near Sharadavilas Educational Institutions", "addr:postcode": "570004", "addr:state": "Karnataka", "amenity": "hospital", "name": "Raman Memorial Hospital-Mysore", "source": "OpenGovernmentData"}}, {"type": "node", "id": 6948620732, "lat": 12.3144454, "lon": 76.6552249, "tags": {"addr:district": "Mysuru", "addr:full": "25/1A Irwin Road", "addr:postcode": "570024", "addr:state": "Karnataka", "amenity": "hospital", "healthcare": "hospital", "name": "Chitra's Hospital", "source": "OpenGovernmentData"}}, {"type": "node", "id": 7202979471, "lat": 12.308723, "lon": 76.616929, "tags": {"addr:district": "Mysore", "addr:full": "Naimisham Campus, Road No.3, Manasagangothri,Mysuru, Karnataka", "addr:postcode": "570006", "addr:state": "Karnataka", "amenity": "hospital", "healthcare": "hospital", "name": "All India Institute of Speech and Hearing, Mysore", "source": "OpenGovernmentData"}}, {"type": "node", "id": 7562027204, "lat": 12.2996624, "lon": 76.6524005, "tags": {"addr:district": "Mysuru", "addr:full": "Agrahara, Fort Mohalla, Mysuru", "addr:postcode": "570004", "addr:state": "Karnataka", "amenity": "hospital", "name": "Anagha Hospital", "source": "Local Knowledge"}}, {"type": "node", "id": 7562027209, "lat": 12.2873804, "lon": 76.6242974, "tags": {"addr:district": "Mysuru", "addr:full": "Vishwapatha Road, Kuvempu Nagara, Mysore", "addr:postcode": "570023", "addr:state": "Karnataka", "amenity": "hospital", "name": "Sourabha Superspeciality Heart Care Centre", "source": "Local Knowledge"}}, {"type": "node", "id": 7562027210, "lat": 12.2863447, "lon": 76.6309373, "tags": {"addr:district": "Mysuru", "addr:full": "Adhichuchunagiri Road, Kuvempu Nagara, Mysore", "addr:postcode": "570023", "addr:state": "Karnataka", "amenity": "hospital", "name": "Dr. Agarwals Eye Hospital", "source": "Local Knowledge"}}, {"type": "node", "id": 7562027211, "lat": 12.3079269, "lon": 76.6471859, "tags": {"addr:district": "Mysuru", "addr:full": "ESI Hospital Road, Subbarayanakere, Chamrajpura, Mysuru", "addr:postcode": "570004", "addr:state": "Karnataka", "amenity": "hospital", "healthcare": "hospital", "name": "ESI Hospital", "name:kn": "\u0c87\u0c8e\u0cb8\u0ccd\u0c90 \u0c86\u0cb8\u0ccd\u0caa\u0ca4\u0ccd\u0cb0\u0cc6", "operator": "Employees' State Insurance", "operator:short": "ESI", "operator:wikidata": "Q3595726", "source": "Local Knowledge"}}, {"type": "node", "id": 7562027231, "lat": 12.3021508, "lon": 76.6281828, "tags": {"addr:district": "Mysuru", "addr:full": "14th Main Road, Saraswathipuram, Mysore", "addr:postcode": "570009", "addr:state": "Karnataka", "amenity": "hospital", "name": "Agasthya Hospital", "name:kn": "\u0c85\u0c97\u0cb8\u0ccd\u0ca4\u0ccd\u0caf \u0c86\u0cb8\u0ccd\u0caa\u0ca4\u0ccd\u0cb0\u0cc6", "source": "Local Knowledge"}}, {"type": "node", "id": 7562027237, "lat": 12.3193378, "lon": 76.663692, "tags": {"addr:district": "Mysuru", "addr:full": "Mohammed Sait Block, Earangere, Gayathri Puram, Mysuru", "addr:postcode": "570007", "addr:state": "Karnataka", "amenity": "hospital", "name": "Al Ansaar Hospital", "name:kn": "\u0c85\u0cb2\u0ccd \u0c85\u0ca8\u0ccd\u0cb8\u0cbe\u0cb0\u0ccd \u0c86\u0cb8\u0ccd\u0caa\u0ca4\u0ccd\u0cb0\u0cc6", "source": "Local Knowledge"}}, {"type": "node", "id": 7562027241, "lat": 12.2886897, "lon": 76.6223539, "tags": {"addr:district": "Mysuru", "addr:full": "452, Paduvana Road, A and B Complex, Kuvempunagara North, TK Layout, Mysore", "addr:postcode": "570009", "addr:state": "Karnataka", "amenity": "hospital", "name": "Prerana Hospital", "name:kn": "\u0caa\u0ccd\u0cb0\u0cc7\u0cb0\u0ca3 \u0c86\u0cb8\u0ccd\u0caa\u0ca4\u0ccd\u0cb0\u0cc6", "source": "Local Knowledge"}}, {"type": "node", "id": 7562027243, "lat": 12.2835486, "lon": 76.6274948, "tags": {"addr:district": "Mysuru", "addr:full": "Khb Colony, Kuvempu Nagara, Mysore", "addr:postcode": "570008", "addr:state": "Karnataka", "amenity": "hospital", "name": "Bhanavi Hospital", "name:kn": "\u0cad\u0cbe\u0ca8\u0cb5\u0cbf \u0c86\u0cb8\u0ccd\u0caa\u0ca4\u0ccd\u0cb0\u0cc6", "source": "Local Knowledge"}}, {"type": "node", "id": 7562027246, "lat": 12.2988631, "lon": 76.6975923, "tags": {"addr:district": "Mysuru", "addr:full": "T Narsipura Road, Alanahalli Village, Mysuru", "addr:postcode": "570029", "addr:state": "Karnataka", "amenity": "hospital", "name": "Nirmala Hospital", "name:kn": "\u0ca8\u0cbf\u0cb0\u0ccd\u0cae\u0cb2 \u0c86\u0cb8\u0ccd\u0caa\u0ca4\u0ccd\u0cb0\u0cc6", "source": "Local Knowledge"}}, {"type": "node", "id": 7562027253, "lat": 12.2728089, "lon": 76.6274538, "tags": {"addr:district": "Mysuru", "addr:full": "Sriramapura, Mysore", "addr:postcode": "570023", "addr:state": "Karnataka", "amenity": "hospital", "name": "Nataraja Hospital", "source": "Local Knowledge"}}, {"type": "node", "id": 7562027258, "lat": 12.2625556, "lon": 76.6235469, "tags": {"addr:district": "Mysuru", "addr:full": "Sriramapura, BEML Nagar, Mysore", "addr:postcode": "570008", "addr:state": "Karnataka", "amenity": "hospital", "name": "Danvantri Hospital", "name:kn": "\u0ca7\u0ca8\u0cb5\u0c82\u0ca4\u0ccd\u0cb0\u0cbf \u0c86\u0cb8\u0ccd\u0caa\u0ca4\u0ccd\u0cb0\u0cc6", "source": "Local Knowledge"}}, {"type": "node", "id": 7562027263, "lat": 12.3015129, "lon": 76.6933065, "tags": {"addr:district": "Mysuru", "addr:full": "Narsipura Road, Nagara, Mysuru", "addr:postcode": "570028", "addr:state": "Karnataka", "amenity": "hospital", "name": "Shakthi Hill View Hospital", "source": "Local Knowledge"}}, {"type": "node", "id": 7562027269, "lat": 12.3003215, "lon": 76.6239723, "tags": {"addr:district": "Mysuru", "addr:full": "Vishwashanti PU College, Kamakshi Hospital Road, Kuvempunagara North, Kuvempu Nagara, Mysore", "addr:postcode": "570009", "addr:state": "Karnataka", "amenity": "hospital", "name": "Sigma Hospital", "source": "Local Knowledge"}}, {"type": "node", "id": 7562027270, "lat": 12.2960015, "lon": 76.6393656, "tags": {"addr:district": "Mysuru", "addr:full": "Chamarajapura, Chamarajapuram Mohalla, Lakshmipuram, Mysore", "addr:postcode": "570004", "addr:state": "Karnataka", "amenity": "hospital", "name": "Sindhu Eye Hospital", "source": "Local Knowledge"}}, {"type": "node", "id": 7562027272, "lat": 12.301903, "lon": 76.6433102, "tags": {"addr:district": "Mysuru", "addr:full": "Mangalore - Mysore Highway, Chamarajapura, Chamarajapuram Mohalla, Lakshmipuram, Mysuru", "addr:postcode": "570005", "addr:state": "Karnataka", "amenity": "hospital", "name": "Preety Cancer Hospital", "source": "Local Knowledge"}}, {"type": "node", "id": 7562027276, "lat": 12.316897, "lon": 76.6504964, "tags": {"addr:district": "Mysuru", "addr:full": "Near K.R Hospital, Kabir Road, CFTRI Campus, Yadavagiri, Mysuru", "addr:postcode": "570021", "addr:state": "Karnataka", "amenity": "hospital", "healthcare": "hospital", "name": "Hitech Kidney Stone Hospital", "source": "Local Knowledge"}}, {"type": "node", "id": 7562027283, "lat": 12.3174549, "lon": 76.6913103, "tags": {"addr:district": "Mysuru", "addr:full": "Shakthi Nagar Post, Dr Rajkumar Main Road, JSS Layout, Mysuru", "addr:postcode": "570011", "addr:state": "Karnataka", "amenity": "hospital", "name": "Dr. Jyothis Health Care Private Limited", "source": "Local Knowledge"}}, {"type": "node", "id": 7562027284, "lat": 12.2875301, "lon": 76.6523576, "tags": {"addr:district": "Mysuru", "addr:full": "Bettadpura, Mysuru", "addr:postcode": "570004", "addr:state": "Karnataka", "amenity": "hospital", "name": "Leelavathi Hospital", "source": "Local Knowledge"}}, {"type": "node", "id": 7562027290, "lat": 12.2354134, "lon": 76.6049755, "tags": {"addr:district": "Mysuru", "addr:full": "Kalalavadigate, HD Kote Road, Mysuru", "addr:postcode": "570008", "addr:state": "Karnataka", "amenity": "hospital", "name": "Queen Mary Hospital", "source": "Local Knowledge"}}, {"type": "node", "id": 7562027299, "lat": 12.302911, "lon": 76.6443991, "tags": {"addr:district": "Mysuru", "addr:full": "Dewance Road, Near Chamraja Mohalla, Mysuru", "addr:postcode": "570024", "addr:state": "Karnataka", "amenity": "hospital", "name": "Sapthagiri Hospital", "name:kn": "\u0cb8\u0caa\u0ccd\u0ca4\u0c97\u0cbf\u0cb0\u0cbf \u0c86\u0cb8\u0ccd\u0caa\u0ca4\u0ccd\u0cb0\u0cc6", "source": "Local Knowledge"}}, {"type": "node", "id": 8188038278, "lat": 12.3141191, "lon": 76.6493079, "tags": {"addr:full": "Opp Mysore Medical College, KR Hospital Compound, Irwin Rd, Devaraja Mohalla, Devraj Mohalla, Mysuru, Karnataka", "addr:state": "Karnataka", "amenity": "hospital", "healthcare": "hospital", "name": "Cheluvamba Hospital", "name:kn": "\u0c9a\u0cc6\u0cb2\u0cc1\u0cb5\u0cbe\u0c82\u0cac \u0c86\u0cb8\u0ccd\u0caa\u0ca4\u0ccd\u0cb0\u0cc6"}}, {"type": "node", "id": 8188038332, "lat": 12.3127981, "lon": 76.6162139, "tags": {"addr:full": "university of mysore campus, Manasa Gangothiri, Mysuru, Karnataka", "addr:state": "Karnataka", "amenity": "hospital", "healthcare": "hospital", "name": "Government Hospital", "name:kn": "\u0cb8\u0cb0\u0ccd\u0c95\u0cbe\u0cb0\u0cbf \u0c86\u0cb8\u0ccd\u0caa\u0ca4\u0ccd\u0cb0\u0cc6"}}, {"type": "node", "id": 8188038566, "lat": 12.3017591, "lon": 76.6189567, "tags": {"addr:full": "TK layout, 90, Kuvempunagara North, TK Layout, Mysuru, Karnataka", "addr:state": "Karnataka", "amenity": "hospital", "name": "Government Hospital", "name:kn": "\u0cb8\u0cb0\u0ccd\u0c95\u0cbe\u0cb0\u0cbf \u0c86\u0cb8\u0ccd\u0caa\u0ca4\u0ccd\u0cb0\u0cc6"}}, {"type": "node", "id": 8188038588, "lat": 12.3003795, "lon": 76.6263986, "tags": {"addr:full": "662, Vishwamanava Double Road, Saraswathipuram, Mysuru, Karnataka", "addr:state": "Karnataka", "amenity": "hospital", "name": "Poornima Hospital", "name:kn": "\u0caa\u0cc2\u0cb0\u0ccd\u0ca3\u0cbf\u0cae\u0cbe \u0c86\u0cb8\u0ccd\u0caa\u0ca4\u0ccd\u0cb0\u0cc6"}}, {"type": "node", "id": 8188038825, "lat": 12.2844714, "lon": 76.6419027, "tags": {"addr:full": "Ashokapuram, Mysuru, Karnataka", "addr:state": "Karnataka", "amenity": "hospital", "name": "St. Marys DE Addiction Hospital"}}, {"type": "node", "id": 8188038829, "lat": 12.2822952, "lon": 76.620141, "tags": {"addr:full": "Dakshineshwara Marga, Ramakrishnanagar, Mysuru, Karnataka", "addr:state": "Karnataka", "amenity": "hospital", "name": "Suyog Hospital"}}, {"type": "node", "id": 8188038832, "lat": 12.2797607, "lon": 76.6253639, "tags": {"addr:full": "State Bank Of Mysore, 671/B, M Block, Nrupatunga Rd, Kuvempu Nagar 1st Stage, Kuvempu Nagara, Mysuru, Karnataka", "addr:state": "Karnataka", "amenity": "hospital", "name": "Karuna Hospital", "name:kn": "\u0c95\u0cb0\u0cc1\u0ca3\u0cbe \u0c86\u0cb8\u0ccd\u0caa\u0ca4\u0ccd\u0cb0\u0cc6"}}, {"type": "node", "id": 8188038843, "lat": 12.2650041, "lon": 76.6356659, "tags": {"addr:full": "N H Palya, Block D, JP Nagar, Mysuru, Karnataka 5700031", "addr:state": "Karnataka", "amenity": "hospital", "name": "Kamakshi Hospital", "name:kn": "\u0c95\u0cbe\u0cae\u0cbe\u0c95\u0ccd\u0cb7\u0cbf \u0c86\u0cb8\u0ccd\u0caa\u0ca4\u0ccd\u0cb0\u0cc6"}}, {"type": "node", "id": 8984979754, "lat": 12.2996984, "lon": 76.6238224, "tags": {"addr:city": "Mysuru", "addr:postcode": "570009", "addr:street": "Kamakshi Hospital Road", "amenity": "hospital", "healthcare": "hospital", "healthcare:speciality": "general;paediatrics;dentist;vaccination", "name": "Kamakshi Hospital", "name:kn": "\u0c95\u0cbe\u0cae\u0cbe\u0c95\u0ccd\u0cb7\u0cbf \u0c86\u0cb8\u0ccd\u0caa\u0ca4\u0ccd\u0cb0\u0cc6"}}, {"type": "node", "id": 11067289535, "lat": 12.2957207, "lon": 76.6567861}, {"type": "node", "id": 11410061744, "lat": 12.3144389, "lon": 76.6509376}, {"type": "way", "id": 150869510, "nodes": [1637367328, 3254793250, 3254793251, 3254793254, 3254793255, 3254793253, 3254793252, 1637367322, 1637367327, 1637367325, 3632571466, 1637367306, 1637367318, 1637367323, 11067289535, 1637367320, 5977292538, 1637367326, 1637367304, 1637367324, 1637367305, 1637367303, 1637367301, 1637367328], "tags": {"addr:city": "Mysuru", "addr:street": "Ramanuja Road", "amenity": "hospital", "emergency": "yes", "name": "JSS Hospital", "name:kn": "\u0c9c\u0cc7.\u0c8e\u0cb8\u0ccd.\u0c8e\u0cb8\u0ccd. \u0c86\u0cb8\u0ccd\u0caa\u0ca4\u0ccd\u0cb0\u0cc6"}}, {"type": "way", "id": 168666666, "nodes": [1798920953, 1798920954, 1798920952, 1798920956, 1798920955, 1798920953], "tags": {"amenity": "hospital", "name": "Poornima Hospital", "name:kn": "\u0caa\u0cc2\u0cb0\u0ccd\u0ca3\u0cbf\u0cae\u0cbe \u0c86\u0cb8\u0ccd\u0caa\u0ca4\u0ccd\u0cb0\u0cc6"}}, {"type": "way", "id": 183313649, "nodes": [1936807327, 1936807321, 1936807315, 1936807322, 1936807283, 1936807310, 1936807327], "tags": {"alt_name": "B G S Apollo Hospital", "amenity": "hospital", "emergency": "yes", "name": "Apollo Hospital", "name:kn": "\u0c85\u0caa\u0cca\u0cb2\u0cca \u0c86\u0cb8\u0ccd\u0caa\u0ca4\u0ccd\u0cb0\u0cc6"}}, {"type": "way", "id": 242454055, "nodes": [2499182938, 2499182941, 2499182943, 5112209424, 2499182945, 2499182947, 2499182949, 2499182938], "tags": {"addr:city": "Mysore", "addr:postcode": "570001", "addr:street": "Sayyaji Rao Road", "amenity": "hospital", "building": "yes", "healthcare": "hospital", "name": "Government Ayurveda Medical College", "name:kn": "\u0cb8\u0cb0\u0ccd\u0c95\u0cbe\u0cb0\u0cbf \u0c85\u0caf\u0cc1\u0cb0\u0ccd\u0cb5\u0cc7\u0ca6 \u0c95\u0cbe\u0cb2\u0cc7\u0c9c\u0cc1"}}, {"type": "way", "id": 296503412, "nodes": [3002889717, 3002889710, 4326786590, 3002889714, 3002889704, 3002889715, 3002889713, 3224353374, 3002889705, 3002889703, 3002889712, 11410061744, 4326778385, 4326778374, 4326778366, 4326778367, 4326781882, 3002889717], "tags": {"addr:district": "Mysuru", "addr:full": "Irwin Road, Mysuru", "addr:postcode": "570001", "addr:state": "Karnataka", "alt_name": "K R Hospital", "amenity": "hospital", "emergency": "yes", "healthcare": "hospital", "name": "Krishna Rajendra Hospital", "name:etymology:wikidata": "Q2429324", "name:kn": "\u0c95\u0cc3\u0cb7\u0ccd\u0ca3\u0cb0\u0cbe\u0c9c\u0cc7\u0c82\u0ca6\u0ccd\u0cb0 \u0c86\u0cb8\u0ccd\u0caa\u0ca4\u0ccd\u0cb0\u0cc6", "source": "OpenGovernmentData"}}, {"type": "way", "id": 314691237, "nodes": [3207381826, 3207381827, 3207381828, 3207381829, 3207381830, 3207381831, 3207381832, 3207381833, 3207381834, 3207381835, 3207381836, 3207381837, 3207381838, 3207381826], "tags": {"addr:city": "Mysuru", "addr:street": "Kamakshi Hospital Road", "amenity": "hospital", "name": "Kamakshi Hospital", "name:kn": "\u0c95\u0cbe\u0cae\u0cbe\u0c95\u0ccd\u0cb7\u0cbf \u0c86\u0cb8\u0ccd\u0caa\u0ca4\u0ccd\u0cb0\u0cc6"}}, {"type": "way", "id": 316747947, "nodes": [3229089054, 3229089055, 3229089056, 3229089057, 3229089054], "tags": {"addr:city": "Mysuru", "addr:district": "Mysuru", "addr:full": "T Narasipura Road, Opp Nazarbad Police Station", "addr:postcode": "570010", "addr:state": "Karnataka", "addr:street": "Bannur Road", "amenity": "hospital", "building": "yes", "name": "Gopalagowda Shanthaveri Memorial Hospital", "name:kn": "\u0cb6\u0cbe\u0c82\u0ca4\u0cb5\u0cc7\u0cb0\u0cbf \u0c97\u0ccb\u0caa\u0cbe\u0cb2\u0c97\u0ccc\u0ca1 \u0c86\u0cb8\u0ccd\u0caa\u0ca4\u0ccd\u0cb0\u0cc6", "source": "OpenGovernmentData"}}, {"type": "way", "id": 320649146, "nodes": [3272655177, 3272655182, 3272655183, 3272655174, 3272655175, 3272654655, 3272654654, 3272655176, 3272655177], "tags": {"addr:district": "Mysuru", "addr:full": "966/2, Jlb Road, Chamrajamohalla, Lakshmipuram", "addr:postcode": "570004", "addr:state": "Karnataka", "amenity": "hospital", "building": "yes", "emergency": "no", "name": "Vasan Eye Care Hospital, Mysuru", "source": "OpenGovernmentData"}}, {"type": "way", "id": 329067435, "nodes": [3358924721, 3358924722, 3358927312, 3358924723, 3358927311, 3358924721], "tags": {"amenity": "hospital"}}, {"type": "way", "id": 352015023, "nodes": [3577976680, 3577976681, 3577976682, 3577976683, 3577976680], "tags": {"addr:city": "Mysuru", "addr:district": "Mysuru", "addr:full": "Teresian Circle, Siddartha Nagar", "addr:postcode": "570011", "addr:state": "Karnataka", "amenity": "hospital", "name": "Cauvery Hospital", "name:kn": "\u0c95\u0cbe\u0cb5\u0cc7\u0cb0\u0cbf \u0c86\u0cb8\u0ccd\u0caa\u0ca4\u0ccd\u0cb0\u0cc6", "source": "OpenGovernmentData"}}, {"type": "way", "id": 475505915, "nodes": [4692464008, 4692464009, 4692464010, 4692464011, 4692464008], "tags": {"addr:district": "Mysuru", "addr:full": "No. 644, 4Th Main, Arvind Nagar", "addr:postcode": "570023", "addr:state": "Karnataka", "amenity": "hospital", "building": "yes", "name": "Arvinda Nursing Home", "name:kn": "\u0c85\u0cb0\u0cb5\u0cbf\u0c82\u0ca6 \u0ca8\u0cb0\u0ccd\u0cb8\u0cbf\u0c82\u0c97\u0ccd \u0cb9\u0ccb\u0cae\u0ccd", "source": "OpenGovernmentData"}}, {"type": "way", "id": 498147947, "nodes": [4896307138, 4896307139, 4896307140, 4896307141, 4896307138], "tags": {"addr:city": "Mysuru", "addr:housenumber": "H-1", "addr:street": "Vinaya Marga", "amenity": "hospital", "name": "MRC Eye Hospital", "phone": "0821 247 2102"}}, {"type": "way", "id": 498148690, "nodes": [4896313429, 4896313430, 4896313431, 4896313432, 4896313429], "tags": {"addr:city": "Mysuru", "addr:street": "Lalitadripura Road", "amenity": "hospital", "name": "JSS Ayurveda Hospital", "operator": "\u0c9c\u0cc7 \u0c8e\u0cb8\u0ccd \u0c8e\u0cb8\u0ccd \u0c85\u0caf\u0cc1\u0cb0\u0ccd\u0cb5\u0cc7\u0ca6 \u0c86\u0cb8\u0ccd\u0caa\u0ca4\u0ccd\u0cb0\u0cc6"}}]}