{"version": 0.6, "generator": "Overpass API 0.7.62.8 e802775f", "osm3s": {"timestamp_osm_base": "2026-01-12T01:24:13Z", "copyright": "The data included in this document is from www.openstreetmap.org. The data is made available under ODbL."}, "elements": [{"type": "node", "id": 342769903, "lat": -36.8091362, "lon": 174.8625308, "tags": {"amenity": "ferry_terminal", "fare_gates": "no", "ferry": "yes", "loc_ref": "1", "name": "Rangitoto Wharf", "name:en": "Rangitoto Wharf", "name:mk": "\u041f\u0440\u0438\u0441\u0442\u0430\u043d \u201e\u0420\u0430\u043d\u0433\u0438\u0442\u043e\u0442\u043e\u201c", "network": "AT", "network:wikidata": "Q4819567", "official_name": "Rangitoto Ferry Terminal", "public_transport": "stop_position", "ref": "9760", "wikidata": "Q131225835"}}, {"type": "node", "id": 2085588282, "lat": -36.8161718, "lon": 174.8039516, "tags": {"bus": "yes", "highway": "bus_stop", "name": "Morrison Avenue", "name:en": "Morrison Avenue", "name:mi": "Te Arah\u0101ngai o Morrison", "network": "AT", "network:wikidata": "Q4819567", "operator": "Auckland Transport", "public_transport": "platform", "ref": "3461"}}, {"type": "node", "id": 2085588283, "lat": -36.8164954, "lon": 174.8043455, "tags": {"bus": "yes", "description": "glass", "highway": "bus_stop", "name": "Morrison Avenue", "name:en": "Morrison Avenue", "name:mi": "Te Arah\u0101ngai o Morrison", "network": "AT", "network:wikidata": "Q4819567", "operator": "Auckland Transport", "public_transport": "platform", "ref": "3496", "shelter": "yes"}}, {"type": "node", "id": 2085588284, "lat": -36.8178445, "lon": 174.8051591, "tags": {"bus": "yes", "description": "glass", "highway": "bus_stop", "name": "Ascot Avenue", "name:en": "Ascot Avenue", "name:mi": "Te Arah\u0101ngai o Ascot", "network": "AT", "network:wikidata": "Q4819567", "operator": "Auckland Transport", "public_transport": "platform", "ref": "3459", "shelter": "yes"}}, {"type": "node", "id": 2085588285, "lat": -36.8179532, "lon": 174.8054282, "tags": {"bus": "yes", "description": "glass", "highway": "bus_stop", "name": "Ascot Avenue", "name:en": "Ascot Avenue", "name:mi": "Te Arah\u0101ngai o Ascot", "network": "AT", "network:wikidata": "Q4819567", "operator": "Auckland Transport", "public_transport": "platform", "ref": "3494", "shelter": "yes"}}, {"type": "node", "id": 2085588287, "lat": -36.820665, "lon": 174.8050314, "tags": {"bus": "yes", "highway": "bus_stop", "name": "Vauxhall Road Shops", "name:en": "Vauxhall Road Shops", "name:mi": "Ng\u0101 Toa o te Huarahi o Vauxhall", "network": "AT", "network:wikidata": "Q4819567", "operator": "Auckland Transport", "public_transport": "platform", "ref": "3457"}}, {"type": "node", "id": 2085588289, "lat": -36.8215894, "lon": 174.8048403, "tags": {"bus": "yes", "highway": "bus_stop", "name": "Vauxhall Road Shops", "name:en": "Vauxhall Road Shops", "name:mi": "Ng\u0101 Toa o te Huarahi o Vauxhall", "network": "AT", "network:wikidata": "Q4819567", "operator": "Auckland Transport", "public_transport": "platform", "ref": "3478"}}, {"type": "node", "id": 2085588297, "lat": -36.822842, "lon": 174.8042486, "tags": {"bench": "yes", "bin": "no", "bus": "yes", "description": "wooden", "highway": "bus_stop", "name": "Albert Road", "network": "AT", "network:wikidata": "Q4819567", "operator": "Auckland Transport", "public_transport": "platform", "ref": "3439", "shelter": "yes", "tactile_paving": "no"}}, {"type": "node", "id": 2085588300, "lat": -36.8231107, "lon": 174.8042961, "tags": {"access": "no", "bus": "yes", "highway": "bus_stop", "name": "Albert Road", "network": "AT", "network:wikidata": "Q4819567", "public_transport": "platform", "ref": "3480", "school_bus": "designated"}}, {"type": "node", "id": 2559441305, "lat": -36.8128885, "lon": 174.7801719, "tags": {"bus": "yes", "description": "glass", "highway": "bus_stop", "name": "Bayswater Park", "name:en": "Bayswater Park", "name:mi": "Te Papa R\u0113hia o Bayswater", "network": "AT", "network:wikidata": "Q4819567", "operator": "Auckland Transport", "public_transport": "platform", "ref": "3540", "shelter": "yes"}}, {"type": "node", "id": 2559441321, "lat": -36.8138745, "lon": 174.7780679, "tags": {"bus": "yes", "description": "glass", "highway": "bus_stop", "name": "Sandy Bay Road", "name:en": "Sandy Bay Road", "name:mi": "Te Huarahi o Sandy Bay", "network": "AT", "network:wikidata": "Q4819567", "operator": "Auckland Transport", "public_transport": "platform", "ref": "3538", "shelter": "yes"}}, {"type": "node", "id": 2611965354, "lat": -36.7756869, "lon": 174.7747901, "tags": {"bus": "yes", "highway": "bus_stop", "name": "Eric Price Avenue", "name:en": "Eric Price Avenue", "name:mi": "Te Arah\u0101ngai o Eric Price", "network": "AT", "network:wikidata": "Q4819567", "public_transport": "platform", "ref": "3265"}}, {"type": "node", "id": 2611965360, "lat": -36.7756888, "lon": 174.7746368, "tags": {"bus": "yes", "highway": "bus_stop", "name": "Eric Price Avenue", "name:en": "Eric Price Avenue", "name:mi": "Te Arah\u0101ngai o Eric Price", "network": "AT", "network:wikidata": "Q4819567", "public_transport": "platform", "ref": "3290"}}, {"type": "node", "id": 2611965367, "lat": -36.7794187, "lon": 174.7747338, "tags": {"bus": "yes", "highway": "bus_stop", "name": "O'Neills Avenue", "name:en": "O'Neills Avenue", "name:mi": "Te Arah\u0101ngai o O'Neills", "network": "AT", "network:wikidata": "Q4819567", "public_transport": "platform", "ref": "3267"}}, {"type": "node", "id": 2611965374, "lat": -36.7792929, "lon": 174.7746346, "tags": {"bus": "yes", "highway": "bus_stop", "name": "O'Neills Avenue", "name:en": "O'Neills Avenue", "name:mi": "Te Arah\u0101ngai o O'Neills", "network": "AT", "network:wikidata": "Q4819567", "public_transport": "platform", "ref": "3292"}}, {"type": "node", "id": 2611965377, "lat": -36.7813902, "lon": 174.7742605, "tags": {"bench": "yes", "bin": "yes", "bus": "yes", "departures_board": "timetable", "highway": "bus_stop", "name": "Brett Avenue", "name:en": "Brett Avenue", "name:mi": "Te Arah\u0101ngai o Brett", "network": "AT", "network:wikidata": "Q4819567", "public_transport": "platform", "ref": "3269", "shelter": "yes"}}, {"type": "node", "id": 2611965464, "lat": -36.7938931, "lon": 174.7745784, "tags": {"bus": "yes", "highway": "bus_stop", "name": "Esmonde Road / Lake Road", "network": "AT", "network:wikidata": "Q4819567", "public_transport": "platform", "ref": "3486"}}, {"type": "node", "id": 2611965506, "lat": -36.7974943, "lon": 174.7801414, "tags": {"bus": "yes", "highway": "bus_stop", "name": "Bayview Road", "name:en": "Bayview Road", "name:mi": "Te Huarahi o Bayview", "network": "AT", "network:wikidata": "Q4819567", "public_transport": "platform", "ref": "3389", "shelter": "yes"}}, {"type": "node", "id": 2611965512, "lat": -36.7976417, "lon": 174.7805399, "tags": {"bus": "yes", "highway": "bus_stop", "name": "Bayview Road", "name:en": "Bayview Road", "name:mi": "Te Huarahi o Bayview", "network": "AT", "network:wikidata": "Q4819567", "public_transport": "platform", "ref": "3418", "shelter": "yes"}}, {"type": "node", "id": 2611965519, "lat": -36.7979067, "lon": 174.7786192, "tags": {"bench": "yes", "bin": "no", "bus": "yes", "highway": "bus_stop", "name": "Jutland Road / Lake Road", "name:en": "Jutland Road / Lake Road", "network": "AT", "network:wikidata": "Q4819567", "public_transport": "platform", "ref": "3562", "shelter": "yes", "tactile_paving": "no"}}, {"type": "node", "id": 2611965526, "lat": -36.7980719, "lon": 174.7841788, "tags": {"bus": "yes", "highway": "bus_stop", "name": "Clifton Road", "name:en": "Clifton Road", "name:mi": "Te Huarahi o Clifton", "network": "AT", "network:wikidata": "Q4819567", "public_transport": "platform", "ref": "3391", "shelter": "yes"}}, {"type": "node", "id": 2611965540, "lat": -36.7981084, "lon": 174.784986, "tags": {"bus": "yes", "highway": "bus_stop", "name": "Clifton Road", "name:en": "Clifton Road", "name:mi": "Te Huarahi o Clifton", "network": "AT", "network:wikidata": "Q4819567", "public_transport": "platform", "ref": "3420", "shelter": "yes"}}, {"type": "node", "id": 2611965547, "lat": -36.7995227, "lon": 174.7777774, "tags": {"bench": "no", "bin": "no", "bus": "yes", "highway": "bus_stop", "lit": "yes", "name": "Northboro Road / Jutland Road", "name:en": "Northboro Road / Jutland Road", "name:mi": "Te Huarahi o Northboro m\u0101 Te Huarahi o Jutland", "network": "AT", "network:wikidata": "Q4819567", "public_transport": "platform", "ref": "3560", "shelter": "no", "tactile_paving": "no", "wheelchair": "limited"}}, {"type": "node", "id": 2611965555, "lat": -36.7997033, "lon": 174.7779652, "tags": {"bench": "yes", "bin": "yes", "bus": "yes", "highway": "bus_stop", "lit": "yes", "name": "Northboro Road / Jutland Road", "name:en": "Northboro Road / Jutland Road", "name:mi": "Te Huarahi o Northboro m\u0101 Te Huarahi o Jutland", "network": "AT", "network:wikidata": "Q4819567", "public_transport": "platform", "ref": "3535", "shelter": "yes", "tactile_paving": "no"}}, {"type": "node", "id": 2611965562, "lat": -36.8008894, "lon": 174.780461, "tags": {"bench": "no", "bin": "no", "bus": "yes", "highway": "bus_stop", "lit": "yes", "name": "Birchfield Road", "name:en": "Birchfield Road", "name:mi": "Te Huarahi o Birchfield", "network": "AT", "network:wikidata": "Q4819567", "public_transport": "platform", "ref": "3558", "shelter": "no", "tactile_paving": "no", "wheelchair": "limited"}}, {"type": "node", "id": 2611965568, "lat": -36.8008135, "lon": 174.7801423, "tags": {"bench": "yes", "bin": "no", "bus": "yes", "highway": "bus_stop", "lit": "yes", "name": "Birchfield Road", "name:en": "Birchfield Road", "name:mi": "Te Huarahi o Birchfield", "network": "AT", "network:wikidata": "Q4819567", "public_transport": "platform", "ref": "3533", "shelter": "yes", "tactile_paving": "no"}}, {"type": "node", "id": 2611965585, "lat": -36.8127584, "lon": 174.7807696, "tags": {"bus": "yes", "description": "glass", "highway": "bus_stop", "name": "Bayswater Park", "name:en": "Bayswater Park", "name:mi": "Te Papa R\u0113hia o Bayswater", "network": "AT", "network:wikidata": "Q4819567", "operator": "Auckland Transport", "public_transport": "platform", "ref": "3517", "shelter": "yes"}}, {"type": "node", "id": 2611965592, "lat": -36.8143215, "lon": 174.7774089, "tags": {"bus": "yes", "highway": "bus_stop", "name": "Sandy Bay Road", "name:en": "Sandy Bay Road", "name:mi": "Te Huarahi o Sandy Bay", "network": "AT", "network:wikidata": "Q4819567", "operator": "Auckland Transport", "public_transport": "platform", "ref": "3513"}}, {"type": "node", "id": 3263003857, "lat": -36.8102624, "lon": 174.7910037, "tags": {"bus": "yes", "description": "glass", "highway": "bus_stop", "name": "Montgomery Avenue", "name:en": "Montgomery Avenue", "name:mi": "Te Arah\u0101ngai o Montgomery", "network": "AT", "network:wikidata": "Q4819567", "operator": "Auckland Transport", "public_transport": "platform", "ref": "3399", "shelter": "yes"}}, {"type": "node", "id": 3263003859, "lat": -36.7945809, "lon": 174.7767286, "tags": {"bus": "yes", "highway": "bus_stop", "name": "Cameron Street", "name:en": "Cameron Street", "name:mi": "Te Tiriti o Cameron", "network": "AT", "network:wikidata": "Q4819567", "public_transport": "platform", "ref": "3416"}}, {"type": "node", "id": 3263003860, "lat": -36.794712, "lon": 174.7765678, "tags": {"bench": "yes", "bin": "no", "bus": "yes", "highway": "bus_stop", "lit": "yes", "name": "Cameron Street", "name:en": "Cameron Street", "name:mi": "Te Tiriti o Cameron", "network": "AT", "network:wikidata": "Q4819567", "public_transport": "platform", "ref": "3447", "shelter": "yes", "tactile_paving": "yes"}}, {"type": "node", "id": 3263007263, "lat": -36.7961958, "lon": 174.7777711, "tags": {"bus": "yes", "highway": "bus_stop", "name": "Hauraki Corner", "name:en": "Hauraki Corner", "name:mi": "Te Kokonga o Hauraki", "network": "AT", "network:wikidata": "Q4819567", "public_transport": "platform", "ref": "3387"}}, {"type": "node", "id": 3263007269, "lat": -36.8003768, "lon": 174.786369, "tags": {"bus": "yes", "highway": "bus_stop", "name": "Wilson School", "name:en": "Wilson School", "name:mi": "Te Kura o Wilson", "network": "AT", "network:wikidata": "Q4819567", "public_transport": "platform", "ref": "3393", "shelter": "yes"}}, {"type": "node", "id": 3263007270, "lat": -36.8009094, "lon": 174.786769, "tags": {"bus": "yes", "capacity": "2", "highway": "bus_stop", "name": "Wilson School", "name:en": "Wilson School", "name:mi": "Te Kura o Wilson", "network": "AT", "network:wikidata": "Q4819567", "public_transport": "platform", "ref": "3422", "shelter": "yes"}}, {"type": "node", "id": 3263007272, "lat": -36.8009463, "lon": 174.7748378, "tags": {"bus": "yes", "highway": "bus_stop", "name": "Norman Road", "name:en": "Norman Road", "name:mi": "Te Huarahi o Norman", "network": "AT", "network:wikidata": "Q4819567", "public_transport": "platform", "ref": "3543"}}, {"type": "node", "id": 3263007279, "lat": -36.8019434, "lon": 174.7752892, "tags": {"bench": "no", "bin": "no", "bus": "yes", "highway": "bus_stop", "lit": "no", "name": "Sydney Street", "name:en": "Sydney Street", "name:mi": "Te Tiriti o Sydney", "network": "AT", "network:wikidata": "Q4819567", "public_transport": "platform", "ref": "3541", "shelter": "no", "tactile_paving": "no"}}, {"type": "node", "id": 3263007280, "lat": -36.8018929, "lon": 174.7872151, "tags": {"bus": "yes", "capacity": "3", "highway": "bus_stop", "name": "Takapuna Grammar School", "name:en": "Takapuna Grammar School", "name:mi": "Te Kura Tuarua o Takapuna", "network": "AT", "network:wikidata": "Q4819567", "public_transport": "platform", "ref": "3652", "shelter": "yes"}}, {"type": "node", "id": 3263007287, "lat": -36.8025056, "lon": 174.7836143, "tags": {"bench": "yes", "bin": "no", "bus": "yes", "highway": "bus_stop", "lit": "yes", "name": "Northboro Road / Eversleigh Road", "name:en": "Northboro Road / Eversleigh Road", "name:mi": "Te Huarahi o Northboro m\u0101 Te Huarahi o Eversleigh", "network": "AT", "network:wikidata": "Q4819567", "public_transport": "platform", "ref": "3556", "shelter": "yes", "tactile_paving": "yes"}}, {"type": "node", "id": 3263007288, "lat": -36.8026046, "lon": 174.7836072, "tags": {"bench": "yes", "bin": "yes", "bus": "yes", "highway": "bus_stop", "lit": "yes", "name": "Northboro Road / Eversleigh Road", "name:en": "Northboro Road / Eversleigh Road", "name:mi": "Te Huarahi o Northboro m\u0101 Te Huarahi o Eversleigh", "network": "AT", "network:wikidata": "Q4819567", "public_transport": "platform", "ref": "3531", "shelter": "yes", "tactile_paving": "yes"}}, {"type": "node", "id": 3263007295, "lat": -36.8036879, "lon": 174.7838396, "tags": {"bench": "yes", "bin": "yes", "bus": "yes", "highway": "bus_stop", "lit": "yes", "name": "Rutherford Street", "name:en": "Rutherford Street", "name:mi": "Te Tiriti o Rutherford", "network": "AT", "network:wikidata": "Q4819567", "public_transport": "platform", "ref": "3529", "shelter": "no", "tactile_paving": "no"}}, {"type": "node", "id": 3263007301, "lat": -36.804136, "lon": 174.783586, "tags": {"bench": "yes", "bin": "no", "bus": "yes", "highway": "bus_stop", "lit": "yes", "name": "Rutherford Street", "name:en": "Rutherford Street", "name:mi": "Te Tiriti o Rutherford", "network": "AT", "network:wikidata": "Q4819567", "public_transport": "platform", "ref": "3554", "shelter": "no", "tactile_paving": "no"}}, {"type": "node", "id": 3263007305, "lat": -36.8044315, "lon": 174.7882726, "tags": {"bus": "yes", "highway": "bus_stop", "name": "Belmont Intermediate School", "network": "AT", "network:wikidata": "Q4819567", "public_transport": "platform", "ref": "3395", "shelter": "yes"}}, {"type": "node", "id": 3263007309, "lat": -36.805298, "lon": 174.7830512, "tags": {"bus": "yes", "highway": "bus_stop", "name": "Creamer Avenue / Eversleigh Road", "name:en": "Creamer Avenue / Eversleigh Road", "name:mi": "Te Arah\u0101ngai o Creamer m\u0101 Te Huarahi o Eversleigh", "network": "AT", "network:wikidata": "Q4819567", "public_transport": "platform", "ref": "3552", "shelter": "no"}}, {"type": "node", "id": 3263007310, "lat": -36.8053337, "lon": 174.7880499, "tags": {"bus": "yes", "highway": "bus_stop", "name": "Bardia Street / Lake Road", "name:en": "Bardia Street / Lake Road", "network": "AT", "network:wikidata": "Q4819567", "public_transport": "platform", "ref": "3548"}}, {"type": "node", "id": 3263007311, "lat": -36.8053939, "lon": 174.7888717, "tags": {"bus": "yes", "highway": "bus_stop", "name": "Winscombe Street", "name:en": "Winscombe Street", "name:mi": "Te Tiriti o Winscombe", "network": "AT", "network:wikidata": "Q4819567", "public_transport": "platform", "ref": "3424", "shelter": "yes"}}, {"type": "node", "id": 3263007313, "lat": -36.8053907, "lon": 174.7830121, "tags": {"bus": "yes", "highway": "bus_stop", "name": "Creamer Avenue / Eversleigh Road", "name:en": "Creamer Avenue / Eversleigh Road", "name:mi": "Te Arah\u0101ngai o Creamer m\u0101 Te Huarahi o Eversleigh", "network": "AT", "network:wikidata": "Q4819567", "public_transport": "platform", "ref": "3525", "shelter": "yes"}}, {"type": "node", "id": 3263007315, "lat": -36.8058483, "lon": 174.7860343, "tags": {"bus": "yes", "highway": "bus_stop", "name": "Coronation Street", "name:en": "Coronation Street", "name:mi": "Te Tiriti o Coronation", "network": "AT", "network:wikidata": "Q4819567", "public_transport": "platform", "ref": "3527"}}, {"type": "node", "id": 3263007316, "lat": -36.8061018, "lon": 174.7854921, "tags": {"bus": "yes", "highway": "bus_stop", "name": "Coronation Street", "name:en": "Coronation Street", "name:mi": "Te Tiriti o Coronation", "network": "AT", "network:wikidata": "Q4819567", "public_transport": "platform", "ref": "3550"}}, {"type": "node", "id": 3263007318, "lat": -36.8066682, "lon": 174.7893215, "tags": {"bus": "yes", "highway": "bus_stop", "name": "Corella Road", "name:en": "Corella Road", "name:mi": "Te Huarahi o Corella", "network": "AT", "network:wikidata": "Q4819567", "note": "The name is misspelled by AT", "public_transport": "platform", "ref": "3397", "shelter": "yes"}}, {"type": "node", "id": 3263007320, "lat": -36.807104, "lon": 174.795591, "tags": {"access": "no", "bus": "yes", "highway": "bus_stop", "name": "Williamson Avenue", "name:en": "Williamson Avenue", "name:mi": "Te Arah\u0101ngai o Williamson", "network": "AT", "network:wikidata": "Q4819567", "public_transport": "platform", "ref": "3497", "school_bus": "designated"}}, {"type": "node", "id": 3263007333, "lat": -36.8085703, "lon": 174.7894536, "tags": {"bus": "yes", "highway": "bus_stop", "name": "Moana Avenue", "name:en": "Moana Avenue", "name:mi": "Te Arah\u0101ngai o Moana", "network": "AT", "network:wikidata": "Q4819567", "operator": "Auckland Transport", "public_transport": "platform", "ref": "3546", "shelter": "yes"}}, {"type": "node", "id": 3263007335, "lat": -36.8087428, "lon": 174.7894022, "tags": {"bus": "yes", "highway": "bus_stop", "name": "Moana Avenue", "name:en": "Moana Avenue", "name:mi": "Te Arah\u0101ngai o Moana", "network": "AT", "network:wikidata": "Q4819567", "operator": "Auckland Transport", "public_transport": "platform", "ref": "3523", "shelter": "yes"}}, {"type": "node", "id": 3263007338, "lat": -36.8097417, "lon": 174.7869375, "tags": {"bus": "yes", "description": "glass", "highway": "bus_stop", "name": "Preston Avenue", "name:en": "Preston Avenue", "name:mi": "Te Arah\u0101ngai o Preston", "network": "AT", "network:wikidata": "Q4819567", "operator": "Auckland Transport", "public_transport": "platform", "ref": "3544", "shelter": "yes"}}, {"type": "node", "id": 3263007339, "lat": -36.8099877, "lon": 174.7910224, "tags": {"bus": "yes", "highway": "bus_stop", "name": "Montgomery Avenue", "name:en": "Montgomery Avenue", "name:mi": "Te Arah\u0101ngai o Montgomery", "network": "AT", "network:wikidata": "Q4819567", "operator": "Auckland Transport", "public_transport": "platform", "ref": "3426", "shelter": "yes"}}, {"type": "node", "id": 3263007343, "lat": -36.8109355, "lon": 174.784376, "tags": {"bus": "yes", "description": "glass", "highway": "bus_stop", "name": "Leander Road", "name:en": "Leander Road", "name:mi": "Te Huarahi o Leander", "network": "AT", "network:wikidata": "Q4819567", "operator": "Auckland Transport", "public_transport": "platform", "ref": "3542", "shelter": "yes"}}, {"type": "node", "id": 3263007346, "lat": -36.8115358, "lon": 174.7834832, "tags": {"bus": "yes", "description": "glass", "highway": "bus_stop", "name": "Leander Road", "name:en": "Leander Road", "name:mi": "Te Huarahi o Leander", "network": "AT", "network:wikidata": "Q4819567", "operator": "Auckland Transport", "public_transport": "platform", "ref": "3519", "shelter": "yes"}}, {"type": "node", "id": 3263007348, "lat": -36.8121704, "lon": 174.7985064, "tags": {"bus": "yes", "description": "wooden", "highway": "bus_stop", "name": "Handley Avenue", "name:en": "Handley Avenue", "name:mi": "Te Arah\u0101ngai o Handley", "network": "AT", "network:wikidata": "Q4819567", "operator": "Auckland Transport", "public_transport": "platform", "ref": "3518", "shelter": "yes"}}, {"type": "node", "id": 3263007351, "lat": -36.8123115, "lon": 174.7977012, "tags": {"bus": "yes", "description": "glass", "highway": "bus_stop", "name": "Merani Street", "name:en": "Merani Street", "name:mi": "Te Tiriti o Merani", "network": "AT", "network:wikidata": "Q4819567", "operator": "Auckland Transport", "public_transport": "platform", "ref": "3487", "shelter": "yes"}}, {"type": "node", "id": 3263007352, "lat": -36.8124277, "lon": 174.7951582, "tags": {"bus": "yes", "highway": "bus_stop", "name": "Wicklow Road", "name:en": "Wicklow Road", "name:mi": "Te Huarahi o Wicklow", "network": "AT", "network:wikidata": "Q4819567", "operator": "Auckland Transport", "public_transport": "platform", "ref": "3514", "shelter": "no"}}, {"type": "node", "id": 3263007353, "lat": -36.8125087, "lon": 174.7952192, "tags": {"bus": "yes", "highway": "bus_stop", "name": "Wicklow Road", "name:en": "Wicklow Road", "name:mi": "Te Huarahi o Wicklow", "network": "AT", "network:wikidata": "Q4819567", "operator": "Auckland Transport", "public_transport": "platform", "ref": "3483", "shelter": "no"}}, {"type": "node", "id": 3263007354, "lat": -36.8126078, "lon": 174.7929314, "tags": {"bus": "yes", "description": "wooden", "highway": "bus_stop", "name": "Old Lake Road / Fraser Road", "name:en": "Old Lake Road / Fraser Road", "name:mi": "Te Huarahi o Old Lake m\u0101 Te Huarahi o Fraser", "network": "AT", "network:wikidata": "Q4819567", "operator": "Auckland Transport", "public_transport": "platform", "ref": "3512", "shelter": "yes"}}, {"type": "node", "id": 3263007355, "lat": -36.8125501, "lon": 174.8009473, "tags": {"back_door_boarding": "no", "bus": "yes", "highway": "bus_stop", "name": "Narrow Neck Beach", "network": "AT", "network:wikidata": "Q4819567", "operator": "Auckland Transport", "public_transport": "platform", "ref": "3520", "shelter": "yes"}}, {"type": "node", "id": 3263007356, "lat": -36.8126928, "lon": 174.7928456, "tags": {"bus": "yes", "description": "wooden", "highway": "bus_stop", "name": "Old Lake Road / Fraser Road", "name:en": "Old Lake Road / Fraser Road", "name:mi": "Te Huarahi o Old Lake m\u0101 Te Huarahi o Fraser", "network": "AT", "network:wikidata": "Q4819567", "operator": "Auckland Transport", "public_transport": "platform", "ref": "3481", "shelter": "yes"}}, {"type": "node", "id": 3263007359, "lat": -36.8131496, "lon": 174.7923453, "tags": {"bus": "yes", "highway": "bus_stop", "name": "Kawerau Avenue", "network": "AT", "network:wikidata": "Q4819567", "operator": "Auckland Transport", "public_transport": "platform", "ref": "3401", "shelter": "yes"}}, {"type": "node", "id": 3263007362, "lat": -36.8133432, "lon": 174.7926138, "tags": {"bus": "yes", "highway": "bus_stop", "name": "Kawerau Avenue", "network": "AT", "network:wikidata": "Q4819567", "operator": "Auckland Transport", "public_transport": "platform", "ref": "3428"}}, {"type": "node", "id": 3263007364, "lat": -36.8135067, "lon": 174.8012905, "tags": {"bus": "yes", "highway": "bus_stop", "name": "Narrow Neck Beach", "network": "AT", "network:wikidata": "Q4819567", "operator": "Auckland Transport", "public_transport": "platform", "ref": "3489", "shelter": "yes"}}, {"type": "node", "id": 3263007365, "lat": -36.8142477, "lon": 174.7905571, "tags": {"bus": "yes", "highway": "bus_stop", "name": "17 Kawerau Avenue", "name:en": "17 Kawerau Avenue", "name:mi": "17 ki te Arah\u0101ngai o Kawerau", "network": "AT", "network:wikidata": "Q4819567", "operator": "Auckland Transport", "public_transport": "platform", "ref": "3479"}}, {"type": "node", "id": 3263007366, "lat": -36.8152205, "lon": 174.773657, "tags": {"bus": "yes", "description": "glass", "highway": "bus_stop", "name": "Balfour Street", "name:en": "Balfour Street", "name:mi": "Te Tiriti o Balfour", "network": "AT", "network:wikidata": "Q4819567", "operator": "Auckland Transport", "public_transport": "platform", "ref": "3536", "shelter": "yes"}}, {"type": "node", "id": 3263007367, "lat": -36.815221, "lon": 174.7742967, "tags": {"bus": "yes", "highway": "bus_stop", "name": "Balfour Street", "name:en": "Balfour Street", "name:mi": "Te Tiriti o Balfour", "network": "AT", "network:wikidata": "Q4819567", "operator": "Auckland Transport", "public_transport": "platform", "ref": "3511"}}, {"type": "node", "id": 3263007368, "lat": -36.8155995, "lon": 174.7902141, "tags": {"bus": "yes", "highway": "bus_stop", "name": "Regent Street", "name:en": "Regent Street", "name:mi": "Te Tiriti o Regent", "network": "AT", "network:wikidata": "Q4819567", "operator": "Auckland Transport", "public_transport": "platform", "ref": "3510"}}, {"type": "node", "id": 3263007370, "lat": -36.8156392, "lon": 174.7904088, "tags": {"bus": "yes", "highway": "bus_stop", "name": "Regent Street", "name:en": "Regent Street", "name:mi": "Te Tiriti o Regent", "network": "AT", "network:wikidata": "Q4819567", "operator": "Auckland Transport", "public_transport": "platform", "ref": "3477"}}, {"type": "node", "id": 3263007371, "lat": -36.8157615, "lon": 174.7937561, "tags": {"access": "no", "bus": "yes", "description": "wooden", "highway": "bus_stop", "name": "Ng\u0101taringa Road", "name:en": "Ng\u0101taringa Road", "name:mi": "Te Huarahi o Ng\u0101taringa", "network": "AT", "network:wikidata": "Q4819567", "public_transport": "platform", "ref": "3430", "school_bus": "designated", "shelter": "yes"}}, {"type": "node", "id": 3263007376, "lat": -36.8166053, "lon": 174.7891645, "tags": {"bus": "yes", "description": "wooden", "highway": "bus_stop", "name": "Wesley Street", "name:en": "Wesley Street", "name:mi": "Te Tiriti o Wesley", "network": "AT", "network:wikidata": "Q4819567", "operator": "Auckland Transport", "public_transport": "platform", "ref": "3508", "shelter": "yes"}}, {"type": "node", "id": 3263007377, "lat": -36.8166637, "lon": 174.7911496, "tags": {"bus": "yes", "highway": "bus_stop", "name": "William Sanders Retirement Village", "network": "AT", "network:wikidata": "Q4819567", "operator": "Auckland Transport", "public_transport": "platform", "ref": "3506"}}, {"type": "node", "id": 3263007378, "lat": -36.8167715, "lon": 174.7891185, "tags": {"back_door_boarding": "no", "bus": "yes", "highway": "bus_stop", "name": "Wesley Street", "name:en": "Wesley Street", "name:mi": "Te Tiriti o Wesley", "network": "AT", "network:wikidata": "Q4819567", "operator": "Auckland Transport", "public_transport": "platform", "ref": "3475"}}, {"type": "node", "id": 3263007379, "lat": -36.8168397, "lon": 174.7908895, "tags": {"bus": "yes", "highway": "bus_stop", "name": "William Sanders Retirement Village", "network": "AT", "network:wikidata": "Q4819567", "operator": "Auckland Transport", "public_transport": "platform", "ref": "3473", "wheelchair": "no"}}, {"type": "node", "id": 3263007384, "lat": -36.8212768, "lon": 174.8053816, "tags": {"bus": "yes", "highway": "bus_stop", "name": "Vauxhall Road", "name:en": "Vauxhall Road", "name:mi": "Te Huarahi o Vauxhall", "network": "AT", "network:wikidata": "Q4819567", "operator": "Auckland Transport", "public_transport": "platform", "ref": "3476"}}, {"type": "node", "id": 3263007386, "lat": -36.8223465, "lon": 174.7972123, "tags": {"bus": "yes", "description": "glass", "highway": "bus_stop", "name": "Mozeley Avenue", "name:en": "Mozeley Avenue", "name:mi": "Te Arah\u0101ngai o Mozeley", "network": "AT", "network:wikidata": "Q4819567", "operator": "Auckland Transport", "public_transport": "platform", "ref": "3403", "shelter": "yes"}}, {"type": "node", "id": 3263007387, "lat": -36.8226116, "lon": 174.8039662, "tags": {"bus": "yes", "highway": "bus_stop", "name": "Cambria Road", "name:en": "Cambria Road", "name:mi": "Te Huarahi o Cambria", "network": "AT", "network:wikidata": "Q4819567", "operator": "Auckland Transport", "public_transport": "platform", "ref": "3465"}}, {"type": "node", "id": 3263007388, "lat": -36.8228944, "lon": 174.7976266, "tags": {"bus": "yes", "description": "wooden", "highway": "bus_stop", "name": "Mozeley Avenue", "name:en": "Mozeley Avenue", "name:mi": "Te Arah\u0101ngai o Mozeley", "network": "AT", "network:wikidata": "Q4819567", "operator": "Auckland Transport", "public_transport": "platform", "ref": "3432", "shelter": "yes"}}, {"type": "node", "id": 3263007389, "lat": -36.8228719, "lon": 174.8031228, "tags": {"bus": "yes", "highway": "bus_stop", "name": "Cambria Road", "name:en": "Cambria Road", "name:mi": "Te Huarahi o Cambria", "network": "AT", "network:wikidata": "Q4819567", "operator": "Auckland Transport", "public_transport": "platform", "ref": "3500"}}, {"type": "node", "id": 3263007390, "lat": -36.8229486, "lon": 174.8060146, "tags": {"access": "no", "bus": "yes", "highway": "bus_stop", "name": "Mata\u012b Road", "name:en": "Mata\u012b Road", "name:mi": "Te Huarahi o Mata\u012b", "network": "AT", "network:wikidata": "Q4819567", "public_transport": "platform", "ref": "3437", "school_bus": "designated"}}, {"type": "node", "id": 3263007392, "lat": -36.8235404, "lon": 174.8063279, "tags": {"bus": "yes", "highway": "bus_stop", "name": "Mata\u012b Road", "name:en": "Mata\u012b Road", "name:mi": "Te Huarahi o Mata\u012b", "network": "AT", "network:wikidata": "Q4819567", "operator": "Auckland Transport", "public_transport": "platform", "ref": "3474"}}, {"type": "node", "id": 3263007394, "lat": -36.8236755, "lon": 174.8012125, "tags": {"bus": "yes", "highway": "bus_stop", "name": "Church Street", "name:en": "Church Street", "name:mi": "Te Tiriti o Church", "network": "AT", "network:wikidata": "Q4819567", "note": "AT has a typo in this station's name", "official_name": "Church Sreet", "operator": "Auckland Transport", "public_transport": "platform", "ref": "3467", "wheelchair": "no"}}, {"type": "node", "id": 3263007395, "lat": -36.8241285, "lon": 174.8004907, "tags": {"bus": "yes", "highway": "bus_stop", "name": "Church Street", "name:en": "Church Street", "name:mi": "Te Tiriti o Church", "network": "AT", "network:wikidata": "Q4819567", "note": "AT has a typo in this station's name", "official_name": "Church Sreet", "operator": "Auckland Transport", "public_transport": "platform", "ref": "3502", "shelter": "yes"}}, {"type": "node", "id": 3263007396, "lat": -36.824494, "lon": 174.7992865, "tags": {"bus": "yes", "highway": "bus_stop", "name": "Albert Road / Lake Road", "name:en": "Albert Road / Lake Road", "name:mi": "Te Huarahi o Albert m\u0101 Te Huarahi o Lake", "network": "AT", "network:wikidata": "Q4819567", "operator": "Auckland Transport", "public_transport": "platform", "ref": "3469"}}, {"type": "node", "id": 3263007397, "lat": -36.8247937, "lon": 174.8070771, "tags": {"access": "no", "bus": "yes", "highway": "bus_stop", "name": "Eton Avenue", "name:en": "Eton Avenue", "name:mi": "Te Arah\u0101ngai o Eton", "network": "AT", "network:wikidata": "Q4819567", "public_transport": "platform", "ref": "3435", "school_bus": "designated"}}, {"type": "node", "id": 3263007398, "lat": -36.8250284, "lon": 174.8075049, "tags": {"bus": "yes", "highway": "bus_stop", "name": "Eton Avenue", "name:en": "Eton Avenue", "name:mi": "Te Arah\u0101ngai o Eton", "network": "AT", "network:wikidata": "Q4819567", "operator": "Auckland Transport", "public_transport": "platform", "ref": "3472"}}, {"type": "node", "id": 3311460164, "lat": -36.7919505, "lon": 174.774598, "tags": {"bench": "yes", "bin": "yes", "bus": "yes", "highway": "bus_stop", "name": "Takapuna Methodist Church", "name:en": "Takapuna Methodist Church", "network": "AT", "network:wikidata": "Q4819567", "public_transport": "platform", "ref": "3414", "shelter": "yes"}}, {"type": "node", "id": 3466978114, "lat": -36.812733, "lon": 174.780853}, {"type": "node", "id": 3466978125, "lat": -36.812745, "lon": 174.780861}, {"type": "node", "id": 3466978131, "lat": -36.81275, "lon": 174.780815}, {"type": "node", "id": 3466978146, "lat": -36.812762, "lon": 174.780824}, {"type": "node", "id": 3466978475, "lat": -36.813878, "lon": 174.778013}, {"type": "node", "id": 3466978481, "lat": -36.81388, "lon": 174.777979}, {"type": "node", "id": 3466979673, "lat": -36.813868, "lon": 174.778006}, {"type": "node", "id": 3466979698, "lat": -36.813891, "lon": 174.777987}, {"type": "node", "id": 3466980484, "lat": -36.814316, "lon": 174.777453}, {"type": "node", "id": 3466980508, "lat": -36.814328, "lon": 174.777461}, {"type": "node", "id": 3466980522, "lat": -36.814333, "lon": 174.777417}, {"type": "node", "id": 3466980544, "lat": -36.814344, "lon": 174.777425}, {"type": "node", "id": 3466982304, "lat": -36.815197, "lon": 174.7736439}, {"type": "node", "id": 3466982322, "lat": -36.815204, "lon": 174.7736009}, {"type": "node", "id": 3466982331, "lat": -36.815208, "lon": 174.7736469}, {"type": "node", "id": 3466982348, "lat": -36.815215, "lon": 174.7736049}, {"type": "node", "id": 3468573436, "lat": -36.8097327, "lon": 174.7868977}, {"type": "node", "id": 3468573454, "lat": -36.8097447, "lon": 174.7869057}, {"type": "node", "id": 3468573457, "lat": -36.8097497, "lon": 174.7868607}, {"type": "node", "id": 3468573471, "lat": -36.8097617, "lon": 174.7868687}, {"type": "node", "id": 3470974040, "lat": -36.8008944, "lon": 174.7802191}, {"type": "node", "id": 3470974041, "lat": -36.8008944, "lon": 174.7802611}, {"type": "node", "id": 3470974075, "lat": -36.8009094, "lon": 174.7802481}, {"type": "node", "id": 3470974579, "lat": -36.8008794, "lon": 174.7802321}, {"type": "node", "id": 5623497192, "lat": -36.8076375, "lon": 174.7900725, "tags": {"bus": "yes", "description": "glass", "highway": "bus_stop", "name": "Belmont Shops", "name:en": "Belmont Shops", "name:mi": "Ng\u0101 Toa o Belmont", "public_transport": "platform", "ref": "3488", "shelter": "yes"}}, {"type": "node", "id": 8221213404, "lat": -36.776521, "lon": 174.77592}, {"type": "node", "id": 8221213405, "lat": -36.7765699, "lon": 174.7755936}, {"type": "node", "id": 8221213406, "lat": -36.7767567, "lon": 174.7761348}, {"type": "node", "id": 8221213407, "lat": -36.7766915, "lon": 174.7756573}, {"type": "node", "id": 8221213408, "lat": -36.7768578, "lon": 174.7755663}, {"type": "node", "id": 8221213409, "lat": -36.7769227, "lon": 174.7759719}, {"type": "node", "id": 8464927954, "lat": -36.8129105, "lon": 174.7800779}, {"type": "node", "id": 8464927955, "lat": -36.8129188, "lon": 174.7800836}, {"type": "node", "id": 8464927956, "lat": -36.8128999, "lon": 174.7801268}, {"type": "node", "id": 8464927957, "lat": -36.8128916, "lon": 174.7801211}, {"type": "node", "id": 8464927958, "lat": -36.811534, "lon": 174.783504}, {"type": "node", "id": 8464927959, "lat": -36.8115494, "lon": 174.783514}, {"type": "node", "id": 8464927960, "lat": -36.8115334, "lon": 174.7835524}, {"type": "node", "id": 8464927961, "lat": -36.811518, "lon": 174.7835424}, {"type": "node", "id": 8464927962, "lat": -36.8109416, "lon": 174.7842997}, {"type": "node", "id": 8464927963, "lat": -36.8109513, "lon": 174.7843067}, {"type": "node", "id": 8464927964, "lat": -36.8109329, "lon": 174.7843464}, {"type": "node", "id": 8464927965, "lat": -36.8109232, "lon": 174.7843393}, {"type": "node", "id": 8464927966, "lat": -36.8085851, "lon": 174.7893584}, {"type": "node", "id": 8464927967, "lat": -36.8085953, "lon": 174.789365}, {"type": "node", "id": 8464927968, "lat": -36.8085806, "lon": 174.7894008}, {"type": "node", "id": 8464927969, "lat": -36.8085704, "lon": 174.7893942}, {"type": "node", "id": 8464927970, "lat": -36.8087887, "lon": 174.7893335}, {"type": "node", "id": 8464927971, "lat": -36.8087982, "lon": 174.7893403}, {"type": "node", "id": 8464927972, "lat": -36.8087794, "lon": 174.789381}, {"type": "node", "id": 8464927973, "lat": -36.8087699, "lon": 174.7893742}, {"type": "node", "id": 8666222868, "lat": -36.7970123, "lon": 174.778744, "tags": {"bus": "yes", "highway": "bus_stop", "name": "Hauraki Corner", "name:en": "Hauraki Corner", "name:mi": "Te Kokonga o Hauraki", "network": "AT", "network:wikidata": "Q4819567", "public_transport": "platform", "ref": "3380"}}, {"type": "node", "id": 10020359224, "lat": -36.8000889, "lon": 174.787916, "tags": {"access": "no", "bus": "yes", "bus_stop": "school", "capacity": "3", "departures_board": "no", "highway": "bus_stop", "name": "Takapuna Grammar", "name:en": "Takapuna Grammar", "name:mi": "Te Kura Tuarua o Takapuna", "network": "AT", "network:wikidata": "Q4819567", "public_transport": "platform", "ref": "3384", "school_bus": "designated", "shelter": "no", "start_date": "2022"}}, {"type": "node", "id": 10559094500, "lat": -36.809719, "lon": 174.7872426, "tags": {"bus": "yes", "highway": "bus_stop", "name": "Preston Avenue", "name:en": "Preston Avenue", "name:mi": "Te Arah\u0101ngai o Preston", "network": "AT", "network:wikidata": "Q4819567", "operator": "Auckland Transport", "public_transport": "platform", "ref": "3521"}}, {"type": "node", "id": 10559094501, "lat": -36.8122578, "lon": 174.7972382, "tags": {"bus": "yes", "highway": "bus_stop", "name": "Merani Street", "name:en": "Merani Street", "name:mi": "Te Tiriti o Merani", "network": "AT", "network:wikidata": "Q4819567", "operator": "Auckland Transport", "public_transport": "platform", "ref": "3516"}}, {"type": "node", "id": 10758031593, "lat": -36.8025856, "lon": 174.7835181}, {"type": "node", "id": 10758031594, "lat": -36.8025741, "lon": 174.7835278}, {"type": "node", "id": 10758031595, "lat": -36.8025923, "lon": 174.7835618}, {"type": "node", "id": 10758031596, "lat": -36.8026039, "lon": 174.7835521}, {"type": "node", "id": 10758099707, "lat": -36.8097206, "lon": 174.787293}, {"type": "node", "id": 10758099708, "lat": -36.8097326, "lon": 174.787301}, {"type": "node", "id": 10758099709, "lat": -36.8097496, "lon": 174.787264}, {"type": "node", "id": 10758099710, "lat": -36.8097376, "lon": 174.787256}, {"type": "node", "id": 10857165474, "lat": -36.80612, "lon": 174.7948, "tags": {"access": "no", "bus": "yes", "highway": "bus_stop", "name": "Williamson Avenue", "name:en": "Williamson Avenue", "name:mi": "Te Arah\u0101ngai o Williamson", "network": "AT", "network:wikidata": "Q4819567", "public_transport": "platform", "ref": "3528", "school_bus": "designated"}}, {"type": "node", "id": 10857165475, "lat": -36.8043627, "lon": 174.7907274, "tags": {"access": "no", "bus": "yes", "capacity": "2", "highway": "bus_stop", "name": "Takapuna Grammar School", "name:en": "Takapuna Grammar School", "name:mi": "Te Kura Tuarua o Takapuna", "network": "AT", "network:wikidata": "Q4819567", "public_transport": "platform", "ref": "4434", "school_bus": "designated"}}, {"type": "node", "id": 12475297248, "lat": -36.7777398, "lon": 174.7758649}, {"type": "node", "id": 12475297249, "lat": -36.7777779, "lon": 174.7761339}, {"type": "way", "id": 339492503, "nodes": [3466982322, 3466982304, 3466982331, 3466982348, 3466982322], "tags": {"amenity": "shelter", "bench": "yes", "building": "yes", "lit": "no", "shelter_type": "public_transport"}}, {"type": "way", "id": 339492707, "nodes": [3466978481, 3466979673, 3466978475, 3466979698, 3466978481], "tags": {"amenity": "shelter", "bench": "yes", "building": "yes", "lit": "no", "shelter_type": "public_transport"}}, {"type": "way", "id": 339492802, "nodes": [3466980544, 3466980522, 3466980484, 3466980508, 3466980544], "tags": {"amenity": "shelter", "bench": "yes", "building": "yes", "lit": "no", "shelter_type": "public_transport"}}, {"type": "way", "id": 339492852, "nodes": [3466978131, 3466978114, 3466978125, 3466978146, 3466978131], "tags": {"amenity": "shelter", "bench": "yes", "building": "yes", "lit": "no", "shelter_type": "public_transport"}}, {"type": "way", "id": 339639612, "nodes": [3468573436, 3468573454, 3468573471, 3468573457, 3468573436], "tags": {"amenity": "shelter", "bench": "yes", "building": "yes", "lit": "no", "shelter_type": "public_transport"}}, {"type": "way", "id": 339891097, "nodes": [3470974040, 3470974579, 3470974041, 3470974075, 3470974040], "tags": {"LINZ2OSM:dataset": "ac_upper_harbour", "LINZ2OSM:layer": "ac_buildings", "LINZ2OSM:source_version": "2015-04-13", "amenity": "shelter", "attribution": "http://www.aucklandcouncil.govt.nz/EN/ratesbuildingproperty/propertyinformation/GIS_maps/Pages/opendata.aspx", "building": "transportation", "linz2osm:objectid": "2447559", "shelter_type": "public_transport", "source": "Auckland Council"}}, {"type": "way", "id": 883992365, "nodes": [8221213404, 8221213405], "tags": {"access": "private", "railway": "funicular"}}, {"type": "way", "id": 883992366, "nodes": [8221213406, 8221213407], "tags": {"access": "private", "railway": "funicular"}}, {"type": "way", "id": 883992367, "nodes": [8221213409, 8221213408], "tags": {"access": "private", "railway": "funicular"}}, {"type": "way", "id": 911664073, "nodes": [8464927954, 8464927955, 8464927956, 8464927957, 8464927954], "tags": {"amenity": "shelter", "bench": "yes", "building": "yes", "lit": "no", "shelter_type": "public_transport"}}, {"type": "way", "id": 911664074, "nodes": [8464927958, 8464927959, 8464927960, 8464927961, 8464927958], "tags": {"amenity": "shelter", "bench": "yes", "building": "yes", "lit": "no", "shelter_type": "public_transport"}}, {"type": "way", "id": 911664075, "nodes": [8464927962, 8464927963, 8464927964, 8464927965, 8464927962], "tags": {"amenity": "shelter", "bench": "yes", "building": "yes", "lit": "no", "shelter_type": "public_transport"}}, {"type": "way", "id": 911664076, "nodes": [8464927966, 8464927967, 8464927968, 8464927969, 8464927966], "tags": {"amenity": "shelter", "bench": "yes", "building": "yes", "lit": "no", "shelter_type": "public_transport"}}, {"type": "way", "id": 911664077, "nodes": [8464927970, 8464927971, 8464927972, 8464927973, 8464927970], "tags": {"amenity": "shelter", "bench": "yes", "building": "yes", "lit": "no", "shelter_type": "public_transport"}}, {"type": "way", "id": 1156854610, "nodes": [10758031593, 10758031594, 10758031595, 10758031596, 10758031593], "tags": {"amenity": "shelter", "building": "transportation", "shelter_type": "public_transport"}}, {"type": "way", "id": 1156854612, "nodes": [10758099707, 10758099708, 10758099709, 10758099710, 10758099707], "tags": {"amenity": "shelter", "bench": "yes", "building": "yes", "lit": "no", "shelter_type": "public_transport"}}, {"type": "way", "id": 1348662515, "nodes": [12475297248, 12475297249], "tags": {"access": "private", "railway": "funicular", "service": "yard"}}, {"type": "relation", "id": 9841943, "members": [{"type": "node", "ref": 3311460164, "role": "platform"}], "tags": {"name": "Takapuna Methodist Church", "name:en": "Takapuna Methodist Church", "network": "AT", "network:wikidata": "Q4819567", "official_name": "Lake Rd / Takapuna Methodist Church", "operator": "Auckland Transport", "public_transport": "stop_area", "ref": "41835", "type": "public_transport"}}, {"type": "relation", "id": 12189564, "members": [{"type": "node", "ref": 2611965360, "role": "platform"}, {"type": "node", "ref": 2611965354, "role": "platform"}], "tags": {"name": "Eric Price Avenue", "name:en": "Eric Price Avenue", "name:mi": "Te Arah\u0101ngai o Eric Price", "network": "AT", "network:wikidata": "Q4819567", "official_name": "Kitchener Rd / Eric Price Ave", "public_transport": "stop_area", "ref": "41093", "type": "public_transport"}}, {"type": "relation", "id": 12189565, "members": [{"type": "node", "ref": 2611965374, "role": "platform"}, {"type": "node", "ref": 2611965367, "role": "platform"}], "tags": {"name": "O'Neills Avenue", "name:en": "O'Neills Avenue", "name:mi": "Te Arah\u0101ngai o O'Neills", "network": "AT", "network:wikidata": "Q4819567", "official_name": "Hurstmere Rd / O'Neills Ave", "public_transport": "stop_area", "ref": "41092", "type": "public_transport"}}, {"type": "relation", "id": 12189573, "members": [{"type": "node", "ref": 2611965377, "role": "platform"}], "tags": {"name": "Brett Avenue", "name:en": "Brett Avenue", "name:mi": "Te Arah\u0101ngai o Brett", "network": "AT", "network:wikidata": "Q4819567", "official_name": "Hurstmere Rd / Brett Ave", "public_transport": "stop_area", "ref": "41091", "type": "public_transport"}}, {"type": "relation", "id": 14982124, "members": [{"type": "node", "ref": 2611965506, "role": "platform"}, {"type": "node", "ref": 2611965512, "role": "platform"}], "tags": {"name": "Bayview Road", "name:en": "Bayview Road", "name:mi": "Te Huarahi o Bayview", "network": "AT", "network:wikidata": "Q4819567", "official_name": "Lake Rd / Bayview Rd", "public_transport": "stop_area", "ref": "21977", "type": "public_transport"}}, {"type": "relation", "id": 14982125, "members": [{"type": "node", "ref": 2611965519, "role": "platform"}], "tags": {"name": "Jutland Road / Lake Road", "name:en": "Jutland Road / Lake Road", "network": "AT", "network:wikidata": "Q4819567", "official_name": "Jutland Rd / Lake Rd", "public_transport": "stop_area", "ref": "41080", "type": "public_transport"}}, {"type": "relation", "id": 14982126, "members": [{"type": "node", "ref": 8666222868, "role": "platform"}, {"type": "node", "ref": 3263007263, "role": "platform"}], "tags": {"name": "Hauraki Corner", "name:en": "Hauraki Corner", "name:mi": "Te Kokonga o Hauraki", "network": "AT", "network:wikidata": "Q4819567", "public_transport": "stop_area", "ref": "41081", "type": "public_transport"}}, {"type": "relation", "id": 14982127, "members": [{"type": "node", "ref": 2611965555, "role": "platform"}, {"type": "node", "ref": 2611965547, "role": "platform"}], "tags": {"name": "Northboro Road / Jutland Road", "name:en": "Northboro Road / Jutland Road", "name:mi": "Te Huarahi o Northboro / Te Huarahi o Jutland", "network": "AT", "network:wikidata": "Q4819567", "public_transport": "stop_area", "ref": "41074", "type": "public_transport"}}, {"type": "relation", "id": 15036835, "members": [{"type": "node", "ref": 3263007398, "role": "platform"}, {"type": "node", "ref": 3263007397, "role": "platform"}], "tags": {"name": "Eton Avenue", "name:en": "Eton Avenue", "name:mi": "Te Arah\u0101ngai o Eton", "network": "AT", "network:wikidata": "Q4819567", "official_name": "Tainui Rd / Eton Ave", "public_transport": "stop_area", "ref": "41021", "type": "public_transport"}}, {"type": "relation", "id": 15036836, "members": [{"type": "node", "ref": 3263007390, "role": "platform"}, {"type": "node", "ref": 3263007392, "role": "platform"}], "tags": {"name": "Mata\u012b Road", "name:en": "Mata\u012b Road", "name:mi": "Te Huarahi o Mata\u012b", "network": "AT", "network:wikidata": "Q4819567", "public_transport": "stop_area", "ref": "41022", "type": "public_transport"}}, {"type": "relation", "id": 15036837, "members": [{"type": "node", "ref": 2085588287, "role": "platform"}, {"type": "node", "ref": 2085588289, "role": "platform"}, {"type": "node", "ref": 3263007384, "role": "platform"}], "tags": {"name": "Vauxhall Road Shops", "name:en": "Vauxhall Road Shops", "name:mi": "Ng\u0101 Toa o te Huarahi o Vauxhall", "network": "AT", "network:wikidata": "Q4819567", "public_transport": "stop_area", "ref": "21978", "type": "public_transport"}}, {"type": "relation", "id": 15036838, "members": [{"type": "node", "ref": 2085588300, "role": "platform"}, {"type": "node", "ref": 2085588297, "role": "platform"}], "tags": {"name": "Albert Road", "official_name": "Vauxhall Rd / Albert Rd", "public_transport": "stop_area", "ref": "41024", "type": "public_transport"}}, {"type": "relation", "id": 15036839, "members": [{"type": "node", "ref": 3263007389, "role": "platform"}, {"type": "node", "ref": 3263007387, "role": "platform"}], "tags": {"name": "Cambria Road", "name:en": "Cambria Road", "name:mi": "Te Huarahi o Cambria", "network": "AT", "network:wikidata": "Q4819567", "public_transport": "stop_area", "ref": "41023", "type": "public_transport"}}, {"type": "relation", "id": 15036843, "members": [{"type": "node", "ref": 3263007394, "role": "platform"}, {"type": "node", "ref": 3263007395, "role": "platform"}], "tags": {"name": "Church Street", "name:en": "Church Street", "name:mi": "Te Tiriti o Church", "network": "AT", "network:wikidata": "Q4819567", "note": "AT has a typo in this station's name", "official_name": "Church Sreet", "public_transport": "stop_area", "ref": "41059", "type": "public_transport"}}, {"type": "relation", "id": 15036844, "members": [{"type": "node", "ref": 3263007396, "role": "platform"}], "tags": {"name": "Albert Road / Lake Road", "name:en": "Albert Road / Lake Road", "name:mi": "Te Huarahi o Albert / Te Huarahi o Lake", "network": "AT", "network:wikidata": "Q4819567", "public_transport": "stop_area", "ref": "41058", "type": "public_transport"}}, {"type": "relation", "id": 15635653, "members": [{"type": "node", "ref": 3263003860, "role": "platform"}, {"type": "node", "ref": 3263003859, "role": "platform"}], "tags": {"name": "Cameron Street", "name:en": "Cameron Street", "name:mi": "Te Tiriti o Cameron", "network": "AT", "network:wikidata": "Q4819567", "official_name": "Lake Rd / Cameron St", "public_transport": "stop_area", "ref": "41082", "type": "public_transport"}}, {"type": "relation", "id": 15635654, "members": [{"type": "node", "ref": 2611965568, "role": "platform"}, {"type": "node", "ref": 2611965562, "role": "platform"}, {"type": "way", "ref": 339891097, "role": "shelter"}], "tags": {"name": "Birchfield Road", "name:en": "Birchfield Road", "name:mi": "Te Huarahi o Birchfield", "network": "AT", "network:wikidata": "Q4819567", "official_name": "Northboro Rd / Birchfield Rd", "public_transport": "stop_area", "ref": "41073", "type": "public_transport"}}, {"type": "relation", "id": 15635655, "members": [{"type": "node", "ref": 3263007287, "role": "platform"}, {"type": "node", "ref": 3263007288, "role": "platform"}, {"type": "way", "ref": 1156854610, "role": "shelter"}], "tags": {"name": "Northboro Road / Eversleigh Road", "name:en": "Northboro Road / Eversleigh Road", "name:mi": "Te Huarahi o Northboro / Te Huarahi o Eversleigh", "network": "AT", "network:wikidata": "Q4819567", "public_transport": "stop_area", "ref": "41072", "type": "public_transport"}}, {"type": "relation", "id": 15635656, "members": [{"type": "node", "ref": 3263007269, "role": "platform"}, {"type": "node", "ref": 3263007270, "role": "platform"}], "tags": {"name": "Wilson School", "name:en": "Wilson School", "name:mi": "Te Kura o Wilson", "network": "AT", "network:wikidata": "Q4819567", "official_name": "Lake Rd / Wilson School", "public_transport": "stop_area", "ref": "41830", "type": "public_transport"}}, {"type": "relation", "id": 15635657, "members": [{"type": "node", "ref": 3263007280, "role": "platform"}], "tags": {"name": "Takapuna Grammar School", "name:en": "Takapuna Grammar School", "name:mi": "Te Kura Tuarua o Takapuna", "network": "AT", "network:wikidata": "Q4819567", "official_name": "Lake Rd / Takapuna Grammar School", "public_transport": "stop_area", "ref": "41832", "type": "public_transport"}}, {"type": "relation", "id": 15635658, "members": [{"type": "node", "ref": 3263007305, "role": "platform"}], "tags": {"name": "Belmont Intermediate School", "network": "AT", "network:wikidata": "Q4819567", "official_name": "Lake Rd / Belmont Intermediate School", "public_transport": "stop_area", "ref": "41069", "type": "public_transport"}}, {"type": "relation", "id": 15635659, "members": [{"type": "node", "ref": 3263007311, "role": "platform"}], "tags": {"name": "Winscombe Street", "name:en": "Winscombe Street", "name:mi": "Te Tiriti o Winscombe", "network": "AT", "network:wikidata": "Q4819567", "public_transport": "stop_area", "ref": "49599", "type": "public_transport"}}, {"type": "relation", "id": 15635660, "members": [{"type": "node", "ref": 3263007335, "role": "platform"}, {"type": "node", "ref": 3263007333, "role": "platform"}, {"type": "way", "ref": 911664077, "role": "shelter"}, {"type": "way", "ref": 911664076, "role": "shelter"}], "tags": {"name": "Moana Avenue", "name:en": "Moana Avenue", "name:mi": "Te Arah\u0101ngai o Moana", "network": "AT", "network:wikidata": "Q4819567", "official_name": "Bayswater Ave / Moana Ave", "public_transport": "stop_area", "ref": "41042", "type": "public_transport"}}, {"type": "relation", "id": 15635661, "members": [{"type": "node", "ref": 10559094500, "role": "platform"}, {"type": "node", "ref": 3263007338, "role": "platform"}, {"type": "way", "ref": 339639612, "role": "shelter"}, {"type": "way", "ref": 1156854612, "role": "shelter"}], "tags": {"name": "Preston Avenue", "name:en": "Preston Avenue", "name:mi": "Te Arah\u0101ngai o Preston", "network": "AT", "network:wikidata": "Q4819567", "official_name": "Bayswater Ave / Preston Ave", "public_transport": "stop_area", "ref": "41043", "type": "public_transport"}}, {"type": "relation", "id": 15635662, "members": [{"type": "node", "ref": 3263007343, "role": "platform"}, {"type": "node", "ref": 3263007346, "role": "platform"}, {"type": "way", "ref": 911664074, "role": "shelter"}, {"type": "way", "ref": 911664075, "role": "shelter"}], "tags": {"name": "Leander Road", "name:en": "Leander Road", "name:mi": "Te Huarahi o Leander", "network": "AT", "network:wikidata": "Q4819567", "official_name": "Bayswater Ave / Leander Rd", "public_transport": "stop_area", "ref": "41044", "type": "public_transport"}}, {"type": "relation", "id": 15635663, "members": [{"type": "node", "ref": 2559441305, "role": "platform"}, {"type": "node", "ref": 2611965585, "role": "platform"}, {"type": "way", "ref": 911664073, "role": "shelter"}, {"type": "way", "ref": 339492852, "role": "shelter"}], "tags": {"name": "Bayswater Park", "name:en": "Bayswater Park", "name:mi": "Te Papa R\u0113hia o Bayswater", "network": "AT", "network:wikidata": "Q4819567", "public_transport": "stop_area", "ref": "41046", "type": "public_transport"}}, {"type": "relation", "id": 15635664, "members": [{"type": "node", "ref": 2611965592, "role": "platform"}, {"type": "node", "ref": 2559441321, "role": "platform"}, {"type": "way", "ref": 339492802, "role": "shelter"}, {"type": "way", "ref": 339492707, "role": "shelter"}], "tags": {"name": "Sandy Bay Road", "name:en": "Sandy Bay Road", "name:mi": "Te Huarahi o Sandy Bay", "network": "AT", "network:wikidata": "Q4819567", "public_transport": "stop_area", "ref": "41047", "type": "public_transport"}}, {"type": "relation", "id": 15635665, "members": [{"type": "node", "ref": 3263007366, "role": "platform"}, {"type": "node", "ref": 3263007367, "role": "platform"}, {"type": "way", "ref": 339492503, "role": "shelter"}], "tags": {"name": "Balfour Street", "name:en": "Balfour Street", "name:mi": "Te Tiriti o Balfour", "network": "AT", "network:wikidata": "Q4819567", "official_name": "Bayswater Ave / Balfour St", "public_transport": "stop_area", "ref": "41048", "type": "public_transport"}}, {"type": "relation", "id": 15635673, "members": [{"type": "node", "ref": 2611965540, "role": "platform"}, {"type": "node", "ref": 2611965526, "role": "platform"}], "tags": {"name": "Clifton Road", "name:en": "Clifton Road", "name:mi": "Te Huarahi o Clifton", "network": "AT", "network:wikidata": "Q4819567", "official_name": "Lake Rd / Clifton Rd", "public_transport": "stop_area", "ref": "41833", "type": "public_transport"}}, {"type": "relation", "id": 15908300, "members": [{"type": "node", "ref": 2085588282, "role": "platform"}, {"type": "node", "ref": 2085588283, "role": "platform"}], "tags": {"name": "Morrison Avenue", "name:en": "Morrison Avenue", "name:mi": "Te Arah\u0101ngai o Morrison", "network": "AT", "network:wikidata": "Q4819567", "public_transport": "stop_area", "ref": "41025", "type": "public_transport"}}, {"type": "relation", "id": 15908301, "members": [{"type": "node", "ref": 2085588284, "role": "platform"}, {"type": "node", "ref": 2085588285, "role": "platform"}], "tags": {"name": "Ascot Avenue", "name:en": "Ascot Avenue", "name:mi": "Te Arah\u0101ngai o Ascot", "network": "AT", "network:wikidata": "Q4819567", "public_transport": "stop_area", "ref": "41027", "type": "public_transport"}}, {"type": "relation", "id": 15908302, "members": [{"type": "node", "ref": 3263007364, "role": "platform"}, {"type": "node", "ref": 3263007355, "role": "platform"}], "tags": {"name": "Narrow Neck Beach", "network": "AT", "network:wikidata": "Q4819567", "public_transport": "stop_area", "ref": "41029", "type": "public_transport"}}, {"type": "relation", "id": 15908303, "members": [{"type": "node", "ref": 3263007351, "role": "platform"}, {"type": "node", "ref": 10559094501, "role": "platform"}], "tags": {"name": "Merani Street", "name:en": "Merani Street", "name:mi": "Te Tiriti o Merani", "network": "AT", "network:wikidata": "Q4819567", "public_transport": "stop_area", "ref": "41031", "type": "public_transport"}}, {"type": "relation", "id": 15908304, "members": [{"type": "node", "ref": 3263007353, "role": "platform"}, {"type": "node", "ref": 3263007352, "role": "platform"}], "tags": {"name": "Wicklow Road", "name:en": "Wicklow Road", "name:mi": "Te Huarahi o Wicklow", "network": "AT", "network:wikidata": "Q4819567", "public_transport": "stop_area", "ref": "41033", "type": "public_transport"}}, {"type": "relation", "id": 15908305, "members": [{"type": "node", "ref": 3263007356, "role": "platform"}, {"type": "node", "ref": 3263007354, "role": "platform"}], "tags": {"name": "Old Lake Road / Fraser Road", "name:en": "Old Lake Road / Fraser Road", "name:mi": "Te Huarahi o Old Lake / Te Huarahi o Fraser", "network": "AT", "network:wikidata": "Q4819567", "public_transport": "stop_area", "ref": "41035", "type": "public_transport"}}, {"type": "relation", "id": 15908306, "members": [{"type": "node", "ref": 3263007359, "role": "platform"}, {"type": "node", "ref": 3263007362, "role": "platform"}], "tags": {"name": "Lake Rd / Kawerau Ave", "public_transport": "stop_area", "ref": "41036", "type": "public_transport"}}, {"type": "relation", "id": 15908307, "members": [{"type": "node", "ref": 3263007370, "role": "platform"}, {"type": "node", "ref": 3263007368, "role": "platform"}], "tags": {"name": "Regent Street", "name:en": "Regent Street", "name:mi": "Te Tiriti o Regent", "network": "AT", "network:wikidata": "Q4819567", "public_transport": "stop_area", "ref": "41038", "type": "public_transport"}}, {"type": "relation", "id": 15908308, "members": [{"type": "node", "ref": 3263007378, "role": "platform"}, {"type": "node", "ref": 3263007376, "role": "platform"}], "tags": {"name": "Wesley Street", "name:en": "Wesley Street", "name:mi": "Te Tiriti o Wesley", "network": "AT", "network:wikidata": "Q4819567", "public_transport": "stop_area", "ref": "41039", "type": "public_transport"}}, {"type": "relation", "id": 15908309, "members": [{"type": "node", "ref": 3263003857, "role": "platform"}, {"type": "node", "ref": 3263007339, "role": "platform"}], "tags": {"name": "Montgomery Avenue", "name:en": "Montgomery Avenue", "name:mi": "Te Arah\u0101ngai o Montgomery", "network": "AT", "network:wikidata": "Q4819567", "public_transport": "stop_area", "ref": "41041", "type": "public_transport"}}, {"type": "relation", "id": 15908310, "members": [{"type": "node", "ref": 3263007379, "role": "platform"}, {"type": "node", "ref": 3263007377, "role": "platform"}], "tags": {"name": "William Sanders Retirement Village", "network": "AT", "network:wikidata": "Q4819567", "public_transport": "stop_area", "ref": "41060", "type": "public_transport"}}, {"type": "relation", "id": 15908311, "members": [{"type": "node", "ref": 3263007320, "role": "platform"}, {"type": "node", "ref": 10857165474, "role": "platform"}], "tags": {"name": "Williamson Avenue", "name:en": "Williamson Avenue", "name:mi": "Te Arah\u0101ngai o Williamson", "network": "AT", "network:wikidata": "Q4819567", "public_transport": "stop_area", "ref": "41064", "type": "public_transport"}}, {"type": "relation", "id": 15908312, "members": [{"type": "node", "ref": 3263007315, "role": "platform"}, {"type": "node", "ref": 3263007316, "role": "platform"}], "tags": {"name": "Coronation Street", "name:en": "Coronation Street", "name:mi": "Te Tiriti o Coronation", "network": "AT", "network:wikidata": "Q4819567", "public_transport": "stop_area", "ref": "41070", "type": "public_transport"}}, {"type": "relation", "id": 15908313, "members": [{"type": "node", "ref": 3263007295, "role": "platform"}, {"type": "node", "ref": 3263007301, "role": "platform"}], "tags": {"name": "Rutherford Street", "name:en": "Rutherford Street", "name:mi": "Te Tiriti o Rutherford", "network": "AT", "network:wikidata": "Q4819567", "public_transport": "stop_area", "ref": "41071", "type": "public_transport"}}, {"type": "relation", "id": 15908402, "members": [{"type": "node", "ref": 3263007313, "role": "platform"}, {"type": "node", "ref": 3263007309, "role": "platform"}], "tags": {"name": "Creamer Avenue / Eversleigh Road", "name:en": "Creamer Avenue / Eversleigh Road", "name:mi": "Te Arah\u0101ngai o Creamer / Te Huarahi o Eversleigh", "network": "AT", "network:wikidata": "Q4819567", "public_transport": "stop_area", "ref": "41642", "type": "public_transport"}}, {"type": "relation", "id": 15908404, "members": [{"type": "node", "ref": 3263007386, "role": "platform"}, {"type": "node", "ref": 3263007388, "role": "platform"}], "tags": {"name": "Mozeley Avenue", "name:en": "Mozeley Avenue", "name:mi": "Te Arah\u0101ngai o Mozeley", "network": "AT", "network:wikidata": "Q4819567", "public_transport": "stop_area", "ref": "41829", "type": "public_transport"}}]}