{"version": 0.6, "generator": "Overpass API 0.7.62.8 e802775f", "osm3s": {"timestamp_osm_base": "2026-01-16T05:36:07Z", "copyright": "The data included in this document is from www.openstreetmap.org. The data is made available under ODbL."}, "elements": [{"type": "node", "id": 21563530, "lat": 59.8245058, "lon": 17.7109144, "tags": {"addr:city": "Uppsala", "addr:country": "SE", "addr:place": "Bergsbrunna"}}, {"type": "node", "id": 21563531, "lat": 59.8219893, "lon": 17.7149053, "tags": {"addr:city": "Uppsala", "addr:country": "SE"}}, {"type": "node", "id": 21563533, "lat": 59.8189131, "lon": 17.7192598, "tags": {"addr:city": "Uppsala", "addr:country": "SE", "railway": "signal", "railway:position:exact": "59.776", "railway:signal:crossing_distant": "SE:V\u00e4gskyddsf\u00f6rsignal", "railway:signal:crossing_distant:form": "light", "railway:signal:direction": "forward", "railway:signal:position": "left"}}, {"type": "node", "id": 21563534, "lat": 59.8166772, "lon": 17.7222253, "tags": {"addr:city": "Uppsala", "addr:country": "SE"}}, {"type": "node", "id": 21563536, "lat": 59.8126706, "lon": 17.7266431, "tags": {"addr:city": "Uppsala", "addr:country": "SE", "railway": "signal", "railway:position:exact": "58.967", "railway:signal:crossing_distant": "SE:V\u00e4gskyddsf\u00f6rsignal", "railway:signal:crossing_distant:form": "light", "railway:signal:direction": "backward", "railway:signal:position": "left"}}, {"type": "node", "id": 24952667, "lat": 59.8151066, "lon": 17.7240145, "tags": {"addr:city": "Uppsala", "addr:country": "SE", "railway": "level_crossing"}}, {"type": "node", "id": 274912409, "lat": 59.8228529, "lon": 17.7135776, "tags": {"addr:city": "Uppsala", "addr:country": "SE"}}, {"type": "node", "id": 274912418, "lat": 59.8131302, "lon": 17.7261457, "tags": {"addr:city": "Uppsala", "addr:country": "SE"}}, {"type": "node", "id": 320273546, "lat": 59.8236792, "lon": 17.712277, "tags": {"addr:city": "Uppsala", "addr:country": "SE"}}, {"type": "node", "id": 1265055602, "lat": 59.8103237, "lon": 17.7291907, "tags": {"addr:city": "Uppsala", "addr:country": "SE"}}, {"type": "node", "id": 1281423121, "lat": 59.8232554, "lon": 17.7129431, "tags": {"addr:city": "Uppsala", "addr:country": "SE"}}, {"type": "node", "id": 1281705332, "lat": 59.8263485, "lon": 17.7077512, "tags": {"railway": "level_crossing"}}, {"type": "node", "id": 1504326183, "lat": 59.8289676, "lon": 17.7027675}, {"type": "node", "id": 1504326273, "lat": 59.8286606, "lon": 17.7033445}, {"type": "node", "id": 1504411367, "lat": 59.8284605, "lon": 17.7038135}, {"type": "node", "id": 1504411368, "lat": 59.8284333, "lon": 17.7037756, "tags": {"railway": "switch"}}, {"type": "node", "id": 1504411369, "lat": 59.8280324, "lon": 17.7046386}, {"type": "node", "id": 1504411371, "lat": 59.8286853, "lon": 17.7033893, "tags": {"railway": "switch"}}, {"type": "node", "id": 1504412260, "lat": 59.8273108, "lon": 17.705903}, {"type": "node", "id": 1504412262, "lat": 59.8280886, "lon": 17.7044466}, {"type": "node", "id": 1504412264, "lat": 59.8273318, "lon": 17.7059627}, {"type": "node", "id": 1504990913, "lat": 59.8263242, "lon": 17.7077005, "tags": {"railway": "level_crossing"}}, {"type": "node", "id": 1505004073, "lat": 59.8257195, "lon": 17.7087755}, {"type": "node", "id": 1505004077, "lat": 59.8236554, "lon": 17.7122221, "tags": {"addr:city": "Uppsala", "addr:country": "SE"}}, {"type": "node", "id": 1505004080, "lat": 59.8248984, "lon": 17.7101697, "tags": {"addr:city": "Uppsala", "addr:country": "SE", "addr:place": "Bergsbrunna"}}, {"type": "node", "id": 1505004093, "lat": 59.8253328, "lon": 17.7095317, "tags": {"addr:city": "Uppsala", "addr:country": "SE", "addr:place": "Bergsbrunna"}}, {"type": "node", "id": 1505004101, "lat": 59.8257442, "lon": 17.7088286}, {"type": "node", "id": 1505004107, "lat": 59.8232334, "lon": 17.71289, "tags": {"addr:city": "Uppsala", "addr:country": "SE"}}, {"type": "node", "id": 1505004120, "lat": 59.8240905, "lon": 17.7115944, "tags": {"addr:city": "Uppsala", "addr:country": "SE"}}, {"type": "node", "id": 1505004149, "lat": 59.8253151, "lon": 17.7094675, "tags": {"addr:city": "Uppsala", "addr:country": "SE", "addr:place": "Bergsbrunna"}}, {"type": "node", "id": 1505004160, "lat": 59.8244833, "lon": 17.7108703, "tags": {"addr:city": "Uppsala", "addr:country": "SE", "addr:place": "Bergsbrunna"}}, {"type": "node", "id": 1505004181, "lat": 59.8240694, "lon": 17.7115543, "tags": {"addr:city": "Uppsala", "addr:country": "SE"}}, {"type": "node", "id": 1505004184, "lat": 59.8249211, "lon": 17.7102244, "tags": {"addr:city": "Uppsala", "addr:country": "SE", "addr:place": "Bergsbrunna"}}, {"type": "node", "id": 1505007030, "lat": 59.8224247, "lon": 17.7142455, "tags": {"addr:city": "Uppsala", "addr:country": "SE"}}, {"type": "node", "id": 1505007034, "lat": 59.8224011, "lon": 17.7141933, "tags": {"addr:city": "Uppsala", "addr:country": "SE"}}, {"type": "node", "id": 1505007037, "lat": 59.8219701, "lon": 17.7148427, "tags": {"addr:city": "Uppsala", "addr:country": "SE"}}, {"type": "node", "id": 1505007042, "lat": 59.8228317, "lon": 17.7135203, "tags": {"addr:city": "Uppsala", "addr:country": "SE"}}, {"type": "node", "id": 1505011503, "lat": 59.8202253, "lon": 17.717372, "tags": {"addr:city": "Uppsala", "addr:country": "SE"}}, {"type": "node", "id": 1505011504, "lat": 59.8162177, "lon": 17.7227765, "tags": {"addr:city": "Uppsala", "addr:country": "SE"}}, {"type": "node", "id": 1505011505, "lat": 59.8157406, "lon": 17.7233166, "tags": {"addr:city": "Uppsala", "addr:country": "SE"}}, {"type": "node", "id": 1505011506, "lat": 59.8215371, "lon": 17.7154858, "tags": {"addr:city": "Uppsala", "addr:country": "SE"}}, {"type": "node", "id": 1505011507, "lat": 59.8202505, "lon": 17.7174307, "tags": {"addr:city": "Uppsala", "addr:country": "SE"}}, {"type": "node", "id": 1505011508, "lat": 59.8188944, "lon": 17.7191959, "tags": {"addr:city": "Uppsala", "addr:country": "SE", "railway": "signal", "railway:position:exact": "59.776", "railway:signal:crossing_distant": "SE:V\u00e4gskyddsf\u00f6rsignal", "railway:signal:crossing_distant:form": "light", "railway:signal:direction": "backward", "railway:signal:position": "left"}}, {"type": "node", "id": 1505011510, "lat": 59.8184747, "lon": 17.7198666, "tags": {"addr:city": "Uppsala", "addr:country": "SE"}}, {"type": "node", "id": 1505011512, "lat": 59.819334, "lon": 17.7186004, "tags": {"addr:city": "Uppsala", "addr:country": "SE"}}, {"type": "node", "id": 1505011513, "lat": 59.815287, "lon": 17.7238113, "tags": {"addr:city": "Uppsala", "addr:country": "SE", "railway": "signal", "railway:position:exact": "59.299", "railway:signal:crossing": "SE:V\u00e4gskyddssignal", "railway:signal:crossing:form": "light", "railway:signal:direction": "both", "railway:signal:position": "left"}}, {"type": "node", "id": 1505011515, "lat": 59.8197998, "lon": 17.7180545, "tags": {"addr:city": "Uppsala", "addr:country": "SE"}}, {"type": "node", "id": 1505011534, "lat": 59.8206898, "lon": 17.7168109, "tags": {"addr:city": "Uppsala", "addr:country": "SE"}}, {"type": "node", "id": 1505011535, "lat": 59.8171091, "lon": 17.7215965, "tags": {"addr:city": "Uppsala", "addr:country": "SE"}}, {"type": "node", "id": 1505011536, "lat": 59.8206662, "lon": 17.7167551, "tags": {"addr:city": "Uppsala", "addr:country": "SE"}}, {"type": "node", "id": 1505011537, "lat": 59.8157201, "lon": 17.7232675, "tags": {"addr:city": "Uppsala", "addr:country": "SE"}}, {"type": "node", "id": 1505011538, "lat": 59.8215624, "lon": 17.7155356, "tags": {"addr:city": "Uppsala", "addr:country": "SE"}}, {"type": "node", "id": 1505011540, "lat": 59.819352, "lon": 17.7186588, "tags": {"addr:city": "Uppsala", "addr:country": "SE"}}, {"type": "node", "id": 1505011543, "lat": 59.8184481, "lon": 17.7197967, "tags": {"addr:city": "Uppsala", "addr:country": "SE"}}, {"type": "node", "id": 1505011544, "lat": 59.8175791, "lon": 17.7210749, "tags": {"addr:city": "Uppsala", "addr:country": "SE"}}, {"type": "node", "id": 1505011546, "lat": 59.8175539, "lon": 17.7210273, "tags": {"addr:city": "Uppsala", "addr:country": "SE"}}, {"type": "node", "id": 1505011549, "lat": 59.8152736, "lon": 17.7237551, "tags": {"addr:city": "Uppsala", "addr:country": "SE"}}, {"type": "node", "id": 1505011551, "lat": 59.8179974, "lon": 17.7204163, "tags": {"addr:city": "Uppsala", "addr:country": "SE", "railway": "signal", "railway:position:exact": "59.656", "railway:signal:combined": "SE:Mellanblocksignal", "railway:signal:combined:form": "light", "railway:signal:combined:function": "block", "railway:signal:direction": "backward", "railway:signal:position": "right", "ref": "S\u00e4y U3"}}, {"type": "node", "id": 1505011554, "lat": 59.8197775, "lon": 17.717991, "tags": {"addr:city": "Uppsala", "addr:country": "SE"}}, {"type": "node", "id": 1505011557, "lat": 59.8161946, "lon": 17.7227171, "tags": {"addr:city": "Uppsala", "addr:country": "SE"}}, {"type": "node", "id": 1505011567, "lat": 59.8166573, "lon": 17.722157, "tags": {"addr:city": "Uppsala", "addr:country": "SE"}}, {"type": "node", "id": 1505011568, "lat": 59.8211259, "lon": 17.7161839, "tags": {"addr:city": "Uppsala", "addr:country": "SE"}}, {"type": "node", "id": 1505011570, "lat": 59.8150774, "lon": 17.7239649, "tags": {"addr:city": "Uppsala", "addr:country": "SE", "railway": "level_crossing"}}, {"type": "node", "id": 1505011573, "lat": 59.8180204, "lon": 17.7204793, "tags": {"addr:city": "Uppsala", "addr:country": "SE", "railway": "signal", "railway:position:exact": "59.656", "railway:signal:combined": "SE:Mellanblocksignal", "railway:signal:combined:form": "light", "railway:signal:combined:function": "block", "railway:signal:direction": "forward", "railway:signal:position": "left", "ref": "S\u00e4y N3"}}, {"type": "node", "id": 1505011576, "lat": 59.8171305, "lon": 17.7216497, "tags": {"addr:city": "Uppsala", "addr:country": "SE"}}, {"type": "node", "id": 1505011579, "lat": 59.8210991, "lon": 17.7161301, "tags": {"addr:city": "Uppsala", "addr:country": "SE"}}, {"type": "node", "id": 1505034999, "lat": 59.8113498, "lon": 17.7280882, "tags": {"addr:city": "Uppsala", "addr:country": "SE"}}, {"type": "node", "id": 1505035003, "lat": 59.8126542, "lon": 17.7265796, "tags": {"addr:city": "Uppsala", "addr:country": "SE", "railway": "signal", "railway:position:exact": "58.967", "railway:signal:crossing_distant": "SE:V\u00e4gskyddsf\u00f6rsignal", "railway:signal:crossing_distant:form": "light", "railway:signal:direction": "forward", "railway:signal:position": "left"}}, {"type": "node", "id": 1505035010, "lat": 59.8131105, "lon": 17.726089, "tags": {"addr:city": "Uppsala", "addr:country": "SE"}}, {"type": "node", "id": 1505035018, "lat": 59.8139922, "lon": 17.7252216, "tags": {"addr:city": "Uppsala", "addr:country": "SE"}}, {"type": "node", "id": 1505035030, "lat": 59.8139748, "lon": 17.7251606, "tags": {"addr:city": "Uppsala", "addr:country": "SE"}}, {"type": "node", "id": 1505035044, "lat": 59.8117561, "lon": 17.7276299, "tags": {"addr:city": "Uppsala", "addr:country": "SE"}}, {"type": "node", "id": 1505035072, "lat": 59.8103025, "lon": 17.7291333, "tags": {"addr:city": "Uppsala", "addr:country": "SE"}}, {"type": "node", "id": 1505035077, "lat": 59.8113288, "lon": 17.7280202, "tags": {"addr:city": "Uppsala", "addr:country": "SE"}}, {"type": "node", "id": 1505035096, "lat": 59.8144104, "lon": 17.7247688, "tags": {"addr:city": "Uppsala", "addr:country": "SE"}}, {"type": "node", "id": 1505035104, "lat": 59.8143835, "lon": 17.7247153, "tags": {"addr:city": "Uppsala", "addr:country": "SE"}}, {"type": "node", "id": 1505035109, "lat": 59.8121717, "lon": 17.7270918, "tags": {"addr:city": "Uppsala", "addr:country": "SE"}}, {"type": "node", "id": 1505035131, "lat": 59.8108728, "lon": 17.728617, "tags": {"addr:city": "Uppsala", "addr:country": "SE"}}, {"type": "node", "id": 1505035142, "lat": 59.8117375, "lon": 17.7275696, "tags": {"addr:city": "Uppsala", "addr:country": "SE"}}, {"type": "node", "id": 1505035147, "lat": 59.8135825, "lon": 17.7255901, "tags": {"addr:city": "Uppsala", "addr:country": "SE"}}, {"type": "node", "id": 1505035149, "lat": 59.8136024, "lon": 17.7256457, "tags": {"addr:city": "Uppsala", "addr:country": "SE"}}, {"type": "node", "id": 1505035154, "lat": 59.8121917, "lon": 17.727161, "tags": {"addr:city": "Uppsala", "addr:country": "SE"}}, {"type": "node", "id": 1505035163, "lat": 59.8108553, "lon": 17.7285428, "tags": {"addr:city": "Uppsala", "addr:country": "SE"}}, {"type": "node", "id": 1505042083, "lat": 59.8078944, "lon": 17.73172, "tags": {"addr:city": "Uppsala", "addr:country": "SE"}}, {"type": "node", "id": 1505042108, "lat": 59.8079171, "lon": 17.731784, "tags": {"addr:city": "Uppsala", "addr:country": "SE"}}, {"type": "node", "id": 2180408373, "lat": 59.8499701, "lon": 17.6629515}, {"type": "node", "id": 3065642506, "lat": 59.8060581, "lon": 17.6912477}, {"type": "node", "id": 3065642508, "lat": 59.8061382, "lon": 17.6915123}, {"type": "node", "id": 4786943302, "lat": 59.8089206, "lon": 17.6970957, "tags": {"bench": "yes", "bin": "yes", "check_date:shelter": "2024-06-28", "gtfs:location_type:SE-UL": "0", "gtfs:parent_station:SE-UL": "9021003700342000", "gtfs:platform_code:SE-UL": "A", "gtfs:stop_id:SE-UL": "9022003700342001", "gtfs:stop_name:SE-UL": "Uppsala Gotlandsresan", "highway": "bus_stop", "name": "Gotlandsresan", "network": "UL", "route_ref": "5;31", "shelter": "yes"}}, {"type": "node", "id": 6757593709, "lat": 59.819397, "lon": 17.6570311, "tags": {"bench": "yes", "bin": "no", "highway": "bus_stop", "name": "Veterin\u00e4rv\u00e4gen", "network": "UL", "route_ref": "4;12", "shelter": "no"}}, {"type": "node", "id": 6757593712, "lat": 59.8152907, "lon": 17.6593009, "tags": {"bench": "yes", "bin": "yes", "highway": "bus_stop", "name": "Campus Ultuna", "network": "UL", "route_ref": "4;12;100;101;188", "shelter": "yes"}}, {"type": "node", "id": 6848099919, "lat": 59.8087234, "lon": 17.6959003, "tags": {"bench": "no", "bin": "yes", "gtfs:location_type:SE-UL": "0", "gtfs:parent_station:SE-UL": "9021003700342000", "gtfs:platform_code:SE-UL": "B", "gtfs:stop_id:SE-UL": "9022003700342002", "gtfs:stop_name:SE-UL": "Uppsala Gotlandsresan", "highway": "bus_stop", "name": "Gotlandsresan", "network": "UL", "route_ref": "5;14", "shelter": "no"}}, {"type": "node", "id": 6848099920, "lat": 59.8109856, "lon": 17.7015898, "tags": {"bench": "yes", "bin": "yes", "check_date:shelter": "2024-06-28", "departures_board": "timetable", "gtfs:location_type:SE-UL": "0", "gtfs:parent_station:SE-UL": "9021003700340000", "gtfs:platform_code:SE-UL": "A", "gtfs:stop_id:SE-UL": "9022003700340001", "gtfs:stop_name:SE-UL": "Uppsala Daneport", "highway": "bus_stop", "lit": "no", "name": "Daneport", "network": "UL", "route_ref": "5", "shelter": "yes", "tactile_paving": "yes"}}, {"type": "node", "id": 6848099922, "lat": 59.8141098, "lon": 17.7022738, "tags": {"bench": "yes", "bin": "yes", "gtfs:location_type:SE-UL": "0", "gtfs:parent_station:SE-UL": "9021003700339000", "gtfs:platform_code:SE-UL": "C", "gtfs:stop_id:SE-UL": "9022003700339003", "gtfs:stop_name:SE-UL": "Uppsala \u00d6landsresan", "highway": "bus_stop", "name": "\u00d6landsresan", "network": "UL", "passenger_information_display": "no", "route_ref": "5", "shelter": "yes"}}, {"type": "node", "id": 6848099923, "lat": 59.8139237, "lon": 17.7028236, "tags": {"bench": "yes", "bin": "yes", "gtfs:location_type:SE-UL": "0", "gtfs:parent_station:SE-UL": "9021003700339000", "gtfs:platform_code:SE-UL": "D", "gtfs:stop_id:SE-UL": "9022003700339004", "gtfs:stop_name:SE-UL": "Uppsala \u00d6landsresan", "highway": "bus_stop", "name": "\u00d6landsresan", "network": "UL", "route_ref": "5", "shelter": "no"}}, {"type": "node", "id": 6848099925, "lat": 59.8153413, "lon": 17.6998041, "tags": {"bench": "yes", "bin": "yes", "gtfs:location_type:SE-UL": "0", "gtfs:parent_station:SE-UL": "9021003700338000", "gtfs:platform_code:SE-UL": "B", "gtfs:stop_id:SE-UL": "9022003700338002", "gtfs:stop_name:SE-UL": "Uppsala Lapplandsresan", "highway": "bus_stop", "name": "Lapplandsresan", "network": "UL", "route_ref": "5", "shelter": "no"}}, {"type": "node", "id": 6848099926, "lat": 59.8217369, "lon": 17.6991384, "tags": {"bench": "yes", "bin": "yes", "gtfs:location_type:SE-UL": "0", "gtfs:parent_station:SE-UL": "9021003700367000", "gtfs:platform_code:SE-UL": "E", "gtfs:stop_id:SE-UL": "9022003700367005", "gtfs:stop_name:SE-UL": "Uppsala N\u00e4mndemansv\u00e4gen", "highway": "bus_stop", "name": "N\u00e4mndemansv\u00e4gen", "network": "UL", "route_ref": "5;10", "shelter": "yes", "tactile_paving": "yes"}}, {"type": "node", "id": 6848099927, "lat": 59.8216128, "lon": 17.6988459, "tags": {"bench": "yes", "bin": "yes", "gtfs:location_type:SE-UL": "0", "gtfs:parent_station:SE-UL": "9021003700367000", "gtfs:platform_code:SE-UL": "F", "gtfs:stop_id:SE-UL": "9022003700367006", "gtfs:stop_name:SE-UL": "Uppsala N\u00e4mndemansv\u00e4gen", "highway": "bus_stop", "name": "N\u00e4mndemansv\u00e4gen", "network": "UL", "route_ref": "5;10", "shelter": "yes"}}, {"type": "node", "id": 6848099945, "lat": 59.813125, "lon": 17.6507312, "tags": {"bench": "yes", "bin": "no", "highway": "bus_stop", "name": "Ultunaall\u00e9n", "network": "UL", "passenger_information_display": "no", "route_ref": "4;101;188", "shelter": "no"}}, {"type": "node", "id": 6848099946, "lat": 59.813244, "lon": 17.6505167, "tags": {"bench": "yes", "bin": "no", "highway": "bus_stop", "name": "Ultunaall\u00e9n", "network": "UL", "route_ref": "4;101;188", "shelter": "no"}}, {"type": "node", "id": 6848099947, "lat": 59.8223289, "lon": 17.6564435, "tags": {"bench": "yes", "bin": "yes", "check_date:shelter": "2024-01-19", "highway": "bus_stop", "name": "SVA", "network": "UL", "route_ref": "4;12", "shelter": "yes"}}, {"type": "node", "id": 6848100092, "lat": 59.8056167, "lon": 17.6522741, "tags": {"bench": "yes", "bin": "yes", "highway": "bus_stop", "name": "Holmv\u00e4gen", "network": "UL", "network:wikidata": "Q7899151", "route_ref": "8;31;101;188;751", "shelter": "yes"}}, {"type": "node", "id": 6848115005, "lat": 59.822382, "lon": 17.6930697, "tags": {"bench": "yes", "bin": "yes", "highway": "bus_stop", "lit": "yes", "local_ref": "B", "name": "R\u00f6rb\u00e4cksv\u00e4gen", "network": "UL", "network:wikidata": "Q7899151", "route_ref": "9", "shelter": "no", "tactile_paving": "yes"}}, {"type": "node", "id": 6848115006, "lat": 59.8185657, "lon": 17.6910134, "tags": {"bench": "yes", "bin": "yes", "highway": "bus_stop", "lit": "yes", "local_ref": "B", "name": "Bonadsv\u00e4gen", "network": "UL", "network:wikidata": "Q7899151", "route_ref": "9;14", "shelter": "no", "tactile_paving": "yes"}}, {"type": "node", "id": 6848115007, "lat": 59.8206598, "lon": 17.7018998, "tags": {"bench": "no", "bin": "yes", "highway": "bus_stop", "lit": "yes", "local_ref": "B", "name": "S\u00e4vja kyrka", "network": "UL", "network:wikidata": "Q7899151", "route_ref": "9", "shelter": "no", "tactile_paving": "no"}}, {"type": "node", "id": 6848115008, "lat": 59.8200989, "lon": 17.7088039, "tags": {"bench": "yes", "bin": "yes", "highway": "bus_stop", "name": "Fiskgjusev\u00e4gen", "network": "UL", "route_ref": "9", "shelter": "yes"}}, {"type": "node", "id": 6848115009, "lat": 59.8200217, "lon": 17.7089283, "tags": {"bench": "no", "bin": "no", "highway": "bus_stop", "name": "Fiskgjusev\u00e4gen", "network": "UL", "route_ref": "9", "shelter": "no"}}, {"type": "node", "id": 6848115010, "lat": 59.8181676, "lon": 17.7148372, "tags": {"addr:city": "Uppsala", "addr:country": "SE", "bench": "no", "bin": "no", "highway": "bus_stop", "lit": "yes", "local_ref": "B", "name": "Hultv\u00e4gen", "network": "UL", "network:wikidata": "Q7899151", "route_ref": "9", "shelter": "no", "tactile_paving": "yes"}}, {"type": "node", "id": 6848115011, "lat": 59.7963084, "lon": 17.6558702, "tags": {"bench": "yes", "bin": "yes", "highway": "bus_stop", "name": "L\u00e4rkv\u00e4gen", "network": "UL", "network:wikidata": "Q7899151", "route_ref": "8;31;101;188", "shelter": "no"}}, {"type": "node", "id": 6848115012, "lat": 59.7969535, "lon": 17.6559311, "tags": {"bench": "yes", "bin": "yes", "highway": "bus_stop", "lit": "no", "name": "L\u00e4rkv\u00e4gen", "network": "UL", "network:wikidata": "Q7899151", "route_ref": "31;101;188", "shelter": "yes", "tactile_paving": "yes"}}, {"type": "node", "id": 6848115013, "lat": 59.7903628, "lon": 17.6582023, "tags": {"bench": "yes", "bin": "yes", "gtfs:platform_code:SE-UL": "D", "gtfs:stop_id:SE-UL": "9022003700289004", "highway": "bus_stop", "lit": "no", "name": "Sunnerstabacken", "network": "UL", "route_ref": "8;14;101;188", "shelter": "no", "tactile_paving": "no"}}, {"type": "node", "id": 6848123503, "lat": 59.8044144, "lon": 17.684665, "tags": {"bench": "yes", "bin": "no", "gtfs:platform_code:SE-UL": "D", "gtfs:stop_id:SE-UL": "9022003700554004", "highway": "bus_stop", "name": "N\u00e5ntuna Backe", "network": "UL", "route_ref": "14", "shelter": "no"}}, {"type": "node", "id": 6848123504, "lat": 59.8078813, "lon": 17.6937805, "tags": {"bench": "yes", "bin": "yes", "gtfs:location_type:SE-UL": "0", "gtfs:parent_station:SE-UL": "9021003700343000", "gtfs:platform_code:SE-UL": "B", "gtfs:stop_id:SE-UL": "9022003700343002", "gtfs:stop_name:SE-UL": "Uppsala Sk\u00e5neresan", "highway": "bus_stop", "name": "Sk\u00e5neresan", "network": "UL", "route_ref": "14", "shelter": "no"}}, {"type": "node", "id": 6848123539, "lat": 59.814912, "lon": 17.6836064, "tags": {"bench": "yes", "bin": "yes", "highway": "bus_stop", "name": "V\u00e4vstolsv\u00e4gen", "network": "UL", "route_ref": "10", "shelter": "no"}}, {"type": "node", "id": 6848123540, "lat": 59.8139591, "lon": 17.6883445, "tags": {"bench": "yes", "bin": "yes", "highway": "bus_stop", "name": "Kardv\u00e4gen", "network": "UL", "route_ref": "10", "shelter": "no"}}, {"type": "node", "id": 6848123541, "lat": 59.8156379, "lon": 17.6934432, "tags": {"bench": "no", "bin": "yes", "highway": "bus_stop", "lit": "yes", "name": "N\u00e5ntunaparken", "network": "UL", "route_ref": "10", "shelter": "no"}}, {"type": "node", "id": 6848123560, "lat": 59.7903708, "lon": 17.6583821, "tags": {"bench": "yes", "bin": "yes", "check_date:shelter": "2024-06-15", "gtfs:platform_code:SE-UL": "A", "gtfs:stop_id:SE-UL": "9022003700289001", "highway": "bus_stop", "lit": "no", "name": "Sunnerstabacken", "network": "UL", "route_ref": "8;14;101;188", "shelter": "yes", "tactile_paving": "yes"}}, {"type": "node", "id": 6848126000, "lat": 59.7924221, "lon": 17.6739737, "tags": {"bench": "yes", "bin": "no", "gtfs:platform_code:SE-UL": "B", "gtfs:stop_id:SE-UL": "9022003700555002", "highway": "bus_stop", "name": "Lugnet", "network": "UL", "route_ref": "14", "shelter": "no"}}, {"type": "node", "id": 6848126003, "lat": 59.8079275, "lon": 17.6940556, "tags": {"bench": "yes", "bin": "yes", "gtfs:location_type:SE-UL": "0", "gtfs:parent_station:SE-UL": "9021003700343000", "gtfs:platform_code:SE-UL": "A", "gtfs:stop_id:SE-UL": "9022003700343001", "gtfs:stop_name:SE-UL": "Uppsala Sk\u00e5neresan", "highway": "bus_stop", "name": "Sk\u00e5neresan", "network": "UL", "route_ref": "14", "shelter": "no"}}, {"type": "node", "id": 6848126022, "lat": 59.8130592, "lon": 17.6666567, "tags": {"bench": "yes", "highway": "bus_stop", "name": "Arrheniusplan", "network": "UL", "route_ref": "12"}}, {"type": "node", "id": 6848140195, "lat": 59.8006208, "lon": 17.6542518, "tags": {"bench": "yes", "bin": "yes", "highway": "bus_stop", "name": "Herrg\u00e5rdsv\u00e4gen", "network": "UL", "network:wikidata": "Q7899151", "route_ref": "31", "shelter": "no"}}, {"type": "node", "id": 6848140196, "lat": 59.8013062, "lon": 17.6542462, "tags": {"bench": "yes", "bin": "yes", "departures_board": "timetable", "highway": "bus_stop", "name": "Herrg\u00e5rdsv\u00e4gen", "network": "UL", "network:wikidata": "Q7899151", "route_ref": "14", "shelter": "yes", "tactile_paving": "yes"}}, {"type": "node", "id": 6848140197, "lat": 59.7925827, "lon": 17.6745343, "tags": {"bench": "yes", "bin": "no", "gtfs:platform_code:SE-UL": "A", "gtfs:stop_id:SE-UL": "9022003700555001", "highway": "bus_stop", "name": "Lugnet", "network": "UL", "route_ref": "14", "shelter": "no"}}, {"type": "node", "id": 6848140225, "lat": 59.8207923, "lon": 17.690761, "tags": {"bench": "yes", "bin": "yes", "highway": "bus_stop", "lit": "yes", "local_ref": "B", "name": "Handarbetsv\u00e4gen", "network": "UL", "network:wikidata": "Q7899151", "route_ref": "9;14", "shelter": "no", "tactile_paving": "yes"}}, {"type": "node", "id": 6848140226, "lat": 59.8206946, "lon": 17.7032165, "tags": {"bench": "yes", "bin": "yes", "check_date:shelter": "2025-08-20", "highway": "bus_stop", "lit": "yes", "local_ref": "A", "name": "S\u00e4vja kyrka", "network": "UL", "network:wikidata": "Q7899151", "route_ref": "9", "shelter": "yes", "tactile_paving": "yes"}}, {"type": "node", "id": 6848140227, "lat": 59.8182498, "lon": 17.7148748, "tags": {"addr:city": "Uppsala", "addr:country": "SE", "bench": "yes", "bin": "yes", "highway": "bus_stop", "lit": "yes", "local_ref": "A", "name": "Hultv\u00e4gen", "network": "UL", "network:wikidata": "Q7899151", "route_ref": "9", "shelter": "yes", "tactile_paving": "yes"}}, {"type": "node", "id": 6848140228, "lat": 59.8158685, "lon": 17.717801, "tags": {"addr:city": "Uppsala", "addr:country": "SE", "bench": "no", "bin": "no", "highway": "bus_stop", "name": "Backmov\u00e4gen", "network": "UL", "route_ref": "9", "shelter": "no", "tactile_paving": "yes"}}, {"type": "node", "id": 6848140230, "lat": 59.7935233, "lon": 17.6571831, "tags": {"bench": "yes", "bin": "yes", "check_date:shelter": "2024-06-16", "highway": "bus_stop", "lit": "yes", "name": "Ekolnsv\u00e4gen norra", "network": "UL", "route_ref": "8;14", "shelter": "yes", "tactile_paving": "yes"}}, {"type": "node", "id": 6848140231, "lat": 59.7934748, "lon": 17.6569605, "tags": {"bench": "yes", "bin": "no", "gtfs:platform_code:SE-UL": "B", "gtfs:stop_id:SE-UL": "9022003700288002", "highway": "bus_stop", "lit": "no", "name": "Ekolnsv\u00e4gen norra", "network": "UL", "route_ref": "8;14", "shelter": "no", "tactile_paving": "yes"}}, {"type": "node", "id": 6848140491, "lat": 59.8141615, "lon": 17.6881042, "tags": {"bench": "no", "bin": "yes", "highway": "bus_stop", "name": "Kardv\u00e4gen", "network": "UL", "route_ref": "10", "shelter": "no"}}, {"type": "node", "id": 6848140492, "lat": 59.8157627, "lon": 17.6938251, "tags": {"bench": "yes", "bin": "yes", "highway": "bus_stop", "lit": "yes", "name": "N\u00e5ntunaparken", "network": "UL", "route_ref": "10", "shelter": "no"}}, {"type": "node", "id": 6848140494, "lat": 59.8208035, "lon": 17.6911245, "tags": {"bench": "yes", "bin": "yes", "highway": "bus_stop", "lit": "yes", "local_ref": "A", "name": "Handarbetsv\u00e4gen", "network": "UL", "network:wikidata": "Q7899151", "route_ref": "9;14", "shelter": "yes", "tactile_paving": "yes"}}, {"type": "node", "id": 6848140495, "lat": 59.8159365, "lon": 17.7178963, "tags": {"addr:city": "Uppsala", "addr:country": "SE", "bench": "yes", "bin": "yes", "highway": "bus_stop", "name": "Backmov\u00e4gen", "network": "UL", "route_ref": "9", "shelter": "yes", "tactile_paving": "yes"}}, {"type": "node", "id": 6848145985, "lat": 59.8187319, "lon": 17.690883, "tags": {"bench": "yes", "bin": "yes", "highway": "bus_stop", "lit": "yes", "local_ref": "A", "name": "Bonadsv\u00e4gen", "network": "UL", "network:wikidata": "Q7899151", "route_ref": "9;14", "shelter": "yes", "tactile_paving": "yes"}}, {"type": "node", "id": 6848146385, "lat": 59.8056355, "lon": 17.6525823, "tags": {"bench": "yes", "bin": "yes", "highway": "bus_stop", "name": "Holmv\u00e4gen", "network": "UL", "network:wikidata": "Q7899151", "route_ref": "8;14;101;188;751", "shelter": "yes"}}, {"type": "node", "id": 6848146407, "lat": 59.8060943, "lon": 17.6913672, "tags": {"bench": "yes", "bin": "yes", "gtfs:location_type:SE-UL": "0", "gtfs:parent_station:SE-UL": "9021003700446000", "gtfs:platform_code:SE-UL": "A", "gtfs:stop_id:SE-UL": "9022003700446001", "gtfs:stop_name:SE-UL": "Uppsala Sm\u00e5landsv\u00e4gen", "highway": "bus_stop", "name": "Sm\u00e5landsv\u00e4gen", "network": "UL", "route_ref": "5", "shelter": "yes"}}, {"type": "node", "id": 6848146409, "lat": 59.8108483, "lon": 17.7013461, "tags": {"bench": "yes", "bin": "yes", "gtfs:location_type:SE-UL": "0", "gtfs:parent_station:SE-UL": "9021003700340000", "gtfs:platform_code:SE-UL": "B", "gtfs:stop_id:SE-UL": "9022003700340002", "gtfs:stop_name:SE-UL": "Uppsala Daneport", "highway": "bus_stop", "lit": "yes", "name": "Daneport", "network": "UL", "route_ref": "5", "shelter": "no", "tactile_paving": "no"}}, {"type": "node", "id": 6848146412, "lat": 59.8162155, "lon": 17.6992073, "tags": {"bench": "yes", "bin": "yes", "gtfs:location_type:SE-UL": "0", "gtfs:parent_station:SE-UL": "9021003700338000", "gtfs:platform_code:SE-UL": "A", "gtfs:stop_id:SE-UL": "9022003700338001", "gtfs:stop_name:SE-UL": "Uppsala Lapplandsresan", "highway": "bus_stop", "lit": "yes", "name": "Lapplandsresan", "network": "UL", "route_ref": "5", "shelter": "yes", "tactile_paving": "yes"}}, {"type": "node", "id": 6848146425, "lat": 59.8217561, "lon": 17.656171, "tags": {"bench": "yes", "bin": "no", "highway": "bus_stop", "name": "SVA", "network": "UL", "route_ref": "4;12", "shelter": "no"}}, {"type": "node", "id": 6848146543, "lat": 59.8116175, "lon": 17.6593879, "tags": {"bench": "yes", "bin": "yes", "gtfs:location_type:SE-UL": "0", "gtfs:parent_station:SE-UL": "9021003700597000", "gtfs:platform_code:SE-UL": "A", "gtfs:stop_id:SE-UL": "9022003700597001", "gtfs:stop_name:SE-UL": "Uppsala Ultuna Park", "highway": "bus_stop", "lit": "no", "name": "Ultuna Park", "network": "UL", "route_ref": "100", "shelter": "no", "tactile_paving": "no"}}, {"type": "node", "id": 6848146570, "lat": 59.8185735, "lon": 17.6586288, "tags": {"bench": "yes", "bin": "yes", "gtfs:location_type:SE-UL": "0", "gtfs:parent_station:SE-UL": "9021003700224000", "gtfs:platform_code:SE-UL": "A", "gtfs:stop_id:SE-UL": "9022003700224001", "gtfs:stop_name:SE-UL": "Uppsala Veterin\u00e4rv\u00e4gen", "highway": "bus_stop", "name": "Veterin\u00e4rv\u00e4gen", "network": "UL", "route_ref": "4;12;100;101;188", "shelter": "yes"}}, {"type": "node", "id": 6848148094, "lat": 59.8124017, "lon": 17.6498394, "tags": {"bench": "yes", "bin": "yes", "highway": "bus_stop", "lit": "yes", "name": "Ultunaall\u00e9n", "network": "UL", "route_ref": "8;14", "shelter": "no", "tactile_paving": "yes"}}, {"type": "node", "id": 6848148095, "lat": 59.8125454, "lon": 17.6501369, "tags": {"bench": "yes", "bin": "yes", "highway": "bus_stop", "lit": "yes", "name": "Ultunaall\u00e9n", "network": "UL", "route_ref": "8;14", "shelter": "no", "tactile_paving": "yes"}}, {"type": "node", "id": 6848155586, "lat": 59.8159007, "lon": 17.6591113, "tags": {"bench": "yes", "bin": "yes", "check_date:shelter": "2024-01-19", "highway": "bus_stop", "name": "Campus Ultuna", "network": "UL", "route_ref": "4;12;100;101;188", "shelter": "yes"}}, {"type": "node", "id": 6848158594, "lat": 59.8187548, "lon": 17.6555684, "tags": {"bench": "no", "bin": "no", "gtfs:location_type:SE-UL": "0", "gtfs:parent_station:SE-UL": "9021003700224000", "gtfs:platform_code:SE-UL": "E", "gtfs:stop_id:SE-UL": "9022003700224005", "gtfs:stop_name:SE-UL": "Uppsala Veterin\u00e4rv\u00e4gen", "highway": "bus_stop", "name": "Veterin\u00e4rv\u00e4gen", "network": "UL", "route_ref": "100;101;188", "shelter": "no"}}, {"type": "node", "id": 8737187595, "lat": 59.8129253, "lon": 17.7262867, "tags": {"addr:city": "Uppsala", "addr:country": "SE", "railway": "milestone", "railway:position": "59"}}, {"type": "node", "id": 8737187598, "lat": 59.8274702, "lon": 17.7056044, "tags": {"railway": "milestone", "railway:position": "61"}}, {"type": "node", "id": 8737187609, "lat": 59.8205417, "lon": 17.7169248, "tags": {"addr:city": "Uppsala", "addr:country": "SE", "railway": "milestone", "railway:position": "60"}}, {"type": "node", "id": 8737187610, "lat": 59.8274939, "lon": 17.7056574, "tags": {"railway": "milestone", "railway:position": "61"}}, {"type": "node", "id": 8737187611, "lat": 59.8129446, "lon": 17.7263454, "tags": {"addr:city": "Uppsala", "addr:country": "SE", "railway": "milestone", "railway:position": "59"}}, {"type": "node", "id": 8737187613, "lat": 59.820566, "lon": 17.7169836, "tags": {"addr:city": "Uppsala", "addr:country": "SE", "railway": "milestone", "railway:position": "60"}}, {"type": "node", "id": 9536733558, "lat": 59.8269109, "lon": 17.7066319, "tags": {"railway": "signal", "railway:position:exact": "60.916", "railway:signal:combined": "SE:Utfartsblocksignal", "railway:signal:combined:form": "light", "railway:signal:combined:function": "exit;block", "railway:signal:direction": "backward", "railway:signal:position": "right", "ref": "S\u00e4y U71"}}, {"type": "node", "id": 9536733560, "lat": 59.8179809, "lon": 17.7204383, "tags": {"addr:city": "Uppsala", "addr:country": "SE", "railway": "signal", "railway:position:exact": "59.656", "railway:signal:combined": "SE:Mellanblocksignal", "railway:signal:combined:form": "light", "railway:signal:combined:function": "block", "railway:signal:direction": "forward", "railway:signal:position": "left", "ref": "Eby U8"}}, {"type": "node", "id": 9536733561, "lat": 59.8180055, "lon": 17.7204998, "tags": {"addr:city": "Uppsala", "addr:country": "SE", "railway": "signal", "railway:position:exact": "59.656", "railway:signal:combined": "SE:Mellanblocksignal", "railway:signal:combined:form": "light", "railway:signal:combined:function": "block", "railway:signal:direction": "backward", "railway:signal:position": "right", "ref": "Eby N8"}}, {"type": "node", "id": 9536733562, "lat": 59.8269138, "lon": 17.7067237, "tags": {"railway": "signal", "railway:position:exact": "60.916", "railway:signal:direction": "backward", "railway:signal:main": "SE:Infartssignal", "railway:signal:main:form": "light", "railway:signal:main:function": "entry", "railway:signal:position": "right", "ref": "S\u00e4y 52"}}, {"type": "node", "id": 9536733563, "lat": 59.826889, "lon": 17.7066728, "tags": {"railway": "signal", "railway:position:exact": "60.916", "railway:signal:direction": "forward", "railway:signal:main": "SE:Infartssignal", "railway:signal:main:form": "light", "railway:signal:main:function": "entry", "railway:signal:position": "left", "ref": "S\u00e4y 22"}}, {"type": "node", "id": 9536733565, "lat": 59.8269337, "lon": 17.7066869, "tags": {"railway": "signal", "railway:position:exact": "60.916", "railway:signal:combined": "SE:Utfartsblocksignal", "railway:signal:combined:form": "light", "railway:signal:combined:function": "exit;block", "railway:signal:direction": "forward", "railway:signal:position": "left", "ref": "S\u00e4y N41"}}, {"type": "node", "id": 11185446368, "lat": 59.811872, "lon": 17.6272399}, {"type": "node", "id": 11185446369, "lat": 59.8120986, "lon": 17.6283557}, {"type": "node", "id": 11185446370, "lat": 59.8123549, "lon": 17.6297451}, {"type": "node", "id": 11185446371, "lat": 59.8124061, "lon": 17.6300133}, {"type": "node", "id": 11185446372, "lat": 59.8125275, "lon": 17.6307536}, {"type": "node", "id": 11185446373, "lat": 59.8125895, "lon": 17.6311345}, {"type": "node", "id": 11185446374, "lat": 59.8126462, "lon": 17.6319337}, {"type": "node", "id": 11185446375, "lat": 59.8126543, "lon": 17.6325185}, {"type": "node", "id": 11185446376, "lat": 59.8126354, "lon": 17.6332266}, {"type": "node", "id": 11185446377, "lat": 59.8126354, "lon": 17.6343692}, {"type": "node", "id": 11185446378, "lat": 59.8127406, "lon": 17.6352704}, {"type": "node", "id": 11185446379, "lat": 59.8128431, "lon": 17.6356727}, {"type": "node", "id": 11185446380, "lat": 59.8129402, "lon": 17.636118}, {"type": "node", "id": 11185446381, "lat": 59.8129861, "lon": 17.6363433}, {"type": "node", "id": 11185446382, "lat": 59.8131047, "lon": 17.637148}, {"type": "node", "id": 11185446383, "lat": 59.8131155, "lon": 17.6376629}, {"type": "node", "id": 11185446384, "lat": 59.8130751, "lon": 17.6384086}, {"type": "node", "id": 11185446385, "lat": 59.8129186, "lon": 17.6390845}, {"type": "node", "id": 11185446386, "lat": 59.8127649, "lon": 17.6398087}, {"type": "node", "id": 11185446387, "lat": 59.8125761, "lon": 17.6406456}, {"type": "node", "id": 11185446388, "lat": 59.812425, "lon": 17.6422495}, {"type": "node", "id": 11185446389, "lat": 59.8125437, "lon": 17.6441485}, {"type": "node", "id": 11185446390, "lat": 59.8126246, "lon": 17.6448674}, {"type": "node", "id": 11185446391, "lat": 59.8127568, "lon": 17.6461012}, {"type": "node", "id": 11185446392, "lat": 59.8129213, "lon": 17.647673}, {"type": "node", "id": 11185446393, "lat": 59.8130535, "lon": 17.6490248}, {"type": "node", "id": 11185446394, "lat": 59.8131371, "lon": 17.6497865}, {"type": "node", "id": 11185446395, "lat": 59.8131587, "lon": 17.6506931}, {"type": "node", "id": 11185446396, "lat": 59.8131452, "lon": 17.6521361}, {"type": "node", "id": 11185446397, "lat": 59.8131668, "lon": 17.6551885}, {"type": "node", "id": 11185446398, "lat": 59.813156, "lon": 17.6557088}, {"type": "node", "id": 11185446399, "lat": 59.8131749, "lon": 17.6575596}, {"type": "node", "id": 11185446400, "lat": 59.8131857, "lon": 17.6587183}, {"type": "node", "id": 11185446401, "lat": 59.8131598, "lon": 17.6594283}, {"type": "node", "id": 11185952156, "lat": 59.8127608, "lon": 17.6624012}, {"type": "node", "id": 11185952157, "lat": 59.812518, "lon": 17.6638388}, {"type": "node", "id": 11185952158, "lat": 59.8120325, "lon": 17.6651156}, {"type": "node", "id": 11185952159, "lat": 59.8116117, "lon": 17.6660382}, {"type": "node", "id": 11185952160, "lat": 59.8113204, "lon": 17.6665532}, {"type": "node", "id": 11185952161, "lat": 59.8106892, "lon": 17.6671219}, {"type": "node", "id": 11185952162, "lat": 59.8105273, "lon": 17.6676047}, {"type": "node", "id": 11185952163, "lat": 59.8104599, "lon": 17.667889}, {"type": "node", "id": 11185952164, "lat": 59.8096749, "lon": 17.6709199}, {"type": "node", "id": 11185952165, "lat": 59.809486, "lon": 17.6726901}, {"type": "node", "id": 11185952166, "lat": 59.809772, "lon": 17.6748895}, {"type": "node", "id": 11185952167, "lat": 59.8103763, "lon": 17.6769817}, {"type": "node", "id": 11185952168, "lat": 59.810851, "lon": 17.6786017}, {"type": "node", "id": 11185952169, "lat": 59.810878, "lon": 17.6796317}, {"type": "node", "id": 11185952170, "lat": 59.8107485, "lon": 17.6812088}, {"type": "node", "id": 11185952171, "lat": 59.8102845, "lon": 17.6825285}, {"type": "node", "id": 11185952172, "lat": 59.8096641, "lon": 17.6833117}, {"type": "node", "id": 11185952173, "lat": 59.8093026, "lon": 17.6838803}, {"type": "node", "id": 11185952174, "lat": 59.809022, "lon": 17.685039}, {"type": "node", "id": 11185952175, "lat": 59.8087685, "lon": 17.6866483}, {"type": "node", "id": 11185952176, "lat": 59.8084825, "lon": 17.6885473}, {"type": "node", "id": 11185952177, "lat": 59.8082667, "lon": 17.68947}, {"type": "node", "id": 11185952178, "lat": 59.8077433, "lon": 17.692399}, {"type": "node", "id": 11185952179, "lat": 59.8062056, "lon": 17.6999092}, {"type": "node", "id": 11185952180, "lat": 59.8060761, "lon": 17.7032566}, {"type": "node", "id": 11185952181, "lat": 59.8062487, "lon": 17.7065396}, {"type": "node", "id": 11185952182, "lat": 59.806648, "lon": 17.7099085}, {"type": "node", "id": 11185952183, "lat": 59.8067128, "lon": 17.7131271}, {"type": "node", "id": 11185952184, "lat": 59.8060653, "lon": 17.7186203}, {"type": "node", "id": 11185952185, "lat": 59.8054825, "lon": 17.7225256}, {"type": "node", "id": 11185952186, "lat": 59.8051264, "lon": 17.7265811}, {"type": "node", "id": 11185952187, "lat": 59.805299, "lon": 17.730143}, {"type": "node", "id": 11185952188, "lat": 59.805871, "lon": 17.7327394}, {"type": "node", "id": 11185952189, "lat": 59.8045652, "lon": 17.7340912}, {"type": "node", "id": 11185952190, "lat": 59.809693, "lon": 17.6708203}, {"type": "node", "id": 11185952191, "lat": 59.8106564, "lon": 17.6672197, "tags": {"proposed:railway": "tram"}}, {"type": "node", "id": 11189250219, "lat": 59.8136872, "lon": 17.6591739}, {"type": "node", "id": 11189250220, "lat": 59.8149091, "lon": 17.6591525}, {"type": "node", "id": 11189250221, "lat": 59.8156589, "lon": 17.6591203}, {"type": "node", "id": 11189250222, "lat": 59.8180727, "lon": 17.6591257}, {"type": "node", "id": 11189250223, "lat": 59.8181887, "lon": 17.6590667}, {"type": "node", "id": 11189250224, "lat": 59.8182966, "lon": 17.6589647}, {"type": "node", "id": 11189250225, "lat": 59.8183586, "lon": 17.6588306}, {"type": "node", "id": 11189250226, "lat": 59.8184638, "lon": 17.658557}, {"type": "node", "id": 11189250227, "lat": 59.818666, "lon": 17.6580099}, {"type": "node", "id": 11189250228, "lat": 59.8187874, "lon": 17.6577095}, {"type": "node", "id": 11189250229, "lat": 59.8189303, "lon": 17.6573715}, {"type": "node", "id": 11189250230, "lat": 59.8189681, "lon": 17.6573179}, {"type": "node", "id": 11189250231, "lat": 59.8190166, "lon": 17.6572749}, {"type": "node", "id": 11189250232, "lat": 59.8192971, "lon": 17.6571194}, {"type": "node", "id": 11189250233, "lat": 59.8196855, "lon": 17.6569799}, {"type": "node", "id": 11189250234, "lat": 59.820783, "lon": 17.6565883, "tags": {"name": "G\u00e4lbo", "proposed:public_transport": "station", "proposed:railway": "station", "station": "tram"}}, {"type": "node", "id": 11189250235, "lat": 59.8216244, "lon": 17.6562825}, {"type": "node", "id": 11189250236, "lat": 59.821859, "lon": 17.6562074}, {"type": "node", "id": 11189270937, "lat": 59.8219777, "lon": 17.656186}, {"type": "node", "id": 11189270938, "lat": 59.8220747, "lon": 17.6561913}, {"type": "node", "id": 11189270939, "lat": 59.8222069, "lon": 17.6562128}, {"type": "node", "id": 11189270940, "lat": 59.8223956, "lon": 17.6562664}, {"type": "node", "id": 11189270941, "lat": 59.8227085, "lon": 17.6564059}, {"type": "node", "id": 11189270942, "lat": 59.8229161, "lon": 17.6564649}, {"type": "node", "id": 11189270943, "lat": 59.8232262, "lon": 17.6564113}, {"type": "node", "id": 11189270944, "lat": 59.8235309, "lon": 17.6561913}, {"type": "node", "id": 11189270945, "lat": 59.8238518, "lon": 17.656025}, {"type": "node", "id": 11189270946, "lat": 59.8240594, "lon": 17.6558748}, {"type": "node", "id": 11189270947, "lat": 59.8241484, "lon": 17.6557354}, {"type": "node", "id": 11189270948, "lat": 59.8259631, "lon": 17.6505641}, {"type": "node", "id": 11189270949, "lat": 59.8266426, "lon": 17.6493034}, {"type": "node", "id": 11392721974, "lat": 59.8132732, "lon": 17.6584182, "tags": {"bench": "yes", "bin": "yes", "highway": "bus_stop", "name": "Universitetsdjursjukhuset", "network": "UL", "network:wikidata": "Q7899151", "route_ref": "4", "shelter": "yes"}}, {"type": "node", "id": 11392721975, "lat": 59.8131937, "lon": 17.6586865, "tags": {"bench": "yes", "bin": "yes", "highway": "bus_stop", "name": "Universitetsdjursjukhuset", "network": "UL", "network:wikidata": "Q7899151", "route_ref": "4", "shelter": "yes"}}, {"type": "node", "id": 11873904334, "lat": 59.8268019, "lon": 17.6490336}, {"type": "node", "id": 12053110248, "lat": 59.8084673, "lon": 17.6886724}, {"type": "node", "id": 12053110249, "lat": 59.8086095, "lon": 17.6886314}, {"type": "node", "id": 12053110250, "lat": 59.8090411, "lon": 17.6889747}, {"type": "node", "id": 12053110251, "lat": 59.8100608, "lon": 17.689951}, {"type": "node", "id": 12053110252, "lat": 59.8102132, "lon": 17.6896909}, {"type": "node", "id": 12053110253, "lat": 59.8101741, "lon": 17.6892536}, {"type": "node", "id": 12053110254, "lat": 59.8098989, "lon": 17.6885992}, {"type": "node", "id": 12053110255, "lat": 59.8092785, "lon": 17.687419}, {"type": "node", "id": 12053110256, "lat": 59.8089872, "lon": 17.6871079}, {"type": "node", "id": 12053110257, "lat": 59.8088631, "lon": 17.6871723}, {"type": "node", "id": 12053110258, "lat": 59.8086526, "lon": 17.6879769}, {"type": "node", "id": 12053110259, "lat": 59.8086041, "lon": 17.6882666}, {"type": "node", "id": 12117989651, "lat": 59.8041757, "lon": 17.6848984, "tags": {"bench": "yes", "bin": "no", "gtfs:platform_code:SE-UL": "C", "gtfs:stop_id:SE-UL": "9022003700554003", "highway": "bus_stop", "name": "N\u00e5ntuna Backe", "network": "UL", "route_ref": "14", "shelter": "no"}}, {"type": "node", "id": 12142313653, "lat": 59.8208717, "lon": 17.6970125, "tags": {"bench": "no", "bin": "yes", "highway": "bus_stop", "name": "Havrev\u00e4gen", "network": "UL", "route_ref": "14", "shelter": "no"}}, {"type": "node", "id": 12142313654, "lat": 59.8209506, "lon": 17.6970422, "tags": {"bench": "yes", "bin": "yes", "highway": "bus_stop", "name": "Havrev\u00e4gen", "network": "UL", "route_ref": "14", "shelter": "yes"}}, {"type": "node", "id": 12691893615, "lat": 59.8150202, "lon": 17.7240266, "tags": {"addr:city": "Uppsala", "addr:country": "SE", "railway": "signal", "railway:position:exact": "59.266", "railway:signal:crossing": "SE:V\u00e4gskyddssignal", "railway:signal:crossing:form": "light", "railway:signal:direction": "both", "railway:signal:position": "left"}}, {"type": "node", "id": 12900487223, "lat": 59.8159651, "lon": 17.659121, "tags": {"name": "Ultuna", "proposed:public_transport": "station", "proposed:railway": "station", "station": "tram"}}, {"type": "node", "id": 12900487224, "lat": 59.8131437, "lon": 17.6595292, "tags": {"name": "Ultunaall\u00e9n", "proposed:public_transport": "station", "proposed:railway": "station", "station": "tram"}}, {"type": "node", "id": 12900487225, "lat": 59.8081671, "lon": 17.6900275, "tags": {"construction:public_transport": "station", "construction:railway": "station", "name": "Sk\u00e5neplan", "station": "tram"}}, {"type": "node", "id": 12900487226, "lat": 59.8061873, "lon": 17.7003814, "tags": {"name": "S\u00e4vja", "proposed:public_transport": "station", "proposed:railway": "station", "station": "tram"}}, {"type": "node", "id": 12900487227, "lat": 59.8057122, "lon": 17.7209864, "tags": {"name": "Stordammen", "proposed:public_transport": "station", "proposed:railway": "station", "station": "tram"}}, {"type": "node", "id": 12900487228, "lat": 59.8057675, "lon": 17.7328466}, {"type": "node", "id": 12900487229, "lat": 59.8057831, "lon": 17.7323403, "tags": {"not:name": "Ny station i Bergsbrunna", "note": "Name not yet decided.", "proposed:public_transport": "station", "proposed:railway": "station", "station": "tram"}}, {"type": "node", "id": 12900487231, "lat": 59.81278, "lon": 17.6463232, "tags": {"name": "B\u00e4ckl\u00f6sa torg", "proposed:public_transport": "station", "proposed:railway": "station", "station": "tram"}}, {"type": "node", "id": 12900487232, "lat": 59.8120433, "lon": 17.6280833, "tags": {"name": "Gottsunda torg", "proposed:public_transport": "station", "proposed:railway": "station", "station": "tram"}}, {"type": "node", "id": 12979937653, "lat": 59.8010457, "lon": 17.7396288}, {"type": "node", "id": 12979937654, "lat": 59.8023226, "lon": 17.7383047}, {"type": "node", "id": 12979937655, "lat": 59.8040744, "lon": 17.7361939}, {"type": "node", "id": 12979937656, "lat": 59.8055213, "lon": 17.7345582, "tags": {"addr:city": "Uppsala", "addr:country": "SE", "addr:place": "Bergsbrunna"}}, {"type": "node", "id": 12979937657, "lat": 59.8067247, "lon": 17.7332854, "tags": {"addr:city": "Uppsala", "addr:country": "SE"}}, {"type": "node", "id": 12979937658, "lat": 59.8081517, "lon": 17.7317302, "tags": {"addr:city": "Uppsala", "addr:country": "SE"}}, {"type": "node", "id": 12979937659, "lat": 59.8100347, "lon": 17.7297102, "tags": {"addr:city": "Uppsala", "addr:country": "SE"}}, {"type": "node", "id": 12979937660, "lat": 59.8112809, "lon": 17.7283485, "tags": {"addr:city": "Uppsala", "addr:country": "SE"}}, {"type": "node", "id": 12979937661, "lat": 59.8124599, "lon": 17.7271615, "tags": {"addr:city": "Uppsala", "addr:country": "SE"}}, {"type": "node", "id": 12979937662, "lat": 59.8130917, "lon": 17.7264329, "tags": {"addr:city": "Uppsala", "addr:country": "SE"}}, {"type": "node", "id": 12979937663, "lat": 59.8137939, "lon": 17.7256764, "tags": {"addr:city": "Uppsala", "addr:country": "SE"}}, {"type": "node", "id": 12979937664, "lat": 59.8143475, "lon": 17.7250081, "tags": {"addr:city": "Uppsala", "addr:country": "SE"}}, {"type": "node", "id": 12979937665, "lat": 59.8210732, "lon": 17.7162597, "tags": {"addr:city": "Uppsala", "addr:country": "SE"}}, {"type": "node", "id": 12979937666, "lat": 59.8230475, "lon": 17.713641, "tags": {"addr:city": "Uppsala", "addr:country": "SE"}}, {"type": "node", "id": 12979937667, "lat": 59.8265782, "lon": 17.7084321}, {"type": "node", "id": 12979937668, "lat": 59.8288672, "lon": 17.7041443}, {"type": "node", "id": 12979937669, "lat": 59.8304178, "lon": 17.7009258}, {"type": "node", "id": 12979937670, "lat": 59.8330293, "lon": 17.695097}, {"type": "node", "id": 12979937671, "lat": 59.8158031, "lon": 17.7234535, "tags": {"addr:city": "Uppsala", "addr:country": "SE"}}, {"type": "node", "id": 12979937672, "lat": 59.81681, "lon": 17.7223216, "tags": {"addr:city": "Uppsala", "addr:country": "SE"}}, {"type": "node", "id": 12979937673, "lat": 59.8182311, "lon": 17.720475, "tags": {"addr:city": "Uppsala", "addr:country": "SE"}}, {"type": "node", "id": 12979937674, "lat": 59.8195506, "lon": 17.7186663, "tags": {"addr:city": "Uppsala", "addr:country": "SE"}}, {"type": "node", "id": 12979937675, "lat": 59.8218742, "lon": 17.7154839, "tags": {"addr:city": "Uppsala", "addr:country": "SE"}}, {"type": "node", "id": 12979937676, "lat": 59.8225885, "lon": 17.7145615, "tags": {"addr:city": "Uppsala", "addr:country": "SE"}}, {"type": "node", "id": 12979937677, "lat": 59.8236196, "lon": 17.7131652, "tags": {"addr:city": "Uppsala", "addr:country": "SE"}}, {"type": "node", "id": 12979937678, "lat": 59.8250456, "lon": 17.7111384, "tags": {"addr:city": "Uppsala", "addr:country": "SE", "addr:place": "Bergsbrunna"}}, {"type": "node", "id": 12979937679, "lat": 59.8266526, "lon": 17.7087486}, {"type": "node", "id": 12979937680, "lat": 59.8278128, "lon": 17.7065834}, {"type": "node", "id": 12979937681, "lat": 59.8297164, "lon": 17.7028955}, {"type": "node", "id": 12979937682, "lat": 59.8307705, "lon": 17.7006171}, {"type": "node", "id": 12979937683, "lat": 59.8331213, "lon": 17.6954122}, {"type": "node", "id": 12979937684, "lat": 59.8347618, "lon": 17.6921818}, {"type": "node", "id": 12979937685, "lat": 59.8371788, "lon": 17.6875085}, {"type": "node", "id": 12979937686, "lat": 59.8389713, "lon": 17.6840352}, {"type": "node", "id": 12979937687, "lat": 59.8406931, "lon": 17.6807781}, {"type": "node", "id": 12979937688, "lat": 59.8430345, "lon": 17.6762262}, {"type": "node", "id": 12979937689, "lat": 59.8453142, "lon": 17.6718533}, {"type": "node", "id": 12979937690, "lat": 59.8471784, "lon": 17.6682323}, {"type": "node", "id": 12979937691, "lat": 59.8483604, "lon": 17.6659074}, {"type": "node", "id": 13065208771, "lat": 59.8131952, "lon": 17.6591292}, {"type": "node", "id": 13065208772, "lat": 59.813201, "lon": 17.6592869}, {"type": "node", "id": 13065208773, "lat": 59.8132426, "lon": 17.659205}, {"type": "node", "id": 13065208774, "lat": 59.8132743, "lon": 17.659183}, {"type": "node", "id": 13065208775, "lat": 59.813193, "lon": 17.6591936}, {"type": "node", "id": 13065208776, "lat": 59.8131494, "lon": 17.6594846}, {"type": "node", "id": 13065208777, "lat": 59.8133309, "lon": 17.6591737}, {"type": "node", "id": 13065218547, "lat": 59.8122887, "lon": 17.6645952}, {"type": "node", "id": 13065218548, "lat": 59.8095853, "lon": 17.673867}, {"type": "node", "id": 13065218549, "lat": 59.8108915, "lon": 17.6790952}, {"type": "node", "id": 13065218550, "lat": 59.8067398, "lon": 17.7116358}, {"type": "node", "id": 13065218551, "lat": 59.805244, "lon": 17.7242113}, {"type": "node", "id": 13065218552, "lat": 59.8051749, "lon": 17.7285123}, {"type": "way", "id": 136781417, "nodes": [1504411371, 1504411367, 1504411369, 8737187610, 1504412264, 9536733565, 9536733562, 1281705332, 1505004101, 1505004093, 1505004184, 21563530, 1505004120, 320273546, 1281423121, 274912409, 1505007030, 21563531, 1505011538, 1505011568, 12979937665, 1505011534, 8737187613, 1505011507, 1505011515, 1505011540, 21563533, 1505011510, 1505011573, 9536733561, 1505011544, 1505011576, 21563534, 1505011504, 1505011505, 1505011513, 24952667, 1505035096, 1505035018, 1505035149, 274912418, 8737187611, 21563536, 1505035154, 1505035044, 1505034999, 1505035131, 1265055602, 1505042108], "tags": {"axle_load": "25", "electrified": "contact_line", "frequency": "16.67", "gauge": "1435", "maxspeed": "200", "metre_load": "8", "name": "Ostkustbanan", "operator": "Trafikverket", "passenger_lines": "2", "railway": "rail", "railway:atc": "yes", "railway:bidirectional": "regular", "railway:ctc": "yes", "railway:etcs": "no", "railway:preferred_direction": "forward", "railway:radio": "gsm-r", "railway:rail": "continuous", "railway:traffic_mode": "mixed", "tracks": "1", "usage": "main", "voltage": "15000", "workrules": "SE:H"}}, {"type": "way", "id": 137197391, "nodes": [1505042083, 1505035072, 1505035163, 1505035077, 1505035142, 1505035109, 1505035003, 8737187595, 1505035010, 1505035147, 1505035030, 1505035104, 12691893615, 1505011570, 1505011549, 1505011537, 1505011557, 1505011567, 1505011535, 1505011546, 9536733560, 1505011551, 1505011543, 1505011508, 1505011512, 1505011554, 1505011503, 8737187609, 1505011536, 1505011579, 1505011506, 1505007037, 1505007034, 1505007042, 1505004107, 1505004077, 1505004181, 1505004160, 1505004080, 1505004149, 1505004073, 1504990913, 9536733563, 9536733558, 1504412260, 8737187598, 1504412262, 1504411368, 1504326273, 1504326183], "tags": {"axle_load": "25", "electrified": "contact_line", "frequency": "16.67", "gauge": "1435", "maxspeed": "200", "metre_load": "8", "name": "Ostkustbanan", "operator": "Trafikverket", "passenger_lines": "2", "railway": "rail", "railway:atc": "yes", "railway:bidirectional": "regular", "railway:ctc": "yes", "railway:etcs": "no", "railway:preferred_direction": "forward", "railway:radio": "gsm-r", "railway:rail": "continuous", "railway:traffic_mode": "mixed", "tracks": "1", "usage": "main", "voltage": "15000", "workrules": "SE:H"}}, {"type": "way", "id": 302306295, "nodes": [3065642508, 6848146407, 3065642506], "tags": {"highway": "platform"}}, {"type": "way", "id": 1207188658, "nodes": [11185952190, 11185952164, 11185952165, 13065218548, 11185952166, 11185952167, 11185952168, 13065218549, 11185952169, 11185952170, 11185952171, 11185952172, 11185952173, 11185952174, 11185952175, 11185952176, 12053110248, 11185952177, 12900487225, 11185952178, 11185952179, 12900487226, 11185952180, 11185952181, 11185952182, 13065218550, 11185952183, 11185952184, 12900487227, 11185952185, 13065218551, 11185952186, 13065218552, 11185952187, 12900487229, 11185952188, 12900487228, 11185952189], "tags": {"construction:railway": "tram", "electrified": "contact_line", "frequency": "0", "gauge": "1435", "name": "Ultunal\u00e4nken", "opening_date": "2029", "railway": "construction", "tracks": "2", "voltage": "750"}}, {"type": "way", "id": 1207188659, "nodes": [11185446401, 13065208776, 12900487224, 11185952156, 11185952157, 13065218547, 11185952158, 11185952159, 11185952160, 11185952161, 11185952191], "tags": {"construction:railway": "tram", "electrified": "contact_line", "frequency": "0", "gauge": "1435", "maxspeed": "70", "name": "Ultunal\u00e4nken", "opening_date": "2029", "railway": "construction", "tracks": "2", "voltage": "750"}}, {"type": "way", "id": 1207188660, "nodes": [11185952163, 11185952190], "tags": {"bridge": "yes", "construction:railway": "tram", "electrified": "contact_line", "frequency": "0", "gauge": "1435", "layer": "1", "maxspeed": "70", "name": "Ultunal\u00e4nken", "opening_date": "2029", "railway": "construction", "tracks": "2", "voltage": "750"}}, {"type": "way", "id": 1207188661, "nodes": [11185952162, 11185952163], "tags": {"construction:railway": "tram", "electrified": "contact_line", "frequency": "0", "gauge": "1435", "maxspeed": "70", "name": "Ultunal\u00e4nken", "opening_date": "2029", "railway": "construction", "tracks": "2", "voltage": "750"}}, {"type": "way", "id": 1207188662, "nodes": [11185952191, 11185952162], "tags": {"bridge": "yes", "construction:railway": "tram", "electrified": "contact_line", "frequency": "0", "gauge": "1435", "layer": "1", "maxspeed": "70", "name": "Ultunal\u00e4nken", "opening_date": "2029", "railway": "construction", "tracks": "2", "voltage": "750"}}, {"type": "way", "id": 1207607682, "nodes": [11185446401, 13065208772, 13065208773, 13065208774, 13065208777, 11189250219, 11189250220, 11189250221, 12900487223, 11189250222, 11189250223, 11189250224, 11189250225, 11189250226, 11189250227, 11189250228, 11189250229, 11189250230, 11189250231, 11189250232, 11189250233, 11189250234, 11189250235, 11189250236, 11189270937, 11189270938, 11189270939, 11189270940, 11189270941, 11189270942, 11189270943, 11189270944, 11189270945, 11189270946, 11189270947, 11189270948, 11189270949, 11873904334], "tags": {"construction:railway": "tram", "electrified": "contact_line", "frequency": "0", "gauge": "1435", "layer": "1", "name": "Kunskapssp\u00e5ret", "opening_date": "2029", "railway": "construction", "tracks": "2", "voltage": "750"}}, {"type": "way", "id": 1301311654, "nodes": [12053110248, 12053110249, 12053110250, 12053110251, 12053110252, 12053110253, 12053110254, 12053110255, 12053110256, 12053110257, 12053110258, 12053110259, 11185952176], "tags": {"construction:railway": "tram", "electrified": "contact_line", "frequency": "0", "gauge": "1435", "railway": "construction", "voltage": "750"}}, {"type": "way", "id": 1345262446, "nodes": [11185446368, 12900487232, 11185446369, 11185446370, 11185446371, 11185446372, 11185446373, 11185446374, 11185446375, 11185446376, 11185446377, 11185446378, 11185446379, 11185446380, 11185446381, 11185446382, 11185446383, 11185446384, 11185446385, 11185446386, 11185446387, 11185446388, 11185446389, 11185446390, 11185446391, 12900487231, 11185446392, 11185446393, 11185446394, 11185446395, 11185446396, 11185446397, 11185446398, 11185446399, 11185446400, 13065208771, 13065208775, 11185446401], "tags": {"construction:railway": "tram", "electrified": "contact_line", "frequency": "0", "gauge": "1435", "name": "Ultunal\u00e4nken", "opening_date": "2029", "railway": "construction", "tracks": "2", "voltage": "750"}}, {"type": "way", "id": 1412490649, "nodes": [12979937653, 12979937654, 12979937655, 12979937656, 12979937657, 12979937658, 12979937659, 12979937660, 12979937661, 12979937662, 12979937663, 12979937664, 12979937671, 12979937672, 12979937673, 12979937674, 12979937675, 12979937676, 12979937677, 12979937678, 12979937679, 12979937680, 12979937681, 12979937682, 12979937683, 12979937684, 12979937685, 12979937686, 12979937687, 12979937688, 12979937689, 12979937690, 12979937691, 2180408373], "tags": {"construction_start_expected": "2027/8", "frequency": "16.67", "gauge": "1435", "name": "Ostkustbanan, fyra sp\u00e5r s\u00f6der Bergsbrunna - Uppsala", "opening_date": "2034", "proposed": "rail", "proposed:railway": "rail", "railway": "proposed", "tracks": "2", "usage": "main", "voltage": "15000"}}, {"type": "way", "id": 1412490650, "nodes": [12979937665, 12979937666, 12979937667, 12979937668, 12979937669, 12979937670], "tags": {"construction_start_expected": "2027/8", "frequency": "16.67", "gauge": "1435", "name": "Ostkustbanan, fyra sp\u00e5r s\u00f6der Bergsbrunna - Uppsala", "opening_date": "2034", "proposed": "rail", "proposed:railway": "rail", "railway": "proposed", "tracks": "2", "usage": "main", "voltage": "15000"}}, {"type": "relation", "id": 18185135, "members": [{"type": "way", "ref": 302306295, "role": "platform"}, {"type": "node", "ref": 6848146407, "role": "platform"}], "tags": {"name": "Sm\u00e5landsv\u00e4gen", "network": "UL", "public_transport": "stop_area", "type": "public_transport"}}]}