{"version": 0.6, "generator": "Overpass API 0.7.62.8 e802775f", "osm3s": {"timestamp_osm_base": "2026-01-12T01:09:54Z", "copyright": "The data included in this document is from www.openstreetmap.org. The data is made available under ODbL."}, "elements": [{"type": "node", "id": 342769903, "lat": -36.8091362, "lon": 174.8625308, "tags": {"amenity": "ferry_terminal", "fare_gates": "no", "ferry": "yes", "loc_ref": "1", "name": "Rangitoto Wharf", "name:en": "Rangitoto Wharf", "name:mk": "\u041f\u0440\u0438\u0441\u0442\u0430\u043d \u201e\u0420\u0430\u043d\u0433\u0438\u0442\u043e\u0442\u043e\u201c", "network": "AT", "network:wikidata": "Q4819567", "official_name": "Rangitoto Ferry Terminal", "public_transport": "stop_position", "ref": "9760", "wikidata": "Q131225835"}}, {"type": "node", "id": 2085588282, "lat": -36.8161718, "lon": 174.8039516, "tags": {"bus": "yes", "highway": "bus_stop", "name": "Morrison Avenue", "name:en": "Morrison Avenue", "name:mi": "Te Arah\u0101ngai o Morrison", "network": "AT", "network:wikidata": "Q4819567", "operator": "Auckland Transport", "public_transport": "platform", "ref": "3461"}}, {"type": "node", "id": 2085588283, "lat": -36.8164954, "lon": 174.8043455, "tags": {"bus": "yes", "description": "glass", "highway": "bus_stop", "name": "Morrison Avenue", "name:en": "Morrison Avenue", "name:mi": "Te Arah\u0101ngai o Morrison", "network": "AT", "network:wikidata": "Q4819567", "operator": "Auckland Transport", "public_transport": "platform", "ref": "3496", "shelter": "yes"}}, {"type": "node", "id": 2085588284, "lat": -36.8178445, "lon": 174.8051591, "tags": {"bus": "yes", "description": "glass", "highway": "bus_stop", "name": "Ascot Avenue", "name:en": "Ascot Avenue", "name:mi": "Te Arah\u0101ngai o Ascot", "network": "AT", "network:wikidata": "Q4819567", "operator": "Auckland Transport", "public_transport": "platform", "ref": "3459", "shelter": "yes"}}, {"type": "node", "id": 2085588285, "lat": -36.8179532, "lon": 174.8054282, "tags": {"bus": "yes", "description": "glass", "highway": "bus_stop", "name": "Ascot Avenue", "name:en": "Ascot Avenue", "name:mi": "Te Arah\u0101ngai o Ascot", "network": "AT", "network:wikidata": "Q4819567", "operator": "Auckland Transport", "public_transport": "platform", "ref": "3494", "shelter": "yes"}}, {"type": "node", "id": 2085588287, "lat": -36.820665, "lon": 174.8050314, "tags": {"bus": "yes", "highway": "bus_stop", "name": "Vauxhall Road Shops", "name:en": "Vauxhall Road Shops", "name:mi": "Ng\u0101 Toa o te Huarahi o Vauxhall", "network": "AT", "network:wikidata": "Q4819567", "operator": "Auckland Transport", "public_transport": "platform", "ref": "3457"}}, {"type": "node", "id": 2085588289, "lat": -36.8215894, "lon": 174.8048403, "tags": {"bus": "yes", "highway": "bus_stop", "name": "Vauxhall Road Shops", "name:en": "Vauxhall Road Shops", "name:mi": "Ng\u0101 Toa o te Huarahi o Vauxhall", "network": "AT", "network:wikidata": "Q4819567", "operator": "Auckland Transport", "public_transport": "platform", "ref": "3478"}}, {"type": "node", "id": 2085588297, "lat": -36.822842, "lon": 174.8042486, "tags": {"bench": "yes", "bin": "no", "bus": "yes", "description": "wooden", "highway": "bus_stop", "name": "Albert Road", "network": "AT", "network:wikidata": "Q4819567", "operator": "Auckland Transport", "public_transport": "platform", "ref": "3439", "shelter": "yes", "tactile_paving": "no"}}, {"type": "node", "id": 2085588300, "lat": -36.8231107, "lon": 174.8042961, "tags": {"access": "no", "bus": "yes", "highway": "bus_stop", "name": "Albert Road", "network": "AT", "network:wikidata": "Q4819567", "public_transport": "platform", "ref": "3480", "school_bus": "designated"}}, {"type": "node", "id": 3263007320, "lat": -36.807104, "lon": 174.795591, "tags": {"access": "no", "bus": "yes", "highway": "bus_stop", "name": "Williamson Avenue", "name:en": "Williamson Avenue", "name:mi": "Te Arah\u0101ngai o Williamson", "network": "AT", "network:wikidata": "Q4819567", "public_transport": "platform", "ref": "3497", "school_bus": "designated"}}, {"type": "node", "id": 3263007348, "lat": -36.8121704, "lon": 174.7985064, "tags": {"bus": "yes", "description": "wooden", "highway": "bus_stop", "name": "Handley Avenue", "name:en": "Handley Avenue", "name:mi": "Te Arah\u0101ngai o Handley", "network": "AT", "network:wikidata": "Q4819567", "operator": "Auckland Transport", "public_transport": "platform", "ref": "3518", "shelter": "yes"}}, {"type": "node", "id": 3263007351, "lat": -36.8123115, "lon": 174.7977012, "tags": {"bus": "yes", "description": "glass", "highway": "bus_stop", "name": "Merani Street", "name:en": "Merani Street", "name:mi": "Te Tiriti o Merani", "network": "AT", "network:wikidata": "Q4819567", "operator": "Auckland Transport", "public_transport": "platform", "ref": "3487", "shelter": "yes"}}, {"type": "node", "id": 3263007352, "lat": -36.8124277, "lon": 174.7951582, "tags": {"bus": "yes", "highway": "bus_stop", "name": "Wicklow Road", "name:en": "Wicklow Road", "name:mi": "Te Huarahi o Wicklow", "network": "AT", "network:wikidata": "Q4819567", "operator": "Auckland Transport", "public_transport": "platform", "ref": "3514", "shelter": "no"}}, {"type": "node", "id": 3263007353, "lat": -36.8125087, "lon": 174.7952192, "tags": {"bus": "yes", "highway": "bus_stop", "name": "Wicklow Road", "name:en": "Wicklow Road", "name:mi": "Te Huarahi o Wicklow", "network": "AT", "network:wikidata": "Q4819567", "operator": "Auckland Transport", "public_transport": "platform", "ref": "3483", "shelter": "no"}}, {"type": "node", "id": 3263007355, "lat": -36.8125501, "lon": 174.8009473, "tags": {"back_door_boarding": "no", "bus": "yes", "highway": "bus_stop", "name": "Narrow Neck Beach", "network": "AT", "network:wikidata": "Q4819567", "operator": "Auckland Transport", "public_transport": "platform", "ref": "3520", "shelter": "yes"}}, {"type": "node", "id": 3263007364, "lat": -36.8135067, "lon": 174.8012905, "tags": {"bus": "yes", "highway": "bus_stop", "name": "Narrow Neck Beach", "network": "AT", "network:wikidata": "Q4819567", "operator": "Auckland Transport", "public_transport": "platform", "ref": "3489", "shelter": "yes"}}, {"type": "node", "id": 3263007384, "lat": -36.8212768, "lon": 174.8053816, "tags": {"bus": "yes", "highway": "bus_stop", "name": "Vauxhall Road", "name:en": "Vauxhall Road", "name:mi": "Te Huarahi o Vauxhall", "network": "AT", "network:wikidata": "Q4819567", "operator": "Auckland Transport", "public_transport": "platform", "ref": "3476"}}, {"type": "node", "id": 3263007386, "lat": -36.8223465, "lon": 174.7972123, "tags": {"bus": "yes", "description": "glass", "highway": "bus_stop", "name": "Mozeley Avenue", "name:en": "Mozeley Avenue", "name:mi": "Te Arah\u0101ngai o Mozeley", "network": "AT", "network:wikidata": "Q4819567", "operator": "Auckland Transport", "public_transport": "platform", "ref": "3403", "shelter": "yes"}}, {"type": "node", "id": 3263007387, "lat": -36.8226116, "lon": 174.8039662, "tags": {"bus": "yes", "highway": "bus_stop", "name": "Cambria Road", "name:en": "Cambria Road", "name:mi": "Te Huarahi o Cambria", "network": "AT", "network:wikidata": "Q4819567", "operator": "Auckland Transport", "public_transport": "platform", "ref": "3465"}}, {"type": "node", "id": 3263007388, "lat": -36.8228944, "lon": 174.7976266, "tags": {"bus": "yes", "description": "wooden", "highway": "bus_stop", "name": "Mozeley Avenue", "name:en": "Mozeley Avenue", "name:mi": "Te Arah\u0101ngai o Mozeley", "network": "AT", "network:wikidata": "Q4819567", "operator": "Auckland Transport", "public_transport": "platform", "ref": "3432", "shelter": "yes"}}, {"type": "node", "id": 3263007389, "lat": -36.8228719, "lon": 174.8031228, "tags": {"bus": "yes", "highway": "bus_stop", "name": "Cambria Road", "name:en": "Cambria Road", "name:mi": "Te Huarahi o Cambria", "network": "AT", "network:wikidata": "Q4819567", "operator": "Auckland Transport", "public_transport": "platform", "ref": "3500"}}, {"type": "node", "id": 3263007390, "lat": -36.8229486, "lon": 174.8060146, "tags": {"access": "no", "bus": "yes", "highway": "bus_stop", "name": "Mata\u012b Road", "name:en": "Mata\u012b Road", "name:mi": "Te Huarahi o Mata\u012b", "network": "AT", "network:wikidata": "Q4819567", "public_transport": "platform", "ref": "3437", "school_bus": "designated"}}, {"type": "node", "id": 3263007392, "lat": -36.8235404, "lon": 174.8063279, "tags": {"bus": "yes", "highway": "bus_stop", "name": "Mata\u012b Road", "name:en": "Mata\u012b Road", "name:mi": "Te Huarahi o Mata\u012b", "network": "AT", "network:wikidata": "Q4819567", "operator": "Auckland Transport", "public_transport": "platform", "ref": "3474"}}, {"type": "node", "id": 3263007394, "lat": -36.8236755, "lon": 174.8012125, "tags": {"bus": "yes", "highway": "bus_stop", "name": "Church Street", "name:en": "Church Street", "name:mi": "Te Tiriti o Church", "network": "AT", "network:wikidata": "Q4819567", "note": "AT has a typo in this station's name", "official_name": "Church Sreet", "operator": "Auckland Transport", "public_transport": "platform", "ref": "3467", "wheelchair": "no"}}, {"type": "node", "id": 3263007395, "lat": -36.8241285, "lon": 174.8004907, "tags": {"bus": "yes", "highway": "bus_stop", "name": "Church Street", "name:en": "Church Street", "name:mi": "Te Tiriti o Church", "network": "AT", "network:wikidata": "Q4819567", "note": "AT has a typo in this station's name", "official_name": "Church Sreet", "operator": "Auckland Transport", "public_transport": "platform", "ref": "3502", "shelter": "yes"}}, {"type": "node", "id": 3263007396, "lat": -36.824494, "lon": 174.7992865, "tags": {"bus": "yes", "highway": "bus_stop", "name": "Albert Road / Lake Road", "name:en": "Albert Road / Lake Road", "name:mi": "Te Huarahi o Albert m\u0101 Te Huarahi o Lake", "network": "AT", "network:wikidata": "Q4819567", "operator": "Auckland Transport", "public_transport": "platform", "ref": "3469"}}, {"type": "node", "id": 3263007397, "lat": -36.8247937, "lon": 174.8070771, "tags": {"access": "no", "bus": "yes", "highway": "bus_stop", "name": "Eton Avenue", "name:en": "Eton Avenue", "name:mi": "Te Arah\u0101ngai o Eton", "network": "AT", "network:wikidata": "Q4819567", "public_transport": "platform", "ref": "3435", "school_bus": "designated"}}, {"type": "node", "id": 3263007398, "lat": -36.8250284, "lon": 174.8075049, "tags": {"bus": "yes", "highway": "bus_stop", "name": "Eton Avenue", "name:en": "Eton Avenue", "name:mi": "Te Arah\u0101ngai o Eton", "network": "AT", "network:wikidata": "Q4819567", "operator": "Auckland Transport", "public_transport": "platform", "ref": "3472"}}, {"type": "node", "id": 10559094501, "lat": -36.8122578, "lon": 174.7972382, "tags": {"bus": "yes", "highway": "bus_stop", "name": "Merani Street", "name:en": "Merani Street", "name:mi": "Te Tiriti o Merani", "network": "AT", "network:wikidata": "Q4819567", "operator": "Auckland Transport", "public_transport": "platform", "ref": "3516"}}, {"type": "node", "id": 10751990146, "lat": -36.7856391, "lon": 174.8932114, "tags": {"ferry": "yes", "name": "Yankee Wharf", "public_transport": "stop_position"}}, {"type": "node", "id": 10821360317, "lat": -36.7785464, "lon": 174.895035, "tags": {"ferry": "yes", "name": "Islington Bay Wharf", "public_transport": "stop_position"}}, {"type": "node", "id": 10857165474, "lat": -36.80612, "lon": 174.7948, "tags": {"access": "no", "bus": "yes", "highway": "bus_stop", "name": "Williamson Avenue", "name:en": "Williamson Avenue", "name:mi": "Te Arah\u0101ngai o Williamson", "network": "AT", "network:wikidata": "Q4819567", "public_transport": "platform", "ref": "3528", "school_bus": "designated"}}, {"type": "relation", "id": 15036835, "members": [{"type": "node", "ref": 3263007398, "role": "platform"}, {"type": "node", "ref": 3263007397, "role": "platform"}], "tags": {"name": "Eton Avenue", "name:en": "Eton Avenue", "name:mi": "Te Arah\u0101ngai o Eton", "network": "AT", "network:wikidata": "Q4819567", "official_name": "Tainui Rd / Eton Ave", "public_transport": "stop_area", "ref": "41021", "type": "public_transport"}}, {"type": "relation", "id": 15036836, "members": [{"type": "node", "ref": 3263007390, "role": "platform"}, {"type": "node", "ref": 3263007392, "role": "platform"}], "tags": {"name": "Mata\u012b Road", "name:en": "Mata\u012b Road", "name:mi": "Te Huarahi o Mata\u012b", "network": "AT", "network:wikidata": "Q4819567", "public_transport": "stop_area", "ref": "41022", "type": "public_transport"}}, {"type": "relation", "id": 15036837, "members": [{"type": "node", "ref": 2085588287, "role": "platform"}, {"type": "node", "ref": 2085588289, "role": "platform"}, {"type": "node", "ref": 3263007384, "role": "platform"}], "tags": {"name": "Vauxhall Road Shops", "name:en": "Vauxhall Road Shops", "name:mi": "Ng\u0101 Toa o te Huarahi o Vauxhall", "network": "AT", "network:wikidata": "Q4819567", "public_transport": "stop_area", "ref": "21978", "type": "public_transport"}}, {"type": "relation", "id": 15036838, "members": [{"type": "node", "ref": 2085588300, "role": "platform"}, {"type": "node", "ref": 2085588297, "role": "platform"}], "tags": {"name": "Albert Road", "official_name": "Vauxhall Rd / Albert Rd", "public_transport": "stop_area", "ref": "41024", "type": "public_transport"}}, {"type": "relation", "id": 15036839, "members": [{"type": "node", "ref": 3263007389, "role": "platform"}, {"type": "node", "ref": 3263007387, "role": "platform"}], "tags": {"name": "Cambria Road", "name:en": "Cambria Road", "name:mi": "Te Huarahi o Cambria", "network": "AT", "network:wikidata": "Q4819567", "public_transport": "stop_area", "ref": "41023", "type": "public_transport"}}, {"type": "relation", "id": 15036843, "members": [{"type": "node", "ref": 3263007394, "role": "platform"}, {"type": "node", "ref": 3263007395, "role": "platform"}], "tags": {"name": "Church Street", "name:en": "Church Street", "name:mi": "Te Tiriti o Church", "network": "AT", "network:wikidata": "Q4819567", "note": "AT has a typo in this station's name", "official_name": "Church Sreet", "public_transport": "stop_area", "ref": "41059", "type": "public_transport"}}, {"type": "relation", "id": 15036844, "members": [{"type": "node", "ref": 3263007396, "role": "platform"}], "tags": {"name": "Albert Road / Lake Road", "name:en": "Albert Road / Lake Road", "name:mi": "Te Huarahi o Albert / Te Huarahi o Lake", "network": "AT", "network:wikidata": "Q4819567", "public_transport": "stop_area", "ref": "41058", "type": "public_transport"}}, {"type": "relation", "id": 15908300, "members": [{"type": "node", "ref": 2085588282, "role": "platform"}, {"type": "node", "ref": 2085588283, "role": "platform"}], "tags": {"name": "Morrison Avenue", "name:en": "Morrison Avenue", "name:mi": "Te Arah\u0101ngai o Morrison", "network": "AT", "network:wikidata": "Q4819567", "public_transport": "stop_area", "ref": "41025", "type": "public_transport"}}, {"type": "relation", "id": 15908301, "members": [{"type": "node", "ref": 2085588284, "role": "platform"}, {"type": "node", "ref": 2085588285, "role": "platform"}], "tags": {"name": "Ascot Avenue", "name:en": "Ascot Avenue", "name:mi": "Te Arah\u0101ngai o Ascot", "network": "AT", "network:wikidata": "Q4819567", "public_transport": "stop_area", "ref": "41027", "type": "public_transport"}}, {"type": "relation", "id": 15908302, "members": [{"type": "node", "ref": 3263007364, "role": "platform"}, {"type": "node", "ref": 3263007355, "role": "platform"}], "tags": {"name": "Narrow Neck Beach", "network": "AT", "network:wikidata": "Q4819567", "public_transport": "stop_area", "ref": "41029", "type": "public_transport"}}, {"type": "relation", "id": 15908303, "members": [{"type": "node", "ref": 3263007351, "role": "platform"}, {"type": "node", "ref": 10559094501, "role": "platform"}], "tags": {"name": "Merani Street", "name:en": "Merani Street", "name:mi": "Te Tiriti o Merani", "network": "AT", "network:wikidata": "Q4819567", "public_transport": "stop_area", "ref": "41031", "type": "public_transport"}}, {"type": "relation", "id": 15908304, "members": [{"type": "node", "ref": 3263007353, "role": "platform"}, {"type": "node", "ref": 3263007352, "role": "platform"}], "tags": {"name": "Wicklow Road", "name:en": "Wicklow Road", "name:mi": "Te Huarahi o Wicklow", "network": "AT", "network:wikidata": "Q4819567", "public_transport": "stop_area", "ref": "41033", "type": "public_transport"}}, {"type": "relation", "id": 15908311, "members": [{"type": "node", "ref": 3263007320, "role": "platform"}, {"type": "node", "ref": 10857165474, "role": "platform"}], "tags": {"name": "Williamson Avenue", "name:en": "Williamson Avenue", "name:mi": "Te Arah\u0101ngai o Williamson", "network": "AT", "network:wikidata": "Q4819567", "public_transport": "stop_area", "ref": "41064", "type": "public_transport"}}, {"type": "relation", "id": 15908404, "members": [{"type": "node", "ref": 3263007386, "role": "platform"}, {"type": "node", "ref": 3263007388, "role": "platform"}], "tags": {"name": "Mozeley Avenue", "name:en": "Mozeley Avenue", "name:mi": "Te Arah\u0101ngai o Mozeley", "network": "AT", "network:wikidata": "Q4819567", "public_transport": "stop_area", "ref": "41829", "type": "public_transport"}}]}