{"version": 0.6, "generator": "Overpass API 0.7.62.8 e802775f", "osm3s": {"timestamp_osm_base": "2026-01-12T06:21:29Z", "copyright": "The data included in this document is from www.openstreetmap.org. The data is made available under ODbL."}, "elements": [{"type": "node", "id": 319489495, "lat": 12.9928553, "lon": 80.255116}, {"type": "node", "id": 319489505, "lat": 12.9928054, "lon": 80.2549327}, {"type": "node", "id": 319489509, "lat": 12.99188, "lon": 80.2549043}, {"type": "node", "id": 319493745, "lat": 12.994073, "lon": 80.2561934}, {"type": "node", "id": 319493746, "lat": 12.9941283, "lon": 80.2583655}, {"type": "node", "id": 319493747, "lat": 12.9920327, "lon": 80.2580356}, {"type": "node", "id": 319493748, "lat": 12.9922576, "lon": 80.2561948}, {"type": "node", "id": 1275650594, "lat": 12.9632493, "lon": 80.2463534}, {"type": "node", "id": 1446415367, "lat": 12.9663879, "lon": 80.2474724, "tags": {"addr:city": "CHENNAI", "addr:interpolation": "KANDANCHAVADI", "addr:postcode": "600096", "addr:street": "PERUNGUDI", "amenity": "hospital", "name": "Bhadra Homeo"}}, {"type": "node", "id": 1451948599, "lat": 12.9695957, "lon": 80.2602286}, {"type": "node", "id": 1451948622, "lat": 12.9697751, "lon": 80.2595768}, {"type": "node", "id": 1451948692, "lat": 12.9712879, "lon": 80.2606555}, {"type": "node", "id": 1451948712, "lat": 12.9714366, "lon": 80.2600077}, {"type": "node", "id": 1453588718, "lat": 12.9626644, "lon": 80.2460453}, {"type": "node", "id": 1453588719, "lat": 12.9628992, "lon": 80.2451264}, {"type": "node", "id": 1453588722, "lat": 12.9634505, "lon": 80.2452832}, {"type": "node", "id": 1993266486, "lat": 12.9800456, "lon": 80.2286587, "tags": {"amenity": "hospital", "healthcare": "hospital", "name": "Ortho clinic"}}, {"type": "node", "id": 2124734395, "lat": 12.9321684, "lon": 80.2337388, "tags": {"amenity": "hospital", "name": "Fourtts India Laboratories"}}, {"type": "node", "id": 3355370344, "lat": 12.9942334, "lon": 80.2515531}, {"type": "node", "id": 3355370345, "lat": 12.9941302, "lon": 80.2515874}, {"type": "node", "id": 3355370346, "lat": 12.9941661, "lon": 80.2517012}, {"type": "node", "id": 3355370347, "lat": 12.9942693, "lon": 80.2516668}, {"type": "node", "id": 3372786283, "lat": 12.9862735, "lon": 80.2298924, "tags": {"addr:postcode": "600042", "amenity": "hospital", "healthcare": "hospital", "is_in": "Velachery;Chennai;TN;Tamilnadu", "name": "Velachery SABA Hospital"}}, {"type": "node", "id": 3604843264, "lat": 12.9856116, "lon": 80.2289334}, {"type": "node", "id": 3604843266, "lat": 12.9856165, "lon": 80.2288831}, {"type": "node", "id": 3604843284, "lat": 12.9857044, "lon": 80.2289429}, {"type": "node", "id": 3604843287, "lat": 12.9857093, "lon": 80.2288927}, {"type": "node", "id": 3606770663, "lat": 12.9918751, "lon": 80.2550607}, {"type": "node", "id": 3606770665, "lat": 12.99192, "lon": 80.2550872}, {"type": "node", "id": 3606770666, "lat": 12.9919207, "lon": 80.2550621}, {"type": "node", "id": 3606770674, "lat": 12.9920617, "lon": 80.2550916}, {"type": "node", "id": 3606770675, "lat": 12.9920624, "lon": 80.2550681}, {"type": "node", "id": 3606770680, "lat": 12.9920898, "lon": 80.2550924}, {"type": "node", "id": 3606770681, "lat": 12.9920904, "lon": 80.255069}, {"type": "node", "id": 3606770689, "lat": 12.9921717, "lon": 80.2549821}, {"type": "node", "id": 3606770690, "lat": 12.9921737, "lon": 80.2549133}, {"type": "node", "id": 3606770696, "lat": 12.9923138, "lon": 80.2549864}, {"type": "node", "id": 3606770697, "lat": 12.9923158, "lon": 80.2549177}, {"type": "node", "id": 3606770804, "lat": 12.9928027, "lon": 80.2550198}, {"type": "node", "id": 3606770836, "lat": 12.9928582, "lon": 80.2550215}, {"type": "node", "id": 3606874346, "lat": 12.9855188, "lon": 80.2183753}, {"type": "node", "id": 3606874348, "lat": 12.9855221, "lon": 80.2184829}, {"type": "node", "id": 3606874517, "lat": 12.9856513, "lon": 80.2182846}, {"type": "node", "id": 3606874518, "lat": 12.985654, "lon": 80.2183709}, {"type": "node", "id": 3606874531, "lat": 12.9857021, "lon": 80.2182829}, {"type": "node", "id": 3606874533, "lat": 12.985708, "lon": 80.2184769}, {"type": "node", "id": 3687685030, "lat": 12.9764429, "lon": 80.2221405}, {"type": "node", "id": 3687685031, "lat": 12.976479, "lon": 80.2221924}, {"type": "node", "id": 3687685032, "lat": 12.976426, "lon": 80.2222414}, {"type": "node", "id": 3687685033, "lat": 12.9763889, "lon": 80.222185}, {"type": "node", "id": 3687685034, "lat": 12.9764202, "lon": 80.2221583}, {"type": "node", "id": 3687711447, "lat": 12.9767775, "lon": 80.2223505, "tags": {"amenity": "hospital", "healthcare": "hospital", "name": "Kaya Skin clinic"}}, {"type": "node", "id": 4006923518, "lat": 12.9920711, "lon": 80.2568853}, {"type": "node", "id": 4006923523, "lat": 12.992239, "lon": 80.2568853}, {"type": "node", "id": 4580960018, "lat": 12.9847632, "lon": 80.2572158}, {"type": "node", "id": 4580960020, "lat": 12.984625, "lon": 80.257465}, {"type": "node", "id": 4580960021, "lat": 12.9847396, "lon": 80.257476}, {"type": "node", "id": 5570522545, "lat": 12.9856999, "lon": 80.2293536, "tags": {"addr:street": "Gandhi Road", "amenity": "hospital", "healthcare": "hospital", "is_in": "Velachery;Chennai;Tamilnadu;TN;India;IN", "name": "ARK Hospital"}}, {"type": "node", "id": 6914880539, "lat": 12.9789449, "lon": 80.2246302, "tags": {"addr:district": "Chennai", "addr:full": "No 6 12Th Cross Steet Dhandeeswaram Nagar Velachery", "addr:postcode": "600042", "addr:state": "Tamil Nadu", "amenity": "hospital", "healthcare": "hospital", "name": "Chennai Eye Care Hospital", "source": "OpenGovernmentData"}}, {"type": "node", "id": 6915201226, "lat": 12.9855882, "lon": 80.2189144, "tags": {"addr:district": "Chennai", "addr:full": "No.39, Rajalakhsmi Nagar", "addr:postcode": "600042", "addr:state": "Tamil Nadu", "amenity": "hospital", "healthcare": "hospital", "name": "Helios Hospital Pvt Ltd", "source": "OpenGovernmentData"}}, {"type": "node", "id": 6926808792, "lat": 12.9864526, "lon": 80.2601581, "tags": {"addr:district": "Chennai", "addr:full": "Old No 3, New 11, North Mada Street, Near Marundeeswarar Temple, Near Thiruvanmiyur Bus Terminus", "addr:postcode": "600041", "addr:state": "Tamil Nadu", "amenity": "hospital", "healthcare": "hospital", "name": "Starlight Hospitals Pvt Ltd", "source": "OpenGovernmentData"}}, {"type": "node", "id": 6928094720, "lat": 12.9762711, "lon": 80.2222002, "tags": {"addr:district": "Chennai", "addr:full": "No.-4, 100 Feet Road, Tansi Nagar, Velachery", "addr:postcode": "600042", "addr:state": "Tamil Nadu", "amenity": "hospital", "healthcare": "hospital", "name": "Athipathi Hospital and Research Centre", "source": "OpenGovernmentData"}}, {"type": "node", "id": 6928779096, "lat": 12.9109406, "lon": 80.228211, "tags": {"addr:district": "Chennai", "addr:full": "Rajiv Gandhi Salai, Old Mahabalipuram Road", "addr:postcode": "603103", "addr:state": "Tamil Nadu", "addr:subdistrict": "Kelambakkam", "amenity": "hospital", "email": "cssh@chettinadhealthcity.com", "healthcare": "hospital", "name": "Chettinad Super Speciality Hospital", "operator:type": "private", "source": "OpenGovernmentData", "website": "http://www.chettinadhealthcity.com/"}}, {"type": "node", "id": 6928936148, "lat": 12.9832366, "lon": 80.217509, "tags": {"addr:district": "Chennai", "addr:full": "27, 100 Feet Road, Taramani Link Road, Velacherry", "addr:postcode": "600042", "addr:state": "Tamil Nadu", "amenity": "hospital", "healthcare": "hospital", "name": "Dr.Agarwals Eye Hospital - Velacherry", "operator": "Dr. Agarwal's Eye Hospital", "operator:type": "private", "operator:wikidata": "Q17052044", "source": "OpenGovernmentData"}}, {"type": "node", "id": 6929266356, "lat": 12.9326457, "lon": 80.2320063, "tags": {"addr:district": "Kanchipuram", "addr:full": "168, Chandrasekaran Avenue, O.M.R, Thoraipakkam , Opposite To P.T.C Bus Stop", "addr:postcode": "600096", "addr:state": "Tamil Nadu", "amenity": "hospital", "healthcare": "hospital", "name": "Nanthini Hospital", "source": "OpenGovernmentData"}}, {"type": "node", "id": 6932203729, "lat": 12.9507835, "lon": 80.255186, "tags": {"addr:city": "\u0b9a\u0bc6\u0ba9\u0bcd\u0ba9\u0bc8 - Chennai", "addr:district": "Chennai", "addr:full": "#18, East Coast Road,Near Neelangarai Bus Stop,Neelangarai", "addr:postcode": "600115", "addr:state": "Tamil Nadu", "addr:street": "East Coast Road SH49", "amenity": "hospital", "emergency": "yes", "healthcare": "hospital", "healthcare:speciality": "general", "name": "Santhi Hospital", "operator": "Private", "operator:type": "private", "source": "local knowledge"}}, {"type": "node", "id": 6933279103, "lat": 12.9504267, "lon": 80.2551001, "tags": {"addr:district": "Chennai", "addr:full": "No 20, Thamirabarani Towers, Ecr Road, Kabaliswarer Nagar, Neelankarai", "addr:postcode": "600041", "addr:state": "Tamil Nadu", "amenity": "hospital", "healthcare": "hospital", "name": "Vasan Eye Care Hospital, Neelankarai", "source": "OpenGovernmentData"}}, {"type": "node", "id": 6934340601, "lat": 12.9784706, "lon": 80.2247932, "tags": {"addr:district": "Chennai", "addr:full": "40B, Tansi Nagar Vii St, Velachery", "addr:postcode": "600042", "addr:state": "Tamil Nadu", "amenity": "hospital", "healthcare": "hospital", "name": "Nandhini Hospital", "source": "OpenGovernmentData"}}, {"type": "node", "id": 6936271569, "lat": 12.9640779, "lon": 80.2461429, "tags": {"addr:district": "Kanchipuram", "addr:full": "5/91, Church Road, Perungudi, Near Andrew Yulex Colony, Chengalpattu", "addr:postcode": "600096", "addr:state": "Tamil Nadu", "amenity": "hospital", "name": "Sri Lakshmi Multi Speciality Hospital Pvt Ltd", "source": "OpenGovernmentData"}}, {"type": "node", "id": 6936359940, "lat": 12.9938673, "lon": 80.2528444, "tags": {"addr:district": "Chennai", "addr:full": "New No.10, Old No.20, 3Road Avenue, Indira Nagar, Adyar", "addr:postcode": "600020", "addr:state": "Tamil Nadu", "amenity": "hospital", "healthcare": "hospital", "name": "Lakshmi Maternity Hospital", "source": "OpenGovernmentData"}}, {"type": "node", "id": 6936695177, "lat": 12.9833895, "lon": 80.2181782, "tags": {"addr:district": "Chennai", "addr:full": "7/14, 7Th Cross Street, Rajalakshmi Nagar, Velachery", "addr:postcode": "600042", "addr:state": "Tamil Nadu", "amenity": "hospital", "healthcare": "hospital", "name": "Xcellent Care Superspeciality Hospital", "source": "OpenGovernmentData"}}, {"type": "node", "id": 6937055902, "lat": 12.9758647, "lon": 80.2205016, "tags": {"addr:district": "Chennai", "addr:full": "Plot No. 191, 100 Feet By-Pass Road, Velacherry", "addr:postcode": "600042", "addr:state": "Tamil Nadu", "amenity": "hospital", "healthcare": "hospital", "name": "Appasamy Krishna Hospital and Medical Research Centre", "source": "OpenGovernmentData"}}, {"type": "node", "id": 6950288001, "lat": 12.9531897, "lon": 80.2541614, "tags": {"addr:district": "Chennai", "addr:full": "No.2/614A,Philios Street,Neelangarai", "addr:postcode": "600002", "addr:state": "Tamil Nadu", "amenity": "hospital", "healthcare": "hospital", "name": "Sahishnatha Indtitute Of Maternal And Child Health", "source": "OpenGovernmentData"}}, {"type": "node", "id": 7213394742, "lat": 12.9609724, "lon": 80.2421492, "tags": {"addr:district": "Chennai", "addr:full": "12/8, Phase-1, Thirumalai Nagar, Tirumalai Nagar, Perungudi", "addr:postcode": "600096", "addr:state": "Tamil Nadu", "amenity": "hospital", "name": "London Harley Street Women And Fertility Centre", "source": "OpenGovernmentData"}}, {"type": "node", "id": 7822259995, "lat": 12.912214, "lon": 80.229384, "tags": {"addr:district": "Chengalpattu", "addr:full": "Karappakam", "addr:postcode": "600097", "addr:state": "Tamil Nadu", "amenity": "hospital", "healthcare": "hospital", "name": "Shri Sai Children's Hospital and Dental Clinic", "source": "Local Knowledge"}}, {"type": "node", "id": 7822260009, "lat": 12.9319677, "lon": 80.2326252, "tags": {"addr:district": "Chengalpattu", "addr:full": "Bhagat Singh Nagar", "addr:postcode": "600097", "addr:state": "Tamil Nadu", "amenity": "hospital", "healthcare": "hospital", "name": "SV Hospital", "source": "Local Knowledge"}}, {"type": "node", "id": 7822260021, "lat": 12.9498749, "lon": 80.2381651, "tags": {"addr:district": "Chengalpattu", "addr:full": "Thoraipakkam", "addr:postcode": "600097", "addr:state": "Tamil Nadu", "amenity": "hospital", "name": "Jayam Hospital", "source": "Local Knowledge"}}, {"type": "node", "id": 7822260033, "lat": 12.9402236, "lon": 80.2412342, "tags": {"addr:district": "Chengalpattu", "addr:full": "Oggiyamduraipakkam", "addr:postcode": "600097", "addr:state": "Tamil Nadu", "amenity": "hospital", "name": "Dhanvantri Multi Speciality", "source": "Local Knowledge"}}, {"type": "node", "id": 7823212559, "lat": 12.9753651, "lon": 80.2543198, "tags": {"addr:district": "Chengalpattu", "addr:full": "Valmiki Nagar, Kannappa Nagar, Thiruvanmiyur", "addr:postcode": "600041", "addr:state": "Tamil Nadu", "amenity": "hospital", "healthcare": "hospital", "name": "Shakthi Hospital", "source": "Local Knowledge"}}, {"type": "node", "id": 7823212570, "lat": 12.9757686, "lon": 80.2590077, "tags": {"addr:district": "Chengalpattu", "addr:full": "Thiruvanmiyur", "addr:postcode": "600041", "addr:state": "Tamil Nadu", "amenity": "hospital", "healthcare": "hospital", "name": "Hale and Healthy Hospitals", "source": "Local Knowledge"}}, {"type": "node", "id": 7823212607, "lat": 12.9751423, "lon": 80.2582571, "tags": {"addr:district": "Chengalpattu", "addr:full": "Kottivakkam, Near Tiruvanmiyur", "addr:postcode": "600041", "addr:state": "Tamil Nadu", "amenity": "hospital", "healthcare": "hospital", "name": "Promed Hospital", "source": "Local Knowledge"}}, {"type": "node", "id": 7823212610, "lat": 12.9693629, "lon": 80.2566138, "tags": {"addr:district": "Chengalpattu", "addr:full": "Kottivakkam", "addr:postcode": "600041", "addr:state": "Tamil Nadu", "amenity": "hospital", "healthcare": "hospital", "name": "Happy Clinic Hospital", "source": "Local Knowledge"}}, {"type": "node", "id": 7823415020, "lat": 12.9915347, "lon": 80.2615046, "tags": {"addr:district": "Chennai", "addr:full": "Radhakrishnan Nagar, Thiruvanmiyur", "addr:postcode": "600041", "addr:state": "Tamil Nadu", "amenity": "hospital", "healthcare": "hospital", "name": "Corporation Hospital", "source": "Local Knowledge"}}, {"type": "node", "id": 7823415021, "lat": 12.978253, "lon": 80.258947, "tags": {"addr:district": "Chennai", "addr:full": "Thiruvanmiyur", "addr:postcode": "600041", "addr:state": "Tamil Nadu", "amenity": "hospital", "healthcare": "hospital", "name": "Relief Dental Hospitals", "source": "Local Knowledge"}}, {"type": "node", "id": 7823415049, "lat": 12.986383, "lon": 80.260187, "tags": {"addr:district": "Chennai", "addr:full": "Kamaraj Nagar, Thiruvanmiyur", "addr:postcode": "600041", "addr:state": "Tamil Nadu", "amenity": "hospital", "healthcare": "hospital", "name": "SMK Hospital", "source": "Local Knowledge"}}, {"type": "node", "id": 7823415056, "lat": 12.9916719, "lon": 80.2624479, "tags": {"addr:district": "Chennai", "addr:full": "Radhakrishnan Nagar, Thiruvanmiyur", "addr:postcode": "600041", "addr:state": "Tamil Nadu", "amenity": "hospital", "healthcare": "hospital", "name": "Uma Sankaran Siddha Hospital", "source": "Local Knowledge"}}, {"type": "node", "id": 7823415091, "lat": 12.9890173, "lon": 80.2599586, "tags": {"addr:district": "Chennai", "addr:full": "Kamaraj Nagar, Thiruvanmiyur", "addr:postcode": "600041", "addr:state": "Tamil Nadu", "amenity": "hospital", "healthcare": "hospital", "name": "Ashwini Hospital", "source": "Local Knowledge"}}, {"type": "node", "id": 8197934476, "lat": 12.9120483, "lon": 80.2489789, "tags": {"addr:housenumber": "1/341", "addr:street": "Gangai Amman Kovil Street", "amenity": "hospital", "description": "Sanjeevani Ayurvedic Hospital", "name": "Sanjeevani Ayurvedic Hospital", "phone": "9500071332"}}, {"type": "node", "id": 8639896900, "lat": 12.9784544, "lon": 80.2214698, "tags": {"addr:city": "Chennai", "addr:housenumber": "36", "addr:postcode": "600042", "addr:street": "Velachery Main Road", "amenity": "hospital", "email": "info@prashanthhospitals.org", "healthcare": "hospital", "name": "Prashanth Hospitals", "phone": "+91 44 2243 9494;+91 44 4680 5544;+91 82962 63415", "website": "https://prashanthhospitals.org"}}, {"type": "node", "id": 11030701311, "lat": 12.9633686, "lon": 80.2457187}, {"type": "node", "id": 11679595256, "lat": 12.9569147, "lon": 80.2513405, "tags": {"addr:housenumber": "22/10 11", "addr:street": "Kazura Garden, 1st Street", "amenity": "hospital", "healthcare": "hospital", "name": "Jananam fertility centre"}}, {"type": "node", "id": 11757871795, "lat": 12.9846385, "lon": 80.2572089}, {"type": "node", "id": 13155026101, "lat": 12.9810842, "lon": 80.2343492, "tags": {"addr:street": "Taramani Link Road", "amenity": "hospital", "name": "Good Shepard hospital", "opening_hours": "24/7"}}, {"type": "way", "id": 29046387, "nodes": [319489495, 3606770836, 3606770804, 319489505, 3606770697, 3606770696, 3606770689, 3606770690, 319489509, 3606770663, 3606770666, 3606770665, 3606770674, 3606770675, 3606770681, 3606770680, 319489495], "tags": {"addr:district": "Chennai", "addr:full": "17,Iv Main Road,Indira Nagar", "addr:postcode": "600020", "addr:state": "Tamil Nadu", "amenity": "hospital", "building": "hospital", "healthcare": "hospital", "name": "Tt Ranganathan Clinical Research Foundation", "source": "OpenGovernmentData"}}, {"type": "way", "id": 29046742, "nodes": [319493745, 319493746, 319493747, 4006923518, 4006923523, 319493748, 319493745], "tags": {"addr:district": "Chennai", "addr:full": "34-37, Kalki Krishnamurthy Salai", "addr:postcode": "600041", "addr:state": "Tamil Nadu", "addr:subdistrict": "Thiruvanmiyur", "amenity": "hospital", "email": "contact@impcops.org", "healthcare": "hospital", "name": "IMPCOPS Traditional Hospital", "operator:type": "private", "source": "OpenGovernmentData", "website": "https://impcops.org/"}}, {"type": "way", "id": 131961841, "nodes": [1451948712, 1451948622, 1451948599, 1451948692, 1451948712], "tags": {"amenity": "hospital", "healthcare": "hospital", "name": "Ayurveda Hospital"}}, {"type": "way", "id": 132073184, "nodes": [1453588719, 1453588722, 11030701311, 1275650594, 1453588718, 1453588719], "tags": {"amenity": "hospital", "emergency": "yes", "name": "Apollo Hospital"}}, {"type": "way", "id": 328706398, "nodes": [3355370344, 3355370345, 3355370346, 3355370347, 3355370344], "tags": {"addr:city": "Chennai", "addr:housenumber": "6", "addr:postcode": "600020", "addr:street": "16th Cross Street", "amenity": "hospital", "healthcare": "hospital", "name": "Chennai Clinical Centres", "operator": "Dr D Balakrishnan ENT Clinic", "phone": "+919841910001"}}, {"type": "way", "id": 354810486, "nodes": [3604843284, 3604843264, 3604843266, 3604843287, 3604843284], "tags": {"amenity": "hospital", "building": "yes", "comment": "Private Nursing home", "healthcare": "hospital"}}, {"type": "way", "id": 355074781, "nodes": [3606874531, 3606874533, 3606874348, 3606874346, 3606874518, 3606874517, 3606874531], "tags": {"addr:street": "7th Cross Street, Rajalaksmi nagar", "amenity": "hospital", "building": "yes", "emergency": "yes", "name": "Xcellent Care Hospital", "operator": "Xcellent Care Super Speciality Hospital ( P ) Ltd.", "website": "http://xcellentcarehospital.com"}}, {"type": "way", "id": 364721502, "nodes": [3687685030, 3687685031, 3687685032, 3687685033, 3687685034, 3687685030], "tags": {"amenity": "hospital", "healthcare": "hospital", "name": "Athipathy Hospitals"}}, {"type": "way", "id": 462740006, "nodes": [4580960018, 11757871795, 4580960020, 4580960021, 4580960018], "tags": {"amenity": "hospital", "healthcare": "hospital", "name": "corporation hospital"}}]}