{"version": 0.6, "generator": "Overpass API 0.7.62.8 e802775f", "osm3s": {"timestamp_osm_base": "2026-01-12T19:32:15Z", "copyright": "The data included in this document is from www.openstreetmap.org. The data is made available under ODbL."}, "elements": [{"type": "node", "id": 443612463, "lat": 13.0371728, "lon": 77.6409543, "tags": {"amenity": "hospital", "name": "Sri Vijayalakshmi Pragathi Hospital", "name:kn": "\u0cb6\u0ccd\u0cb0\u0cc0 \u0cb5\u0cbf\u0c9c\u0caf\u0cb2\u0c95\u0ccd\u0cb7\u0ccd\u0cae\u0cc0 \u0caa\u0ccd\u0cb0\u0c97\u0ca4\u0cbf \u0c86\u0cb8\u0ccd\u0caa\u0ca4\u0ccd\u0cb0\u0cc6"}}, {"type": "node", "id": 454142398, "lat": 13.0185503, "lon": 77.6364728, "tags": {"amenity": "hospital", "name": "Sathya Hospital", "name:kn": "\u0cb8\u0ca4\u0ccd\u0caf \u0c86\u0cb8\u0ccd\u0caa\u0ca4\u0ccd\u0cb0\u0cc6"}}, {"type": "node", "id": 1067181192, "lat": 13.0038999, "lon": 77.6039313, "tags": {"addr:district": "Bengaluru Urban", "addr:full": "110,6Th Main Iti Layout Benson Town Post", "addr:postcode": "560046", "addr:state": "Karnataka", "amenity": "hospital", "name": "Devine Hospital", "name:kn": "\u0ca1\u0cbf\u0cb5\u0cc8\u0ca8\u0ccd \u0c86\u0cb8\u0ccd\u0caa\u0ca4\u0ccd\u0cb0\u0cc6", "source": "OpenGovernmentData"}}, {"type": "node", "id": 1436177631, "lat": 12.995242, "lon": 77.6523255, "tags": {"amenity": "hospital", "name": "ESI Hospital", "name:kn": "\u0c87\u0c8e\u0cb8\u0ccd\u0c90 \u0c86\u0cb8\u0ccd\u0caa\u0ca4\u0ccd\u0cb0\u0cc6"}}, {"type": "node", "id": 1469181813, "lat": 12.995625, "lon": 77.6113272, "tags": {"addr:city": "Bengaluru", "addr:country": "IN", "addr:hamlet": "Frazer Town", "addr:postcode": "560005", "addr:street": "Saunders Road", "amenity": "hospital", "name": "Seventh Day Adventist Hospital", "name:kn": "\u0cb8\u0cc6\u0cb5\u0cc6\u0c82\u0ca4\u0ccd \u0ca1\u0cc7 \u0c85\u0ca1\u0ccd\u0cb5\u0cc6\u0ca8\u0ccd\u0c9f\u0cbf\u0cb8\u0ccd\u0c9f\u0ccd \u0c86\u0cb8\u0ccd\u0caa\u0ca4\u0ccd\u0cb0\u0cc6"}}, {"type": "node", "id": 1469314053, "lat": 12.9965077, "lon": 77.6220456, "tags": {"amenity": "hospital", "name": "Srinivasa Nursing Home"}}, {"type": "node", "id": 1474875685, "lat": 13.0248621, "lon": 77.6139585, "tags": {"amenity": "hospital", "emergency": "yes", "name": "Dr. Ambedkar Medical College Hospital", "name:kn": "\u0c85\u0c82\u0cac\u0cc7\u0ca1\u0ccd\u0c95\u0cb0\u0ccd \u0cb5\u0cc8\u0ca6\u0ccd\u0caf\u0c95\u0cc0\u0caf \u0c95\u0cbe\u0cb2\u0cc7\u0c9c\u0cc1 \u0c86\u0cb8\u0ccd\u0caa\u0ca4\u0ccd\u0cb0\u0cc6"}}, {"type": "node", "id": 1611862023, "lat": 13.0512768, "lon": 77.5943195}, {"type": "node", "id": 1611862035, "lat": 13.0506624, "lon": 77.5934113}, {"type": "node", "id": 1611862042, "lat": 13.0514034, "lon": 77.593583}, {"type": "node", "id": 1611862066, "lat": 13.0505027, "lon": 77.5941371}, {"type": "node", "id": 1722802205, "lat": 13.0307899, "lon": 77.653594, "tags": {"amenity": "hospital", "emergency": "no", "name": "Karunya Homoeopathy Centre"}}, {"type": "node", "id": 1724416882, "lat": 13.0148188, "lon": 77.6653699, "tags": {"amenity": "hospital", "name": "Ayur Seva Hospital", "name:en": "Ayur Vaid Hospital"}}, {"type": "node", "id": 1761866934, "lat": 13.0207033, "lon": 77.6760593, "tags": {"amenity": "hospital", "name": "Koshys Hospital"}}, {"type": "node", "id": 1958294905, "lat": 13.0100409, "lon": 77.6674667, "tags": {"amenity": "hospital", "name": "Charan Homeopathy, Ramamurthy Nagar"}}, {"type": "node", "id": 1988322107, "lat": 13.0834023, "lon": 77.6348642, "tags": {"amenity": "hospital", "name": "Dhanavantri Hospital", "name:kn": "\u0ca7\u0ca8\u0cb5\u0c82\u0ca4\u0ccd\u0cb0\u0cbf \u0c86\u0cb8\u0ccd\u0caa\u0ca4\u0ccd\u0cb0\u0cc6"}}, {"type": "node", "id": 2247460571, "lat": 12.9948082, "lon": 77.5935079}, {"type": "node", "id": 2272455276, "lat": 13.0124345, "lon": 77.6580271, "tags": {"addr:district": "Bengaluru Urban", "addr:full": "No. 699, 3Road Main Road,Bhuvanagiri Layout,(O.M.B.R),Doddabanasawadi", "addr:postcode": "560043", "addr:state": "Karnataka", "amenity": "hospital", "name": "Srivijaya Speciality Hospital", "source": "OpenGovernmentData"}}, {"type": "node", "id": 2533566686, "lat": 13.0007683, "lon": 77.6132902, "tags": {"amenity": "hospital", "name": "United Medical lab", "name:kn": "\u0caf\u0cc1\u0ca8\u0cc8\u0c9f\u0cc6\u0ca1\u0ccd \u0cae\u0cc6\u0ca1\u0cbf\u0c95\u0cb2\u0ccd \u0cb2\u0ccd\u0caf\u0cbe\u0cac\u0ccd"}}, {"type": "node", "id": 2625606671, "lat": 13.0224052, "lon": 77.6579566}, {"type": "node", "id": 2625606675, "lat": 13.0224263, "lon": 77.6581236}, {"type": "node", "id": 2625606677, "lat": 13.0223411, "lon": 77.658075}, {"type": "node", "id": 3334054156, "lat": 13.0099493, "lon": 77.5935768}, {"type": "node", "id": 3334054158, "lat": 13.0100512, "lon": 77.5947007}, {"type": "node", "id": 3334054177, "lat": 13.0102759, "lon": 77.5940703}, {"type": "node", "id": 3355835858, "lat": 12.9951285, "lon": 77.6531788}, {"type": "node", "id": 3355835859, "lat": 12.9951949, "lon": 77.6522346}, {"type": "node", "id": 3355835860, "lat": 12.9953179, "lon": 77.6531929}, {"type": "node", "id": 3355835861, "lat": 12.9953843, "lon": 77.6522486}, {"type": "node", "id": 3525674088, "lat": 12.9998316, "lon": 77.614639}, {"type": "node", "id": 3525674091, "lat": 12.9998648, "lon": 77.6143285}, {"type": "node", "id": 3525674205, "lat": 13.0000958, "lon": 77.6146687}, {"type": "node", "id": 3525674209, "lat": 13.000129, "lon": 77.6143583}, {"type": "node", "id": 3530356274, "lat": 13.0145298, "lon": 77.6465043}, {"type": "node", "id": 3530356277, "lat": 13.0145451, "lon": 77.6463883}, {"type": "node", "id": 3530356413, "lat": 13.0146737, "lon": 77.6465243}, {"type": "node", "id": 3530356415, "lat": 13.014689, "lon": 77.6464084}, {"type": "node", "id": 3565016646, "lat": 13.0170766, "lon": 77.6431868}, {"type": "node", "id": 3565016647, "lat": 13.017072, "lon": 77.6434018}, {"type": "node", "id": 3565016652, "lat": 13.0171877, "lon": 77.6431868}, {"type": "node", "id": 3565016653, "lat": 13.0171847, "lon": 77.6434021}, {"type": "node", "id": 3679885227, "lat": 13.0152169, "lon": 77.6467618}, {"type": "node", "id": 3679885229, "lat": 13.0152231, "lon": 77.646654}, {"type": "node", "id": 3679885235, "lat": 13.015304, "lon": 77.646767}, {"type": "node", "id": 3679885236, "lat": 13.0153101, "lon": 77.6466592}, {"type": "node", "id": 4189843307, "lat": 13.0206063, "lon": 77.6445361, "tags": {"addr:city": "Bangalore", "addr:postcode": "560043", "addr:street": "4th B cross, 7th C Main", "amenity": "hospital", "emergency": "no", "name": "Rajbal Skin Clinic", "operator": "Skin Specialist"}}, {"type": "node", "id": 4263313808, "lat": 13.0147612, "lon": 77.6335463, "tags": {"amenity": "hospital", "name": "Dianova Diabetes Center and Hospital"}}, {"type": "node", "id": 4349443891, "lat": 13.0169826, "lon": 77.6432959, "tags": {"addr:district": "Bengaluru Urban", "addr:full": "Kalyan Nagar, Bengaluru", "addr:postcode": "560043", "addr:state": "Karnataka", "amenity": "hospital", "name": "Trilife Hospital", "source": "Local Knowledge"}}, {"type": "node", "id": 4386507095, "lat": 13.0267226, "lon": 77.6041132, "tags": {"amenity": "hospital", "name": "Vignesh Lab and Diagnostics"}}, {"type": "node", "id": 4445179843, "lat": 13.0830463, "lon": 77.6347174, "tags": {"addr:city": "Bangalore", "addr:housenumber": "No.30", "addr:postcode": "560064", "addr:street": "Thanisandra Main Road, Chokkanahalli", "amenity": "hospital", "name": "Regal Hospital", "phone": "08033082383", "website": "https://regalhospital.com/"}}, {"type": "node", "id": 4445886952, "lat": 13.0316481, "lon": 77.6023154, "tags": {"addr:city": "Bangalore", "addr:postcode": "560032", "addr:street": "Sultanpalya Main Road, Near-Bus Stand, R T Nagar", "amenity": "hospital", "name": "Sanjeevini Children & Women Clinic", "phone": "080 2292 4422"}}, {"type": "node", "id": 4445955282, "lat": 13.0203944, "lon": 77.6512682, "tags": {"addr:city": "BANGALORE", "addr:housenumber": "914, 5th A Cross Road", "addr:postcode": "560043", "addr:street": "Outer Ring Road", "amenity": "hospital", "emergency": "yes", "name": "Procare Hospital", "phone": "080 4162 0620", "website": "080 4162 0620"}}, {"type": "node", "id": 4446300155, "lat": 12.9959413, "lon": 77.6082575, "tags": {"addr:city": "bangalore", "addr:district": "Bengaluru Urban", "addr:full": "No. 6 / 1, Promenade Road, Behind Coles Park, Near Goodwill School", "addr:housenumber": "6/1", "addr:postcode": "560005", "addr:state": "Karnataka", "addr:street": "Promenade Road, Near Coles Park, Frazer Town", "amenity": "hospital", "check_date": "2024-12-29", "name": "Santosh Hospital", "name:kn": "\u0cb8\u0c82\u0ca4\u0ccb\u0cb7 \u0c86\u0cb8\u0ccd\u0caa\u0ca4\u0ccd\u0cb0\u0cc6", "phone": "080 2536 7706", "source": "OpenGovernmentData", "website": "https://santoshhealthcare.com/"}}, {"type": "node", "id": 4446876066, "lat": 13.0204424, "lon": 77.6440607, "tags": {"addr:city": "Bangalore", "addr:housenumber": "714", "addr:postcode": "560043", "addr:street": "4th B Cross, 7th A Main, 1st Block, HRBR Layout, Kalyan Nagar", "amenity": "hospital", "name": "Herbocare Hospital Pvt", "phone": "+9174064 30003", "website": "herbocare.info"}}, {"type": "node", "id": 4577045761, "lat": 12.9983402, "lon": 77.6200927, "tags": {"amenity": "hospital", "name": "Government Maternity Home", "name:kn": "\u0cb8\u0cb0\u0ccd\u0c95\u0cbe\u0cb0\u0cbf \u0cae\u0cbe\u0ca4\u0cc3\u0ca4\u0ccd\u0cb5 \u0cae\u0ca8\u0cc6"}}, {"type": "node", "id": 4844865057, "lat": 13.014746, "lon": 77.6357881, "tags": {"amenity": "hospital", "name": "Doctor's diagnostics Centre", "name:en": "Doctor's diagnostics Centre"}}, {"type": "node", "id": 5112187604, "lat": 13.0090912, "lon": 77.656317, "tags": {"amenity": "hospital", "name": "Subramanium Medicine Store"}}, {"type": "node", "id": 5112189133, "lat": 13.0669233, "lon": 77.6393713}, {"type": "node", "id": 5112189134, "lat": 13.0669011, "lon": 77.639487}, {"type": "node", "id": 5112189135, "lat": 13.0667751, "lon": 77.6394615}, {"type": "node", "id": 5112189136, "lat": 13.0667973, "lon": 77.6393458}, {"type": "node", "id": 5112191947, "lat": 13.0104342, "lon": 77.6583242, "tags": {"addr:district": "Bengaluru Urban", "addr:full": "6C - 335, 4Th C Main Road, 6Th Cross Ombr Layout Bhuvanagiri", "addr:postcode": "560041", "addr:state": "Karnataka", "amenity": "hospital", "name": "Chaya Super Speciality Hospital", "source": "OpenGovernmentData"}}, {"type": "node", "id": 5112227907, "lat": 13.0171877, "lon": 77.6432248}, {"type": "node", "id": 5520252375, "lat": 13.0552027, "lon": 77.6028234, "tags": {"addr:district": "Bengaluru Urban", "addr:full": "Bhuvaneswari Nagar, Hebbal Kempapura, Bengaluru", "addr:postcode": "560024", "addr:state": "Karnataka", "amenity": "hospital", "healthcare": "yes", "name": "Care Health", "source": "Local Knowledge"}}, {"type": "node", "id": 5966255497, "lat": 13.066842, "lon": 77.6390545, "tags": {"amenity": "hospital", "name": "Bangalore Prime Hospital"}}, {"type": "node", "id": 6779119335, "lat": 13.0665572, "lon": 77.59647, "tags": {"amenity": "hospital", "name": "Venus Bone & Joint Centre", "opening_hours": "Mo-Su 10:00-21:00"}}, {"type": "node", "id": 6937890455, "lat": 13.0237316, "lon": 77.5941463, "tags": {"addr:district": "Bengaluru Urban", "addr:full": "No 80, P&T Colony R T Nagar", "addr:postcode": "560032", "addr:state": "Karnataka", "amenity": "hospital", "name": "Chaitanya Hospital", "name:kn": "\u0c9a\u0cc8\u0ca4\u0ca8\u0ccd\u0caf \u0c86\u0cb8\u0ccd\u0caa\u0ca4\u0ccd\u0cb0\u0cc6", "source": "OpenGovernmentData"}}, {"type": "node", "id": 6938005237, "lat": 13.0370143, "lon": 77.6238732, "tags": {"addr:district": "Bengaluru Urban", "addr:full": "#978, 18Th Cross,14Th Main, 5Th Block, 1st Stage,H.B.R.Layout", "addr:postcode": "560043", "addr:state": "Karnataka", "amenity": "hospital", "name": "Sri Sai Hospital, Bengaluru Urban", "source": "OpenGovernmentData"}}, {"type": "node", "id": 6938547661, "lat": 13.0289685, "lon": 77.6045479, "tags": {"addr:district": "Bengaluru Urban", "addr:full": "# 125 1st Cross Bhuwaneshwarinagar Sultanpalya Main Road R T Nagar Post", "addr:postcode": "560032", "addr:state": "Karnataka", "amenity": "hospital", "name": "Ashirwad Hospital", "source": "OpenGovernmentData"}}, {"type": "node", "id": 6938695174, "lat": 13.0398217, "lon": 77.6230843, "tags": {"addr:district": "Bengaluru Urban", "addr:full": "Nagarwara", "addr:postcode": "560045", "addr:state": "Karnataka", "amenity": "hospital", "name": "J M J Hospital, Bengaluru Urban", "source": "OpenGovernmentData"}}, {"type": "node", "id": 6938781514, "lat": 13.0090828, "lon": 77.6235594, "tags": {"addr:district": "Bengaluru Urban", "addr:full": "Hennur Main Road Opposite Srirama Temple", "addr:postcode": "560043", "addr:state": "Karnataka", "amenity": "hospital", "healthcare": "hospital", "name": "K C Raju Multi Speciality Hospital", "source": "OpenGovernmentData"}}, {"type": "node", "id": 6938949273, "lat": 13.0186045, "lon": 77.6479433, "tags": {"addr:district": "Bengaluru Urban", "addr:full": "No. 3Ac 902, 3Road A Cross, 1st Block,9Th A Main, Kalyannagar", "addr:postcode": "560043", "addr:state": "Karnataka", "amenity": "hospital", "name": "Lokhande S Hospital", "source": "OpenGovernmentData"}}, {"type": "node", "id": 6939074293, "lat": 13.0218188, "lon": 77.613084, "tags": {"addr:district": "Bengaluru Urban", "addr:full": "Kadugondanahalli", "addr:postcode": "560045", "addr:state": "Karnataka", "amenity": "hospital", "email": "drbramc@rediffmail.com", "healthcare:speciality": "multi speciality", "name": "Dr Ambedkar Medical College Hospital", "operator:type": "private", "source": "OpenGovernmentData", "website": "http://www.bramc.org/"}}, {"type": "node", "id": 6939076687, "lat": 13.0212406, "lon": 77.6070739, "tags": {"addr:district": "Bengaluru Urban", "addr:full": "91, Kavalbhyrasandra Dr Amc Road, Rt Nagar Post R T Nagar", "addr:postcode": "560032", "addr:state": "Karnataka", "amenity": "hospital", "name": "Manju Sree Hospital", "name:kn": "\u0cae\u0c82\u0c9c\u0cc1\u0cb6\u0ccd\u0cb0\u0cc0 \u0c86\u0cb8\u0ccd\u0caa\u0ca4\u0ccd\u0cb0\u0cc6", "source": "OpenGovernmentData"}}, {"type": "node", "id": 6939311791, "lat": 13.0373572, "lon": 77.6409059, "tags": {"addr:district": "Bengaluru Urban", "addr:full": "#3/666, Hennur Bande,Hennur Main Road, Kalayan Nagar Post,International Link Road", "addr:postcode": "560043", "addr:state": "Karnataka", "amenity": "hospital", "name": "Shree Vijayalakshmi Hospital and Trauma Centre", "source": "OpenGovernmentData"}}, {"type": "node", "id": 6944095845, "lat": 13.0241341, "lon": 77.6335546, "tags": {"addr:district": "Bengaluru Urban", "addr:full": "#205-4c, 4th Cross, 3 Road Block", "addr:postcode": "560043", "addr:state": "Karnataka", "addr:subdistrict": "Banaswadi", "amenity": "hospital", "name": "Vasan Eye Care Hospital, Banaswadi", "operator:type": "private", "source": "OpenGovernmentData", "website": "http://www.vasaneye.in/"}}, {"type": "node", "id": 6944231454, "lat": 12.9994472, "lon": 77.6162584, "tags": {"addr:district": "Bengaluru Urban", "addr:full": "Pillana Garden", "addr:postcode": "560045", "addr:state": "Karnataka", "amenity": "hospital", "name": "Mediscope Hospital Private Limited", "operator:type": "private", "source": "OpenGovernmentData", "website": "http://dpal.kar.nic.in/Kanunu%20padakosha%20PDF%20Files/Recognised%20Hospitals.pdf"}}, {"type": "node", "id": 6944231456, "lat": 13.0555559, "lon": 77.6517145, "tags": {"addr:district": "Bengaluru Urban", "addr:full": "85 Byrathi, Hennur Main Road,Near Kothnur Police Station", "addr:postcode": "560077", "addr:state": "Karnataka", "amenity": "hospital", "name": "Medi Derma Hospital", "source": "OpenGovernmentData"}}, {"type": "node", "id": 6944274074, "lat": 13.0139247, "lon": 77.6640775, "tags": {"addr:district": "Bengaluru Urban", "addr:full": "No. 16, Hoysala Nagar, Maruti Complex, Ramamurthy Nagar Extension", "addr:postcode": "560016", "addr:state": "Karnataka", "amenity": "hospital", "name": "Ayurseva Hospital", "source": "OpenGovernmentData"}}, {"type": "node", "id": 6944392375, "lat": 13.0205082, "lon": 77.6509675, "tags": {"addr:district": "Bengaluru Urban", "addr:full": "904, 1st Block, Hrbr Layout (Near Overhead Water Tank, Outer Ring Road) Bansawadi", "addr:postcode": "560043", "addr:state": "Karnataka", "amenity": "hospital", "name": "Banasawadi Hospital", "name:kn": "\u0cac\u0cbe\u0ca8\u0cb8\u0cb5\u0cbe\u0ca1\u0cbf \u0c86\u0cb8\u0ccd\u0caa\u0ca4\u0ccd\u0cb0\u0cc6", "source": "OpenGovernmentData"}}, {"type": "node", "id": 6944392376, "lat": 13.0221036, "lon": 77.6387729, "tags": {"addr:district": "Bengaluru Urban", "addr:full": "#4 Ac-426,4Thcross,2nd Block, Oop.Kalyana Nagar,Telephone Exchange", "addr:postcode": "560043", "addr:state": "Karnataka", "amenity": "hospital", "name": "Bangalore Eye Hospital And Retina Centre", "source": "OpenGovernmentData"}}, {"type": "node", "id": 6944525274, "lat": 13.0138123, "lon": 77.6354731, "tags": {"addr:district": "Bengaluru Urban", "addr:full": "No. 31, Kammanahalli Main Road Near Venkateswara Ent", "addr:postcode": "560084", "addr:state": "Karnataka", "amenity": "hospital", "name": "R K Hospital, Bengaluru Urban", "source": "OpenGovernmentData"}}, {"type": "node", "id": 6944577884, "lat": 13.0657486, "lon": 77.5992653, "tags": {"addr:district": "Bengaluru Urban", "addr:full": "No. 1, Near Water Tank Jakkur Main Road Amruthahalli", "addr:postcode": "560092", "addr:state": "Karnataka", "amenity": "hospital", "name": "Amrutha Hospital", "name:kn": "\u0c85\u0c82\u0cac\u0cc1\u0cb0\u0ccd \u0cac\u0cbf\u0cb0\u0cbf\u0caf\u0cbe\u0ca8\u0cbf", "source": "OpenGovernmentData"}}, {"type": "node", "id": 6945031202, "lat": 13.0080166, "lon": 77.6221479, "tags": {"addr:district": "Bengaluru Urban", "addr:full": "1 & 2, Hennur Road Cross, Lingarajpuram,Below Railway Flyover", "addr:postcode": "560084", "addr:state": "Karnataka", "amenity": "hospital", "name": "Sundar Hospital", "source": "OpenGovernmentData"}}, {"type": "node", "id": 6945075435, "lat": 13.015884, "lon": 77.5973475, "tags": {"addr:district": "Bengaluru Urban", "addr:full": "No 29, 9Th Cross Adi Kabir Ashram Road,H.D Devegowda Road", "addr:postcode": "560037", "addr:state": "Karnataka", "amenity": "hospital", "name": "V Care Hospital", "source": "OpenGovernmentData"}}, {"type": "node", "id": 6945434031, "lat": 13.0147224, "lon": 77.6515616, "tags": {"addr:district": "Bengaluru Urban", "addr:full": "No.60, Near Banaswadi Bus Stop, Banaswadi Main Road", "addr:postcode": "560043", "addr:state": "Karnataka", "amenity": "hospital", "name": "Srinivasa Eye Hospital", "source": "OpenGovernmentData"}}, {"type": "node", "id": 6945724749, "lat": 13.0112166, "lon": 77.6743939, "tags": {"addr:district": "Bengaluru Urban", "addr:full": "Ramamurthynagar", "addr:postcode": "560016", "addr:state": "Karnataka", "amenity": "hospital", "name": "Spandana Hospital And Medical Centre", "source": "OpenGovernmentData", "wheelchair": "yes"}}, {"type": "node", "id": 6947106775, "lat": 13.0021978, "lon": 77.6329015, "tags": {"addr:district": "Bengaluru Urban", "addr:full": "7Th B Cross, 1st Floor Banaswadi Road Jai Bharath Nagar", "addr:postcode": "560033", "addr:state": "Karnataka", "amenity": "hospital", "healthcare": "hospital", "name": "Dr Zamindar's Micro Surgical Eye Centre", "source": "OpenGovernmentData"}}, {"type": "node", "id": 6947430278, "lat": 13.0263344, "lon": 77.595128, "tags": {"addr:district": "Bengaluru Urban", "addr:full": "#200/A, Hmt Layout, Karthik Complex, Dinnur Main Road, R.T. Nagar", "addr:postcode": "560032", "addr:state": "Karnataka", "amenity": "hospital", "name": "Poornima Hospital", "source": "OpenGovernmentData"}}, {"type": "node", "id": 6947499707, "lat": 13.0178594, "lon": 77.6547577, "tags": {"addr:district": "Bengaluru Urban", "addr:full": "No.1013, 1st Block, 3 Road Cross, Hrbr Layout, Kalyan Nagar", "addr:postcode": "560043", "addr:state": "Karnataka", "amenity": "hospital", "name": "Dr.Zamindar Microsurgical Eye Centre", "operator:type": "private", "source": "OpenGovernmentData", "website": "https://drzamindarseyecentre.com/"}}, {"type": "node", "id": 6947499708, "lat": 13.0328036, "lon": 77.633289, "tags": {"addr:district": "Bengaluru Urban", "addr:full": "#1,9 Cross 9 Main Hennur Cross, Kalyan Nagar Post", "addr:postcode": "560043", "addr:state": "Karnataka", "amenity": "hospital", "name": "Good Shepherd Hospital", "source": "OpenGovernmentData"}}, {"type": "node", "id": 6947499711, "lat": 12.9960196, "lon": 77.6128413, "tags": {"addr:district": "Bengaluru Urban", "addr:full": "No.33, Coles Road,Frazer Town", "addr:postcode": "560005", "addr:state": "Karnataka", "amenity": "hospital", "name": "Dr.Agarwal Eye Hospital, Frazer Town, Bangalore", "source": "OpenGovernmentData"}}, {"type": "node", "id": 6947662480, "lat": 13.011968, "lon": 77.6659168, "tags": {"addr:district": "Bengaluru Urban", "addr:full": "#311, 4B Cross, R.M. Nagar Main Road, Kasthuri Nagar", "addr:postcode": "560016", "addr:state": "Karnataka", "amenity": "hospital", "name": "Sri Sai Eye Hospital", "source": "OpenGovernmentData"}}, {"type": "node", "id": 6947678585, "lat": 13.0149675, "lon": 77.6354957, "tags": {"addr:district": "Bengaluru Urban", "addr:full": "No.1, 1 Cross Rananurthy Road", "addr:postcode": "560084", "addr:state": "Karnataka", "amenity": "hospital", "email": "info@zionhospitals.com", "name": "Zion Hospital And Research Centre Pvt.Ltd.", "operator:type": "private", "source": "OpenGovernmentData", "website": "http://zionhospitals.com/"}}, {"type": "node", "id": 6947716900, "lat": 13.0276736, "lon": 77.6614188, "tags": {"addr:district": "Bengaluru Urban", "addr:full": "No.21,22,1st Floor,Horamavu Main Road", "addr:postcode": "560043", "addr:state": "Karnataka", "amenity": "hospital", "name": "Dr. Sailaja's Super Speciality Eye Hospital", "source": "OpenGovernmentData"}}, {"type": "node", "id": 6948590938, "lat": 13.0241863, "lon": 77.5960574, "tags": {"addr:district": "Bengaluru Urban", "addr:full": "No.2, Ex-Servicemen Colony, 5Th Cross, Dinnur Main Road, R.T.Nagar", "addr:postcode": "560032", "addr:state": "Karnataka", "amenity": "hospital", "name": "Premier Hospital", "source": "OpenGovernmentData"}}, {"type": "node", "id": 6948659616, "lat": 13.0269276, "lon": 77.6227882, "tags": {"addr:district": "Bengaluru Urban", "addr:full": "Lmc 1210 &1211 ,1st Main, 1st Stage, 3Road Block Hbr Layout", "addr:postcode": "560001", "addr:state": "Karnataka", "amenity": "hospital", "name": "Avian Medicare and Research Centre", "source": "OpenGovernmentData", "wheelchair": "yes"}}, {"type": "node", "id": 6950124287, "lat": 13.0113204, "lon": 77.6771966, "tags": {"addr:district": "Bengaluru Urban", "addr:full": "No. 101, Tc Palya Road,Raghavendra Nagar,Ram Murthy Nagar Extension", "addr:postcode": "560016", "addr:state": "Karnataka", "addr:street": "Opposite to bus stop", "amenity": "hospital", "name": "Little Flower Hospital", "source": "OpenGovernmentData"}}, {"type": "node", "id": 6950412307, "lat": 13.0236062, "lon": 77.6196139, "tags": {"addr:district": "Bengaluru Urban", "addr:full": "5, Arabic College Main Road, Banglore", "addr:postcode": "560045", "addr:state": "Karnataka", "amenity": "hospital", "name": "Al- Habeeb Hospital", "source": "OpenGovernmentData"}}, {"type": "node", "id": 7208904020, "lat": 13.0282954, "lon": 77.6325646}, {"type": "node", "id": 7208904021, "lat": 13.0283567, "lon": 77.6324109}, {"type": "node", "id": 7208904022, "lat": 13.0286825, "lon": 77.6325478}, {"type": "node", "id": 7208904023, "lat": 13.0286212, "lon": 77.6327015}, {"type": "node", "id": 7213498681, "lat": 13.0701337, "lon": 77.6329103, "tags": {"addr:district": "Bengaluru Urban", "addr:full": "Sri Balaji Krupa Layout", "addr:postcode": "560077", "addr:state": "Karnataka", "amenity": "hospital", "name": "Sai Hospital", "source": "OpenGovernmentData"}}, {"type": "node", "id": 7213565705, "lat": 13.0324318, "lon": 77.6085263, "tags": {"addr:district": "Bengaluru Urban", "addr:full": "48/1, KHB Colony Main Rd, Sultanpalya, Hebbal, Bengaluru", "addr:postcode": "560032", "addr:state": "Karnataka", "amenity": "hospital", "healthcare": "hospital", "name": "Cure Hospital", "source": "OpenGovernmentData"}}, {"type": "node", "id": 7448002905, "lat": 13.0054446, "lon": 77.682416}, {"type": "node", "id": 7448002906, "lat": 13.0043115, "lon": 77.6831194}, {"type": "node", "id": 7448002907, "lat": 13.0038271, "lon": 77.6822973}, {"type": "node", "id": 7448002910, "lat": 13.0049601, "lon": 77.6815939}, {"type": "node", "id": 7448009622, "lat": 13.0098978, "lon": 77.5935437}, {"type": "node", "id": 7448009623, "lat": 13.0095859, "lon": 77.5945352}, {"type": "node", "id": 7572131833, "lat": 13.0239995, "lon": 77.6585299, "tags": {"addr:district": "Bengaluru Urban", "addr:full": "Horamavu, Near Banaswadi, Bengaluru", "addr:postcode": "560043", "addr:state": "Karnataka", "amenity": "hospital", "name": "Stroke Treatment Paralysis", "source": "Local Knowledge"}}, {"type": "node", "id": 7572131835, "lat": 13.0283977, "lon": 77.6599575, "tags": {"addr:district": "Bengaluru Urban", "addr:full": "Banaswadi, Bengaluru", "addr:postcode": "560043", "addr:state": "Karnataka", "amenity": "hospital", "name": "Geriatric Hospitals", "source": "Local Knowledge"}}, {"type": "node", "id": 7572131844, "lat": 12.9966313, "lon": 77.671863, "tags": {"addr:district": "Bengaluru Urban", "addr:full": "Udaya Nagar, Bengaluru", "addr:postcode": "560016", "addr:state": "Karnataka", "amenity": "hospital", "name": "Pragathi Piles Hospital", "source": "Local Knowledge"}}, {"type": "node", "id": 7572131884, "lat": 13.033219, "lon": 77.6747693, "tags": {"addr:district": "Bengaluru Urban", "addr:full": "Punyabhoomi Layout, Kalkere, Bengaluru", "addr:postcode": "560016", "addr:state": "Karnataka", "amenity": "hospital", "name": "Eshawar HospItal", "source": "Local Knowledge"}}, {"type": "node", "id": 7577248186, "lat": 13.0193799, "lon": 77.6535352, "tags": {"addr:district": "Bengaluru Urban", "addr:full": "HRBR Layout, Banaswadi, Bengaluru", "addr:postcode": "560043", "addr:state": "Karnataka", "amenity": "hospital", "name": "Shishuka Children's Speciality Hospital", "source": "Local Knowledge"}}, {"type": "node", "id": 7577248193, "lat": 13.0091103, "lon": 77.6579493, "tags": {"addr:district": "Bengaluru Urban", "addr:full": "Lal Bahadur Nagar, Kasturi Nagar, Bengaluru", "addr:postcode": "560043", "addr:state": "Karnataka", "amenity": "hospital", "name": "Skin Remediez", "source": "Local Knowledge"}}, {"type": "node", "id": 7577248218, "lat": 13.0524836, "lon": 77.6120857, "tags": {"addr:district": "Bengaluru Urban", "addr:full": "Mariyannapalya, Thanisandra, Bengaluru", "addr:postcode": "560024", "addr:state": "Karnataka", "amenity": "hospital", "check_date": "2024-07-05", "name": "Navya Hospital", "source": "Local Knowledge"}}, {"type": "node", "id": 7577248221, "lat": 13.0201491, "lon": 77.6516628, "tags": {"addr:district": "Bengaluru Urban", "addr:full": "HRBR Layout, Kalyan Nagar, Bengaluru", "addr:postcode": "560043", "addr:state": "Karnataka", "amenity": "hospital", "name": "Ovum Birthing Centre", "source": "Local Knowledge"}}, {"type": "node", "id": 7577248224, "lat": 13.0528211, "lon": 77.6041042, "tags": {"addr:district": "Bengaluru Urban", "addr:full": "Hebbal Kempapura, Bengaluru", "addr:postcode": "560024", "addr:state": "Karnataka", "amenity": "hospital", "check_date": "2024-07-08", "name": "Icon Hospital", "source": "Local Knowledge"}}, {"type": "node", "id": 7577248227, "lat": 13.0283463, "lon": 77.6298629, "tags": {"addr:district": "Bengaluru Urban", "addr:full": "HBR Layout, Bengaluru", "addr:postcode": "560043", "addr:state": "Karnataka", "amenity": "hospital", "name": "Medicure Hospital", "source": "Local Knowledge"}}, {"type": "node", "id": 7577248235, "lat": 13.0102697, "lon": 77.6525909, "tags": {"addr:district": "Bengaluru Urban", "addr:full": "OMBR Layout, Banaswadi, Bengaluru", "addr:postcode": "560043", "addr:state": "Karnataka", "amenity": "hospital", "name": "Motherhood Women & Children Hospital", "source": "Local Knowledge"}}, {"type": "node", "id": 7577248246, "lat": 13.0263661, "lon": 77.6302142, "tags": {"addr:district": "Bengaluru Urban", "addr:full": "HBR Layout, Kalyan Nagar, Bengaluru", "addr:postcode": "560043", "addr:state": "Karnataka", "amenity": "hospital", "name": "Feran Hospital", "source": "Local Knowledge"}}, {"type": "node", "id": 7577248254, "lat": 13.0166883, "lon": 77.6604049, "tags": {"addr:district": "Bengaluru Urban", "addr:full": "Ramamurthy Nagar, Kuvempu Nagar, Bellandur, Bengaluru", "addr:postcode": "560043", "addr:state": "Karnataka", "amenity": "hospital", "name": "Super Specialty Eye Hospital", "source": "Local Knowledge"}}, {"type": "node", "id": 7577248260, "lat": 13.013761, "lon": 77.648529, "tags": {"addr:district": "Bengaluru Urban", "addr:full": "Balaji Layout, Subbaiahnapalya, Banaswadi, Bengaluru", "addr:postcode": "560043", "addr:state": "Karnataka", "amenity": "hospital", "name": "Endocrine Speciality Centre", "source": "Local Knowledge"}}, {"type": "node", "id": 7577248265, "lat": 13.065863, "lon": 77.604213, "tags": {"addr:district": "Bengaluru Urban", "addr:full": "Swami Vivekananda Layout, Amrutahalli, Bengaluru", "addr:postcode": "560092", "addr:state": "Karnataka", "amenity": "hospital", "name": "Axis Hospital", "source": "Local Knowledge"}}, {"type": "node", "id": 7577248266, "lat": 13.0188119, "lon": 77.647187, "tags": {"addr:district": "Bengaluru Urban", "addr:full": "HRBR Layout, Banaswadi, Bengaluru", "addr:postcode": "560043", "addr:state": "Karnataka", "amenity": "hospital", "check_date": "2024-08-17", "name": "Anjani Women's Day Care Hospital", "source": "Local Knowledge"}}, {"type": "node", "id": 7577248269, "lat": 13.0658472, "lon": 77.5992844, "tags": {"addr:district": "Bengaluru Urban", "addr:full": "Talacauvery Layout, Sneha Nagar, Byatarayanapura, Bengaluru", "addr:postcode": "560092", "addr:state": "Karnataka", "amenity": "hospital", "healthcare": "hospital", "name": "Eswar Women and Day Care Hospital", "source": "Local Knowledge"}}, {"type": "node", "id": 7577248275, "lat": 13.026989, "lon": 77.6281742, "tags": {"addr:district": "Bengaluru Urban", "addr:full": "HBR Layout, Bengaluru", "addr:postcode": "560043", "addr:state": "Karnataka", "amenity": "hospital", "name": "CDEC Hospital", "source": "Local Knowledge"}}, {"type": "node", "id": 7577248277, "lat": 13.029101, "lon": 77.620568, "tags": {"addr:district": "Bengaluru Urban", "addr:full": "Kadugondanahalli, Bengaluru", "addr:postcode": "560045", "addr:state": "Karnataka", "amenity": "hospital", "name": "Pranam Dental Hospital", "source": "Local Knowledge"}}, {"type": "node", "id": 7577248278, "lat": 13.0109537, "lon": 77.6476418, "tags": {"addr:district": "Bengaluru Urban", "addr:full": "Chikka Banaswadi, Banaswadi, Bengaluru", "addr:postcode": "560043", "addr:state": "Karnataka", "amenity": "hospital", "name": "Milaan Hospital", "source": "Local Knowledge"}}, {"type": "node", "id": 7577248279, "lat": 13.020084, "lon": 77.654053, "tags": {"addr:district": "Bengaluru Urban", "addr:full": "Nanjappa Garden, Horamavu, Bengaluru", "addr:postcode": "560043", "addr:state": "Karnataka", "amenity": "hospital", "name": "Cloudnine Hospital", "source": "Local Knowledge"}}, {"type": "node", "id": 8188038706, "lat": 12.9981064, "lon": 77.6008126, "tags": {"addr:full": "79/10, Nandi Durga Rd, Byadarahalli, Benson Town, Bengaluru, Karnataka", "addr:state": "Karnataka", "amenity": "hospital", "name": "Appllo Diagnostic"}}, {"type": "node", "id": 9527967835, "lat": 13.0544507, "lon": 77.6316369, "tags": {"amenity": "hospital", "name": "Shree Manyata Hospitals"}}, {"type": "node", "id": 9583509829, "lat": 13.0654167, "lon": 77.5935557}, {"type": "node", "id": 9583509830, "lat": 13.0654309, "lon": 77.5939331}, {"type": "node", "id": 9583509831, "lat": 13.0657388, "lon": 77.5939209}, {"type": "node", "id": 9583509833, "lat": 13.0657246, "lon": 77.5935435}, {"type": "node", "id": 9739831278, "lat": 13.0344639, "lon": 77.6291947, "tags": {"amenity": "hospital", "name": "Altius Hospital"}}, {"type": "node", "id": 10688570445, "lat": 13.0398699, "lon": 77.6405164}, {"type": "node", "id": 10688570446, "lat": 13.0398782, "lon": 77.6408677}, {"type": "node", "id": 10688570448, "lat": 13.0404638, "lon": 77.6405016}, {"type": "node", "id": 10731125349, "lat": 13.048083, "lon": 77.628791, "tags": {"amenity": "hospital", "name": "Suraksha Hospital"}}, {"type": "node", "id": 11096882147, "lat": 12.9952928, "lon": 77.5940646}, {"type": "node", "id": 11096882148, "lat": 12.9946841, "lon": 77.5937641}, {"type": "node", "id": 11096882149, "lat": 12.9952768, "lon": 77.5937207}, {"type": "node", "id": 11853321328, "lat": 12.9971683, "lon": 77.6145878, "tags": {"amenity": "hospital", "check_date": "2024-04-27", "healthcare": "hospital", "name": "Aspire Hospital"}}, {"type": "node", "id": 12455537849, "lat": 13.0224904, "lon": 77.6580052}, {"type": "node", "id": 12460939644, "lat": 12.9962739, "lon": 77.6075693, "tags": {"amenity": "hospital", "check_date": "2024-12-29", "healthcare": "hospital", "name": "Gawai Hospital", "wheelchair": "yes"}}, {"type": "node", "id": 12848276816, "lat": 13.0404721, "lon": 77.6408529}, {"type": "node", "id": 12959840781, "lat": 13.0170153, "lon": 77.6429262, "tags": {"amenity": "hospital", "check_date": "2025-06-29", "healthcare": "hospital", "name": "Trilife Hospital", "name:en": "Trilife Hospital", "operator:type": "private"}}, {"type": "node", "id": 13065064242, "lat": 13.0202419, "lon": 77.6516186, "tags": {"amenity": "hospital", "healthcare": "hospital", "name": "Motherhood"}}, {"type": "node", "id": 13072628554, "lat": 13.0058328, "lon": 77.6597392, "tags": {"amenity": "hospital", "check_date": "2025-08-15", "healthcare": "hospital", "name": "NASA Hospitals"}}, {"type": "node", "id": 13164592436, "lat": 13.0219385, "lon": 77.6385853, "tags": {"addr:city": "Bangalore", "addr:district": "Bengaluru Urban", "addr:housenumber": "426", "addr:postcode": "560043", "addr:street": "CMR Main Rd, 3rd Cross,2nd Block HRBR Layout, Kalyan nagar", "amenity": "hospital", "healthcare": "hospital", "name": "Bangalore Orthopeadic And Surgical Hospital", "operator": "Novosalus Technology", "operator:type": "private"}}, {"type": "way", "id": 160906231, "nodes": [1611862042, 1611862023, 1611862066, 1611862035, 1611862042], "tags": {"addr:district": "Bengaluru Urban", "addr:full": "Kirloskar Business Park, Bellary Road Hebbal", "addr:postcode": "560024", "addr:state": "Karnataka", "alt_name": "Columbia Asia Hospital", "amenity": "hospital", "emergency": "yes", "healthcare": "hospital", "name": "Manipal Hospital", "name:kn": "\u0c95\u0cca\u0cb2\u0c82\u0cac\u0cbf\u0caf \u0c8f\u0cb7\u0ccd\u0caf\u0cbe \u0c86\u0cb8\u0ccd\u0caa\u0ca4\u0ccd\u0cb0\u0cc6", "source": "OpenGovernmentData"}}, {"type": "way", "id": 256940540, "nodes": [12455537849, 2625606675, 2625606677, 2625606671, 12455537849], "tags": {"addr:district": "Bengaluru Urban", "addr:full": "No. 66, 9Th Main , Horamavu Post Horamavu Main Road Banaswadi", "addr:postcode": "560043", "addr:state": "Karnataka", "amenity": "hospital", "building": "yes", "emergency": "yes", "name": "Nmpc Hospital", "source": "OpenGovernmentData"}}, {"type": "way", "id": 328758432, "nodes": [3355835859, 3355835861, 3355835860, 3355835858, 3355835859], "tags": {"amenity": "hospital", "name": "ESI Hospital", "name:kn": "\u0c87\u0c8e\u0cb8\u0ccd\u0c90 \u0c86\u0cb8\u0ccd\u0caa\u0ca4\u0ccd\u0cb0\u0cc6"}}, {"type": "way", "id": 345954862, "nodes": [3525674091, 3525674209, 3525674205, 3525674088, 3525674091], "tags": {"addr:district": "Bengaluru Urban", "addr:full": "No 1 Moore Market Square, Bourdillon Road, Fraser Town", "addr:postcode": "560005", "addr:state": "Karnataka", "amenity": "hospital", "building": "yes", "name": "Annasawmy Mudaliar General Hospital", "name:kn": "\u0c85\u0ca3\u0ccd\u0ca3\u0cb8\u0ccd\u0cb5\u0cbe\u0cae\u0cbf \u0cae\u0cca\u0ca6\u0cb2\u0cbf\u0caf\u0cbe\u0cb0\u0ccd", "source": "OpenGovernmentData"}}, {"type": "way", "id": 346521829, "nodes": [3530356415, 3530356413, 3530356274, 3530356277, 3530356415], "tags": {"addr:postcode": "560043", "addr:street": "2nd Cross Road", "amenity": "hospital", "building:levels": "2", "healthcare": "hospital", "name": "Indicus"}}, {"type": "way", "id": 350750824, "nodes": [3565016652, 5112227907, 3565016653, 3565016647, 3565016646, 3565016652], "tags": {"addr:postcode": "560043,", "addr:street": "8th Main Road (west)", "amenity": "hospital", "check_date": "2024-09-18", "name": "Ovum Hospitals"}}, {"type": "way", "id": 363870191, "nodes": [3679885236, 3679885235, 3679885227, 3679885229, 3679885236], "tags": {"addr:postcode": "560043", "addr:street": "8th E Main Road", "amenity": "hospital", "healthcare": "hospital", "healthcare:speciality": "general", "name": "Sharada Medicals"}}, {"type": "way", "id": 525508983, "nodes": [5112189133, 5112189134, 5112189135, 5112189136, 5112189133], "tags": {"amenity": "hospital", "emergency": "yes", "name": "Shirdi Sai Hospital", "name:kn": "\u0cb6\u0cbf\u0cb0\u0ca1\u0cbf \u0cb8\u0cbe\u0caf\u0cbf \u0c86\u0cb8\u0ccd\u0caa\u0ca4\u0ccd\u0cb0\u0cc6"}}, {"type": "way", "id": 772203209, "nodes": [7208904023, 7208904022, 7208904021, 7208904020, 7208904023], "tags": {"addr:city": "Bangalore", "addr:country": "IN", "addr:hamlet": "Grace Town", "addr:housenumber": "1", "addr:postcode": "560043", "addr:street": "Hennur Main Road", "addr:suburb": "Kalyan Nagar", "alt_name": "People Tree Hospitals@chris", "amenity": "hospital", "building": "hospital", "email": "info@chrishospital.com", "healthcare": "hospital", "name": "HOSMAT Hospital, Kalyan Nagar", "old_name": "Hosmat Hospital", "website": "https://hosmathospitals.com", "wheelchair": "yes"}}, {"type": "way", "id": 796370470, "nodes": [7448002910, 7448002905, 7448002906, 7448002907, 7448002910], "tags": {"amenity": "hospital", "name": "ITI General Hospital"}}, {"type": "way", "id": 796374051, "nodes": [7448009623, 7448009622, 3334054156, 3334054177, 3334054158, 7448009623], "tags": {"addr:district": "Bengaluru", "addr:full": "Munireddypalya, J.C.Nagar, Bengaluru", "addr:postcode": "560006", "addr:state": "Karnataka", "amenity": "hospital", "name": "JC Nagar Municipal Hospital", "source": "OpenGovernmentData"}}, {"type": "way", "id": 1040899015, "nodes": [9583509833, 9583509831, 9583509830, 9583509829, 9583509833], "tags": {"amenity": "hospital", "name": "Rainbow Children's Hospital"}}, {"type": "way", "id": 1148876100, "nodes": [12848276816, 10688570446, 10688570445, 10688570448, 12848276816], "tags": {"amenity": "hospital", "building": "hospital", "building:levels": "7", "building:levels:underground": "3", "height": "29.85", "name": "Sparsh Hospital, Hennur", "operator": "Sparsh Hospital"}}, {"type": "way", "id": 1195581196, "nodes": [11096882149, 2247460571, 11096882148, 11096882147, 11096882149], "tags": {"amenity": "hospital", "name": "BBMP Hospital", "name:kn": "\u0cac\u0cc3. \u0cac\u0cc6\u0c82. \u0cae. \u0caa\u0cbe. \u0c86\u0cb8\u0ccd\u0caa\u0ca4\u0ccd\u0cb0\u0cc6"}}]}