{"version": 0.6, "generator": "Overpass API 0.7.62.8 e802775f", "osm3s": {"timestamp_osm_base": "2026-01-12T19:09:46Z", "copyright": "The data included in this document is from www.openstreetmap.org. The data is made available under ODbL."}, "elements": [{"type": "node", "id": 266740082, "lat": 12.8550625, "lon": 77.6642727, "tags": {"amenity": "hospital", "created_by": "JOSM", "name": "Swamy Hospital", "name:kn": "\u0cb8\u0ccd\u0cb5\u0cbe\u0cae\u0cbf \u0c86\u0cb8\u0ccd\u0caa\u0ca4\u0ccd\u0cb0\u0cc6"}}, {"type": "node", "id": 267214379, "lat": 12.9134182, "lon": 77.6774852, "tags": {"amenity": "hospital", "healthcare": "hospital", "name": "Clinic"}}, {"type": "node", "id": 308866071, "lat": 12.9155759, "lon": 77.6349897, "tags": {"addr:street": "Outer Ring Road", "amenity": "hospital", "name": "Narayana Hrudayalaya Dental Clinic", "name:kn": "\u0ca8\u0cbe\u0cb0\u0cbe\u0caf\u0ca3 \u0cb9\u0cc3\u0ca6\u0caf\u0cbe\u0cb2\u0caf \u0ca6\u0c82\u0ca4 \u0c86\u0cb8\u0ccd\u0caa\u0ca4\u0ccd\u0cb0\u0cc6"}}, {"type": "node", "id": 310393723, "lat": 12.9129006, "lon": 77.6419101, "tags": {"amenity": "hospital", "healthcare": "hospital", "name": "Dr Ganesh Medical and Diabetic Clinic", "name:kn": "\u0ca1\u0cbe \u0c97\u0ca3\u0cc7\u0cb6\u0ccd \u0cae\u0cc6\u0ca1\u0cbf\u0c95\u0cb2\u0ccd \u0cae\u0ca4\u0ccd\u0ca4\u0cc1 \u0cae\u0ca7\u0cc1\u0cae\u0cc7\u0cb9 \u0c86\u0cb8\u0ccd\u0caa\u0ca4\u0ccd\u0cb0\u0cc6"}}, {"type": "node", "id": 456013713, "lat": 12.920362, "lon": 77.665088}, {"type": "node", "id": 459464857, "lat": 12.8500655, "lon": 77.6624706, "tags": {"amenity": "hospital", "emergency": "yes", "name": "Ramakrishna Hospital", "name:kn": "\u0cb0\u0cbe\u0cae\u0c95\u0cc3\u0cb7\u0ccd\u0ca3 \u0c86\u0cb8\u0ccd\u0caa\u0ca4\u0ccd\u0cb0\u0cc6", "phone": "+918040800300", "website": "http://rkhealth.com/", "wheelchair": "yes"}}, {"type": "node", "id": 1118656365, "lat": 12.8351469, "lon": 77.6799019}, {"type": "node", "id": 1437213383, "lat": 12.9111263, "lon": 77.7073377, "tags": {"amenity": "hospital", "name": "Karunalayam Hospital"}}, {"type": "node", "id": 1468908282, "lat": 12.9158901, "lon": 77.6506948, "tags": {"addr:street": "13th cross", "amenity": "hospital", "healthcare": "hospital", "name": "Asha Clinic"}}, {"type": "node", "id": 1468908300, "lat": 12.9075992, "lon": 77.6488507, "tags": {"amenity": "hospital", "name": "health nest"}}, {"type": "node", "id": 1472037865, "lat": 12.8736928, "lon": 77.6449626, "tags": {"amenity": "hospital", "name": "Sri Sapthagiri Clinic"}}, {"type": "node", "id": 1472878021, "lat": 12.9162576, "lon": 77.6374069, "tags": {"amenity": "hospital", "check_date": "2023-08-29", "name": "Devi Eye Hospital", "name:en": "Devi Eye Hospital", "wheelchair": "limited"}}, {"type": "node", "id": 1474106961, "lat": 12.8517246, "lon": 77.6681472, "tags": {"amenity": "hospital", "name": "Apollo Clinic", "name:kn": "\u0c85\u0caa\u0cca\u0cb2\u0cca \u0c95\u0ccd\u0cb2\u0cbf\u0ca8\u0cbf\u0c95\u0ccd"}}, {"type": "node", "id": 1835512586, "lat": 12.9074968, "lon": 77.6492213, "tags": {"amenity": "hospital", "name": "Cure & Care Dental Clinic Dr. Moumita Mukherjee"}}, {"type": "node", "id": 2387173532, "lat": 12.9191813, "lon": 77.6381379, "tags": {"addr:city": "Bengaluru", "addr:district": "Bengaluru", "addr:postcode": "560102", "addr:street": "14th Main Rd, opposite Agara Lake, Sector 5, 1st Sector, HSR Layout", "amenity": "hospital", "emergency": "yes", "healthcare": "hospital", "name": "Greenview Medical Center"}}, {"type": "node", "id": 2413039443, "lat": 12.9196968, "lon": 77.6649185}, {"type": "node", "id": 2414612953, "lat": 12.9121004, "lon": 77.6485848, "tags": {"amenity": "hospital", "emergency": "no", "healthcare": "hospital", "name": "Vaidyaratnam Oushadhasala", "website": "https://www.vaidyaratnammooss.com/"}}, {"type": "node", "id": 2449294308, "lat": 12.8791713, "lon": 77.6454925, "tags": {"amenity": "hospital", "emergency": "yes", "name": "Live100"}}, {"type": "node", "id": 2550433504, "lat": 12.8346225, "lon": 77.6800993}, {"type": "node", "id": 2623054534, "lat": 12.8413465, "lon": 77.6475451, "tags": {"addr:city": "Bangalore", "addr:housename": "Above Nilgiris", "addr:postcode": "560100", "addr:street": "Neeladri Road", "amenity": "hospital", "emergency": "yes", "name": "Srujana Hospital", "name:kn": "\u0cb8\u0cc3\u0c9c\u0ca8 \u0c86\u0cb8\u0ccd\u0caa\u0ca4\u0ccd\u0cb0\u0cc6", "phone": "+91 80 49152339"}}, {"type": "node", "id": 2623332318, "lat": 12.9231571, "lon": 77.6728066, "tags": {"amenity": "hospital", "healthcare": "hospital", "name": "Narayana Hrudayalaya Dental Clinic", "name:kn": "\u0ca8\u0cbe\u0cb0\u0cbe\u0caf\u0ca3 \u0cb9\u0cc3\u0ca6\u0caf\u0cbe\u0cb2\u0caf \u0ca6\u0c82\u0ca4 \u0c86\u0cb8\u0ccd\u0caa\u0ca4\u0ccd\u0cb0\u0cc6"}}, {"type": "node", "id": 3421728215, "lat": 12.9193427, "lon": 77.6380084}, {"type": "node", "id": 3421728216, "lat": 12.9193342, "lon": 77.6382471}, {"type": "node", "id": 3421728217, "lat": 12.9190429, "lon": 77.6382363}, {"type": "node", "id": 3421728218, "lat": 12.9190513, "lon": 77.6379975}, {"type": "node", "id": 3477797688, "lat": 12.9241818, "lon": 77.6737518, "tags": {"addr:district": "Bengaluru Urban", "addr:full": "446/21 Above Vijaya Bank, Opposite To Amba Bajaja Showroom", "addr:postcode": "560103", "addr:state": "Karnataka", "amenity": "hospital", "healthcare": "hospital", "name": "Nelivigi Eye Hospital", "operator:type": "private", "source": "OpenGovernmentData", "website": "https://www.nelivigieyehospital.com/"}}, {"type": "node", "id": 3633415798, "lat": 12.8504718, "lon": 77.6553058, "tags": {"amenity": "hospital", "name": "Sri Laxmi Hospital", "name:kn": "\u0cb6\u0ccd\u0cb0\u0cc0 \u0cb2\u0c95\u0ccd\u0cb7\u0ccd\u0cae\u0cbf \u0c86\u0cb8\u0ccd\u0caa\u0ca4\u0ccd\u0cb0\u0cc6"}}, {"type": "node", "id": 3671907239, "lat": 12.8377272, "lon": 77.6584571, "tags": {"amenity": "hospital", "emergency": "no", "healthcare": "hospital", "name": "Wipro First Aid Clinic"}}, {"type": "node", "id": 4440829279, "lat": 12.911533, "lon": 77.6764094, "tags": {"addr:city": "Bangalore", "addr:postcode": "560035", "addr:street": "Kasvanahalli Road, Behind State Bank of Mysore, Sarjapur Road, Kaikondrahalli", "amenity": "hospital", "emergency": "yes", "healthcare": "hospital", "name": "Stanford Speciality Hospital", "phone": "080 6566 6689"}}, {"type": "node", "id": 4440931106, "lat": 12.9124371, "lon": 77.6813917, "tags": {"addr:city": "Bangalore", "addr:housenumber": "No.7/1", "addr:postcode": "560035", "addr:street": "Sarjapur Road", "amenity": "hospital", "emergency": "yes", "name": "Dr Mohan Nursing Home", "phone": "+91-80-42119084"}}, {"type": "node", "id": 4440939217, "lat": 12.9072384, "lon": 77.6755805, "tags": {"addr:city": "Bengaluru", "addr:housenumber": "4/21", "addr:postcode": "560035", "addr:street": "Kasavanahalli Road", "amenity": "hospital", "healthcare": "hospital", "name": "Sparsh Clinic", "phone": "+91-99000 19567"}}, {"type": "node", "id": 4440946384, "lat": 12.9041502, "lon": 77.6741043, "tags": {"addr:city": "Bangalore", "addr:housenumber": "9 IAS layout", "addr:postcode": "560035", "addr:street": "Lake Shore HomesRoad, Amrita college road, off sarjapur road, Kasavanahalli", "amenity": "hospital", "healthcare": "hospital", "name": "Raksha Orthopaedic And Multi Speciality Centre", "phone": "+91-74115 27777"}}, {"type": "node", "id": 4441670838, "lat": 12.9121008, "lon": 77.6820003, "tags": {"addr:city": "Bangalore", "addr:housenumber": "No. 65/1, 1st Floor", "addr:postcode": "560035", "addr:street": "Doddakannelli,\u00a0Sarjapur Road", "amenity": "hospital", "healthcare:speciality": "general;dermatology;clinic", "name": "Naadi Ayurveda Center", "operator": "Kotakkal Arya Vaidyashala", "phone": "+91-9980016089"}}, {"type": "node", "id": 4441681632, "lat": 12.9217604, "lon": 77.6618321, "tags": {"addr:city": "Bengaluru", "addr:postcode": "560103", "addr:street": "Service Rd, Agara, Iblur Village, Bellandur", "amenity": "hospital", "healthcare": "hospital", "name": "Kottakkal Arya Vaidya Sala", "phone": "+91-80 6450 4434", "website": "https://aryavaidyasala.com/"}}, {"type": "node", "id": 4441938603, "lat": 12.9122002, "lon": 77.6818637, "tags": {"addr:city": "bangaluru", "addr:housenumber": "65", "addr:postcode": "560035", "addr:street": "Sarjapur Main Rd, Kaikondrahalli", "amenity": "hospital", "name": "The Family Doctor & The Family Pharma", "phone": "+91-80 2574 6204", "website": "https://www.thefamilydoctor.co.in/"}}, {"type": "node", "id": 4445167354, "lat": 12.9179831, "lon": 77.6691258, "tags": {"addr:city": "Bangalore", "addr:postcode": "560034", "addr:street": "Sarjapur Main Rd, Bellandur", "amenity": "hospital", "healthcare": "hospital", "name": "Dr Rachna - Homeopathy", "phone": "+9195909 10963"}}, {"type": "node", "id": 4445213681, "lat": 12.9240063, "lon": 77.6545058, "tags": {"addr:city": "Bangalore", "addr:housenumber": "65/8", "addr:postcode": "560102", "addr:street": "Third Floor, H.S.R Agara Circle, Sarjapura, Outer Ring Rd, Agara Village, HSR Layout,", "amenity": "hospital", "healthcare": "hospital", "name": "Welnext", "phone": "+9196960 00222", "website": "https://welnext.com/"}}, {"type": "node", "id": 4446826362, "lat": 12.9165359, "lon": 77.6361865, "tags": {"addr:city": "Bengaluru", "addr:housenumber": "149", "addr:postcode": "560034", "addr:street": "HSR Ring Road, 5th Sector , HSR Layout, Karnataka", "amenity": "hospital", "name": "Healing Earth Multispeciality Ayurveda Hospital", "phone": "080674 75757", "website": "https://www.healingearth.co.in/"}}, {"type": "node", "id": 4446833350, "lat": 12.9165795, "lon": 77.6362187, "tags": {"addr:city": "Bengaluru", "addr:housenumber": "149", "addr:postcode": "560034", "addr:street": "HSR Ring Road, 5th Sector , HSR Layout, Jakkasandra, 1st Block Koramangala, HSR Layout, Karnataka", "amenity": "hospital", "name": "Global Ayurveda Multispeciality Hospital", "phone": "080674 75757", "website": "https://www.healingearth.co.in/"}}, {"type": "node", "id": 4446889930, "lat": 12.8526731, "lon": 77.6676459, "tags": {"addr:city": "Bangalore", "addr:district": "Bengaluru Urban", "addr:full": "No. 60/3, Konappana Agrahara, OppositeInfosys Convention Centre", "addr:housenumber": "60/3", "addr:postcode": "560100", "addr:state": "Karnataka", "addr:street": "Konappana Agrahara, Electronic City, Opp. Infosys Convention Centre, Hosur Main Road", "amenity": "hospital", "name": "Spring Leaf Health Care Pvt Ltd", "phone": "080673 45000", "source": "OpenGovernmentData", "website": "https://www.springleaf-healthcare.com/"}}, {"type": "node", "id": 4447308983, "lat": 12.8584183, "lon": 77.6653346, "tags": {"addr:city": "bangalore", "addr:postcode": "560078", "addr:street": "Mnr Arcade, Saraki Gate, Kanakapura Road, Saraki Gate,", "amenity": "hospital", "name": "Oxford Hospital", "phone": "080 2245 2500"}}, {"type": "node", "id": 4447985903, "lat": 12.853228, "lon": 77.6653506, "tags": {"addr:city": "Bangalore", "addr:housenumber": "60/3", "addr:postcode": "560100", "addr:street": "Konappana Agrahara, Electronic City, Opp. Infosys Convention Centre, Hosur Main Road", "amenity": "hospital", "emergency": "yes", "name": "Springleaf Hospital", "phone": "080673 45000", "source": "http://bestofhealthindia.com/", "website": "https://www.springleaf-healthcare.com/"}}, {"type": "node", "id": 4448133411, "lat": 12.9242869, "lon": 77.6532853, "tags": {"addr:city": "Bangalore", "addr:housenumber": "65/8, Third Floor", "addr:postcode": "560102", "addr:street": "H.S.R Agara Circle, Sarjapura, Outer Ring Rd, Agara Village, HSR Layout", "amenity": "hospital", "emergency": "yes", "healthcare": "hospital", "name": "Welnext", "phone": "+9196960 00222", "source": "http://www.justdial.com/Bangalore/", "website": "https://welnext.com/"}}, {"type": "node", "id": 4474487215, "lat": 12.9157501, "lon": 77.6756114}, {"type": "node", "id": 4474487222, "lat": 12.9156378, "lon": 77.6754751}, {"type": "node", "id": 5774292416, "lat": 12.9202127, "lon": 77.6655913}, {"type": "node", "id": 5780885021, "lat": 12.919575, "lon": 77.6654218}, {"type": "node", "id": 5781340796, "lat": 12.9181937, "lon": 77.6722846}, {"type": "node", "id": 5781340797, "lat": 12.9181002, "lon": 77.6724716}, {"type": "node", "id": 5781340798, "lat": 12.9176332, "lon": 77.6722259}, {"type": "node", "id": 5781340799, "lat": 12.9177267, "lon": 77.6720389}, {"type": "node", "id": 5804557878, "lat": 12.9138425, "lon": 77.6794486}, {"type": "node", "id": 5804557879, "lat": 12.9137262, "lon": 77.6798147}, {"type": "node", "id": 5804557880, "lat": 12.9133171, "lon": 77.6797302}, {"type": "node", "id": 5804557881, "lat": 12.9132765, "lon": 77.6797141}, {"type": "node", "id": 5804557882, "lat": 12.9133733, "lon": 77.6792957}, {"type": "node", "id": 6137643281, "lat": 12.8967728, "lon": 77.6947943}, {"type": "node", "id": 6137643282, "lat": 12.8963179, "lon": 77.6954783}, {"type": "node", "id": 6137643283, "lat": 12.8960538, "lon": 77.6953013}, {"type": "node", "id": 6137643284, "lat": 12.8965009, "lon": 77.6946495}, {"type": "node", "id": 6348894929, "lat": 12.8981781, "lon": 77.6336107}, {"type": "node", "id": 6348894930, "lat": 12.8982668, "lon": 77.6339791}, {"type": "node", "id": 6348894931, "lat": 12.8980181, "lon": 77.6340422}, {"type": "node", "id": 6348894932, "lat": 12.8979294, "lon": 77.6336737}, {"type": "node", "id": 6385321492, "lat": 12.8437851, "lon": 77.6659275, "tags": {"amenity": "hospital", "healthcare": "hospital", "name": "apollo medical shop"}}, {"type": "node", "id": 6944290477, "lat": 12.8705439, "lon": 77.6595353, "tags": {"addr:district": "Bengaluru Rural", "addr:full": "Bommanahalli, Hosur Road", "addr:postcode": "560068", "addr:state": "Karnataka", "amenity": "hospital", "name": "Blossom Hospital", "source": "OpenGovernmentData", "website": "https://blossomhospitals.com/"}}, {"type": "node", "id": 6944574932, "lat": 12.8548947, "lon": 77.6681162, "tags": {"addr:district": "Bengaluru Urban", "addr:full": "55/3A Govindana Settypalya Road Konappana Agrahara, Electronicity, Infosis South Taluk", "addr:postcode": "560100", "addr:state": "Karnataka", "amenity": "hospital", "name": "Anugrahaa Hospital", "source": "OpenGovernmentData"}}, {"type": "node", "id": 6947247040, "lat": 12.8980516, "lon": 77.6339279, "tags": {"addr:district": "Bengaluru Rural", "addr:full": "Sri Murthy Complex, No.43, Garvey Bhav Palya Hongasandra Village Begur, Hosur Main Road Bommanahalli, Hobli", "addr:postcode": "560068", "addr:state": "Karnataka", "amenity": "hospital", "name": "Vasan Eye Care Hospital", "source": "OpenGovernmentData"}}, {"type": "node", "id": 6947707789, "lat": 12.9084997, "lon": 77.6434431}, {"type": "node", "id": 7179096799, "lat": 12.8541208, "lon": 77.6624811, "tags": {"addr:city": "Bangalore", "addr:street": "Hewlett Packard Avenue", "amenity": "hospital", "emergency": "yes", "healthcare": "hospital", "name": "Ramakrishna Hospital", "operator": "Ramakrishna", "website": "http://rkhealth.com"}}, {"type": "node", "id": 7572669024, "lat": 12.852699, "lon": 77.667688, "tags": {"addr:district": "Bengaluru Urban", "addr:full": "Hosur Main Road, Bengaluru", "addr:postcode": "560100", "addr:state": "Karnataka", "amenity": "hospital", "name": "Springleaf Hospital", "source": "Local Knowledge"}}, {"type": "node", "id": 7572669027, "lat": 12.8859649, "lon": 77.6489078, "tags": {"addr:district": "Bengaluru Urban", "addr:full": "AECS Layout, Kudlu", "addr:postcode": "560068", "addr:state": "Karnataka", "amenity": "hospital", "name": "Hospitec Multispeciality Hospital", "source": "Local Knowledge"}}, {"type": "node", "id": 7572669044, "lat": 12.850377, "lon": 77.6567056, "tags": {"addr:district": "Bengaluru Urban", "addr:full": "Vemana Road, Electronic City", "addr:postcode": "560100", "addr:state": "Karnataka", "amenity": "hospital", "name": "Best E City Hospital", "source": "Local Knowledge"}}, {"type": "node", "id": 9776823581, "lat": 12.8474, "lon": 77.6439378, "tags": {"addr:city": "Bengaluru", "addr:postcode": "560100", "amenity": "hospital", "healthcare": "hospital", "name": "Neo Hospital"}}, {"type": "node", "id": 9828540924, "lat": 12.9246383, "lon": 77.6723232}, {"type": "node", "id": 9828540925, "lat": 12.9242012, "lon": 77.6722551}, {"type": "node", "id": 9828540926, "lat": 12.924427, "lon": 77.672739}, {"type": "node", "id": 9828540927, "lat": 12.9245522, "lon": 77.6726953}, {"type": "node", "id": 9830902289, "lat": 12.9125713, "lon": 77.6764777}, {"type": "node", "id": 9830902290, "lat": 12.9124101, "lon": 77.6764687}, {"type": "node", "id": 9830902291, "lat": 12.9124013, "lon": 77.6766369}, {"type": "node", "id": 9830902292, "lat": 12.9125624, "lon": 77.6766458}, {"type": "node", "id": 9970369520, "lat": 12.9107968, "lon": 77.7077392}, {"type": "node", "id": 9970369521, "lat": 12.9111027, "lon": 77.7077928}, {"type": "node", "id": 9970369522, "lat": 12.9110034, "lon": 77.708281}, {"type": "node", "id": 9970369523, "lat": 12.9112596, "lon": 77.7083749}, {"type": "node", "id": 9970369524, "lat": 12.9117354, "lon": 77.7073476}, {"type": "node", "id": 9970369525, "lat": 12.9108125, "lon": 77.7075863}, {"type": "node", "id": 9970369526, "lat": 12.9109615, "lon": 77.7067924}, {"type": "node", "id": 9983607348, "lat": 12.9166964, "lon": 77.6449292}, {"type": "node", "id": 9983607349, "lat": 12.9166878, "lon": 77.6451801}, {"type": "node", "id": 9983607350, "lat": 12.9165238, "lon": 77.6451742}, {"type": "node", "id": 9983607351, "lat": 12.9165324, "lon": 77.6449233}, {"type": "node", "id": 10049386131, "lat": 12.9118088, "lon": 77.6494731}, {"type": "node", "id": 10049386132, "lat": 12.9115865, "lon": 77.6494764}, {"type": "node", "id": 10049386133, "lat": 12.9115885, "lon": 77.649615}, {"type": "node", "id": 10049386134, "lat": 12.9118108, "lon": 77.6496117}, {"type": "node", "id": 10066958277, "lat": 12.9084942, "lon": 77.6436044}, {"type": "node", "id": 10066958278, "lat": 12.9079176, "lon": 77.6435837}, {"type": "node", "id": 10066958279, "lat": 12.9079231, "lon": 77.6434223}, {"type": "node", "id": 10948384364, "lat": 12.9019638, "lon": 77.7164575}, {"type": "node", "id": 10948384379, "lat": 12.9021273, "lon": 77.714729}, {"type": "node", "id": 10948384383, "lat": 12.9020907, "lon": 77.7160674}, {"type": "node", "id": 10948384384, "lat": 12.9021038, "lon": 77.7164912}, {"type": "node", "id": 10948384385, "lat": 12.901058, "lon": 77.7162391}, {"type": "node", "id": 10948384386, "lat": 12.9015182, "lon": 77.714552}, {"type": "node", "id": 10963251389, "lat": 12.9094156, "lon": 77.663997, "tags": {"addr:city": "Bengaluru", "addr:postcode": "560102", "addr:street": "HARLUR MAIN ROAD ,OPP.OZONE EVERGREEN SOCIETY GATE 1", "amenity": "hospital", "emergency": "yes", "healthcare": "hospital", "healthcare:speciality": "dentist", "name": "The Local Dentist", "operator": "DENTAL CLINIC", "operator:type": "business"}}, {"type": "node", "id": 11075395440, "lat": 12.9153904, "lon": 77.675278}, {"type": "node", "id": 11075395441, "lat": 12.91564, "lon": 77.6747945}, {"type": "node", "id": 11075395442, "lat": 12.9159951, "lon": 77.6749527}, {"type": "node", "id": 11085582504, "lat": 12.9144825, "lon": 77.6491563, "tags": {"addr:city": "bangalore", "addr:postcode": "560103", "addr:street": "24th Main Rd, Vanganahalli, 1st Sector, HSR Layout 5th Sector, Bengaluru,", "amenity": "hospital", "healthcare": "hospital", "name": "Lotus Hospital"}}, {"type": "node", "id": 11342710964, "lat": 12.8350455, "lon": 77.693987, "tags": {"amenity": "hospital", "name": "JJ Hospital"}}, {"type": "node", "id": 11395887644, "lat": 12.8349735, "lon": 77.6799672, "tags": {"access": "private", "barrier": "gate"}}, {"type": "node", "id": 11402351508, "lat": 12.8347322, "lon": 77.680058, "tags": {"access": "private", "barrier": "gate"}}, {"type": "node", "id": 11700164026, "lat": 12.8804891, "lon": 77.6552588, "tags": {"addr:city": "Electronic city post", "addr:housenumber": "13-14/1", "addr:postcode": "560100", "addr:street": "Haralur Road", "amenity": "hospital", "healthcare": "dentist", "healthcare:speciality": "dentist", "name": "Smile Smart Dental & Implant Centre", "operator": "Smile Smart Dental", "operator:type": "private"}}, {"type": "node", "id": 11753319908, "lat": 12.9154066, "lon": 77.6752466}, {"type": "node", "id": 11774875378, "lat": 12.8626104, "lon": 77.6654432}, {"type": "node", "id": 11774875379, "lat": 12.8620879, "lon": 77.6669936}, {"type": "node", "id": 11774875380, "lat": 12.8630327, "lon": 77.6672685}, {"type": "node", "id": 11774875381, "lat": 12.8635174, "lon": 77.6657002}, {"type": "node", "id": 11782289126, "lat": 12.8933895, "lon": 77.6368614, "tags": {"amenity": "hospital", "check_date": "2024-04-03", "healthcare": "hospital", "name": "Sai Sparsh Hospital", "source": "survey"}}, {"type": "node", "id": 11903094814, "lat": 12.9240012, "lon": 77.6481809, "tags": {"amenity": "hospital", "name": "Sai Thunga Hospitals"}}, {"type": "node", "id": 11962404414, "lat": 12.9198055, "lon": 77.6672841}, {"type": "node", "id": 11962404415, "lat": 12.9207377, "lon": 77.6675136}, {"type": "node", "id": 11962404416, "lat": 12.9207097, "lon": 77.6676637}, {"type": "node", "id": 11962404417, "lat": 12.9199349, "lon": 77.6674794}, {"type": "node", "id": 11962404418, "lat": 12.9197342, "lon": 77.6674205}, {"type": "node", "id": 12144434658, "lat": 12.8728525, "lon": 77.6515698, "tags": {"amenity": "hospital", "check_date": "2024-08-29", "healthcare": "hospital", "name": "Abiramm Hospital", "source": "survey"}}, {"type": "node", "id": 12183790887, "lat": 12.9202322, "lon": 77.665534}, {"type": "node", "id": 12183790888, "lat": 12.9203478, "lon": 77.6651395}, {"type": "node", "id": 12270754747, "lat": 12.871395, "lon": 77.6542581, "tags": {"amenity": "hospital", "check_date": "2024-10-20", "healthcare": "hospital", "name": "Sri Sai Hospital"}}, {"type": "node", "id": 12270754755, "lat": 12.8841477, "lon": 77.6492549, "tags": {"amenity": "hospital", "check_date": "2024-10-20", "healthcare": "hospital"}}, {"type": "node", "id": 12270754757, "lat": 12.8892622, "lon": 77.6505317, "tags": {"amenity": "hospital", "check_date": "2024-10-20", "healthcare": "hospital", "name": "Raksha Hospital"}}, {"type": "node", "id": 12615547386, "lat": 12.9090814, "lon": 77.6638713}, {"type": "node", "id": 12615547387, "lat": 12.9090108, "lon": 77.6638578}, {"type": "node", "id": 12615547388, "lat": 12.9090004, "lon": 77.6639115}, {"type": "node", "id": 12615547389, "lat": 12.9090788, "lon": 77.6639222}, {"type": "node", "id": 12765777977, "lat": 12.9160037, "lon": 77.6523087, "tags": {"amenity": "hospital", "healthcare": "hospital", "healthcare:speciality": "gastroenterology;oncology", "name": "Bangalore Gastro Centre", "phone": "080 46 888 888", "website": "https://www.bangaloregastrocentre.com/"}}, {"type": "node", "id": 13046364776, "lat": 12.8345774, "lon": 77.6815341}, {"type": "node", "id": 13046402621, "lat": 12.8345742, "lon": 77.6816342}, {"type": "node", "id": 13046402622, "lat": 12.8351024, "lon": 77.6815313}, {"type": "node", "id": 13065353808, "lat": 12.9023198, "lon": 77.715214}, {"type": "node", "id": 13065353809, "lat": 12.9023985, "lon": 77.7150923}, {"type": "node", "id": 13173681435, "lat": 12.9007868, "lon": 77.6756594}, {"type": "node", "id": 13173681436, "lat": 12.9007563, "lon": 77.6759596}, {"type": "node", "id": 13173681437, "lat": 12.9003444, "lon": 77.6759112}, {"type": "node", "id": 13173681438, "lat": 12.9003764, "lon": 77.6756139}, {"type": "node", "id": 13357284090, "lat": 12.863065, "lon": 77.6655668}, {"type": "node", "id": 13357284096, "lat": 12.8632707, "lon": 77.6664516}, {"type": "node", "id": 13357284097, "lat": 12.862355, "lon": 77.6661856}, {"type": "way", "id": 335043199, "nodes": [3421728215, 3421728216, 3421728217, 3421728218, 3421728215], "tags": {"amenity": "hospital", "healthcare": "hospital", "name": "Greenview Hospital", "wheelchair": "yes"}}, {"type": "way", "id": 610471335, "nodes": [5781340796, 5781340797, 5781340798, 5781340799, 5781340796], "tags": {"amenity": "hospital", "healthcare": "hospital", "healthcare:speciality": "gynaecology", "name": "Motherhood"}}, {"type": "way", "id": 611385979, "nodes": [456013713, 2413039443, 5780885021, 5774292416, 12183790887, 12183790888, 456013713], "tags": {"amenity": "hospital", "check_date": "2025-02-12", "emergency": "yes", "healthcare": "hospital", "name": "Manipal Hospitals", "name:kn": "\u0cae\u0ca3\u0cbf\u0caa\u0cbe\u0cb2 \u0c86\u0cb8\u0ccd\u0caa\u0ca4\u0ccd\u0cb0\u0cc6", "payment:cash": "yes", "payment:mastercard": "yes", "payment:visa": "yes", "source": "survey", "wheelchair": "yes"}}, {"type": "way", "id": 613474107, "nodes": [5804557878, 5804557879, 5804557880, 5804557881, 5804557882, 5804557878], "tags": {"addr:city": "Bengaluru", "addr:housenumber": "66", "addr:postcode": "560034", "addr:street": "Kaikondrahalli, Sarjapur Road", "amenity": "hospital", "emergency": "yes", "healthcare": "hospital", "name": "Suvarnamukhi", "name:kn": "\u0cb8\u0cc1\u0cb5\u0cb0\u0ccd\u0ca3\u0cae\u0cc1\u0c96\u0cbf \u0c86\u0cb8\u0ccd\u0caa\u0ca4\u0ccd\u0cb0\u0cc6", "phone": "+91 98451 26869"}}, {"type": "way", "id": 655045245, "nodes": [6137643281, 6137643282, 6137643283, 6137643284, 6137643281], "tags": {"addr:district": "Bengaluru Urban", "addr:full": "14/2,Chikkanayakanahalli Village, Off Sarjapur Road", "addr:postcode": "560035", "addr:state": "Karnataka", "amenity": "hospital", "healthcare": "hospital", "healthcare:speciality": "ayurveda", "name": "Punarjani Ayurvedic Multispeciality Hospital", "source": "OpenGovernmentData"}}, {"type": "way", "id": 678066777, "nodes": [6348894929, 6348894930, 6348894931, 6348894932, 6348894929], "tags": {"amenity": "hospital", "healthcare": "hospital"}}, {"type": "way", "id": 1071044455, "nodes": [9828540924, 9828540925, 9828540926, 9828540927, 9828540924], "tags": {"amenity": "hospital", "check_date": "2025-02-12", "healthcare": "hospital", "healthcare:speciality": "maternity", "name": "Cloudnine", "payment:cash": "yes", "payment:mastercard": "yes", "payment:visa": "yes", "source": "survey"}}, {"type": "way", "id": 1071257248, "nodes": [9830902289, 9830902290, 9830902291, 9830902292, 9830902289], "tags": {"amenity": "hospital", "healthcare": "hospital", "name": "BN Specialty Hospital"}}, {"type": "way", "id": 1088209015, "nodes": [9970369526, 9970369524, 9970369523, 9970369522, 9970369521, 9970369520, 9970369525, 9970369526], "tags": {"amenity": "hospital", "name": "Karunalayam Hospital", "name:kn": "\u0c95\u0cb0\u0cc1\u0ca3\u0cbe\u0cb2\u0caf\u0c82 \u0c86\u0cb8\u0ccd\u0caa\u0ca4\u0ccd\u0cb0\u0cc6"}}, {"type": "way", "id": 1089884368, "nodes": [9983607348, 9983607349, 9983607350, 9983607351, 9983607348], "tags": {"amenity": "hospital", "emergency": "yes", "healthcare": "hospital", "name": "Phoenix Hospital"}}, {"type": "way", "id": 1097519307, "nodes": [10049386131, 10049386132, 10049386133, 10049386134, 10049386131], "tags": {"amenity": "hospital", "healthcare": "hospital", "name": "Bhoomi Diagnostics"}}, {"type": "way", "id": 1099665412, "nodes": [6947707789, 10066958277, 10066958278, 10066958279, 6947707789], "tags": {"addr:district": "Bengaluru Urban", "addr:full": "Ca Site No 1, Basant Health Centre Building, 18th Main, Opposite Hsr Club", "addr:postcode": "560102", "addr:state": "Karnataka", "amenity": "hospital", "healthcare": "hospital", "name": "Narayana Multispeciality Hospital", "name:kn": "\u0ca8\u0cbe\u0cb0\u0cbe\u0caf\u0ca3 \u0c86\u0cb8\u0ccd\u0caa\u0ca4\u0ccd\u0cb0\u0cc6", "operator:type": "private", "source": "OpenGovernmentData", "website": "https://www.narayanahealth.org/patients/locations/Bengaluru"}}, {"type": "way", "id": 1178505994, "nodes": [10948384383, 13065353808, 13065353809, 10948384379, 10948384386, 10948384385, 10948384364, 10948384384, 10948384383], "tags": {"amenity": "hospital", "healthcare": "clinic", "name": "Snehadaan Hospital"}}, {"type": "way", "id": 1193177992, "nodes": [4474487215, 4474487222, 11075395440, 11753319908, 11075395441, 11075395442, 4474487215], "tags": {"amenity": "hospital", "emergency": "yes", "healthcare": "hospital", "name": "Cloud Nine", "note": "Emergency ward and lab open 24x7", "opening_hours": "Mo-Sa 08:00-20:00, Su 10:00-12:00, 16:00-18:00", "operator": "Cloud Nine Care", "operator:type": "private", "phone": "+91 99728 99728", "website": "https://www.cloudninecare.com/centre/sarjapur-road"}}, {"type": "way", "id": 1267842328, "nodes": [11774875381, 13357284096, 11774875380, 11774875379, 13357284097, 11774875378, 13357284090, 11774875381], "tags": {"amenity": "hospital", "emergency": "yes", "healthcare": "hospital", "healthcare:speciality": "multi_speciality", "name": "PESU HOSPITAL", "operator": "PESU", "operator:type": "private"}}, {"type": "way", "id": 1290198690, "nodes": [11962404414, 11962404415, 11962404416, 11962404417, 11962404418, 11962404414], "tags": {"addr:city": "Bengaluru", "addr:housenumber": "3/4", "addr:postcode": "560103", "addr:street": "Sarjapura Road", "amenity": "hospital", "email": "queries@rainbowhospitals.in", "emergency": "yes", "healthcare": "hospital", "healthcare:speciality": "gynaecology;child_psychiatry;paediatrics;otolaryngology;fertility;neonatology;vascular_surgery;physiatry", "name": "Rainbow Childrens Hospital", "phone": "+91 08062261218", "website": "https://www.rainbowhospitals.in/"}}, {"type": "way", "id": 1362578786, "nodes": [12615547386, 12615547387, 12615547388, 12615547389, 12615547386], "tags": {"addr:city": "Bengaluru", "addr:district": "Karnataka", "addr:housenumber": "Plumeria 2nd Floor", "addr:postcode": "560102", "addr:street": "Haralur Main Road", "amenity": "hospital", "email": "urwelcome@klinikgluhen.com", "emergency": "yes", "healthcare": "hospital", "healthcare:speciality": "dentist;dental_oral_maxillo_facial_surgery;dentistry;implantology;orthodontics;pedodontics;maxillofacial_surgery;craniofacial;plastic_surgery;psychiatry", "image": "https://lh3.googleusercontent.com/p/AF1QipN-H9esnouOf6f9LhnY3IkGoS4dyHJiYGpHHac5=s680-w680-h510", "mobile": "+916366800859", "name": "Klinik Guhen - Dental Clinic", "opening_hours": "All Days 10:00-19:30 (Tue Holiday)", "operator": "Dental Clinic", "operator:type": "business", "payment:cash": "yes", "payment:credit_cards": "yes", "payment:debit_cards": "yes", "payment:google_pay": "yes", "phone": "+916366800859", "source": "streetlevel imagery;local knowledge;survey;gps", "start_date": "2021-10-01", "website": "https://klinikgluhen.com/", "wheelchair": "yes"}}, {"type": "way", "id": 1419688646, "nodes": [2550433504, 11402351508, 11395887644, 1118656365, 13046402622, 13046402621, 13046364776, 2550433504], "tags": {"addr:full": "Huskur Gate, Electronic City, Bengaluru", "addr:postcode": "560100", "addr:street": "Hosur Road", "amenity": "hospital", "check_date": "2025-07-04", "healthcare": "hospital", "name": "Vimalaya Hospital", "name:kn": "\u0cb5\u0cbf\u0cae\u0cb2\u0caf \u0c86\u0cb8\u0ccd\u0caa\u0ca4\u0ccd\u0cb0\u0cc6"}}, {"type": "way", "id": 1433363981, "nodes": [13173681435, 13173681436, 13173681437, 13173681438, 13173681435], "tags": {"amenity": "hospital", "healthcare": "hospital", "name": "Aarogya Hastha Hospital"}}]}