{"version": 0.6, "generator": "Overpass API 0.7.62.8 e802775f", "osm3s": {"timestamp_osm_base": "2026-01-13T09:18:16Z", "copyright": "The data included in this document is from www.openstreetmap.org. The data is made available under ODbL."}, "elements": [{"type": "node", "id": 528735975, "lat": 18.9425622, "lon": 72.829843}, {"type": "node", "id": 528736021, "lat": 18.9428926, "lon": 72.8301154}, {"type": "node", "id": 631563658, "lat": 18.9700539, "lon": 72.823728}, {"type": "node", "id": 631563659, "lat": 18.969876, "lon": 72.8244258}, {"type": "node", "id": 631563664, "lat": 18.970699, "lon": 72.8246659}, {"type": "node", "id": 648872854, "lat": 18.9407336, "lon": 72.8381355}, {"type": "node", "id": 648872855, "lat": 18.9408227, "lon": 72.8381769}, {"type": "node", "id": 648872856, "lat": 18.94098, "lon": 72.8377799}, {"type": "node", "id": 648872857, "lat": 18.9405589, "lon": 72.8375868}, {"type": "node", "id": 648872858, "lat": 18.9404067, "lon": 72.8379838}, {"type": "node", "id": 648872859, "lat": 18.9404982, "lon": 72.8380263}, {"type": "node", "id": 648872860, "lat": 18.9405183, "lon": 72.8379784}, {"type": "node", "id": 648872861, "lat": 18.9407568, "lon": 72.8380857}, {"type": "node", "id": 669247999, "lat": 18.9006024, "lon": 72.8170127}, {"type": "node", "id": 705199179, "lat": 18.9521343, "lon": 72.8185702}, {"type": "node", "id": 705199184, "lat": 18.9522816, "lon": 72.8187022}, {"type": "node", "id": 705199187, "lat": 18.9529406, "lon": 72.8177592}, {"type": "node", "id": 705199190, "lat": 18.9528291, "lon": 72.8176647}, {"type": "node", "id": 860315256, "lat": 18.9599377, "lon": 72.8314957, "tags": {"amenity": "hospital", "healthcare": "hospital", "name": "Saifee Ambulance", "source": "GPS"}}, {"type": "node", "id": 2168562645, "lat": 18.9346354, "lon": 72.8311884}, {"type": "node", "id": 2168562651, "lat": 18.9346959, "lon": 72.8315509}, {"type": "node", "id": 2168562655, "lat": 18.9348842, "lon": 72.8315101}, {"type": "node", "id": 2168562656, "lat": 18.9349497, "lon": 72.8311351}, {"type": "node", "id": 2168562657, "lat": 18.9349699, "lon": 72.8312435}, {"type": "node", "id": 2175138608, "lat": 18.9425149, "lon": 72.8295858}, {"type": "node", "id": 2175138609, "lat": 18.9427586, "lon": 72.8295322}, {"type": "node", "id": 2175138610, "lat": 18.9429208, "lon": 72.829545}, {"type": "node", "id": 2175138613, "lat": 18.9430467, "lon": 72.8296089}, {"type": "node", "id": 2175138614, "lat": 18.9430612, "lon": 72.8298751}, {"type": "node", "id": 2175138615, "lat": 18.9430927, "lon": 72.8297292}, {"type": "node", "id": 2175184770, "lat": 18.9407465, "lon": 72.8273848}, {"type": "node", "id": 2175184773, "lat": 18.9408293, "lon": 72.8276324}, {"type": "node", "id": 2175184789, "lat": 18.941192, "lon": 72.8272184}, {"type": "node", "id": 2175184791, "lat": 18.9412747, "lon": 72.827466}, {"type": "node", "id": 2176079826, "lat": 18.9415447, "lon": 72.8324878}, {"type": "node", "id": 2176079850, "lat": 18.9419915, "lon": 72.8327955}, {"type": "node", "id": 2176079878, "lat": 18.9422753, "lon": 72.8313986}, {"type": "node", "id": 2176079882, "lat": 18.9426487, "lon": 72.8317038}, {"type": "node", "id": 2176079925, "lat": 18.9438209, "lon": 72.8316354}, {"type": "node", "id": 2176079936, "lat": 18.9443333, "lon": 72.8312302}, {"type": "node", "id": 2176079959, "lat": 18.9446033, "lon": 72.8325766}, {"type": "node", "id": 2176079965, "lat": 18.9449475, "lon": 72.8311988}, {"type": "node", "id": 2176079967, "lat": 18.9450085, "lon": 72.8327425}, {"type": "node", "id": 2176079991, "lat": 18.9450094, "lon": 72.8306845}, {"type": "node", "id": 2176079997, "lat": 18.9452136, "lon": 72.8309513}, {"type": "node", "id": 2176080001, "lat": 18.9456638, "lon": 72.8321158}, {"type": "node", "id": 2176228956, "lat": 18.9409286, "lon": 72.8379096}, {"type": "node", "id": 2575614699, "lat": 18.980323, "lon": 72.8329855}, {"type": "node", "id": 2919868260, "lat": 18.9546271, "lon": 72.8210141}, {"type": "node", "id": 2919868261, "lat": 18.9546933, "lon": 72.8212241}, {"type": "node", "id": 2919868262, "lat": 18.9548643, "lon": 72.8212193}, {"type": "node", "id": 2919868263, "lat": 18.9548273, "lon": 72.8209701}, {"type": "node", "id": 2920083397, "lat": 18.9593086, "lon": 72.820231}, {"type": "node", "id": 2920084101, "lat": 18.9581453, "lon": 72.820371}, {"type": "node", "id": 2920084103, "lat": 18.9581415, "lon": 72.8198888}, {"type": "node", "id": 3591335931, "lat": 18.9702543, "lon": 72.8144121}, {"type": "node", "id": 3591335932, "lat": 18.9701239, "lon": 72.8145366}, {"type": "node", "id": 3591335933, "lat": 18.9701331, "lon": 72.8144188}, {"type": "node", "id": 3591335934, "lat": 18.9701788, "lon": 72.8148546}, {"type": "node", "id": 3591335935, "lat": 18.9702487, "lon": 72.8146535}, {"type": "node", "id": 3591335936, "lat": 18.970263, "lon": 72.8148582}, {"type": "node", "id": 3591335949, "lat": 18.9705713, "lon": 72.8146167}, {"type": "node", "id": 3596054649, "lat": 18.9769854, "lon": 72.8355529}, {"type": "node", "id": 3596054653, "lat": 18.9770115, "lon": 72.8351222}, {"type": "node", "id": 3596054661, "lat": 18.9774443, "lon": 72.8355857}, {"type": "node", "id": 3616964873, "lat": 18.9612873, "lon": 72.836653}, {"type": "node", "id": 3616964876, "lat": 18.961321, "lon": 72.836482}, {"type": "node", "id": 3616964885, "lat": 18.9614668, "lon": 72.8366924}, {"type": "node", "id": 3616964890, "lat": 18.9615004, "lon": 72.8365214}, {"type": "node", "id": 3643651076, "lat": 18.9674169, "lon": 72.8388546}, {"type": "node", "id": 3643651077, "lat": 18.9676094, "lon": 72.8389809}, {"type": "node", "id": 3643651079, "lat": 18.9676579, "lon": 72.838559}, {"type": "node", "id": 4209578999, "lat": 18.9656765, "lon": 72.8135089, "tags": {"addr:district": "Mumbai", "addr:full": "Chikalwadi, J Dadaji Road, Tardeo", "addr:postcode": "400007", "addr:state": "Maharashtra", "addr:street": "Tukaram Javji Marg", "amenity": "hospital", "email": "info@bhatiahospital.org", "healthcare": "hospital", "name": "Bhatia", "name:en": "Bhatia Hospital", "opening_hours": "24/7", "operator:type": "private", "source": "OpenGovernmentData", "website": "www.bhatiahospital.org"}}, {"type": "node", "id": 4294951714, "lat": 18.9792309, "lon": 72.8337999}, {"type": "node", "id": 4294951717, "lat": 18.9793441, "lon": 72.8333265}, {"type": "node", "id": 4294951721, "lat": 18.9794371, "lon": 72.833268}, {"type": "node", "id": 4294951723, "lat": 18.9795302, "lon": 72.833167}, {"type": "node", "id": 4294951724, "lat": 18.9795654, "lon": 72.8330765}, {"type": "node", "id": 4294951725, "lat": 18.9795934, "lon": 72.8329852}, {"type": "node", "id": 4294951742, "lat": 18.9807749, "lon": 72.8341773}, {"type": "node", "id": 4294951748, "lat": 18.9810628, "lon": 72.8332496}, {"type": "node", "id": 5193467221, "lat": 18.9534957, "lon": 72.8371432, "tags": {"amenity": "hospital", "healthcare": "hospital", "name:en": "Jaslok Hospital"}}, {"type": "node", "id": 6552457254, "lat": 18.9735535, "lon": 72.8345489, "tags": {"access": "private", "barrier": "gate"}}, {"type": "node", "id": 7043574603, "lat": 18.9230941, "lon": 72.8276074, "tags": {"addr:district": "Mumbai", "addr:full": "9th Floor, Room No-91, Lady Ratan Tata Medical & Research Centre 31, Maharshi Karve Road, Cooperage", "addr:postcode": "400021", "addr:state": "Maharashtra", "amenity": "hospital", "name": "Vinod Sharma Memorial Medical Centre", "source": "OpenGovernmentData"}}, {"type": "node", "id": 7044466685, "lat": 18.9576821, "lon": 72.821319, "tags": {"addr:district": "Mumbai", "addr:full": "E -1st Floor, Bhaveshwar Vihar Svp Road, Prathna Samaj,Opposite Hurkiondas Hospital, Girgaum", "addr:postcode": "400004", "addr:state": "Maharashtra", "amenity": "hospital", "healthcare": "hospital", "name": "Dr. Yash Shah Total Eye Care", "source": "OpenGovernmentData"}}, {"type": "node", "id": 7047557038, "lat": 18.9358357, "lon": 72.8332373, "tags": {"addr:district": "Mumbai", "addr:full": "Navsari Bldg.240,Dr. D.N. Road", "addr:postcode": "400001", "addr:state": "Maharashtra", "amenity": "hospital", "healthcare": "hospital", "name": "Banaji Eyesurgery and Laser Center", "source": "OpenGovernmentData"}}, {"type": "node", "id": 7048433639, "lat": 18.956311, "lon": 72.8133863, "tags": {"addr:district": "Mumbai", "addr:full": "105 A&C & 405 A Sukh Sagar, N.S. Patkar Marg, Opera House", "addr:postcode": "400007", "addr:state": "Maharashtra", "amenity": "hospital", "healthcare": "hospital", "name": "Foresight Eye Center", "source": "OpenGovernmentData"}}, {"type": "node", "id": 7050575276, "lat": 18.9707774, "lon": 72.8366089, "tags": {"addr:district": "Mumbai", "addr:full": "Aga Hall, Nesbit Road, Mazgaon", "addr:postcode": "400010", "addr:state": "Maharashtra", "amenity": "hospital", "emergency": "yes", "healthcare": "hospital", "healthcare:speciality": "general;gynaecology", "name": "Prince Aly Khan Hospital", "name:mr": "\u092a\u094d\u0930\u093f\u0902\u0938 \u0905\u0932\u0940 \u0916\u093e\u0928 \u0939\u0949\u0938\u094d\u092a\u093f\u091f\u0932", "source": "OpenGovernmentData"}}, {"type": "node", "id": 7052365607, "lat": 18.9568031, "lon": 72.8190404, "tags": {"addr:district": "Mumbai", "addr:full": "9,Dr, D.D. Sathe Marg", "addr:postcode": "400004", "addr:state": "Maharashtra", "amenity": "hospital", "healthcare": "hospital", "healthcare:speciality": "general;gynaecology", "name": "Brahman Sabha, Mhaskar Gruh and General Nursing Home", "phone": "+91 22 23871999", "source": "OpenGovernmentData"}}, {"type": "node", "id": 7054423656, "lat": 18.9747946, "lon": 72.8128391, "tags": {"addr:district": "Mumbai", "addr:full": "Between Cross Roads Shopping Centre And Tardeo A/C Market, 50, Tardeo Road", "addr:postcode": "400034", "addr:state": "Maharashtra", "amenity": "hospital", "name": "Shetty Nursing Home (Shetty Health Services Pvt. Ltd.)", "source": "OpenGovernmentData"}}, {"type": "node", "id": 7054447906, "lat": 18.9527132, "lon": 72.8337845, "tags": {"addr:city": "Mumbai", "addr:district": "Mumbai", "addr:full": "58,Mohammedali Road", "addr:postcode": "400003", "addr:state": "Maharashtra", "addr:street": "Muhammad Ali Road", "amenity": "hospital", "healthcare": "hospital", "healthcare:speciality": "gynaecology", "name": "Dholkawalla Maternity Home", "source": "OpenGovernmentData"}}, {"type": "node", "id": 7055428168, "lat": 18.957344, "lon": 72.8248367, "tags": {"addr:district": "Mumbai", "addr:full": "Mahaprabhu Krupa, 1st Floor, Room No.5, Near Alankar Cinema, Girgaum -Charni Road", "addr:postcode": "400004", "addr:state": "Maharashtra", "amenity": "hospital", "name": "Yogeshwar Surgical Clinic and Nursing Home - Mumbai", "source": "OpenGovernmentData"}}, {"type": "node", "id": 7059192086, "lat": 18.9595979, "lon": 72.8331207, "tags": {"addr:district": "Mumbai", "addr:full": "Imamwada Road, Opposite Mughal Masjid", "addr:postcode": "400009", "addr:state": "Maharashtra", "amenity": "hospital", "emergency": "yes", "healthcare": "hospital", "healthcare:speciality": "gynaecology;general", "name": "M.H. Saboo Siddique Maternity and General Hospital - Masjid", "source": "OpenGovernmentData"}}, {"type": "node", "id": 7064927063, "lat": 18.9774883, "lon": 72.8351831}, {"type": "node", "id": 7066505804, "lat": 18.9547128, "lon": 72.8182693, "tags": {"addr:district": "Mumbai", "addr:full": "266 , Patel Bldg Opposite Central Cinema Girgaum", "addr:postcode": "400004", "addr:state": "Maharashtra", "amenity": "hospital", "healthcare": "hospital", "name": "Beramjis Hospital", "source": "OpenGovernmentData"}}, {"type": "node", "id": 7068194983, "lat": 18.923141, "lon": 72.8275739, "tags": {"addr:district": "Mumbai", "addr:full": "81-84 Lady R.T.Med.&Reserch Cntre", "addr:postcode": "400049", "addr:state": "Maharashtra", "amenity": "hospital", "name": "Spectrum Health Care", "source": "OpenGovernmentData"}}, {"type": "node", "id": 7069814001, "lat": 18.9685072, "lon": 72.8286038, "tags": {"addr:city": "Mumbai", "addr:district": "Mumbai", "addr:full": "245-A, Maulana Azad Road , Nagpada", "addr:housenumber": "247", "addr:postcode": "400008", "addr:state": "Maharashtra", "addr:street": "Maulana Azad Road North", "amenity": "hospital", "healthcare": "hospital", "name": "Nagori Clinic and Nursing Home", "source": "OpenGovernmentData"}}, {"type": "node", "id": 7070054643, "lat": 18.9772251, "lon": 72.8485957, "tags": {"addr:district": "Mumbai", "addr:full": "Queystreet, OppositeSaibabamandir, Reayroad(E)", "addr:postcode": "400010", "addr:state": "Maharashtra", "amenity": "hospital", "name": "Sai Raj Hospital", "source": "OpenGovernmentData"}}, {"type": "node", "id": 7070857459, "lat": 18.9661811, "lon": 72.8195715, "tags": {"addr:district": "Mumbai", "addr:full": "Bldg. No.2, 1st Floor, R.No. 4, 5 & 10, Navjivan Society, Lamington Road", "addr:postcode": "400008", "addr:state": "Maharashtra", "amenity": "hospital", "name": "Sadhu-Kamal Eye Hospital", "source": "OpenGovernmentData"}}, {"type": "node", "id": 7072544668, "lat": 18.9415002, "lon": 72.8278414, "tags": {"addr:district": "Mumbai", "addr:full": "3-D, Kakad House, 11, 3rd Floor, Opposite Liberty Cinema, Vithaldas Thackersey Marg, New Marine Lines", "addr:postcode": "400020", "addr:state": "Maharashtra", "amenity": "hospital", "healthcare": "hospital", "name": "Zain Eye Care", "source": "OpenGovernmentData", "website": "http://zaineyecare.net/"}}, {"type": "node", "id": 7073672865, "lat": 18.9571912, "lon": 72.8229122, "tags": {"addr:district": "Mumbai", "addr:full": "V.P.Road", "addr:postcode": "400004", "addr:state": "Maharashtra", "amenity": "hospital", "name": "Dr.Pai Dhungat Maternity and Nursing Home", "source": "OpenGovernmentData"}}, {"type": "node", "id": 7073944671, "lat": 18.9498421, "lon": 72.8201012, "tags": {"addr:district": "Mumbai", "addr:full": "Netaji Subash Road", "addr:postcode": "400002", "addr:state": "Maharashtra", "amenity": "hospital", "healthcare": "hospital", "name": "Smt. Kamladevi Gauridutt Mittal Ayurvedic Hospital", "source": "OpenGovernmentData"}}, {"type": "node", "id": 7073949849, "lat": 18.9563909, "lon": 72.8133488, "tags": {"addr:district": "Mumbai", "addr:full": "202-A, Sukh Sagar,2nd Floor, N S Patkar Marg", "addr:postcode": "400007", "addr:state": "Maharashtra", "amenity": "hospital", "healthcare": "hospital", "name": "Samyak Drishti Eye Centre", "source": "OpenGovernmentData"}}, {"type": "node", "id": 7080141269, "lat": 18.9592421, "lon": 72.8383537, "tags": {"addr:district": "Latur", "addr:full": "122, Dr Maheshwari Rd, Dongri, Umerkhadi", "addr:postcode": "400009", "addr:state": "Maharashtra", "amenity": "hospital", "name": "Smt.Laxmiben Dhanji Devshi Health Centre", "source": "OpenGovernmentData"}}, {"type": "node", "id": 7082733172, "lat": 18.9734559, "lon": 72.8145584, "tags": {"addr:district": "Mumbai", "addr:full": "47-A, Walchand Terraces, Opp Tardeo A/C Market, Tardeo", "addr:postcode": "400034", "addr:state": "Maharashtra", "amenity": "hospital", "name": "Anudhiti Care", "source": "OpenGovernmentData"}}, {"type": "node", "id": 7083190122, "lat": 18.9230674, "lon": 72.8275497, "tags": {"addr:district": "Mumbai", "addr:full": "74/78/Lady Ratan Tata M R C Karve Road, Cooperage", "addr:postcode": "400021", "addr:state": "Maharashtra", "amenity": "hospital", "name": "Abhishek Day Care Institute and Medical Research Centre", "source": "OpenGovernmentData"}}, {"type": "node", "id": 7086409761, "lat": 18.9755408, "lon": 72.8237459}, {"type": "node", "id": 7206288300, "lat": 18.9666562, "lon": 72.8288889, "tags": {"addr:city": "Mumbai", "addr:housenumber": "21/22", "addr:postcode": "400008", "addr:street": "Memni Buidling, Dimtimakar Road", "amenity": "hospital", "emergency": "yes", "healthcare": "hospital", "healthcare:speciality": "gynaecology;surgery;paediatrics;orthopaedics", "name": "Dawood Multispeciality Nursing Home", "phone": "+91 22 23091413, +91 22 23051797"}}, {"type": "node", "id": 7206373661, "lat": 18.9703512, "lon": 72.8235975}, {"type": "node", "id": 7207893889, "lat": 18.966675, "lon": 72.8284384, "tags": {"addr:city": "Mumbai", "addr:postcode": "400008", "addr:street": "Duncan Road, Dalal Estate, Kamathipura", "amenity": "hospital", "facility:unani": "yes", "healthcare": "clinic", "healthcare:speciality": "general", "name": "Tibbia Hospital"}}, {"type": "node", "id": 7207893890, "lat": 18.9538884, "lon": 72.8334612, "tags": {"addr:city": "Mumbai", "addr:full": "49, Mohammed Ali Road near Masjid Bunder, Pydhonie, Mumbai 400003", "addr:housenumber": "49", "addr:postcode": "400003", "addr:street": "Mohammed Ali Road", "amenity": "hospital", "healthcare": "hospital", "healthcare:speciality": "general;gynaecology", "name": "Noor Hospital"}}, {"type": "node", "id": 7207893891, "lat": 18.9456103, "lon": 72.8345389, "tags": {"addr:city": "Mumbai", "addr:full": "1st Floor, Greenstone Heritage, Commercial premises, C-Wing, Chhatrapati Shivaji Terminus Area, Mumbai 400001", "addr:postcode": "400001", "amenity": "hospital", "emergency": "no", "healthcare": "laboratory", "healthcare:speciality": "blood_check", "phone": "+91 22 2344 8024"}}, {"type": "node", "id": 7225067144, "lat": 18.98419, "lon": 72.830035, "tags": {"addr:district": "Mumbai", "addr:full": "Near Nirmal Park Railway Quarters, Chinchpokli", "addr:postcode": "400011", "addr:state": "Maharashtra", "amenity": "hospital", "description": "Civil Hospital/General Hospital", "name": "Kasturba Hospital", "source": "OpenGovernmentData"}}, {"type": "node", "id": 7225067213, "lat": 18.971194, "lon": 72.820968, "tags": {"addr:district": "Mumbai", "addr:full": "55, Dr Anandrao Nair Marg, Near Mumbai Central Railway Station, Mumbai", "addr:postcode": "400008", "addr:state": "Maharashtra", "amenity": "hospital", "description": "Medical Colleges Hospital", "name": "Nair Hospital Dental College", "source": "OpenGovernmentData"}}, {"type": "node", "id": 7225067284, "lat": 18.9742153, "lon": 72.8219188, "tags": {"addr:district": "Mumbai", "addr:full": "Dr. A. L. Nair Road, Mumbai", "addr:postcode": "400008", "addr:state": "Maharashtra", "amenity": "hospital", "description": "Medical Colleges Hospital", "name": "BYL Nair hospital", "source": "OpenGovernmentData"}}, {"type": "node", "id": 7226727393, "lat": 18.95168, "lon": 72.838827, "tags": {"addr:district": "Mumbai", "addr:full": "Janabai Madhavrao Rokade Municipal School Ground Floor, Masjid Bunder Katha Bazzar, Mumbai", "addr:postcode": "400009", "addr:state": "Maharashtra", "amenity": "hospital", "emergency": "yes", "healthcare": "hospital", "name": "General Hospital, Janabai Rokade", "source": "OpenGovernmentData"}}, {"type": "node", "id": 7433481437, "lat": 18.9540069, "lon": 72.8340909, "tags": {"amenity": "hospital", "emergency": "no", "healthcare": "hospital", "name": "The Muslim Ambulance Society Diagnostic Center"}}, {"type": "node", "id": 7433481438, "lat": 18.9596948, "lon": 72.8368049, "tags": {"amenity": "hospital", "healthcare": "hospital", "healthcare:speciality": "general;paediatrics;gynaecology;orthopaedics", "name": "Habib Hospital", "phone": "+91-22-23788100", "website": "http://habibhospital.com/"}}, {"type": "node", "id": 7433682214, "lat": 18.9660613, "lon": 72.831912, "tags": {"addr:district": "Mumbai City", "addr:full": "Shreeram Rane Chowk, Police Colony, New Nagpada, Byculla, Mumbai", "addr:postcode": "400008", "addr:state": "Maharastra", "amenity": "hospital", "healthcare": "hospital", "name": "Nagpada Police Hospital", "name:mr": "\u0928\u093e\u0917\u092a\u093e\u0921\u093e \u092a\u094b\u0932\u0940\u0938 \u0930\u0941\u0917\u094d\u0923\u093e\u0932\u092f", "source": "Local Knowledge"}}, {"type": "node", "id": 7433749757, "lat": 18.9724219, "lon": 72.8357505, "tags": {"addr:postcode": "400010", "amenity": "hospital", "healthcare": "hospital", "healthcare:speciality": "gynaecology", "name": "Rajshree Maternity", "name:mr": "\u0930\u093e\u091c\u0936\u094d\u0930\u0940 \u092e\u0948\u091f\u0930\u0928\u093f\u091f\u0940"}}, {"type": "node", "id": 7433829905, "lat": 18.9749545, "lon": 72.8357371, "tags": {"amenity": "hospital", "healthcare": "hospital", "healthcare:speciality": "oncology", "name": "Masina Cancer Center"}}, {"type": "node", "id": 7433829906, "lat": 18.9737882, "lon": 72.8358632}, {"type": "node", "id": 7514519670, "lat": 18.962207, "lon": 72.833007}, {"type": "node", "id": 7514519671, "lat": 18.9622038, "lon": 72.8343645}, {"type": "node", "id": 7514519672, "lat": 18.9624252, "lon": 72.8348159}, {"type": "node", "id": 7514519673, "lat": 18.9626339, "lon": 72.8352105}, {"type": "node", "id": 7514519674, "lat": 18.9626655, "lon": 72.835585}, {"type": "node", "id": 7514519675, "lat": 18.9625675, "lon": 72.8362136}, {"type": "node", "id": 7514519676, "lat": 18.9625739, "lon": 72.8368813}, {"type": "node", "id": 7514519677, "lat": 18.9636679, "lon": 72.8370896}, {"type": "node", "id": 7514519678, "lat": 18.9645787, "lon": 72.8374014}, {"type": "node", "id": 7514519679, "lat": 18.9646097, "lon": 72.8369243}, {"type": "node", "id": 7514519680, "lat": 18.9647332, "lon": 72.8358243}, {"type": "node", "id": 7514519681, "lat": 18.9653437, "lon": 72.8358764}, {"type": "node", "id": 7514519682, "lat": 18.9654512, "lon": 72.8344192}, {"type": "node", "id": 7514519683, "lat": 18.965598, "lon": 72.8325906}, {"type": "node", "id": 7514519684, "lat": 18.9647859, "lon": 72.8324094}, {"type": "node", "id": 7514524285, "lat": 18.9641218, "lon": 72.8322757}, {"type": "node", "id": 7514524286, "lat": 18.9631661, "lon": 72.8322144}, {"type": "node", "id": 7514524287, "lat": 18.9622227, "lon": 72.8321605}, {"type": "node", "id": 7514524288, "lat": 18.9621437, "lon": 72.8321754}, {"type": "node", "id": 7514524289, "lat": 18.9620875, "lon": 72.8322329}, {"type": "node", "id": 7514524290, "lat": 18.9620576, "lon": 72.832324}, {"type": "node", "id": 7607557871, "lat": 18.961983, "lon": 72.8265104, "tags": {"addr:district": "Mumbai", "addr:full": "MS Ali Road, Siddharth Nagar, Kamathipura, Mumbai", "addr:postcode": "400008", "addr:state": "Maharashtra", "amenity": "hospital", "healthcare": "hospital", "name": "BMC Eye Hospital ,Kamathipura", "source": "Local Knowledge"}}, {"type": "node", "id": 7607886540, "lat": 18.9785849, "lon": 72.8128747, "tags": {"addr:district": "Mumbai", "addr:full": "Haji Ali, Keshavrao Khadye Marg", "addr:postcode": "400034", "addr:state": "Maharashtra", "amenity": "hospital", "name": "All India Institute of Physical Medicine and Rehabilitation", "source": "Local Knowledge"}}, {"type": "node", "id": 7664032179, "lat": 18.8993116, "lon": 72.8140157}, {"type": "node", "id": 7664032180, "lat": 18.8995006, "lon": 72.8140175}, {"type": "node", "id": 7664032181, "lat": 18.899501, "lon": 72.8139694}, {"type": "node", "id": 7664032182, "lat": 18.899312, "lon": 72.8139676}, {"type": "node", "id": 7664032183, "lat": 18.8997127, "lon": 72.8139714}, {"type": "node", "id": 7664032184, "lat": 18.8991519, "lon": 72.813966}, {"type": "node", "id": 7664032185, "lat": 18.8991534, "lon": 72.8137887}, {"type": "node", "id": 7664032186, "lat": 18.8997142, "lon": 72.813794}, {"type": "node", "id": 7664032187, "lat": 18.959185, "lon": 72.823862, "tags": {"addr:district": "Mumbai City", "addr:full": "Khemraj Srikrishna Das Marg, Grant Road, Khetwadi, Girgaon, Mumbai", "addr:postcode": "400004", "addr:state": "Maharastra", "amenity": "hospital", "healthcare": "hospital", "name": "Dr. Sanjay Shah Hospital", "source": "Local Knowledge"}}, {"type": "node", "id": 7664032188, "lat": 18.9513853, "lon": 72.8236501, "tags": {"addr:district": "Mumbai City", "addr:full": "Zaobawadi Road, Marine Lines East, Thakurdwar, Kalbadevi, Mumbai", "addr:postcode": "400002", "addr:state": "Maharastra", "amenity": "hospital", "healthcare": "hospital", "name": "Suryakant Wagal Maternity Hospital", "source": "Local Knowledge"}}, {"type": "node", "id": 7664032193, "lat": 18.923038, "lon": 72.832811, "tags": {"addr:district": "Mumbai City", "addr:full": "Devidas Mansion, 4, Behind Taj Hotel, Apollo Bandar, Colaba, Mumbai", "addr:postcode": "400005", "addr:state": "Maharastra", "amenity": "hospital", "name": "Kalajot Hospital", "source": "Local Knowledge"}}, {"type": "node", "id": 7664032201, "lat": 18.9620615, "lon": 72.8324286}, {"type": "node", "id": 7664032203, "lat": 18.967509, "lon": 72.838751, "tags": {"addr:district": "Mumbai City", "addr:full": "37, St Mary Road, Tadwadi, Mazgaon, Mumbai", "addr:postcode": "400010", "addr:state": "Maharastra", "amenity": "hospital", "name": "Dr. Shantilal Oza Hospital", "source": "Local Knowledge"}}, {"type": "node", "id": 7664032233, "lat": 18.9368113, "lon": 72.8403416, "tags": {"addr:district": "Mumbai City", "addr:full": "5, Walchand Hirachand Marg, Ballard Estate, Fort, Mumbai", "addr:postcode": "400001", "addr:state": "Maharastra", "amenity": "hospital", "name": "Reliance Health Ventures Limited Hospital", "source": "Local Knowledge"}}, {"type": "node", "id": 7664032237, "lat": 18.9730222, "lon": 72.8219132, "tags": {"addr:district": "Mumbai City", "addr:full": "43-A/43B, Dr Anandrao Nair Marg, RTO Colony, Mumbai Central, Mumbai", "addr:postcode": "400008", "addr:state": "Maharastra", "amenity": "hospital", "healthcare": "hospital", "name": "Nair Hospital", "source": "Local Knowledge"}}, {"type": "node", "id": 7664032242, "lat": 18.9705472, "lon": 72.8143779}, {"type": "node", "id": 8740874636, "lat": 18.9594, "lon": 72.8201793}, {"type": "node", "id": 8797105668, "lat": 18.9764756, "lon": 72.8416085, "tags": {"addr:district": "Mumbai", "addr:full": "Sant Savata Mali Marg, Naralwadi, Sewri, Mumbai", "addr:postcode": "400027", "addr:state": "Maharashtra", "amenity": "hospital", "source": "Local Knowledge"}}, {"type": "node", "id": 8797109108, "lat": 18.9789397, "lon": 72.812933}, {"type": "node", "id": 8817020641, "lat": 18.9752297, "lon": 72.8237596, "tags": {"addr:city": "Mumbai", "addr:housenumber": "1877", "addr:postcode": "400011", "addr:street": "Doctor Anandrao Nair Marg, Near Agripada Police Station Mumbai Central East, Agripada", "amenity": "hospital", "healthcare": "hospital", "healthcare:speciality": "Arthroplasty;Arthroscopy;Hip_Replacement;Knee_Replacement;Trauma", "name": "Dr Mudit Khanna", "website": "https://www.drmuditkhanna.com/"}}, {"type": "node", "id": 9056958183, "lat": 18.9447231, "lon": 72.8309156}, {"type": "node", "id": 9060708492, "lat": 18.9736246, "lon": 72.8346241}, {"type": "node", "id": 9060708493, "lat": 18.9737273, "lon": 72.8351551}, {"type": "node", "id": 10257874080, "lat": 18.9701052, "lon": 72.8235251}, {"type": "node", "id": 10257874081, "lat": 18.9703817, "lon": 72.8234902}, {"type": "node", "id": 10257874082, "lat": 18.9709854, "lon": 72.8236753}, {"type": "node", "id": 10616180012, "lat": 18.9783359, "lon": 72.8271144, "tags": {"amenity": "hospital", "healthcare": "hospital"}}, {"type": "node", "id": 10939447599, "lat": 18.9756461, "lon": 72.8361322, "tags": {"access": "private", "barrier": "gate"}}, {"type": "node", "id": 11017453070, "lat": 18.9784348, "lon": 72.812977, "tags": {"access": "private", "barrier": "gate"}}, {"type": "node", "id": 11030085787, "lat": 18.8997141, "lon": 72.8138054}, {"type": "node", "id": 11950780314, "lat": 18.9037566, "lon": 72.8156206}, {"type": "node", "id": 11950780315, "lat": 18.90382, "lon": 72.8157279}, {"type": "node", "id": 11950780316, "lat": 18.9037744, "lon": 72.8161195}, {"type": "node", "id": 11950780317, "lat": 18.9022975, "lon": 72.8161839}, {"type": "node", "id": 11950780318, "lat": 18.9022315, "lon": 72.8162268}, {"type": "node", "id": 11950780319, "lat": 18.9020996, "lon": 72.8167337}, {"type": "node", "id": 11950780320, "lat": 18.9016479, "lon": 72.8167739}, {"type": "node", "id": 11950780321, "lat": 18.9016479, "lon": 72.8170878}, {"type": "node", "id": 11950780322, "lat": 18.9011556, "lon": 72.8170824}, {"type": "node", "id": 11950780323, "lat": 18.9004273, "lon": 72.8169697}, {"type": "node", "id": 11950780324, "lat": 18.8974456, "lon": 72.8146309}, {"type": "node", "id": 11950780325, "lat": 18.8981875, "lon": 72.8127828}, {"type": "node", "id": 11950780326, "lat": 18.8992042, "lon": 72.813499}, {"type": "node", "id": 11950780327, "lat": 18.8997777, "lon": 72.8138208}, {"type": "node", "id": 11950780328, "lat": 18.9003436, "lon": 72.8141266}, {"type": "node", "id": 11950780329, "lat": 18.9004451, "lon": 72.8143197}, {"type": "node", "id": 11950780330, "lat": 18.9006252, "lon": 72.8143787}, {"type": "node", "id": 11950780331, "lat": 18.900775, "lon": 72.8143921}, {"type": "node", "id": 11950780332, "lat": 18.9023406, "lon": 72.8150788}, {"type": "node", "id": 11953259472, "lat": 18.9737933, "lon": 72.8354743}, {"type": "node", "id": 11953259474, "lat": 18.9735635, "lon": 72.8345254}, {"type": "node", "id": 11953259475, "lat": 18.9735295, "lon": 72.8345677}, {"type": "node", "id": 11953259476, "lat": 18.9736081, "lon": 72.8347608}, {"type": "node", "id": 11953259477, "lat": 18.9736868, "lon": 72.8351632}, {"type": "node", "id": 11953259478, "lat": 18.9737958, "lon": 72.836633}, {"type": "node", "id": 11953259479, "lat": 18.9756804, "lon": 72.8365767}, {"type": "node", "id": 11953259619, "lat": 18.975579, "lon": 72.8352343}, {"type": "node", "id": 11953259620, "lat": 18.9744972, "lon": 72.8353174}, {"type": "node", "id": 11953366500, "lat": 18.9753404, "lon": 72.8243547}, {"type": "node", "id": 11953366501, "lat": 18.9750793, "lon": 72.823576}, {"type": "node", "id": 11953366502, "lat": 18.9748789, "lon": 72.8241849}, {"type": "node", "id": 11953432846, "lat": 18.9784451, "lon": 72.813051}, {"type": "node", "id": 11953432847, "lat": 18.9794952, "lon": 72.8133407}, {"type": "node", "id": 11953432848, "lat": 18.9798325, "lon": 72.8128794}, {"type": "node", "id": 11953432849, "lat": 18.979064, "lon": 72.8122544}, {"type": "node", "id": 11953432850, "lat": 18.9787444, "lon": 72.8125146}, {"type": "node", "id": 11953432851, "lat": 18.9783589, "lon": 72.8126112}, {"type": "node", "id": 12299737561, "lat": 18.9700159, "lon": 72.8458481}, {"type": "node", "id": 12299737562, "lat": 18.9705376, "lon": 72.8455598}, {"type": "node", "id": 12299737563, "lat": 18.9705077, "lon": 72.8458434}, {"type": "node", "id": 12299737564, "lat": 18.9700248, "lon": 72.8455638}, {"type": "node", "id": 12555159227, "lat": 18.9666988, "lon": 72.8288189, "tags": {"addr:city": "Mumbai", "addr:district": "Mumbai", "addr:housenumber": "222", "addr:postcode": "400008", "addr:street": "Dimtimakar Road", "amenity": "hospital", "emergency": "yes", "healthcare": "hospital", "healthcare:speciality": "dentist;ophthalmology;orthodontics;dermatology;biology;gynaecology;radiology;otolaryngology;orthopaedics;internal;osteopathy;plastic_surgery;chiropractic;physiotherapy;urology;general;cardiology;surgery;neurology;emergency;psychiatry;traditional_chinese_m", "name": "siddiqui", "operator": "iffat", "operator:type": "public"}}, {"type": "node", "id": 12560946824, "lat": 18.9232674, "lon": 72.831386, "tags": {"amenity": "hospital", "healthcare": "hospital", "name": "Apollo Hospitals", "operator": "Apollo Hospitals", "operator:type": "private", "operator:wikidata": "Q4780321"}}, {"type": "node", "id": 12573856473, "lat": 18.9231434, "lon": 72.8274992, "tags": {"addr:city": "Mumbai", "addr:postcode": "400021", "addr:street": "Maharshi Karve Rd, Nariman Point", "amenity": "hospital", "healthcare": "hospital", "name": "Indian Cancer Society"}}, {"type": "node", "id": 12578847255, "lat": 18.8978354, "lon": 72.8132925}, {"type": "node", "id": 12578847256, "lat": 18.8977655, "lon": 72.8134379}, {"type": "node", "id": 12578847257, "lat": 18.8970152, "lon": 72.8137568}, {"type": "node", "id": 12578847258, "lat": 18.8967572, "lon": 72.8141511}, {"type": "node", "id": 12578850453, "lat": 18.8974283, "lon": 72.8132064}, {"type": "node", "id": 12578850454, "lat": 18.8972105, "lon": 72.8135075}, {"type": "node", "id": 12666377119, "lat": 18.9591663, "lon": 72.8200021}, {"type": "node", "id": 12666377120, "lat": 18.9590488, "lon": 72.8199139}, {"type": "node", "id": 12666377121, "lat": 18.9590559, "lon": 72.8198272}, {"type": "node", "id": 12666377122, "lat": 18.9590291, "lon": 72.8198311}, {"type": "node", "id": 12781978288, "lat": 18.9527596, "lon": 72.8176966}, {"type": "node", "id": 12904796701, "lat": 18.9590414, "lon": 72.8197259}, {"type": "node", "id": 12953304873, "lat": 18.9654004, "lon": 72.8352188}, {"type": "node", "id": 12953603613, "lat": 18.9425781, "lon": 72.8319106}, {"type": "node", "id": 12989090970, "lat": 18.9430769, "lon": 72.8323103}, {"type": "node", "id": 12989090972, "lat": 18.9431631, "lon": 72.8321128}, {"type": "node", "id": 12989090973, "lat": 18.9431476, "lon": 72.8321405}, {"type": "node", "id": 12989090974, "lat": 18.9431835, "lon": 72.8321641}, {"type": "node", "id": 13377774440, "lat": 18.9192257, "lon": 72.8296146, "tags": {"addr:city": "mumbai", "addr:postcode": "400005", "addr:street": "s bharucha marg", "amenity": "hospital", "healthcare": "hospital", "healthcare:speciality": "ophthalmology", "name": "Kataria eye clinic", "operator": "Mr. Kataria", "operator:type": "private"}}, {"type": "way", "id": 50884815, "nodes": [648872854, 648872855, 2176228956, 648872856, 648872857, 648872858, 648872859, 648872860, 648872861, 648872854], "tags": {"addr:district": "Mumbai", "addr:full": "opp. C S T Railway Station,", "addr:postcode": "400001", "addr:state": "Maharashtra", "amenity": "hospital", "building": "yes", "healthcare": "hospital", "name": "St George Hospital", "source": "OpenGovernmentData", "wikidata": "Q7593225", "wikimedia_commons": "Category:St George Hospital, Mumbai", "wikipedia": "en:St George Hospital, Mumbai"}}, {"type": "way", "id": 56199740, "nodes": [705199179, 705199184, 705199187, 705199190, 12781978288, 705199179], "tags": {"addr:city": "Mumbai", "addr:district": "Mumbai", "addr:full": "15/17, Maharshi Karve Marg", "addr:postcode": "400004", "addr:state": "Maharashtra", "addr:street": "Maharshi Karve Road", "amenity": "hospital", "building": "yes", "email": "write@saifeehospital.com", "emergency": "yes", "healthcare": "hospital", "healthcare:speciality": "general;gynaecology;cardiology;surgery", "name": "Saifee Hospital", "name:en": "Saifee Hospital", "name:etymology:wikidata": "Q7675438", "operator:type": "private", "source": "OpenGovernmentData", "website": "https://www.saifeehospital.com/", "wikidata": "Q7400018", "wikimedia_commons": "Category:Saifee Hospital", "wikipedia": "en:Saifee Hospital"}}, {"type": "way", "id": 206806614, "nodes": [2168562656, 2168562645, 2168562651, 2168562655, 2168562657, 2168562656], "tags": {"addr:district": "Mumbai City", "addr:full": "Maharshi Dadhichi Marg, Azad Maidan, Fort, Mumbai", "addr:postcode": "400001", "addr:state": "Maharastra", "amenity": "hospital", "building": "yes", "name": "Atmasingh Jassasingh Bankebihar Municipal ENT Hospital", "old_name": "Bombay City Improvement Trust Building", "source": "Local Knowledge"}}, {"type": "way", "id": 207319558, "nodes": [2175138608, 2175138609, 2175138610, 2175138613, 2175138615, 2175138614, 528736021, 528735975, 2175138608], "tags": {"amenity": "hospital", "healthcare": "hospital", "name": "Willingdon"}}, {"type": "way", "id": 207324961, "nodes": [2175184791, 2175184789, 2175184770, 2175184773, 2175184791], "tags": {"addr:city": "Mumbai", "addr:district": "Mumbai", "addr:full": "12, New Marine Lines, Marine Lines", "addr:postcode": "400020", "addr:state": "Maharashtra", "amenity": "hospital", "building": "apartments", "healthcare": "hospital", "name": "Bombay Hospital and Medical Research Center", "operator:type": "private", "source": "OpenGovernmentData", "website": "https://www.bombayhospital.com/", "wikidata": "Q4940562", "wikipedia": "en:Bombay Hospital"}}, {"type": "way", "id": 207376648, "nodes": [2176079850, 2176079826, 2176079878, 2176079882, 12989090972, 12989090973, 12989090974, 12989090970, 12953603613, 2176079850], "tags": {"addr:district": "Mumbai", "addr:full": "Mahapalika Marg, opp. Azad Maidan, Dhobi Talao, Chhatrapati Shivaji Terminus Area", "addr:postcode": "400001", "addr:state": "Maharashtra", "amenity": "hospital", "emergency": "yes", "healthcare": "hospital", "landuse": "yes", "name": "Cama Hospital", "name:etymology:wikidata": "Q21556664", "source": "OpenGovernmentData", "wikidata": "Q5024895", "wikimedia_commons": "Category:Cama & Albless Hospital", "wikipedia": "en:Cama Hospital"}}, {"type": "way", "id": 207376654, "nodes": [2176079965, 2176080001, 2176079967, 2176079959, 2176079925, 2176079936, 9056958183, 2176079991, 2176079997, 2176079965], "tags": {"addr:district": "Mumbai", "addr:full": "Near Police Commissioners Office, Lokmanya Tilak Road, G. P. O.", "addr:postcode": "400001", "addr:state": "Maharashtra", "amenity": "hospital", "healthcare": "hospital", "name": "\u0917\u094b\u0915\u0941\u0933\u0926\u093e\u0938 \u0924\u0947\u091c\u092a\u093e\u0932 \u0930\u0941\u0917\u094d\u0923\u093e\u0932\u092f", "name:en": "Gokuldas Tejpal Hospital", "source": "OpenGovernmentData"}}, {"type": "way", "id": 288426702, "nodes": [2919868260, 2919868261, 2919868262, 2919868263, 2919868260], "tags": {"addr:city": "Mumbai", "addr:district": "Mumbai", "addr:full": "8-10 S V Sovani Path Conwest Jain Clinic Chowk Khadilkar Road Girgaum", "addr:postcode": "400004", "addr:state": "Maharashtra", "addr:street": "Kotachi Wadi", "amenity": "hospital", "building": "hospital", "building:levels": "6", "healthcare": "hospital", "healthcare:speciality": "general", "name": "Conwest And Manjula S. Badani Jain Hospital", "source": "OpenGovernmentData", "website": "https://www.cmjhospital.in/"}}, {"type": "way", "id": 288446227, "nodes": [12904796701, 12666377121, 12666377122, 12666377120, 12666377119, 8740874636, 2920083397, 2920084101, 2920084103, 12904796701], "tags": {"addr:city": "Mumbai", "addr:district": "Mumbai", "addr:full": "Padmashri Gordhanbapa Chowk, Raja Ram Mohan Roy Road Girgaon", "addr:postcode": "400004", "addr:state": "Maharashtra", "addr:street": "Raja Ram Mohan Roy Road (Charni Road)", "amenity": "hospital", "building": "hospital", "building:levels": "15", "healthcare": "hospital", "name": "Sir H. N. Hospital & Research Centre;Sir H.N Reliance foundation hospital", "outdoor_seating": "no", "source": "OpenGovernmentData", "wikidata": "Q16892546", "wikimedia_commons": "Category:Sir H. N. Reliance Foundation Hospital", "wikipedia": "en:Sir H. N. Reliance Foundation Hospital"}}, {"type": "way", "id": 353353382, "nodes": [7664032242, 3591335949, 3591335935, 3591335936, 3591335934, 3591335932, 3591335933, 3591335931, 7664032242], "tags": {"addr:district": "Mumbai City", "addr:full": "Everest Building, 156, Tardeo Road, Tardeo, Mumbai", "addr:postcode": "400034", "addr:state": "Maharastra", "amenity": "hospital", "building": "hospital", "building:levels": "10", "healthcare": "hospital", "name": "Apollo Spectra Hospitals", "source": "Local Knowledge"}}, {"type": "way", "id": 353799754, "nodes": [7064927063, 3596054661, 3596054649, 3596054653, 7064927063], "tags": {"addr:district": "Mumbai", "addr:full": "Victoria Road, Cross Lane No.Iii, Byculla (E)", "addr:postcode": "400027", "addr:state": "Maharashtra", "amenity": "hospital", "name": "Balaji Hospital", "source": "OpenGovernmentData"}}, {"type": "way", "id": 356207236, "nodes": [3616964890, 3616964885, 3616964873, 3616964876, 3616964890], "tags": {"addr:city": "Mumbai", "addr:district": "Mumbai", "addr:postcode": "400009", "addr:street": "A N Surve Marg (Umerkhadi Road)", "amenity": "hospital", "emergency": "yes", "healthcare": "hospital", "healthcare:speciality": "gynaecology;radiology;orthodontics;emergency;maternity", "name": "umerkhadi hospital"}}, {"type": "way", "id": 430223744, "nodes": [4294951725, 2575614699, 4294951748, 4294951742, 4294951714, 4294951717, 4294951721, 4294951723, 4294951724, 4294951725], "tags": {"addr:district": "Mumbai", "addr:full": "Dr. B.A.Ambedkar Central Railway Hospital, Opp. Ranibag, BYCULLA MUMBAI", "addr:postcode": "400027", "addr:state": "Maharashtra", "amenity": "hospital", "description": "Civil Hospital/General Hospital", "name": "Dr. Babasaheb Ambedkar Memorial Central Railway Hospital", "name:etymology:wikidata": "Q231690", "source": "OpenGovernmentData", "wheelchair": "yes"}}, {"type": "way", "id": 803325198, "nodes": [7664032201, 7514519670, 7514519671, 7514519672, 7514519673, 7514519674, 7514519675, 7514519676, 7514519677, 7514519678, 7514519679, 7514519680, 7514519681, 12953304873, 7514519682, 7514519683, 7514519684, 7514524285, 7514524286, 7514524287, 7514524288, 7514524289, 7514524290, 7664032201], "tags": {"addr:city": "Mumbai", "addr:district": "Mumbai City", "addr:postcode": "400008", "addr:state": "Maharastra", "amenity": "hospital", "beds": "2844", "email": "info@ggmcjjh.com", "health_amenity:type": "emergency_department;intensive_care_unit;operating_theater;ultrasound;x_ray", "healthcare": "hospital", "name": "J. J. Hospital", "name:en": "Grant Medical College and Sir Jamshedjee Jeejeebhoy Group of Hospitals", "name:etymology:wikidata": "Q13604560", "phone": "+912223735555", "source": "Local Knowledge", "website": "https://ggmcjjh.com/"}}, {"type": "way", "id": 820951209, "nodes": [7664032186, 11030085787, 7664032183, 7664032181, 7664032180, 7664032179, 7664032182, 7664032184, 7664032185, 7664032186], "tags": {"addr:city": "Mumbai", "addr:district": "Mumbai", "addr:full": "45, Nanabhai Moos Marg, Near RC Church, Navy Nagar, Colaba, Mumbai", "addr:postcode": "400005", "addr:state": "Maharastra", "addr:street": "Robert Rd, Navy Nagar, Colaba", "alt_name": "School of Medical Assistants", "amenity": "hospital", "building": "yes", "healthcare": "hospital", "name": "School of Medical Assistants", "source": "Local Knowledge"}}, {"type": "way", "id": 851756494, "nodes": [3643651079, 3643651076, 3643651077, 3643651079], "tags": {"amenity": "hospital", "healthcare": "hospital"}}, {"type": "way", "id": 1121494180, "nodes": [631563664, 10257874082, 10257874081, 7206373661, 10257874080, 631563658, 631563659, 631563664], "tags": {"addr:city": "Mumbai", "addr:postcode": "400008", "addr:street": "Maratha Mandir Marg, RBI Staff Colony", "amenity": "hospital", "emergency": "yes", "healthcare": "hospital", "name": "Jagjivan Ram Hospital", "name:etymology:wikidata": "Q1471625", "phone": "+91 22 6764 3224"}}, {"type": "way", "id": 1288781456, "nodes": [11950780332, 11950780331, 11950780330, 11950780329, 11950780328, 11950780327, 11950780326, 11950780325, 12578847255, 12578847256, 12578850453, 12578850454, 12578847257, 12578847258, 11950780324, 11950780323, 669247999, 11950780322, 11950780321, 11950780320, 11950780319, 11950780318, 11950780317, 11950780316, 11950780315, 11950780314, 11950780332], "tags": {"addr:district": "Mumbai", "addr:full": "Near RC Church, Navy Nagar, Colaba, Mumbai", "addr:postcode": "400005", "addr:state": "Maharashtra", "amenity": "hospital", "healthcare": "hospital", "landuse": "Hospital", "name": "INHS Asvini Naval Hospital", "source": "OpenGovernmentData"}}, {"type": "way", "id": 1289053364, "nodes": [11953259619, 10939447599, 11953259479, 11953259478, 7433829906, 11953259477, 11953259476, 11953259475, 6552457254, 11953259474, 9060708492, 9060708493, 11953259472, 11953259620, 11953259619], "tags": {"addr:city": "Mumbai", "addr:postcode": "400027", "addr:street": "Sant Savata Marg", "amenity": "hospital", "emergency": "yes", "healthcare": "hospital", "healthcare:speciality": "gynaecology;orthopaedics;plastic_surgery;psychiatry;paediatrics;oncology", "name": "Masina Hospital", "website": "https://www.masinahospital.com/"}}, {"type": "way", "id": 1289063015, "nodes": [11953366502, 11953366500, 7086409761, 11953366501, 11953366502], "tags": {"addr:district": "Thane", "addr:full": "Police Station, 1877 Doctor Anandrao Nair Marg Near Agripada, Mumbai Central", "addr:postcode": "400011", "addr:state": "Maharashtra", "amenity": "hospital", "name": "Wockhardt Hospitals, South Mumbai", "source": "OpenGovernmentData"}}, {"type": "way", "id": 1289073489, "nodes": [11953432851, 11953432850, 11953432849, 11953432848, 11953432847, 8797109108, 11953432846, 11017453070, 11953432851], "tags": {"addr:district": "Mumbai", "addr:full": "1-1A, Keshavrao Khadye Marg, Haji Ali, Mumbai", "addr:postcode": "400034", "addr:state": "Maharashtra", "amenity": "hospital", "name": "NH SRCC Children's Hospital", "source": "Local Knowledge"}}, {"type": "way", "id": 1329415478, "nodes": [12299737564, 12299737561, 12299737563, 12299737562, 12299737564], "tags": {"amenity": "hospital", "healthcare": "hospital", "name": "Head And Neck Cancer Institute Of India"}}]}