{"version": 0.6, "generator": "Overpass API 0.7.62.8 e802775f", "osm3s": {"timestamp_osm_base": "2026-01-15T04:22:39Z", "copyright": "The data included in this document is from www.openstreetmap.org. The data is made available under ODbL."}, "elements": [{"type": "node", "id": 60234227, "lat": 48.1326573, "lon": 11.5586706}, {"type": "node", "id": 60234228, "lat": 48.1331284, "lon": 11.5621093}, {"type": "node", "id": 60234229, "lat": 48.1317681, "lon": 11.5628338}, {"type": "node", "id": 60234230, "lat": 48.1299408, "lon": 11.5589332}, {"type": "node", "id": 60239032, "lat": 48.1297901, "lon": 11.5642122}, {"type": "node", "id": 60239033, "lat": 48.1295269, "lon": 11.5651809}, {"type": "node", "id": 60239034, "lat": 48.1281771, "lon": 11.5642057}, {"type": "node", "id": 201402251, "lat": 48.154446, "lon": 11.5513013, "tags": {"barrier": "gate", "locked": "no"}}, {"type": "node", "id": 201402252, "lat": 48.1546478, "lon": 11.5520005}, {"type": "node", "id": 332617267, "lat": 48.1347002, "lon": 11.5650239, "tags": {"addr:city": "M\u00fcnchen", "addr:country": "DE", "addr:housenumber": "24", "addr:postcode": "80331", "addr:street": "Sonnenstra\u00dfe", "amenity": "hospital", "email": "info@isarklinikum.de", "emergency": "yes", "fax": "+49 89 149903-1990", "healthcare": "hospital", "name": "ISAR Klinikum", "operator": "Isar Kliniken GmbH", "phone": "+49 89 149903-0", "website": "https://www.isarklinikum.de", "wheelchair": "yes", "wikidata": "Q22674589"}}, {"type": "node", "id": 614877701, "lat": 48.1317425, "lon": 11.5627837}, {"type": "node", "id": 614881495, "lat": 48.1315182, "lon": 11.5623164}, {"type": "node", "id": 973745936, "lat": 48.1452807, "lon": 11.581651}, {"type": "node", "id": 973746000, "lat": 48.1453878, "lon": 11.5816866}, {"type": "node", "id": 973746015, "lat": 48.1457331, "lon": 11.5813589}, {"type": "node", "id": 973746055, "lat": 48.1454888, "lon": 11.5817173}, {"type": "node", "id": 973746104, "lat": 48.1453225, "lon": 11.5813001}, {"type": "node", "id": 973746138, "lat": 48.1456823, "lon": 11.5817709}, {"type": "node", "id": 1098025404, "lat": 48.1313833, "lon": 11.5620186}, {"type": "node", "id": 1098025405, "lat": 48.1314889, "lon": 11.5622528}, {"type": "node", "id": 1143597272, "lat": 48.1301342, "lon": 11.5586295}, {"type": "node", "id": 1250148922, "lat": 48.1308481, "lon": 11.5608707, "tags": {"access": "private", "barrier": "gate"}}, {"type": "node", "id": 1320044896, "lat": 48.1481951, "lon": 11.5505207}, {"type": "node", "id": 1320044910, "lat": 48.1482372, "lon": 11.550329}, {"type": "node", "id": 1320044938, "lat": 48.1483629, "lon": 11.5499479}, {"type": "node", "id": 1320044951, "lat": 48.1483977, "lon": 11.5497729}, {"type": "node", "id": 1320044956, "lat": 48.14841, "lon": 11.5497118}, {"type": "node", "id": 1320045031, "lat": 48.1486163, "lon": 11.5498093}, {"type": "node", "id": 1349035369, "lat": 48.12848, "lon": 11.5633875}, {"type": "node", "id": 1349035385, "lat": 48.1288781, "lon": 11.5636088}, {"type": "node", "id": 1349035409, "lat": 48.1294408, "lon": 11.5639966}, {"type": "node", "id": 1349035411, "lat": 48.1294873, "lon": 11.5640269}, {"type": "node", "id": 1349035414, "lat": 48.1295735, "lon": 11.5650137}, {"type": "node", "id": 1412416014, "lat": 48.1291783, "lon": 11.5649298}, {"type": "node", "id": 1419327414, "lat": 48.1288108, "lon": 11.564669}, {"type": "node", "id": 1419327416, "lat": 48.128803, "lon": 11.5644976}, {"type": "node", "id": 1419327418, "lat": 48.1285959, "lon": 11.5643562}, {"type": "node", "id": 1419327420, "lat": 48.1284615, "lon": 11.5644192}, {"type": "node", "id": 1430426220, "lat": 48.1328645, "lon": 11.5596921}, {"type": "node", "id": 1852212452, "lat": 48.1514844, "lon": 11.5484897}, {"type": "node", "id": 1852212525, "lat": 48.1522636, "lon": 11.5473842}, {"type": "node", "id": 1852212561, "lat": 48.1531719, "lon": 11.5516142}, {"type": "node", "id": 1852212704, "lat": 48.1531548, "lon": 11.5489448, "tags": {"barrier": "gate", "locked": "yes"}}, {"type": "node", "id": 1852212740, "lat": 48.153105, "lon": 11.5488532}, {"type": "node", "id": 2450493132, "lat": 48.128702, "lon": 11.5644286, "tags": {"access": "customers", "addr:city": "M\u00fcnchen", "addr:country": "DE", "addr:housenumber": "48", "addr:postcode": "80337", "addr:street": "Thalkirchner Stra\u00dfe", "door": "sliding", "entrance": "main", "wheelchair": "no", "wheelchair:description": "3 Treppenstufen, barrierefreier Zugang \u00fcber Hofeinfahrt"}}, {"type": "node", "id": 2453469193, "lat": 48.128736, "lon": 11.5635279, "tags": {"addr:city": "M\u00fcnchen", "addr:country": "DE", "addr:housenumber": "11", "addr:postcode": "80337", "addr:street": "Frauenlobstra\u00dfe"}}, {"type": "node", "id": 2453469198, "lat": 48.128939, "lon": 11.5636425, "tags": {"addr:city": "M\u00fcnchen", "addr:country": "DE", "addr:housenumber": "9", "addr:postcode": "80337", "addr:street": "Frauenlobstra\u00dfe"}}, {"type": "node", "id": 2470460888, "lat": 48.132026, "lon": 11.5586718, "tags": {"addr:city": "M\u00fcnchen", "addr:country": "DE", "addr:housenumber": "55", "addr:postcode": "80336", "addr:street": "Goethestra\u00dfe"}}, {"type": "node", "id": 2470460889, "lat": 48.131442, "lon": 11.5586474, "tags": {"addr:city": "M\u00fcnchen", "addr:country": "DE", "addr:housenumber": "69", "addr:postcode": "80336", "addr:street": "Goethestra\u00dfe"}}, {"type": "node", "id": 2580966481, "lat": 48.1457051, "lon": 11.5810754}, {"type": "node", "id": 2580966490, "lat": 48.14566, "lon": 11.5810629}, {"type": "node", "id": 2580966491, "lat": 48.1456432, "lon": 11.5810583}, {"type": "node", "id": 2580966498, "lat": 48.145566, "lon": 11.5810369}, {"type": "node", "id": 2580966501, "lat": 48.1454437, "lon": 11.5810031}, {"type": "node", "id": 2580966503, "lat": 48.145324, "lon": 11.5813288}, {"type": "node", "id": 2580966506, "lat": 48.1453029, "lon": 11.581481}, {"type": "node", "id": 3049670436, "lat": 48.1300289, "lon": 11.5586298}, {"type": "node", "id": 4261040832, "lat": 48.1283662, "lon": 11.5633309}, {"type": "node", "id": 4463349410, "lat": 48.1327829, "lon": 11.5588848}, {"type": "node", "id": 4463349411, "lat": 48.1329172, "lon": 11.5601714, "tags": {"barrier": "gate", "maxheight": "3.4"}}, {"type": "node", "id": 4463349412, "lat": 48.1329344, "lon": 11.5603225}, {"type": "node", "id": 4463750735, "lat": 48.1313936, "lon": 11.5586456}, {"type": "node", "id": 4463750736, "lat": 48.1306853, "lon": 11.5586239}, {"type": "node", "id": 4463750738, "lat": 48.1299901, "lon": 11.5590386}, {"type": "node", "id": 4464657469, "lat": 48.1313769, "lon": 11.5620053}, {"type": "node", "id": 4464657472, "lat": 48.131295, "lon": 11.5618288}, {"type": "node", "id": 4464657478, "lat": 48.1307578, "lon": 11.5606811}, {"type": "node", "id": 4464657483, "lat": 48.1306974, "lon": 11.5605518}, {"type": "node", "id": 4464657484, "lat": 48.1305726, "lon": 11.5602848}, {"type": "node", "id": 4464657485, "lat": 48.130518, "lon": 11.5601681}, {"type": "node", "id": 4464657486, "lat": 48.1302982, "lon": 11.5596977}, {"type": "node", "id": 4464657488, "lat": 48.1301005, "lon": 11.5592749}, {"type": "node", "id": 4464657589, "lat": 48.1301639, "lon": 11.5594099}, {"type": "node", "id": 4467806341, "lat": 48.1328355, "lon": 11.5594132}, {"type": "node", "id": 4467806342, "lat": 48.1317846, "lon": 11.5586617}, {"type": "node", "id": 4467806343, "lat": 48.1304859, "lon": 11.5586259}, {"type": "node", "id": 4521483553, "lat": 48.1544675, "lon": 11.5513405}, {"type": "node", "id": 4522058054, "lat": 48.1532261, "lon": 11.5490759}, {"type": "node", "id": 4522058055, "lat": 48.1532406, "lon": 11.5491024, "tags": {"barrier": "gate", "locked": "yes"}}, {"type": "node", "id": 4522058056, "lat": 48.1540774, "lon": 11.550629, "tags": {"barrier": "gate", "locked": "yes"}}, {"type": "node", "id": 4522058057, "lat": 48.1543583, "lon": 11.5514748}, {"type": "node", "id": 4522058058, "lat": 48.1544893, "lon": 11.5521928}, {"type": "node", "id": 4522058059, "lat": 48.1544485, "lon": 11.5521172}, {"type": "node", "id": 4522058060, "lat": 48.154393, "lon": 11.5521845}, {"type": "node", "id": 4522058061, "lat": 48.1541342, "lon": 11.5517252}, {"type": "node", "id": 4522058062, "lat": 48.1539901, "lon": 11.5518857}, {"type": "node", "id": 4522058063, "lat": 48.1535618, "lon": 11.5512021}, {"type": "node", "id": 4522058064, "lat": 48.1531133, "lon": 11.5515102}, {"type": "node", "id": 4522058065, "lat": 48.1529635, "lon": 11.5512431}, {"type": "node", "id": 4522058066, "lat": 48.1524306, "lon": 11.550264, "tags": {"barrier": "gate", "locked": "yes"}}, {"type": "node", "id": 4522058067, "lat": 48.1523358, "lon": 11.550095}, {"type": "node", "id": 4522058068, "lat": 48.152139, "lon": 11.5497313}, {"type": "node", "id": 4596918702, "lat": 48.1481458, "lon": 11.5507314}, {"type": "node", "id": 5110996243, "lat": 48.1266722, "lon": 11.5493435, "tags": {"addr:city": "M\u00fcnchen", "addr:country": "DE", "addr:housenumber": "46", "addr:postcode": "80336", "addr:street": "Bavariaring", "amenity": "hospital", "beds": "52", "email": "info@maria-theresia-klinik.de", "healthcare": "hospital", "healthcare:speciality": "internal;surgery", "name": "Maria-Theresia-Klinik", "official_name": "Maria-Theresia-Klinik - Fachklinik f\u00fcr Chirurgie und Innere Medizin", "operator": "Kongregation der Barmherzigen Schwestern vom hl. Vinzenz von Paul", "operator:type": "religious", "phone": "+49 89 7207-1", "website": "https://www.maria-theresia-klinik.de/", "wheelchair": "no", "wikidata": "Q98644173"}}, {"type": "node", "id": 10925216178, "lat": 48.1457217, "lon": 11.5814508}, {"type": "node", "id": 11143446846, "lat": 48.1302067, "lon": 11.5544165}, {"type": "node", "id": 11143446847, "lat": 48.1304177, "lon": 11.5544443}, {"type": "node", "id": 11143446848, "lat": 48.1304927, "lon": 11.5547697}, {"type": "node", "id": 11143446849, "lat": 48.1304345, "lon": 11.5552366}, {"type": "node", "id": 11143446850, "lat": 48.1301423, "lon": 11.5551969}, {"type": "node", "id": 13020895072, "lat": 48.153687, "lon": 11.5499168, "tags": {"barrier": "gate", "locked": "yes", "material": "metal", "motor_vehicle": "no"}}, {"type": "node", "id": 13084905848, "lat": 48.145765, "lon": 11.5810912}, {"type": "node", "id": 13084905851, "lat": 48.1457481, "lon": 11.5810873}, {"type": "node", "id": 13084905855, "lat": 48.1453202, "lon": 11.5813145}, {"type": "node", "id": 13084905856, "lat": 48.1453257, "lon": 11.5813163}, {"type": "node", "id": 13084905857, "lat": 48.145375, "lon": 11.580985}, {"type": "node", "id": 13084905878, "lat": 48.1453352, "lon": 11.5812234}, {"type": "node", "id": 13254600380, "lat": 48.1489747, "lon": 11.5501341}, {"type": "node", "id": 13272390575, "lat": 48.1488601, "lon": 11.550938, "tags": {"barrier": "gate"}}, {"type": "node", "id": 13272390576, "lat": 48.1489163, "lon": 11.5506623, "tags": {"barrier": "gate"}}, {"type": "node", "id": 13272390577, "lat": 48.1489799, "lon": 11.5503411, "tags": {"barrier": "gate"}}, {"type": "node", "id": 13272390586, "lat": 48.1488696, "lon": 11.5508882, "tags": {"barrier": "gate"}}, {"type": "node", "id": 13272390587, "lat": 48.148143, "lon": 11.5507437}, {"type": "node", "id": 13272390588, "lat": 48.148765, "lon": 11.5500428}, {"type": "node", "id": 13272390589, "lat": 48.1486965, "lon": 11.5498907}, {"type": "node", "id": 13272390590, "lat": 48.1486536, "lon": 11.5498419}, {"type": "node", "id": 13272390591, "lat": 48.1482788, "lon": 11.5503531}, {"type": "node", "id": 13272390592, "lat": 48.1484224, "lon": 11.5508693}, {"type": "node", "id": 13272390593, "lat": 48.1485778, "lon": 11.5508581}, {"type": "node", "id": 13272390594, "lat": 48.148852, "lon": 11.5509865}, {"type": "node", "id": 13272390595, "lat": 48.1489946, "lon": 11.5502673}, {"type": "node", "id": 13272390596, "lat": 48.1489565, "lon": 11.5502191}, {"type": "node", "id": 13377785260, "lat": 48.15443, "lon": 11.5513867, "tags": {"access": "permissive", "addr:city": "M\u00fcnchen", "addr:housenumber": "60b", "addr:postcode": "80636", "addr:street": "Lazarettstra\u00dfe", "door": "yes", "entrance": "main", "wheelchair": "yes"}}, {"type": "way", "id": 8056138, "nodes": [60234227, 4463349410, 4467806341, 1430426220, 4463349411, 4463349412, 60234228, 60234229, 614877701, 614881495, 1098025405, 1098025404, 4464657469, 4464657472, 1250148922, 4464657478, 4464657483, 4464657484, 4464657485, 4464657486, 4464657589, 4464657488, 4463750738, 60234230, 3049670436, 1143597272, 4467806343, 4463750736, 4463750735, 2470460889, 4467806342, 2470460888, 60234227], "tags": {"addr:city": "M\u00fcnchen", "addr:housenumber": "1", "addr:postcode": "80336", "addr:street": "Ziemssenstra\u00dfe", "alt_name": "Portalklinik", "amenity": "hospital", "emergency": "yes", "healthcare": "hospital", "name": "LMU Klinikum Campus Innenstadt", "operator": "Ludwig-Maximilians-Universit\u00e4t", "operator:short": "LMU", "operator:type": "university", "operator:wikidata": "Q55044", "operator:wikipedia": "de:Ludwig-Maximilians-Universit\u00e4t M\u00fcnchen", "phone": "+49 89 44000"}}, {"type": "way", "id": 8056619, "nodes": [4261040832, 1349035369, 2453469193, 1349035385, 2453469198, 1349035409, 1349035411, 60239032, 1349035414, 60239033, 1412416014, 1419327414, 1419327416, 2450493132, 1419327418, 1419327420, 60239034, 4261040832], "tags": {"addr:city": "M\u00fcnchen", "addr:country": "DE", "addr:housenumber": "48", "addr:postcode": "80337", "addr:street": "Thalkirchner Stra\u00dfe", "amenity": "hospital", "barrier": "wall", "emergency": "no", "fax": "+49 89 51476403", "healthcare": "hospital", "healthcare:speciality": "dermatology;allergology", "name": "M\u00fcnchen Klinik Thalkirchner Stra\u00dfe", "operator": "St\u00e4dtisches Klinikum M\u00fcnchen GmbH", "phone": "+49 89 1476011", "website": "https://www.muenchen-klinik.de/krankenhaus/thalkirchner-strasse/", "wheelchair": "limited", "wikidata": "Q1687174"}}, {"type": "way", "id": 174549561, "nodes": [1852212525, 1852212452, 4522058068, 4522058067, 4522058066, 4522058065, 4522058064, 1852212561, 4522058063, 4522058062, 4522058061, 4522058060, 4522058059, 4522058058, 201402252, 4522058057, 13377785260, 4521483553, 201402251, 4522058056, 13020895072, 4522058055, 4522058054, 1852212704, 1852212740, 1852212525], "tags": {"addr:city": "M\u00fcnchen", "addr:country": "DE", "addr:housenumber": "36", "addr:postcode": "80636", "addr:street": "Lazarettstra\u00dfe", "amenity": "hospital", "check_date": "2025-02-19", "email": "dhm@dhm.mhn.de", "emergency": "yes", "healthcare": "hospital", "healthcare:speciality": "cardiology", "name": "TUM Klinikum Deutsches Herzzentrum", "name:en": "TUM University Hospital German Heart Center", "phone": "+49 89 1218-0", "website": "https://www.deutsches-herzzentrum-muenchen.de/", "wheelchair": "yes", "wikidata": "Q1205693", "wikipedia": "de:Deutsches Herzzentrum M\u00fcnchen"}}, {"type": "way", "id": 1201919908, "nodes": [11143446846, 11143446847, 11143446848, 11143446849, 11143446850, 11143446846], "tags": {"addr:city": "M\u00fcnchen", "addr:country": "DE", "addr:housenumber": "14a-16", "addr:postcode": "80336", "addr:street": "Mozartstra\u00dfe", "amenity": "hospital", "contact:email": "info-muc@artemed.de", "contact:fax": "+49 89 51409167", "contact:phone": "+49 89 514090", "contact:website": "https://www.artemedmuenchen.de/", "healthcare": "hospital", "healthcare:speciality": "phlebology", "name": "Artemed Fachklinik M\u00fcnchen", "operator": "Artemed-Fachklinik M\u00fcnchen GmbH & Co. KG"}}, {"type": "way", "id": 1423630775, "nodes": [13084905848, 13084905851, 2580966481, 2580966490, 2580966491, 2580966498, 2580966501, 13084905857, 13084905878, 973746104, 13084905855, 13084905856, 2580966503, 2580966506, 973745936, 973746000, 973746055, 973746138, 10925216178, 973746015, 13084905848], "tags": {"amenity": "hospital", "beds": "70", "email": "info@josephinum.de", "healthcare": "hospital", "healthcare:speciality": "surgery;orthopaedics;internal;otolaryngology;anaesthetics", "name": "Josephinum", "opening_hours:visitors": "14:00-18:00", "operator": "Klinik Josephinum gemeinn\u00fctzige AG", "operator:type": "private_non_profit", "phone": "+49 89 23688-0", "website": "https://www.josephinum.de", "wikidata": "Q18018035"}}, {"type": "way", "id": 1446522229, "nodes": [13254600380, 13272390596, 13272390595, 13272390577, 13272390576, 13272390586, 13272390575, 13272390594, 13272390593, 13272390592, 13272390587, 4596918702, 1320044896, 1320044910, 13272390591, 1320044938, 1320044951, 1320044956, 1320045031, 13272390590, 13272390589, 13272390588, 13254600380], "tags": {"amenity": "hospital", "healthcare": "hospital", "healthcare:speciality": "ophthalmology", "name": "Augenklinik Herzog Carl Theodor", "name:en": "Eye Clinic Herzog Carl Theodor", "operator": "Stiftung Augenklinik Herzog Carl Theodor", "smoking": "no", "website": "https://www.augenklinik-muenchen.de/", "wheelchair": "yes", "wikidata": "Q510979"}}]}