{"version": 0.6, "generator": "Overpass API 0.7.62.8 e802775f", "osm3s": {"timestamp_osm_base": "2026-01-13T08:37:23Z", "copyright": "The data included in this document is from www.openstreetmap.org. The data is made available under ODbL."}, "elements": [{"type": "node", "id": 296357673, "lat": 19.0958706, "lon": 72.827149, "tags": {"barrier": "gate"}}, {"type": "node", "id": 296357688, "lat": 19.095982, "lon": 72.8279757}, {"type": "node", "id": 296357695, "lat": 19.0963098, "lon": 72.8278511}, {"type": "node", "id": 296357706, "lat": 19.0962642, "lon": 72.8271191}, {"type": "node", "id": 1514451610, "lat": 19.0750577, "lon": 72.8262477, "tags": {"bus": "yes", "highway": "bus_stop", "name": "Dandpada Bus Stop", "operator": "BEST Mumbai", "public_transport": "platform", "ref": "56,51,220."}}, {"type": "node", "id": 1641730250, "lat": 19.0747178, "lon": 72.8228706, "tags": {"bench": "yes", "bus": "yes", "highway": "bus_stop", "name": "Khardanda", "public_transport": "platform", "shelter": "yes", "tactile_paving": "no"}}, {"type": "node", "id": 1641769633, "lat": 19.0708221, "lon": 72.8229438, "tags": {"bus": "yes", "highway": "bus_stop", "name": "Sherli Gaon", "public_transport": "platform"}}, {"type": "node", "id": 1641769647, "lat": 19.0702925, "lon": 72.822447, "tags": {"bus": "yes", "highway": "bus_stop", "public_transport": "platform"}}, {"type": "node", "id": 2131087596, "lat": 19.1219328, "lon": 72.8257301, "tags": {"bus": "yes", "highway": "bus_stop", "name": "Juhu Versova Link Road", "public_transport": "platform", "shelter": "yes", "tactile_paving": "yes"}}, {"type": "node", "id": 2131087597, "lat": 19.1234006, "lon": 72.8244339, "tags": {"bench": "yes", "bus": "yes", "highway": "bus_stop", "name": "Juhu Versova Link Road", "public_transport": "platform", "shelter": "yes", "tactile_paving": "yes"}}, {"type": "node", "id": 2131087639, "lat": 19.1238299, "lon": 72.8240313, "tags": {"bench": "yes", "bus": "yes", "highway": "bus_stop", "public_transport": "platform", "shelter": "yes", "tactile_paving": "no"}}, {"type": "node", "id": 2131095070, "lat": 19.1209933, "lon": 72.8265373, "tags": {"bench": "yes", "bus": "yes", "highway": "bus_stop", "name": "Abhishek Society", "public_transport": "platform", "shelter": "yes", "tactile_paving": "yes"}}, {"type": "node", "id": 2392363986, "lat": 19.1077415, "lon": 72.8264768}, {"type": "node", "id": 2392363987, "lat": 19.1077319, "lon": 72.8267008}, {"type": "node", "id": 2449757353, "lat": 19.0481917, "lon": 72.8250874, "tags": {"bench": "no", "bin": "no", "bus": "yes", "highway": "bus_stop", "name": "Mount Mary Steps", "name:en": "Mount Mary Steps", "public_transport": "platform", "shelter": "no"}}, {"type": "node", "id": 2449757414, "lat": 19.0474972, "lon": 72.8269878}, {"type": "node", "id": 2449757418, "lat": 19.0478369, "lon": 72.826277}, {"type": "node", "id": 2449757420, "lat": 19.0481586, "lon": 72.8271291}, {"type": "node", "id": 2449757421, "lat": 19.0483935, "lon": 72.8264524}, {"type": "node", "id": 2841960948, "lat": 19.0526477, "lon": 72.8241777, "tags": {"alt_name": "Mehboob Studio", "alt_name:en": "Mehboob Studio", "bench": "yes", "bin": "no", "bus": "yes", "highway": "bus_stop", "name": "Hill Road Garden", "name:en": "Hill Road Garden", "operator": "BEST", "public_transport": "platform", "shelter": "yes"}}, {"type": "node", "id": 2841960949, "lat": 19.0518136, "lon": 72.8241777, "tags": {"alt_name": "Mehboob Studio", "alt_name:en": "Mehboob Studio", "bench": "yes", "bin": "no", "bus": "yes", "highway": "bus_stop", "name": "Hill Road Garden", "name:en": "Hill Road Garden", "operator": "BEST", "public_transport": "platform", "shelter": "yes"}}, {"type": "node", "id": 2851477516, "lat": 19.0480965, "lon": 72.8258507, "tags": {"bench": "yes", "bin": "no", "bus": "yes", "highway": "bus_stop", "name": "St. Baptist House", "name:en": "St. Baptist House", "name:hi": "\u090f\u0938.\u091f\u0940 \u092c\u093e\u092a\u094d\u091f\u093f\u0938\u094d\u091f \u0939\u093e\u0909\u0938", "name:mr": "\u090f\u0938.\u091f\u0940 \u092c\u093e\u092a\u094d\u091f\u093f\u0938\u094d\u091f \u0939\u093e\u0909\u0938", "operator": "BEST", "public_transport": "platform", "shelter": "yes"}}, {"type": "node", "id": 4811917222, "lat": 19.0446272, "lon": 72.8188582, "tags": {"bench": "yes", "bus": "yes", "highway": "bus_stop", "name": "Father Agnel Ashram", "operator": "BEST", "public_transport": "platform", "shelter": "yes"}}, {"type": "node", "id": 5234941334, "lat": 19.048694, "lon": 72.8212303, "tags": {"bus": "yes", "highway": "bus_stop", "name": "Sister Bungalow", "operator": "BEST", "public_transport": "platform"}}, {"type": "node", "id": 5257269335, "lat": 19.0452107, "lon": 72.8193366, "tags": {"bus": "yes", "highway": "bus_stop", "name": "Father Agnel Ashram", "operator": "BEST", "public_transport": "platform"}}, {"type": "node", "id": 5257269336, "lat": 19.0463299, "lon": 72.8195669, "tags": {"bench": "yes", "bin": "no", "bus": "yes", "highway": "bus_stop", "name": "Bandstand", "operator": "BEST", "public_transport": "platform", "shelter": "yes"}}, {"type": "node", "id": 5258276321, "lat": 19.0494007, "lon": 72.8208327, "tags": {"bus": "yes", "highway": "bus_stop", "name": "Sister Bungalow", "name:en": "Sister Bungalow", "operator": "BEST", "public_transport": "platform"}}, {"type": "node", "id": 5258276330, "lat": 19.0507712, "lon": 72.821807, "tags": {"bus": "yes", "highway": "bus_stop", "name": "Prarthnalaya", "operator": "BEST", "public_transport": "platform", "shelter": "no"}}, {"type": "node", "id": 5258276331, "lat": 19.0517004, "lon": 72.821692, "tags": {"bus": "yes", "highway": "bus_stop", "name": "Prarthnalaya", "operator": "BEST", "public_transport": "platform"}}, {"type": "node", "id": 5258276333, "lat": 19.0542349, "lon": 72.8231, "tags": {"bus": "yes", "highway": "bus_stop", "name": "Galaxy Apartments", "operator": "BEST", "public_transport": "platform"}}, {"type": "node", "id": 5258276336, "lat": 19.0528633, "lon": 72.8239857, "tags": {"alt_name": "Mehboob Studio", "alt_name:en": "Mehboob Studio", "bench": "yes", "bin": "no", "bus": "yes", "highway": "bus_stop", "name": "Hill Road Garden", "name:en": "Hill Road Garden", "operator": "BEST", "public_transport": "platform", "shelter": "yes"}}, {"type": "node", "id": 5270177962, "lat": 19.0547676, "lon": 72.8258007, "tags": {"addr:street": "Hill Road", "bench": "yes", "bin": "no", "bus": "yes", "highway": "bus_stop", "name": "St. Andrew's Church", "name:en": "St. Andrew's Church", "operator": "BEST", "public_transport": "platform", "shelter": "yes"}}, {"type": "node", "id": 5332861148, "lat": 19.0596961, "lon": 72.82622, "tags": {"bench": "yes", "bus": "yes", "highway": "bus_stop", "name": "D'Monte Park", "operator": "BEST", "public_transport": "platform", "shelter": "yes", "wheelchair": "no"}}, {"type": "node", "id": 5332861149, "lat": 19.059652, "lon": 72.8260794, "tags": {"bench": "yes", "bus": "yes", "highway": "bus_stop", "name": "D'Monte Park", "operator": "BEST", "public_transport": "platform", "shelter": "yes", "wheelchair": "no"}}, {"type": "node", "id": 5332861150, "lat": 19.0598893, "lon": 72.8239685, "tags": {"bench": "yes", "bus": "yes", "highway": "bus_stop", "name": "Perry Cross Rd", "operator": "BEST", "public_transport": "platform", "shelter": "yes", "wheelchair": "no"}}, {"type": "node", "id": 5332861151, "lat": 19.0599285, "lon": 72.8237263, "tags": {"bench": "yes", "bus": "yes", "highway": "bus_stop", "name": "Perry Cross Rd", "operator": "BEST", "public_transport": "platform", "shelter": "yes", "wheelchair": "no"}}, {"type": "node", "id": 5332861152, "lat": 19.0636621, "lon": 72.8228376, "tags": {"bench": "yes", "bus": "yes", "highway": "bus_stop", "name": "Additional Commissioner of Police", "operator": "BEST", "public_transport": "platform", "shelter": "yes", "wheelchair": "no"}}, {"type": "node", "id": 5332861153, "lat": 19.0625391, "lon": 72.8222696, "tags": {"bench": "yes", "bus": "yes", "highway": "bus_stop", "name": "Additional Commisioner of Police", "operator": "BEST", "public_transport": "platform", "shelter": "yes", "wheelchair": "no"}}, {"type": "node", "id": 5332918332, "lat": 19.0661453, "lon": 72.8231354, "tags": {"bench": "yes", "bus": "yes", "check_date:shelter": "2024-09-25", "highway": "bus_stop", "name": "Rizvi Complex", "operator": "BEST", "public_transport": "platform", "shelter": "yes", "wheelchair": "no"}}, {"type": "node", "id": 5332918333, "lat": 19.0662286, "lon": 72.822963, "tags": {"bench": "yes", "bus": "yes", "check_date:shelter": "2024-09-25", "highway": "bus_stop", "name": "Rizvi Complex", "operator": "BEST", "public_transport": "platform", "shelter": "yes", "wheelchair": "no"}}, {"type": "node", "id": 5472132423, "lat": 19.1033266, "lon": 72.826946, "tags": {"bus": "yes", "highway": "bus_stop", "name": "Juhu Hotel", "name:en": "Juhu Hotel", "name:hi": "\u091c\u0941\u0939\u0942 \u0939\u094b\u091f\u0932", "name:mr": "\u091c\u0941\u0939\u0942 \u0939\u094b\u091f\u0932", "public_transport": "platform", "shelter": "yes"}}, {"type": "node", "id": 5472134324, "lat": 19.120773, "lon": 72.826491, "tags": {"bench": "yes", "bus": "yes", "highway": "bus_stop", "name": "Abhishek Society", "public_transport": "platform", "shelter": "yes"}}, {"type": "node", "id": 5494560190, "lat": 19.0477052, "lon": 72.8255723, "tags": {"bus": "yes", "highway": "bus_stop", "name": "John Baptist Road", "name:en": "John Baptist Road", "operator": "BEST", "public_transport": "platform"}}, {"type": "node", "id": 5494560213, "lat": 19.046883, "lon": 72.8200868, "tags": {"bus": "yes", "highway": "bus_stop", "name": "Bandstand", "operator": "BEST", "public_transport": "platform"}}, {"type": "node", "id": 7158578179, "lat": 19.1052897, "lon": 72.827051, "tags": {"bench": "yes", "bus": "yes", "highway": "bus_stop", "name": "Juhu Hotel", "public_transport": "platform", "ref": "05193", "route_ref": "28;56;231;355;203;255", "shelter": "yes"}}, {"type": "node", "id": 7158578181, "lat": 19.1065977, "lon": 72.8269614, "tags": {"bench": "yes", "bus": "yes", "highway": "bus_stop", "name": "Juhu Bus Station", "name:en": "Juhu Bus Station", "name:hi": "\u091c\u0941\u0939\u0942 \u092c\u0938 \u0938\u094d\u0925\u093e\u0928\u0915", "public_transport": "platform", "shelter": "yes"}}, {"type": "node", "id": 7158578182, "lat": 19.1067534, "lon": 72.8268404, "tags": {"bench": "yes", "bus": "yes", "highway": "bus_stop", "name": "Juhu Bus Station", "name:en": "Juhu Bus Station", "name:hi": "\u091c\u0941\u0939\u0942 \u092c\u0938 \u0938\u094d\u0925\u093e\u0928\u0915", "public_transport": "platform", "ref": "05059", "route_ref": "28;80", "shelter": "yes"}}, {"type": "node", "id": 7158649626, "lat": 19.1083713, "lon": 72.8265085}, {"type": "node", "id": 7158649628, "lat": 19.1078249, "lon": 72.8264921}, {"type": "node", "id": 7158649630, "lat": 19.1083646, "lon": 72.8266538}, {"type": "node", "id": 7158649632, "lat": 19.1076096, "lon": 72.8267357, "tags": {"bench": "yes", "bus": "yes", "highway": "bus_stop", "name": "Juhu Bus Station", "name:hi": "\u091c\u0941\u0939\u0942 \u092c\u0938 \u0938\u094d\u0925\u093e\u0928\u0915", "public_transport": "platform", "ref": "05060", "route_ref": "256;339", "shelter": "yes"}}, {"type": "node", "id": 7158649634, "lat": 19.1084284, "lon": 72.8266388}, {"type": "node", "id": 7158649635, "lat": 19.1084355, "lon": 72.8265249}, {"type": "node", "id": 7320270194, "lat": 19.0547078, "lon": 72.8274306, "tags": {"bench": "yes", "bin": "no", "bus": "yes", "highway": "bus_stop", "name": "Holy Family Bus Stop", "public_transport": "platform", "shelter": "yes"}}, {"type": "node", "id": 9138338116, "lat": 19.1249325, "lon": 72.8244474, "tags": {"bench": "yes", "name": "Versova View", "public_transport": "platform", "shelter": "yes"}}, {"type": "node", "id": 9138373717, "lat": 19.1232666, "lon": 72.824268, "tags": {"bench": "yes", "name": "Juhu Versova Link Road", "public_transport": "platform", "shelter": "yes"}}, {"type": "node", "id": 9139931199, "lat": 19.0971196, "lon": 72.826858, "tags": {"bench": "yes", "bin": "yes", "bus": "yes", "highway": "bus_stop", "lit": "yes", "name": "Juhu Beach", "name:en": "Juhu Beach", "name:hi": "\u091c\u0941\u0939\u0942 \u091a\u094c\u092a\u093e\u091f\u0940", "public_transport": "platform", "ref": "05065", "route_ref": "28;56;203;224;231;255;256;355", "shelter": "yes"}}, {"type": "node", "id": 9139946980, "lat": 19.0959763, "lon": 72.8274551, "tags": {"bench": "yes", "bus": "yes", "highway": "bus_stop", "name": "Juhu Chowpaty Bus Station", "name:hi": "\u091c\u0941\u0939\u0942 \u091a\u094c\u092a\u093e\u091f\u0940 \u092c\u0938 \u0938\u094d\u0925\u093e\u0928\u0915", "public_transport": "platform", "ref": "05055", "route_ref": "256", "shelter": "yes"}}, {"type": "node", "id": 9139966583, "lat": 19.0962978, "lon": 72.8274384, "tags": {"barrier": "entrance"}}, {"type": "node", "id": 9140907857, "lat": 19.1084206, "lon": 72.82667, "tags": {"bench": "yes", "bus": "yes", "highway": "bus_stop", "name": "Juhu Bus Station", "name:en": "Juhu Bus Station", "name:hi": "\u091c\u0941\u0939\u0942 \u092c\u0938 \u0938\u094d\u0925\u093e\u0928\u0915", "public_transport": "platform", "ref": "05060", "route_ref": "256;339", "shelter": "yes"}}, {"type": "node", "id": 10297892883, "lat": 19.0883297, "lon": 72.8271761, "tags": {"bus": "yes", "highway": "bus_stop", "public_transport": "platform", "shelter": "yes"}}, {"type": "node", "id": 11339568149, "lat": 19.048188, "lon": 72.8249936, "tags": {"bench": "no", "bin": "no", "bus": "yes", "highway": "bus_stop", "name": "Mount Mary Steps", "name:en": "Mount Mary Steps", "public_transport": "platform", "shelter": "no"}}, {"type": "node", "id": 11483837675, "lat": 19.0687139, "lon": 72.8229416, "tags": {"bench": "yes", "bus": "yes", "highway": "bus_stop", "name": "Rizvi College", "name:en": "Rizvi College", "public_transport": "platform", "shelter": "yes"}}, {"type": "node", "id": 12668986250, "lat": 19.0546492, "lon": 72.825898, "tags": {"addr:street": "Hill Road", "bench": "no", "bin": "no", "bus": "yes", "highway": "bus_stop", "name": "St. Andrew's Church", "operator": "BEST", "public_transport": "platform", "shelter": "no"}}, {"type": "node", "id": 13109066385, "lat": 19.0509207, "lon": 72.8275308, "tags": {"bench": "no", "bus": "yes", "highway": "bus_stop", "name": "Carmel Church", "name:en": "Carmel Church", "public_transport": "platform", "shelter": "no"}}, {"type": "node", "id": 13109066386, "lat": 19.0529554, "lon": 72.8240232, "tags": {"alt_name": "Mehboob Studio", "alt_name:en": "Mehboob Studio", "bench": "yes", "bin": "no", "bus": "yes", "highway": "bus_stop", "name": "Hill Road Garden", "name:en": "Hill Road Garden", "operator": "BEST", "public_transport": "platform", "shelter": "yes"}}, {"type": "node", "id": 13116555305, "lat": 19.0508979, "lon": 72.8274962, "tags": {"bench": "no", "bus": "yes", "highway": "bus_stop", "name": "Carmel Church", "name:en": "Carmel Church", "public_transport": "platform", "shelter": "no"}}, {"type": "node", "id": 13116555306, "lat": 19.0497115, "lon": 72.8264406, "tags": {"bench": "no", "bus": "yes", "highway": "bus_stop", "name": "Tobacco Company", "name:en": "Tobacco Company", "public_transport": "platform", "shelter": "no"}}, {"type": "node", "id": 13387708177, "lat": 19.115338, "lon": 72.823328, "tags": {"bench": "no", "bus": "yes", "covered": "no", "departures_board": "no", "name": "Vaikunth Dham", "name:hi": "\u0935\u0948\u0915\u0941\u0902\u0920 \u0927\u093e\u092e", "public_transport": "platform", "ref": "05163", "route_ref": "627", "shelter": "no", "sign": "yes", "tactile_paving": "no"}}, {"type": "node", "id": 13387718036, "lat": 19.1152677, "lon": 72.8232171, "tags": {"bench": "no", "bus": "yes", "covered": "no", "departures_board": "no", "name": "Vaikunth Dham", "name:hi": "\u0935\u0948\u0915\u0941\u0902\u0920 \u0927\u093e\u092e", "public_transport": "platform", "ref": "05164", "route_ref": "627", "shelter": "no", "sign": "yes", "tactile_paving": "no"}}, {"type": "way", "id": 27036772, "nodes": [296357673, 296357688, 296357695, 9139966583, 296357706, 296357673], "tags": {"amenity": "bus_station", "bus": "yes", "name": "Juhu Chowpati Bus Station", "name:en": "Juhu Chowpati Bus Station", "name:hi": "\u091c\u0941\u0939\u0942 \u091a\u094c\u092a\u093e\u091f\u0940 \u092c\u0938 \u0938\u094d\u0925\u093e\u0928\u0915", "public_transport": "station"}}, {"type": "way", "id": 237027559, "nodes": [2449757420, 2449757421, 2449757418, 2449757414, 2449757420], "tags": {"amenity": "bus_station", "bus": "yes", "name": "Bandra Reclamation Bus Station", "name:en": "Bandra Reclamation Bus Station", "operator": "BEST", "public_transport": "station"}}, {"type": "way", "id": 766478200, "nodes": [2392363986, 2392363987, 7158649630, 7158649634, 7158649635, 7158649626, 7158649628, 2392363986], "tags": {"amenity": "bus_station", "bus": "yes", "name": "Juhu Bus Station", "public_transport": "station"}}]}