{"version": 0.6, "generator": "Overpass API 0.7.62.8 e802775f", "osm3s": {"timestamp_osm_base": "2026-01-13T07:30:01Z", "copyright": "The data included in this document is from www.openstreetmap.org. The data is made available under ODbL."}, "elements": [{"type": "node", "id": 1174929416, "lat": 19.1597156, "lon": 72.8399209, "tags": {"addr:district": "Mumbai", "addr:full": "Siddarth Municipal General Hospital, Opp Motilal Nagar Post Office, Goregaon (W), Mumbai", "addr:postcode": "400104", "addr:state": "Maharashtra", "amenity": "hospital", "description": "Civil Hospital/General Hospital", "emergency": "yes", "healthcare": "hospital", "name": "Siddarth Municipal Hospital", "operator": "BMC", "operator:type": "government", "source": "OpenGovernmentData"}}, {"type": "node", "id": 2097757612, "lat": 19.2150169, "lon": 72.871778, "tags": {"amenity": "hospital", "healthcare": "hospital"}}, {"type": "node", "id": 2148673069, "lat": 19.1383055, "lon": 72.8099298}, {"type": "node", "id": 2148673071, "lat": 19.138164, "lon": 72.8094627}, {"type": "node", "id": 2148673121, "lat": 19.1376757, "lon": 72.8102108}, {"type": "node", "id": 2148673123, "lat": 19.1379854, "lon": 72.8091461}, {"type": "node", "id": 2148673134, "lat": 19.1376703, "lon": 72.8087569}, {"type": "node", "id": 2148673135, "lat": 19.137511, "lon": 72.8095858}, {"type": "node", "id": 2148673136, "lat": 19.1375056, "lon": 72.8098539}, {"type": "node", "id": 2148673144, "lat": 19.1373108, "lon": 72.8090762}, {"type": "node", "id": 2308143720, "lat": 19.1817598, "lon": 72.8532856}, {"type": "node", "id": 2411660992, "lat": 19.1806805, "lon": 72.8630713, "tags": {"amenity": "hospital", "emergency": "yes", "name": "Hyat Hosptal"}}, {"type": "node", "id": 3585584992, "lat": 19.2194151, "lon": 72.8380741}, {"type": "node", "id": 3585584993, "lat": 19.2194172, "lon": 72.8381493}, {"type": "node", "id": 3585585054, "lat": 19.2196295, "lon": 72.8380674}, {"type": "node", "id": 3585585055, "lat": 19.2196316, "lon": 72.8381426}, {"type": "node", "id": 3592053117, "lat": 19.181626, "lon": 72.8531471}, {"type": "node", "id": 3592053118, "lat": 19.1816398, "lon": 72.8531134}, {"type": "node", "id": 3592053119, "lat": 19.1816441, "lon": 72.8530842}, {"type": "node", "id": 3592053120, "lat": 19.18165, "lon": 72.8530433}, {"type": "node", "id": 3592053121, "lat": 19.1816537, "lon": 72.8531156}, {"type": "node", "id": 3592053122, "lat": 19.181658, "lon": 72.8530865}, {"type": "node", "id": 3592053124, "lat": 19.18171, "lon": 72.8531717}, {"type": "node", "id": 3592053126, "lat": 19.1818034, "lon": 72.8530683}, {"type": "node", "id": 3592053127, "lat": 19.1818125, "lon": 72.8529419}, {"type": "node", "id": 3592053130, "lat": 19.1818624, "lon": 72.8529768}, {"type": "node", "id": 3592053131, "lat": 19.1818646, "lon": 72.8529461}, {"type": "node", "id": 3592053133, "lat": 19.1818893, "lon": 72.8529789}, {"type": "node", "id": 3592053134, "lat": 19.1818915, "lon": 72.8529482}, {"type": "node", "id": 3592053135, "lat": 19.1819098, "lon": 72.8530942}, {"type": "node", "id": 3592053136, "lat": 19.1819201, "lon": 72.8529505}, {"type": "node", "id": 3592053137, "lat": 19.1819428, "lon": 72.853076}, {"type": "node", "id": 3592053138, "lat": 19.1819849, "lon": 72.8531616}, {"type": "node", "id": 3596174404, "lat": 19.1843907, "lon": 72.8423524}, {"type": "node", "id": 3596174405, "lat": 19.1843907, "lon": 72.8426404}, {"type": "node", "id": 3596174444, "lat": 19.1845202, "lon": 72.8423524}, {"type": "node", "id": 3596174445, "lat": 19.1845202, "lon": 72.8426404}, {"type": "node", "id": 3604756952, "lat": 19.1723225, "lon": 72.8738504}, {"type": "node", "id": 3604756953, "lat": 19.172337, "lon": 72.8740697}, {"type": "node", "id": 3604756954, "lat": 19.1723571, "lon": 72.8738478}, {"type": "node", "id": 3604756955, "lat": 19.172359, "lon": 72.8738764}, {"type": "node", "id": 3604756973, "lat": 19.1727354, "lon": 72.8738197}, {"type": "node", "id": 3604756974, "lat": 19.1727373, "lon": 72.8738483}, {"type": "node", "id": 3604756977, "lat": 19.172797, "lon": 72.8738151}, {"type": "node", "id": 3604756979, "lat": 19.1728116, "lon": 72.8740344}, {"type": "node", "id": 3638695753, "lat": 19.2204335, "lon": 72.8631359}, {"type": "node", "id": 3638695754, "lat": 19.2204122, "lon": 72.8628731}, {"type": "node", "id": 3638695763, "lat": 19.2205396, "lon": 72.8631314}, {"type": "node", "id": 3638695765, "lat": 19.2205314, "lon": 72.8628788}, {"type": "node", "id": 3642528546, "lat": 19.184452, "lon": 72.8424695}, {"type": "node", "id": 3642528547, "lat": 19.184452, "lon": 72.8425594}, {"type": "node", "id": 3642528551, "lat": 19.1845202, "lon": 72.8424695}, {"type": "node", "id": 3642528552, "lat": 19.1845202, "lon": 72.8425594}, {"type": "node", "id": 4498900764, "lat": 19.2007076, "lon": 72.8221715, "tags": {"addr:district": "Mumbai", "addr:full": "Bafhira Nagar Road, Near Jankalyan Nagar Police Chowky, Malad", "addr:postcode": "400095", "addr:state": "Maharashtra", "amenity": "hospital", "name": "Government General Hospital, Malwani Malad", "source": "OpenGovernmentData"}}, {"type": "node", "id": 5115140442, "lat": 19.206618, "lon": 72.8419209, "tags": {"addr:district": "Mumbai", "addr:full": "2-4/A, Kokil Kunj, Behind Patel Nagar, Kandivli (West)", "addr:postcode": "400067", "addr:state": "Maharashtra", "amenity": "hospital", "healthcare": "hospital", "name": "Dr. Vora's Premature Critical Care and General Hospital", "source": "OpenGovernmentData"}}, {"type": "node", "id": 5201099224, "lat": 19.1372375, "lon": 72.8366102, "tags": {"addr:street": "Hanuman Mandir road", "amenity": "hospital", "healthcare": "hospital", "name:en": "R G Stone"}}, {"type": "node", "id": 5355278561, "lat": 19.1408302, "lon": 72.8534183}, {"type": "node", "id": 5355278562, "lat": 19.1411038, "lon": 72.8529516}, {"type": "node", "id": 5355278563, "lat": 19.1412305, "lon": 72.8529543}, {"type": "node", "id": 5355278564, "lat": 19.1412381, "lon": 72.8543892}, {"type": "node", "id": 5355278565, "lat": 19.1408226, "lon": 72.8542042}, {"type": "node", "id": 5355278566, "lat": 19.1406307, "lon": 72.8539752}, {"type": "node", "id": 5937631031, "lat": 19.1467138, "lon": 72.8749806}, {"type": "node", "id": 5937631032, "lat": 19.147175, "lon": 72.8749913}, {"type": "node", "id": 5937631033, "lat": 19.1476463, "lon": 72.8752166}, {"type": "node", "id": 5937631034, "lat": 19.1480466, "lon": 72.8755116}, {"type": "node", "id": 5937631035, "lat": 19.1483406, "lon": 72.8758603}, {"type": "node", "id": 5937631036, "lat": 19.1484977, "lon": 72.8764021}, {"type": "node", "id": 5937631037, "lat": 19.1464909, "lon": 72.8768849}, {"type": "node", "id": 5937631038, "lat": 19.1464655, "lon": 72.8750342}, {"type": "node", "id": 6564629280, "lat": 19.2040615, "lon": 72.8489685, "tags": {"addr:city": "mumbai", "addr:housenumber": "Rajnikunj", "addr:postcode": "400067", "addr:street": "Mahatma Gandhi Road", "amenity": "hospital", "healthcare": "hospital", "healthcare:speciality": "homeopathy;clinic;family_medicine", "name": "Dr. Disha's Homoeopathy", "operator": "Dr. Disha Agashiwala"}}, {"type": "node", "id": 7042870633, "lat": 19.2020207, "lon": 72.827885, "tags": {"addr:district": "Mumbai", "addr:full": "B-1st Floor, Mitnayan C.H.S Ltd, Linking Road ,Ganesh Ngr,Kandivali(W)", "addr:postcode": "400067", "addr:state": "Maharashtra", "amenity": "hospital", "name": "Sumangal Hospital", "source": "OpenGovernmentData"}}, {"type": "node", "id": 7042873531, "lat": 19.1631084, "lon": 72.8434806, "tags": {"addr:district": "Mumbai", "addr:full": "Manali Alankar Soc., M.G.Road, Goregaon(W), Opposite Raga Hotel", "addr:postcode": "400062", "addr:state": "Maharashtra", "amenity": "hospital", "name": "Kapadia Multi Speciality Hospital", "operator:type": "private", "source": "OpenGovernmentData", "website": "https://www.kapadiahospital.com/"}}, {"type": "node", "id": 7042873546, "lat": 19.155501, "lon": 72.845498, "tags": {"addr:district": "Mumbai", "addr:full": "Omyx Bldg,S V Road Next To Bses Office Goregaon - West", "addr:postcode": "400104", "addr:state": "Maharashtra", "amenity": "hospital", "name": "Pooja Hospital, Mumbai", "source": "OpenGovernmentData"}}, {"type": "node", "id": 7042945057, "lat": 19.1932665, "lon": 72.8397135, "tags": {"addr:district": "Mumbai", "addr:full": "Anita Apartment, Groung Floor, Bavari Cross Road, Next To Dena Bank,Opposite Osite City Of Joy, Orlem", "addr:postcode": "400064", "addr:state": "Maharashtra", "amenity": "hospital", "name": "Dr. Bet Hospital and Polyclinic", "source": "OpenGovernmentData"}}, {"type": "node", "id": 7042997510, "lat": 19.1905421, "lon": 72.8463601, "tags": {"addr:district": "Mumbai", "addr:full": "Tagore Park, Opposite U T I Bank, A Wing, Flat No.4, S V Road, Opp Axis Bank", "addr:postcode": "400064", "addr:state": "Maharashtra", "amenity": "hospital", "name": "Manorama Hospital", "source": "OpenGovernmentData"}}, {"type": "node", "id": 7043003793, "lat": 19.1759439, "lon": 72.8463833, "tags": {"addr:district": "Mumbai", "addr:full": "Laxmipalace Above Feast India Restaurant Off S V Road Opp Sunder Nagar Malad West", "addr:postcode": "400064", "addr:state": "Maharashtra", "amenity": "hospital", "name": "Le Nest Hospital", "source": "OpenGovernmentData"}}, {"type": "node", "id": 7043038873, "lat": 19.2228876, "lon": 72.8574027, "tags": {"addr:district": "Mumbai", "addr:full": "A/6-9, Lilam Buld, Dattapada Road, Borivali(E)", "addr:postcode": "400066", "addr:state": "Maharashtra", "amenity": "hospital", "name": "Dr Parikhs Maternity, Gynaec, and General Hospital", "source": "OpenGovernmentData"}}, {"type": "node", "id": 7043038874, "lat": 19.2221415, "lon": 72.8550357, "tags": {"addr:district": "Mumbai", "addr:full": "Sidhivinayak Tower, Near Collecter Office, Natakwala Lane, Borivali(West)", "addr:postcode": "400092", "addr:state": "Maharashtra", "amenity": "hospital", "healthcare": "hospital", "name": "Dhanshri Hospital", "source": "OpenGovernmentData"}}, {"type": "node", "id": 7043038875, "lat": 19.2187028, "lon": 72.8523723, "tags": {"addr:district": "Mumbai", "addr:full": "C-212,Lancelot, S.V.Road, Borivali (W)", "addr:postcode": "400092", "addr:state": "Maharashtra", "amenity": "hospital", "healthcare:speciality": "plastic_surgery", "name": "Vasudhan Cosmetic Plastic Surgery Centre", "source": "OpenGovernmentData", "wheelchair": "yes"}}, {"type": "node", "id": 7043230054, "lat": 19.1930526, "lon": 72.8418451, "tags": {"addr:district": "Mumbai", "addr:full": "Malad(W)", "addr:postcode": "400064", "addr:state": "Maharashtra", "amenity": "hospital", "name": "Sunflowar Laboratory and Diagnostic Centre", "source": "OpenGovernmentData"}}, {"type": "node", "id": 7043397402, "lat": 19.1968922, "lon": 72.8736733, "tags": {"addr:district": "Mumbai", "addr:full": "No. 103 / B, Raj Tower, Lokhandwala Complex, Next To Alika Nagar, Akruli Road, Kandivali(E)", "addr:postcode": "400101", "addr:state": "Maharashtra", "amenity": "hospital", "name": "Shreeji Hospital (Kandivli)", "source": "OpenGovernmentData"}}, {"type": "node", "id": 7043397913, "lat": 19.2030731, "lon": 72.8470266, "tags": {"addr:district": "Mumbai", "addr:full": "1st Floor,Kalpataru,Mathuradas Road,Opposite Punjab National Bank,Kandivali (W)", "addr:postcode": "400067", "addr:state": "Maharashtra", "amenity": "hospital", "name": "Ankur Hospital", "source": "OpenGovernmentData"}}, {"type": "node", "id": 7043843797, "lat": 19.1857961, "lon": 72.8544543, "tags": {"addr:district": "Mumbai", "addr:full": "Gr. Floor, Ashmi Apartment , Bachani Nagar Road , Opposite Children's Academy School , Malad ( East )", "addr:postcode": "400097", "addr:state": "Maharashtra", "amenity": "hospital", "name": "Megha Surgical Hospital", "source": "OpenGovernmentData"}}, {"type": "node", "id": 7044023272, "lat": 19.2187787, "lon": 72.8523903, "tags": {"addr:district": "Mumbai", "addr:full": "C-113, Lancelot Building, SV Road, Shastri Nagar, Borivali West", "addr:postcode": "400092", "addr:state": "Maharashtra", "amenity": "hospital", "healthcare": "hospital", "name": "Shri Bala Hanuman Maternity & Surgical Hospital", "source": "OpenGovernmentData", "wheelchair": "yes"}}, {"type": "node", "id": 7044057691, "lat": 19.2039141, "lon": 72.8494285, "tags": {"addr:district": "Mumbai", "addr:full": "Shreeji Arcade, 3Road Floor, S.V. Road, Kandivilli (W)", "addr:postcode": "400067", "addr:state": "Maharashtra", "amenity": "hospital", "name": "Shah Surgical Hospital and Maternity Home P. Ltd.", "source": "OpenGovernmentData"}}, {"type": "node", "id": 7044610739, "lat": 19.213646, "lon": 72.8670365, "tags": {"addr:district": "Mumbai", "addr:full": "Gokul Nagari No1, Near Sai Dham Temple , 90 Ft Road, Opp Hdfc Bank, Western Express Highway,Thakur Complex , Kandivali East", "addr:postcode": "400101", "addr:state": "Maharashtra", "amenity": "hospital", "name": "Shree Sai Hospital, Mumbai", "source": "OpenGovernmentData"}}, {"type": "node", "id": 7044797317, "lat": 19.2133896, "lon": 72.8636751, "tags": {"addr:district": "Mumbai", "addr:full": "90 Feet Road , Near Cambrige School", "addr:postcode": "400101", "addr:state": "Maharashtra", "amenity": "hospital", "name": "Surbhi Life Care Hospital", "source": "OpenGovernmentData"}}, {"type": "node", "id": 7044982117, "lat": 19.1937801, "lon": 72.8394373, "tags": {"addr:district": "Mumbai", "addr:full": "C-Wing Meenakshi Apt , Orlem Marve Road Malad(W)", "addr:postcode": "400064", "addr:state": "Maharashtra", "amenity": "hospital", "name": "Adarsh Hospital, Mumbai", "source": "OpenGovernmentData"}}, {"type": "node", "id": 7045283817, "lat": 19.2213057, "lon": 72.8401212, "tags": {"addr:district": "Mumbai", "addr:full": "C-01, Parasmani, Chikuwadi, Shimpoli, Borivali (W)", "addr:postcode": "400092", "addr:state": "Maharashtra", "amenity": "hospital", "name": "Niramay Mother-Care Centre (Maternity and Surgical)", "source": "OpenGovernmentData"}}, {"type": "node", "id": 7045320931, "lat": 19.1888056, "lon": 72.8501675, "tags": {"addr:district": "Mumbai", "addr:full": "No. 186, Manchhubhai Road,Malad-East", "addr:postcode": "400097", "addr:state": "Maharashtra", "amenity": "hospital", "name": "Suchak Hospital", "source": "OpenGovernmentData"}}, {"type": "node", "id": 7045701178, "lat": 19.2149511, "lon": 72.8687109, "tags": {"addr:district": "Mumbai", "addr:full": "Kandivali(East)", "addr:postcode": "400101", "addr:state": "Maharashtra", "amenity": "hospital", "name": "Paramount Ganpati Health Care - Kandivali", "source": "OpenGovernmentData"}}, {"type": "node", "id": 7045750046, "lat": 19.1844402, "lon": 72.8514314, "tags": {"addr:district": "Mumbai", "addr:full": "Iqbal House, Rani Sati Marg, Pandit Solicitor Lane, Malad(East)", "addr:postcode": "400097", "addr:state": "Maharashtra", "amenity": "hospital", "name": "Anandpara Surgical and General Hospital", "source": "OpenGovernmentData"}}, {"type": "node", "id": 7047423152, "lat": 19.1743945, "lon": 72.8613845, "tags": {"addr:district": "Mumbai", "addr:full": "Goregaon", "addr:postcode": "400051", "addr:state": "Maharashtra", "amenity": "hospital", "name": "Tushar Maternity and Surgical Nursing Home", "source": "OpenGovernmentData"}}, {"type": "node", "id": 7047690741, "lat": 19.1880874, "lon": 72.8433922, "tags": {"addr:district": "Mumbai", "addr:full": "Divya Trusha, Mamlatdar Wadi Road, Malad- West", "addr:postcode": "400064", "addr:state": "Maharashtra", "amenity": "hospital", "name": "Abhijit Hospital", "source": "OpenGovernmentData"}}, {"type": "node", "id": 7047813835, "lat": 19.1813262, "lon": 72.8634739, "tags": {"addr:district": "Mumbai", "addr:full": "4, Neelam Appartment, Near Triveni Nagar, Kokani Pada, Kurar, Malad East", "addr:postcode": "400097", "addr:state": "Maharashtra", "amenity": "hospital", "name": "Suvidha Hospital and Iccu", "source": "OpenGovernmentData"}}, {"type": "node", "id": 7048041081, "lat": 19.2005212, "lon": 72.8714374, "tags": {"addr:district": "Mumbai", "addr:full": "1st Floor, Whispering Palms Shopping Center,Next To Kokhandwala Sales Office, Akurli Road, Kandivali(E)", "addr:postcode": "400101", "addr:state": "Maharashtra", "amenity": "hospital", "name": "DNA Multispeciality Hospital - Mumbai", "source": "OpenGovernmentData", "website": "https://dnahospital.in/"}}, {"type": "node", "id": 7048131898, "lat": 19.2208372, "lon": 72.8514703, "tags": {"addr:district": "Mumbai", "addr:full": "Rajvilla, B-Wing, Opposite May, Immacula School, Borivali (W)", "addr:postcode": "400092", "addr:state": "Maharashtra", "amenity": "hospital", "name": "Vibha Care Home", "source": "OpenGovernmentData", "wheelchair": "limited"}}, {"type": "node", "id": 7048433640, "lat": 19.2033581, "lon": 72.8524567, "tags": {"addr:district": "Mumbai", "addr:full": "Sukhsagar Bldg, 1st Floor,Near Prem Ashram,Akurli Cross Road,No.1,Kandivli East", "addr:postcode": "400101", "addr:state": "Maharashtra", "amenity": "hospital", "name": "Dr. Masurkar Hospital", "source": "OpenGovernmentData"}}, {"type": "node", "id": 7048562946, "lat": 19.1750295, "lon": 72.8459443, "tags": {"addr:district": "Mumbai", "addr:full": "Himachal Building, Opposite Sunder Nagar, S V Road", "addr:postcode": "400064", "addr:state": "Maharashtra", "amenity": "hospital", "name": "Maa Nursing Home and Netra Jyoti Eye Care Center", "operator:type": "private", "source": "OpenGovernmentData"}}, {"type": "node", "id": 7048562947, "lat": 19.1901368, "lon": 72.8441191, "tags": {"addr:district": "Mumbai", "addr:full": "61 Shreeji Apt, Ramchandra Lane, Opp Chate Classes, Malad West", "addr:postcode": "400064", "addr:state": "Maharashtra", "amenity": "hospital", "name": "Vardhaman Iccu and Nursing Home", "source": "OpenGovernmentData"}}, {"type": "node", "id": 7048747817, "lat": 19.215374, "lon": 72.8153551, "tags": {"addr:district": "Mumbai", "addr:full": "Plot No 6,R.S.C.7, Building Charkop Sector 8 ,Kandivali W,Behind Sai Prem", "addr:postcode": "400067", "addr:state": "Maharashtra", "amenity": "hospital", "name": "Dr.Reena Mokal Nursing Home and Polyclinic", "phone": "9324385177,9323409140.", "source": "OpenGovernmentData"}}, {"type": "node", "id": 7048747818, "lat": 19.1352084, "lon": 72.8140642, "tags": {"addr:district": "Mumbai", "addr:full": "Flat No 7, Near Police Officer progressive HSG, SOC near Agha Khan Baugh", "addr:postcode": "400061", "addr:state": "Maharashtra", "amenity": "hospital", "name": "Saket Maternity and Nursing Home", "source": "OpenGovernmentData"}}, {"type": "node", "id": 7048911653, "lat": 19.1468937, "lon": 72.8311546, "tags": {"addr:district": "Mumbai", "addr:full": "A-1 Ground Floor Building No 20, Manish Nagar 4. Bunglows Andheri (W)", "addr:postcode": "400053", "addr:state": "Maharashtra", "amenity": "hospital", "healthcare": "hospital", "name": "Vital Care Centre", "source": "OpenGovernmentData"}}, {"type": "node", "id": 7048956597, "lat": 19.2144825, "lon": 72.8671432, "tags": {"addr:district": "Mumbai", "addr:full": "Satyam Towers, 90 Feet.Road, Behind HDFC Bank, Kandivali (East)", "addr:postcode": "400101", "addr:state": "Maharashtra", "amenity": "hospital", "email": "doctor@enthospital.com", "name": "Speciality Ear Nose Throat Hospital", "operator:type": "private", "source": "OpenGovernmentData", "website": "http://www.enthospital.com/"}}, {"type": "node", "id": 7049047978, "lat": 19.1940087, "lon": 72.8392093, "tags": {"addr:district": "Mumbai", "addr:full": "3Road Floor, Deora Commercial Centre, Malad, Marve Road, Malad (West)", "addr:postcode": "400064", "addr:state": "Maharashtra", "amenity": "hospital", "name": "Neon Critical Care", "source": "OpenGovernmentData"}}, {"type": "node", "id": 7049051361, "lat": 19.1951758, "lon": 72.8475892, "tags": {"addr:district": "Mumbai", "addr:full": "123,Milap Apartment, 1st Floor, Opposite Milap Cinema, S. V. Road, Malad (West)", "addr:postcode": "400064", "addr:state": "Maharashtra", "amenity": "hospital", "name": "Darshan Orthopaedic and Surgical Clinic - Malad (W)", "source": "OpenGovernmentData"}}, {"type": "node", "id": 7049291708, "lat": 19.1660129, "lon": 72.8507602, "tags": {"addr:district": "Mumbai", "addr:full": "Arihant Above Bhandari Co-Op Bank,Next To Goregaon", "addr:postcode": "400068", "addr:state": "Maharashtra", "amenity": "hospital", "name": "Navjeevan Urology and Stone Care Centre", "source": "OpenGovernmentData"}}, {"type": "node", "id": 7049344773, "lat": 19.1433248, "lon": 72.8427203, "tags": {"addr:district": "Mumbai", "addr:full": "1st Floor, Aftab Classic, Opposite City Hospital, S.V Road, Jogeshwari(West)", "addr:postcode": "400102", "addr:state": "Maharashtra", "amenity": "hospital", "contact:phone": "2226771188", "email": "info@orbiteyehospital.in", "healthcare": "hospital", "name": "Orbit Eye Hospital, Mumbai", "operator:type": "private", "source": "OpenGovernmentData", "website": "https://orbiteyehospital.in/"}}, {"type": "node", "id": 7049374148, "lat": 19.1745533, "lon": 72.8640358, "tags": {"addr:district": "Mumbai", "addr:full": "54 Yashodham Enclave Opp Royal Challenge Hotel Film City Road Goregaon East", "addr:postcode": "400063", "addr:state": "Maharashtra", "amenity": "hospital", "name": "Enclave Maternity Home", "source": "OpenGovernmentData"}}, {"type": "node", "id": 7049558994, "lat": 19.2170609, "lon": 72.8507911, "tags": {"addr:city": "mumbai", "addr:district": "Mumbai", "addr:full": "101/A, Panchratna, V Moolji Nagar, Saibaba Mandir Road, Borivali West", "addr:housenumber": "6V82+R6V", "addr:postcode": "400092", "addr:state": "Maharashtra", "addr:street": "Swami Vivekanand Road", "amenity": "hospital", "emergency": "yes", "healthcare": "hospital", "healthcare:speciality": "general;surgery", "name": "Sanghvi Maternity and Surgical Hospital"}}, {"type": "node", "id": 7049684094, "lat": 19.2134884, "lon": 72.8641317, "tags": {"addr:district": "Mumbai", "addr:full": "90 Feet Road, Thakur Complex,Kandivali East", "addr:postcode": "400101", "addr:state": "Maharashtra", "amenity": "hospital", "email": "aditihospital@rediffmail.com", "name": "Aditi Hospital, Kandivali", "operator:type": "private", "source": "OpenGovernmentData", "website": "http://www.aditihospitals.com/"}}, {"type": "node", "id": 7049785373, "lat": 19.2078553, "lon": 72.8360476, "tags": {"addr:district": "Mumbai", "addr:full": "Nishita Apart., Dahanukar Wadi, M.G.Road, Kandivli (W)", "addr:postcode": "400067", "addr:state": "Maharashtra", "amenity": "hospital", "healthcare": "hospital", "name": "Raichura Prasuti Gruha", "source": "OpenGovernmentData"}}, {"type": "node", "id": 7049792673, "lat": 19.1811533, "lon": 72.8493192, "tags": {"addr:district": "Mumbai", "addr:full": "Lachhiramplaza, Ground Floor, D-Wing(Film City Road), Gen.A.K.Vaidya Marg, Goregaon(E)", "addr:postcode": "400063", "addr:state": "Maharashtra", "amenity": "hospital", "name": "Sudha Hospital and Polyclinic, Mumbai", "source": "OpenGovernmentData"}}, {"type": "node", "id": 7049981401, "lat": 19.187962, "lon": 72.8593138, "tags": {"addr:district": "Mumbai", "addr:full": "Nalanda Soceity,Kurar Villege", "addr:postcode": "400097", "addr:state": "Maharashtra", "amenity": "hospital", "name": "Sai Swayam MatandNur Home", "source": "OpenGovernmentData"}}, {"type": "node", "id": 7050319630, "lat": 19.1853768, "lon": 72.853927, "tags": {"addr:district": "Mumbai", "addr:full": "201,202, Manish Mandir Co- Op. Hag.Soc.Mansa Apt, , 2nd Floor, Kedarmal Road, Malad (E)", "addr:postcode": "400097", "addr:state": "Maharashtra", "amenity": "hospital", "name": "Jeevan Maternity and General Hospital", "source": "OpenGovernmentData"}}, {"type": "node", "id": 7050410994, "lat": 19.1812375, "lon": 72.8573692, "tags": {"addr:district": "Mumbai", "addr:full": "1-2 Ashish Chs, Raheja Township, Rani Sati Road, Near Sai Baba Temple, Malad East", "addr:postcode": "400097", "addr:state": "Maharashtra", "amenity": "hospital", "name": "Sai Krupa Hospital, Mumbai", "source": "OpenGovernmentData"}}, {"type": "node", "id": 7051069998, "lat": 19.1951536, "lon": 72.8748706, "tags": {"addr:district": "Mumbai", "addr:full": "1st Floor, Green Gagan Bldg, Mhada Layout,Plot No-14,Lokhandwala Township,Akurli Road,Kandivali(Eas)", "addr:postcode": "400101", "addr:state": "Maharashtra", "amenity": "hospital", "name": "Medha Maternity and Nursing Home - Kandivali (E) Mumbai", "source": "OpenGovernmentData"}}, {"type": "node", "id": 7051070001, "lat": 19.2183374, "lon": 72.8289404, "tags": {"addr:district": "Mumbai", "addr:full": "2,Ratnadeep, Sector 3, OppositeApna Bazaar,Near Saibaba Mandir, Charkop Kandivli (W)", "addr:postcode": "400067", "addr:state": "Maharashtra", "amenity": "hospital", "name": "Jaydeep Eye and Physiotherapy Clinic - Kandivli", "source": "OpenGovernmentData"}}, {"type": "node", "id": 7051070842, "lat": 19.1373789, "lon": 72.8466645, "tags": {"addr:district": "Mumbai", "addr:full": "Sharma Estate, Next To Dlwan Shopping Centre,S.V.Road, Jogeswari (W)", "addr:postcode": "400102", "addr:state": "Maharashtra", "amenity": "hospital", "name": "Mallika Hospital and Envision Eye Centre", "source": "OpenGovernmentData"}}, {"type": "node", "id": 7051345894, "lat": 19.2106923, "lon": 72.8257466, "tags": {"addr:district": "Mumbai", "addr:full": "Ground Floor, Gharkul, Charkop Modern Society, Sector No.1, Charkop, Kandivali West", "addr:postcode": "400067", "addr:state": "Maharashtra", "amenity": "hospital", "name": "Shakuntala Maternity Home", "source": "OpenGovernmentData"}}, {"type": "node", "id": 7051688587, "lat": 19.2062254, "lon": 72.8440869, "tags": {"addr:district": "Mumbai", "addr:full": "Neelyog Apts, Ground Floor, M. G. Road-4, Opposite Patel Nagar, Kandivali(W)", "addr:postcode": "400067", "addr:state": "Maharashtra", "amenity": "hospital", "name": "Nidhi Nursing Home and Iccu", "source": "OpenGovernmentData"}}, {"type": "node", "id": 7051973313, "lat": 19.1953626, "lon": 72.8319351, "tags": {"addr:district": "Mumbai", "addr:full": "Sahadev, Vishal Nagar, Mith Chowki, Marve Road, Malad (W)", "addr:postcode": "400064", "addr:state": "Maharashtra", "amenity": "hospital", "name": "Dr Pagruts Fracture Orthopaedic and Surgical Hospital", "source": "OpenGovernmentData"}}, {"type": "node", "id": 7051997345, "lat": 19.2185792, "lon": 72.8523032, "tags": {"addr:district": "Mumbai", "addr:full": "Municipal Corporation Of Greater Mumbai,108-113,Lancelot,S.V.Road,Borivli(W)", "addr:postcode": "400092", "addr:state": "Maharashtra", "amenity": "hospital", "name": "Shri Bala Hanuman Maternity and Surgical Hospital", "source": "OpenGovernmentData", "wheelchair": "yes"}}, {"type": "node", "id": 7052124558, "lat": 19.193877, "lon": 72.8474611, "tags": {"addr:district": "Mumbai", "addr:full": "559/1, Pushpachandra Apartment, S V Road, Riddhi Vinayak Temple Lane, Malad West", "addr:postcode": "400064", "addr:state": "Maharashtra", "amenity": "hospital", "name": "Riddhivinayak Critical Care and Cardiac Centre", "operator:type": "private", "source": "OpenGovernmentData", "website": "http://www.rvcc.co.in/"}}, {"type": "node", "id": 7052220015, "lat": 19.2017598, "lon": 72.856767, "tags": {"addr:district": "Mumbai", "addr:full": "A-101, Nagvekar Apartment, Akurli Road, Kandivali East", "addr:postcode": "400101", "addr:state": "Maharashtra", "amenity": "hospital", "name": "Saibaba Maternity and Nursing Home", "source": "OpenGovernmentData"}}, {"type": "node", "id": 7052285550, "lat": 19.1918378, "lon": 72.8437878, "tags": {"addr:district": "Mumbai", "addr:full": "Ashwin B Ground Floor, Marve Road, Malad (West)", "addr:postcode": "400064", "addr:state": "Maharashtra", "amenity": "hospital", "name": "Shree Surgical and Maternity Nursing Home", "source": "OpenGovernmentData"}}, {"type": "node", "id": 7052502073, "lat": 19.1845751, "lon": 72.8527451, "tags": {"addr:district": "Mumbai", "addr:full": "Bhavani Chambers, Kedarmal Road, Malad East", "addr:postcode": "400097", "addr:state": "Maharashtra", "amenity": "hospital", "name": "Sanjeevani Surgical and General Hospital", "source": "OpenGovernmentData"}}, {"type": "node", "id": 7052502074, "lat": 19.1842065, "lon": 72.8510258, "tags": {"addr:district": "Mumbai", "addr:full": "Ishwar Bhuvan, Pt.Solicitor Road, Off Rani Sati Marg, Malad East", "addr:postcode": "400097", "addr:state": "Maharashtra", "amenity": "hospital", "name": "Sanjeevani Chandrabhan Agrawal Charitable Trust Eye Hospital", "source": "OpenGovernmentData"}}, {"type": "node", "id": 7052744110, "lat": 19.1869158, "lon": 72.8405692, "tags": {"addr:district": "Mumbai", "addr:full": "Chheda Apartment Liberty Garden Cross Road No-3, Below Malad Sahakar Bank Malad(W)", "addr:postcode": "400064", "addr:state": "Maharashtra", "amenity": "hospital", "name": "The Laser Vision Centre", "source": "OpenGovernmentData"}}, {"type": "node", "id": 7052833529, "lat": 19.2014609, "lon": 72.8587666, "tags": {"addr:district": "Mumbai", "addr:full": "Shri Mira Co-Op Housing Societuy, Ankurli Road, Kandivali (E)", "addr:postcode": "400101", "addr:state": "Maharashtra", "amenity": "hospital", "name": "Sanchaiti Hospital", "source": "OpenGovernmentData"}}, {"type": "node", "id": 7052855546, "lat": 19.2056922, "lon": 72.8453777, "tags": {"addr:district": "Mumbai", "addr:full": "Kalyan Apt., M.G. Road, Behind Swaminarayan Temple, Kandivali(W)", "addr:postcode": "400067", "addr:state": "Maharashtra", "amenity": "hospital", "name": "Paarth Hospital", "source": "OpenGovernmentData"}}, {"type": "node", "id": 7052877579, "lat": 19.1898379, "lon": 72.8465733, "tags": {"addr:district": "Mumbai", "addr:full": "Khetan Appts., S.V.Road, Malad(W)", "addr:postcode": "400064", "addr:state": "Maharashtra", "amenity": "hospital", "name": "Saraogi Maternity and General Hospital", "source": "OpenGovernmentData"}}, {"type": "node", "id": 7053711443, "lat": 19.1988025, "lon": 72.8383416, "tags": {"addr:district": "Mumbai", "addr:full": "Tank Road, Next To Skywalk Tower, Near Orlem Church, End Of Shankar Lane Malad - West", "addr:postcode": "400064", "addr:state": "Maharashtra", "amenity": "hospital", "name": "Surana Hospital and Research Centre, Mumbai", "source": "OpenGovernmentData"}}, {"type": "node", "id": 7054166264, "lat": 19.1839215, "lon": 72.8498415, "tags": {"addr:city": "Mumbai", "addr:district": "Mumbai", "addr:full": "1st Floor, Ganga Jamuna Bldg., 16 Rani Sati Marg, Malad(E)", "addr:postcode": "400097", "addr:state": "Maharashtra", "addr:street": "Poddar Road", "amenity": "hospital", "emergency": "yes", "healthcare": "hospital", "healthcare:speciality": "orthodontics;ophthalmology", "name": "Krishna Eye Care Centre", "operator": "private clinic", "operator:type": "private", "source": "local knowledge"}}, {"type": "node", "id": 7054555638, "lat": 19.1809405, "lon": 72.8368664, "tags": {"addr:district": "Mumbai", "addr:full": "Divya Smurti, Opposite Toyata Showroom, Near Ichhapuri Hanuman Temple, Link Road, Malad(W)", "addr:postcode": "400064", "addr:state": "Maharashtra", "amenity": "hospital", "name": "Saraswati Hospital, Mumbai", "source": "OpenGovernmentData"}}, {"type": "node", "id": 7054594721, "lat": 19.2006415, "lon": 72.8485534, "tags": {"addr:district": "Mumbai", "addr:full": "Shri Mangubhai Dattani Bhavan, S V Road, S M Road Kandivali(W)", "addr:postcode": "400067", "addr:state": "Maharashtra", "amenity": "hospital", "name": "Khm Medical Centre Shree Kandivli Hitwardhak Mandal Kandivali", "source": "OpenGovernmentData"}}, {"type": "node", "id": 7054625890, "lat": 19.1361449, "lon": 72.8503498, "tags": {"addr:district": "Mumbai", "addr:full": "B3/4, Satellite Classic Caves Road, Near Jogeshwari Railway Station, Jogeshwari (East)", "addr:postcode": "400060", "addr:state": "Maharashtra", "amenity": "hospital", "healthcare": "hospital", "name": "Dr. Kamat's Hospital", "source": "OpenGovernmentData"}}, {"type": "node", "id": 7054797503, "lat": 19.1359498, "lon": 72.8520081, "tags": {"addr:district": "Mumbai", "addr:full": "Kesar Plaza, Caves Road, Station Road, Jogeshwari (E)", "addr:postcode": "400014", "addr:state": "Maharashtra", "amenity": "hospital", "healthcare": "hospital", "name": "Dr Kulkarni Hospital", "source": "OpenGovernmentData"}}, {"type": "node", "id": 7054831098, "lat": 19.1852661, "lon": 72.8471252, "tags": {"addr:district": "Mumbai", "addr:full": "Kashi Kunj(Sahajanand), 1st Flr, Next To Malad Shopping Centre, 62, S.V.Road, Malad(W)", "addr:postcode": "400064", "addr:state": "Maharashtra", "amenity": "hospital", "name": "Kumta Eye and Retina Clinic and Laser Center", "source": "OpenGovernmentData"}}, {"type": "node", "id": 7054965709, "lat": 19.2078566, "lon": 72.8266338, "tags": {"addr:district": "Mumbai", "addr:full": "1st Floor, Kesar Plaza, Charkop Market Above Noble Medical Store, Kandivali(W)", "addr:postcode": "400067", "addr:state": "Maharashtra", "amenity": "hospital", "name": "Matushree Maternity, Surgical and General Nursing Home", "source": "OpenGovernmentData"}}, {"type": "node", "id": 7055330884, "lat": 19.1386865, "lon": 72.8321403, "tags": {"addr:district": "Mumbai", "addr:full": "Spenta Mansion, S.V.Road, Andheri(W)", "addr:postcode": "400058", "addr:state": "Maharashtra", "amenity": "hospital", "healthcare": "hospital", "name": "Dr Eye Institute Pvt Ltd", "source": "OpenGovernmentData"}}, {"type": "node", "id": 7055739367, "lat": 19.1453506, "lon": 72.8230691, "tags": {"addr:district": "Mumbai", "addr:full": "33 Nebula 4Th Cross Road Lokhandwala Complex Andheri W", "addr:postcode": "400053", "addr:state": "Maharashtra", "amenity": "hospital", "name": "Pushpa Maternity Home", "source": "OpenGovernmentData"}}, {"type": "node", "id": 7062490982, "lat": 19.2064788, "lon": 72.8384505, "tags": {"addr:district": "Mumbai", "addr:full": "Atlanta, 1277/C, M. G. Road, Kandivali (W)", "addr:postcode": "400067", "addr:state": "Maharashtra", "amenity": "hospital", "healthcare": "hospital", "name": "Grace Maternity and Nursing Home - Kandivli (W)", "source": "OpenGovernmentData"}}, {"type": "node", "id": 7062712061, "lat": 19.2176029, "lon": 72.8478874, "tags": {"addr:city": "Mumbai", "addr:district": "Mumbai", "addr:full": "1st Floor,Trupti Building,Near Sai Temple,Sai Baba Nagar,Borivali(W)", "addr:housenumber": "Haridas nagar road", "addr:postcode": "400092", "addr:state": "Maharashtra", "addr:street": "Saibaba nagar", "amenity": "hospital", "emergency": "yes", "name": "Sai Sparsh Maternity and Nursing Home", "source": "OpenGovernmentData", "wheelchair": "yes"}}, {"type": "node", "id": 7063077054, "lat": 19.1864928, "lon": 72.8460878, "tags": {"addr:district": "Mumbai", "addr:full": "Param Ratan,1st Floor,OppositeNew Post Office,Jakaria Road,Malad(W)", "addr:postcode": "400097", "addr:state": "Maharashtra", "amenity": "hospital", "name": "Aditi Hospital, Mumbai", "source": "OpenGovernmentData"}}, {"type": "node", "id": 7063805583, "lat": 19.1950719, "lon": 72.8342687, "tags": {"addr:district": "Mumbai", "addr:full": "Parth Business Plaza, Mith Chowky, Malad West", "addr:postcode": "400064", "addr:state": "Maharashtra", "amenity": "hospital", "email": "info@zenithhospital.com", "name": "Zenith Hospital, Malad West", "operator:type": "private", "source": "OpenGovernmentData", "website": "https://zenithhospital.com/"}}, {"type": "node", "id": 7063808926, "lat": 19.2182323, "lon": 72.8682885, "tags": {"addr:district": "Mumbai", "addr:full": "Shops No 7 8 9 Link Road Malad West", "addr:postcode": "400064", "addr:state": "Maharashtra", "amenity": "hospital", "name": "Navkar Child Care Centre and Nursing Home", "source": "OpenGovernmentData"}}, {"type": "node", "id": 7064087335, "lat": 19.221495, "lon": 72.829037, "tags": {"addr:district": "Mumbai", "addr:full": "Sushila Sadan, Near Charkop Bus Depot & Mtnl, Kandivali(W)", "addr:postcode": "400067", "addr:state": "Maharashtra", "amenity": "hospital", "name": "Saraswati Hospital(Kandivali)", "source": "OpenGovernmentData"}}, {"type": "node", "id": 7064683480, "lat": 19.1976487, "lon": 72.8388378, "tags": {"addr:district": "Mumbai", "addr:full": "Ronda Apartments,Shankar Lane & Tank Lane Junction", "addr:postcode": "400001", "addr:state": "Maharashtra", "amenity": "hospital", "name": "Dr.Apte Maternity and Nursing Home", "source": "OpenGovernmentData"}}, {"type": "node", "id": 7064921237, "lat": 19.2229393, "lon": 72.8534102, "tags": {"addr:district": "Mumbai", "addr:full": "Ratan Apartment S V Road Opp Shimpoli Roadbetween Flyover Bridge And Dattapada Phatak Borivili", "addr:postcode": "400092", "addr:state": "Maharashtra", "amenity": "hospital", "name": "Fracture Care Hospital and Diagnostic Centre", "source": "OpenGovernmentData"}}, {"type": "node", "id": 7066497775, "lat": 19.1946863, "lon": 72.8334036, "tags": {"addr:district": "Mumbai", "addr:full": "A-1, Vikas Park, Linking Road, Opposite Uncle's Kitchen, Malad(W)", "addr:postcode": "400064", "addr:state": "Maharashtra", "amenity": "hospital", "name": "Vinayak Maternity and General Hospital", "source": "OpenGovernmentData"}}, {"type": "node", "id": 7066505750, "lat": 19.2069967, "lon": 72.8352108, "tags": {"addr:district": "Mumbai", "addr:full": "First Floor, Om Shivechha Chs Ltd Jun Of Link Road And M G Road Dahanukarwadi Kandivali West", "addr:postcode": "400067", "addr:state": "Maharashtra", "amenity": "hospital", "healthcare": "hospital", "name": "Arya Womens Health Care Centre Surgical and Maternity Home", "source": "OpenGovernmentData"}}, {"type": "node", "id": 7067113516, "lat": 19.1849348, "lon": 72.8450726, "tags": {"addr:district": "Mumbai", "addr:full": "Shree Dutt Apartment, Amarshi Road, Malad West", "addr:postcode": "400064", "addr:state": "Maharashtra", "amenity": "hospital", "name": "Jay Polyclinic Maternity Surgical Nursing Home and Eye Hospital", "source": "OpenGovernmentData"}}, {"type": "node", "id": 7067961276, "lat": 19.1455128, "lon": 72.8291899, "tags": {"addr:district": "Mumbai", "addr:full": "Bldg.No.15, Flat No.102,Mhada Complex,New Link Road,Near Oshiwara Police Station, Andheri (West)", "addr:postcode": "400053", "addr:state": "Maharashtra", "amenity": "hospital", "healthcare": "hospital", "name": "Dr. M.I.Doongerwala - andheri", "source": "OpenGovernmentData"}}, {"type": "node", "id": 7068099987, "lat": 19.1352922, "lon": 72.8542954, "tags": {"addr:district": "Mumbai", "addr:full": "4/5/6-C Janakdeep, J.P.Road, 7 Bunglows, Andherw)", "addr:postcode": "400061", "addr:state": "Maharashtra", "amenity": "hospital", "healthcare": "hospital", "name": "Piyush Hospital", "source": "OpenGovernmentData"}}, {"type": "node", "id": 7069632819, "lat": 19.1881001, "lon": 72.8498322, "tags": {"addr:district": "Mumbai", "addr:full": "74, Raj Chambers, Manchhubhai Road, Off Daftary Road, Near Station, Malad (East)", "addr:postcode": "400097", "addr:state": "Maharashtra", "amenity": "hospital", "name": "Devangi Hospital", "source": "OpenGovernmentData"}}, {"type": "node", "id": 7070737920, "lat": 19.1846986, "lon": 72.8470279, "tags": {"addr:district": "Mumbai", "addr:full": "33,Dattani Chembers,S.V.Road,OppositeBank Of Baroda,Near New Era Cinema,Malad(W)", "addr:postcode": "400064", "addr:state": "Maharashtra", "amenity": "hospital", "name": "Elite Maternity Home and Polyclinic", "source": "OpenGovernmentData"}}, {"type": "node", "id": 7070857483, "lat": 19.1439215, "lon": 72.8430556, "tags": {"addr:district": "Mumbai", "addr:full": "Hafizi House, S.V. Road, Oshiwara Jogeshwari(W)", "addr:postcode": "400102", "addr:state": "Maharashtra", "amenity": "hospital", "healthcare": "hospital", "name": "Shivam Netram Eye Hospital", "source": "OpenGovernmentData"}}, {"type": "node", "id": 7070859101, "lat": 19.2079921, "lon": 72.8365418, "tags": {"addr:district": "Mumbai", "addr:full": "Yashwant Hosp.Bldg., Datta Mandir Road, Off.M.G.Road, Dahanukar Wadi, Kandivli (West)", "addr:postcode": "400067", "addr:state": "Maharashtra", "amenity": "hospital", "healthcare": "hospital", "name": "Parvatibai Chavan Charitable Trust", "source": "OpenGovernmentData"}}, {"type": "node", "id": 7070859122, "lat": 19.1871007, "lon": 72.8503847, "tags": {"addr:district": "Mumbai", "addr:full": "22-23, Gr Floor, Diamond Plaza, Laxminarayan Shopping Centre, Opp Railway Station, Malad", "addr:postcode": "400064", "addr:state": "Maharashtra", "amenity": "hospital", "name": "Royal Health Care Pvt Ltd", "source": "OpenGovernmentData"}}, {"type": "node", "id": 7072544642, "lat": 19.2204968, "lon": 72.8584112, "tags": {"addr:district": "Mumbai", "addr:full": "17/120, Swagat Cooperative Housing Society Limited, Mhada Colony, F.C.I Road, Near Railway Flyover, Rajendra Nagar, Borivali East", "addr:postcode": "400066", "addr:state": "Maharashtra", "amenity": "hospital", "name": "Navjivan Global Heart Centre", "source": "OpenGovernmentData"}}, {"type": "node", "id": 7073099556, "lat": 19.139644, "lon": 72.8435008, "tags": {"addr:district": "Mumbai", "addr:full": "105, First Floor , Markaz View, Opposite Excel Industries , S.V Road, Jogeshwari(W)", "addr:postcode": "400059", "addr:state": "Maharashtra", "amenity": "hospital", "healthcare": "hospital", "name": "Diamond Hospital", "source": "OpenGovernmentData"}}, {"type": "node", "id": 7073438341, "lat": 19.2063698, "lon": 72.8392328, "tags": {"addr:district": "Mumbai", "addr:full": "Assumption View,Opp St.Joseph School, Off. M G Road,Kandivali Village,Kandivali West", "addr:postcode": "400101", "addr:state": "Maharashtra", "amenity": "hospital", "name": "Noble Hospital, Mumbai", "source": "OpenGovernmentData"}}, {"type": "node", "id": 7073537767, "lat": 19.1668553, "lon": 72.8518874, "tags": {"addr:district": "Mumbai", "addr:full": "Naikwadi, Opposite Heritage Hotel ,Aarey Road,Goregaon (E)", "addr:postcode": "400063", "addr:state": "Maharashtra", "amenity": "hospital", "name": "Vishwa Kripa Hospital", "source": "OpenGovernmentData"}}, {"type": "node", "id": 7073651578, "lat": 19.1366428, "lon": 72.8364225, "tags": {"addr:district": "Mumbai", "addr:full": "C Wing, Dhananjay Apt Behind Balaji Studio, Opp Veera Desai Road Andheri", "addr:postcode": "400059", "addr:state": "Maharashtra", "amenity": "hospital", "healthcare": "hospital", "name": "Rg Stone Urology and Laparoscopy Hospital, Mumbai", "source": "OpenGovernmentData"}}, {"type": "node", "id": 7073949862, "lat": 19.2025146, "lon": 72.8553495, "tags": {"addr:district": "Mumbai", "addr:full": "2nd Flr, Shubh Bldg, Opp, Esis Hospital Akurli Road, Kandivali", "addr:postcode": "400101", "addr:state": "Maharashtra", "amenity": "hospital", "name": "Dhiraj Hospital", "source": "OpenGovernmentData"}}, {"type": "node", "id": 7073949902, "lat": 19.1878962, "lon": 72.8365955, "tags": {"addr:district": "Thane", "addr:full": "101, Eden Rose Shopping Complex,Opposite Cinemax Multiplex,Beverly Park, Mira Road(E)", "addr:postcode": "400601", "addr:state": "Maharashtra", "amenity": "hospital", "name": "Apex Kidney Care Pvt. Ltd (Mira Road)", "source": "OpenGovernmentData"}}, {"type": "node", "id": 7073949916, "lat": 19.2149992, "lon": 72.8475013, "tags": {"addr:district": "Mumbai", "addr:full": "A-2/B-3, Gaurav Dhruv, Behind Bhatia School, Off Saibaba Nagar Road, Borivali West", "addr:postcode": "400092", "addr:state": "Maharashtra", "amenity": "hospital", "healthcare": "hospital", "name": "Shreeji Kripa Surgical Center Icu and Nursing Home", "source": "OpenGovernmentData"}}, {"type": "node", "id": 7074576485, "lat": 19.136651, "lon": 72.8501849, "tags": {"addr:district": "Mumbai", "addr:full": "004/C-2, Satellite Classic, Caves Road, Opposite, Jogeshwari Railway Station, Jogeshwari (E)", "addr:postcode": "400060", "addr:state": "Maharashtra", "amenity": "hospital", "healthcare": "hospital", "name": "Dr. Shindes Childrens Hospital and Nicu", "source": "OpenGovernmentData"}}, {"type": "node", "id": 7076367516, "lat": 19.1998183, "lon": 72.8460167, "tags": {"addr:district": "Mumbai", "addr:full": "1,2 & 3, Shiv Kripa C.H.S., S.V.P. Lane, Opposite Municipal Garden, Kandivali (W)", "addr:postcode": "400067", "addr:state": "Maharashtra", "amenity": "hospital", "name": "Shree Krishna Hospital", "source": "OpenGovernmentData"}}, {"type": "node", "id": 7076529384, "lat": 19.2018573, "lon": 72.8546427, "tags": {"addr:district": "Mumbai", "addr:full": "Pragnya Apartment, 1st Floor, Akurli Road, Kandivli", "addr:postcode": "400101", "addr:state": "Maharashtra", "amenity": "hospital", "name": "Laxmi Clinic - Kandivli - (Mumbai)", "source": "OpenGovernmentData"}}, {"type": "node", "id": 7076609444, "lat": 19.174305, "lon": 72.8443739, "tags": {"addr:district": "Mumbai", "addr:full": "A-1,Gagan Chembers - 5,Near Gokuldham,Medicare Centre,Goregaon (E)", "addr:postcode": "400063", "addr:state": "Maharashtra", "amenity": "hospital", "name": "Life Line Medicare Hospital Pvt Ltd", "source": "OpenGovernmentData"}}, {"type": "node", "id": 7079392136, "lat": 19.2105098, "lon": 72.8651141, "tags": {"addr:district": "Mumbai", "addr:full": "Videocon Tower,Thakur Complex,Kandivali(E)", "addr:postcode": "400010", "addr:state": "Maharashtra", "amenity": "hospital", "name": "Gokul Hospital, Mumbai", "source": "OpenGovernmentData"}}, {"type": "node", "id": 7080205226, "lat": 19.1953512, "lon": 72.8331435, "tags": {"addr:district": "Mumbai", "addr:full": "Shweta Bldg, Khandelwal Layout, Link Road Malad West", "addr:postcode": "400064", "addr:state": "Maharashtra", "amenity": "hospital", "name": "Dr.Ronak Prakash Bhandari", "source": "OpenGovernmentData"}}, {"type": "node", "id": 7080205265, "lat": 19.1373264, "lon": 72.8485105, "tags": {"addr:district": "Mumbai", "addr:full": "C wing, 1st floor, Opposite Jogeshwari station west", "addr:postcode": "400102", "addr:state": "Maharashtra", "amenity": "hospital", "healthcare": "hospital", "name": "Dr Shah Hospital", "source": "OpenGovernmentData"}}, {"type": "node", "id": 7082499112, "lat": 19.2246868, "lon": 72.8575087, "tags": {"addr:district": "Mumbai", "addr:full": "Sheel Palace Near State Bank , Dattapada Borivali East", "addr:postcode": "400066", "addr:state": "Maharashtra", "amenity": "hospital", "name": "Crystal Hospitals", "source": "OpenGovernmentData"}}, {"type": "node", "id": 7082518991, "lat": 19.1352453, "lon": 72.8381807, "tags": {"addr:district": "Mumbai", "addr:full": "Andheri", "addr:postcode": "400102", "addr:state": "Maharashtra", "amenity": "hospital", "healthcare": "hospital", "name": "Society Of The Helpers Of Mary Shraddha Vihar Hospital", "source": "OpenGovernmentData"}}, {"type": "node", "id": 7082519016, "lat": 19.1424177, "lon": 72.8234661, "tags": {"addr:district": "Mumbai", "addr:full": "17-B/007-008, Girnar Swami Samarth Nagar,Off Four Bungalows, Andheri (W)", "addr:postcode": "400053", "addr:state": "Maharashtra", "amenity": "hospital", "healthcare": "hospital", "name": "Ameya Maternity and Nursing Home", "source": "OpenGovernmentData"}}, {"type": "node", "id": 7082623483, "lat": 19.1921424, "lon": 72.8449076, "tags": {"addr:district": "Mumbai", "addr:full": "techKNEEque, Flat 7, Nilanjana CHS, Next to Nutan Vidyamandir, Marve Road, Malad West\\", "addr:postcode": "400064", "addr:state": "Maharashtra", "amenity": "hospital", "name": "Shah Fracture-Orthopaedic Hospital", "source": "OpenGovernmentData"}}, {"type": "node", "id": 7082733171, "lat": 19.1455229, "lon": 72.8230771, "tags": {"addr:district": "Mumbai", "addr:full": "Nebula Apartment, Lokhandwala, Andheri West", "addr:housename": "Nebula Apartment", "addr:place": "Lokhandwala", "addr:postcode": "400053", "addr:state": "Maharashtra", "addr:suburb": "Andheri West", "amenity": "hospital", "name": "Sanghvi Clinic", "name:hi": "\u0938\u093e\u0902\u0918\u0935\u0940 \u0915\u094d\u0932\u093f\u0928\u093f\u0915", "source": "OpenGovernmentData"}}, {"type": "node", "id": 7085742119, "lat": 19.1907321, "lon": 72.8558276, "tags": {"addr:district": "Mumbai", "addr:full": "Vasant Vijay Mahal, Pushpa Park, Road No.2, Malad (E)", "addr:postcode": "400097", "addr:state": "Maharashtra", "amenity": "hospital", "name": "Shraddha Orthopedic and Surgical Hospital", "source": "OpenGovernmentData"}}, {"type": "node", "id": 7085988157, "lat": 19.1936338, "lon": 72.8466564, "tags": {"addr:district": "Mumbai", "addr:full": "Vishal Complex, S.V.Road, Malad (West)", "addr:postcode": "400064", "addr:state": "Maharashtra", "amenity": "hospital", "contact:phone": "8080221110", "email": "info@lifelinehospitalmumbai.in", "name": "Lifeline Hospital, Mumbai", "operator:type": "private", "source": "OpenGovernmentData", "website": "http://www.lifelinehospitalmumbai.in/"}}, {"type": "node", "id": 7085988158, "lat": 19.1901083, "lon": 72.8479251, "tags": {"addr:district": "Mumbai", "addr:full": "SV Rd, Malad, Mahavir Nagar, Malad West", "addr:postcode": "400064", "addr:state": "Maharashtra", "amenity": "hospital", "contact:phone": "8080221110", "email": "info@lifelinehospitalmumbai.in", "name": "Lifeline Hospital, Mumbai", "operator:type": "private", "source": "OpenGovernmentData", "website": "http://www.lifelinehospitalmumbai.in/"}}, {"type": "node", "id": 7086532343, "lat": 19.1836916, "lon": 72.846468, "tags": {"addr:district": "Mumbai", "addr:full": "Sriniwas Apartment, 78, S.V. Road, Opposite New Era Talkies, Malad", "addr:postcode": "400064", "addr:state": "Maharashtra", "amenity": "hospital", "name": "AR Hospital Orthopaedic & ICU", "source": "OpenGovernmentData"}}, {"type": "node", "id": 7087491721, "lat": 19.1631829, "lon": 72.8351136, "tags": {"addr:district": "Mumbai", "addr:full": "1st Floor, M.G.Road Junction,Motilal Nagar", "addr:postcode": "400104", "addr:state": "Maharashtra", "amenity": "hospital", "name": "Prarthana Hospital And ICU", "source": "OpenGovernmentData"}}, {"type": "node", "id": 7087636852, "lat": 19.2150866, "lon": 72.8287527, "tags": {"addr:district": "Mumbai", "addr:full": "105-108. 1st Floor, Kesar Plaza, A-Wing, Sector 3, Charkop", "addr:postcode": "400067", "addr:state": "Maharashtra", "amenity": "hospital", "name": "Shree Nagesh Childrens Hospital", "source": "OpenGovernmentData"}}, {"type": "node", "id": 7210907978, "lat": 19.1941028, "lon": 72.8213186, "tags": {"addr:district": "Mumbai", "addr:full": "Rose Apts Near Fire Brigade, Malvani Rd, BMC Colony, Malad West", "addr:postcode": "400095", "addr:state": "Maharashtra", "amenity": "hospital", "name": "Mangalmurti Hospital", "source": "OpenGovernmentData"}}, {"type": "node", "id": 7225067156, "lat": 19.1720375, "lon": 72.8517554, "tags": {"addr:district": "Mumbai", "addr:full": "Road Number 4, C-WING, Subhash Nagar, Goregaon", "addr:postcode": "400063", "addr:state": "Maharashtra", "amenity": "hospital", "name": "Pandurangawadi Health Post", "source": "OpenGovernmentData"}}, {"type": "node", "id": 7225067194, "lat": 19.178433, "lon": 72.851105, "tags": {"addr:district": "Mumbai", "addr:full": "Govind Nagar Road, Near Mahindra Academy, Malad", "addr:postcode": "400097", "addr:state": "Maharashtra", "amenity": "hospital", "name": "M.W. Desai Municipal General Hospital", "source": "OpenGovernmentData"}}, {"type": "node", "id": 7225067227, "lat": 19.1761724, "lon": 72.8494708, "tags": {"addr:district": "Mumbai", "addr:full": "Chinchowali Colony, Near Railway Station, Malad", "addr:postcode": "400097", "addr:state": "Maharashtra", "amenity": "hospital", "name": "Pahadi Health Post", "source": "OpenGovernmentData"}}, {"type": "node", "id": 7225067256, "lat": 19.2197564, "lon": 72.8708165, "tags": {"addr:district": "Mumbai", "addr:full": "BMC General Hospital, Kasturba Cross Road No.2, Boriwali (E)", "addr:postcode": "400066", "addr:state": "Maharashtra", "amenity": "hospital", "name": "BMC Maternity Hospital", "source": "OpenGovernmentData"}}, {"type": "node", "id": 7622282442, "lat": 19.2037678, "lon": 72.8244846, "tags": {"addr:district": "Mumbai", "addr:full": "Kandivali, Babrekar Nagar", "addr:postcode": "400095", "addr:state": "Maharashtra", "amenity": "hospital", "name": "BMC Hospital", "source": "Local Knowledge"}}, {"type": "node", "id": 7628258688, "lat": 19.1777529, "lon": 72.8724378, "tags": {"addr:district": "Mumbai", "addr:full": "Riddhi Gardens, Malad East, Mumbai", "addr:postcode": "400097", "addr:state": "Maharashtra", "amenity": "hospital", "name": "Savitri Bai Phule BMC Hospital ,Malad East", "source": "Local Knowledge"}}, {"type": "node", "id": 7663833079, "lat": 19.163103, "lon": 72.846337, "tags": {"addr:district": "Mumbai Suburban", "addr:full": "Ashok Raj Building, SV Road, Above Ratan Hotel, Kakaji Nagar, Jawahar Nagar, Goregaon West, Mumbai", "addr:postcode": "400062", "addr:state": "Maharastra", "amenity": "hospital", "name": "Singhi Hospital", "source": "Local Knowledge"}}, {"type": "node", "id": 7663833086, "lat": 19.178818, "lon": 72.842829, "tags": {"addr:district": "Mumbai Suburban", "addr:full": "Chincholi Bunder Road, Mandlik Nagar, Sunder Nagar, Malad West, Mumbai", "addr:postcode": "400064", "addr:state": "Maharastra", "amenity": "hospital", "name": "Vivanta Multispeciality Hospital", "source": "Local Knowledge"}}, {"type": "node", "id": 7663833088, "lat": 19.163211, "lon": 72.835036, "tags": {"addr:district": "Mumbai Suburban", "addr:full": "JP Residency, Vivanta Hospital, Chincholi Bunder, Malad West, Mumbai", "addr:postcode": "400064", "addr:state": "Maharastra", "amenity": "hospital", "name": "Vivanta Hospital", "source": "Local Knowledge"}}, {"type": "node", "id": 7663833089, "lat": 19.1941236, "lon": 72.873669, "tags": {"addr:district": "Mumbai Suburban", "addr:full": "Plot No: 39/D-5, Lokhandwala Complex, Mahada Colony Road, No: 3, Near Auto Stand, Kandivali East, Mumbai", "addr:postcode": "400101", "addr:state": "Maharastra", "amenity": "hospital", "name": "Sai Siddhi Hospital", "source": "Local Knowledge"}}, {"type": "node", "id": 7663833090, "lat": 19.188923, "lon": 72.855248, "tags": {"addr:district": "Mumbai Suburban", "addr:full": "Pooja Building, Daftary Road, Malkani Estate, Pushpa Park, Malad East, Mumbai", "addr:postcode": "400097", "addr:state": "Maharastra", "amenity": "hospital", "name": "Dr. Sharik's Asha Maternity & General Hospital", "source": "Local Knowledge"}}, {"type": "node", "id": 7663833093, "lat": 19.175631, "lon": 72.837464, "tags": {"addr:district": "Mumbai Suburban", "addr:full": "New Link Road, Malad, Sunder Nagar, Malad West, Mumbai", "addr:postcode": "400064", "addr:state": "Maharastra", "amenity": "hospital", "check_date": "2025-12-29", "name": "Cloud Nine Children's Hospital", "source": "Local Knowledge"}}, {"type": "node", "id": 7663833098, "lat": 19.1816744, "lon": 72.8467421, "tags": {"addr:district": "Mumbai Suburban", "addr:full": "SV Road, Malad, Vijaykar Wadi, Malad West, Mumbai", "addr:postcode": "400064", "addr:state": "Maharastra", "amenity": "hospital", "name": "L. M Patel Eye Hospital", "source": "Local Knowledge"}}, {"type": "node", "id": 7663833104, "lat": 19.1725519, "lon": 72.8739312, "tags": {"addr:district": "Mumbai Suburban", "addr:full": "Building D-2, Satellite Gardens-2, Film City Road, Near Hanuman Nagar, Goregaon, Mumbai", "addr:postcode": "400063", "addr:state": "Maharastra", "amenity": "hospital", "name": "Radha Krishna Hospital", "source": "Local Knowledge"}}, {"type": "node", "id": 7663833111, "lat": 19.1636085, "lon": 72.8377227, "tags": {"addr:district": "Mumbai Suburban", "addr:full": "Mahatma Gandhi Road, Opposite Rosary Church, Goregaon West, Mumbai", "addr:postcode": "400090", "addr:state": "Maharastra", "amenity": "hospital", "name": "Jain Hospital", "source": "Local Knowledge"}}, {"type": "node", "id": 7663833113, "lat": 19.1903949, "lon": 72.834907, "tags": {"addr:district": "Mumbai Suburban", "addr:full": "Shweta Building, New Link Road, Khandelwal Layout, Kanchpada, Malad West, Mumbai", "addr:postcode": "400064", "addr:state": "Maharastra", "amenity": "hospital", "name": "The Children's Hospital", "source": "Local Knowledge"}}, {"type": "node", "id": 7663833115, "lat": 19.216129, "lon": 72.85083, "tags": {"addr:district": "Mumbai Suburban", "addr:full": "Swami Vivekanand Road, Jai Punit Nagar, Borivali West, Mumbai", "addr:postcode": "400092", "addr:state": "Maharastra", "amenity": "hospital", "healthcare:speciality": "orthopaedics", "name": "Punit Orthopaedic Hospital", "source": "Local Knowledge"}}, {"type": "node", "id": 7663833117, "lat": 19.1612265, "lon": 72.840181, "tags": {"addr:district": "Mumbai Suburban", "addr:full": "L.T. Nagar, 4th Lane, Mahatma Gandhi Road, Goregaon West, Mumbai", "addr:postcode": "400104", "addr:state": "Maharastra", "amenity": "hospital", "name": "Matushree Gomati Hospital", "source": "Local Knowledge"}}, {"type": "node", "id": 7663833118, "lat": 19.1952374, "lon": 72.8461978, "tags": {"addr:district": "Mumbai Suburban", "addr:full": "Goraswadi Road, Opp. Nirman Hitech Diagnostics, Malad West, Mumbai", "addr:postcode": "400064", "addr:state": "Maharastra", "amenity": "hospital", "name": "Thunga Hospital", "source": "Local Knowledge"}}, {"type": "node", "id": 7663833122, "lat": 19.1751156, "lon": 72.8778495, "tags": {"addr:city": "Goregaon.Mumbai", "addr:district": "Mumbai Suburban", "addr:full": "Nagri Niwara Cooperative Housing Society, Goregaon, Mumbai", "addr:postcode": "400065", "addr:state": "Maharastra", "addr:street": "General A K Vaidya Marg", "amenity": "hospital", "emergency": "yes", "levels": "3", "name": "Hospital Vedant", "source": "Local Knowledge"}}, {"type": "node", "id": 7663833125, "lat": 19.1794965, "lon": 72.8606797, "tags": {"addr:district": "Mumbai Suburban", "addr:full": "Pathanwadi Road, Malad, Tapovan Housing Complex, Pathan Wadi, Malad East, Mumbai", "addr:postcode": "400097", "addr:state": "Maharastra", "amenity": "hospital", "name": "New Nari Hospital", "source": "Local Knowledge"}}, {"type": "node", "id": 7663833129, "lat": 19.1754936, "lon": 72.8338516, "tags": {"addr:district": "Mumbai Suburban", "addr:full": "Rustomjee Elanza, Ground Floor, Aditya Heritage, Industrial Society, Chincholi Bunder Road, Ram Nagar, Malad West, Mumbai", "addr:postcode": "400064", "addr:state": "Maharastra", "amenity": "hospital", "name": "Sage Hospital", "source": "Local Knowledge"}}, {"type": "node", "id": 7663833131, "lat": 19.182718, "lon": 72.856724, "tags": {"addr:district": "Mumbai Suburban", "addr:full": "Rani Sati Marg, Near Passport Office, Malad East, Mumbai", "addr:postcode": "400097", "addr:state": "Maharastra", "amenity": "hospital", "name": "Balajee Hospital", "source": "Local Knowledge"}}, {"type": "node", "id": 7663833134, "lat": 19.1671157, "lon": 72.8513635, "tags": {"addr:district": "Mumbai Suburban", "addr:full": "Naikwadi Road, Naik Wadi, Churi Wadi, Goregaon, Mumbai", "addr:postcode": "400063", "addr:state": "Maharastra", "amenity": "hospital", "name": "Dr. Sabnis Hospital", "source": "Local Knowledge"}}, {"type": "node", "id": 7663833135, "lat": 19.1945255, "lon": 72.8743319, "tags": {"addr:district": "Mumbai Suburban", "addr:full": "Akurli Road, Mira Road, East, MHADA Colony, Lokhandwala Twp, Kandivali East, Mumbai", "addr:postcode": "400101", "addr:state": "Maharastra", "amenity": "hospital", "name": "Jeevan Jyoti Hospital", "source": "Local Knowledge"}}, {"type": "node", "id": 7663833141, "lat": 19.220425, "lon": 72.862857, "tags": {"addr:district": "Mumbai Suburban", "addr:full": "Dattapada Road, Next to Suswagat Restaurant, Borivali East, Mumbai", "addr:postcode": "400066", "addr:state": "Maharastra", "amenity": "hospital", "name": "Apex Multispeciality Hospitals", "source": "Local Knowledge"}}, {"type": "node", "id": 7663833142, "lat": 19.195545, "lon": 72.8364295, "tags": {"addr:district": "Mumbai Suburban", "addr:full": "Janet Castle, Opp St Joseph School, Marve Road, Orlem, Mumbai", "addr:postcode": "400064", "addr:state": "Maharastra", "amenity": "hospital", "name": "Gosalia Hospital", "source": "Local Knowledge"}}, {"type": "node", "id": 7663833143, "lat": 19.181414, "lon": 72.864334, "tags": {"addr:district": "Mumbai Suburban", "addr:full": "Bhoomi Residency, Next to Triveni Nagar, Kurar Village, Malad East, Mumbai", "addr:postcode": "400097", "addr:state": "Maharastra", "amenity": "hospital", "name": "Aastha Maternity", "source": "Local Knowledge"}}, {"type": "node", "id": 7663833146, "lat": 19.2041513, "lon": 72.8498303, "tags": {"addr:district": "Mumbai Suburban", "addr:full": "Vijaykar Wadi, Kandivali West, Mumbai", "addr:postcode": "400067", "addr:state": "Maharastra", "amenity": "hospital", "name": "Dalvi Hospital", "source": "Local Knowledge"}}, {"type": "node", "id": 7663833148, "lat": 19.2174338, "lon": 72.8501145, "tags": {"addr:district": "Mumbai Suburban", "addr:full": "Building No. 3, Block A, Saibaba Mandir Marg, Shastri Nagar, Borivali West, Mumbai", "addr:postcode": "400092", "addr:state": "Maharastra", "amenity": "hospital", "emergency": "yes", "healthcare": "hospital", "name": "Navjivan Hospital", "source": "Local Knowledge"}}, {"type": "node", "id": 7663833151, "lat": 19.160433, "lon": 72.856244, "tags": {"addr:district": "Mumbai Suburban", "addr:full": "Sonawala Industry Estate, Goregaon, Mumbai", "addr:postcode": "400063", "addr:state": "Maharastra", "amenity": "hospital", "name": "Trauma Hospital", "source": "Local Knowledge"}}, {"type": "node", "id": 7663833154, "lat": 19.175132, "lon": 72.870689, "tags": {"addr:district": "Mumbai Suburban", "addr:full": "Shop No. 21, Heena Gaurav Jewels, Gokuldam Market, General AK Vaidya Marg, Film City Road, Mumbai", "addr:postcode": "400063", "addr:state": "Maharastra", "amenity": "hospital", "name": "Vidya Hospital", "source": "Local Knowledge"}}, {"type": "node", "id": 7663833156, "lat": 19.1632392, "lon": 72.8453083, "tags": {"addr:district": "Mumbai Suburban", "addr:full": "Hirnen Shopping Centre, Mahatma Gandhi Road, Goregaon West, Mumbai", "addr:postcode": "400062", "addr:state": "Maharastra", "amenity": "hospital", "check_date": "2025-12-29", "name": "Dr. Bhatt's Hospital", "source": "Local Knowledge"}}, {"type": "node", "id": 7663833159, "lat": 19.170783, "lon": 72.878466, "tags": {"addr:district": "Mumbai Suburban", "addr:full": "Muncipal Colony, General Arun Kumar Vaidya Marg, Santosh Nagar, Sector B, Goregaon, Mumbai", "addr:postcode": "400065", "addr:state": "Maharastra", "amenity": "hospital", "name": "Dr. Sudhir Patil Sai Siddhi Clinic", "source": "Local Knowledge"}}, {"type": "node", "id": 7663833161, "lat": 19.200971, "lon": 72.847381, "tags": {"addr:district": "Mumbai Suburban", "addr:full": "Paradise Building, Shantilal Modi Road, Kandivali West, Mumbai", "addr:postcode": "400067", "addr:state": "Maharastra", "amenity": "hospital", "name": "Usha Maternity Home", "source": "Local Knowledge"}}, {"type": "node", "id": 7663833162, "lat": 19.197905, "lon": 72.8484431, "tags": {"addr:district": "Mumbai Suburban", "addr:full": "S V Road, Kandivali West, Mumbai", "addr:postcode": "400067", "addr:state": "Maharastra", "amenity": "hospital", "name": "Namaha Hospital", "source": "Local Knowledge"}}, {"type": "node", "id": 7663833165, "lat": 19.191427, "lon": 72.844352, "tags": {"addr:district": "Mumbai Suburban", "addr:full": "Marve Road, Adarsh Nagar, Malad West, Opposite Nutan School, Mumbai", "addr:postcode": "400064", "addr:state": "Maharastra", "amenity": "hospital", "name": "Choksi Nursing Home", "source": "Local Knowledge"}}, {"type": "node", "id": 7663833169, "lat": 19.1929, "lon": 72.834065, "tags": {"addr:district": "Mumbai Suburban", "addr:full": "21/22, Blue Haven, New Link Road, Evershine Nagar, Malad West, Mumbai", "addr:postcode": "400064", "addr:state": "Maharastra", "amenity": "hospital", "name": "Evershine Ortho & Surgical Hospital", "source": "Local Knowledge"}}, {"type": "node", "id": 7663833171, "lat": 19.1905141, "lon": 72.8463432, "tags": {"addr:district": "Mumbai Suburban", "addr:full": "BJ Patel Road, Opp. SNDT college, Near Liberty Garden, Malad, Kanchpada, Mumbai", "addr:postcode": "400064", "addr:state": "Maharastra", "amenity": "hospital", "name": "Sun Hospital", "source": "Local Knowledge"}}, {"type": "node", "id": 7663833172, "lat": 19.1843797, "lon": 72.8450285, "tags": {"addr:district": "Mumbai Suburban", "addr:full": "Malad, Navy Colony, Mamledarwadi, Malad West, Mumbai", "addr:postcode": "400064", "addr:state": "Maharastra", "amenity": "hospital", "name": "Savla Hospital", "source": "Local Knowledge"}}, {"type": "node", "id": 7663833174, "lat": 19.211703, "lon": 72.851597, "tags": {"addr:district": "Mumbai Suburban", "addr:full": "Arch Gold Apartment, S.V.Road, Poisar, Next to Telephone Exchange, Mumbai", "addr:postcode": "400067", "addr:state": "Maharastra", "amenity": "hospital", "healthcare": "hospital", "name": "Vardann Multi Speciality Hospital", "source": "Local Knowledge"}}, {"type": "node", "id": 7663961414, "lat": 19.1433169, "lon": 72.8431331, "tags": {"addr:district": "Mumbai Suburban", "addr:full": "Ripon Apartment, 176, 1st Floor, Tulsi Pipe Road, Mumbai", "addr:postcode": "400102", "addr:state": "Maharastra", "amenity": "hospital", "healthcare": "hospital", "name": "City Hospital", "source": "Local Knowledge"}}, {"type": "node", "id": 7663961426, "lat": 19.1358754, "lon": 72.8446193, "tags": {"addr:district": "Mumbai Suburban", "addr:full": "Anmol Apartment, Ground Floor, Sankar Road, Jogeshwari West, Mumbai", "addr:postcode": "400102", "addr:state": "Maharastra", "amenity": "hospital", "healthcare": "hospital", "name": "Jogeshwari Hospital", "source": "Local Knowledge"}}, {"type": "node", "id": 7663961438, "lat": 19.1394176, "lon": 72.8596914, "tags": {"addr:district": "Mumbai Suburban", "addr:full": "Jogeshwari - Vikhroli Link Road, Anand Nagar, Jogeshwari East, Mumbai", "addr:postcode": "400060", "addr:state": "Maharastra", "amenity": "hospital", "healthcare": "hospital", "name": "DNA Hospital", "source": "Local Knowledge"}}, {"type": "node", "id": 7663961460, "lat": 19.1589907, "lon": 72.8492265, "tags": {"addr:district": "Mumbai Suburban", "addr:full": "Kamal Charan Building, 180, Road Number 2, Jawahar Nagar, Goregaon West, Mumbai", "addr:postcode": "400062", "addr:state": "Maharastra", "amenity": "hospital", "name": "SRV Hospital", "source": "Local Knowledge"}}, {"type": "node", "id": 7663961461, "lat": 19.1566348, "lon": 72.8466609, "tags": {"addr:district": "Mumbai Suburban", "addr:full": "Jawahar Nagar, Goregaon West, Mumbai", "addr:postcode": "400104", "addr:state": "Maharastra", "amenity": "hospital", "name": "Suvidha Hospital & PolyClinic", "source": "Local Knowledge"}}, {"type": "node", "id": 7663961468, "lat": 19.1369167, "lon": 72.8564586, "tags": {"addr:district": "Mumbai Suburban", "addr:full": "Caves Road, Janta Nagar, Gandhi Nagar Society, Harijan Nagar Nagar, Jogeshwari East, Mumbai", "addr:postcode": "400060", "addr:state": "Maharastra", "amenity": "hospital", "healthcare": "hospital", "name": "Balthakra Sahara Jogeshwari Hospital", "source": "Local Knowledge"}}, {"type": "node", "id": 7663961473, "lat": 19.1447706, "lon": 72.8431122, "tags": {"addr:district": "Mumbai Suburban", "addr:full": "Sufi Sayed Kamal Ahmed Marg, Khoja Society, Vaishali Nagar, Jogeshwari, Mumbai", "addr:postcode": "400102", "addr:state": "Maharastra", "amenity": "hospital", "healthcare": "hospital", "name": "Ruby Hospital", "source": "Local Knowledge"}}, {"type": "node", "id": 7663961477, "lat": 19.1437117, "lon": 72.8426357, "tags": {"addr:district": "Mumbai Suburban", "addr:full": "Mathra Apartment, Swami Vivekanand Marg, Beside Jain Mandir, Jogeshwari, Mumbai", "addr:postcode": "400102", "addr:state": "Maharastra", "amenity": "hospital", "healthcare": "hospital", "name": "Noor Nursing Home", "source": "Local Knowledge"}}, {"type": "node", "id": 7663961488, "lat": 19.1372927, "lon": 72.8541522, "tags": {"addr:district": "Mumbai Suburban", "addr:full": "S. K. Apartment, Building, 2, 10, Dalwal Compound Gumpha Road, Near Police Station, Bandrekar Wadi, Jogeshwari East, Mumbai", "addr:postcode": "400060", "addr:state": "Maharastra", "amenity": "hospital", "name": "Shalyak Hospital", "source": "Local Knowledge"}}, {"type": "node", "id": 7663961490, "lat": 19.1450501, "lon": 72.8436497, "tags": {"addr:district": "Mumbai Suburban", "addr:full": "Dreamland Apartments, 1st, Govindji Shroff Marg, Vaishali Nagar, Jogeshwari, Mumbai", "addr:postcode": "400102", "addr:state": "Maharastra", "amenity": "hospital", "healthcare": "hospital", "name": "Fathima Children Hospital & Criticare Centre", "source": "Local Knowledge"}}, {"type": "node", "id": 8260890189, "lat": 19.2130035, "lon": 72.8235436, "tags": {"addr:city": "Mumbai", "addr:housenumber": "sector2 charkop, 122", "addr:postcode": "400067", "addr:street": "RSC Rd Number 11, Kandivali west", "amenity": "hospital", "emergency": "yes", "healthcare": "hospital", "healthcare:speciality": "general;orthopaedics;physician;diabetologist", "name": "Oscar hospital charkop naka", "opening_hours": "24/7"}}, {"type": "node", "id": 8582767492, "lat": 19.1662744, "lon": 72.8543028}, {"type": "node", "id": 8582767493, "lat": 19.1662691, "lon": 72.8544}, {"type": "node", "id": 8582767494, "lat": 19.166134, "lon": 72.8544123}, {"type": "node", "id": 8582767495, "lat": 19.1661308, "lon": 72.854305}, {"type": "node", "id": 8796959391, "lat": 19.1884744, "lon": 72.8540218, "tags": {"addr:district": "Mumbai", "addr:full": "Malad East, Mumbai", "addr:postcode": "400097", "addr:state": "Maharashtra", "amenity": "hospital", "name": "S.K.Patil Hospital", "source": "Local Knowledge"}}, {"type": "node", "id": 8796982088, "lat": 19.2155665, "lon": 72.830932, "tags": {"addr:district": "Mumbai", "addr:full": "214, Kandivali West, Mumbai", "addr:postcode": "400067", "addr:state": "Maharashtra", "amenity": "hospital", "name": "Charkop Maternity Home", "source": "Local Knowledge"}}, {"type": "node", "id": 8796983347, "lat": 19.209004, "lon": 72.85083}, {"type": "node", "id": 8797130860, "lat": 19.1401815, "lon": 72.842786, "tags": {"addr:district": "Mumbai", "addr:full": "Shastri Nagar, Jogeshwari West, Mumbai", "addr:postcode": "400062", "addr:state": "Maharashtra", "amenity": "hospital", "healthcare": "hospital", "name": "Millat Dialysis Center", "source": "Local Knowledge"}}, {"type": "node", "id": 8797161232, "lat": 19.1372345, "lon": 72.8564975, "tags": {"addr:district": "Mumbai", "addr:full": "Shiv Kunj, Dhobi Ghat, Jogeshwari East, Mumbai", "addr:postcode": "400060", "addr:state": "Maharashtra", "amenity": "hospital", "healthcare": "hospital", "name": "matoshri umabai RANE hospital", "source": "Local Knowledge"}}, {"type": "node", "id": 8797247003, "lat": 19.2034924, "lon": 72.8279212, "tags": {"addr:district": "Mumbai", "addr:full": "D And E Wing, 15-22 Pooja Enclave, Kandivali, Nilkanth Nagar, Ganesh Nagar, Mumbai", "addr:postcode": "400067", "addr:state": "Maharashtra", "amenity": "hospital", "name": "Oscar Hospital", "source": "Local Knowledge"}}, {"type": "node", "id": 8797441441, "lat": 19.2076635, "lon": 72.877233, "tags": {"addr:district": "Mumbai", "addr:full": "A-901, Thakur, Kandivali East, Mumbai", "addr:postcode": "400101", "addr:state": "Maharashtra", "amenity": "hospital", "name": "Akurli Maternity Home", "source": "Local Knowledge"}}, {"type": "node", "id": 8797549260, "lat": 19.2071803, "lon": 72.8769761, "tags": {"addr:district": "Mumbai", "addr:full": "Thakur Village, Kandivali East, Mumbai", "addr:postcode": "400101", "addr:state": "Maharashtra", "amenity": "hospital", "name": "ESIC Hospital", "source": "Local Knowledge"}}, {"type": "node", "id": 8802125729, "lat": 19.188038, "lon": 72.8179488, "tags": {"addr:district": "Mumbai", "addr:full": "Malad, Azad Nagar, Malvani", "addr:postcode": "400095", "addr:state": "Maharashtra", "amenity": "hospital", "name": "Government Hospital, Malvani", "source": "Local Knowledge"}}, {"type": "node", "id": 9215424189, "lat": 19.1362893, "lon": 72.8273781, "tags": {"addr:district": "Mumbai", "addr:full": "Suresh Nagar, Andheri West, Mumbai", "addr:postcode": "400047", "addr:state": "Maharashtra", "amenity": "hospital", "description": "Private Hospital", "healthcare": "hospital", "name": "Axis Orthopaedic Hospital", "source": "Local Knowledge"}}, {"type": "node", "id": 9215451400, "lat": 19.136067, "lon": 72.8122383, "tags": {"addr:district": "Mumbai", "addr:full": "Jeet Nagar, Versova, Andheri West", "addr:postcode": "400061", "addr:state": "Maharashtra", "amenity": "hospital", "description": "Private Hospital", "name": "AL Kaleskar Hospital", "source": "Local Knowledge"}}, {"type": "node", "id": 9215501855, "lat": 19.1908993, "lon": 72.8335458, "tags": {"addr:district": "Mumbai", "addr:full": "Rajendra Vihar, Evershine Nagar, Malad West", "addr:postcode": "400064", "addr:state": "Maharashtra", "amenity": "hospital", "description": "SubCentre", "name": "Navkar Skin Hair And Laser Clinic", "source": "Local Knowledge"}}, {"type": "node", "id": 9215979185, "lat": 19.1469381, "lon": 72.829265, "tags": {"addr:district": "Mumbai", "addr:full": "Unit-3 1st Flore, Samrath Vaibhav' Off-K.L Walawalkar Marg, Oshiwara Lokhandwala", "addr:postcode": "400053", "addr:state": "Maharashtra", "amenity": "hospital", "healthcare": "hospital", "name": "Clear Vision Eye Care", "source": "OpenGovernmentData"}}, {"type": "node", "id": 9384322539, "lat": 19.2204739, "lon": 72.8631381}, {"type": "node", "id": 9384322540, "lat": 19.2204718, "lon": 72.8628753}, {"type": "node", "id": 10879569039, "lat": 19.2097841, "lon": 72.8510821}, {"type": "node", "id": 10879569040, "lat": 19.2094143, "lon": 72.8525788}, {"type": "node", "id": 10879569041, "lat": 19.2075349, "lon": 72.8522944}, {"type": "node", "id": 10879569042, "lat": 19.2079503, "lon": 72.8506154}, {"type": "node", "id": 11301648369, "lat": 19.2073234, "lon": 72.8181432}, {"type": "node", "id": 11301648370, "lat": 19.2073322, "lon": 72.818267}, {"type": "node", "id": 11301648371, "lat": 19.2069331, "lon": 72.8182833}, {"type": "node", "id": 11301648372, "lat": 19.2069419, "lon": 72.8181105}, {"type": "node", "id": 11301648373, "lat": 19.2070809, "lon": 72.8181105}, {"type": "node", "id": 11301648374, "lat": 19.2070831, "lon": 72.8181526}, {"type": "node", "id": 11590822909, "lat": 19.2204634, "lon": 72.8583907, "tags": {"addr:city": "Mumbai", "addr:district": "Mumbai", "addr:housenumber": "123", "addr:street": "Dattapada Road", "amenity": "hospital", "healthcare": "hospital", "healthcare:speciality": "general;neurology", "name": "Navjeevan", "operator": "unknown", "operator:type": "private"}}, {"type": "node", "id": 11613055038, "lat": 19.2066191, "lon": 72.8650557, "tags": {"addr:city": "mumbai", "addr:district": "Mumbai", "addr:postcode": "400101", "addr:street": "Mahindra Flyover Western Express", "amenity": "hospital", "emergency": "yes", "healthcare": "hospital", "healthcare:speciality": "abortion;fertility", "name": "tirupathi metarnal and general hospital", "opening_hours": "Mo-Su 10:00-22:00", "operator": "tirupathi private limited", "operator:type": "private"}}, {"type": "node", "id": 12487546421, "lat": 19.1856384, "lon": 72.8189267}, {"type": "node", "id": 12487546422, "lat": 19.1855307, "lon": 72.8194536}, {"type": "node", "id": 12487546423, "lat": 19.1852353, "lon": 72.8194058}, {"type": "node", "id": 12487546424, "lat": 19.1853488, "lon": 72.8188543}, {"type": "node", "id": 13294133382, "lat": 19.2068922, "lon": 72.8185123, "tags": {"addr:city": "Mumbai", "addr:district": "Charkop Village", "addr:housenumber": "Shop 1", "addr:postcode": "400067", "addr:street": "Charkop Gaon", "amenity": "hospital", "emergency": "yes", "healthcare": "hospital", "healthcare:speciality": "community", "name": "Sirvi Medical", "operator": "Suresh", "operator:type": "private"}}, {"type": "node", "id": 13430184140, "lat": 19.1624076, "lon": 72.8345101, "tags": {"amenity": "hospital", "healthcare": "hospital", "name": "GDHGDHGF"}}, {"type": "way", "id": 204886718, "nodes": [2148673134, 2148673144, 2148673135, 2148673136, 2148673121, 2148673069, 2148673071, 2148673123, 2148673134], "tags": {"amenity": "hospital", "building": "yes", "name": "Vimala Dermatological Centra"}}, {"type": "way", "id": 352788940, "nodes": [3585585054, 3585585055, 3585584993, 3585584992, 3585585054], "tags": {"addr:city": "Mumbai", "addr:district": "Mumbai Suburban", "addr:full": "CTS 374 / B(21), Padma Nagar, Chikuwadi, Borivali West, Mumbai", "addr:housenumber": "123", "addr:postcode": "400092", "addr:state": "Maharastra", "addr:street": "Chikuwadi", "amenity": "hospital", "email": "xyz@gmail.com", "healthcare": "hospital", "name": "Phoenix Hospital", "source": "Local Knowledge;gps"}}, {"type": "way", "id": 353426775, "nodes": [3592053136, 3592053135, 3592053137, 3592053138, 2308143720, 3592053124, 3592053117, 3592053118, 3592053121, 3592053122, 3592053119, 3592053120, 3592053126, 3592053127, 3592053131, 3592053130, 3592053133, 3592053134, 3592053136], "tags": {"addr:district": "Mumbai", "addr:full": "Ashoka Place, First Floor, Makranipada Road, Off Jitendra Road, Malad East", "addr:postcode": "400097", "addr:state": "Maharashtra", "amenity": "hospital", "building": "hospital", "emergency": "yes", "name": "Ashoka General Hospital I.C.C.U and Maternity Home", "source": "OpenGovernmentData"}}, {"type": "way", "id": 353815190, "nodes": [3596174444, 3642528551, 3642528546, 3642528547, 3642528552, 3596174445, 3596174405, 3596174404, 3596174444], "tags": {"addr:street": "turel pakhadi road", "amenity": "hospital", "healthcare": "hospital", "name": "janhavi nursing home"}}, {"type": "way", "id": 354802397, "nodes": [3604756977, 3604756979, 3604756953, 3604756952, 3604756954, 3604756955, 3604756974, 3604756973, 3604756977], "tags": {"addr:city": "Mumbai", "addr:district": "Mumbai Suburban", "addr:postcode": "400063", "addr:street": "Film City Road", "amenity": "hospital", "emergency": "yes", "healthcare": "hospital", "healthcare:speciality": "emergency;dental_oral_maxillo_facial_surgery;psychiatry", "name": "Radha Krishna Hospital"}}, {"type": "way", "id": 359075839, "nodes": [3638695765, 3638695763, 9384322539, 3638695753, 3638695754, 9384322540, 3638695765], "tags": {"amenity": "hospital", "healthcare": "hospital"}}, {"type": "way", "id": 554967613, "nodes": [5355278566, 5355278565, 5355278564, 5355278563, 5355278562, 5355278561, 5355278566], "tags": {"addr:city": "Mumbai", "addr:district": "Mumbai", "addr:full": "Hindu Hruday Samrat Balasaheb Thackerey Trauma Care, Opposite Jogeshwari Vikhroli Link Road, Jogeshwari East", "addr:postcode": "400060", "addr:state": "Maharashtra", "addr:street": "Western Express Highway", "amenity": "hospital", "healthcare": "hospital", "healthcare:speciality": "trauma", "name": "Hindu Hruday Samrat Balasaheb Thackerey Trauma Care Municipal Hospital", "name:etymology:wikidata": "Q61193", "opening_hours": "Mo-Su 07:00-23:00", "source": "OpenGovernmentData"}}, {"type": "way", "id": 628890939, "nodes": [5937631038, 5937631037, 5937631036, 5937631035, 5937631034, 5937631033, 5937631032, 5937631031, 5937631038], "tags": {"amenity": "hospital", "name": "Aarey Hospital"}}, {"type": "way", "id": 924798584, "nodes": [8582767492, 8582767493, 8582767494, 8582767495, 8582767492], "tags": {"addr:city": "Mumbai", "addr:postcode": "400063", "addr:street": "Aarey Road", "amenity": "hospital", "healthcare": "hospital", "healthcare:speciality": "maternity", "name": "Yashada Maternity and Nursing Home"}}, {"type": "way", "id": 1170399169, "nodes": [10879569042, 10879569041, 10879569040, 10879569039, 8796983347, 10879569042], "tags": {"addr:city": "Mumbai", "addr:full": "Fateh Baug, Kandivali West, Mumbai", "addr:postcode": "400067", "addr:state": "Maharashtra", "addr:street": "SV Road, Fateh Baug", "amenity": "hospital", "healthcare": "hospital", "name": "Dr.Babasaheb Ambedkar Bmc General Hospital", "name:etymology:wikidata": "Q231690", "source": "Local Knowledge", "website": "https://www.mcgm.gov.in/irj/portal/anonymous/qlratnambdhosp"}}, {"type": "way", "id": 1219694090, "nodes": [11301648369, 11301648370, 11301648371, 11301648372, 11301648373, 11301648374, 11301648369], "tags": {"amenity": "hospital", "healthcare": "hospital", "name": "Lifelline"}}, {"type": "way", "id": 1349894554, "nodes": [12487546421, 12487546422, 12487546423, 12487546424, 12487546421], "tags": {"amenity": "hospital", "healthcare": "hospital", "name": "Government Hospita"}}]}