{"version": 0.6, "generator": "Overpass API 0.7.62.8 e802775f", "osm3s": {"timestamp_osm_base": "2026-01-12T15:29:41Z", "copyright": "The data included in this document is from www.openstreetmap.org. The data is made available under ODbL."}, "elements": [{"type": "node", "id": 1794166166, "lat": 13.003447, "lon": 77.504284, "tags": {"addr:district": "Bangalore", "addr:full": "Hegganahalli", "addr:postcode": "560091", "addr:state": "Karnataka", "addr:subdistrict": "Bangalore North", "amenity": "hospital", "emergency": "no", "healthcare": "centre", "name": "Government Primary Health Centre", "name:kn": "\u0cb8\u0cb0\u0ccd\u0c95\u0cbe\u0cb0\u0cbf \u0caa\u0ccd\u0cb0\u0cbe\u0ca5\u0cae\u0cbf\u0c95 \u0c86\u0cb0\u0ccb\u0c97\u0ccd\u0caf \u0c95\u0cc7\u0c82\u0ca6\u0ccd\u0cb0", "source": "OpenGovernmentData"}}, {"type": "node", "id": 4447020601, "lat": 13.0226079, "lon": 77.4748015, "tags": {"addr:city": "bangalore", "addr:housenumber": "138", "addr:postcode": "560050", "addr:street": "NICE Peripheral Ring Road", "amenity": "hospital", "name": "Shri Vishnu Ent Speciality Center", "phone": "+91 80 2672 4211", "source": "www.justdial.com"}}, {"type": "node", "id": 4518518893, "lat": 12.9838763, "lon": 77.4788534, "tags": {"amenity": "hospital", "name": "Anupama Hospital", "name:en": "Anupama hospital", "name:kn": "\u0c85\u0ca8\u0cc1\u0caa\u0cae \u0c86\u0cb8\u0ccd\u0caa\u0ca4\u0ccd\u0cb0\u0cc6"}}, {"type": "node", "id": 6938777962, "lat": 12.9957177, "lon": 77.5031644, "tags": {"addr:district": "Bengaluru Rural", "addr:full": "# 1/3, Heggenanalli Main Road, Opposite Ganesh Temple, Near Peenya 2nd Stage, , Last Bus Stop", "addr:postcode": "560091", "addr:state": "Karnataka", "amenity": "hospital", "name": "Panchamukhi Specialityu Hospital", "source": "OpenGovernmentData"}}, {"type": "node", "id": 6944895084, "lat": 12.9868695, "lon": 77.4794832, "tags": {"addr:district": "Bengaluru Rural", "addr:full": "116/2, Herohalli, Anjananagar, Opposite Petrol Bunk", "addr:postcode": "560091", "addr:state": "Karnataka", "amenity": "hospital", "name": "S.S.G. Hospital", "source": "OpenGovernmentData"}}, {"type": "node", "id": 6947226705, "lat": 13.0004769, "lon": 77.5054027, "tags": {"addr:district": "Bengaluru Rural", "addr:full": "Ktg Educational Campus, Sy No. 93, Srigandadakaval, Sunkadakatte Road, Vishwaneedam Post", "addr:postcode": "560091", "addr:state": "Karnataka", "amenity": "hospital", "name": "K.T.G. Hospital", "source": "OpenGovernmentData"}}, {"type": "node", "id": 6947682046, "lat": 13.0068811, "lon": 77.5055636, "tags": {"addr:district": "Bengaluru Rural", "addr:full": "208, 210, Hegganahalli Main Road, Near Peenya 2nd Stage, Hegganahalli", "addr:postcode": "560091", "addr:state": "Karnataka", "amenity": "hospital", "name": "Jai Maruthi Hospital", "source": "OpenGovernmentData"}}, {"type": "node", "id": 7202935749, "lat": 13.031132, "lon": 77.483923, "tags": {"addr:district": "Bangalore", "addr:full": "Thippenahalli", "addr:postcode": "560073", "addr:state": "Karnataka", "addr:subdistrict": "Bangalore North", "amenity": "hospital", "name": "Thippenalli Government Hospital", "source": "OpenGovernmentData"}}, {"type": "node", "id": 7202935821, "lat": 12.9629127, "lon": 77.4751834, "tags": {"addr:district": "Bangalore", "addr:full": "Sir M Vishweshwaraiah Layout 6th Block, Ullal Uppanagar", "addr:postcode": "560056", "addr:state": "Karnataka", "addr:subdistrict": "Bangalore North", "amenity": "hospital", "name": "Ullalu Government Hospital", "source": "OpenGovernmentData"}}, {"type": "node", "id": 7489626471, "lat": 13.0413777, "lon": 77.5050224, "tags": {"amenity": "hospital", "healthcare": "hospital", "name": "naveen clinc"}}, {"type": "node", "id": 7572526764, "lat": 12.963967, "lon": 77.4973049, "tags": {"addr:district": "Bengaluru Urban", "addr:full": "Vishweshwaraiah Layout, Annapurneshwari Nagar, Bengaluru", "addr:postcode": "560056", "addr:state": "Karnataka", "amenity": "hospital", "name": "Abivrud Cancer Care & Research Centre", "source": "Local Knowledge"}}, {"type": "node", "id": 7572526785, "lat": 12.9679971, "lon": 77.5015759, "tags": {"addr:district": "Bengaluru Urban", "addr:full": "Radhakrishna Main Road, Mines &,Geology Layout, Mallathahalli, Bengaluru", "addr:postcode": "560056", "addr:state": "Karnataka", "amenity": "hospital", "name": "Revathi Hospital", "source": "Local Knowledge"}}, {"type": "node", "id": 8188038578, "lat": 13.0313399, "lon": 77.5055985, "tags": {"addr:full": "Bengaluru, Nalagadderanahalli, Peenya, Bengaluru, Karnataka", "addr:state": "Karnataka", "amenity": "hospital", "name": "Ashwini Hospital", "name:kn": "\u0c85\u0cb6\u0ccd\u0cb5\u0cbf\u0ca8\u0cbf \u0c86\u0cb8\u0ccd\u0caa\u0ca4\u0ccd\u0cb0\u0cc6"}}, {"type": "node", "id": 8188038795, "lat": 12.9831814, "lon": 77.4787872, "tags": {"addr:full": "72/3 CIIQ, Magadi Main Road, Bel Layout, 2nd Phase, Near Karnataka Bank, Byadarahalli, Balaji Layout, Bedarahalli, Bengaluru, Karnataka", "addr:state": "Karnataka", "amenity": "hospital", "name": "Anupama Hospital", "name:kn": "\u0c85\u0ca8\u0cc1\u0caa\u0cae \u0c86\u0cb8\u0ccd\u0caa\u0ca4\u0ccd\u0cb0\u0cc6"}}]}