{"version": 0.6, "generator": "Overpass API 0.7.62.8 e802775f", "osm3s": {"timestamp_osm_base": "2026-01-15T15:16:54Z", "copyright": "The data included in this document is from www.openstreetmap.org. The data is made available under ODbL."}, "elements": [{"type": "node", "id": 305501075, "lat": 51.4121015, "lon": 5.5468045}, {"type": "node", "id": 305501076, "lat": 51.4119028, "lon": 5.5469396}, {"type": "node", "id": 305501077, "lat": 51.4115621, "lon": 5.5471557}, {"type": "node", "id": 996248916, "lat": 51.4115272, "lon": 5.5468779}, {"type": "node", "id": 996371363, "lat": 51.4117084, "lon": 5.5460841}, {"type": "node", "id": 2742800400, "lat": 51.4225443, "lon": 5.503353, "tags": {"addr:city": "Eindhoven", "addr:housenumber": "21", "addr:postcode": "5643MR", "addr:street": "Rector Baptistlaan", "amenity": "school", "name": "Global College Eindhoven", "source": "BAG", "source:date": "2014-03-24", "website": "https://www.globalcollege.nl"}}, {"type": "node", "id": 2871233703, "lat": 51.4122514, "lon": 5.5464238, "tags": {"addr:city": "Geldrop", "addr:housenumber": "1", "addr:postcode": "5663SK", "addr:street": "Saruman", "amenity": "school", "email": "ganzebloem@geldrophetnut.nl", "isced:level": "0;1", "name": "De Ganzebloem", "official_name": "Basisschool De Ganzebloem", "operator": "SILFO", "operator:website": "https://www.silfo.nl/", "operator:wikidata": "Q121840741", "phone": "+31 40 280 2217", "school": "primary", "source": "BAG", "source:date": "2014-05-20", "website": "https://www.deganzebloem.nl/", "wikidata": "Q22754148"}}, {"type": "node", "id": 4577469224, "lat": 51.4114498, "lon": 5.5462096}, {"type": "node", "id": 4577469225, "lat": 51.411688, "lon": 5.5460921}, {"type": "node", "id": 4577469227, "lat": 51.411468, "lon": 5.5461914}, {"type": "node", "id": 4577469228, "lat": 51.4114997, "lon": 5.5461794}, {"type": "node", "id": 4577469229, "lat": 51.4114974, "lon": 5.5461637}, {"type": "node", "id": 4577469232, "lat": 51.4124229, "lon": 5.5464284}, {"type": "node", "id": 4577469233, "lat": 51.4124598, "lon": 5.5465046}, {"type": "node", "id": 4577469234, "lat": 51.4123551, "lon": 5.5466386}, {"type": "node", "id": 4577469243, "lat": 51.4121079, "lon": 5.5458843}, {"type": "node", "id": 4577469244, "lat": 51.412028, "lon": 5.5459023}, {"type": "node", "id": 4577469245, "lat": 51.4117973, "lon": 5.5460506}, {"type": "node", "id": 11136360765, "lat": 51.4189019, "lon": 5.5531669}, {"type": "node", "id": 11136360766, "lat": 51.4188064, "lon": 5.5529653}, {"type": "node", "id": 11136360767, "lat": 51.4184425, "lon": 5.5533211}, {"type": "node", "id": 11136360768, "lat": 51.4185812, "lon": 5.5536717}, {"type": "node", "id": 11136360769, "lat": 51.4184078, "lon": 5.5538522}, {"type": "node", "id": 11136360770, "lat": 51.418504, "lon": 5.5540737}, {"type": "node", "id": 11136360771, "lat": 51.4187462, "lon": 5.5538302}, {"type": "node", "id": 11136360772, "lat": 51.4192135, "lon": 5.5542143}, {"type": "node", "id": 11136360773, "lat": 51.4192698, "lon": 5.5537252}, {"type": "node", "id": 11136472197, "lat": 51.4192387, "lon": 5.5420385}, {"type": "node", "id": 11136472198, "lat": 51.4194453, "lon": 5.5431059}, {"type": "node", "id": 11136472199, "lat": 51.4190497, "lon": 5.5433473}, {"type": "node", "id": 11136472200, "lat": 51.4189728, "lon": 5.5429527}, {"type": "node", "id": 11136472201, "lat": 51.4189022, "lon": 5.542956}, {"type": "node", "id": 11136472202, "lat": 51.418815, "lon": 5.5423832}, {"type": "node", "id": 11136472203, "lat": 51.4189427, "lon": 5.5423383}, {"type": "node", "id": 11136472204, "lat": 51.4189157, "lon": 5.5421551}, {"type": "node", "id": 11136495705, "lat": 51.4189884, "lon": 5.5440741}, {"type": "node", "id": 11136495706, "lat": 51.418843, "lon": 5.544209}, {"type": "node", "id": 11136495707, "lat": 51.4193259, "lon": 5.5444363}, {"type": "node", "id": 11136495708, "lat": 51.4196914, "lon": 5.5440999}, {"type": "node", "id": 11136495709, "lat": 51.4196094, "lon": 5.5438602}, {"type": "node", "id": 11136495710, "lat": 51.4195533, "lon": 5.5436487}, {"type": "node", "id": 11142392756, "lat": 51.4177395, "lon": 5.5090881}, {"type": "node", "id": 11142392757, "lat": 51.4177671, "lon": 5.5094122}, {"type": "node", "id": 11142392758, "lat": 51.4177587, "lon": 5.5095611}, {"type": "node", "id": 11142392759, "lat": 51.4177796, "lon": 5.5098353}, {"type": "node", "id": 11142392760, "lat": 51.4178302, "lon": 5.5099131}, {"type": "node", "id": 11142392761, "lat": 51.4178377, "lon": 5.5100171}, {"type": "node", "id": 11142392762, "lat": 51.4173443, "lon": 5.5101398}, {"type": "node", "id": 11142392763, "lat": 51.4172389, "lon": 5.5088952}, {"type": "node", "id": 11142392764, "lat": 51.4172473, "lon": 5.508863}, {"type": "node", "id": 11142392765, "lat": 51.4174668, "lon": 5.5085294}, {"type": "node", "id": 11147145274, "lat": 51.4218508, "lon": 5.4959091}, {"type": "node", "id": 11147145275, "lat": 51.4220597, "lon": 5.4964454}, {"type": "node", "id": 11147145276, "lat": 51.4218645, "lon": 5.4966358}, {"type": "node", "id": 11147145277, "lat": 51.4217258, "lon": 5.496807}, {"type": "node", "id": 11147145278, "lat": 51.4217093, "lon": 5.4968143}, {"type": "node", "id": 11147145279, "lat": 51.4216933, "lon": 5.4968088}, {"type": "node", "id": 11147145280, "lat": 51.4215061, "lon": 5.4964894}, {"type": "node", "id": 11147145281, "lat": 51.4214901, "lon": 5.4964509}, {"type": "node", "id": 11147145282, "lat": 51.4214798, "lon": 5.4964143}, {"type": "node", "id": 11147145283, "lat": 51.4214422, "lon": 5.4960299}, {"type": "node", "id": 11285035780, "lat": 51.4119006, "lon": 5.5459842}, {"type": "node", "id": 11285035786, "lat": 51.4121422, "lon": 5.5459415}, {"type": "node", "id": 11392421106, "lat": 51.420359, "lon": 5.5042312}, {"type": "node", "id": 11392421107, "lat": 51.4204889, "lon": 5.5044075}, {"type": "node", "id": 11392421108, "lat": 51.4209443, "lon": 5.5046222}, {"type": "node", "id": 11392421109, "lat": 51.4210596, "lon": 5.504002}, {"type": "node", "id": 11392421110, "lat": 51.4211191, "lon": 5.5039123}, {"type": "node", "id": 11392421111, "lat": 51.4208449, "lon": 5.5034453}, {"type": "node", "id": 12609366113, "lat": 51.4204387, "lon": 5.504059}, {"type": "way", "id": 27823841, "nodes": [305501077, 996248916, 4577469224, 4577469227, 4577469228, 4577469229, 4577469225, 996371363, 4577469245, 11285035780, 4577469244, 4577469243, 11285035786, 4577469232, 4577469233, 4577469234, 305501075, 305501076, 305501077], "tags": {"amenity": "school", "landuse": "education"}}, {"type": "way", "id": 1201107685, "nodes": [11136360773, 11136360772, 11136360771, 11136360770, 11136360769, 11136360768, 11136360767, 11136360766, 11136360765, 11136360773], "tags": {"addr:city": "Geldrop", "addr:housenumber": "8", "addr:postcode": "5664AC", "addr:street": "Parallelweg", "amenity": "school", "capacity": "180", "denomination": "roman_catholic", "email": "vdputt@eenbes.nl", "isced:level": "0;1", "max_age": "12", "min_age": "4", "name": "Van der Puttschool", "official_name": "Eenbes Speciaal Basisonderwijs Van der Puttschool", "operator": "Eenbes", "operator:website": "https://www.eenbes.nl/", "operator:wikidata": "Q121761226", "pedagogy": "Speciaal onderwijs (SO)", "phone": "+31 40 286 2464", "religion": "christian", "school": "primary", "website": "https://www.vdputt.nl/"}}, {"type": "way", "id": 1201118116, "nodes": [11136472204, 11136472203, 11136472202, 11136472201, 11136472200, 11136472199, 11136472198, 11136472197, 11136472204], "tags": {"addr:city": "Geldrop", "addr:housenumber": "10", "addr:postcode": "5663AH", "addr:street": "Papenvoort", "amenity": "school", "email": "stjozef@eenbes.nl", "isced:level": "0;1", "name": "Sint Jozef", "official_name": "Eenbes Basisschool Sint Jozef", "operator:website": "https://www.eenbes.nl/", "operator:wikidata": "Q121761226", "phone": "+31 88 800 1700", "school": "primary", "website": "https://www.sintjozefgeldrop.nl/", "wikidata": "Q22754249"}}, {"type": "way", "id": 1201118117, "nodes": [11136495710, 11136495709, 11136495708, 11136495707, 11136495706, 11136495705, 11136495710], "tags": {"addr:city": "Geldrop", "addr:housenumber": "1", "addr:postcode": "5663CE", "addr:street": "Gildestraat", "amenity": "school", "email": "stjozef@eenbes.nl", "isced:level": "0;1", "name": "Sint Jozef", "official_name": "Eenbes Basisschool Sint Jozef", "operator:website": "https://www.eenbes.nl/", "operator:wikidata": "Q121761226", "phone": "+31 88 800 1700", "school": "primary", "website": "https://www.sintjozefgeldrop.nl/", "wikidata": "Q22754249"}}, {"type": "way", "id": 1201807132, "nodes": [11142392765, 11142392764, 11142392763, 11142392762, 11142392761, 11142392760, 11142392759, 11142392758, 11142392757, 11142392756, 11142392765], "tags": {"addr:city": "Eindhoven", "addr:housenumber": "1", "addr:postcode": "5646JD", "addr:street": "Kanunnikensven", "amenity": "school", "email": "info-reisvanbrandaan@skpo.nl", "isced:level": "0;1", "name": "De Reis van Brandaan", "operator": "SKPO", "operator:website": "https://www.skpo.nl/", "operator:wikidata": "Q121792961", "phone": "+31 40 211 1822", "school": "primary", "website": "https://www.dereisvanbrandaan.nl/"}}, {"type": "way", "id": 1202431908, "nodes": [11147145283, 11147145282, 11147145281, 11147145280, 11147145279, 11147145278, 11147145277, 11147145276, 11147145275, 11147145274, 11147145283], "tags": {"addr:city": "Eindhoven", "addr:housenumber": "1", "addr:postcode": "5643CJ", "addr:street": "Mimosaplein", "amenity": "school", "email": "info@vbs-deregenboog.nl", "isced:level": "0;1", "name": "De Regenboog", "official_name": "Vrije Basisschool De Regenboog", "pedagogy": "waldorf", "philosophy": "anthroposophy", "phone": "+31 40 211 0648", "school": "primary", "website": "https://www.vbs-deregenboog.nl/", "wikidata": "Q22754036"}}, {"type": "way", "id": 1228473263, "nodes": [11392421110, 11392421109, 11392421108, 11392421107, 11392421106, 12609366113, 11392421111, 11392421110], "tags": {"addr:city": "Eindhoven", "addr:housenumber": "347", "addr:postcode": "5643KG", "addr:street": "Heezerweg", "amenity": "school", "isced:level": "0;1", "name": "De Zevensprong", "official_name": "Openbare Basisschool De Zevensprong", "school": "primary"}}]}