{"version": 0.6, "generator": "Overpass API 0.7.62.8 e802775f", "osm3s": {"timestamp_osm_base": "2026-01-13T03:54:29Z", "copyright": "The data included in this document is from www.openstreetmap.org. The data is made available under ODbL."}, "elements": [{"type": "node", "id": 2412780245, "lat": 17.3714708, "lon": 78.5694911, "tags": {"bus": "yes", "highway": "bus_stop", "name": "Bandlaguda", "operator": "APSRTC", "public_transport": "platform", "shelter": "no"}}, {"type": "node", "id": 2585284355, "lat": 17.4016547, "lon": 78.5688139, "tags": {"highway": "bus_stop", "name": "Uppal", "operator": "APSRTC", "shelter": "yes"}}, {"type": "node", "id": 4382893291, "lat": 17.412183, "lon": 78.5856175, "tags": {"artwork_type": "statue", "bus": "yes", "highway": "bus_stop", "material": "metal", "name": "Boduppal NTR Statue;NTR Statue", "name:en": "Boduppal NTR Statue", "public_transport": "platform", "tourism": "artwork"}}, {"type": "node", "id": 4791192809, "lat": 17.3792607, "lon": 78.5724297, "tags": {"bus": "yes", "highway": "bus_stop", "name": "Jaipuri Last bus stop", "public_transport": "platform"}}, {"type": "node", "id": 4978986461, "lat": 17.3627658, "lon": 78.5638404, "tags": {"highway": "bus_stop", "name": "Chanikyapuri Colony Bus Stop"}}, {"type": "node", "id": 6570261860, "lat": 17.4230516, "lon": 78.5666056, "tags": {"bus": "yes", "highway": "bus_stop", "name": "Hemanagar Bus Stop", "operator": "APSRTC", "public_transport": "platform", "shelter": "yes"}}, {"type": "node", "id": 7243975384, "lat": 17.371557, "lon": 78.5694429, "tags": {"bus": "yes", "highway": "bus_stop", "name": "Jaipuri colony bus stop", "public_transport": "platform"}}, {"type": "node", "id": 7716269364, "lat": 17.4184052, "lon": 78.5845384, "tags": {"bus": "yes", "highway": "bus_stop", "name": "Boduppal Ambedkar statue", "name:en": "Boduppal Ambedkar statue", "public_transport": "platform"}}, {"type": "node", "id": 7716299123, "lat": 17.4183442, "lon": 78.5845955, "tags": {"bus": "yes", "highway": "bus_stop", "name": "Boduppal Ambedkar statue", "name:en": "Boduppal Ambedkar statue", "public_transport": "platform"}}, {"type": "node", "id": 8111142847, "lat": 17.414842, "lon": 78.5710841, "tags": {"bus": "yes", "highway": "bus_stop", "name": "Balaji hills colony bustop", "public_transport": "platform"}}, {"type": "node", "id": 8111166889, "lat": 17.4014901, "lon": 78.5652061, "tags": {"bus": "yes", "highway": "bus_stop", "public_transport": "platform"}}, {"type": "node", "id": 8386754559, "lat": 17.4047353, "lon": 78.5865032, "tags": {"bus": "yes", "highway": "bus_stop", "name": "Boduppal bustop", "public_transport": "platform"}}, {"type": "node", "id": 8386754560, "lat": 17.4045179, "lon": 78.5865916, "tags": {"bus": "yes", "highway": "bus_stop", "name": "Boduppal bustop", "public_transport": "platform"}}, {"type": "node", "id": 8386754561, "lat": 17.4013874, "lon": 78.5714637, "tags": {"bus": "yes", "highway": "bus_stop", "public_transport": "platform"}}, {"type": "node", "id": 8386754562, "lat": 17.4013519, "lon": 78.565498, "tags": {"bus": "yes", "highway": "bus_stop", "public_transport": "platform"}}, {"type": "node", "id": 9679094010, "lat": 17.4191988, "lon": 78.6101468, "tags": {"amenity": "bus_station", "bus": "yes", "name": "TSRTC BUS DEPOT, CHANGICHERLA", "public_transport": "station"}}, {"type": "node", "id": 10992518095, "lat": 17.4045224, "lon": 78.5895715, "tags": {"amenity": "bus_station", "bus": "yes", "name": "TSRTC BUS DEPOT, UPPAL", "public_transport": "station"}}, {"type": "node", "id": 10992518096, "lat": 17.3654488, "lon": 78.5885511, "tags": {"amenity": "bus_station", "bus": "yes", "name": "TSRTC BUS DEPOT , BANDLAGUDA", "public_transport": "station"}}, {"type": "node", "id": 11185517430, "lat": 17.4017664, "lon": 78.5683813}, {"type": "node", "id": 11185517431, "lat": 17.4018474, "lon": 78.5683985}, {"type": "node", "id": 11185517432, "lat": 17.4019111, "lon": 78.5685085}, {"type": "node", "id": 11185517433, "lat": 17.4018887, "lon": 78.5685979}, {"type": "node", "id": 11185517434, "lat": 17.4017725, "lon": 78.568569}, {"type": "node", "id": 11185517435, "lat": 17.4016829, "lon": 78.5684923}, {"type": "node", "id": 11373181969, "lat": 17.4199483, "lon": 78.6068151, "tags": {"highway": "bus_stop", "name": "RTC Colony"}}, {"type": "node", "id": 11373181970, "lat": 17.4114348, "lon": 78.6070496, "tags": {"highway": "bus_stop", "name": "Chengicherla IDA Entrance", "tourism": "viewpoint"}}, {"type": "node", "id": 11373182069, "lat": 17.4227511, "lon": 78.6060886, "tags": {"highway": "bus_stop", "name": "Chengicherla Depot Bus Stop"}}, {"type": "node", "id": 11373182169, "lat": 17.4013579, "lon": 78.5815697, "tags": {"highway": "bus_stop", "name": "Peerzadiguda Road Bus Stop"}}, {"type": "node", "id": 11373182269, "lat": 17.4053501, "lon": 78.588911, "tags": {"highway": "bus_stop", "name": "Uppal Depot Bus Stop"}}, {"type": "node", "id": 11385065571, "lat": 17.4332003, "lon": 78.6084647, "tags": {"highway": "bus_stop", "name": "Chengicherla"}}, {"type": "node", "id": 11385092469, "lat": 17.4331107, "lon": 78.6085864, "tags": {"highway": "bus_stop", "name": "Chengicherla"}}, {"type": "node", "id": 11531549769, "lat": 17.4227743, "lon": 78.6061024, "tags": {"highway": "bus_stop", "name": "Chengicherla Bus Depot road"}}, {"type": "node", "id": 11595483069, "lat": 17.4114477, "lon": 78.6070518, "tags": {"highway": "bus_stop", "name": "Chengicherla Road Bus Stop"}}, {"type": "node", "id": 13324778746, "lat": 17.380171, "lon": 78.5821085, "tags": {"bus": "yes", "highway": "bus_stop", "public_transport": "platform"}}, {"type": "way", "id": 1207148674, "nodes": [11185517430, 11185517431, 11185517432, 11185517433, 11185517434, 11185517435, 11185517430], "tags": {"amenity": "bus_station", "bus": "yes", "name": "Uppal Bus Station", "public_transport": "station"}}]}