{"version": 0.6, "generator": "Overpass API 0.7.62.8 e802775f", "osm3s": {"timestamp_osm_base": "2026-01-13T03:46:21Z", "copyright": "The data included in this document is from www.openstreetmap.org. The data is made available under ODbL."}, "elements": [{"type": "node", "id": 1598136849, "lat": 17.3685468, "lon": 78.5329092, "tags": {"bus": "yes", "highway": "bus_stop", "name": "Chaitanyapuri Bus Stop", "public_transport": "platform", "shelter": "yes"}}, {"type": "node", "id": 2183029318, "lat": 17.3696562, "lon": 78.516472, "tags": {"alt_name": "TV Tower", "bus": "yes", "highway": "bus_stop", "name": "Moosarambagh", "public_transport": "platform"}}, {"type": "node", "id": 2183029321, "lat": 17.3729311, "lon": 78.5055031, "tags": {"bus": "yes", "highway": "bus_stop", "name": "Chermas", "public_transport": "platform"}}, {"type": "node", "id": 2183029322, "lat": 17.3687814, "lon": 78.5240908, "tags": {"bus": "yes", "highway": "bus_stop", "name": "Dilsukhnagar", "public_transport": "platform"}}, {"type": "node", "id": 2183029324, "lat": 17.3486646, "lon": 78.5490541, "tags": {"bus": "yes", "highway": "bus_stop", "name": "LB Nagar City Bus Stop", "public_transport": "platform"}}, {"type": "node", "id": 2183029325, "lat": 17.3684307, "lon": 78.5234283, "tags": {"bus": "yes", "highway": "bus_stop", "name": "Dilsukhnagar", "public_transport": "platform"}}, {"type": "node", "id": 2183029331, "lat": 17.3462745, "lon": 78.5516485, "tags": {"highway": "bus_stop", "name": "LB Nagar Bus Stop"}}, {"type": "node", "id": 2183029333, "lat": 17.3682899, "lon": 78.5302921, "tags": {"bus": "yes", "fixme": "name", "highway": "bus_stop", "name": "Chaitanyapuri", "operator": "APSRTC Hyderabad", "public_transport": "platform", "shelter": "yes"}}, {"type": "node", "id": 2183029334, "lat": 17.3687195, "lon": 78.5371176, "tags": {"bus": "yes", "fixme": "name", "highway": "bus_stop", "name": "Fruit Market Bus Stop", "public_transport": "platform", "shelter": "yes"}}, {"type": "node", "id": 2183029335, "lat": 17.3743569, "lon": 78.5032335, "tags": {"alt_name": "Chermas", "bus": "yes", "highway": "bus_stop", "name": "Malakpet Market", "public_transport": "platform"}}, {"type": "node", "id": 2183029337, "lat": 17.3684129, "lon": 78.5245602, "tags": {"bus": "yes", "highway": "bus_stop", "name": "Dilsukhnagar", "public_transport": "platform"}}, {"type": "node", "id": 2183029338, "lat": 17.3458535, "lon": 78.5521977, "tags": {"highway": "bus_stop", "name": "LB Nagar"}}, {"type": "node", "id": 2183029341, "lat": 17.3700425, "lon": 78.5139933, "tags": {"bus": "yes", "fixme": "name", "highway": "bus_stop", "public_transport": "platform"}}, {"type": "node", "id": 2185000162, "lat": 17.3384414, "lon": 78.5687124, "tags": {"alt_name": "Vanasthalipuram", "bus": "yes", "highway": "bus_stop", "name": "Panama", "public_transport": "platform"}}, {"type": "node", "id": 2185000163, "lat": 17.3379617, "lon": 78.5690846, "tags": {"bus": "yes", "highway": "bus_stop", "name": "Panama", "public_transport": "platform"}}, {"type": "node", "id": 2199508157, "lat": 17.3724345, "lon": 78.5092099, "tags": {"alt_name": "Malakpet Super Bazaar", "bus": "yes", "highway": "bus_stop", "name": "Super Bazaar", "public_transport": "platform"}}, {"type": "node", "id": 2199508159, "lat": 17.3628066, "lon": 78.5438533, "tags": {"alt_name": "Asta Lakshmi", "highway": "bus_stop", "name": "Dwaraka Nagar"}}, {"type": "node", "id": 2199508160, "lat": 17.33679, "lon": 78.5741408, "tags": {"alt_name": "Sushma", "bus": "yes", "highway": "bus_stop", "name": "Vanasthalipuram", "public_transport": "platform"}}, {"type": "node", "id": 2199508162, "lat": 17.3327985, "lon": 78.5895099, "tags": {"bus": "yes", "highway": "bus_stop", "name": "Bhagyalatha", "public_transport": "platform"}}, {"type": "node", "id": 2199508163, "lat": 17.3301662, "lon": 78.5941849, "tags": {"bus": "yes", "highway": "bus_stop", "name": "Hayathnagar Bus Depot", "public_transport": "platform"}}, {"type": "node", "id": 2199508169, "lat": 17.3408353, "lon": 78.5625858, "tags": {"highway": "bus_stop", "name": "Chintalkunta"}}, {"type": "node", "id": 2199508171, "lat": 17.3548831, "lon": 78.5458945, "tags": {"highway": "bus_stop", "name": "NTR Nagar Bus Stop", "shelter": "yes"}}, {"type": "node", "id": 2199524801, "lat": 17.3425656, "lon": 78.5564492, "tags": {"highway": "bus_stop", "name": "Check Post"}}, {"type": "node", "id": 2199524802, "lat": 17.3365928, "lon": 78.5736125, "tags": {"alt_name": "Sushma", "bus": "yes", "highway": "bus_stop", "name": "Vanasthalipuram", "public_transport": "platform"}}, {"type": "node", "id": 2199524804, "lat": 17.3627858, "lon": 78.5435264, "tags": {"alt_name": "Asta Lakshmi", "highway": "bus_stop", "name": "Dwaraka Nagar"}}, {"type": "node", "id": 2199524806, "lat": 17.3348161, "lon": 78.5847838, "tags": {"bus": "yes", "highway": "bus_stop", "name": "High Court Colony", "public_transport": "platform"}}, {"type": "node", "id": 2217950176, "lat": 17.3430236, "lon": 78.5563699, "tags": {"highway": "bus_stop", "name": "Check Post"}}, {"type": "node", "id": 2217950184, "lat": 17.336273, "lon": 78.5787408, "tags": {"bus": "yes", "highway": "bus_stop", "public_transport": "platform"}}, {"type": "node", "id": 2217960497, "lat": 17.3684433, "lon": 78.5228597, "tags": {"bus": "yes", "highway": "bus_stop", "name": "Dilsukhnagar", "public_transport": "platform"}}, {"type": "node", "id": 2217960505, "lat": 17.3500083, "lon": 78.5475524, "tags": {"highway": "bus_stop", "name": "LB Nagar"}}, {"type": "node", "id": 2217960511, "lat": 17.355619, "lon": 78.5452928, "tags": {"highway": "bus_stop", "name": "Doctors Colony Bus Stop", "shelter": "no"}}, {"type": "node", "id": 2217960523, "lat": 17.3327498, "lon": 78.5890542, "tags": {"bus": "yes", "highway": "bus_stop", "name": "Bhagyalatha", "public_transport": "platform"}}, {"type": "node", "id": 2412780245, "lat": 17.3714708, "lon": 78.5694911, "tags": {"bus": "yes", "highway": "bus_stop", "name": "Bandlaguda", "operator": "APSRTC", "public_transport": "platform", "shelter": "no"}}, {"type": "node", "id": 2422988927, "lat": 17.3686554, "lon": 78.521963}, {"type": "node", "id": 2422988928, "lat": 17.3675923, "lon": 78.5398072}, {"type": "node", "id": 2422988929, "lat": 17.3642567, "lon": 78.5432238}, {"type": "node", "id": 2422988932, "lat": 17.3656826, "lon": 78.5423016}, {"type": "node", "id": 2422988946, "lat": 17.3699876, "lon": 78.5141319}, {"type": "node", "id": 2422988985, "lat": 17.3664966, "lon": 78.5415131}, {"type": "node", "id": 2422989005, "lat": 17.36831, "lon": 78.5361908, "tags": {"addr:city": "Hyderabad", "addr:city:ar": "\u062d\u064a\u062f\u0631 \u0622\u0628\u0627\u062f", "addr:city:ur": "\u062d\u06cc\u062f\u0631\u0622\u0628\u0627\u062f", "name": "Chaitanyapuri", "name:ml": "\u0d1a\u0d48\u0d24\u0d28\u0d4d\u0d2f\u0d2a\u0d41\u0d30\u0d3f", "name:te": "\u0c1b\u0c48\u0c24\u0c28\u0c4d\u0c2f\u0c2a\u0c41\u0c30\u0c3f", "network": "Hyderabad Metro", "note": "Contributors are requested to not edit the \"network\" and the \"operator\" tags. (2023/11/08)", "operator": "Hyderabad Metro Rail Limited", "public_transport": "stop_position", "railway": "stop", "subway": "yes", "wheelchair": "yes"}}, {"type": "node", "id": 2422989007, "lat": 17.3734454, "lon": 78.5031791, "tags": {"addr:city": "Hyderabad", "addr:city:ar": "\u062d\u064a\u062f\u0631 \u0622\u0628\u0627\u062f", "addr:city:ur": "\u062d\u06cc\u062f\u0631\u0622\u0628\u0627\u062f", "alt_name": "\u0645\u062d\u0628\u0648\u0628 \u06af\u0646\u062c", "name": "New Market", "name:ml": "\u0d28\u0d4d\u0d2f\u0d42\u0d2e\u0d3e\u0d7c\u0d15\u0d4d\u0d15\u0d31\u0d4d\u0d31\u0d4d", "name:te": "\u0c15\u0c4a\u0c24\u0c4d\u0c24 \u0c2e\u0c3e\u0c30\u0c4d\u0c15\u0c46\u0c1f\u0c4d", "name:ur": "\u0646\u0626\u06cc \u0645\u0627\u0631\u06a9\u06cc\u0679", "network": "Hyderabad Metro", "note": "Contributors are requested to not edit the \"network\" and the \"operator\" tags. (2023/11/08)", "operator": "Hyderabad Metro Rail Limited", "public_transport": "stop_position", "public_transport:version": "2", "railway": "stop", "subway": "yes"}}, {"type": "node", "id": 2422989076, "lat": 17.3649479, "lon": 78.5428375}, {"type": "node", "id": 2422989078, "lat": 17.3682951, "lon": 78.536865}, {"type": "node", "id": 2422989119, "lat": 17.3474138, "lon": 78.5498869}, {"type": "node", "id": 2422989133, "lat": 17.3618565, "lon": 78.5439622, "tags": {"addr:city": "Hyderabad", "addr:city:ar": "\u062d\u064a\u062f\u0631 \u0622\u0628\u0627\u062f", "addr:city:ur": "\u062d\u06cc\u062f\u0631\u0622\u0628\u0627\u062f", "name": "Victoria Memorial", "name:ml": "\u0d35\u0d3f\u0d15\u0d4d\u0d1f\u0d4b\u0d31\u0d3f\u0d2f \u0d2e\u0d46\u0d2e\u0d4d\u0d2e\u0d4b\u0d31\u0d3f\u0d2f\u0d7d", "name:te": "\u0c35\u0c3f\u0c15\u0c4d\u0c1f\u0c4b\u0c30\u0c3f\u0c2f\u0c3e \u0c2e\u0c46\u0c2e\u0c4b\u0c30\u0c3f\u0c2f\u0c32\u0c4d", "network": "Hyderabad Metro", "note": "Contributors are requested to not edit the \"network\" and the \"operator\" tags. (2023/11/08)", "operator": "Hyderabad Metro Rail Limited", "public_transport": "stop_position", "public_transport:version": "2", "railway": "stop", "subway": "yes", "wheelchair": "yes"}}, {"type": "node", "id": 2422989150, "lat": 17.3671359, "lon": 78.540644}, {"type": "node", "id": 2422989167, "lat": 17.3685631, "lon": 78.5257183, "tags": {"addr:city": "Hyderabad", "addr:city:ar": "\u062d\u064a\u062f\u0631 \u0622\u0628\u0627\u062f", "addr:city:ur": "\u062d\u06cc\u062f\u0631\u0622\u0628\u0627\u062f", "name": "Dilsukh Nagar", "name:ml": "\u0d26\u0d3f\u0d7d\u0d38\u0d41\u0d16\u0d4d\u0d28\u0d17\u0d7c", "name:te": "\u0c26\u0c3f\u0c32\u0c4d\u200c\u0c38\u0c41\u0c16\u0c4d\u200c\u0c28\u0c17\u0c30\u0c4d", "network": "Hyderabad Metro", "note": "Contributors are requested to not edit the \"network\" and the \"operator\" tags. (2023/11/08)", "operator": "Hyderabad Metro Rail Limited", "public_transport": "stop_position", "public_transport:version": "2", "railway": "stop", "subway": "yes", "wheelchair": "yes"}}, {"type": "node", "id": 2422989176, "lat": 17.3736836, "lon": 78.5013433}, {"type": "node", "id": 2422989201, "lat": 17.3679146, "lon": 78.5389972}, {"type": "node", "id": 2422989233, "lat": 17.3517626, "lon": 78.5466148}, {"type": "node", "id": 2422989248, "lat": 17.3510698, "lon": 78.546974}, {"type": "node", "id": 2422989258, "lat": 17.3635578, "lon": 78.5434979}, {"type": "node", "id": 2430216676, "lat": 17.3651918, "lon": 78.5568927, "tags": {"highway": "bus_stop", "name": "Alkapuri Bus Stop", "name:te": "\u0c05\u0c32\u0c4d\u0c15\u0c3e\u0c2a\u0c42\u0c30\u0c3f \u0c2c\u0c38\u0c4d \u0c38\u0c4d\u0c1f\u0c3e\u0c2a\u0c4d"}}, {"type": "node", "id": 2461524533, "lat": 17.340029, "lon": 78.5033878, "tags": {"amenity": "bus_station", "bus": "yes", "name": "TSRTC BUS STAND , MIDHANI", "public_transport": "station"}}, {"type": "node", "id": 2706868235, "lat": 17.3631643, "lon": 78.5305888}, {"type": "node", "id": 2706868237, "lat": 17.3628828, "lon": 78.5305134}, {"type": "node", "id": 2706868239, "lat": 17.3629234, "lon": 78.5303472}, {"type": "node", "id": 3157569719, "lat": 17.3467185, "lon": 78.5081947, "tags": {"bus": "yes", "highway": "bus_stop", "name": "Santoshnagar", "public_transport": "platform"}}, {"type": "node", "id": 3624714864, "lat": 17.3746373, "lon": 78.5606156, "tags": {"bus": "yes", "highway": "bus_stop", "operator": "APSRTC Hyderabad", "public_transport": "platform"}}, {"type": "node", "id": 4332315990, "lat": 17.349846, "lon": 78.5479412, "tags": {"addr:city": "Hyderabad", "addr:city:ar": "\u062d\u064a\u062f\u0631 \u0622\u0628\u0627\u062f", "addr:city:ur": "\u062d\u06cc\u062f\u0631\u0622\u0628\u0627\u062f", "name": "L. B. Nagar", "name:ml": "\u0d0e\u0d7d \u0d2c\u0d3f \u0d28\u0d17\u0d7c", "name:te": "\u0c0e\u0c32\u0c4d.\u0c2c\u0c3f. \u0c28\u0c17\u0c30\u0c4d", "network": "Hyderabad Metro", "note": "Contributors are requested to not edit the \"network\" and the \"operator\" tags. (2023/11/08)", "operator": "Hyderabad Metro Rail Limited", "public_transport": "stop_position", "public_transport:version": "2", "railway": "stop", "subway": "yes", "wheelchair": "yes"}}, {"type": "node", "id": 4575058291, "lat": 17.3473025, "lon": 78.5515143, "tags": {"highway": "bus_stop", "name": "Lb Nagar to Uppal", "name:en": "Lb Nagar to Uppal"}}, {"type": "node", "id": 4575180816, "lat": 17.3472324, "lon": 78.5498097, "tags": {"highway": "bus_stop", "name": "Lb Nagar City Bus Stop", "name:en": "Lb Nagar"}}, {"type": "node", "id": 4576325295, "lat": 17.3525557, "lon": 78.555611, "tags": {"highway": "bus_stop", "name": "Kamineni bus stop", "name:en": "Kamineni bus stop"}}, {"type": "node", "id": 4576325296, "lat": 17.3531037, "lon": 78.5555993, "tags": {"highway": "bus_stop", "name": "Kamineni to Uppal", "name:en": "Kamineni to Uppal"}}, {"type": "node", "id": 4596525092, "lat": 17.3246469, "lon": 78.5661745, "tags": {"highway": "bus_stop", "name": "NGO'S bus stop", "name:en": "NGO'S bus stop"}}, {"type": "node", "id": 4796526725, "lat": 17.3603573, "lon": 78.5045666, "tags": {"highway": "bus_stop", "name": "Saidabad bus stop", "name:en": "Saidabad bus stop"}}, {"type": "node", "id": 4867334021, "lat": 17.3324953, "lon": 78.5303283, "tags": {"amenity": "bus_station", "bus": "yes", "name": "Emlibun", "name:hi": "Emlibun", "public_transport": "station"}}, {"type": "node", "id": 4971687263, "lat": 17.3385466, "lon": 78.5217052, "tags": {"bus": "yes", "highway": "bus_stop", "name": "Virat Nagar and New Maruthi Nagar Bus Stop", "public_transport": "platform"}}, {"type": "node", "id": 4978986461, "lat": 17.3627658, "lon": 78.5638404, "tags": {"highway": "bus_stop", "name": "Chanikyapuri Colony Bus Stop"}}, {"type": "node", "id": 5787788248, "lat": 17.3736483, "lon": 78.5013364}, {"type": "node", "id": 5787788251, "lat": 17.3728853, "lon": 78.5068231}, {"type": "node", "id": 5787788257, "lat": 17.3699526, "lon": 78.5141231}, {"type": "node", "id": 5787788260, "lat": 17.3686195, "lon": 78.5219622}, {"type": "node", "id": 5787788261, "lat": 17.3685227, "lon": 78.5257174, "tags": {"addr:city": "Hyderabad", "addr:city:ar": "\u062d\u064a\u062f\u0631 \u0622\u0628\u0627\u062f", "addr:city:ur": "\u062d\u06cc\u062f\u0631\u0622\u0628\u0627\u062f", "name": "Dilsukh Nagar", "name:ml": "\u0d26\u0d3f\u0d7d\u0d38\u0d41\u0d16\u0d4d\u0d28\u0d17\u0d7c", "name:te": "\u0c26\u0c3f\u0c32\u0c4d\u200c\u0c38\u0c41\u0c16\u0c4d\u200c\u0c28\u0c17\u0c30\u0c4d", "network": "Hyderabad Metro", "note": "Contributors are requested to not edit the \"network\" and the \"operator\" tags. (2023/11/08)", "operator": "Hyderabad Metro Rail Limited", "public_transport": "stop_position", "public_transport:version": "2", "railway": "stop", "subway": "yes", "wheelchair": "yes"}}, {"type": "node", "id": 5787788262, "lat": 17.3682308, "lon": 78.5368602}, {"type": "node", "id": 5787788263, "lat": 17.3680971, "lon": 78.5381201}, {"type": "node", "id": 5787788264, "lat": 17.3678685, "lon": 78.5389749}, {"type": "node", "id": 5787788265, "lat": 17.3675526, "lon": 78.5397751}, {"type": "node", "id": 5787788266, "lat": 17.3670932, "lon": 78.5406065}, {"type": "node", "id": 5787788267, "lat": 17.3664491, "lon": 78.5414672}, {"type": "node", "id": 5787788268, "lat": 17.3656422, "lon": 78.5422489}, {"type": "node", "id": 5787788269, "lat": 17.3649143, "lon": 78.5427799}, {"type": "node", "id": 5787788270, "lat": 17.3642302, "lon": 78.5431622}, {"type": "node", "id": 5787788271, "lat": 17.3635384, "lon": 78.5434335}, {"type": "node", "id": 5787788272, "lat": 17.3618406, "lon": 78.5438968, "tags": {"addr:city": "Hyderabad", "addr:city:ar": "\u062d\u064a\u062f\u0631 \u0622\u0628\u0627\u062f", "addr:city:ur": "\u062d\u06cc\u062f\u0631\u0622\u0628\u0627\u062f", "name": "Victoria Memorial", "name:ml": "\u0d35\u0d3f\u0d15\u0d4d\u0d1f\u0d4b\u0d31\u0d3f\u0d2f \u0d2e\u0d46\u0d2e\u0d4d\u0d2e\u0d4b\u0d31\u0d3f\u0d2f\u0d7d", "name:te": "\u0c35\u0c3f\u0c15\u0c4d\u0c1f\u0c4b\u0c30\u0c3f\u0c2f\u0c3e \u0c2e\u0c46\u0c2e\u0c4b\u0c30\u0c3f\u0c2f\u0c32\u0c4d", "network": "Hyderabad Metro", "note": "Contributors are requested to not edit the \"network\" and the \"operator\" tags. (2023/11/08)", "operator": "Hyderabad Metro Rail Limited", "public_transport": "stop_position", "public_transport:version": "2", "railway": "stop", "subway": "yes", "wheelchair": "yes"}}, {"type": "node", "id": 5787788273, "lat": 17.3517239, "lon": 78.5465519}, {"type": "node", "id": 5787788274, "lat": 17.3510352, "lon": 78.5469169}, {"type": "node", "id": 5787788275, "lat": 17.3498071, "lon": 78.5478875, "tags": {"addr:city": "Hyderabad", "addr:city:ar": "\u062d\u064a\u062f\u0631 \u0622\u0628\u0627\u062f", "addr:city:ur": "\u062d\u06cc\u062f\u0631\u0622\u0628\u0627\u062f", "name": "L. B. Nagar", "name:ml": "\u0d0e\u0d7d \u0d2c\u0d3f \u0d28\u0d17\u0d7c", "name:te": "\u0c0e\u0c32\u0c4d.\u0c2c\u0c3f. \u0c28\u0c17\u0c30\u0c4d", "network": "Hyderabad Metro", "note": "Contributors are requested to not edit the \"network\" and the \"operator\" tags. (2023/11/08)", "operator": "Hyderabad Metro Rail Limited", "public_transport": "stop_position", "public_transport:version": "2", "railway": "stop", "subway": "yes", "wheelchair": "yes"}}, {"type": "node", "id": 5787788276, "lat": 17.3473727, "lon": 78.5498349}, {"type": "node", "id": 5787788277, "lat": 17.346896, "lon": 78.550283}, {"type": "node", "id": 5787788279, "lat": 17.3465677, "lon": 78.5507055}, {"type": "node", "id": 5787788280, "lat": 17.3466176, "lon": 78.5507481}, {"type": "node", "id": 5787788281, "lat": 17.3469427, "lon": 78.5503297}, {"type": "node", "id": 5826355255, "lat": 17.3297742, "lon": 78.5791414, "tags": {"bench": "no", "bus": "yes", "highway": "bus_stop", "lit": "no", "name": "kamala nagar bus stop", "public_transport": "platform", "ref": "tsrtc", "shelter": "no"}}, {"type": "node", "id": 5993751682, "lat": 17.3706972, "lon": 78.5124795}, {"type": "node", "id": 5993751683, "lat": 17.3708739, "lon": 78.5125864}, {"type": "node", "id": 5993751684, "lat": 17.3714919, "lon": 78.5114646}, {"type": "node", "id": 5993752585, "lat": 17.3713151, "lon": 78.5113577}, {"type": "node", "id": 6371404750, "lat": 17.3597744, "lon": 78.5578073}, {"type": "node", "id": 6371404751, "lat": 17.3597297, "lon": 78.5578036}, {"type": "node", "id": 6371404752, "lat": 17.3597277, "lon": 78.557831}, {"type": "node", "id": 6371404753, "lat": 17.3597724, "lon": 78.5578347}, {"type": "node", "id": 6375001440, "lat": 17.3597568, "lon": 78.5578058}, {"type": "node", "id": 6375001441, "lat": 17.3597495, "lon": 78.5578329}, {"type": "node", "id": 6375001442, "lat": 17.3597589, "lon": 78.5578336}, {"type": "node", "id": 6375001443, "lat": 17.3597664, "lon": 78.5578066}, {"type": "node", "id": 6375006568, "lat": 17.3597503, "lon": 78.5578155, "tags": {"amenity": "bus_station", "bus": "yes", "name": "rajeevgandhi nagar", "public_transport": "stop_position"}}, {"type": "node", "id": 6375056793, "lat": 17.3600361, "lon": 78.5575549, "tags": {"amenity": "bus_station", "bus": "yes", "name": "rajeevgandhi nagar", "public_transport": "stop_position"}}, {"type": "node", "id": 6799988715, "lat": 17.3743363, "lon": 78.4995125}, {"type": "node", "id": 6799988716, "lat": 17.3742377, "lon": 78.4997056}, {"type": "node", "id": 6799988717, "lat": 17.3739587, "lon": 78.5002743}, {"type": "node", "id": 6799988718, "lat": 17.3738653, "lon": 78.5004915}, {"type": "node", "id": 6799988719, "lat": 17.3737974, "lon": 78.5006833}, {"type": "node", "id": 6799988720, "lat": 17.3737334, "lon": 78.500914}, {"type": "node", "id": 6799988721, "lat": 17.3736873, "lon": 78.5011165}, {"type": "node", "id": 6799990963, "lat": 17.3771547, "lon": 78.4945714}, {"type": "node", "id": 6799990964, "lat": 17.3771359, "lon": 78.4949959}, {"type": "node", "id": 6799990965, "lat": 17.3771183, "lon": 78.4951277}, {"type": "node", "id": 6799990966, "lat": 17.3770892, "lon": 78.495248}, {"type": "node", "id": 6799990967, "lat": 17.3770352, "lon": 78.4954088}, {"type": "node", "id": 6799990968, "lat": 17.3769744, "lon": 78.4955407}, {"type": "node", "id": 6799990969, "lat": 17.376873, "lon": 78.4956884}, {"type": "node", "id": 6799990970, "lat": 17.3768069, "lon": 78.4957673}, {"type": "node", "id": 6799990971, "lat": 17.3767144, "lon": 78.4958609}, {"type": "node", "id": 6799990972, "lat": 17.3766256, "lon": 78.4959352}, {"type": "node", "id": 6799990973, "lat": 17.3763443, "lon": 78.4961157}, {"type": "node", "id": 6799990974, "lat": 17.3761658, "lon": 78.4962241}, {"type": "node", "id": 6799990975, "lat": 17.3760507, "lon": 78.4963136}, {"type": "node", "id": 6799990976, "lat": 17.3759383, "lon": 78.496404}, {"type": "node", "id": 6799990977, "lat": 17.3758622, "lon": 78.4964889}, {"type": "node", "id": 6799990978, "lat": 17.3757939, "lon": 78.4965786}, {"type": "node", "id": 6799990979, "lat": 17.3757309, "lon": 78.4966822}, {"type": "node", "id": 6799990980, "lat": 17.3756762, "lon": 78.4968047}, {"type": "node", "id": 6799990981, "lat": 17.375629, "lon": 78.4969363}, {"type": "node", "id": 6799990982, "lat": 17.3756005, "lon": 78.4970711}, {"type": "node", "id": 6799990983, "lat": 17.3755603, "lon": 78.4974717}, {"type": "node", "id": 6799990984, "lat": 17.3755285, "lon": 78.497676}, {"type": "node", "id": 6799996777, "lat": 17.3699397, "lon": 78.5143401}, {"type": "node", "id": 6799996778, "lat": 17.3699132, "lon": 78.5144964}, {"type": "node", "id": 6799996779, "lat": 17.3698729, "lon": 78.5148235}, {"type": "node", "id": 6799996780, "lat": 17.3698383, "lon": 78.5150926}, {"type": "node", "id": 6799996781, "lat": 17.3697881, "lon": 78.5153902}, {"type": "node", "id": 6799996782, "lat": 17.3697367, "lon": 78.5156504}, {"type": "node", "id": 6799996783, "lat": 17.369652, "lon": 78.5160061}, {"type": "node", "id": 6799996784, "lat": 17.3692756, "lon": 78.5174877}, {"type": "node", "id": 6800005085, "lat": 17.3688903, "lon": 78.5189949}, {"type": "node", "id": 6800005086, "lat": 17.3688163, "lon": 78.5192971}, {"type": "node", "id": 6800005087, "lat": 17.3687698, "lon": 78.5195248}, {"type": "node", "id": 6800005088, "lat": 17.3687336, "lon": 78.5197136}, {"type": "node", "id": 6800005089, "lat": 17.3687096, "lon": 78.5199121}, {"type": "node", "id": 6800005090, "lat": 17.3687027, "lon": 78.5200436}, {"type": "node", "id": 6800005091, "lat": 17.3686925, "lon": 78.5202281}, {"type": "node", "id": 6800005092, "lat": 17.3699045, "lon": 78.5143324}, {"type": "node", "id": 6800005093, "lat": 17.3698776, "lon": 78.5144906}, {"type": "node", "id": 6800005094, "lat": 17.3698373, "lon": 78.5148185}, {"type": "node", "id": 6800005095, "lat": 17.3698027, "lon": 78.5150868}, {"type": "node", "id": 6800005096, "lat": 17.3697528, "lon": 78.5153832}, {"type": "node", "id": 6800005097, "lat": 17.3697016, "lon": 78.515642}, {"type": "node", "id": 6800005098, "lat": 17.3696172, "lon": 78.5159967}, {"type": "node", "id": 6800005099, "lat": 17.3692409, "lon": 78.517478}, {"type": "node", "id": 6800005100, "lat": 17.3688556, "lon": 78.5189854}, {"type": "node", "id": 6800005101, "lat": 17.3687813, "lon": 78.5192884}, {"type": "node", "id": 6800005102, "lat": 17.3687346, "lon": 78.5195171}, {"type": "node", "id": 6800005103, "lat": 17.3686982, "lon": 78.5197075}, {"type": "node", "id": 6800005104, "lat": 17.3686738, "lon": 78.5199087}, {"type": "node", "id": 6800005105, "lat": 17.3686668, "lon": 78.5200415}, {"type": "node", "id": 6800005106, "lat": 17.3686566, "lon": 78.5202266}, {"type": "node", "id": 6800005107, "lat": 17.3710873, "lon": 78.5119545, "tags": {"addr:city": "Hyderabad", "addr:city:ar": "\u062d\u064a\u062f\u0631 \u0622\u0628\u0627\u062f", "addr:city:ur": "\u062d\u06cc\u062f\u0631\u0622\u0628\u0627\u062f", "name": "Musarambagh", "name:ml": "\u0d2e\u0d42\u0d38\u0d3e\u0d30\u0d3e\u0d02\u0d2c\u0d3e\u0d17\u0d4d", "name:te": "\u0c2e\u0c42\u0c38\u0c3e\u0c30\u0c02\u0c2c\u0c3e\u0c17\u0c4d", "name:ur": "\u0645\u0648\u0633\u06cc\u0670 \u0631\u0627\u0645 \u0628\u0627\u063a", "network": "Hyderabad Metro", "note": "Contributors are requested to not edit the \"network\" and the \"operator\" tags. (2023/11/08)", "operator": "Hyderabad Metro Rail Limited", "public_transport": "stop_position", "public_transport:version": "2", "railway": "stop", "subway": "yes"}}, {"type": "node", "id": 6800005108, "lat": 17.3700048, "lon": 78.5139608}, {"type": "node", "id": 6800005109, "lat": 17.3700698, "lon": 78.5137724}, {"type": "node", "id": 6800005110, "lat": 17.370149, "lon": 78.5135796}, {"type": "node", "id": 6800005111, "lat": 17.370228, "lon": 78.5134147}, {"type": "node", "id": 6800005112, "lat": 17.3704088, "lon": 78.513086}, {"type": "node", "id": 6800005113, "lat": 17.3706601, "lon": 78.5126362}, {"type": "node", "id": 6800005114, "lat": 17.3713819, "lon": 78.5113597}, {"type": "node", "id": 6800005115, "lat": 17.3715466, "lon": 78.5110572}, {"type": "node", "id": 6800005116, "lat": 17.371687, "lon": 78.5107858}, {"type": "node", "id": 6800005117, "lat": 17.3718014, "lon": 78.5105486}, {"type": "node", "id": 6800005118, "lat": 17.3719082, "lon": 78.5102876}, {"type": "node", "id": 6800005119, "lat": 17.3719794, "lon": 78.5100917}, {"type": "node", "id": 6800005120, "lat": 17.3722212, "lon": 78.5093665}, {"type": "node", "id": 6800005121, "lat": 17.3724246, "lon": 78.50877}, {"type": "node", "id": 6800005122, "lat": 17.3725037, "lon": 78.5085174}, {"type": "node", "id": 6800005123, "lat": 17.3725739, "lon": 78.508278}, {"type": "node", "id": 6800005124, "lat": 17.3726633, "lon": 78.5079477}, {"type": "node", "id": 6800005125, "lat": 17.3727218, "lon": 78.5077049}, {"type": "node", "id": 6800005126, "lat": 17.3727818, "lon": 78.5074081}, {"type": "node", "id": 6800005127, "lat": 17.372829, "lon": 78.5071593}, {"type": "node", "id": 6800005128, "lat": 17.3700389, "lon": 78.5139726}, {"type": "node", "id": 6800005129, "lat": 17.3701032, "lon": 78.5137862}, {"type": "node", "id": 6800005130, "lat": 17.3701816, "lon": 78.5135955}, {"type": "node", "id": 6800005131, "lat": 17.3702597, "lon": 78.5134325}, {"type": "node", "id": 6800005132, "lat": 17.3704398, "lon": 78.513105}, {"type": "node", "id": 6800005133, "lat": 17.370691, "lon": 78.5126553}, {"type": "node", "id": 6800005134, "lat": 17.3714129, "lon": 78.5113786}, {"type": "node", "id": 6800005135, "lat": 17.371578, "lon": 78.5110755}, {"type": "node", "id": 6800005136, "lat": 17.3717188, "lon": 78.5108033}, {"type": "node", "id": 6800005137, "lat": 17.371834, "lon": 78.5105646}, {"type": "node", "id": 6800005138, "lat": 17.3719415, "lon": 78.5103017}, {"type": "node", "id": 6800005139, "lat": 17.3720132, "lon": 78.5101046}, {"type": "node", "id": 6800005140, "lat": 17.3722551, "lon": 78.509379}, {"type": "node", "id": 6800005141, "lat": 17.3724586, "lon": 78.5087822}, {"type": "node", "id": 6800005142, "lat": 17.372538, "lon": 78.5085288}, {"type": "node", "id": 6800005143, "lat": 17.3726084, "lon": 78.5082887}, {"type": "node", "id": 6800005144, "lat": 17.372698, "lon": 78.5079575}, {"type": "node", "id": 6800005145, "lat": 17.3727568, "lon": 78.5077134}, {"type": "node", "id": 6800005146, "lat": 17.372817, "lon": 78.5074157}, {"type": "node", "id": 6800005147, "lat": 17.3728644, "lon": 78.5071662}, {"type": "node", "id": 6800005148, "lat": 17.3733494, "lon": 78.503902}, {"type": "node", "id": 6800005149, "lat": 17.3733168, "lon": 78.5038919}, {"type": "node", "id": 6800005150, "lat": 17.3735478, "lon": 78.502408}, {"type": "node", "id": 6800005151, "lat": 17.3735082, "lon": 78.5024133}, {"type": "node", "id": 6800005152, "lat": 17.3729207, "lon": 78.5068296}, {"type": "node", "id": 6800005185, "lat": 17.3754879, "lon": 78.497849}, {"type": "node", "id": 6800005186, "lat": 17.3754082, "lon": 78.4980572}, {"type": "node", "id": 6800005187, "lat": 17.3753322, "lon": 78.4982083}, {"type": "node", "id": 6800005188, "lat": 17.3752011, "lon": 78.4984096}, {"type": "node", "id": 6800005189, "lat": 17.3751123, "lon": 78.4985286}, {"type": "node", "id": 6800005190, "lat": 17.3749286, "lon": 78.4987332}, {"type": "node", "id": 6800005191, "lat": 17.3747835, "lon": 78.4989065}, {"type": "node", "id": 6800005192, "lat": 17.3746414, "lon": 78.4990886}, {"type": "node", "id": 6800005193, "lat": 17.3744912, "lon": 78.499315}, {"type": "node", "id": 6800005194, "lat": 17.3743675, "lon": 78.4995311}, {"type": "node", "id": 6800005195, "lat": 17.3742695, "lon": 78.4997231}, {"type": "node", "id": 6800005196, "lat": 17.3739911, "lon": 78.5002906}, {"type": "node", "id": 6800005197, "lat": 17.3738985, "lon": 78.5005058}, {"type": "node", "id": 6800005198, "lat": 17.3738316, "lon": 78.5006951}, {"type": "node", "id": 6800005199, "lat": 17.3737682, "lon": 78.5009236}, {"type": "node", "id": 6800005200, "lat": 17.3737225, "lon": 78.5011243}, {"type": "node", "id": 6800005228, "lat": 17.3771203, "lon": 78.4945686}, {"type": "node", "id": 6800005229, "lat": 17.3771002, "lon": 78.4949917}, {"type": "node", "id": 6800005230, "lat": 17.3770829, "lon": 78.4951204}, {"type": "node", "id": 6800005231, "lat": 17.3770548, "lon": 78.4952371}, {"type": "node", "id": 6800005232, "lat": 17.377002, "lon": 78.4953943}, {"type": "node", "id": 6800005233, "lat": 17.3769434, "lon": 78.4955214}, {"type": "node", "id": 6800005234, "lat": 17.3768449, "lon": 78.4956649}, {"type": "node", "id": 6800005235, "lat": 17.3767809, "lon": 78.4957413}, {"type": "node", "id": 6800005236, "lat": 17.3766907, "lon": 78.4958325}, {"type": "node", "id": 6800005237, "lat": 17.3766049, "lon": 78.4959043}, {"type": "node", "id": 6800005238, "lat": 17.3763259, "lon": 78.4960833}, {"type": "node", "id": 6800005239, "lat": 17.3761461, "lon": 78.4961926}, {"type": "node", "id": 6800005240, "lat": 17.3760291, "lon": 78.4962836}, {"type": "node", "id": 6800005241, "lat": 17.3759141, "lon": 78.496376}, {"type": "node", "id": 6800005242, "lat": 17.375835, "lon": 78.4964642}, {"type": "node", "id": 6800005243, "lat": 17.3757646, "lon": 78.4965567}, {"type": "node", "id": 6800005244, "lat": 17.3756994, "lon": 78.496664}, {"type": "node", "id": 6800005245, "lat": 17.3756431, "lon": 78.4967901}, {"type": "node", "id": 6800005246, "lat": 17.3755944, "lon": 78.4969255}, {"type": "node", "id": 6800005247, "lat": 17.375565, "lon": 78.497065}, {"type": "node", "id": 6800005248, "lat": 17.3755247, "lon": 78.4974667}, {"type": "node", "id": 6800005249, "lat": 17.3754933, "lon": 78.4976685}, {"type": "node", "id": 6800005250, "lat": 17.3754536, "lon": 78.4978375}, {"type": "node", "id": 6800005251, "lat": 17.3753756, "lon": 78.4980413}, {"type": "node", "id": 6800005252, "lat": 17.3753013, "lon": 78.4981889}, {"type": "node", "id": 6800005253, "lat": 17.375172, "lon": 78.4983873}, {"type": "node", "id": 6800005254, "lat": 17.375085, "lon": 78.498504}, {"type": "node", "id": 6800005255, "lat": 17.374902, "lon": 78.4987079}, {"type": "node", "id": 6800005256, "lat": 17.3747561, "lon": 78.4988822}, {"type": "node", "id": 6800005257, "lat": 17.3746127, "lon": 78.4990659}, {"type": "node", "id": 6800005258, "lat": 17.3744611, "lon": 78.4992946}, {"type": "node", "id": 6898477086, "lat": 17.3689527, "lon": 78.5250597, "tags": {"amenity": "bus_station", "bus": "yes", "name": "TSRTC BUS STAND , DILSHUKNAGAR", "operator": "TSRTC", "public_transport": "station", "source": "local knowledge", "wheelchair": "no"}}, {"type": "node", "id": 6935406873, "lat": 17.3746186, "lon": 78.5449497}, {"type": "node", "id": 6935406874, "lat": 17.3745751, "lon": 78.5449604}, {"type": "node", "id": 7171247795, "lat": 17.3091766, "lon": 78.5331199, "tags": {"bus": "yes", "highway": "bus_stop", "name": "almasguda bus stop", "public_transport": "platform"}}, {"type": "node", "id": 7243975384, "lat": 17.371557, "lon": 78.5694429, "tags": {"bus": "yes", "highway": "bus_stop", "name": "Jaipuri colony bus stop", "public_transport": "platform"}}, {"type": "node", "id": 7244134464, "lat": 17.3287721, "lon": 78.5835166, "tags": {"bus": "yes", "highway": "bus_stop", "name": "Subhadranagar Bus Stop", "public_transport": "platform"}}, {"type": "node", "id": 7246440944, "lat": 17.3495427, "lon": 78.5481839}, {"type": "node", "id": 7246440945, "lat": 17.3495198, "lon": 78.5482021}, {"type": "node", "id": 7246509972, "lat": 17.3741149, "lon": 78.5585718, "tags": {"public_transport": "platform", "tram": "yes"}}, {"type": "node", "id": 7246815452, "lat": 17.3710728, "lon": 78.5119483, "tags": {"name": "Musarambagh", "name:fa": "\u0645\u0648\u0633\u06cc \u0631\u0627\u0645 \u0628\u0627\u063a", "name:te": "\u0c2e\u0c42\u0c38\u0c30\u0c02\u0c2c\u0c3e\u0c18\u0c4d", "name:ur": "\u0645\u0648\u0633\u06cc\u0670 \u0631\u0627\u0645 \u0628\u0627\u063a", "network": "Hyderabad Metro", "note": "Contributors are requested to not edit the \"network\" and the \"operator\" tags. (2023/11/08)", "operator": "Hyderabad Metro Rail Limited", "public_transport": "station", "railway": "station", "station": "subway", "subway": "yes", "wikidata": "Q81640785"}}, {"type": "node", "id": 7432609392, "lat": 17.3294749, "lon": 78.5536367, "tags": {"bus": "yes", "highway": "bus_stop", "public_transport": "platform"}}, {"type": "node", "id": 7726358259, "lat": 17.3588326, "lon": 78.5248567, "tags": {"highway": "bus_stop"}}, {"type": "node", "id": 7726358276, "lat": 17.3565363, "lon": 78.5300615, "tags": {"highway": "bus_stop"}}, {"type": "node", "id": 8058995199, "lat": 17.351786, "lon": 78.507077, "tags": {"highway": "bus_stop"}}, {"type": "node", "id": 8058995200, "lat": 17.3517885, "lon": 78.5074619, "tags": {"highway": "bus_stop"}}, {"type": "node", "id": 8058995201, "lat": 17.351969, "lon": 78.5075625, "tags": {"highway": "bus_stop"}}, {"type": "node", "id": 8077176299, "lat": 17.3595443, "lon": 78.5047676, "tags": {"highway": "bus_stop"}}, {"type": "node", "id": 8077176300, "lat": 17.3595251, "lon": 78.5046516, "tags": {"highway": "bus_stop"}}, {"type": "node", "id": 8476896850, "lat": 17.3632048, "lon": 78.5304225}, {"type": "node", "id": 9961151118, "lat": 17.357113, "lon": 78.5451283, "tags": {"crossing": "marked", "highway": "crossing"}}, {"type": "node", "id": 10278298785, "lat": 17.3734093, "lon": 78.5031773, "tags": {"addr:city": "Hyderabad", "addr:city:ar": "\u062d\u064a\u062f\u0631 \u0622\u0628\u0627\u062f", "addr:city:ur": "\u062d\u06cc\u062f\u0631\u0622\u0628\u0627\u062f", "alt_name": "\u0645\u062d\u0628\u0648\u0628 \u06af\u0646\u062c", "name": "New Market", "name:ml": "\u0d28\u0d4d\u0d2f\u0d42\u0d2e\u0d3e\u0d7c\u0d15\u0d4d\u0d15\u0d31\u0d4d\u0d31\u0d4d", "name:te": "\u0c15\u0c4a\u0c24\u0c4d\u0c24 \u0c2e\u0c3e\u0c30\u0c4d\u0c15\u0c46\u0c1f\u0c4d", "name:ur": "\u0646\u0626\u06cc \u0645\u0627\u0631\u06a9\u06cc\u0679", "network": "Hyderabad Metro", "note": "Contributors are requested to not edit the \"network\" and the \"operator\" tags. (2023/11/08)", "operator": "Hyderabad Metro Rail Limited", "public_transport": "stop_position", "public_transport:version": "2", "railway": "stop", "subway": "yes"}}, {"type": "node", "id": 10279821749, "lat": 17.3734268, "lon": 78.5031775, "tags": {"alt_name": "\u0645\u062d\u0628\u0648\u0628 \u06af\u0646\u062c", "name": "New Market", "name:fa": "\u0628\u0627\u0632\u0627\u0631 \u062c\u062f\u06cc\u062f", "name:ml": "\u0d28\u0d4d\u0d2f\u0d42\u0d2e\u0d3e\u0d7c\u0d15\u0d4d\u0d15\u0d31\u0d4d\u0d31\u0d4d", "name:te": "\u0c15\u0c4a\u0c24\u0c4d\u0c24 \u0c2e\u0c3e\u0c30\u0c4d\u0c15\u0c46\u0c1f\u0c4d", "name:ur": "\u0646\u0626\u06cc \u0645\u0627\u0631\u06a9\u06cc\u0679", "network": "Hyderabad Metro", "note": "Contributors are requested to not edit the \"network\" and the \"operator\" tags. (2023/11/08)", "operator": "Hyderabad Metro Rail Limited", "public_transport": "station", "railway": "station", "station": "subway", "subway": "yes", "wikidata": "Q81483949"}}, {"type": "node", "id": 10279821750, "lat": 17.3710547, "lon": 78.5119383, "tags": {"addr:city": "Hyderabad", "addr:city:ar": "\u062d\u064a\u062f\u0631 \u0622\u0628\u0627\u062f", "addr:city:ur": "\u062d\u06cc\u062f\u0631\u0622\u0628\u0627\u062f", "name": "Musarambagh", "name:ml": "\u0d2e\u0d42\u0d38\u0d3e\u0d30\u0d3e\u0d02\u0d2c\u0d3e\u0d17\u0d4d", "name:te": "\u0c2e\u0c42\u0c38\u0c3e\u0c30\u0c02\u0c2c\u0c3e\u0c17\u0c4d", "name:ur": "\u0645\u0648\u0633\u06cc\u0670 \u0631\u0627\u0645 \u0628\u0627\u063a", "network": "Hyderabad Metro", "note": "Contributors are requested to not edit the \"network\" and the \"operator\" tags. (2023/11/08)", "operator": "Hyderabad Metro Rail Limited", "public_transport": "stop_position", "public_transport:version": "2", "railway": "stop", "subway": "yes"}}, {"type": "node", "id": 10817711164, "lat": 17.3710099, "lon": 78.5256043, "tags": {"amenity": "bus_station", "bus": "yes", "name": "TSRTC BUS DEPOT , DILSHUKNAGAR", "public_transport": "station"}}, {"type": "node", "id": 10992500524, "lat": 17.3697519, "lon": 78.5252265, "tags": {"amenity": "bus_station", "bus": "yes", "name": "TSRTC BUS DEPOT, DILSHUKNAGAR", "public_transport": "station"}}, {"type": "node", "id": 10992500525, "lat": 17.3399163, "lon": 78.5047696, "tags": {"amenity": "bus_station", "bus": "yes", "name": "TSRTC BUS DEPOT , MIDHANI", "public_transport": "station"}}, {"type": "node", "id": 10992518093, "lat": 17.3421884, "lon": 78.5576631, "tags": {"amenity": "bus_station", "bus": "yes", "name": "L.B Nagar Bus Stop", "public_transport": "station"}}, {"type": "node", "id": 10992518094, "lat": 17.3249083, "lon": 78.5664619, "tags": {"amenity": "bus_station", "bus": "yes", "name": "TSRTC BUS STAND , N.G.O\"S COLONY", "public_transport": "station"}}, {"type": "node", "id": 10992518096, "lat": 17.3654488, "lon": 78.5885511, "tags": {"amenity": "bus_station", "bus": "yes", "name": "TSRTC BUS DEPOT , BANDLAGUDA", "public_transport": "station"}}, {"type": "node", "id": 10992544223, "lat": 17.3262276, "lon": 78.5934396, "tags": {"amenity": "bus_station", "bus": "yes", "name": "TSRTC BUS DEPOT , HAYATNAGR 1", "public_transport": "station"}}, {"type": "node", "id": 10992544224, "lat": 17.3250571, "lon": 78.5940827, "tags": {"amenity": "bus_station", "bus": "yes", "name": "TSRTC BUS DEPOT , HAYATNAGR 2", "public_transport": "station"}}, {"type": "node", "id": 11082995794, "lat": 17.3684133, "lon": 78.5241497, "tags": {"bus": "yes", "highway": "bus_stop", "public_transport": "platform"}}, {"type": "node", "id": 11485653826, "lat": 17.347001, "lon": 78.5511269, "tags": {"bus": "yes", "highway": "bus_stop", "name": "LB Nagar Bus Stop", "public_transport": "platform"}}, {"type": "node", "id": 11485653827, "lat": 17.3460037, "lon": 78.5507702, "tags": {"bus": "yes", "highway": "bus_stop", "name": "LB Nagar Bus Stop", "public_transport": "platform"}}, {"type": "node", "id": 11736267915, "lat": 17.3681501, "lon": 78.5381335}, {"type": "node", "id": 11737669098, "lat": 17.3618537, "lon": 78.5439302, "tags": {"name": "Victoria Memorial", "name:fa": "\u06cc\u0627\u062f\u0628\u0648\u062f \u0648\u06cc\u06a9\u062a\u0648\u0631\u06cc\u0627", "name:ml": "\u0d35\u0d3f\u0d15\u0d4d\u0d1f\u0d4b\u0d31\u0d3f\u0d2f \u0d2e\u0d46\u0d2e\u0d4d\u0d2e\u0d4b\u0d31\u0d3f\u0d2f\u0d7d", "name:te": "\u0c35\u0c3f\u0c15\u0c4d\u0c1f\u0c4b\u0c30\u0c3f\u0c2f\u0c3e \u0c2e\u0c46\u0c2e\u0c4b\u0c30\u0c3f\u0c2f\u0c32\u0c4d", "name:ur": "\u0648\u06a9\u0679\u0648\u0631\u06cc\u06c1 \u0645\u06cc\u0648\u0645\u0631\u06cc\u0644", "network": "Hyderabad Metro", "operator": "Hyderabad Metro Rail Limited", "public_transport": "station", "railway": "station", "station": "subway", "subway": "yes", "wheelchair": "yes", "wikidata": "Q58814872"}}, {"type": "node", "id": 11737669099, "lat": 17.3685518, "lon": 78.5257172, "tags": {"name": "Dilsukh Nagar", "name:fa": "\u062f\u0644\u0633\u0648\u062e \u0646\u06af\u0631", "name:ml": "\u0d26\u0d3f\u0d7d\u0d38\u0d41\u0d16\u0d4d\u0d28\u0d17\u0d7c", "name:te": "\u0c26\u0c3f\u0c32\u0c4d\u200c\u0c38\u0c41\u0c16\u0c4d\u200c\u0c28\u0c17\u0c30\u0c4d", "name:ur": "\u062f\u0650\u0644 \u0633\u064f\u06a9\u06be \u0646\u06af\u0631", "network": "Hyderabad Metro", "operator": "Hyderabad Metro Rail Limited", "public_transport": "station", "railway": "station", "station": "subway", "subway": "yes", "wheelchair": "yes", "wikidata": "Q81724990"}}, {"type": "node", "id": 11737669100, "lat": 17.3498286, "lon": 78.5479138, "tags": {"name": "L. B. Nagar Metro Station", "name:fa": "\u0627\u0644 \u0628\u06cc \u0646\u06af\u0631", "name:ml": "\u0d0e\u0d7d \u0d2c\u0d3f \u0d28\u0d17\u0d7c", "name:te": "\u0c0e\u0c32\u0c4d.\u0c2c\u0c3f. \u0c28\u0c17\u0c30\u0c4d", "network": "Hyderabad Metro", "operator": "Hyderabad Metro Rail Limited", "public_transport": "station", "railway": "station", "station": "subway", "subway": "yes", "wheelchair": "yes", "wikidata": "Q58814838"}}, {"type": "node", "id": 11738179197, "lat": 17.368286, "lon": 78.5359409, "tags": {"internet_access": "no", "name": "Chaitanyapuri", "name:fa": "\u0686\u0627\u06cc\u062a\u0627\u0646\u06cc\u0627\u067e\u0648\u0631\u06cc", "name:ml": "\u0d1a\u0d48\u0d24\u0d28\u0d4d\u0d2f\u0d2a\u0d41\u0d30\u0d3f", "name:te": "\u0c1b\u0c48\u0c24\u0c28\u0c4d\u0c2f\u0c2a\u0c41\u0c30\u0c3f", "name:ur": "\u0686\u06cc\u062a\u0646\u06cc\u06c1 \u067e\u0648\u0631\u06cc", "network": "Hyderabad Metro", "note": "Contributors are requested to not edit the \"network\" and the \"operator\" tags. (2023/11/08)", "operator": "Hyderabad Metro Rail Limited", "public_transport": "station", "railway": "station", "station": "subway", "subway": "yes", "website": "https://hmrl.co.in", "wheelchair": "yes", "wikidata": "Q81820840"}}, {"type": "node", "id": 11738179223, "lat": 17.3682602, "lon": 78.5355349, "tags": {"addr:city": "Hyderabad", "addr:city:ar": "\u062d\u064a\u062f\u0631 \u0622\u0628\u0627\u062f", "addr:city:ur": "\u062d\u06cc\u062f\u0631\u0622\u0628\u0627\u062f", "name": "Chaitanyapuri", "name:ml": "\u0d1a\u0d48\u0d24\u0d28\u0d4d\u0d2f\u0d2a\u0d41\u0d30\u0d3f", "name:te": "\u0c1b\u0c48\u0c24\u0c28\u0c4d\u0c2f\u0c2a\u0c41\u0c30\u0c3f", "network": "Hyderabad Metro", "note": "Contributors are requested to not edit the \"network\" and the \"operator\" tags. (2023/11/08)", "operator": "Hyderabad Metro Rail Limited", "public_transport": "stop_position", "railway": "stop", "subway": "yes", "wheelchair": "yes"}}, {"type": "node", "id": 11738179268, "lat": 17.3489155, "lon": 78.5486855}, {"type": "node", "id": 11738182169, "lat": 17.3488772, "lon": 78.5486314}, {"type": "node", "id": 11947041765, "lat": 17.3652751, "lon": 78.5425943}, {"type": "node", "id": 12254609958, "lat": 17.3681926, "lon": 78.5374655}, {"type": "node", "id": 12254609959, "lat": 17.3682455, "lon": 78.5374835}, {"type": "node", "id": 12254609960, "lat": 17.3681566, "lon": 78.5377728}, {"type": "node", "id": 12254609961, "lat": 17.3682131, "lon": 78.5377812}, {"type": "node", "id": 12254609962, "lat": 17.3683363, "lon": 78.5331735}, {"type": "node", "id": 12254609964, "lat": 17.3684425, "lon": 78.5291523}, {"type": "node", "id": 12254609965, "lat": 17.3683567, "lon": 78.5325135}, {"type": "node", "id": 12254609966, "lat": 17.3685425, "lon": 78.5265246}, {"type": "node", "id": 12254609967, "lat": 17.3685712, "lon": 78.5251364}, {"type": "node", "id": 12254609968, "lat": 17.3685332, "lon": 78.5250373}, {"type": "node", "id": 12254609970, "lat": 17.3673751, "lon": 78.5402294}, {"type": "node", "id": 12254609971, "lat": 17.3673389, "lon": 78.5401809}, {"type": "node", "id": 12254609972, "lat": 17.3672221, "lon": 78.5403937}, {"type": "node", "id": 12254609973, "lat": 17.3674476, "lon": 78.539978}, {"type": "node", "id": 12254609974, "lat": 17.3677228, "lon": 78.5393737}, {"type": "node", "id": 12254609977, "lat": 17.3563054, "lon": 78.5453946}, {"type": "node", "id": 12254609978, "lat": 17.3521312, "lon": 78.5464143}, {"type": "node", "id": 12254609979, "lat": 17.3520763, "lon": 78.5464832}, {"type": "node", "id": 12596417368, "lat": 17.3433042, "lon": 78.5479812, "tags": {"crossing": "inner_ring_road", "railway": "crossing"}}, {"type": "way", "id": 265035232, "nodes": [8476896850, 2706868235, 2706868237, 2706868239, 8476896850], "tags": {"amenity": "bus_stop", "area": "yes", "bus": "yes", "name": "V.V.nagar bus stop", "public_transport": "platform"}}, {"type": "way", "id": 285839741, "nodes": [2422989007, 6800005150, 2422989176, 6800005200, 6800005199, 6800005198, 6800005197, 6800005196, 6800005195, 6800005194, 6800005193, 6800005192, 6800005191, 6800005190, 6800005189, 6800005188, 6800005187, 6800005186, 6800005185, 6799990984, 6799990983, 6799990982, 6799990981, 6799990980, 6799990979, 6799990978, 6799990977, 6799990976, 6799990975, 6799990974, 6799990973, 6799990972, 6799990971, 6799990970, 6799990969, 6799990968, 6799990967, 6799990966, 6799990965, 6799990964, 6799990963], "tags": {"bridge": "viaduct", "bridge:structure": "beam", "check_date": "2016-08-02", "electrified": "rail", "layer": "3", "name": "Hyderabad Metro Line 1 (red)", "network": "Hyderabad Metro", "note": "Contributors are requested to not edit the \"network\" and the \"operator\" tags. (2023/11/08)", "opening_date": "2018-09-24", "operator": "Hyderabad Metro Rail Limited", "railway": "subway", "subway": "yes"}}, {"type": "way", "id": 635386167, "nodes": [5993752585, 5993751684, 5993751683, 5993751682, 5993752585], "tags": {"building": "yes", "layer": "1", "name": "Moosarambagh", "network": "Hyderabad Metro", "note": "Contributors are requested to not edit the \"network\" and the \"operator\" tags. (2023/11/08)", "operator": "Hyderabad Metro Rail Limited", "public_transport": "stop_position", "station": "subway", "subway": "yes"}}, {"type": "way", "id": 680470228, "nodes": [6371404750, 6375001443, 6375001440, 6371404751, 6371404752, 6375001441, 6375001442, 6371404753, 6371404750], "tags": {"amenity": "bus_station", "building": "yes", "bus": "yes", "name": "Rajeevgandhi nagar", "public_transport": "station"}}, {"type": "way", "id": 687489409, "nodes": [2422989167, 12254609967, 2422988927, 6800005091, 6800005090, 6800005089, 6800005088, 6800005087, 6800005086, 6800005085, 6799996784, 6799996783, 6799996782, 6799996781, 6799996780, 6799996779, 6799996778, 6799996777, 2422988946, 6800005128, 6800005129, 6800005130, 6800005131, 6800005132, 6800005133, 6800005107, 6800005134, 6800005135, 6800005136, 6800005137, 6800005138, 6800005139, 6800005140, 6800005141, 6800005142, 6800005143, 6800005144, 6800005145, 6800005146, 6800005147, 6800005152, 6800005148, 2422989007], "tags": {"bridge": "yes", "check_date": "2016-08-02", "electrified": "rail", "layer": "3", "name": "Hyderabad Metro Line 1 (red)", "network": "Hyderabad Metro", "note": "Contributors are requested to not edit the \"network\" and the \"operator\" tags. (2023/11/08)", "opening_date": "2018-09-24", "operator": "Hyderabad Metro Rail Limited", "railway": "subway", "subway": "yes"}}, {"type": "way", "id": 687489411, "nodes": [11736267915, 12254609961, 12254609959, 2422989078, 2422989005, 12254609966, 2422989167], "tags": {"bridge": "yes", "check_date": "2016-08-02", "electrified": "rail", "layer": "3", "name": "Hyderabad Metro Line 1 (red)", "network": "Hyderabad Metro", "note": "Contributors are requested to not edit the \"network\" and the \"operator\" tags. (2023/11/08)", "opening_date": "2018-09-24", "operator": "Hyderabad Metro Rail Limited", "railway": "subway", "subway": "yes"}}, {"type": "way", "id": 687489412, "nodes": [2422989133, 2422989258, 2422988929, 2422989076, 11947041765, 2422988932, 2422988985, 2422989150, 12254609970, 2422988928, 2422989201, 11736267915], "tags": {"bridge": "yes", "check_date": "2016-08-02", "electrified": "rail", "layer": "3", "name": "Hyderabad Metro Line 1 (red)", "network": "Hyderabad Metro", "note": "Contributors are requested to not edit the \"network\" and the \"operator\" tags. (2023/11/08)", "opening_date": "2018-09-24", "operator": "Hyderabad Metro Rail Limited", "railway": "subway", "subway": "yes"}}, {"type": "way", "id": 687489413, "nodes": [11738179268, 7246440945, 7246440944, 4332315990], "tags": {"bridge": "yes", "check_date": "2016-08-02", "electrified": "rail", "layer": "3", "name": "Hyderabad Metro Line 1 (red)", "network": "Hyderabad Metro", "note": "Contributors are requested to not edit the \"network\" and the \"operator\" tags. (2023/11/08)", "opening_date": "2018-09-24", "operator": "Hyderabad Metro Rail Limited", "railway": "subway", "subway": "yes"}}, {"type": "way", "id": 687489414, "nodes": [5787788280, 5787788281, 2422989119, 11738179268], "tags": {"bridge": "yes", "check_date": "2016-08-02", "electrified": "rail", "layer": "3", "name": "Hyderabad Metro Line 1 (red)", "network": "Hyderabad Metro", "note": "Contributors are requested to not edit the \"network\" and the \"operator\" tags. (2023/11/08)", "opening_date": "2018-09-24", "operator": "Hyderabad Metro Rail Limited", "railway": "subway", "subway": "yes"}}, {"type": "way", "id": 740776568, "nodes": [6935406873, 6935406874], "tags": {"name": "chaitanyapuri metro", "railway": "rail"}}, {"type": "way", "id": 771971556, "nodes": [5787788275, 5787788274, 5787788273, 12254609978, 9961151118, 5787788272, 5787788271, 5787788270, 5787788269, 5787788268, 5787788267, 5787788266, 12254609972, 12254609971, 12254609973, 5787788265, 12254609974, 5787788264, 5787788263, 12254609960, 12254609958, 5787788262, 11738179223, 12254609962, 12254609965, 12254609964, 5787788261, 12254609968, 5787788260, 6800005106, 6800005105, 6800005104, 6800005103, 6800005102, 6800005101, 6800005100, 6800005099, 6800005098, 6800005097, 6800005096, 6800005095, 6800005094, 6800005093, 6800005092, 5787788257, 6800005108, 6800005109, 6800005110, 6800005111, 6800005112, 6800005113, 10279821750, 6800005114, 6800005115, 6800005116, 6800005117, 6800005118, 6800005119, 6800005120, 6800005121, 6800005122, 6800005123, 6800005124, 6800005125, 6800005126, 6800005127, 5787788251, 6800005149, 10278298785, 6800005151, 5787788248, 6799988721, 6799988720, 6799988719, 6799988718, 6799988717, 6799988716, 6799988715, 6800005258, 6800005257, 6800005256, 6800005255, 6800005254, 6800005253, 6800005252, 6800005251, 6800005250, 6800005249, 6800005248, 6800005247, 6800005246, 6800005245, 6800005244, 6800005243, 6800005242, 6800005241, 6800005240, 6800005239, 6800005238, 6800005237, 6800005236, 6800005235, 6800005234, 6800005233, 6800005232, 6800005231, 6800005230, 6800005229, 6800005228], "tags": {"bridge": "viaduct", "bridge:structure": "beam", "check_date": "2016-08-02", "electrified": "rail", "layer": "3", "name": "Hyderabad Metro Line 1 (red)", "name:te": "\u0c39\u0c48\u0c26\u0c30\u0c3e\u0c2c\u0c3e\u0c26\u0c4d \u0c2e\u0c46\u0c1f\u0c4d\u0c30\u0c4b \u0c32\u0c48\u0c28\u0c4d 1", "network": "Hyderabad Metro", "note": "Contributors are requested to not edit the \"network\" and the \"operator\" tags. (2023/11/08)", "opening_date": "2018-09-24", "operator": "Hyderabad Metro Rail Limited", "railway": "subway", "subway": "yes"}}, {"type": "way", "id": 1263323658, "nodes": [5787788279, 5787788277, 5787788276, 11738182169], "tags": {"bridge": "viaduct", "bridge:structure": "beam", "check_date": "2016-08-02", "electrified": "rail", "layer": "3", "name": "Hyderabad Metro Line 1 (red)", "name:te": "\u0c39\u0c48\u0c26\u0c30\u0c3e\u0c2c\u0c3e\u0c26\u0c4d \u0c2e\u0c46\u0c1f\u0c4d\u0c30\u0c4b \u0c32\u0c48\u0c28\u0c4d 1", "network": "Hyderabad Metro", "note": "Contributors are requested to not edit the \"network\" and the \"operator\" tags. (2023/11/08)", "opening_date": "2018-09-24", "operator": "Hyderabad Metro Rail Limited", "railway": "subway", "subway": "yes"}}, {"type": "way", "id": 1263409838, "nodes": [11738182169, 5787788275], "tags": {"bridge": "viaduct", "bridge:structure": "beam", "check_date": "2016-08-02", "electrified": "rail", "layer": "3", "name": "Hyderabad Metro Line 1 (red)", "name:te": "\u0c39\u0c48\u0c26\u0c30\u0c3e\u0c2c\u0c3e\u0c26\u0c4d \u0c2e\u0c46\u0c1f\u0c4d\u0c30\u0c4b \u0c32\u0c48\u0c28\u0c4d 1", "network": "Hyderabad Metro", "note": "Contributors are requested to not edit the \"network\" and the \"operator\" tags. (2023/11/08)", "opening_date": "2018-09-24", "operator": "Hyderabad Metro Rail Limited", "railway": "subway", "subway": "yes"}}, {"type": "way", "id": 1263409839, "nodes": [4332315990, 2422989248, 2422989233, 12254609979, 12254609977, 2422989133], "tags": {"bridge": "yes", "check_date": "2016-08-02", "electrified": "rail", "layer": "3", "name": "Hyderabad Metro Line 1 (red)", "network": "Hyderabad Metro", "note": "Contributors are requested to not edit the \"network\" and the \"operator\" tags. (2023/11/08)", "opening_date": "2018-09-24", "operator": "Hyderabad Metro Rail Limited", "railway": "subway", "subway": "yes"}}, {"type": "relation", "id": 2799781, "members": [{"type": "node", "ref": 2185000163, "role": ""}, {"type": "node", "ref": 2185000162, "role": ""}], "tags": {"name": "Panama", "public_transport": "stop_area", "type": "public_transport"}}, {"type": "relation", "id": 15034332, "members": [{"type": "node", "ref": 2422989167, "role": "stop"}, {"type": "node", "ref": 5787788261, "role": "stop"}], "tags": {"name": "Dilsukh Nagar", "public_transport": "stop_area", "type": "public_transport"}}, {"type": "relation", "id": 15034333, "members": [{"type": "node", "ref": 10279821749, "role": ""}, {"type": "node", "ref": 2422989007, "role": "stop"}, {"type": "node", "ref": 10278298785, "role": "stop"}], "tags": {"name": "New Market", "public_transport": "stop_area", "type": "public_transport"}}, {"type": "relation", "id": 15034334, "members": [{"type": "node", "ref": 7246815452, "role": ""}, {"type": "node", "ref": 6800005107, "role": "stop"}, {"type": "node", "ref": 10279821750, "role": "stop"}], "tags": {"name": "Musarambagh", "public_transport": "stop_area", "type": "public_transport"}}, {"type": "relation", "id": 17353490, "members": [{"type": "node", "ref": 11737669098, "role": ""}, {"type": "node", "ref": 5787788272, "role": "stop"}, {"type": "node", "ref": 2422989133, "role": "stop"}], "tags": {"name": "Victoria Memorial", "public_transport": "stop_area", "type": "public_transport"}}, {"type": "relation", "id": 17353491, "members": [{"type": "node", "ref": 11737669099, "role": ""}, {"type": "node", "ref": 2422989167, "role": "stop"}, {"type": "node", "ref": 5787788261, "role": "stop"}], "tags": {"name": "Dilsukh Nagar", "public_transport": "stop_area", "type": "public_transport"}}, {"type": "relation", "id": 17353492, "members": [{"type": "node", "ref": 11737669100, "role": ""}, {"type": "node", "ref": 4332315990, "role": "stop"}, {"type": "node", "ref": 5787788275, "role": "stop"}], "tags": {"name": "L. B. Nagar", "public_transport": "stop_area", "type": "public_transport"}}, {"type": "relation", "id": 17354155, "members": [{"type": "node", "ref": 11738179197, "role": ""}, {"type": "node", "ref": 11738179223, "role": "stop"}, {"type": "node", "ref": 2422989005, "role": "stop"}], "tags": {"colour": "red", "name": "Chaitanyapuri", "name:te": "\u0c1b\u0c48\u0c24\u0c28\u0c4d\u0c2f\u0c2a\u0c41\u0c30\u0c3f", "network": "Hyderabad Metro", "operator": "HMRL", "public_transport": "stop_area", "type": "public_transport"}}]}