{"version": 0.6, "generator": "Overpass API 0.7.62.8 e802775f", "osm3s": {"timestamp_osm_base": "2026-01-13T07:34:10Z", "copyright": "The data included in this document is from www.openstreetmap.org. The data is made available under ODbL."}, "elements": [{"type": "node", "id": 347120067, "lat": 19.0571185, "lon": 72.8338596}, {"type": "node", "id": 631493980, "lat": 19.0353273, "lon": 72.8597511}, {"type": "node", "id": 631493994, "lat": 19.0367462, "lon": 72.860318}, {"type": "node", "id": 1111894364, "lat": 19.043651, "lon": 72.850087}, {"type": "node", "id": 1111894369, "lat": 19.0433011, "lon": 72.8501004}, {"type": "node", "id": 1347550460, "lat": 19.1106501, "lon": 72.8483274, "tags": {"amenity": "hospital", "healthcare": "hospital", "name": "Jevan Vikas Hospital"}}, {"type": "node", "id": 1366795256, "lat": 19.0687005, "lon": 72.9223936}, {"type": "node", "id": 1398715651, "lat": 19.0558773, "lon": 72.8973945, "tags": {"amenity": "hospital", "name": "JOY Hospital"}}, {"type": "node", "id": 1398717565, "lat": 19.0466131, "lon": 72.8964218, "tags": {"amenity": "hospital", "healthcare": "hospital", "name": "Inlaks Hospital"}}, {"type": "node", "id": 1575266020, "lat": 19.1031903, "lon": 72.8470399}, {"type": "node", "id": 1575266022, "lat": 19.1033044, "lon": 72.8470264}, {"type": "node", "id": 1575266023, "lat": 19.1031718, "lon": 72.8469488}, {"type": "node", "id": 1575266025, "lat": 19.1032884, "lon": 72.8469193}, {"type": "node", "id": 1633934084, "lat": 19.047019, "lon": 72.8743312}, {"type": "node", "id": 1633934086, "lat": 19.0463943, "lon": 72.8745689}, {"type": "node", "id": 1640244309, "lat": 19.0962884, "lon": 72.8483799, "tags": {"addr:city": "Mumbai", "addr:district": "Maharashtra", "addr:housenumber": "KIRIT NURSING HOME, Pushpa Ganga Soc, Subhash Rd", "addr:postcode": "400057", "addr:street": "opp Sai Mandir Marg, Navpada, Vile Parle E", "amenity": "hospital", "contact:facebook": "https://www.facebook.com/drmaitreyeeparulekar/", "email": "parulekardrmaitreyee@gmail.com", "healthcare": "hospital", "healthcare:speciality": "gynaecology;oncology", "image": "https://drmaitreyeegynec.in/wp-content/uploads/2025/03/gallery1.webp", "mobile": "7208727500", "name": "Dr Maitreyee Parulekar", "opening_hours": "24/7", "payment:cash": "yes", "payment:contactless": "yes", "payment:credit_cards": "yes", "payment:debit_cards": "yes", "payment:google_pay": "yes", "website": "https://drmaitreyeegynec.in/"}}, {"type": "node", "id": 1673075405, "lat": 19.0771611, "lon": 72.8581228}, {"type": "node", "id": 1673075406, "lat": 19.077113, "lon": 72.858442}, {"type": "node", "id": 1673075407, "lat": 19.0771308, "lon": 72.8587343}, {"type": "node", "id": 1673075408, "lat": 19.0770217, "lon": 72.8583214}, {"type": "node", "id": 1673075409, "lat": 19.0768494, "lon": 72.8584421}, {"type": "node", "id": 1673075410, "lat": 19.0771028, "lon": 72.8582462}, {"type": "node", "id": 1673075411, "lat": 19.0769424, "lon": 72.8588056}, {"type": "node", "id": 1673075412, "lat": 19.0770571, "lon": 72.8582757}, {"type": "node", "id": 1673075413, "lat": 19.0769119, "lon": 72.8585669}, {"type": "node", "id": 1673075414, "lat": 19.077216, "lon": 72.8581511}, {"type": "node", "id": 1673075415, "lat": 19.0770394, "lon": 72.8582032}, {"type": "node", "id": 1673075416, "lat": 19.0771129, "lon": 72.8583132}, {"type": "node", "id": 1787854399, "lat": 19.116234, "lon": 72.8339632, "tags": {"addr:district": "Mumbai", "addr:full": "25, Gulmohar Park Gulmohar Road, Juhu Scheme Vile Parle - West", "addr:housenumber": "25", "addr:postcode": "400049", "addr:state": "Maharashtra", "addr:street": "Gulmohar Road", "amenity": "hospital", "emergency": "yes", "healthcare": "hospital", "name": "Sujay Hospital", "opening_hours": "24/7", "source": "OpenGovernmentData"}}, {"type": "node", "id": 1855812192, "lat": 19.1246531, "lon": 72.9172844, "tags": {"amenity": "hospital", "emergency": "no", "name": "Powai Dental Clinic"}}, {"type": "node", "id": 1855812194, "lat": 19.124088, "lon": 72.9164511, "tags": {"addr:district": "Mumbai Suburban", "addr:full": "1-A, BSNL Colony, Powai, Mumbai", "addr:postcode": "400076", "addr:state": "Maharastra", "amenity": "hospital", "name": "Powai Hospital", "source": "Local Knowledge"}}, {"type": "node", "id": 2128608094, "lat": 19.0468027, "lon": 72.8420002}, {"type": "node", "id": 2128608096, "lat": 19.046962, "lon": 72.8425878}, {"type": "node", "id": 2128608109, "lat": 19.0458668, "lon": 72.8422835}, {"type": "node", "id": 2128608120, "lat": 19.046047, "lon": 72.8429939}, {"type": "node", "id": 2131962450, "lat": 19.0534388, "lon": 72.8752459}, {"type": "node", "id": 2131962451, "lat": 19.0532351, "lon": 72.8753815}, {"type": "node", "id": 2131962452, "lat": 19.0533035, "lon": 72.8750184}, {"type": "node", "id": 2131962453, "lat": 19.0530998, "lon": 72.8751539}, {"type": "node", "id": 2134856430, "lat": 19.0493781, "lon": 72.8698066, "tags": {"amenity": "hospital"}}, {"type": "node", "id": 2238635335, "lat": 19.0622247, "lon": 72.8997288, "tags": {"addr:city": "chembur east", "addr:housenumber": "near natraj cinema hall", "addr:postcode": "400071", "addr:street": "m ward marg", "amenity": "hospital", "emergency": "yes", "name": "Ameeta patil  Nursing Home", "operator": "patils"}}, {"type": "node", "id": 2319217775, "lat": 19.0557141, "lon": 72.8946408, "tags": {"amenity": "hospital", "emergency": "no", "name": "Mata Ramabai B Ambedkar Hospital", "name:etymology:wikidata": "Q19812241"}}, {"type": "node", "id": 2382047271, "lat": 19.0396977, "lon": 72.8519607}, {"type": "node", "id": 2382047272, "lat": 19.0397366, "lon": 72.8518611}, {"type": "node", "id": 2382047275, "lat": 19.0397658, "lon": 72.8517582}, {"type": "node", "id": 2382047276, "lat": 19.0397723, "lon": 72.8518749}, {"type": "node", "id": 2382047277, "lat": 19.0398178, "lon": 72.8517959}, {"type": "node", "id": 2382047280, "lat": 19.0398534, "lon": 72.8520259}, {"type": "node", "id": 2382047281, "lat": 19.0398567, "lon": 72.851693}, {"type": "node", "id": 2382047282, "lat": 19.0398664, "lon": 72.8519675}, {"type": "node", "id": 2382047292, "lat": 19.0400416, "lon": 72.852122}, {"type": "node", "id": 2382047294, "lat": 19.0400611, "lon": 72.8520636}, {"type": "node", "id": 2382047297, "lat": 19.0401389, "lon": 72.851844}, {"type": "node", "id": 2382047302, "lat": 19.0402265, "lon": 72.8522284}, {"type": "node", "id": 2382047306, "lat": 19.0403368, "lon": 72.8519675}, {"type": "node", "id": 2663447657, "lat": 19.0758981, "lon": 72.8856074}, {"type": "node", "id": 2663447659, "lat": 19.0764767, "lon": 72.8863946}, {"type": "node", "id": 2947820875, "lat": 19.0616337, "lon": 72.8451297, "tags": {"amenity": "hospital", "healthcare": "hospital"}}, {"type": "node", "id": 3204211842, "lat": 19.0501477, "lon": 72.9193344, "tags": {"amenity": "hospital", "name": "jonsons diagnostics"}}, {"type": "node", "id": 3205777380, "lat": 19.0628029, "lon": 72.9187087}, {"type": "node", "id": 3205777384, "lat": 19.0924663, "lon": 72.9121731, "tags": {"amenity": "hospital", "name": "nidan hospital"}}, {"type": "node", "id": 3205813953, "lat": 19.0602605, "lon": 72.9113338, "tags": {"amenity": "hospital", "name": "bba"}}, {"type": "node", "id": 3206033563, "lat": 19.0585059, "lon": 72.8904048, "tags": {"amenity": "hospital", "name": "maa hospital"}}, {"type": "node", "id": 3213764477, "lat": 19.0608709, "lon": 72.9247689, "tags": {"addr:city": "mumbai", "addr:housenumber": "room no:10,line no:q,plot no:12", "addr:postcode": "400043", "addr:street": "Jeejabai Bhosle Marg", "amenity": "hospital", "emergency": "yes", "name": "sanjeevan hospital"}}, {"type": "node", "id": 3213767187, "lat": 19.0668912, "lon": 72.9134181, "tags": {"amenity": "hospital", "name": "Metalife"}}, {"type": "node", "id": 3215517363, "lat": 19.0524549, "lon": 72.9185421, "tags": {"amenity": "hospital", "name": "AMAN"}}, {"type": "node", "id": 3215654162, "lat": 19.0694984, "lon": 72.922163}, {"type": "node", "id": 3215654163, "lat": 19.069459, "lon": 72.922551}, {"type": "node", "id": 3215654165, "lat": 19.0689462, "lon": 72.9218717}, {"type": "node", "id": 3216229177, "lat": 19.0623004, "lon": 72.8967534}, {"type": "node", "id": 3216229180, "lat": 19.0615728, "lon": 72.8964946}, {"type": "node", "id": 3216229181, "lat": 19.0616527, "lon": 72.8962411}, {"type": "node", "id": 3226211962, "lat": 19.0688224, "lon": 72.9220954}, {"type": "node", "id": 3403264488, "lat": 19.1068191, "lon": 72.8507443, "tags": {"addr:city": "Mumbai", "addr:housenumber": "krishna alankar", "addr:postcode": "400057", "addr:street": "Tejpal Scheme Road 5", "amenity": "hospital", "emergency": "yes", "healthcare": "hospital", "name": "gr8 smile dental clinic", "note": "Dentist", "operator": "dr. jitha marakarkandy", "phone": "+91 22 2684 2451"}}, {"type": "node", "id": 3529547303, "lat": 19.0897614, "lon": 72.9049996, "tags": {"addr:city": "mumbai", "addr:street": "R B Kadam Road", "amenity": "hospital", "name": "new life hospital"}}, {"type": "node", "id": 3532038985, "lat": 19.0946018, "lon": 72.9032913, "tags": {"addr:city": "mumbai", "amenity": "hospital", "name": "muktabai hospital"}}, {"type": "node", "id": 3532119818, "lat": 19.0634778, "lon": 72.8817876, "tags": {"amenity": "hospital", "name": "v care hospital intensive& unit care"}}, {"type": "node", "id": 3532124714, "lat": 19.0693933, "lon": 72.8781202, "tags": {"amenity": "hospital", "name": "arpan nursing home"}}, {"type": "node", "id": 3532124717, "lat": 19.0627584, "lon": 72.8731765, "tags": {"amenity": "hospital", "name": "fauziya hospital"}}, {"type": "node", "id": 3532126359, "lat": 19.0636096, "lon": 72.8819271, "tags": {"amenity": "hospital", "name": "arayan hospital"}}, {"type": "node", "id": 3546099443, "lat": 19.103538, "lon": 72.927049}, {"type": "node", "id": 3589059585, "lat": 19.1199252, "lon": 72.9169426}, {"type": "node", "id": 3589059586, "lat": 19.1194659, "lon": 72.9165097}, {"type": "node", "id": 3589059589, "lat": 19.1203754, "lon": 72.916834}, {"type": "node", "id": 3589059590, "lat": 19.120384, "lon": 72.9173107}, {"type": "node", "id": 3589059693, "lat": 19.1205569, "lon": 72.9169067}, {"type": "node", "id": 3589059694, "lat": 19.1207223, "lon": 72.9175821}, {"type": "node", "id": 3589059695, "lat": 19.1209386, "lon": 72.9175925}, {"type": "node", "id": 3589059696, "lat": 19.1210592, "lon": 72.9172368}, {"type": "node", "id": 3589399303, "lat": 19.0809415, "lon": 72.8820782}, {"type": "node", "id": 3589399323, "lat": 19.0809784, "lon": 72.8818558}, {"type": "node", "id": 3589399326, "lat": 19.0811378, "lon": 72.8818513}, {"type": "node", "id": 3589399327, "lat": 19.0811435, "lon": 72.8820724}, {"type": "node", "id": 3589607622, "lat": 19.0833696, "lon": 72.8396091}, {"type": "node", "id": 3589607625, "lat": 19.0834084, "lon": 72.8393662}, {"type": "node", "id": 3589607628, "lat": 19.0834806, "lon": 72.8396289}, {"type": "node", "id": 3589607630, "lat": 19.0835193, "lon": 72.839386}, {"type": "node", "id": 3591988751, "lat": 19.0797777, "lon": 72.8401094}, {"type": "node", "id": 3591988753, "lat": 19.0797871, "lon": 72.8402171}, {"type": "node", "id": 3591988758, "lat": 19.0798166, "lon": 72.8402035}, {"type": "node", "id": 3591988762, "lat": 19.0798445, "lon": 72.8403563}, {"type": "node", "id": 3591988763, "lat": 19.0798478, "lon": 72.8400771}, {"type": "node", "id": 3591988766, "lat": 19.0798602, "lon": 72.8401071}, {"type": "node", "id": 3591988786, "lat": 19.0799358, "lon": 72.8400723}, {"type": "node", "id": 3591988795, "lat": 19.0800196, "lon": 72.8402754}, {"type": "node", "id": 3597683636, "lat": 19.0782728, "lon": 72.8547927}, {"type": "node", "id": 3597683640, "lat": 19.0783736, "lon": 72.8552629}, {"type": "node", "id": 3597683642, "lat": 19.0783899, "lon": 72.8548691}, {"type": "node", "id": 3597683646, "lat": 19.0784475, "lon": 72.8551514}, {"type": "node", "id": 3597683650, "lat": 19.0784578, "lon": 72.8547499}, {"type": "node", "id": 3597683653, "lat": 19.0785166, "lon": 72.8551171}, {"type": "node", "id": 3597683655, "lat": 19.0784864, "lon": 72.8548657}, {"type": "node", "id": 3597683659, "lat": 19.0785482, "lon": 72.8551813}, {"type": "node", "id": 3619454151, "lat": 19.1205853, "lon": 72.8794505}, {"type": "node", "id": 3619454153, "lat": 19.1205859, "lon": 72.8793732}, {"type": "node", "id": 3619454171, "lat": 19.1207484, "lon": 72.8794521}, {"type": "node", "id": 3619454172, "lat": 19.1207491, "lon": 72.8793747}, {"type": "node", "id": 3619454221, "lat": 19.1212894, "lon": 72.8794014}, {"type": "node", "id": 3619454222, "lat": 19.1212951, "lon": 72.8795619}, {"type": "node", "id": 3619454231, "lat": 19.1213876, "lon": 72.8793975}, {"type": "node", "id": 3619454234, "lat": 19.1213933, "lon": 72.879558}, {"type": "node", "id": 3627071289, "lat": 19.068504, "lon": 72.8371295}, {"type": "node", "id": 3627071291, "lat": 19.0685152, "lon": 72.836917}, {"type": "node", "id": 3627071313, "lat": 19.0686166, "lon": 72.8371362}, {"type": "node", "id": 3627071318, "lat": 19.0686278, "lon": 72.8369236}, {"type": "node", "id": 3951526714, "lat": 19.0959684, "lon": 72.8400115, "tags": {"addr:district": "Mumbai", "addr:full": "S V Road , Vile Parle", "addr:postcode": "400056", "addr:state": "Maharashtra", "addr:street": "Swami Vivekanand Road", "amenity": "hospital", "contact:phone": "2226267500", "email": "info@nanavatihospital.org", "healthcare": "hospital", "name": "Nanavati Hospital, Mumbai", "opening_hours": "24/7", "operator:type": "government", "source": "OpenGovernmentData", "website": "https://www.nanavatihospital.org/", "wikidata": "Q6962443", "wikipedia": "en:Nanavati hospital"}}, {"type": "node", "id": 3951538079, "lat": 19.0857296, "lon": 72.8377345, "tags": {"amenity": "hospital", "name": "Surya Mother And Child Speciality Hospital"}}, {"type": "node", "id": 3951538080, "lat": 19.0855132, "lon": 72.837945, "tags": {"addr:district": "Mumbai", "addr:full": "101/102 Mangal Ashirwad, June S.V. Road & Dattatray Road, T.P.S. Ii Santacruz (W)", "addr:postcode": "400054", "addr:state": "Maharashtra", "amenity": "hospital", "name": "Surya Childrens Hospital", "source": "OpenGovernmentData"}}, {"type": "node", "id": 3979081599, "lat": 19.1140839, "lon": 72.8417197, "tags": {"addr:district": "Mumbai", "addr:full": "2-A,Manubharti Chs,Azad Lane,S V Road,Andheri", "addr:postcode": "400059", "addr:state": "Maharashtra", "amenity": "hospital", "name": "Nutan Mammography and Sonography Centre", "source": "OpenGovernmentData"}}, {"type": "node", "id": 3981413826, "lat": 19.0626455, "lon": 72.9190606}, {"type": "node", "id": 3981413827, "lat": 19.0626742, "lon": 72.9190735}, {"type": "node", "id": 3981413833, "lat": 19.0631962, "lon": 72.9193221}, {"type": "node", "id": 4132480380, "lat": 19.049969, "lon": 72.9106103}, {"type": "node", "id": 4132480381, "lat": 19.0498161, "lon": 72.9115816}, {"type": "node", "id": 4132480382, "lat": 19.0487215, "lon": 72.9114035}, {"type": "node", "id": 4132480383, "lat": 19.0489344, "lon": 72.9103625}, {"type": "node", "id": 4216741290, "lat": 19.111503, "lon": 72.8723931, "tags": {"amenity": "hospital", "check_date": "2025-11-09", "healthcare": "hospital", "name": "Mukund Hospital"}}, {"type": "node", "id": 4264834970, "lat": 19.0358885, "lon": 72.8583026}, {"type": "node", "id": 4297000114, "lat": 19.0652101, "lon": 72.8602486}, {"type": "node", "id": 4297017108, "lat": 19.0648746, "lon": 72.8604461}, {"type": "node", "id": 4297017109, "lat": 19.0649062, "lon": 72.8602099}, {"type": "node", "id": 4297017110, "lat": 19.0650704, "lon": 72.8616134}, {"type": "node", "id": 4297017111, "lat": 19.0651941, "lon": 72.8603705}, {"type": "node", "id": 4297017112, "lat": 19.0655094, "lon": 72.8612444}, {"type": "node", "id": 4297017113, "lat": 19.0656848, "lon": 72.8612577}, {"type": "node", "id": 4297017114, "lat": 19.065784, "lon": 72.8604366}, {"type": "node", "id": 4326473789, "lat": 19.09722, "lon": 72.888041, "tags": {"addr:city": "mumbai", "addr:district": "maharastra", "amenity": "hospital", "healthcare": "hospital", "healthcare:speciality": "physiotherapy", "name": "Tiwari Hospital", "name:en": "Tiwari Hospital"}}, {"type": "node", "id": 4344894369, "lat": 19.1031857, "lon": 72.9278858}, {"type": "node", "id": 4344894373, "lat": 19.1033428, "lon": 72.9285564}, {"type": "node", "id": 4344894376, "lat": 19.1036292, "lon": 72.928095}, {"type": "node", "id": 4344894379, "lat": 19.1038244, "lon": 72.92872}, {"type": "node", "id": 4344894381, "lat": 19.1041108, "lon": 72.9280709}, {"type": "node", "id": 4344894382, "lat": 19.1043617, "lon": 72.9279126}, {"type": "node", "id": 4344894386, "lat": 19.1046455, "lon": 72.9275291}, {"type": "node", "id": 4344894387, "lat": 19.1046684, "lon": 72.9280038}, {"type": "node", "id": 4344894389, "lat": 19.1048204, "lon": 72.9280253}, {"type": "node", "id": 4344894390, "lat": 19.1049319, "lon": 72.9276149}, {"type": "node", "id": 4344894392, "lat": 19.1050029, "lon": 72.9279743}, {"type": "node", "id": 4344894394, "lat": 19.1050739, "lon": 72.9278912}, {"type": "node", "id": 4344894395, "lat": 19.1051372, "lon": 72.9276337}, {"type": "node", "id": 4352387478, "lat": 19.0750197, "lon": 72.8356392, "tags": {"addr:city": "Santa Cruz", "addr:district": "Mumbai", "addr:full": "12Th Road, Khar", "addr:postcode": "400052", "addr:state": "Maharashtra", "addr:street": "South Avenue", "amenity": "hospital", "check_date": "2025-06-12", "healthcare": "hospital", "name": "Ramakrishna Mission Hospital, Mumbai", "source": "OpenGovernmentData"}}, {"type": "node", "id": 4672225593, "lat": 19.0401523, "lon": 72.844575, "tags": {"addr:street": "Mia Mohd Chhotani Road", "amenity": "hospital", "name:en": "Pikale Hospital", "name:hi": "\u092a\u093f\u0915\u093e\u0932\u0947 \u0905\u0938\u094d\u092a\u0924\u093e\u0932"}}, {"type": "node", "id": 4848773727, "lat": 19.0358379, "lon": 72.8609822, "tags": {"amenity": "hospital", "name": "Mata Lachmi Hospital"}}, {"type": "node", "id": 4996322798, "lat": 19.0815079, "lon": 72.8831157, "tags": {"addr:city": "Mumbai", "addr:postcode": "400070", "addr:street": "father peter periera road", "amenity": "hospital", "name": "Kurla Municipal Hospital", "operator": "MCGM", "website": "https://www.mcgm.gov.in"}}, {"type": "node", "id": 5456874526, "lat": 19.0938333, "lon": 72.898646, "tags": {"amenity": "hospital", "name:en": "Disha Hospital"}}, {"type": "node", "id": 5496408819, "lat": 19.1172198, "lon": 72.882342, "tags": {"addr:city": "Mumbai", "addr:postcode": "400059", "amenity": "hospital", "healthcare": "hospital", "name": "Marol"}}, {"type": "node", "id": 5506320776, "lat": 19.0646242, "lon": 72.8510225, "tags": {"addr:street": "Hari Mandir Road", "amenity": "hospital", "name": "Shivam Nursing Home", "phone": "022-2657138689"}}, {"type": "node", "id": 5506320962, "lat": 19.0647166, "lon": 72.860991}, {"type": "node", "id": 5510255905, "lat": 19.0649456, "lon": 72.8602135}, {"type": "node", "id": 5792364461, "lat": 19.0360806, "lon": 72.8581106}, {"type": "node", "id": 5792364462, "lat": 19.0373889, "lon": 72.8586434}, {"type": "node", "id": 6228730399, "lat": 19.0577092, "lon": 72.8337577}, {"type": "node", "id": 6228730400, "lat": 19.0576712, "lon": 72.8330362}, {"type": "node", "id": 6228730401, "lat": 19.0570577, "lon": 72.8330576}, {"type": "node", "id": 6228730402, "lat": 19.0576636, "lon": 72.8338301}, {"type": "node", "id": 6228754300, "lat": 19.0570865, "lon": 72.833438}, {"type": "node", "id": 6322310753, "lat": 19.0763785, "lon": 72.9054696, "tags": {"amenity": "hospital", "healthcare": "hospital", "name": "Ashirvaad Heart Hospital", "operator": "Dr Bhaskar Shah"}}, {"type": "node", "id": 6795512985, "lat": 19.1150444, "lon": 72.9073885, "tags": {"addr:street": "Central Avenue", "amenity": "hospital", "name:en": "Metropolis", "phone": "+912233993939"}}, {"type": "node", "id": 6795570585, "lat": 19.1154259, "lon": 72.9075074, "tags": {"addr:street": "Central Avenue - from Tulip to Forest Street Junction", "amenity": "hospital", "name:en": "SRL Diagnostics"}}, {"type": "node", "id": 7042871859, "lat": 19.0500033, "lon": 72.9044715, "tags": {"addr:district": "Mumbai", "addr:full": "B-28/1, Maitri Park, Sion Trombay Road, Next To Maitri Park Bus Stop,Chembur", "addr:postcode": "400071", "addr:state": "Maharashtra", "amenity": "hospital", "name": "Niramaya General Hospital", "source": "OpenGovernmentData", "website": "niramayahospitals.in"}}, {"type": "node", "id": 7042942734, "lat": 19.059025, "lon": 72.8973126, "tags": {"addr:district": "Mumbai", "addr:full": "Plot No.185, 15Th Road, Opp Nirmal And Ayush Beauty Clinic, Chembur", "addr:postcode": "400071", "addr:state": "Maharashtra", "amenity": "hospital", "name": "Dr.Sanjay Sonar Laparoscopy and Scopy Center", "source": "OpenGovernmentData", "website": "sanjaysonar.com"}}, {"type": "node", "id": 7042955283, "lat": 19.0563744, "lon": 72.8957395, "tags": {"addr:district": "Mumbai", "addr:full": "1, Casa Grande, Road No-10, Opp Jain Temple,Chembur", "addr:postcode": "400071", "addr:state": "Maharashtra", "amenity": "hospital", "name": "Shree Chembur Jain Medical Relief Centre", "source": "OpenGovernmentData"}}, {"type": "node", "id": 7042963296, "lat": 19.0607819, "lon": 72.8986967, "tags": {"addr:district": "Mumbai", "addr:full": "1st Floor, Hotel Pearl Building, Above Malhar Hotel, Chembur", "addr:postcode": "400071", "addr:state": "Maharashtra", "amenity": "hospital", "name": "Yash Eye Care and Polyclinic", "source": "OpenGovernmentData"}}, {"type": "node", "id": 7042999151, "lat": 19.0824458, "lon": 72.9092512, "tags": {"addr:district": "Mumbai", "addr:full": "Ghatkopar(E)", "addr:postcode": "400077", "addr:state": "Maharashtra", "amenity": "hospital", "name": "Vatsal Nicu and Childrens Hospital", "source": "OpenGovernmentData"}}, {"type": "node", "id": 7043001747, "lat": 19.0579944, "lon": 72.9087979, "tags": {"addr:district": "Mumbai", "addr:full": "NJ,1&2,Khardev Nagar,Ghatla,N.G Adhaya Marg,Chembur", "addr:postcode": "400071", "addr:state": "Maharashtra", "amenity": "hospital", "name": "Aditya Health Care Hospital", "source": "OpenGovernmentData"}}, {"type": "node", "id": 7043029973, "lat": 19.0456831, "lon": 72.9025014, "tags": {"addr:district": "Mumbai", "addr:full": "16, Maitri Vijay, Opposite Basant Cinema, Chembur", "addr:postcode": "400074", "addr:state": "Maharashtra", "amenity": "hospital", "name": "Nayak Medicare - Chembur", "source": "OpenGovernmentData", "website": "drudaynayak.com"}}, {"type": "node", "id": 7043035499, "lat": 19.0596994, "lon": 72.8997535, "tags": {"addr:district": "Mumbai", "addr:full": "2nd & 3rd Floor, Gagangiri, 18Th Road, Chembur", "addr:postcode": "400071", "addr:state": "Maharashtra", "amenity": "hospital", "name": "Dr. Das Hospital - Chembur (Mumbai)", "source": "OpenGovernmentData", "website": "https://dashospital.com/"}}, {"type": "node", "id": 7043055857, "lat": 19.0570862, "lon": 72.8988851, "tags": {"addr:district": "Mumbai", "addr:full": "Sampoorna, Plot 213,11Th Road, Chembur", "addr:postcode": "400071", "addr:state": "Maharashtra", "amenity": "hospital", "name": "Laxmi Maternity and Nursing Home, Mumbai", "source": "OpenGovernmentData"}}, {"type": "node", "id": 7043060180, "lat": 19.0606625, "lon": 72.8997141, "tags": {"addr:district": "Mumbai", "addr:full": "Saikripa Building ,Road No.1, Opposite Chembur Municipal Office,M' Ward,Chembur", "addr:postcode": "400071", "addr:state": "Maharashtra", "amenity": "hospital", "healthcare": "hospital", "name": "Hegde Hospital", "source": "OpenGovernmentData"}}, {"type": "node", "id": 7043077889, "lat": 19.0694366, "lon": 72.9038545, "tags": {"addr:city": "Mumbai", "addr:district": "Mumbai", "addr:full": "Rane Hospital, 2nd Floor, Pestom Sagar Road No. 2, Chembur, Mumbai 400089, India", "addr:housenumber": "Rane Hospital, 2nd Floor, Pestom Sagar Road No. 2, Chembur, Mumbai 400089, India", "addr:postcode": "400089", "addr:state": "Maharashtra", "addr:street": "Dr Nandita Rane's Eye Clinic", "amenity": "hospital", "healthcare:speciality": "ophthalmology;dermatology", "name": "Dr Nandita Rane's Eye Clinic", "opening_hours": "24/7", "operator": "Dr Nandita Rane", "operator:type": "private_individual", "source": "OpenGovernmentData", "website": "https://drnandita.com/"}}, {"type": "node", "id": 7043106193, "lat": 19.0609549, "lon": 72.8987212, "tags": {"addr:district": "Mumbai", "addr:full": "204,Garodia Market, Plot No 8-A, D K Sandu Road, Next To Hotel Malhaar, Chembur", "addr:postcode": "400071", "addr:state": "Maharashtra", "amenity": "hospital", "name": "Patankar's Hand and Limb Reconstruction Clinic", "source": "OpenGovernmentData"}}, {"type": "node", "id": 7043125151, "lat": 19.0618187, "lon": 72.8980838, "tags": {"addr:district": "Mumbai", "addr:full": "1& 2 Savla Sadan, First Floor, R.C. Marg,Opposite Ration Office,Chembur", "addr:postcode": "400071", "addr:state": "Maharashtra", "amenity": "hospital", "name": "Icon Hospital and Research Centre", "source": "OpenGovernmentData"}}, {"type": "node", "id": 7043174029, "lat": 19.1181601, "lon": 72.844288, "tags": {"addr:district": "Mumbai", "addr:full": "11, GangaVihar Residency, 174 S.V.Road", "addr:postcode": "400058", "addr:state": "Maharashtra", "amenity": "hospital", "email": "drsamir@gynaecexpert.com", "healthcare": "hospital", "name": "Sangita Maternity Surgical and Diagnostic Centre", "operator:type": "private", "source": "OpenGovernmentData", "website": "https://gynaecexpert.com/"}}, {"type": "node", "id": 7043174030, "lat": 19.0632283, "lon": 72.834439, "tags": {"addr:district": "Mumbai", "addr:full": "8 Roseland Bulding, 180, Opposite National College, Junction Of Linking And Waterfield Road, Bandra West", "addr:postcode": "400050", "addr:state": "Maharashtra", "amenity": "hospital", "email": "info@ojaseyehospital.com", "healthcare": "hospital", "name": "Ojas Eye Hospital", "source": "OpenGovernmentData", "website": "https://www.ojaseyehospital.com/"}}, {"type": "node", "id": 7043182324, "lat": 19.0803279, "lon": 72.8421846, "tags": {"addr:district": "Mumbai", "addr:full": "Qureshi House, 6Th Nehru Road,Near Santacruz Railway Station, Santacruz (East)", "addr:postcode": "400055", "addr:state": "Maharashtra", "amenity": "hospital", "healthcare": "hospital", "name": "R. K. Hospital, Mumbai", "source": "OpenGovernmentData"}}, {"type": "node", "id": 7043188926, "lat": 19.0467619, "lon": 72.8934167, "tags": {"addr:district": "Mumbai", "addr:full": "Inlaks Hospital Road, Chembur Colony, Chembur", "addr:postcode": "400074", "addr:state": "Maharashtra", "amenity": "hospital", "name": "Inlaks General Hospital", "source": "OpenGovernmentData"}}, {"type": "node", "id": 7043233247, "lat": 19.0552184, "lon": 72.8898903, "tags": {"addr:district": "Mumbai", "addr:full": "Plotno.-22, Swastik Park, Chembur", "addr:postcode": "400071", "addr:state": "Maharashtra", "amenity": "hospital", "name": "Swastik Hospital and Research Centre, Mumbai", "source": "OpenGovernmentData", "website": "swastikhospital.com"}}, {"type": "node", "id": 7043236781, "lat": 19.0526628, "lon": 72.8911664, "tags": {"addr:district": "Mumbai", "addr:full": "No. 19-B, Near Bhakti Bhavan,Siddhi Society,Chembur", "addr:postcode": "400071", "addr:state": "Maharashtra", "amenity": "hospital", "name": "Sitla Hospital", "source": "OpenGovernmentData"}}, {"type": "node", "id": 7043348148, "lat": 19.0797908, "lon": 72.8427047, "tags": {"addr:district": "Mumbai", "addr:full": "Shri Sadashiv Chs, 6Th Road, Santacruz(E)", "addr:postcode": "400055", "addr:state": "Maharashtra", "amenity": "hospital", "healthcare": "hospital", "name": "Nandan Maternity and Surgical Home", "source": "OpenGovernmentData"}}, {"type": "node", "id": 7043376493, "lat": 19.0784905, "lon": 72.8380749, "tags": {"addr:district": "Mumbai", "addr:full": "101, Kirti Manor, S V Road, Phiroz Dastoor & Sons, Santacruz West", "addr:postcode": "400054", "addr:state": "Maharashtra", "amenity": "hospital", "healthcare": "hospital", "name": "Mumbai Retina Centre", "source": "OpenGovernmentData"}}, {"type": "node", "id": 7043388690, "lat": 19.0879436, "lon": 72.8376687, "tags": {"addr:district": "Mumbai", "addr:full": "G-6, Chirag Housing Society, B-1, S.V.Road, Santacruz(W)", "addr:postcode": "400054", "addr:state": "Maharashtra", "amenity": "hospital", "name": "Malpani Eye Hospital and Laser Centre", "source": "OpenGovernmentData"}}, {"type": "node", "id": 7043397403, "lat": 19.1242045, "lon": 72.8906147, "tags": {"addr:district": "Mumbai", "addr:full": "Lake Bloom - 16, 17, 18, Opposite Solaris Estate, L.T. Gate No.6, Tunga Gaon, Sakivihar Road, Powai", "addr:postcode": "400072", "addr:state": "Maharashtra", "amenity": "hospital", "name": "S B Nursing Home and Icu", "source": "OpenGovernmentData"}}, {"type": "node", "id": 7043397894, "lat": 19.089509, "lon": 72.8385763, "tags": {"addr:district": "Mumbai", "addr:full": "102 D Wing Rizvi Nagar 1 St Floor S.V.Road Milan , , Corner Santacruz", "addr:postcode": "400054", "addr:state": "Maharashtra", "amenity": "hospital", "name": "Kenias Eye Hospital", "source": "OpenGovernmentData"}}, {"type": "node", "id": 7043397906, "lat": 19.1129534, "lon": 72.8379245, "tags": {"addr:district": "Mumbai", "addr:full": "B201, Dhruv, OppositeGagandeep, Main Road, Juhu, Vile Parle (West)", "addr:postcode": "400056", "addr:state": "Maharashtra", "amenity": "hospital", "email": "info@lasersformedicine.com", "name": "Centre For Sight, Juhu", "operator:type": "private", "source": "OpenGovernmentData", "website": "https://www.centreforsight.net/"}}, {"type": "node", "id": 7043548005, "lat": 19.0604187, "lon": 72.8369254, "tags": {"addr:district": "Mumbai", "addr:full": "# 222, S.V. Road, Bandra- West", "addr:postcode": "400050", "addr:state": "Maharashtra", "amenity": "hospital", "healthcare": "hospital", "name": "Shroff Eye Hospital", "source": "OpenGovernmentData"}}, {"type": "node", "id": 7043693171, "lat": 19.0878158, "lon": 72.9069324, "tags": {"addr:district": "Mumbai", "addr:full": "203- A, 205, Trimurti Arcade, Near Sarvodya Hospital, L.B.S.Marg, Ghatkopar(W)", "addr:postcode": "400086", "addr:state": "Maharashtra", "amenity": "hospital", "name": "Noble Hospital, Ghatkopar", "source": "OpenGovernmentData"}}, {"type": "node", "id": 7043769618, "lat": 19.0824573, "lon": 72.9092287, "tags": {"addr:district": "Mumbai", "addr:full": "501, Vishal Building, Above Subhiksha, Junction Of Hingwala Lane & 60 Feet Road,Ghatkopar East", "addr:postcode": "400077", "addr:state": "Maharashtra", "amenity": "hospital", "name": "Excel Ent Hospital", "source": "OpenGovernmentData"}}, {"type": "node", "id": 7043778826, "lat": 19.1013222, "lon": 72.8484596, "tags": {"addr:city": "mumbai", "addr:district": "Mumbai", "addr:full": "# 102/6, Purshottam Niwas,1st Floor, Park Road, Vile Parle (E)", "addr:postcode": "400057", "addr:state": "Maharashtra", "addr:street": "Prarthana Samaj Road", "amenity": "hospital", "healthcare": "hospital", "healthcare:speciality": "ophthalmology", "name": "Parle Eye Hospital", "opening_hours": "24/7", "source": "OpenGovernmentData"}}, {"type": "node", "id": 7043843367, "lat": 19.0561628, "lon": 72.8894511}, {"type": "node", "id": 7044344099, "lat": 19.1111299, "lon": 72.8721267, "tags": {"addr:district": "Mumbai", "addr:full": "Mukund Nagar Co-Opp Hsg Andheri Kurla Road Andheri (E)", "addr:postcode": "400059", "addr:state": "Maharashtra", "amenity": "hospital", "check_date": "2025-11-09", "healthcare": "hospital", "name": "Mukund Maternity and Surgical Nursing Home", "source": "OpenGovernmentData"}}, {"type": "node", "id": 7044376947, "lat": 19.0628176, "lon": 72.9207404, "tags": {"addr:district": "Mumbai", "addr:full": "Plot No-18-U-1-1(A) & 2, Near Bhaji Market, Shivaji Nagar, Govandi", "addr:postcode": "400043", "addr:state": "Maharashtra", "amenity": "hospital", "name": "Vikas Nursing Home, Mumbai", "source": "OpenGovernmentData"}}, {"type": "node", "id": 7044669600, "lat": 19.0757589, "lon": 72.9030552, "tags": {"addr:district": "Mumbai", "addr:full": "C-5, Satyam Shopping Centre, 1st Flr, M.G. Road, Ghatkopar (E)", "addr:postcode": "400077", "addr:state": "Maharashtra", "amenity": "hospital", "name": "Tara Neo Surg Hospital", "source": "OpenGovernmentData"}}, {"type": "node", "id": 7044692216, "lat": 19.0793026, "lon": 72.902154, "tags": {"addr:district": "Mumbai", "addr:full": "201,Punit Plaza , Second Floor , Next To Rajawadi Post Office , Rajawadi , Ghatkopar ( East )", "addr:postcode": "400077", "addr:state": "Maharashtra", "amenity": "hospital", "name": "The Eye Super Specialities", "source": "OpenGovernmentData"}}, {"type": "node", "id": 7044745238, "lat": 19.0791531, "lon": 72.9039431, "tags": {"addr:district": "Mumbai", "addr:full": "Jayant Arcade, Ist Floor, 140-142, M.G. Road, Ghatkopar(E)", "addr:postcode": "400077", "addr:state": "Maharashtra", "amenity": "hospital", "name": "Advanced Orthopaedic and Super Speciality Center", "source": "OpenGovernmentData"}}, {"type": "node", "id": 7044829632, "lat": 19.0829325, "lon": 72.8819436, "tags": {"addr:district": "Mumbai", "addr:full": "Pratap Nagar, Housing Society, A-Wing, 1st Floor, L.B.S. Marg, Kurla West", "addr:postcode": "400070", "addr:state": "Maharashtra", "amenity": "hospital", "healthcare": "hospital", "name": "Sushila Hospital-Icu and Maternity", "source": "OpenGovernmentData"}}, {"type": "node", "id": 7045020590, "lat": 19.062706, "lon": 72.8815868, "tags": {"addr:district": "Mumbai", "addr:full": "Opposite Bldg No.101, Nehru Nagar, Kurla (E)", "addr:postcode": "400070", "addr:state": "Maharashtra", "amenity": "hospital", "name": "V Care Hospital and Icu", "source": "OpenGovernmentData"}}, {"type": "node", "id": 7045155680, "lat": 19.0431439, "lon": 72.8936943, "tags": {"addr:district": "Mumbai", "addr:full": "5, Safal Ganga, Opposite Collector's Colony, Chembur Camp", "addr:postcode": "400074", "addr:state": "Maharashtra", "amenity": "hospital", "name": "Universal Eye Clinic and Surgical Centre", "source": "OpenGovernmentData"}}, {"type": "node", "id": 7045324038, "lat": 19.0630077, "lon": 72.8823915, "tags": {"addr:district": "Mumbai", "addr:full": "D-28 & 29, Nehru Nagar, Station Road, Kurla (East)", "addr:postcode": "400024", "addr:state": "Maharashtra", "amenity": "hospital", "name": "Aryan Hospital and Iccu - Kurla-Mumbai", "source": "OpenGovernmentData"}}, {"type": "node", "id": 7046326222, "lat": 19.0972827, "lon": 72.8493802, "tags": {"addr:district": "Mumbai", "addr:full": "Vimal Apartment, Nehru Road, No.9, 10, 11, Near Municipal Office, Vile Parle East", "addr:postcode": "400057", "addr:state": "Maharashtra", "amenity": "hospital", "name": "Navjivan Maternity and Surgical Nursing Home", "source": "OpenGovernmentData"}}, {"type": "node", "id": 7046488275, "lat": 19.0598819, "lon": 72.9011294, "tags": {"addr:district": "Mumbai", "addr:full": "Omprakash Arcade, 2nd Floor, Unit No.209, Ambedkar Garden, Chembur", "addr:postcode": "400071", "addr:state": "Maharashtra", "amenity": "hospital", "email": "kolekaraditya@gmail.com", "name": "Kolekar Hospital & ICCU", "source": "OpenGovernmentData"}}, {"type": "node", "id": 7046777602, "lat": 19.0535553, "lon": 72.8870063, "tags": {"addr:district": "Mumbai", "addr:full": "Sion-Trombay Road, Suman Nagar, Chembur East", "addr:postcode": "400071", "addr:state": "Maharashtra", "amenity": "hospital", "email": "info@suranasethiahospital.in", "healthcare": "hospital", "name": "Surana Sethia Hospital And Research Centre", "source": "OpenGovernmentData", "website": "https://suranahospital.in/"}}, {"type": "node", "id": 7047430578, "lat": 19.0758488, "lon": 72.8608239, "tags": {"addr:district": "Mumbai", "addr:full": "C.S.T. Road, Next To Sundar Nagar,M Kalina, Santacruz(E)", "addr:postcode": "400098", "addr:state": "Maharashtra", "amenity": "hospital", "name": "Durga Maternity and Surgical Nursing Home", "source": "OpenGovernmentData"}}, {"type": "node", "id": 7047542514, "lat": 19.0858653, "lon": 72.9053056, "tags": {"addr:district": "Mumbai", "addr:full": "3Road Floor, M G Road , Near Bank Of India, Ghatkopar West", "addr:postcode": "400086", "addr:state": "Maharashtra", "amenity": "hospital", "name": "Vatsalya Maternity and Surgical Nursing Home", "source": "OpenGovernmentData"}}, {"type": "node", "id": 7047553990, "lat": 19.0844927, "lon": 72.9048134, "tags": {"addr:district": "Mumbai", "addr:full": "Nilkanth Shopping Centre Corner Cama Lane , Ghatkopar, West Mumbai", "addr:postcode": "400001", "addr:state": "Maharashtra", "amenity": "hospital", "name": "Shreeji Hospital, Ghatkopar", "source": "OpenGovernmentData"}}, {"type": "node", "id": 7048261227, "lat": 19.1006777, "lon": 72.8907222, "tags": {"addr:district": "Mumbai", "addr:full": "4 Durgashram, Sakinaka-Asalpha Link Road, , Sakinaka, Besides Peninsula Hotel, Sakinaka", "addr:postcode": "400059", "addr:state": "Maharashtra", "amenity": "hospital", "name": "Priyanka Maternity and Surgical Nursing Home", "source": "OpenGovernmentData"}}, {"type": "node", "id": 7048433662, "lat": 19.0940612, "lon": 72.9000364, "tags": {"addr:district": "Mumbai", "addr:full": "101-102-103, Sai Darshan Co-Opp Soc Asaifa, Bhattwadi Ghatkopar - West", "addr:postcode": "400084", "addr:state": "Maharashtra", "amenity": "hospital", "name": "Vivek Maternity and Nursing Home", "source": "OpenGovernmentData"}}, {"type": "node", "id": 7048863374, "lat": 19.060984, "lon": 72.8986369, "tags": {"addr:district": "Mumbai", "addr:full": "Garodia Market, Plot No 8/A, 1st Floor D K Sandu Marg, Chembur", "addr:postcode": "400071", "addr:state": "Maharashtra", "amenity": "hospital", "name": "Varsha Gandre Parekh Maternity and Surgical Hospital", "source": "OpenGovernmentData"}}, {"type": "node", "id": 7048872963, "lat": 19.0878791, "lon": 72.9023337, "tags": {"addr:district": "Mumbai", "addr:full": "Vikram Apartments , G Wing, New Maniklal Estate, L B Marg, Ghakopar (West)", "addr:postcode": "400086", "addr:state": "Maharashtra", "amenity": "hospital", "name": "Shree Sukh Shanti Hospital", "source": "OpenGovernmentData"}}, {"type": "node", "id": 7048966028, "lat": 19.0799959, "lon": 72.9043213, "tags": {"addr:district": "Mumbai", "addr:full": "C-23, 2nd Floor, Satyam Shopping Centre, M.G. Road", "addr:postcode": "400077", "addr:state": "Maharashtra", "amenity": "hospital", "name": "Saraswati Eye Hospital, Mumbai", "source": "OpenGovernmentData"}}, {"type": "node", "id": 7049041346, "lat": 19.076179, "lon": 72.9056409, "tags": {"addr:city": "Mumbai", "addr:district": "Mumbai", "addr:full": "# 1, Vivek - 67, Tilak Road, Ghatkopar (E)", "addr:postcode": "400077", "addr:state": "Maharashtra", "addr:street": "Tilak Road", "amenity": "hospital", "healthcare": "hospital", "name": "Ashirwad Heart Hospital", "source": "OpenGovernmentData"}}, {"type": "node", "id": 7049182746, "lat": 19.0926292, "lon": 72.9125141, "tags": {"addr:district": "Mumbai", "addr:full": "C Wing, 4th Floor, Bhaveshwar Plaza, L.B.S.Marg, Ghatkopar (West)", "addr:postcode": "400086", "addr:state": "Maharashtra", "amenity": "hospital", "email": "drgujars@yahoo.com", "name": "Amruta Surgical and Maternity Home", "operator:type": "private", "source": "OpenGovernmentData", "website": "http://www.amrutasurgicalandmaternityhome.com/"}}, {"type": "node", "id": 7049336179, "lat": 19.1156879, "lon": 72.8353295, "tags": {"addr:district": "Mumbai", "addr:full": "Plot No38/39, Opposite Juhu Supreme Shopping Centre, Main Gulmohar Road, Andheri (W),", "addr:postcode": "400049", "addr:state": "Maharashtra", "amenity": "hospital", "email": "info@criticarehospital.in", "name": "Criticare Multispeciality Hospital and Research Centre", "operator:type": "private", "source": "OpenGovernmentData", "website": "https://www.criticarehospital.in/"}}, {"type": "node", "id": 7049454051, "lat": 19.1079061, "lon": 72.888, "tags": {"addr:district": "Mumbai", "addr:full": "1st Floor, Jalaram Commercial Centre, Next To Hotel Shiv Sagar-Ansa Industrial, Saki Vihar Road, Saki Naka, Andheri East", "addr:postcode": "400072", "addr:state": "Maharashtra", "amenity": "hospital", "name": "Balaji Speciality Hospital", "source": "OpenGovernmentData"}}, {"type": "node", "id": 7049584815, "lat": 19.0740757, "lon": 72.8329611, "tags": {"addr:district": "Mumbai", "addr:full": "21 - A, Sita Bhavan, 14Th A Road, Ahimsa Marg, Khar (West)", "addr:postcode": "400052", "addr:state": "Maharashtra", "amenity": "hospital", "email": "info@rghospital.com", "healthcare": "hospital", "healthcare:speciality": "urology;clinical_pathology", "name": "RG Stone Urology and Laparoscopy Hospital, Khar", "operator:type": "private", "source": "OpenGovernmentData", "website": "https://www.rghospitals.com/"}}, {"type": "node", "id": 7049755583, "lat": 19.1188723, "lon": 72.8433318, "tags": {"addr:district": "Mumbai", "addr:full": "Om Nikentan V P Road S V Road Behind Hotel Alpha , Andher (West)", "addr:postcode": "400001", "addr:state": "Maharashtra", "amenity": "hospital", "healthcare": "hospital", "name": "Dr Telangs Dhanvantari Hospital", "source": "OpenGovernmentData"}}, {"type": "node", "id": 7049756932, "lat": 19.1212519, "lon": 72.8799695, "tags": {"addr:district": "Mumbai", "addr:full": "H-2, Vijay Tower,Vijay Nagar,Marol Maroshi Road Andheri(E)", "addr:postcode": "400059", "addr:state": "Maharashtra", "amenity": "hospital", "name": "Dr.Pintos Pathological Laboratory", "source": "OpenGovernmentData"}}, {"type": "node", "id": 7049800769, "lat": 19.1244488, "lon": 72.8611457, "tags": {"addr:district": "Mumbai", "addr:full": "Manas, Plot No.19, Sher-E-Punjab Society, Mahakali Caves Road, Andheri East", "addr:postcode": "400093", "addr:state": "Maharashtra", "amenity": "hospital", "name": "Dr.Sakhalkar's Maternity and Nursing Home", "source": "OpenGovernmentData"}}, {"type": "node", "id": 7049803405, "lat": 19.0931817, "lon": 72.9131524, "tags": {"addr:district": "Mumbai", "addr:full": "401, Rajshree Plaza, L.B.S. Marg, Opposite Shreyas Theatre, Ghatkopar(West)", "addr:postcode": "400086", "addr:state": "Maharashtra", "amenity": "hospital", "name": "Suyog Urology Centre", "source": "OpenGovernmentData"}}, {"type": "node", "id": 7049822998, "lat": 19.1235929, "lon": 72.8423361, "tags": {"addr:district": "Mumbai", "addr:full": "110-A, Jaiprakash Road, OppositeNavrang Theatre, Andheri(W)", "addr:postcode": "400058", "addr:state": "Maharashtra", "amenity": "hospital", "healthcare": "hospital", "name": "Patil Hospital, Mumbai", "source": "OpenGovernmentData"}}, {"type": "node", "id": 7049847480, "lat": 19.114371, "lon": 72.8334123, "tags": {"addr:district": "Mumbai", "addr:full": "101, Juhu Sheetal,Jvpd Scheme, 9Th Gulmohar Cross Road ,Vile Parle(W)", "addr:postcode": "400049", "addr:state": "Maharashtra", "amenity": "hospital", "name": "Oculus Eye Hospital Pvt. Ltd", "source": "OpenGovernmentData"}}, {"type": "node", "id": 7050167816, "lat": 19.0890312, "lon": 72.9071443, "tags": {"addr:district": "Mumbai", "addr:full": "Near Sarvodaya Hospital, L.B.S.Marg, Ghatkoper (West)", "addr:postcode": "400086", "addr:state": "Maharashtra", "amenity": "hospital", "email": "info@zynovaheart.com", "name": "Zynova Heart Hospital", "operator:type": "private", "source": "OpenGovernmentData", "website": "http://zynovaheart.com/"}}, {"type": "node", "id": 7050614446, "lat": 19.0852037, "lon": 72.9100598, "tags": {"addr:district": "Mumbai", "addr:full": "102/108, Karmavihar, Station Road,Opposite Muncipal Market, Near Railway Station", "addr:postcode": "400077", "addr:state": "Maharashtra", "amenity": "hospital", "name": "Khushal Hospital and Maternity Home", "source": "OpenGovernmentData"}}, {"type": "node", "id": 7050932259, "lat": 19.0798083, "lon": 72.9058863, "tags": {"addr:city": "Mumbai", "addr:district": "Mumbai", "addr:full": "18-A Happy Home 1st Floor Opp Achija & Guru Kurupa Hotel Ghatkopar (E)", "addr:postcode": "400077", "addr:state": "Maharashtra", "amenity": "hospital", "healthcare": "hospital", "name": "Hiren Mehta Eye Care Centre", "source": "OpenGovernmentData"}}, {"type": "node", "id": 7051069997, "lat": 19.1064919, "lon": 72.8877814, "tags": {"addr:district": "Mumbai", "addr:full": "305/306 Ruby Monarch, 3Road Floor , Opp Post Office, Saki Vihar Road , Saki Naka, Andheri East", "addr:postcode": "400072", "addr:state": "Maharashtra", "amenity": "hospital", "name": "Ashirwad Children and Surgical Hospital", "source": "OpenGovernmentData"}}, {"type": "node", "id": 7051176229, "lat": 19.10681, "lon": 72.8655446, "tags": {"addr:district": "Mumbai", "addr:full": "Mistry Complex, Sankalp (Gr. Floor), Near Greater Bank, J.B. Nagar, Andheri (E)", "addr:postcode": "400059", "addr:state": "Maharashtra", "amenity": "hospital", "healthcare": "hospital", "name": "Kiran Care and Cure Hospital", "operator": "Dr. Vaibhav Mistry", "source": "OpenGovernmentData"}}, {"type": "node", "id": 7051595414, "lat": 19.0565988, "lon": 72.8905401, "tags": {"addr:district": "Mumbai", "addr:full": "48 Swastik Park, Umarshi Bappa Chowk, Sion Trombay Road, Chembur", "addr:postcode": "400071", "addr:state": "Maharashtra", "amenity": "hospital", "name": "Mangal Anand Hospital", "source": "OpenGovernmentData"}}, {"type": "node", "id": 7051650092, "lat": 19.1169019, "lon": 72.871322, "tags": {"addr:city": "Mumbai", "addr:district": "Mumbai", "addr:full": "1-Lacreame Nrakruti Trade Center Road No-7 Kondivita Midc Area Andheri(E)", "addr:housenumber": "G1, Lacreme Building, Kondivita, Andheri East", "addr:postcode": "400047", "addr:state": "Maharashtra", "addr:street": "Road Number 7", "amenity": "hospital", "healthcare": "hospital", "name": "Umang Maternity and Surgical Nursing Home", "phone": "+912228203041", "source": "OpenGovernmentData"}}, {"type": "node", "id": 7051825616, "lat": 19.1171996, "lon": 72.8827469, "tags": {"addr:district": "Mumbai", "addr:full": "Plot No.236, Twin Arcade,Military Road,Marol,Andheri (East)", "addr:postcode": "400059", "addr:state": "Maharashtra", "amenity": "hospital", "name": "Sugun Hospital Multispeciality Diagnostic, Icu", "source": "OpenGovernmentData"}}, {"type": "node", "id": 7052181497, "lat": 19.0399657, "lon": 72.8546199, "tags": {"addr:district": "Mumbai", "addr:full": "90 Feet Road, Ground, 1st, 2nd & 3rd Road, At Masiha Islampura Co-operative Housing Society Ltd., Behind Sion Hospital, Near Dharavi Police Station", "addr:postcode": "400017", "addr:state": "Maharashtra", "amenity": "hospital", "healthcare": "hospital", "name": "Sai Hospital", "source": "OpenGovernmentData"}}, {"type": "node", "id": 7052185493, "lat": 19.0744458, "lon": 72.8344122, "tags": {"addr:district": "Mumbai", "addr:full": "1 Milton Tower, 290-291, Linking Road, Khar West", "addr:postcode": "400052", "addr:state": "Maharashtra", "amenity": "hospital", "healthcare": "hospital", "healthcare:speciality": "pathology", "name": "Khar Clinico-Pathology Laboratory", "source": "OpenGovernmentData"}}, {"type": "node", "id": 7052294540, "lat": 19.0521469, "lon": 72.9091445, "tags": {"addr:district": "Mumbai", "addr:full": "101, 102, 103, Ashirwad Hospital, Anurag Bussiness Center, Waman- Tukaram Patil Marg, Chembur", "addr:postcode": "400071", "addr:state": "Maharashtra", "amenity": "hospital", "name": "Ashirwad Hospital and Polyclinic", "source": "OpenGovernmentData"}}, {"type": "node", "id": 7052303296, "lat": 19.0799452, "lon": 72.8545234, "tags": {"addr:district": "Mumbai", "addr:full": "Rizvi Park, S.V.Road, Santacruz(W)", "addr:postcode": "400054", "addr:state": "Maharashtra", "amenity": "hospital", "emergency": "yes", "healthcare": "hospital", "healthcare:speciality": "orthodontics", "name": "Aseem Orthopaedic Hospital"}}, {"type": "node", "id": 7052525501, "lat": 19.1012531, "lon": 72.8853004, "tags": {"addr:district": "Mumbai", "addr:full": "J.P House, Sakinaka,Andheri Kurla Road,Andheri East", "addr:postcode": "400072", "addr:state": "Maharashtra", "amenity": "hospital", "name": "J.P Hospital, Mumbai", "source": "OpenGovernmentData"}}, {"type": "node", "id": 7052767202, "lat": 19.1095801, "lon": 72.9264937, "tags": {"addr:district": "Mumbai", "addr:full": "A- Kumar Apartments, Behind St.Joseph School,Vikhroli(W)", "addr:postcode": "400079", "addr:state": "Maharashtra", "amenity": "hospital", "name": "Samarth Hospital, Mumbai", "source": "OpenGovernmentData"}}, {"type": "node", "id": 7052811704, "lat": 19.0890115, "lon": 72.9070786, "tags": {"addr:district": "Mumbai", "addr:full": "302/303, Trimurti Arcade, 3Road Flr, L.B.S. Road, Near Sarvodaya Hospital, Ghatkopar (W)", "addr:postcode": "400086", "addr:state": "Maharashtra", "amenity": "hospital", "name": "Navnirman Maternity and Surgical Hospital", "source": "OpenGovernmentData"}}, {"type": "node", "id": 7053014921, "lat": 19.0881022, "lon": 72.9051983, "tags": {"addr:district": "Mumbai", "addr:full": "A1, Harekrishna Building,First Floor,Near Telephone Exchange,L.B.S. Marg,Ghatkopar(West)", "addr:postcode": "400086", "addr:state": "Maharashtra", "amenity": "hospital", "name": "Nulife Hospital, Mumbai", "source": "OpenGovernmentData"}}, {"type": "node", "id": 7053026376, "lat": 19.0882556, "lon": 72.9053311, "tags": {"addr:district": "Mumbai", "addr:full": "Jivdaya Lane, Dharmodaya B Wing, 1st Floor, Ghatkopar (W)", "addr:postcode": "400086", "addr:state": "Maharashtra", "amenity": "hospital", "name": "Jivdaya Hospital", "source": "OpenGovernmentData"}}, {"type": "node", "id": 7053034034, "lat": 19.0881504, "lon": 72.9051822, "tags": {"addr:district": "Mumbai", "addr:full": "A/101,Chandradaya Bldg,Above Saibaba Temple,R.B. Kadam Marg, Lbs Road,Ghatkopar(W)", "addr:postcode": "400086", "addr:state": "Maharashtra", "amenity": "hospital", "name": "Shradha Heart Hospital", "source": "OpenGovernmentData"}}, {"type": "node", "id": 7053189597, "lat": 19.1035152, "lon": 72.8514978, "tags": {"addr:district": "Mumbai", "addr:full": "Shop No - 1,Dunhill Castle,Opp 9 To 9 Super Market,Hanuman Road,Vileparle (East)", "addr:postcode": "400057", "addr:state": "Maharashtra", "amenity": "hospital", "healthcare": "hospital", "name": "Dr.Satish G.Desai", "source": "OpenGovernmentData"}}, {"type": "node", "id": 7053266063, "lat": 19.0418977, "lon": 72.8640935, "tags": {"addr:district": "Mumbai", "addr:full": "6/206, Shiv Mahal Chs, Sion Main Road", "addr:postcode": "400022", "addr:state": "Maharashtra", "amenity": "hospital", "name": "Dr. Deosthaci's Eye Care Centre", "source": "OpenGovernmentData"}}, {"type": "node", "id": 7053273298, "lat": 19.085295, "lon": 72.9062873, "tags": {"addr:city": "mumbai", "addr:district": "Mumbai", "addr:full": "Shradhanand Road, Ghatkopar (W)", "addr:housenumber": "near ghatkopar station", "addr:postcode": "400086", "addr:state": "Maharashtra", "addr:street": "Sanitorium Lane", "amenity": "hospital", "healthcare:speciality": "dentist;physiotherapy;general", "name": "H.J. Doshi Ghatkopar Hindu Sabha Hospital", "source": "OpenGovernmentData;osm notes"}}, {"type": "node", "id": 7054456795, "lat": 19.1169678, "lon": 72.8443725, "tags": {"addr:district": "Mumbai", "addr:full": "Alka Building Opp M A High School S V Road Andheri W", "addr:postcode": "400058", "addr:state": "Maharashtra", "amenity": "hospital", "healthcare": "hospital", "name": "Vibha Maternity and Surgical Nursing Home", "source": "OpenGovernmentData"}}, {"type": "node", "id": 7054682098, "lat": 19.055927, "lon": 72.8368556, "tags": {"addr:district": "Mumbai", "addr:full": "Opp,Lake.S.V Road,Bandra(West)", "addr:postcode": "400050", "addr:state": "Maharashtra", "amenity": "hospital", "healthcare": "hospital", "name": "Mahatma Gandhi Seva Mandir", "source": "OpenGovernmentData"}}, {"type": "node", "id": 7054725462, "lat": 19.1070774, "lon": 72.8673752, "tags": {"addr:district": "Mumbai", "addr:full": "F/2, 3, Ajit Nagar, J.B.Nagar, Andheri East", "addr:postcode": "400059", "addr:state": "Maharashtra", "amenity": "hospital", "healthcare": "hospital", "name": "Ameya Surgical and General Nursing Home", "source": "OpenGovernmentData"}}, {"type": "node", "id": 7054746894, "lat": 19.0804497, "lon": 72.8562031, "tags": {"addr:district": "Mumbai", "addr:full": "Karlton Apts, Vakola Village Road, Vakola Santacruz (E)", "addr:postcode": "400055", "addr:state": "Maharashtra", "amenity": "hospital", "healthcare": "hospital", "name": "Dr. Raut's Maternity and Surgical Nursing Home", "source": "OpenGovernmentData"}}, {"type": "node", "id": 7054759108, "lat": 19.0512684, "lon": 72.9018161, "tags": {"addr:district": "Mumbai", "addr:full": "Near Diamond Garden, Sion-Trombay Road, Near Fairlawn So., Chembur", "addr:postcode": "400071", "addr:state": "Maharashtra", "amenity": "hospital", "name": "Oma Hospital", "source": "OpenGovernmentData"}}, {"type": "node", "id": 7054852418, "lat": 19.0444281, "lon": 72.8651664, "tags": {"addr:district": "Mumbai", "addr:full": "# 102, Maryland Corner, Plot No.39, Next To Hp Petrol Pump,Sion(E)", "addr:postcode": "400022", "addr:state": "Maharashtra", "amenity": "hospital", "name": "Krishna Eye Centre", "source": "OpenGovernmentData"}}, {"type": "node", "id": 7055036574, "lat": 19.0594446, "lon": 72.9000807, "tags": {"addr:district": "Mumbai", "addr:full": "18th Road, Near Ambedkar Garden, Chembur", "addr:postcode": "400071", "addr:state": "Maharashtra", "amenity": "hospital", "email": "info@rushabheyehospital.com", "name": "Rushabh Eye Hospital and Laser Centre", "operator:type": "private", "source": "OpenGovernmentData", "website": "https://rushabheyehospital.com/"}}, {"type": "node", "id": 7055144633, "lat": 19.0880933, "lon": 72.8363293, "tags": {"addr:district": "Mumbai", "addr:full": "B-9/G-2 & 3, Ground Floor, Khira Nagar, S V Road, Santacruz West", "addr:postcode": "400054", "addr:state": "Maharashtra", "amenity": "hospital", "healthcare": "hospital", "name": "Malhaar Maternity and Nursing Home", "source": "OpenGovernmentData"}}, {"type": "node", "id": 7055153115, "lat": 19.088305, "lon": 72.9069599, "tags": {"addr:district": "Mumbai", "addr:full": "B103-104, Lal Bahadur Chs, Opposite Sarvodaya Hospital, L B S Road Ghatkopar", "addr:postcode": "400086", "addr:state": "Maharashtra", "amenity": "hospital", "name": "Medico Surgical Clinic and Hospital", "source": "OpenGovernmentData"}}, {"type": "node", "id": 7055262419, "lat": 19.0399822, "lon": 72.8511733, "tags": {"addr:district": "Mumbai", "addr:full": "103, Jai Ganesh Co-Op Soc, Plot No 206, Opp Sion Hosp-Sion East", "addr:postcode": "400022", "addr:state": "Maharashtra", "amenity": "hospital", "name": "Dr Savlas Child Care Centre", "source": "OpenGovernmentData"}}, {"type": "node", "id": 7055276698, "lat": 19.1148073, "lon": 72.8432044, "tags": {"addr:district": "Mumbai", "addr:full": "Viral Apartments, I Floor, Shoppers Shop,S.V.Road, Andheri (W)", "addr:postcode": "400058", "addr:state": "Maharashtra", "amenity": "hospital", "name": "Doctor Eye Hospital", "source": "OpenGovernmentData"}}, {"type": "node", "id": 7055419121, "lat": 19.0800884, "lon": 72.9043441, "tags": {"addr:district": "Mumbai", "addr:full": "Ambika Darshan, M. G. Road, Ghatkopar (E), Ghatkopar (E)", "addr:postcode": "400077", "addr:state": "Maharashtra", "amenity": "hospital", "name": "Ashwini Maternity and Surgical Hospital,Ghatkopar(E)", "source": "OpenGovernmentData"}}, {"type": "node", "id": 7055441837, "lat": 19.07045, "lon": 72.8370246, "tags": {"addr:district": "Mumbai", "addr:full": "Naseeb Plot No.115,1st Floor, S.V.Road, Khar (West)", "addr:postcode": "400052", "addr:state": "Maharashtra", "amenity": "hospital", "healthcare": "hospital", "name": "G.M.Medical Centre - Khar", "source": "OpenGovernmentData"}}, {"type": "node", "id": 7055590161, "lat": 19.0554466, "lon": 72.8357264, "tags": {"addr:district": "Mumbai", "addr:full": "1st Floor , Diamond Palace , 15 - A , Hill Road , Opposite Bandra , Police Station , Bandra (West )", "addr:postcode": "400050", "addr:state": "Maharashtra", "amenity": "hospital", "healthcare": "hospital", "name": "Parekh Eye Hospital", "source": "OpenGovernmentData"}}, {"type": "node", "id": 7059172378, "lat": 19.0796436, "lon": 72.9043186, "tags": {"addr:district": "Mumbai", "addr:full": "301, Sapphire Arcade, Above Sejal Jewellery, M.G. Road, Near Rajawadi Signal, Ghatkopar(E)", "addr:postcode": "400077", "addr:state": "Maharashtra", "amenity": "hospital", "name": "Jain Eye Clinic", "source": "OpenGovernmentData"}}, {"type": "node", "id": 7059192085, "lat": 19.0741124, "lon": 72.90572, "tags": {"addr:district": "Mumbai", "addr:full": "48 Swastic Park Chembur", "addr:postcode": "400071", "addr:state": "Maharashtra", "amenity": "hospital", "name": "Mandakini Nuclear Imaging Centre", "source": "OpenGovernmentData"}}, {"type": "node", "id": 7062228611, "lat": 19.0713778, "lon": 72.8377193, "tags": {"addr:district": "Mumbai", "addr:full": "Mumbai", "addr:postcode": "400052", "addr:state": "Maharashtra", "amenity": "hospital", "name": "I Sight Eyecare and Surgery", "source": "OpenGovernmentData"}}, {"type": "node", "id": 7062712062, "lat": 19.099527, "lon": 72.8493437, "tags": {"addr:district": "Mumbai", "addr:full": "261 Sumat Bhavan, Malvia Road, Above Jain Sthanak, Vile Parle East", "addr:postcode": "400057", "addr:state": "Maharashtra", "amenity": "hospital", "healthcare": "hospital", "name": "Smt. Laxmiben Dharamsi Karsan Gala Eye Hospital", "source": "OpenGovernmentData"}}, {"type": "node", "id": 7063077063, "lat": 19.0373922, "lon": 72.8397457, "tags": {"addr:district": "Mumbai", "addr:full": "Above Prabhat Bazar, 26, Kapad Bazar, Mahim", "addr:postcode": "400016", "addr:state": "Maharashtra", "amenity": "hospital", "healthcare": "hospital", "name": "Dr Haresh Shah Prabhat Maternity and Surgical Nursing Home", "source": "OpenGovernmentData"}}, {"type": "node", "id": 7063077077, "lat": 19.0831721, "lon": 72.9047189, "tags": {"addr:district": "Mumbai", "addr:full": "Amrut Kunj Anjaria Wadi , Near Rly Stn M G Road Ghatkopar East", "addr:postcode": "400001", "addr:state": "Maharashtra", "amenity": "hospital", "name": "Doshi Nursing Home", "opening_hours": "Mo-Su 09:00-21:00", "source": "OpenGovernmentData"}}, {"type": "node", "id": 7064402717, "lat": 19.0600492, "lon": 72.85234}, {"type": "node", "id": 7064405838, "lat": 19.0716358, "lon": 72.837663, "tags": {"addr:district": "Mumbai", "addr:full": "No. 81, Swami Vivekanand Road, Above State Bank Of India, Khar West", "addr:postcode": "400052", "addr:state": "Maharashtra", "amenity": "hospital", "name": "Dr Gupte Lying-In Surgical Hospital", "source": "OpenGovernmentData"}}, {"type": "node", "id": 7065561525, "lat": 19.0699633, "lon": 72.9047685, "tags": {"addr:city": "chembur", "addr:district": "Mumbai", "addr:full": "No:4, Pestom Sugar Road Opp: Pestom Pollice Station", "addr:housenumber": "pestam sagar", "addr:postcode": "400089", "addr:state": "Maharashtra", "addr:street": "Road No. 4 near shopper stop", "amenity": "hospital", "contact:facebook": "dcshospiyal", "description": "At Sanjeevani Hospital we are proud to offer world class service in:\nBullet  Maternity Care and Delive\nBullet  Gynecology\nBullet  Advanced Surgery\nBullet  Advanced Orthopedics\nBullet  Endoscopy\nBullet  Trauma Care\nBullet  X-Ra\nBullet  Sonography", "email": "dcshospital@gmail.com", "emergency": "yes", "healthcare": "hospital", "healthcare:speciality": "ayurveda", "image": "https://images.app.goo.gl/V73R7yn4mNvnax9b7", "name": "Dr Chauhans Sanjeevani Hospital", "operator": "dr. vikram chauhan", "operator:type": "public", "source": "OpenGovernmentData"}}, {"type": "node", "id": 7065572990, "lat": 19.1126049, "lon": 72.8425607, "tags": {"addr:district": "Mumbai", "addr:full": "Andheri", "addr:postcode": "400053", "addr:state": "Maharashtra", "amenity": "hospital", "name": "Dr. Joshi Surgical and Maternity Hospital", "source": "OpenGovernmentData"}}, {"type": "node", "id": 7065817369, "lat": 19.0806727, "lon": 72.9039069, "tags": {"addr:district": "Mumbai", "addr:full": "27-D, Navnit Nagar, Gandhi Mkt. Bldg, M.G.Road, Ghatkopar (E)", "addr:postcode": "400077", "addr:state": "Maharashtra", "amenity": "hospital", "name": "Ami Drashti Eye Care Centre", "source": "OpenGovernmentData"}}, {"type": "node", "id": 7066374601, "lat": 19.0494367, "lon": 72.9063436, "tags": {"addr:district": "Mumbai", "addr:full": "Shop No.7, Waman Appartments, Behind Maitri Park St.Bus Stand, Ghatla Road, Chembur", "addr:postcode": "400071", "addr:state": "Maharashtra", "amenity": "hospital", "name": "Narurkar Ent Hospital", "source": "OpenGovernmentData"}}, {"type": "node", "id": 7066505685, "lat": 19.0782709, "lon": 72.9058555, "tags": {"addr:district": "Mumbai", "addr:full": "1 , 2 , 3 Gautam Building , Opposite Balaji Temple , Tilak Road , Ghatkopar ( East )", "addr:postcode": "400077", "addr:state": "Maharashtra", "amenity": "hospital", "name": "Dr. Trivedi's Maternity Nursing Home & Aakar IVF Test Tube Baby Centre", "source": "OpenGovernmentData"}}, {"type": "node", "id": 7066505805, "lat": 19.0875674, "lon": 72.9045278, "tags": {"addr:district": "Mumbai", "addr:full": "Shiva Plaza, Lbs Road, Opp Ghatkopar Tel Exchange, Ghatkopar (W)", "addr:postcode": "400086", "addr:state": "Maharashtra", "amenity": "hospital", "name": "Dr Sonagra Medical and Surgical Centre", "source": "OpenGovernmentData"}}, {"type": "node", "id": 7067050974, "lat": 19.0853723, "lon": 72.9067473, "tags": {"addr:city": "mumbai", "addr:district": "Mumbai", "addr:full": "Opposite Ghatkopar Railway Station, Ghatkopar West", "addr:postcode": "400086", "addr:state": "Maharashtra", "addr:street": "Shraddhanand Road", "amenity": "hospital", "name": "Jeevan ram Hospital", "opening_hours": "24/7", "operator": "vimish", "operator:type": "private", "source": "OpenGovernmentData"}}, {"type": "node", "id": 7067050975, "lat": 19.0414249, "lon": 72.8453261, "tags": {"addr:district": "Mumbai", "addr:full": "3, Nitya Sahaya Building, Marinagar, Mahim West", "addr:postcode": "400016", "addr:state": "Maharashtra", "amenity": "hospital", "name": "Dr. Fonsecas Maternity and Surgical Home", "source": "OpenGovernmentData"}}, {"type": "node", "id": 7067050981, "lat": 19.1022549, "lon": 72.8486849, "tags": {"addr:district": "Mumbai", "addr:full": "Silver Apartment 29, Mahant Road, Vile Parle East", "addr:postcode": "400057", "addr:state": "Maharashtra", "amenity": "hospital", "healthcare": "hospital", "name": "Vivek Pathology Laboratory", "source": "OpenGovernmentData"}}, {"type": "node", "id": 7067070262, "lat": 19.0880578, "lon": 72.9052141, "tags": {"addr:district": "Mumbai", "addr:full": "1A, Ashoka Road , 15 S.V. Road, Santacruz(W)", "addr:postcode": "400065", "addr:state": "Maharashtra", "amenity": "hospital", "name": "Clear Vision Eye Center", "source": "OpenGovernmentData"}}, {"type": "node", "id": 7067113558, "lat": 19.1096181, "lon": 72.8489169, "tags": {"addr:district": "Mumbai", "addr:full": "101, Homai Mahal, M G Road, Vile Parle East", "addr:postcode": "400057", "addr:state": "Maharashtra", "amenity": "hospital", "healthcare": "hospital", "name": "Saurabh Clinic Dr.Sanjanwalas Maternity and Gynacologist", "source": "OpenGovernmentData"}}, {"type": "node", "id": 7067231946, "lat": 19.0754851, "lon": 72.9085484, "tags": {"addr:district": "Mumbai", "addr:full": "3, Milan, Ground Floor, 169-Garodia Nagar,90Ft Road, Opposite Lavender Baugh", "addr:postcode": "400077", "addr:state": "Maharashtra", "amenity": "hospital", "name": "Eye Essential Hospital", "source": "OpenGovernmentData"}}, {"type": "node", "id": 7067373861, "lat": 19.0704407, "lon": 72.8751061, "tags": {"addr:full": "Town Hall", "amenity": "hospital", "healthcare": "hospital", "name": "Despande Nursing Home", "source": "OpenGovernmentData", "wheelchair": "no"}}, {"type": "node", "id": 7067540680, "lat": 19.121366, "lon": 72.8794867, "tags": {"addr:district": "mumbai", "addr:full": "marol", "addr:postcode": "400059", "addr:state": "Maharashtra", "addr:street": "Maroshi Village Road vijay nagar LT complex", "amenity": "hospital", "healthcare": "hospital", "name": "Gokul Maternity & Surgical Home", "source": "OpenGovernmentData"}}, {"type": "node", "id": 7068096871, "lat": 19.0606684, "lon": 72.8996381, "tags": {"addr:district": "Mumbai", "addr:full": "Road No 1, Opp M Ward Muncipal Office,Chembur", "addr:postcode": "400071", "addr:state": "Maharashtra", "amenity": "hospital", "name": "Sai Kripa Childrens Hospital", "source": "OpenGovernmentData"}}, {"type": "node", "id": 7068429399, "lat": 19.119331, "lon": 72.845019, "tags": {"addr:district": "Mumbai", "addr:full": "S.V Road, Opp Railway Station, Andheri West", "addr:postcode": "400058", "addr:state": "Maharashtra", "amenity": "hospital", "healthcare": "hospital", "name": "Bses Mg Hospital (Managed By)Brahma Kumari Global Hospital and Res Center", "source": "OpenGovernmentData"}}, {"type": "node", "id": 7069814015, "lat": 19.0605379, "lon": 72.8456949, "tags": {"addr:district": "Mumbai", "addr:full": "Bldg.No.3,Kher Nagar Kala Co-Op Hsg Soc., Ram Mandir Road, Bandra (E)", "addr:postcode": "400051", "addr:state": "Maharashtra", "amenity": "hospital", "healthcare": "hospital", "name": "Nandini Eye Care Centre", "source": "OpenGovernmentData"}}, {"type": "node", "id": 7070050992, "lat": 19.11132, "lon": 72.8671995, "tags": {"addr:district": "Mumbai", "addr:full": "B-1 Greenland Apt J.B Ngr Andheri(E)", "addr:postcode": "400059", "addr:state": "Maharashtra", "amenity": "hospital", "healthcare": "hospital", "name": "Spectacles and Contact Lens Clinic", "source": "OpenGovernmentData"}}, {"type": "node", "id": 7070054648, "lat": 19.0353486, "lon": 72.8960936, "tags": {"addr:district": "Mumbai", "addr:full": "Sita Estate, Near Ashish Cinema, Aziz Baug, Mahul Road, Chembur", "addr:postcode": "400074", "addr:state": "Maharashtra", "amenity": "hospital", "name": "Sai Baba Hospital, Mumbai", "source": "OpenGovernmentData"}}, {"type": "node", "id": 7070354910, "lat": 19.0791429, "lon": 72.9038519, "tags": {"addr:district": "Mumbai", "addr:full": "Jayant Arcade,4Th Floor, Rajawadi,M.G.Road,Ghatkopar(E)", "addr:postcode": "400077", "addr:state": "Maharashtra", "amenity": "hospital", "name": "Bakul Parekh Children Hospital", "source": "OpenGovernmentData"}}, {"type": "node", "id": 7070857458, "lat": 19.0895432, "lon": 72.8379983, "tags": {"addr:district": "Mumbai", "addr:full": "C-Wing 1st Floor Rizvi Park,At Milan Subway Signal S V Road Santacruz(W)", "addr:postcode": "400054", "addr:state": "Maharashtra", "amenity": "hospital", "name": "Life Line Hospital and Diagnostics Pvt Ltd", "source": "OpenGovernmentData"}}, {"type": "node", "id": 7070857468, "lat": 19.0565342, "lon": 72.8895275, "tags": {"addr:district": "Mumbai", "addr:full": "Sushrut Hospital. 365, Swastik Park Chembur", "addr:postcode": "400071", "addr:state": "Maharashtra", "amenity": "hospital", "name": "Daycare Angels", "source": "OpenGovernmentData"}}, {"type": "node", "id": 7070859091, "lat": 19.1074601, "lon": 72.8484213, "tags": {"addr:district": "Mumbai", "addr:full": "A - 103, 104, Saurabh Apartment, Shahaji Raje Marg Next To Bhuta High School", "addr:postcode": "400057", "addr:state": "Maharashtra", "amenity": "hospital", "healthcare": "hospital", "name": "Nityanand Iccu and Nursing Home", "source": "OpenGovernmentData"}}, {"type": "node", "id": 7070859097, "lat": 19.1031325, "lon": 72.8392227, "tags": {"addr:district": "Mumbai", "addr:full": "D-31, Navmangal Chs, 1st Floor,Above Venilal Saree Shop, S. V. Road", "addr:postcode": "400056", "addr:state": "Maharashtra", "amenity": "hospital", "name": "Khandwala Eye Hospital and Polyclinic", "source": "OpenGovernmentData"}}, {"type": "node", "id": 7070859138, "lat": 19.1095535, "lon": 72.8376684, "tags": {"addr:district": "Mumbai", "addr:full": "2nd Floor , Shri Mumbadevi Homeopathic Hospital , Natakkar Ram , Ganesh Gadkari Road , Irla , Vile Parle ( West )", "addr:postcode": "400056", "addr:state": "Maharashtra", "amenity": "hospital", "healthcare": "hospital", "name": "Life Care Iccu , Medical and Surgical Emergencies", "source": "OpenGovernmentData"}}, {"type": "node", "id": 7072535182, "lat": 19.0924974, "lon": 72.9124309, "tags": {"addr:district": "Mumbai", "addr:full": "Bhaveshwar Plaza, C Wing, 2nd Floor, Lal Bahadur Shastri Road, Ghatkoper West", "addr:postcode": "400086", "addr:state": "Maharashtra", "amenity": "hospital", "name": "Satyam Hospital", "source": "OpenGovernmentData"}}, {"type": "node", "id": 7072801164, "lat": 19.0857328, "lon": 72.8367229, "tags": {"addr:district": "Mumbai", "addr:full": "5-D, Dattaray Road, Santacruz (West)", "addr:postcode": "400054", "addr:state": "Maharashtra", "amenity": "hospital", "name": "Sarla Hospital and Icu", "source": "OpenGovernmentData"}}, {"type": "node", "id": 7072837154, "lat": 19.0679055, "lon": 72.8353534, "tags": {"addr:district": "Mumbai", "addr:full": "724, 11Th Road , Khar West-Bhandara", "addr:postcode": "400052", "addr:state": "Maharashtra", "amenity": "hospital", "healthcare": "hospital", "name": "Hinduja Healthcare", "source": "OpenGovernmentData"}}, {"type": "node", "id": 7073537755, "lat": 19.0889539, "lon": 72.9070102, "tags": {"addr:district": "Mumbai", "addr:full": "(Previously Known As The Metropolitan Heart Institute And Research Centre) Trimurti Arcade, L B S Marg, Near Sarvoday Hospital, Ghatkopar, (West)", "addr:postcode": "400086", "addr:state": "Maharashtra", "amenity": "hospital", "name": "The Metropolitan Heart Institute and Research Centre", "source": "OpenGovernmentData"}}, {"type": "node", "id": 7073537782, "lat": 19.0528644, "lon": 72.8978303, "tags": {"addr:district": "Mumbai", "addr:full": "201-202, Sunny Estate, Sion Trombay Road", "addr:postcode": "400071", "addr:state": "Maharashtra", "amenity": "hospital", "name": "Sunny Childrens Hospital", "source": "OpenGovernmentData"}}, {"type": "node", "id": 7073765630, "lat": 19.062597, "lon": 72.8358504, "tags": {"addr:district": "Mumbai", "addr:full": "Renuka, Gr Flr 269-D, Nr National College , Linking Road Bandra W)", "addr:postcode": "400050", "addr:state": "Maharashtra", "amenity": "hospital", "healthcare": "hospital", "name": "Dr A K Chandiramani Hospital", "source": "OpenGovernmentData"}}, {"type": "node", "id": 7073949883, "lat": 19.1038168, "lon": 72.886899, "tags": {"addr:district": "Mumbai", "addr:full": "1st & 2nd Floor Laxmi Commarcial Premises Saki Naka Junction Andheri ( E)", "addr:postcode": "400059", "addr:state": "Maharashtra", "amenity": "hospital", "healthcare": "hospital", "name": "Paramount General Hospital and ICU", "name:en": "Paramount General Hospital and ICU", "source": "OpenGovernmentData", "website": "https://paramountgeneralhospital.com/"}}, {"type": "node", "id": 7073961725, "lat": 19.103614, "lon": 72.8870398, "tags": {"addr:district": "Mumbai", "addr:full": "Laxmi Commercial Premises, Near Sakinaka Junction, Andheri Kurla Road, Andheri East", "addr:postcode": "400072", "addr:state": "Maharashtra", "amenity": "hospital", "email": "clinics2hospitals@gmail.com", "name": "Paramount General Hospital and ICCU", "operator:type": "private", "source": "OpenGovernmentData", "website": "https://parakhhospital.com/"}}, {"type": "node", "id": 7076379914, "lat": 19.1184744, "lon": 72.8731017, "tags": {"addr:district": "Mumbai", "addr:full": "PLOT No, 88, Rd Number 15, Marol MIDC Industry Estate, Andheri East", "addr:postcode": "400058", "addr:state": "Maharashtra", "amenity": "hospital", "name": "SRL Diagnostics Andheri (MIDC)", "source": "OpenGovernmentData"}}, {"type": "node", "id": 7079392099, "lat": 19.0942526, "lon": 72.849741, "tags": {"addr:district": "Mumbai", "addr:full": "Nanda Patkar Road, Vileparle East", "addr:postcode": "400057", "addr:state": "Maharashtra", "amenity": "hospital", "name": "Dr. Rane hospital maternity & surgical", "source": "OpenGovernmentData"}}, {"type": "node", "id": 7079665692, "lat": 19.1107257, "lon": 72.8483811, "tags": {"addr:district": "Mumbai", "addr:full": "Jeevan Vikas Kendra Marg , Off S. Nityanand Marg Andheri (East)", "addr:postcode": "400069", "addr:state": "Maharashtra", "amenity": "hospital", "healthcare": "hospital", "name": "Sadanand Danait Hospital", "source": "OpenGovernmentData"}}, {"type": "node", "id": 7079665770, "lat": 19.0880071, "lon": 72.8367417, "tags": {"addr:district": "Mumbai", "addr:full": "103, Parasurampuria Apt, 2 Tps 6 2nd Road , Santacruz West", "addr:postcode": "400054", "addr:state": "Maharashtra", "amenity": "hospital", "name": "Netrapuja Research Centre", "source": "OpenGovernmentData"}}, {"type": "node", "id": 7080141268, "lat": 19.0921146, "lon": 72.9123692, "tags": {"addr:district": "Mumbai", "addr:full": "A Wing,Bhaveshwar Plaza Lbs Marg Ghatkopar - West", "addr:postcode": "400086", "addr:state": "Maharashtra", "amenity": "hospital", "name": "Sapna Health Care Centre Pvt Ltd", "source": "OpenGovernmentData"}}, {"type": "node", "id": 7080205211, "lat": 19.0814154, "lon": 72.9057965, "tags": {"addr:district": "Mumbai", "addr:full": "Samaj Bhavan, 5Th Floor, Joshi Lane, M G Road, Ghatkopar", "addr:postcode": "400077", "addr:state": "Maharashtra", "amenity": "hospital", "name": "Cg Eye Foundaton and Shree Ghatkopar Brahman Samaj", "source": "OpenGovernmentData"}}, {"type": "node", "id": 7080269652, "lat": 19.0363697, "lon": 72.8427344, "tags": {"addr:district": "Mumbai", "addr:full": "Ganesh Apt. Ground Floor, L. J. Road, Opposite Sitladevi Temple, Mahim", "addr:postcode": "400014", "addr:state": "Maharashtra", "amenity": "hospital", "healthcare": "hospital", "name": "Ashwini Accident Hospital and Poly Clinic", "source": "OpenGovernmentData"}}, {"type": "node", "id": 7080269989, "lat": 19.0970597, "lon": 72.847386, "tags": {"addr:district": "Mumbai", "addr:full": "199, Dixit Cross Road, Near Chetan School, Vile Parle (East)", "addr:postcode": "400057", "addr:state": "Maharashtra", "amenity": "hospital", "healthcare": "hospital", "name": "Ashish Maternity and Nursing Home - Vile Parle (E)", "source": "OpenGovernmentData"}}, {"type": "node", "id": 7080413752, "lat": 19.0597001, "lon": 72.8996768, "tags": {"addr:district": "Mumbai", "addr:full": "Gagangiri Complex, 1st And 4Th Floor, 18Th Road, Near Dr. Ambedkar Garden Chembur", "addr:postcode": "400071", "addr:state": "Maharashtra", "amenity": "hospital", "healthcare": "hospital", "name": "Tandon Hospital", "source": "OpenGovernmentData"}}, {"type": "node", "id": 7080878125, "lat": 19.0828996, "lon": 72.8376549, "tags": {"addr:district": "Mumbai", "addr:full": "Santacruz (W)", "addr:postcode": "400054", "addr:state": "Maharashtra", "amenity": "hospital", "name": "Radiance Laser Vision Centre", "source": "OpenGovernmentData"}}, {"type": "node", "id": 7082370226, "lat": 19.1069165, "lon": 72.8356406, "tags": {"addr:district": "Mumbai", "addr:full": "Flat 1, Ridhhi, E W Road 2, 41, Vallabhnagar Society, Opposite Cooper Casualy, Jvpd Scheme", "addr:postcode": "400056", "addr:state": "Maharashtra", "amenity": "hospital", "healthcare": "hospital", "name": "Dr Sanjay Soni Dental Clinic", "source": "OpenGovernmentData"}}, {"type": "node", "id": 7082499146, "lat": 19.0918193, "lon": 72.8436054, "tags": {"addr:district": "Mumbai", "addr:full": "Veer Makrand Ghanekar Marg, Navpada, Vile Parle East, Vile Parle", "addr:postcode": "400057", "addr:state": "Maharashtra", "amenity": "hospital", "healthcare": "hospital", "name": "Shree Ramnath Eye Care", "source": "OpenGovernmentData"}}, {"type": "node", "id": 7082733154, "lat": 19.0887333, "lon": 72.9050951, "tags": {"addr:district": "Mumbai", "addr:full": "B/6-7, 1st Floor, Dharmodaya Building, Near Telephone Exchange, Jivdaya Lane, Ghatkopar West", "addr:postcode": "400086", "addr:state": "Maharashtra", "amenity": "hospital", "name": "Nachiketa Health Care Center", "source": "OpenGovernmentData"}}, {"type": "node", "id": 7082738898, "lat": 19.0887777, "lon": 72.9074769, "tags": {"addr:district": "Mumbai", "addr:full": "207, Jyoti Chambers, Khot Lane, Above New Bata Showroom,Ghatkopar(W)", "addr:postcode": "400086", "addr:state": "Maharashtra", "amenity": "hospital", "name": "Amar Jyot Eye Care Centre", "source": "OpenGovernmentData"}}, {"type": "node", "id": 7085422809, "lat": 19.0611444, "lon": 72.8948718, "tags": {"addr:district": "Mumbai", "addr:full": "C/0. Sushrut Hosptial, 2nd Floor, Swastik Park, Near Kach Gujar Hall, Chembur (E)", "addr:postcode": "400001", "addr:state": "Maharashtra", "amenity": "hospital", "name": "Apex Kidney Care Pvt. Ltd.", "source": "OpenGovernmentData"}}, {"type": "node", "id": 7085731347, "lat": 19.0881256, "lon": 72.905198, "tags": {"addr:district": "Mumbai", "addr:full": "No. A/102, Chandrodaya Building,Jivdaya Lane,Between Sarvodaya Hospital & Telephone Exchange,Ghatkopar (W)", "addr:postcode": "400086", "addr:state": "Maharashtra", "amenity": "hospital", "name": "Jeevandeep Children Hospital, Mumbai", "source": "OpenGovernmentData"}}, {"type": "node", "id": 7085742085, "lat": 19.0721453, "lon": 72.8343692, "tags": {"addr:district": "Mumbai", "addr:full": "No. 7, Rajsarovar Nikethan, No. 315. A Working Road, Above Punjab Sindhi Bank, Khar West", "addr:postcode": "400054", "addr:state": "Maharashtra", "amenity": "hospital", "name": "Zen Eye Center", "source": "OpenGovernmentData"}}, {"type": "node", "id": 7085742120, "lat": 19.1069728, "lon": 72.8358773, "tags": {"addr:district": "Mumbai", "addr:full": "Heena Smruti, Road No 2, Juhu Scheme, Opposite Cooper Hospital Casualty, Vile Parle(W)", "addr:postcode": "400056", "addr:state": "Maharashtra", "amenity": "hospital", "healthcare": "hospital", "name": "Iris Eye Center", "source": "OpenGovernmentData"}}, {"type": "node", "id": 7086532370, "lat": 19.1100591, "lon": 72.8642115, "tags": {"addr:district": "Mumbai", "addr:full": "Goel Apartments, J B Nagar, Near Kalgidhar High School, Wireless Street, Andheri East", "addr:postcode": "400059", "addr:state": "Maharashtra", "amenity": "hospital", "healthcare": "hospital", "name": "Goel Hospital", "source": "OpenGovernmentData"}}, {"type": "node", "id": 7086758044, "lat": 19.0466757, "lon": 72.8574979, "tags": {"addr:district": "Mumbai", "addr:full": "Priyadarshini Co-Op. Hsg.Soc.,Room No.102,G-Wing, 1st Floor,OppositeNew Ongc Tower, Sion-Bandra Link Road, Dharavi", "addr:postcode": "400017", "addr:state": "Maharashtra", "amenity": "hospital", "name": "Lifecare Hospital", "source": "OpenGovernmentData"}}, {"type": "node", "id": 7087131445, "lat": 19.0824839, "lon": 72.9049838, "tags": {"addr:district": "Mumbai", "addr:full": "206, Gayatri Dham, Jn. Of M.G Road , & Derasar Lane , Ghatkopar (East)", "addr:postcode": "400077", "addr:state": "Maharashtra", "amenity": "hospital", "name": "Dr. Dipak Desai's Ear Nose and Throat Hospital", "source": "OpenGovernmentData"}}, {"type": "node", "id": 7087131468, "lat": 19.0626503, "lon": 72.881615, "tags": {"addr:district": "Mumbai", "addr:full": "Opp-Building No-101 Nehru Nagar, Kurla (E)", "addr:postcode": "400024", "addr:state": "Maharashtra", "amenity": "hospital", "name": "Prarushi Healthcare Pvt Ltd / Kusumesh Chandra Maternity Hospital", "source": "OpenGovernmentData"}}, {"type": "node", "id": 7225067112, "lat": 19.078004, "lon": 72.86302, "tags": {"addr:district": "Mumbai", "addr:full": "Kalina Health Post, Near Geeta Vihar Market, Santacruz East", "addr:postcode": "400029", "addr:state": "Maharashtra", "amenity": "hospital", "name": "Kalina Hospital", "source": "OpenGovernmentData"}}, {"type": "node", "id": 7225067148, "lat": 19.0786832, "lon": 72.9013145, "tags": {"addr:district": "Mumbai", "addr:full": "RN Gandhi Road, Near Somaiya College, Ghatkopar East, Mumbai", "addr:postcode": "400077", "addr:state": "Maharashtra", "amenity": "hospital", "description": "Sub District Hospital", "source": "OpenGovernmentData"}}, {"type": "node", "id": 7225067170, "lat": 19.1108771, "lon": 72.8781592, "tags": {"addr:district": "Mumbai", "addr:full": "Marol Village Road, Near Miljul Housing Society, Marol", "addr:postcode": "400059", "addr:state": "Maharashtra", "amenity": "hospital", "name": "Marol Maternity Home", "source": "OpenGovernmentData"}}, {"type": "node", "id": 7225067179, "lat": 19.056203, "lon": 72.894763, "tags": {"addr:district": "Mumbai", "addr:full": "Ramakrishna Chemburkar Marg, Near BMC Office, Chembur", "addr:postcode": "400071", "addr:state": "Maharashtra", "amenity": "hospital", "name": "Matoshri Ramabai Ambedkar Maternity Hospital", "name:etymology:wikidata": "Q19812241", "source": "OpenGovernmentData"}}, {"type": "node", "id": 7225067197, "lat": 19.1054569, "lon": 72.8518587, "tags": {"addr:district": "Mumbai", "addr:full": "Dr. V.N.Shirodkar Municipal Maternity Home, Vileparle (E)", "addr:postcode": "400057", "addr:state": "Maharashtra", "amenity": "hospital", "healthcare": "hospital", "name": "V N Shirodkar Hospital", "source": "OpenGovernmentData"}}, {"type": "node", "id": 7225067214, "lat": 19.06335, "lon": 72.9189903}, {"type": "node", "id": 7225067267, "lat": 19.0984853, "lon": 72.904147, "tags": {"addr:district": "Mumbai", "addr:full": "Sant Muktabai Mun. Gen. Hospital, Barve Nagar, Ghatkopar (W)", "addr:postcode": "400086", "addr:state": "Maharashtra", "amenity": "hospital", "name": "Sant Muktabai Hospital", "source": "OpenGovernmentData"}}, {"type": "node", "id": 7225067271, "lat": 19.0369195, "lon": 72.8582046, "tags": {"addr:district": "Mumbai", "addr:full": "Dr Babasaheb Ambedkar Road, Sion West, Sion", "addr:postcode": "400022", "addr:state": "Maharashtra", "amenity": "hospital", "description": "Medical Colleges Hospital", "healthcare": "hospital", "name": "L.T.Muncipal Medical College and Sion Hospital", "source": "OpenGovernmentData"}}, {"type": "node", "id": 7607578889, "lat": 19.0960915, "lon": 72.9103804, "tags": {"addr:district": "Mumbai", "addr:full": "Sainath Nagar, Indira Nagar, Ghatkopar West, Mumbai", "addr:postcode": "400086", "addr:state": "Maharashtra", "amenity": "hospital", "name": "Matoshree Ramabai Maternity BMC Hospital", "source": "Local Knowledge"}}, {"type": "node", "id": 7607631740, "lat": 19.0536272, "lon": 72.9232104, "tags": {"addr:district": "Mumbai", "addr:full": "Deonar", "addr:postcode": "400043", "addr:state": "Maharashtra", "amenity": "hospital", "name": "Deonar Maternity Home", "source": "Local Knowledge"}}, {"type": "node", "id": 7663961398, "lat": 19.0605847, "lon": 72.9169906, "tags": {"addr:district": "Mumbai Suburban", "addr:full": "Sonapur Road, New Gautam Nagar, Govandi East, Mumbai", "addr:postcode": "400043", "addr:state": "Maharastra", "amenity": "hospital", "name": "Dr. Ashfaque Shah's City Hospital", "source": "Local Knowledge"}}, {"type": "node", "id": 7663961401, "lat": 19.076394, "lon": 72.91527, "tags": {"addr:district": "Mumbai Suburban", "addr:full": "Eastern Express Highway, Ramabai Ambedkar Nagar, Mumbai", "addr:postcode": "400075", "addr:state": "Maharastra", "amenity": "hospital", "name": "Dadasaheb Gaikwad BMC Hospital", "source": "Local Knowledge"}}, {"type": "node", "id": 7663961402, "lat": 19.108448, "lon": 72.877743, "tags": {"addr:district": "Mumbai Suburban", "addr:full": "Near Petrol Pump, Marol Naka, Andheri Kurla Road, Andheri East, Mumbai", "addr:postcode": "400059", "addr:state": "Maharastra", "amenity": "hospital", "check_date": "2025-10-24", "name": "Medicare Hospital", "source": "Local Knowledge"}}, {"type": "node", "id": 7663961403, "lat": 19.042245, "lon": 72.894166, "tags": {"addr:district": "Mumbai Suburban", "addr:full": "Door No. 10, 1, Mahul Road, Laxmi Colony, Tolaram Colony, Chembur, Mumbai", "addr:postcode": "400071", "addr:state": "Maharastra", "amenity": "hospital", "name": "Chandra Maternity Hospital", "source": "Local Knowledge"}}, {"type": "node", "id": 7663961404, "lat": 19.1180803, "lon": 72.8505516, "tags": {"addr:district": "Mumbai Suburban", "addr:full": "Besides SBI, Telli Galli, Andheri East, Mumbai", "addr:postcode": "400069", "addr:state": "Maharastra", "amenity": "hospital", "healthcare": "hospital", "name": "CritiCare Hospital", "source": "Local Knowledge"}}, {"type": "node", "id": 7663961406, "lat": 19.1054972, "lon": 72.8481238, "tags": {"addr:district": "Mumbai Suburban", "addr:full": "G B Indulkar Road, Vishnu Prasad Society, Navpada, Vile Parle East, Mumbai", "addr:postcode": "400057", "addr:state": "Maharastra", "amenity": "hospital", "healthcare": "hospital", "name": "Dr. Sanjanwala Hospital", "source": "Local Knowledge"}}, {"type": "node", "id": 7663961413, "lat": 19.07815, "lon": 72.916753, "tags": {"addr:district": "Mumbai Suburban", "addr:full": "Kirol Gaon, Ramabai Ambedkar Nagar, Mankur, Mumbai", "addr:postcode": "400075", "addr:state": "Maharastra", "amenity": "hospital", "name": "Sona Maternity and Surgical Nursing Home", "source": "Local Knowledge"}}, {"type": "node", "id": 7663961415, "lat": 19.0826988, "lon": 72.8816976, "tags": {"addr:district": "Mumbai Suburban", "addr:full": "LBS Road, Bail Bajar, Saki Naka, Mumbai", "addr:postcode": "400070", "addr:state": "Maharastra", "amenity": "hospital", "name": "Subhash Hospital", "source": "Local Knowledge"}}, {"type": "node", "id": 7663961416, "lat": 19.0615419, "lon": 72.8725536, "tags": {"addr:district": "Mumbai Suburban", "addr:full": "LBS Road, Kurla West, Kurla, Mumbai", "addr:postcode": "400070", "addr:state": "Maharastra", "amenity": "hospital", "healthcare": "hospital", "name": "Lions Club Medical Centre General Hospital", "source": "Local Knowledge"}}, {"type": "node", "id": 7663961417, "lat": 19.0797861, "lon": 72.8827185, "tags": {"addr:district": "Mumbai Suburban", "addr:full": "88, New Hall Road, Jai Ambika Nagar, Christian Gaon, Kurla West, Mumbai", "addr:postcode": "400070", "addr:state": "Maharastra", "amenity": "hospital", "name": "Buddh Colony BMC Hospital", "source": "Local Knowledge"}}, {"type": "node", "id": 7663961419, "lat": 19.064667, "lon": 72.835138, "tags": {"addr:district": "Mumbai Suburban", "addr:full": "513, Linking Road, Khar, Pali Village, Khar West, Mumbai", "addr:postcode": "400050", "addr:state": "Maharastra", "amenity": "hospital", "healthcare": "hospital", "name": "Kohinoor Hospital", "source": "Local Knowledge"}}, {"type": "node", "id": 7663961423, "lat": 19.1072994, "lon": 72.8931541, "tags": {"addr:district": "Mumbai Suburban", "addr:full": "RM House, Khairani Road, Near Jama Masjid, Yadav Nagar, Chandivali, Powai, Mumbai", "addr:postcode": "400072", "addr:state": "Maharastra", "amenity": "hospital", "name": "Zobiya Hospital Maternity Home", "source": "Local Knowledge"}}, {"type": "node", "id": 7663961428, "lat": 19.068348, "lon": 72.901948, "tags": {"addr:district": "Mumbai Suburban", "addr:full": "Pestom Sagar Road, Number 2, Chembur West, Asha Nagar, Mumbai", "addr:postcode": "400089", "addr:state": "Maharastra", "amenity": "hospital", "healthcare": "hospital", "name": "Kankal Hospital Child Specialist", "source": "Local Knowledge"}}, {"type": "node", "id": 7663961430, "lat": 19.1026186, "lon": 72.8934892, "tags": {"addr:district": "Mumbai Suburban", "addr:full": "Kherani Road, Nair Wadi, Asalfa, Mumbai", "addr:postcode": "400072", "addr:state": "Maharastra", "amenity": "hospital", "name": "Sapna Maternity and General Hospital", "source": "Local Knowledge"}}, {"type": "node", "id": 7663961433, "lat": 19.1023801, "lon": 72.8914583, "tags": {"addr:district": "Mumbai Suburban", "addr:full": "Ram Niwas Mohili Village, Saki Naka, Mumbai", "addr:postcode": "400072", "addr:state": "Maharastra", "amenity": "hospital", "name": "Dr. Chhajed Surgerical & Maternity Hospital", "source": "Local Knowledge"}}, {"type": "node", "id": 7663961434, "lat": 19.054452, "lon": 72.891364, "tags": {"addr:district": "Mumbai Suburban", "addr:full": "Vikas Building Shree Chambers, Ganesh Co-operative Housing LTD, Sion - Trombay Road, Sindhi Society, Chembur, Mumbai", "addr:postcode": "400071", "addr:state": "Maharastra", "amenity": "hospital", "name": "Sai Hospital", "source": "Local Knowledge"}}, {"type": "node", "id": 7663961436, "lat": 19.078367, "lon": 72.880408, "tags": {"addr:district": "Mumbai Suburban", "addr:full": "Opposite Quality Bakery, Near Shalimar Hotel, Swadeshi Mills Road, Kurla West, Kurla, Mumbai", "addr:postcode": "400070", "addr:state": "Maharastra", "amenity": "hospital", "healthcare": "hospital", "name": "Muskaan Hospital", "source": "Local Knowledge"}}, {"type": "node", "id": 7663961440, "lat": 19.0929208, "lon": 72.9038731, "tags": {"addr:district": "Mumbai Suburban", "addr:full": "Bhatwadi, Bhim Nagar, Barve Nagar, Ghatkopar West, Mumbai", "addr:postcode": "400084", "addr:state": "Maharastra", "amenity": "hospital", "name": "Pasaydan Hospital and Trust", "source": "Local Knowledge"}}, {"type": "node", "id": 7663961441, "lat": 19.0492423, "lon": 72.9060511, "tags": {"addr:district": "Mumbai Suburban", "addr:full": "Baman Apartment, Sion - Trombay Road, Chembur, Mumbai", "addr:postcode": "400071", "addr:state": "Maharastra", "amenity": "hospital", "name": "Amarnath Multidisciplinary Children's Hospital", "source": "Local Knowledge"}}, {"type": "node", "id": 7663961442, "lat": 19.1173421, "lon": 72.8841859, "tags": {"addr:district": "Mumbai Suburban", "addr:full": "Blue Fortuna, Military Road, Sankara Nagar, Marol, Andheri East, Mumbai", "addr:postcode": "400059", "addr:state": "Maharastra", "amenity": "hospital", "name": "Cuddles N Care Pediatric Hospital", "source": "Local Knowledge"}}, {"type": "node", "id": 7663961443, "lat": 19.078247, "lon": 72.880101, "tags": {"addr:district": "Mumbai Suburban", "addr:full": "AH Wadia Marg, Old Agra Road, Off, LBS Road, Opp. Shalimar Hotel, Kurla West, Mumbai", "addr:postcode": "400070", "addr:state": "Maharastra", "amenity": "hospital", "healthcare": "hospital", "name": "Habib Hospital", "source": "Local Knowledge"}}, {"type": "node", "id": 7663961444, "lat": 19.0411897, "lon": 72.8940869, "tags": {"addr:district": "Mumbai Suburban", "addr:full": "Plot No.16, Prem Nivas, Mahul Road, Laxmi Colony, Chembur, Near Ashish Theatre, Mumbai", "addr:postcode": "400074", "addr:state": "Maharastra", "amenity": "hospital", "name": "Shiv Hospital", "source": "Local Knowledge"}}, {"type": "node", "id": 7663961446, "lat": 19.040567, "lon": 72.897252, "tags": {"addr:district": "Mumbai Suburban", "addr:full": "Behind Ashish Theater, Tolaram Colony, RCF Colony, Chembur, Mumbai", "addr:postcode": "400074", "addr:state": "Maharastra", "amenity": "hospital", "name": "RCF Hospital", "source": "Local Knowledge"}}, {"type": "node", "id": 7663961450, "lat": 19.094566, "lon": 72.8870507, "tags": {"addr:district": "Mumbai Suburban", "addr:full": "Dosti Building, D'souza Nagar, 90 Feet Road, Mayfair Industrial Area, Sakinaka, Andheri East, Mumbai", "addr:postcode": "400072", "addr:state": "Maharastra", "amenity": "hospital", "name": "Uma Hospital", "source": "Local Knowledge"}}, {"type": "node", "id": 7663961454, "lat": 19.072612, "lon": 72.871065, "tags": {"addr:district": "Mumbai Suburban", "addr:full": "Office No. 701, Trade Center, Bandra Kurla Complex, Opp. MTNL, Bandra (East), Mumbai", "addr:postcode": "400051", "addr:state": "Maharastra", "amenity": "hospital", "name": "Alphine Life Solutions General Hospital", "source": "Local Knowledge"}}, {"type": "node", "id": 7663961457, "lat": 19.0632122, "lon": 72.9197954, "tags": {"addr:district": "Mumbai Suburban", "addr:full": "Baji Prabhu Deshpande Road, Govandi West, Phase 1, Shivaji Nagar, Mumbai", "addr:postcode": "400043", "addr:state": "Maharastra", "amenity": "hospital", "name": "Mahavir Hospital", "source": "Local Knowledge"}}, {"type": "node", "id": 7663961459, "lat": 19.0834657, "lon": 72.8395008, "tags": {"addr:district": "Mumbai Suburban", "addr:full": "Harihar Niwas, Besant Road, Santacruz West, Mumbai", "addr:postcode": "400054", "addr:state": "Maharastra", "amenity": "hospital", "healthcare": "hospital", "name": "Mangal Multispeciality Hospital", "source": "Local Knowledge"}}, {"type": "node", "id": 7663961462, "lat": 19.101669, "lon": 72.848999, "tags": {"addr:district": "Mumbai Suburban", "addr:full": "Chittaranjan Road, Satsang CHSL, Navpada, Park Road, Vile Parle, Mumbai", "addr:postcode": "400057", "addr:state": "Maharastra", "amenity": "hospital", "healthcare": "hospital", "name": "Dr. Wagh Maternity Hospital", "source": "Local Knowledge"}}, {"type": "node", "id": 7663961463, "lat": 19.053227, "lon": 72.876813, "tags": {"addr:district": "Mumbai Suburban", "addr:full": "Flat No.5/6 Sheetal Building, Narayan Nagar, Chunabhatti East, Mumbai", "addr:postcode": "400022", "addr:state": "Maharastra", "amenity": "hospital", "name": "Santrupti Hospital", "source": "Local Knowledge"}}, {"type": "node", "id": 7663961465, "lat": 19.103219, "lon": 72.834862, "tags": {"addr:district": "Mumbai Suburban", "addr:full": "V. L Vaikunthlal Mehta Road, JVPD Scheme, Vile Parle", "addr:postcode": "400056", "addr:state": "Maharastra", "amenity": "hospital", "healthcare": "hospital", "name": "Sunridges Speciality Hospital", "operator": "Private", "operator:type": "private", "source": "Local Knowledge"}}, {"type": "node", "id": 7663961467, "lat": 19.0818439, "lon": 72.8821058, "tags": {"addr:district": "Mumbai Suburban", "addr:full": "New Dwarkapuri Building, LBS Road, Next To Subiksha, Christian Gaon, Kurla, Mumbai", "addr:postcode": "400070", "addr:state": "Maharastra", "amenity": "hospital", "name": "Masoom Child Hospital", "source": "Local Knowledge"}}, {"type": "node", "id": 7663961471, "lat": 19.0559349, "lon": 72.8969651, "tags": {"addr:district": "Mumbai Suburban", "addr:full": "Plot No 425, 10th Road, Near Sandu Garden, Chembur Gaothan, Chembur, Mumbai", "addr:postcode": "400071", "addr:state": "Maharastra", "amenity": "hospital", "name": "Zen Multi Speciality Hospital", "source": "Local Knowledge"}}, {"type": "node", "id": 7663961472, "lat": 19.0619918, "lon": 72.8967193, "tags": {"addr:district": "Mumbai Suburban", "addr:full": "Postal Colony Road, Chembur East, Postal Colony, Mumbai", "addr:postcode": "400071", "addr:state": "Maharastra", "amenity": "hospital", "name": "Shrimati Diwaliben Mohanlal Mehta Maa Sarvasadharan Rugnalay Hospital", "source": "Local Knowledge"}}, {"type": "node", "id": 7663961476, "lat": 19.0413817, "lon": 72.8947434, "tags": {"addr:district": "Mumbai Suburban", "addr:full": "9-1, Laxmi Colony, Tolaram Colony, RCF Colony, Chembur, Mumbai", "addr:postcode": "400074", "addr:state": "Maharastra", "amenity": "hospital", "name": "Chandra Hospital", "source": "Local Knowledge"}}, {"type": "node", "id": 7663961478, "lat": 19.0605329, "lon": 72.9000956, "tags": {"addr:district": "Mumbai Suburban", "addr:full": "Near Station, Ambedkar Garden, 19th Road, D Marg, Chembur, Mumbai", "addr:postcode": "400071", "addr:state": "Maharastra", "amenity": "hospital", "healthcare": "hospital", "name": "Shree Hospital", "source": "Local Knowledge"}}, {"type": "node", "id": 7663961479, "lat": 19.052772, "lon": 72.87496, "tags": {"addr:district": "Mumbai Suburban", "addr:full": "Akansha Building, VN Purav Marg, Opp. Muncipal Hospital, Chunabhatti, Mumbai", "addr:postcode": "400022", "addr:state": "Maharastra", "amenity": "hospital", "name": "Prathamesh Hospital", "source": "Local Knowledge"}}, {"type": "node", "id": 7663961482, "lat": 19.1002971, "lon": 72.8829976, "tags": {"addr:district": "Mumbai Suburban", "addr:full": "Behind Sakinaka Telephone Exchange, Safed Pul, Saki Naka, Mumbai", "addr:postcode": "400072", "addr:state": "Maharastra", "amenity": "hospital", "name": "Central Hospital & Child Care Centre", "source": "Local Knowledge"}}, {"type": "node", "id": 7663961484, "lat": 19.0994867, "lon": 72.8916481, "tags": {"addr:district": "Mumbai Suburban", "addr:full": "Raza Estate, Opp BMC School, Andheri Ghatkopar Link Road, Andheri East, Mumbai", "addr:postcode": "400072", "addr:state": "Maharastra", "amenity": "hospital", "name": "Apex Multi Speciality Hospital", "source": "Local Knowledge"}}, {"type": "node", "id": 7663961486, "lat": 19.097922, "lon": 72.892138, "tags": {"addr:district": "Mumbai Suburban", "addr:full": "Sir Mathuradas Vasanji Road, Lokmanya Tilak Nagar, Saki Naka, Mumbai", "addr:postcode": "400072", "addr:state": "Maharastra", "amenity": "hospital", "name": "Mohili Village Municipal Hospital", "source": "Local Knowledge"}}, {"type": "node", "id": 7663961492, "lat": 19.1070662, "lon": 72.8920753, "tags": {"addr:district": "Mumbai Suburban", "addr:full": "Khairani Road, Ansa Industrial Estate, Chandivali, Asalpha, Mumbai", "addr:postcode": "400072", "addr:state": "Maharastra", "amenity": "hospital", "name": "Asmira Hospital", "source": "Local Knowledge"}}, {"type": "node", "id": 7663961493, "lat": 19.061966, "lon": 72.901475, "tags": {"addr:district": "Mumbai Suburban", "addr:full": "B, 82, 72, Govandi Station Road, Deonar, Chembur, Mumbai", "addr:postcode": "400088", "addr:state": "Maharastra", "amenity": "hospital", "name": "Shashikant Hospital", "source": "Local Knowledge"}}, {"type": "node", "id": 7663961495, "lat": 19.0636814, "lon": 72.9199586, "tags": {"addr:district": "Mumbai Suburban", "addr:full": "Shivaji Nagar, Govandi West, Phase 1, Shivaji Nagar, Mumbai", "addr:postcode": "400043", "addr:state": "Maharastra", "amenity": "hospital", "name": "Jeevan Jyot Hospital and Nursing Home", "source": "Local Knowledge"}}, {"type": "node", "id": 7664032209, "lat": 19.040411, "lon": 72.854633, "tags": {"addr:district": "Mumbai City", "addr:full": "Dharavi Vivekananda Cooperative Housing Society Limited, RP Nagar, Dharavi, Mumbai", "addr:postcode": "400017", "addr:state": "Maharastra", "amenity": "hospital", "healthcare": "hospital", "name": "Janani Hospital", "source": "Local Knowledge"}}, {"type": "node", "id": 7664032212, "lat": 19.0456326, "lon": 72.8596339, "tags": {"addr:district": "Mumbai City", "addr:full": "90 Feet Road, Dharavi Slums, Laxmi Baug, Dharavi, Mumbai", "addr:postcode": "400017", "addr:state": "Maharastra", "amenity": "hospital", "healthcare": "hospital", "name": "Resham Hospital", "source": "Local Knowledge"}}, {"type": "node", "id": 7664032213, "lat": 19.0358599, "lon": 72.8386025, "tags": {"addr:district": "Mumbai City", "addr:full": "Sitladevi Temple Road, Mahim West, Mahim, Mumbai", "addr:postcode": "400016", "addr:state": "Maharastra", "amenity": "hospital", "healthcare": "hospital", "name": "New Ratna Hospital", "source": "Local Knowledge"}}, {"type": "node", "id": 7664032222, "lat": 19.047153, "lon": 72.84134, "tags": {"addr:district": "Mumbai City", "addr:full": "Building No.1, Ground Floor, New Mahim Police Colony, Mahim, Mumbai", "addr:postcode": "400016", "addr:state": "Maharastra", "amenity": "hospital", "name": "Mahim Police Hospital", "source": "Local Knowledge"}}, {"type": "node", "id": 7664032224, "lat": 19.03978, "lon": 72.840027, "tags": {"addr:district": "Mumbai City", "addr:full": "Welkarwadi BMC Building, LJ Cross Road, Opp.Darga Sarff, Mahim West, Mahim, Mumbai", "addr:postcode": "400016", "addr:state": "Maharastra", "amenity": "hospital", "healthcare": "hospital", "name": "Welkarwadi BMC Hospital", "source": "Local Knowledge"}}, {"type": "node", "id": 7664032231, "lat": 19.0363379, "lon": 72.8400357, "tags": {"addr:district": "Mumbai City", "addr:full": "Bobby Apartments, Near Mahim Bazar, P.O., Kapad Bazar, Mahim West, Mumbai", "addr:postcode": "400016", "addr:state": "Maharastra", "amenity": "hospital", "healthcare": "hospital", "name": "Raj Ratan Hospital", "source": "Local Knowledge"}}, {"type": "node", "id": 7664032232, "lat": 19.0363806, "lon": 72.8598664, "tags": {"addr:district": "Mumbai City", "addr:full": "RB2 Central Railway Quarters, Jain Society, Sion, Mumbai", "addr:postcode": "400022", "addr:state": "Maharastra", "amenity": "hospital", "healthcare": "hospital", "name": "Sion Hospital", "source": "Local Knowledge"}}, {"type": "node", "id": 7664032240, "lat": 19.04033, "lon": 72.8553219, "tags": {"addr:district": "Mumbai City", "addr:full": "Bandra Reclamation Road, Muslim Nagar, Kumbhar Wada, Bandra West, Mumbai", "addr:postcode": "400017", "addr:state": "Maharastra", "amenity": "hospital", "healthcare": "hospital", "name": "Lelavati Hospital", "source": "Local Knowledge"}}, {"type": "node", "id": 7664032241, "lat": 19.040315, "lon": 72.854812, "tags": {"addr:district": "Mumbai City", "addr:full": "Dharavi Vivekananda Cooperative Housing Society Limited, 90 Feet Road, Muslim Nagar, RP Nagar, Dharavi, Mumbai", "addr:postcode": "400017", "addr:state": "Maharastra", "amenity": "hospital", "healthcare": "hospital", "name": "Aayush Hospital", "source": "Local Knowledge"}}, {"type": "node", "id": 7664032243, "lat": 19.0479325, "lon": 72.857919, "tags": {"addr:district": "Mumbai City", "addr:full": "Dharavi, Mumbai", "addr:postcode": "400017", "addr:state": "Maharastra", "amenity": "hospital", "name": "Lifecare Hospital", "source": "Local Knowledge"}}, {"type": "node", "id": 8797139771, "lat": 19.0846423, "lon": 72.8836535, "tags": {"addr:district": "Mumbai", "addr:full": "A Wing, Ghatkopar, Mumbai", "addr:postcode": "400086", "addr:state": "Maharashtra", "amenity": "hospital", "name": "Sapna Health Care Centre Pvt Ltd", "source": "Local Knowledge"}}, {"type": "node", "id": 8797173216, "lat": 19.0952772, "lon": 72.9137056, "tags": {"addr:district": "Mumbai", "addr:full": "E-1, Society, Ghatkopar West, Mumbai", "addr:postcode": "400086", "addr:state": "Maharashtra", "amenity": "hospital", "name": "Shantiniketan Hospital", "source": "Local Knowledge"}}, {"type": "node", "id": 8797192964, "lat": 19.0906433, "lon": 72.9076338}, {"type": "node", "id": 8797197801, "lat": 19.0526857, "lon": 72.8732117, "tags": {"addr:district": "Mumbai", "addr:full": "VN Purav Marg, Chunabhatti, Mumbai", "addr:postcode": "400022", "addr:state": "Maharashtra", "amenity": "hospital", "name": "Dalvi Nursing Home", "source": "Local Knowledge"}}, {"type": "node", "id": 8798069854, "lat": 19.1053464, "lon": 72.887139, "tags": {"addr:district": "Mumbai", "addr:full": "5th Floor, 'A' Wing, Pranik Chamber, Marol, Andheri East, Mumbai", "addr:postcode": "400072", "addr:state": "Maharashtra", "amenity": "hospital", "name": "Axon Hospital & Dialysis Center", "source": "Local Knowledge"}}, {"type": "node", "id": 8798161108, "lat": 19.0899538, "lon": 72.8376684, "tags": {"addr:district": "Mumbai", "addr:full": "BEST Colony, Santacruz West, Mumbai", "addr:postcode": "400054", "addr:state": "Maharashtra", "amenity": "hospital", "name": "Surya Hospital", "source": "Local Knowledge"}}, {"type": "node", "id": 8801598781, "lat": 19.0997223, "lon": 72.8463493, "tags": {"addr:district": "Mumbai", "addr:full": "Plot No. 77, Vile Parle, Mumbai", "addr:postcode": "400057", "addr:state": "Maharashtra", "amenity": "hospital", "name": "Babasaheb Gawde Hospital", "source": "Local Knowledge"}}, {"type": "node", "id": 8816508984, "lat": 19.1172807, "lon": 72.8504612, "tags": {"addr:district": "Thane", "addr:full": "Plot No 516, Teli Gali, Andheri East", "addr:postcode": "400069", "addr:state": "Maharashtra", "amenity": "hospital", "name": "CritiCare Hospital", "source": "Local Knowledge"}}, {"type": "node", "id": 8817571670, "lat": 19.062128, "lon": 72.921592, "tags": {"addr:district": "Thane", "addr:full": "Plot No. 46/K/1,2 3, Govandi West, Shivaji Nagar, Mumbai", "addr:postcode": "400043", "addr:state": "Maharashtra", "amenity": "hospital", "name": "S.N. Hospital", "source": "Local Knowledge"}}, {"type": "node", "id": 8878325460, "lat": 19.1208876, "lon": 72.8915118}, {"type": "node", "id": 8878325461, "lat": 19.1210112, "lon": 72.8911999}, {"type": "node", "id": 8878325462, "lat": 19.1214471, "lon": 72.8913528}, {"type": "node", "id": 8878325463, "lat": 19.1213437, "lon": 72.8916779}, {"type": "node", "id": 9215480148, "lat": 19.0708455, "lon": 72.878112, "tags": {"addr:district": "Mumbai", "addr:full": "Ambedkar Nagar, Kurla West", "addr:postcode": "400070", "addr:state": "Maharashtra", "amenity": "hospital", "description": "Private Hospital", "name": "Bhabha Hospital", "source": "Local Knowledge"}}, {"type": "node", "id": 9311772359, "lat": 19.0474721, "lon": 72.9114655}, {"type": "node", "id": 9311772360, "lat": 19.0475682, "lon": 72.9109875}, {"type": "node", "id": 9311772361, "lat": 19.0468456, "lon": 72.9113245}, {"type": "node", "id": 9311772362, "lat": 19.0469417, "lon": 72.9108465}, {"type": "node", "id": 9311772366, "lat": 19.0497578, "lon": 72.9118686}, {"type": "node", "id": 9311772367, "lat": 19.0500215, "lon": 72.9119061}, {"type": "node", "id": 9327764516, "lat": 19.0490175, "lon": 72.9103506}, {"type": "node", "id": 9327764517, "lat": 19.0488856, "lon": 72.9104287}, {"type": "node", "id": 9327764518, "lat": 19.050417, "lon": 72.9107072}, {"type": "node", "id": 9340776353, "lat": 19.048745, "lon": 72.9112636}, {"type": "node", "id": 9340776354, "lat": 19.0499184, "lon": 72.9105965}, {"type": "node", "id": 9470829702, "lat": 19.0519425, "lon": 72.894684, "tags": {"addr:city": "mumbai", "addr:housenumber": "Shubham Flora", "addr:postcode": "400071", "addr:street": "Ramakrishna Chemburkar Marg", "amenity": "hospital", "healthcare": "hospital", "name": "Satvic Hospital"}}, {"type": "node", "id": 9668096312, "lat": 19.0467651, "lon": 72.8756596}, {"type": "node", "id": 9668096314, "lat": 19.047379, "lon": 72.8741942}, {"type": "node", "id": 10172914421, "lat": 19.0627787, "lon": 72.8731767, "tags": {"amenity": "hospital", "healthcare": "hospital", "name": "Fauziya hospital"}}, {"type": "node", "id": 10172914423, "lat": 19.0708724, "lon": 72.8781127, "tags": {"amenity": "hospital", "healthcare": "hospital", "name": "bhabha hospital"}}, {"type": "node", "id": 10172914425, "lat": 19.072649, "lon": 72.8710522, "tags": {"amenity": "hospital", "healthcare": "hospital", "name": "Alphine life solutions general hospital"}}, {"type": "node", "id": 10172914426, "lat": 19.0527267, "lon": 72.8732182, "tags": {"amenity": "hospital", "healthcare": "hospital", "name": "Dalvi nursing home"}}, {"type": "node", "id": 10172914427, "lat": 19.0528, "lon": 72.8749595, "tags": {"amenity": "hospital", "healthcare": "hospital", "name": "Prathamesh hospital"}}, {"type": "node", "id": 10172914428, "lat": 19.0532885, "lon": 72.8751862, "tags": {"amenity": "hospital", "healthcare": "hospital", "name": "Brihanmumbai mucipality Hospital"}}, {"type": "node", "id": 10172914429, "lat": 19.0532245, "lon": 72.876812, "tags": {"amenity": "hospital", "healthcare": "hospital", "name": "Santrupti hospital"}}, {"type": "node", "id": 10172914430, "lat": 19.0477498, "lon": 72.8752849}, {"type": "node", "id": 10172914431, "lat": 19.0623929, "lon": 72.89652}, {"type": "node", "id": 10172914433, "lat": 19.0590301, "lon": 72.8973108, "tags": {"amenity": "hospital", "healthcare": "hospital", "name": "Dr.Sanjay sonar laparoscopy and scopy centre"}}, {"type": "node", "id": 10172914443, "lat": 19.0622534, "lon": 72.8997239, "tags": {"amenity": "hospital", "healthcare": "hospital", "name": "Amita Patil Nursing Home"}}, {"type": "node", "id": 10172914444, "lat": 19.0422679, "lon": 72.8941536, "tags": {"amenity": "hospital", "healthcare": "hospital", "name": "Chandra maternity Hospital"}}, {"type": "node", "id": 10172914445, "lat": 19.0414049, "lon": 72.8947448, "tags": {"amenity": "hospital", "healthcare": "hospital", "name": "Chandra Hospital"}}, {"type": "node", "id": 10172914446, "lat": 19.0412186, "lon": 72.8940795, "tags": {"amenity": "hospital", "healthcare": "hospital", "name": "Shiv Hospital"}}, {"type": "node", "id": 10172914447, "lat": 19.0406126, "lon": 72.8972639, "tags": {"amenity": "hospital", "healthcare": "hospital", "name": "RCF Hospital"}}, {"type": "node", "id": 10172914448, "lat": 19.0456806, "lon": 72.9024989, "tags": {"amenity": "hospital", "healthcare": "hospital", "name": "Nayak medicare -chembur"}}, {"type": "node", "id": 10172914449, "lat": 19.0466542, "lon": 72.8964139, "tags": {"amenity": "hospital", "healthcare": "hospital", "name": "Inlaska Hospital"}}, {"type": "node", "id": 10273976408, "lat": 19.1198836, "lon": 72.8348356}, {"type": "node", "id": 10273979009, "lat": 19.1198581, "lon": 72.8358176}, {"type": "node", "id": 10273979010, "lat": 19.1197415, "lon": 72.8359196}, {"type": "node", "id": 10273979011, "lat": 19.1188571, "lon": 72.8359169}, {"type": "node", "id": 10273979012, "lat": 19.1188903, "lon": 72.8348451}, {"type": "node", "id": 10305216868, "lat": 19.0569792, "lon": 72.8894417}, {"type": "node", "id": 10305216869, "lat": 19.0567296, "lon": 72.8890484}, {"type": "node", "id": 10305216870, "lat": 19.0564124, "lon": 72.8898444}, {"type": "node", "id": 10607816273, "lat": 19.0814514, "lon": 72.8569934, "tags": {"amenity": "hospital", "healthcare": "hospital"}}, {"type": "node", "id": 10696472359, "lat": 19.0595718, "lon": 72.8532235}, {"type": "node", "id": 10696472360, "lat": 19.0592338, "lon": 72.8532187}, {"type": "node", "id": 10696472364, "lat": 19.0592405, "lon": 72.8524366}, {"type": "node", "id": 10696472365, "lat": 19.0590909, "lon": 72.8522193}, {"type": "node", "id": 10696472366, "lat": 19.059314, "lon": 72.8518921}, {"type": "node", "id": 10696472367, "lat": 19.0600086, "lon": 72.8522676}, {"type": "node", "id": 10696472368, "lat": 19.0594433, "lon": 72.8534612}, {"type": "node", "id": 10696472369, "lat": 19.0589312, "lon": 72.8528684}, {"type": "node", "id": 10779234879, "lat": 19.0647644, "lon": 72.8605034}, {"type": "node", "id": 10779234880, "lat": 19.0649532, "lon": 72.8608443}, {"type": "node", "id": 11021399248, "lat": 19.0489684, "lon": 72.9114128}, {"type": "node", "id": 11022260057, "lat": 19.0432174, "lon": 72.8499153}, {"type": "node", "id": 11022260058, "lat": 19.043651, "lon": 72.84958}, {"type": "node", "id": 11045755917, "lat": 19.07613, "lon": 72.8866663}, {"type": "node", "id": 11192643417, "lat": 19.1108158, "lon": 72.8690282, "tags": {"amenity": "hospital", "healthcare": "hospital", "healthcare:speciality": "vaccination", "name": "Nursing Home"}}, {"type": "node", "id": 11263873540, "lat": 19.1015846, "lon": 72.9121067, "tags": {"addr:postcode": "400086", "addr:street": "Amrut Nagar", "amenity": "hospital", "name:en": "Adarsh Hospital", "phone": "022 2500 7853"}}, {"type": "node", "id": 11426731276, "lat": 19.1079187, "lon": 72.8408635, "tags": {"amenity": "hospital", "name": "KLS Memorial Hospital"}}, {"type": "node", "id": 11430465717, "lat": 19.0771201, "lon": 72.9022577, "tags": {"amenity": "hospital", "healthcare": "hospital", "healthcare:speciality": "homeopathy", "name": "Noble chemist", "operator": "Noble pharmaceuticals", "operator:type": "private"}}, {"type": "node", "id": 11601087254, "lat": 19.0824624, "lon": 72.9205877}, {"type": "node", "id": 11601087255, "lat": 19.0797654, "lon": 72.9250938}, {"type": "node", "id": 11601087256, "lat": 19.0766221, "lon": 72.9206091}, {"type": "node", "id": 11601087257, "lat": 19.0798059, "lon": 72.9180771}, {"type": "node", "id": 11617868277, "lat": 19.1245264, "lon": 72.9160425, "tags": {"addr:city": "Mumbai", "addr:district": "Mumbai Suburban", "addr:postcode": "400076", "addr:street": "Adi Sankaracharya Marg", "amenity": "hospital", "healthcare": "hospital", "healthcare:speciality": "otolaryngology", "name": "dr.anjali's hospital", "opening_hours": "Mo-Su 09:00-21:00", "operator": "dr.anjali", "operator:type": "private"}}, {"type": "node", "id": 11975195989, "lat": 19.0899183, "lon": 72.9061156}, {"type": "node", "id": 11975195990, "lat": 19.0909069, "lon": 72.9058555}, {"type": "node", "id": 11975195991, "lat": 19.0910159, "lon": 72.9064751}, {"type": "node", "id": 11975195992, "lat": 19.0910589, "lon": 72.9071215}, {"type": "node", "id": 11975195993, "lat": 19.0910539, "lon": 72.9072556}, {"type": "node", "id": 11975195994, "lat": 19.0909778, "lon": 72.9074004}, {"type": "node", "id": 11975195995, "lat": 19.0904912, "lon": 72.9076847}, {"type": "node", "id": 11975195996, "lat": 19.0895001, "lon": 72.9076579}, {"type": "node", "id": 11975195997, "lat": 19.0892669, "lon": 72.9075426}, {"type": "node", "id": 12150771601, "lat": 19.0588838, "lon": 72.8480068, "tags": {"amenity": "hospital", "name": "Agarwal Children's Hospital", "outdoor_seating": "no"}}, {"type": "node", "id": 12311758511, "lat": 19.0845459, "lon": 72.907615, "tags": {"addr:district": "Mumbai", "addr:full": "Khokhani Lane, Opposite Ghatkopar Rly. Station, Ghatkopar", "addr:postcode": "400077", "addr:state": "Maharashtra", "amenity": "hospital", "name": "Parakh Hospital and Research Centre - Ghatkopar", "source": "OpenGovernmentData"}}, {"type": "node", "id": 12413297718, "lat": 19.0722491, "lon": 72.8450037, "tags": {"amenity": "hospital", "healthcare": "hospital"}}, {"type": "node", "id": 12415386367, "lat": 19.0726487, "lon": 72.8443905, "tags": {"addr:city": "mumbai santacruz", "addr:housenumber": "2", "addr:postcode": "400055", "addr:street": "golibar road", "amenity": "hospital", "healthcare": "hospital", "name": "sanjivani hospital", "opening_hours": "24/7"}}, {"type": "node", "id": 12506146623, "lat": 19.1199248, "lon": 72.9166566}, {"type": "node", "id": 12506146624, "lat": 19.1196328, "lon": 72.9165471}, {"type": "node", "id": 12506146625, "lat": 19.1196767, "lon": 72.9167307}, {"type": "node", "id": 12506146627, "lat": 19.1195522, "lon": 72.9165154}, {"type": "node", "id": 12506146630, "lat": 19.1206506, "lon": 72.9168786}, {"type": "node", "id": 12506146631, "lat": 19.1208599, "lon": 72.9169889}, {"type": "node", "id": 12506146632, "lat": 19.1210283, "lon": 72.9170719}, {"type": "node", "id": 12506146633, "lat": 19.1210925, "lon": 72.9171094}, {"type": "node", "id": 12625091014, "lat": 19.0755458, "lon": 72.8858573}, {"type": "node", "id": 12632644743, "lat": 19.0809813, "lon": 72.8819702}, {"type": "node", "id": 12632644744, "lat": 19.0809387, "lon": 72.8819715}, {"type": "node", "id": 12632644753, "lat": 19.0810341, "lon": 72.8818542}, {"type": "node", "id": 12637821285, "lat": 19.075722, "lon": 72.8857324}, {"type": "node", "id": 12688155437, "lat": 19.1059731, "lon": 72.8414741, "tags": {"addr:city": "Mumbai", "addr:country": "IN", "addr:district": "Mumbai", "addr:housenumber": "201, Sapphire Plaza", "addr:postcode": "400053", "addr:street": "Dadabhai Road", "amenity": "hospital", "description": "Centre for Dermatology & Lasers", "emergency": "no", "healthcare": "hospital", "healthcare:speciality": "dermatology;dermatovenereology", "level": "2", "mobile": "+91-9136095925", "name": "Auro Skin Clinic", "opening_hours": "Mo-Sa 10:00-18:00", "operator": "Dr Avina Jain", "operator:type": "business", "payment:american_express": "yes", "payment:cash": "yes", "payment:contactless": "yes", "payment:credit_cards": "yes", "payment:debit_cards": "yes", "payment:google_pay": "yes", "payment:mastercard": "yes", "payment:visa": "yes", "website": "https://www.auroskin.in"}}, {"type": "node", "id": 12989590769, "lat": 19.0347495, "lon": 72.8572857}, {"type": "node", "id": 12989590770, "lat": 19.0341457, "lon": 72.8588447}, {"type": "node", "id": 12989590771, "lat": 19.0349359, "lon": 72.8591754}, {"type": "node", "id": 12989590772, "lat": 19.0355437, "lon": 72.8576164}, {"type": "node", "id": 13088720350, "lat": 19.1100931, "lon": 72.8642165, "tags": {"amenity": "hospital", "emergency": "yes", "healthcare": "hospital", "name": "goel hospital"}}, {"type": "node", "id": 13232407990, "lat": 19.0784545, "lon": 72.8447091}, {"type": "node", "id": 13232407991, "lat": 19.0783943, "lon": 72.8452213}, {"type": "node", "id": 13232407992, "lat": 19.078462, "lon": 72.845296}, {"type": "node", "id": 13232407993, "lat": 19.0788047, "lon": 72.8454487}, {"type": "node", "id": 13232407994, "lat": 19.0789204, "lon": 72.8454869}, {"type": "node", "id": 13232407995, "lat": 19.0790557, "lon": 72.8451338}, {"type": "node", "id": 13232407996, "lat": 19.0790768, "lon": 72.8447568}, {"type": "node", "id": 13312852815, "lat": 19.1105125, "lon": 72.8417026}, {"type": "node", "id": 13312852816, "lat": 19.1104281, "lon": 72.841681}, {"type": "node", "id": 13312852817, "lat": 19.1103582, "lon": 72.8417642}, {"type": "node", "id": 13312852818, "lat": 19.1103524, "lon": 72.8424051}, {"type": "node", "id": 13312852819, "lat": 19.1106828, "lon": 72.8421339}, {"type": "way", "id": 49681498, "nodes": [5792364461, 4264834970, 631493980, 631493994, 5792364462, 5792364461], "tags": {"addr:postcode": "400022", "addr:street": "Laxmibai Kelkar Marg", "amenity": "hospital", "emergency": "yes", "healthcare": "hospital", "helipad": "no", "name": "Lokmanya Tilak Hospital", "name:etymology:wikidata": "Q312555", "wikidata": "Q6668710", "wikipedia": "en:Lokmanya Tilak Municipal General Hospital"}}, {"type": "way", "id": 143950812, "nodes": [1575266025, 1575266022, 1575266020, 1575266023, 1575266025], "tags": {"amenity": "hospital", "healthcare": "hospital", "name": "Karbhari"}}, {"type": "way", "id": 154837118, "nodes": [1673075405, 1673075410, 1673075415, 1673075409, 1673075413, 1673075411, 1673075407, 1673075406, 1673075408, 1673075412, 1673075416, 1673075414, 1673075405], "tags": {"addr:district": "Mumbai", "addr:full": "Kadamwadi, Off.St Anthony, St.Santacruz(East), Near Vishwakarma Samiti Hall", "addr:postcode": "400098", "addr:state": "Maharashtra", "amenity": "hospital", "name": "Niron Hospital and Research Center", "source": "OpenGovernmentData"}}, {"type": "way", "id": 202918725, "nodes": [2128608109, 2128608120, 2128608096, 2128608094, 2128608109], "tags": {"addr:district": "Mumbai", "addr:full": "Raheja Rugnalaya Marg, Mahim (West)", "addr:postcode": "400016", "addr:state": "Maharashtra", "addr:street": "SL Raheja Hospital Marg", "amenity": "hospital", "healthcare": "hospital", "name": "S.L. Raheja Hospital", "name:en": "S.L. Raheja Hospital", "source": "OpenGovernmentData"}}, {"type": "way", "id": 203215801, "nodes": [2131962452, 2131962453, 2131962451, 2131962450, 2131962452], "tags": {"amenity": "hospital", "name": "Brihanmumbai Municipalty Hospital"}}, {"type": "way", "id": 229636994, "nodes": [2382047281, 2382047297, 2382047306, 2382047302, 2382047292, 2382047294, 2382047282, 2382047280, 2382047271, 2382047272, 2382047276, 2382047277, 2382047275, 2382047281], "tags": {"addr:city": "Mumbai", "addr:street": "60 Feet Road", "amenity": "hospital", "building": "apartments", "healthcare": "hospital", "name": "Dharavi Hospital"}}, {"type": "way", "id": 260786332, "nodes": [2663447659, 11045755917, 12625091014, 12637821285, 2663447657, 2663447659], "tags": {"addr:city": "Mumbai", "addr:district": "Mumbai", "addr:full": "Kirol Road, Off LBS Road, Kurla (West)", "addr:housename": "Kohinoor Hospital", "addr:postcode": "400070", "addr:state": "Maharashtra", "addr:street": "Kirol Road, Off LBS Marg, Patelwadi", "amenity": "hospital", "contact:phone": "2267556766", "email": "info@kohinoorhospitals.in", "healthcare": "hospital", "name": "Crtiti Care Asia Hospital", "operator:type": "private", "source": "OpenGovernmentData", "website": "https://www.kohinoorhospitals.in/"}}, {"type": "way", "id": 315448033, "nodes": [3215654162, 3215654163, 1366795256, 3226211962, 3215654165, 3215654162], "tags": {"addr:district": "Mumbai", "addr:full": "Govandi Slums, Nirankar Nagar, Shivaji Nagar, Mumbai", "addr:postcode": "400043", "addr:state": "Maharashtra", "amenity": "hospital", "check_date": "2025-03-26", "name": "Rajeev Gandhi Medical Centre", "name:etymology:wikidata": "Q4593", "operator": "GOVT Dr", "source": "Local Knowledge"}}, {"type": "way", "id": 315510913, "nodes": [10172914431, 3216229177, 3216229180, 3216229181, 10172914431], "tags": {"addr:city": "Mumbai", "addr:housenumber": "Postal Colony", "addr:postcode": "400071", "addr:street": "Postal Colony Road", "amenity": "hospital", "healthcare": "hospital", "name": "Maa General Hospital", "phone": "+91 22 25220333"}}, {"type": "way", "id": 353139106, "nodes": [3589059696, 3589059695, 3589059694, 3589059590, 3589059585, 12506146625, 3589059586, 12506146627, 12506146624, 12506146623, 3589059589, 3589059693, 12506146630, 12506146631, 12506146632, 12506146633, 3589059696], "tags": {"addr:city": "Mumbai", "addr:district": "MUMBAI", "addr:full": "Hill Side Avenue, Hiranandani Gardens, Powai", "addr:postcode": "400076", "addr:state": "Maharashtra", "amenity": "hospital", "building": "yes", "contact:mobile": "9619597757", "contact:phone": "02225763355;02225763356;02225763357;02225763344;02225763311", "email": "wecare@hiranandanihospital.org", "emergency": "yes", "fax": "022 25763344", "healthcare": "hospital", "name": "Dr. L. H. Hiranandani Hospital", "opening_hours": "24/7", "operator:type": "ngo", "source": "OpenGovernmentData", "website": "https://www.hiranandanihospital.org"}}, {"type": "way", "id": 353174274, "nodes": [3589399326, 3589399327, 3589399303, 12632644744, 12632644743, 3589399323, 12632644753, 3589399326], "tags": {"addr:city": "mumbai", "addr:district": "Mumbai", "addr:full": "Sagar Palace B Wing, Sonapur Lane, F.P.P. Marg, Off L B S Marg, Kurla (W)", "addr:postcode": "400070", "addr:state": "Maharashtra", "addr:street": "father peter periera road", "amenity": "hospital", "building": "yes", "building:levels": "4", "healthcare": "hospital", "name": "City Hospital and Reserch Centre", "source": "OpenGovernmentData"}}, {"type": "way", "id": 353418036, "nodes": [3591988763, 3591988766, 3591988786, 3591988795, 3591988762, 3591988753, 3591988758, 3591988751, 3591988763], "tags": {"amenity": "hospital", "healthcare": "hospital"}}, {"type": "way", "id": 353981991, "nodes": [3597683650, 3597683655, 3597683642, 3597683646, 3597683653, 3597683659, 3597683640, 3597683636, 3597683650], "tags": {"amenity": "hospital", "healthcare": "hospital", "healthcare:speciality": "general", "name": "Kaizen Quro"}}, {"type": "way", "id": 356531751, "nodes": [3619454231, 3619454234, 3619454222, 3619454221, 3619454231], "tags": {"addr:city": "Mumbai", "addr:postcode": "400059", "addr:street": "Maroshi Village Road, vijay nagar LT", "amenity": "hospital", "healthcare": "hospital", "name": "Gokul maternity and Surgical home"}}, {"type": "way", "id": 356531771, "nodes": [3619454172, 3619454171, 3619454151, 3619454153, 3619454172], "tags": {"addr:city": "Mumbai", "addr:housenumber": "LT 3/2+3+4 Sushrut Maternity Hospital, Ground Floor, Vijay Nagar", "addr:postcode": "400059", "addr:street": "Marol Maroshi Village Road", "amenity": "hospital", "description": "The Vein Center is a chain vascular clinic located in Mumbai, India that specializes in the diagnosis and treatment of varicose vein related disorders. As a vascular interventional radiology center, it offers a range of services for the non-surgical treat", "emergency": "yes", "healthcare": "hospital", "healthcare:speciality": "vascular_surgery", "name": "The Vein Center Andheri", "operator": "Dr Joshi Vein Center LLP", "operator:type": "private", "phone": "+918080866266", "source": "local knowledge", "start_date": "2013-01-03", "website": "https://tvcm.in"}}, {"type": "way", "id": 357472226, "nodes": [3627071291, 3627071318, 3627071313, 3627071289, 3627071291], "tags": {"addr:city": "Mumbai", "addr:housenumber": "301-302 Prabath Chambers, Plot No 92", "addr:postcode": "400052", "addr:street": "Swami Vivekanand Road", "amenity": "hospital", "building": "commercial", "description": "The Vein Center is a chain vascular clinic located in Mumbai, India that specializes in the diagnosis and treatment of varicose vein related disorders. As a vascular interventional radiology center, it offers a range of services for the non-surgical treat", "emergency": "yes", "healthcare": "hospital", "healthcare:speciality": "vascular_surgery", "image": "https://tvcm.in/wp-content/uploads/2023/03/The-Vein-Center-Mumbai-Khar-West-Clinic-Building.png", "name": "The Vein Center Mumbai", "operator": "Dr Joshi Vein Center LLP", "operator:type": "private", "phone": "+91 8080866266", "start_date": "2008-01-03", "website": "https://tvcm.in"}}, {"type": "way", "id": 411617420, "nodes": [4132480380, 9327764518, 9311772367, 9311772366, 4132480381, 11021399248, 4132480382, 9340776353, 9327764517, 4132480383, 9327764516, 9340776354, 4132480380], "tags": {"addr:city": "Mumbai", "addr:postcode": "400088", "addr:street": "Waman Tukaram Patil Marg (Ghatkopar Sewri Wadala Road)", "amenity": "hospital", "emergency": "yes", "healthcare": "hospital", "name": "Shatabdi Hospital", "operator": "Municipal Corporation of Greater Mumbai", "phone": "+912225564069, +912225564070"}}, {"type": "way", "id": 430418378, "nodes": [10779234879, 4297017108, 4297017109, 5510255905, 4297000114, 4297017111, 4297017114, 4297017113, 4297017112, 4297017110, 5506320962, 10779234880, 10779234879], "tags": {"addr:district": "Mumbai", "addr:full": "G / N Block, Bandra Kurla Complex, Bandra (E)", "addr:postcode": "400051", "addr:state": "Maharashtra", "amenity": "hospital", "email": "info@ahirc.com", "healthcare": "hospital", "healthcare:speciality": "cardiology", "name": "Asian Heart Institute", "operator:type": "private", "source": "OpenGovernmentData", "website": "https://www.asianheartinstitute.org/"}}, {"type": "way", "id": 436606769, "nodes": [3546099443, 4344894369, 4344894376, 4344894373, 4344894379, 4344894381, 4344894382, 4344894387, 4344894389, 4344894392, 4344894394, 4344894395, 4344894390, 4344894386, 3546099443], "tags": {"addr:city": "mumbai", "addr:district": "Mumbai", "addr:full": "Pirojshanagar, Vikhroli(E)", "addr:postcode": "400083", "addr:state": "Maharashtra", "addr:street": "Pirojsha Godrej Marg", "amenity": "hospital", "healthcare": "hospital", "name": "Godrej Memorial Hospital, Mumbai", "source": "OpenGovernmentData"}}, {"type": "way", "id": 665481038, "nodes": [6228730402, 347120067, 6228754300, 6228730401, 6228730400, 6228730399, 6228730402], "tags": {"addr:district": "Mumbai", "addr:full": "K.B.Bhabha Municipal General Hospital, Waterfield Road, Bandra (W)", "addr:postcode": "400050", "addr:state": "Maharashtra", "amenity": "hospital", "full_name": "Khurshitji Beharamji Bhabha Municipal General Hospital", "full_name:en": "Khurshitji Beharamji Bhabha Municipal General Hospital", "healthcare": "hospital", "name": "K B Bhabha Municipal General Hospital", "official_name": "K B Bhabha Municipal General Hospital", "official_name:en": "K B Bhabha Municipal General Hospital", "phone": "+912226422775", "short_name": "Bhabha Hospital", "short_name:en": "Bhabha Hospital", "source": "OpenGovernmentData", "wikidata": "Q4900481", "wikipedia": "en:Bhabha Hospital"}}, {"type": "way", "id": 959572919, "nodes": [8878325463, 8878325462, 8878325461, 8878325460, 8878325463], "tags": {"addr:district": "Mumbai", "addr:full": "Tunga, Powai, Andheri East, Mumbai", "addr:postcode": "400072", "addr:state": "Maharashtra", "amenity": "hospital", "name": "Nirali A M Naik Charitable Health-Care Facility", "name:etymology:wikidata": "Q2121969", "source": "Local Knowledge"}}, {"type": "way", "id": 1009229724, "nodes": [9311772361, 9311772362, 9311772360, 9311772359, 9311772361], "tags": {"amenity": "hospital", "name": "Apollo Spectra Hospital"}}, {"type": "way", "id": 1052052198, "nodes": [9668096314, 10172914430, 9668096312, 1633934086, 1633934084, 9668096314], "tags": {"amenity": "hospital", "emergency": "yes", "healthcare": "hospital", "name": "K.J. Somaiya Hospital and Research Centre"}}, {"type": "way", "id": 1123412924, "nodes": [10273976408, 10273979012, 10273979011, 10273979010, 10273979009, 10273976408], "tags": {"addr:district": "Mumbai Suburban", "addr:full": "Gulmohar Road, Gulmohar Colony, Andheri West, Mumbai", "addr:postcode": "400058", "addr:state": "Maharastra", "amenity": "hospital", "name": "Khubchandani Hospital", "source": "Local Knowledge"}}, {"type": "way", "id": 1126997792, "nodes": [7043843367, 10305216869, 10305216868, 10305216870, 7043843367], "tags": {"addr:district": "Mumbai", "addr:full": "365, Swastik Park, Chembur East", "addr:postcode": "400071", "addr:state": "Maharashtra", "amenity": "hospital", "contact:phone": "2225265555", "email": "health@sushruthospital.org", "name": "Sushrut Hospital and Research Centre", "operator:type": "private", "source": "OpenGovernmentData", "website": "https://www.sushruthospital.org/"}}, {"type": "way", "id": 1127318871, "nodes": [3205777380, 7225067214, 3981413833, 3981413827, 3981413826, 3205777380], "tags": {"addr:district": "Nanded", "addr:full": "Shivaji Nagar Nanded", "addr:postcode": "431602", "addr:state": "Maharashtra", "amenity": "hospital", "name": "Shivaji Nagar Muncipal Hospital", "source": "OpenGovernmentData"}}, {"type": "way", "id": 1149824759, "nodes": [10696472369, 10696472360, 10696472368, 10696472359, 7064402717, 10696472367, 10696472366, 10696472365, 10696472364, 10696472369], "tags": {"addr:district": "Mumbai", "addr:full": "S-341, Gandhinagar, Bandra(E)", "addr:postcode": "400051", "addr:state": "Maharashtra", "amenity": "hospital", "email": "gnhosp@vsnl.com", "healthcare": "hospital", "name": "Guru Nanak Hospital", "name:etymology:wikidata": "Q83322", "operator:type": "private", "source": "OpenGovernmentData", "website": "https://www.gurunanakhospital.com/"}}, {"type": "way", "id": 1186783958, "nodes": [11022260058, 11022260057, 1111894369, 1111894364, 11022260058], "tags": {"addr:district": "Mumbai", "addr:full": "Jeevan Hall Building, 2-A, Dharavi Main Road", "addr:postcode": "400017", "addr:state": "Maharashtra", "amenity": "hospital", "name": "Ayurseva Hospital", "source": "OpenGovernmentData"}}, {"type": "way", "id": 1247980197, "nodes": [11601087254, 11601087255, 11601087256, 11601087257, 11601087254], "tags": {"amenity": "hospital", "emergency": "yes", "healthcare": "hospital", "healthcare:speciality": "emergency", "name": "jansava hospital"}}, {"type": "way", "id": 1291729684, "nodes": [11975195997, 11975195996, 11975195995, 8797192964, 11975195994, 11975195993, 11975195992, 11975195991, 11975195990, 11975195989, 11975195997], "tags": {"addr:district": "Mumbai", "addr:full": "Gandhi Nagar, Kirti Vihar, Ghatkopar West, Mumbai", "addr:postcode": "400086", "addr:state": "Maharashtra", "amenity": "hospital", "name": "Sarvodaya Hospital", "source": "Local Knowledge"}}, {"type": "way", "id": 1410330978, "nodes": [4297017109, 4297000114, 4297017111, 4297017114, 4297017113, 4297017112, 4297017110, 5506320962, 10779234880, 10779234879, 4297017108, 4297017109], "tags": {"amenity": "hospital", "healthcare": "hospital", "name": "Asian"}}, {"type": "way", "id": 1413471846, "nodes": [12989590769, 12989590770, 12989590771, 12989590772, 12989590769], "tags": {"amenity": "hospital", "healthcare": "hospital", "name": "Sion Hospital"}}, {"type": "way", "id": 1442093565, "nodes": [13232407990, 13232407991, 13232407992, 13232407993, 13232407994, 13232407995, 13232407996, 13232407990], "tags": {"addr:full": "11th Road, Golibar, Santacruz East", "addr:postcode": "400055", "addr:state": "Maharashtra", "amenity": "hospital", "healthcare": "hospital", "name": "V.N. Desai Hospital", "name:en": "V.N. Desai Hospital", "operator": "BMC", "operator:type": "government", "website": "https://mumbaisuburban.gov.in/en/public-utility/v-n-desai-municipal-general-hospital/"}}, {"type": "way", "id": 1447315313, "nodes": [3589607630, 3589607625, 3589607622, 3589607628, 3589607630], "tags": {"addr:city": "Mumbai", "addr:postcode": "400054", "addr:street": "Besant Road", "amenity": "hospital", "description": "it is a nursing home", "healthcare": "hospital", "healthcare:speciality": "general", "name": "Mangal nursing home", "website": "https://www.justdial.com/Mumbai/Mangal-Multispeciality-Hospital-ICU-Near-Santacurz-Station-Santacruz-West/022PXX22-XX22-121008193335-N5M5_BZDET"}}, {"type": "way", "id": 1451543691, "nodes": [13312852815, 13312852816, 13312852817, 13312852818, 13312852819, 13312852815], "tags": {"addr:district": "Mumbai", "addr:housenumber": "1234", "addr:postcode": "400058", "addr:street": "Swami Vivekanand Road", "amenity": "hospital", "emergency": "yes", "healthcare": "hospital", "healthcare:speciality": "general;psychiatry", "name": "hehehe", "operator": "wert"}}]}