{"version": 0.6, "generator": "Overpass API 0.7.62.8 e802775f", "osm3s": {"timestamp_osm_base": "2026-01-12T06:15:09Z", "copyright": "The data included in this document is from www.openstreetmap.org. The data is made available under ODbL."}, "elements": [{"type": "node", "id": 268791446, "lat": 13.0066617, "lon": 80.2404107}, {"type": "node", "id": 268791520, "lat": 13.0049544, "lon": 80.2400846}, {"type": "node", "id": 303590777, "lat": 13.0336624, "lon": 80.2572467, "tags": {"amenity": "hospital", "healthcare": "hospital", "name": "Corporation Hospital"}}, {"type": "node", "id": 312000326, "lat": 13.0061338, "lon": 80.239884, "tags": {"amenity": "hospital", "healthcare": "hospital", "name": "Cancer Institute"}}, {"type": "node", "id": 312012051, "lat": 13.0040368, "lon": 80.2397078}, {"type": "node", "id": 312012168, "lat": 13.0043431, "lon": 80.2389762}, {"type": "node", "id": 312012177, "lat": 13.0067952, "lon": 80.2396983}, {"type": "node", "id": 312012302, "lat": 13.005289, "lon": 80.2392002}, {"type": "node", "id": 319489495, "lat": 12.9928553, "lon": 80.255116}, {"type": "node", "id": 319489505, "lat": 12.9928054, "lon": 80.2549327}, {"type": "node", "id": 319489509, "lat": 12.99188, "lon": 80.2549043}, {"type": "node", "id": 319493745, "lat": 12.994073, "lon": 80.2561934}, {"type": "node", "id": 319493746, "lat": 12.9941283, "lon": 80.2583655}, {"type": "node", "id": 319493747, "lat": 12.9920327, "lon": 80.2580356}, {"type": "node", "id": 319493748, "lat": 12.9922576, "lon": 80.2561948}, {"type": "node", "id": 375668400, "lat": 13.0293624, "lon": 80.2440921, "tags": {"addr:district": "Chennai", "addr:full": "121-A(New No-36A), Chamiers Road, Nandanam", "addr:postcode": "600035", "addr:state": "Tamil Nadu", "amenity": "hospital", "healthcare": "hospital", "name": "Venkataeswara Hospitals", "source": "OpenGovernmentData"}}, {"type": "node", "id": 1275650594, "lat": 12.9632493, "lon": 80.2463534}, {"type": "node", "id": 1446415367, "lat": 12.9663879, "lon": 80.2474724, "tags": {"addr:city": "CHENNAI", "addr:interpolation": "KANDANCHAVADI", "addr:postcode": "600096", "addr:street": "PERUNGUDI", "amenity": "hospital", "name": "Bhadra Homeo"}}, {"type": "node", "id": 1451948599, "lat": 12.9695957, "lon": 80.2602286}, {"type": "node", "id": 1451948622, "lat": 12.9697751, "lon": 80.2595768}, {"type": "node", "id": 1451948692, "lat": 12.9712879, "lon": 80.2606555}, {"type": "node", "id": 1451948712, "lat": 12.9714366, "lon": 80.2600077}, {"type": "node", "id": 1453588718, "lat": 12.9626644, "lon": 80.2460453}, {"type": "node", "id": 1453588719, "lat": 12.9628992, "lon": 80.2451264}, {"type": "node", "id": 1453588722, "lat": 12.9634505, "lon": 80.2452832}, {"type": "node", "id": 1560720462, "lat": 13.0015307, "lon": 80.2552541, "tags": {"amenity": "hospital", "designation": "Hospital", "emergency": "no", "healthcare": "hospital", "name": "Vasan Eye Care Hospital", "source": "survey"}}, {"type": "node", "id": 1812541175, "lat": 13.0096605, "lon": 80.251565}, {"type": "node", "id": 1812541177, "lat": 13.0096801, "lon": 80.2512538}, {"type": "node", "id": 1812541179, "lat": 13.0099244, "lon": 80.2517828}, {"type": "node", "id": 1812541181, "lat": 13.0099623, "lon": 80.2512646}, {"type": "node", "id": 1919927002, "lat": 13.0134825, "lon": 80.2394549}, {"type": "node", "id": 1919927014, "lat": 13.0135188, "lon": 80.239154}, {"type": "node", "id": 1919927040, "lat": 13.0136446, "lon": 80.2393509}, {"type": "node", "id": 1919927049, "lat": 13.0136645, "lon": 80.2392948}, {"type": "node", "id": 1919927051, "lat": 13.0136676, "lon": 80.2392689}, {"type": "node", "id": 1919927053, "lat": 13.0136883, "lon": 80.2392715}, {"type": "node", "id": 1919927056, "lat": 13.0136997, "lon": 80.239177}, {"type": "node", "id": 1919927062, "lat": 13.0137076, "lon": 80.2393589}, {"type": "node", "id": 1919927070, "lat": 13.0137146, "lon": 80.2393012}, {"type": "node", "id": 1919927083, "lat": 13.0137784, "lon": 80.2394925}, {"type": "node", "id": 1919927085, "lat": 13.0137869, "lon": 80.2394222}, {"type": "node", "id": 1993266486, "lat": 12.9800456, "lon": 80.2286587, "tags": {"amenity": "hospital", "healthcare": "hospital", "name": "Ortho clinic"}}, {"type": "node", "id": 2218345696, "lat": 13.0068356, "lon": 80.2483031}, {"type": "node", "id": 2218345697, "lat": 13.0068365, "lon": 80.2481032}, {"type": "node", "id": 2218345701, "lat": 13.0069224, "lon": 80.2483636}, {"type": "node", "id": 2218345707, "lat": 13.0084967, "lon": 80.2481892}, {"type": "node", "id": 2218345716, "lat": 13.0105701, "lon": 80.248827}, {"type": "node", "id": 2218345728, "lat": 13.0107759, "lon": 80.2482768}, {"type": "node", "id": 2218345729, "lat": 13.0107982, "lon": 80.2482789}, {"type": "node", "id": 2218345738, "lat": 13.0112512, "lon": 80.2488859}, {"type": "node", "id": 2218345740, "lat": 13.0112771, "lon": 80.2483251}, {"type": "node", "id": 2237512723, "lat": 13.0201297, "lon": 80.2237605}, {"type": "node", "id": 2237512725, "lat": 13.0202051, "lon": 80.2244395}, {"type": "node", "id": 2237806363, "lat": 13.0206874, "lon": 80.2236506}, {"type": "node", "id": 2237806365, "lat": 13.0207857, "lon": 80.224354}, {"type": "node", "id": 2270288820, "lat": 13.0167431, "lon": 80.2598155}, {"type": "node", "id": 2270288824, "lat": 13.0167534, "lon": 80.2591789}, {"type": "node", "id": 2270288828, "lat": 13.0169898, "lon": 80.2592164}, {"type": "node", "id": 2270288873, "lat": 13.0170173, "lon": 80.2588263}, {"type": "node", "id": 2270289004, "lat": 13.017843, "lon": 80.2606142}, {"type": "node", "id": 2270289070, "lat": 13.0184055, "lon": 80.2609755}, {"type": "node", "id": 2270289073, "lat": 13.0184889, "lon": 80.260983}, {"type": "node", "id": 2270289077, "lat": 13.0185523, "lon": 80.2587927}, {"type": "node", "id": 2270289079, "lat": 13.018576, "lon": 80.2595564}, {"type": "node", "id": 2270289083, "lat": 13.0186087, "lon": 80.2608675}, {"type": "node", "id": 2274279925, "lat": 13.0271936, "lon": 80.2568375}, {"type": "node", "id": 2274279928, "lat": 13.0271948, "lon": 80.2566659}, {"type": "node", "id": 2274279932, "lat": 13.027507, "lon": 80.2568397}, {"type": "node", "id": 2274279934, "lat": 13.0275081, "lon": 80.256668}, {"type": "node", "id": 2274387995, "lat": 13.0098993, "lon": 80.2584864}, {"type": "node", "id": 2274387996, "lat": 13.009897, "lon": 80.2589176}, {"type": "node", "id": 2274387997, "lat": 13.0101944, "lon": 80.2581998}, {"type": "node", "id": 2274387998, "lat": 13.010192, "lon": 80.2584562}, {"type": "node", "id": 2274387999, "lat": 13.0102206, "lon": 80.2589286}, {"type": "node", "id": 2274388000, "lat": 13.0102254, "lon": 80.2587147}, {"type": "node", "id": 2274388001, "lat": 13.010378, "lon": 80.2581995}, {"type": "node", "id": 2274388002, "lat": 13.010424, "lon": 80.2587339}, {"type": "node", "id": 2587530810, "lat": 13.0205681, "lon": 80.2594702, "tags": {"amenity": "hospital", "healthcare": "hospital", "name": "Chennai Skin Foundation"}}, {"type": "node", "id": 2676674712, "lat": 13.020804, "lon": 80.2243573}, {"type": "node", "id": 2676674713, "lat": 13.0209979, "lon": 80.2243027}, {"type": "node", "id": 2676674714, "lat": 13.0209604, "lon": 80.2239115}, {"type": "node", "id": 2676674715, "lat": 13.0207485, "lon": 80.2239355}, {"type": "node", "id": 3216126405, "lat": 13.0333843, "lon": 80.2449418}, {"type": "node", "id": 3216126406, "lat": 13.033873, "lon": 80.2450276}, {"type": "node", "id": 3216126407, "lat": 13.0338625, "lon": 80.2453951}, {"type": "node", "id": 3216126408, "lat": 13.0338024, "lon": 80.2449928}, {"type": "node", "id": 3216126409, "lat": 13.0338677, "lon": 80.245328}, {"type": "node", "id": 3216126410, "lat": 13.0338886, "lon": 80.2451269}, {"type": "node", "id": 3216126411, "lat": 13.0339252, "lon": 80.2452556}, {"type": "node", "id": 3216126412, "lat": 13.0339252, "lon": 80.2453066}, {"type": "node", "id": 3216126413, "lat": 13.0339383, "lon": 80.2451456}, {"type": "node", "id": 3216126414, "lat": 13.0338651, "lon": 80.2450786}, {"type": "node", "id": 3216126415, "lat": 13.0333556, "lon": 80.2453388}, {"type": "node", "id": 3216127208, "lat": 13.0340461, "lon": 80.2456217}, {"type": "node", "id": 3216127209, "lat": 13.0340644, "lon": 80.2455735}, {"type": "node", "id": 3216127210, "lat": 13.0338318, "lon": 80.2455359}, {"type": "node", "id": 3216127211, "lat": 13.034033, "lon": 80.2455627}, {"type": "node", "id": 3216127212, "lat": 13.0340644, "lon": 80.2456352}, {"type": "node", "id": 3216127213, "lat": 13.0340408, "lon": 80.2457961}, {"type": "node", "id": 3216127214, "lat": 13.0337926, "lon": 80.2457478}, {"type": "node", "id": 3216127292, "lat": 13.0337057, "lon": 80.2454796}, {"type": "node", "id": 3216127293, "lat": 13.0336953, "lon": 80.2457264}, {"type": "node", "id": 3216127294, "lat": 13.0336064, "lon": 80.2454474}, {"type": "node", "id": 3216127295, "lat": 13.0337214, "lon": 80.245721}, {"type": "node", "id": 3216127296, "lat": 13.0336038, "lon": 80.2454689}, {"type": "node", "id": 3216127297, "lat": 13.0335124, "lon": 80.2458149}, {"type": "node", "id": 3216127298, "lat": 13.0336901, "lon": 80.245831}, {"type": "node", "id": 3216127299, "lat": 13.0335307, "lon": 80.2454474}, {"type": "node", "id": 3355370344, "lat": 12.9942334, "lon": 80.2515531}, {"type": "node", "id": 3355370345, "lat": 12.9941302, "lon": 80.2515874}, {"type": "node", "id": 3355370346, "lat": 12.9941661, "lon": 80.2517012}, {"type": "node", "id": 3355370347, "lat": 12.9942693, "lon": 80.2516668}, {"type": "node", "id": 3372786283, "lat": 12.9862735, "lon": 80.2298924, "tags": {"addr:postcode": "600042", "amenity": "hospital", "healthcare": "hospital", "is_in": "Velachery;Chennai;TN;Tamilnadu", "name": "Velachery SABA Hospital"}}, {"type": "node", "id": 3450009487, "lat": 13.0233818, "lon": 80.2227563}, {"type": "node", "id": 3450009488, "lat": 13.0233847, "lon": 80.2230708}, {"type": "node", "id": 3450009489, "lat": 13.0234417, "lon": 80.2227557}, {"type": "node", "id": 3450009490, "lat": 13.0234418, "lon": 80.2227635}, {"type": "node", "id": 3450009491, "lat": 13.023453, "lon": 80.2227634}, {"type": "node", "id": 3450009492, "lat": 13.0234532, "lon": 80.2227838}, {"type": "node", "id": 3450011993, "lat": 13.0234755, "lon": 80.2229879}, {"type": "node", "id": 3450011994, "lat": 13.0234763, "lon": 80.2230699}, {"type": "node", "id": 3450011995, "lat": 13.0234945, "lon": 80.2227834}, {"type": "node", "id": 3450011996, "lat": 13.0234964, "lon": 80.2229877}, {"type": "node", "id": 3450050682, "lat": 13.0222752, "lon": 80.2221852}, {"type": "node", "id": 3450050683, "lat": 13.0222765, "lon": 80.222371}, {"type": "node", "id": 3450050684, "lat": 13.0223467, "lon": 80.2223706}, {"type": "node", "id": 3450050685, "lat": 13.0223454, "lon": 80.2221848}, {"type": "node", "id": 3500408327, "lat": 13.0219096, "lon": 80.2256521}, {"type": "node", "id": 3500408328, "lat": 13.0215027, "lon": 80.2257745}, {"type": "node", "id": 3500408329, "lat": 13.0217646, "lon": 80.2258573}, {"type": "node", "id": 3500408330, "lat": 13.0219611, "lon": 80.2257841}, {"type": "node", "id": 3500408331, "lat": 13.0217985, "lon": 80.2256545}, {"type": "node", "id": 3500408332, "lat": 13.0218102, "lon": 80.2256881}, {"type": "node", "id": 3500408333, "lat": 13.0216898, "lon": 80.2258861}, {"type": "node", "id": 3604843264, "lat": 12.9856116, "lon": 80.2289334}, {"type": "node", "id": 3604843266, "lat": 12.9856165, "lon": 80.2288831}, {"type": "node", "id": 3604843284, "lat": 12.9857044, "lon": 80.2289429}, {"type": "node", "id": 3604843287, "lat": 12.9857093, "lon": 80.2288927}, {"type": "node", "id": 3606770663, "lat": 12.9918751, "lon": 80.2550607}, {"type": "node", "id": 3606770665, "lat": 12.99192, "lon": 80.2550872}, {"type": "node", "id": 3606770666, "lat": 12.9919207, "lon": 80.2550621}, {"type": "node", "id": 3606770674, "lat": 12.9920617, "lon": 80.2550916}, {"type": "node", "id": 3606770675, "lat": 12.9920624, "lon": 80.2550681}, {"type": "node", "id": 3606770680, "lat": 12.9920898, "lon": 80.2550924}, {"type": "node", "id": 3606770681, "lat": 12.9920904, "lon": 80.255069}, {"type": "node", "id": 3606770689, "lat": 12.9921717, "lon": 80.2549821}, {"type": "node", "id": 3606770690, "lat": 12.9921737, "lon": 80.2549133}, {"type": "node", "id": 3606770696, "lat": 12.9923138, "lon": 80.2549864}, {"type": "node", "id": 3606770697, "lat": 12.9923158, "lon": 80.2549177}, {"type": "node", "id": 3606770804, "lat": 12.9928027, "lon": 80.2550198}, {"type": "node", "id": 3606770836, "lat": 12.9928582, "lon": 80.2550215}, {"type": "node", "id": 3606874346, "lat": 12.9855188, "lon": 80.2183753}, {"type": "node", "id": 3606874348, "lat": 12.9855221, "lon": 80.2184829}, {"type": "node", "id": 3606874517, "lat": 12.9856513, "lon": 80.2182846}, {"type": "node", "id": 3606874518, "lat": 12.985654, "lon": 80.2183709}, {"type": "node", "id": 3606874531, "lat": 12.9857021, "lon": 80.2182829}, {"type": "node", "id": 3606874533, "lat": 12.985708, "lon": 80.2184769}, {"type": "node", "id": 3687685030, "lat": 12.9764429, "lon": 80.2221405}, {"type": "node", "id": 3687685031, "lat": 12.976479, "lon": 80.2221924}, {"type": "node", "id": 3687685032, "lat": 12.976426, "lon": 80.2222414}, {"type": "node", "id": 3687685033, "lat": 12.9763889, "lon": 80.222185}, {"type": "node", "id": 3687685034, "lat": 12.9764202, "lon": 80.2221583}, {"type": "node", "id": 3687711447, "lat": 12.9767775, "lon": 80.2223505, "tags": {"amenity": "hospital", "healthcare": "hospital", "name": "Kaya Skin clinic"}}, {"type": "node", "id": 3774527657, "lat": 12.9977206, "lon": 80.2573263}, {"type": "node", "id": 3774527658, "lat": 12.9976776, "lon": 80.257603}, {"type": "node", "id": 3774527659, "lat": 12.9978182, "lon": 80.2576261}, {"type": "node", "id": 3774527660, "lat": 12.9978613, "lon": 80.2573493}, {"type": "node", "id": 4006923518, "lat": 12.9920711, "lon": 80.2568853}, {"type": "node", "id": 4006923523, "lat": 12.992239, "lon": 80.2568853}, {"type": "node", "id": 4580960018, "lat": 12.9847632, "lon": 80.2572158}, {"type": "node", "id": 4580960020, "lat": 12.984625, "lon": 80.257465}, {"type": "node", "id": 4580960021, "lat": 12.9847396, "lon": 80.257476}, {"type": "node", "id": 4764302980, "lat": 13.0135999, "lon": 80.2395364, "tags": {"amenity": "hospital", "name": "HEALTH"}}, {"type": "node", "id": 5570522545, "lat": 12.9856999, "lon": 80.2293536, "tags": {"addr:street": "Gandhi Road", "amenity": "hospital", "healthcare": "hospital", "is_in": "Velachery;Chennai;Tamilnadu;TN;India;IN", "name": "ARK Hospital"}}, {"type": "node", "id": 5631872266, "lat": 13.031147, "lon": 80.2228983, "tags": {"addr:city": "Chennai", "addr:district": "Chennai", "addr:full": "# 27, Govindan Raod, West Mambalam, Near Srinivasa Theatre", "addr:postcode": "600033", "addr:state": "Tamil Nadu", "addr:street": "Govindan Road", "amenity": "hospital", "healthcare": "hospital", "healthcare:speciality": "general", "name": "Annamalai Hospital", "operator": "Annamalai", "source": "OpenGovernmentData"}}, {"type": "node", "id": 5631872277, "lat": 13.0319539, "lon": 80.2207913, "tags": {"addr:city": "Saidapet", "addr:postcode": "600015", "addr:street": "Govindan Road", "amenity": "hospital", "emergency": "yes", "healthcare": "hospital", "healthcare:speciality": "general;orthopaedics", "name": "Ezhil Hospital", "operator": "Durairaj"}}, {"type": "node", "id": 6886285320, "lat": 13.0337515, "lon": 80.2451004, "tags": {"addr:city": "Chennai", "addr:district": "CHENNAI", "addr:full": "4th Floor, Geo Tower, Old No.319, New No.465, Anna Salai, Nandanam, Chennai", "addr:housenumber": "Nandanam, 320,", "addr:postcode": "600035", "addr:state": "Tamil Nadu", "addr:street": "Anna Salai, Teynampet,", "amenity": "hospital", "contact:phone": "04424347288;04424331741;04424336119", "email": "apollocancercentres.digital@gmail.com", "healthcare": "hospital", "healthcare:speciality": "oncology", "name": "Apollo Cancer Centres", "opening_hours": "24/7", "operator:type": "private", "source": "OpenGovernmentData", "website": "https://apollocancercentres.com/"}}, {"type": "node", "id": 6914280086, "lat": 13.0329888, "lon": 80.230346, "tags": {"addr:block": "Chennai Zone X", "addr:district": "Chennai", "addr:full": "No:43, Near Bus Terminus, T. Nagar, South Usman Road", "addr:postcode": "600017", "addr:state": "Tamil Nadu", "amenity": "hospital", "healthcare": "hospital", "name": "Raju Hospitals", "source": "OpenGovernmentData"}}, {"type": "node", "id": 6914764653, "lat": 13.0063976, "lon": 80.2507134, "tags": {"addr:district": "Chennai", "addr:full": "12, First Main Road Kasturba Nagar Adyar", "addr:postcode": "600001", "addr:state": "Tamil Nadu", "amenity": "hospital", "healthcare": "hospital", "name": "Sri Kalyan Hospital", "source": "OpenGovernmentData"}}, {"type": "node", "id": 6914880539, "lat": 12.9789449, "lon": 80.2246302, "tags": {"addr:district": "Chennai", "addr:full": "No 6 12Th Cross Steet Dhandeeswaram Nagar Velachery", "addr:postcode": "600042", "addr:state": "Tamil Nadu", "amenity": "hospital", "healthcare": "hospital", "name": "Chennai Eye Care Hospital", "source": "OpenGovernmentData"}}, {"type": "node", "id": 6914880546, "lat": 13.0268492, "lon": 80.2558082, "tags": {"addr:district": "Chennai", "addr:full": "#52, Raja Annamalai Puram", "addr:postcode": "600028", "addr:state": "Tamil Nadu", "amenity": "hospital", "healthcare": "hospital", "name": "Chennai Kaliappa Hospital", "source": "OpenGovernmentData"}}, {"type": "node", "id": 6914896214, "lat": 13.0240792, "lon": 80.2278288, "tags": {"addr:district": "Chennai", "addr:full": "391/392, Anna Salai, 1st Floor, Miv Complex., Opposite New Bus Stand, Saidapet", "addr:postcode": "600015", "addr:state": "Tamil Nadu", "amenity": "hospital", "healthcare": "hospital", "name": "R.G. Stone Urological Research Institute", "source": "OpenGovernmentData"}}, {"type": "node", "id": 6915201226, "lat": 12.9855882, "lon": 80.2189144, "tags": {"addr:district": "Chennai", "addr:full": "No.39, Rajalakhsmi Nagar", "addr:postcode": "600042", "addr:state": "Tamil Nadu", "amenity": "hospital", "healthcare": "hospital", "name": "Helios Hospital Pvt Ltd", "source": "OpenGovernmentData"}}, {"type": "node", "id": 6915836812, "lat": 13.0282655, "lon": 80.235353, "tags": {"addr:district": "Chennai", "addr:full": "786 Anna Salai, CIT Nagar West", "addr:postcode": "600035", "addr:state": "Tamil Nadu", "addr:subdistrict": "Nandanam", "amenity": "hospital", "email": "admin@humahospital.com", "healthcare": "hospital", "name": "Huma Specialists Hospital and Research Centre Pvt Ltd", "operator:type": "private", "source": "OpenGovernmentData", "website": "https://humahospital.com/"}}, {"type": "node", "id": 6926055922, "lat": 13.0331935, "lon": 80.2159045, "tags": {"addr:district": "Chennai", "addr:full": "New No 80, 7Th Avenue Ashok Nagar", "addr:postcode": "600083", "addr:state": "Tamil Nadu", "addr:subdistrict": "Ashok Nagar", "amenity": "hospital", "email": "contact@ammayieyehospital.com", "healthcare": "hospital", "name": "Ammayi Eye Hospital", "operator:type": "private", "source": "OpenGovernmentData", "website": "http://www.ammayieyehospital.com/"}}, {"type": "node", "id": 6926107781, "lat": 13.0339283, "lon": 80.2394965, "tags": {"addr:district": "Chennai", "addr:full": "12, Hindi Prachara Sabha Street, T Nagar", "addr:postcode": "600017", "addr:state": "Tamil Nadu", "amenity": "hospital", "check_date": "2025-11-21", "healthcare": "hospital", "name": "Radhatri Nethralaya", "source": "OpenGovernmentData"}}, {"type": "node", "id": 6926437405, "lat": 13.0323531, "lon": 80.2517212, "tags": {"addr:district": "Chennai", "addr:full": "123 T.T.K. Rood Alwarpet", "addr:postcode": "600018", "addr:state": "Tamil Nadu", "amenity": "hospital", "healthcare": "hospital", "name": "Frontline Eye Hospital", "source": "OpenGovernmentData"}}, {"type": "node", "id": 6926808792, "lat": 12.9864526, "lon": 80.2601581, "tags": {"addr:district": "Chennai", "addr:full": "Old No 3, New 11, North Mada Street, Near Marundeeswarar Temple, Near Thiruvanmiyur Bus Terminus", "addr:postcode": "600041", "addr:state": "Tamil Nadu", "amenity": "hospital", "healthcare": "hospital", "name": "Starlight Hospitals Pvt Ltd", "source": "OpenGovernmentData"}}, {"type": "node", "id": 6926953017, "lat": 13.0274616, "lon": 80.2566481, "tags": {"addr:district": "Chennai", "addr:full": "No.43,Second Main Road,R A Puram", "addr:postcode": "600028", "addr:state": "Tamil Nadu", "amenity": "hospital", "healthcare": "hospital", "name": "Kaliappa Renal Center", "source": "OpenGovernmentData"}}, {"type": "node", "id": 6927292449, "lat": 13.0343985, "lon": 80.2339764, "tags": {"addr:district": "Chennai", "addr:full": "No.39, Burkit Road, T. Nagar", "addr:postcode": "600017", "addr:state": "Tamil Nadu", "amenity": "hospital", "healthcare": "hospital", "name": "Krishna Eye And Ent Hospitals", "source": "OpenGovernmentData"}}, {"type": "node", "id": 6927769046, "lat": 12.995229, "lon": 80.2691898, "tags": {"addr:district": "Chennai", "addr:full": "No. 1, 7Th Avenue, Besant Nagar. Near Velankanni Church", "addr:postcode": "600020", "addr:state": "Tamil Nadu", "amenity": "hospital", "healthcare": "hospital", "name": "Santosh Hospital Pvt Ltd", "source": "OpenGovernmentData"}}, {"type": "node", "id": 6928094720, "lat": 12.9762711, "lon": 80.2222002, "tags": {"addr:district": "Chennai", "addr:full": "No.-4, 100 Feet Road, Tansi Nagar, Velachery", "addr:postcode": "600042", "addr:state": "Tamil Nadu", "amenity": "hospital", "healthcare": "hospital", "name": "Athipathi Hospital and Research Centre", "source": "OpenGovernmentData"}}, {"type": "node", "id": 6928727073, "lat": 13.0268688, "lon": 80.2541439, "tags": {"addr:district": "Chennai", "addr:full": "15, P.S.Sivasamy Salai, Off Dr.Radhakrishnan Raod) Mylapore", "addr:postcode": "600004", "addr:state": "Tamil Nadu", "amenity": "hospital", "healthcare": "hospital", "name": "Madras Ent Research Foundation", "source": "OpenGovernmentData"}}, {"type": "node", "id": 6928920472, "lat": 13.0022187, "lon": 80.2520867, "tags": {"addr:district": "Chennai", "addr:full": "6/13, 3rd Cross Street, Kasthuribai Nagar, Adyar", "addr:postcode": "600020", "addr:state": "Tamil Nadu", "amenity": "hospital", "email": "info@drkmh.com", "healthcare": "hospital", "name": "Dr.Kamakshi Memorial Hospital", "operator:type": "private", "source": "OpenGovernmentData", "website": "https://www.drkmh.com/"}}, {"type": "node", "id": 6928920473, "lat": 13.034051, "lon": 80.2279374, "tags": {"addr:district": "Chennai", "addr:full": "No.10/11, Madley Road, T.Nagar", "addr:postcode": "600017", "addr:state": "Tamil Nadu", "amenity": "hospital", "healthcare": "hospital", "name": "Dr.Duraiswami Eye Hospital", "source": "OpenGovernmentData"}}, {"type": "node", "id": 6928936148, "lat": 12.9832366, "lon": 80.217509, "tags": {"addr:district": "Chennai", "addr:full": "27, 100 Feet Road, Taramani Link Road, Velacherry", "addr:postcode": "600042", "addr:state": "Tamil Nadu", "amenity": "hospital", "healthcare": "hospital", "name": "Dr.Agarwals Eye Hospital - Velacherry", "operator": "Dr. Agarwal's Eye Hospital", "operator:type": "private", "operator:wikidata": "Q17052044", "source": "OpenGovernmentData"}}, {"type": "node", "id": 6929259906, "lat": 13.0314888, "lon": 80.2218689, "tags": {"addr:block": "Chennai Zone X", "addr:district": "Chennai", "addr:full": "Near Srinivasa Theatre, West Mambalam, Govindan Road", "addr:postcode": "600033", "addr:state": "Tamil Nadu", "amenity": "hospital", "check_date": "2024-04-16", "healthcare": "hospital", "name": "Lakshmi Hospital", "source": "OpenGovernmentData"}}, {"type": "node", "id": 6929592168, "lat": 13.0274436, "lon": 80.2269866, "tags": {"addr:district": "Chennai", "addr:full": "11, Sastri 1st Cross Street, Kaveri Nagar Saidapet", "addr:postcode": "600015", "addr:state": "Tamil Nadu", "amenity": "hospital", "healthcare": "hospital", "name": "Balakrishna Eye Hospital", "source": "OpenGovernmentData"}}, {"type": "node", "id": 6929625895, "lat": 13.026013, "lon": 80.2655232, "tags": {"addr:district": "Chennai", "addr:full": "200, Ramakrishnan Mutt Road, Mandaveli", "addr:postcode": "600028", "addr:state": "Tamil Nadu", "amenity": "hospital", "check_date": "2024-05-21", "emergency": "yes", "healthcare": "hospital", "internet_access": "no", "name": "B.S.S. Hospital", "name:en": "B.S.S. Hospital", "payment:cash": "yes", "payment:credit_cards": "yes", "payment:debit_cards": "yes", "source": "OpenGovernmentData", "wheelchair": "yes"}}, {"type": "node", "id": 6930188138, "lat": 13.0210394, "lon": 80.2592924, "tags": {"addr:district": "Chennai", "addr:full": "No:12/2, Bagirathi Ammal Street, C P Ramasamy Road, R.A.Puram", "addr:postcode": "600028", "addr:state": "Tamil Nadu", "amenity": "hospital", "healthcare": "hospital", "name": "Chennai Skin Foundation and Yesudian Research Institute", "source": "OpenGovernmentData"}}, {"type": "node", "id": 6932203729, "lat": 12.9507835, "lon": 80.255186, "tags": {"addr:city": "\u0b9a\u0bc6\u0ba9\u0bcd\u0ba9\u0bc8 - Chennai", "addr:district": "Chennai", "addr:full": "#18, East Coast Road,Near Neelangarai Bus Stop,Neelangarai", "addr:postcode": "600115", "addr:state": "Tamil Nadu", "addr:street": "East Coast Road SH49", "amenity": "hospital", "emergency": "yes", "healthcare": "hospital", "healthcare:speciality": "general", "name": "Santhi Hospital", "operator": "Private", "operator:type": "private", "source": "local knowledge"}}, {"type": "node", "id": 6933010451, "lat": 13.0269457, "lon": 80.2623196, "tags": {"addr:block": "Chennai Zone Ix", "addr:district": "Chennai", "addr:full": "38/56, Near Bank Of Baroda, Venkata Krishna Road, Jeth Nagar, Mandaveli", "addr:postcode": "600028", "addr:state": "Tamil Nadu", "amenity": "hospital", "check_date": "2024-05-22", "name": "Janamma Hospital", "name:en": "Janamma Hospital", "source": "OpenGovernmentData"}}, {"type": "node", "id": 6933038566, "lat": 13.0222055, "lon": 80.2622388, "tags": {"addr:district": "Chennai", "addr:full": "No 5 School View Road R K Nagar", "addr:postcode": "600028", "addr:state": "Tamil Nadu", "amenity": "hospital", "healthcare": "hospital", "name": "Indira Eye Hospital", "source": "OpenGovernmentData"}}, {"type": "node", "id": 6933279103, "lat": 12.9504267, "lon": 80.2551001, "tags": {"addr:district": "Chennai", "addr:full": "No 20, Thamirabarani Towers, Ecr Road, Kabaliswarer Nagar, Neelankarai", "addr:postcode": "600041", "addr:state": "Tamil Nadu", "amenity": "hospital", "healthcare": "hospital", "name": "Vasan Eye Care Hospital, Neelankarai", "source": "OpenGovernmentData"}}, {"type": "node", "id": 6933510877, "lat": 12.9958562, "lon": 80.2603345, "tags": {"addr:district": "Chennai", "addr:full": "No-58, M G Road, Thiruvanmiyur", "addr:postcode": "600041", "addr:state": "Tamil Nadu", "amenity": "hospital", "healthcare": "hospital", "name": "Jayam Polyclinc", "source": "OpenGovernmentData"}}, {"type": "node", "id": 6934271111, "lat": 12.996767, "lon": 80.2603599, "tags": {"addr:district": "Chennai", "addr:full": "33, Mahatma Gandhi Road, Sastri Nagar, 2nd Avenue, Adyar", "addr:postcode": "600020", "addr:state": "Tamil Nadu", "amenity": "hospital", "healthcare": "hospital", "healthcare:speciality": "ophthalmology", "name": "M N Eye Hospital", "source": "OpenGovernmentData"}}, {"type": "node", "id": 6934325882, "lat": 13.0328516, "lon": 80.2615173, "tags": {"addr:district": "Chennai", "addr:full": "Thoppu New No.2,(Old No.64),Dr.Ranga Road, Abiramapuram", "addr:postcode": "600018", "addr:state": "Tamil Nadu", "amenity": "hospital", "healthcare": "hospital", "name": "Nandalala Medical Foundation", "source": "OpenGovernmentData"}}, {"type": "node", "id": 6934340601, "lat": 12.9784706, "lon": 80.2247932, "tags": {"addr:district": "Chennai", "addr:full": "40B, Tansi Nagar Vii St, Velachery", "addr:postcode": "600042", "addr:state": "Tamil Nadu", "amenity": "hospital", "healthcare": "hospital", "name": "Nandhini Hospital", "source": "OpenGovernmentData"}}, {"type": "node", "id": 6934340623, "lat": 13.0265108, "lon": 80.2607878, "tags": {"addr:district": "Chennai", "addr:full": "73 Venkatakrishna Road, Ra Puram", "addr:postcode": "600028", "addr:state": "Tamil Nadu", "amenity": "hospital", "check_date": "2024-05-22", "healthcare": "hospital", "name": "Navasuja Sankara Nethralaya", "name:en": "Navasuja Sankara Nethralaya", "source": "OpenGovernmentData"}}, {"type": "node", "id": 6934340658, "lat": 13.0316469, "lon": 80.2311185, "tags": {"addr:district": "Chennai", "addr:full": "49 Srinivasa Reddu Street,T Nagar", "addr:postcode": "600017", "addr:state": "Tamil Nadu", "amenity": "hospital", "healthcare": "hospital", "name": "New Balaji Hospital, Chennai", "source": "OpenGovernmentData"}}, {"type": "node", "id": 6934340766, "lat": 12.9996223, "lon": 80.2537027, "tags": {"addr:district": "Chennai", "addr:full": "No. -28, 1st Avenue, Indira Nagar, Adyar", "addr:postcode": "600020", "addr:state": "Tamil Nadu", "amenity": "hospital", "healthcare": "hospital", "name": "Padmapriya Hospital Pvt. Ltd.", "source": "OpenGovernmentData"}}, {"type": "node", "id": 6934340781, "lat": 13.0122123, "lon": 80.2235084, "tags": {"addr:district": "Dindigul", "addr:full": "4/12A, Anna Nagar,Palani", "addr:postcode": "624601", "addr:state": "Tamil Nadu", "amenity": "hospital", "name": "Palani Balaji Fertility Centre", "source": "OpenGovernmentData"}}, {"type": "node", "id": 6936271569, "lat": 12.9640779, "lon": 80.2461429, "tags": {"addr:district": "Kanchipuram", "addr:full": "5/91, Church Road, Perungudi, Near Andrew Yulex Colony, Chengalpattu", "addr:postcode": "600096", "addr:state": "Tamil Nadu", "amenity": "hospital", "name": "Sri Lakshmi Multi Speciality Hospital Pvt Ltd", "source": "OpenGovernmentData"}}, {"type": "node", "id": 6936359940, "lat": 12.9938673, "lon": 80.2528444, "tags": {"addr:district": "Chennai", "addr:full": "New No.10, Old No.20, 3Road Avenue, Indira Nagar, Adyar", "addr:postcode": "600020", "addr:state": "Tamil Nadu", "amenity": "hospital", "healthcare": "hospital", "name": "Lakshmi Maternity Hospital", "source": "OpenGovernmentData"}}, {"type": "node", "id": 6936391765, "lat": 13.0177957, "lon": 80.2711008, "tags": {"addr:district": "Chennai", "addr:full": "No.41/42, 53/54, Sathyadev Avenue, Mrc Nagar", "addr:postcode": "600028", "addr:state": "Tamil Nadu", "amenity": "hospital", "name": "Apollo Specialty Hospitals Private Limited", "operator:type": "private", "source": "OpenGovernmentData"}}, {"type": "node", "id": 6936695172, "lat": 13.0269877, "lon": 80.2631588, "tags": {"addr:block": "Chennai Zone Ix", "addr:district": "Chennai", "addr:full": "Near Central Bank (Bus Stop), Mandaveli, Devanathan St", "addr:postcode": "600028", "addr:state": "Tamil Nadu", "amenity": "hospital", "name": "Yogi Vedha Kumari Hospital", "source": "OpenGovernmentData"}}, {"type": "node", "id": 6936695177, "lat": 12.9833895, "lon": 80.2181782, "tags": {"addr:district": "Chennai", "addr:full": "7/14, 7Th Cross Street, Rajalakshmi Nagar, Velachery", "addr:postcode": "600042", "addr:state": "Tamil Nadu", "amenity": "hospital", "healthcare": "hospital", "name": "Xcellent Care Superspeciality Hospital", "source": "OpenGovernmentData"}}, {"type": "node", "id": 6936708005, "lat": 13.0332775, "lon": 80.2371645, "tags": {"addr:district": "Chennai", "addr:full": "55, Sadulla Street, T.Nagar", "addr:postcode": "600017", "addr:state": "Tamil Nadu", "amenity": "hospital", "healthcare": "hospital", "name": "Sai Ortho Care Hospital", "source": "OpenGovernmentData"}}, {"type": "node", "id": 6937055902, "lat": 12.9758647, "lon": 80.2205016, "tags": {"addr:district": "Chennai", "addr:full": "Plot No. 191, 100 Feet By-Pass Road, Velacherry", "addr:postcode": "600042", "addr:state": "Tamil Nadu", "amenity": "hospital", "healthcare": "hospital", "name": "Appasamy Krishna Hospital and Medical Research Centre", "source": "OpenGovernmentData"}}, {"type": "node", "id": 6950288001, "lat": 12.9531897, "lon": 80.2541614, "tags": {"addr:district": "Chennai", "addr:full": "No.2/614A,Philios Street,Neelangarai", "addr:postcode": "600002", "addr:state": "Tamil Nadu", "amenity": "hospital", "healthcare": "hospital", "name": "Sahishnatha Indtitute Of Maternal And Child Health", "source": "OpenGovernmentData"}}, {"type": "node", "id": 7210911300, "lat": 13.0290525, "lon": 80.2636265, "tags": {"addr:district": "Chennai", "addr:full": "No.06, Chokkalingam St, Jeth Nagar, Mandaveli", "addr:postcode": "600028", "addr:state": "Tamil Nadu", "amenity": "hospital", "healthcare": "hospital", "name": "Sri Ranga Hospitals", "source": "OpenGovernmentData"}}, {"type": "node", "id": 7210948177, "lat": 13.0297278, "lon": 80.2446245, "tags": {"addr:district": "Chennai", "addr:full": "23, Pasumpon Muthuramalinga Thevar Rd, Rathna Nagar, Nandanam", "addr:postcode": "600035", "addr:state": "Tamil Nadu", "amenity": "hospital", "healthcare": "hospital", "name": "Chamiers Day Care Center", "source": "OpenGovernmentData"}}, {"type": "node", "id": 7213394742, "lat": 12.9609724, "lon": 80.2421492, "tags": {"addr:district": "Chennai", "addr:full": "12/8, Phase-1, Thirumalai Nagar, Tirumalai Nagar, Perungudi", "addr:postcode": "600096", "addr:state": "Tamil Nadu", "amenity": "hospital", "name": "London Harley Street Women And Fertility Centre", "source": "OpenGovernmentData"}}, {"type": "node", "id": 7213449202, "lat": 13.003026, "lon": 80.2540981, "tags": {"addr:district": "Chennai", "addr:full": "3/2, 3/2, Adyar 3rd St, Bakthavatchalam Nagar, Baktavatsalm Nagar, Adyar, Chennai", "addr:postcode": "600020", "addr:state": "Tamil Nadu", "amenity": "hospital", "healthcare": "hospital", "name": "Gas Hospital", "source": "OpenGovernmentData"}}, {"type": "node", "id": 7257421557, "lat": 13.0312006, "lon": 80.2511993, "tags": {"addr:block": "Chennai Zone Ix", "addr:district": "Chennai", "addr:full": "Alwarpet Signal, Alwerpet, T.T..K Road", "addr:postcode": "600018", "addr:state": "Tamil Nadu", "amenity": "hospital", "healthcare": "hospital", "name": "Motherhood Hospital", "source": "OpenGovernmentData"}}, {"type": "node", "id": 7257421559, "lat": 12.9979497, "lon": 80.2562121, "tags": {"addr:block": "Chennai Zone Xiii", "addr:district": "Chennai", "addr:full": "Near Adiyar Police Station, Shastri Nagar, Adyar", "addr:postcode": "600020", "addr:state": "Tamil Nadu", "amenity": "hospital", "healthcare": "hospital", "name": "Government Hospital, Adyar", "source": "OpenGovernmentData"}}, {"type": "node", "id": 7257421593, "lat": 13.034922, "lon": 80.2465468, "tags": {"addr:block": "Chennai Zone Ix", "addr:district": "Chennai", "addr:full": "Suthamal Extension, Teynampet, First Main Road", "addr:postcode": "600018", "addr:state": "Tamil Nadu", "amenity": "hospital", "healthcare": "hospital", "name": "Genesis Womens Hospital", "source": "OpenGovernmentData"}}, {"type": "node", "id": 7257421596, "lat": 13.0342203, "lon": 80.2398192, "tags": {"addr:block": "Chennai Zone Ix", "addr:district": "Chennai", "addr:full": "New No: 12, Old No:29, Behind Dakshina Hindi Prachara Sabha, T. Nagar, Hindi Prachara Sabha St", "addr:postcode": "600017", "addr:state": "Tamil Nadu", "amenity": "hospital", "healthcare": "hospital", "name": "Radhatri Nethralaya", "source": "OpenGovernmentData"}}, {"type": "node", "id": 7257421602, "lat": 13.0298989, "lon": 80.2261208, "tags": {"addr:block": "Chennai Zone Xiii", "addr:district": "Chennai", "addr:full": "Kannammapet, Cit Nagar, Chennai", "addr:postcode": "600017", "addr:state": "Tamil Nadu", "amenity": "hospital", "healthcare": "hospital", "name": "Kanamapet Government Hospital", "source": "OpenGovernmentData"}}, {"type": "node", "id": 7822260021, "lat": 12.9498749, "lon": 80.2381651, "tags": {"addr:district": "Chengalpattu", "addr:full": "Thoraipakkam", "addr:postcode": "600097", "addr:state": "Tamil Nadu", "amenity": "hospital", "name": "Jayam Hospital", "source": "Local Knowledge"}}, {"type": "node", "id": 7823212559, "lat": 12.9753651, "lon": 80.2543198, "tags": {"addr:district": "Chengalpattu", "addr:full": "Valmiki Nagar, Kannappa Nagar, Thiruvanmiyur", "addr:postcode": "600041", "addr:state": "Tamil Nadu", "amenity": "hospital", "healthcare": "hospital", "name": "Shakthi Hospital", "source": "Local Knowledge"}}, {"type": "node", "id": 7823212570, "lat": 12.9757686, "lon": 80.2590077, "tags": {"addr:district": "Chengalpattu", "addr:full": "Thiruvanmiyur", "addr:postcode": "600041", "addr:state": "Tamil Nadu", "amenity": "hospital", "healthcare": "hospital", "name": "Hale and Healthy Hospitals", "source": "Local Knowledge"}}, {"type": "node", "id": 7823212607, "lat": 12.9751423, "lon": 80.2582571, "tags": {"addr:district": "Chengalpattu", "addr:full": "Kottivakkam, Near Tiruvanmiyur", "addr:postcode": "600041", "addr:state": "Tamil Nadu", "amenity": "hospital", "healthcare": "hospital", "name": "Promed Hospital", "source": "Local Knowledge"}}, {"type": "node", "id": 7823212610, "lat": 12.9693629, "lon": 80.2566138, "tags": {"addr:district": "Chengalpattu", "addr:full": "Kottivakkam", "addr:postcode": "600041", "addr:state": "Tamil Nadu", "amenity": "hospital", "healthcare": "hospital", "name": "Happy Clinic Hospital", "source": "Local Knowledge"}}, {"type": "node", "id": 7823415020, "lat": 12.9915347, "lon": 80.2615046, "tags": {"addr:district": "Chennai", "addr:full": "Radhakrishnan Nagar, Thiruvanmiyur", "addr:postcode": "600041", "addr:state": "Tamil Nadu", "amenity": "hospital", "healthcare": "hospital", "name": "Corporation Hospital", "source": "Local Knowledge"}}, {"type": "node", "id": 7823415021, "lat": 12.978253, "lon": 80.258947, "tags": {"addr:district": "Chennai", "addr:full": "Thiruvanmiyur", "addr:postcode": "600041", "addr:state": "Tamil Nadu", "amenity": "hospital", "healthcare": "hospital", "name": "Relief Dental Hospitals", "source": "Local Knowledge"}}, {"type": "node", "id": 7823415049, "lat": 12.986383, "lon": 80.260187, "tags": {"addr:district": "Chennai", "addr:full": "Kamaraj Nagar, Thiruvanmiyur", "addr:postcode": "600041", "addr:state": "Tamil Nadu", "amenity": "hospital", "healthcare": "hospital", "name": "SMK Hospital", "source": "Local Knowledge"}}, {"type": "node", "id": 7823415056, "lat": 12.9916719, "lon": 80.2624479, "tags": {"addr:district": "Chennai", "addr:full": "Radhakrishnan Nagar, Thiruvanmiyur", "addr:postcode": "600041", "addr:state": "Tamil Nadu", "amenity": "hospital", "healthcare": "hospital", "name": "Uma Sankaran Siddha Hospital", "source": "Local Knowledge"}}, {"type": "node", "id": 7823415065, "lat": 13.0013494, "lon": 80.258796, "tags": {"addr:district": "Chennai", "addr:full": "Shastri Nagar, Adyar", "addr:postcode": "600020", "addr:state": "Tamil Nadu", "amenity": "hospital", "healthcare": "hospital", "name": "Mint Hospitals", "source": "Local Knowledge"}}, {"type": "node", "id": 7823415091, "lat": 12.9890173, "lon": 80.2599586, "tags": {"addr:district": "Chennai", "addr:full": "Kamaraj Nagar, Thiruvanmiyur", "addr:postcode": "600041", "addr:state": "Tamil Nadu", "amenity": "hospital", "healthcare": "hospital", "name": "Ashwini Hospital", "source": "Local Knowledge"}}, {"type": "node", "id": 8639896900, "lat": 12.9784544, "lon": 80.2214698, "tags": {"addr:city": "Chennai", "addr:housenumber": "36", "addr:postcode": "600042", "addr:street": "Velachery Main Road", "amenity": "hospital", "email": "info@prashanthhospitals.org", "healthcare": "hospital", "name": "Prashanth Hospitals", "phone": "+91 44 2243 9494;+91 44 4680 5544;+91 82962 63415", "website": "https://prashanthhospitals.org"}}, {"type": "node", "id": 9808422677, "lat": 13.0136382, "lon": 80.2394032}, {"type": "node", "id": 10296799091, "lat": 13.0102417, "lon": 80.2586949}, {"type": "node", "id": 10296799092, "lat": 13.0103036, "lon": 80.2586966}, {"type": "node", "id": 10296799093, "lat": 13.010303, "lon": 80.2587121}, {"type": "node", "id": 10296799094, "lat": 13.0103202, "lon": 80.2587281}, {"type": "node", "id": 10296799095, "lat": 13.0101595, "lon": 80.2584897}, {"type": "node", "id": 10296799096, "lat": 13.0101597, "lon": 80.2589259, "tags": {"access": "private", "barrier": "gate"}}, {"type": "node", "id": 10296799097, "lat": 13.0099407, "lon": 80.2589187, "tags": {"access": "private", "barrier": "gate"}}, {"type": "node", "id": 10296799098, "lat": 13.0103209, "lon": 80.2581996}, {"type": "node", "id": 10296799100, "lat": 13.0101938, "lon": 80.2582684}, {"type": "node", "id": 11030701311, "lat": 12.9633686, "lon": 80.2457187}, {"type": "node", "id": 11679595256, "lat": 12.9569147, "lon": 80.2513405, "tags": {"addr:housenumber": "22/10 11", "addr:street": "Kazura Garden, 1st Street", "amenity": "hospital", "healthcare": "hospital", "name": "Jananam fertility centre"}}, {"type": "node", "id": 11757871795, "lat": 12.9846385, "lon": 80.2572089}, {"type": "node", "id": 13096237915, "lat": 13.0064894, "lon": 80.2504829, "tags": {"amenity": "hospital", "healthcare": "hospital", "name": "Iswarya Fertility Center"}}, {"type": "node", "id": 13155026101, "lat": 12.9810842, "lon": 80.2343492, "tags": {"addr:street": "Taramani Link Road", "amenity": "hospital", "name": "Good Shepard hospital", "opening_hours": "24/7"}}, {"type": "way", "id": 28404807, "nodes": [312012051, 312012168, 312012302, 312012177, 268791446, 268791520, 312012051], "tags": {"amenity": "hospital", "healthcare": "hospital"}}, {"type": "way", "id": 29046387, "nodes": [319489495, 3606770836, 3606770804, 319489505, 3606770697, 3606770696, 3606770689, 3606770690, 319489509, 3606770663, 3606770666, 3606770665, 3606770674, 3606770675, 3606770681, 3606770680, 319489495], "tags": {"addr:district": "Chennai", "addr:full": "17,Iv Main Road,Indira Nagar", "addr:postcode": "600020", "addr:state": "Tamil Nadu", "amenity": "hospital", "building": "hospital", "healthcare": "hospital", "name": "Tt Ranganathan Clinical Research Foundation", "source": "OpenGovernmentData"}}, {"type": "way", "id": 29046742, "nodes": [319493745, 319493746, 319493747, 4006923518, 4006923523, 319493748, 319493745], "tags": {"addr:district": "Chennai", "addr:full": "34-37, Kalki Krishnamurthy Salai", "addr:postcode": "600041", "addr:state": "Tamil Nadu", "addr:subdistrict": "Thiruvanmiyur", "amenity": "hospital", "email": "contact@impcops.org", "healthcare": "hospital", "name": "IMPCOPS Traditional Hospital", "operator:type": "private", "source": "OpenGovernmentData", "website": "https://impcops.org/"}}, {"type": "way", "id": 131961841, "nodes": [1451948712, 1451948622, 1451948599, 1451948692, 1451948712], "tags": {"amenity": "hospital", "healthcare": "hospital", "name": "Ayurveda Hospital"}}, {"type": "way", "id": 132073184, "nodes": [1453588719, 1453588722, 11030701311, 1275650594, 1453588718, 1453588719], "tags": {"amenity": "hospital", "emergency": "yes", "name": "Apollo Hospital"}}, {"type": "way", "id": 170104584, "nodes": [1812541177, 1812541175, 1812541179, 1812541181, 1812541177], "tags": {"amenity": "hospital", "healthcare": "hospital", "name": "Global Hospitals"}}, {"type": "way", "id": 181579506, "nodes": [1919927014, 1919927002, 1919927083, 1919927085, 9808422677, 1919927040, 1919927062, 1919927070, 1919927049, 1919927051, 1919927053, 1919927056, 1919927014], "tags": {"amenity": "hospital", "building": "yes", "healthcare": "hospital", "name": "Health Centre"}}, {"type": "way", "id": 211900029, "nodes": [2218345697, 2218345696, 2218345701, 2218345716, 2218345738, 2218345740, 2218345729, 2218345728, 2218345707, 2218345697], "tags": {"addr:district": "Chennai", "addr:full": "No.18, East Canal Bank Road, Gandhi Nagar", "addr:postcode": "600020", "addr:state": "Tamil Nadu", "addr:subdistrict": "Adyar", "amenity": "hospital", "name": "Cancer Hospital", "source": "OpenGovernmentData", "website": "http://cancerinstitutewia.in/CIWIA/"}}, {"type": "way", "id": 214188197, "nodes": [2237512723, 2237806363, 2237806365, 2237512725, 2237512723], "tags": {"addr:district": "Kancheepuram", "addr:full": "Saidapet Sdh, Saidapet", "addr:postcode": "600015", "addr:state": "Tamil Nadu", "addr:street": "Jeenis Road", "amenity": "hospital", "emergency": "yes", "healthcare": "hospital", "name": "\u0b9a\u0bc8\u0ba4\u0bbe\u0baa\u0bcd\u0baa\u0bc7\u0b9f\u0bcd\u0b9f\u0bc8 \u0b85\u0bb0\u0b9a\u0bc1 \u0bae\u0bb0\u0bc1\u0ba4\u0bcd\u0ba4\u0bc1\u0bb5\u0bae\u0ba9\u0bc8", "name:en": "Government Hospital, Saidapet", "source": "OpenGovernmentData"}}, {"type": "way", "id": 217726810, "nodes": [2270289077, 2270288873, 2270288828, 2270288824, 2270288820, 2270289004, 2270289070, 2270289073, 2270289083, 2270289079, 2270289077], "tags": {"addr:district": "Chennai", "addr:full": "No 11, 12, Dr Durgabai Deshmukh Road,R. A .Puram", "addr:postcode": "600028", "addr:state": "Tamil Nadu", "alt_name": "Durgabai Deshmukh General Hospital and Research Centre", "amenity": "hospital", "healthcare": "hospital", "name": "\u0b86\u0ba8\u0bcd\u0ba4\u0bbf\u0bb0 \u0bae\u0bbe\u0ba8\u0bbf\u0bb2 \u0b9a\u0baa\u0bbe", "name:en": "Andhra Mahila Sabha", "source": "OpenGovernmentData"}}, {"type": "way", "id": 218149507, "nodes": [2274279925, 2274279932, 2274279934, 2274279928, 2274279925], "tags": {"addr:block": "Chennai Zone Ix", "addr:district": "Chennai", "addr:full": "52, 2Nd Main Road, R.A. Puram, Trustpakkam, Raja Annamalai Puram", "addr:postcode": "600028", "addr:state": "Tamil Nadu", "addr:subdistrict": "Rajaannamalaipuram", "amenity": "hospital", "emergency": "yes", "healthcare": "hospital", "name": "Billroth Hospital", "operator:type": "private", "source": "OpenGovernmentData", "website": "https://www.billrothhospitals.com/"}}, {"type": "way", "id": 218163938, "nodes": [2274388002, 10296799094, 10296799093, 10296799092, 10296799091, 2274388000, 2274387999, 10296799096, 10296799097, 2274387996, 2274387995, 10296799095, 2274387998, 10296799100, 2274387997, 10296799098, 2274388001, 2274388002], "tags": {"amenity": "hospital", "healthcare": "hospital", "name": "Fortis Malar Hospital", "name:tn": "\u0b83\u0baa\u0bcb\u0bb0\u0bcd\u0b9f\u0bbf\u0bb8\u0bcd \u0bae\u0bb2\u0bb0\u0bcd \u0bae\u0bb0\u0bc1\u0ba4\u0bcd\u0ba4\u0bc1\u0bb5\u0bae\u0ba9\u0bc8 \u0b9a\u0bc6\u0ba9\u0bcd\u0ba9\u0bc8", "wikidata": "Q5472672", "wikipedia": "en:Fortis Malar Hospital"}}, {"type": "way", "id": 262012749, "nodes": [2676674712, 2676674713, 2676674714, 2676674715, 2676674712], "tags": {"addr:city": "Chennai", "addr:postcode": "600015", "addr:street": "Jeenis Road", "amenity": "hospital", "building": "yes", "emergency": "yes", "healthcare": "hospital", "name": "Chennai Corporation 24 Hours Maternity Hospital"}}, {"type": "way", "id": 315499682, "nodes": [3216126408, 3216126405, 3216126415, 3216126407, 3216126409, 3216126412, 3216126411, 3216126413, 3216126410, 3216126414, 3216126406, 3216126408], "tags": {"addr:city": "Chennai", "addr:housenumber": "320, Padma Complex", "addr:postcode": "600035", "addr:street": "Anna Salai (Mount Road)", "amenity": "hospital", "emergency": "yes", "healthcare": "hospital", "name": "Apollo Speciality Hospital - Block A", "operator": "Apollo Hospitals", "operator:wikidata": "Q4780321", "operator:wikipedia": "en:Apollo Hospitals"}}, {"type": "way", "id": 315499747, "nodes": [3216127292, 3216127296, 3216127294, 3216127299, 3216127297, 3216127298, 3216127293, 3216127295, 3216127292], "tags": {"amenity": "hospital", "emergency": "no", "healthcare": "hospital", "name": "Apollo Speciality Hospital - Block B"}}, {"type": "way", "id": 315499965, "nodes": [3216127211, 3216127210, 3216127214, 3216127213, 3216127212, 3216127208, 3216127209, 3216127211], "tags": {"amenity": "hospital", "emergency": "no", "healthcare": "hospital", "name": "Apollo Speciality Hospital - Block C"}}, {"type": "way", "id": 328706398, "nodes": [3355370344, 3355370345, 3355370346, 3355370347, 3355370344], "tags": {"addr:city": "Chennai", "addr:housenumber": "6", "addr:postcode": "600020", "addr:street": "16th Cross Street", "amenity": "hospital", "healthcare": "hospital", "name": "Chennai Clinical Centres", "operator": "Dr D Balakrishnan ENT Clinic", "phone": "+919841910001"}}, {"type": "way", "id": 337923794, "nodes": [3450011995, 3450009492, 3450009491, 3450009490, 3450009489, 3450009487, 3450009488, 3450011994, 3450011993, 3450011996, 3450011995], "tags": {"addr:block": "Chennai Zone X", "addr:district": "Chennai", "addr:full": "No.35, (Opp) To Saidapet Railway Station, Saidapet", "addr:housenumber": "35", "addr:postcode": "600015", "addr:state": "Tamil Nadu", "addr:street": "Karaneeswar Koil Street", "amenity": "hospital", "healthcare": "hospital", "name": "Chitra Maternity andSurgival Centre", "source": "OpenGovernmentData"}}, {"type": "way", "id": 337929079, "nodes": [3450050682, 3450050683, 3450050684, 3450050685, 3450050682], "tags": {"addr:city": "Saidapet", "addr:postcode": "600015", "addr:street": "Subramania Mudali Street", "amenity": "hospital", "building": "yes", "healthcare": "hospital", "name": "Bora Hospital"}}, {"type": "way", "id": 343141649, "nodes": [3500408327, 3500408332, 3500408331, 3500408328, 3500408333, 3500408329, 3500408330, 3500408327], "tags": {"addr:city": "Saidapet", "addr:postcode": "600015", "addr:street": "Anna Salai (Mount Road)", "amenity": "hospital", "healthcare": "hospital", "name": "Vasan"}}, {"type": "way", "id": 354810486, "nodes": [3604843284, 3604843264, 3604843266, 3604843287, 3604843284], "tags": {"amenity": "hospital", "building": "yes", "comment": "Private Nursing home", "healthcare": "hospital"}}, {"type": "way", "id": 355074781, "nodes": [3606874531, 3606874533, 3606874348, 3606874346, 3606874518, 3606874517, 3606874531], "tags": {"addr:street": "7th Cross Street, Rajalaksmi nagar", "amenity": "hospital", "building": "yes", "emergency": "yes", "name": "Xcellent Care Hospital", "operator": "Xcellent Care Super Speciality Hospital ( P ) Ltd.", "website": "http://xcellentcarehospital.com"}}, {"type": "way", "id": 364721502, "nodes": [3687685030, 3687685031, 3687685032, 3687685033, 3687685034, 3687685030], "tags": {"amenity": "hospital", "healthcare": "hospital", "name": "Athipathy Hospitals"}}, {"type": "way", "id": 374048313, "nodes": [3774527657, 3774527658, 3774527659, 3774527660, 3774527657], "tags": {"addr:city": "Chennai", "addr:district": "Chennai", "addr:full": "28, First Cross Street, Shastri Nagar Adya (Behind Of Adyas Depot)", "addr:housenumber": "28", "addr:postcode": "600020", "addr:state": "Tamil Nadu", "addr:street": "Shastri Nagar 1st Cross Street", "amenity": "hospital", "emergency": "yes", "healthcare": "hospital", "name": "Shivasundar Hospital"}}, {"type": "way", "id": 462740006, "nodes": [4580960018, 11757871795, 4580960020, 4580960021, 4580960018], "tags": {"amenity": "hospital", "healthcare": "hospital", "name": "corporation hospital"}}]}