{"version": 0.6, "generator": "Overpass API 0.7.62.8 e802775f", "osm3s": {"timestamp_osm_base": "2026-01-13T02:46:58Z", "copyright": "The data included in this document is from www.openstreetmap.org. The data is made available under ODbL."}, "elements": [{"type": "node", "id": 660109474, "lat": 17.3404117, "lon": 78.6259087, "tags": {"highway": "bus_stop", "name": "Kuntloor"}}, {"type": "node", "id": 1594518972, "lat": 17.3754928, "lon": 78.5579136, "tags": {"highway": "bus_stop", "local_ref": "Nagole", "name": "Nagole X Road", "name_1": "Nagole Cross Road", "operator": "APSRTC Hyderabad", "shelter": "no"}}, {"type": "node", "id": 2183029324, "lat": 17.3486646, "lon": 78.5490541, "tags": {"bus": "yes", "highway": "bus_stop", "name": "LB Nagar City Bus Stop", "public_transport": "platform"}}, {"type": "node", "id": 2183029331, "lat": 17.3462745, "lon": 78.5516485, "tags": {"highway": "bus_stop", "name": "LB Nagar Bus Stop"}}, {"type": "node", "id": 2183029338, "lat": 17.3458535, "lon": 78.5521977, "tags": {"highway": "bus_stop", "name": "LB Nagar"}}, {"type": "node", "id": 2185000162, "lat": 17.3384414, "lon": 78.5687124, "tags": {"alt_name": "Vanasthalipuram", "bus": "yes", "highway": "bus_stop", "name": "Panama", "public_transport": "platform"}}, {"type": "node", "id": 2185000163, "lat": 17.3379617, "lon": 78.5690846, "tags": {"bus": "yes", "highway": "bus_stop", "name": "Panama", "public_transport": "platform"}}, {"type": "node", "id": 2199508159, "lat": 17.3628066, "lon": 78.5438533, "tags": {"alt_name": "Asta Lakshmi", "highway": "bus_stop", "name": "Dwaraka Nagar"}}, {"type": "node", "id": 2199508160, "lat": 17.33679, "lon": 78.5741408, "tags": {"alt_name": "Sushma", "bus": "yes", "highway": "bus_stop", "name": "Vanasthalipuram", "public_transport": "platform"}}, {"type": "node", "id": 2199508162, "lat": 17.3327985, "lon": 78.5895099, "tags": {"bus": "yes", "highway": "bus_stop", "name": "Bhagyalatha", "public_transport": "platform"}}, {"type": "node", "id": 2199508163, "lat": 17.3301662, "lon": 78.5941849, "tags": {"bus": "yes", "highway": "bus_stop", "name": "Hayathnagar Bus Depot", "public_transport": "platform"}}, {"type": "node", "id": 2199508164, "lat": 17.3283254, "lon": 78.5995869, "tags": {"highway": "bus_stop", "name": "RTC Colony"}}, {"type": "node", "id": 2199508169, "lat": 17.3408353, "lon": 78.5625858, "tags": {"highway": "bus_stop", "name": "Chintalkunta"}}, {"type": "node", "id": 2199508171, "lat": 17.3548831, "lon": 78.5458945, "tags": {"highway": "bus_stop", "name": "NTR Nagar Bus Stop", "shelter": "yes"}}, {"type": "node", "id": 2199524801, "lat": 17.3425656, "lon": 78.5564492, "tags": {"highway": "bus_stop", "name": "Check Post"}}, {"type": "node", "id": 2199524802, "lat": 17.3365928, "lon": 78.5736125, "tags": {"alt_name": "Sushma", "bus": "yes", "highway": "bus_stop", "name": "Vanasthalipuram", "public_transport": "platform"}}, {"type": "node", "id": 2199524804, "lat": 17.3627858, "lon": 78.5435264, "tags": {"alt_name": "Asta Lakshmi", "highway": "bus_stop", "name": "Dwaraka Nagar"}}, {"type": "node", "id": 2199524806, "lat": 17.3348161, "lon": 78.5847838, "tags": {"bus": "yes", "highway": "bus_stop", "name": "High Court Colony", "public_transport": "platform"}}, {"type": "node", "id": 2217950117, "lat": 17.3307424, "lon": 78.6076925, "tags": {"highway": "bus_stop"}}, {"type": "node", "id": 2217950118, "lat": 17.3331355, "lon": 78.6114941, "tags": {"highway": "bus_stop"}}, {"type": "node", "id": 2217950126, "lat": 17.3361288, "lon": 78.6143188, "tags": {"highway": "bus_stop", "name": "Mother Dairy"}}, {"type": "node", "id": 2217950176, "lat": 17.3430236, "lon": 78.5563699, "tags": {"highway": "bus_stop", "name": "Check Post"}}, {"type": "node", "id": 2217950184, "lat": 17.336273, "lon": 78.5787408, "tags": {"bus": "yes", "highway": "bus_stop", "public_transport": "platform"}}, {"type": "node", "id": 2217960505, "lat": 17.3500083, "lon": 78.5475524, "tags": {"highway": "bus_stop", "name": "LB Nagar"}}, {"type": "node", "id": 2217960511, "lat": 17.355619, "lon": 78.5452928, "tags": {"highway": "bus_stop", "name": "Doctors Colony Bus Stop", "shelter": "no"}}, {"type": "node", "id": 2217960523, "lat": 17.3327498, "lon": 78.5890542, "tags": {"bus": "yes", "highway": "bus_stop", "name": "Bhagyalatha", "public_transport": "platform"}}, {"type": "node", "id": 2412780245, "lat": 17.3714708, "lon": 78.5694911, "tags": {"bus": "yes", "highway": "bus_stop", "name": "Bandlaguda", "operator": "APSRTC", "public_transport": "platform", "shelter": "no"}}, {"type": "node", "id": 2412783668, "lat": 17.3765096, "lon": 78.5589077, "tags": {"highway": "bus_stop", "local_ref": "Nagole", "name": "Nagole to Bandlaguda", "operator": "APSRTC Hyderabad", "shelter": "no"}}, {"type": "node", "id": 2412783670, "lat": 17.3762526, "lon": 78.557441, "tags": {"highway": "bus_stop", "local_ref": "Nagole", "name": "Nagole to Kothapet", "operator": "APSRTC Hyderabad", "shelter": "no"}}, {"type": "node", "id": 2412783672, "lat": 17.3774867, "lon": 78.5577208, "tags": {"highway": "bus_stop", "local_ref": "Nagole", "name": "Nagole X Road", "name_1": "Nagole Cross Road", "operator": "APSRTC Hyderabad", "shelter": "no"}}, {"type": "node", "id": 2422172971, "lat": 17.4016575, "lon": 78.5600634}, {"type": "node", "id": 2422172991, "lat": 17.3956921, "lon": 78.5593226}, {"type": "node", "id": 2422173009, "lat": 17.4000621, "lon": 78.5602104, "tags": {"name": "Uppal", "name:te": "\u0c09\u0c2a\u0c4d\u0c2a\u0c32\u0c4d", "network": "Hyderabad Metro", "note": "Contributors are requested to not edit the \"network\" and the \"operator\" tags. (2023/11/08)", "operator": "Hyderabad Metro Rail Limited", "public_transport": "stop_position", "railway": "stop", "subway": "yes"}}, {"type": "node", "id": 2422173011, "lat": 17.3914949, "lon": 78.5588479}, {"type": "node", "id": 2422173012, "lat": 17.3902374, "lon": 78.5587644}, {"type": "node", "id": 2422173016, "lat": 17.3852485, "lon": 78.5584436}, {"type": "node", "id": 2422173026, "lat": 17.3990669, "lon": 78.5601447}, {"type": "node", "id": 2422173042, "lat": 17.4189978, "lon": 78.5415557}, {"type": "node", "id": 2422173048, "lat": 17.4201642, "lon": 78.5405282, "tags": {"name": "Habsiguda", "name:te": "\u0c39\u0c2c\u0c4d\u0c38\u0c40\u0c17\u0c42\u0c21", "network": "Hyderabad Metro", "note": "Contributors are requested to not edit the \"network\" and the \"operator\" tags. (2023/11/08)", "operator": "Hyderabad Metro Rail Limited", "public_transport": "stop_position", "subway": "yes"}}, {"type": "node", "id": 2422173074, "lat": 17.3986136, "lon": 78.5600834}, {"type": "node", "id": 2422173091, "lat": 17.3948326, "lon": 78.5592034}, {"type": "node", "id": 2422173094, "lat": 17.4073799, "lon": 78.5542281, "tags": {"name": "Stadium", "name:te": "\u0c38\u0c4d\u0c1f\u0c47\u0c21\u0c3f\u0c2f\u0c02", "network": "Hyderabad Metro", "note": "Contributors are requested to not edit the \"network\" and the \"operator\" tags. (2023/11/08)", "operator": "Hyderabad Metro Rail Limited", "public_transport": "stop_position", "railway": "stop", "subway": "yes"}}, {"type": "node", "id": 2422173099, "lat": 17.40327, "lon": 78.557912}, {"type": "node", "id": 2422173106, "lat": 17.3864591, "lon": 78.5585221}, {"type": "node", "id": 2422173107, "lat": 17.4018993, "lon": 78.5598901}, {"type": "node", "id": 2422173113, "lat": 17.4148047, "lon": 78.5463149, "tags": {"name": "NGRI", "name:te": "\u0c0e\u0c28\u0c4d.\u0c1c\u0c3f.\u0c06\u0c30\u0c4d.\u0c10", "network": "Hyderabad Metro", "note": "Contributors are requested to not edit the \"network\" and the \"operator\" tags. (2023/11/08)", "operator": "Hyderabad Metro Rail Limited", "public_transport": "stop_position", "subway": "yes"}}, {"type": "node", "id": 2422988928, "lat": 17.3675923, "lon": 78.5398072}, {"type": "node", "id": 2422988929, "lat": 17.3642567, "lon": 78.5432238}, {"type": "node", "id": 2422988932, "lat": 17.3656826, "lon": 78.5423016}, {"type": "node", "id": 2422988985, "lat": 17.3664966, "lon": 78.5415131}, {"type": "node", "id": 2422989076, "lat": 17.3649479, "lon": 78.5428375}, {"type": "node", "id": 2422989119, "lat": 17.3474138, "lon": 78.5498869}, {"type": "node", "id": 2422989133, "lat": 17.3618565, "lon": 78.5439622, "tags": {"addr:city": "Hyderabad", "addr:city:ar": "\u062d\u064a\u062f\u0631 \u0622\u0628\u0627\u062f", "addr:city:ur": "\u062d\u06cc\u062f\u0631\u0622\u0628\u0627\u062f", "name": "Victoria Memorial", "name:ml": "\u0d35\u0d3f\u0d15\u0d4d\u0d1f\u0d4b\u0d31\u0d3f\u0d2f \u0d2e\u0d46\u0d2e\u0d4d\u0d2e\u0d4b\u0d31\u0d3f\u0d2f\u0d7d", "name:te": "\u0c35\u0c3f\u0c15\u0c4d\u0c1f\u0c4b\u0c30\u0c3f\u0c2f\u0c3e \u0c2e\u0c46\u0c2e\u0c4b\u0c30\u0c3f\u0c2f\u0c32\u0c4d", "network": "Hyderabad Metro", "note": "Contributors are requested to not edit the \"network\" and the \"operator\" tags. (2023/11/08)", "operator": "Hyderabad Metro Rail Limited", "public_transport": "stop_position", "public_transport:version": "2", "railway": "stop", "subway": "yes", "wheelchair": "yes"}}, {"type": "node", "id": 2422989150, "lat": 17.3671359, "lon": 78.540644}, {"type": "node", "id": 2422989201, "lat": 17.3679146, "lon": 78.5389972}, {"type": "node", "id": 2422989233, "lat": 17.3517626, "lon": 78.5466148}, {"type": "node", "id": 2422989248, "lat": 17.3510698, "lon": 78.546974}, {"type": "node", "id": 2422989258, "lat": 17.3635578, "lon": 78.5434979}, {"type": "node", "id": 2430216676, "lat": 17.3651918, "lon": 78.5568927, "tags": {"highway": "bus_stop", "name": "Alkapuri Bus Stop", "name:te": "\u0c05\u0c32\u0c4d\u0c15\u0c3e\u0c2a\u0c42\u0c30\u0c3f \u0c2c\u0c38\u0c4d \u0c38\u0c4d\u0c1f\u0c3e\u0c2a\u0c4d"}}, {"type": "node", "id": 2441134172, "lat": 17.4009716, "lon": 78.5602261}, {"type": "node", "id": 2584772012, "lat": 17.4007724, "lon": 78.5604947, "tags": {"bus": "yes", "highway": "bus_stop", "name": "Uppal 'X' Roads", "note": "LB Nagar Side", "operator": "APSRTC Hyderabad", "public_transport": "platform", "shelter": "yes"}}, {"type": "node", "id": 2584784370, "lat": 17.3980792, "lon": 78.5599376}, {"type": "node", "id": 2584784372, "lat": 17.3952971, "lon": 78.5592527}, {"type": "node", "id": 2584826484, "lat": 17.4023153, "lon": 78.5594562}, {"type": "node", "id": 2584826485, "lat": 17.403032, "lon": 78.5581561}, {"type": "node", "id": 2584826486, "lat": 17.4024971, "lon": 78.5590921}, {"type": "node", "id": 2584826487, "lat": 17.402922, "lon": 78.5582902}, {"type": "node", "id": 2584826488, "lat": 17.4027786, "lon": 78.5585235}, {"type": "node", "id": 2584838818, "lat": 17.417528, "lon": 78.5432115}, {"type": "node", "id": 2584838819, "lat": 17.4186297, "lon": 78.5419487}, {"type": "node", "id": 2584838820, "lat": 17.4119606, "lon": 78.5494086}, {"type": "node", "id": 2584838821, "lat": 17.4100482, "lon": 78.5515328}, {"type": "node", "id": 2584838822, "lat": 17.4090434, "lon": 78.5526332}, {"type": "node", "id": 2584838823, "lat": 17.408606, "lon": 78.5530969}, {"type": "node", "id": 2584838824, "lat": 17.4084284, "lon": 78.5532744}, {"type": "node", "id": 2584838825, "lat": 17.414039, "lon": 78.5471454}, {"type": "node", "id": 2584838826, "lat": 17.4143925, "lon": 78.5467715}, {"type": "node", "id": 2584838827, "lat": 17.4193468, "lon": 78.5411592}, {"type": "node", "id": 2585284355, "lat": 17.4016547, "lon": 78.5688139, "tags": {"highway": "bus_stop", "name": "Uppal", "operator": "APSRTC", "shelter": "yes"}}, {"type": "node", "id": 2585317337, "lat": 17.4016983, "lon": 78.56019, "tags": {"highway": "bus_stop", "name": "Uppal 'X' Road", "operator": "APSRTC Hyderabad", "shelter": "yes"}}, {"type": "node", "id": 2585318421, "lat": 17.4013224, "lon": 78.5596644, "tags": {"bus": "yes", "highway": "bus_stop", "name": "Uppal Circle", "public_transport": "platform", "shelter": "no"}}, {"type": "node", "id": 2592338052, "lat": 17.4013482, "lon": 78.560167}, {"type": "node", "id": 2912526828, "lat": 17.4025065, "lon": 78.5594709, "tags": {"highway": "bus_stop", "name": "Uppal Ring Road", "name:ja": "\u30ef\u30e9\u30f3\u30ac\u30eb", "network": "Uppal X road to Hanamkonda", "operator": "TSSRTC"}}, {"type": "node", "id": 3624714864, "lat": 17.3746373, "lon": 78.5606156, "tags": {"bus": "yes", "highway": "bus_stop", "operator": "APSRTC Hyderabad", "public_transport": "platform"}}, {"type": "node", "id": 4332315990, "lat": 17.349846, "lon": 78.5479412, "tags": {"addr:city": "Hyderabad", "addr:city:ar": "\u062d\u064a\u062f\u0631 \u0622\u0628\u0627\u062f", "addr:city:ur": "\u062d\u06cc\u062f\u0631\u0622\u0628\u0627\u062f", "name": "L. B. Nagar", "name:ml": "\u0d0e\u0d7d \u0d2c\u0d3f \u0d28\u0d17\u0d7c", "name:te": "\u0c0e\u0c32\u0c4d.\u0c2c\u0c3f. \u0c28\u0c17\u0c30\u0c4d", "network": "Hyderabad Metro", "note": "Contributors are requested to not edit the \"network\" and the \"operator\" tags. (2023/11/08)", "operator": "Hyderabad Metro Rail Limited", "public_transport": "stop_position", "public_transport:version": "2", "railway": "stop", "subway": "yes", "wheelchair": "yes"}}, {"type": "node", "id": 4382893291, "lat": 17.412183, "lon": 78.5856175, "tags": {"artwork_type": "statue", "bus": "yes", "highway": "bus_stop", "material": "metal", "name": "Boduppal NTR Statue;NTR Statue", "name:en": "Boduppal NTR Statue", "public_transport": "platform", "tourism": "artwork"}}, {"type": "node", "id": 4427688100, "lat": 17.4020163, "lon": 78.5597253, "tags": {"bench": "yes", "highway": "bus_stop", "name": "Uppal to secundrabad bustop", "name:en": "Uppal to secundrabad bustop", "name:hi": "uppal to secundrabad bustop", "shelter": "yes"}}, {"type": "node", "id": 4575058291, "lat": 17.3473025, "lon": 78.5515143, "tags": {"highway": "bus_stop", "name": "Lb Nagar to Uppal", "name:en": "Lb Nagar to Uppal"}}, {"type": "node", "id": 4575180816, "lat": 17.3472324, "lon": 78.5498097, "tags": {"highway": "bus_stop", "name": "Lb Nagar City Bus Stop", "name:en": "Lb Nagar"}}, {"type": "node", "id": 4576325295, "lat": 17.3525557, "lon": 78.555611, "tags": {"highway": "bus_stop", "name": "Kamineni bus stop", "name:en": "Kamineni bus stop"}}, {"type": "node", "id": 4576325296, "lat": 17.3531037, "lon": 78.5555993, "tags": {"highway": "bus_stop", "name": "Kamineni to Uppal", "name:en": "Kamineni to Uppal"}}, {"type": "node", "id": 4791192809, "lat": 17.3792607, "lon": 78.5724297, "tags": {"bus": "yes", "highway": "bus_stop", "name": "Jaipuri Last bus stop", "public_transport": "platform"}}, {"type": "node", "id": 4978986461, "lat": 17.3627658, "lon": 78.5638404, "tags": {"highway": "bus_stop", "name": "Chanikyapuri Colony Bus Stop"}}, {"type": "node", "id": 5429308731, "lat": 17.4006322, "lon": 78.5602301}, {"type": "node", "id": 5432858082, "lat": 17.401622, "lon": 78.5596839, "tags": {"highway": "bus_stop", "name": "Uppal 'X' Road Bus Stop", "name:en": "Uppal 'X' Road Bus Stop"}}, {"type": "node", "id": 5787788248, "lat": 17.3736483, "lon": 78.5013364}, {"type": "node", "id": 5787788251, "lat": 17.3728853, "lon": 78.5068231}, {"type": "node", "id": 5787788257, "lat": 17.3699526, "lon": 78.5141231}, {"type": "node", "id": 5787788260, "lat": 17.3686195, "lon": 78.5219622}, {"type": "node", "id": 5787788261, "lat": 17.3685227, "lon": 78.5257174, "tags": {"addr:city": "Hyderabad", "addr:city:ar": "\u062d\u064a\u062f\u0631 \u0622\u0628\u0627\u062f", "addr:city:ur": "\u062d\u06cc\u062f\u0631\u0622\u0628\u0627\u062f", "name": "Dilsukh Nagar", "name:ml": "\u0d26\u0d3f\u0d7d\u0d38\u0d41\u0d16\u0d4d\u0d28\u0d17\u0d7c", "name:te": "\u0c26\u0c3f\u0c32\u0c4d\u200c\u0c38\u0c41\u0c16\u0c4d\u200c\u0c28\u0c17\u0c30\u0c4d", "network": "Hyderabad Metro", "note": "Contributors are requested to not edit the \"network\" and the \"operator\" tags. (2023/11/08)", "operator": "Hyderabad Metro Rail Limited", "public_transport": "stop_position", "public_transport:version": "2", "railway": "stop", "subway": "yes", "wheelchair": "yes"}}, {"type": "node", "id": 5787788262, "lat": 17.3682308, "lon": 78.5368602}, {"type": "node", "id": 5787788263, "lat": 17.3680971, "lon": 78.5381201}, {"type": "node", "id": 5787788264, "lat": 17.3678685, "lon": 78.5389749}, {"type": "node", "id": 5787788265, "lat": 17.3675526, "lon": 78.5397751}, {"type": "node", "id": 5787788266, "lat": 17.3670932, "lon": 78.5406065}, {"type": "node", "id": 5787788267, "lat": 17.3664491, "lon": 78.5414672}, {"type": "node", "id": 5787788268, "lat": 17.3656422, "lon": 78.5422489}, {"type": "node", "id": 5787788269, "lat": 17.3649143, "lon": 78.5427799}, {"type": "node", "id": 5787788270, "lat": 17.3642302, "lon": 78.5431622}, {"type": "node", "id": 5787788271, "lat": 17.3635384, "lon": 78.5434335}, {"type": "node", "id": 5787788272, "lat": 17.3618406, "lon": 78.5438968, "tags": {"addr:city": "Hyderabad", "addr:city:ar": "\u062d\u064a\u062f\u0631 \u0622\u0628\u0627\u062f", "addr:city:ur": "\u062d\u06cc\u062f\u0631\u0622\u0628\u0627\u062f", "name": "Victoria Memorial", "name:ml": "\u0d35\u0d3f\u0d15\u0d4d\u0d1f\u0d4b\u0d31\u0d3f\u0d2f \u0d2e\u0d46\u0d2e\u0d4d\u0d2e\u0d4b\u0d31\u0d3f\u0d2f\u0d7d", "name:te": "\u0c35\u0c3f\u0c15\u0c4d\u0c1f\u0c4b\u0c30\u0c3f\u0c2f\u0c3e \u0c2e\u0c46\u0c2e\u0c4b\u0c30\u0c3f\u0c2f\u0c32\u0c4d", "network": "Hyderabad Metro", "note": "Contributors are requested to not edit the \"network\" and the \"operator\" tags. (2023/11/08)", "operator": "Hyderabad Metro Rail Limited", "public_transport": "stop_position", "public_transport:version": "2", "railway": "stop", "subway": "yes", "wheelchair": "yes"}}, {"type": "node", "id": 5787788273, "lat": 17.3517239, "lon": 78.5465519}, {"type": "node", "id": 5787788274, "lat": 17.3510352, "lon": 78.5469169}, {"type": "node", "id": 5787788275, "lat": 17.3498071, "lon": 78.5478875, "tags": {"addr:city": "Hyderabad", "addr:city:ar": "\u062d\u064a\u062f\u0631 \u0622\u0628\u0627\u062f", "addr:city:ur": "\u062d\u06cc\u062f\u0631\u0622\u0628\u0627\u062f", "name": "L. B. Nagar", "name:ml": "\u0d0e\u0d7d \u0d2c\u0d3f \u0d28\u0d17\u0d7c", "name:te": "\u0c0e\u0c32\u0c4d.\u0c2c\u0c3f. \u0c28\u0c17\u0c30\u0c4d", "network": "Hyderabad Metro", "note": "Contributors are requested to not edit the \"network\" and the \"operator\" tags. (2023/11/08)", "operator": "Hyderabad Metro Rail Limited", "public_transport": "stop_position", "public_transport:version": "2", "railway": "stop", "subway": "yes", "wheelchair": "yes"}}, {"type": "node", "id": 5787788276, "lat": 17.3473727, "lon": 78.5498349}, {"type": "node", "id": 5787788277, "lat": 17.346896, "lon": 78.550283}, {"type": "node", "id": 5787788279, "lat": 17.3465677, "lon": 78.5507055}, {"type": "node", "id": 5787788280, "lat": 17.3466176, "lon": 78.5507481}, {"type": "node", "id": 5787788281, "lat": 17.3469427, "lon": 78.5503297}, {"type": "node", "id": 5787788729, "lat": 17.3993608, "lon": 78.5601961}, {"type": "node", "id": 5787788730, "lat": 17.399064, "lon": 78.5601754}, {"type": "node", "id": 5787788731, "lat": 17.3986097, "lon": 78.5601217}, {"type": "node", "id": 5787788732, "lat": 17.3980655, "lon": 78.5599936}, {"type": "node", "id": 5787788733, "lat": 17.39568, "lon": 78.559379}, {"type": "node", "id": 5787788734, "lat": 17.3952897, "lon": 78.55931}, {"type": "node", "id": 5787788735, "lat": 17.3948276, "lon": 78.5592609}, {"type": "node", "id": 5787788736, "lat": 17.3914923, "lon": 78.5588905}, {"type": "node", "id": 5787788737, "lat": 17.3902349, "lon": 78.5588069}, {"type": "node", "id": 5787788738, "lat": 17.3864537, "lon": 78.558561, "tags": {"railway": "switch"}}, {"type": "node", "id": 5787788739, "lat": 17.4033072, "lon": 78.5579546}, {"type": "node", "id": 5787788740, "lat": 17.4030722, "lon": 78.5581956}, {"type": "node", "id": 5787788741, "lat": 17.4029663, "lon": 78.5583248}, {"type": "node", "id": 5787788742, "lat": 17.4028263, "lon": 78.5585525}, {"type": "node", "id": 5787788743, "lat": 17.4025456, "lon": 78.5591196}, {"type": "node", "id": 5787788744, "lat": 17.4023527, "lon": 78.5594827}, {"type": "node", "id": 5787788745, "lat": 17.4019285, "lon": 78.5599272}, {"type": "node", "id": 5787788746, "lat": 17.401667, "lon": 78.5601055}, {"type": "node", "id": 5787788747, "lat": 17.4013565, "lon": 78.5602129}, {"type": "node", "id": 5787788748, "lat": 17.4009694, "lon": 78.5602732}, {"type": "node", "id": 5787788749, "lat": 17.4006295, "lon": 78.5602744}, {"type": "node", "id": 5787788750, "lat": 17.4144331, "lon": 78.5468105}, {"type": "node", "id": 5787788751, "lat": 17.414079, "lon": 78.5471852}, {"type": "node", "id": 5787788752, "lat": 17.4120006, "lon": 78.5494483}, {"type": "node", "id": 5787788853, "lat": 17.4100882, "lon": 78.5515725}, {"type": "node", "id": 5787788854, "lat": 17.4090833, "lon": 78.552673}, {"type": "node", "id": 5787788855, "lat": 17.4086452, "lon": 78.5531376}, {"type": "node", "id": 5787788856, "lat": 17.4084647, "lon": 78.5533179}, {"type": "node", "id": 5787788857, "lat": 17.4193812, "lon": 78.5412044}, {"type": "node", "id": 5787788858, "lat": 17.419036, "lon": 78.5415974}, {"type": "node", "id": 5787788859, "lat": 17.4186697, "lon": 78.5419884}, {"type": "node", "id": 5787788860, "lat": 17.4175689, "lon": 78.5432502}, {"type": "node", "id": 5787788971, "lat": 17.3852449, "lon": 78.5584865}, {"type": "node", "id": 5787788972, "lat": 17.4000599, "lon": 78.560246, "tags": {"name": "Uppal", "name:te": "\u0c09\u0c2a\u0c4d\u0c2a\u0c32\u0c4d", "network": "Hyderabad Metro", "note": "Contributors are requested to not edit the \"network\" and the \"operator\" tags. (2023/11/08)", "operator": "Hyderabad Metro Rail Limited", "public_transport": "stop_position", "railway": "stop", "subway": "yes"}}, {"type": "node", "id": 5787788973, "lat": 17.407415, "lon": 78.5542726, "tags": {"name": "Stadium", "name:te": "\u0c38\u0c4d\u0c1f\u0c47\u0c21\u0c3f\u0c2f\u0c02", "network": "Hyderabad Metro", "note": "Contributors are requested to not edit the \"network\" and the \"operator\" tags. (2023/11/08)", "operator": "Hyderabad Metro Rail Limited", "public_transport": "stop_position", "railway": "stop", "subway": "yes"}}, {"type": "node", "id": 5787788974, "lat": 17.4148457, "lon": 78.5463534, "tags": {"name": "NGRI", "name:te": "\u0c0e\u0c28\u0c4d.\u0c1c\u0c3f.\u0c06\u0c30\u0c4d.\u0c10", "network": "Hyderabad Metro", "note": "Contributors are requested to not edit the \"network\" and the \"operator\" tags. (2023/11/08)", "operator": "Hyderabad Metro Rail Limited", "public_transport": "stop_position", "subway": "yes"}}, {"type": "node", "id": 5787788975, "lat": 17.4201948, "lon": 78.540572, "tags": {"name": "Habsiguda", "name:te": "\u0c39\u0c2c\u0c4d\u0c38\u0c40\u0c17\u0c42\u0c21", "network": "Hyderabad Metro", "note": "Contributors are requested to not edit the \"network\" and the \"operator\" tags. (2023/11/08)", "operator": "Hyderabad Metro Rail Limited", "public_transport": "stop_position", "subway": "yes"}}, {"type": "node", "id": 5826355255, "lat": 17.3297742, "lon": 78.5791414, "tags": {"bench": "no", "bus": "yes", "highway": "bus_stop", "lit": "no", "name": "kamala nagar bus stop", "public_transport": "platform", "ref": "tsrtc", "shelter": "no"}}, {"type": "node", "id": 5941037585, "lat": 17.3870145, "lon": 78.5585527, "tags": {"railway": "switch"}}, {"type": "node", "id": 5941037586, "lat": 17.3871868, "lon": 78.5586054}, {"type": "node", "id": 5941037587, "lat": 17.3871854, "lon": 78.5585626}, {"type": "node", "id": 5941037588, "lat": 17.3880517, "lon": 78.5586186}, {"type": "node", "id": 5941037589, "lat": 17.3880518, "lon": 78.5586573}, {"type": "node", "id": 5941037590, "lat": 17.3873674, "lon": 78.5585639}, {"type": "node", "id": 5941037591, "lat": 17.3880568, "lon": 78.5585309}, {"type": "node", "id": 5941037592, "lat": 17.3880611, "lon": 78.5585703}, {"type": "node", "id": 5941037593, "lat": 17.387664, "lon": 78.5585935}, {"type": "node", "id": 5941037594, "lat": 17.3873696, "lon": 78.5586057}, {"type": "node", "id": 5941037595, "lat": 17.3868382, "lon": 78.5585524}, {"type": "node", "id": 5941037596, "lat": 17.3866356, "lon": 78.558563}, {"type": "node", "id": 5941037597, "lat": 17.3902777, "lon": 78.5584311}, {"type": "node", "id": 5941037598, "lat": 17.3902807, "lon": 78.5584692}, {"type": "node", "id": 5941037599, "lat": 17.3903883, "lon": 78.5584565}, {"type": "node", "id": 5941037600, "lat": 17.3904717, "lon": 78.5584422}, {"type": "node", "id": 5941037601, "lat": 17.3905717, "lon": 78.5584137}, {"type": "node", "id": 5941037602, "lat": 17.3906657, "lon": 78.5583755}, {"type": "node", "id": 5941037603, "lat": 17.3907597, "lon": 78.5583311}, {"type": "node", "id": 5941037604, "lat": 17.3908552, "lon": 78.5582755}, {"type": "node", "id": 5941037605, "lat": 17.3909446, "lon": 78.558204}, {"type": "node", "id": 5941037606, "lat": 17.3910219, "lon": 78.5581294}, {"type": "node", "id": 5941037607, "lat": 17.3910946, "lon": 78.5580484}, {"type": "node", "id": 5941037608, "lat": 17.3911628, "lon": 78.5579483}, {"type": "node", "id": 5941037609, "lat": 17.3912174, "lon": 78.5578578}, {"type": "node", "id": 5941037610, "lat": 17.3912553, "lon": 78.55778}, {"type": "node", "id": 5941037611, "lat": 17.3913068, "lon": 78.557618}, {"type": "node", "id": 5941037612, "lat": 17.391322, "lon": 78.5575433}, {"type": "node", "id": 5941037613, "lat": 17.3913371, "lon": 78.5574464}, {"type": "node", "id": 5941037614, "lat": 17.3913417, "lon": 78.5573511}, {"type": "node", "id": 5941037615, "lat": 17.391322, "lon": 78.556881}, {"type": "node", "id": 5941037616, "lat": 17.3912818, "lon": 78.5577037}, {"type": "node", "id": 5941037617, "lat": 17.3903838, "lon": 78.55842}, {"type": "node", "id": 5941037618, "lat": 17.3904656, "lon": 78.5584057}, {"type": "node", "id": 5941037619, "lat": 17.3905642, "lon": 78.5583787}, {"type": "node", "id": 5941037620, "lat": 17.3906505, "lon": 78.5583438}, {"type": "node", "id": 5941037621, "lat": 17.390746, "lon": 78.5582945}, {"type": "node", "id": 5941037622, "lat": 17.3908294, "lon": 78.558239}, {"type": "node", "id": 5941037623, "lat": 17.3909158, "lon": 78.5581659}, {"type": "node", "id": 5941037624, "lat": 17.3909946, "lon": 78.5580944}, {"type": "node", "id": 5941037625, "lat": 17.3910673, "lon": 78.5580102}, {"type": "node", "id": 5941037626, "lat": 17.3911265, "lon": 78.5579229}, {"type": "node", "id": 5941037627, "lat": 17.391175, "lon": 78.557834}, {"type": "node", "id": 5941037628, "lat": 17.3912098, "lon": 78.5577609}, {"type": "node", "id": 5941037629, "lat": 17.3912386, "lon": 78.5576878}, {"type": "node", "id": 5941037630, "lat": 17.3912613, "lon": 78.5576068}, {"type": "node", "id": 5941037631, "lat": 17.3912765, "lon": 78.557529}, {"type": "node", "id": 5941037632, "lat": 17.3912886, "lon": 78.5574369}, {"type": "node", "id": 5941037633, "lat": 17.3912917, "lon": 78.5573543}, {"type": "node", "id": 5941037634, "lat": 17.3912765, "lon": 78.5568826}, {"type": "node", "id": 5941037635, "lat": 17.391228, "lon": 78.5558677, "tags": {"railway": "switch"}}, {"type": "node", "id": 5941037636, "lat": 17.3912083, "lon": 78.555485}, {"type": "node", "id": 5941037637, "lat": 17.3912042, "lon": 78.5554183, "tags": {"railway": "switch"}}, {"type": "node", "id": 5941037638, "lat": 17.3911931, "lon": 78.5553134}, {"type": "node", "id": 5941037639, "lat": 17.391175, "lon": 78.5552229}, {"type": "node", "id": 5941037640, "lat": 17.3911462, "lon": 78.555126}, {"type": "node", "id": 5941037641, "lat": 17.3911204, "lon": 78.5550545}, {"type": "node", "id": 5941037642, "lat": 17.3910855, "lon": 78.5549815}, {"type": "node", "id": 5941037643, "lat": 17.3910507, "lon": 78.5549116}, {"type": "node", "id": 5941037644, "lat": 17.3908142, "lon": 78.5545717}, {"type": "node", "id": 5941037645, "lat": 17.3907506, "lon": 78.5544971}, {"type": "node", "id": 5941037646, "lat": 17.3906763, "lon": 78.5544208}, {"type": "node", "id": 5941037647, "lat": 17.3905914, "lon": 78.5543525}, {"type": "node", "id": 5941037648, "lat": 17.3905035, "lon": 78.5542954}, {"type": "node", "id": 5941037649, "lat": 17.390408, "lon": 78.5542461}, {"type": "node", "id": 5941037650, "lat": 17.3903217, "lon": 78.5542128}, {"type": "node", "id": 5941037651, "lat": 17.3901743, "lon": 78.5541678, "tags": {"railway": "switch"}}, {"type": "node", "id": 5941037652, "lat": 17.38919, "lon": 78.5539032, "tags": {"railway": "switch"}}, {"type": "node", "id": 5941037653, "lat": 17.3887046, "lon": 78.5537709, "tags": {"railway": "switch"}}, {"type": "node", "id": 5941037654, "lat": 17.3883058, "lon": 78.5536585}, {"type": "node", "id": 5941037655, "lat": 17.3882088, "lon": 78.5536347}, {"type": "node", "id": 5941037656, "lat": 17.3881164, "lon": 78.553614}, {"type": "node", "id": 5941037657, "lat": 17.3880118, "lon": 78.553595, "tags": {"railway": "level_crossing"}}, {"type": "node", "id": 5941037658, "lat": 17.3864628, "lon": 78.5533615, "tags": {"railway": "buffer_stop"}}, {"type": "node", "id": 5941037659, "lat": 17.3900345, "lon": 78.5541381}, {"type": "node", "id": 5941037660, "lat": 17.3899329, "lon": 78.5541216}, {"type": "node", "id": 5941037661, "lat": 17.3898112, "lon": 78.5541053, "tags": {"railway": "switch"}}, {"type": "node", "id": 5941037662, "lat": 17.3887609, "lon": 78.5539824, "tags": {"railway": "switch"}}, {"type": "node", "id": 5941037663, "lat": 17.388694, "lon": 78.5539796}, {"type": "node", "id": 5941037664, "lat": 17.3886298, "lon": 78.5539782}, {"type": "node", "id": 5941037665, "lat": 17.38848, "lon": 78.553981}, {"type": "node", "id": 5941037666, "lat": 17.3884131, "lon": 78.553981}, {"type": "node", "id": 5941037667, "lat": 17.3883556, "lon": 78.5539768}, {"type": "node", "id": 5941037668, "lat": 17.3882793, "lon": 78.5539698}, {"type": "node", "id": 5941037669, "lat": 17.388096, "lon": 78.5539414, "tags": {"railway": "level_crossing"}}, {"type": "node", "id": 5941037671, "lat": 17.3864183, "lon": 78.553688, "tags": {"railway": "buffer_stop"}}, {"type": "node", "id": 5941037672, "lat": 17.3884117, "lon": 78.5539473}, {"type": "node", "id": 5941037673, "lat": 17.3882539, "lon": 78.5539277}, {"type": "node", "id": 5941037674, "lat": 17.3880958, "lon": 78.5538985, "tags": {"railway": "level_crossing"}}, {"type": "node", "id": 5941037675, "lat": 17.386425, "lon": 78.5536473, "tags": {"railway": "buffer_stop"}}, {"type": "node", "id": 5941037690, "lat": 17.3896176, "lon": 78.5540187, "tags": {"railway": "switch"}}, {"type": "node", "id": 5941037691, "lat": 17.3894996, "lon": 78.5539793}, {"type": "node", "id": 5941037692, "lat": 17.3894137, "lon": 78.5539466}, {"type": "node", "id": 5941037693, "lat": 17.3892664, "lon": 78.55388}, {"type": "node", "id": 5941037694, "lat": 17.3891839, "lon": 78.5538461}, {"type": "node", "id": 5941037695, "lat": 17.3890846, "lon": 78.5538133, "tags": {"railway": "switch"}}, {"type": "node", "id": 5941037696, "lat": 17.3885123, "lon": 78.5536402, "tags": {"railway": "switch"}}, {"type": "node", "id": 5941037697, "lat": 17.3883587, "lon": 78.553605}, {"type": "node", "id": 5941037698, "lat": 17.3882611, "lon": 78.5535899}, {"type": "node", "id": 5941037699, "lat": 17.3864677, "lon": 78.5533166, "tags": {"railway": "buffer_stop"}}, {"type": "node", "id": 5941037700, "lat": 17.3884379, "lon": 78.5536209}, {"type": "node", "id": 5941037701, "lat": 17.3882083, "lon": 78.5535496}, {"type": "node", "id": 5941037702, "lat": 17.3881139, "lon": 78.5535228}, {"type": "node", "id": 5941037703, "lat": 17.3880257, "lon": 78.5535025, "tags": {"railway": "level_crossing"}}, {"type": "node", "id": 5941037704, "lat": 17.3879299, "lon": 78.5534859}, {"type": "node", "id": 5941037705, "lat": 17.3864741, "lon": 78.5532646, "tags": {"railway": "buffer_stop"}}, {"type": "node", "id": 5941037706, "lat": 17.3912135, "lon": 78.5554843}, {"type": "node", "id": 5941037707, "lat": 17.3912408, "lon": 78.5556443}, {"type": "node", "id": 5941037708, "lat": 17.3912651, "lon": 78.5557901}, {"type": "node", "id": 5941037709, "lat": 17.3912749, "lon": 78.5558696, "tags": {"railway": "switch"}}, {"type": "node", "id": 5941037710, "lat": 17.3912916, "lon": 78.5561423, "tags": {"railway": "switch"}}, {"type": "node", "id": 5941037711, "lat": 17.3912982, "lon": 78.5562047}, {"type": "node", "id": 5941037712, "lat": 17.3913076, "lon": 78.556271}, {"type": "node", "id": 5941037713, "lat": 17.3913512, "lon": 78.5565624}, {"type": "node", "id": 5941037714, "lat": 17.3913611, "lon": 78.556665}, {"type": "node", "id": 5941037715, "lat": 17.3913665, "lon": 78.5567697, "tags": {"railway": "switch"}}, {"type": "node", "id": 5941037716, "lat": 17.3913835, "lon": 78.557352}, {"type": "node", "id": 5941037717, "lat": 17.3913797, "lon": 78.557461}, {"type": "node", "id": 5941037718, "lat": 17.3913668, "lon": 78.5576092}, {"type": "node", "id": 5941037719, "lat": 17.3913514, "lon": 78.5577277}, {"type": "node", "id": 5941037720, "lat": 17.3913308, "lon": 78.5578448}, {"type": "node", "id": 5941037721, "lat": 17.391291, "lon": 78.5580011}, {"type": "node", "id": 5941037722, "lat": 17.3912537, "lon": 78.5581223}, {"type": "node", "id": 5941037723, "lat": 17.3911676, "lon": 78.5583512, "tags": {"railway": "buffer_stop"}}, {"type": "node", "id": 5941037724, "lat": 17.3895621, "lon": 78.5539549}, {"type": "node", "id": 5941037725, "lat": 17.3896543, "lon": 78.5539782}, {"type": "node", "id": 5941037726, "lat": 17.3897432, "lon": 78.5539916}, {"type": "node", "id": 5941037727, "lat": 17.3898322, "lon": 78.5539982}, {"type": "node", "id": 5941037728, "lat": 17.3900181, "lon": 78.5540099, "tags": {"railway": "switch"}}, {"type": "node", "id": 5941037729, "lat": 17.3901373, "lon": 78.5540199}, {"type": "node", "id": 5941037730, "lat": 17.3902437, "lon": 78.5540299}, {"type": "node", "id": 5941037731, "lat": 17.3903311, "lon": 78.5540448}, {"type": "node", "id": 5941037732, "lat": 17.3904248, "lon": 78.5540682}, {"type": "node", "id": 5941037733, "lat": 17.3905265, "lon": 78.5540965, "tags": {"railway": "switch"}}, {"type": "node", "id": 5941037734, "lat": 17.3906439, "lon": 78.5541427}, {"type": "node", "id": 5941037735, "lat": 17.3907648, "lon": 78.5542063}, {"type": "node", "id": 5941037736, "lat": 17.3908808, "lon": 78.5542946}, {"type": "node", "id": 5941037737, "lat": 17.3909714, "lon": 78.5543928}, {"type": "node", "id": 5941037738, "lat": 17.3910476, "lon": 78.554501}, {"type": "node", "id": 5941037739, "lat": 17.3911112, "lon": 78.5546259}, {"type": "node", "id": 5941037740, "lat": 17.3911559, "lon": 78.554746}, {"type": "node", "id": 5941037741, "lat": 17.3911874, "lon": 78.5548574}, {"type": "node", "id": 5941037742, "lat": 17.391221, "lon": 78.5550218, "tags": {"railway": "switch"}}, {"type": "node", "id": 5941037743, "lat": 17.3912379, "lon": 78.5551396}, {"type": "node", "id": 5941037744, "lat": 17.3912482, "lon": 78.5552548, "tags": {"railway": "switch"}}, {"type": "node", "id": 5941037745, "lat": 17.3912526, "lon": 78.5554167, "tags": {"railway": "switch"}}, {"type": "node", "id": 5941037746, "lat": 17.391251, "lon": 78.5554966}, {"type": "node", "id": 5941037747, "lat": 17.391232, "lon": 78.5557485}, {"type": "node", "id": 5941037748, "lat": 17.3912288, "lon": 78.5558074}, {"type": "node", "id": 5941037749, "lat": 17.3896962, "lon": 78.5541016}, {"type": "node", "id": 5941037750, "lat": 17.3895967, "lon": 78.5541063}, {"type": "node", "id": 5941037751, "lat": 17.3894963, "lon": 78.5541198}, {"type": "node", "id": 5941037752, "lat": 17.3893974, "lon": 78.5541409}, {"type": "node", "id": 5941037753, "lat": 17.3891766, "lon": 78.5541965, "tags": {"railway": "switch"}}, {"type": "node", "id": 5941037754, "lat": 17.3889873, "lon": 78.5542476}, {"type": "node", "id": 5941037755, "lat": 17.3888927, "lon": 78.5542806}, {"type": "node", "id": 5941037756, "lat": 17.3886002, "lon": 78.5543978, "tags": {"railway": "switch"}}, {"type": "node", "id": 5941037757, "lat": 17.3884338, "lon": 78.5544684}, {"type": "node", "id": 5941037758, "lat": 17.3883016, "lon": 78.5545122}, {"type": "node", "id": 5941037759, "lat": 17.3881875, "lon": 78.5545395}, {"type": "node", "id": 5941037760, "lat": 17.3881302, "lon": 78.5545468}, {"type": "node", "id": 5941037761, "lat": 17.3880092, "lon": 78.5545496, "tags": {"railway": "level_crossing"}}, {"type": "node", "id": 5941037762, "lat": 17.3879122, "lon": 78.5545409}, {"type": "node", "id": 5941037763, "lat": 17.3874621, "lon": 78.5544708}, {"type": "node", "id": 5941037764, "lat": 17.3871966, "lon": 78.5544315}, {"type": "node", "id": 5941037765, "lat": 17.3871364, "lon": 78.5544191}, {"type": "node", "id": 5941037766, "lat": 17.3870845, "lon": 78.5544053}, {"type": "node", "id": 5941037767, "lat": 17.3868852, "lon": 78.5543482}, {"type": "node", "id": 5941037768, "lat": 17.386815, "lon": 78.5543287}, {"type": "node", "id": 5941037769, "lat": 17.3867332, "lon": 78.5543107, "tags": {"railway": "switch"}}, {"type": "node", "id": 5941037770, "lat": 17.386369, "lon": 78.5542551, "tags": {"railway": "buffer_stop"}}, {"type": "node", "id": 5941037771, "lat": 17.3874706, "lon": 78.5544337}, {"type": "node", "id": 5941037772, "lat": 17.3879188, "lon": 78.5545048}, {"type": "node", "id": 5941037773, "lat": 17.3880149, "lon": 78.5545136, "tags": {"railway": "level_crossing"}}, {"type": "node", "id": 5941037774, "lat": 17.3881149, "lon": 78.5545131}, {"type": "node", "id": 5941037775, "lat": 17.3882297, "lon": 78.5545003}, {"type": "node", "id": 5941037776, "lat": 17.3882871, "lon": 78.5544869}, {"type": "node", "id": 5941037777, "lat": 17.3883969, "lon": 78.554461}, {"type": "node", "id": 5941037778, "lat": 17.3885031, "lon": 78.5544308}, {"type": "node", "id": 5941037779, "lat": 17.3893492, "lon": 78.5541643}, {"type": "node", "id": 5941037780, "lat": 17.3895046, "lon": 78.5541483}, {"type": "node", "id": 5941037781, "lat": 17.3896143, "lon": 78.554144}, {"type": "node", "id": 5941037782, "lat": 17.3897184, "lon": 78.5541498}, {"type": "node", "id": 5941037783, "lat": 17.3898267, "lon": 78.5541658}, {"type": "node", "id": 5941037784, "lat": 17.3899516, "lon": 78.5541949}, {"type": "node", "id": 5941037785, "lat": 17.390232, "lon": 78.5542705, "tags": {"railway": "buffer_stop"}}, {"type": "node", "id": 5941037816, "lat": 17.3902746, "lon": 78.5540131}, {"type": "node", "id": 5941037817, "lat": 17.3901953, "lon": 78.5539891}, {"type": "node", "id": 5941037818, "lat": 17.3901014, "lon": 78.5539628}, {"type": "node", "id": 5941037819, "lat": 17.3897843, "lon": 78.5539016}, {"type": "node", "id": 5941037820, "lat": 17.3896925, "lon": 78.5538776}, {"type": "node", "id": 5941037821, "lat": 17.3895986, "lon": 78.5538404}, {"type": "node", "id": 5941037822, "lat": 17.3895088, "lon": 78.5537967}, {"type": "node", "id": 5941037823, "lat": 17.3894212, "lon": 78.5537442}, {"type": "node", "id": 5941037824, "lat": 17.3888411, "lon": 78.5533796}, {"type": "node", "id": 5941037825, "lat": 17.3885171, "lon": 78.5531763}, {"type": "node", "id": 5941037826, "lat": 17.3874348, "lon": 78.5525044, "tags": {"railway": "buffer_stop"}}, {"type": "node", "id": 5941037828, "lat": 17.3898755, "lon": 78.5539905}, {"type": "node", "id": 5941037829, "lat": 17.3897814, "lon": 78.5539708}, {"type": "node", "id": 5941037830, "lat": 17.3896838, "lon": 78.5539475}, {"type": "node", "id": 5941037831, "lat": 17.389576, "lon": 78.5539116}, {"type": "node", "id": 5941037832, "lat": 17.3893997, "lon": 78.5538416}, {"type": "node", "id": 5941037833, "lat": 17.3893056, "lon": 78.5537968}, {"type": "node", "id": 5941037834, "lat": 17.3883781, "lon": 78.5533001}, {"type": "node", "id": 5941037835, "lat": 17.3883028, "lon": 78.5532678}, {"type": "node", "id": 5941037836, "lat": 17.3882223, "lon": 78.5532409}, {"type": "node", "id": 5941037837, "lat": 17.3881556, "lon": 78.5532247}, {"type": "node", "id": 5941037838, "lat": 17.3880598, "lon": 78.5532133, "tags": {"railway": "level_crossing"}}, {"type": "node", "id": 5941037839, "lat": 17.3879561, "lon": 78.5531967}, {"type": "node", "id": 5941037840, "lat": 17.3865156, "lon": 78.5529788, "tags": {"railway": "buffer_stop"}}, {"type": "node", "id": 5941037841, "lat": 17.3866303, "lon": 78.552996}, {"type": "node", "id": 5941037842, "lat": 17.3894802, "lon": 78.5538757}, {"type": "node", "id": 5941037843, "lat": 17.3892575, "lon": 78.5538075, "tags": {"railway": "switch"}}, {"type": "node", "id": 5941037844, "lat": 17.3891701, "lon": 78.5537758}, {"type": "node", "id": 5941037845, "lat": 17.3890685, "lon": 78.5537346}, {"type": "node", "id": 5941037846, "lat": 17.3889579, "lon": 78.5536805}, {"type": "node", "id": 5941037847, "lat": 17.3888616, "lon": 78.5536281}, {"type": "node", "id": 5941037848, "lat": 17.3886786, "lon": 78.5535229, "tags": {"railway": "switch"}}, {"type": "node", "id": 5941037849, "lat": 17.3884836, "lon": 78.5534039}, {"type": "node", "id": 5941037850, "lat": 17.3883873, "lon": 78.5533497}, {"type": "node", "id": 5941037851, "lat": 17.3882946, "lon": 78.5533105}, {"type": "node", "id": 5941037852, "lat": 17.3882055, "lon": 78.5532825}, {"type": "node", "id": 5941037853, "lat": 17.3881199, "lon": 78.5532638}, {"type": "node", "id": 5941037854, "lat": 17.387947, "lon": 78.5532353}, {"type": "node", "id": 5941037855, "lat": 17.3866265, "lon": 78.5530357}, {"type": "node", "id": 5941037856, "lat": 17.3865099, "lon": 78.5530185, "tags": {"railway": "buffer_stop"}}, {"type": "node", "id": 5941037857, "lat": 17.3884785, "lon": 78.5534206}, {"type": "node", "id": 5941037858, "lat": 17.3883734, "lon": 78.5533745}, {"type": "node", "id": 5941037859, "lat": 17.3882871, "lon": 78.5533417}, {"type": "node", "id": 5941037860, "lat": 17.3882008, "lon": 78.553317}, {"type": "node", "id": 5941037861, "lat": 17.3881144, "lon": 78.5533035}, {"type": "node", "id": 5941037862, "lat": 17.3879417, "lon": 78.5532754}, {"type": "node", "id": 5941037863, "lat": 17.3866198, "lon": 78.553075}, {"type": "node", "id": 5941037864, "lat": 17.3865032, "lon": 78.5530553, "tags": {"railway": "buffer_stop"}}, {"type": "node", "id": 5941037865, "lat": 17.3913676, "lon": 78.5566633}, {"type": "node", "id": 5941037866, "lat": 17.391373, "lon": 78.5565791}, {"type": "node", "id": 5941037867, "lat": 17.3913869, "lon": 78.5564523}, {"type": "node", "id": 5941037868, "lat": 17.3913923, "lon": 78.5563838}, {"type": "node", "id": 5941037869, "lat": 17.3913933, "lon": 78.5562255, "tags": {"railway": "switch"}}, {"type": "node", "id": 5941037870, "lat": 17.3913944, "lon": 78.556312}, {"type": "node", "id": 5941037871, "lat": 17.3913306, "lon": 78.5549417}, {"type": "node", "id": 5941037872, "lat": 17.3913198, "lon": 78.5547435}, {"type": "node", "id": 5941037873, "lat": 17.3913, "lon": 78.554549}, {"type": "node", "id": 5941037874, "lat": 17.3912676, "lon": 78.554349}, {"type": "node", "id": 5941037875, "lat": 17.3912135, "lon": 78.5541357}, {"type": "node", "id": 5941037876, "lat": 17.3911505, "lon": 78.5539337}, {"type": "node", "id": 5941037877, "lat": 17.3910712, "lon": 78.5537204}, {"type": "node", "id": 5941037878, "lat": 17.3909379, "lon": 78.553441}, {"type": "node", "id": 5941037879, "lat": 17.3908118, "lon": 78.5532315}, {"type": "node", "id": 5941037880, "lat": 17.3906911, "lon": 78.5530616}, {"type": "node", "id": 5941037881, "lat": 17.3905632, "lon": 78.5529068}, {"type": "node", "id": 5941037882, "lat": 17.3904317, "lon": 78.5527633}, {"type": "node", "id": 5941037883, "lat": 17.3902876, "lon": 78.5526312}, {"type": "node", "id": 5941037884, "lat": 17.3900913, "lon": 78.552467}, {"type": "node", "id": 5941037885, "lat": 17.3898175, "lon": 78.5522688}, {"type": "node", "id": 5941037886, "lat": 17.3887907, "lon": 78.5515326, "tags": {"railway": "buffer_stop"}}, {"type": "node", "id": 5941037887, "lat": 17.3914315, "lon": 78.5570766}, {"type": "node", "id": 5941037888, "lat": 17.3914369, "lon": 78.5572767}, {"type": "node", "id": 5941037889, "lat": 17.3914351, "lon": 78.5574504}, {"type": "node", "id": 5941037890, "lat": 17.3914225, "lon": 78.557641}, {"type": "node", "id": 5941037891, "lat": 17.3913306, "lon": 78.5585075, "tags": {"railway": "buffer_stop"}}, {"type": "node", "id": 5941037892, "lat": 17.3880181, "lon": 78.5535529, "tags": {"railway": "level_crossing"}}, {"type": "node", "id": 5941037893, "lat": 17.3880576, "lon": 78.5532929, "tags": {"railway": "level_crossing"}}, {"type": "node", "id": 5941037894, "lat": 17.3880601, "lon": 78.5532523, "tags": {"railway": "level_crossing"}}, {"type": "node", "id": 5941037898, "lat": 17.3889546, "lon": 78.5537109, "tags": {"railway": "switch"}}, {"type": "node", "id": 5941037899, "lat": 17.3888627, "lon": 78.5536769}, {"type": "node", "id": 5941037900, "lat": 17.3887871, "lon": 78.5536449}, {"type": "node", "id": 5941037901, "lat": 17.3886577, "lon": 78.5535807, "tags": {"railway": "switch"}}, {"type": "node", "id": 5941037902, "lat": 17.3883692, "lon": 78.5534334}, {"type": "node", "id": 5941037903, "lat": 17.3882737, "lon": 78.5533957}, {"type": "node", "id": 5941037904, "lat": 17.3881782, "lon": 78.5533636}, {"type": "node", "id": 5941037905, "lat": 17.3881044, "lon": 78.5533428}, {"type": "node", "id": 5941037906, "lat": 17.3880519, "lon": 78.5533327, "tags": {"railway": "level_crossing"}}, {"type": "node", "id": 5941037907, "lat": 17.3879347, "lon": 78.5533153}, {"type": "node", "id": 5941037908, "lat": 17.3866131, "lon": 78.5531151}, {"type": "node", "id": 5941037909, "lat": 17.3864957, "lon": 78.5530957, "tags": {"railway": "buffer_stop"}}, {"type": "node", "id": 5941037910, "lat": 17.388434, "lon": 78.5534938}, {"type": "node", "id": 5941037911, "lat": 17.3882034, "lon": 78.5534183}, {"type": "node", "id": 5941037912, "lat": 17.3881224, "lon": 78.5533976}, {"type": "node", "id": 5941037913, "lat": 17.3880441, "lon": 78.5533832, "tags": {"railway": "level_crossing"}}, {"type": "node", "id": 5941037914, "lat": 17.3864867, "lon": 78.5531484, "tags": {"railway": "buffer_stop"}}, {"type": "node", "id": 5941037915, "lat": 17.3884754, "lon": 78.5535524, "tags": {"railway": "switch"}}, {"type": "node", "id": 5941037916, "lat": 17.3882557, "lon": 78.5534769}, {"type": "node", "id": 5941037917, "lat": 17.3881512, "lon": 78.5534467}, {"type": "node", "id": 5941037918, "lat": 17.3880383, "lon": 78.5534213, "tags": {"railway": "level_crossing"}}, {"type": "node", "id": 5941037919, "lat": 17.3864813, "lon": 78.5531862, "tags": {"railway": "buffer_stop"}}, {"type": "node", "id": 5941037920, "lat": 17.3882998, "lon": 78.553508}, {"type": "node", "id": 5941037921, "lat": 17.3881485, "lon": 78.5534778}, {"type": "node", "id": 5941037922, "lat": 17.3880319, "lon": 78.5534603, "tags": {"railway": "level_crossing"}}, {"type": "node", "id": 5941037923, "lat": 17.3878855, "lon": 78.5534382}, {"type": "node", "id": 5941037924, "lat": 17.3864768, "lon": 78.5532249, "tags": {"railway": "buffer_stop"}}, {"type": "node", "id": 5941037929, "lat": 17.3885894, "lon": 78.5537468}, {"type": "node", "id": 5941037930, "lat": 17.3884535, "lon": 78.5537304, "tags": {"railway": "switch"}}, {"type": "node", "id": 5941037931, "lat": 17.3883064, "lon": 78.5537151}, {"type": "node", "id": 5941037932, "lat": 17.3881401, "lon": 78.553694}, {"type": "node", "id": 5941037933, "lat": 17.3880002, "lon": 78.5536743, "tags": {"railway": "level_crossing"}}, {"type": "node", "id": 5941037934, "lat": 17.3864504, "lon": 78.5534357, "tags": {"railway": "buffer_stop"}}, {"type": "node", "id": 5941037935, "lat": 17.3883053, "lon": 78.5537022}, {"type": "node", "id": 5941037936, "lat": 17.3881497, "lon": 78.5536665}, {"type": "node", "id": 5941037937, "lat": 17.3880056, "lon": 78.5536371, "tags": {"railway": "level_crossing"}}, {"type": "node", "id": 5941037938, "lat": 17.3879049, "lon": 78.5536206}, {"type": "node", "id": 5941037939, "lat": 17.3864543, "lon": 78.5533984, "tags": {"railway": "buffer_stop"}}, {"type": "node", "id": 5941037940, "lat": 17.3890238, "lon": 78.5538688}, {"type": "node", "id": 5941037941, "lat": 17.3888897, "lon": 78.5538496, "tags": {"railway": "switch"}}, {"type": "node", "id": 5941037942, "lat": 17.3887697, "lon": 78.5538407}, {"type": "node", "id": 5941037943, "lat": 17.3886568, "lon": 78.5538393}, {"type": "node", "id": 5941037944, "lat": 17.3885171, "lon": 78.5538422}, {"type": "node", "id": 5941037945, "lat": 17.3884381, "lon": 78.5538378}, {"type": "node", "id": 5941037946, "lat": 17.3883477, "lon": 78.5538274}, {"type": "node", "id": 5941037947, "lat": 17.3879861, "lon": 78.553771, "tags": {"railway": "level_crossing"}}, {"type": "node", "id": 5941037948, "lat": 17.3864339, "lon": 78.5535287, "tags": {"railway": "buffer_stop"}}, {"type": "node", "id": 5941037949, "lat": 17.3884423, "lon": 78.5537964}, {"type": "node", "id": 5941037950, "lat": 17.3882489, "lon": 78.5537698}, {"type": "node", "id": 5941037951, "lat": 17.3879919, "lon": 78.5537315, "tags": {"railway": "level_crossing"}}, {"type": "node", "id": 5941037952, "lat": 17.3864409, "lon": 78.5534888, "tags": {"railway": "buffer_stop"}}, {"type": "node", "id": 5941037953, "lat": 17.3885002, "lon": 78.5534967}, {"type": "node", "id": 5941037954, "lat": 17.3912345, "lon": 78.5549415, "tags": {"railway": "switch"}}, {"type": "node", "id": 5941037955, "lat": 17.3912186, "lon": 78.5546766}, {"type": "node", "id": 5941037956, "lat": 17.3912046, "lon": 78.5545077}, {"type": "node", "id": 5941037957, "lat": 17.3911708, "lon": 78.5542907}, {"type": "node", "id": 5941037958, "lat": 17.3911131, "lon": 78.554078}, {"type": "node", "id": 5941037959, "lat": 17.3910434, "lon": 78.5538736}, {"type": "node", "id": 5941037960, "lat": 17.3909777, "lon": 78.5537255}, {"type": "node", "id": 5941037961, "lat": 17.3908822, "lon": 78.553544}, {"type": "node", "id": 5941037962, "lat": 17.3907628, "lon": 78.5533688}, {"type": "node", "id": 5941037963, "lat": 17.3906095, "lon": 78.5531957}, {"type": "node", "id": 5941037964, "lat": 17.3904821, "lon": 78.5530893}, {"type": "node", "id": 5941037965, "lat": 17.3903507, "lon": 78.5530038}, {"type": "node", "id": 5941037966, "lat": 17.3900721, "lon": 78.5528307}, {"type": "node", "id": 5941037967, "lat": 17.388909, "lon": 78.5520972, "tags": {"railway": "buffer_stop"}}, {"type": "node", "id": 5941037968, "lat": 17.3911715, "lon": 78.5547414}, {"type": "node", "id": 5941037969, "lat": 17.3911425, "lon": 78.5546}, {"type": "node", "id": 5941037970, "lat": 17.3911091, "lon": 78.5544719}, {"type": "node", "id": 5941037971, "lat": 17.3910448, "lon": 78.554318}, {"type": "node", "id": 5941037972, "lat": 17.390957, "lon": 78.5541751}, {"type": "node", "id": 5941037973, "lat": 17.3908717, "lon": 78.5540734}, {"type": "node", "id": 5941037974, "lat": 17.3907576, "lon": 78.5539662}, {"type": "node", "id": 5941037975, "lat": 17.3906344, "lon": 78.5538769, "tags": {"railway": "switch"}}, {"type": "node", "id": 5941037976, "lat": 17.3905373, "lon": 78.5538205}, {"type": "node", "id": 5941037977, "lat": 17.3904429, "lon": 78.553771}, {"type": "node", "id": 5941037978, "lat": 17.3903813, "lon": 78.5537436, "tags": {"railway": "switch"}}, {"type": "node", "id": 5941037979, "lat": 17.3902842, "lon": 78.5537092}, {"type": "node", "id": 5941037980, "lat": 17.3901596, "lon": 78.5536707}, {"type": "node", "id": 5941037981, "lat": 17.3899616, "lon": 78.5536185}, {"type": "node", "id": 5941037982, "lat": 17.3898891, "lon": 78.5535956}, {"type": "node", "id": 5941037983, "lat": 17.389822, "lon": 78.5535715}, {"type": "node", "id": 5941037984, "lat": 17.3897499, "lon": 78.5535361, "tags": {"railway": "level_crossing"}}, {"type": "node", "id": 5941037985, "lat": 17.3896836, "lon": 78.5534962}, {"type": "node", "id": 5941037986, "lat": 17.3885236, "lon": 78.5527663, "tags": {"railway": "buffer_stop"}}, {"type": "node", "id": 5941037987, "lat": 17.3899763, "lon": 78.5535778}, {"type": "node", "id": 5941037988, "lat": 17.3899246, "lon": 78.5535517}, {"type": "node", "id": 5941037989, "lat": 17.3898836, "lon": 78.5535293}, {"type": "node", "id": 5941037990, "lat": 17.3897215, "lon": 78.5534322}, {"type": "node", "id": 5941037991, "lat": 17.3885648, "lon": 78.5526977, "tags": {"railway": "buffer_stop"}}, {"type": "node", "id": 5941037992, "lat": 17.3904003, "lon": 78.5537234, "tags": {"railway": "switch"}}, {"type": "node", "id": 5941037993, "lat": 17.3897839, "lon": 78.5533239}, {"type": "node", "id": 5941037994, "lat": 17.3886196, "lon": 78.5526001, "tags": {"railway": "buffer_stop"}}, {"type": "node", "id": 5941037995, "lat": 17.3902724, "lon": 78.5536292}, {"type": "node", "id": 5941037996, "lat": 17.3901908, "lon": 78.553559}, {"type": "node", "id": 5941037997, "lat": 17.3900194, "lon": 78.5534047}, {"type": "node", "id": 5941037998, "lat": 17.3899564, "lon": 78.5533514}, {"type": "node", "id": 5941037999, "lat": 17.389885, "lon": 78.5532989, "tags": {"railway": "level_crossing"}}, {"type": "node", "id": 5941038000, "lat": 17.3898252, "lon": 78.5532573}, {"type": "node", "id": 5941038001, "lat": 17.3886563, "lon": 78.5525317, "tags": {"railway": "buffer_stop"}}, {"type": "node", "id": 5941038002, "lat": 17.3912151, "lon": 78.55476}, {"type": "node", "id": 5941038003, "lat": 17.3911917, "lon": 78.5546331}, {"type": "node", "id": 5941038004, "lat": 17.3911435, "lon": 78.5544547, "tags": {"railway": "switch"}}, {"type": "node", "id": 5941038005, "lat": 17.391116, "lon": 78.5543431}, {"type": "node", "id": 5941038006, "lat": 17.3910872, "lon": 78.5542323, "tags": {"railway": "switch"}}, {"type": "node", "id": 5941038007, "lat": 17.3910238, "lon": 78.5539911}, {"type": "node", "id": 5941038008, "lat": 17.3909907, "lon": 78.5538786}, {"type": "node", "id": 5941038009, "lat": 17.3909453, "lon": 78.5537574}, {"type": "node", "id": 5941038010, "lat": 17.3908476, "lon": 78.5535742}, {"type": "node", "id": 5941038011, "lat": 17.3907278, "lon": 78.5534011}, {"type": "node", "id": 5941038012, "lat": 17.3905888, "lon": 78.5532526}, {"type": "node", "id": 5941038013, "lat": 17.3904607, "lon": 78.5531473}, {"type": "node", "id": 5941038014, "lat": 17.3903217, "lon": 78.5530578}, {"type": "node", "id": 5941038015, "lat": 17.3900423, "lon": 78.5528847}, {"type": "node", "id": 5941038016, "lat": 17.3888768, "lon": 78.5521515, "tags": {"railway": "buffer_stop"}}, {"type": "node", "id": 5941038017, "lat": 17.3910428, "lon": 78.5540921}, {"type": "node", "id": 5941038018, "lat": 17.3909947, "lon": 78.5539635}, {"type": "node", "id": 5941038019, "lat": 17.3909067, "lon": 78.5537715}, {"type": "node", "id": 5941038020, "lat": 17.3908095, "lon": 78.553601}, {"type": "node", "id": 5941038021, "lat": 17.3906826, "lon": 78.5534384}, {"type": "node", "id": 5941038022, "lat": 17.3905408, "lon": 78.5533037}, {"type": "node", "id": 5941038023, "lat": 17.3904389, "lon": 78.5532302}, {"type": "node", "id": 5941038024, "lat": 17.3900016, "lon": 78.5529539}, {"type": "node", "id": 5941038025, "lat": 17.3888382, "lon": 78.552221, "tags": {"railway": "buffer_stop"}}, {"type": "node", "id": 5941038026, "lat": 17.391064, "lon": 78.5542403}, {"type": "node", "id": 5941038027, "lat": 17.3909546, "lon": 78.553982}, {"type": "node", "id": 5941038028, "lat": 17.3908672, "lon": 78.5537946}, {"type": "node", "id": 5941038029, "lat": 17.3907638, "lon": 78.55363}, {"type": "node", "id": 5941038030, "lat": 17.3906366, "lon": 78.5534696}, {"type": "node", "id": 5941038031, "lat": 17.3904995, "lon": 78.5533426}, {"type": "node", "id": 5941038032, "lat": 17.3903762, "lon": 78.553253}, {"type": "node", "id": 5941038033, "lat": 17.3899767, "lon": 78.5529989}, {"type": "node", "id": 5941038034, "lat": 17.3888099, "lon": 78.5522678, "tags": {"railway": "buffer_stop"}}, {"type": "node", "id": 5941038043, "lat": 17.3901344, "lon": 78.5528694, "tags": {"railway": "level_crossing"}}, {"type": "node", "id": 5941038044, "lat": 17.3901029, "lon": 78.5529223, "tags": {"railway": "level_crossing"}}, {"type": "node", "id": 5941038045, "lat": 17.3900632, "lon": 78.5529937, "tags": {"railway": "level_crossing"}}, {"type": "node", "id": 5941038046, "lat": 17.3900367, "lon": 78.5530379, "tags": {"railway": "level_crossing"}}, {"type": "node", "id": 5941038047, "lat": 17.3898468, "lon": 78.5533647, "tags": {"railway": "level_crossing"}}, {"type": "node", "id": 5941038048, "lat": 17.3897861, "lon": 78.5534709, "tags": {"railway": "level_crossing"}}, {"type": "node", "id": 5941038053, "lat": 17.3893948, "lon": 78.5587074, "tags": {"railway": "switch"}}, {"type": "node", "id": 5941038054, "lat": 17.3888154, "lon": 78.5587095, "tags": {"railway": "switch"}}, {"type": "node", "id": 5941038055, "lat": 17.3892472, "lon": 78.5587051}, {"type": "node", "id": 5941038056, "lat": 17.3889686, "lon": 78.5587117}, {"type": "node", "id": 5941038057, "lat": 17.3894706, "lon": 78.5587124, "tags": {"railway": "switch"}}, {"type": "node", "id": 5941038058, "lat": 17.389595, "lon": 78.5587293}, {"type": "node", "id": 5941038059, "lat": 17.3898248, "lon": 78.5587687}, {"type": "node", "id": 5941038060, "lat": 17.3899699, "lon": 78.5587883, "tags": {"railway": "switch"}}, {"type": "node", "id": 5941038061, "lat": 17.3914874, "lon": 78.558972}, {"type": "node", "id": 5941038062, "lat": 17.3902299, "lon": 78.5588884}, {"type": "node", "id": 5941038063, "lat": 17.3911251, "lon": 78.5589479}, {"type": "node", "id": 5941038064, "lat": 17.3912473, "lon": 78.558956}, {"type": "node", "id": 5941038071, "lat": 17.3904827, "lon": 78.5589052}, {"type": "node", "id": 5941038072, "lat": 17.3905607, "lon": 78.5589104}, {"type": "node", "id": 5941038075, "lat": 17.3850282, "lon": 78.5584282}, {"type": "node", "id": 5941038076, "lat": 17.3849066, "lon": 78.5584238}, {"type": "node", "id": 5941038077, "lat": 17.3845231, "lon": 78.5583635, "tags": {"railway": "buffer_stop"}}, {"type": "node", "id": 5941038078, "lat": 17.3845187, "lon": 78.5584019, "tags": {"railway": "buffer_stop"}}, {"type": "node", "id": 5941038079, "lat": 17.3850215, "lon": 78.558469}, {"type": "node", "id": 5941038080, "lat": 17.3848963, "lon": 78.5584615}, {"type": "node", "id": 5941038081, "lat": 17.391491, "lon": 78.5589124}, {"type": "node", "id": 5941038082, "lat": 17.3902335, "lon": 78.5588288}, {"type": "node", "id": 5941038083, "lat": 17.3906668, "lon": 78.5587014}, {"type": "node", "id": 5941038084, "lat": 17.3905093, "lon": 78.5586909}, {"type": "node", "id": 5941038085, "lat": 17.3902429, "lon": 78.5586732}, {"type": "node", "id": 5941038086, "lat": 17.3902388, "lon": 78.558742}, {"type": "node", "id": 5941038087, "lat": 17.3914963, "lon": 78.5588256}, {"type": "node", "id": 5941038088, "lat": 17.3915004, "lon": 78.5587568}, {"type": "node", "id": 5941038089, "lat": 17.3913328, "lon": 78.5587457}, {"type": "node", "id": 5941038090, "lat": 17.3911611, "lon": 78.5587342}, {"type": "node", "id": 5961220665, "lat": 17.3910013, "lon": 78.5588151, "tags": {"name": "Nagole", "name:te": "\u0c28\u0c3e\u0c17\u0c4b\u0c32\u0c4d", "network": "Hyderabad Metro", "note": "Contributors are requested to not edit the \"network\" and the \"operator\" tags. (2023/11/08)", "operator": "Hyderabad Metro Rail Limited", "public_transport": "stop_position", "public_transport:version": "2", "subway": "yes"}}, {"type": "node", "id": 6246310248, "lat": 17.3274768, "lon": 78.6048385, "tags": {"bus": "yes", "highway": "bus_stop", "name": "TSRTC BUS STAND , HAYATNAGAR", "public_transport": "platform"}}, {"type": "node", "id": 6371404750, "lat": 17.3597744, "lon": 78.5578073}, {"type": "node", "id": 6371404751, "lat": 17.3597297, "lon": 78.5578036}, {"type": "node", "id": 6371404752, "lat": 17.3597277, "lon": 78.557831}, {"type": "node", "id": 6371404753, "lat": 17.3597724, "lon": 78.5578347}, {"type": "node", "id": 6375001440, "lat": 17.3597568, "lon": 78.5578058}, {"type": "node", "id": 6375001441, "lat": 17.3597495, "lon": 78.5578329}, {"type": "node", "id": 6375001442, "lat": 17.3597589, "lon": 78.5578336}, {"type": "node", "id": 6375001443, "lat": 17.3597664, "lon": 78.5578066}, {"type": "node", "id": 6375006568, "lat": 17.3597503, "lon": 78.5578155, "tags": {"amenity": "bus_station", "bus": "yes", "name": "rajeevgandhi nagar", "public_transport": "stop_position"}}, {"type": "node", "id": 6375056793, "lat": 17.3600361, "lon": 78.5575549, "tags": {"amenity": "bus_station", "bus": "yes", "name": "rajeevgandhi nagar", "public_transport": "stop_position"}}, {"type": "node", "id": 6447168562, "lat": 17.3907683, "lon": 78.5588222, "tags": {"layer": "1", "name": "Nagole", "name:fa": "\u0646\u0627\u06af\u0648\u0644", "name:ml": "\u0d28\u0d3e\u0d17\u0d4b\u0d7d", "name:te": "\u0c28\u0c3e\u0c17\u0c4b\u0c32\u0c4d", "network": "Hyderabad Metro", "note": "Contributors are requested to not edit the \"network\" and the \"operator\" tags. (2023/11/08)", "operator": "Hyderabad Metro Rail Limited", "public_transport": "station", "railway": "station", "station": "subway", "subway": "yes", "wheelchair": "yes", "wikidata": "Q83377016"}}, {"type": "node", "id": 6447168563, "lat": 17.3905436, "lon": 78.5588274, "tags": {"name": "Nagole", "name:te": "\u0c28\u0c3e\u0c17\u0c4b\u0c32\u0c4d", "network": "Hyderabad Metro", "note": "Contributors are requested to not edit the \"network\" and the \"operator\" tags. (2023/11/08)", "operator": "Hyderabad Metro Rail Limited", "public_transport": "stop_position", "public_transport:version": "2", "subway": "yes"}}, {"type": "node", "id": 6799988715, "lat": 17.3743363, "lon": 78.4995125}, {"type": "node", "id": 6799988716, "lat": 17.3742377, "lon": 78.4997056}, {"type": "node", "id": 6799988717, "lat": 17.3739587, "lon": 78.5002743}, {"type": "node", "id": 6799988718, "lat": 17.3738653, "lon": 78.5004915}, {"type": "node", "id": 6799988719, "lat": 17.3737974, "lon": 78.5006833}, {"type": "node", "id": 6799988720, "lat": 17.3737334, "lon": 78.500914}, {"type": "node", "id": 6799988721, "lat": 17.3736873, "lon": 78.5011165}, {"type": "node", "id": 6800005092, "lat": 17.3699045, "lon": 78.5143324}, {"type": "node", "id": 6800005093, "lat": 17.3698776, "lon": 78.5144906}, {"type": "node", "id": 6800005094, "lat": 17.3698373, "lon": 78.5148185}, {"type": "node", "id": 6800005095, "lat": 17.3698027, "lon": 78.5150868}, {"type": "node", "id": 6800005096, "lat": 17.3697528, "lon": 78.5153832}, {"type": "node", "id": 6800005097, "lat": 17.3697016, "lon": 78.515642}, {"type": "node", "id": 6800005098, "lat": 17.3696172, "lon": 78.5159967}, {"type": "node", "id": 6800005099, "lat": 17.3692409, "lon": 78.517478}, {"type": "node", "id": 6800005100, "lat": 17.3688556, "lon": 78.5189854}, {"type": "node", "id": 6800005101, "lat": 17.3687813, "lon": 78.5192884}, {"type": "node", "id": 6800005102, "lat": 17.3687346, "lon": 78.5195171}, {"type": "node", "id": 6800005103, "lat": 17.3686982, "lon": 78.5197075}, {"type": "node", "id": 6800005104, "lat": 17.3686738, "lon": 78.5199087}, {"type": "node", "id": 6800005105, "lat": 17.3686668, "lon": 78.5200415}, {"type": "node", "id": 6800005106, "lat": 17.3686566, "lon": 78.5202266}, {"type": "node", "id": 6800005108, "lat": 17.3700048, "lon": 78.5139608}, {"type": "node", "id": 6800005109, "lat": 17.3700698, "lon": 78.5137724}, {"type": "node", "id": 6800005110, "lat": 17.370149, "lon": 78.5135796}, {"type": "node", "id": 6800005111, "lat": 17.370228, "lon": 78.5134147}, {"type": "node", "id": 6800005112, "lat": 17.3704088, "lon": 78.513086}, {"type": "node", "id": 6800005113, "lat": 17.3706601, "lon": 78.5126362}, {"type": "node", "id": 6800005114, "lat": 17.3713819, "lon": 78.5113597}, {"type": "node", "id": 6800005115, "lat": 17.3715466, "lon": 78.5110572}, {"type": "node", "id": 6800005116, "lat": 17.371687, "lon": 78.5107858}, {"type": "node", "id": 6800005117, "lat": 17.3718014, "lon": 78.5105486}, {"type": "node", "id": 6800005118, "lat": 17.3719082, "lon": 78.5102876}, {"type": "node", "id": 6800005119, "lat": 17.3719794, "lon": 78.5100917}, {"type": "node", "id": 6800005120, "lat": 17.3722212, "lon": 78.5093665}, {"type": "node", "id": 6800005121, "lat": 17.3724246, "lon": 78.50877}, {"type": "node", "id": 6800005122, "lat": 17.3725037, "lon": 78.5085174}, {"type": "node", "id": 6800005123, "lat": 17.3725739, "lon": 78.508278}, {"type": "node", "id": 6800005124, "lat": 17.3726633, "lon": 78.5079477}, {"type": "node", "id": 6800005125, "lat": 17.3727218, "lon": 78.5077049}, {"type": "node", "id": 6800005126, "lat": 17.3727818, "lon": 78.5074081}, {"type": "node", "id": 6800005127, "lat": 17.372829, "lon": 78.5071593}, {"type": "node", "id": 6800005149, "lat": 17.3733168, "lon": 78.5038919}, {"type": "node", "id": 6800005151, "lat": 17.3735082, "lon": 78.5024133}, {"type": "node", "id": 6800005228, "lat": 17.3771203, "lon": 78.4945686}, {"type": "node", "id": 6800005229, "lat": 17.3771002, "lon": 78.4949917}, {"type": "node", "id": 6800005230, "lat": 17.3770829, "lon": 78.4951204}, {"type": "node", "id": 6800005231, "lat": 17.3770548, "lon": 78.4952371}, {"type": "node", "id": 6800005232, "lat": 17.377002, "lon": 78.4953943}, {"type": "node", "id": 6800005233, "lat": 17.3769434, "lon": 78.4955214}, {"type": "node", "id": 6800005234, "lat": 17.3768449, "lon": 78.4956649}, {"type": "node", "id": 6800005235, "lat": 17.3767809, "lon": 78.4957413}, {"type": "node", "id": 6800005236, "lat": 17.3766907, "lon": 78.4958325}, {"type": "node", "id": 6800005237, "lat": 17.3766049, "lon": 78.4959043}, {"type": "node", "id": 6800005238, "lat": 17.3763259, "lon": 78.4960833}, {"type": "node", "id": 6800005239, "lat": 17.3761461, "lon": 78.4961926}, {"type": "node", "id": 6800005240, "lat": 17.3760291, "lon": 78.4962836}, {"type": "node", "id": 6800005241, "lat": 17.3759141, "lon": 78.496376}, {"type": "node", "id": 6800005242, "lat": 17.375835, "lon": 78.4964642}, {"type": "node", "id": 6800005243, "lat": 17.3757646, "lon": 78.4965567}, {"type": "node", "id": 6800005244, "lat": 17.3756994, "lon": 78.496664}, {"type": "node", "id": 6800005245, "lat": 17.3756431, "lon": 78.4967901}, {"type": "node", "id": 6800005246, "lat": 17.3755944, "lon": 78.4969255}, {"type": "node", "id": 6800005247, "lat": 17.375565, "lon": 78.497065}, {"type": "node", "id": 6800005248, "lat": 17.3755247, "lon": 78.4974667}, {"type": "node", "id": 6800005249, "lat": 17.3754933, "lon": 78.4976685}, {"type": "node", "id": 6800005250, "lat": 17.3754536, "lon": 78.4978375}, {"type": "node", "id": 6800005251, "lat": 17.3753756, "lon": 78.4980413}, {"type": "node", "id": 6800005252, "lat": 17.3753013, "lon": 78.4981889}, {"type": "node", "id": 6800005253, "lat": 17.375172, "lon": 78.4983873}, {"type": "node", "id": 6800005254, "lat": 17.375085, "lon": 78.498504}, {"type": "node", "id": 6800005255, "lat": 17.374902, "lon": 78.4987079}, {"type": "node", "id": 6800005256, "lat": 17.3747561, "lon": 78.4988822}, {"type": "node", "id": 6800005257, "lat": 17.3746127, "lon": 78.4990659}, {"type": "node", "id": 6800005258, "lat": 17.3744611, "lon": 78.4992946}, {"type": "node", "id": 6935406873, "lat": 17.3746186, "lon": 78.5449497}, {"type": "node", "id": 6935406874, "lat": 17.3745751, "lon": 78.5449604}, {"type": "node", "id": 7015719470, "lat": 17.400035, "lon": 78.5599434, "tags": {"railway": "subway_entrance"}}, {"type": "node", "id": 7015719477, "lat": 17.4006752, "lon": 78.5599583, "tags": {"railway": "subway_entrance"}}, {"type": "node", "id": 7015780395, "lat": 17.4006386, "lon": 78.560423, "tags": {"railway": "subway_entrance"}}, {"type": "node", "id": 7015780403, "lat": 17.399804, "lon": 78.560385, "tags": {"highway": "elevator"}}, {"type": "node", "id": 7015780418, "lat": 17.3999824, "lon": 78.5603915, "tags": {"railway": "subway_entrance", "wheelchair": "yes"}}, {"type": "node", "id": 7015780421, "lat": 17.4000906, "lon": 78.5599398, "tags": {"highway": "elevator"}}, {"type": "node", "id": 7052069747, "lat": 17.4021849, "lon": 78.559629}, {"type": "node", "id": 7052069748, "lat": 17.4022266, "lon": 78.5596452}, {"type": "node", "id": 7052069749, "lat": 17.3999384, "lon": 78.5601591, "tags": {"name": "Uppal", "name:fa": "\u0627\u067e\u0644", "name:ml": "\u0d09\u0d2a\u0d4d\u0d2a\u0d7d", "name:te": "\u0c09\u0c2a\u0c4d\u0c2a\u0c32\u0c4d", "network": "Hyderabad Metro", "note": "Contributors are requested to not edit the \"network\" and the \"operator\" tags. (2023/11/08)", "operator": "Hyderabad Metro Rail Limited", "public_transport": "station", "railway": "station", "ref": "OPL", "station": "subway", "subway": "yes", "wheelchair": "yes", "wikidata": "Q83407689", "wikipedia": "en:Uppal metro station"}}, {"type": "node", "id": 7052069751, "lat": 17.3993615, "lon": 78.5601638}, {"type": "node", "id": 7052069752, "lat": 17.4074002, "lon": 78.5542531, "tags": {"name": "Stadium", "name:fa": "\u0648\u0631\u0632\u0634\u06af\u0627\u0647", "name:ml": "\u0d38\u0d4d\u0d31\u0d4d\u0d31\u0d47\u0d21\u0d3f\u0d2f\u0d02", "name:te": "\u0c38\u0c4d\u0c1f\u0c47\u0c21\u0c3f\u0c2f\u0c02", "network": "Hyderabad Metro", "note": "Contributors are requested to not edit the \"network\" and the \"operator\" tags. (2023/11/08)", "operator": "Hyderabad Metro Rail Limited", "public_transport": "station", "railway": "station", "station": "subway", "subway": "yes", "wheelchair": "yes"}}, {"type": "node", "id": 7052069753, "lat": 17.4148264, "lon": 78.5463345, "tags": {"name": "NGRI", "name:fa": "\u0627\u0646\u200c\u062c\u06cc\u200c\u0622\u0631\u200c\u0622\u06cc", "name:te": "\u0c0e\u0c28\u0c4d.\u0c1c\u0c3f.\u0c06\u0c30\u0c4d.\u0c10", "network": "Hyderabad Metro", "note": "Contributors are requested to not edit the \"network\" and the \"operator\" tags. (2023/11/08)", "operator": "Hyderabad Metro Rail Limited", "public_transport": "station", "railway": "station", "station": "subway", "subway": "yes", "wikidata": "Q83491622"}}, {"type": "node", "id": 7243975384, "lat": 17.371557, "lon": 78.5694429, "tags": {"bus": "yes", "highway": "bus_stop", "name": "Jaipuri colony bus stop", "public_transport": "platform"}}, {"type": "node", "id": 7244134464, "lat": 17.3287721, "lon": 78.5835166, "tags": {"bus": "yes", "highway": "bus_stop", "name": "Subhadranagar Bus Stop", "public_transport": "platform"}}, {"type": "node", "id": 7246440944, "lat": 17.3495427, "lon": 78.5481839}, {"type": "node", "id": 7246440945, "lat": 17.3495198, "lon": 78.5482021}, {"type": "node", "id": 7246509967, "lat": 17.3761325, "lon": 78.5569899, "tags": {"bus": "yes", "highway": "bus_stop", "name": "dsnr", "public_transport": "platform"}}, {"type": "node", "id": 7246509972, "lat": 17.3741149, "lon": 78.5585718, "tags": {"public_transport": "platform", "tram": "yes"}}, {"type": "node", "id": 7432609392, "lat": 17.3294749, "lon": 78.5536367, "tags": {"bus": "yes", "highway": "bus_stop", "public_transport": "platform"}}, {"type": "node", "id": 7860889433, "lat": 17.4010715, "lon": 78.5605252}, {"type": "node", "id": 7860889434, "lat": 17.4010634, "lon": 78.5605748}, {"type": "node", "id": 7860889435, "lat": 17.4009637, "lon": 78.5605571}, {"type": "node", "id": 7860889436, "lat": 17.4009718, "lon": 78.5605074}, {"type": "node", "id": 7860889437, "lat": 17.4009, "lon": 78.5604756}, {"type": "node", "id": 7860889438, "lat": 17.4008965, "lon": 78.5605269}, {"type": "node", "id": 7860889439, "lat": 17.4008116, "lon": 78.5605207}, {"type": "node", "id": 7860889440, "lat": 17.400815, "lon": 78.5604693}, {"type": "node", "id": 8111142847, "lat": 17.414842, "lon": 78.5710841, "tags": {"bus": "yes", "highway": "bus_stop", "name": "Balaji hills colony bustop", "public_transport": "platform"}}, {"type": "node", "id": 8111160728, "lat": 17.4019433, "lon": 78.560849, "tags": {"bus": "yes", "highway": "bus_stop", "name": "uppal - kushaiguda", "public_transport": "platform"}}, {"type": "node", "id": 8111160729, "lat": 17.4015854, "lon": 78.5622183, "tags": {"bus": "yes", "highway": "bus_stop", "public_transport": "platform"}}, {"type": "node", "id": 8111166889, "lat": 17.4014901, "lon": 78.5652061, "tags": {"bus": "yes", "highway": "bus_stop", "public_transport": "platform"}}, {"type": "node", "id": 8111166890, "lat": 17.4013698, "lon": 78.5625373, "tags": {"bus": "yes", "highway": "bus_stop", "public_transport": "platform"}}, {"type": "node", "id": 8386754559, "lat": 17.4047353, "lon": 78.5865032, "tags": {"bus": "yes", "highway": "bus_stop", "name": "Boduppal bustop", "public_transport": "platform"}}, {"type": "node", "id": 8386754560, "lat": 17.4045179, "lon": 78.5865916, "tags": {"bus": "yes", "highway": "bus_stop", "name": "Boduppal bustop", "public_transport": "platform"}}, {"type": "node", "id": 8386754561, "lat": 17.4013874, "lon": 78.5714637, "tags": {"bus": "yes", "highway": "bus_stop", "public_transport": "platform"}}, {"type": "node", "id": 8386754562, "lat": 17.4013519, "lon": 78.565498, "tags": {"bus": "yes", "highway": "bus_stop", "public_transport": "platform"}}, {"type": "node", "id": 9801520475, "lat": 17.3913148, "lon": 78.543651, "tags": {"highway": "bus_stop", "name": "Gandhi Nagar Bus stop"}}, {"type": "node", "id": 9870003635, "lat": 17.4014112, "lon": 78.5601459}, {"type": "node", "id": 9870003643, "lat": 17.4008142, "lon": 78.5604814}, {"type": "node", "id": 9870003648, "lat": 17.4017267, "lon": 78.5600691}, {"type": "node", "id": 9870023319, "lat": 17.4010002, "lon": 78.5605636}, {"type": "node", "id": 9961151118, "lat": 17.357113, "lon": 78.5451283, "tags": {"crossing": "marked", "highway": "crossing"}}, {"type": "node", "id": 10185389602, "lat": 17.4185613, "lon": 78.5421187}, {"type": "node", "id": 10278298785, "lat": 17.3734093, "lon": 78.5031773, "tags": {"addr:city": "Hyderabad", "addr:city:ar": "\u062d\u064a\u062f\u0631 \u0622\u0628\u0627\u062f", "addr:city:ur": "\u062d\u06cc\u062f\u0631\u0622\u0628\u0627\u062f", "alt_name": "\u0645\u062d\u0628\u0648\u0628 \u06af\u0646\u062c", "name": "New Market", "name:ml": "\u0d28\u0d4d\u0d2f\u0d42\u0d2e\u0d3e\u0d7c\u0d15\u0d4d\u0d15\u0d31\u0d4d\u0d31\u0d4d", "name:te": "\u0c15\u0c4a\u0c24\u0c4d\u0c24 \u0c2e\u0c3e\u0c30\u0c4d\u0c15\u0c46\u0c1f\u0c4d", "name:ur": "\u0646\u0626\u06cc \u0645\u0627\u0631\u06a9\u06cc\u0679", "network": "Hyderabad Metro", "note": "Contributors are requested to not edit the \"network\" and the \"operator\" tags. (2023/11/08)", "operator": "Hyderabad Metro Rail Limited", "public_transport": "stop_position", "public_transport:version": "2", "railway": "stop", "subway": "yes"}}, {"type": "node", "id": 10279821750, "lat": 17.3710547, "lon": 78.5119383, "tags": {"addr:city": "Hyderabad", "addr:city:ar": "\u062d\u064a\u062f\u0631 \u0622\u0628\u0627\u062f", "addr:city:ur": "\u062d\u06cc\u062f\u0631\u0622\u0628\u0627\u062f", "name": "Musarambagh", "name:ml": "\u0d2e\u0d42\u0d38\u0d3e\u0d30\u0d3e\u0d02\u0d2c\u0d3e\u0d17\u0d4d", "name:te": "\u0c2e\u0c42\u0c38\u0c3e\u0c30\u0c02\u0c2c\u0c3e\u0c17\u0c4d", "name:ur": "\u0645\u0648\u0633\u06cc\u0670 \u0631\u0627\u0645 \u0628\u0627\u063a", "network": "Hyderabad Metro", "note": "Contributors are requested to not edit the \"network\" and the \"operator\" tags. (2023/11/08)", "operator": "Hyderabad Metro Rail Limited", "public_transport": "stop_position", "public_transport:version": "2", "railway": "stop", "subway": "yes"}}, {"type": "node", "id": 10818832467, "lat": 17.3902269, "lon": 78.559068}, {"type": "node", "id": 10818832468, "lat": 17.3902085, "lon": 78.5594393}, {"type": "node", "id": 10818832469, "lat": 17.3898818, "lon": 78.5594215}, {"type": "node", "id": 10818832470, "lat": 17.3899002, "lon": 78.5590503}, {"type": "node", "id": 10945597369, "lat": 17.3900829, "lon": 78.5527824}, {"type": "node", "id": 10945597370, "lat": 17.3896439, "lon": 78.5535401}, {"type": "node", "id": 10945597371, "lat": 17.3884011, "lon": 78.5527577}, {"type": "node", "id": 10945597372, "lat": 17.388834, "lon": 78.5520039}, {"type": "node", "id": 10945623911, "lat": 17.3886905, "lon": 78.5522538}, {"type": "node", "id": 10945662271, "lat": 17.3879411, "lon": 78.554545}, {"type": "node", "id": 10945662272, "lat": 17.3879462, "lon": 78.5545088}, {"type": "node", "id": 10945687110, "lat": 17.3880737, "lon": 78.5545496}, {"type": "node", "id": 10945687111, "lat": 17.3880724, "lon": 78.554515}, {"type": "node", "id": 10945687112, "lat": 17.3882508, "lon": 78.5545269}, {"type": "node", "id": 10945687113, "lat": 17.3881692, "lon": 78.5545092}, {"type": "node", "id": 10945687714, "lat": 17.3866209, "lon": 78.5531463}, {"type": "node", "id": 10945687715, "lat": 17.3866449, "lon": 78.5529713}, {"type": "node", "id": 10945687716, "lat": 17.387951, "lon": 78.5531682}, {"type": "node", "id": 10945687717, "lat": 17.387927, "lon": 78.5533429}, {"type": "node", "id": 10945690177, "lat": 17.3879162, "lon": 78.5544696}, {"type": "node", "id": 10945690178, "lat": 17.3879017, "lon": 78.5545726}, {"type": "node", "id": 10945690179, "lat": 17.3874612, "lon": 78.5545043}, {"type": "node", "id": 10945690180, "lat": 17.3874757, "lon": 78.5544015}, {"type": "node", "id": 10945700318, "lat": 17.38479, "lon": 78.5584122}, {"type": "node", "id": 10945700319, "lat": 17.3846497, "lon": 78.5583886}, {"type": "node", "id": 10945700320, "lat": 17.3846366, "lon": 78.5584267}, {"type": "node", "id": 10945700321, "lat": 17.3847718, "lon": 78.5584482}, {"type": "node", "id": 10992518093, "lat": 17.3421884, "lon": 78.5576631, "tags": {"amenity": "bus_station", "bus": "yes", "name": "L.B Nagar Bus Stop", "public_transport": "station"}}, {"type": "node", "id": 10992518095, "lat": 17.4045224, "lon": 78.5895715, "tags": {"amenity": "bus_station", "bus": "yes", "name": "TSRTC BUS DEPOT, UPPAL", "public_transport": "station"}}, {"type": "node", "id": 10992518096, "lat": 17.3654488, "lon": 78.5885511, "tags": {"amenity": "bus_station", "bus": "yes", "name": "TSRTC BUS DEPOT , BANDLAGUDA", "public_transport": "station"}}, {"type": "node", "id": 10992544223, "lat": 17.3262276, "lon": 78.5934396, "tags": {"amenity": "bus_station", "bus": "yes", "name": "TSRTC BUS DEPOT , HAYATNAGR 1", "public_transport": "station"}}, {"type": "node", "id": 10992544224, "lat": 17.3250571, "lon": 78.5940827, "tags": {"amenity": "bus_station", "bus": "yes", "name": "TSRTC BUS DEPOT , HAYATNAGR 2", "public_transport": "station"}}, {"type": "node", "id": 11185517430, "lat": 17.4017664, "lon": 78.5683813}, {"type": "node", "id": 11185517431, "lat": 17.4018474, "lon": 78.5683985}, {"type": "node", "id": 11185517432, "lat": 17.4019111, "lon": 78.5685085}, {"type": "node", "id": 11185517433, "lat": 17.4018887, "lon": 78.5685979}, {"type": "node", "id": 11185517434, "lat": 17.4017725, "lon": 78.568569}, {"type": "node", "id": 11185517435, "lat": 17.4016829, "lon": 78.5684923}, {"type": "node", "id": 11373181970, "lat": 17.4114348, "lon": 78.6070496, "tags": {"highway": "bus_stop", "name": "Chengicherla IDA Entrance", "tourism": "viewpoint"}}, {"type": "node", "id": 11373182169, "lat": 17.4013579, "lon": 78.5815697, "tags": {"highway": "bus_stop", "name": "Peerzadiguda Road Bus Stop"}}, {"type": "node", "id": 11373182269, "lat": 17.4053501, "lon": 78.588911, "tags": {"highway": "bus_stop", "name": "Uppal Depot Bus Stop"}}, {"type": "node", "id": 11485653826, "lat": 17.347001, "lon": 78.5511269, "tags": {"bus": "yes", "highway": "bus_stop", "name": "LB Nagar Bus Stop", "public_transport": "platform"}}, {"type": "node", "id": 11485653827, "lat": 17.3460037, "lon": 78.5507702, "tags": {"bus": "yes", "highway": "bus_stop", "name": "LB Nagar Bus Stop", "public_transport": "platform"}}, {"type": "node", "id": 11595483069, "lat": 17.4114477, "lon": 78.6070518, "tags": {"highway": "bus_stop", "name": "Chengicherla Road Bus Stop"}}, {"type": "node", "id": 11736267915, "lat": 17.3681501, "lon": 78.5381335}, {"type": "node", "id": 11737669098, "lat": 17.3618537, "lon": 78.5439302, "tags": {"name": "Victoria Memorial", "name:fa": "\u06cc\u0627\u062f\u0628\u0648\u062f \u0648\u06cc\u06a9\u062a\u0648\u0631\u06cc\u0627", "name:ml": "\u0d35\u0d3f\u0d15\u0d4d\u0d1f\u0d4b\u0d31\u0d3f\u0d2f \u0d2e\u0d46\u0d2e\u0d4d\u0d2e\u0d4b\u0d31\u0d3f\u0d2f\u0d7d", "name:te": "\u0c35\u0c3f\u0c15\u0c4d\u0c1f\u0c4b\u0c30\u0c3f\u0c2f\u0c3e \u0c2e\u0c46\u0c2e\u0c4b\u0c30\u0c3f\u0c2f\u0c32\u0c4d", "name:ur": "\u0648\u06a9\u0679\u0648\u0631\u06cc\u06c1 \u0645\u06cc\u0648\u0645\u0631\u06cc\u0644", "network": "Hyderabad Metro", "operator": "Hyderabad Metro Rail Limited", "public_transport": "station", "railway": "station", "station": "subway", "subway": "yes", "wheelchair": "yes", "wikidata": "Q58814872"}}, {"type": "node", "id": 11737669100, "lat": 17.3498286, "lon": 78.5479138, "tags": {"name": "L. B. Nagar Metro Station", "name:fa": "\u0627\u0644 \u0628\u06cc \u0646\u06af\u0631", "name:ml": "\u0d0e\u0d7d \u0d2c\u0d3f \u0d28\u0d17\u0d7c", "name:te": "\u0c0e\u0c32\u0c4d.\u0c2c\u0c3f. \u0c28\u0c17\u0c30\u0c4d", "network": "Hyderabad Metro", "operator": "Hyderabad Metro Rail Limited", "public_transport": "station", "railway": "station", "station": "subway", "subway": "yes", "wheelchair": "yes", "wikidata": "Q58814838"}}, {"type": "node", "id": 11738179223, "lat": 17.3682602, "lon": 78.5355349, "tags": {"addr:city": "Hyderabad", "addr:city:ar": "\u062d\u064a\u062f\u0631 \u0622\u0628\u0627\u062f", "addr:city:ur": "\u062d\u06cc\u062f\u0631\u0622\u0628\u0627\u062f", "name": "Chaitanyapuri", "name:ml": "\u0d1a\u0d48\u0d24\u0d28\u0d4d\u0d2f\u0d2a\u0d41\u0d30\u0d3f", "name:te": "\u0c1b\u0c48\u0c24\u0c28\u0c4d\u0c2f\u0c2a\u0c41\u0c30\u0c3f", "network": "Hyderabad Metro", "note": "Contributors are requested to not edit the \"network\" and the \"operator\" tags. (2023/11/08)", "operator": "Hyderabad Metro Rail Limited", "public_transport": "stop_position", "railway": "stop", "subway": "yes", "wheelchair": "yes"}}, {"type": "node", "id": 11738179268, "lat": 17.3489155, "lon": 78.5486855}, {"type": "node", "id": 11738182169, "lat": 17.3488772, "lon": 78.5486314}, {"type": "node", "id": 11947041765, "lat": 17.3652751, "lon": 78.5425943}, {"type": "node", "id": 12254609958, "lat": 17.3681926, "lon": 78.5374655}, {"type": "node", "id": 12254609960, "lat": 17.3681566, "lon": 78.5377728}, {"type": "node", "id": 12254609962, "lat": 17.3683363, "lon": 78.5331735}, {"type": "node", "id": 12254609964, "lat": 17.3684425, "lon": 78.5291523}, {"type": "node", "id": 12254609965, "lat": 17.3683567, "lon": 78.5325135}, {"type": "node", "id": 12254609968, "lat": 17.3685332, "lon": 78.5250373}, {"type": "node", "id": 12254609970, "lat": 17.3673751, "lon": 78.5402294}, {"type": "node", "id": 12254609971, "lat": 17.3673389, "lon": 78.5401809}, {"type": "node", "id": 12254609972, "lat": 17.3672221, "lon": 78.5403937}, {"type": "node", "id": 12254609973, "lat": 17.3674476, "lon": 78.539978}, {"type": "node", "id": 12254609974, "lat": 17.3677228, "lon": 78.5393737}, {"type": "node", "id": 12254609977, "lat": 17.3563054, "lon": 78.5453946}, {"type": "node", "id": 12254609978, "lat": 17.3521312, "lon": 78.5464143}, {"type": "node", "id": 12254609979, "lat": 17.3520763, "lon": 78.5464832}, {"type": "node", "id": 12497356901, "lat": 17.4024542, "lon": 78.5593065}, {"type": "node", "id": 12497356902, "lat": 17.4024095, "lon": 78.559283}, {"type": "node", "id": 12497356903, "lat": 17.402084, "lon": 78.5597963}, {"type": "node", "id": 12497356904, "lat": 17.4020573, "lon": 78.5597613}, {"type": "node", "id": 12596417368, "lat": 17.3433042, "lon": 78.5479812, "tags": {"crossing": "inner_ring_road", "railway": "crossing"}}, {"type": "node", "id": 13324778746, "lat": 17.380171, "lon": 78.5821085, "tags": {"bus": "yes", "highway": "bus_stop", "public_transport": "platform"}}, {"type": "way", "id": 435301134, "nodes": [5941038077, 10945700319, 10945700318, 5941038076, 5941038075, 2422173016, 2422173106, 5941037585, 5941037587, 5941037593, 5941037588, 5941038053, 5941038057, 2422173012], "tags": {"bridge": "viaduct", "check_date": "2017-11-28", "electrified": "contact_line", "frequency": "50", "gauge": "1435", "layer": "2", "name": "Hyderabad Metro Line 3 (blue)", "network": "Hyderabad Metro", "note": "Contributors are requested to not edit the \"network\" and the \"operator\" tags. (2023/11/08)", "opening_date": "2017-11-28", "operator": "Hyderabad Metro Rail Limited", "railway": "subway", "service": "siding", "subway": "yes", "voltage": "25000"}}, {"type": "way", "id": 588113163, "nodes": [2422173113, 2584838818, 2584838819, 2422173042, 2584838827, 2422173048], "tags": {"bridge": "yes", "check_date": "2017-11-28", "electrified": "rail", "layer": "2", "name": "Hyderabad Metro Line 3 (blue)", "network": "Hyderabad Metro", "note": "Contributors are requested to not edit the \"network\" and the \"operator\" tags. (2023/11/08)", "opening_date": "2017-11-28", "operator": "Hyderabad Metro Rail Limited", "railway": "subway", "subway": "yes"}}, {"type": "way", "id": 588123050, "nodes": [2422173009, 5429308731, 2441134172, 2592338052, 9870003635, 2422172971, 2422173107, 12497356904, 7052069747, 2584826484, 12497356902, 2584826486, 2584826488, 2584826487, 2584826485, 2422173099, 2422173094], "tags": {"bridge": "yes", "check_date": "2017-11-28", "electrified": "rail", "layer": "2", "name": "Hyderabad Metro Line 3 (blue)", "network": "Hyderabad Metro", "note": "Contributors are requested to not edit the \"network\" and the \"operator\" tags. (2023/11/08)", "opening_date": "2017-11-28", "operator": "Hyderabad Metro Rail Limited", "railway": "subway", "subway": "yes"}}, {"type": "way", "id": 588123051, "nodes": [2422173094, 2584838824, 2584838823, 2584838822, 2584838821, 2584838820, 2584838825, 2584838826, 2422173113], "tags": {"bridge": "yes", "check_date": "2017-11-28", "electrified": "rail", "layer": "2", "name": "Hyderabad Metro Line 3 (blue)", "network": "Hyderabad Metro", "note": "Contributors are requested to not edit the \"network\" and the \"operator\" tags. (2023/11/08)", "opening_date": "2017-11-28", "operator": "Hyderabad Metro Rail Limited", "railway": "subway", "subway": "yes"}}, {"type": "way", "id": 611277275, "nodes": [5787788737, 5941038060, 5941038054, 5941037589, 5941037586, 5787788738, 5787788971, 5941038079, 5941038080, 10945700321, 10945700320, 5941038078], "tags": {"bridge": "viaduct", "check_date": "2017-11-28", "electrified": "contact_line", "frequency": "50", "gauge": "1435", "layer": "2", "name": "Hyderabad Metro Line 3 (blue)", "network": "Hyderabad Metro", "note": "Contributors are requested to not edit the \"network\" and the \"operator\" tags. (2023/11/08)", "opening_date": "2017-11-28", "operator": "Hyderabad Metro Rail Limited", "railway": "subway", "service": "siding", "subway": "yes", "voltage": "25000"}}, {"type": "way", "id": 611277276, "nodes": [5787788973, 5787788739, 5787788740, 5787788741, 5787788742, 5787788743, 12497356901, 5787788744, 7052069748, 12497356903, 5787788745, 9870003648, 5787788746, 5787788747, 5787788748, 5787788749, 5787788972], "tags": {"bridge": "yes", "check_date": "2017-11-28", "electrified": "rail", "layer": "2", "name": "Hyderabad Metro Line 3 (blue)", "network": "Hyderabad Metro", "note": "Contributors are requested to not edit the \"network\" and the \"operator\" tags. (2023/11/08)", "opening_date": "2017-11-28", "operator": "Hyderabad Metro Rail Limited", "railway": "subway", "subway": "yes"}}, {"type": "way", "id": 611277277, "nodes": [5787788974, 5787788750, 5787788751, 5787788752, 5787788853, 5787788854, 5787788855, 5787788856, 5787788973], "tags": {"bridge": "yes", "check_date": "2017-11-28", "electrified": "rail", "layer": "2", "name": "Hyderabad Metro Line 3 (blue)", "network": "Hyderabad Metro", "note": "Contributors are requested to not edit the \"network\" and the \"operator\" tags. (2023/11/08)", "opening_date": "2017-11-28", "operator": "Hyderabad Metro Rail Limited", "railway": "subway", "subway": "yes"}}, {"type": "way", "id": 611277279, "nodes": [5787788975, 5787788857, 5787788858, 5787788859, 10185389602, 5787788860, 5787788974], "tags": {"bridge": "yes", "check_date": "2017-11-28", "electrified": "rail", "layer": "2", "name": "Hyderabad Metro Line 3 (blue)", "network": "Hyderabad Metro", "note": "Contributors are requested to not edit the \"network\" and the \"operator\" tags. (2023/11/08)", "opening_date": "2017-11-28", "operator": "Hyderabad Metro Rail Limited", "railway": "subway", "subway": "yes"}}, {"type": "way", "id": 629256729, "nodes": [5941037585, 5941037595, 5941037596, 5787788738], "tags": {"bridge": "yes", "electrified": "contact_line", "frequency": "50", "gauge": "1435", "layer": "2", "network": "Hyderabad Metro", "note": "Contributors are requested to not edit the \"network\" and the \"operator\" tags. (2023/11/08)", "operator": "Hyderabad Metro Rail Limited", "railway": "subway", "service": "crossover", "subway": "yes", "voltage": "25000"}}, {"type": "way", "id": 629256730, "nodes": [5941037587, 5941037590, 5941037591, 5941037597, 5941037617, 5941037618, 5941037619, 5941037620, 5941037621, 5941037622, 5941037623, 5941037624, 5941037625, 5941037626, 5941037627, 5941037628, 5941037629, 5941037630, 5941037631, 5941037632, 5941037633], "tags": {"bridge": "viaduct", "bridge:structure": "beam", "electrified": "contact_line", "frequency": "50", "gauge": "1435", "layer": "2", "network": "Hyderabad Metro", "note": "Contributors are requested to not edit the \"network\" and the \"operator\" tags. (2023/11/08)", "operator": "Hyderabad Metro Rail Limited", "railway": "subway", "service": "spur", "subway": "yes", "voltage": "25000"}}, {"type": "way", "id": 629256731, "nodes": [5941037615, 5941037614], "tags": {"electrified": "contact_line", "embankment": "left", "frequency": "50", "gauge": "1435", "network": "Hyderabad Metro", "note": "Contributors are requested to not edit the \"network\" and the \"operator\" tags. (2023/11/08)", "operator": "Hyderabad Metro Rail Limited", "railway": "subway", "service": "spur", "subway": "yes", "voltage": "25000"}}, {"type": "way", "id": 629256732, "nodes": [5941037614, 5941037613, 5941037612, 5941037611, 5941037616, 5941037610, 5941037609, 5941037608, 5941037607, 5941037606, 5941037605, 5941037604, 5941037603, 5941037602, 5941037601, 5941037600, 5941037599, 5941037598], "tags": {"bridge": "yes", "electrified": "contact_line", "frequency": "50", "gauge": "1435", "layer": "1", "network": "Hyderabad Metro", "note": "Contributors are requested to not edit the \"network\" and the \"operator\" tags. (2023/11/08)", "operator": "Hyderabad Metro Rail Limited", "railway": "subway", "service": "spur", "subway": "yes", "voltage": "25000"}}, {"type": "way", "id": 629256733, "nodes": [5941037598, 5941037592, 5941037593, 5941037594, 5941037586], "tags": {"bridge": "yes", "electrified": "contact_line", "frequency": "50", "gauge": "1435", "layer": "2", "network": "Hyderabad Metro", "note": "Contributors are requested to not edit the \"network\" and the \"operator\" tags. (2023/11/08)", "operator": "Hyderabad Metro Rail Limited", "railway": "subway", "service": "spur", "subway": "yes", "voltage": "25000"}}, {"type": "way", "id": 629256734, "nodes": [5941037633, 5941037634], "tags": {"electrified": "contact_line", "embankment": "left", "frequency": "50", "gauge": "1435", "network": "Hyderabad Metro", "note": "Contributors are requested to not edit the \"network\" and the \"operator\" tags. (2023/11/08)", "operator": "Hyderabad Metro Rail Limited", "railway": "subway", "service": "spur", "subway": "yes", "voltage": "25000"}}, {"type": "way", "id": 629256735, "nodes": [5941037662, 5941037663, 5941037664, 5941037665, 5941037666, 5941037667, 5941037668, 5941037669, 5941037671], "tags": {"electrified": "contact_line", "frequency": "50", "gauge": "1435", "network": "Hyderabad Metro", "note": "Contributors are requested to not edit the \"network\" and the \"operator\" tags. (2023/11/08)", "operator": "Hyderabad Metro Rail Limited", "railway": "subway", "service": "yard", "subway": "yes", "voltage": "25000"}}, {"type": "way", "id": 629256738, "nodes": [5941037662, 5941037672, 5941037673, 5941037674, 5941037675], "tags": {"electrified": "contact_line", "frequency": "50", "gauge": "1435", "network": "Hyderabad Metro", "note": "Contributors are requested to not edit the \"network\" and the \"operator\" tags. (2023/11/08)", "operator": "Hyderabad Metro Rail Limited", "railway": "subway", "service": "yard", "subway": "yes", "voltage": "25000"}}, {"type": "way", "id": 629256739, "nodes": [5941037651, 5941037690], "tags": {"electrified": "contact_line", "frequency": "50", "gauge": "1435", "network": "Hyderabad Metro", "note": "Contributors are requested to not edit the \"network\" and the \"operator\" tags. (2023/11/08)", "operator": "Hyderabad Metro Rail Limited", "railway": "subway", "service": "spur", "subway": "yes", "voltage": "25000"}}, {"type": "way", "id": 629256740, "nodes": [5941037696, 5941037700, 5941037697, 5941037698, 5941037892, 5941037699], "tags": {"electrified": "contact_line", "frequency": "50", "gauge": "1435", "network": "Hyderabad Metro", "note": "Contributors are requested to not edit the \"network\" and the \"operator\" tags. (2023/11/08)", "operator": "Hyderabad Metro Rail Limited", "railway": "subway", "service": "yard", "subway": "yes", "voltage": "25000"}}, {"type": "way", "id": 629256741, "nodes": [5941037695, 5941037696, 5941037701, 5941037702, 5941037703, 5941037704, 5941037705], "tags": {"electrified": "contact_line", "frequency": "50", "gauge": "1435", "network": "Hyderabad Metro", "note": "Contributors are requested to not edit the \"network\" and the \"operator\" tags. (2023/11/08)", "operator": "Hyderabad Metro Rail Limited", "railway": "subway", "service": "yard", "subway": "yes", "voltage": "25000"}}, {"type": "way", "id": 629256742, "nodes": [5941037723, 5941037722, 5941037721, 5941037720, 5941037719, 5941037718, 5941037717, 5941037716, 5941037715], "tags": {"electrified": "contact_line", "frequency": "50", "gauge": "1435", "network": "Hyderabad Metro", "note": "Contributors are requested to not edit the \"network\" and the \"operator\" tags. (2023/11/08)", "operator": "Hyderabad Metro Rail Limited", "railway": "subway", "service": "yard", "subway": "yes", "voltage": "25000"}}, {"type": "way", "id": 629256743, "nodes": [5941037634, 5941037635, 5941037636, 5941037637, 5941037638, 5941037639, 5941037640, 5941037641, 5941037642, 5941037643, 5941037644, 5941037645, 5941037646, 5941037647, 5941037648, 5941037649, 5941037650, 5941037651, 5941037659, 5941037660, 5941037661], "tags": {"electrified": "contact_line", "frequency": "50", "gauge": "1435", "network": "Hyderabad Metro", "note": "Contributors are requested to not edit the \"network\" and the \"operator\" tags. (2023/11/08)", "operator": "Hyderabad Metro Rail Limited", "railway": "subway", "service": "spur", "subway": "yes", "voltage": "25000"}}, {"type": "way", "id": 629256744, "nodes": [5941037635, 5941037748, 5941037747, 5941037707, 5941037746, 5941037745], "tags": {"electrified": "contact_line", "frequency": "50", "gauge": "1435", "network": "Hyderabad Metro", "note": "Contributors are requested to not edit the \"network\" and the \"operator\" tags. (2023/11/08)", "operator": "Hyderabad Metro Rail Limited", "railway": "subway", "service": "crossover", "subway": "yes", "voltage": "25000"}}, {"type": "way", "id": 629256745, "nodes": [5941037709, 5941037708, 5941037707, 5941037706, 5941037637], "tags": {"electrified": "contact_line", "frequency": "50", "gauge": "1435", "network": "Hyderabad Metro", "note": "Contributors are requested to not edit the \"network\" and the \"operator\" tags. (2023/11/08)", "operator": "Hyderabad Metro Rail Limited", "railway": "subway", "service": "crossover", "subway": "yes", "voltage": "25000"}}, {"type": "way", "id": 629256746, "nodes": [5941037763, 5941037764, 5941037765, 5941037766, 5941037767, 5941037768, 5941037769], "tags": {"electrified": "contact_line", "frequency": "50", "gauge": "1435", "network": "Hyderabad Metro", "note": "Contributors are requested to not edit the \"network\" and the \"operator\" tags. (2023/11/08)", "operator": "Hyderabad Metro Rail Limited", "railway": "subway", "service": "spur", "subway": "yes", "voltage": "25000"}}, {"type": "way", "id": 629256747, "nodes": [5941037762, 5941037763], "tags": {"covered": "yes", "electrified": "contact_line", "frequency": "50", "gauge": "1435", "network": "Hyderabad Metro", "note": "Contributors are requested to not edit the \"network\" and the \"operator\" tags. (2023/11/08)", "operator": "Hyderabad Metro Rail Limited", "railway": "subway", "service": "spur", "subway": "yes", "voltage": "25000"}}, {"type": "way", "id": 629256748, "nodes": [5941037772, 5941037771], "tags": {"covered": "yes", "electrified": "contact_line", "frequency": "50", "gauge": "1435", "network": "Hyderabad Metro", "note": "Contributors are requested to not edit the \"network\" and the \"operator\" tags. (2023/11/08)", "operator": "Hyderabad Metro Rail Limited", "railway": "subway", "service": "spur", "subway": "yes", "voltage": "25000"}}, {"type": "way", "id": 629256749, "nodes": [5941037771, 5941037769, 5941037770], "tags": {"electrified": "contact_line", "frequency": "50", "gauge": "1435", "network": "Hyderabad Metro", "note": "Contributors are requested to not edit the \"network\" and the \"operator\" tags. (2023/11/08)", "operator": "Hyderabad Metro Rail Limited", "railway": "subway", "service": "spur", "subway": "yes", "voltage": "25000"}}, {"type": "way", "id": 629256750, "nodes": [5941037756, 5941037757, 5941037758, 10945687112, 5941037759, 5941037760, 10945687110, 5941037761, 10945662271, 5941037762], "tags": {"electrified": "contact_line", "frequency": "50", "gauge": "1435", "network": "Hyderabad Metro", "note": "Contributors are requested to not edit the \"network\" and the \"operator\" tags. (2023/11/08)", "operator": "Hyderabad Metro Rail Limited", "railway": "subway", "service": "spur", "subway": "yes", "voltage": "25000"}}, {"type": "way", "id": 629256751, "nodes": [5941037785, 5941037784, 5941037783, 5941037782, 5941037781, 5941037780, 5941037779, 5941037753], "tags": {"electrified": "contact_line", "frequency": "50", "gauge": "1435", "network": "Hyderabad Metro", "note": "Contributors are requested to not edit the \"network\" and the \"operator\" tags. (2023/11/08)", "operator": "Hyderabad Metro Rail Limited", "railway": "subway", "service": "yard", "subway": "yes", "voltage": "25000"}}, {"type": "way", "id": 629256752, "nodes": [5941037661, 5941037749, 5941037750, 5941037751, 5941037752, 5941037753, 5941037754, 5941037755, 5941037756, 5941037778, 5941037777, 5941037776, 5941037775, 10945687113, 5941037774, 10945687111, 5941037773, 10945662272, 5941037772], "tags": {"electrified": "contact_line", "frequency": "50", "gauge": "1435", "network": "Hyderabad Metro", "note": "Contributors are requested to not edit the \"network\" and the \"operator\" tags. (2023/11/08)", "operator": "Hyderabad Metro Rail Limited", "railway": "subway", "service": "spur", "subway": "yes", "voltage": "25000"}}, {"type": "way", "id": 629256753, "nodes": [5941037661, 5941037662], "tags": {"electrified": "contact_line", "frequency": "50", "gauge": "1435", "network": "Hyderabad Metro", "note": "Contributors are requested to not edit the \"network\" and the \"operator\" tags. (2023/11/08)", "operator": "Hyderabad Metro Rail Limited", "railway": "subway", "service": "yard", "subway": "yes", "voltage": "25000"}}, {"type": "way", "id": 629256755, "nodes": [5941037733, 5941037732, 5941037731, 5941037730, 5941037729, 5941037728], "tags": {"electrified": "contact_line", "frequency": "50", "gauge": "1435", "network": "Hyderabad Metro", "note": "Contributors are requested to not edit the \"network\" and the \"operator\" tags. (2023/11/08)", "operator": "Hyderabad Metro Rail Limited", "railway": "subway", "service": "spur", "subway": "yes", "voltage": "25000"}}, {"type": "way", "id": 629256756, "nodes": [5941037825, 5941037826], "tags": {"electrified": "contact_line", "frequency": "50", "gauge": "1435", "network": "Hyderabad Metro", "note": "Contributors are requested to not edit the \"network\" and the \"operator\" tags. (2023/11/08)", "operator": "Hyderabad Metro Rail Limited", "railway": "subway", "service": "yard", "subway": "yes", "voltage": "25000"}}, {"type": "way", "id": 629256757, "nodes": [5941037824, 5941037825], "tags": {"electrified": "contact_line", "frequency": "50", "gauge": "1435", "network": "Hyderabad Metro", "note": "Contributors are requested to not edit the \"network\" and the \"operator\" tags. (2023/11/08)", "operator": "Hyderabad Metro Rail Limited", "railway": "subway", "service": "yard", "subway": "yes", "tunnel": "building_passage", "voltage": "25000"}}, {"type": "way", "id": 629256759, "nodes": [5941037733, 5941037816, 5941037817, 5941037818, 5941037819, 5941037820, 5941037821, 5941037822, 5941037823, 5941037824], "tags": {"electrified": "contact_line", "frequency": "50", "gauge": "1435", "network": "Hyderabad Metro", "note": "Contributors are requested to not edit the \"network\" and the \"operator\" tags. (2023/11/08)", "operator": "Hyderabad Metro Rail Limited", "railway": "subway", "service": "yard", "subway": "yes", "voltage": "25000"}}, {"type": "way", "id": 629256760, "nodes": [5941037728, 5941037727, 5941037726, 5941037725, 5941037724, 5941037695], "tags": {"electrified": "contact_line", "frequency": "50", "gauge": "1435", "network": "Hyderabad Metro", "note": "Contributors are requested to not edit the \"network\" and the \"operator\" tags. (2023/11/08)", "operator": "Hyderabad Metro Rail Limited", "railway": "subway", "service": "spur", "subway": "yes", "voltage": "25000"}}, {"type": "way", "id": 629256761, "nodes": [5941037841, 5941037840], "tags": {"electrified": "contact_line", "frequency": "50", "gauge": "1435", "network": "Hyderabad Metro", "note": "Contributors are requested to not edit the \"network\" and the \"operator\" tags. (2023/11/08)", "operator": "Hyderabad Metro Rail Limited", "railway": "subway", "service": "yard", "subway": "yes", "voltage": "25000"}}, {"type": "way", "id": 629256762, "nodes": [5941037839, 5941037841], "tags": {"covered": "yes", "electrified": "contact_line", "frequency": "50", "gauge": "1435", "network": "Hyderabad Metro", "note": "Contributors are requested to not edit the \"network\" and the \"operator\" tags. (2023/11/08)", "operator": "Hyderabad Metro Rail Limited", "railway": "subway", "service": "yard", "subway": "yes", "voltage": "25000"}}, {"type": "way", "id": 629256763, "nodes": [5941037855, 5941037856], "tags": {"electrified": "contact_line", "frequency": "50", "gauge": "1435", "network": "Hyderabad Metro", "note": "Contributors are requested to not edit the \"network\" and the \"operator\" tags. (2023/11/08)", "operator": "Hyderabad Metro Rail Limited", "railway": "subway", "service": "yard", "subway": "yes", "voltage": "25000"}}, {"type": "way", "id": 629256764, "nodes": [5941037854, 5941037855], "tags": {"covered": "yes", "electrified": "contact_line", "frequency": "50", "gauge": "1435", "network": "Hyderabad Metro", "note": "Contributors are requested to not edit the \"network\" and the \"operator\" tags. (2023/11/08)", "operator": "Hyderabad Metro Rail Limited", "railway": "subway", "service": "yard", "subway": "yes", "voltage": "25000"}}, {"type": "way", "id": 629256765, "nodes": [5941037831, 5941037843, 5941037898, 5941037915], "tags": {"electrified": "contact_line", "frequency": "50", "gauge": "1435", "network": "Hyderabad Metro", "note": "Contributors are requested to not edit the \"network\" and the \"operator\" tags. (2023/11/08)", "operator": "Hyderabad Metro Rail Limited", "railway": "subway", "service": "yard", "subway": "yes", "voltage": "25000"}}, {"type": "way", "id": 629256766, "nodes": [5941037864, 5941037863], "tags": {"electrified": "contact_line", "frequency": "50", "gauge": "1435", "network": "Hyderabad Metro", "note": "Contributors are requested to not edit the \"network\" and the \"operator\" tags. (2023/11/08)", "operator": "Hyderabad Metro Rail Limited", "railway": "subway", "service": "yard", "subway": "yes", "voltage": "25000"}}, {"type": "way", "id": 629256767, "nodes": [5941037848, 5941037849, 5941037850, 5941037851, 5941037852, 5941037853, 5941037894, 5941037854], "tags": {"electrified": "contact_line", "frequency": "50", "gauge": "1435", "network": "Hyderabad Metro", "note": "Contributors are requested to not edit the \"network\" and the \"operator\" tags. (2023/11/08)", "operator": "Hyderabad Metro Rail Limited", "railway": "subway", "service": "yard", "subway": "yes", "voltage": "25000"}}, {"type": "way", "id": 629256768, "nodes": [5941037862, 5941037863], "tags": {"covered": "yes", "electrified": "contact_line", "frequency": "50", "gauge": "1435", "network": "Hyderabad Metro", "note": "Contributors are requested to not edit the \"network\" and the \"operator\" tags. (2023/11/08)", "operator": "Hyderabad Metro Rail Limited", "railway": "subway", "service": "yard", "subway": "yes", "voltage": "25000"}}, {"type": "way", "id": 629256769, "nodes": [5941037715, 5941037714, 5941037713, 5941037712, 5941037711, 5941037710], "tags": {"electrified": "contact_line", "frequency": "50", "gauge": "1435", "network": "Hyderabad Metro", "note": "Contributors are requested to not edit the \"network\" and the \"operator\" tags. (2023/11/08)", "operator": "Hyderabad Metro Rail Limited", "railway": "subway", "service": "yard", "subway": "yes", "voltage": "25000"}}, {"type": "way", "id": 629256770, "nodes": [5941037891, 5941037890, 5941037889, 5941037888, 5941037887, 5941037869, 5941037871, 5941037872, 5941037873, 5941037874, 5941037875, 5941037876, 5941037877, 5941037878, 5941037879, 5941037880, 5941037881, 5941037882, 5941037883, 5941037884, 5941037885, 5941037886], "tags": {"electrified": "contact_line", "frequency": "50", "gauge": "1435", "network": "Hyderabad Metro", "note": "Contributors are requested to not edit the \"network\" and the \"operator\" tags. (2023/11/08)", "operator": "Hyderabad Metro Rail Limited", "railway": "subway", "service": "yard", "subway": "yes", "voltage": "25000"}}, {"type": "way", "id": 629256771, "nodes": [5941037715, 5941037865, 5941037866, 5941037867, 5941037868, 5941037870, 5941037869], "tags": {"electrified": "contact_line", "frequency": "50", "gauge": "1435", "network": "Hyderabad Metro", "note": "Contributors are requested to not edit the \"network\" and the \"operator\" tags. (2023/11/08)", "operator": "Hyderabad Metro Rail Limited", "railway": "subway", "service": "yard", "subway": "yes", "voltage": "25000"}}, {"type": "way", "id": 629256772, "nodes": [5941037690, 5941037691, 5941037692, 5941037693, 5941037694, 5941037695], "tags": {"electrified": "contact_line", "frequency": "50", "gauge": "1435", "network": "Hyderabad Metro", "note": "Contributors are requested to not edit the \"network\" and the \"operator\" tags. (2023/11/08)", "operator": "Hyderabad Metro Rail Limited", "railway": "subway", "service": "crossover", "subway": "yes", "voltage": "25000"}}, {"type": "way", "id": 629256774, "nodes": [5941037843, 5941037844, 5941037845, 5941037846, 5941037847, 5941037848, 5941037857, 5941037858, 5941037859, 5941037860, 5941037861, 5941037893, 5941037862], "tags": {"electrified": "contact_line", "frequency": "50", "gauge": "1435", "network": "Hyderabad Metro", "note": "Contributors are requested to not edit the \"network\" and the \"operator\" tags. (2023/11/08)", "operator": "Hyderabad Metro Rail Limited", "railway": "subway", "service": "yard", "subway": "yes", "voltage": "25000"}}, {"type": "way", "id": 629256775, "nodes": [5941037908, 5941037909], "tags": {"electrified": "contact_line", "frequency": "50", "gauge": "1435", "network": "Hyderabad Metro", "note": "Contributors are requested to not edit the \"network\" and the \"operator\" tags. (2023/11/08)", "operator": "Hyderabad Metro Rail Limited", "railway": "subway", "service": "yard", "subway": "yes", "voltage": "25000"}}, {"type": "way", "id": 629256776, "nodes": [5941037907, 5941037908], "tags": {"covered": "yes", "electrified": "contact_line", "frequency": "50", "gauge": "1435", "network": "Hyderabad Metro", "note": "Contributors are requested to not edit the \"network\" and the \"operator\" tags. (2023/11/08)", "operator": "Hyderabad Metro Rail Limited", "railway": "subway", "service": "yard", "subway": "yes", "voltage": "25000"}}, {"type": "way", "id": 629256777, "nodes": [5941037898, 5941037899, 5941037900, 5941037901, 5941037953, 5941037902, 5941037903, 5941037904, 5941037905, 5941037906, 5941037907], "tags": {"electrified": "contact_line", "frequency": "50", "gauge": "1435", "network": "Hyderabad Metro", "note": "Contributors are requested to not edit the \"network\" and the \"operator\" tags. (2023/11/08)", "operator": "Hyderabad Metro Rail Limited", "railway": "subway", "service": "yard", "subway": "yes", "voltage": "25000"}}, {"type": "way", "id": 629256778, "nodes": [5941037924, 5941037923, 5941037922, 5941037921, 5941037920, 5941037915], "tags": {"electrified": "contact_line", "frequency": "50", "gauge": "1435", "network": "Hyderabad Metro", "note": "Contributors are requested to not edit the \"network\" and the \"operator\" tags. (2023/11/08)", "operator": "Hyderabad Metro Rail Limited", "railway": "subway", "service": "yard", "subway": "yes", "voltage": "25000"}}, {"type": "way", "id": 629256779, "nodes": [5941037915, 5941037916, 5941037917, 5941037918, 5941037919], "tags": {"electrified": "contact_line", "frequency": "50", "gauge": "1435", "network": "Hyderabad Metro", "note": "Contributors are requested to not edit the \"network\" and the \"operator\" tags. (2023/11/08)", "operator": "Hyderabad Metro Rail Limited", "railway": "subway", "service": "yard", "subway": "yes", "voltage": "25000"}}, {"type": "way", "id": 629256780, "nodes": [5941037934, 5941037933, 5941037932, 5941037931, 5941037930, 5941037929, 5941037653], "tags": {"electrified": "contact_line", "frequency": "50", "gauge": "1435", "network": "Hyderabad Metro", "note": "Contributors are requested to not edit the \"network\" and the \"operator\" tags. (2023/11/08)", "operator": "Hyderabad Metro Rail Limited", "railway": "subway", "service": "yard", "subway": "yes", "voltage": "25000"}}, {"type": "way", "id": 629256781, "nodes": [5941037930, 5941037935, 5941037936, 5941037937, 5941037938, 5941037939], "tags": {"electrified": "contact_line", "frequency": "50", "gauge": "1435", "network": "Hyderabad Metro", "note": "Contributors are requested to not edit the \"network\" and the \"operator\" tags. (2023/11/08)", "operator": "Hyderabad Metro Rail Limited", "railway": "subway", "service": "yard", "subway": "yes", "voltage": "25000"}}, {"type": "way", "id": 629256782, "nodes": [5941037690, 5941037652, 5941037940, 5941037941, 5941037949, 5941037950, 5941037951, 5941037952], "tags": {"electrified": "contact_line", "frequency": "50", "gauge": "1435", "network": "Hyderabad Metro", "note": "Contributors are requested to not edit the \"network\" and the \"operator\" tags. (2023/11/08)", "operator": "Hyderabad Metro Rail Limited", "railway": "subway", "service": "yard", "subway": "yes", "voltage": "25000"}}, {"type": "way", "id": 629256783, "nodes": [5941037652, 5941037653, 5941037654, 5941037655, 5941037656, 5941037657, 5941037658], "tags": {"electrified": "contact_line", "frequency": "50", "gauge": "1435", "network": "Hyderabad Metro", "note": "Contributors are requested to not edit the \"network\" and the \"operator\" tags. (2023/11/08)", "operator": "Hyderabad Metro Rail Limited", "railway": "subway", "service": "yard", "subway": "yes", "voltage": "25000"}}, {"type": "way", "id": 629256784, "nodes": [5941037941, 5941037942, 5941037943, 5941037944, 5941037945, 5941037946, 5941037947, 5941037948], "tags": {"electrified": "contact_line", "frequency": "50", "gauge": "1435", "network": "Hyderabad Metro", "note": "Contributors are requested to not edit the \"network\" and the \"operator\" tags. (2023/11/08)", "operator": "Hyderabad Metro Rail Limited", "railway": "subway", "service": "yard", "subway": "yes", "voltage": "25000"}}, {"type": "way", "id": 629256785, "nodes": [5941037728, 5941037828, 5941037829, 5941037830, 5941037831, 5941037842, 5941037832, 5941037833, 5941037834, 5941037835, 5941037836, 5941037837, 5941037838, 5941037839], "tags": {"electrified": "contact_line", "frequency": "50", "gauge": "1435", "network": "Hyderabad Metro", "note": "Contributors are requested to not edit the \"network\" and the \"operator\" tags. (2023/11/08)", "operator": "Hyderabad Metro Rail Limited", "railway": "subway", "service": "yard", "subway": "yes", "voltage": "25000"}}, {"type": "way", "id": 629256787, "nodes": [5941037901, 5941037910, 5941037911, 5941037912, 5941037913, 5941037914], "tags": {"electrified": "contact_line", "frequency": "50", "gauge": "1435", "network": "Hyderabad Metro", "note": "Contributors are requested to not edit the \"network\" and the \"operator\" tags. (2023/11/08)", "operator": "Hyderabad Metro Rail Limited", "railway": "subway", "service": "yard", "subway": "yes", "voltage": "25000"}}, {"type": "way", "id": 629256790, "nodes": [5941037615, 5941037710, 5941037709, 5941037745, 5941037744, 5941037743, 5941037742, 5941037741, 5941037740, 5941037739, 5941037738, 5941037737, 5941037736, 5941037735, 5941037734, 5941037733], "tags": {"electrified": "contact_line", "frequency": "50", "gauge": "1435", "network": "Hyderabad Metro", "note": "Contributors are requested to not edit the \"network\" and the \"operator\" tags. (2023/11/08)", "operator": "Hyderabad Metro Rail Limited", "railway": "subway", "service": "spur", "subway": "yes", "voltage": "25000"}}, {"type": "way", "id": 629256793, "nodes": [5941037966, 5941037967], "tags": {"covered": "yes", "electrified": "contact_line", "frequency": "50", "gauge": "1435", "network": "Hyderabad Metro", "note": "Contributors are requested to not edit the \"network\" and the \"operator\" tags. (2023/11/08)", "operator": "Hyderabad Metro Rail Limited", "railway": "subway", "service": "yard", "subway": "yes", "voltage": "25000"}}, {"type": "way", "id": 629256796, "nodes": [5941037744, 5941037954, 5941038002, 5941038003, 5941038004, 5941038026, 5941038027, 5941038028, 5941038029, 5941038030, 5941038031, 5941038032, 5941038046, 5941038033], "tags": {"electrified": "contact_line", "frequency": "50", "gauge": "1435", "network": "Hyderabad Metro", "note": "Contributors are requested to not edit the \"network\" and the \"operator\" tags. (2023/11/08)", "operator": "Hyderabad Metro Rail Limited", "railway": "subway", "service": "yard", "subway": "yes", "voltage": "25000"}}, {"type": "way", "id": 629256800, "nodes": [5941037985, 5941037986], "tags": {"covered": "yes", "electrified": "contact_line", "frequency": "50", "gauge": "1435", "network": "Hyderabad Metro", "note": "Contributors are requested to not edit the \"network\" and the \"operator\" tags. (2023/11/08)", "operator": "Hyderabad Metro Rail Limited", "railway": "subway", "service": "yard", "subway": "yes", "voltage": "25000"}}, {"type": "way", "id": 629256803, "nodes": [5941037742, 5941037968, 5941037969, 5941037970, 5941037971, 5941037972, 5941037973, 5941037974, 5941037975, 5941037992, 5941037995, 5941037996, 5941037997, 5941037998, 5941037999, 5941038000], "tags": {"electrified": "contact_line", "frequency": "50", "gauge": "1435", "network": "Hyderabad Metro", "note": "Contributors are requested to not edit the \"network\" and the \"operator\" tags. (2023/11/08)", "operator": "Hyderabad Metro Rail Limited", "railway": "subway", "service": "yard", "subway": "yes", "voltage": "25000"}}, {"type": "way", "id": 629256806, "nodes": [5941037978, 5941037979, 5941037980, 5941037981, 5941037982, 5941037983, 5941037984, 5941037985], "tags": {"electrified": "contact_line", "frequency": "50", "gauge": "1435", "network": "Hyderabad Metro", "note": "Contributors are requested to not edit the \"network\" and the \"operator\" tags. (2023/11/08)", "operator": "Hyderabad Metro Rail Limited", "railway": "subway", "service": "yard", "subway": "yes", "voltage": "25000"}}, {"type": "way", "id": 629256809, "nodes": [5941037990, 5941037991], "tags": {"covered": "yes", "electrified": "contact_line", "frequency": "50", "gauge": "1435", "network": "Hyderabad Metro", "note": "Contributors are requested to not edit the \"network\" and the \"operator\" tags. (2023/11/08)", "operator": "Hyderabad Metro Rail Limited", "railway": "subway", "service": "yard", "subway": "yes", "voltage": "25000"}}, {"type": "way", "id": 629256812, "nodes": [5941037975, 5941037976, 5941037977, 5941037978, 5941037987, 5941037988, 5941037989, 5941038048, 5941037990], "tags": {"electrified": "contact_line", "frequency": "50", "gauge": "1435", "network": "Hyderabad Metro", "note": "Contributors are requested to not edit the \"network\" and the \"operator\" tags. (2023/11/08)", "operator": "Hyderabad Metro Rail Limited", "railway": "subway", "service": "yard", "subway": "yes", "voltage": "25000"}}, {"type": "way", "id": 629256815, "nodes": [5941037993, 5941037994], "tags": {"covered": "yes", "electrified": "contact_line", "frequency": "50", "gauge": "1435", "network": "Hyderabad Metro", "note": "Contributors are requested to not edit the \"network\" and the \"operator\" tags. (2023/11/08)", "operator": "Hyderabad Metro Rail Limited", "railway": "subway", "service": "yard", "subway": "yes", "voltage": "25000"}}, {"type": "way", "id": 629256818, "nodes": [5941037992, 5941038047, 5941037993], "tags": {"electrified": "contact_line", "frequency": "50", "gauge": "1435", "network": "Hyderabad Metro", "note": "Contributors are requested to not edit the \"network\" and the \"operator\" tags. (2023/11/08)", "operator": "Hyderabad Metro Rail Limited", "railway": "subway", "service": "yard", "subway": "yes", "voltage": "25000"}}, {"type": "way", "id": 629256821, "nodes": [5941038000, 5941038001], "tags": {"covered": "yes", "electrified": "contact_line", "frequency": "50", "gauge": "1435", "network": "Hyderabad Metro", "note": "Contributors are requested to not edit the \"network\" and the \"operator\" tags. (2023/11/08)", "operator": "Hyderabad Metro Rail Limited", "railway": "subway", "service": "yard", "subway": "yes", "voltage": "25000"}}, {"type": "way", "id": 629256824, "nodes": [5941037954, 5941037955, 5941037956, 5941037957, 5941037958, 5941037959, 5941037960, 5941037961, 5941037962, 5941037963, 5941037964, 5941037965, 5941038043, 5941037966], "tags": {"electrified": "contact_line", "frequency": "50", "gauge": "1435", "network": "Hyderabad Metro", "note": "Contributors are requested to not edit the \"network\" and the \"operator\" tags. (2023/11/08)", "operator": "Hyderabad Metro Rail Limited", "railway": "subway", "service": "yard", "subway": "yes", "voltage": "25000"}}, {"type": "way", "id": 629256827, "nodes": [5941038015, 5941038016], "tags": {"covered": "yes", "electrified": "contact_line", "frequency": "50", "gauge": "1435", "network": "Hyderabad Metro", "note": "Contributors are requested to not edit the \"network\" and the \"operator\" tags. (2023/11/08)", "operator": "Hyderabad Metro Rail Limited", "railway": "subway", "service": "yard", "subway": "yes", "voltage": "25000"}}, {"type": "way", "id": 629256830, "nodes": [5941038006, 5941038007, 5941038008, 5941038009, 5941038010, 5941038011, 5941038012, 5941038013, 5941038014, 5941038044, 5941038015], "tags": {"electrified": "contact_line", "frequency": "50", "gauge": "1435", "network": "Hyderabad Metro", "note": "Contributors are requested to not edit the \"network\" and the \"operator\" tags. (2023/11/08)", "operator": "Hyderabad Metro Rail Limited", "railway": "subway", "service": "yard", "subway": "yes", "voltage": "25000"}}, {"type": "way", "id": 629256833, "nodes": [5941038024, 5941038025], "tags": {"covered": "yes", "electrified": "contact_line", "frequency": "50", "gauge": "1435", "network": "Hyderabad Metro", "note": "Contributors are requested to not edit the \"network\" and the \"operator\" tags. (2023/11/08)", "operator": "Hyderabad Metro Rail Limited", "railway": "subway", "service": "yard", "subway": "yes", "voltage": "25000"}}, {"type": "way", "id": 629256836, "nodes": [5941038004, 5941038005, 5941038006, 5941038017, 5941038018, 5941038019, 5941038020, 5941038021, 5941038022, 5941038023, 5941038045, 5941038024], "tags": {"electrified": "contact_line", "frequency": "50", "gauge": "1435", "network": "Hyderabad Metro", "note": "Contributors are requested to not edit the \"network\" and the \"operator\" tags. (2023/11/08)", "operator": "Hyderabad Metro Rail Limited", "railway": "subway", "service": "yard", "subway": "yes", "voltage": "25000"}}, {"type": "way", "id": 629256840, "nodes": [5941038033, 5941038034], "tags": {"covered": "yes", "electrified": "contact_line", "frequency": "50", "gauge": "1435", "network": "Hyderabad Metro", "note": "Contributors are requested to not edit the \"network\" and the \"operator\" tags. (2023/11/08)", "operator": "Hyderabad Metro Rail Limited", "railway": "subway", "service": "yard", "subway": "yes", "voltage": "25000"}}, {"type": "way", "id": 629256848, "nodes": [5941038060, 5941038059, 5941038058, 5941038057], "tags": {"electrified": "contact_line", "frequency": "50", "gauge": "1435", "network": "Hyderabad Metro", "note": "Contributors are requested to not edit the \"network\" and the \"operator\" tags. (2023/11/08)", "operator": "Hyderabad Metro Rail Limited", "railway": "subway", "service": "crossover", "subway": "yes", "voltage": "25000"}}, {"type": "way", "id": 629256851, "nodes": [5941038053, 5941038055, 5941038056, 5941038054], "tags": {"electrified": "contact_line", "frequency": "50", "gauge": "1435", "network": "Hyderabad Metro", "note": "Contributors are requested to not edit the \"network\" and the \"operator\" tags. (2023/11/08)", "operator": "Hyderabad Metro Rail Limited", "railway": "subway", "service": "crossover", "subway": "yes", "voltage": "25000"}}, {"type": "way", "id": 629256857, "nodes": [2422173011, 2422173091, 2584784372, 2422172991, 2584784370, 2422173074, 2422173026, 7052069751, 2422173009], "tags": {"bridge": "yes", "check_date": "2017-11-28", "electrified": "contact_line", "frequency": "50", "gauge": "1435", "layer": "2", "name": "Hyderabad Metro Line 3 (blue)", "network": "Hyderabad Metro", "note": "Contributors are requested to not edit the \"network\" and the \"operator\" tags. (2023/11/08)", "opening_date": "2017-11-28", "operator": "Hyderabad Metro Rail Limited", "railway": "subway", "subway": "yes", "voltage": "25000"}}, {"type": "way", "id": 629256862, "nodes": [5787788972, 5787788729, 5787788730, 5787788731, 5787788732, 5787788733, 5787788734, 5787788735, 5787788736], "tags": {"bridge": "yes", "check_date": "2017-11-28", "electrified": "contact_line", "frequency": "50", "gauge": "1435", "layer": "2", "name": "Hyderabad Metro Line 3 (blue)", "network": "Hyderabad Metro", "note": "Contributors are requested to not edit the \"network\" and the \"operator\" tags. (2023/11/08)", "opening_date": "2017-11-28", "operator": "Hyderabad Metro Rail Limited", "railway": "subway", "subway": "yes", "voltage": "25000"}}, {"type": "way", "id": 629256866, "nodes": [2422173012, 5961220665, 2422173011], "tags": {"bridge": "viaduct", "check_date": "2017-11-28", "electrified": "contact_line", "frequency": "50", "gauge": "1435", "layer": "2", "name": "Hyderabad Metro Line 3 (blue)", "network": "Hyderabad Metro", "note": "Contributors are requested to not edit the \"network\" and the \"operator\" tags. (2023/11/08)", "opening_date": "2017-11-28", "operator": "Hyderabad Metro Rail Limited", "railway": "subway", "subway": "yes", "voltage": "25000"}}, {"type": "way", "id": 629256870, "nodes": [5941038081, 5941038082, 5941038062, 5941038071, 5941038072, 5941038063, 5941038064, 5941038061, 5941038081], "tags": {"area": "yes", "bridge": "viaduct", "layer": "1", "lit": "yes", "public_transport": "platform", "railway": "platform", "shelter": "yes"}}, {"type": "way", "id": 629256873, "nodes": [5941038083, 5941038084, 5941038085, 5941038086, 5941038087, 5941038088, 5941038089, 5941038090, 5941038083], "tags": {"area": "yes", "bridge": "viaduct", "layer": "1", "lit": "yes", "public_transport": "platform", "railway": "platform", "shelter": "yes"}}, {"type": "way", "id": 629258025, "nodes": [5787788737, 6447168563, 5787788736], "tags": {"bridge": "viaduct", "check_date": "2017-11-28", "electrified": "contact_line", "frequency": "50", "gauge": "1435", "layer": "2", "name": "Hyderabad Metro Line 3 (blue)", "network": "Hyderabad Metro", "note": "Contributors are requested to not edit the \"network\" and the \"operator\" tags. (2023/11/08)", "opening_date": "2017-11-28", "operator": "Hyderabad Metro Rail Limited", "railway": "subway", "subway": "yes", "voltage": "25000"}}, {"type": "way", "id": 680470228, "nodes": [6371404750, 6375001443, 6375001440, 6371404751, 6371404752, 6375001441, 6375001442, 6371404753, 6371404750], "tags": {"amenity": "bus_station", "building": "yes", "bus": "yes", "name": "Rajeevgandhi nagar", "public_transport": "station"}}, {"type": "way", "id": 687489412, "nodes": [2422989133, 2422989258, 2422988929, 2422989076, 11947041765, 2422988932, 2422988985, 2422989150, 12254609970, 2422988928, 2422989201, 11736267915], "tags": {"bridge": "yes", "check_date": "2016-08-02", "electrified": "rail", "layer": "3", "name": "Hyderabad Metro Line 1 (red)", "network": "Hyderabad Metro", "note": "Contributors are requested to not edit the \"network\" and the \"operator\" tags. (2023/11/08)", "opening_date": "2018-09-24", "operator": "Hyderabad Metro Rail Limited", "railway": "subway", "subway": "yes"}}, {"type": "way", "id": 687489413, "nodes": [11738179268, 7246440945, 7246440944, 4332315990], "tags": {"bridge": "yes", "check_date": "2016-08-02", "electrified": "rail", "layer": "3", "name": "Hyderabad Metro Line 1 (red)", "network": "Hyderabad Metro", "note": "Contributors are requested to not edit the \"network\" and the \"operator\" tags. (2023/11/08)", "opening_date": "2018-09-24", "operator": "Hyderabad Metro Rail Limited", "railway": "subway", "subway": "yes"}}, {"type": "way", "id": 687489414, "nodes": [5787788280, 5787788281, 2422989119, 11738179268], "tags": {"bridge": "yes", "check_date": "2016-08-02", "electrified": "rail", "layer": "3", "name": "Hyderabad Metro Line 1 (red)", "network": "Hyderabad Metro", "note": "Contributors are requested to not edit the \"network\" and the \"operator\" tags. (2023/11/08)", "opening_date": "2018-09-24", "operator": "Hyderabad Metro Rail Limited", "railway": "subway", "subway": "yes"}}, {"type": "way", "id": 740776568, "nodes": [6935406873, 6935406874], "tags": {"name": "chaitanyapuri metro", "railway": "rail"}}, {"type": "way", "id": 771971556, "nodes": [5787788275, 5787788274, 5787788273, 12254609978, 9961151118, 5787788272, 5787788271, 5787788270, 5787788269, 5787788268, 5787788267, 5787788266, 12254609972, 12254609971, 12254609973, 5787788265, 12254609974, 5787788264, 5787788263, 12254609960, 12254609958, 5787788262, 11738179223, 12254609962, 12254609965, 12254609964, 5787788261, 12254609968, 5787788260, 6800005106, 6800005105, 6800005104, 6800005103, 6800005102, 6800005101, 6800005100, 6800005099, 6800005098, 6800005097, 6800005096, 6800005095, 6800005094, 6800005093, 6800005092, 5787788257, 6800005108, 6800005109, 6800005110, 6800005111, 6800005112, 6800005113, 10279821750, 6800005114, 6800005115, 6800005116, 6800005117, 6800005118, 6800005119, 6800005120, 6800005121, 6800005122, 6800005123, 6800005124, 6800005125, 6800005126, 6800005127, 5787788251, 6800005149, 10278298785, 6800005151, 5787788248, 6799988721, 6799988720, 6799988719, 6799988718, 6799988717, 6799988716, 6799988715, 6800005258, 6800005257, 6800005256, 6800005255, 6800005254, 6800005253, 6800005252, 6800005251, 6800005250, 6800005249, 6800005248, 6800005247, 6800005246, 6800005245, 6800005244, 6800005243, 6800005242, 6800005241, 6800005240, 6800005239, 6800005238, 6800005237, 6800005236, 6800005235, 6800005234, 6800005233, 6800005232, 6800005231, 6800005230, 6800005229, 6800005228], "tags": {"bridge": "viaduct", "bridge:structure": "beam", "check_date": "2016-08-02", "electrified": "rail", "layer": "3", "name": "Hyderabad Metro Line 1 (red)", "name:te": "\u0c39\u0c48\u0c26\u0c30\u0c3e\u0c2c\u0c3e\u0c26\u0c4d \u0c2e\u0c46\u0c1f\u0c4d\u0c30\u0c4b \u0c32\u0c48\u0c28\u0c4d 1", "network": "Hyderabad Metro", "note": "Contributors are requested to not edit the \"network\" and the \"operator\" tags. (2023/11/08)", "opening_date": "2018-09-24", "operator": "Hyderabad Metro Rail Limited", "railway": "subway", "subway": "yes"}}, {"type": "way", "id": 842636938, "nodes": [7860889433, 7860889434, 9870023319, 7860889435, 7860889436, 7860889433], "tags": {"amenity": "bus_station", "building": "yes", "bus": "yes", "name": "Uppal X Road Bus Stop ( Towards Nagole )", "public_transport": "station"}}, {"type": "way", "id": 842636939, "nodes": [7860889437, 7860889438, 7860889439, 9870003643, 7860889440, 7860889437], "tags": {"amenity": "bus_station", "building": "yes", "bus": "yes", "name": "Uppal _ Nagole Bus Stop", "public_transport": "station"}}, {"type": "way", "id": 1163289546, "nodes": [10818832467, 10818832468, 10818832469, 10818832470, 10818832467], "tags": {"addr:city": "Uppal, Hyderabad", "addr:housenumber": "Metro station", "addr:postcode": "500039", "amenity": "bus_station", "bus": "yes", "internet_access": "yes", "name": "Metro Bus Station  Uppal", "public_transport": "station"}}, {"type": "way", "id": 1178247769, "nodes": [10945597369, 10945597370, 10945597371, 10945623911, 10945597372, 10945597369], "tags": {"building": "yes", "layer": "1", "railway": "workshop"}}, {"type": "way", "id": 1178254815, "nodes": [10945687714, 10945687715, 10945687716, 10945687717, 10945687714], "tags": {"building": "yes", "layer": "1", "railway": "workshop"}}, {"type": "way", "id": 1178255227, "nodes": [10945690177, 10945690178, 10945690179, 10945690180, 10945690177], "tags": {"building": "yes", "layer": "1", "railway": "workshop"}}, {"type": "way", "id": 1207148674, "nodes": [11185517430, 11185517431, 11185517432, 11185517433, 11185517434, 11185517435, 11185517430], "tags": {"amenity": "bus_station", "bus": "yes", "name": "Uppal Bus Station", "public_transport": "station"}}, {"type": "way", "id": 1263323658, "nodes": [5787788279, 5787788277, 5787788276, 11738182169], "tags": {"bridge": "viaduct", "bridge:structure": "beam", "check_date": "2016-08-02", "electrified": "rail", "layer": "3", "name": "Hyderabad Metro Line 1 (red)", "name:te": "\u0c39\u0c48\u0c26\u0c30\u0c3e\u0c2c\u0c3e\u0c26\u0c4d \u0c2e\u0c46\u0c1f\u0c4d\u0c30\u0c4b \u0c32\u0c48\u0c28\u0c4d 1", "network": "Hyderabad Metro", "note": "Contributors are requested to not edit the \"network\" and the \"operator\" tags. (2023/11/08)", "opening_date": "2018-09-24", "operator": "Hyderabad Metro Rail Limited", "railway": "subway", "subway": "yes"}}, {"type": "way", "id": 1263409838, "nodes": [11738182169, 5787788275], "tags": {"bridge": "viaduct", "bridge:structure": "beam", "check_date": "2016-08-02", "electrified": "rail", "layer": "3", "name": "Hyderabad Metro Line 1 (red)", "name:te": "\u0c39\u0c48\u0c26\u0c30\u0c3e\u0c2c\u0c3e\u0c26\u0c4d \u0c2e\u0c46\u0c1f\u0c4d\u0c30\u0c4b \u0c32\u0c48\u0c28\u0c4d 1", "network": "Hyderabad Metro", "note": "Contributors are requested to not edit the \"network\" and the \"operator\" tags. (2023/11/08)", "opening_date": "2018-09-24", "operator": "Hyderabad Metro Rail Limited", "railway": "subway", "subway": "yes"}}, {"type": "way", "id": 1263409839, "nodes": [4332315990, 2422989248, 2422989233, 12254609979, 12254609977, 2422989133], "tags": {"bridge": "yes", "check_date": "2016-08-02", "electrified": "rail", "layer": "3", "name": "Hyderabad Metro Line 1 (red)", "network": "Hyderabad Metro", "note": "Contributors are requested to not edit the \"network\" and the \"operator\" tags. (2023/11/08)", "opening_date": "2018-09-24", "operator": "Hyderabad Metro Rail Limited", "railway": "subway", "subway": "yes"}}, {"type": "relation", "id": 2799781, "members": [{"type": "node", "ref": 2185000163, "role": ""}, {"type": "node", "ref": 2185000162, "role": ""}], "tags": {"name": "Panama", "public_transport": "stop_area", "type": "public_transport"}}, {"type": "relation", "id": 8759103, "members": [{"type": "node", "ref": 6447168562, "role": ""}, {"type": "node", "ref": 6447168563, "role": "stop"}, {"type": "node", "ref": 5961220665, "role": "stop"}, {"type": "way", "ref": 629256873, "role": "platform"}, {"type": "way", "ref": 629256870, "role": "platform"}], "tags": {"colour": "blue", "name": "Nagole", "network": "Hyderabad Metro", "operator": "HMRC", "public_transport": "stop_area", "public_transport:version": "2", "type": "public_transport"}}, {"type": "relation", "id": 10402701, "members": [{"type": "node", "ref": 7052069749, "role": ""}, {"type": "node", "ref": 2422173009, "role": "stop"}, {"type": "node", "ref": 5787788972, "role": "stop"}, {"type": "node", "ref": 7015719477, "role": ""}, {"type": "node", "ref": 7015780395, "role": ""}, {"type": "node", "ref": 7015719470, "role": ""}, {"type": "node", "ref": 7015780418, "role": ""}, {"type": "node", "ref": 7015780421, "role": ""}, {"type": "node", "ref": 7015780403, "role": ""}], "tags": {"colour": "blue", "name": "Uppal", "name:te": "\u0c09\u0c2a\u0c4d\u0c2a\u0c32\u0c4d", "public_transport": "stop_area", "type": "public_transport"}}, {"type": "relation", "id": 10402702, "members": [{"type": "node", "ref": 7052069752, "role": ""}, {"type": "node", "ref": 2422173094, "role": "stop"}, {"type": "node", "ref": 5787788973, "role": "stop"}], "tags": {"colour": "blue", "name": "Stadium", "name:te": "\u0c38\u0c4d\u0c1f\u0c47\u0c21\u0c3f\u0c2f\u0c02", "public_transport": "stop_area", "type": "public_transport"}}, {"type": "relation", "id": 10402703, "members": [{"type": "node", "ref": 7052069753, "role": ""}, {"type": "node", "ref": 2422173113, "role": "stop"}, {"type": "node", "ref": 5787788974, "role": "stop"}], "tags": {"colour": "blue", "name": "NGRI", "name:te": "\u0c0e\u0c28\u0c4d.\u0c1c\u0c3f.\u0c06\u0c30\u0c4d.\u0c10", "public_transport": "stop_area", "type": "public_transport"}}, {"type": "relation", "id": 17353490, "members": [{"type": "node", "ref": 11737669098, "role": ""}, {"type": "node", "ref": 5787788272, "role": "stop"}, {"type": "node", "ref": 2422989133, "role": "stop"}], "tags": {"name": "Victoria Memorial", "public_transport": "stop_area", "type": "public_transport"}}, {"type": "relation", "id": 17353492, "members": [{"type": "node", "ref": 11737669100, "role": ""}, {"type": "node", "ref": 4332315990, "role": "stop"}, {"type": "node", "ref": 5787788275, "role": "stop"}], "tags": {"name": "L. B. Nagar", "public_transport": "stop_area", "type": "public_transport"}}]}