{"version": 0.6, "generator": "Overpass API 0.7.62.8 e802775f", "osm3s": {"timestamp_osm_base": "2026-01-15T15:58:58Z", "copyright": "The data included in this document is from www.openstreetmap.org. The data is made available under ODbL."}, "elements": [{"type": "node", "id": 42649457, "lat": 51.4471254, "lon": 5.5095795}, {"type": "node", "id": 42650155, "lat": 51.4467146, "lon": 5.5067862}, {"type": "node", "id": 42655129, "lat": 51.4480062, "lon": 5.5061983}, {"type": "node", "id": 63500884, "lat": 51.4603178, "lon": 5.5485876}, {"type": "node", "id": 63500899, "lat": 51.4604585, "lon": 5.5494909}, {"type": "node", "id": 63500957, "lat": 51.4601132, "lon": 5.5496258}, {"type": "node", "id": 63500966, "lat": 51.4600901, "lon": 5.5494948}, {"type": "node", "id": 63500979, "lat": 51.4599389, "lon": 5.5495652}, {"type": "node", "id": 63500988, "lat": 51.4598186, "lon": 5.5487741}, {"type": "node", "id": 235118355, "lat": 51.4473192, "lon": 5.5108445, "tags": {"created_by": "JOSM"}}, {"type": "node", "id": 235118359, "lat": 51.4489513, "lon": 5.5101715, "tags": {"created_by": "JOSM"}}, {"type": "node", "id": 250852374, "lat": 51.4488554, "lon": 5.5263154, "tags": {"amenity": "school", "created_by": "JOSM"}}, {"type": "node", "id": 453501100, "lat": 51.4469281, "lon": 5.5083793}, {"type": "node", "id": 567639190, "lat": 51.4488353, "lon": 5.5176184}, {"type": "node", "id": 995215700, "lat": 51.4299467, "lon": 5.5484443}, {"type": "node", "id": 995221734, "lat": 51.4298076, "lon": 5.548545}, {"type": "node", "id": 995238481, "lat": 51.4298758, "lon": 5.5490227}, {"type": "node", "id": 995243973, "lat": 51.4298731, "lon": 5.5485272}, {"type": "node", "id": 995779704, "lat": 51.4324862, "lon": 5.5007448}, {"type": "node", "id": 995788079, "lat": 51.4318414, "lon": 5.5007434}, {"type": "node", "id": 995790832, "lat": 51.433002, "lon": 5.5009505}, {"type": "node", "id": 995800357, "lat": 51.4494111, "lon": 5.5165867}, {"type": "node", "id": 995809115, "lat": 51.4324556, "lon": 5.5009602}, {"type": "node", "id": 995815447, "lat": 51.4492958, "lon": 5.515955}, {"type": "node", "id": 995815634, "lat": 51.4336508, "lon": 5.5011982}, {"type": "node", "id": 1791351650, "lat": 51.4300963, "lon": 5.54838}, {"type": "node", "id": 2746520846, "lat": 51.4412956, "lon": 5.509609, "tags": {"addr:city": "Eindhoven", "addr:housenumber": "8", "addr:postcode": "5642GP", "addr:street": "Tafelbergplein", "amenity": "school", "check_date": "2025-10-03", "email": "info@bs-dedriesprong.nl", "isced:level": "0;1", "name": "De Driesprong", "official_name": "SALTO-school de Driesprong", "operator": "SALTO", "operator:website": "https://www.salto-eindhoven.nl/", "operator:wikidata": "Q121792966", "phone": "+31 40 267 7150", "school": "primary", "source": "BAG", "source:date": "2014-03-24", "website": "https://bs-dedriesprong.nl", "wikidata": "Q22754428"}}, {"type": "node", "id": 2767433090, "lat": 51.4446946, "lon": 5.522368, "tags": {"addr:city": "Eindhoven", "addr:housenumber": "6", "addr:postcode": "5641KE", "addr:street": "Urkhovenseweg", "amenity": "school", "email": "info@bs-karregat.nl", "isced:level": "0;1", "name": "'t Karregat", "operator": "SALTO", "operator:website": "https://www.salto-eindhoven.nl/", "operator:wikidata": "Q121792966", "phone": "+31 40 281 0326", "school": "primary", "source": "BAG", "source:date": "2014-03-24", "website": "https://www.bs-karregat.nl", "wikidata": "Q22754420"}}, {"type": "node", "id": 2770513748, "lat": 51.448963, "lon": 5.517544}, {"type": "node", "id": 2770513820, "lat": 51.4491284, "lon": 5.5172591}, {"type": "node", "id": 2770896490, "lat": 51.4473818, "lon": 5.5065177}, {"type": "node", "id": 2770896573, "lat": 51.4476974, "lon": 5.5063767}, {"type": "node", "id": 3392519040, "lat": 51.4297523, "lon": 5.5498249}, {"type": "node", "id": 3392519041, "lat": 51.4303024, "lon": 5.5496512}, {"type": "node", "id": 3392519042, "lat": 51.4296631, "lon": 5.5490867}, {"type": "node", "id": 4583912272, "lat": 51.4297028, "lon": 5.5501016}, {"type": "node", "id": 4583912273, "lat": 51.429656, "lon": 5.5513944}, {"type": "node", "id": 4583912274, "lat": 51.4296309, "lon": 5.5514749}, {"type": "node", "id": 4583912275, "lat": 51.4295858, "lon": 5.5515205}, {"type": "node", "id": 4583912276, "lat": 51.4289653, "lon": 5.5516546}, {"type": "node", "id": 4583912277, "lat": 51.4288132, "lon": 5.5501874}, {"type": "node", "id": 4762506739, "lat": 51.4281831, "lon": 5.5021738, "tags": {"addr:city": "Eindhoven", "addr:housenumber": "1-01", "addr:postcode": "5643RB", "addr:street": "Geert Grootestraat", "amenity": "school", "capacity": "370", "email": "info-innova@parmantscholen.nl", "isced:level": "2", "max_age": "16", "min_age": "12", "name": "Parmant Innova", "old_name:-2025": "Vakcollege Eindhoven", "operator": "Ons Middelbaar Onderwijs", "operator:type": "ngo", "operator:website": "https://www.omo.nl/", "operator:wikidata": "Q4693918", "operator:wikipedia": "nl:Ons Middelbaar Onderwijs", "phone": "+31 40 211 4680", "school": "secondary", "source": "BAG", "source:date": "2017-03-08", "website": "https://parmantinnova.nl/"}}, {"type": "node", "id": 4762506740, "lat": 51.4284707, "lon": 5.50243, "tags": {"addr:city": "Eindhoven", "addr:housenumber": "2", "addr:postcode": "5643RR", "addr:street": "Saenredamstraat", "amenity": "school", "capacity": "400", "email": "info-aloysius@parmantscholen.nl", "isced:level": "2", "max_age": "16", "min_age": "12", "name": "Parmant Aloysius", "old_name:-2025": "Aloysius De Roosten", "operator": "Ons Middelbaar Onderwijs", "operator:subgroup": "Parmant Scholen", "operator:type": "ngo", "operator:website": "https://www.omo.nl/", "operator:wikidata": "Q4693918", "operator:wikipedia": "nl:Ons Middelbaar Onderwijs", "phone": "+31 40 292 0258", "school": "secondary", "source": "BAG", "source:date": "2017-03-08", "website": "https://parmantaloysius.nl/"}}, {"type": "node", "id": 6074318509, "lat": 51.4415263, "lon": 5.5099748}, {"type": "node", "id": 6074318510, "lat": 51.4413742, "lon": 5.5100902}, {"type": "node", "id": 6074318511, "lat": 51.4413658, "lon": 5.5102216}, {"type": "node", "id": 6074318512, "lat": 51.4410364, "lon": 5.5101921}, {"type": "node", "id": 6074318513, "lat": 51.4410033, "lon": 5.5095384}, {"type": "node", "id": 6074318514, "lat": 51.4410329, "lon": 5.5095277}, {"type": "node", "id": 6074318515, "lat": 51.4410204, "lon": 5.5093867}, {"type": "node", "id": 6074318516, "lat": 51.4410653, "lon": 5.5093794}, {"type": "node", "id": 6074318517, "lat": 51.4410481, "lon": 5.5087534}, {"type": "node", "id": 6074318518, "lat": 51.4410012, "lon": 5.5087196}, {"type": "node", "id": 6074318519, "lat": 51.4409979, "lon": 5.5086001}, {"type": "node", "id": 6074318520, "lat": 51.4410154, "lon": 5.5085811}, {"type": "node", "id": 6074318521, "lat": 51.4411086, "lon": 5.5085966}, {"type": "node", "id": 6558283550, "lat": 51.4263909, "lon": 5.4966547}, {"type": "node", "id": 6558283551, "lat": 51.426665, "lon": 5.4972029}, {"type": "node", "id": 6558283552, "lat": 51.4270244, "lon": 5.4967434}, {"type": "node", "id": 6558283553, "lat": 51.4267491, "lon": 5.4961989}, {"type": "node", "id": 6806254602, "lat": 51.4336109, "lon": 5.5011828}, {"type": "node", "id": 7058758662, "lat": 51.448662, "lon": 5.5164611}, {"type": "node", "id": 7058758663, "lat": 51.4490252, "lon": 5.5174768}, {"type": "node", "id": 7058758664, "lat": 51.4487095, "lon": 5.5166072}, {"type": "node", "id": 7494970154, "lat": 51.433837, "lon": 5.499906}, {"type": "node", "id": 11142392387, "lat": 51.4385397, "lon": 5.5204354, "tags": {"addr:city": "Eindhoven", "addr:housenumber": "2A", "addr:postcode": "5642KA", "addr:street": "Jozef Isra\u00eblslaan", "amenity": "school", "email": "boschakker@skpo.nl", "isced:level": "0;1", "name": "Boschakker", "official_name": "Basisschool Boschakker", "operator": "SKPO", "operator:website": "https://www.skpo.nl/", "operator:wikidata": "Q121792961", "phone": "+31 40 281 1151", "school": "primary", "website": "https://boschakker.nl/", "wikidata": "Q22754176"}}, {"type": "node", "id": 11142392388, "lat": 51.4395353, "lon": 5.5161908}, {"type": "node", "id": 11142392389, "lat": 51.4394559, "lon": 5.5168962}, {"type": "node", "id": 11142392390, "lat": 51.439109, "lon": 5.5167514}, {"type": "node", "id": 11142392391, "lat": 51.439185, "lon": 5.5160916}, {"type": "node", "id": 11142448791, "lat": 51.42699, "lon": 5.5089073}, {"type": "node", "id": 11142448793, "lat": 51.426793, "lon": 5.509596}, {"type": "node", "id": 11142448794, "lat": 51.4267966, "lon": 5.5097245}, {"type": "node", "id": 11142448795, "lat": 51.426653, "lon": 5.5102497}, {"type": "node", "id": 11142573521, "lat": 51.4411571, "lon": 5.509663, "tags": {"addr:city": "Eindhoven", "addr:housenumber": "8", "addr:postcode": "5642GP", "addr:street": "Tafelbergplein", "amenity": "school", "isced:level": "0;1", "name": "RISE", "official_name": "SALTO International School RISE", "operator": "SALTO", "operator:website": "https://www.salto-eindhoven.nl/", "operator:wikidata": "Q121792966", "phone": "+31 40 267 7152", "school": "primary", "website": "https://salto-internationalschool.nl/"}}, {"type": "node", "id": 11142611845, "lat": 51.4320785, "lon": 5.5000401}, {"type": "node", "id": 11142611849, "lat": 51.4319056, "lon": 5.5002704}, {"type": "node", "id": 11142611850, "lat": 51.4321963, "lon": 5.4992765}, {"type": "node", "id": 11638689049, "lat": 51.4337889, "lon": 5.5002781}, {"type": "node", "id": 11640443236, "lat": 51.4337051, "lon": 5.4998298}, {"type": "node", "id": 11640443237, "lat": 51.433544, "lon": 5.4997715}, {"type": "node", "id": 11640443242, "lat": 51.4335263, "lon": 5.4997652}, {"type": "node", "id": 11640443243, "lat": 51.4333581, "lon": 5.4997043}, {"type": "node", "id": 11640443248, "lat": 51.433341, "lon": 5.4996983}, {"type": "node", "id": 11640443251, "lat": 51.4330153, "lon": 5.4995808}, {"type": "node", "id": 11640443252, "lat": 51.4338419, "lon": 5.4998805}, {"type": "node", "id": 11640443253, "lat": 51.4338107, "lon": 5.5001092}, {"type": "node", "id": 12142722312, "lat": 51.4270571, "lon": 5.5104646}, {"type": "node", "id": 12142722313, "lat": 51.4268786, "lon": 5.5103422}, {"type": "node", "id": 12142722314, "lat": 51.4268691, "lon": 5.5103789}, {"type": "node", "id": 12142722315, "lat": 51.4273962, "lon": 5.5091852}, {"type": "node", "id": 12766232644, "lat": 51.4412841, "lon": 5.5091263}, {"type": "node", "id": 12766232646, "lat": 51.4414015, "lon": 5.5094946}, {"type": "way", "id": 8808620, "nodes": [63500884, 63500899, 63500957, 63500966, 63500979, 63500988, 63500884], "tags": {"addr:city": "Nuenen", "addr:housenumber": "3", "addr:postcode": "5672ST", "addr:street": "Heikampen", "amenity": "school", "email": "crijnsschool@eenbes.nl", "isced:level": "0;1", "name": "Crijns Society", "official_name": "Kindcentrum Crijns Society", "old_name": "Inspecteur J. Crijnsschool", "operator": "Eenbes", "operator:website": "https://www.eenbes.nl/", "operator:wikidata": "Q121761226", "phone": "+31 40 283 5349", "school": "primary", "website": "https://www.crijnsschool.nl", "wikidata": "Q22754269"}}, {"type": "way", "id": 21808836, "nodes": [42655129, 2770896573, 2770896490, 42650155, 453501100, 42649457, 235118355, 235118359, 42655129], "tags": {"addr:city": "Eindhoven", "addr:housenumber": "20", "addr:postcode": "5641AG", "addr:street": "Celebeslaan", "amenity": "school", "email": "info@lcl.nl", "isced:level": "2;3", "name": "Lorentz Casimir Lyceum", "phone": "+31 40 290 9420", "school": "secondary", "website": "https://www.lcl.nl/", "wikidata": "Q5191777", "wikimedia_commons": "Category:Lorentz Casimir Lyceum", "wikipedia": "nl:Lorentz Casimir Lyceum"}}, {"type": "way", "id": 44749359, "nodes": [995800357, 2770513820, 7058758663, 2770513748, 567639190, 7058758664, 7058758662, 995815447, 995800357], "tags": {"addr:city": "Eindhoven", "addr:housenumber": "202", "addr:postcode": "5641AC", "addr:street": "Koudenhovenseweg Zuid", "amenity": "school", "email": "deboog@skpo.nl", "isced:level": "0;1", "name": "De Boog", "official_name": "Kindcentrum De Boog", "operator": "SKPO", "operator:website": "https://www.skpo.nl/", "operator:wikidata": "Q121792961", "phone": "+31 40 281 1760", "school": "primary", "website": "https://bsdeboog.nl/", "wikidata": "Q22754180"}}, {"type": "way", "id": 332132220, "nodes": [3392519040, 3392519041, 1791351650, 995215700, 995243973, 995221734, 995238481, 3392519042, 3392519040], "tags": {"addr:city": "Geldrop", "addr:housenumber": "93", "addr:postcode": "5662HK", "addr:street": "Beneden Beekloop", "amenity": "school", "denomination": "roman_catholic", "email": "dommeldalschool@eenbes.nl", "isced:level": "0;1", "name": "Dommeldal", "official_name": "Dalton Kindcentrum Dommeldal", "operator": "Eenbes", "operator:website": "https://www.eenbes.nl/", "operator:wikidata": "Q121761226", "pedagogy": "dalton", "phone": "+31 40 280 0004", "religion": "christian", "school": "primary", "website": "https://www.dommeldalschool.nl/", "wikidata": "Q22754259"}}, {"type": "way", "id": 463076466, "nodes": [4583912277, 4583912276, 4583912275, 4583912274, 4583912273, 4583912272, 4583912277], "tags": {"addr:city": "Geldrop", "addr:housenumber": "90", "addr:postcode": "5662HM", "addr:street": "Beneden Beekloop", "amenity": "school", "email": "benedenbeekloop@geldrophetnut.nl", "isced:level": "0;1", "name": "Beneden Beekloop", "official_name": "Basisschool Beneden Beekloop", "old_name": "Nutsschool Benedenbeekloop", "operator": "SILFO", "operator:website": "https://www.silfo.nl/", "operator:wikidata": "Q121840741", "phone": "+31 40 286 3543", "school": "primary", "website": "https://www.benedenbeekloop.nl/", "wikidata": "Q22754146"}}, {"type": "way", "id": 646504836, "nodes": [6074318509, 6074318510, 6074318511, 6074318512, 6074318513, 6074318514, 6074318515, 6074318516, 6074318517, 6074318518, 6074318519, 6074318520, 6074318521, 12766232644, 12766232646, 6074318509], "tags": {"amenity": "school", "name": "Tafelbergplein"}}, {"type": "way", "id": 698328400, "nodes": [6558283553, 6558283552, 6558283551, 6558283550, 6558283553], "tags": {"addr:city": "Eindhoven", "addr:housenumber": "68", "addr:postcode": "5614CM", "addr:street": "Piuslaan", "amenity": "school", "email": "wilakkers@skpo.nl", "isced:level": "0;1", "name": "Wilakkers", "operator": "SKPO", "operator:website": "https://www.skpo.nl/", "operator:wikidata": "Q121792961", "phone": "+31 40 211 1844", "school": "primary", "website": "https://www.wilakkers.nl/", "wikidata": "Q22754196"}}, {"type": "way", "id": 801374734, "nodes": [7494970154, 11640443252, 11640443236, 11640443237, 11640443242, 11640443243, 11640443248, 11640443251, 11142611850, 11142611845, 11142611849, 995788079, 995809115, 995779704, 995790832, 6806254602, 995815634, 11638689049, 11640443253, 7494970154], "tags": {"addr:city": "Eindhoven", "addr:housenumber": "25", "addr:postcode": "5613LH", "addr:street": "Dirk Boutslaan", "amenity": "school", "check_date": "2024-09-24", "email": "info@augustinianum.nl", "isced:level": "2;3", "name": "Augustinianum", "operator": "Carmelcollege", "operator:website": "https://carmel.nl/", "operator:wikidata": "Q2153503", "operator:wikipedia": "nl:Stichting Carmelcollege", "phone": "+31 40 211 1069", "school": "secondary", "website": "https://www.augustinianum.nl/", "wikidata": "Q1938720", "wikipedia": "nl:Scholengemeenschap Augustinianum"}}, {"type": "way", "id": 1201806331, "nodes": [11142392391, 11142392390, 11142392389, 11142392388, 11142392391], "tags": {"addr:city": "Eindhoven", "addr:housenumber": "2", "addr:postcode": "5642LV", "addr:street": "Molijnstraat", "amenity": "school", "email": "boschakker@skpo.nl", "isced:level": "0;1", "name": "Boschakker", "official_name": "Basisschool Boschakker", "operator": "SKPO", "operator:website": "https://www.skpo.nl/", "operator:wikidata": "Q121792961", "phone": "+31 40 281 1151", "school": "primary", "website": "https://boschakker.nl/", "wikidata": "Q22754176"}}, {"type": "way", "id": 1201807467, "nodes": [12142722315, 12142722312, 12142722313, 12142722314, 11142448795, 11142448794, 11142448793, 11142448791, 12142722315], "tags": {"addr:city": "Eindhoven", "addr:housenumber": "47", "addr:postcode": "5645GC", "addr:street": "St Petrus Canisiuslaan", "amenity": "school", "check_date": "2025-12-18", "isced:level": "0;1", "name": "Beppino Sarto", "official_name": "Basisschool Beppino Sarto", "operator": "SKPO", "operator:website": "https://www.skpo.nl/", "operator:wikidata": "Q121792961", "phone": "+31 40 213 1530", "school": "primary", "website": "https://beppinosarto.nl/", "wikidata": "Q22754190"}}]}