{"version": 0.6, "generator": "Overpass API 0.7.62.8 e802775f", "osm3s": {"timestamp_osm_base": "2026-01-13T06:52:15Z", "copyright": "The data included in this document is from www.openstreetmap.org. The data is made available under ODbL."}, "elements": [{"type": "node", "id": 668708218, "lat": 19.1303926, "lon": 72.9148355}, {"type": "node", "id": 1647016063, "lat": 19.1781811, "lon": 72.9626528}, {"type": "node", "id": 1647016083, "lat": 19.1788572, "lon": 72.9610058}, {"type": "node", "id": 1647016109, "lat": 19.1791809, "lon": 72.9606391}, {"type": "node", "id": 1647016121, "lat": 19.1794745, "lon": 72.9615557}, {"type": "node", "id": 1647016124, "lat": 19.1795196, "lon": 72.9595472}, {"type": "node", "id": 1647016139, "lat": 19.1800315, "lon": 72.9645126}, {"type": "node", "id": 1647016149, "lat": 19.1801745, "lon": 72.9596429}, {"type": "node", "id": 1647016153, "lat": 19.1803025, "lon": 72.9634924}, {"type": "node", "id": 1647016179, "lat": 19.1804907, "lon": 72.9643452}, {"type": "node", "id": 1647016195, "lat": 19.180995, "lon": 72.9596509}, {"type": "node", "id": 1647016218, "lat": 19.1822898, "lon": 72.9605116}, {"type": "node", "id": 1647016232, "lat": 19.1826285, "lon": 72.9613564}, {"type": "node", "id": 1647016235, "lat": 19.1832232, "lon": 72.9625918}, {"type": "node", "id": 1647016241, "lat": 19.1832608, "lon": 72.9613485}, {"type": "node", "id": 1855812192, "lat": 19.1246531, "lon": 72.9172844, "tags": {"amenity": "hospital", "emergency": "no", "name": "Powai Dental Clinic"}}, {"type": "node", "id": 1855812194, "lat": 19.124088, "lon": 72.9164511, "tags": {"addr:district": "Mumbai Suburban", "addr:full": "1-A, BSNL Colony, Powai, Mumbai", "addr:postcode": "400076", "addr:state": "Maharastra", "amenity": "hospital", "name": "Powai Hospital", "source": "Local Knowledge"}}, {"type": "node", "id": 1856751380, "lat": 19.1622152, "lon": 72.9422933}, {"type": "node", "id": 2045673883, "lat": 19.1792628, "lon": 72.945241}, {"type": "node", "id": 3224657234, "lat": 19.1682476, "lon": 72.9612909, "tags": {"addr:city": "Mulund (East)", "addr:district": "Mumbai", "addr:full": "Vidhataapartments, Groundfloor, Mulund(E)", "addr:postcode": "400081", "addr:state": "Maharashtra", "addr:street": "V B Phadke Marg", "amenity": "hospital", "emergency": "yes", "name": "Saidhanhospital Iccu and Eye Care", "source": "OpenGovernmentData"}}, {"type": "node", "id": 3224692237, "lat": 19.1760293, "lon": 72.9618357, "tags": {"addr:city": "Mulund (East)", "addr:district": "Mumbai", "addr:full": "Chandraganga Apartments, V.B.Phadke Marg, Near Subway,Mulund (East)", "addr:postcode": "400081", "addr:state": "Maharashtra", "amenity": "hospital", "emergency": "yes", "name": "Chandraganga Hospital, Mulund", "source": "OpenGovernmentData"}}, {"type": "node", "id": 3224698401, "lat": 19.1718704, "lon": 72.9605846}, {"type": "node", "id": 3546099443, "lat": 19.103538, "lon": 72.927049}, {"type": "node", "id": 3587131699, "lat": 19.1308944, "lon": 72.9299048, "tags": {"amenity": "hospital", "emergency": "yes", "name": "Anket Nursing Home"}}, {"type": "node", "id": 3589059585, "lat": 19.1199252, "lon": 72.9169426}, {"type": "node", "id": 3589059586, "lat": 19.1194659, "lon": 72.9165097}, {"type": "node", "id": 3589059589, "lat": 19.1203754, "lon": 72.916834}, {"type": "node", "id": 3589059590, "lat": 19.120384, "lon": 72.9173107}, {"type": "node", "id": 3589059693, "lat": 19.1205569, "lon": 72.9169067}, {"type": "node", "id": 3589059694, "lat": 19.1207223, "lon": 72.9175821}, {"type": "node", "id": 3589059695, "lat": 19.1209386, "lon": 72.9175925}, {"type": "node", "id": 3589059696, "lat": 19.1210592, "lon": 72.9172368}, {"type": "node", "id": 3595939146, "lat": 19.1302727, "lon": 72.934801}, {"type": "node", "id": 3595939148, "lat": 19.1302963, "lon": 72.9348235}, {"type": "node", "id": 3595939149, "lat": 19.1303134, "lon": 72.9348034}, {"type": "node", "id": 3595939150, "lat": 19.1303814, "lon": 72.9346729}, {"type": "node", "id": 3595939151, "lat": 19.130406, "lon": 72.9347079}, {"type": "node", "id": 3595939152, "lat": 19.1304116, "lon": 72.9349446}, {"type": "node", "id": 3595939153, "lat": 19.1304115, "lon": 72.9347015}, {"type": "node", "id": 3595939156, "lat": 19.1304341, "lon": 72.9349182}, {"type": "node", "id": 3595939157, "lat": 19.1304442, "lon": 72.9347528}, {"type": "node", "id": 3595939158, "lat": 19.1304461, "lon": 72.9349775}, {"type": "node", "id": 3595939159, "lat": 19.1304482, "lon": 72.934748}, {"type": "node", "id": 3595939161, "lat": 19.1305245, "lon": 72.9348293}, {"type": "node", "id": 3595939162, "lat": 19.130539, "lon": 72.9348123}, {"type": "node", "id": 3595939163, "lat": 19.1305652, "lon": 72.9348373}, {"type": "node", "id": 4113597101, "lat": 19.1760945, "lon": 72.9490036, "tags": {"addr:district": "Mumbai", "addr:full": "109/1 Saraswati Sadan, Chs, Devi Dayal Road, Opposite Jalaram Ashish, Near T Ward Office, Mulund West", "addr:postcode": "400080", "addr:state": "Maharashtra", "amenity": "hospital", "contact:phone": "022 25658843", "email": "drmukhirajhospital@outlook.com", "name": "Dr.Mukhi's Raj Hospital", "operator:type": "private", "source": "OpenGovernmentData", "website": "http://www.drmukhirajhospital.com/"}}, {"type": "node", "id": 4119416996, "lat": 19.1753107, "lon": 72.9514943, "tags": {"addr:district": "Mumbai", "addr:full": "P. K. Road, (Annexe), Lalan Building, 1st Floor Mulund (W)", "addr:postcode": "400080", "addr:state": "Maharashtra", "amenity": "hospital", "healthcare": "hospital", "name": "Ashwini Hospital and I. C. C. U. with Dialysis Centre", "opening_hours": "Mo-Su 09:00-21:00", "source": "OpenGovernmentData"}}, {"type": "node", "id": 4119440289, "lat": 19.1719806, "lon": 72.9484677}, {"type": "node", "id": 4344894369, "lat": 19.1031857, "lon": 72.9278858}, {"type": "node", "id": 4344894373, "lat": 19.1033428, "lon": 72.9285564}, {"type": "node", "id": 4344894376, "lat": 19.1036292, "lon": 72.928095}, {"type": "node", "id": 4344894379, "lat": 19.1038244, "lon": 72.92872}, {"type": "node", "id": 4344894381, "lat": 19.1041108, "lon": 72.9280709}, {"type": "node", "id": 4344894382, "lat": 19.1043617, "lon": 72.9279126}, {"type": "node", "id": 4344894386, "lat": 19.1046455, "lon": 72.9275291}, {"type": "node", "id": 4344894387, "lat": 19.1046684, "lon": 72.9280038}, {"type": "node", "id": 4344894389, "lat": 19.1048204, "lon": 72.9280253}, {"type": "node", "id": 4344894390, "lat": 19.1049319, "lon": 72.9276149}, {"type": "node", "id": 4344894392, "lat": 19.1050029, "lon": 72.9279743}, {"type": "node", "id": 4344894394, "lat": 19.1050739, "lon": 72.9278912}, {"type": "node", "id": 4344894395, "lat": 19.1051372, "lon": 72.9276337}, {"type": "node", "id": 4585363492, "lat": 19.1732429, "lon": 72.9547642, "tags": {"addr:district": "Mumbai", "addr:full": "Rashman Apartments ,Sevaram Lalwani Road,Mulund ( West )", "addr:postcode": "400080", "addr:state": "Maharashtra", "addr:street": "Sewaram Lalwani Road", "amenity": "hospital", "name": "Upasani Maternity and Surgical Nursing Home", "name:en": "Upasani Hospital", "source": "OpenGovernmentData"}}, {"type": "node", "id": 4658913990, "lat": 19.1753796, "lon": 72.9569965, "tags": {"addr:district": "Mumbai", "addr:full": "Raj-Sneha, Opposite Rationing Office, Tambe Nagar, S N Road, Mulund (W)", "addr:postcode": "400080", "addr:state": "Maharashtra", "addr:street": "Sarojini Naidu Road", "amenity": "hospital", "name": "Meher Ambe Nursing Home", "name:en": "Meher Ambe Nursing Home", "source": "OpenGovernmentData"}}, {"type": "node", "id": 4658954489, "lat": 19.172178, "lon": 72.9509527, "tags": {"addr:postcode": "400080", "addr:street": "Ganesh Gawde Road", "amenity": "hospital", "name:en": "Malini Hospital"}}, {"type": "node", "id": 4746710022, "lat": 19.1733919, "lon": 72.9538799, "tags": {"addr:street": "Ramratan Trivedi Road", "amenity": "hospital", "name:en": "Apex Kidney Care"}}, {"type": "node", "id": 4809630421, "lat": 19.1729063, "lon": 72.9496899, "tags": {"addr:postcode": "400080", "addr:street": "Dr Ambedkar Road", "amenity": "hospital", "name:en": "Paritaj Kidney Hospital"}}, {"type": "node", "id": 4930562921, "lat": 19.1689031, "lon": 72.9601586, "tags": {"addr:postcode": "400081", "addr:street": "Navghar Marg", "amenity": "hospital"}}, {"type": "node", "id": 4992249823, "lat": 19.1764944, "lon": 72.9514785, "tags": {"addr:district": "Mumbai", "addr:full": "Jamuna Sadan,1st. Floor M.G.Road Mulund West", "addr:postcode": "400080", "addr:state": "Maharashtra", "addr:street": "Mahatma Gandhi Road", "amenity": "hospital", "name": "Saarthi Health Care", "name:en": "Saarthi Health Care", "source": "OpenGovernmentData"}}, {"type": "node", "id": 5859095486, "lat": 19.1627973, "lon": 72.9369083, "tags": {"addr:housenumber": "6 Mani Chawl", "addr:street": "Dargah Road", "amenity": "hospital", "healthcare": "hospital", "name:en": "NAAZ Polyclinic"}}, {"type": "node", "id": 5882322896, "lat": 19.1311225, "lon": 72.9136446}, {"type": "node", "id": 5924793682, "lat": 19.1623824, "lon": 72.9418721}, {"type": "node", "id": 5924793684, "lat": 19.1618669, "lon": 72.9413749}, {"type": "node", "id": 5924793785, "lat": 19.1609914, "lon": 72.9410139}, {"type": "node", "id": 5924793786, "lat": 19.1609007, "lon": 72.9413036}, {"type": "node", "id": 5924793787, "lat": 19.1612371, "lon": 72.9414859}, {"type": "node", "id": 5924793788, "lat": 19.1610674, "lon": 72.9419526}, {"type": "node", "id": 5924793789, "lat": 19.1616425, "lon": 72.9421994}, {"type": "node", "id": 5924793790, "lat": 19.1616932, "lon": 72.9420599}, {"type": "node", "id": 5924793798, "lat": 19.1786675, "lon": 72.9448548}, {"type": "node", "id": 5924793799, "lat": 19.1784015, "lon": 72.9446134}, {"type": "node", "id": 5924793802, "lat": 19.1797213, "lon": 72.9422557}, {"type": "node", "id": 5924793803, "lat": 19.1818746, "lon": 72.943747}, {"type": "node", "id": 5924793804, "lat": 19.1813781, "lon": 72.9451525}, {"type": "node", "id": 5924793805, "lat": 19.1805472, "lon": 72.9452008}, {"type": "node", "id": 5924793806, "lat": 19.1801875, "lon": 72.9457694}, {"type": "node", "id": 5969984649, "lat": 19.1718628, "lon": 72.9601206}, {"type": "node", "id": 5969984650, "lat": 19.1715081, "lon": 72.960134}, {"type": "node", "id": 5969984651, "lat": 19.1715258, "lon": 72.9606141}, {"type": "node", "id": 6230922850, "lat": 19.1718973, "lon": 72.9488497}, {"type": "node", "id": 6230922851, "lat": 19.1721164, "lon": 72.948603}, {"type": "node", "id": 6230922852, "lat": 19.1717614, "lon": 72.9487145}, {"type": "node", "id": 6230922853, "lat": 19.1709179, "lon": 72.95054}, {"type": "node", "id": 6230922854, "lat": 19.171227, "lon": 72.9501967}, {"type": "node", "id": 6230922855, "lat": 19.1706239, "lon": 72.9502434}, {"type": "node", "id": 6230922856, "lat": 19.170933, "lon": 72.9499}, {"type": "node", "id": 6234352163, "lat": 19.1784482, "lon": 72.9624563}, {"type": "node", "id": 6358405085, "lat": 19.1737405, "lon": 72.9621216, "tags": {"addr:district": "Mumbai", "addr:full": "Ground Floor, Saurabh V.B. Phadke Road , Gavanpada, Mulund (E)", "addr:postcode": "400081", "addr:state": "Maharashtra", "amenity": "hospital", "name": "Dr. Sabnis Maternity and Nursing Home", "name:en": "Sabnis Hospital", "source": "OpenGovernmentData"}}, {"type": "node", "id": 6373769199, "lat": 19.1842421, "lon": 72.9768441}, {"type": "node", "id": 6373769200, "lat": 19.1842319, "lon": 72.9769621}, {"type": "node", "id": 6373769201, "lat": 19.1840799, "lon": 72.9769245}, {"type": "node", "id": 6373769202, "lat": 19.1840875, "lon": 72.9768065}, {"type": "node", "id": 6373769203, "lat": 19.1841179, "lon": 72.9768145}, {"type": "node", "id": 6373769204, "lat": 19.184123, "lon": 72.9768441}, {"type": "node", "id": 6373769205, "lat": 19.1841534, "lon": 72.9768441}, {"type": "node", "id": 6373769206, "lat": 19.1841635, "lon": 72.9768199}, {"type": "node", "id": 6373769207, "lat": 19.1841965, "lon": 72.9768306}, {"type": "node", "id": 6373769208, "lat": 19.1841914, "lon": 72.9768628}, {"type": "node", "id": 6373769209, "lat": 19.1842193, "lon": 72.9768601}, {"type": "node", "id": 6373769210, "lat": 19.1842218, "lon": 72.976836}, {"type": "node", "id": 6373769211, "lat": 19.1841559, "lon": 72.9769433}, {"type": "node", "id": 6377237895, "lat": 19.184956, "lon": 72.9742129}, {"type": "node", "id": 6377237896, "lat": 19.1849907, "lon": 72.9743366}, {"type": "node", "id": 6377237897, "lat": 19.1848992, "lon": 72.9743667}, {"type": "node", "id": 6377237898, "lat": 19.1848455, "lon": 72.9743633}, {"type": "node", "id": 6377237899, "lat": 19.1848328, "lon": 72.9742229}, {"type": "node", "id": 6387038344, "lat": 19.1809314, "lon": 72.9732377}, {"type": "node", "id": 6387038345, "lat": 19.1809438, "lon": 72.9734068}, {"type": "node", "id": 6387038346, "lat": 19.1809247, "lon": 72.973413}, {"type": "node", "id": 6387038347, "lat": 19.1808938, "lon": 72.9733851}, {"type": "node", "id": 6387038348, "lat": 19.1807809, "lon": 72.9733771}, {"type": "node", "id": 6387038349, "lat": 19.180836, "lon": 72.9732257}, {"type": "node", "id": 6784511276, "lat": 19.130907, "lon": 72.913653, "tags": {"access": "private", "barrier": "gate"}}, {"type": "node", "id": 6784511279, "lat": 19.13113, "lon": 72.913776}, {"type": "node", "id": 6784511280, "lat": 19.130499, "lon": 72.9137117}, {"type": "node", "id": 6784511281, "lat": 19.1304357, "lon": 72.9137331}, {"type": "node", "id": 6784511282, "lat": 19.1304027, "lon": 72.9138431}, {"type": "node", "id": 6784511283, "lat": 19.1303597, "lon": 72.913878}, {"type": "node", "id": 6784511284, "lat": 19.1311503, "lon": 72.9147899}, {"type": "node", "id": 6795512985, "lat": 19.1150444, "lon": 72.9073885, "tags": {"addr:street": "Central Avenue", "amenity": "hospital", "name:en": "Metropolis", "phone": "+912233993939"}}, {"type": "node", "id": 6795570585, "lat": 19.1154259, "lon": 72.9075074, "tags": {"addr:street": "Central Avenue - from Tulip to Forest Street Junction", "amenity": "hospital", "name:en": "SRL Diagnostics"}}, {"type": "node", "id": 6801919192, "lat": 19.1253722, "lon": 72.9190861, "tags": {"amenity": "hospital", "name": "Nihal Nursing Home & Opthalmologist"}}, {"type": "node", "id": 7040968857, "lat": 19.1757098, "lon": 72.9527646, "tags": {"addr:district": "Mumbai", "addr:full": "10,Lavkush, M.G.Road, Near Panch Rasta, Mulund (W)", "addr:postcode": "400080", "addr:state": "Maharashtra", "amenity": "hospital", "name": "Daxini Heart Centre", "source": "OpenGovernmentData"}}, {"type": "node", "id": 7040981014, "lat": 19.1744516, "lon": 72.9527345, "tags": {"addr:district": "Mumbai", "addr:full": "1st Floor Jalaram Ashish Devidayal Road Mulund W", "addr:postcode": "400080", "addr:state": "Maharashtra", "amenity": "hospital", "name": "Ashirwad Critical Care Unit", "source": "OpenGovernmentData"}}, {"type": "node", "id": 7041018413, "lat": 19.1762443, "lon": 72.9521906, "tags": {"addr:district": "Mumbai", "addr:full": "Yogeshwer Dham, 1st Floor, Above Andhra Bank M G Road, Near Panch Rasta Mulund (W)", "addr:postcode": "400080", "addr:state": "Maharashtra", "amenity": "hospital", "name": "Prasad Surgical and Children Nursing Home", "source": "OpenGovernmentData"}}, {"type": "node", "id": 7042873521, "lat": 19.1734002, "lon": 72.9553535, "tags": {"addr:district": "Mumbai", "addr:full": "1st Floor Munshi Estate , M G Road Mulund (West)", "addr:postcode": "400001", "addr:state": "Maharashtra", "amenity": "hospital", "name": "Gokul Nursing Home and ICCU", "source": "OpenGovernmentData"}}, {"type": "node", "id": 7042981412, "lat": 19.1790754, "lon": 72.9565283, "tags": {"addr:district": "Mumbai", "addr:full": "104, Patils Heritage, Sarojini, Naidu Road,Tambe Nagar, Mulund(W)", "addr:postcode": "400080", "addr:state": "Maharashtra", "amenity": "hospital", "name": "Ria Nursing Home", "source": "OpenGovernmentData"}}, {"type": "node", "id": 7043060181, "lat": 19.1699191, "lon": 72.9321205, "tags": {"addr:district": "Mumbai", "addr:full": "E-5/03, Highland, Park, Jaishuskinagar, Mulundcolony, Mulund(W)", "addr:postcode": "400082", "addr:state": "Maharashtra", "amenity": "hospital", "name": "Sai Siddhi Hospital, Mumbai", "source": "OpenGovernmentData"}}, {"type": "node", "id": 7043071382, "lat": 19.170637, "lon": 72.9498291, "tags": {"addr:district": "Mumbai", "addr:full": "Mulund", "addr:postcode": "400080", "addr:state": "Maharashtra", "amenity": "hospital", "name": "Devkunj Charitablr Trust Matushri Mankbai Nagji Sa", "source": "OpenGovernmentData"}}, {"type": "node", "id": 7043116599, "lat": 19.1739604, "lon": 72.9570701, "tags": {"addr:district": "Mumbai", "addr:full": "A-7 , 1st Floor, Alps Heights, Dr. R.P.Road,Opposite396, Bus Stop, Near Railway Station, Mulund ( West )", "addr:postcode": "400080", "addr:state": "Maharashtra", "amenity": "hospital", "healthcare": "hospital", "name": "Nav Drishti Netralaya", "source": "OpenGovernmentData"}}, {"type": "node", "id": 7043123119, "lat": 19.1686019, "lon": 72.9450512, "tags": {"addr:district": "Mumbai", "addr:full": "104, Aroto House, P.K.Road, Saidham, Mulund (west)", "addr:postcode": "400080", "addr:state": "Maharashtra", "amenity": "hospital", "email": "suryaeye.india@gmail.com", "name": "Surya Eye Institute and Research Centre", "operator:type": "private", "source": "OpenGovernmentData", "website": "https://suryaeye.com/"}}, {"type": "node", "id": 7043143042, "lat": 19.175445, "lon": 72.9539676, "tags": {"addr:district": "Mumbai", "addr:full": "Gala Manor, 1st Floor Near Dhanvantari Hosipta,l Above Silver Hardware, N.S.Road, Mulund(W)", "addr:postcode": "400080", "addr:state": "Maharashtra", "amenity": "hospital", "name": "Dr. Khona's E. N. T. Hospital & Regional Center", "source": "OpenGovernmentData"}}, {"type": "node", "id": 7043177298, "lat": 19.1758149, "lon": 72.9528357, "tags": {"addr:district": "Mumbai", "addr:full": "9, Lavkush, M G Road, Panchrasta, Mulund (West)", "addr:postcode": "400080", "addr:state": "Maharashtra", "amenity": "hospital", "name": "Dr. Shettys E.N.T. Hospital", "source": "OpenGovernmentData"}}, {"type": "node", "id": 7043397404, "lat": 19.1254925, "lon": 72.9181845, "tags": {"addr:district": "Mumbai", "addr:full": "1st Floor, Paradise,Jain Mandir Road, I.I.T Market, Powai", "addr:postcode": "400076", "addr:state": "Maharashtra", "amenity": "hospital", "name": "Sri Sai Eye Care Centre", "source": "OpenGovernmentData"}}, {"type": "node", "id": 7043842002, "lat": 19.1457239, "lon": 72.9293557, "tags": {"addr:district": "Mumbai", "addr:full": "1st Floor, Arunoday Tower, Sps Marg, Kokan Nagar", "addr:postcode": "400078", "addr:state": "Maharashtra", "amenity": "hospital", "name": "Dr.Bhatia's Ruby Hospital", "source": "OpenGovernmentData"}}, {"type": "node", "id": 7044368551, "lat": 19.169912, "lon": 72.9536431, "tags": {"addr:district": "Mumbai", "addr:full": "J Nehru Road, Mulund (W)", "addr:postcode": "400080", "addr:state": "Maharashtra", "amenity": "hospital", "name": "Aparna Hospital, Mulund (W)", "source": "OpenGovernmentData"}}, {"type": "node", "id": 7045490278, "lat": 19.1532611, "lon": 72.9308885, "tags": {"addr:district": "Mumbai", "addr:full": "1st Floor, Ramkrishna Bldg , Gadhav Naka, Bhandup (W)", "addr:postcode": "400078", "addr:state": "Maharashtra", "amenity": "hospital", "name": "Dr Bothra's Hospital", "source": "OpenGovernmentData"}}, {"type": "node", "id": 7045821102, "lat": 19.1703693, "lon": 72.9588425, "tags": {"addr:district": "Mumbai", "addr:full": "Gayatri Building 1st Floor Hanuman Chowk L T Road Mulund(E)", "addr:postcode": "400081", "addr:state": "Maharashtra", "amenity": "hospital", "name": "Maher Maternity and Nursing Home, Mumbai", "source": "OpenGovernmentData"}}, {"type": "node", "id": 7047889769, "lat": 19.1739389, "lon": 72.9550807, "tags": {"addr:district": "Mumbai", "addr:full": "206, Jai Commercial Complex, At The Junction Of M. G. Road And S. L. Road, Opposite Hotel Gurukrupa, Mulund (West)", "addr:postcode": "400080", "addr:state": "Maharashtra", "amenity": "hospital", "name": "Netra Jyot Eye Care Centre", "source": "OpenGovernmentData"}}, {"type": "node", "id": 7048110383, "lat": 19.1473308, "lon": 72.9363066, "tags": {"addr:district": "Mumbai", "addr:full": "7/6R.R. Point Grount Floor Off Lbs Marg Opp Dreams Mall Bhandup (W)", "addr:postcode": "400078", "addr:state": "Maharashtra", "amenity": "hospital", "name": "Sulochan Eye", "source": "OpenGovernmentData"}}, {"type": "node", "id": 7048529142, "lat": 19.1712725, "lon": 72.9580539, "tags": {"addr:district": "Mumbai", "addr:full": "Shreenath Plaza, L. T. Marg, Mulund East", "addr:postcode": "400081", "addr:state": "Maharashtra", "amenity": "hospital", "name": "Shushrusha Hospital and Icu", "source": "OpenGovernmentData"}}, {"type": "node", "id": 7048950247, "lat": 19.1154687, "lon": 72.9306605, "tags": {"addr:district": "Mumbai", "addr:full": "237/3258, Tagore Nagar, Opp: Muncipal Market, Vikroli - East", "addr:postcode": "400083", "addr:state": "Maharashtra", "amenity": "hospital", "name": "Modi General Hospital and Iccu", "source": "OpenGovernmentData"}}, {"type": "node", "id": 7049156092, "lat": 19.1449554, "lon": 72.9347174, "tags": {"addr:district": "Mumbai", "addr:full": "Shrenik Hospital, Dina Patil Estate, Station Road, Bhandup (W)", "addr:postcode": "400078", "addr:state": "Maharashtra", "amenity": "hospital", "healthcare": "hospital", "name": "J. K. Child Health Care and Nicu", "source": "OpenGovernmentData"}}, {"type": "node", "id": 7049527159, "lat": 19.1676317, "lon": 72.9513688, "tags": {"addr:district": "Mumbai", "addr:full": "1st Floor, Heritage Holy J N Road Mulund", "addr:postcode": "400080", "addr:state": "Maharashtra", "amenity": "hospital", "name": "Holy Trinity Hospital", "source": "OpenGovernmentData"}}, {"type": "node", "id": 7049588260, "lat": 19.1747167, "lon": 72.9526278, "tags": {"addr:district": "Mumbai", "addr:full": "Navinjyot Building, RRT Road, Mulund West", "addr:postcode": "400080", "addr:state": "Maharashtra", "amenity": "hospital", "name": "Chetna Critical Care Unit", "source": "OpenGovernmentData"}}, {"type": "node", "id": 7049595408, "lat": 19.1708418, "lon": 72.9541071, "tags": {"addr:district": "Mumbai", "addr:full": "302-303 Koteshwar Plaza Junction Of Jn Road And R.H.B Road Mulund(W)", "addr:postcode": "400065", "addr:state": "Maharashtra", "amenity": "hospital", "name": "Omkar Eye Care Center", "source": "OpenGovernmentData"}}, {"type": "node", "id": 7049604152, "lat": 19.1503562, "lon": 72.9381332, "tags": {"addr:district": "Mumbai", "addr:full": "Lal Bahadur Shastri Marg, Bhandup West", "addr:postcode": "400078", "addr:state": "Maharashtra", "amenity": "hospital", "name": "Dr.Badwaik's Maternity and General Hospital", "source": "OpenGovernmentData"}}, {"type": "node", "id": 7050603512, "lat": 19.1134362, "lon": 72.9315296, "tags": {"addr:district": "Mumbai", "addr:full": "210/3042, Near Sangali Sahakari Bank, Tagore Nagar No.1, Vikhroli(E)", "addr:postcode": "400083", "addr:state": "Maharashtra", "amenity": "hospital", "name": "Laxmi Health Care Center and Iccu", "source": "OpenGovernmentData"}}, {"type": "node", "id": 7051103930, "lat": 19.1456895, "lon": 72.9292135, "tags": {"addr:district": "Mumbai", "addr:full": "Arunoday Tower, C Wing, Ground Floor, Opp Kokan Nagar Bus Stop, Bhandup (W)", "addr:postcode": "400078", "addr:state": "Maharashtra", "amenity": "hospital", "name": "Gaurav Maternity and Surgical Hospital", "source": "OpenGovernmentData"}}, {"type": "node", "id": 7051342882, "lat": 19.1476957, "lon": 72.9307269, "tags": {"addr:district": "Mumbai", "addr:full": "23-C, Miniland, Shivaji Talao, Tank Road, Bhandup (W)", "addr:postcode": "400078", "addr:state": "Maharashtra", "amenity": "hospital", "name": "Sas Health Care Pvt. Limited", "source": "OpenGovernmentData"}}, {"type": "node", "id": 7051961242, "lat": 19.1763038, "lon": 72.9535586, "tags": {"addr:district": "Mumbai", "addr:full": "545, Thawaroadas Bhavan, N. S. Road, Near Abhyudaya Bank", "addr:postcode": "400080", "addr:state": "Maharashtra", "amenity": "hospital", "name": "Dhanwantary Hospital and ICCU", "source": "OpenGovernmentData"}}, {"type": "node", "id": 7051992797, "lat": 19.1685629, "lon": 72.9594474, "tags": {"addr:district": "Mumbai", "addr:full": "102, Samarth C.H.S Ltd., Lokmanya Tilak Road(Extn)", "addr:postcode": "400080", "addr:state": "Maharashtra", "amenity": "hospital", "name": "Samarth Maternity and Nursing Home", "source": "OpenGovernmentData"}}, {"type": "node", "id": 7052183599, "lat": 19.1745628, "lon": 72.9521015, "tags": {"addr:district": "Mumbai", "addr:full": "1st Floor, Shri Siddhi Plaza, Above Hast Kala Showroom, R.R.T. Road, Mulund", "addr:postcode": "400080", "addr:state": "Maharashtra", "amenity": "hospital", "name": "Drishti Eye Care Centre", "source": "OpenGovernmentData"}}, {"type": "node", "id": 7052767202, "lat": 19.1095801, "lon": 72.9264937, "tags": {"addr:district": "Mumbai", "addr:full": "A- Kumar Apartments, Behind St.Joseph School,Vikhroli(W)", "addr:postcode": "400079", "addr:state": "Maharashtra", "amenity": "hospital", "name": "Samarth Hospital, Mumbai", "source": "OpenGovernmentData"}}, {"type": "node", "id": 7053517508, "lat": 19.1639918, "lon": 72.9469208, "tags": {"addr:district": "Mumbai", "addr:full": "Sarvodaya Parshwanath Nagar Mulund W", "addr:postcode": "400080", "addr:state": "Maharashtra", "amenity": "hospital", "name": "Shree Sai Maternity and Surgical Nursing Home", "source": "OpenGovernmentData"}}, {"type": "node", "id": 7053870878, "lat": 19.1702287, "lon": 72.9322658, "tags": {"addr:district": "Mumbai", "addr:full": "Buiding No. E/5 , Highland Park , Guru Gobind Singh Road , Jai Shastri Nagar , Mulund Colony , Mulund ( West )", "addr:postcode": "400082", "addr:state": "Maharashtra", "amenity": "hospital", "name": "Ashirwad Maternity and Nursing Home, Mulund", "source": "OpenGovernmentData"}}, {"type": "node", "id": 7054096515, "lat": 19.1533004, "lon": 72.9862292, "tags": {"addr:district": "Thane", "addr:full": "Sector - 13, Plot No. 1, Ramdas Swami Marg", "addr:postcode": "400708", "addr:state": "Maharashtra", "amenity": "hospital", "name": "National Burns Center", "source": "OpenGovernmentData"}}, {"type": "node", "id": 7054152139, "lat": 19.1152368, "lon": 72.9335748, "tags": {"addr:district": "Mumbai", "addr:full": "No. 199/2952, Group No. 08/B,Opposite Old Tagore Nagar Post Office,Vikhroli East", "addr:postcode": "400083", "addr:state": "Maharashtra", "amenity": "hospital", "name": "Yashwant Hospital, Mumbai", "source": "OpenGovernmentData"}}, {"type": "node", "id": 7054170594, "lat": 19.1473486, "lon": 72.9364809, "tags": {"addr:district": "Mumbai", "addr:full": "100A, RR Realty, Lbs Marg, Bhandup (W)", "addr:postcode": "400078", "addr:state": "Maharashtra", "amenity": "hospital", "name": "Dr. Thakurs Ear Nose Throat Clinic and Hospital - Bhandup (W) Mumbai", "source": "OpenGovernmentData"}}, {"type": "node", "id": 7054913128, "lat": 19.1506818, "lon": 72.9374432, "tags": {"addr:district": "Mumbai", "addr:full": "Neha Annexe, Khot Road, Bhandup (W)", "addr:postcode": "400078", "addr:state": "Maharashtra", "amenity": "hospital", "name": "Nadkarni Eye Care Centre", "source": "OpenGovernmentData"}}, {"type": "node", "id": 7054939253, "lat": 19.1699994, "lon": 72.959279, "tags": {"addr:district": "Mumbai", "addr:full": "1st Flr Sitamai Apartmets Hanuman Chowk L.T. Road, Mulund (East)", "addr:postcode": "400081", "addr:state": "Maharashtra", "amenity": "hospital", "name": "Omkar Surgical and Maternity Home", "source": "OpenGovernmentData"}}, {"type": "node", "id": 7055113661, "lat": 19.1473346, "lon": 72.9361148, "tags": {"addr:district": "Mumbai", "addr:full": "111,R R Realty 1st Floor Junction Of L B S Road &, Tank Road Bhandup West, Above Axis Bank", "addr:postcode": "400078", "addr:state": "Maharashtra", "amenity": "hospital", "name": "Srushti Orthotech Hospital", "source": "OpenGovernmentData"}}, {"type": "node", "id": 7055223581, "lat": 19.1456572, "lon": 72.9292417, "tags": {"addr:district": "Mumbai", "addr:full": "A 102/103, Wing Arunoday Tower,1st Floor,Kokan Nagar ,J.M.Road", "addr:postcode": "400065", "addr:state": "Maharashtra", "amenity": "hospital", "name": "Shaha Children Hospital", "source": "OpenGovernmentData"}}, {"type": "node", "id": 7059172358, "lat": 19.1681778, "lon": 72.9388078, "tags": {"addr:district": "Mumbai", "addr:full": "117-O, Hallmark, Vasant Oscar, Opp- Greenworld, Near Nirmal Life Style, Mulund", "addr:postcode": "400080", "addr:state": "Maharashtra", "amenity": "hospital", "name": "Anil Cancer Clinic", "source": "OpenGovernmentData"}}, {"type": "node", "id": 7062490980, "lat": 19.1467015, "lon": 72.934857, "tags": {"addr:district": "Mumbai", "addr:full": "Vakratunda Palace, Tank Road, Lodha Imperia, Bhandup (W)", "addr:postcode": "400018", "addr:state": "Maharashtra", "amenity": "hospital", "name": "Saarthi Hospital, Mumbai", "source": "OpenGovernmentData"}}, {"type": "node", "id": 7062497091, "lat": 19.1828494, "lon": 72.9541553, "tags": {"addr:district": "Mumbai", "addr:full": "The Color Scape Shopping Mall, G-103, D D Upadhayay Marg, Near Mulund Check Naka, Mulund West", "addr:postcode": "400080", "addr:state": "Maharashtra", "amenity": "hospital", "contact:phone": "9987229960", "email": "info@platinumhospitals.in", "name": "Platinum Hospitals", "operator:type": "private", "source": "OpenGovernmentData", "website": "https://www.platinumhospitals.in/"}}, {"type": "node", "id": 7062539947, "lat": 19.1161551, "lon": 72.9306163, "tags": {"addr:district": "Mumbai", "addr:full": "2/252/3369, Tagore Nagar, Vikhroli", "addr:postcode": "400089", "addr:state": "Maharashtra", "amenity": "hospital", "name": "Priya Maternity Home", "source": "OpenGovernmentData"}}, {"type": "node", "id": 7063805560, "lat": 19.1190712, "lon": 72.9344156, "tags": {"addr:district": "Mumbai", "addr:full": "139/2447, Group Vii, Tagore Nagar, Vikhroli (E)", "addr:postcode": "400083", "addr:state": "Maharashtra", "amenity": "hospital", "name": "Atul - Lok Hospital", "source": "OpenGovernmentData"}}, {"type": "node", "id": 7064867148, "lat": 19.1432944, "lon": 72.9253297, "tags": {"addr:district": "Mumbai", "addr:full": "2nd Floor,Jamil Nagar,J.M.Road,Near Maratha Mitra Mandal", "addr:postcode": "400078", "addr:state": "Maharashtra", "amenity": "hospital", "name": "Sai Sparsh Hospital and Iccu", "source": "OpenGovernmentData"}}, {"type": "node", "id": 7066374806, "lat": 19.1684046, "lon": 72.9390344, "tags": {"addr:district": "Mumbai", "addr:full": "1st Flr, B Wing Hallmark Commercial Complex Vasant Oscar Layout Near Duncan Co, Mulud", "addr:postcode": "400080", "addr:state": "Maharashtra", "amenity": "hospital", "name": "Shivaani Mother and Child Care Hospital", "source": "OpenGovernmentData"}}, {"type": "node", "id": 7066374828, "lat": 19.1496936, "lon": 72.9423738, "tags": {"addr:district": "Mumbai", "addr:full": "D-301, New Ushanagar Co Op Hos Society, Village Road, Bhandup (W)", "addr:postcode": "400078", "addr:state": "Maharashtra", "amenity": "hospital", "name": "Diamond Maternity and General Hospital", "source": "OpenGovernmentData"}}, {"type": "node", "id": 7067434808, "lat": 19.1476634, "lon": 72.9284638, "tags": {"addr:district": "Mumbai", "addr:full": "Bhandup", "addr:postcode": "400078", "addr:state": "Maharashtra", "amenity": "hospital", "name": "Shanti Maternity Clinic", "source": "OpenGovernmentData"}}, {"type": "node", "id": 7069569114, "lat": 19.130945, "lon": 72.9363066, "tags": {"addr:district": "Mumbai", "addr:full": "Shree Vijay Kunj, Cooperative Housing Society", "addr:postcode": "400042", "addr:state": "Maharashtra", "amenity": "hospital", "name": "Ankur Maternity and Surgical Nursing Home", "source": "OpenGovernmentData"}}, {"type": "node", "id": 7073537693, "lat": 19.1820019, "lon": 72.9467753, "tags": {"addr:district": "Mumbai", "addr:full": "A-10,Apurva Apartment,Govardhan Nagar,L.B.S.Marg,Mulund(W)", "addr:postcode": "400080", "addr:state": "Maharashtra", "amenity": "hospital", "name": "Dr.Redkar's Maternity and Nursing Home", "source": "OpenGovernmentData"}}, {"type": "node", "id": 7073888629, "lat": 19.1755267, "lon": 72.9460879, "tags": {"addr:district": "Mumbai", "addr:full": "1st Floor, Bps Plaza, Bps Estates, Devidayal Road, Near Best Bus Depot", "addr:postcode": "400080", "addr:state": "Maharashtra", "amenity": "hospital", "name": "Anjali Maternity and Surgical Hospital - Mulund", "source": "OpenGovernmentData"}}, {"type": "node", "id": 7073944677, "lat": 19.1482633, "lon": 72.9287884, "tags": {"addr:district": "Mumbai", "addr:full": "Sharda Appt.-B, Ashok Kedare Chowk, Bhandup (W)", "addr:postcode": "400078", "addr:state": "Maharashtra", "amenity": "hospital", "name": "Maauli Hospital", "source": "OpenGovernmentData"}}, {"type": "node", "id": 7082579559, "lat": 19.1748655, "lon": 72.9422598, "tags": {"addr:district": "Mumbai", "addr:full": "C-1, Shivkrishna Dham, Lal Bahadur Shastri Marg, Mulund West", "addr:postcode": "400080", "addr:state": "Maharashtra", "amenity": "hospital", "name": "Veena Nagar Health Care Center and Hospital", "source": "OpenGovernmentData"}}, {"type": "node", "id": 7082738921, "lat": 19.1473676, "lon": 72.9321921, "tags": {"addr:district": "Mumbai", "addr:full": "10/ A & B, Miniland,Tank Road,Near Shivaji Talao, Bhandup(W)", "addr:postcode": "400078", "addr:state": "Maharashtra", "amenity": "hospital", "name": "M.S.Maternity and General Hospital", "source": "OpenGovernmentData"}}, {"type": "node", "id": 7085422788, "lat": 19.1166953, "lon": 72.9370737, "tags": {"addr:district": "Mumbai", "addr:full": "Sambhaji Maidan Circle,Sai Prasad Shopping Centre", "addr:postcode": "400083", "addr:state": "Maharashtra", "amenity": "hospital", "name": "Sai Hospital, Mumbai", "source": "OpenGovernmentData"}}, {"type": "node", "id": 7085742097, "lat": 19.1691361, "lon": 72.9594333, "tags": {"addr:district": "Mumbai", "addr:full": "Maruti Darshan, C Wing, 2nd Floor, Mulund East", "addr:postcode": "400081", "addr:state": "Maharashtra", "amenity": "hospital", "name": "Aaditya Netralaya", "source": "OpenGovernmentData"}}, {"type": "node", "id": 7086092351, "lat": 19.1737818, "lon": 72.9537423, "tags": {"addr:district": "Mumbai", "addr:full": "Mulund", "addr:postcode": "400080", "addr:state": "Maharashtra", "amenity": "hospital", "name": "Apex Kidney Care (Dialysisnetworks)", "source": "OpenGovernmentData"}}, {"type": "node", "id": 7086409775, "lat": 19.1809728, "lon": 72.9425508, "tags": {"addr:district": "Mumbai", "addr:full": "Veena Nagar Phase Ii, Near Swapna Nagari Tulsi Pipe Line Road, Mulund(W)", "addr:postcode": "400080", "addr:state": "Maharashtra", "amenity": "hospital", "name": "Vertex Hospital", "source": "OpenGovernmentData"}}, {"type": "node", "id": 7225067258, "lat": 19.1753236, "lon": 72.9510961, "tags": {"addr:district": "Mumbai", "addr:full": "Mahakavi Kalidas Road, Near B.M.C.T. Ward Office, Mulund", "addr:postcode": "400080", "addr:state": "Maharashtra", "amenity": "hospital", "name": "M.T. Agrawal Hospital", "source": "OpenGovernmentData"}}, {"type": "node", "id": 7225067267, "lat": 19.0984853, "lon": 72.904147, "tags": {"addr:district": "Mumbai", "addr:full": "Sant Muktabai Mun. Gen. Hospital, Barve Nagar, Ghatkopar (W)", "addr:postcode": "400086", "addr:state": "Maharashtra", "amenity": "hospital", "name": "Sant Muktabai Hospital", "source": "OpenGovernmentData"}}, {"type": "node", "id": 7225067275, "lat": 19.1180038, "lon": 72.9394753, "tags": {"addr:district": "Mumbai", "addr:full": "Krantiveer Mahatma Jyotiba Phule Hospital, Vikas College Road, Kannamwar Nagar - 2", "addr:postcode": "400083", "addr:state": "Maharashtra", "amenity": "hospital", "description": "Sub District Hospital", "name": "Krantiveer Mahatma Jyotiba Phule Hospital, Vikhroli", "source": "OpenGovernmentData"}}, {"type": "node", "id": 7604673842, "lat": 19.1751524, "lon": 72.9526962, "tags": {"addr:district": "Mumbai (Suburban)", "addr:full": "Mulund West", "addr:postcode": "400080", "addr:state": "Maharashtra", "amenity": "hospital", "healthcare": "hospital", "name": "Government Hospital, Mulund", "source": "Local Knowledge"}}, {"type": "node", "id": 7604724839, "lat": 19.1462704, "lon": 72.9345511, "tags": {"addr:district": "Mumbai (Suburban)", "addr:full": "Bhandup", "addr:postcode": "400078", "addr:state": "Maharashtra", "amenity": "hospital", "name": "Savitribai Jyotiba Phule Maternity Home Bhandup", "source": "Local Knowledge"}}, {"type": "node", "id": 7607578889, "lat": 19.0960915, "lon": 72.9103804, "tags": {"addr:district": "Mumbai", "addr:full": "Sainath Nagar, Indira Nagar, Ghatkopar West, Mumbai", "addr:postcode": "400086", "addr:state": "Maharashtra", "amenity": "hospital", "name": "Matoshree Ramabai Maternity BMC Hospital", "source": "Local Knowledge"}}, {"type": "node", "id": 7663961408, "lat": 19.1517439, "lon": 72.9458994, "tags": {"addr:district": "Mumbai Suburban", "addr:full": "MD Kini Road, Nahur, Friends Colony, Bhandup East, Mumbai", "addr:postcode": "400080", "addr:state": "Maharastra", "amenity": "hospital", "name": "Mrudula Hospital", "source": "Local Knowledge"}}, {"type": "node", "id": 7663961423, "lat": 19.1072994, "lon": 72.8931541, "tags": {"addr:district": "Mumbai Suburban", "addr:full": "RM House, Khairani Road, Near Jama Masjid, Yadav Nagar, Chandivali, Powai, Mumbai", "addr:postcode": "400072", "addr:state": "Maharastra", "amenity": "hospital", "name": "Zobiya Hospital Maternity Home", "source": "Local Knowledge"}}, {"type": "node", "id": 7663961430, "lat": 19.1026186, "lon": 72.8934892, "tags": {"addr:district": "Mumbai Suburban", "addr:full": "Kherani Road, Nair Wadi, Asalfa, Mumbai", "addr:postcode": "400072", "addr:state": "Maharastra", "amenity": "hospital", "name": "Sapna Maternity and General Hospital", "source": "Local Knowledge"}}, {"type": "node", "id": 7663961445, "lat": 19.116499, "lon": 72.931802, "tags": {"addr:district": "Mumbai Suburban", "addr:full": "Seth Govindram Jolly Marg, Group 2, Sona Intp Colony, Tagore Nagar, Vikhroli, Mumbai", "addr:postcode": "400083", "addr:state": "Maharastra", "amenity": "hospital", "name": "Ruby Hospital", "source": "Local Knowledge"}}, {"type": "node", "id": 7663961464, "lat": 19.132448, "lon": 72.925483, "tags": {"addr:district": "Mumbai Suburban", "addr:full": "Dockyard Goi Employees, N C H Colony, Kanjurmarg West, Bhandup West, Mumbai", "addr:postcode": "400078", "addr:state": "Maharastra", "amenity": "hospital", "name": "Naval Hospital", "source": "Local Knowledge"}}, {"type": "node", "id": 7663961491, "lat": 19.1403995, "lon": 72.9283565, "tags": {"addr:district": "Mumbai Suburban", "addr:full": "Quarry Road, Bhandup, JM Nagar, Ganesh Nagar, Bhandup West, Mumbai", "addr:postcode": "400078", "addr:state": "Maharastra", "amenity": "hospital", "name": "Devaki Hospital", "source": "Local Knowledge"}}, {"type": "node", "id": 7663961494, "lat": 19.1438077, "lon": 72.9370628, "tags": {"addr:district": "Mumbai Suburban", "addr:full": "Bhandup Station Road, Bhandup, Dina Bama Estate, Bhandup West, Mumbai", "addr:postcode": "400078", "addr:state": "Maharastra", "amenity": "hospital", "name": "Shrenik Hospital and Maternity House", "source": "Local Knowledge"}}, {"type": "node", "id": 8797077000, "lat": 19.1522033, "lon": 72.9399276, "tags": {"addr:city": "Mumbai", "addr:district": "Mumbai", "addr:full": "Kukreja, Govind Nagar, Bhandup West, Mumbai", "addr:housenumber": "Village Road, Bhandup (West).Mumbai- 400078.", "addr:postcode": "400078", "addr:state": "Maharashtra", "addr:street": "Bhandup Village Road", "amenity": "hospital", "emergency": "yes", "healthcare": "hospital", "healthcare:speciality": "general;orthopaedics;otolaryngology;vaccination", "name": "Dr Bhatia\u2019s Hospital, Bhandup", "operator": "Dr. Bhatia", "operator:type": "private", "source": "Local Knowledge"}}, {"type": "node", "id": 8797173216, "lat": 19.0952772, "lon": 72.9137056, "tags": {"addr:district": "Mumbai", "addr:full": "E-1, Society, Ghatkopar West, Mumbai", "addr:postcode": "400086", "addr:state": "Maharashtra", "amenity": "hospital", "name": "Shantiniketan Hospital", "source": "Local Knowledge"}}, {"type": "node", "id": 8797353176, "lat": 19.1463034, "lon": 72.9369932, "tags": {"addr:district": "Mumbai", "addr:full": "3rd Floor, Bhandup", "addr:postcode": "400078", "addr:state": "Maharashtra", "amenity": "hospital", "name": "Sunrise Hospital", "source": "Local Knowledge"}}, {"type": "node", "id": 8797394208, "lat": 19.1710723, "lon": 72.9586105, "tags": {"addr:district": "Mumbai", "addr:full": "Hanuman Chowk, Mulund East, Mumbai", "addr:postcode": "400081", "addr:state": "Maharashtra", "amenity": "hospital", "name": "Ashirwad Critical Care Unit & Multi speciality", "source": "Local Knowledge"}}, {"type": "node", "id": 8797408854, "lat": 19.1721231, "lon": 72.9508348, "tags": {"addr:district": "Mumbai", "addr:full": "Mulund West, Mumbai", "addr:postcode": "400080", "addr:state": "Maharashtra", "amenity": "hospital", "name": "Zen Hospital", "source": "Local Knowledge"}}, {"type": "node", "id": 8817467502, "lat": 19.1124807, "lon": 72.9345149}, {"type": "node", "id": 9027663699, "lat": 19.1829552, "lon": 72.9749344, "tags": {"addr:city": "Thane", "addr:district": "Thane", "addr:housenumber": "123", "addr:postcode": "400605", "addr:street": "Dr Hemu Kalani Road", "amenity": "hospital", "emergency": "yes", "healthcare": "hospital", "healthcare:speciality": "gynaecology;paediatrics;dermatology;orthopaedics;otolaryngology", "name": "Radhakrishna Hospital"}}, {"type": "node", "id": 9094324655, "lat": 19.1773323, "lon": 72.9675883, "tags": {"amenity": "hospital", "healthcare": "hospital", "name": "Anant Seva Hospital", "operator": "Dr Vishwas Wasnik"}}, {"type": "node", "id": 9215422051, "lat": 19.1673177, "lon": 72.9632883, "tags": {"addr:district": "Mumbai", "addr:full": "Hanuman Chowk, Mulund East", "addr:postcode": "400081", "addr:state": "Maharashtra", "amenity": "hospital", "description": "Private Hospital", "name": "Gomathi Eye & Cornea Centre", "source": "Local Knowledge"}}, {"type": "node", "id": 9887624720, "lat": 19.1620682, "lon": 72.94173}, {"type": "node", "id": 10276589054, "lat": 19.1119105, "lon": 72.9342708}, {"type": "node", "id": 10276589055, "lat": 19.1117736, "lon": 72.9346356}, {"type": "node", "id": 10276589056, "lat": 19.1122932, "lon": 72.9349655}, {"type": "node", "id": 10727357074, "lat": 19.1525895, "lon": 72.9857501}, {"type": "node", "id": 10727357075, "lat": 19.1531911, "lon": 72.9871188}, {"type": "node", "id": 10727357076, "lat": 19.1542972, "lon": 72.9865578}, {"type": "node", "id": 10727357077, "lat": 19.1539387, "lon": 72.985807}, {"type": "node", "id": 10727357078, "lat": 19.1531399, "lon": 72.9854167}, {"type": "node", "id": 10727357079, "lat": 19.1528788, "lon": 72.9855604}, {"type": "node", "id": 11263873540, "lat": 19.1015846, "lon": 72.9121067, "tags": {"addr:postcode": "400086", "addr:street": "Amrut Nagar", "amenity": "hospital", "name:en": "Adarsh Hospital", "phone": "022 2500 7853"}}, {"type": "node", "id": 11617868277, "lat": 19.1245264, "lon": 72.9160425, "tags": {"addr:city": "Mumbai", "addr:district": "Mumbai Suburban", "addr:postcode": "400076", "addr:street": "Adi Sankaracharya Marg", "amenity": "hospital", "healthcare": "hospital", "healthcare:speciality": "otolaryngology", "name": "dr.anjali's hospital", "opening_hours": "Mo-Su 09:00-21:00", "operator": "dr.anjali", "operator:type": "private"}}, {"type": "node", "id": 12506146623, "lat": 19.1199248, "lon": 72.9166566}, {"type": "node", "id": 12506146624, "lat": 19.1196328, "lon": 72.9165471}, {"type": "node", "id": 12506146625, "lat": 19.1196767, "lon": 72.9167307}, {"type": "node", "id": 12506146627, "lat": 19.1195522, "lon": 72.9165154}, {"type": "node", "id": 12506146630, "lat": 19.1206506, "lon": 72.9168786}, {"type": "node", "id": 12506146631, "lat": 19.1208599, "lon": 72.9169889}, {"type": "node", "id": 12506146632, "lat": 19.1210283, "lon": 72.9170719}, {"type": "node", "id": 12506146633, "lat": 19.1210925, "lon": 72.9171094}, {"type": "node", "id": 12768025009, "lat": 19.1744736, "lon": 72.9423263}, {"type": "node", "id": 12768025010, "lat": 19.1746539, "lon": 72.942615}, {"type": "node", "id": 12768025011, "lat": 19.1744531, "lon": 72.9426068}, {"type": "node", "id": 12768025012, "lat": 19.1746473, "lon": 72.9423364}, {"type": "way", "id": 151861276, "nodes": [1647016139, 1647016179, 1647016153, 1647016235, 1647016241, 1647016232, 1647016218, 1647016195, 1647016149, 1647016124, 1647016109, 1647016083, 1647016121, 6234352163, 1647016063, 1647016139], "tags": {"amenity": "hospital", "healthcare": "hospital", "name": "Mental Hospital"}}, {"type": "way", "id": 353139106, "nodes": [3589059696, 3589059695, 3589059694, 3589059590, 3589059585, 12506146625, 3589059586, 12506146627, 12506146624, 12506146623, 3589059589, 3589059693, 12506146630, 12506146631, 12506146632, 12506146633, 3589059696], "tags": {"addr:city": "Mumbai", "addr:district": "MUMBAI", "addr:full": "Hill Side Avenue, Hiranandani Gardens, Powai", "addr:postcode": "400076", "addr:state": "Maharashtra", "amenity": "hospital", "building": "yes", "contact:mobile": "9619597757", "contact:phone": "02225763355;02225763356;02225763357;02225763344;02225763311", "email": "wecare@hiranandanihospital.org", "emergency": "yes", "fax": "022 25763344", "healthcare": "hospital", "name": "Dr. L. H. Hiranandani Hospital", "opening_hours": "24/7", "operator:type": "ngo", "source": "OpenGovernmentData", "website": "https://www.hiranandanihospital.org"}}, {"type": "way", "id": 353785599, "nodes": [3595939163, 3595939158, 3595939152, 3595939156, 3595939149, 3595939148, 3595939146, 3595939150, 3595939153, 3595939151, 3595939159, 3595939157, 3595939161, 3595939162, 3595939163], "tags": {"addr:city": "Kanjur Marg (E)", "addr:district": "Mumbai", "addr:housenumber": "above kalpatru building", "addr:postcode": "400042", "addr:street": "Veer Savarkar Road", "amenity": "hospital", "emergency": "yes", "healthcare": "hospital", "healthcare:speciality": "general;maternity;clinical_pathology", "name": "Aniket Nursing Home"}}, {"type": "way", "id": 436606769, "nodes": [3546099443, 4344894369, 4344894376, 4344894373, 4344894379, 4344894381, 4344894382, 4344894387, 4344894389, 4344894392, 4344894394, 4344894395, 4344894390, 4344894386, 3546099443], "tags": {"addr:city": "mumbai", "addr:district": "Mumbai", "addr:full": "Pirojshanagar, Vikhroli(E)", "addr:postcode": "400083", "addr:state": "Maharashtra", "addr:street": "Pirojsha Godrej Marg", "amenity": "hospital", "healthcare": "hospital", "name": "Godrej Memorial Hospital, Mumbai", "source": "OpenGovernmentData"}}, {"type": "way", "id": 627628780, "nodes": [1856751380, 5924793790, 5924793789, 5924793788, 5924793787, 5924793786, 5924793785, 5924793684, 9887624720, 5924793682, 1856751380], "tags": {"addr:district": "Mumbai", "addr:full": "Mulund Goregaon Link Road", "addr:postcode": "400078", "addr:state": "Maharashtra", "amenity": "hospital", "email": "enquiries@fortishospitals.in", "emergency": "yes", "name": "Fortis Hospitals", "operator:type": "private", "source": "OpenGovernmentData", "website": "www.fortishospitals.com"}}, {"type": "way", "id": 627628785, "nodes": [5924793806, 5924793805, 5924793804, 5924793803, 5924793802, 5924793799, 5924793798, 2045673883, 5924793806], "tags": {"addr:city": "Mulund (West)", "addr:postcode": "400080", "amenity": "hospital", "healthcare": "hospital", "landuse": "Hospital", "name": "ESIS Hospital"}}, {"type": "way", "id": 632266782, "nodes": [3224698401, 5969984651, 5969984650, 5969984649, 3224698401], "tags": {"addr:city": "Mulund (East)", "addr:district": "Mumbai", "addr:full": "V.D.Sawarkar Mun.Gen. Hospital, Mulund East Mumbai 81", "addr:postcode": "400081", "addr:state": "Maharashtra", "addr:street": "Mahatma Phule Marg", "amenity": "hospital", "description": "Sub District Hospital", "healthcare": "hospital", "name": "V.D. SAWARKAR HOSPITAL", "opening_hours": "24/7", "source": "OpenGovernmentData"}}, {"type": "way", "id": 665670055, "nodes": [4119440289, 6230922851, 6230922850, 6230922852, 4119440289], "tags": {"addr:district": "Mumbai", "addr:full": "Alhad 185-R, P.K. Road, Opposite Sports Complex, Mulund (W)", "addr:postcode": "400080", "addr:state": "Maharashtra", "amenity": "hospital", "name": "Aditi Hospital", "source": "OpenGovernmentData"}}, {"type": "way", "id": 665670056, "nodes": [6230922856, 6230922854, 6230922853, 6230922855, 6230922856], "tags": {"addr:city": "Mulund (West)", "addr:district": "Mumbai", "addr:full": "Valji ladha road, Mulund(west)", "addr:postcode": "400080", "addr:state": "Maharashtra", "addr:street": "Walji Ladha Road", "amenity": "hospital", "email": "admin@hmnhospital.com", "name": "Hira-Mongi Navneet Hospital", "operator:type": "private", "source": "OpenGovernmentData", "website": "http://www.hmnhospital.com/"}}, {"type": "way", "id": 680690375, "nodes": [6373769199, 6373769200, 6373769211, 6373769201, 6373769202, 6373769203, 6373769204, 6373769205, 6373769206, 6373769207, 6373769208, 6373769209, 6373769210, 6373769199], "tags": {"addr:city": "Thane", "addr:district": "Thane", "addr:full": "Renuka Building, Opp: Mangla School, Above Bank Of Maharashtra,Kopari Thane(E), Above Bank Of Maharashtra, Kopari", "addr:postcode": "400603", "addr:state": "Maharashtra", "amenity": "hospital", "building": "yes", "healthcare": "hospital", "name": "Aarogyam Multispeciality Hospital, Thane", "source": "OpenGovernmentData"}}, {"type": "way", "id": 681030493, "nodes": [6377237895, 6377237896, 6377237897, 6377237898, 6377237899, 6377237895], "tags": {"amenity": "hospital", "building": "yes", "healthcare": "hospital", "name": "Ankur Hospital"}}, {"type": "way", "id": 682033023, "nodes": [6387038344, 6387038345, 6387038346, 6387038347, 6387038348, 6387038349, 6387038344], "tags": {"amenity": "hospital", "building": "yes", "healthcare": "hospital", "name": "Ma Vaishnavi"}}, {"type": "way", "id": 723323008, "nodes": [6784511284, 668708218, 6784511283, 6784511282, 6784511281, 6784511280, 6784511276, 5882322896, 6784511279, 6784511284], "tags": {"amenity": "hospital", "healthcare": "hospital", "name": "IIT Hospital"}}, {"type": "way", "id": 1123726002, "nodes": [10276589056, 10276589055, 10276589054, 8817467502, 10276589056], "tags": {"addr:district": "Thane", "addr:full": "Vikhroli, Mumbai", "addr:postcode": "400083", "addr:state": "Maharashtra", "amenity": "hospital", "name": "Shushrusha Hospital", "source": "Local Knowledge"}}, {"type": "way", "id": 1153427862, "nodes": [10727357074, 10727357075, 10727357076, 10727357077, 10727357078, 10727357079, 10727357074], "tags": {"amenity": "hospital", "healthcare": "hospital"}}, {"type": "way", "id": 1378841925, "nodes": [12768025012, 12768025009, 12768025011, 12768025010, 12768025012], "tags": {"addr:district": "Mumbai Suburban", "addr:full": "Devi Dayal Cross Road, Behind Fire Station, P&T Staff Colony, Mulund West, Mumbai", "addr:postcode": "400080", "addr:state": "Maharastra", "amenity": "hospital", "name": "Upasani Super Speciality Hospital", "source": "Local Knowledge"}}]}