{"version": 0.6, "generator": "Overpass API 0.7.62.8 e802775f", "osm3s": {"timestamp_osm_base": "2026-01-13T12:25:00Z", "copyright": "The data included in this document is from www.openstreetmap.org. The data is made available under ODbL."}, "elements": [{"type": "node", "id": 265688213, "lat": 37.7591681, "lon": -122.4065789}, {"type": "node", "id": 265688214, "lat": 37.754388, "lon": -122.4062997}, {"type": "node", "id": 265688215, "lat": 37.7545474, "lon": -122.4036798}, {"type": "node", "id": 265688216, "lat": 37.7565574, "lon": -122.4038814}, {"type": "node", "id": 265688217, "lat": 37.7569071, "lon": -122.4040099}, {"type": "node", "id": 265688218, "lat": 37.7568625, "lon": -122.4048507}, {"type": "node", "id": 265688219, "lat": 37.757847, "lon": -122.4049455}, {"type": "node", "id": 1727334480, "lat": 37.7567582, "lon": -122.4065285}, {"type": "node", "id": 1727334483, "lat": 37.7569424, "lon": -122.4065412}, {"type": "node", "id": 1727334485, "lat": 37.7570407, "lon": -122.4048678}, {"type": "node", "id": 1727334488, "lat": 37.7573766, "lon": -122.4065863}, {"type": "node", "id": 1727334490, "lat": 37.7583203, "lon": -122.4066772}, {"type": "node", "id": 1727334492, "lat": 37.7591559, "lon": -122.4067546}, {"type": "node", "id": 1727484908, "lat": 37.746514, "lon": -122.4215676}, {"type": "node", "id": 1727484909, "lat": 37.7465857, "lon": -122.4204508}, {"type": "node", "id": 1727484910, "lat": 37.7466118, "lon": -122.4203853}, {"type": "node", "id": 1727484911, "lat": 37.7466386, "lon": -122.4203527}, {"type": "node", "id": 1727484912, "lat": 37.7466676, "lon": -122.4203219}, {"type": "node", "id": 1727484915, "lat": 37.7473057, "lon": -122.4212931}, {"type": "node", "id": 1727484917, "lat": 37.7479456, "lon": -122.4218959}, {"type": "node", "id": 1727484922, "lat": 37.7479613, "lon": -122.4212572}, {"type": "node", "id": 1727484930, "lat": 37.7479715, "lon": -122.4208685}, {"type": "node", "id": 1727484931, "lat": 37.7479809, "lon": -122.4204432}, {"type": "node", "id": 2760713347, "lat": 37.7467067, "lon": -122.4202877}, {"type": "node", "id": 2760713427, "lat": 37.7479619, "lon": -122.4203943}, {"type": "node", "id": 4087582687, "lat": 37.7472736, "lon": -122.4218219}, {"type": "node", "id": 4087582688, "lat": 37.7479831, "lon": -122.4213164}, {"type": "node", "id": 4561825894, "lat": 37.7650218, "lon": -122.3905358}, {"type": "node", "id": 4668344950, "lat": 37.7650324, "lon": -122.3922296}, {"type": "node", "id": 4668344951, "lat": 37.7651151, "lon": -122.3908415}, {"type": "node", "id": 4668344953, "lat": 37.7655498, "lon": -122.3922817}, {"type": "node", "id": 5555408498, "lat": 37.7647716, "lon": -122.3896641, "tags": {"addr:city": "San Francisco", "addr:housenumber": "1975", "addr:postcode": "94158", "addr:street": "4th Street", "amenity": "hospital", "emergency": "yes", "healthcare": "hospital", "healthcare:speciality": "paediatrics", "name": "UCSF Benioff Children's Hospital San Francisco", "opening_hours": "24/7", "phone": "+1 415 353 1664", "website": "https://www.ucsfbenioffchildrens.org/", "wikidata": "Q17031376"}}, {"type": "node", "id": 5555408499, "lat": 37.7645807, "lon": -122.3907208}, {"type": "node", "id": 5555408500, "lat": 37.7648034, "lon": -122.3906511}, {"type": "node", "id": 5555408501, "lat": 37.7663279, "lon": -122.3923516}, {"type": "node", "id": 5555408502, "lat": 37.7665527, "lon": -122.392424}, {"type": "node", "id": 5555408503, "lat": 37.7665908, "lon": -122.392408}, {"type": "node", "id": 5555408504, "lat": 37.7666036, "lon": -122.3923597}, {"type": "node", "id": 5555408505, "lat": 37.7667159, "lon": -122.3905465}, {"type": "node", "id": 5555408506, "lat": 37.7667901, "lon": -122.3893234}, {"type": "node", "id": 5555408507, "lat": 37.7667689, "lon": -122.3892993}, {"type": "node", "id": 5555408508, "lat": 37.7645786, "lon": -122.3890793}, {"type": "node", "id": 5555408509, "lat": 37.7645256, "lon": -122.3890954}, {"type": "node", "id": 5555408510, "lat": 37.7644917, "lon": -122.3891223}, {"type": "node", "id": 5555408511, "lat": 37.7643645, "lon": -122.3906699}, {"type": "node", "id": 5555408512, "lat": 37.7643772, "lon": -122.3907074}, {"type": "node", "id": 6273113452, "lat": 37.7545148, "lon": -122.404216}, {"type": "node", "id": 6329857139, "lat": 37.766337, "lon": -122.3892586, "tags": {"crossing": "unmarked", "crossing:markings": "no", "highway": "crossing"}}, {"type": "node", "id": 8431757302, "lat": 37.7588208, "lon": -122.4061495}, {"type": "node", "id": 10982250132, "lat": 37.7568688, "lon": -122.4047319}, {"type": "node", "id": 12092036107, "lat": 37.7590075, "lon": -122.416707, "tags": {"addr:city": "San Francisco", "addr:housenumber": "3380", "addr:postcode": "94110", "addr:state": "CA", "addr:street": "20th Street", "addr:unit": "#102", "amenity": "hospital", "description": "Double Happiness Health is a San Francisco acupuncture clinic with a focus on fertility, pain, mood, fatigue, infertility, digestive issues, immunity issues, menstrual disorders and other conditions using TCM (Traditional Chinese Medicine). We take a holi", "healthcare": "hospital", "healthcare:speciality": "acupuncture;fertility", "name": "Double Happiness Health - Acupuncture San Francisco", "phone": "+1 415-255-2252", "website": "https://www.doublehappinesshealth.com/"}}, {"type": "way", "id": 24446045, "nodes": [265688213, 1727334492, 1727334490, 1727334488, 1727334483, 1727334480, 265688214, 6273113452, 265688215, 265688216, 265688217, 10982250132, 265688218, 1727334485, 265688219, 8431757302, 265688213], "tags": {"addr:city": "San Francisco", "addr:country": "US", "addr:housenumber": "1001", "addr:postcode": "94158", "addr:state": "CA", "addr:street": "Potrero Avenue", "amenity": "hospital", "beds": "397", "emergency": "yes", "healthcare": "hospital", "name": "San Francisco General Hospital", "official_name": "Zuckerberg San Francisco General Hospital", "opening_hours": "24/7", "phone": "+1 415 206 8000", "website": "https://zuckerbergsanfranciscogeneral.org/", "wikidata": "Q7414040", "wikipedia": "en:San Francisco General Hospital"}}, {"type": "way", "id": 160709337, "nodes": [2760713347, 2760713427, 1727484931, 1727484930, 1727484922, 4087582688, 1727484917, 4087582687, 1727484915, 1727484908, 1727484909, 1727484910, 1727484911, 1727484912, 2760713347], "tags": {"addr:city": "San Francisco", "addr:country": "US", "addr:housenumber": "3555", "addr:postcode": "94110", "addr:state": "CA", "addr:street": "Cesar Chavez Street", "amenity": "hospital", "beds": "120", "emergency": "yes", "gnis:feature_id": "1656867", "healthcare": "hospital", "name": "CPMC Saint Luke's Campus", "opening_hours": "24/7", "operator": "California Pacific Medical Center", "phone": "+1 415 647 8600", "website": "http://www.cpmc.org/about/stluke.html"}}, {"type": "way", "id": 580277612, "nodes": [5555408512, 5555408511, 5555408510, 5555408509, 5555408508, 6329857139, 5555408507, 5555408506, 5555408505, 5555408504, 5555408503, 5555408502, 5555408501, 4668344953, 4668344950, 4668344951, 4561825894, 5555408500, 5555408499, 5555408512], "tags": {"addr:city": "San Francisco", "addr:housenumber": "1975", "addr:postcode": "94158", "addr:street": "4th Street", "amenity": "hospital", "emergency": "no", "healthcare": "hospital", "name": "UCSF Medical Center at Mission Bay", "operator": "University of California San Francisco", "website": "https://www.ucsfhealth.org/"}}]}