{"version": 0.6, "generator": "Overpass API 0.7.62.8 e802775f", "osm3s": {"timestamp_osm_base": "2026-01-13T07:46:26Z", "copyright": "The data included in this document is from www.openstreetmap.org. The data is made available under ODbL."}, "elements": [{"type": "node", "id": 346379239, "lat": 19.0508211, "lon": 72.8297569}, {"type": "node", "id": 346388855, "lat": 19.051578, "lon": 72.829257}, {"type": "node", "id": 346388856, "lat": 19.0510502, "lon": 72.8285763}, {"type": "node", "id": 346388857, "lat": 19.0503724, "lon": 72.8290228}, {"type": "node", "id": 346643796, "lat": 19.0516428, "lon": 72.8321317, "tags": {"amenity": "hospital", "created_by": "Potlatch 0.10f", "name": "National Centre for Training and Research into Cerebral Palsy"}}, {"type": "node", "id": 347120067, "lat": 19.0571185, "lon": 72.8338596}, {"type": "node", "id": 347168743, "lat": 19.0560779, "lon": 72.8267648}, {"type": "node", "id": 347168744, "lat": 19.0554778, "lon": 72.8267854}, {"type": "node", "id": 347168745, "lat": 19.0554818, "lon": 72.8271174}, {"type": "node", "id": 347168746, "lat": 19.0549057, "lon": 72.8271253}, {"type": "node", "id": 347168747, "lat": 19.0549122, "lon": 72.8275145}, {"type": "node", "id": 347168748, "lat": 19.0560954, "lon": 72.8274859}, {"type": "node", "id": 631493980, "lat": 19.0353273, "lon": 72.8597511}, {"type": "node", "id": 631493994, "lat": 19.0367462, "lon": 72.860318}, {"type": "node", "id": 1111894364, "lat": 19.043651, "lon": 72.850087}, {"type": "node", "id": 1111894369, "lat": 19.0433011, "lon": 72.8501004}, {"type": "node", "id": 1347550460, "lat": 19.1106501, "lon": 72.8483274, "tags": {"amenity": "hospital", "healthcare": "hospital", "name": "Jevan Vikas Hospital"}}, {"type": "node", "id": 1575266020, "lat": 19.1031903, "lon": 72.8470399}, {"type": "node", "id": 1575266022, "lat": 19.1033044, "lon": 72.8470264}, {"type": "node", "id": 1575266023, "lat": 19.1031718, "lon": 72.8469488}, {"type": "node", "id": 1575266025, "lat": 19.1032884, "lon": 72.8469193}, {"type": "node", "id": 1640244309, "lat": 19.0962884, "lon": 72.8483799, "tags": {"addr:city": "Mumbai", "addr:district": "Maharashtra", "addr:housenumber": "KIRIT NURSING HOME, Pushpa Ganga Soc, Subhash Rd", "addr:postcode": "400057", "addr:street": "opp Sai Mandir Marg, Navpada, Vile Parle E", "amenity": "hospital", "contact:facebook": "https://www.facebook.com/drmaitreyeeparulekar/", "email": "parulekardrmaitreyee@gmail.com", "healthcare": "hospital", "healthcare:speciality": "gynaecology;oncology", "image": "https://drmaitreyeegynec.in/wp-content/uploads/2025/03/gallery1.webp", "mobile": "7208727500", "name": "Dr Maitreyee Parulekar", "opening_hours": "24/7", "payment:cash": "yes", "payment:contactless": "yes", "payment:credit_cards": "yes", "payment:debit_cards": "yes", "payment:google_pay": "yes", "website": "https://drmaitreyeegynec.in/"}}, {"type": "node", "id": 1673075405, "lat": 19.0771611, "lon": 72.8581228}, {"type": "node", "id": 1673075406, "lat": 19.077113, "lon": 72.858442}, {"type": "node", "id": 1673075407, "lat": 19.0771308, "lon": 72.8587343}, {"type": "node", "id": 1673075408, "lat": 19.0770217, "lon": 72.8583214}, {"type": "node", "id": 1673075409, "lat": 19.0768494, "lon": 72.8584421}, {"type": "node", "id": 1673075410, "lat": 19.0771028, "lon": 72.8582462}, {"type": "node", "id": 1673075411, "lat": 19.0769424, "lon": 72.8588056}, {"type": "node", "id": 1673075412, "lat": 19.0770571, "lon": 72.8582757}, {"type": "node", "id": 1673075413, "lat": 19.0769119, "lon": 72.8585669}, {"type": "node", "id": 1673075414, "lat": 19.077216, "lon": 72.8581511}, {"type": "node", "id": 1673075415, "lat": 19.0770394, "lon": 72.8582032}, {"type": "node", "id": 1673075416, "lat": 19.0771129, "lon": 72.8583132}, {"type": "node", "id": 1787854399, "lat": 19.116234, "lon": 72.8339632, "tags": {"addr:district": "Mumbai", "addr:full": "25, Gulmohar Park Gulmohar Road, Juhu Scheme Vile Parle - West", "addr:housenumber": "25", "addr:postcode": "400049", "addr:state": "Maharashtra", "addr:street": "Gulmohar Road", "amenity": "hospital", "emergency": "yes", "healthcare": "hospital", "name": "Sujay Hospital", "opening_hours": "24/7", "source": "OpenGovernmentData"}}, {"type": "node", "id": 2128608094, "lat": 19.0468027, "lon": 72.8420002}, {"type": "node", "id": 2128608096, "lat": 19.046962, "lon": 72.8425878}, {"type": "node", "id": 2128608109, "lat": 19.0458668, "lon": 72.8422835}, {"type": "node", "id": 2128608120, "lat": 19.046047, "lon": 72.8429939}, {"type": "node", "id": 2382047271, "lat": 19.0396977, "lon": 72.8519607}, {"type": "node", "id": 2382047272, "lat": 19.0397366, "lon": 72.8518611}, {"type": "node", "id": 2382047275, "lat": 19.0397658, "lon": 72.8517582}, {"type": "node", "id": 2382047276, "lat": 19.0397723, "lon": 72.8518749}, {"type": "node", "id": 2382047277, "lat": 19.0398178, "lon": 72.8517959}, {"type": "node", "id": 2382047280, "lat": 19.0398534, "lon": 72.8520259}, {"type": "node", "id": 2382047281, "lat": 19.0398567, "lon": 72.851693}, {"type": "node", "id": 2382047282, "lat": 19.0398664, "lon": 72.8519675}, {"type": "node", "id": 2382047292, "lat": 19.0400416, "lon": 72.852122}, {"type": "node", "id": 2382047294, "lat": 19.0400611, "lon": 72.8520636}, {"type": "node", "id": 2382047297, "lat": 19.0401389, "lon": 72.851844}, {"type": "node", "id": 2382047302, "lat": 19.0402265, "lon": 72.8522284}, {"type": "node", "id": 2382047306, "lat": 19.0403368, "lon": 72.8519675}, {"type": "node", "id": 2449734759, "lat": 19.0549066, "lon": 72.827198, "tags": {"access": "private", "barrier": "gate", "name": "Gate 2"}}, {"type": "node", "id": 2449734760, "lat": 19.0549103, "lon": 72.8274255, "tags": {"access": "private", "barrier": "gate", "name": "Gate 1"}}, {"type": "node", "id": 2449734777, "lat": 19.055701, "lon": 72.8267823, "tags": {"access": "private", "barrier": "gate", "name": "Gate 3"}}, {"type": "node", "id": 2449757463, "lat": 19.0512777, "lon": 72.8285804}, {"type": "node", "id": 2947820875, "lat": 19.0616337, "lon": 72.8451297, "tags": {"amenity": "hospital", "healthcare": "hospital"}}, {"type": "node", "id": 3403264488, "lat": 19.1068191, "lon": 72.8507443, "tags": {"addr:city": "Mumbai", "addr:housenumber": "krishna alankar", "addr:postcode": "400057", "addr:street": "Tejpal Scheme Road 5", "amenity": "hospital", "emergency": "yes", "healthcare": "hospital", "name": "gr8 smile dental clinic", "note": "Dentist", "operator": "dr. jitha marakarkandy", "phone": "+91 22 2684 2451"}}, {"type": "node", "id": 3589607622, "lat": 19.0833696, "lon": 72.8396091}, {"type": "node", "id": 3589607625, "lat": 19.0834084, "lon": 72.8393662}, {"type": "node", "id": 3589607628, "lat": 19.0834806, "lon": 72.8396289}, {"type": "node", "id": 3589607630, "lat": 19.0835193, "lon": 72.839386}, {"type": "node", "id": 3591988751, "lat": 19.0797777, "lon": 72.8401094}, {"type": "node", "id": 3591988753, "lat": 19.0797871, "lon": 72.8402171}, {"type": "node", "id": 3591988758, "lat": 19.0798166, "lon": 72.8402035}, {"type": "node", "id": 3591988762, "lat": 19.0798445, "lon": 72.8403563}, {"type": "node", "id": 3591988763, "lat": 19.0798478, "lon": 72.8400771}, {"type": "node", "id": 3591988766, "lat": 19.0798602, "lon": 72.8401071}, {"type": "node", "id": 3591988786, "lat": 19.0799358, "lon": 72.8400723}, {"type": "node", "id": 3591988795, "lat": 19.0800196, "lon": 72.8402754}, {"type": "node", "id": 3597683636, "lat": 19.0782728, "lon": 72.8547927}, {"type": "node", "id": 3597683640, "lat": 19.0783736, "lon": 72.8552629}, {"type": "node", "id": 3597683642, "lat": 19.0783899, "lon": 72.8548691}, {"type": "node", "id": 3597683646, "lat": 19.0784475, "lon": 72.8551514}, {"type": "node", "id": 3597683650, "lat": 19.0784578, "lon": 72.8547499}, {"type": "node", "id": 3597683653, "lat": 19.0785166, "lon": 72.8551171}, {"type": "node", "id": 3597683655, "lat": 19.0784864, "lon": 72.8548657}, {"type": "node", "id": 3597683659, "lat": 19.0785482, "lon": 72.8551813}, {"type": "node", "id": 3627071289, "lat": 19.068504, "lon": 72.8371295}, {"type": "node", "id": 3627071291, "lat": 19.0685152, "lon": 72.836917}, {"type": "node", "id": 3627071313, "lat": 19.0686166, "lon": 72.8371362}, {"type": "node", "id": 3627071318, "lat": 19.0686278, "lon": 72.8369236}, {"type": "node", "id": 3951526714, "lat": 19.0959684, "lon": 72.8400115, "tags": {"addr:district": "Mumbai", "addr:full": "S V Road , Vile Parle", "addr:postcode": "400056", "addr:state": "Maharashtra", "addr:street": "Swami Vivekanand Road", "amenity": "hospital", "contact:phone": "2226267500", "email": "info@nanavatihospital.org", "healthcare": "hospital", "name": "Nanavati Hospital, Mumbai", "opening_hours": "24/7", "operator:type": "government", "source": "OpenGovernmentData", "website": "https://www.nanavatihospital.org/", "wikidata": "Q6962443", "wikipedia": "en:Nanavati hospital"}}, {"type": "node", "id": 3951538079, "lat": 19.0857296, "lon": 72.8377345, "tags": {"amenity": "hospital", "name": "Surya Mother And Child Speciality Hospital"}}, {"type": "node", "id": 3951538080, "lat": 19.0855132, "lon": 72.837945, "tags": {"addr:district": "Mumbai", "addr:full": "101/102 Mangal Ashirwad, June S.V. Road & Dattatray Road, T.P.S. Ii Santacruz (W)", "addr:postcode": "400054", "addr:state": "Maharashtra", "amenity": "hospital", "name": "Surya Childrens Hospital", "source": "OpenGovernmentData"}}, {"type": "node", "id": 3979081599, "lat": 19.1140839, "lon": 72.8417197, "tags": {"addr:district": "Mumbai", "addr:full": "2-A,Manubharti Chs,Azad Lane,S V Road,Andheri", "addr:postcode": "400059", "addr:state": "Maharashtra", "amenity": "hospital", "name": "Nutan Mammography and Sonography Centre", "source": "OpenGovernmentData"}}, {"type": "node", "id": 3979327149, "lat": 19.1212448, "lon": 72.8270705}, {"type": "node", "id": 3979327151, "lat": 19.120928, "lon": 72.8268882}, {"type": "node", "id": 3979327152, "lat": 19.1209656, "lon": 72.8268108}, {"type": "node", "id": 3979327153, "lat": 19.1212949, "lon": 72.8269663}, {"type": "node", "id": 4264834970, "lat": 19.0358885, "lon": 72.8583026}, {"type": "node", "id": 4297000114, "lat": 19.0652101, "lon": 72.8602486}, {"type": "node", "id": 4297017108, "lat": 19.0648746, "lon": 72.8604461}, {"type": "node", "id": 4297017109, "lat": 19.0649062, "lon": 72.8602099}, {"type": "node", "id": 4297017110, "lat": 19.0650704, "lon": 72.8616134}, {"type": "node", "id": 4297017111, "lat": 19.0651941, "lon": 72.8603705}, {"type": "node", "id": 4297017112, "lat": 19.0655094, "lon": 72.8612444}, {"type": "node", "id": 4297017113, "lat": 19.0656848, "lon": 72.8612577}, {"type": "node", "id": 4297017114, "lat": 19.065784, "lon": 72.8604366}, {"type": "node", "id": 4352387478, "lat": 19.0750197, "lon": 72.8356392, "tags": {"addr:city": "Santa Cruz", "addr:district": "Mumbai", "addr:full": "12Th Road, Khar", "addr:postcode": "400052", "addr:state": "Maharashtra", "addr:street": "South Avenue", "amenity": "hospital", "check_date": "2025-06-12", "healthcare": "hospital", "name": "Ramakrishna Mission Hospital, Mumbai", "source": "OpenGovernmentData"}}, {"type": "node", "id": 4672225593, "lat": 19.0401523, "lon": 72.844575, "tags": {"addr:street": "Mia Mohd Chhotani Road", "amenity": "hospital", "name:en": "Pikale Hospital", "name:hi": "\u092a\u093f\u0915\u093e\u0932\u0947 \u0905\u0938\u094d\u092a\u0924\u093e\u0932"}}, {"type": "node", "id": 4848773727, "lat": 19.0358379, "lon": 72.8609822, "tags": {"amenity": "hospital", "name": "Mata Lachmi Hospital"}}, {"type": "node", "id": 4998848423, "lat": 19.1117839, "lon": 72.8283425, "tags": {"addr:district": "Mumbai", "addr:full": "N. S. Road No. 13, Juhu Scheme, Vile Parle (W), Nxt To Utpal Sanghvi School", "addr:postcode": "400049", "addr:state": "Maharashtra", "addr:street": "N S Road No. 13", "amenity": "hospital", "healthcare": "hospital", "name": "Bharatiya Arogya Nidhi Sheth Kantilal C. Parikh General Hospital", "name:en": "Bharatiya Arogya Nidhi Sheth Kantilal C. Parikh General Hospital", "opening_hours": "24/7", "phone": "02226206021", "source": "OpenGovernmentData"}}, {"type": "node", "id": 5506320776, "lat": 19.0646242, "lon": 72.8510225, "tags": {"addr:street": "Hari Mandir Road", "amenity": "hospital", "name": "Shivam Nursing Home", "phone": "022-2657138689"}}, {"type": "node", "id": 5506320962, "lat": 19.0647166, "lon": 72.860991}, {"type": "node", "id": 5510255905, "lat": 19.0649456, "lon": 72.8602135}, {"type": "node", "id": 5792364461, "lat": 19.0360806, "lon": 72.8581106}, {"type": "node", "id": 5792364462, "lat": 19.0373889, "lon": 72.8586434}, {"type": "node", "id": 6228730399, "lat": 19.0577092, "lon": 72.8337577}, {"type": "node", "id": 6228730400, "lat": 19.0576712, "lon": 72.8330362}, {"type": "node", "id": 6228730401, "lat": 19.0570577, "lon": 72.8330576}, {"type": "node", "id": 6228730402, "lat": 19.0576636, "lon": 72.8338301}, {"type": "node", "id": 6228754300, "lat": 19.0570865, "lon": 72.833438}, {"type": "node", "id": 7043174029, "lat": 19.1181601, "lon": 72.844288, "tags": {"addr:district": "Mumbai", "addr:full": "11, GangaVihar Residency, 174 S.V.Road", "addr:postcode": "400058", "addr:state": "Maharashtra", "amenity": "hospital", "email": "drsamir@gynaecexpert.com", "healthcare": "hospital", "name": "Sangita Maternity Surgical and Diagnostic Centre", "operator:type": "private", "source": "OpenGovernmentData", "website": "https://gynaecexpert.com/"}}, {"type": "node", "id": 7043174030, "lat": 19.0632283, "lon": 72.834439, "tags": {"addr:district": "Mumbai", "addr:full": "8 Roseland Bulding, 180, Opposite National College, Junction Of Linking And Waterfield Road, Bandra West", "addr:postcode": "400050", "addr:state": "Maharashtra", "amenity": "hospital", "email": "info@ojaseyehospital.com", "healthcare": "hospital", "name": "Ojas Eye Hospital", "source": "OpenGovernmentData", "website": "https://www.ojaseyehospital.com/"}}, {"type": "node", "id": 7043182324, "lat": 19.0803279, "lon": 72.8421846, "tags": {"addr:district": "Mumbai", "addr:full": "Qureshi House, 6Th Nehru Road,Near Santacruz Railway Station, Santacruz (East)", "addr:postcode": "400055", "addr:state": "Maharashtra", "amenity": "hospital", "healthcare": "hospital", "name": "R. K. Hospital, Mumbai", "source": "OpenGovernmentData"}}, {"type": "node", "id": 7043348148, "lat": 19.0797908, "lon": 72.8427047, "tags": {"addr:district": "Mumbai", "addr:full": "Shri Sadashiv Chs, 6Th Road, Santacruz(E)", "addr:postcode": "400055", "addr:state": "Maharashtra", "amenity": "hospital", "healthcare": "hospital", "name": "Nandan Maternity and Surgical Home", "source": "OpenGovernmentData"}}, {"type": "node", "id": 7043376493, "lat": 19.0784905, "lon": 72.8380749, "tags": {"addr:district": "Mumbai", "addr:full": "101, Kirti Manor, S V Road, Phiroz Dastoor & Sons, Santacruz West", "addr:postcode": "400054", "addr:state": "Maharashtra", "amenity": "hospital", "healthcare": "hospital", "name": "Mumbai Retina Centre", "source": "OpenGovernmentData"}}, {"type": "node", "id": 7043388690, "lat": 19.0879436, "lon": 72.8376687, "tags": {"addr:district": "Mumbai", "addr:full": "G-6, Chirag Housing Society, B-1, S.V.Road, Santacruz(W)", "addr:postcode": "400054", "addr:state": "Maharashtra", "amenity": "hospital", "name": "Malpani Eye Hospital and Laser Centre", "source": "OpenGovernmentData"}}, {"type": "node", "id": 7043397894, "lat": 19.089509, "lon": 72.8385763, "tags": {"addr:district": "Mumbai", "addr:full": "102 D Wing Rizvi Nagar 1 St Floor S.V.Road Milan , , Corner Santacruz", "addr:postcode": "400054", "addr:state": "Maharashtra", "amenity": "hospital", "name": "Kenias Eye Hospital", "source": "OpenGovernmentData"}}, {"type": "node", "id": 7043397906, "lat": 19.1129534, "lon": 72.8379245, "tags": {"addr:district": "Mumbai", "addr:full": "B201, Dhruv, OppositeGagandeep, Main Road, Juhu, Vile Parle (West)", "addr:postcode": "400056", "addr:state": "Maharashtra", "amenity": "hospital", "email": "info@lasersformedicine.com", "name": "Centre For Sight, Juhu", "operator:type": "private", "source": "OpenGovernmentData", "website": "https://www.centreforsight.net/"}}, {"type": "node", "id": 7043548005, "lat": 19.0604187, "lon": 72.8369254, "tags": {"addr:district": "Mumbai", "addr:full": "# 222, S.V. Road, Bandra- West", "addr:postcode": "400050", "addr:state": "Maharashtra", "amenity": "hospital", "healthcare": "hospital", "name": "Shroff Eye Hospital", "source": "OpenGovernmentData"}}, {"type": "node", "id": 7043778826, "lat": 19.1013222, "lon": 72.8484596, "tags": {"addr:city": "mumbai", "addr:district": "Mumbai", "addr:full": "# 102/6, Purshottam Niwas,1st Floor, Park Road, Vile Parle (E)", "addr:postcode": "400057", "addr:state": "Maharashtra", "addr:street": "Prarthana Samaj Road", "amenity": "hospital", "healthcare": "hospital", "healthcare:speciality": "ophthalmology", "name": "Parle Eye Hospital", "opening_hours": "24/7", "source": "OpenGovernmentData"}}, {"type": "node", "id": 7046326222, "lat": 19.0972827, "lon": 72.8493802, "tags": {"addr:district": "Mumbai", "addr:full": "Vimal Apartment, Nehru Road, No.9, 10, 11, Near Municipal Office, Vile Parle East", "addr:postcode": "400057", "addr:state": "Maharashtra", "amenity": "hospital", "name": "Navjivan Maternity and Surgical Nursing Home", "source": "OpenGovernmentData"}}, {"type": "node", "id": 7047430578, "lat": 19.0758488, "lon": 72.8608239, "tags": {"addr:district": "Mumbai", "addr:full": "C.S.T. Road, Next To Sundar Nagar,M Kalina, Santacruz(E)", "addr:postcode": "400098", "addr:state": "Maharashtra", "amenity": "hospital", "name": "Durga Maternity and Surgical Nursing Home", "source": "OpenGovernmentData"}}, {"type": "node", "id": 7049336179, "lat": 19.1156879, "lon": 72.8353295, "tags": {"addr:district": "Mumbai", "addr:full": "Plot No38/39, Opposite Juhu Supreme Shopping Centre, Main Gulmohar Road, Andheri (W),", "addr:postcode": "400049", "addr:state": "Maharashtra", "amenity": "hospital", "email": "info@criticarehospital.in", "name": "Criticare Multispeciality Hospital and Research Centre", "operator:type": "private", "source": "OpenGovernmentData", "website": "https://www.criticarehospital.in/"}}, {"type": "node", "id": 7049584815, "lat": 19.0740757, "lon": 72.8329611, "tags": {"addr:district": "Mumbai", "addr:full": "21 - A, Sita Bhavan, 14Th A Road, Ahimsa Marg, Khar (West)", "addr:postcode": "400052", "addr:state": "Maharashtra", "amenity": "hospital", "email": "info@rghospital.com", "healthcare": "hospital", "healthcare:speciality": "urology;clinical_pathology", "name": "RG Stone Urology and Laparoscopy Hospital, Khar", "operator:type": "private", "source": "OpenGovernmentData", "website": "https://www.rghospitals.com/"}}, {"type": "node", "id": 7049755583, "lat": 19.1188723, "lon": 72.8433318, "tags": {"addr:district": "Mumbai", "addr:full": "Om Nikentan V P Road S V Road Behind Hotel Alpha , Andher (West)", "addr:postcode": "400001", "addr:state": "Maharashtra", "amenity": "hospital", "healthcare": "hospital", "name": "Dr Telangs Dhanvantari Hospital", "source": "OpenGovernmentData"}}, {"type": "node", "id": 7049800769, "lat": 19.1244488, "lon": 72.8611457, "tags": {"addr:district": "Mumbai", "addr:full": "Manas, Plot No.19, Sher-E-Punjab Society, Mahakali Caves Road, Andheri East", "addr:postcode": "400093", "addr:state": "Maharashtra", "amenity": "hospital", "name": "Dr.Sakhalkar's Maternity and Nursing Home", "source": "OpenGovernmentData"}}, {"type": "node", "id": 7049822998, "lat": 19.1235929, "lon": 72.8423361, "tags": {"addr:district": "Mumbai", "addr:full": "110-A, Jaiprakash Road, OppositeNavrang Theatre, Andheri(W)", "addr:postcode": "400058", "addr:state": "Maharashtra", "amenity": "hospital", "healthcare": "hospital", "name": "Patil Hospital, Mumbai", "source": "OpenGovernmentData"}}, {"type": "node", "id": 7049847480, "lat": 19.114371, "lon": 72.8334123, "tags": {"addr:district": "Mumbai", "addr:full": "101, Juhu Sheetal,Jvpd Scheme, 9Th Gulmohar Cross Road ,Vile Parle(W)", "addr:postcode": "400049", "addr:state": "Maharashtra", "amenity": "hospital", "name": "Oculus Eye Hospital Pvt. Ltd", "source": "OpenGovernmentData"}}, {"type": "node", "id": 7051176229, "lat": 19.10681, "lon": 72.8655446, "tags": {"addr:district": "Mumbai", "addr:full": "Mistry Complex, Sankalp (Gr. Floor), Near Greater Bank, J.B. Nagar, Andheri (E)", "addr:postcode": "400059", "addr:state": "Maharashtra", "amenity": "hospital", "healthcare": "hospital", "name": "Kiran Care and Cure Hospital", "operator": "Dr. Vaibhav Mistry", "source": "OpenGovernmentData"}}, {"type": "node", "id": 7052181497, "lat": 19.0399657, "lon": 72.8546199, "tags": {"addr:district": "Mumbai", "addr:full": "90 Feet Road, Ground, 1st, 2nd & 3rd Road, At Masiha Islampura Co-operative Housing Society Ltd., Behind Sion Hospital, Near Dharavi Police Station", "addr:postcode": "400017", "addr:state": "Maharashtra", "amenity": "hospital", "healthcare": "hospital", "name": "Sai Hospital", "source": "OpenGovernmentData"}}, {"type": "node", "id": 7052185493, "lat": 19.0744458, "lon": 72.8344122, "tags": {"addr:district": "Mumbai", "addr:full": "1 Milton Tower, 290-291, Linking Road, Khar West", "addr:postcode": "400052", "addr:state": "Maharashtra", "amenity": "hospital", "healthcare": "hospital", "healthcare:speciality": "pathology", "name": "Khar Clinico-Pathology Laboratory", "source": "OpenGovernmentData"}}, {"type": "node", "id": 7052303296, "lat": 19.0799452, "lon": 72.8545234, "tags": {"addr:district": "Mumbai", "addr:full": "Rizvi Park, S.V.Road, Santacruz(W)", "addr:postcode": "400054", "addr:state": "Maharashtra", "amenity": "hospital", "emergency": "yes", "healthcare": "hospital", "healthcare:speciality": "orthodontics", "name": "Aseem Orthopaedic Hospital"}}, {"type": "node", "id": 7053189597, "lat": 19.1035152, "lon": 72.8514978, "tags": {"addr:district": "Mumbai", "addr:full": "Shop No - 1,Dunhill Castle,Opp 9 To 9 Super Market,Hanuman Road,Vileparle (East)", "addr:postcode": "400057", "addr:state": "Maharashtra", "amenity": "hospital", "healthcare": "hospital", "name": "Dr.Satish G.Desai", "source": "OpenGovernmentData"}}, {"type": "node", "id": 7053266063, "lat": 19.0418977, "lon": 72.8640935, "tags": {"addr:district": "Mumbai", "addr:full": "6/206, Shiv Mahal Chs, Sion Main Road", "addr:postcode": "400022", "addr:state": "Maharashtra", "amenity": "hospital", "name": "Dr. Deosthaci's Eye Care Centre", "source": "OpenGovernmentData"}}, {"type": "node", "id": 7054456795, "lat": 19.1169678, "lon": 72.8443725, "tags": {"addr:district": "Mumbai", "addr:full": "Alka Building Opp M A High School S V Road Andheri W", "addr:postcode": "400058", "addr:state": "Maharashtra", "amenity": "hospital", "healthcare": "hospital", "name": "Vibha Maternity and Surgical Nursing Home", "source": "OpenGovernmentData"}}, {"type": "node", "id": 7054682098, "lat": 19.055927, "lon": 72.8368556, "tags": {"addr:district": "Mumbai", "addr:full": "Opp,Lake.S.V Road,Bandra(West)", "addr:postcode": "400050", "addr:state": "Maharashtra", "amenity": "hospital", "healthcare": "hospital", "name": "Mahatma Gandhi Seva Mandir", "source": "OpenGovernmentData"}}, {"type": "node", "id": 7054725462, "lat": 19.1070774, "lon": 72.8673752, "tags": {"addr:district": "Mumbai", "addr:full": "F/2, 3, Ajit Nagar, J.B.Nagar, Andheri East", "addr:postcode": "400059", "addr:state": "Maharashtra", "amenity": "hospital", "healthcare": "hospital", "name": "Ameya Surgical and General Nursing Home", "source": "OpenGovernmentData"}}, {"type": "node", "id": 7054746894, "lat": 19.0804497, "lon": 72.8562031, "tags": {"addr:district": "Mumbai", "addr:full": "Karlton Apts, Vakola Village Road, Vakola Santacruz (E)", "addr:postcode": "400055", "addr:state": "Maharashtra", "amenity": "hospital", "healthcare": "hospital", "name": "Dr. Raut's Maternity and Surgical Nursing Home", "source": "OpenGovernmentData"}}, {"type": "node", "id": 7054852418, "lat": 19.0444281, "lon": 72.8651664, "tags": {"addr:district": "Mumbai", "addr:full": "# 102, Maryland Corner, Plot No.39, Next To Hp Petrol Pump,Sion(E)", "addr:postcode": "400022", "addr:state": "Maharashtra", "amenity": "hospital", "name": "Krishna Eye Centre", "source": "OpenGovernmentData"}}, {"type": "node", "id": 7055144633, "lat": 19.0880933, "lon": 72.8363293, "tags": {"addr:district": "Mumbai", "addr:full": "B-9/G-2 & 3, Ground Floor, Khira Nagar, S V Road, Santacruz West", "addr:postcode": "400054", "addr:state": "Maharashtra", "amenity": "hospital", "healthcare": "hospital", "name": "Malhaar Maternity and Nursing Home", "source": "OpenGovernmentData"}}, {"type": "node", "id": 7055262419, "lat": 19.0399822, "lon": 72.8511733, "tags": {"addr:district": "Mumbai", "addr:full": "103, Jai Ganesh Co-Op Soc, Plot No 206, Opp Sion Hosp-Sion East", "addr:postcode": "400022", "addr:state": "Maharashtra", "amenity": "hospital", "name": "Dr Savlas Child Care Centre", "source": "OpenGovernmentData"}}, {"type": "node", "id": 7055276698, "lat": 19.1148073, "lon": 72.8432044, "tags": {"addr:district": "Mumbai", "addr:full": "Viral Apartments, I Floor, Shoppers Shop,S.V.Road, Andheri (W)", "addr:postcode": "400058", "addr:state": "Maharashtra", "amenity": "hospital", "name": "Doctor Eye Hospital", "source": "OpenGovernmentData"}}, {"type": "node", "id": 7055441837, "lat": 19.07045, "lon": 72.8370246, "tags": {"addr:district": "Mumbai", "addr:full": "Naseeb Plot No.115,1st Floor, S.V.Road, Khar (West)", "addr:postcode": "400052", "addr:state": "Maharashtra", "amenity": "hospital", "healthcare": "hospital", "name": "G.M.Medical Centre - Khar", "source": "OpenGovernmentData"}}, {"type": "node", "id": 7055460057, "lat": 19.0660316, "lon": 72.8319771, "tags": {"addr:district": "Mumbai", "addr:full": "Shyamkripa Bldg,Ground Floor 15Th Road, Khar (W)", "addr:postcode": "400052", "addr:state": "Maharashtra", "amenity": "hospital", "healthcare": "hospital", "name": "Tulip Womens Healthcare Centre - Khar (W)", "source": "OpenGovernmentData"}}, {"type": "node", "id": 7055590161, "lat": 19.0554466, "lon": 72.8357264, "tags": {"addr:district": "Mumbai", "addr:full": "1st Floor , Diamond Palace , 15 - A , Hill Road , Opposite Bandra , Police Station , Bandra (West )", "addr:postcode": "400050", "addr:state": "Maharashtra", "amenity": "hospital", "healthcare": "hospital", "name": "Parekh Eye Hospital", "source": "OpenGovernmentData"}}, {"type": "node", "id": 7062228611, "lat": 19.0713778, "lon": 72.8377193, "tags": {"addr:district": "Mumbai", "addr:full": "Mumbai", "addr:postcode": "400052", "addr:state": "Maharashtra", "amenity": "hospital", "name": "I Sight Eyecare and Surgery", "source": "OpenGovernmentData"}}, {"type": "node", "id": 7062712062, "lat": 19.099527, "lon": 72.8493437, "tags": {"addr:district": "Mumbai", "addr:full": "261 Sumat Bhavan, Malvia Road, Above Jain Sthanak, Vile Parle East", "addr:postcode": "400057", "addr:state": "Maharashtra", "amenity": "hospital", "healthcare": "hospital", "name": "Smt. Laxmiben Dharamsi Karsan Gala Eye Hospital", "source": "OpenGovernmentData"}}, {"type": "node", "id": 7063077063, "lat": 19.0373922, "lon": 72.8397457, "tags": {"addr:district": "Mumbai", "addr:full": "Above Prabhat Bazar, 26, Kapad Bazar, Mahim", "addr:postcode": "400016", "addr:state": "Maharashtra", "amenity": "hospital", "healthcare": "hospital", "name": "Dr Haresh Shah Prabhat Maternity and Surgical Nursing Home", "source": "OpenGovernmentData"}}, {"type": "node", "id": 7064402717, "lat": 19.0600492, "lon": 72.85234}, {"type": "node", "id": 7064405838, "lat": 19.0716358, "lon": 72.837663, "tags": {"addr:district": "Mumbai", "addr:full": "No. 81, Swami Vivekanand Road, Above State Bank Of India, Khar West", "addr:postcode": "400052", "addr:state": "Maharashtra", "amenity": "hospital", "name": "Dr Gupte Lying-In Surgical Hospital", "source": "OpenGovernmentData"}}, {"type": "node", "id": 7065572990, "lat": 19.1126049, "lon": 72.8425607, "tags": {"addr:district": "Mumbai", "addr:full": "Andheri", "addr:postcode": "400053", "addr:state": "Maharashtra", "amenity": "hospital", "name": "Dr. Joshi Surgical and Maternity Hospital", "source": "OpenGovernmentData"}}, {"type": "node", "id": 7066374709, "lat": 19.053611, "lon": 72.8246194, "tags": {"addr:district": "Mumbai", "addr:full": "13, Hill Road, Bandra (W)", "addr:postcode": "400050", "addr:state": "Maharashtra", "amenity": "hospital", "name": "Sushama Patkar Maternity ( and Surgical) Home - Bandra", "source": "OpenGovernmentData"}}, {"type": "node", "id": 7067050975, "lat": 19.0414249, "lon": 72.8453261, "tags": {"addr:district": "Mumbai", "addr:full": "3, Nitya Sahaya Building, Marinagar, Mahim West", "addr:postcode": "400016", "addr:state": "Maharashtra", "amenity": "hospital", "name": "Dr. Fonsecas Maternity and Surgical Home", "source": "OpenGovernmentData"}}, {"type": "node", "id": 7067050981, "lat": 19.1022549, "lon": 72.8486849, "tags": {"addr:district": "Mumbai", "addr:full": "Silver Apartment 29, Mahant Road, Vile Parle East", "addr:postcode": "400057", "addr:state": "Maharashtra", "amenity": "hospital", "healthcare": "hospital", "name": "Vivek Pathology Laboratory", "source": "OpenGovernmentData"}}, {"type": "node", "id": 7067113558, "lat": 19.1096181, "lon": 72.8489169, "tags": {"addr:district": "Mumbai", "addr:full": "101, Homai Mahal, M G Road, Vile Parle East", "addr:postcode": "400057", "addr:state": "Maharashtra", "amenity": "hospital", "healthcare": "hospital", "name": "Saurabh Clinic Dr.Sanjanwalas Maternity and Gynacologist", "source": "OpenGovernmentData"}}, {"type": "node", "id": 7068429399, "lat": 19.119331, "lon": 72.845019, "tags": {"addr:district": "Mumbai", "addr:full": "S.V Road, Opp Railway Station, Andheri West", "addr:postcode": "400058", "addr:state": "Maharashtra", "amenity": "hospital", "healthcare": "hospital", "name": "Bses Mg Hospital (Managed By)Brahma Kumari Global Hospital and Res Center", "source": "OpenGovernmentData"}}, {"type": "node", "id": 7069814015, "lat": 19.0605379, "lon": 72.8456949, "tags": {"addr:district": "Mumbai", "addr:full": "Bldg.No.3,Kher Nagar Kala Co-Op Hsg Soc., Ram Mandir Road, Bandra (E)", "addr:postcode": "400051", "addr:state": "Maharashtra", "amenity": "hospital", "healthcare": "hospital", "name": "Nandini Eye Care Centre", "source": "OpenGovernmentData"}}, {"type": "node", "id": 7070050992, "lat": 19.11132, "lon": 72.8671995, "tags": {"addr:district": "Mumbai", "addr:full": "B-1 Greenland Apt J.B Ngr Andheri(E)", "addr:postcode": "400059", "addr:state": "Maharashtra", "amenity": "hospital", "healthcare": "hospital", "name": "Spectacles and Contact Lens Clinic", "source": "OpenGovernmentData"}}, {"type": "node", "id": 7070857458, "lat": 19.0895432, "lon": 72.8379983, "tags": {"addr:district": "Mumbai", "addr:full": "C-Wing 1st Floor Rizvi Park,At Milan Subway Signal S V Road Santacruz(W)", "addr:postcode": "400054", "addr:state": "Maharashtra", "amenity": "hospital", "name": "Life Line Hospital and Diagnostics Pvt Ltd", "source": "OpenGovernmentData"}}, {"type": "node", "id": 7070859091, "lat": 19.1074601, "lon": 72.8484213, "tags": {"addr:district": "Mumbai", "addr:full": "A - 103, 104, Saurabh Apartment, Shahaji Raje Marg Next To Bhuta High School", "addr:postcode": "400057", "addr:state": "Maharashtra", "amenity": "hospital", "healthcare": "hospital", "name": "Nityanand Iccu and Nursing Home", "source": "OpenGovernmentData"}}, {"type": "node", "id": 7070859097, "lat": 19.1031325, "lon": 72.8392227, "tags": {"addr:district": "Mumbai", "addr:full": "D-31, Navmangal Chs, 1st Floor,Above Venilal Saree Shop, S. V. Road", "addr:postcode": "400056", "addr:state": "Maharashtra", "amenity": "hospital", "name": "Khandwala Eye Hospital and Polyclinic", "source": "OpenGovernmentData"}}, {"type": "node", "id": 7070859138, "lat": 19.1095535, "lon": 72.8376684, "tags": {"addr:district": "Mumbai", "addr:full": "2nd Floor , Shri Mumbadevi Homeopathic Hospital , Natakkar Ram , Ganesh Gadkari Road , Irla , Vile Parle ( West )", "addr:postcode": "400056", "addr:state": "Maharashtra", "amenity": "hospital", "healthcare": "hospital", "name": "Life Care Iccu , Medical and Surgical Emergencies", "source": "OpenGovernmentData"}}, {"type": "node", "id": 7072801164, "lat": 19.0857328, "lon": 72.8367229, "tags": {"addr:district": "Mumbai", "addr:full": "5-D, Dattaray Road, Santacruz (West)", "addr:postcode": "400054", "addr:state": "Maharashtra", "amenity": "hospital", "name": "Sarla Hospital and Icu", "source": "OpenGovernmentData"}}, {"type": "node", "id": 7072837154, "lat": 19.0679055, "lon": 72.8353534, "tags": {"addr:district": "Mumbai", "addr:full": "724, 11Th Road , Khar West-Bhandara", "addr:postcode": "400052", "addr:state": "Maharashtra", "amenity": "hospital", "healthcare": "hospital", "name": "Hinduja Healthcare", "source": "OpenGovernmentData"}}, {"type": "node", "id": 7073765630, "lat": 19.062597, "lon": 72.8358504, "tags": {"addr:district": "Mumbai", "addr:full": "Renuka, Gr Flr 269-D, Nr National College , Linking Road Bandra W)", "addr:postcode": "400050", "addr:state": "Maharashtra", "amenity": "hospital", "healthcare": "hospital", "name": "Dr A K Chandiramani Hospital", "source": "OpenGovernmentData"}}, {"type": "node", "id": 7079392099, "lat": 19.0942526, "lon": 72.849741, "tags": {"addr:district": "Mumbai", "addr:full": "Nanda Patkar Road, Vileparle East", "addr:postcode": "400057", "addr:state": "Maharashtra", "amenity": "hospital", "name": "Dr. Rane hospital maternity & surgical", "source": "OpenGovernmentData"}}, {"type": "node", "id": 7079665692, "lat": 19.1107257, "lon": 72.8483811, "tags": {"addr:district": "Mumbai", "addr:full": "Jeevan Vikas Kendra Marg , Off S. Nityanand Marg Andheri (East)", "addr:postcode": "400069", "addr:state": "Maharashtra", "amenity": "hospital", "healthcare": "hospital", "name": "Sadanand Danait Hospital", "source": "OpenGovernmentData"}}, {"type": "node", "id": 7079665770, "lat": 19.0880071, "lon": 72.8367417, "tags": {"addr:district": "Mumbai", "addr:full": "103, Parasurampuria Apt, 2 Tps 6 2nd Road , Santacruz West", "addr:postcode": "400054", "addr:state": "Maharashtra", "amenity": "hospital", "name": "Netrapuja Research Centre", "source": "OpenGovernmentData"}}, {"type": "node", "id": 7080269652, "lat": 19.0363697, "lon": 72.8427344, "tags": {"addr:district": "Mumbai", "addr:full": "Ganesh Apt. Ground Floor, L. J. Road, Opposite Sitladevi Temple, Mahim", "addr:postcode": "400014", "addr:state": "Maharashtra", "amenity": "hospital", "healthcare": "hospital", "name": "Ashwini Accident Hospital and Poly Clinic", "source": "OpenGovernmentData"}}, {"type": "node", "id": 7080269989, "lat": 19.0970597, "lon": 72.847386, "tags": {"addr:district": "Mumbai", "addr:full": "199, Dixit Cross Road, Near Chetan School, Vile Parle (East)", "addr:postcode": "400057", "addr:state": "Maharashtra", "amenity": "hospital", "healthcare": "hospital", "name": "Ashish Maternity and Nursing Home - Vile Parle (E)", "source": "OpenGovernmentData"}}, {"type": "node", "id": 7080878125, "lat": 19.0828996, "lon": 72.8376549, "tags": {"addr:district": "Mumbai", "addr:full": "Santacruz (W)", "addr:postcode": "400054", "addr:state": "Maharashtra", "amenity": "hospital", "name": "Radiance Laser Vision Centre", "source": "OpenGovernmentData"}}, {"type": "node", "id": 7081965757, "lat": 19.0520436, "lon": 72.8238114, "tags": {"addr:district": "Mumbai", "addr:full": "Opp Mehboob Sutdio, Hill Road , Bandra West", "addr:postcode": "400050", "addr:state": "Maharashtra", "amenity": "hospital", "name": "Vision Laser Surgery Centre", "source": "OpenGovernmentData"}}, {"type": "node", "id": 7082370226, "lat": 19.1069165, "lon": 72.8356406, "tags": {"addr:district": "Mumbai", "addr:full": "Flat 1, Ridhhi, E W Road 2, 41, Vallabhnagar Society, Opposite Cooper Casualy, Jvpd Scheme", "addr:postcode": "400056", "addr:state": "Maharashtra", "amenity": "hospital", "healthcare": "hospital", "name": "Dr Sanjay Soni Dental Clinic", "source": "OpenGovernmentData"}}, {"type": "node", "id": 7082499146, "lat": 19.0918193, "lon": 72.8436054, "tags": {"addr:district": "Mumbai", "addr:full": "Veer Makrand Ghanekar Marg, Navpada, Vile Parle East, Vile Parle", "addr:postcode": "400057", "addr:state": "Maharashtra", "amenity": "hospital", "healthcare": "hospital", "name": "Shree Ramnath Eye Care", "source": "OpenGovernmentData"}}, {"type": "node", "id": 7085742085, "lat": 19.0721453, "lon": 72.8343692, "tags": {"addr:district": "Mumbai", "addr:full": "No. 7, Rajsarovar Nikethan, No. 315. A Working Road, Above Punjab Sindhi Bank, Khar West", "addr:postcode": "400054", "addr:state": "Maharashtra", "amenity": "hospital", "name": "Zen Eye Center", "source": "OpenGovernmentData"}}, {"type": "node", "id": 7085742120, "lat": 19.1069728, "lon": 72.8358773, "tags": {"addr:district": "Mumbai", "addr:full": "Heena Smruti, Road No 2, Juhu Scheme, Opposite Cooper Hospital Casualty, Vile Parle(W)", "addr:postcode": "400056", "addr:state": "Maharashtra", "amenity": "hospital", "healthcare": "hospital", "name": "Iris Eye Center", "source": "OpenGovernmentData"}}, {"type": "node", "id": 7086532370, "lat": 19.1100591, "lon": 72.8642115, "tags": {"addr:district": "Mumbai", "addr:full": "Goel Apartments, J B Nagar, Near Kalgidhar High School, Wireless Street, Andheri East", "addr:postcode": "400059", "addr:state": "Maharashtra", "amenity": "hospital", "healthcare": "hospital", "name": "Goel Hospital", "source": "OpenGovernmentData"}}, {"type": "node", "id": 7086758044, "lat": 19.0466757, "lon": 72.8574979, "tags": {"addr:district": "Mumbai", "addr:full": "Priyadarshini Co-Op. Hsg.Soc.,Room No.102,G-Wing, 1st Floor,OppositeNew Ongc Tower, Sion-Bandra Link Road, Dharavi", "addr:postcode": "400017", "addr:state": "Maharashtra", "amenity": "hospital", "name": "Lifecare Hospital", "source": "OpenGovernmentData"}}, {"type": "node", "id": 7225067112, "lat": 19.078004, "lon": 72.86302, "tags": {"addr:district": "Mumbai", "addr:full": "Kalina Health Post, Near Geeta Vihar Market, Santacruz East", "addr:postcode": "400029", "addr:state": "Maharashtra", "amenity": "hospital", "name": "Kalina Hospital", "source": "OpenGovernmentData"}}, {"type": "node", "id": 7225067197, "lat": 19.1054569, "lon": 72.8518587, "tags": {"addr:district": "Mumbai", "addr:full": "Dr. V.N.Shirodkar Municipal Maternity Home, Vileparle (E)", "addr:postcode": "400057", "addr:state": "Maharashtra", "amenity": "hospital", "healthcare": "hospital", "name": "V N Shirodkar Hospital", "source": "OpenGovernmentData"}}, {"type": "node", "id": 7225067271, "lat": 19.0369195, "lon": 72.8582046, "tags": {"addr:district": "Mumbai", "addr:full": "Dr Babasaheb Ambedkar Road, Sion West, Sion", "addr:postcode": "400022", "addr:state": "Maharashtra", "amenity": "hospital", "description": "Medical Colleges Hospital", "healthcare": "hospital", "name": "L.T.Muncipal Medical College and Sion Hospital", "source": "OpenGovernmentData"}}, {"type": "node", "id": 7663961397, "lat": 19.10982, "lon": 72.82763, "tags": {"addr:district": "Mumbai Suburban", "addr:full": "Bus Terminus, North South Road, Opp Juhu, Vithal Nagar, Juhu, Mumbai", "addr:postcode": "400049", "addr:state": "Maharastra", "amenity": "hospital", "name": "Lotus Eye Hospital", "source": "Local Knowledge"}}, {"type": "node", "id": 7663961404, "lat": 19.1180803, "lon": 72.8505516, "tags": {"addr:district": "Mumbai Suburban", "addr:full": "Besides SBI, Telli Galli, Andheri East, Mumbai", "addr:postcode": "400069", "addr:state": "Maharastra", "amenity": "hospital", "healthcare": "hospital", "name": "CritiCare Hospital", "source": "Local Knowledge"}}, {"type": "node", "id": 7663961406, "lat": 19.1054972, "lon": 72.8481238, "tags": {"addr:district": "Mumbai Suburban", "addr:full": "G B Indulkar Road, Vishnu Prasad Society, Navpada, Vile Parle East, Mumbai", "addr:postcode": "400057", "addr:state": "Maharastra", "amenity": "hospital", "healthcare": "hospital", "name": "Dr. Sanjanwala Hospital", "source": "Local Knowledge"}}, {"type": "node", "id": 7663961419, "lat": 19.064667, "lon": 72.835138, "tags": {"addr:district": "Mumbai Suburban", "addr:full": "513, Linking Road, Khar, Pali Village, Khar West, Mumbai", "addr:postcode": "400050", "addr:state": "Maharastra", "amenity": "hospital", "healthcare": "hospital", "name": "Kohinoor Hospital", "source": "Local Knowledge"}}, {"type": "node", "id": 7663961459, "lat": 19.0834657, "lon": 72.8395008, "tags": {"addr:district": "Mumbai Suburban", "addr:full": "Harihar Niwas, Besant Road, Santacruz West, Mumbai", "addr:postcode": "400054", "addr:state": "Maharastra", "amenity": "hospital", "healthcare": "hospital", "name": "Mangal Multispeciality Hospital", "source": "Local Knowledge"}}, {"type": "node", "id": 7663961462, "lat": 19.101669, "lon": 72.848999, "tags": {"addr:district": "Mumbai Suburban", "addr:full": "Chittaranjan Road, Satsang CHSL, Navpada, Park Road, Vile Parle, Mumbai", "addr:postcode": "400057", "addr:state": "Maharastra", "amenity": "hospital", "healthcare": "hospital", "name": "Dr. Wagh Maternity Hospital", "source": "Local Knowledge"}}, {"type": "node", "id": 7663961465, "lat": 19.103219, "lon": 72.834862, "tags": {"addr:district": "Mumbai Suburban", "addr:full": "V. L Vaikunthlal Mehta Road, JVPD Scheme, Vile Parle", "addr:postcode": "400056", "addr:state": "Maharastra", "amenity": "hospital", "healthcare": "hospital", "name": "Sunridges Speciality Hospital", "operator": "Private", "operator:type": "private", "source": "Local Knowledge"}}, {"type": "node", "id": 7664032209, "lat": 19.040411, "lon": 72.854633, "tags": {"addr:district": "Mumbai City", "addr:full": "Dharavi Vivekananda Cooperative Housing Society Limited, RP Nagar, Dharavi, Mumbai", "addr:postcode": "400017", "addr:state": "Maharastra", "amenity": "hospital", "healthcare": "hospital", "name": "Janani Hospital", "source": "Local Knowledge"}}, {"type": "node", "id": 7664032212, "lat": 19.0456326, "lon": 72.8596339, "tags": {"addr:district": "Mumbai City", "addr:full": "90 Feet Road, Dharavi Slums, Laxmi Baug, Dharavi, Mumbai", "addr:postcode": "400017", "addr:state": "Maharastra", "amenity": "hospital", "healthcare": "hospital", "name": "Resham Hospital", "source": "Local Knowledge"}}, {"type": "node", "id": 7664032213, "lat": 19.0358599, "lon": 72.8386025, "tags": {"addr:district": "Mumbai City", "addr:full": "Sitladevi Temple Road, Mahim West, Mahim, Mumbai", "addr:postcode": "400016", "addr:state": "Maharastra", "amenity": "hospital", "healthcare": "hospital", "name": "New Ratna Hospital", "source": "Local Knowledge"}}, {"type": "node", "id": 7664032222, "lat": 19.047153, "lon": 72.84134, "tags": {"addr:district": "Mumbai City", "addr:full": "Building No.1, Ground Floor, New Mahim Police Colony, Mahim, Mumbai", "addr:postcode": "400016", "addr:state": "Maharastra", "amenity": "hospital", "name": "Mahim Police Hospital", "source": "Local Knowledge"}}, {"type": "node", "id": 7664032224, "lat": 19.03978, "lon": 72.840027, "tags": {"addr:district": "Mumbai City", "addr:full": "Welkarwadi BMC Building, LJ Cross Road, Opp.Darga Sarff, Mahim West, Mahim, Mumbai", "addr:postcode": "400016", "addr:state": "Maharastra", "amenity": "hospital", "healthcare": "hospital", "name": "Welkarwadi BMC Hospital", "source": "Local Knowledge"}}, {"type": "node", "id": 7664032231, "lat": 19.0363379, "lon": 72.8400357, "tags": {"addr:district": "Mumbai City", "addr:full": "Bobby Apartments, Near Mahim Bazar, P.O., Kapad Bazar, Mahim West, Mumbai", "addr:postcode": "400016", "addr:state": "Maharastra", "amenity": "hospital", "healthcare": "hospital", "name": "Raj Ratan Hospital", "source": "Local Knowledge"}}, {"type": "node", "id": 7664032232, "lat": 19.0363806, "lon": 72.8598664, "tags": {"addr:district": "Mumbai City", "addr:full": "RB2 Central Railway Quarters, Jain Society, Sion, Mumbai", "addr:postcode": "400022", "addr:state": "Maharastra", "amenity": "hospital", "healthcare": "hospital", "name": "Sion Hospital", "source": "Local Knowledge"}}, {"type": "node", "id": 7664032240, "lat": 19.04033, "lon": 72.8553219, "tags": {"addr:district": "Mumbai City", "addr:full": "Bandra Reclamation Road, Muslim Nagar, Kumbhar Wada, Bandra West, Mumbai", "addr:postcode": "400017", "addr:state": "Maharastra", "amenity": "hospital", "healthcare": "hospital", "name": "Lelavati Hospital", "source": "Local Knowledge"}}, {"type": "node", "id": 7664032241, "lat": 19.040315, "lon": 72.854812, "tags": {"addr:district": "Mumbai City", "addr:full": "Dharavi Vivekananda Cooperative Housing Society Limited, 90 Feet Road, Muslim Nagar, RP Nagar, Dharavi, Mumbai", "addr:postcode": "400017", "addr:state": "Maharastra", "amenity": "hospital", "healthcare": "hospital", "name": "Aayush Hospital", "source": "Local Knowledge"}}, {"type": "node", "id": 7664032243, "lat": 19.0479325, "lon": 72.857919, "tags": {"addr:district": "Mumbai City", "addr:full": "Dharavi, Mumbai", "addr:postcode": "400017", "addr:state": "Maharastra", "amenity": "hospital", "name": "Lifecare Hospital", "source": "Local Knowledge"}}, {"type": "node", "id": 8798161108, "lat": 19.0899538, "lon": 72.8376684, "tags": {"addr:district": "Mumbai", "addr:full": "BEST Colony, Santacruz West, Mumbai", "addr:postcode": "400054", "addr:state": "Maharashtra", "amenity": "hospital", "name": "Surya Hospital", "source": "Local Knowledge"}}, {"type": "node", "id": 8801598781, "lat": 19.0997223, "lon": 72.8463493, "tags": {"addr:district": "Mumbai", "addr:full": "Plot No. 77, Vile Parle, Mumbai", "addr:postcode": "400057", "addr:state": "Maharashtra", "amenity": "hospital", "name": "Babasaheb Gawde Hospital", "source": "Local Knowledge"}}, {"type": "node", "id": 8816508984, "lat": 19.1172807, "lon": 72.8504612, "tags": {"addr:district": "Thane", "addr:full": "Plot No 516, Teli Gali, Andheri East", "addr:postcode": "400069", "addr:state": "Maharashtra", "amenity": "hospital", "name": "CritiCare Hospital", "source": "Local Knowledge"}}, {"type": "node", "id": 9441680530, "lat": 19.0554479, "lon": 72.8271482, "tags": {"amenity": "hospital", "healthcare": "hospital"}}, {"type": "node", "id": 9507341378, "lat": 19.1210624, "lon": 72.8270276}, {"type": "node", "id": 10242737058, "lat": 19.0559475, "lon": 72.8267709, "tags": {"barrier": "gate", "name": "Gate 4"}}, {"type": "node", "id": 10273976408, "lat": 19.1198836, "lon": 72.8348356}, {"type": "node", "id": 10273979009, "lat": 19.1198581, "lon": 72.8358176}, {"type": "node", "id": 10273979010, "lat": 19.1197415, "lon": 72.8359196}, {"type": "node", "id": 10273979011, "lat": 19.1188571, "lon": 72.8359169}, {"type": "node", "id": 10273979012, "lat": 19.1188903, "lon": 72.8348451}, {"type": "node", "id": 10607816273, "lat": 19.0814514, "lon": 72.8569934, "tags": {"amenity": "hospital", "healthcare": "hospital"}}, {"type": "node", "id": 10696472359, "lat": 19.0595718, "lon": 72.8532235}, {"type": "node", "id": 10696472360, "lat": 19.0592338, "lon": 72.8532187}, {"type": "node", "id": 10696472364, "lat": 19.0592405, "lon": 72.8524366}, {"type": "node", "id": 10696472365, "lat": 19.0590909, "lon": 72.8522193}, {"type": "node", "id": 10696472366, "lat": 19.059314, "lon": 72.8518921}, {"type": "node", "id": 10696472367, "lat": 19.0600086, "lon": 72.8522676}, {"type": "node", "id": 10696472368, "lat": 19.0594433, "lon": 72.8534612}, {"type": "node", "id": 10696472369, "lat": 19.0589312, "lon": 72.8528684}, {"type": "node", "id": 10779234879, "lat": 19.0647644, "lon": 72.8605034}, {"type": "node", "id": 10779234880, "lat": 19.0649532, "lon": 72.8608443}, {"type": "node", "id": 11022260057, "lat": 19.0432174, "lon": 72.8499153}, {"type": "node", "id": 11022260058, "lat": 19.043651, "lon": 72.84958}, {"type": "node", "id": 11384605285, "lat": 19.0694671, "lon": 72.8305428}, {"type": "node", "id": 11384605286, "lat": 19.0693505, "lon": 72.8305354}, {"type": "node", "id": 11384605287, "lat": 19.0693376, "lon": 72.8307641}, {"type": "node", "id": 11384605288, "lat": 19.0694542, "lon": 72.8307715}, {"type": "node", "id": 11426731276, "lat": 19.1079187, "lon": 72.8408635, "tags": {"amenity": "hospital", "name": "KLS Memorial Hospital"}}, {"type": "node", "id": 12150771601, "lat": 19.0588838, "lon": 72.8480068, "tags": {"amenity": "hospital", "name": "Agarwal Children's Hospital", "outdoor_seating": "no"}}, {"type": "node", "id": 12413297718, "lat": 19.0722491, "lon": 72.8450037, "tags": {"amenity": "hospital", "healthcare": "hospital"}}, {"type": "node", "id": 12415386367, "lat": 19.0726487, "lon": 72.8443905, "tags": {"addr:city": "mumbai santacruz", "addr:housenumber": "2", "addr:postcode": "400055", "addr:street": "golibar road", "amenity": "hospital", "healthcare": "hospital", "name": "sanjivani hospital", "opening_hours": "24/7"}}, {"type": "node", "id": 12688155437, "lat": 19.1059731, "lon": 72.8414741, "tags": {"addr:city": "Mumbai", "addr:country": "IN", "addr:district": "Mumbai", "addr:housenumber": "201, Sapphire Plaza", "addr:postcode": "400053", "addr:street": "Dadabhai Road", "amenity": "hospital", "description": "Centre for Dermatology & Lasers", "emergency": "no", "healthcare": "hospital", "healthcare:speciality": "dermatology;dermatovenereology", "level": "2", "mobile": "+91-9136095925", "name": "Auro Skin Clinic", "opening_hours": "Mo-Sa 10:00-18:00", "operator": "Dr Avina Jain", "operator:type": "business", "payment:american_express": "yes", "payment:cash": "yes", "payment:contactless": "yes", "payment:credit_cards": "yes", "payment:debit_cards": "yes", "payment:google_pay": "yes", "payment:mastercard": "yes", "payment:visa": "yes", "website": "https://www.auroskin.in"}}, {"type": "node", "id": 12989590769, "lat": 19.0347495, "lon": 72.8572857}, {"type": "node", "id": 12989590770, "lat": 19.0341457, "lon": 72.8588447}, {"type": "node", "id": 12989590771, "lat": 19.0349359, "lon": 72.8591754}, {"type": "node", "id": 12989590772, "lat": 19.0355437, "lon": 72.8576164}, {"type": "node", "id": 13088720350, "lat": 19.1100931, "lon": 72.8642165, "tags": {"amenity": "hospital", "emergency": "yes", "healthcare": "hospital", "name": "goel hospital"}}, {"type": "node", "id": 13232407990, "lat": 19.0784545, "lon": 72.8447091}, {"type": "node", "id": 13232407991, "lat": 19.0783943, "lon": 72.8452213}, {"type": "node", "id": 13232407992, "lat": 19.078462, "lon": 72.845296}, {"type": "node", "id": 13232407993, "lat": 19.0788047, "lon": 72.8454487}, {"type": "node", "id": 13232407994, "lat": 19.0789204, "lon": 72.8454869}, {"type": "node", "id": 13232407995, "lat": 19.0790557, "lon": 72.8451338}, {"type": "node", "id": 13232407996, "lat": 19.0790768, "lon": 72.8447568}, {"type": "node", "id": 13312852815, "lat": 19.1105125, "lon": 72.8417026}, {"type": "node", "id": 13312852816, "lat": 19.1104281, "lon": 72.841681}, {"type": "node", "id": 13312852817, "lat": 19.1103582, "lon": 72.8417642}, {"type": "node", "id": 13312852818, "lat": 19.1103524, "lon": 72.8424051}, {"type": "node", "id": 13312852819, "lat": 19.1106828, "lon": 72.8421339}, {"type": "way", "id": 31144296, "nodes": [346379239, 346388855, 2449757463, 346388856, 346388857, 346379239], "tags": {"addr:city": "Mumbai", "addr:district": "Mumbai", "addr:full": "A-791, Bandra Reclamation, Bandra(W), Mumbai", "addr:postcode": "400050", "addr:state": "Maharashtra", "addr:street": "KC Marg", "alt_name": "Lilavati Hospital", "amenity": "hospital", "email": "info@lilavatihospital.com", "emergency": "yes", "healthcare": "hospital", "healthcare:speciality": "cardiology;oncology;psychiatry;paediatrics;emergency;surgery;dermatology;neurology;rheumatology;endocrinology;nephrology;gastroenterology", "loc_name": "Lilavati Hospital", "name": "Lilavati Hospital and Research Centre", "name:en": "Lilavati Hospital", "name:hi": "\u0932\u0940\u0932\u093e\u0935\u0924\u0940 \u0939\u0949\u0938\u094d\u092a\u093f\u091f\u0932", "operator": "Lilavati Kirtilal Mehta Medical Trust", "operator:type": "private", "phone": "+91226666666", "source": "OpenGovernmentData", "start_date": "1997", "website": "https://www.lilavatihospital.com/", "wikidata": "Q6547573", "wikimedia_commons": "Category:Lilavati Hospital", "wikipedia": "en:Lilavati Hospital and Research Centre"}}, {"type": "way", "id": 31213763, "nodes": [347168743, 10242737058, 2449734777, 347168744, 347168745, 347168746, 2449734759, 2449734760, 347168747, 347168748, 347168743], "tags": {"addr:district": "Mumbai", "addr:full": "St.Andrew's Road,Bandra West,Bandra", "addr:postcode": "400050", "addr:state": "Maharashtra", "addr:street": "St. Andrew Road", "amenity": "hospital", "healthcare": "hospital", "name": "Holy Family Hospital, Mumbai", "opening_hours": "Mo-Fr 08:00-17:00", "phone": "(022 30610555 )", "source": "OpenGovernmentData", "wikidata": "Q5885495", "wikipedia": "en:Holy Family Hospital, Mumbai"}}, {"type": "way", "id": 49681498, "nodes": [5792364461, 4264834970, 631493980, 631493994, 5792364462, 5792364461], "tags": {"addr:postcode": "400022", "addr:street": "Laxmibai Kelkar Marg", "amenity": "hospital", "emergency": "yes", "healthcare": "hospital", "helipad": "no", "name": "Lokmanya Tilak Hospital", "name:etymology:wikidata": "Q312555", "wikidata": "Q6668710", "wikipedia": "en:Lokmanya Tilak Municipal General Hospital"}}, {"type": "way", "id": 143950812, "nodes": [1575266025, 1575266022, 1575266020, 1575266023, 1575266025], "tags": {"amenity": "hospital", "healthcare": "hospital", "name": "Karbhari"}}, {"type": "way", "id": 154837118, "nodes": [1673075405, 1673075410, 1673075415, 1673075409, 1673075413, 1673075411, 1673075407, 1673075406, 1673075408, 1673075412, 1673075416, 1673075414, 1673075405], "tags": {"addr:district": "Mumbai", "addr:full": "Kadamwadi, Off.St Anthony, St.Santacruz(East), Near Vishwakarma Samiti Hall", "addr:postcode": "400098", "addr:state": "Maharashtra", "amenity": "hospital", "name": "Niron Hospital and Research Center", "source": "OpenGovernmentData"}}, {"type": "way", "id": 202918725, "nodes": [2128608109, 2128608120, 2128608096, 2128608094, 2128608109], "tags": {"addr:district": "Mumbai", "addr:full": "Raheja Rugnalaya Marg, Mahim (West)", "addr:postcode": "400016", "addr:state": "Maharashtra", "addr:street": "SL Raheja Hospital Marg", "amenity": "hospital", "healthcare": "hospital", "name": "S.L. Raheja Hospital", "name:en": "S.L. Raheja Hospital", "source": "OpenGovernmentData"}}, {"type": "way", "id": 229636994, "nodes": [2382047281, 2382047297, 2382047306, 2382047302, 2382047292, 2382047294, 2382047282, 2382047280, 2382047271, 2382047272, 2382047276, 2382047277, 2382047275, 2382047281], "tags": {"addr:city": "Mumbai", "addr:street": "60 Feet Road", "amenity": "hospital", "building": "apartments", "healthcare": "hospital", "name": "Dharavi Hospital"}}, {"type": "way", "id": 353418036, "nodes": [3591988763, 3591988766, 3591988786, 3591988795, 3591988762, 3591988753, 3591988758, 3591988751, 3591988763], "tags": {"amenity": "hospital", "healthcare": "hospital"}}, {"type": "way", "id": 353981991, "nodes": [3597683650, 3597683655, 3597683642, 3597683646, 3597683653, 3597683659, 3597683640, 3597683636, 3597683650], "tags": {"amenity": "hospital", "healthcare": "hospital", "healthcare:speciality": "general", "name": "Kaizen Quro"}}, {"type": "way", "id": 357472226, "nodes": [3627071291, 3627071318, 3627071313, 3627071289, 3627071291], "tags": {"addr:city": "Mumbai", "addr:housenumber": "301-302 Prabath Chambers, Plot No 92", "addr:postcode": "400052", "addr:street": "Swami Vivekanand Road", "amenity": "hospital", "building": "commercial", "description": "The Vein Center is a chain vascular clinic located in Mumbai, India that specializes in the diagnosis and treatment of varicose vein related disorders. As a vascular interventional radiology center, it offers a range of services for the non-surgical treat", "emergency": "yes", "healthcare": "hospital", "healthcare:speciality": "vascular_surgery", "image": "https://tvcm.in/wp-content/uploads/2023/03/The-Vein-Center-Mumbai-Khar-West-Clinic-Building.png", "name": "The Vein Center Mumbai", "operator": "Dr Joshi Vein Center LLP", "operator:type": "private", "phone": "+91 8080866266", "start_date": "2008-01-03", "website": "https://tvcm.in"}}, {"type": "way", "id": 395048290, "nodes": [3979327153, 3979327152, 3979327151, 9507341378, 3979327149, 3979327153], "tags": {"addr:city": "mumbai", "addr:postcode": "400053", "addr:street": "N Dutta Road", "amenity": "hospital", "building": "yes", "healthcare": "hospital", "name": "Thunga"}}, {"type": "way", "id": 430418378, "nodes": [10779234879, 4297017108, 4297017109, 5510255905, 4297000114, 4297017111, 4297017114, 4297017113, 4297017112, 4297017110, 5506320962, 10779234880, 10779234879], "tags": {"addr:district": "Mumbai", "addr:full": "G / N Block, Bandra Kurla Complex, Bandra (E)", "addr:postcode": "400051", "addr:state": "Maharashtra", "amenity": "hospital", "email": "info@ahirc.com", "healthcare": "hospital", "healthcare:speciality": "cardiology", "name": "Asian Heart Institute", "operator:type": "private", "source": "OpenGovernmentData", "website": "https://www.asianheartinstitute.org/"}}, {"type": "way", "id": 665481038, "nodes": [6228730402, 347120067, 6228754300, 6228730401, 6228730400, 6228730399, 6228730402], "tags": {"addr:district": "Mumbai", "addr:full": "K.B.Bhabha Municipal General Hospital, Waterfield Road, Bandra (W)", "addr:postcode": "400050", "addr:state": "Maharashtra", "amenity": "hospital", "full_name": "Khurshitji Beharamji Bhabha Municipal General Hospital", "full_name:en": "Khurshitji Beharamji Bhabha Municipal General Hospital", "healthcare": "hospital", "name": "K B Bhabha Municipal General Hospital", "official_name": "K B Bhabha Municipal General Hospital", "official_name:en": "K B Bhabha Municipal General Hospital", "phone": "+912226422775", "short_name": "Bhabha Hospital", "short_name:en": "Bhabha Hospital", "source": "OpenGovernmentData", "wikidata": "Q4900481", "wikipedia": "en:Bhabha Hospital"}}, {"type": "way", "id": 1123412924, "nodes": [10273976408, 10273979012, 10273979011, 10273979010, 10273979009, 10273976408], "tags": {"addr:district": "Mumbai Suburban", "addr:full": "Gulmohar Road, Gulmohar Colony, Andheri West, Mumbai", "addr:postcode": "400058", "addr:state": "Maharastra", "amenity": "hospital", "name": "Khubchandani Hospital", "source": "Local Knowledge"}}, {"type": "way", "id": 1149824759, "nodes": [10696472369, 10696472360, 10696472368, 10696472359, 7064402717, 10696472367, 10696472366, 10696472365, 10696472364, 10696472369], "tags": {"addr:district": "Mumbai", "addr:full": "S-341, Gandhinagar, Bandra(E)", "addr:postcode": "400051", "addr:state": "Maharashtra", "amenity": "hospital", "email": "gnhosp@vsnl.com", "healthcare": "hospital", "name": "Guru Nanak Hospital", "name:etymology:wikidata": "Q83322", "operator:type": "private", "source": "OpenGovernmentData", "website": "https://www.gurunanakhospital.com/"}}, {"type": "way", "id": 1186783958, "nodes": [11022260058, 11022260057, 1111894369, 1111894364, 11022260058], "tags": {"addr:district": "Mumbai", "addr:full": "Jeevan Hall Building, 2-A, Dharavi Main Road", "addr:postcode": "400017", "addr:state": "Maharashtra", "amenity": "hospital", "name": "Ayurseva Hospital", "source": "OpenGovernmentData"}}, {"type": "way", "id": 1227680040, "nodes": [11384605285, 11384605286, 11384605287, 11384605288, 11384605285], "tags": {"amenity": "hospital", "building": "hospital", "healthcare": "hospital", "mobile": "+91 98202 54545", "name": "Women's Hospital", "name:en": "Women's Hospital", "operator": "Dr. Rakesh Sinha", "operator:type": "private", "website": "https://www.womenshospital.com/"}}, {"type": "way", "id": 1410330978, "nodes": [4297017109, 4297000114, 4297017111, 4297017114, 4297017113, 4297017112, 4297017110, 5506320962, 10779234880, 10779234879, 4297017108, 4297017109], "tags": {"amenity": "hospital", "healthcare": "hospital", "name": "Asian"}}, {"type": "way", "id": 1413471846, "nodes": [12989590769, 12989590770, 12989590771, 12989590772, 12989590769], "tags": {"amenity": "hospital", "healthcare": "hospital", "name": "Sion Hospital"}}, {"type": "way", "id": 1442093565, "nodes": [13232407990, 13232407991, 13232407992, 13232407993, 13232407994, 13232407995, 13232407996, 13232407990], "tags": {"addr:full": "11th Road, Golibar, Santacruz East", "addr:postcode": "400055", "addr:state": "Maharashtra", "amenity": "hospital", "healthcare": "hospital", "name": "V.N. Desai Hospital", "name:en": "V.N. Desai Hospital", "operator": "BMC", "operator:type": "government", "website": "https://mumbaisuburban.gov.in/en/public-utility/v-n-desai-municipal-general-hospital/"}}, {"type": "way", "id": 1447315313, "nodes": [3589607630, 3589607625, 3589607622, 3589607628, 3589607630], "tags": {"addr:city": "Mumbai", "addr:postcode": "400054", "addr:street": "Besant Road", "amenity": "hospital", "description": "it is a nursing home", "healthcare": "hospital", "healthcare:speciality": "general", "name": "Mangal nursing home", "website": "https://www.justdial.com/Mumbai/Mangal-Multispeciality-Hospital-ICU-Near-Santacurz-Station-Santacruz-West/022PXX22-XX22-121008193335-N5M5_BZDET"}}, {"type": "way", "id": 1451543691, "nodes": [13312852815, 13312852816, 13312852817, 13312852818, 13312852819, 13312852815], "tags": {"addr:district": "Mumbai", "addr:housenumber": "1234", "addr:postcode": "400058", "addr:street": "Swami Vivekanand Road", "amenity": "hospital", "emergency": "yes", "healthcare": "hospital", "healthcare:speciality": "general;psychiatry", "name": "hehehe", "operator": "wert"}}]}