{"version": 0.6, "generator": "Overpass API 0.7.62.8 e802775f", "osm3s": {"timestamp_osm_base": "2026-01-13T09:31:41Z", "copyright": "The data included in this document is from www.openstreetmap.org. The data is made available under ODbL."}, "elements": [{"type": "node", "id": 457068089, "lat": 19.1486707, "lon": 72.9998192, "tags": {"addr:district": "Thane", "addr:full": "Panchsheel Vishal Complex, 1st Floor, Sector-5 Near Sai Nidhi Hotel Airoli Navi Mumbai", "addr:postcode": "400708", "addr:state": "Maharashtra", "amenity": "hospital", "name": "Jasmine Hospital And Wow Clinic", "source": "OpenGovernmentData"}}, {"type": "node", "id": 1644114470, "lat": 19.1036326, "lon": 73.0124359}, {"type": "node", "id": 1647016063, "lat": 19.1781811, "lon": 72.9626528}, {"type": "node", "id": 1647016083, "lat": 19.1788572, "lon": 72.9610058}, {"type": "node", "id": 1647016109, "lat": 19.1791809, "lon": 72.9606391}, {"type": "node", "id": 1647016121, "lat": 19.1794745, "lon": 72.9615557}, {"type": "node", "id": 1647016124, "lat": 19.1795196, "lon": 72.9595472}, {"type": "node", "id": 1647016139, "lat": 19.1800315, "lon": 72.9645126}, {"type": "node", "id": 1647016149, "lat": 19.1801745, "lon": 72.9596429}, {"type": "node", "id": 1647016153, "lat": 19.1803025, "lon": 72.9634924}, {"type": "node", "id": 1647016179, "lat": 19.1804907, "lon": 72.9643452}, {"type": "node", "id": 1647016195, "lat": 19.180995, "lon": 72.9596509}, {"type": "node", "id": 1647016218, "lat": 19.1822898, "lon": 72.9605116}, {"type": "node", "id": 1647016232, "lat": 19.1826285, "lon": 72.9613564}, {"type": "node", "id": 1647016235, "lat": 19.1832232, "lon": 72.9625918}, {"type": "node", "id": 1647016241, "lat": 19.1832608, "lon": 72.9613485}, {"type": "node", "id": 2913810856, "lat": 19.1085023, "lon": 73.0017953, "tags": {"addr:district": "Thane", "addr:full": "Plot 12-13, Sector-20, Koparkhairane", "addr:postcode": "400709", "addr:state": "Maharashtra", "amenity": "hospital", "building": "hospital", "name": "Sai Snehdeep Hospital KK", "source": "OpenGovernmentData"}}, {"type": "node", "id": 2953156267, "lat": 19.1000303, "lon": 73.009298}, {"type": "node", "id": 2953156269, "lat": 19.1001344, "lon": 73.0096615}, {"type": "node", "id": 3224657234, "lat": 19.1682476, "lon": 72.9612909, "tags": {"addr:city": "Mulund (East)", "addr:district": "Mumbai", "addr:full": "Vidhataapartments, Groundfloor, Mulund(E)", "addr:postcode": "400081", "addr:state": "Maharashtra", "addr:street": "V B Phadke Marg", "amenity": "hospital", "emergency": "yes", "name": "Saidhanhospital Iccu and Eye Care", "source": "OpenGovernmentData"}}, {"type": "node", "id": 3224692237, "lat": 19.1760293, "lon": 72.9618357, "tags": {"addr:city": "Mulund (East)", "addr:district": "Mumbai", "addr:full": "Chandraganga Apartments, V.B.Phadke Marg, Near Subway,Mulund (East)", "addr:postcode": "400081", "addr:state": "Maharashtra", "amenity": "hospital", "emergency": "yes", "name": "Chandraganga Hospital, Mulund", "source": "OpenGovernmentData"}}, {"type": "node", "id": 3224698401, "lat": 19.1718704, "lon": 72.9605846}, {"type": "node", "id": 3981483033, "lat": 19.1046246, "lon": 73.0120678}, {"type": "node", "id": 3981483042, "lat": 19.1059327, "lon": 73.0116448}, {"type": "node", "id": 4167472230, "lat": 19.100388, "lon": 73.0091833}, {"type": "node", "id": 4167472231, "lat": 19.1004921, "lon": 73.0095467}, {"type": "node", "id": 4585363492, "lat": 19.1732429, "lon": 72.9547642, "tags": {"addr:district": "Mumbai", "addr:full": "Rashman Apartments ,Sevaram Lalwani Road,Mulund ( West )", "addr:postcode": "400080", "addr:state": "Maharashtra", "addr:street": "Sewaram Lalwani Road", "amenity": "hospital", "name": "Upasani Maternity and Surgical Nursing Home", "name:en": "Upasani Hospital", "source": "OpenGovernmentData"}}, {"type": "node", "id": 4658913990, "lat": 19.1753796, "lon": 72.9569965, "tags": {"addr:district": "Mumbai", "addr:full": "Raj-Sneha, Opposite Rationing Office, Tambe Nagar, S N Road, Mulund (W)", "addr:postcode": "400080", "addr:state": "Maharashtra", "addr:street": "Sarojini Naidu Road", "amenity": "hospital", "name": "Meher Ambe Nursing Home", "name:en": "Meher Ambe Nursing Home", "source": "OpenGovernmentData"}}, {"type": "node", "id": 4746710022, "lat": 19.1733919, "lon": 72.9538799, "tags": {"addr:street": "Ramratan Trivedi Road", "amenity": "hospital", "name:en": "Apex Kidney Care"}}, {"type": "node", "id": 4930562921, "lat": 19.1689031, "lon": 72.9601586, "tags": {"addr:postcode": "400081", "addr:street": "Navghar Marg", "amenity": "hospital"}}, {"type": "node", "id": 5624316682, "lat": 19.1051956, "lon": 73.0119088}, {"type": "node", "id": 5969984649, "lat": 19.1718628, "lon": 72.9601206}, {"type": "node", "id": 5969984650, "lat": 19.1715081, "lon": 72.960134}, {"type": "node", "id": 5969984651, "lat": 19.1715258, "lon": 72.9606141}, {"type": "node", "id": 6197071879, "lat": 19.1063162, "lon": 73.0125956}, {"type": "node", "id": 6197071880, "lat": 19.1050177, "lon": 73.0133396}, {"type": "node", "id": 6197071881, "lat": 19.1041424, "lon": 73.0137475}, {"type": "node", "id": 6234352163, "lat": 19.1784482, "lon": 72.9624563}, {"type": "node", "id": 6358405085, "lat": 19.1737405, "lon": 72.9621216, "tags": {"addr:district": "Mumbai", "addr:full": "Ground Floor, Saurabh V.B. Phadke Road , Gavanpada, Mulund (E)", "addr:postcode": "400081", "addr:state": "Maharashtra", "amenity": "hospital", "name": "Dr. Sabnis Maternity and Nursing Home", "name:en": "Sabnis Hospital", "source": "OpenGovernmentData"}}, {"type": "node", "id": 6373769199, "lat": 19.1842421, "lon": 72.9768441}, {"type": "node", "id": 6373769200, "lat": 19.1842319, "lon": 72.9769621}, {"type": "node", "id": 6373769201, "lat": 19.1840799, "lon": 72.9769245}, {"type": "node", "id": 6373769202, "lat": 19.1840875, "lon": 72.9768065}, {"type": "node", "id": 6373769203, "lat": 19.1841179, "lon": 72.9768145}, {"type": "node", "id": 6373769204, "lat": 19.184123, "lon": 72.9768441}, {"type": "node", "id": 6373769205, "lat": 19.1841534, "lon": 72.9768441}, {"type": "node", "id": 6373769206, "lat": 19.1841635, "lon": 72.9768199}, {"type": "node", "id": 6373769207, "lat": 19.1841965, "lon": 72.9768306}, {"type": "node", "id": 6373769208, "lat": 19.1841914, "lon": 72.9768628}, {"type": "node", "id": 6373769209, "lat": 19.1842193, "lon": 72.9768601}, {"type": "node", "id": 6373769210, "lat": 19.1842218, "lon": 72.976836}, {"type": "node", "id": 6373769211, "lat": 19.1841559, "lon": 72.9769433}, {"type": "node", "id": 6377237895, "lat": 19.184956, "lon": 72.9742129}, {"type": "node", "id": 6377237896, "lat": 19.1849907, "lon": 72.9743366}, {"type": "node", "id": 6377237897, "lat": 19.1848992, "lon": 72.9743667}, {"type": "node", "id": 6377237898, "lat": 19.1848455, "lon": 72.9743633}, {"type": "node", "id": 6377237899, "lat": 19.1848328, "lon": 72.9742229}, {"type": "node", "id": 6387038344, "lat": 19.1809314, "lon": 72.9732377}, {"type": "node", "id": 6387038345, "lat": 19.1809438, "lon": 72.9734068}, {"type": "node", "id": 6387038346, "lat": 19.1809247, "lon": 72.973413}, {"type": "node", "id": 6387038347, "lat": 19.1808938, "lon": 72.9733851}, {"type": "node", "id": 6387038348, "lat": 19.1807809, "lon": 72.9733771}, {"type": "node", "id": 6387038349, "lat": 19.180836, "lon": 72.9732257}, {"type": "node", "id": 7040968857, "lat": 19.1757098, "lon": 72.9527646, "tags": {"addr:district": "Mumbai", "addr:full": "10,Lavkush, M.G.Road, Near Panch Rasta, Mulund (W)", "addr:postcode": "400080", "addr:state": "Maharashtra", "amenity": "hospital", "name": "Daxini Heart Centre", "source": "OpenGovernmentData"}}, {"type": "node", "id": 7040981014, "lat": 19.1744516, "lon": 72.9527345, "tags": {"addr:district": "Mumbai", "addr:full": "1st Floor Jalaram Ashish Devidayal Road Mulund W", "addr:postcode": "400080", "addr:state": "Maharashtra", "amenity": "hospital", "name": "Ashirwad Critical Care Unit", "source": "OpenGovernmentData"}}, {"type": "node", "id": 7042873521, "lat": 19.1734002, "lon": 72.9553535, "tags": {"addr:district": "Mumbai", "addr:full": "1st Floor Munshi Estate , M G Road Mulund (West)", "addr:postcode": "400001", "addr:state": "Maharashtra", "amenity": "hospital", "name": "Gokul Nursing Home and ICCU", "source": "OpenGovernmentData"}}, {"type": "node", "id": 7042981400, "lat": 19.1554376, "lon": 72.9974642, "tags": {"addr:district": "Mumbai", "addr:full": "Row House B1, Sector-4, Infront of CIDCO Water Tank, Airoli", "addr:postcode": "400078", "addr:state": "Maharashtra", "amenity": "hospital", "contact:phone": "2227799529", "email": "narendrabidarkar2009@hotmail.com", "name": "Sai Seva Hospital and Icu, Mumbai", "operator:type": "private", "source": "OpenGovernmentData", "website": "http://www.saisevahospitalandicu.com/"}}, {"type": "node", "id": 7042981412, "lat": 19.1790754, "lon": 72.9565283, "tags": {"addr:district": "Mumbai", "addr:full": "104, Patils Heritage, Sarojini, Naidu Road,Tambe Nagar, Mulund(W)", "addr:postcode": "400080", "addr:state": "Maharashtra", "amenity": "hospital", "name": "Ria Nursing Home", "source": "OpenGovernmentData"}}, {"type": "node", "id": 7043116599, "lat": 19.1739604, "lon": 72.9570701, "tags": {"addr:district": "Mumbai", "addr:full": "A-7 , 1st Floor, Alps Heights, Dr. R.P.Road,Opposite396, Bus Stop, Near Railway Station, Mulund ( West )", "addr:postcode": "400080", "addr:state": "Maharashtra", "amenity": "hospital", "healthcare": "hospital", "name": "Nav Drishti Netralaya", "source": "OpenGovernmentData"}}, {"type": "node", "id": 7043143042, "lat": 19.175445, "lon": 72.9539676, "tags": {"addr:district": "Mumbai", "addr:full": "Gala Manor, 1st Floor Near Dhanvantari Hosipta,l Above Silver Hardware, N.S.Road, Mulund(W)", "addr:postcode": "400080", "addr:state": "Maharashtra", "amenity": "hospital", "name": "Dr. Khona's E. N. T. Hospital & Regional Center", "source": "OpenGovernmentData"}}, {"type": "node", "id": 7043177298, "lat": 19.1758149, "lon": 72.9528357, "tags": {"addr:district": "Mumbai", "addr:full": "9, Lavkush, M G Road, Panchrasta, Mulund (West)", "addr:postcode": "400080", "addr:state": "Maharashtra", "amenity": "hospital", "name": "Dr. Shettys E.N.T. Hospital", "source": "OpenGovernmentData"}}, {"type": "node", "id": 7043757576, "lat": 19.1467481, "lon": 72.9974623, "tags": {"addr:district": "Thane", "addr:full": "Vikas Niketan, Plot 8/3A, Sector 6, Near Siemens Quarters, Airoli, Navi Mumbai", "addr:postcode": "400708", "addr:state": "Maharashtra", "amenity": "hospital", "name": "Parulekar Hospital", "source": "OpenGovernmentData"}}, {"type": "node", "id": 7043758338, "lat": 19.1511429, "lon": 72.9979656, "tags": {"addr:district": "Thane", "addr:full": "U-119, Sector 4, Airoli", "addr:postcode": "400708", "addr:state": "Maharashtra", "amenity": "hospital", "name": "Disha Hospital", "source": "OpenGovernmentData"}}, {"type": "node", "id": 7044368551, "lat": 19.169912, "lon": 72.9536431, "tags": {"addr:district": "Mumbai", "addr:full": "J Nehru Road, Mulund (W)", "addr:postcode": "400080", "addr:state": "Maharashtra", "amenity": "hospital", "name": "Aparna Hospital, Mulund (W)", "source": "OpenGovernmentData"}}, {"type": "node", "id": 7044863001, "lat": 19.1428364, "lon": 73.0015627, "tags": {"addr:district": "Thane", "addr:full": "Rabale Naka, Thane - Belapur Road, Navi Mumbai", "addr:postcode": "400708", "addr:state": "Maharashtra", "amenity": "hospital", "name": "Dr Manes Gawali Hospital", "source": "OpenGovernmentData"}}, {"type": "node", "id": 7045821102, "lat": 19.1703693, "lon": 72.9588425, "tags": {"addr:district": "Mumbai", "addr:full": "Gayatri Building 1st Floor Hanuman Chowk L T Road Mulund(E)", "addr:postcode": "400081", "addr:state": "Maharashtra", "amenity": "hospital", "name": "Maher Maternity and Nursing Home, Mumbai", "source": "OpenGovernmentData"}}, {"type": "node", "id": 7045980559, "lat": 19.1597689, "lon": 72.9925981, "tags": {"addr:district": "Thane", "addr:full": "Plot No. 29, Sector-19, Opposite Nhp School, Airoli, Navi Mumbai", "addr:postcode": "400708", "addr:state": "Maharashtra", "amenity": "hospital", "healthcare": "hospital", "name": "Avadhoot Hospital and Iccu", "source": "OpenGovernmentData"}}, {"type": "node", "id": 7047889769, "lat": 19.1739389, "lon": 72.9550807, "tags": {"addr:district": "Mumbai", "addr:full": "206, Jai Commercial Complex, At The Junction Of M. G. Road And S. L. Road, Opposite Hotel Gurukrupa, Mulund (West)", "addr:postcode": "400080", "addr:state": "Maharashtra", "amenity": "hospital", "name": "Netra Jyot Eye Care Centre", "source": "OpenGovernmentData"}}, {"type": "node", "id": 7047919321, "lat": 19.1566538, "lon": 72.9977667, "tags": {"addr:district": "Thane", "addr:full": "Sector-3, Near Airoli Bus Depot, Airoli, Nav", "addr:postcode": "400708", "addr:state": "Maharashtra", "amenity": "hospital", "healthcare": "hospital", "name": "Indravati Hospital", "source": "OpenGovernmentData"}}, {"type": "node", "id": 7048131891, "lat": 19.1006081, "lon": 72.9986988, "tags": {"addr:district": "Thane", "addr:full": "1st Floor, Natasha Towers, Plot No.84, Sector No.17,OppositeMmmc Hospital,Khairane,Navi Mumbai", "addr:postcode": "400709", "addr:state": "Maharashtra", "amenity": "hospital", "name": "Vedaant Multispeciality Hospital", "source": "OpenGovernmentData"}}, {"type": "node", "id": 7048439600, "lat": 19.1525023, "lon": 72.9985231, "tags": {"addr:district": "Thane", "addr:full": "Aayush Villa, K-6 & 7, Row House, Sector-4, Airoli, Navi Mumbai", "addr:postcode": "400708", "addr:state": "Maharashtra", "amenity": "hospital", "name": "Aayush Multispeciality Hospital", "source": "OpenGovernmentData"}}, {"type": "node", "id": 7048529142, "lat": 19.1712725, "lon": 72.9580539, "tags": {"addr:district": "Mumbai", "addr:full": "Shreenath Plaza, L. T. Marg, Mulund East", "addr:postcode": "400081", "addr:state": "Maharashtra", "amenity": "hospital", "name": "Shushrusha Hospital and Icu", "source": "OpenGovernmentData"}}, {"type": "node", "id": 7049161132, "lat": 19.1511493, "lon": 72.9979008, "tags": {"addr:district": "Mumbai", "addr:full": "U-123, Near Durga Mata Mandir, Sector 4, Airoli", "addr:postcode": "400708", "addr:state": "Maharashtra", "amenity": "hospital", "email": "dr.rajeshkapoor@gmail.com", "name": "Suruchi Eye Centre", "operator:type": "private", "source": "OpenGovernmentData", "website": "https://suruchieyecentre.com/"}}, {"type": "node", "id": 7049588260, "lat": 19.1747167, "lon": 72.9526278, "tags": {"addr:district": "Mumbai", "addr:full": "Navinjyot Building, RRT Road, Mulund West", "addr:postcode": "400080", "addr:state": "Maharashtra", "amenity": "hospital", "name": "Chetna Critical Care Unit", "source": "OpenGovernmentData"}}, {"type": "node", "id": 7049595408, "lat": 19.1708418, "lon": 72.9541071, "tags": {"addr:district": "Mumbai", "addr:full": "302-303 Koteshwar Plaza Junction Of Jn Road And R.H.B Road Mulund(W)", "addr:postcode": "400065", "addr:state": "Maharashtra", "amenity": "hospital", "name": "Omkar Eye Care Center", "source": "OpenGovernmentData"}}, {"type": "node", "id": 7049775833, "lat": 19.1511011, "lon": 72.9995356, "tags": {"addr:district": "Mumbai", "addr:full": "101,103 Ruby Commercial Compelx Sector 4, Airoli,Navi Mumbai", "addr:postcode": "400022", "addr:state": "Maharashtra", "amenity": "hospital", "name": "Gandhi Hospital - Navi Mumbai", "source": "OpenGovernmentData"}}, {"type": "node", "id": 7050247346, "lat": 19.0994752, "lon": 73.005757, "tags": {"addr:district": "Thane", "addr:full": "Giriraj Dham Plot. No11, Sector -10,1st Floor, Nxt 2 Pancharatna Hotel,Koparkhairane,Navi Mumbai", "addr:postcode": "400709", "addr:state": "Maharashtra", "amenity": "hospital", "name": "Vidhi Eye and Skin Care Centre", "source": "OpenGovernmentData"}}, {"type": "node", "id": 7050593685, "lat": 19.0980824, "lon": 73.0056068, "tags": {"addr:district": "Thane", "addr:full": "A/42, Sagar Co.Ophousing Society, Sector-10, Koparkhairane, Navi Mumbai", "addr:postcode": "400709", "addr:state": "Maharashtra", "amenity": "hospital", "name": "Saraswati Skin and Eye Care Centre", "source": "OpenGovernmentData"}}, {"type": "node", "id": 7051344976, "lat": 19.1024207, "lon": 73.0037589, "tags": {"addr:district": "Thane", "addr:full": "102, Shubham Cooperative Society, Sector-18, Plot-77, Near Kotak Mahindra Bank, Koparkhairane", "addr:postcode": "400709", "addr:state": "Maharashtra", "amenity": "hospital", "name": "Om Gagangiri Hospital, Thane, NAVI MUMBAI", "source": "OpenGovernmentData"}}, {"type": "node", "id": 7051853939, "lat": 19.1503714, "lon": 72.9999474, "tags": {"addr:district": "Thane", "addr:full": "Sector - 4, Near Max Mall,Asiatic Society, Near Petrol Pump", "addr:postcode": "400708", "addr:state": "Maharashtra", "amenity": "hospital", "name": "Asha Hospital and Iccu", "source": "OpenGovernmentData"}}, {"type": "node", "id": 7051961242, "lat": 19.1763038, "lon": 72.9535586, "tags": {"addr:district": "Mumbai", "addr:full": "545, Thawaroadas Bhavan, N. S. Road, Near Abhyudaya Bank", "addr:postcode": "400080", "addr:state": "Maharashtra", "amenity": "hospital", "name": "Dhanwantary Hospital and ICCU", "source": "OpenGovernmentData"}}, {"type": "node", "id": 7051992797, "lat": 19.1685629, "lon": 72.9594474, "tags": {"addr:district": "Mumbai", "addr:full": "102, Samarth C.H.S Ltd., Lokmanya Tilak Road(Extn)", "addr:postcode": "400080", "addr:state": "Maharashtra", "amenity": "hospital", "name": "Samarth Maternity and Nursing Home", "source": "OpenGovernmentData"}}, {"type": "node", "id": 7052398568, "lat": 19.1490462, "lon": 72.999828, "tags": {"addr:district": "Thane", "addr:full": "Panchsheel Arcade, 1st Floor, Near Sahakar Bazar, Sector-5, Airoli, Navi Mumbai", "addr:postcode": "400708", "addr:state": "Maharashtra", "amenity": "hospital", "name": "Dr. Doke's Shraddha Hospital", "source": "OpenGovernmentData"}}, {"type": "node", "id": 7052895341, "lat": 19.1611029, "lon": 72.9988141, "tags": {"addr:district": "Thane", "addr:full": "Plot 1,2, 3, 4, Sector 2, Airoli", "addr:postcode": "400708", "addr:state": "Maharashtra", "amenity": "hospital", "healthcare": "hospital", "name": "Mody Hospital Iccu", "source": "OpenGovernmentData"}}, {"type": "node", "id": 7054096515, "lat": 19.1533004, "lon": 72.9862292, "tags": {"addr:district": "Thane", "addr:full": "Sector - 13, Plot No. 1, Ramdas Swami Marg", "addr:postcode": "400708", "addr:state": "Maharashtra", "amenity": "hospital", "name": "National Burns Center", "source": "OpenGovernmentData"}}, {"type": "node", "id": 7054939253, "lat": 19.1699994, "lon": 72.959279, "tags": {"addr:district": "Mumbai", "addr:full": "1st Flr Sitamai Apartmets Hanuman Chowk L.T. Road, Mulund (East)", "addr:postcode": "400081", "addr:state": "Maharashtra", "amenity": "hospital", "name": "Omkar Surgical and Maternity Home", "source": "OpenGovernmentData"}}, {"type": "node", "id": 7055034735, "lat": 19.1206928, "lon": 73.0028686, "tags": {"addr:district": "Thane", "addr:full": "Plot No.21 , Sector 6, Ghansoli, Navi Mumbai", "addr:postcode": "400701", "addr:state": "Maharashtra", "amenity": "hospital", "name": "Divine Multispecialty Hospital and Research Centre", "source": "OpenGovernmentData"}}, {"type": "node", "id": 7055110020, "lat": 19.1013786, "lon": 73.0046265, "tags": {"addr:district": "Thane", "addr:full": "Amar House, 1st Floor,Plot No.98, Sector - 7, Kopar Khairne Main Road", "addr:postcode": "400601", "addr:state": "Maharashtra", "amenity": "hospital", "name": "Aakashdeep Hospital and I.C.U", "source": "OpenGovernmentData"}}, {"type": "node", "id": 7062497091, "lat": 19.1828494, "lon": 72.9541553, "tags": {"addr:district": "Mumbai", "addr:full": "The Color Scape Shopping Mall, G-103, D D Upadhayay Marg, Near Mulund Check Naka, Mulund West", "addr:postcode": "400080", "addr:state": "Maharashtra", "amenity": "hospital", "contact:phone": "9987229960", "email": "info@platinumhospitals.in", "name": "Platinum Hospitals", "operator:type": "private", "source": "OpenGovernmentData", "website": "https://www.platinumhospitals.in/"}}, {"type": "node", "id": 7064346350, "lat": 19.1475981, "lon": 72.9973564, "tags": {"addr:district": "Thane", "addr:full": "Plot No.6A, Sec 6,Behind Icici Bank,Airloi", "addr:postcode": "400708", "addr:state": "Maharashtra", "amenity": "hospital", "name": "KRYPTON Heritage Health Care", "source": "OpenGovernmentData"}}, {"type": "node", "id": 7064625319, "lat": 19.1632399, "lon": 73.0291231, "tags": {"addr:district": "Thane", "addr:full": "1st Floor A-Wing, Royal Garden Bildg. Near Shimla Park Kause Mumbra", "addr:postcode": "400612", "addr:state": "Maharashtra", "amenity": "hospital", "name": "Bilal Hospital I.C.U", "source": "OpenGovernmentData"}}, {"type": "node", "id": 7065817370, "lat": 19.0990443, "lon": 73.0046439, "tags": {"addr:district": "Thane", "addr:full": "Plot No.12, Sec-14, Opposite D-Mart Circle, Koparkhairane, Navi Mumbai", "addr:postcode": "400709", "addr:state": "Maharashtra", "amenity": "hospital", "name": "Satyam Multispeciality Hospital and Trauma Centre", "source": "OpenGovernmentData"}}, {"type": "node", "id": 7065820622, "lat": 19.1574092, "lon": 72.9984902, "tags": {"addr:district": "Thane", "addr:full": "Rajkamal Building, 1st Floor", "addr:postcode": "400708", "addr:state": "Maharashtra", "amenity": "hospital", "healthcare": "hospital", "name": "Sanjivni Hospital, Thane", "source": "OpenGovernmentData"}}, {"type": "node", "id": 7072544639, "lat": 19.0995664, "lon": 73.006162, "tags": {"addr:district": "Thane", "addr:full": "Plot 13, Sector 10, D - Mart, Kopar Khairane, Navi Mumbai", "addr:postcode": "400709", "addr:state": "Maharashtra", "amenity": "hospital", "email": "info@rajpaloldagehome.com", "name": "Rajpal Hospital and I.C.U.", "source": "OpenGovernmentData", "website": "https://www.rajpaloldagehome.com/"}}, {"type": "node", "id": 7073949867, "lat": 19.1483963, "lon": 72.9950698, "tags": {"addr:district": "Thane", "addr:full": "Plot No-2A, Swami Samarth Complex Sector-16 Airoli New Mumbai", "addr:postcode": "400708", "addr:state": "Maharashtra", "amenity": "hospital", "name": "Criti Care Iccu, Multispeciality and Trauma Centre", "source": "OpenGovernmentData"}}, {"type": "node", "id": 7079411379, "lat": 19.1452581, "lon": 73.0016197, "tags": {"addr:district": "Mumbai", "addr:full": "Plot No R 831,TTC Industrial Area,Thane-Belapur Road, Rabale , Navi", "addr:postcode": "400701", "addr:state": "Maharashtra", "amenity": "hospital", "name": "Dr.Mahajan Hospital and Industrial Trauma Center", "source": "OpenGovernmentData"}}, {"type": "node", "id": 7085742097, "lat": 19.1691361, "lon": 72.9594333, "tags": {"addr:district": "Mumbai", "addr:full": "Maruti Darshan, C Wing, 2nd Floor, Mulund East", "addr:postcode": "400081", "addr:state": "Maharashtra", "amenity": "hospital", "name": "Aaditya Netralaya", "source": "OpenGovernmentData"}}, {"type": "node", "id": 7086092351, "lat": 19.1737818, "lon": 72.9537423, "tags": {"addr:district": "Mumbai", "addr:full": "Mulund", "addr:postcode": "400080", "addr:state": "Maharashtra", "amenity": "hospital", "name": "Apex Kidney Care (Dialysisnetworks)", "source": "OpenGovernmentData"}}, {"type": "node", "id": 7225067218, "lat": 19.1565434, "lon": 72.997212, "tags": {"addr:district": "Thane", "addr:full": "Rajrishi Shahu Maharajah Marg, Near Navi Mumbai Mahanagar Palika, Airoli", "addr:postcode": "400708", "addr:state": "Maharashtra", "amenity": "hospital", "healthcare": "hospital", "name": "NMMC MCH Airoli", "source": "OpenGovernmentData"}}, {"type": "node", "id": 7604673842, "lat": 19.1751524, "lon": 72.9526962, "tags": {"addr:district": "Mumbai (Suburban)", "addr:full": "Mulund West", "addr:postcode": "400080", "addr:state": "Maharashtra", "amenity": "hospital", "healthcare": "hospital", "name": "Government Hospital, Mulund", "source": "Local Knowledge"}}, {"type": "node", "id": 8797394208, "lat": 19.1710723, "lon": 72.9586105, "tags": {"addr:district": "Mumbai", "addr:full": "Hanuman Chowk, Mulund East, Mumbai", "addr:postcode": "400081", "addr:state": "Maharashtra", "amenity": "hospital", "name": "Ashirwad Critical Care Unit & Multi speciality", "source": "Local Knowledge"}}, {"type": "node", "id": 8816437186, "lat": 19.1043782, "lon": 73.0037038, "tags": {"addr:district": "Thane", "addr:full": "Kopar Khairane, Navi Mumbai", "addr:postcode": "400709", "addr:state": "Maharashtra", "amenity": "hospital", "name": "Mathadi Hospital KK", "source": "Local Knowledge"}}, {"type": "node", "id": 8816957255, "lat": 19.1475082, "lon": 73.0052622, "tags": {"addr:district": "Thane", "addr:full": "Nibban Tekadi, Rabale, Navi Mumbai", "addr:postcode": "400708", "addr:state": "Maharashtra", "amenity": "hospital", "name": "NMMC Hospitals", "source": "Local Knowledge"}}, {"type": "node", "id": 8848434126, "lat": 19.1719181, "lon": 73.0311627}, {"type": "node", "id": 8848434128, "lat": 19.1719905, "lon": 73.0312281}, {"type": "node", "id": 8848434129, "lat": 19.1720369, "lon": 73.0315028}, {"type": "node", "id": 8848434130, "lat": 19.1711748, "lon": 73.0325057}, {"type": "node", "id": 8848434131, "lat": 19.1707197, "lon": 73.0328298}, {"type": "node", "id": 8848434265, "lat": 19.1706087, "lon": 73.0313534}, {"type": "node", "id": 9027663699, "lat": 19.1829552, "lon": 72.9749344, "tags": {"addr:city": "Thane", "addr:district": "Thane", "addr:housenumber": "123", "addr:postcode": "400605", "addr:street": "Dr Hemu Kalani Road", "amenity": "hospital", "emergency": "yes", "healthcare": "hospital", "healthcare:speciality": "gynaecology;paediatrics;dermatology;orthopaedics;otolaryngology", "name": "Radhakrishna Hospital"}}, {"type": "node", "id": 9094324655, "lat": 19.1773323, "lon": 72.9675883, "tags": {"amenity": "hospital", "healthcare": "hospital", "name": "Anant Seva Hospital", "operator": "Dr Vishwas Wasnik"}}, {"type": "node", "id": 9215422051, "lat": 19.1673177, "lon": 72.9632883, "tags": {"addr:district": "Mumbai", "addr:full": "Hanuman Chowk, Mulund East", "addr:postcode": "400081", "addr:state": "Maharashtra", "amenity": "hospital", "description": "Private Hospital", "name": "Gomathi Eye & Cornea Centre", "source": "Local Knowledge"}}, {"type": "node", "id": 9795175655, "lat": 19.1464171, "lon": 72.9877616, "tags": {"amenity": "hospital", "healthcare": "hospital", "healthcare:speciality": "general", "name": "Vaishali Hospital"}}, {"type": "node", "id": 10042422219, "lat": 19.1444443, "lon": 72.9951001, "tags": {"addr:city": "Navi Mumbai", "addr:postcode": "400708", "addr:street": "4567891011", "amenity": "hospital", "emergency": "phone", "healthcare": "hospital", "healthcare:speciality": "surgery;neurology;chiropractic;dermatology", "name": "apple hospital", "operator": "dr.bean", "operator:type": "private"}}, {"type": "node", "id": 10220101227, "lat": 19.1717808, "lon": 73.0317614}, {"type": "node", "id": 10220101228, "lat": 19.1710307, "lon": 73.032776}, {"type": "node", "id": 10727357074, "lat": 19.1525895, "lon": 72.9857501}, {"type": "node", "id": 10727357075, "lat": 19.1531911, "lon": 72.9871188}, {"type": "node", "id": 10727357076, "lat": 19.1542972, "lon": 72.9865578}, {"type": "node", "id": 10727357077, "lat": 19.1539387, "lon": 72.985807}, {"type": "node", "id": 10727357078, "lat": 19.1531399, "lon": 72.9854167}, {"type": "node", "id": 10727357079, "lat": 19.1528788, "lon": 72.9855604}, {"type": "node", "id": 10727364115, "lat": 19.1569153, "lon": 72.9970213}, {"type": "node", "id": 10727364116, "lat": 19.1562167, "lon": 72.9971094}, {"type": "node", "id": 10727364117, "lat": 19.1561859, "lon": 72.9979332}, {"type": "node", "id": 10727364118, "lat": 19.156955, "lon": 72.9979445}, {"type": "way", "id": 151861276, "nodes": [1647016139, 1647016179, 1647016153, 1647016235, 1647016241, 1647016232, 1647016218, 1647016195, 1647016149, 1647016124, 1647016109, 1647016083, 1647016121, 6234352163, 1647016063, 1647016139], "tags": {"amenity": "hospital", "healthcare": "hospital", "name": "Mental Hospital"}}, {"type": "way", "id": 415784678, "nodes": [4167472230, 4167472231, 2953156269, 2953156267, 4167472230], "tags": {"addr:district": "Thane", "addr:full": "Plot No 6, Sector-9 Opp: Rf Naik School Ground, Koparkhairane Khairane Navi Mumbai", "addr:postcode": "400709", "addr:state": "Maharashtra", "amenity": "hospital", "healthcare": "hospital", "name": "Dr Ajayan's Multispeciality Hospital", "source": "OpenGovernmentData"}}, {"type": "way", "id": 632266782, "nodes": [3224698401, 5969984651, 5969984650, 5969984649, 3224698401], "tags": {"addr:city": "Mulund (East)", "addr:district": "Mumbai", "addr:full": "V.D.Sawarkar Mun.Gen. Hospital, Mulund East Mumbai 81", "addr:postcode": "400081", "addr:state": "Maharashtra", "addr:street": "Mahatma Phule Marg", "amenity": "hospital", "description": "Sub District Hospital", "healthcare": "hospital", "name": "V.D. SAWARKAR HOSPITAL", "opening_hours": "24/7", "source": "OpenGovernmentData"}}, {"type": "way", "id": 661924838, "nodes": [3981483042, 6197071879, 6197071880, 6197071881, 1644114470, 3981483033, 5624316682, 3981483042], "tags": {"amenity": "hospital", "healthcare": "hospital", "name": "Reliance Hospital"}}, {"type": "way", "id": 680690375, "nodes": [6373769199, 6373769200, 6373769211, 6373769201, 6373769202, 6373769203, 6373769204, 6373769205, 6373769206, 6373769207, 6373769208, 6373769209, 6373769210, 6373769199], "tags": {"addr:city": "Thane", "addr:district": "Thane", "addr:full": "Renuka Building, Opp: Mangla School, Above Bank Of Maharashtra,Kopari Thane(E), Above Bank Of Maharashtra, Kopari", "addr:postcode": "400603", "addr:state": "Maharashtra", "amenity": "hospital", "building": "yes", "healthcare": "hospital", "name": "Aarogyam Multispeciality Hospital, Thane", "source": "OpenGovernmentData"}}, {"type": "way", "id": 681030493, "nodes": [6377237895, 6377237896, 6377237897, 6377237898, 6377237899, 6377237895], "tags": {"amenity": "hospital", "building": "yes", "healthcare": "hospital", "name": "Ankur Hospital"}}, {"type": "way", "id": 682033023, "nodes": [6387038344, 6387038345, 6387038346, 6387038347, 6387038348, 6387038349, 6387038344], "tags": {"amenity": "hospital", "building": "yes", "healthcare": "hospital", "name": "Ma Vaishnavi"}}, {"type": "way", "id": 956061044, "nodes": [8848434131, 10220101228, 8848434130, 10220101227, 8848434129, 8848434128, 8848434126, 8848434265, 8848434131], "tags": {"addr:district": "Thane", "addr:full": "Kausa Health Centre, Amrut Nagar, Mumbra West, Near Amrut nagar masjid", "addr:postcode": "400612", "addr:state": "Maharashtra", "amenity": "hospital", "description": "Urban Health Centre", "healthcare": "centre", "name": "TMC Kausa Health Centre", "source": "OpenGovernmentData"}}, {"type": "way", "id": 1153426971, "nodes": [10727364115, 10727364116, 10727364117, 10727364118, 10727364115], "tags": {"amenity": "hospital", "healthcare": "hospital"}}, {"type": "way", "id": 1153427862, "nodes": [10727357074, 10727357075, 10727357076, 10727357077, 10727357078, 10727357079, 10727357074], "tags": {"amenity": "hospital", "healthcare": "hospital"}}]}