{"version": 0.6, "generator": "Overpass API 0.7.62.8 e802775f", "osm3s": {"timestamp_osm_base": "2026-01-12T05:25:14Z", "copyright": "The data included in this document is from www.openstreetmap.org. The data is made available under ODbL."}, "elements": [{"type": "node", "id": 357558203, "lat": 40.7454517, "lon": -73.8881519}, {"type": "node", "id": 357558861, "lat": 40.7651137, "lon": -73.9577419}, {"type": "node", "id": 357607743, "lat": 40.7638031, "lon": -73.9561779}, {"type": "node", "id": 357642722, "lat": 40.7292817, "lon": -73.8521418}, {"type": "node", "id": 357642735, "lat": 40.7620381, "lon": -73.9553606, "tags": {"access": "private", "addr:city": "New York", "addr:housenumber": "1230", "addr:postcode": "10021", "addr:street": "York Avenue", "amenity": "hospital", "beds": "40", "check_date": "2024-09-16", "emergency": "no", "gnis:feature_id": "2420556", "healthcare": "hospital", "name": "Rockefeller University Hospital", "note": "Specialty research hospital.", "phone": "+1 212 327 7511", "website": "https://rucares.org/", "wikidata": "Q30265216"}}, {"type": "node", "id": 357642750, "lat": 40.764233, "lon": -73.963647, "tags": {"addr:city": "New York", "addr:housenumber": "210", "addr:postcode": "10065", "addr:street": "East 64th Street", "amenity": "hospital", "emergency": "no", "gnis:feature_id": "2420561", "healthcare": "hospital", "healthcare:speciality": "ophthalmology", "name": "Manhattan Eye Ear and Throat Hospital", "operator": "Northwell Health", "operator:type": "private", "operator:wikidata": "Q7056650", "operator:wikipedia": "en:Northwell Health", "phone": "+1 212 838 9200", "short_name": "MEETH", "website": "https://www.northwell.edu/find-care/locations/manhattan-eye-ear-and-throat-hospital", "wikidata": "Q6749254"}}, {"type": "node", "id": 357652216, "lat": 40.7536455, "lon": -73.8605021, "tags": {"addr:city": "Flushing", "addr:housenumber": "3702", "addr:postcode": "11368", "addr:state": "NY", "addr:street": "108th Street", "amenity": "hospital", "check_date": "2024-07-06", "healthcare": "hospital", "healthcare:speciality": "paediatrics;clinic", "name": "Plaza del Sol Family Health Center"}}, {"type": "node", "id": 2568284020, "lat": 40.6736661, "lon": -73.9200213}, {"type": "node", "id": 2568284028, "lat": 40.6736731, "lon": -73.9201561}, {"type": "node", "id": 2568284096, "lat": 40.6737365, "lon": -73.920015}, {"type": "node", "id": 2568284098, "lat": 40.6737379, "lon": -73.9200411}, {"type": "node", "id": 2568284115, "lat": 40.6737469, "lon": -73.9208701}, {"type": "node", "id": 2568284136, "lat": 40.6737567, "lon": -73.9200325}, {"type": "node", "id": 2568284140, "lat": 40.6737571, "lon": -73.9200394}, {"type": "node", "id": 2568284296, "lat": 40.6739125, "lon": -73.9208517}, {"type": "node", "id": 2568284319, "lat": 40.6739323, "lon": -73.9200168}, {"type": "node", "id": 2568284696, "lat": 40.6746456, "lon": -73.9215562}, {"type": "node", "id": 2568284731, "lat": 40.6747148, "lon": -73.9215501}, {"type": "node", "id": 2568284755, "lat": 40.6747498, "lon": -73.921547}, {"type": "node", "id": 2568817693, "lat": 40.7035442, "lon": -73.9177734}, {"type": "node", "id": 2568817695, "lat": 40.7038281, "lon": -73.9182561}, {"type": "node", "id": 2568817697, "lat": 40.703841, "lon": -73.9182468}, {"type": "node", "id": 2568817699, "lat": 40.703855, "lon": -73.9182404}, {"type": "node", "id": 2568817700, "lat": 40.7038695, "lon": -73.9182372}, {"type": "node", "id": 2568817702, "lat": 40.7038843, "lon": -73.9182371}, {"type": "node", "id": 2568817704, "lat": 40.7038988, "lon": -73.9182403}, {"type": "node", "id": 2568817706, "lat": 40.7039128, "lon": -73.9182466}, {"type": "node", "id": 2568817708, "lat": 40.7039257, "lon": -73.9182559}, {"type": "node", "id": 2568817710, "lat": 40.7039373, "lon": -73.9182679}, {"type": "node", "id": 2568817714, "lat": 40.704024, "lon": -73.9172862}, {"type": "node", "id": 2568817720, "lat": 40.7040951, "lon": -73.9174071}, {"type": "node", "id": 2568817729, "lat": 40.7041932, "lon": -73.9172975}, {"type": "node", "id": 2568817730, "lat": 40.7041969, "lon": -73.9173038}, {"type": "node", "id": 2568817740, "lat": 40.7042398, "lon": -73.9172502}, {"type": "node", "id": 2568817752, "lat": 40.7042705, "lon": -73.9173022}, {"type": "node", "id": 2568817756, "lat": 40.704288, "lon": -73.9175279}, {"type": "node", "id": 2568817766, "lat": 40.7043302, "lon": -73.9174822}, {"type": "node", "id": 2568817782, "lat": 40.7043473, "lon": -73.9176226}, {"type": "node", "id": 2568817784, "lat": 40.7043508, "lon": -73.9175152}, {"type": "node", "id": 2568817848, "lat": 40.7044229, "lon": -73.9177387}, {"type": "node", "id": 2568817856, "lat": 40.7044362, "lon": -73.9177613}, {"type": "node", "id": 2568817876, "lat": 40.7044715, "lon": -73.917098}, {"type": "node", "id": 2568817886, "lat": 40.7044793, "lon": -73.9171841}, {"type": "node", "id": 2568817893, "lat": 40.7044834, "lon": -73.9173718}, {"type": "node", "id": 2568817905, "lat": 40.7045059, "lon": -73.9172294}, {"type": "node", "id": 2568817907, "lat": 40.7045061, "lon": -73.9171568}, {"type": "node", "id": 2568817927, "lat": 40.7045221, "lon": -73.9174337}, {"type": "node", "id": 2568817933, "lat": 40.7045268, "lon": -73.9172081}, {"type": "node", "id": 2568817947, "lat": 40.7045397, "lon": -73.9172913}, {"type": "node", "id": 2568817956, "lat": 40.7045623, "lon": -73.9172684}, {"type": "node", "id": 2568817980, "lat": 40.7045965, "lon": -73.917388}, {"type": "node", "id": 2568817986, "lat": 40.7046002, "lon": -73.9173066}, {"type": "node", "id": 2568818017, "lat": 40.7046288, "lon": -73.9173552}, {"type": "node", "id": 2568818073, "lat": 40.7046957, "lon": -73.9172097}, {"type": "node", "id": 2568818111, "lat": 40.7047885, "lon": -73.9173675}, {"type": "node", "id": 2717876703, "lat": 40.7609528, "lon": -73.9687909, "tags": {"addr:housenumber": "139", "addr:postcode": "10022", "addr:street": "East 57th Street", "amenity": "hospital", "healthcare": "hospital", "name": "MRHS Primary Care", "website": "https://www.mrhsclinics.com/"}}, {"type": "node", "id": 2723697657, "lat": 40.7649928, "lon": -73.9531679}, {"type": "node", "id": 2723697672, "lat": 40.7654742, "lon": -73.95282}, {"type": "node", "id": 2844725349, "lat": 40.7415466, "lon": -73.9025178}, {"type": "node", "id": 2844725363, "lat": 40.7416694, "lon": -73.9035228}, {"type": "node", "id": 2844725368, "lat": 40.7416935, "lon": -73.9026423}, {"type": "node", "id": 2844725369, "lat": 40.7417086, "lon": -73.9024833}, {"type": "node", "id": 2844725372, "lat": 40.7417156, "lon": -73.9028242}, {"type": "node", "id": 2844725374, "lat": 40.7417272, "lon": -73.9026351}, {"type": "node", "id": 2844725377, "lat": 40.7417491, "lon": -73.9027993}, {"type": "node", "id": 2844725378, "lat": 40.7417512, "lon": -73.9028167}, {"type": "node", "id": 2844725380, "lat": 40.741756, "lon": -73.9031302}, {"type": "node", "id": 2844725383, "lat": 40.741766, "lon": -73.9031089}, {"type": "node", "id": 2844725389, "lat": 40.7418006, "lon": -73.9034949}, {"type": "node", "id": 2844725390, "lat": 40.7417975, "lon": -73.9027891}, {"type": "node", "id": 2844725398, "lat": 40.7418345, "lon": -73.9030944}, {"type": "node", "id": 2846355395, "lat": 40.748266, "lon": -73.8892381}, {"type": "node", "id": 2846355417, "lat": 40.7482871, "lon": -73.8890526}, {"type": "node", "id": 2846355434, "lat": 40.7483084, "lon": -73.8892464}, {"type": "node", "id": 2846355450, "lat": 40.7483295, "lon": -73.8890609}, {"type": "node", "id": 3501718995, "lat": 40.7637074, "lon": -73.9542327}, {"type": "node", "id": 3501723876, "lat": 40.7638548, "lon": -73.9544317}, {"type": "node", "id": 3572673531, "lat": 40.6744509, "lon": -73.9195914, "tags": {"access": "no", "barrier": "gate"}}, {"type": "node", "id": 3661889611, "lat": 40.7440882, "lon": -73.8851234}, {"type": "node", "id": 3661889612, "lat": 40.7457789, "lon": -73.8839644}, {"type": "node", "id": 3661889613, "lat": 40.7458748, "lon": -73.8842428}, {"type": "node", "id": 4541041393, "lat": 40.7651489, "lon": -73.9548622}, {"type": "node", "id": 4541041394, "lat": 40.7634013, "lon": -73.9534367}, {"type": "node", "id": 4541041397, "lat": 40.7654647, "lon": -73.9546247}, {"type": "node", "id": 4564017791, "lat": 40.6737226, "lon": -73.9208719}, {"type": "node", "id": 4564027814, "lat": 40.6751458, "lon": -73.9197656}, {"type": "node", "id": 4564027815, "lat": 40.6751315, "lon": -73.9195286}, {"type": "node", "id": 4564027816, "lat": 40.6741461, "lon": -73.9196196}, {"type": "node", "id": 4564027817, "lat": 40.6741677, "lon": -73.9199837}, {"type": "node", "id": 4564027818, "lat": 40.6739332, "lon": -73.9199989}, {"type": "node", "id": 4668802442, "lat": 40.6744579, "lon": -73.9216406}, {"type": "node", "id": 4668802444, "lat": 40.6740901, "lon": -73.9208386}, {"type": "node", "id": 4668802445, "lat": 40.6741288, "lon": -73.9216673}, {"type": "node", "id": 4772994091, "lat": 40.7285658, "lon": -73.8516944}, {"type": "node", "id": 4772994092, "lat": 40.7295244, "lon": -73.8513586}, {"type": "node", "id": 4772994093, "lat": 40.7287868, "lon": -73.8509949}, {"type": "node", "id": 5418842036, "lat": 40.7000178, "lon": -73.9415878}, {"type": "node", "id": 5418842037, "lat": 40.7002618, "lon": -73.9413518}, {"type": "node", "id": 5418842038, "lat": 40.7005994, "lon": -73.9419472}, {"type": "node", "id": 5418842039, "lat": 40.7003391, "lon": -73.9442325}, {"type": "node", "id": 5418842040, "lat": 40.6983626, "lon": -73.9438516}, {"type": "node", "id": 5418842041, "lat": 40.6986533, "lon": -73.9413223}, {"type": "node", "id": 5419376885, "lat": 40.6752621, "lon": -73.9218629}, {"type": "node", "id": 5419376886, "lat": 40.6748588, "lon": -73.9218952}, {"type": "node", "id": 5419376887, "lat": 40.674838, "lon": -73.9215438}, {"type": "node", "id": 5419376888, "lat": 40.6746608, "lon": -73.9214987}, {"type": "node", "id": 5419376889, "lat": 40.674452, "lon": -73.9215134}, {"type": "node", "id": 5419394796, "lat": 40.6780162, "lon": -73.9384743}, {"type": "node", "id": 5419394797, "lat": 40.6789311, "lon": -73.9383915}, {"type": "node", "id": 5419394798, "lat": 40.6788829, "lon": -73.9373325}, {"type": "node", "id": 5419394799, "lat": 40.6788556, "lon": -73.9366785}, {"type": "node", "id": 5419394800, "lat": 40.6788367, "lon": -73.9365593}, {"type": "node", "id": 5419394801, "lat": 40.6783197, "lon": -73.9365912}, {"type": "node", "id": 5419394802, "lat": 40.6783008, "lon": -73.9362988}, {"type": "node", "id": 5419394803, "lat": 40.6781663, "lon": -73.9363071}, {"type": "node", "id": 5419394804, "lat": 40.6781526, "lon": -73.9359455}, {"type": "node", "id": 5419394805, "lat": 40.6778857, "lon": -73.9359621}, {"type": "node", "id": 5421562456, "lat": 40.7655074, "lon": -73.9527962}, {"type": "node", "id": 5421562457, "lat": 40.7660672, "lon": -73.9541613}, {"type": "node", "id": 5421562458, "lat": 40.7648823, "lon": -73.9532429}, {"type": "node", "id": 5421562459, "lat": 40.7645219, "lon": -73.9524117}, {"type": "node", "id": 5421562460, "lat": 40.7640074, "lon": -73.9548123}, {"type": "node", "id": 5421562462, "lat": 40.7642949, "lon": -73.9554683}, {"type": "node", "id": 5421562463, "lat": 40.7645955, "lon": -73.958104}, {"type": "node", "id": 5421562464, "lat": 40.7642881, "lon": -73.955822}, {"type": "node", "id": 8105845200, "lat": 40.718289, "lon": -73.9582489, "tags": {"addr:city": "Brooklyn", "addr:housenumber": "135", "addr:postcode": "11211", "addr:state": "NY", "addr:street": "North 7th Street", "amenity": "hospital", "healthcare": "hospital", "internet_access": "yes", "name": "Mount Sinai Doctors - Williamsburg"}}, {"type": "node", "id": 10739295120, "lat": 40.7440978, "lon": -73.8851447, "tags": {"barrier": "kerb", "kerb": "lowered", "tactile_paving": "no"}}, {"type": "node", "id": 10923276555, "lat": 40.703719, "lon": -73.9175959}, {"type": "node", "id": 10923276558, "lat": 40.7038917, "lon": -73.9182387, "tags": {"entrance": "yes"}}, {"type": "node", "id": 10923276559, "lat": 40.703905, "lon": -73.9174071, "tags": {"entrance": "yes"}}, {"type": "node", "id": 12095092700, "lat": 40.7645657, "lon": -73.955956, "tags": {"addr:housenumber": "1283", "addr:street": "York Avenue", "amenity": "hospital", "check_date": "2024-08-06", "healthcare": "hospital", "level": "0", "name": "New York Presbyterian Alexandra Cohen Hospital for Women and Newborns", "wheelchair": "yes"}}, {"type": "node", "id": 12771176929, "lat": 40.7616923, "lon": -73.9637818, "tags": {"addr:city": "New York", "addr:housenumber": "1153", "addr:postcode": "10065", "addr:state": "NY", "addr:street": "2nd Avenue", "amenity": "hospital", "emergency": "no", "healthcare": "hospital", "healthcare:speciality": "optician;glasses", "name": "Micheal's Optical"}}, {"type": "way", "id": 250440277, "nodes": [2568817986, 2568818017, 2568817980, 2568817947, 2568817956, 2568817933, 2568817905, 2568817886, 2568817907, 2568817876, 2568817752, 2568817740, 2568817729, 2568817730, 2568817720, 2568817714, 10923276559, 10923276555, 2568817693, 2568817695, 2568817697, 2568817699, 2568817700, 2568817702, 10923276558, 2568817704, 2568817706, 2568817708, 2568817710, 2568817856, 2568817848, 2568818111, 2568818073, 2568817986]}, {"type": "way", "id": 250440279, "nodes": [2568817782, 2568817756, 2568817766, 2568817784, 2568817893, 2568817927, 2568817782]}, {"type": "way", "id": 280336215, "nodes": [2844725377, 2844725378, 2844725372, 2844725368, 2844725374, 2844725369, 2844725349, 2844725363, 2844725389, 2844725380, 2844725383, 2844725398, 2844725390, 2844725377], "tags": {"addr:housenumber": "61-11", "addr:postcode": "11377", "addr:street": "Queens Boulevard", "amenity": "hospital", "building": "yes", "emergency": "no", "healthcare": "hospital", "height": "23.7", "name": "Queens Blvd Extended Care", "nycdoitt:bin": "4449695"}}, {"type": "way", "id": 280533350, "nodes": [2846355395, 2846355434, 2846355450, 2846355417, 2846355395], "tags": {"addr:housenumber": "37-28", "addr:postcode": "11372", "addr:street": "77th Street", "amenity": "hospital", "building": "yes", "healthcare": "clinic", "height": "8.8", "name": "Rest Medical Care", "nycdoitt:bin": "4029871"}}, {"type": "way", "id": 361757084, "nodes": [357558203, 10739295120, 3661889611, 3661889612, 3661889613, 357558203], "tags": {"addr:city": "Elmhurst", "addr:housenumber": "79-01", "addr:postcode": "11373", "addr:state": "NY", "addr:street": "Broadway", "amenity": "hospital", "emergency": "yes", "gnis:feature_id": "949576", "healthcare": "hospital", "name": "Elmhurst Hospital", "old_name": "Elmhurst Hospital Center", "opening_hours": "24/7", "operator": "NYC Health + Hospitals/", "phone": "+1 718 334 4000", "website": "https://www.nychealthandhospitals.org/elmhurst/", "wikidata": "Q30280060"}}, {"type": "way", "id": 458061825, "nodes": [4541041393, 5421562462, 5421562460, 3501723876, 3501718995, 4541041394, 5421562459, 5421562458, 2723697657, 2723697672, 5421562456, 5421562457, 4541041397, 4541041393], "tags": {"addr:city": "New York", "addr:housenumber": "525", "addr:postcode": "10065", "addr:street": "East 68th Street", "amenity": "hospital", "check_date": "2024-03-23", "emergency": "yes", "healthcare": "hospital", "name": "NewYork-Presbyterian / Weill Cornell Medical Center", "opening_hours": "24/7", "operator": "NewYork-Presbyterian", "phone": "+1 212 746 5454", "website": "https://www.nyp.org/locations/newyork-presbyterian-weill-cornell-medical-center"}}, {"type": "way", "id": 484551768, "nodes": [357642722, 4772994091, 4772994093, 4772994092, 357642722], "tags": {"addr:city": "Forest Hills", "addr:housenumber": "102-01", "addr:postcode": "11375", "addr:street": "66th Avenue", "amenity": "hospital", "beds": "312", "emergency": "yes", "gnis:feature_id": "2420551", "healthcare": "hospital", "name": "Long Island Jewish Forest Hills", "old_name": "Forest Hills Hospital", "opening_hours": "24/7", "operator": "Northwell Health", "operator:wikidata": "Q7056650", "phone": "+1 718 830 4000", "website": "https://www.northwell.edu/find-care/locations/long-island-jewish-forest-hills", "wikidata": "Q54953965"}}, {"type": "way", "id": 562058708, "nodes": [5418842041, 5418842040, 5418842039, 5418842038, 5418842037, 5418842036, 5418842041], "tags": {"addr:city": "Brooklyn", "addr:housenumber": "760", "addr:postcode": "11206", "addr:street": "Broadway", "amenity": "hospital", "beds": "388", "check_date": "2025-03-18", "emergency": "yes", "gnis:feature_id": "2081746", "healthcare": "hospital", "name": "NYC Health + Hospitals/Woodhull", "old_name": "Woodhull Medical Center", "opening_hours": "24/7", "operator": "NYC Health + Hospitals", "phone": "+1 718 963 8000", "website": "https://www.nychealthandhospitals.org/woodhull/", "wikidata": "Q8032764", "wikipedia": "en:Woodhull Medical Center"}}, {"type": "way", "id": 562110355, "nodes": [4564027815, 3572673531, 4564027816, 4564027817, 4564027818, 2568284319, 2568284136, 2568284140, 2568284098, 2568284096, 2568284020, 2568284028, 4564017791, 2568284115, 2568284296, 4668802444, 4668802445, 4668802442, 5419376889, 5419376888, 2568284696, 2568284731, 2568284755, 5419376887, 5419376886, 5419376885, 4564027814, 4564027815], "tags": {"addr:city": "Brooklyn", "addr:housenumber": "1819", "addr:postcode": "11233", "addr:street": "Bergan Street", "amenity": "hospital", "emergency": "no", "gnis:feature_id": "1993304", "healthcare": "hospital", "healthcare:speciality": "psychiatry", "name": "New York City Children's Center - Brooklyn Campus", "old_name": "Brooklyn Children's Center", "phone": "+1 718 221 4500", "website": "https://www.omh.ny.gov/omhweb/facilities/nyccc/bkpc/"}}, {"type": "way", "id": 562110647, "nodes": [5419394805, 5419394804, 5419394803, 5419394802, 5419394801, 5419394800, 5419394799, 5419394798, 5419394797, 5419394796, 5419394805], "tags": {"addr:city": "Brooklyn", "addr:housenumber": "1545", "addr:postcode": "11213", "addr:street": "Atlantic Avenue", "amenity": "hospital", "beds": "287", "emergency": "yes", "gnis:feature_id": "963665", "healthcare": "hospital", "name": "Interfaith Medical Center", "opening_hours": "24/7", "phone": "+1 718 613 4000", "website": "https://www.interfaithmedical.com/", "wikidata": "Q22329581", "wikipedia": "en:Interfaith Medical Center"}}, {"type": "way", "id": 562360129, "nodes": [357607743, 5421562464, 357558861, 5421562463, 357607743], "tags": {"addr:city": "New York", "addr:housenumber": "1275", "addr:postcode": "10065", "addr:street": "York Avenue", "amenity": "hospital", "check_date": "2024-04-09", "emergency": "no", "gnis:feature_id": "2042641", "healthcare": "hospital", "healthcare:speciality": "oncology", "name": "Memorial Sloan Kettering Cancer Center", "operator": "Memorial Sloan Kettering Cancer Center", "phone": "+1 212 639 2000", "website": "https://www.mskcc.org/", "wikidata": "Q1808012", "wikipedia": "en:Memorial Sloan Kettering Cancer Center"}}, {"type": "relation", "id": 3364740, "members": [{"type": "way", "ref": 250440277, "role": "outer"}, {"type": "way", "ref": 250440279, "role": "inner"}], "tags": {"addr:city": "Brooklyn", "addr:housenumber": "374", "addr:postcode": "11237", "addr:street": "Stockholm Street", "amenity": "hospital", "beds": "350", "building": "hospital", "building:levels": "12", "emergency": "yes", "gnis:feature_id": "2080868", "healthcare": "hospital", "height": "51.7 m", "name": "Wyckoff Heights Medical Center", "nycdoitt:bin": "3074262", "opening_hours": "24/7", "phone": "+1 718 963 7272", "type": "multipolygon", "website": "http://www.wyckoffhospital.org/", "wikidata": "Q8039598", "wikipedia": "en:Wyckoff Heights Medical Center"}}]}