{"version": 0.6, "generator": "Overpass API 0.7.62.8 e802775f", "osm3s": {"timestamp_osm_base": "2026-01-12T00:25:56Z", "copyright": "The data included in this document is from www.openstreetmap.org. The data is made available under ODbL."}, "elements": [{"type": "node", "id": 98388056, "lat": -36.7872222, "lon": 174.77079}, {"type": "node", "id": 98388060, "lat": -36.7875408, "lon": 174.7710563}, {"type": "node", "id": 98389445, "lat": -36.7884555, "lon": 174.7715585}, {"type": "node", "id": 328908404, "lat": -36.7883078, "lon": 174.7716839}, {"type": "node", "id": 328908410, "lat": -36.7877841, "lon": 174.7711882}, {"type": "node", "id": 329683943, "lat": -36.7963827, "lon": 174.7607023}, {"type": "node", "id": 329683945, "lat": -36.7963618, "lon": 174.7606428}, {"type": "node", "id": 329683947, "lat": -36.7966237, "lon": 174.7602276}, {"type": "node", "id": 329683950, "lat": -36.7966683, "lon": 174.7601544}, {"type": "node", "id": 329683952, "lat": -36.7977498, "lon": 174.7612495}, {"type": "node", "id": 342769903, "lat": -36.8091362, "lon": 174.8625308, "tags": {"amenity": "ferry_terminal", "fare_gates": "no", "ferry": "yes", "loc_ref": "1", "name": "Rangitoto Wharf", "name:en": "Rangitoto Wharf", "name:mk": "\u041f\u0440\u0438\u0441\u0442\u0430\u043d \u201e\u0420\u0430\u043d\u0433\u0438\u0442\u043e\u0442\u043e\u201c", "network": "AT", "network:wikidata": "Q4819567", "official_name": "Rangitoto Ferry Terminal", "public_transport": "stop_position", "ref": "9760", "wikidata": "Q131225835"}}, {"type": "node", "id": 495879187, "lat": -36.7879212, "lon": 174.768679, "tags": {"bus": "yes", "highway": "bus_stop", "name": "Takapuna Primary School", "network": "AT", "network:wikidata": "Q4819567", "public_transport": "platform", "ref": "3273"}}, {"type": "node", "id": 495879188, "lat": -36.7874966, "lon": 174.7708249, "tags": {"bus": "yes", "highway": "bus_stop", "local_ref": "C", "name": "Takapuna", "network": "AT", "network:wikidata": "Q4819567", "official_name": "Stop C Takapuna", "official_name:en": "Stop C Takapuna", "official_name:mi": "T\u016bnga C Takapuna", "public_transport": "platform", "ref": "3381"}}, {"type": "node", "id": 495879199, "lat": -36.789192, "lon": 174.766614, "tags": {"bus": "yes", "highway": "bus_stop", "name": "Barrys Point Road", "name:en": "Barrys Point Road", "name:mi": "Te Huarahi o Barrys Point", "network": "AT", "network:wikidata": "Q4819567", "public_transport": "platform", "ref": "3630"}}, {"type": "node", "id": 495879202, "lat": -36.7893904, "lon": 174.7659444, "tags": {"bus": "yes", "highway": "bus_stop", "name": "Barrys Point Road", "name:en": "Barrys Point Road", "name:mi": "Te Huarahi o Barrys Point", "network": "AT", "network:wikidata": "Q4819567", "public_transport": "platform", "ref": "3277"}}, {"type": "node", "id": 724047801, "lat": -36.7883595, "lon": 174.771724}, {"type": "node", "id": 724047949, "lat": -36.7882855, "lon": 174.7716338, "tags": {"bus": "yes", "highway": "bus_stop", "local_ref": "A", "name": "Takapuna", "network": "AT", "network:wikidata": "Q4819567", "official_name": "Stop A Takapuna", "official_name:en": "Stop A Takapuna", "official_name:mi": "T\u016bnga A Takapuna", "public_transport": "platform", "ref": "3551"}}, {"type": "node", "id": 724048241, "lat": -36.7876627, "lon": 174.7711261, "tags": {"bus": "yes", "highway": "bus_stop", "local_ref": "D", "name": "Takapuna", "network": "AT", "network:wikidata": "Q4819567", "official_name": "Stop D Takapuna", "official_name:en": "Stop D Takapuna", "official_name:mi": "T\u016bnga D Takapuna", "public_transport": "platform", "ref": "3410"}}, {"type": "node", "id": 724048373, "lat": -36.7880583, "lon": 174.7712994, "tags": {"bus": "yes", "highway": "bus_stop", "local_ref": "B", "name": "Takapuna", "network": "AT", "network:wikidata": "Q4819567", "official_name": "Stop B Takapuna", "official_name:en": "Stop B Takapuna", "official_name:mi": "T\u016bnga B Takapuna", "public_transport": "platform", "ref": "3568"}}, {"type": "node", "id": 955886627, "lat": -36.7977449, "lon": 174.7562868, "tags": {"bus": "yes", "highway": "bus_stop", "name": "AUT North Shore Gate 1", "network": "AT", "network:wikidata": "Q4819567", "public_transport": "platform", "ref": "4054"}}, {"type": "node", "id": 1306654705, "lat": -36.7873088, "lon": 174.7706433}, {"type": "node", "id": 1706612160, "lat": -36.7971506, "lon": 174.7606873, "tags": {"bench": "yes", "bin": "yes", "bus": "yes", "departures_board": "timetable", "highway": "bus_stop", "internet_access": "yes", "internet_access:fee": "yes", "internet_access:ssid": "AT HOP WiFi", "local_ref": "B", "name": "Akoranga", "network": "AT", "network:wikidata": "Q4819567", "official_name": "Stop B Akoranga", "official_name:en": "Stop B Akoranga", "official_name:mi": "T\u016bnga B Akoranga", "operator": "Auckland Transport", "public_transport": "platform", "ref": "4063", "shelter": "yes"}}, {"type": "node", "id": 2085588282, "lat": -36.8161718, "lon": 174.8039516, "tags": {"bus": "yes", "highway": "bus_stop", "name": "Morrison Avenue", "name:en": "Morrison Avenue", "name:mi": "Te Arah\u0101ngai o Morrison", "network": "AT", "network:wikidata": "Q4819567", "operator": "Auckland Transport", "public_transport": "platform", "ref": "3461"}}, {"type": "node", "id": 2085588283, "lat": -36.8164954, "lon": 174.8043455, "tags": {"bus": "yes", "description": "glass", "highway": "bus_stop", "name": "Morrison Avenue", "name:en": "Morrison Avenue", "name:mi": "Te Arah\u0101ngai o Morrison", "network": "AT", "network:wikidata": "Q4819567", "operator": "Auckland Transport", "public_transport": "platform", "ref": "3496", "shelter": "yes"}}, {"type": "node", "id": 2085588284, "lat": -36.8178445, "lon": 174.8051591, "tags": {"bus": "yes", "description": "glass", "highway": "bus_stop", "name": "Ascot Avenue", "name:en": "Ascot Avenue", "name:mi": "Te Arah\u0101ngai o Ascot", "network": "AT", "network:wikidata": "Q4819567", "operator": "Auckland Transport", "public_transport": "platform", "ref": "3459", "shelter": "yes"}}, {"type": "node", "id": 2085588285, "lat": -36.8179532, "lon": 174.8054282, "tags": {"bus": "yes", "description": "glass", "highway": "bus_stop", "name": "Ascot Avenue", "name:en": "Ascot Avenue", "name:mi": "Te Arah\u0101ngai o Ascot", "network": "AT", "network:wikidata": "Q4819567", "operator": "Auckland Transport", "public_transport": "platform", "ref": "3494", "shelter": "yes"}}, {"type": "node", "id": 2085588287, "lat": -36.820665, "lon": 174.8050314, "tags": {"bus": "yes", "highway": "bus_stop", "name": "Vauxhall Road Shops", "name:en": "Vauxhall Road Shops", "name:mi": "Ng\u0101 Toa o te Huarahi o Vauxhall", "network": "AT", "network:wikidata": "Q4819567", "operator": "Auckland Transport", "public_transport": "platform", "ref": "3457"}}, {"type": "node", "id": 2085588289, "lat": -36.8215894, "lon": 174.8048403, "tags": {"bus": "yes", "highway": "bus_stop", "name": "Vauxhall Road Shops", "name:en": "Vauxhall Road Shops", "name:mi": "Ng\u0101 Toa o te Huarahi o Vauxhall", "network": "AT", "network:wikidata": "Q4819567", "operator": "Auckland Transport", "public_transport": "platform", "ref": "3478"}}, {"type": "node", "id": 2085588297, "lat": -36.822842, "lon": 174.8042486, "tags": {"bench": "yes", "bin": "no", "bus": "yes", "description": "wooden", "highway": "bus_stop", "name": "Albert Road", "network": "AT", "network:wikidata": "Q4819567", "operator": "Auckland Transport", "public_transport": "platform", "ref": "3439", "shelter": "yes", "tactile_paving": "no"}}, {"type": "node", "id": 2085588300, "lat": -36.8231107, "lon": 174.8042961, "tags": {"access": "no", "bus": "yes", "highway": "bus_stop", "name": "Albert Road", "network": "AT", "network:wikidata": "Q4819567", "public_transport": "platform", "ref": "3480", "school_bus": "designated"}}, {"type": "node", "id": 2559441305, "lat": -36.8128885, "lon": 174.7801719, "tags": {"bus": "yes", "description": "glass", "highway": "bus_stop", "name": "Bayswater Park", "name:en": "Bayswater Park", "name:mi": "Te Papa R\u0113hia o Bayswater", "network": "AT", "network:wikidata": "Q4819567", "operator": "Auckland Transport", "public_transport": "platform", "ref": "3540", "shelter": "yes"}}, {"type": "node", "id": 2559441321, "lat": -36.8138745, "lon": 174.7780679, "tags": {"bus": "yes", "description": "glass", "highway": "bus_stop", "name": "Sandy Bay Road", "name:en": "Sandy Bay Road", "name:mi": "Te Huarahi o Sandy Bay", "network": "AT", "network:wikidata": "Q4819567", "operator": "Auckland Transport", "public_transport": "platform", "ref": "3538", "shelter": "yes"}}, {"type": "node", "id": 2611965119, "lat": -36.7694543, "lon": 174.7679901, "tags": {"bus": "yes", "highway": "bus_stop", "name": "Milford Park Place", "name:en": "Milford Park Place", "name:mi": "Te Aramutu o Milford Park", "network": "AT", "network:wikidata": "Q4819567", "public_transport": "platform", "ref": "3321"}}, {"type": "node", "id": 2611965175, "lat": -36.7724169, "lon": 174.7643938, "tags": {"bus": "yes", "highway": "bus_stop", "name": "Milford Shops", "name:en": "Milford Shops", "name:mi": "Ng\u0101 Toa o Milford", "network": "AT", "network:wikidata": "Q4819567", "public_transport": "platform", "ref": "3257"}}, {"type": "node", "id": 2611965214, "lat": -36.7738894, "lon": 174.7699982, "tags": {"bus": "yes", "highway": "bus_stop", "name": "Saltburn Road", "name:en": "Saltburn Road", "name:mi": "Te Huarahi o Saltburn", "network": "AT", "network:wikidata": "Q4819567", "public_transport": "platform", "ref": "3261"}}, {"type": "node", "id": 2611965221, "lat": -36.7738911, "lon": 174.7695743, "tags": {"bus": "yes", "highway": "bus_stop", "name": "Saltburn Road", "name:en": "Saltburn Road", "name:mi": "Te Huarahi o Saltburn", "network": "AT", "network:wikidata": "Q4819567", "public_transport": "platform", "ref": "3286"}}, {"type": "node", "id": 2611965228, "lat": -36.7744883, "lon": 174.7723209, "tags": {"bus": "yes", "highway": "bus_stop", "name": "Muritai Road", "name:en": "Muritai Road", "name:mi": "Te Huarahi o Muritai", "network": "AT", "network:wikidata": "Q4819567", "public_transport": "platform", "ref": "3263"}}, {"type": "node", "id": 2611965234, "lat": -36.774561, "lon": 174.7721207, "tags": {"bus": "yes", "highway": "bus_stop", "name": "Muritai Road", "name:en": "Muritai Road", "name:mi": "Te Huarahi o Muritai", "network": "AT", "network:wikidata": "Q4819567", "public_transport": "platform", "ref": "3288"}}, {"type": "node", "id": 2611965354, "lat": -36.7756869, "lon": 174.7747901, "tags": {"bus": "yes", "highway": "bus_stop", "name": "Eric Price Avenue", "name:en": "Eric Price Avenue", "name:mi": "Te Arah\u0101ngai o Eric Price", "network": "AT", "network:wikidata": "Q4819567", "public_transport": "platform", "ref": "3265"}}, {"type": "node", "id": 2611965360, "lat": -36.7756888, "lon": 174.7746368, "tags": {"bus": "yes", "highway": "bus_stop", "name": "Eric Price Avenue", "name:en": "Eric Price Avenue", "name:mi": "Te Arah\u0101ngai o Eric Price", "network": "AT", "network:wikidata": "Q4819567", "public_transport": "platform", "ref": "3290"}}, {"type": "node", "id": 2611965367, "lat": -36.7794187, "lon": 174.7747338, "tags": {"bus": "yes", "highway": "bus_stop", "name": "O'Neills Avenue", "name:en": "O'Neills Avenue", "name:mi": "Te Arah\u0101ngai o O'Neills", "network": "AT", "network:wikidata": "Q4819567", "public_transport": "platform", "ref": "3267"}}, {"type": "node", "id": 2611965374, "lat": -36.7792929, "lon": 174.7746346, "tags": {"bus": "yes", "highway": "bus_stop", "name": "O'Neills Avenue", "name:en": "O'Neills Avenue", "name:mi": "Te Arah\u0101ngai o O'Neills", "network": "AT", "network:wikidata": "Q4819567", "public_transport": "platform", "ref": "3292"}}, {"type": "node", "id": 2611965377, "lat": -36.7813902, "lon": 174.7742605, "tags": {"bench": "yes", "bin": "yes", "bus": "yes", "departures_board": "timetable", "highway": "bus_stop", "name": "Brett Avenue", "name:en": "Brett Avenue", "name:mi": "Te Arah\u0101ngai o Brett", "network": "AT", "network:wikidata": "Q4819567", "public_transport": "platform", "ref": "3269", "shelter": "yes"}}, {"type": "node", "id": 2611965380, "lat": -36.7854018, "lon": 174.7731534, "tags": {"bus": "yes", "highway": "bus_stop", "name": "Anzac Street", "name:en": "Anzac Street", "name:mi": "Te Tiriti o Anzac", "network": "AT", "network:wikidata": "Q4819567", "public_transport": "platform", "ref": "3298"}}, {"type": "node", "id": 2611965385, "lat": -36.78552, "lon": 174.773245, "tags": {"bus": "yes", "highway": "bus_stop", "name": "Anzac Street", "name:en": "Anzac Street", "name:mi": "Te Tiriti o Anzac", "network": "AT", "network:wikidata": "Q4819567", "public_transport": "platform", "ref": "3271"}}, {"type": "node", "id": 2611965464, "lat": -36.7938931, "lon": 174.7745784, "tags": {"bus": "yes", "highway": "bus_stop", "name": "Esmonde Road / Lake Road", "network": "AT", "network:wikidata": "Q4819567", "public_transport": "platform", "ref": "3486"}}, {"type": "node", "id": 2611965506, "lat": -36.7974943, "lon": 174.7801414, "tags": {"bus": "yes", "highway": "bus_stop", "name": "Bayview Road", "name:en": "Bayview Road", "name:mi": "Te Huarahi o Bayview", "network": "AT", "network:wikidata": "Q4819567", "public_transport": "platform", "ref": "3389", "shelter": "yes"}}, {"type": "node", "id": 2611965512, "lat": -36.7976417, "lon": 174.7805399, "tags": {"bus": "yes", "highway": "bus_stop", "name": "Bayview Road", "name:en": "Bayview Road", "name:mi": "Te Huarahi o Bayview", "network": "AT", "network:wikidata": "Q4819567", "public_transport": "platform", "ref": "3418", "shelter": "yes"}}, {"type": "node", "id": 2611965519, "lat": -36.7979067, "lon": 174.7786192, "tags": {"bench": "yes", "bin": "no", "bus": "yes", "highway": "bus_stop", "name": "Jutland Road / Lake Road", "name:en": "Jutland Road / Lake Road", "network": "AT", "network:wikidata": "Q4819567", "public_transport": "platform", "ref": "3562", "shelter": "yes", "tactile_paving": "no"}}, {"type": "node", "id": 2611965526, "lat": -36.7980719, "lon": 174.7841788, "tags": {"bus": "yes", "highway": "bus_stop", "name": "Clifton Road", "name:en": "Clifton Road", "name:mi": "Te Huarahi o Clifton", "network": "AT", "network:wikidata": "Q4819567", "public_transport": "platform", "ref": "3391", "shelter": "yes"}}, {"type": "node", "id": 2611965540, "lat": -36.7981084, "lon": 174.784986, "tags": {"bus": "yes", "highway": "bus_stop", "name": "Clifton Road", "name:en": "Clifton Road", "name:mi": "Te Huarahi o Clifton", "network": "AT", "network:wikidata": "Q4819567", "public_transport": "platform", "ref": "3420", "shelter": "yes"}}, {"type": "node", "id": 2611965547, "lat": -36.7995227, "lon": 174.7777774, "tags": {"bench": "no", "bin": "no", "bus": "yes", "highway": "bus_stop", "lit": "yes", "name": "Northboro Road / Jutland Road", "name:en": "Northboro Road / Jutland Road", "name:mi": "Te Huarahi o Northboro m\u0101 Te Huarahi o Jutland", "network": "AT", "network:wikidata": "Q4819567", "public_transport": "platform", "ref": "3560", "shelter": "no", "tactile_paving": "no", "wheelchair": "limited"}}, {"type": "node", "id": 2611965555, "lat": -36.7997033, "lon": 174.7779652, "tags": {"bench": "yes", "bin": "yes", "bus": "yes", "highway": "bus_stop", "lit": "yes", "name": "Northboro Road / Jutland Road", "name:en": "Northboro Road / Jutland Road", "name:mi": "Te Huarahi o Northboro m\u0101 Te Huarahi o Jutland", "network": "AT", "network:wikidata": "Q4819567", "public_transport": "platform", "ref": "3535", "shelter": "yes", "tactile_paving": "no"}}, {"type": "node", "id": 2611965562, "lat": -36.8008894, "lon": 174.780461, "tags": {"bench": "no", "bin": "no", "bus": "yes", "highway": "bus_stop", "lit": "yes", "name": "Birchfield Road", "name:en": "Birchfield Road", "name:mi": "Te Huarahi o Birchfield", "network": "AT", "network:wikidata": "Q4819567", "public_transport": "platform", "ref": "3558", "shelter": "no", "tactile_paving": "no", "wheelchair": "limited"}}, {"type": "node", "id": 2611965568, "lat": -36.8008135, "lon": 174.7801423, "tags": {"bench": "yes", "bin": "no", "bus": "yes", "highway": "bus_stop", "lit": "yes", "name": "Birchfield Road", "name:en": "Birchfield Road", "name:mi": "Te Huarahi o Birchfield", "network": "AT", "network:wikidata": "Q4819567", "public_transport": "platform", "ref": "3533", "shelter": "yes", "tactile_paving": "no"}}, {"type": "node", "id": 2611965585, "lat": -36.8127584, "lon": 174.7807696, "tags": {"bus": "yes", "description": "glass", "highway": "bus_stop", "name": "Bayswater Park", "name:en": "Bayswater Park", "name:mi": "Te Papa R\u0113hia o Bayswater", "network": "AT", "network:wikidata": "Q4819567", "operator": "Auckland Transport", "public_transport": "platform", "ref": "3517", "shelter": "yes"}}, {"type": "node", "id": 2611965592, "lat": -36.8143215, "lon": 174.7774089, "tags": {"bus": "yes", "highway": "bus_stop", "name": "Sandy Bay Road", "name:en": "Sandy Bay Road", "name:mi": "Te Huarahi o Sandy Bay", "network": "AT", "network:wikidata": "Q4819567", "operator": "Auckland Transport", "public_transport": "platform", "ref": "3513"}}, {"type": "node", "id": 2822327266, "lat": -36.8084308, "lon": 174.7542875, "tags": {"bus": "yes", "departures_board": "timetable", "highway": "bus_stop", "name": "Heath Avenue", "name:en": "Heath Avenue", "name:mi": "Te Arah\u0101ngai o Heath", "network": "AT", "network:wikidata": "Q4819567", "public_transport": "platform", "ref": "4044", "shelter": "no"}}, {"type": "node", "id": 2822327267, "lat": -36.8091369, "lon": 174.7544858, "tags": {"bus": "yes", "departures_board": "timetable", "highway": "bus_stop", "name": "Heath Avenue", "name:en": "Heath Avenue", "name:mi": "Te Arah\u0101ngai o Heath", "network": "AT", "network:wikidata": "Q4819567", "public_transport": "platform", "ref": "3917", "shelter": "no"}}, {"type": "node", "id": 2822348560, "lat": -36.7976239, "lon": 174.7555783, "tags": {"bench": "yes", "bin": "yes", "bus": "yes", "highway": "bus_stop", "name": "AUT North Shore Gate 1", "network": "AT", "network:wikidata": "Q4819567", "public_transport": "platform", "ref": "3931", "shelter": "yes"}}, {"type": "node", "id": 3263003857, "lat": -36.8102624, "lon": 174.7910037, "tags": {"bus": "yes", "description": "glass", "highway": "bus_stop", "name": "Montgomery Avenue", "name:en": "Montgomery Avenue", "name:mi": "Te Arah\u0101ngai o Montgomery", "network": "AT", "network:wikidata": "Q4819567", "operator": "Auckland Transport", "public_transport": "platform", "ref": "3399", "shelter": "yes"}}, {"type": "node", "id": 3263003859, "lat": -36.7945809, "lon": 174.7767286, "tags": {"bus": "yes", "highway": "bus_stop", "name": "Cameron Street", "name:en": "Cameron Street", "name:mi": "Te Tiriti o Cameron", "network": "AT", "network:wikidata": "Q4819567", "public_transport": "platform", "ref": "3416"}}, {"type": "node", "id": 3263003860, "lat": -36.794712, "lon": 174.7765678, "tags": {"bench": "yes", "bin": "no", "bus": "yes", "highway": "bus_stop", "lit": "yes", "name": "Cameron Street", "name:en": "Cameron Street", "name:mi": "Te Tiriti o Cameron", "network": "AT", "network:wikidata": "Q4819567", "public_transport": "platform", "ref": "3447", "shelter": "yes", "tactile_paving": "yes"}}, {"type": "node", "id": 3263007263, "lat": -36.7961958, "lon": 174.7777711, "tags": {"bus": "yes", "highway": "bus_stop", "name": "Hauraki Corner", "name:en": "Hauraki Corner", "name:mi": "Te Kokonga o Hauraki", "network": "AT", "network:wikidata": "Q4819567", "public_transport": "platform", "ref": "3387"}}, {"type": "node", "id": 3263007266, "lat": -36.799801, "lon": 174.7725838, "tags": {"bus": "yes", "highway": "bus_stop", "name": "Hart Road", "name:en": "Hart Road", "name:mi": "Te Huarahi o Hart", "network": "AT", "network:wikidata": "Q4819567", "public_transport": "platform", "ref": "3545"}}, {"type": "node", "id": 3263007269, "lat": -36.8003768, "lon": 174.786369, "tags": {"bus": "yes", "highway": "bus_stop", "name": "Wilson School", "name:en": "Wilson School", "name:mi": "Te Kura o Wilson", "network": "AT", "network:wikidata": "Q4819567", "public_transport": "platform", "ref": "3393", "shelter": "yes"}}, {"type": "node", "id": 3263007270, "lat": -36.8009094, "lon": 174.786769, "tags": {"bus": "yes", "capacity": "2", "highway": "bus_stop", "name": "Wilson School", "name:en": "Wilson School", "name:mi": "Te Kura o Wilson", "network": "AT", "network:wikidata": "Q4819567", "public_transport": "platform", "ref": "3422", "shelter": "yes"}}, {"type": "node", "id": 3263007272, "lat": -36.8009463, "lon": 174.7748378, "tags": {"bus": "yes", "highway": "bus_stop", "name": "Norman Road", "name:en": "Norman Road", "name:mi": "Te Huarahi o Norman", "network": "AT", "network:wikidata": "Q4819567", "public_transport": "platform", "ref": "3543"}}, {"type": "node", "id": 3263007273, "lat": -36.8012962, "lon": 174.7708617, "tags": {"bus": "yes", "highway": "bus_stop", "name": "Charles Street", "name:en": "Charles Street", "name:mi": "Te Tiriti o Charles", "network": "AT", "network:wikidata": "Q4819567", "public_transport": "platform", "ref": "3539"}}, {"type": "node", "id": 3263007279, "lat": -36.8019434, "lon": 174.7752892, "tags": {"bench": "no", "bin": "no", "bus": "yes", "highway": "bus_stop", "lit": "no", "name": "Sydney Street", "name:en": "Sydney Street", "name:mi": "Te Tiriti o Sydney", "network": "AT", "network:wikidata": "Q4819567", "public_transport": "platform", "ref": "3541", "shelter": "no", "tactile_paving": "no"}}, {"type": "node", "id": 3263007280, "lat": -36.8018929, "lon": 174.7872151, "tags": {"bus": "yes", "capacity": "3", "highway": "bus_stop", "name": "Takapuna Grammar School", "name:en": "Takapuna Grammar School", "name:mi": "Te Kura Tuarua o Takapuna", "network": "AT", "network:wikidata": "Q4819567", "public_transport": "platform", "ref": "3652", "shelter": "yes"}}, {"type": "node", "id": 3263007287, "lat": -36.8025056, "lon": 174.7836143, "tags": {"bench": "yes", "bin": "no", "bus": "yes", "highway": "bus_stop", "lit": "yes", "name": "Northboro Road / Eversleigh Road", "name:en": "Northboro Road / Eversleigh Road", "name:mi": "Te Huarahi o Northboro m\u0101 Te Huarahi o Eversleigh", "network": "AT", "network:wikidata": "Q4819567", "public_transport": "platform", "ref": "3556", "shelter": "yes", "tactile_paving": "yes"}}, {"type": "node", "id": 3263007288, "lat": -36.8026046, "lon": 174.7836072, "tags": {"bench": "yes", "bin": "yes", "bus": "yes", "highway": "bus_stop", "lit": "yes", "name": "Northboro Road / Eversleigh Road", "name:en": "Northboro Road / Eversleigh Road", "name:mi": "Te Huarahi o Northboro m\u0101 Te Huarahi o Eversleigh", "network": "AT", "network:wikidata": "Q4819567", "public_transport": "platform", "ref": "3531", "shelter": "yes", "tactile_paving": "yes"}}, {"type": "node", "id": 3263007289, "lat": -36.8026658, "lon": 174.7735294, "tags": {"bus": "yes", "highway": "bus_stop", "name": "Walter Street / Jutland Road", "name:en": "Walter Street / Jutland Road", "name:mi": "Te Tiriti o Walter m\u0101 Te Huarahi o Jutland", "network": "AT", "network:wikidata": "Q4819567", "public_transport": "platform", "ref": "3537"}}, {"type": "node", "id": 3263007295, "lat": -36.8036879, "lon": 174.7838396, "tags": {"bench": "yes", "bin": "yes", "bus": "yes", "highway": "bus_stop", "lit": "yes", "name": "Rutherford Street", "name:en": "Rutherford Street", "name:mi": "Te Tiriti o Rutherford", "network": "AT", "network:wikidata": "Q4819567", "public_transport": "platform", "ref": "3529", "shelter": "no", "tactile_paving": "no"}}, {"type": "node", "id": 3263007301, "lat": -36.804136, "lon": 174.783586, "tags": {"bench": "yes", "bin": "no", "bus": "yes", "highway": "bus_stop", "lit": "yes", "name": "Rutherford Street", "name:en": "Rutherford Street", "name:mi": "Te Tiriti o Rutherford", "network": "AT", "network:wikidata": "Q4819567", "public_transport": "platform", "ref": "3554", "shelter": "no", "tactile_paving": "no"}}, {"type": "node", "id": 3263007305, "lat": -36.8044315, "lon": 174.7882726, "tags": {"bus": "yes", "highway": "bus_stop", "name": "Belmont Intermediate School", "network": "AT", "network:wikidata": "Q4819567", "public_transport": "platform", "ref": "3395", "shelter": "yes"}}, {"type": "node", "id": 3263007309, "lat": -36.805298, "lon": 174.7830512, "tags": {"bus": "yes", "highway": "bus_stop", "name": "Creamer Avenue / Eversleigh Road", "name:en": "Creamer Avenue / Eversleigh Road", "name:mi": "Te Arah\u0101ngai o Creamer m\u0101 Te Huarahi o Eversleigh", "network": "AT", "network:wikidata": "Q4819567", "public_transport": "platform", "ref": "3552", "shelter": "no"}}, {"type": "node", "id": 3263007310, "lat": -36.8053337, "lon": 174.7880499, "tags": {"bus": "yes", "highway": "bus_stop", "name": "Bardia Street / Lake Road", "name:en": "Bardia Street / Lake Road", "network": "AT", "network:wikidata": "Q4819567", "public_transport": "platform", "ref": "3548"}}, {"type": "node", "id": 3263007311, "lat": -36.8053939, "lon": 174.7888717, "tags": {"bus": "yes", "highway": "bus_stop", "name": "Winscombe Street", "name:en": "Winscombe Street", "name:mi": "Te Tiriti o Winscombe", "network": "AT", "network:wikidata": "Q4819567", "public_transport": "platform", "ref": "3424", "shelter": "yes"}}, {"type": "node", "id": 3263007313, "lat": -36.8053907, "lon": 174.7830121, "tags": {"bus": "yes", "highway": "bus_stop", "name": "Creamer Avenue / Eversleigh Road", "name:en": "Creamer Avenue / Eversleigh Road", "name:mi": "Te Arah\u0101ngai o Creamer m\u0101 Te Huarahi o Eversleigh", "network": "AT", "network:wikidata": "Q4819567", "public_transport": "platform", "ref": "3525", "shelter": "yes"}}, {"type": "node", "id": 3263007315, "lat": -36.8058483, "lon": 174.7860343, "tags": {"bus": "yes", "highway": "bus_stop", "name": "Coronation Street", "name:en": "Coronation Street", "name:mi": "Te Tiriti o Coronation", "network": "AT", "network:wikidata": "Q4819567", "public_transport": "platform", "ref": "3527"}}, {"type": "node", "id": 3263007316, "lat": -36.8061018, "lon": 174.7854921, "tags": {"bus": "yes", "highway": "bus_stop", "name": "Coronation Street", "name:en": "Coronation Street", "name:mi": "Te Tiriti o Coronation", "network": "AT", "network:wikidata": "Q4819567", "public_transport": "platform", "ref": "3550"}}, {"type": "node", "id": 3263007318, "lat": -36.8066682, "lon": 174.7893215, "tags": {"bus": "yes", "highway": "bus_stop", "name": "Corella Road", "name:en": "Corella Road", "name:mi": "Te Huarahi o Corella", "network": "AT", "network:wikidata": "Q4819567", "note": "The name is misspelled by AT", "public_transport": "platform", "ref": "3397", "shelter": "yes"}}, {"type": "node", "id": 3263007320, "lat": -36.807104, "lon": 174.795591, "tags": {"access": "no", "bus": "yes", "highway": "bus_stop", "name": "Williamson Avenue", "name:en": "Williamson Avenue", "name:mi": "Te Arah\u0101ngai o Williamson", "network": "AT", "network:wikidata": "Q4819567", "public_transport": "platform", "ref": "3497", "school_bus": "designated"}}, {"type": "node", "id": 3263007333, "lat": -36.8085703, "lon": 174.7894536, "tags": {"bus": "yes", "highway": "bus_stop", "name": "Moana Avenue", "name:en": "Moana Avenue", "name:mi": "Te Arah\u0101ngai o Moana", "network": "AT", "network:wikidata": "Q4819567", "operator": "Auckland Transport", "public_transport": "platform", "ref": "3546", "shelter": "yes"}}, {"type": "node", "id": 3263007335, "lat": -36.8087428, "lon": 174.7894022, "tags": {"bus": "yes", "highway": "bus_stop", "name": "Moana Avenue", "name:en": "Moana Avenue", "name:mi": "Te Arah\u0101ngai o Moana", "network": "AT", "network:wikidata": "Q4819567", "operator": "Auckland Transport", "public_transport": "platform", "ref": "3523", "shelter": "yes"}}, {"type": "node", "id": 3263007338, "lat": -36.8097417, "lon": 174.7869375, "tags": {"bus": "yes", "description": "glass", "highway": "bus_stop", "name": "Preston Avenue", "name:en": "Preston Avenue", "name:mi": "Te Arah\u0101ngai o Preston", "network": "AT", "network:wikidata": "Q4819567", "operator": "Auckland Transport", "public_transport": "platform", "ref": "3544", "shelter": "yes"}}, {"type": "node", "id": 3263007339, "lat": -36.8099877, "lon": 174.7910224, "tags": {"bus": "yes", "highway": "bus_stop", "name": "Montgomery Avenue", "name:en": "Montgomery Avenue", "name:mi": "Te Arah\u0101ngai o Montgomery", "network": "AT", "network:wikidata": "Q4819567", "operator": "Auckland Transport", "public_transport": "platform", "ref": "3426", "shelter": "yes"}}, {"type": "node", "id": 3263007343, "lat": -36.8109355, "lon": 174.784376, "tags": {"bus": "yes", "description": "glass", "highway": "bus_stop", "name": "Leander Road", "name:en": "Leander Road", "name:mi": "Te Huarahi o Leander", "network": "AT", "network:wikidata": "Q4819567", "operator": "Auckland Transport", "public_transport": "platform", "ref": "3542", "shelter": "yes"}}, {"type": "node", "id": 3263007346, "lat": -36.8115358, "lon": 174.7834832, "tags": {"bus": "yes", "description": "glass", "highway": "bus_stop", "name": "Leander Road", "name:en": "Leander Road", "name:mi": "Te Huarahi o Leander", "network": "AT", "network:wikidata": "Q4819567", "operator": "Auckland Transport", "public_transport": "platform", "ref": "3519", "shelter": "yes"}}, {"type": "node", "id": 3263007348, "lat": -36.8121704, "lon": 174.7985064, "tags": {"bus": "yes", "description": "wooden", "highway": "bus_stop", "name": "Handley Avenue", "name:en": "Handley Avenue", "name:mi": "Te Arah\u0101ngai o Handley", "network": "AT", "network:wikidata": "Q4819567", "operator": "Auckland Transport", "public_transport": "platform", "ref": "3518", "shelter": "yes"}}, {"type": "node", "id": 3263007351, "lat": -36.8123115, "lon": 174.7977012, "tags": {"bus": "yes", "description": "glass", "highway": "bus_stop", "name": "Merani Street", "name:en": "Merani Street", "name:mi": "Te Tiriti o Merani", "network": "AT", "network:wikidata": "Q4819567", "operator": "Auckland Transport", "public_transport": "platform", "ref": "3487", "shelter": "yes"}}, {"type": "node", "id": 3263007352, "lat": -36.8124277, "lon": 174.7951582, "tags": {"bus": "yes", "highway": "bus_stop", "name": "Wicklow Road", "name:en": "Wicklow Road", "name:mi": "Te Huarahi o Wicklow", "network": "AT", "network:wikidata": "Q4819567", "operator": "Auckland Transport", "public_transport": "platform", "ref": "3514", "shelter": "no"}}, {"type": "node", "id": 3263007353, "lat": -36.8125087, "lon": 174.7952192, "tags": {"bus": "yes", "highway": "bus_stop", "name": "Wicklow Road", "name:en": "Wicklow Road", "name:mi": "Te Huarahi o Wicklow", "network": "AT", "network:wikidata": "Q4819567", "operator": "Auckland Transport", "public_transport": "platform", "ref": "3483", "shelter": "no"}}, {"type": "node", "id": 3263007354, "lat": -36.8126078, "lon": 174.7929314, "tags": {"bus": "yes", "description": "wooden", "highway": "bus_stop", "name": "Old Lake Road / Fraser Road", "name:en": "Old Lake Road / Fraser Road", "name:mi": "Te Huarahi o Old Lake m\u0101 Te Huarahi o Fraser", "network": "AT", "network:wikidata": "Q4819567", "operator": "Auckland Transport", "public_transport": "platform", "ref": "3512", "shelter": "yes"}}, {"type": "node", "id": 3263007355, "lat": -36.8125501, "lon": 174.8009473, "tags": {"back_door_boarding": "no", "bus": "yes", "highway": "bus_stop", "name": "Narrow Neck Beach", "network": "AT", "network:wikidata": "Q4819567", "operator": "Auckland Transport", "public_transport": "platform", "ref": "3520", "shelter": "yes"}}, {"type": "node", "id": 3263007356, "lat": -36.8126928, "lon": 174.7928456, "tags": {"bus": "yes", "description": "wooden", "highway": "bus_stop", "name": "Old Lake Road / Fraser Road", "name:en": "Old Lake Road / Fraser Road", "name:mi": "Te Huarahi o Old Lake m\u0101 Te Huarahi o Fraser", "network": "AT", "network:wikidata": "Q4819567", "operator": "Auckland Transport", "public_transport": "platform", "ref": "3481", "shelter": "yes"}}, {"type": "node", "id": 3263007359, "lat": -36.8131496, "lon": 174.7923453, "tags": {"bus": "yes", "highway": "bus_stop", "name": "Kawerau Avenue", "network": "AT", "network:wikidata": "Q4819567", "operator": "Auckland Transport", "public_transport": "platform", "ref": "3401", "shelter": "yes"}}, {"type": "node", "id": 3263007362, "lat": -36.8133432, "lon": 174.7926138, "tags": {"bus": "yes", "highway": "bus_stop", "name": "Kawerau Avenue", "network": "AT", "network:wikidata": "Q4819567", "operator": "Auckland Transport", "public_transport": "platform", "ref": "3428"}}, {"type": "node", "id": 3263007364, "lat": -36.8135067, "lon": 174.8012905, "tags": {"bus": "yes", "highway": "bus_stop", "name": "Narrow Neck Beach", "network": "AT", "network:wikidata": "Q4819567", "operator": "Auckland Transport", "public_transport": "platform", "ref": "3489", "shelter": "yes"}}, {"type": "node", "id": 3263007365, "lat": -36.8142477, "lon": 174.7905571, "tags": {"bus": "yes", "highway": "bus_stop", "name": "17 Kawerau Avenue", "name:en": "17 Kawerau Avenue", "name:mi": "17 ki te Arah\u0101ngai o Kawerau", "network": "AT", "network:wikidata": "Q4819567", "operator": "Auckland Transport", "public_transport": "platform", "ref": "3479"}}, {"type": "node", "id": 3263007366, "lat": -36.8152205, "lon": 174.773657, "tags": {"bus": "yes", "description": "glass", "highway": "bus_stop", "name": "Balfour Street", "name:en": "Balfour Street", "name:mi": "Te Tiriti o Balfour", "network": "AT", "network:wikidata": "Q4819567", "operator": "Auckland Transport", "public_transport": "platform", "ref": "3536", "shelter": "yes"}}, {"type": "node", "id": 3263007367, "lat": -36.815221, "lon": 174.7742967, "tags": {"bus": "yes", "highway": "bus_stop", "name": "Balfour Street", "name:en": "Balfour Street", "name:mi": "Te Tiriti o Balfour", "network": "AT", "network:wikidata": "Q4819567", "operator": "Auckland Transport", "public_transport": "platform", "ref": "3511"}}, {"type": "node", "id": 3263007368, "lat": -36.8155995, "lon": 174.7902141, "tags": {"bus": "yes", "highway": "bus_stop", "name": "Regent Street", "name:en": "Regent Street", "name:mi": "Te Tiriti o Regent", "network": "AT", "network:wikidata": "Q4819567", "operator": "Auckland Transport", "public_transport": "platform", "ref": "3510"}}, {"type": "node", "id": 3263007369, "lat": -36.8156303, "lon": 174.7715373, "tags": {"bus": "yes", "description": "glass", "highway": "bus_stop", "name": "Lansdowne Street", "name:en": "Lansdowne Street", "name:mi": "Te Tiriti o Lansdowne", "network": "AT", "network:wikidata": "Q4819567", "operator": "Auckland Transport", "public_transport": "platform", "ref": "3534", "shelter": "yes"}}, {"type": "node", "id": 3263007370, "lat": -36.8156392, "lon": 174.7904088, "tags": {"bus": "yes", "highway": "bus_stop", "name": "Regent Street", "name:en": "Regent Street", "name:mi": "Te Tiriti o Regent", "network": "AT", "network:wikidata": "Q4819567", "operator": "Auckland Transport", "public_transport": "platform", "ref": "3477"}}, {"type": "node", "id": 3263007371, "lat": -36.8157615, "lon": 174.7937561, "tags": {"access": "no", "bus": "yes", "description": "wooden", "highway": "bus_stop", "name": "Ng\u0101taringa Road", "name:en": "Ng\u0101taringa Road", "name:mi": "Te Huarahi o Ng\u0101taringa", "network": "AT", "network:wikidata": "Q4819567", "public_transport": "platform", "ref": "3430", "school_bus": "designated", "shelter": "yes"}}, {"type": "node", "id": 3263007372, "lat": -36.8159929, "lon": 174.7703075, "tags": {"bus": "yes", "highway": "bus_stop", "name": "O'Neill's Park", "name:en": "O'Neill's Park", "name:mi": "Te Papa R\u0113hia o O'Neill", "network": "AT", "network:wikidata": "Q4819567", "operator": "Auckland Transport", "public_transport": "platform", "ref": "3507"}}, {"type": "node", "id": 3263007374, "lat": -36.8160316, "lon": 174.769447, "tags": {"bus": "yes", "highway": "bus_stop", "name": "O'Neill's Park", "name:en": "O'Neill's Park", "name:mi": "Te Papa R\u0113hia o O'Neill", "network": "AT", "network:wikidata": "Q4819567", "operator": "Auckland Transport", "public_transport": "platform", "ref": "3532", "shelter": "yes"}}, {"type": "node", "id": 3263007376, "lat": -36.8166053, "lon": 174.7891645, "tags": {"bus": "yes", "description": "wooden", "highway": "bus_stop", "name": "Wesley Street", "name:en": "Wesley Street", "name:mi": "Te Tiriti o Wesley", "network": "AT", "network:wikidata": "Q4819567", "operator": "Auckland Transport", "public_transport": "platform", "ref": "3508", "shelter": "yes"}}, {"type": "node", "id": 3263007377, "lat": -36.8166637, "lon": 174.7911496, "tags": {"bus": "yes", "highway": "bus_stop", "name": "William Sanders Retirement Village", "network": "AT", "network:wikidata": "Q4819567", "operator": "Auckland Transport", "public_transport": "platform", "ref": "3506"}}, {"type": "node", "id": 3263007378, "lat": -36.8167715, "lon": 174.7891185, "tags": {"back_door_boarding": "no", "bus": "yes", "highway": "bus_stop", "name": "Wesley Street", "name:en": "Wesley Street", "name:mi": "Te Tiriti o Wesley", "network": "AT", "network:wikidata": "Q4819567", "operator": "Auckland Transport", "public_transport": "platform", "ref": "3475"}}, {"type": "node", "id": 3263007379, "lat": -36.8168397, "lon": 174.7908895, "tags": {"bus": "yes", "highway": "bus_stop", "name": "William Sanders Retirement Village", "network": "AT", "network:wikidata": "Q4819567", "operator": "Auckland Transport", "public_transport": "platform", "ref": "3473", "wheelchair": "no"}}, {"type": "node", "id": 3263007381, "lat": -36.8209883, "lon": 174.7672423, "tags": {"bus": "yes", "highway": "bus_stop", "name": "Bayswater Terminal", "network": "AT", "network:wikidata": "Q4819567", "note": "no wheelchair access - bus door opens on the wrong side, onto the road", "operator": "Auckland Transport", "public_transport": "platform", "ref": "3530", "wheelchair": "no"}}, {"type": "node", "id": 3263007384, "lat": -36.8212768, "lon": 174.8053816, "tags": {"bus": "yes", "highway": "bus_stop", "name": "Vauxhall Road", "name:en": "Vauxhall Road", "name:mi": "Te Huarahi o Vauxhall", "network": "AT", "network:wikidata": "Q4819567", "operator": "Auckland Transport", "public_transport": "platform", "ref": "3476"}}, {"type": "node", "id": 3263007386, "lat": -36.8223465, "lon": 174.7972123, "tags": {"bus": "yes", "description": "glass", "highway": "bus_stop", "name": "Mozeley Avenue", "name:en": "Mozeley Avenue", "name:mi": "Te Arah\u0101ngai o Mozeley", "network": "AT", "network:wikidata": "Q4819567", "operator": "Auckland Transport", "public_transport": "platform", "ref": "3403", "shelter": "yes"}}, {"type": "node", "id": 3263007387, "lat": -36.8226116, "lon": 174.8039662, "tags": {"bus": "yes", "highway": "bus_stop", "name": "Cambria Road", "name:en": "Cambria Road", "name:mi": "Te Huarahi o Cambria", "network": "AT", "network:wikidata": "Q4819567", "operator": "Auckland Transport", "public_transport": "platform", "ref": "3465"}}, {"type": "node", "id": 3263007388, "lat": -36.8228944, "lon": 174.7976266, "tags": {"bus": "yes", "description": "wooden", "highway": "bus_stop", "name": "Mozeley Avenue", "name:en": "Mozeley Avenue", "name:mi": "Te Arah\u0101ngai o Mozeley", "network": "AT", "network:wikidata": "Q4819567", "operator": "Auckland Transport", "public_transport": "platform", "ref": "3432", "shelter": "yes"}}, {"type": "node", "id": 3263007389, "lat": -36.8228719, "lon": 174.8031228, "tags": {"bus": "yes", "highway": "bus_stop", "name": "Cambria Road", "name:en": "Cambria Road", "name:mi": "Te Huarahi o Cambria", "network": "AT", "network:wikidata": "Q4819567", "operator": "Auckland Transport", "public_transport": "platform", "ref": "3500"}}, {"type": "node", "id": 3263007390, "lat": -36.8229486, "lon": 174.8060146, "tags": {"access": "no", "bus": "yes", "highway": "bus_stop", "name": "Mata\u012b Road", "name:en": "Mata\u012b Road", "name:mi": "Te Huarahi o Mata\u012b", "network": "AT", "network:wikidata": "Q4819567", "public_transport": "platform", "ref": "3437", "school_bus": "designated"}}, {"type": "node", "id": 3263007392, "lat": -36.8235404, "lon": 174.8063279, "tags": {"bus": "yes", "highway": "bus_stop", "name": "Mata\u012b Road", "name:en": "Mata\u012b Road", "name:mi": "Te Huarahi o Mata\u012b", "network": "AT", "network:wikidata": "Q4819567", "operator": "Auckland Transport", "public_transport": "platform", "ref": "3474"}}, {"type": "node", "id": 3263007394, "lat": -36.8236755, "lon": 174.8012125, "tags": {"bus": "yes", "highway": "bus_stop", "name": "Church Street", "name:en": "Church Street", "name:mi": "Te Tiriti o Church", "network": "AT", "network:wikidata": "Q4819567", "note": "AT has a typo in this station's name", "official_name": "Church Sreet", "operator": "Auckland Transport", "public_transport": "platform", "ref": "3467", "wheelchair": "no"}}, {"type": "node", "id": 3263007395, "lat": -36.8241285, "lon": 174.8004907, "tags": {"bus": "yes", "highway": "bus_stop", "name": "Church Street", "name:en": "Church Street", "name:mi": "Te Tiriti o Church", "network": "AT", "network:wikidata": "Q4819567", "note": "AT has a typo in this station's name", "official_name": "Church Sreet", "operator": "Auckland Transport", "public_transport": "platform", "ref": "3502", "shelter": "yes"}}, {"type": "node", "id": 3263007396, "lat": -36.824494, "lon": 174.7992865, "tags": {"bus": "yes", "highway": "bus_stop", "name": "Albert Road / Lake Road", "name:en": "Albert Road / Lake Road", "name:mi": "Te Huarahi o Albert m\u0101 Te Huarahi o Lake", "network": "AT", "network:wikidata": "Q4819567", "operator": "Auckland Transport", "public_transport": "platform", "ref": "3469"}}, {"type": "node", "id": 3263007397, "lat": -36.8247937, "lon": 174.8070771, "tags": {"access": "no", "bus": "yes", "highway": "bus_stop", "name": "Eton Avenue", "name:en": "Eton Avenue", "name:mi": "Te Arah\u0101ngai o Eton", "network": "AT", "network:wikidata": "Q4819567", "public_transport": "platform", "ref": "3435", "school_bus": "designated"}}, {"type": "node", "id": 3263007398, "lat": -36.8250284, "lon": 174.8075049, "tags": {"bus": "yes", "highway": "bus_stop", "name": "Eton Avenue", "name:en": "Eton Avenue", "name:mi": "Te Arah\u0101ngai o Eton", "network": "AT", "network:wikidata": "Q4819567", "operator": "Auckland Transport", "public_transport": "platform", "ref": "3472"}}, {"type": "node", "id": 3311139575, "lat": -36.7919335, "lon": 174.7710828, "tags": {"bench": "yes", "bin": "no", "bus": "yes", "highway": "bus_stop", "name": "Burns Avenue / Bracken Avenue", "name:en": "Burns Avenue / Bracken Avenue", "name:mi": "Te Arah\u0101ngai o Burns m\u0101 Te Arah\u0101ngai o Bracken", "network": "AT", "network:wikidata": "Q4819567", "public_transport": "platform", "ref": "3566", "shelter": "yes", "tactile_paving": "no"}}, {"type": "node", "id": 3311141905, "lat": -36.7917167, "lon": 174.7707245, "tags": {"bench": "no", "bin": "no", "bus": "yes", "highway": "bus_stop", "name": "Burns Avenue / Bracken Avenue", "name:en": "Burns Avenue / Bracken Avenue", "name:mi": "Te Arah\u0101ngai o Burns m\u0101 Te Arah\u0101ngai o Bracken", "network": "AT", "network:wikidata": "Q4819567", "public_transport": "platform", "ref": "3547", "shelter": "no", "tactile_paving": "no"}}, {"type": "node", "id": 3311141917, "lat": -36.793856, "lon": 174.7724498, "tags": {"bench": "yes", "bus": "yes", "highway": "bus_stop", "name": "Esmonde Road", "name:en": "Esmonde Road", "name:mi": "Te Huarahi o Esmonde", "network": "AT", "network:wikidata": "Q4819567", "public_transport": "platform", "ref": "3515", "shelter": "yes"}}, {"type": "node", "id": 3311141919, "lat": -36.7940043, "lon": 174.7727381, "tags": {"bench": "yes", "bin": "yes", "bus": "yes", "highway": "bus_stop", "name": "Esmonde Road", "name:en": "Esmonde Road", "name:mi": "Te Huarahi o Esmonde", "network": "AT", "network:wikidata": "Q4819567", "public_transport": "platform", "ref": "3564", "shelter": "yes"}}, {"type": "node", "id": 3311460164, "lat": -36.7919505, "lon": 174.774598, "tags": {"bench": "yes", "bin": "yes", "bus": "yes", "highway": "bus_stop", "name": "Takapuna Methodist Church", "name:en": "Takapuna Methodist Church", "network": "AT", "network:wikidata": "Q4819567", "public_transport": "platform", "ref": "3414", "shelter": "yes"}}, {"type": "node", "id": 3311667950, "lat": -36.7924178, "lon": 174.7631253, "tags": {"bus": "yes", "highway": "bus_stop", "name": "Des Swann Drive", "name:en": "Des Swann Drive", "name:mi": "Te Ara \u0100whio o Des Swann", "network": "AT", "network:wikidata": "Q4819567", "public_transport": "platform", "ref": "4313"}}, {"type": "node", "id": 3311725128, "lat": -36.792774, "lon": 174.7633062, "tags": {"bus": "yes", "highway": "bus_stop", "name": "Des Swann Drive", "name:en": "Des Swann Drive", "name:mi": "Te Ara \u0100whio o Des Swann", "network": "AT", "network:wikidata": "Q4819567", "public_transport": "platform", "ref": "4448"}}, {"type": "node", "id": 3312046778, "lat": -36.7877294, "lon": 174.7709864}, {"type": "node", "id": 3312046779, "lat": -36.7877326, "lon": 174.7711825}, {"type": "node", "id": 3312046780, "lat": -36.7878405, "lon": 174.7712627}, {"type": "node", "id": 3312046781, "lat": -36.7878367, "lon": 174.7710775}, {"type": "node", "id": 3312046782, "lat": -36.7878291, "lon": 174.771222}, {"type": "node", "id": 3312046784, "lat": -36.7882408, "lon": 174.7716885}, {"type": "node", "id": 3313342247, "lat": -36.7879047, "lon": 174.771409}, {"type": "node", "id": 3313342249, "lat": -36.7882171, "lon": 174.7716616}, {"type": "node", "id": 3313342250, "lat": -36.7882367, "lon": 174.7716237}, {"type": "node", "id": 3313343139, "lat": -36.788057, "lon": 174.7712838}, {"type": "node", "id": 3313343140, "lat": -36.7880748, "lon": 174.7712497}, {"type": "node", "id": 3313343141, "lat": -36.7881234, "lon": 174.7713377}, {"type": "node", "id": 3313343142, "lat": -36.7881411, "lon": 174.7713036}, {"type": "node", "id": 3313343143, "lat": -36.7881763, "lon": 174.7713835}, {"type": "node", "id": 3313343144, "lat": -36.7881963, "lon": 174.7713443}, {"type": "node", "id": 3313343145, "lat": -36.7882463, "lon": 174.7714394}, {"type": "node", "id": 3313343146, "lat": -36.7882664, "lon": 174.7714002}, {"type": "node", "id": 3313862347, "lat": -36.7883776, "lon": 174.7716928}, {"type": "node", "id": 3466978114, "lat": -36.812733, "lon": 174.780853}, {"type": "node", "id": 3466978125, "lat": -36.812745, "lon": 174.780861}, {"type": "node", "id": 3466978131, "lat": -36.81275, "lon": 174.780815}, {"type": "node", "id": 3466978146, "lat": -36.812762, "lon": 174.780824}, {"type": "node", "id": 3466978475, "lat": -36.813878, "lon": 174.778013}, {"type": "node", "id": 3466978481, "lat": -36.81388, "lon": 174.777979}, {"type": "node", "id": 3466979673, "lat": -36.813868, "lon": 174.778006}, {"type": "node", "id": 3466979698, "lat": -36.813891, "lon": 174.777987}, {"type": "node", "id": 3466980484, "lat": -36.814316, "lon": 174.777453}, {"type": "node", "id": 3466980508, "lat": -36.814328, "lon": 174.777461}, {"type": "node", "id": 3466980522, "lat": -36.814333, "lon": 174.777417}, {"type": "node", "id": 3466980544, "lat": -36.814344, "lon": 174.777425}, {"type": "node", "id": 3466982304, "lat": -36.815197, "lon": 174.7736439}, {"type": "node", "id": 3466982322, "lat": -36.815204, "lon": 174.7736009}, {"type": "node", "id": 3466982331, "lat": -36.815208, "lon": 174.7736469}, {"type": "node", "id": 3466982348, "lat": -36.815215, "lon": 174.7736049}, {"type": "node", "id": 3466983727, "lat": -36.816023, "lon": 174.7693755}, {"type": "node", "id": 3466983732, "lat": -36.8160299, "lon": 174.7693312}, {"type": "node", "id": 3466983747, "lat": -36.8160353, "lon": 174.7693784}, {"type": "node", "id": 3466983758, "lat": -36.8160422, "lon": 174.7693342}, {"type": "node", "id": 3468573436, "lat": -36.8097327, "lon": 174.7868977}, {"type": "node", "id": 3468573454, "lat": -36.8097447, "lon": 174.7869057}, {"type": "node", "id": 3468573457, "lat": -36.8097497, "lon": 174.7868607}, {"type": "node", "id": 3468573471, "lat": -36.8097617, "lon": 174.7868687}, {"type": "node", "id": 3470974040, "lat": -36.8008944, "lon": 174.7802191}, {"type": "node", "id": 3470974041, "lat": -36.8008944, "lon": 174.7802611}, {"type": "node", "id": 3470974075, "lat": -36.8009094, "lon": 174.7802481}, {"type": "node", "id": 3470974579, "lat": -36.8008794, "lon": 174.7802321}, {"type": "node", "id": 3571719299, "lat": -36.7733794, "lon": 174.7676212, "tags": {"bus": "yes", "highway": "bus_stop", "name": "Milford Road", "name:en": "Milford Road", "name:mi": "Te Huarahi o Milford", "network": "AT", "network:wikidata": "Q4819567", "public_transport": "platform", "ref": "3284"}}, {"type": "node", "id": 3593838571, "lat": -36.7411382, "lon": 174.7556718, "tags": {"bus": "yes", "highway": "bus_stop", "name": "K\u014dwhai Road", "name:en": "K\u014dwhai Road", "name:mi": "Te Huarahi o K\u014dwhai", "network": "AT", "network:wikidata": "Q4819567", "public_transport": "platform", "ref": "3141", "shelter": "yes"}}, {"type": "node", "id": 3593838573, "lat": -36.7413237, "lon": 174.7553172, "tags": {"bus": "yes", "highway": "bus_stop", "name": "K\u014dwhai Road", "name:en": "K\u014dwhai Road", "name:mi": "Te Huarahi o K\u014dwhai", "network": "AT", "network:wikidata": "Q4819567", "public_transport": "platform", "ref": "3160", "shelter": "yes"}}, {"type": "node", "id": 3593838579, "lat": -36.7423588, "lon": 174.7572573, "tags": {"bus": "yes", "highway": "bus_stop", "name": "View Road", "name:en": "View Road", "name:mi": "Te Huarahi o View", "network": "AT", "network:wikidata": "Q4819567", "public_transport": "platform", "ref": "3231", "shelter": "yes"}}, {"type": "node", "id": 3593838584, "lat": -36.7426753, "lon": 174.7568136, "tags": {"bus": "yes", "highway": "bus_stop", "name": "View Road", "name:en": "View Road", "name:mi": "Te Huarahi o View", "network": "AT", "network:wikidata": "Q4819567", "public_transport": "platform", "ref": "3260", "shelter": "yes"}}, {"type": "node", "id": 3593838591, "lat": -36.744125, "lon": 174.7569626, "tags": {"bus": "yes", "highway": "bus_stop", "name": "Channel View Road", "name:en": "Channel View Road", "name:mi": "Te Huarahi o Channel View", "network": "AT", "network:wikidata": "Q4819567", "public_transport": "platform", "ref": "3250", "shelter": "no"}}, {"type": "node", "id": 3593838593, "lat": -36.7449556, "lon": 174.7580676, "tags": {"bus": "yes", "highway": "bus_stop", "name": "Saint John's Anglican Church", "network": "AT", "network:wikidata": "Q4819567", "official_name": "St John's Anglican Church", "public_transport": "platform", "ref": "3233", "shelter": "yes"}}, {"type": "node", "id": 3593838595, "lat": -36.745836, "lon": 174.7605173, "tags": {"bus": "yes", "highway": "bus_stop", "name": "The Espalande", "network": "AT", "network:wikidata": "Q4819567", "public_transport": "platform", "ref": "3235", "shelter": "yes"}}, {"type": "node", "id": 3593838598, "lat": -36.7458999, "lon": 174.7591542, "tags": {"bus": "yes", "highway": "bus_stop", "name": "The Espalande", "network": "AT", "network:wikidata": "Q4819567", "public_transport": "platform", "ref": "3247", "shelter": "yes"}}, {"type": "node", "id": 3593838608, "lat": -36.747303, "lon": 174.7615179, "tags": {"bus": "yes", "highway": "bus_stop", "name": "Park Rise", "network": "AT", "network:wikidata": "Q4819567", "public_transport": "platform", "ref": "3252", "shelter": "yes"}}, {"type": "node", "id": 3593838617, "lat": -36.7476765, "lon": 174.7619161, "tags": {"bus": "yes", "highway": "bus_stop", "name": "Park Rise", "network": "AT", "network:wikidata": "Q4819567", "public_transport": "platform", "ref": "3243", "shelter": "yes"}}, {"type": "node", "id": 3593838626, "lat": -36.7494691, "lon": 174.7628218, "tags": {"bus": "yes", "highway": "bus_stop", "name": "Red Bluff Road", "name:en": "Red Bluff Road", "name:mi": "Te Huarahi o Red Bluff", "network": "AT", "network:wikidata": "Q4819567", "note": "The name OTG is actually Red Bluff Road and not Red Bluff Rise as it should", "public_transport": "platform", "ref": "3256", "shelter": "yes"}}, {"type": "node", "id": 3593838628, "lat": -36.750208, "lon": 174.7632471, "tags": {"bus": "yes", "highway": "bus_stop", "name": "Red Bluff Road", "name:en": "Red Bluff Road", "name:mi": "Te Huarahi o Red Bluff", "network": "AT", "network:wikidata": "Q4819567", "note": "The name OTG is actually Red Bluff Road and not Red Bluff Rise as it should", "public_transport": "platform", "ref": "3258", "shelter": "yes"}}, {"type": "node", "id": 3593838638, "lat": -36.7517689, "lon": 174.7628344, "tags": {"bus": "yes", "highway": "bus_stop", "name": "Aberdeen Road", "name:en": "Aberdeen Road", "name:mi": "Te Huarahi o Aberdeen", "network": "AT", "network:wikidata": "Q4819567", "public_transport": "platform", "ref": "3245", "shelter": "yes"}}, {"type": "node", "id": 3593838652, "lat": -36.7529453, "lon": 174.7619673, "tags": {"bus": "yes", "highway": "bus_stop", "name": "Beach Road", "name:en": "Beach Road", "name:mi": "Te Huarahi o Beach", "network": "AT", "network:wikidata": "Q4819567", "public_transport": "platform", "ref": "4239"}}, {"type": "node", "id": 3593838653, "lat": -36.753015, "lon": 174.7627235, "tags": {"bus": "yes", "highway": "bus_stop", "name": "Aberdeen Road", "name:en": "Aberdeen Road", "name:mi": "Te Huarahi o Aberdeen", "network": "AT", "network:wikidata": "Q4819567", "public_transport": "platform", "ref": "3311"}}, {"type": "node", "id": 3593838655, "lat": -36.7534781, "lon": 174.7605119, "tags": {"bus": "yes", "highway": "bus_stop", "name": "Campbells Bay School", "name:en": "Campbells Bay School", "name:mi": "Te Kura o Campbells Bay", "network": "AT", "network:wikidata": "Q4819567", "public_transport": "platform", "ref": "3262"}}, {"type": "node", "id": 3593838666, "lat": -36.7545911, "lon": 174.7591157, "tags": {"bus": "yes", "highway": "bus_stop", "name": "Campbells Bay School", "name:en": "Campbells Bay School", "name:mi": "Te Kura o Campbells Bay", "network": "AT", "network:wikidata": "Q4819567", "public_transport": "platform", "ref": "3249", "shelter": "yes"}}, {"type": "node", "id": 3593838672, "lat": -36.755533, "lon": 174.7578035, "tags": {"bus": "yes", "highway": "bus_stop", "name": "60 Aberdeen Road", "name:en": "60 Aberdeen Road", "name:mi": "60 ki te Huarahi o Aberdeen", "network": "AT", "network:wikidata": "Q4819567", "public_transport": "platform", "ref": "3264", "shelter": "yes"}}, {"type": "node", "id": 3593838676, "lat": -36.7561417, "lon": 174.7573067, "tags": {"bus": "yes", "highway": "bus_stop", "name": "45 Aberdeen Road", "name:en": "45 Aberdeen Road", "name:mi": "45 ki te Huarahi o Aberdeen", "network": "AT", "network:wikidata": "Q4819567", "public_transport": "platform", "ref": "3251", "shelter": "yes"}}, {"type": "node", "id": 3610348544, "lat": -36.7849992, "lon": 174.7568812, "tags": {"bench": "yes", "bin": "no", "bus": "yes", "highway": "bus_stop", "name": "Taharoto Road", "network": "AT", "network:wikidata": "Q4819567", "public_transport": "platform", "ref": "3867", "shelter": "yes"}}, {"type": "node", "id": 3610458264, "lat": -36.7654167, "lon": 174.7649107, "tags": {"bench": "yes", "bin": "yes", "bus": "yes", "highway": "bus_stop", "lit": "yes", "name": "Commodore Parry Road", "name:en": "Commodore Parry Road", "name:mi": "Te Huarahi o Commodore Parry", "network": "AT", "network:wikidata": "Q4819567", "public_transport": "platform", "ref": "3348", "shelter": "yes", "tactile_paving": "no"}}, {"type": "node", "id": 3610458265, "lat": -36.7656434, "lon": 174.764956, "tags": {"bench": "yes", "bin": "no", "bus": "yes", "highway": "bus_stop", "lit": "yes", "name": "Commodore Parry Road", "name:en": "Commodore Parry Road", "name:mi": "Te Huarahi o Commodore Parry", "network": "AT", "network:wikidata": "Q4819567", "public_transport": "platform", "ref": "3319", "shelter": "yes", "tactile_paving": "no"}}, {"type": "node", "id": 3610458272, "lat": -36.7911489, "lon": 174.7589065, "tags": {"bus": "yes", "highway": "bus_stop", "name": "Rosmini College", "name:en": "Rosmini College", "network": "AT", "network:wikidata": "Q4819567", "public_transport": "platform", "ref": "4438"}}, {"type": "node", "id": 3610458274, "lat": -36.7547188, "lon": 174.7640329, "tags": {"bus": "yes", "highway": "bus_stop", "name": "Kennedy Park", "name:en": "Kennedy Park", "name:mi": "Te Papa R\u0113hia o Kennedy", "network": "AT", "network:wikidata": "Q4819567", "public_transport": "platform", "ref": "3313"}}, {"type": "node", "id": 3610458278, "lat": -36.757772, "lon": 174.7666703, "tags": {"bus": "yes", "highway": "bus_stop", "name": "Castor Bay Road", "name:en": "Castor Bay Road", "name:mi": "Te Huarahi o Castor Bay", "public_transport": "platform", "ref": "3342"}}, {"type": "node", "id": 3610458281, "lat": -36.7586084, "lon": 174.7673023, "tags": {"bus": "yes", "highway": "bus_stop", "name": "Castor Bay Beach", "name:en": "Castor Bay Beach", "name:mi": "Te Takutai o Castor Bay", "network": "AT", "network:wikidata": "Q4819567", "public_transport": "platform", "ref": "3315"}}, {"type": "node", "id": 3610458285, "lat": -36.7587981, "lon": 174.7558869, "tags": {"bus": "yes", "highway": "bus_stop", "name": "Kenmure Avenue", "name:en": "Kenmure Avenue", "name:mi": "Te Arah\u0101ngai o Kenmure", "network": "AT", "network:wikidata": "Q4819567", "public_transport": "platform", "ref": "3270"}}, {"type": "node", "id": 3610458290, "lat": -36.7605531, "lon": 174.7656036, "tags": {"bus": "yes", "highway": "bus_stop", "name": "56 Beach Road", "name:en": "56 Beach Road", "network": "AT", "network:wikidata": "Q4819567", "public_transport": "platform", "ref": "3344", "wheelchair": "no"}}, {"type": "node", "id": 3610458301, "lat": -36.760679, "lon": 174.756356, "tags": {"bus": "yes", "highway": "bus_stop", "name": "Castor Bay Road", "name:en": "Castor Bay Road", "name:mi": "Te Huarahi o Castor Bay", "public_transport": "platform", "ref": "3272"}}, {"type": "node", "id": 3610458303, "lat": -36.7610741, "lon": 174.7567494, "tags": {"bus": "yes", "highway": "bus_stop", "name": "Castor Bay Road", "name:en": "Castor Bay Road", "name:mi": "Te Huarahi o Castor Bay", "public_transport": "platform", "ref": "3237"}}, {"type": "node", "id": 3610458311, "lat": -36.7619772, "lon": 174.7667423, "tags": {"bus": "yes", "highway": "bus_stop", "name": "Beach Road / Rahopara Street", "network": "AT", "network:wikidata": "Q4819567", "public_transport": "platform", "ref": "3346"}}, {"type": "node", "id": 3610458312, "lat": -36.7624175, "lon": 174.7665681, "tags": {"bus": "yes", "highway": "bus_stop", "name": "Beach Road / Rahopara Street", "network": "AT", "network:wikidata": "Q4819567", "public_transport": "platform", "ref": "3317"}}, {"type": "node", "id": 3610458313, "lat": -36.7632492, "lon": 174.7562272, "tags": {"bench": "no", "bin": "no", "bus": "yes", "highway": "bus_stop", "lit": "yes", "name": "Dewsbury Terrace", "name:en": "Dewsbury Terrace", "name:mi": "Te Parehua o Dewsbury", "public_transport": "platform", "ref": "3274", "shelter": "no", "tactile_paving": "no"}}, {"type": "node", "id": 3610458315, "lat": -36.7644255, "lon": 174.7560859, "tags": {"bench": "yes", "bin": "no", "bus": "yes", "highway": "bus_stop", "lit": "yes", "name": "Crown Hill Shops", "name:en": "Crown Hill Shops", "name:mi": "Ng\u0101 Toa o Crown Hill", "public_transport": "platform", "ref": "3239", "shelter": "yes", "tactile_paving": "no"}}, {"type": "node", "id": 3610458319, "lat": -36.7660652, "lon": 174.7555713, "tags": {"bench": "no", "bin": "no", "bus": "yes", "highway": "bus_stop", "lit": "yes", "name": "Marsh Avenue", "name:en": "Marsh Avenue", "name:mi": "Te Arah\u0101ngai o Marsh", "network": "AT", "network:wikidata": "Q4819567", "public_transport": "platform", "ref": "3276", "shelter": "no", "tactile_paving": "no"}}, {"type": "node", "id": 3610458320, "lat": -36.7672569, "lon": 174.7562005, "tags": {"bench": "yes", "bin": "yes", "bus": "yes", "highway": "bus_stop", "lit": "yes", "name": "Gordon Avenue", "name:en": "Gordon Avenue", "name:mi": "Te Arah\u0101ngai o Gordon", "network": "AT", "network:wikidata": "Q4819567", "public_transport": "platform", "ref": "3241", "shelter": "yes", "tactile_paving": "no"}}, {"type": "node", "id": 3610458323, "lat": -36.7682986, "lon": 174.7575905, "tags": {"bench": "yes", "bin": "no", "bus": "yes", "highway": "bus_stop", "lit": "yes", "name": "Penning Road", "name:en": "Penning Road", "name:mi": "Te Huarahi o Penning", "network": "AT", "network:wikidata": "Q4819567", "public_transport": "platform", "ref": "3278", "shelter": "yes", "tactile_paving": "no"}}, {"type": "node", "id": 3610458329, "lat": -36.7686203, "lon": 174.7589726, "tags": {"bench": "yes", "bin": "no", "bus": "yes", "highway": "bus_stop", "lit": "yes", "name": "East Coast Road / Stanley Avenue", "name:en": "East Coast Road / Stanley Avenue", "name:mi": "Te Huarahi o East Coast m\u0101 Te Arah\u0101ngai o Stanley", "network": "AT", "network:wikidata": "Q4819567", "public_transport": "platform", "ref": "3253", "shelter": "yes", "tactile_paving": "no"}}, {"type": "node", "id": 3610458346, "lat": -36.7689025, "lon": 174.7664715, "tags": {"bus": "yes", "highway": "bus_stop", "name": "\u014cmana Road", "name:en": "\u014cmana Road", "name:mi": "Te Huarahi o \u014cmana", "network": "AT", "network:wikidata": "Q4819567", "public_transport": "platform", "ref": "3350"}}, {"type": "node", "id": 3610458354, "lat": -36.7692386, "lon": 174.7611037, "tags": {"bench": "yes", "bin": "yes", "bus": "yes", "highway": "bus_stop", "lit": "yes", "name": "Seaview Road", "public_transport": "platform", "ref": "3255", "shelter": "yes", "tactile_paving": "no"}}, {"type": "node", "id": 3610458356, "lat": -36.7711661, "lon": 174.7572396, "tags": {"bus": "yes", "highway": "bus_stop", "name": "Dallinghoe Crescent / Stanley Avenue", "network": "AT", "network:wikidata": "Q4819567", "public_transport": "platform", "ref": "3335"}}, {"type": "node", "id": 3610458357, "lat": -36.7711216, "lon": 174.7569877, "tags": {"bus": "yes", "highway": "bus_stop", "name": "Dallinghoe Crescent / Stanley Avenue", "network": "AT", "network:wikidata": "Q4819567", "public_transport": "platform", "ref": "3372"}}, {"type": "node", "id": 3610458359, "lat": -36.7717715, "lon": 174.7549729, "tags": {"bus": "yes", "highway": "bus_stop", "name": "Stanley Avenue / Nile Road", "name:en": "Stanley Avenue / Nile Road", "name:mi": "Te Arah\u0101ngai o Stanley m\u0101 Te Huarahi o Nile", "network": "AT", "network:wikidata": "Q4819567", "public_transport": "platform", "ref": "3339"}}, {"type": "node", "id": 3610458360, "lat": -36.7718363, "lon": 174.7550926, "tags": {"bus": "yes", "highway": "bus_stop", "name": "Stanley Avenue / Nile Road", "name:en": "Stanley Avenue / Nile Road", "name:mi": "Te Arah\u0101ngai o Stanley m\u0101 Te Huarahi o Nile", "network": "AT", "network:wikidata": "Q4819567", "public_transport": "platform", "ref": "3376"}}, {"type": "node", "id": 3610458363, "lat": -36.7720998, "lon": 174.7602245, "tags": {"bus": "yes", "highway": "bus_stop", "name": "Dallinghoe Crescent", "network": "AT", "network:wikidata": "Q4819567", "public_transport": "platform", "ref": "3337"}}, {"type": "node", "id": 3610458364, "lat": -36.772101, "lon": 174.7605133, "tags": {"bus": "yes", "highway": "bus_stop", "name": "Dallinghoe Crescent", "network": "AT", "network:wikidata": "Q4819567", "public_transport": "platform", "ref": "3374"}}, {"type": "node", "id": 3610458365, "lat": -36.7720383, "lon": 174.7667634, "tags": {"bus": "yes", "highway": "bus_stop", "name": "Milford Centre", "network": "AT", "network:wikidata": "Q4819567", "public_transport": "platform", "ref": "3354"}}, {"type": "node", "id": 3610458366, "lat": -36.7724075, "lon": 174.7667653, "tags": {"bus": "yes", "highway": "bus_stop", "name": "Milford Centre", "network": "AT", "network:wikidata": "Q4819567", "public_transport": "platform", "ref": "3323"}}, {"type": "node", "id": 3610458369, "lat": -36.7728547, "lon": 174.7632087, "tags": {"bench": "yes", "bus": "yes", "covered": "yes", "highway": "bus_stop", "name": "Kitchener Road", "name:en": "Kitchener Road", "name:mi": "Te Huarahi o Kitchener", "network": "AT", "network:wikidata": "Q4819567", "public_transport": "platform", "ref": "3320", "shelter": "yes"}}, {"type": "node", "id": 3610458370, "lat": -36.7731227, "lon": 174.7627459, "tags": {"bus": "yes", "highway": "bus_stop", "name": "Kitchener Road", "name:en": "Kitchener Road", "name:mi": "Te Huarahi o Kitchener", "network": "AT", "network:wikidata": "Q4819567", "public_transport": "platform", "ref": "4467"}}, {"type": "node", "id": 3610458371, "lat": -36.7737382, "lon": 174.7563298, "tags": {"bus": "yes", "highway": "bus_stop", "name": "Nile Road / Alma Road", "name:en": "Nile Road / Alma Road", "name:mi": "Te Huarahi o Nile m\u0101 Te Huarahi o Alma", "network": "AT", "network:wikidata": "Q4819567", "public_transport": "platform", "ref": "3341"}}, {"type": "node", "id": 3610458372, "lat": -36.7738553, "lon": 174.756466, "tags": {"bus": "yes", "highway": "bus_stop", "name": "Nile Road / Alma Road", "name:en": "Nile Road / Alma Road", "name:mi": "Te Huarahi o Nile m\u0101 Te Huarahi o Alma", "network": "AT", "network:wikidata": "Q4819567", "public_transport": "platform", "ref": "3378"}}, {"type": "node", "id": 3610458375, "lat": -36.7746262, "lon": 174.7611343, "tags": {"bus": "yes", "highway": "bus_stop", "name": "Milford School", "name:en": "Milford School", "name:mi": "Te Kura o Milford", "network": "AT", "network:wikidata": "Q4819567", "public_transport": "platform", "ref": "4151"}}, {"type": "node", "id": 3610458376, "lat": -36.7752224, "lon": 174.7606529, "tags": {"bus": "yes", "highway": "bus_stop", "name": "Milford School", "name:en": "Milford School", "name:mi": "Te Kura o Milford", "network": "AT", "network:wikidata": "Q4819567", "public_transport": "platform", "ref": "3318"}}, {"type": "node", "id": 3610458378, "lat": -36.7759642, "lon": 174.7549429, "tags": {"bus": "yes", "highway": "bus_stop", "name": "Waterloo Road", "name:en": "Waterloo Road", "name:mi": "Te Huarahi o Waterloo", "network": "AT", "network:wikidata": "Q4819567", "public_transport": "platform", "ref": "4311"}}, {"type": "node", "id": 3610458379, "lat": -36.7759874, "lon": 174.7596645, "tags": {"bus": "yes", "highway": "bus_stop", "name": "Shakespeare Road / Alma Road", "name:en": "Shakespeare Road / Alma Road", "name:mi": "Te Huarahi o Shakespeare m\u0101 Te Huarahi o Alma", "network": "AT", "network:wikidata": "Q4819567", "public_transport": "platform", "ref": "3285"}}, {"type": "node", "id": 3610458380, "lat": -36.7763011, "lon": 174.7547482, "tags": {"bus": "yes", "highway": "bus_stop", "name": "Waterloo Road", "name:en": "Waterloo Road", "name:mi": "Te Huarahi o Waterloo", "network": "AT", "network:wikidata": "Q4819567", "public_transport": "platform", "ref": "3690"}}, {"type": "node", "id": 3610458381, "lat": -36.7770878, "lon": 174.7586827, "tags": {"bus": "yes", "highway": "bus_stop", "name": "Shakespeare Road / Alma Road", "name:en": "Shakespeare Road / Alma Road", "name:mi": "Te Huarahi o Shakespeare m\u0101 Te Huarahi o Alma", "network": "AT", "network:wikidata": "Q4819567", "public_transport": "platform", "ref": "3314"}}, {"type": "node", "id": 3610458382, "lat": -36.7777005, "lon": 174.7564606, "tags": {"bus": "yes", "highway": "bus_stop", "name": "Napoleon Avenue", "name:en": "Napoleon Avenue", "name:mi": "Te Arah\u0101ngai o Napoleon", "network": "AT", "network:wikidata": "Q4819567", "public_transport": "platform", "ref": "3642"}}, {"type": "node", "id": 3610458384, "lat": -36.7778657, "lon": 174.7568875, "tags": {"bus": "yes", "highway": "bus_stop", "name": "Napoleon Avenue", "name:en": "Napoleon Avenue", "name:mi": "Te Arah\u0101ngai o Napoleon", "network": "AT", "network:wikidata": "Q4819567", "public_transport": "platform", "ref": "3645"}}, {"type": "node", "id": 3610458385, "lat": -36.7780997, "lon": 174.7575982, "tags": {"bus": "yes", "highway": "bus_stop", "name": "Shakespeare Road / Carmel College", "network": "AT", "network:wikidata": "Q4819567", "public_transport": "platform", "ref": "3312"}}, {"type": "node", "id": 3610458499, "lat": -36.7791151, "lon": 174.7563231, "tags": {"bus": "yes", "highway": "bus_stop", "name": "Shakespeare Road / Carmel College", "network": "AT", "network:wikidata": "Q4819567", "public_transport": "platform", "ref": "3283"}}, {"type": "node", "id": 3610458508, "lat": -36.7806419, "lon": 174.7546646, "tags": {"bus": "yes", "highway": "bus_stop", "name": "Brook Street", "name:en": "Brook Street", "name:mi": "Te Tiriti o Brook", "network": "AT", "network:wikidata": "Q4819567", "public_transport": "platform", "ref": "3281"}}, {"type": "node", "id": 3610458509, "lat": -36.7806767, "lon": 174.7548365, "tags": {"bus": "yes", "highway": "bus_stop", "name": "Brook Street", "name:en": "Brook Street", "name:mi": "Te Tiriti o Brook", "network": "AT", "network:wikidata": "Q4819567", "public_transport": "platform", "ref": "3310"}}, {"type": "node", "id": 3610458526, "lat": -36.7841241, "lon": 174.7548657, "tags": {"bus": "yes", "highway": "bus_stop", "name": "Shea Terrace", "name:en": "Shea Terrace", "name:mi": "Te Parehua o Shea", "network": "AT", "network:wikidata": "Q4819567", "public_transport": "platform", "ref": "3345"}}, {"type": "node", "id": 3610458532, "lat": -36.7856945, "lon": 174.7568215, "tags": {"bus": "yes", "highway": "bus_stop", "name": "Northcote Road", "name:en": "Northcote Road", "name:mi": "Te Huarahi o Northcote", "network": "AT", "network:wikidata": "Q4819567", "public_transport": "platform", "ref": "3347"}}, {"type": "node", "id": 3610458539, "lat": -36.7863127, "lon": 174.7554475, "tags": {"bus": "yes", "highway": "bus_stop", "name": "Taharoto Road", "name:en": "Taharoto Road", "name:mi": "Te Huarahi o Taharoto", "network": "AT", "network:wikidata": "Q4819567", "public_transport": "platform", "ref": "3996"}}, {"type": "node", "id": 3610458540, "lat": -36.7865774, "lon": 174.7574843, "tags": {"bus": "yes", "highway": "bus_stop", "name": "Rangitira Avenue", "name:en": "Rangitira Avenue", "name:mi": "Te Arah\u0101ngai o Rangitira", "network": "AT", "network:wikidata": "Q4819567", "public_transport": "platform", "ref": "3304"}}, {"type": "node", "id": 3610458548, "lat": -36.7879647, "lon": 174.7595243, "tags": {"bus": "yes", "highway": "bus_stop", "name": "Taharoto Park", "public_transport": "platform", "ref": "3349"}}, {"type": "node", "id": 3610458558, "lat": -36.7892457, "lon": 174.7572988, "tags": {"bus": "yes", "highway": "bus_stop", "name": "25 Karaka Street", "name:en": "25 Karaka Street", "name:mi": "25 ki te Tiriti o Karaka", "network": "AT", "network:wikidata": "Q4819567", "public_transport": "platform", "ref": "3365"}}, {"type": "node", "id": 3610458561, "lat": -36.7894786, "lon": 174.7613649, "tags": {"bus": "yes", "highway": "bus_stop", "name": "Saint Joseph's Catholic Church", "name:en": "Saint Joseph's Catholic Church", "network": "AT", "network:wikidata": "Q4819567", "official_name": "St Joseph's Catholic Church", "public_transport": "platform", "ref": "3351"}}, {"type": "node", "id": 3610458565, "lat": -36.7896683, "lon": 174.7569642, "tags": {"bus": "yes", "highway": "bus_stop", "name": "38 Karaka Street", "name:en": "38 Karaka Street", "name:mi": "38 ki te Tiriti o Karaka", "network": "AT", "network:wikidata": "Q4819567", "public_transport": "platform", "ref": "3404"}}, {"type": "node", "id": 3610458571, "lat": -36.7896804, "lon": 174.7612457, "tags": {"bus": "yes", "highway": "bus_stop", "name": "Saint Joseph's Catholic Church", "name:en": "Saint Joseph's Catholic Church", "network": "AT", "network:wikidata": "Q4819567", "official_name": "St Joseph's Catholic Church", "public_transport": "platform", "ref": "3302"}}, {"type": "node", "id": 3610458574, "lat": -36.7901523, "lon": 174.7599709, "tags": {"bus": "yes", "highway": "bus_stop", "name": "Saint Joseph's Catholic School", "name:en": "Saint Joseph's Catholic School", "network": "AT", "network:wikidata": "Q4819567", "official_name": "St Joseph's Catholic School", "public_transport": "platform", "ref": "3369"}}, {"type": "node", "id": 3610458575, "lat": -36.7901869, "lon": 174.7600889, "tags": {"bus": "yes", "highway": "bus_stop", "name": "Saint Joseph's Catholic School", "name:en": "Saint Joseph's Catholic School", "network": "AT", "network:wikidata": "Q4819567", "official_name": "St Joseph's Catholic School", "public_transport": "platform", "ref": "3408"}}, {"type": "node", "id": 3610458578, "lat": -36.7908396, "lon": 174.7590872, "tags": {"bus": "yes", "highway": "bus_stop", "name": "Rosmini College", "name:en": "Rosmini College", "network": "AT", "network:wikidata": "Q4819567", "public_transport": "platform", "ref": "4323"}}, {"type": "node", "id": 3610458580, "lat": -36.7910222, "lon": 174.7736723, "tags": {"bench": "yes", "bus": "yes", "highway": "bus_stop", "name": "Lake Road / Bracken Avenue", "name:en": "Lake Road / Bracken Avenue", "name:mi": "Te Huarahi o Lake m\u0101 Te Arah\u0101ngai o Bracken", "network": "AT", "network:wikidata": "Q4819567", "public_transport": "platform", "ref": "3383", "shelter": "yes", "tactile_paving": "no"}}, {"type": "node", "id": 3610458585, "lat": -36.7920532, "lon": 174.7575439, "tags": {"bus": "yes", "highway": "bus_stop", "name": "P\u016briri Street", "name:en": "P\u016briri Street", "name:mi": "Te Tiriti o P\u016briri", "network": "AT", "network:wikidata": "Q4819567", "public_transport": "platform", "ref": "3367"}}, {"type": "node", "id": 3610458589, "lat": -36.7921307, "lon": 174.7576139, "tags": {"bus": "yes", "highway": "bus_stop", "name": "P\u016briri Street", "name:en": "P\u016briri Street", "name:mi": "Te Tiriti o P\u016briri", "network": "AT", "network:wikidata": "Q4819567", "public_transport": "platform", "ref": "3406"}}, {"type": "node", "id": 3610477418, "lat": -36.7818327, "lon": 174.7573522, "tags": {"bus": "yes", "capacity": "1", "highway": "bus_stop", "name": "North Shore Hospital", "name:en": "North Shore Hospital", "name:mi": "Te H\u014dhipera o Te Raki Paewhenua", "network": "AT", "network:wikidata": "Q4819567", "public_transport": "platform", "ref": "3998"}}, {"type": "node", "id": 3610477419, "lat": -36.7819345, "lon": 174.756805, "tags": {"bus": "yes", "capacity": "1", "highway": "bus_stop", "name": "North Shore Hospital", "name:en": "North Shore Hospital", "name:mi": "Te H\u014dhipera o Te Raki Paewhenua", "network": "AT", "network:wikidata": "Q4819567", "public_transport": "platform", "ref": "3869"}}, {"type": "node", "id": 3610477420, "lat": -36.7838141, "lon": 174.7540835, "tags": {"bus": "yes", "highway": "bus_stop", "name": "Shea Terrace", "name:en": "Shea Terrace", "name:mi": "Te Parehua o Shea", "network": "AT", "network:wikidata": "Q4819567", "public_transport": "platform", "ref": "3306"}}, {"type": "node", "id": 3610589002, "lat": -36.7951156, "lon": 174.7722872, "tags": {"bench": "yes", "bin": "yes", "bus": "yes", "highway": "bus_stop", "name": "Eldon Street", "network": "AT", "network:wikidata": "Q4819567", "public_transport": "platform", "ref": "3484", "shelter": "yes", "tactile_paving": "no"}}, {"type": "node", "id": 3610589003, "lat": -36.7943253, "lon": 174.7733878, "tags": {"bus": "yes", "highway": "bus_stop", "name": "Burns Avenue", "network": "AT", "network:wikidata": "Q4819567", "public_transport": "platform", "ref": "3445"}}, {"type": "node", "id": 3907569824, "lat": -36.7691647, "lon": 174.7604717, "tags": {"bench": "no", "bin": "no", "bus": "yes", "covered": "no", "highway": "bus_stop", "lit": "yes", "name": "Seaview Road", "public_transport": "platform", "ref": "3280", "shelter": "no", "tactile_paving": "no"}}, {"type": "node", "id": 4514624992, "lat": -36.7656663, "lon": 174.7649679}, {"type": "node", "id": 4514624993, "lat": -36.7656716, "lon": 174.7649895}, {"type": "node", "id": 4514624994, "lat": -36.7656354, "lon": 174.7650035}, {"type": "node", "id": 4514624995, "lat": -36.76563, "lon": 174.7649818}, {"type": "node", "id": 4514624998, "lat": -36.7653957, "lon": 174.7648864}, {"type": "node", "id": 4514624999, "lat": -36.7653909, "lon": 174.7648649}, {"type": "node", "id": 4514625000, "lat": -36.7654292, "lon": 174.7648516}, {"type": "node", "id": 4514625001, "lat": -36.765434, "lon": 174.7648731}, {"type": "node", "id": 4538583768, "lat": -36.7730849, "lon": 174.7669126, "tags": {"bus": "yes", "highway": "bus_stop", "name": "Milford Road", "name:en": "Milford Road", "name:mi": "Te Huarahi o Milford", "network": "AT", "network:wikidata": "Q4819567", "public_transport": "platform", "ref": "3259"}}, {"type": "node", "id": 4687856145, "lat": -36.7975691, "lon": 174.761595}, {"type": "node", "id": 4687856146, "lat": -36.7972214, "lon": 174.7617055}, {"type": "node", "id": 4687856156, "lat": -36.7973262, "lon": 174.7617438}, {"type": "node", "id": 4687856163, "lat": -36.7972543, "lon": 174.7610216, "tags": {"bus": "yes", "departures_board": "realtime", "highway": "bus_stop", "internet_access": "yes", "internet_access:fee": "yes", "internet_access:ssid": "AT HOP WiFi", "local_ref": "A", "name": "Akoranga", "network": "AT", "network:wikidata": "Q4819567", "official_name": "Stop A Akoranga", "official_name:en": "Stop A Akoranga", "official_name:mi": "T\u016bnga A Akoranga", "operator": "Auckland Transport", "public_transport": "platform", "ref": "4065", "shelter": "yes"}}, {"type": "node", "id": 4687856164, "lat": -36.7970758, "lon": 174.7610861, "tags": {"bench": "yes", "bin": "yes", "bus": "yes", "departures_board": "realtime", "highway": "bus_stop", "internet_access": "yes", "internet_access:fee": "yes", "internet_access:ssid": "AT HOP WiFi", "lit": "yes", "local_ref": "D", "name": "Akoranga", "network": "AT", "network:wikidata": "Q4819567", "official_name": "Stop D Akoranga", "official_name:en": "Stop D Akoranga", "official_name:mi": "T\u016bnga D Akoranga", "operator": "Auckland Transport", "public_transport": "platform", "ref": "4087", "shelter": "yes", "tactile_paving": "yes"}}, {"type": "node", "id": 4687856182, "lat": -36.797137, "lon": 174.7614127, "tags": {"bench": "yes", "bin": "yes", "bus": "yes", "departures_board": "realtime", "highway": "bus_stop", "internet_access": "yes", "internet_access:fee": "yes", "internet_access:ssid": "AT HOP WiFi", "lit": "yes", "local_ref": "E", "name": "Akoranga", "network": "AT", "network:wikidata": "Q4819567", "official_name": "Stop E Akoranga", "official_name:en": "Stop E Akoranga", "official_name:mi": "T\u016bnga E Akoranga", "operator": "Auckland Transport", "public_transport": "platform", "ref": "4085", "shelter": "yes", "tactile_paving": "yes"}}, {"type": "node", "id": 4687856184, "lat": -36.7974088, "lon": 174.7617288}, {"type": "node", "id": 4809069132, "lat": -36.7966482, "lon": 174.7609061}, {"type": "node", "id": 4809069133, "lat": -36.7971572, "lon": 174.7614203}, {"type": "node", "id": 4809069134, "lat": -36.7971321, "lon": 174.761459}, {"type": "node", "id": 4809069135, "lat": -36.7966232, "lon": 174.7609457}, {"type": "node", "id": 4809069136, "lat": -36.7969427, "lon": 174.7608912}, {"type": "node", "id": 4809069137, "lat": -36.7969893, "lon": 174.7608137}, {"type": "node", "id": 4809069138, "lat": -36.7968614, "lon": 174.7606864}, {"type": "node", "id": 4809069139, "lat": -36.7968125, "lon": 174.7607607}, {"type": "node", "id": 4809069143, "lat": -36.7971601, "lon": 174.7611117}, {"type": "node", "id": 4809069144, "lat": -36.7967823, "lon": 174.7608078}, {"type": "node", "id": 4809069146, "lat": -36.797211, "lon": 174.7610345}, {"type": "node", "id": 4809069147, "lat": -36.7968873, "lon": 174.7606459}, {"type": "node", "id": 4861537362, "lat": -36.7955671, "lon": 174.7698628, "tags": {"bus": "yes", "departures_board": "no", "highway": "bus_stop", "name": "Harbourside Church", "network": "AT", "network:wikidata": "Q4819567", "public_transport": "platform", "ref": "3708", "shelter": "no"}}, {"type": "node", "id": 5038729302, "lat": -36.7724421, "lon": 174.7641561, "tags": {"bus": "yes", "highway": "bus_stop", "name": "Milford Shops", "name:en": "Milford Shops", "name:mi": "Ng\u0101 Toa o Milford", "network": "AT", "network:wikidata": "Q4819567", "public_transport": "platform", "ref": "3282"}}, {"type": "node", "id": 5623497192, "lat": -36.8076375, "lon": 174.7900725, "tags": {"bus": "yes", "description": "glass", "highway": "bus_stop", "name": "Belmont Shops", "name:en": "Belmont Shops", "name:mi": "Ng\u0101 Toa o Belmont", "public_transport": "platform", "ref": "3488", "shelter": "yes"}}, {"type": "node", "id": 5970618773, "lat": -36.7974761, "lon": 174.7616594}, {"type": "node", "id": 5970618775, "lat": -36.7975315, "lon": 174.761623}, {"type": "node", "id": 6174757019, "lat": -36.8221198, "lon": 174.7663437, "tags": {"amenity": "ferry_terminal", "fare_gates": "no", "ferry": "yes", "loc_ref": "1", "name": "Bayswater Ferry Terminal", "name:mk": "\u0422\u0440\u0430\u0435\u043a\u0442\u0435\u043d \u0442\u0435\u0440\u043c\u0438\u043d\u0430\u043b \u0411\u0435\u0458\u0441\u0432\u043e\u0442\u0435\u0440", "network": "AT", "network:wikidata": "Q4819567", "public_transport": "stop_position", "ref": "9640", "wikidata": "Q131225704"}}, {"type": "node", "id": 6533233470, "lat": -36.7967986, "lon": 174.760811, "tags": {"access": "no", "bench": "yes", "bin": "yes", "bus": "yes", "highway": "bus_stop", "internet_access": "yes", "internet_access:fee": "yes", "internet_access:ssid": "AT HOP WiFi", "lit": "yes", "local_ref": "C", "name": "Akoranga", "network": "AT", "network:wikidata": "Q4819567", "official_name": "Stop C Akoranga", "official_name:en": "Stop C Akoranga", "official_name:mi": "T\u016bnga C Akoranga", "operator": "Auckland Transport", "public_transport": "platform", "ref": "4083", "school_bus": "designated", "shelter": "yes", "tactile_paving": "yes"}}, {"type": "node", "id": 6579413960, "lat": -36.7976844, "lon": 174.7613704}, {"type": "node", "id": 6595562104, "lat": -36.7969141, "lon": 174.761207}, {"type": "node", "id": 6741733328, "lat": -36.7973354, "lon": 174.7605849}, {"type": "node", "id": 6741733329, "lat": -36.797372, "lon": 174.7605278}, {"type": "node", "id": 6741733363, "lat": -36.7965915, "lon": 174.7602787}, {"type": "node", "id": 6741733396, "lat": -36.7970165, "lon": 174.7610425, "tags": {"door": "yes", "indoor": "door", "level": "0"}}, {"type": "node", "id": 6780295277, "lat": -36.7967288, "lon": 174.7610511}, {"type": "node", "id": 6780301589, "lat": -36.7972536, "lon": 174.7612798}, {"type": "node", "id": 6780301621, "lat": -36.7964327, "lon": 174.7605305}, {"type": "node", "id": 6780301622, "lat": -36.7968205, "lon": 174.7603085}, {"type": "node", "id": 6780301624, "lat": -36.7973025, "lon": 174.7606364}, {"type": "node", "id": 6780301627, "lat": -36.7966521, "lon": 174.760181}, {"type": "node", "id": 7265511895, "lat": -36.7972831, "lon": 174.7612343}, {"type": "node", "id": 7265511896, "lat": -36.7971107, "lon": 174.7608686}, {"type": "node", "id": 7265511897, "lat": -36.7979205, "lon": 174.759603}, {"type": "node", "id": 7265511898, "lat": -36.7979466, "lon": 174.759629}, {"type": "node", "id": 7265511899, "lat": -36.7972468, "lon": 174.7610702}, {"type": "node", "id": 7265511900, "lat": -36.7971372, "lon": 174.760895}, {"type": "node", "id": 7265511901, "lat": -36.7972726, "lon": 174.7610298}, {"type": "node", "id": 7265511903, "lat": -36.797226, "lon": 174.7607561}, {"type": "node", "id": 7265511904, "lat": -36.7973361, "lon": 174.7607038}, {"type": "node", "id": 7265511905, "lat": -36.7972892, "lon": 174.7606572}, {"type": "node", "id": 7265511906, "lat": -36.7972125, "lon": 174.7606781}, {"type": "node", "id": 7265554732, "lat": -36.7969943, "lon": 174.7609434}, {"type": "node", "id": 7265554733, "lat": -36.7970427, "lon": 174.7608669}, {"type": "node", "id": 7265554738, "lat": -36.7974722, "lon": 174.7609324}, {"type": "node", "id": 7265554739, "lat": -36.7971995, "lon": 174.7607298}, {"type": "node", "id": 7265554740, "lat": -36.7972996, "lon": 174.7607611}, {"type": "node", "id": 7265554741, "lat": -36.7971701, "lon": 174.760636}, {"type": "node", "id": 7265554742, "lat": -36.7972765, "lon": 174.7606097}, {"type": "node", "id": 7265554743, "lat": -36.7974458, "lon": 174.7609741}, {"type": "node", "id": 7265554744, "lat": -36.7972579, "lon": 174.7606389}, {"type": "node", "id": 7265554745, "lat": -36.7972454, "lon": 174.7606265}, {"type": "node", "id": 7265554746, "lat": -36.7971449, "lon": 174.7606756}, {"type": "node", "id": 7265554747, "lat": -36.7972629, "lon": 174.7606311}, {"type": "node", "id": 7265554748, "lat": -36.7972349, "lon": 174.7607422}, {"type": "node", "id": 7265554749, "lat": -36.7972819, "lon": 174.7607888}, {"type": "node", "id": 7265554750, "lat": -36.7972747, "lon": 174.76068}, {"type": "node", "id": 7265554753, "lat": -36.7972569, "lon": 174.7607075}, {"type": "node", "id": 7265554759, "lat": -36.7970851, "lon": 174.7609091}, {"type": "node", "id": 7265554773, "lat": -36.7971244, "lon": 174.7608822, "tags": {"door": "yes", "indoor": "door", "level": "0"}}, {"type": "node", "id": 7265554775, "lat": -36.7970366, "lon": 174.7609852}, {"type": "node", "id": 7265554776, "lat": -36.7971114, "lon": 174.7609354}, {"type": "node", "id": 7265554777, "lat": -36.7970625, "lon": 174.7610117}, {"type": "node", "id": 7265581236, "lat": -36.7973089, "lon": 174.7605601}, {"type": "node", "id": 7265581237, "lat": -36.7973788, "lon": 174.760451}, {"type": "node", "id": 7265581239, "lat": -36.7976529, "lon": 174.7614335}, {"type": "node", "id": 7265581240, "lat": -36.7976002, "lon": 174.761535}, {"type": "node", "id": 7265581241, "lat": -36.7970475, "lon": 174.7609964, "tags": {"door": "yes", "indoor": "door", "level": "0"}}, {"type": "node", "id": 7265581242, "lat": -36.7970978, "lon": 174.7609217, "tags": {"door": "yes", "indoor": "door", "level": "0"}}, {"type": "node", "id": 7265581243, "lat": -36.7971933, "lon": 174.7610169, "tags": {"door": "yes", "indoor": "door", "level": "0"}}, {"type": "node", "id": 7265581245, "lat": -36.7969265, "lon": 174.7611872}, {"type": "node", "id": 7265581246, "lat": -36.7969016, "lon": 174.7612262}, {"type": "node", "id": 7265581247, "lat": -36.7966995, "lon": 174.7609567}, {"type": "node", "id": 7265581248, "lat": -36.7966745, "lon": 174.7609963}, {"type": "node", "id": 7265601602, "lat": -36.7979339, "lon": 174.7596163, "tags": {"door": "yes", "entrance": "yes", "indoor": "door", "level": "2"}}, {"type": "node", "id": 7265601609, "lat": -36.7966285, "lon": 174.760951}, {"type": "node", "id": 7265601611, "lat": -36.7966886, "lon": 174.7610101}, {"type": "node", "id": 7265601613, "lat": -36.7972494, "lon": 174.7605994}, {"type": "node", "id": 7265601614, "lat": -36.7973507, "lon": 174.7607008}, {"type": "node", "id": 7741650099, "lat": -36.79637, "lon": 174.7608592}, {"type": "node", "id": 7741650100, "lat": -36.796452, "lon": 174.7610104}, {"type": "node", "id": 8221213404, "lat": -36.776521, "lon": 174.77592}, {"type": "node", "id": 8221213405, "lat": -36.7765699, "lon": 174.7755936}, {"type": "node", "id": 8221213406, "lat": -36.7767567, "lon": 174.7761348}, {"type": "node", "id": 8221213407, "lat": -36.7766915, "lon": 174.7756573}, {"type": "node", "id": 8221213408, "lat": -36.7768578, "lon": 174.7755663}, {"type": "node", "id": 8221213409, "lat": -36.7769227, "lon": 174.7759719}, {"type": "node", "id": 8323053233, "lat": -36.7828937, "lon": 174.7737764, "tags": {"bus": "yes", "highway": "bus_stop", "name": "Hurstmere Road / Killarney Street", "name:en": "Hurstmere Road / Killarney Street", "name:mi": "Te Huarahi o Hurstmere m\u0101 Te Tiriti o Killarney", "network": "AT", "network:wikidata": "Q4819567", "public_transport": "platform", "ref": "3294"}}, {"type": "node", "id": 8464927941, "lat": -36.8156339, "lon": 174.771295}, {"type": "node", "id": 8464927942, "lat": -36.815648, "lon": 174.771299}, {"type": "node", "id": 8464927943, "lat": -36.8156402, "lon": 174.7713422}, {"type": "node", "id": 8464927944, "lat": -36.8156261, "lon": 174.7713382}, {"type": "node", "id": 8464927954, "lat": -36.8129105, "lon": 174.7800779}, {"type": "node", "id": 8464927955, "lat": -36.8129188, "lon": 174.7800836}, {"type": "node", "id": 8464927956, "lat": -36.8128999, "lon": 174.7801268}, {"type": "node", "id": 8464927957, "lat": -36.8128916, "lon": 174.7801211}, {"type": "node", "id": 8464927958, "lat": -36.811534, "lon": 174.783504}, {"type": "node", "id": 8464927959, "lat": -36.8115494, "lon": 174.783514}, {"type": "node", "id": 8464927960, "lat": -36.8115334, "lon": 174.7835524}, {"type": "node", "id": 8464927961, "lat": -36.811518, "lon": 174.7835424}, {"type": "node", "id": 8464927962, "lat": -36.8109416, "lon": 174.7842997}, {"type": "node", "id": 8464927963, "lat": -36.8109513, "lon": 174.7843067}, {"type": "node", "id": 8464927964, "lat": -36.8109329, "lon": 174.7843464}, {"type": "node", "id": 8464927965, "lat": -36.8109232, "lon": 174.7843393}, {"type": "node", "id": 8464927966, "lat": -36.8085851, "lon": 174.7893584}, {"type": "node", "id": 8464927967, "lat": -36.8085953, "lon": 174.789365}, {"type": "node", "id": 8464927968, "lat": -36.8085806, "lon": 174.7894008}, {"type": "node", "id": 8464927969, "lat": -36.8085704, "lon": 174.7893942}, {"type": "node", "id": 8464927970, "lat": -36.8087887, "lon": 174.7893335}, {"type": "node", "id": 8464927971, "lat": -36.8087982, "lon": 174.7893403}, {"type": "node", "id": 8464927972, "lat": -36.8087794, "lon": 174.789381}, {"type": "node", "id": 8464927973, "lat": -36.8087699, "lon": 174.7893742}, {"type": "node", "id": 8666222868, "lat": -36.7970123, "lon": 174.778744, "tags": {"bus": "yes", "highway": "bus_stop", "name": "Hauraki Corner", "name:en": "Hauraki Corner", "name:mi": "Te Kokonga o Hauraki", "network": "AT", "network:wikidata": "Q4819567", "public_transport": "platform", "ref": "3380"}}, {"type": "node", "id": 8666222870, "lat": -36.7960055, "lon": 174.7689515, "tags": {"bench": "yes", "bin": "no", "bus": "yes", "departures_board": "no", "highway": "bus_stop", "name": "Harbourside Church", "network": "AT", "network:wikidata": "Q4819567", "official_name": "Esmonde Rd by Harbourside Church", "public_transport": "platform", "ref": "4111", "shelter": "no", "tactile_paving": "yes"}}, {"type": "node", "id": 8759715211, "lat": -36.788236, "lon": 174.7716842}, {"type": "node", "id": 8759715233, "lat": -36.787906, "lon": 174.7714137}, {"type": "node", "id": 8759715236, "lat": -36.7879354, "lon": 174.7713412}, {"type": "node", "id": 8759715300, "lat": -36.7877193, "lon": 174.7712078}, {"type": "node", "id": 9181304198, "lat": -36.7877824, "lon": 174.7710314}, {"type": "node", "id": 9220826551, "lat": -36.7963862, "lon": 174.7607922}, {"type": "node", "id": 9220826554, "lat": -36.7965436, "lon": 174.76109}, {"type": "node", "id": 9220826555, "lat": -36.7966349, "lon": 174.7611402}, {"type": "node", "id": 9220826556, "lat": -36.796618, "lon": 174.761165}, {"type": "node", "id": 9220826558, "lat": -36.7972707, "lon": 174.7617381}, {"type": "node", "id": 9220826574, "lat": -36.7976059, "lon": 174.7614928}, {"type": "node", "id": 9220826575, "lat": -36.7976286, "lon": 174.7614546}, {"type": "node", "id": 9220826584, "lat": -36.7968704, "lon": 174.7611415, "tags": {"bench": "yes", "bin": "yes", "bus": "yes", "departures_board": "realtime", "highway": "bus_stop", "internet_access": "yes", "internet_access:fee": "yes", "internet_access:ssid": "AT HOP WiFi", "local_ref": "F", "name": "Akoranga", "network": "AT", "network:wikidata": "Q4819567", "note": "layover and SkyBus only", "official_name": "Stop F Akoranga", "official_name:en": "Stop F Akoranga", "official_name:mi": "T\u016bnga F Akoranga", "operator": "Auckland Transport", "public_transport": "platform", "shelter": "yes", "tactile_paving": "yes"}}, {"type": "node", "id": 9931173284, "lat": -36.7881678, "lon": 174.7715679}, {"type": "node", "id": 9931173285, "lat": -36.7881632, "lon": 174.7715767}, {"type": "node", "id": 9931173286, "lat": -36.7881096, "lon": 174.7715334}, {"type": "node", "id": 9931173287, "lat": -36.7881138, "lon": 174.7715253}, {"type": "node", "id": 9931173288, "lat": -36.7880465, "lon": 174.7714709}, {"type": "node", "id": 9931173289, "lat": -36.7880429, "lon": 174.7714778}, {"type": "node", "id": 9931173290, "lat": -36.787992, "lon": 174.7714367}, {"type": "node", "id": 9931173291, "lat": -36.7879973, "lon": 174.7714264}, {"type": "node", "id": 9931173292, "lat": -36.7879257, "lon": 174.7713685}, {"type": "node", "id": 10020359224, "lat": -36.8000889, "lon": 174.787916, "tags": {"access": "no", "bus": "yes", "bus_stop": "school", "capacity": "3", "departures_board": "no", "highway": "bus_stop", "name": "Takapuna Grammar", "name:en": "Takapuna Grammar", "name:mi": "Te Kura Tuarua o Takapuna", "network": "AT", "network:wikidata": "Q4819567", "public_transport": "platform", "ref": "3384", "school_bus": "designated", "shelter": "no", "start_date": "2022"}}, {"type": "node", "id": 10559094500, "lat": -36.809719, "lon": 174.7872426, "tags": {"bus": "yes", "highway": "bus_stop", "name": "Preston Avenue", "name:en": "Preston Avenue", "name:mi": "Te Arah\u0101ngai o Preston", "network": "AT", "network:wikidata": "Q4819567", "operator": "Auckland Transport", "public_transport": "platform", "ref": "3521"}}, {"type": "node", "id": 10559094501, "lat": -36.8122578, "lon": 174.7972382, "tags": {"bus": "yes", "highway": "bus_stop", "name": "Merani Street", "name:en": "Merani Street", "name:mi": "Te Tiriti o Merani", "network": "AT", "network:wikidata": "Q4819567", "operator": "Auckland Transport", "public_transport": "platform", "ref": "3516"}}, {"type": "node", "id": 10758031593, "lat": -36.8025856, "lon": 174.7835181}, {"type": "node", "id": 10758031594, "lat": -36.8025741, "lon": 174.7835278}, {"type": "node", "id": 10758031595, "lat": -36.8025923, "lon": 174.7835618}, {"type": "node", "id": 10758031596, "lat": -36.8026039, "lon": 174.7835521}, {"type": "node", "id": 10758099707, "lat": -36.8097206, "lon": 174.787293}, {"type": "node", "id": 10758099708, "lat": -36.8097326, "lon": 174.787301}, {"type": "node", "id": 10758099709, "lat": -36.8097496, "lon": 174.787264}, {"type": "node", "id": 10758099710, "lat": -36.8097376, "lon": 174.787256}, {"type": "node", "id": 10767883492, "lat": -36.747322, "lon": 174.7614815}, {"type": "node", "id": 10767883493, "lat": -36.747314, "lon": 174.7615012}, {"type": "node", "id": 10767883494, "lat": -36.7473809, "lon": 174.7615438}, {"type": "node", "id": 10767883495, "lat": -36.747389, "lon": 174.7615241}, {"type": "node", "id": 10767883496, "lat": -36.7476435, "lon": 174.761932}, {"type": "node", "id": 10767883497, "lat": -36.7476372, "lon": 174.7619501}, {"type": "node", "id": 10767883498, "lat": -36.7476666, "lon": 174.7619661}, {"type": "node", "id": 10767883499, "lat": -36.7476729, "lon": 174.761948}, {"type": "node", "id": 10767883500, "lat": -36.7457985, "lon": 174.7604153}, {"type": "node", "id": 10767883501, "lat": -36.7458072, "lon": 174.7604566}, {"type": "node", "id": 10767883502, "lat": -36.7457956, "lon": 174.7604604}, {"type": "node", "id": 10767883503, "lat": -36.7457868, "lon": 174.7604192}, {"type": "node", "id": 10767883504, "lat": -36.7459008, "lon": 174.7591622}, {"type": "node", "id": 10767889605, "lat": -36.7459136, "lon": 174.7591611}, {"type": "node", "id": 10767889606, "lat": -36.7459155, "lon": 174.7591964}, {"type": "node", "id": 10767889607, "lat": -36.7459027, "lon": 174.7591975}, {"type": "node", "id": 10767889608, "lat": -36.7448986, "lon": 174.7580349}, {"type": "node", "id": 10767889609, "lat": -36.7448892, "lon": 174.7580472}, {"type": "node", "id": 10767889610, "lat": -36.7449132, "lon": 174.7580758}, {"type": "node", "id": 10767889611, "lat": -36.7449226, "lon": 174.7580635}, {"type": "node", "id": 10767889612, "lat": -36.7423812, "lon": 174.7572684}, {"type": "node", "id": 10767889613, "lat": -36.7423894, "lon": 174.7572822}, {"type": "node", "id": 10767889614, "lat": -36.7423623, "lon": 174.7573071}, {"type": "node", "id": 10767889615, "lat": -36.7423542, "lon": 174.7572933}, {"type": "node", "id": 10779233055, "lat": -36.79955, "lon": 174.7577672, "tags": {"bus": "yes", "highway": "bus_stop", "name": "AUT North Shore Gate 2", "network": "AT", "network:wikidata": "Q4819567", "public_transport": "platform", "ref": "4319"}}, {"type": "node", "id": 10779233056, "lat": -36.79906, "lon": 174.75693, "tags": {"bus": "yes", "highway": "bus_stop", "name": "AUT North Shore Gate 2", "network": "AT", "network:wikidata": "Q4819567", "public_transport": "platform", "ref": "4320"}}, {"type": "node", "id": 10779233071, "lat": -36.786197, "lon": 174.7552372, "tags": {"bench": "no", "bin": "no", "bus": "yes", "highway": "bus_stop", "lit": "no", "name": "Taharoto Road", "name:en": "Taharoto Road", "name:mi": "Te Huarahi o Taharoto", "network": "AT", "network:wikidata": "Q4819567", "public_transport": "platform", "ref": "4357", "shelter": "no", "tactile_paving": "no"}}, {"type": "node", "id": 10779233089, "lat": -36.75788, "lon": 174.75506, "tags": {"bus": "yes", "highway": "bus_stop", "name": "Aberdeen Road / East Coast Road", "name:en": "Aberdeen Road / East Coast Road", "name:mi": "Te Huarahi o Aberdeen m\u0101 Te Huarahi o East Coast", "network": "AT", "network:wikidata": "Q4819567", "public_transport": "platform", "ref": "3266"}}, {"type": "node", "id": 10779233090, "lat": -36.7553857, "lon": 174.7642768, "tags": {"bus": "yes", "highway": "bus_stop", "name": "Kennedy Park", "name:en": "Kennedy Park", "name:mi": "Te Papa R\u0113hia o Kennedy", "network": "AT", "network:wikidata": "Q4819567", "public_transport": "platform", "ref": "3340"}}, {"type": "node", "id": 10779233091, "lat": -36.7602, "lon": 174.76627, "tags": {"bus": "yes", "highway": "bus_stop", "name": "56 Beach Road", "name:en": "56 Beach Road", "network": "AT", "network:wikidata": "Q4819567", "public_transport": "platform", "ref": "4181"}}, {"type": "node", "id": 10779233092, "lat": -36.7688189, "lon": 174.7662573, "tags": {"bus": "yes", "highway": "bus_stop", "name": "\u014cmana Road", "name:en": "\u014cmana Road", "name:mi": "Te Huarahi o \u014cmana", "network": "AT", "network:wikidata": "Q4819567", "public_transport": "platform", "ref": "4153"}}, {"type": "node", "id": 10857165474, "lat": -36.80612, "lon": 174.7948, "tags": {"access": "no", "bus": "yes", "highway": "bus_stop", "name": "Williamson Avenue", "name:en": "Williamson Avenue", "name:mi": "Te Arah\u0101ngai o Williamson", "network": "AT", "network:wikidata": "Q4819567", "public_transport": "platform", "ref": "3528", "school_bus": "designated"}}, {"type": "node", "id": 10857165475, "lat": -36.8043627, "lon": 174.7907274, "tags": {"access": "no", "bus": "yes", "capacity": "2", "highway": "bus_stop", "name": "Takapuna Grammar School", "name:en": "Takapuna Grammar School", "name:mi": "Te Kura Tuarua o Takapuna", "network": "AT", "network:wikidata": "Q4819567", "public_transport": "platform", "ref": "4434", "school_bus": "designated"}}, {"type": "node", "id": 10857165476, "lat": -36.7871792, "lon": 174.754861, "tags": {"access": "no", "bus": "yes", "highway": "bus_stop", "name": "Takapuna Normal Intermediate", "network": "AT", "network:wikidata": "Q4819567", "public_transport": "platform", "ref": "4422", "school_bus": "designated"}}, {"type": "node", "id": 10857165477, "lat": -36.7783038, "lon": 174.7573675, "tags": {"access": "no", "bus": "yes", "capacity": "2", "highway": "bus_stop", "name": "Carmel College", "network": "AT", "network:wikidata": "Q4819567", "public_transport": "platform", "ref": "4498", "school_bus": "designated"}}, {"type": "node", "id": 10857165478, "lat": -36.7763954, "lon": 174.7545164, "tags": {"access": "no", "bus": "yes", "highway": "bus_stop", "name": "Waterloo Road", "name:en": "Waterloo Road", "name:mi": "Te Huarahi o Waterloo", "network": "AT", "network:wikidata": "Q4819567", "public_transport": "platform", "ref": "3331", "school_bus": "designated"}}, {"type": "node", "id": 10857165482, "lat": -36.76277, "lon": 174.75452, "tags": {"access": "no", "bench": "no", "bin": "no", "bus": "yes", "highway": "bus_stop", "lit": "yes", "name": "East Coast Road", "network": "AT", "network:wikidata": "Q4819567", "public_transport": "platform", "ref": "4439", "school_bus": "designated", "shelter": "no", "tactile_paving": "no"}}, {"type": "node", "id": 10857165483, "lat": -36.7598804, "lon": 174.7550448, "tags": {"access": "no", "bus": "yes", "highway": "bus_stop", "name": "Ravenwood Drive", "name:en": "Ravenwood Drive", "name:mi": "Te Ara \u0100whio o Ravenwood", "network": "AT", "network:wikidata": "Q4819567", "public_transport": "platform", "ref": "4419", "school_bus": "designated"}}, {"type": "node", "id": 10857165495, "lat": -36.74288, "lon": 174.75422, "tags": {"access": "no", "bus": "yes", "highway": "bus_stop", "name": "32 K\u014dwhai Road", "name:en": "32 K\u014dwhai Road", "name:mi": "32 ki te Huarahi o K\u014dwhai", "network": "AT", "network:wikidata": "Q4819567", "public_transport": "platform", "ref": "3664", "school_bus": "designated"}}, {"type": "node", "id": 11077855561, "lat": -36.7875628, "lon": 174.7710751}, {"type": "node", "id": 11077855562, "lat": -36.7878079, "lon": 174.7712052}, {"type": "node", "id": 11077855563, "lat": -36.7877729, "lon": 174.7711844}, {"type": "node", "id": 11077855564, "lat": -36.7878363, "lon": 174.771243}, {"type": "node", "id": 11077855565, "lat": -36.787901, "lon": 174.7714099}, {"type": "node", "id": 11077855566, "lat": -36.7879268, "lon": 174.7713583}, {"type": "node", "id": 11077855567, "lat": -36.787738, "lon": 174.7711869}, {"type": "node", "id": 12475297248, "lat": -36.7777398, "lon": 174.7758649}, {"type": "node", "id": 12475297249, "lat": -36.7777779, "lon": 174.7761339}, {"type": "way", "id": 29917657, "nodes": [6579413960, 7265581239, 9220826575, 9220826574, 7265581240, 4687856145, 5970618775, 5970618773, 4687856184, 4687856156, 9220826558, 4687856146, 9220826555, 9220826556, 9220826554, 7741650100, 7741650099, 9220826551, 329683943, 329683945, 6780301621, 6741733363, 329683947, 6780301627, 329683950, 6780301622, 7265601613, 7265601614, 329683952, 6579413960], "tags": {"alt_name": "Akoranga Busway Station", "amenity": "bus_station", "bus": "yes", "name": "Akoranga Bus Station", "name:en": "Akoranga Bus Station", "name:mi": "Te Teihana Pahi o Akoranga", "public_transport": "station", "wheelchair": "yes", "wikidata": "Q4701539"}}, {"type": "way", "id": 58379921, "nodes": [98388056, 1306654705, 3312046778, 9181304198, 3312046781, 98389445, 3313862347, 724047801, 328908404, 3312046784, 8759715211, 8759715233, 11077855565, 11077855566, 8759715236, 3312046780, 11077855564, 3312046782, 11077855562, 328908410, 11077855563, 11077855567, 3312046779, 8759715300, 11077855561, 98388060, 98388056], "tags": {"amenity": "bus_station", "bus": "yes", "name": "Takapuna Bus Station", "name:en": "Takapuna Bus Station", "name:mi": "Te Teihana Pahi o Takapuna", "network": "AT", "network:wikidata": "Q4819567", "public_transport": "station", "wheelchair": "yes"}}, {"type": "way", "id": 324623426, "nodes": [3313342249, 3313342250, 9931173284, 9931173285, 9931173286, 9931173287, 9931173288, 9931173289, 9931173290, 9931173291, 9931173292, 3313342247, 3313342249], "tags": {"amenity": "shelter", "building": "roof", "shelter_type": "public_transport"}}, {"type": "way", "id": 324623581, "nodes": [3313343143, 3313343145, 3313343146, 3313343144, 3313343143], "tags": {"amenity": "shelter", "building": "roof", "layer": "1", "shelter_type": "public_transport"}}, {"type": "way", "id": 324623582, "nodes": [3313343139, 3313343141, 3313343142, 3313343140, 3313343139], "tags": {"amenity": "shelter", "building": "roof", "layer": "1", "shelter_type": "public_transport"}}, {"type": "way", "id": 339492503, "nodes": [3466982322, 3466982304, 3466982331, 3466982348, 3466982322], "tags": {"amenity": "shelter", "bench": "yes", "building": "yes", "lit": "no", "shelter_type": "public_transport"}}, {"type": "way", "id": 339492574, "nodes": [3466983732, 3466983727, 3466983747, 3466983758, 3466983732], "tags": {"amenity": "shelter", "bench": "yes", "building": "yes", "lit": "no", "shelter_type": "public_transport"}}, {"type": "way", "id": 339492707, "nodes": [3466978481, 3466979673, 3466978475, 3466979698, 3466978481], "tags": {"amenity": "shelter", "bench": "yes", "building": "yes", "lit": "no", "shelter_type": "public_transport"}}, {"type": "way", "id": 339492802, "nodes": [3466980544, 3466980522, 3466980484, 3466980508, 3466980544], "tags": {"amenity": "shelter", "bench": "yes", "building": "yes", "lit": "no", "shelter_type": "public_transport"}}, {"type": "way", "id": 339492852, "nodes": [3466978131, 3466978114, 3466978125, 3466978146, 3466978131], "tags": {"amenity": "shelter", "bench": "yes", "building": "yes", "lit": "no", "shelter_type": "public_transport"}}, {"type": "way", "id": 339639612, "nodes": [3468573436, 3468573454, 3468573471, 3468573457, 3468573436], "tags": {"amenity": "shelter", "bench": "yes", "building": "yes", "lit": "no", "shelter_type": "public_transport"}}, {"type": "way", "id": 339891097, "nodes": [3470974040, 3470974579, 3470974041, 3470974075, 3470974040], "tags": {"LINZ2OSM:dataset": "ac_upper_harbour", "LINZ2OSM:layer": "ac_buildings", "LINZ2OSM:source_version": "2015-04-13", "amenity": "shelter", "attribution": "http://www.aucklandcouncil.govt.nz/EN/ratesbuildingproperty/propertyinformation/GIS_maps/Pages/opendata.aspx", "building": "transportation", "linz2osm:objectid": "2447559", "shelter_type": "public_transport", "source": "Auckland Council"}}, {"type": "way", "id": 454985284, "nodes": [4514624995, 4514624994, 4514624993, 4514624992, 4514624995], "tags": {"amenity": "shelter", "building": "roof", "shelter_type": "public_transport"}}, {"type": "way", "id": 454985286, "nodes": [4514625001, 4514625000, 4514624999, 4514624998, 4514625001], "tags": {"amenity": "shelter", "building": "roof", "shelter_type": "public_transport"}}, {"type": "way", "id": 488610139, "nodes": [4809069135, 7265601609, 7265581248, 7265601611, 6780295277, 7265581246, 4809069134, 4809069133, 7265581247, 4809069132, 4809069135], "tags": {"amenity": "shelter", "building": "roof", "building:levels": "1", "layer": "1", "shelter_type": "public_transport"}}, {"type": "way", "id": 488610140, "nodes": [4809069147, 4809069138, 4809069137, 4809069136, 4809069139, 4809069144, 6741733396, 6780301589, 7265511895, 4809069143, 4809069146, 7265511899, 7265511901, 7265511900, 7265511903, 7265554743, 7265554738, 7265554740, 7265511904, 7265511905, 6780301624, 6741733328, 6741733329, 7265511898, 7265601602, 7265511897, 7265581237, 7265581236, 7265554742, 7265554747, 7265554744, 7265554745, 7265511906, 7265554741, 7265554746, 7265554739, 7265511896, 4809069147], "tags": {"amenity": "shelter", "building": "yes", "building:levels": "3", "bus": "yes", "layer": "1", "shelter_type": "public_transport"}}, {"type": "way", "id": 778475369, "nodes": [7265554741, 7265511906, 7265554745, 7265554744, 7265554747, 7265511905, 7265554750, 7265554753, 7265554748, 7265554749, 7265554740, 7265554738, 7265554743, 7265511903, 7265554739, 7265554746, 7265554741], "tags": {"bench": "yes", "bus": "yes", "highway": "platform", "indoor": "area", "level": "0", "local_ref": "B", "public_transport": "platform", "shelter": "yes"}}, {"type": "way", "id": 778477702, "nodes": [4809069139, 4809069136, 7265554732, 7265554775, 7265581241, 6741733396, 4809069144, 4809069139], "tags": {"bench": "yes", "bin": "yes", "bus": "yes", "highway": "platform", "indoor": "area", "level": "0", "local_ref": "C", "public_transport": "platform", "shelter": "yes", "tactile_paving": "yes"}}, {"type": "way", "id": 778477703, "nodes": [6741733396, 7265581241, 7265554777, 4809069143, 7265511895, 6780301589, 6741733396], "tags": {"bench": "yes", "bin": "yes", "bus": "yes", "highway": "platform", "indoor": "area", "level": "0", "local_ref": "D", "public_transport": "platform", "shelter": "yes", "tactile_paving": "yes"}}, {"type": "way", "id": 778477704, "nodes": [7265581245, 6595562104, 7265581246, 4809069134, 4809069133, 7265581245], "tags": {"bench": "yes", "bin": "yes", "bus": "yes", "highway": "platform", "indoor": "area", "level": "0", "local_ref": "E", "public_transport": "platform", "shelter": "yes", "tactile_paving": "yes"}}, {"type": "way", "id": 778477705, "nodes": [7265581245, 7265581247, 7265581248, 7265601611, 6780295277, 7265581246, 6595562104, 7265581245], "tags": {"bench": "yes", "bin": "yes", "bus": "yes", "highway": "platform", "indoor": "area", "level": "0", "local_ref": "F", "public_transport": "platform", "shelter": "yes", "tactile_paving": "yes"}}, {"type": "way", "id": 778477707, "nodes": [7265554733, 4809069137, 4809069138, 4809069147, 7265511896, 7265554773, 7265511900, 7265511901, 7265511899, 4809069146, 7265581243, 7265554776, 7265581242, 7265554759, 7265554733], "tags": {"bus": "yes", "highway": "platform", "indoor": "area", "level": "0", "local_ref": "A", "public_transport": "platform"}}, {"type": "way", "id": 883992365, "nodes": [8221213404, 8221213405], "tags": {"access": "private", "railway": "funicular"}}, {"type": "way", "id": 883992366, "nodes": [8221213406, 8221213407], "tags": {"access": "private", "railway": "funicular"}}, {"type": "way", "id": 883992367, "nodes": [8221213409, 8221213408], "tags": {"access": "private", "railway": "funicular"}}, {"type": "way", "id": 911664070, "nodes": [8464927941, 8464927942, 8464927943, 8464927944, 8464927941], "tags": {"amenity": "shelter", "bench": "yes", "building": "yes", "lit": "no", "shelter_type": "public_transport"}}, {"type": "way", "id": 911664073, "nodes": [8464927954, 8464927955, 8464927956, 8464927957, 8464927954], "tags": {"amenity": "shelter", "bench": "yes", "building": "yes", "lit": "no", "shelter_type": "public_transport"}}, {"type": "way", "id": 911664074, "nodes": [8464927958, 8464927959, 8464927960, 8464927961, 8464927958], "tags": {"amenity": "shelter", "bench": "yes", "building": "yes", "lit": "no", "shelter_type": "public_transport"}}, {"type": "way", "id": 911664075, "nodes": [8464927962, 8464927963, 8464927964, 8464927965, 8464927962], "tags": {"amenity": "shelter", "bench": "yes", "building": "yes", "lit": "no", "shelter_type": "public_transport"}}, {"type": "way", "id": 911664076, "nodes": [8464927966, 8464927967, 8464927968, 8464927969, 8464927966], "tags": {"amenity": "shelter", "bench": "yes", "building": "yes", "lit": "no", "shelter_type": "public_transport"}}, {"type": "way", "id": 911664077, "nodes": [8464927970, 8464927971, 8464927972, 8464927973, 8464927970], "tags": {"amenity": "shelter", "bench": "yes", "building": "yes", "lit": "no", "shelter_type": "public_transport"}}, {"type": "way", "id": 1156854610, "nodes": [10758031593, 10758031594, 10758031595, 10758031596, 10758031593], "tags": {"amenity": "shelter", "building": "transportation", "shelter_type": "public_transport"}}, {"type": "way", "id": 1156854612, "nodes": [10758099707, 10758099708, 10758099709, 10758099710, 10758099707], "tags": {"amenity": "shelter", "bench": "yes", "building": "yes", "lit": "no", "shelter_type": "public_transport"}}, {"type": "way", "id": 1157849858, "nodes": [10767883492, 10767883493, 10767883494, 10767883495, 10767883492], "tags": {"amenity": "shelter", "building": "transportation", "shelter_type": "public_transport"}}, {"type": "way", "id": 1157849859, "nodes": [10767883496, 10767883497, 10767883498, 10767883499, 10767883496], "tags": {"amenity": "shelter", "building": "transportation", "shelter_type": "public_transport"}}, {"type": "way", "id": 1157849860, "nodes": [10767883500, 10767883501, 10767883502, 10767883503, 10767883500], "tags": {"amenity": "shelter", "building": "transportation", "shelter_type": "public_transport"}}, {"type": "way", "id": 1157849861, "nodes": [10767883504, 10767889605, 10767889606, 10767889607, 10767883504], "tags": {"amenity": "shelter", "building": "transportation", "shelter_type": "public_transport"}}, {"type": "way", "id": 1157849862, "nodes": [10767889608, 10767889609, 10767889610, 10767889611, 10767889608], "tags": {"amenity": "shelter", "building": "transportation", "shelter_type": "public_transport"}}, {"type": "way", "id": 1157849863, "nodes": [10767889612, 10767889613, 10767889614, 10767889615, 10767889612], "tags": {"amenity": "shelter", "building": "transportation", "shelter_type": "public_transport"}}, {"type": "way", "id": 1348662515, "nodes": [12475297248, 12475297249], "tags": {"access": "private", "railway": "funicular", "service": "yard"}}, {"type": "relation", "id": 9668556, "members": [{"type": "node", "ref": 4687856163, "role": "platform"}, {"type": "node", "ref": 1706612160, "role": "platform"}, {"type": "node", "ref": 6533233470, "role": "platform"}, {"type": "node", "ref": 4687856164, "role": "platform"}, {"type": "node", "ref": 4687856182, "role": "platform"}, {"type": "node", "ref": 9220826584, "role": "platform"}, {"type": "way", "ref": 778477707, "role": "platform"}, {"type": "way", "ref": 778475369, "role": "platform"}, {"type": "way", "ref": 778477702, "role": "platform"}, {"type": "way", "ref": 778477703, "role": "platform"}, {"type": "way", "ref": 778477704, "role": "platform"}, {"type": "way", "ref": 778477705, "role": "platform"}, {"type": "way", "ref": 29917657, "role": ""}, {"type": "way", "ref": 488610139, "role": "shelter"}, {"type": "way", "ref": 488610140, "role": "shelter"}], "tags": {"alt_name": "Akoranga Busway Station", "name": "Akoranga Bus Station", "name:en": "Akoranga Bus Station", "name:mi": "Te Teihana Pahi o Akoranga", "operator": "Auckland Transport", "public_transport": "stop_area", "ref": "41382", "type": "public_transport", "wikidata": "Q4701539"}}, {"type": "relation", "id": 9791662, "members": [{"type": "way", "ref": 58379921, "role": ""}, {"type": "node", "ref": 724047949, "role": "platform"}, {"type": "node", "ref": 724048373, "role": "platform"}, {"type": "node", "ref": 495879188, "role": "platform"}, {"type": "node", "ref": 724048241, "role": "platform"}, {"type": "way", "ref": 324623426, "role": "shelter"}, {"type": "way", "ref": 324623582, "role": "shelter"}, {"type": "way", "ref": 324623581, "role": "shelter"}], "tags": {"name": "Takapuna Bus Station", "name:en": "Takapuna Bus Station", "name:mi": "Te Teihana Pahi o Takapuna", "network": "AT", "network:wikidata": "Q4819567", "official_name": "Takapuna", "operator": "Auckland Transport", "public_transport": "stop_area", "ref": "41123", "type": "public_transport"}}, {"type": "relation", "id": 9791755, "members": [{"type": "node", "ref": 4861537362, "role": "platform"}, {"type": "node", "ref": 8666222870, "role": "platform"}], "tags": {"name": "Harbourside Church", "network": "AT", "network:wikidata": "Q4819567", "official_name": "Esmonde Rd / Harbourside Church", "operator": "Auckland Transport", "public_transport": "stop_area", "ref": "61142", "type": "public_transport"}}, {"type": "relation", "id": 9841940, "members": [{"type": "node", "ref": 2611965385, "role": "platform"}, {"type": "node", "ref": 2611965380, "role": "platform"}], "tags": {"name": "Anzac Street", "name:en": "Anzac Street", "name:mi": "Te Tiriti o Anzac", "network": "AT", "network:wikidata": "Q4819567", "operator": "Auckland Transport", "public_transport": "stop_area", "ref": "41090", "type": "public_transport"}}, {"type": "relation", "id": 9841943, "members": [{"type": "node", "ref": 3311460164, "role": "platform"}], "tags": {"name": "Takapuna Methodist Church", "name:en": "Takapuna Methodist Church", "network": "AT", "network:wikidata": "Q4819567", "official_name": "Lake Rd / Takapuna Methodist Church", "operator": "Auckland Transport", "public_transport": "stop_area", "ref": "41835", "type": "public_transport"}}, {"type": "relation", "id": 12189559, "members": [{"type": "node", "ref": 5038729302, "role": "platform"}, {"type": "node", "ref": 2611965175, "role": "platform"}], "tags": {"name": "Milford Shops", "name:en": "Milford Shops", "name:mi": "Ng\u0101 Toa o Milford", "network": "AT", "network:wikidata": "Q4819567", "official_name": "Kitchener Rd / Milford Shops", "public_transport": "stop_area", "ref": "41102", "type": "public_transport"}}, {"type": "relation", "id": 12189560, "members": [{"type": "node", "ref": 3610458366, "role": "platform"}, {"type": "node", "ref": 3610458365, "role": "platform"}], "tags": {"name": "Milford Centre", "network": "AT", "network:wikidata": "Q4819567", "official_name": "Milford Rd / Milford Centre", "public_transport": "stop_area", "ref": "41097", "type": "public_transport"}}, {"type": "relation", "id": 12189561, "members": [{"type": "node", "ref": 3571719299, "role": "platform"}, {"type": "node", "ref": 4538583768, "role": "platform"}], "tags": {"name": "Milford Road", "name:en": "Milford Road", "name:mi": "Te Huarahi o Milford", "network": "AT", "network:wikidata": "Q4819567", "official_name": "Kitchener Rd / Milford Rd", "public_transport": "stop_area", "ref": "41096", "type": "public_transport"}}, {"type": "relation", "id": 12189562, "members": [{"type": "node", "ref": 2611965214, "role": "platform"}, {"type": "node", "ref": 2611965221, "role": "platform"}], "tags": {"name": "Saltburn Road", "name:en": "Saltburn Road", "name:mi": "Te Huarahi o Saltburn", "network": "AT", "network:wikidata": "Q4819567", "official_name": "Kitchener Rd / Saltburn Rd", "public_transport": "stop_area", "ref": "41095", "type": "public_transport"}}, {"type": "relation", "id": 12189563, "members": [{"type": "node", "ref": 2611965228, "role": "platform"}, {"type": "node", "ref": 2611965234, "role": "platform"}], "tags": {"name": "Muritai Road", "name:en": "Muritai Road", "name:mi": "Te Huarahi o Muritai", "network": "AT", "network:wikidata": "Q4819567", "official_name": "Kitchener Rd / Muritai Rd", "public_transport": "stop_area", "ref": "41094", "type": "public_transport"}}, {"type": "relation", "id": 12189564, "members": [{"type": "node", "ref": 2611965360, "role": "platform"}, {"type": "node", "ref": 2611965354, "role": "platform"}], "tags": {"name": "Eric Price Avenue", "name:en": "Eric Price Avenue", "name:mi": "Te Arah\u0101ngai o Eric Price", "network": "AT", "network:wikidata": "Q4819567", "official_name": "Kitchener Rd / Eric Price Ave", "public_transport": "stop_area", "ref": "41093", "type": "public_transport"}}, {"type": "relation", "id": 12189565, "members": [{"type": "node", "ref": 2611965374, "role": "platform"}, {"type": "node", "ref": 2611965367, "role": "platform"}], "tags": {"name": "O'Neills Avenue", "name:en": "O'Neills Avenue", "name:mi": "Te Arah\u0101ngai o O'Neills", "network": "AT", "network:wikidata": "Q4819567", "official_name": "Hurstmere Rd / O'Neills Ave", "public_transport": "stop_area", "ref": "41092", "type": "public_transport"}}, {"type": "relation", "id": 12189566, "members": [{"type": "node", "ref": 8323053233, "role": "platform"}], "tags": {"name": "Hurstmere Road / Killarney Street", "name:en": "Hurstmere Road / Killarney Street", "name:mi": "Te Huarahi o Hurstmere / Te Tiriti o Killarney", "network": "AT", "network:wikidata": "Q4819567", "official_name": "Hurstmere Rd / Killarney St", "public_transport": "stop_area", "ref": "49601", "type": "public_transport"}}, {"type": "relation", "id": 12189573, "members": [{"type": "node", "ref": 2611965377, "role": "platform"}], "tags": {"name": "Brett Avenue", "name:en": "Brett Avenue", "name:mi": "Te Arah\u0101ngai o Brett", "network": "AT", "network:wikidata": "Q4819567", "official_name": "Hurstmere Rd / Brett Ave", "public_transport": "stop_area", "ref": "41091", "type": "public_transport"}}, {"type": "relation", "id": 12189639, "members": [{"type": "node", "ref": 3610458370, "role": "platform"}, {"type": "node", "ref": 3610458369, "role": "platform"}], "tags": {"name": "Kitchener Road", "name:en": "Kitchener Road", "name:mi": "Te Huarahi o Kitchener", "network": "AT", "network:wikidata": "Q4819567", "official_name": "Shakespeare Rd / Kitchener Rd", "public_transport": "stop_area", "ref": "41103", "type": "public_transport"}}, {"type": "relation", "id": 12189640, "members": [{"type": "node", "ref": 3610458375, "role": "platform"}, {"type": "node", "ref": 3610458376, "role": "platform"}], "tags": {"name": "Milford School", "name:en": "Milford School", "name:mi": "Te Kura o Milford", "network": "AT", "network:wikidata": "Q4819567", "official_name": "Shakespeare Rd / Milford School", "public_transport": "stop_area", "ref": "41104", "type": "public_transport"}}, {"type": "relation", "id": 12189641, "members": [{"type": "node", "ref": 3610458379, "role": "platform"}, {"type": "node", "ref": 3610458381, "role": "platform"}], "tags": {"name": "Shakespeare Road / Alma Road", "name:en": "Shakespeare Road / Alma Road", "name:mi": "Te Huarahi o Shakespeare / Te Huarahi o Alma", "network": "AT", "network:wikidata": "Q4819567", "public_transport": "stop_area", "ref": "41105", "type": "public_transport"}}, {"type": "relation", "id": 12189642, "members": [{"type": "node", "ref": 3610458499, "role": "platform"}, {"type": "node", "ref": 3610458385, "role": "platform"}, {"type": "node", "ref": 10857165477, "role": "platform"}], "tags": {"name": "Shakespeare Road / Carmel College", "network": "AT", "network:wikidata": "Q4819567", "public_transport": "stop_area", "ref": "41107", "type": "public_transport"}}, {"type": "relation", "id": 12189643, "members": [{"type": "node", "ref": 3610458384, "role": "platform"}, {"type": "node", "ref": 3610458382, "role": "platform"}], "tags": {"name": "Napoleon Avenue", "name:en": "Napoleon Avenue", "name:mi": "Te Arah\u0101ngai o Napoleon", "network": "AT", "network:wikidata": "Q4819567", "official_name": "Waterloo Rd / Napoleon Ave", "public_transport": "stop_area", "ref": "41106", "type": "public_transport"}}, {"type": "relation", "id": 12189645, "members": [{"type": "node", "ref": 3610458509, "role": "platform"}, {"type": "node", "ref": 3610458508, "role": "platform"}], "tags": {"name": "Brook Street", "name:en": "Brook Street", "name:mi": "Te Tiriti o Brook", "network": "AT", "network:wikidata": "Q4819567", "official_name": "Shakespeare Rd / Brook St", "public_transport": "stop_area", "ref": "41109", "type": "public_transport"}}, {"type": "relation", "id": 14573920, "members": [{"type": "node", "ref": 3610458285, "role": "platform"}], "tags": {"name": "Kenmure Avenue", "name:en": "Kenmure Avenue", "name:mi": "Te Arah\u0101ngai o Kenmure", "network": "AT", "network:wikidata": "Q4819567", "official_name": "East Coast Rd / Kenmure Ave", "public_transport": "stop_area", "ref": "49584", "type": "public_transport"}}, {"type": "relation", "id": 14573921, "members": [{"type": "node", "ref": 3610458301, "role": "platform"}, {"type": "node", "ref": 3610458303, "role": "platform"}], "tags": {"name": "Castor Bay Road", "name:en": "Castor Bay Road", "name:mi": "Te Huarahi o Castor Bay", "official_name": "East Coast Rd / Rd and Castor Bay Rd", "public_transport": "stop_area", "ref": "21975", "type": "public_transport"}}, {"type": "relation", "id": 14573924, "members": [{"type": "node", "ref": 3610458313, "role": "platform"}], "tags": {"name": "Dewsbury Terrace", "name:en": "Dewsbury Terrace", "name:mi": "Te Parehua o Dewsbury", "official_name": "East Coast Rd / Dewsbury Terrace", "public_transport": "stop_area", "ref": "49585", "type": "public_transport"}}, {"type": "relation", "id": 14573925, "members": [{"type": "node", "ref": 3610458315, "role": "platform"}], "tags": {"name": "Crown Hill Shops", "name:en": "Crown Hill Shops", "name:mi": "Ng\u0101 Toa o Crown Hill", "official_name": "East Coast Rd / Crown Hill Shops", "public_transport": "stop_area", "ref": "41367", "type": "public_transport"}}, {"type": "relation", "id": 14573926, "members": [{"type": "node", "ref": 3610458319, "role": "platform"}], "tags": {"name": "Marsh Avenue", "name:en": "Marsh Avenue", "name:mi": "Te Arah\u0101ngai o Marsh", "network": "AT", "network:wikidata": "Q4819567", "official_name": "East Coast Rd / Marsh Ave", "public_transport": "stop_area", "ref": "41364", "type": "public_transport"}}, {"type": "relation", "id": 14573927, "members": [{"type": "node", "ref": 3610458323, "role": "platform"}], "tags": {"name": "Penning Road", "name:en": "Penning Road", "name:mi": "Te Huarahi o Penning", "network": "AT", "network:wikidata": "Q4819567", "official_name": "East Coast Rd / Penning Rd", "public_transport": "stop_area", "ref": "41362", "type": "public_transport"}}, {"type": "relation", "id": 14573928, "members": [{"type": "node", "ref": 3610458329, "role": "platform"}], "tags": {"name": "East Coast Road / Stanley Avenue", "name:en": "East Coast Road / Stanley Avenue", "name:mi": "Te Huarahi o East Coast / Te Arah\u0101ngai o Stanley", "network": "AT", "network:wikidata": "Q4819567", "official_name": "East Coast Rd / Stanley Ave", "public_transport": "stop_area", "ref": "41361", "type": "public_transport"}}, {"type": "relation", "id": 14573929, "members": [{"type": "node", "ref": 3610458320, "role": "platform"}], "tags": {"name": "Gordon Avenue", "name:en": "Gordon Avenue", "name:mi": "Te Arah\u0101ngai o Gordon", "network": "AT", "network:wikidata": "Q4819567", "official_name": "East Coast Rd / Gordon Ave", "public_transport": "stop_area", "ref": "41363", "type": "public_transport"}}, {"type": "relation", "id": 14573930, "members": [{"type": "node", "ref": 3610458354, "role": "platform"}, {"type": "node", "ref": 3907569824, "role": "platform"}], "tags": {"name": "Seaview Road", "official_name": "East Coast Rd / Seaview Rd", "public_transport": "stop_area", "ref": "41360", "type": "public_transport"}}, {"type": "relation", "id": 14578157, "members": [{"type": "node", "ref": 2822327267, "role": "platform"}, {"type": "node", "ref": 2822327266, "role": "platform"}], "tags": {"name": "Heath Avenue", "name:en": "Heath Avenue", "name:mi": "Te Arah\u0101ngai o Heath", "network": "AT", "network:wikidata": "Q4819567", "official_name": "Sylvan Ave / Heath Ave", "public_transport": "stop_area", "ref": "41139", "type": "public_transport"}}, {"type": "relation", "id": 14982124, "members": [{"type": "node", "ref": 2611965506, "role": "platform"}, {"type": "node", "ref": 2611965512, "role": "platform"}], "tags": {"name": "Bayview Road", "name:en": "Bayview Road", "name:mi": "Te Huarahi o Bayview", "network": "AT", "network:wikidata": "Q4819567", "official_name": "Lake Rd / Bayview Rd", "public_transport": "stop_area", "ref": "21977", "type": "public_transport"}}, {"type": "relation", "id": 14982125, "members": [{"type": "node", "ref": 2611965519, "role": "platform"}], "tags": {"name": "Jutland Road / Lake Road", "name:en": "Jutland Road / Lake Road", "network": "AT", "network:wikidata": "Q4819567", "official_name": "Jutland Rd / Lake Rd", "public_transport": "stop_area", "ref": "41080", "type": "public_transport"}}, {"type": "relation", "id": 14982126, "members": [{"type": "node", "ref": 8666222868, "role": "platform"}, {"type": "node", "ref": 3263007263, "role": "platform"}], "tags": {"name": "Hauraki Corner", "name:en": "Hauraki Corner", "name:mi": "Te Kokonga o Hauraki", "network": "AT", "network:wikidata": "Q4819567", "public_transport": "stop_area", "ref": "41081", "type": "public_transport"}}, {"type": "relation", "id": 14982127, "members": [{"type": "node", "ref": 2611965555, "role": "platform"}, {"type": "node", "ref": 2611965547, "role": "platform"}], "tags": {"name": "Northboro Road / Jutland Road", "name:en": "Northboro Road / Jutland Road", "name:mi": "Te Huarahi o Northboro / Te Huarahi o Jutland", "network": "AT", "network:wikidata": "Q4819567", "public_transport": "stop_area", "ref": "41074", "type": "public_transport"}}, {"type": "relation", "id": 15036835, "members": [{"type": "node", "ref": 3263007398, "role": "platform"}, {"type": "node", "ref": 3263007397, "role": "platform"}], "tags": {"name": "Eton Avenue", "name:en": "Eton Avenue", "name:mi": "Te Arah\u0101ngai o Eton", "network": "AT", "network:wikidata": "Q4819567", "official_name": "Tainui Rd / Eton Ave", "public_transport": "stop_area", "ref": "41021", "type": "public_transport"}}, {"type": "relation", "id": 15036836, "members": [{"type": "node", "ref": 3263007390, "role": "platform"}, {"type": "node", "ref": 3263007392, "role": "platform"}], "tags": {"name": "Mata\u012b Road", "name:en": "Mata\u012b Road", "name:mi": "Te Huarahi o Mata\u012b", "network": "AT", "network:wikidata": "Q4819567", "public_transport": "stop_area", "ref": "41022", "type": "public_transport"}}, {"type": "relation", "id": 15036837, "members": [{"type": "node", "ref": 2085588287, "role": "platform"}, {"type": "node", "ref": 2085588289, "role": "platform"}, {"type": "node", "ref": 3263007384, "role": "platform"}], "tags": {"name": "Vauxhall Road Shops", "name:en": "Vauxhall Road Shops", "name:mi": "Ng\u0101 Toa o te Huarahi o Vauxhall", "network": "AT", "network:wikidata": "Q4819567", "public_transport": "stop_area", "ref": "21978", "type": "public_transport"}}, {"type": "relation", "id": 15036838, "members": [{"type": "node", "ref": 2085588300, "role": "platform"}, {"type": "node", "ref": 2085588297, "role": "platform"}], "tags": {"name": "Albert Road", "official_name": "Vauxhall Rd / Albert Rd", "public_transport": "stop_area", "ref": "41024", "type": "public_transport"}}, {"type": "relation", "id": 15036839, "members": [{"type": "node", "ref": 3263007389, "role": "platform"}, {"type": "node", "ref": 3263007387, "role": "platform"}], "tags": {"name": "Cambria Road", "name:en": "Cambria Road", "name:mi": "Te Huarahi o Cambria", "network": "AT", "network:wikidata": "Q4819567", "public_transport": "stop_area", "ref": "41023", "type": "public_transport"}}, {"type": "relation", "id": 15036843, "members": [{"type": "node", "ref": 3263007394, "role": "platform"}, {"type": "node", "ref": 3263007395, "role": "platform"}], "tags": {"name": "Church Street", "name:en": "Church Street", "name:mi": "Te Tiriti o Church", "network": "AT", "network:wikidata": "Q4819567", "note": "AT has a typo in this station's name", "official_name": "Church Sreet", "public_transport": "stop_area", "ref": "41059", "type": "public_transport"}}, {"type": "relation", "id": 15036844, "members": [{"type": "node", "ref": 3263007396, "role": "platform"}], "tags": {"name": "Albert Road / Lake Road", "name:en": "Albert Road / Lake Road", "name:mi": "Te Huarahi o Albert / Te Huarahi o Lake", "network": "AT", "network:wikidata": "Q4819567", "public_transport": "stop_area", "ref": "41058", "type": "public_transport"}}, {"type": "relation", "id": 15635651, "members": [{"type": "node", "ref": 3311141917, "role": "platform"}, {"type": "node", "ref": 3311141919, "role": "platform"}], "tags": {"name": "Esmonde Road", "name:en": "Esmonde Road", "name:mi": "Te Huarahi o Esmonde", "network": "AT", "network:wikidata": "Q4819567", "official_name": "Burns Ave / Esmonde Rd", "public_transport": "stop_area", "ref": "41086", "type": "public_transport"}}, {"type": "relation", "id": 15635652, "members": [{"type": "node", "ref": 3311141905, "role": "platform"}, {"type": "node", "ref": 3311139575, "role": "platform"}], "tags": {"name": "Burns Avenue / Bracken Avenue", "name:en": "Burns Avenue / Bracken Avenue", "name:mi": "Te Arah\u0101ngai o Burns / Te Arah\u0101ngai o Bracken", "network": "AT", "network:wikidata": "Q4819567", "official_name": "Burns Ave / Bracken Ave", "public_transport": "stop_area", "ref": "41087", "type": "public_transport"}}, {"type": "relation", "id": 15635653, "members": [{"type": "node", "ref": 3263003860, "role": "platform"}, {"type": "node", "ref": 3263003859, "role": "platform"}], "tags": {"name": "Cameron Street", "name:en": "Cameron Street", "name:mi": "Te Tiriti o Cameron", "network": "AT", "network:wikidata": "Q4819567", "official_name": "Lake Rd / Cameron St", "public_transport": "stop_area", "ref": "41082", "type": "public_transport"}}, {"type": "relation", "id": 15635654, "members": [{"type": "node", "ref": 2611965568, "role": "platform"}, {"type": "node", "ref": 2611965562, "role": "platform"}, {"type": "way", "ref": 339891097, "role": "shelter"}], "tags": {"name": "Birchfield Road", "name:en": "Birchfield Road", "name:mi": "Te Huarahi o Birchfield", "network": "AT", "network:wikidata": "Q4819567", "official_name": "Northboro Rd / Birchfield Rd", "public_transport": "stop_area", "ref": "41073", "type": "public_transport"}}, {"type": "relation", "id": 15635655, "members": [{"type": "node", "ref": 3263007287, "role": "platform"}, {"type": "node", "ref": 3263007288, "role": "platform"}, {"type": "way", "ref": 1156854610, "role": "shelter"}], "tags": {"name": "Northboro Road / Eversleigh Road", "name:en": "Northboro Road / Eversleigh Road", "name:mi": "Te Huarahi o Northboro / Te Huarahi o Eversleigh", "network": "AT", "network:wikidata": "Q4819567", "public_transport": "stop_area", "ref": "41072", "type": "public_transport"}}, {"type": "relation", "id": 15635656, "members": [{"type": "node", "ref": 3263007269, "role": "platform"}, {"type": "node", "ref": 3263007270, "role": "platform"}], "tags": {"name": "Wilson School", "name:en": "Wilson School", "name:mi": "Te Kura o Wilson", "network": "AT", "network:wikidata": "Q4819567", "official_name": "Lake Rd / Wilson School", "public_transport": "stop_area", "ref": "41830", "type": "public_transport"}}, {"type": "relation", "id": 15635657, "members": [{"type": "node", "ref": 3263007280, "role": "platform"}], "tags": {"name": "Takapuna Grammar School", "name:en": "Takapuna Grammar School", "name:mi": "Te Kura Tuarua o Takapuna", "network": "AT", "network:wikidata": "Q4819567", "official_name": "Lake Rd / Takapuna Grammar School", "public_transport": "stop_area", "ref": "41832", "type": "public_transport"}}, {"type": "relation", "id": 15635658, "members": [{"type": "node", "ref": 3263007305, "role": "platform"}], "tags": {"name": "Belmont Intermediate School", "network": "AT", "network:wikidata": "Q4819567", "official_name": "Lake Rd / Belmont Intermediate School", "public_transport": "stop_area", "ref": "41069", "type": "public_transport"}}, {"type": "relation", "id": 15635659, "members": [{"type": "node", "ref": 3263007311, "role": "platform"}], "tags": {"name": "Winscombe Street", "name:en": "Winscombe Street", "name:mi": "Te Tiriti o Winscombe", "network": "AT", "network:wikidata": "Q4819567", "public_transport": "stop_area", "ref": "49599", "type": "public_transport"}}, {"type": "relation", "id": 15635660, "members": [{"type": "node", "ref": 3263007335, "role": "platform"}, {"type": "node", "ref": 3263007333, "role": "platform"}, {"type": "way", "ref": 911664077, "role": "shelter"}, {"type": "way", "ref": 911664076, "role": "shelter"}], "tags": {"name": "Moana Avenue", "name:en": "Moana Avenue", "name:mi": "Te Arah\u0101ngai o Moana", "network": "AT", "network:wikidata": "Q4819567", "official_name": "Bayswater Ave / Moana Ave", "public_transport": "stop_area", "ref": "41042", "type": "public_transport"}}, {"type": "relation", "id": 15635661, "members": [{"type": "node", "ref": 10559094500, "role": "platform"}, {"type": "node", "ref": 3263007338, "role": "platform"}, {"type": "way", "ref": 339639612, "role": "shelter"}, {"type": "way", "ref": 1156854612, "role": "shelter"}], "tags": {"name": "Preston Avenue", "name:en": "Preston Avenue", "name:mi": "Te Arah\u0101ngai o Preston", "network": "AT", "network:wikidata": "Q4819567", "official_name": "Bayswater Ave / Preston Ave", "public_transport": "stop_area", "ref": "41043", "type": "public_transport"}}, {"type": "relation", "id": 15635662, "members": [{"type": "node", "ref": 3263007343, "role": "platform"}, {"type": "node", "ref": 3263007346, "role": "platform"}, {"type": "way", "ref": 911664074, "role": "shelter"}, {"type": "way", "ref": 911664075, "role": "shelter"}], "tags": {"name": "Leander Road", "name:en": "Leander Road", "name:mi": "Te Huarahi o Leander", "network": "AT", "network:wikidata": "Q4819567", "official_name": "Bayswater Ave / Leander Rd", "public_transport": "stop_area", "ref": "41044", "type": "public_transport"}}, {"type": "relation", "id": 15635663, "members": [{"type": "node", "ref": 2559441305, "role": "platform"}, {"type": "node", "ref": 2611965585, "role": "platform"}, {"type": "way", "ref": 911664073, "role": "shelter"}, {"type": "way", "ref": 339492852, "role": "shelter"}], "tags": {"name": "Bayswater Park", "name:en": "Bayswater Park", "name:mi": "Te Papa R\u0113hia o Bayswater", "network": "AT", "network:wikidata": "Q4819567", "public_transport": "stop_area", "ref": "41046", "type": "public_transport"}}, {"type": "relation", "id": 15635664, "members": [{"type": "node", "ref": 2611965592, "role": "platform"}, {"type": "node", "ref": 2559441321, "role": "platform"}, {"type": "way", "ref": 339492802, "role": "shelter"}, {"type": "way", "ref": 339492707, "role": "shelter"}], "tags": {"name": "Sandy Bay Road", "name:en": "Sandy Bay Road", "name:mi": "Te Huarahi o Sandy Bay", "network": "AT", "network:wikidata": "Q4819567", "public_transport": "stop_area", "ref": "41047", "type": "public_transport"}}, {"type": "relation", "id": 15635665, "members": [{"type": "node", "ref": 3263007366, "role": "platform"}, {"type": "node", "ref": 3263007367, "role": "platform"}, {"type": "way", "ref": 339492503, "role": "shelter"}], "tags": {"name": "Balfour Street", "name:en": "Balfour Street", "name:mi": "Te Tiriti o Balfour", "network": "AT", "network:wikidata": "Q4819567", "official_name": "Bayswater Ave / Balfour St", "public_transport": "stop_area", "ref": "41048", "type": "public_transport"}}, {"type": "relation", "id": 15635666, "members": [{"type": "node", "ref": 3263007369, "role": "platform"}, {"type": "way", "ref": 911664070, "role": "shelter"}], "tags": {"name": "Lansdowne Street", "name:en": "Lansdowne Street", "name:mi": "Te Tiriti o Lansdowne", "network": "AT", "network:wikidata": "Q4819567", "official_name": "Bayswater Ave / Lansdowne St", "public_transport": "stop_area", "ref": "41049", "type": "public_transport"}}, {"type": "relation", "id": 15635667, "members": [{"type": "node", "ref": 3263007374, "role": "platform"}, {"type": "node", "ref": 3263007372, "role": "platform"}, {"type": "way", "ref": 339492574, "role": "shelter"}], "tags": {"name": "O'Neill's Park", "name:en": "O'Neill's Park", "name:mi": "Te Papa R\u0113hia o O'Neill", "network": "AT", "network:wikidata": "Q4819567", "official_name": "Bayswater Ave / Beresford St", "public_transport": "stop_area", "ref": "41050", "type": "public_transport"}}, {"type": "relation", "id": 15635673, "members": [{"type": "node", "ref": 2611965540, "role": "platform"}, {"type": "node", "ref": 2611965526, "role": "platform"}], "tags": {"name": "Clifton Road", "name:en": "Clifton Road", "name:mi": "Te Huarahi o Clifton", "network": "AT", "network:wikidata": "Q4819567", "official_name": "Lake Rd / Clifton Rd", "public_transport": "stop_area", "ref": "41833", "type": "public_transport"}}, {"type": "relation", "id": 15650517, "members": [{"type": "node", "ref": 3610458526, "role": "platform"}], "tags": {"name": "Shea Terrace", "public_transport": "stop_area", "type": "public_transport"}}, {"type": "relation", "id": 15650518, "members": [{"type": "node", "ref": 3610458540, "role": "platform"}], "tags": {"name": "Rangitira Avenue", "name:en": "Rangitira Avenue", "name:mi": "Te Arah\u0101ngai o Rangitira", "network": "AT", "network:wikidata": "Q4819567", "official_name": "Taharoto Rd / Rangitira Ave", "public_transport": "stop_area", "ref": "41115", "type": "public_transport"}}, {"type": "relation", "id": 15650519, "members": [{"type": "node", "ref": 3610458532, "role": "platform"}], "tags": {"name": "Northcote Road", "name:en": "Northcote Road", "name:mi": "Te Huarahi o Northcote", "network": "AT", "network:wikidata": "Q4819567", "official_name": "Taharoto Rd / Northcote Rd", "public_transport": "stop_area", "ref": "41113", "type": "public_transport"}}, {"type": "relation", "id": 15650520, "members": [{"type": "node", "ref": 3610348544, "role": "platform"}, {"type": "node", "ref": 3610458539, "role": "platform"}, {"type": "node", "ref": 10779233071, "role": "platform"}], "tags": {"name": "Taharoto Road", "name:en": "Taharoto Road", "name:mi": "Te Huarahi o Taharoto", "network": "AT", "network:wikidata": "Q4819567", "official_name": "Northcote Rd / Taharoto Rd", "public_transport": "stop_area", "ref": "41114", "type": "public_transport"}}, {"type": "relation", "id": 15650521, "members": [{"type": "node", "ref": 3610458548, "role": "platform"}], "tags": {"name": "Taharoto Park", "official_name": "Taharoto Rd / Taharoto Park", "public_transport": "stop_area", "ref": "41117", "type": "public_transport"}}, {"type": "relation", "id": 15650523, "members": [{"type": "node", "ref": 3610458561, "role": "platform"}, {"type": "node", "ref": 3610458571, "role": "platform"}], "tags": {"name": "Saint Joseph's Catholic Church", "name:en": "Saint Joseph's Catholic Church", "network": "AT", "network:wikidata": "Q4819567", "official_name": "Taharoto Rd / St Joseph's Catholic Church", "public_transport": "stop_area", "ref": "41116", "type": "public_transport"}}, {"type": "relation", "id": 15650524, "members": [{"type": "node", "ref": 495879202, "role": "platform"}, {"type": "node", "ref": 495879199, "role": "platform"}], "tags": {"name": "Barrys Point Road", "name:en": "Barrys Point Road", "name:mi": "Te Huarahi o Barrys Point", "network": "AT", "network:wikidata": "Q4819567", "official_name": "Anzac St / Barrys Point Rd", "public_transport": "stop_area", "ref": "41088", "type": "public_transport"}}, {"type": "relation", "id": 15650549, "members": [{"type": "node", "ref": 10857165478, "role": "platform"}, {"type": "node", "ref": 3610458380, "role": "platform"}, {"type": "node", "ref": 3610458378, "role": "platform"}], "tags": {"name": "Waterloo Road", "name:en": "Waterloo Road", "name:mi": "Te Huarahi o Waterloo", "network": "AT", "network:wikidata": "Q4819567", "public_transport": "stop_area", "ref": "41343", "type": "public_transport"}}, {"type": "relation", "id": 15650550, "members": [{"type": "node", "ref": 3610458372, "role": "platform"}, {"type": "node", "ref": 3610458371, "role": "platform"}], "tags": {"name": "Nile Road / Alma Road", "name:en": "Nile Road / Alma Road", "name:mi": "Te Huarahi o Nile / Te Huarahi o Alma", "network": "AT", "network:wikidata": "Q4819567", "official_name": "Nile Rd / Alma Rd", "public_transport": "stop_area", "ref": "41359", "type": "public_transport"}}, {"type": "relation", "id": 15650551, "members": [{"type": "node", "ref": 3610458359, "role": "platform"}, {"type": "node", "ref": 3610458360, "role": "platform"}], "tags": {"name": "Stanley Avenue / Nile Road", "name:en": "Stanley Avenue / Nile Road", "name:mi": "Te Arah\u0101ngai o Stanley / Te Huarahi o Nile", "network": "AT", "network:wikidata": "Q4819567", "official_name": "Stanley Ave / Nile Rd", "public_transport": "stop_area", "ref": "41358", "type": "public_transport"}}, {"type": "relation", "id": 15650560, "members": [{"type": "node", "ref": 3610458356, "role": "platform"}, {"type": "node", "ref": 3610458357, "role": "platform"}], "tags": {"name": "Dallinghoe Crescent / Stanley Avenue", "network": "AT", "network:wikidata": "Q4819567", "official_name": "Dallinghoe Crescent / Stanley Ave", "public_transport": "stop_area", "ref": "41357", "type": "public_transport"}}, {"type": "relation", "id": 15650561, "members": [{"type": "node", "ref": 3610458363, "role": "platform"}, {"type": "node", "ref": 3610458364, "role": "platform"}], "tags": {"name": "Dallinghoe Crescent", "network": "AT", "network:wikidata": "Q4819567", "official_name": "Wolsley Ave / Dallinghoe Crescent", "public_transport": "stop_area", "ref": "41356", "type": "public_transport"}}, {"type": "relation", "id": 15654892, "members": [{"type": "node", "ref": 3593838571, "role": "platform"}, {"type": "node", "ref": 3593838573, "role": "platform"}], "tags": {"name": "K\u014dwhai Road", "name:en": "K\u014dwhai Road", "name:mi": "Te Huarahi o K\u014dwhai", "network": "AT", "network:wikidata": "Q4819567", "official_name": "Beach Rd / Kowhai Rd", "public_transport": "stop_area", "ref": "41392", "type": "public_transport"}}, {"type": "relation", "id": 15654893, "members": [{"type": "node", "ref": 3593838579, "role": "platform"}, {"type": "node", "ref": 3593838584, "role": "platform"}, {"type": "way", "ref": 1157849863, "role": "shelter"}], "tags": {"name": "View Road", "name:en": "View Road", "name:mi": "Te Huarahi o View", "network": "AT", "network:wikidata": "Q4819567", "official_name": "Beach Rd / View Rd", "public_transport": "stop_area", "ref": "41391", "type": "public_transport"}}, {"type": "relation", "id": 15654894, "members": [{"type": "node", "ref": 3593838591, "role": "platform"}], "tags": {"name": "Channel View Road", "name:en": "Channel View Road", "name:mi": "Te Huarahi o Channel View", "network": "AT", "network:wikidata": "Q4819567", "official_name": "Beach Rd / Channel View Rd", "public_transport": "stop_area", "ref": "41390", "type": "public_transport"}}, {"type": "relation", "id": 15654895, "members": [{"type": "node", "ref": 3593838593, "role": "platform"}, {"type": "way", "ref": 1157849862, "role": "shelter"}], "tags": {"name": "Saint John's Anglican Church", "network": "AT", "network:wikidata": "Q4819567", "official_name": "Beach Rd / St John's Anglican Church", "public_transport": "stop_area", "ref": "49580", "type": "public_transport"}}, {"type": "relation", "id": 15654896, "members": [{"type": "node", "ref": 3593838598, "role": "platform"}, {"type": "node", "ref": 3593838595, "role": "platform"}, {"type": "way", "ref": 1157849860, "role": "shelter"}, {"type": "way", "ref": 1157849861, "role": "shelter"}], "tags": {"name": "The Espalande", "network": "AT", "network:wikidata": "Q4819567", "official_name": "Beach Rd / The Esplanade", "public_transport": "stop_area", "ref": "41389", "type": "public_transport"}}, {"type": "relation", "id": 15654897, "members": [{"type": "node", "ref": 3593838617, "role": "platform"}, {"type": "node", "ref": 3593838608, "role": "platform"}, {"type": "way", "ref": 1157849858, "role": "shelter"}, {"type": "way", "ref": 1157849859, "role": "shelter"}], "tags": {"name": "Park Rise", "network": "AT", "network:wikidata": "Q4819567", "official_name": "Beach Rd / Park Rise", "public_transport": "stop_area", "ref": "41388", "type": "public_transport"}}, {"type": "relation", "id": 15908298, "members": [{"type": "node", "ref": 10779233055, "role": "platform"}, {"type": "node", "ref": 10779233056, "role": "platform"}], "tags": {"name": "AUT North Shore Gate 2", "network": "AT", "network:wikidata": "Q4819567", "public_transport": "stop_area", "ref": "21972", "type": "public_transport"}}, {"type": "relation", "id": 15908300, "members": [{"type": "node", "ref": 2085588282, "role": "platform"}, {"type": "node", "ref": 2085588283, "role": "platform"}], "tags": {"name": "Morrison Avenue", "name:en": "Morrison Avenue", "name:mi": "Te Arah\u0101ngai o Morrison", "network": "AT", "network:wikidata": "Q4819567", "public_transport": "stop_area", "ref": "41025", "type": "public_transport"}}, {"type": "relation", "id": 15908301, "members": [{"type": "node", "ref": 2085588284, "role": "platform"}, {"type": "node", "ref": 2085588285, "role": "platform"}], "tags": {"name": "Ascot Avenue", "name:en": "Ascot Avenue", "name:mi": "Te Arah\u0101ngai o Ascot", "network": "AT", "network:wikidata": "Q4819567", "public_transport": "stop_area", "ref": "41027", "type": "public_transport"}}, {"type": "relation", "id": 15908302, "members": [{"type": "node", "ref": 3263007364, "role": "platform"}, {"type": "node", "ref": 3263007355, "role": "platform"}], "tags": {"name": "Narrow Neck Beach", "network": "AT", "network:wikidata": "Q4819567", "public_transport": "stop_area", "ref": "41029", "type": "public_transport"}}, {"type": "relation", "id": 15908303, "members": [{"type": "node", "ref": 3263007351, "role": "platform"}, {"type": "node", "ref": 10559094501, "role": "platform"}], "tags": {"name": "Merani Street", "name:en": "Merani Street", "name:mi": "Te Tiriti o Merani", "network": "AT", "network:wikidata": "Q4819567", "public_transport": "stop_area", "ref": "41031", "type": "public_transport"}}, {"type": "relation", "id": 15908304, "members": [{"type": "node", "ref": 3263007353, "role": "platform"}, {"type": "node", "ref": 3263007352, "role": "platform"}], "tags": {"name": "Wicklow Road", "name:en": "Wicklow Road", "name:mi": "Te Huarahi o Wicklow", "network": "AT", "network:wikidata": "Q4819567", "public_transport": "stop_area", "ref": "41033", "type": "public_transport"}}, {"type": "relation", "id": 15908305, "members": [{"type": "node", "ref": 3263007356, "role": "platform"}, {"type": "node", "ref": 3263007354, "role": "platform"}], "tags": {"name": "Old Lake Road / Fraser Road", "name:en": "Old Lake Road / Fraser Road", "name:mi": "Te Huarahi o Old Lake / Te Huarahi o Fraser", "network": "AT", "network:wikidata": "Q4819567", "public_transport": "stop_area", "ref": "41035", "type": "public_transport"}}, {"type": "relation", "id": 15908306, "members": [{"type": "node", "ref": 3263007359, "role": "platform"}, {"type": "node", "ref": 3263007362, "role": "platform"}], "tags": {"name": "Lake Rd / Kawerau Ave", "public_transport": "stop_area", "ref": "41036", "type": "public_transport"}}, {"type": "relation", "id": 15908307, "members": [{"type": "node", "ref": 3263007370, "role": "platform"}, {"type": "node", "ref": 3263007368, "role": "platform"}], "tags": {"name": "Regent Street", "name:en": "Regent Street", "name:mi": "Te Tiriti o Regent", "network": "AT", "network:wikidata": "Q4819567", "public_transport": "stop_area", "ref": "41038", "type": "public_transport"}}, {"type": "relation", "id": 15908308, "members": [{"type": "node", "ref": 3263007378, "role": "platform"}, {"type": "node", "ref": 3263007376, "role": "platform"}], "tags": {"name": "Wesley Street", "name:en": "Wesley Street", "name:mi": "Te Tiriti o Wesley", "network": "AT", "network:wikidata": "Q4819567", "public_transport": "stop_area", "ref": "41039", "type": "public_transport"}}, {"type": "relation", "id": 15908309, "members": [{"type": "node", "ref": 3263003857, "role": "platform"}, {"type": "node", "ref": 3263007339, "role": "platform"}], "tags": {"name": "Montgomery Avenue", "name:en": "Montgomery Avenue", "name:mi": "Te Arah\u0101ngai o Montgomery", "network": "AT", "network:wikidata": "Q4819567", "public_transport": "stop_area", "ref": "41041", "type": "public_transport"}}, {"type": "relation", "id": 15908310, "members": [{"type": "node", "ref": 3263007379, "role": "platform"}, {"type": "node", "ref": 3263007377, "role": "platform"}], "tags": {"name": "William Sanders Retirement Village", "network": "AT", "network:wikidata": "Q4819567", "public_transport": "stop_area", "ref": "41060", "type": "public_transport"}}, {"type": "relation", "id": 15908311, "members": [{"type": "node", "ref": 3263007320, "role": "platform"}, {"type": "node", "ref": 10857165474, "role": "platform"}], "tags": {"name": "Williamson Avenue", "name:en": "Williamson Avenue", "name:mi": "Te Arah\u0101ngai o Williamson", "network": "AT", "network:wikidata": "Q4819567", "public_transport": "stop_area", "ref": "41064", "type": "public_transport"}}, {"type": "relation", "id": 15908312, "members": [{"type": "node", "ref": 3263007315, "role": "platform"}, {"type": "node", "ref": 3263007316, "role": "platform"}], "tags": {"name": "Coronation Street", "name:en": "Coronation Street", "name:mi": "Te Tiriti o Coronation", "network": "AT", "network:wikidata": "Q4819567", "public_transport": "stop_area", "ref": "41070", "type": "public_transport"}}, {"type": "relation", "id": 15908313, "members": [{"type": "node", "ref": 3263007295, "role": "platform"}, {"type": "node", "ref": 3263007301, "role": "platform"}], "tags": {"name": "Rutherford Street", "name:en": "Rutherford Street", "name:mi": "Te Tiriti o Rutherford", "network": "AT", "network:wikidata": "Q4819567", "public_transport": "stop_area", "ref": "41071", "type": "public_transport"}}, {"type": "relation", "id": 15908314, "members": [{"type": "node", "ref": 3610458346, "role": "platform"}, {"type": "node", "ref": 10779233092, "role": "platform"}], "tags": {"name": "\u014cmana Road", "name:en": "\u014cmana Road", "name:mi": "Te Huarahi o \u014cmana", "network": "AT", "network:wikidata": "Q4819567", "public_transport": "stop_area", "ref": "41100", "type": "public_transport"}}, {"type": "relation", "id": 15908316, "members": [{"type": "node", "ref": 3610477419, "role": "platform"}, {"type": "node", "ref": 3610477418, "role": "platform"}], "tags": {"name": "North Shore Hospital", "name:en": "North Shore Hospital", "name:mi": "Te H\u014dhipera o Te Raki Paewhenua", "network": "AT", "network:wikidata": "Q4819567", "public_transport": "stop_area", "ref": "41112", "type": "public_transport"}}, {"type": "relation", "id": 15908317, "members": [{"type": "node", "ref": 3610458574, "role": "platform"}, {"type": "node", "ref": 3610458575, "role": "platform"}], "tags": {"name": "Saint Joseph's Catholic School", "name:en": "Saint Joseph's Catholic School", "network": "AT", "network:wikidata": "Q4819567", "official_name": "St Joseph's Catholic School", "public_transport": "stop_area", "ref": "41118", "type": "public_transport"}}, {"type": "relation", "id": 15908318, "members": [{"type": "node", "ref": 3610458578, "role": "platform"}, {"type": "node", "ref": 3610458272, "role": "platform"}], "tags": {"name": "Rosmini College", "name:en": "Rosmini College", "network": "AT", "network:wikidata": "Q4819567", "public_transport": "stop_area", "ref": "41119", "type": "public_transport"}}, {"type": "relation", "id": 15908319, "members": [{"type": "node", "ref": 3610458585, "role": "platform"}, {"type": "node", "ref": 3610458589, "role": "platform"}], "tags": {"name": "P\u016briri Street", "name:en": "P\u016briri Street", "name:mi": "Te Tiriti o P\u016briri", "network": "AT", "network:wikidata": "Q4819567", "public_transport": "stop_area", "ref": "41120", "type": "public_transport"}}, {"type": "relation", "id": 15908320, "members": [{"type": "node", "ref": 3610458558, "role": "platform"}, {"type": "node", "ref": 3610458565, "role": "platform"}], "tags": {"name": "25 and 38 Karaka Street", "name:en": "25 and 38 Karaka Street", "name:mi": "25 m\u0101 38 ki te Tiriti o Karaka", "network": "AT", "network:wikidata": "Q4819567", "public_transport": "stop_area", "ref": "41121", "type": "public_transport"}}, {"type": "relation", "id": 15908321, "members": [{"type": "node", "ref": 3610477420, "role": "platform"}, {"type": "node", "ref": 3610458526, "role": "platform"}], "tags": {"name": "Shea Terrace", "name:en": "Shea Terrace", "name:mi": "Te Parehua o Shea", "network": "AT", "network:wikidata": "Q4819567", "public_transport": "stop_area", "ref": "41124", "type": "public_transport"}}, {"type": "relation", "id": 15908323, "members": [{"type": "node", "ref": 2822348560, "role": "platform"}, {"type": "node", "ref": 955886627, "role": "platform"}], "tags": {"name": "AUT North Shore Gate 1", "network": "AT", "network:wikidata": "Q4819567", "public_transport": "stop_area", "ref": "41131", "type": "public_transport"}}, {"type": "relation", "id": 15908370, "members": [{"type": "node", "ref": 3593838676, "role": "platform"}, {"type": "node", "ref": 3593838672, "role": "platform"}], "tags": {"name": "45 and 60 Aberdeen Road", "name:en": "45 and 60 Aberdeen Road", "name:mi": "45 m\u0101 60 ki te Huarahi o Aberdeen", "network": "AT", "network:wikidata": "Q4819567", "public_transport": "stop_area", "ref": "41371", "type": "public_transport"}}, {"type": "relation", "id": 15908371, "members": [{"type": "node", "ref": 3593838666, "role": "platform"}, {"type": "node", "ref": 3593838655, "role": "platform"}], "tags": {"name": "Campbells Bay School", "name:en": "Campbells Bay School", "name:mi": "Te Kura o Campbells Bay", "network": "AT", "network:wikidata": "Q4819567", "public_transport": "stop_area", "ref": "41372", "type": "public_transport"}}, {"type": "relation", "id": 15908372, "members": [{"type": "node", "ref": 3610458265, "role": "platform"}, {"type": "node", "ref": 3610458264, "role": "platform"}, {"type": "way", "ref": 454985284, "role": "shelter"}, {"type": "way", "ref": 454985286, "role": "shelter"}], "tags": {"name": "Commodore Parry Road", "name:en": "Commodore Parry Road", "name:mi": "Te Huarahi o Commodore Parry", "network": "AT", "network:wikidata": "Q4819567", "public_transport": "stop_area", "ref": "41375", "type": "public_transport"}}, {"type": "relation", "id": 15908373, "members": [{"type": "node", "ref": 3610458312, "role": "platform"}, {"type": "node", "ref": 3610458311, "role": "platform"}], "tags": {"name": "Beach Road / Rahopara Street", "network": "AT", "network:wikidata": "Q4819567", "public_transport": "stop_area", "ref": "41376", "type": "public_transport"}}, {"type": "relation", "id": 15908374, "members": [{"type": "node", "ref": 3610458278, "role": "platform"}], "tags": {"name": "Castor Bay Road", "name:en": "Castor Bay Road", "name:mi": "Te Huarahi o Castor Bay", "public_transport": "stop_area", "ref": "41378", "type": "public_transport"}}, {"type": "relation", "id": 15908375, "members": [{"type": "node", "ref": 3610458274, "role": "platform"}, {"type": "node", "ref": 10779233090, "role": "platform"}], "tags": {"name": "Kennedy Park", "name:en": "Kennedy Park", "name:mi": "Te Papa R\u0113hia o Kennedy", "network": "AT", "network:wikidata": "Q4819567", "public_transport": "stop_area", "ref": "41379", "type": "public_transport"}}, {"type": "relation", "id": 15908376, "members": [{"type": "node", "ref": 3593838626, "role": "platform"}, {"type": "node", "ref": 3593838628, "role": "platform"}], "tags": {"name": "Red Bluff Road", "name:en": "Red Bluff Road", "name:mi": "Te Huarahi o Red Bluff", "network": "AT", "network:wikidata": "Q4819567", "note": "The name OTG is actually Red Bluff Road and not Red Bluff Rise as it should", "public_transport": "stop_area", "ref": "41387", "type": "public_transport"}}, {"type": "relation", "id": 15908402, "members": [{"type": "node", "ref": 3263007313, "role": "platform"}, {"type": "node", "ref": 3263007309, "role": "platform"}], "tags": {"name": "Creamer Avenue / Eversleigh Road", "name:en": "Creamer Avenue / Eversleigh Road", "name:mi": "Te Arah\u0101ngai o Creamer / Te Huarahi o Eversleigh", "network": "AT", "network:wikidata": "Q4819567", "public_transport": "stop_area", "ref": "41642", "type": "public_transport"}}, {"type": "relation", "id": 15908404, "members": [{"type": "node", "ref": 3263007386, "role": "platform"}, {"type": "node", "ref": 3263007388, "role": "platform"}], "tags": {"name": "Mozeley Avenue", "name:en": "Mozeley Avenue", "name:mi": "Te Arah\u0101ngai o Mozeley", "network": "AT", "network:wikidata": "Q4819567", "public_transport": "stop_area", "ref": "41829", "type": "public_transport"}}, {"type": "relation", "id": 15908406, "members": [{"type": "node", "ref": 3311667950, "role": "platform"}, {"type": "node", "ref": 3311725128, "role": "platform"}], "tags": {"name": "Des Swann Drive", "name:en": "Des Swann Drive", "name:mi": "Te Ara \u0100whio o Des Swann", "network": "AT", "network:wikidata": "Q4819567", "public_transport": "stop_area", "ref": "49529", "type": "public_transport"}}, {"type": "relation", "id": 15908407, "members": [{"type": "node", "ref": 3593838638, "role": "platform"}, {"type": "node", "ref": 3593838653, "role": "platform"}], "tags": {"name": "Aberdeen Road", "name:en": "Aberdeen Road", "name:mi": "Te Huarahi o Aberdeen", "network": "AT", "network:wikidata": "Q4819567", "public_transport": "stop_area", "ref": "49582", "type": "public_transport"}}, {"type": "relation", "id": 15908409, "members": [{"type": "node", "ref": 3263007381, "role": "platform"}, {"type": "node", "ref": 6174757019, "role": "stop"}], "tags": {"name": "Ferry Terminal - Bayswater", "public_transport": "stop_area", "ref": "96401", "type": "public_transport"}}, {"type": "relation", "id": 16385236, "members": [{"type": "node", "ref": 3610458281, "role": "platform"}], "tags": {"name": "Castor Bay Beach", "name:en": "Castor Bay Beach", "name:mi": "Te Takutai o Castor Bay", "network": "AT", "network:wikidata": "Q4819567", "public_transport": "stop_area", "type": "public_transport"}}]}