{"version": 0.6, "generator": "Overpass API 0.7.62.8 e802775f", "osm3s": {"timestamp_osm_base": "2026-01-12T06:34:41Z", "copyright": "The data included in this document is from www.openstreetmap.org. The data is made available under ODbL."}, "elements": [{"type": "node", "id": 256203226, "lat": 12.9387188, "lon": 80.1253489}, {"type": "node", "id": 256203231, "lat": 12.9400572, "lon": 80.1258982}, {"type": "node", "id": 308811614, "lat": 12.9787682, "lon": 80.1846471, "tags": {"addr:block": "Tambaram Mpty", "addr:city": "Chennai", "addr:district": "Kanchipuram", "addr:full": "Near By Ranga Theatre, Chennai, 100 Feet Road, Hinducolony, Nanagnanllur", "addr:postcode": "603209", "addr:state": "Tamil Nadu", "amenity": "hospital", "healthcare": "hospital", "name": "Hindu Mission Health Services, Kanchipuram", "source": "OpenGovernmentData"}}, {"type": "node", "id": 311429396, "lat": 12.973463, "lon": 80.1841397, "tags": {"addr:district": "Kanchipuram", "addr:full": "5, Sarwamangala Nagar, Nanganallur", "addr:postcode": "600061", "addr:state": "Tamil Nadu", "amenity": "hospital", "healthcare": "hospital", "name": "K.F. Hospital", "source": "OpenGovernmentData"}}, {"type": "node", "id": 347340595, "lat": 12.945793, "lon": 80.1289257}, {"type": "node", "id": 347340596, "lat": 12.9448728, "lon": 80.1310714}, {"type": "node", "id": 347340597, "lat": 12.9439108, "lon": 80.1312088}, {"type": "node", "id": 347340598, "lat": 12.9429907, "lon": 80.133406}, {"type": "node", "id": 347340599, "lat": 12.9396865, "lon": 80.1299385}, {"type": "node", "id": 347340600, "lat": 12.9406067, "lon": 80.1284794}, {"type": "node", "id": 347340601, "lat": 12.9379884, "lon": 80.1264623}, {"type": "node", "id": 347340602, "lat": 12.9402905, "lon": 80.1255733}, {"type": "node", "id": 347340603, "lat": 12.9431747, "lon": 80.1268486}, {"type": "node", "id": 347340604, "lat": 12.9450568, "lon": 80.1286853}, {"type": "node", "id": 347340629, "lat": 12.9382412, "lon": 80.1266571}, {"type": "node", "id": 347340915, "lat": 12.9413679, "lon": 80.1317152}, {"type": "node", "id": 347340957, "lat": 12.9414934, "lon": 80.1312517}, {"type": "node", "id": 347340958, "lat": 12.941142, "lon": 80.1308225}, {"type": "node", "id": 347340959, "lat": 12.940828, "lon": 80.1311446}, {"type": "node", "id": 559841171, "lat": 12.9459103, "lon": 80.136846}, {"type": "node", "id": 559841172, "lat": 12.946056, "lon": 80.1365496}, {"type": "node", "id": 559841173, "lat": 12.9462397, "lon": 80.1366447}, {"type": "node", "id": 559841174, "lat": 12.9463763, "lon": 80.1367566}, {"type": "node", "id": 559841175, "lat": 12.9465514, "lon": 80.1369008}, {"type": "node", "id": 559841177, "lat": 12.9460939, "lon": 80.1369411}, {"type": "node", "id": 559841178, "lat": 12.946184, "lon": 80.1370863}, {"type": "node", "id": 559841179, "lat": 12.9463694, "lon": 80.1372064}, {"type": "node", "id": 591555028, "lat": 12.9447938, "lon": 80.1405596, "tags": {"amenity": "hospital", "healthcare": "hospital", "name": "skandan nursing home"}}, {"type": "node", "id": 983957837, "lat": 12.965059, "lon": 80.128212, "tags": {"addr:district": "Kanchipuram", "addr:full": "No.1, 3Road Cross St. Sankar Nagar, Pammal", "addr:postcode": "600075", "addr:state": "Tamil Nadu", "amenity": "hospital", "healthcare": "hospital", "name": "Sankara Eye Hospital, Kanchipuram", "source": "OpenGovernmentData"}}, {"type": "node", "id": 1129195836, "lat": 12.9445695, "lon": 80.1210689, "tags": {"amenity": "hospital"}}, {"type": "node", "id": 1905763222, "lat": 12.9534134, "lon": 80.1395627}, {"type": "node", "id": 1905763231, "lat": 12.9549427, "lon": 80.1400408}, {"type": "node", "id": 1905763233, "lat": 12.9550487, "lon": 80.1398017}, {"type": "node", "id": 1905763234, "lat": 12.9554426, "lon": 80.1399061}, {"type": "node", "id": 1905763239, "lat": 12.9557307, "lon": 80.1394887}, {"type": "node", "id": 1905763242, "lat": 12.9559129, "lon": 80.1395887}, {"type": "node", "id": 1905763246, "lat": 12.956129, "lon": 80.1389062}, {"type": "node", "id": 1979247767, "lat": 12.9730642, "lon": 80.1339663, "tags": {"addr:district": "Kanchipuram", "addr:full": "Plot No.6, Gokulam Colony, Anna Salai, Pammal, Kanchepuram", "addr:postcode": "600075", "addr:state": "Tamil Nadu", "amenity": "hospital", "emergency": "yes", "healthcare": "hospital", "name": "B.P. Jain Hospital (Sri Sankara Health Centre)", "source": "OpenGovernmentData"}}, {"type": "node", "id": 2086712439, "lat": 12.9559409, "lon": 80.1855637, "tags": {"amenity": "hospital", "healthcare": "hospital"}}, {"type": "node", "id": 2145405955, "lat": 12.9786524, "lon": 80.1850278, "tags": {"addr:city": "Chennai", "amenity": "hospital", "healthcare": "hospital", "name": "Sri Chakra Hospital"}}, {"type": "node", "id": 3157617785, "lat": 12.9255743, "lon": 80.1281333, "tags": {"addr:district": "Chengalpattu", "addr:housenumber": "2", "addr:postcode": "600059", "addr:state": "Tamil Nadu", "addr:street": "Kalidasar Street", "amenity": "hospital", "healthcare": "hospital", "name": "Dr Mohan's Diabetes Hospital", "source": "Local Knowledge"}}, {"type": "node", "id": 3602473678, "lat": 12.9615714, "lon": 80.1468902}, {"type": "node", "id": 3602473679, "lat": 12.961703, "lon": 80.1469834}, {"type": "node", "id": 3602473682, "lat": 12.9618824, "lon": 80.1464168}, {"type": "node", "id": 3602473688, "lat": 12.9620003, "lon": 80.1464888}, {"type": "node", "id": 3685254890, "lat": 12.9296766, "lon": 80.1162592}, {"type": "node", "id": 3685254892, "lat": 12.9296946, "lon": 80.1160571}, {"type": "node", "id": 3685254910, "lat": 12.9298353, "lon": 80.1162741}, {"type": "node", "id": 3685254915, "lat": 12.9298534, "lon": 80.116072}, {"type": "node", "id": 4911075821, "lat": 12.9261223, "lon": 80.1265186, "tags": {"amenity": "hospital", "healthcare": "hospital", "name:en": "Lakshya fertility hospital"}}, {"type": "node", "id": 4936671730, "lat": 13.0038364, "lon": 80.1119097}, {"type": "node", "id": 4936671731, "lat": 13.0038388, "lon": 80.1119297}, {"type": "node", "id": 4936671732, "lat": 13.0037711, "lon": 80.111948}, {"type": "node", "id": 4936671733, "lat": 13.0037613, "lon": 80.1119097}, {"type": "node", "id": 4936671734, "lat": 13.0036471, "lon": 80.1117961}, {"type": "node", "id": 4936671735, "lat": 13.0037069, "lon": 80.1117988}, {"type": "node", "id": 4936671736, "lat": 13.0037085, "lon": 80.1117605}, {"type": "node", "id": 4936671737, "lat": 13.0036488, "lon": 80.1117578}, {"type": "node", "id": 4936671738, "lat": 13.0037137, "lon": 80.1120266}, {"type": "node", "id": 4936671739, "lat": 13.0037115, "lon": 80.1121054}, {"type": "node", "id": 4936671740, "lat": 13.0036531, "lon": 80.1121037}, {"type": "node", "id": 4936671741, "lat": 13.0036553, "lon": 80.1120248}, {"type": "node", "id": 4936671742, "lat": 13.0037359, "lon": 80.1119024}, {"type": "node", "id": 4936671743, "lat": 13.0037318, "lon": 80.1119903}, {"type": "node", "id": 4936671744, "lat": 13.0036328, "lon": 80.1119854}, {"type": "node", "id": 4936671745, "lat": 13.0036369, "lon": 80.1118976}, {"type": "node", "id": 4936671746, "lat": 13.0037097, "lon": 80.1116911}, {"type": "node", "id": 4936671747, "lat": 13.0037097, "lon": 80.1117106}, {"type": "node", "id": 4936671748, "lat": 13.0038345, "lon": 80.1117159}, {"type": "node", "id": 4936671749, "lat": 13.0038332, "lon": 80.1116965}, {"type": "node", "id": 4936671750, "lat": 13.0039619, "lon": 80.1117019}, {"type": "node", "id": 4936671751, "lat": 13.0039658, "lon": 80.1116442}, {"type": "node", "id": 4936671752, "lat": 13.0040893, "lon": 80.1116522}, {"type": "node", "id": 4936671753, "lat": 13.0040945, "lon": 80.1116221}, {"type": "node", "id": 4936671754, "lat": 13.004169, "lon": 80.1116274}, {"type": "node", "id": 4936671755, "lat": 13.0041677, "lon": 80.111661}, {"type": "node", "id": 4936671756, "lat": 13.0043238, "lon": 80.1116697}, {"type": "node", "id": 4936671757, "lat": 13.0043245, "lon": 80.1116985}, {"type": "node", "id": 4936671758, "lat": 13.004365, "lon": 80.1117012}, {"type": "node", "id": 4936671759, "lat": 13.0043617, "lon": 80.1117984}, {"type": "node", "id": 4936671760, "lat": 13.0044081, "lon": 80.1117977}, {"type": "node", "id": 4936671761, "lat": 13.0044068, "lon": 80.1116978}, {"type": "node", "id": 4936671762, "lat": 13.0046133, "lon": 80.1117099}, {"type": "node", "id": 4936671763, "lat": 13.0045983, "lon": 80.1120029}, {"type": "node", "id": 4936671764, "lat": 13.0045244, "lon": 80.1120713}, {"type": "node", "id": 4936671765, "lat": 13.0041468, "lon": 80.1120593}, {"type": "node", "id": 4936671766, "lat": 13.0041494, "lon": 80.1119547}, {"type": "node", "id": 4936671767, "lat": 13.004054, "lon": 80.1118333}, {"type": "node", "id": 4936671768, "lat": 13.0039736, "lon": 80.1118608}, {"type": "node", "id": 4936671769, "lat": 13.0040089, "lon": 80.1119131}, {"type": "node", "id": 4936671770, "lat": 13.0039462, "lon": 80.1119359}, {"type": "node", "id": 4936671771, "lat": 13.0039606, "lon": 80.1119681}, {"type": "node", "id": 4936671772, "lat": 13.0039815, "lon": 80.1119587}, {"type": "node", "id": 4936671773, "lat": 13.0039919, "lon": 80.1120096}, {"type": "node", "id": 4936671774, "lat": 13.0038247, "lon": 80.1120512}, {"type": "node", "id": 4936671775, "lat": 13.0038456, "lon": 80.1121344}, {"type": "node", "id": 4936671776, "lat": 13.0037842, "lon": 80.1121531}, {"type": "node", "id": 4936671777, "lat": 13.0037803, "lon": 80.1121947}, {"type": "node", "id": 4936671778, "lat": 13.0035176, "lon": 80.1121786}, {"type": "node", "id": 4936671779, "lat": 13.0035307, "lon": 80.1119815}, {"type": "node", "id": 4936671780, "lat": 13.0035646, "lon": 80.1119842}, {"type": "node", "id": 4936671781, "lat": 13.0035777, "lon": 80.1116878}, {"type": "node", "id": 6138546488, "lat": 12.929761, "lon": 80.1200478, "tags": {"addr:district": "Kanchipuram", "addr:full": "Tdk Towers, No.6 Duraisamy Reddy Street, Tambaram", "addr:housenumber": "6", "addr:postcode": "600045", "addr:state": "Tamil Nadu", "addr:street": "Duraisami Reddy Street", "amenity": "hospital", "healthcare": "hospital", "name": "Dr.Agarwal's Eye Hospital Ltd, Tambaram", "name:en": "Dr. Agarwals Eye Hospital", "opening_hours": "Mo-Sa 09:00-20:00; Su 09:00-13:00", "phone": "094449 64237", "source": "OpenGovernmentData", "website": "https://www.dragarwal.com/"}}, {"type": "node", "id": 6853185490, "lat": 12.954176, "lon": 80.1366628}, {"type": "node", "id": 6914764645, "lat": 12.9439622, "lon": 80.1388438, "tags": {"addr:district": "Kanchipuram", "addr:full": "No.13/6,Patel Street,Nehru Nagar, (OppositeVarasidhi Vinayagar Koli), Chromepet Chennai", "addr:postcode": "600044", "addr:state": "Tamil Nadu", "amenity": "hospital", "healthcare": "hospital", "name": "Dr. A. L. Annamalais Ent Care Centre", "source": "OpenGovernmentData"}}, {"type": "node", "id": 6914767985, "lat": 12.9504411, "lon": 80.1438314, "tags": {"addr:district": "Kanchipuram", "addr:full": "A.G Trust, No. 2, Bharathi Street,Radha Nagar,Chrompet,Chennai", "addr:postcode": "600044", "addr:state": "Tamil Nadu", "amenity": "hospital", "healthcare": "hospital", "name": "A G Chrompet Health And Maternity Centre", "source": "OpenGovernmentData"}}, {"type": "node", "id": 6915207418, "lat": 12.9558311, "lon": 80.1381424}, {"type": "node", "id": 6915231638, "lat": 12.971439, "lon": 80.1378152, "tags": {"addr:district": "Kanchipuram", "addr:full": "No.19, 4Th Cross Street, Krishna Nagar, Pammal, Chennai", "addr:postcode": "600075", "addr:state": "Tamil Nadu", "amenity": "hospital", "healthcare": "hospital", "name": "Devibala Maternity", "source": "OpenGovernmentData"}}, {"type": "node", "id": 6915413133, "lat": 12.9289316, "lon": 80.1170864, "tags": {"addr:district": "Chennai", "addr:full": "No. 1, Duraiswamy Road, Near Vadapalani Temple", "addr:postcode": "600026", "addr:state": "Tamil Nadu", "amenity": "hospital", "healthcare": "hospital", "name": "S K Nursing Home Pvt Ltd", "source": "OpenGovernmentData"}}, {"type": "node", "id": 6915563707, "lat": 12.9294095, "lon": 80.1174378, "tags": {"addr:block": "Tambaram Mpty", "addr:district": "Kancheepuram", "addr:full": "Muthuranga Mudali St, Tambaram West, Tambaram, Chennai", "addr:postcode": "600045", "addr:state": "Tamil Nadu", "addr:subdistrict": "Tambaram", "amenity": "hospital", "healthcare": "hospital", "name": "Deepam Hospital", "source": "OpenGovernmentData"}}, {"type": "node", "id": 6926055921, "lat": 12.9264396, "lon": 80.1117714, "tags": {"addr:district": "Kanchipuram", "addr:full": "No.29, Kakkan Street, West Tambaryam, Kancheepuram", "addr:postcode": "600045", "addr:state": "Tamil Nadu", "amenity": "hospital", "healthcare": "hospital", "healthcare:speciality": "multi speciality", "name": "Gajanan Hospitals Pvt Ltd", "source": "OpenGovernmentData"}}, {"type": "node", "id": 6926082101, "lat": 12.943659, "lon": 80.1437791, "tags": {"addr:district": "Kanchipuram", "addr:full": "29/20, Hanumar Koil Street, Radha Nagar, Chromepet, Chennai", "addr:postcode": "600044", "addr:state": "Tamil Nadu", "amenity": "hospital", "healthcare": "hospital", "name": "I Care Eye Care Eye Institute", "source": "OpenGovernmentData"}}, {"type": "node", "id": 6927359623, "lat": 13.0099884, "lon": 80.1223294, "tags": {"addr:district": "Kanchipuram", "addr:full": "No:3/225 Kundrathur Main Road Kovur", "addr:postcode": "600122", "addr:state": "Tamil Nadu", "amenity": "hospital", "healthcare": "hospital", "name": "Kanaga Hospital", "source": "OpenGovernmentData"}}, {"type": "node", "id": 6928330765, "lat": 12.9278474, "lon": 80.1118621, "tags": {"addr:block": "Tambaram Mpty", "addr:district": "Kancheepuram", "addr:full": "3-A-3B, Market, West Tambaram, Kakkan Street", "addr:postcode": "600045", "addr:state": "Tamil Nadu", "addr:subdistrict": "Tambaram", "amenity": "hospital", "healthcare": "hospital", "name": "Sri Kumaran Hospital", "source": "OpenGovernmentData"}}, {"type": "node", "id": 6929229178, "lat": 12.9393262, "lon": 80.1279768, "tags": {"addr:district": "Kanchipuram", "addr:full": "Ministry Of Health & Family Welfare ,Goverment Of India", "addr:postcode": "600047", "addr:state": "Tamil Nadu", "amenity": "hospital", "healthcare": "hospital", "name": "National Institute Of Siddha Department Of Ayush", "source": "OpenGovernmentData"}}, {"type": "node", "id": 6929359056, "lat": 12.9646856, "lon": 80.1522294, "tags": {"addr:district": "Vellore", "addr:full": "No.41, Dharga Road,Pallavaram", "addr:postcode": "632001", "addr:state": "Tamil Nadu", "amenity": "hospital", "healthcare": "hospital", "name": "B.M. Silver Jubilee Multi Speciality Hospital", "source": "OpenGovernmentData"}}, {"type": "node", "id": 6929625889, "lat": 12.9294917, "lon": 80.1194769, "tags": {"addr:block": "Tambaram Mpty", "addr:district": "Kancheepuram", "addr:full": "33, Duraiswamy Reddy St, Tambaram West, Tambaram", "addr:postcode": "600045", "addr:state": "Tamil Nadu", "addr:subdistrict": "Tambaram", "amenity": "hospital", "healthcare": "hospital", "name": "Babu's Maternity Hospital", "source": "OpenGovernmentData"}}, {"type": "node", "id": 6929625900, "lat": 12.9343227, "lon": 80.1384374, "tags": {"addr:block": "Tambaram Mpty", "addr:district": "Kanchipuram", "addr:full": "Chitlapakkam 3Rd Main Rd, State Bank Of India Colony, Chitlapakkam", "addr:postcode": "600064", "addr:state": "Tamil Nadu", "amenity": "hospital", "healthcare": "hospital", "name": "B.S. Hospital", "source": "OpenGovernmentData"}}, {"type": "node", "id": 6932999583, "lat": 12.9300969, "lon": 80.1188466, "tags": {"addr:block": "Tambaram Mpty", "addr:district": "Kancheepuram", "addr:full": "West Tambaram, Gandhi Road", "addr:postcode": "600045", "addr:state": "Tamil Nadu", "addr:subdistrict": "Tambaram", "amenity": "hospital", "healthcare": "hospital", "name": "NN Hospital", "source": "OpenGovernmentData"}}, {"type": "node", "id": 6933510862, "lat": 12.9548325, "lon": 80.141636, "tags": {"addr:district": "Kanchipuram", "addr:full": "No-26, Pammal Mn Road ,Muthamizh Ngr,Pammal , Chennai", "addr:postcode": "600074", "addr:state": "Tamil Nadu", "amenity": "hospital", "healthcare": "hospital", "name": "Jip Diabetic and Heart Care Centre", "source": "OpenGovernmentData"}}, {"type": "node", "id": 6933514313, "lat": 12.9335502, "lon": 80.123004, "tags": {"addr:district": "Kanchipuram", "addr:full": "1, Lutheran Church Cross Street, Kadaperi, Tambaram", "addr:postcode": "600045", "addr:state": "Tamil Nadu", "amenity": "hospital", "healthcare": "hospital", "name": "Jawahar Hospital, Kanchipuram", "source": "OpenGovernmentData"}}, {"type": "node", "id": 6934061609, "lat": 12.97853, "lon": 80.1851381, "tags": {"addr:district": "Kancheepuram", "addr:full": "Chennai, No 1 Civil Aviation Colony, 100 Feet Road, Nanganallur", "addr:postcode": "600061", "addr:state": "Tamil Nadu", "addr:subdistrict": "Tambaram", "amenity": "hospital", "healthcare": "hospital", "name": "Srichakara Multispeciality Hospital", "source": "OpenGovernmentData"}}, {"type": "node", "id": 6934139598, "lat": 12.9731392, "lon": 80.1371252, "tags": {"addr:district": "Kanchipuram", "addr:full": "No. 1, Ganesan Street, (Pammal Main Road) Krishna Nagar, Pammal", "addr:postcode": "600075", "addr:state": "Tamil Nadu", "amenity": "hospital", "healthcare": "hospital", "name": "Arvind Sai Eye Hospital", "source": "OpenGovernmentData"}}, {"type": "node", "id": 6934186203, "lat": 12.9857914, "lon": 80.185987, "tags": {"addr:district": "Chennai", "addr:full": "No.1, 47th Street, 5th Main Road", "addr:postcode": "600 061", "addr:state": "Tamil Nadu", "addr:subdistrict": "Nanganallur", "amenity": "hospital", "email": "info@cmhospital.in", "healthcare": "hospital", "name": "Sri Venkateshwara`s C.M. Hospital", "operator:type": "private", "source": "OpenGovernmentData", "website": "https://cmhospital.in/"}}, {"type": "node", "id": 6934271042, "lat": 12.9521441, "lon": 80.1438126, "tags": {"addr:district": "Kanchipuram", "addr:full": "8/26 Sarathy Kalyana Mandapam", "addr:postcode": "600043", "addr:state": "Tamil Nadu", "amenity": "hospital", "healthcare": "hospital", "name": "M.S.M. Skin and Hair Care Clinic", "source": "OpenGovernmentData"}}, {"type": "node", "id": 6934340789, "lat": 12.9801472, "lon": 80.1835965, "tags": {"addr:district": "Kanchipuram", "addr:full": "C3, Hindu Colony, Nanganallur", "addr:postcode": "600061", "addr:state": "Tamil Nadu", "amenity": "hospital", "healthcare": "hospital", "name": "Pankajam Memorial Hospital", "source": "OpenGovernmentData"}}, {"type": "node", "id": 6936134766, "lat": 12.9498348, "lon": 80.1690781, "tags": {"addr:full": "No: 2, Iii Main Road, New Colony, Chrompet,Chennai", "amenity": "hospital", "healthcare": "hospital"}}, {"type": "node", "id": 6936695215, "lat": 12.9740991, "lon": 80.1387607, "tags": {"addr:block": "Tambaram Mpty", "addr:district": "Kancheepuram", "addr:full": "Krishna Nagar, Pammal, Pilliyar Koil Street", "addr:postcode": "600075", "addr:state": "Tamil Nadu", "addr:subdistrict": "Tambaram", "amenity": "hospital", "healthcare": "hospital", "name": "Subhiksha Hospital", "source": "OpenGovernmentData"}}, {"type": "node", "id": 6937630622, "lat": 12.9269402, "lon": 80.1146503, "tags": {"addr:block": "Tambaram Mpty", "addr:district": "Kancheepuram", "addr:full": "119, Shanmugam Road, West Tambaram", "addr:postcode": "600045", "addr:state": "Tamil Nadu", "addr:subdistrict": "Tambaram", "amenity": "hospital", "healthcare": "hospital", "name": "Kasthuri Hospital, Chennai", "source": "OpenGovernmentData"}}, {"type": "node", "id": 7257289121, "lat": 12.9275229, "lon": 80.1125421, "tags": {"addr:block": "Tambaram Mpty", "addr:district": "Kancheepuram", "addr:full": "West Tambaram, Kattabomman Street", "addr:postcode": "600045", "addr:state": "Tamil Nadu", "addr:subdistrict": "Tambaram", "amenity": "hospital", "healthcare": "hospital", "name": "Vn Allergy & Asthma Research Centre", "source": "OpenGovernmentData"}}, {"type": "node", "id": 7257289126, "lat": 12.92622, "lon": 80.102998, "tags": {"addr:block": "Tambaram Mpty", "addr:district": "Kancheepuram", "addr:full": "Beemeswaran Koil St, Mullai Nagar, Tambaram,", "addr:postcode": "600045", "addr:state": "Tamil Nadu", "addr:subdistrict": "Tambaram", "amenity": "hospital", "healthcare": "hospital", "name": "Bethesda Medical Mission Hospital", "source": "OpenGovernmentData"}}, {"type": "node", "id": 7257421555, "lat": 12.9408644, "lon": 80.1828683, "tags": {"addr:block": "Chennai Zone I", "addr:district": "Chennai", "addr:full": "Near Kvb Bank, Medavakkam Main Rd, Rose Nagar, Kovilambakkam", "addr:postcode": "600117", "addr:state": "Tamil Nadu", "amenity": "hospital", "healthcare": "hospital", "name": "Arun Hospital", "source": "OpenGovernmentData"}}, {"type": "node", "id": 7257421563, "lat": 12.9521921, "lon": 80.1442251, "tags": {"addr:block": "Tambaram Mpty", "addr:district": "Kancheepuram", "addr:full": "Canara Bank, Chrompet, Radha Nagar Main Road", "addr:postcode": "603044", "addr:state": "Tamil Nadu", "addr:subdistrict": "Tambaram", "amenity": "hospital", "healthcare": "hospital", "name": "Shree Eye & Maternity Hospital", "source": "OpenGovernmentData"}}, {"type": "node", "id": 7257421573, "lat": 12.94505, "lon": 80.13456, "tags": {"addr:block": "Kundrathur", "addr:district": "Kancheepuram", "addr:full": "No 17, Near Mit Gate Bus Stop, Chrompet, Gst Road", "addr:postcode": "600045", "addr:state": "Tamil Nadu", "addr:subdistrict": "Sriperumbudur", "amenity": "hospital", "healthcare": "hospital", "name": "Government Hospital, Tambaram", "source": "OpenGovernmentData"}}, {"type": "node", "id": 7257421619, "lat": 12.9342227, "lon": 80.1807557, "tags": {"addr:block": "Tambaram Mpty", "addr:district": "Kancheepuram", "addr:full": "Vijayaraja Kalyana Mandapam, Kovilambakkam, Dhinakaran Street", "addr:postcode": "600117", "addr:state": "Tamil Nadu", "addr:subdistrict": "Tambaram", "amenity": "hospital", "healthcare": "hospital", "name": "T.K.R. Hospital", "source": "OpenGovernmentData"}}, {"type": "node", "id": 7821906812, "lat": 12.9285127, "lon": 80.1139064, "tags": {"addr:district": "Chengalpattu", "addr:full": "Sivagami Nagar, Tambaram, Medavakkam", "addr:postcode": "600100", "addr:state": "Tamil Nadu", "amenity": "hospital", "healthcare": "hospital", "name": "Sanjeevi's Ayush Hospital", "source": "Local Knowledge"}}, {"type": "node", "id": 7821906814, "lat": 12.9252184, "lon": 80.1125391, "tags": {"addr:district": "Chengalpattu", "addr:full": "Tambaram", "addr:postcode": "600045", "addr:state": "Tamil Nadu", "amenity": "hospital", "healthcare": "hospital", "name": "AG Multi Speciality Hospital", "source": "Local Knowledge"}}, {"type": "node", "id": 7821906817, "lat": 12.9274606, "lon": 80.1143405, "tags": {"addr:district": "Chengalpattu", "addr:full": "Tambaram", "addr:postcode": "600045", "addr:state": "Tamil Nadu", "amenity": "hospital", "healthcare": "hospital", "name": "N S Hospital", "source": "Local Knowledge"}}, {"type": "node", "id": 7821906820, "lat": 12.9372891, "lon": 80.1390198, "tags": {"addr:district": "Chengalpattu", "addr:full": "Tambaram", "addr:postcode": "600059", "addr:state": "Tamil Nadu", "amenity": "hospital", "healthcare": "hospital", "name": "Dr. Sathish Kumar Institute Of Child Health and Hospital for Children", "source": "Local Knowledge"}}, {"type": "node", "id": 7821906825, "lat": 12.9349952, "lon": 80.1257351, "tags": {"addr:district": "Chengalpattu", "addr:postcode": "600045", "addr:state": "Tamil Nadu", "amenity": "hospital", "healthcare": "hospital", "name": "Peeram Hospital Private Limited", "source": "Local Knowledge"}}, {"type": "node", "id": 7821906832, "lat": 12.9361226, "lon": 80.1238348, "tags": {"addr:district": "Chengalpattu", "addr:full": "Tambaram", "addr:postcode": "600045", "addr:state": "Tamil Nadu", "amenity": "hospital", "healthcare": "hospital", "name": "Saaol Heart Centre", "source": "Local Knowledge"}}, {"type": "node", "id": 7821906834, "lat": 12.929311, "lon": 80.118892, "tags": {"addr:district": "Chengalpattu", "addr:full": "Tambaram", "addr:postcode": "600045", "addr:state": "Tamil Nadu", "amenity": "hospital", "healthcare": "hospital", "name": "PK Multi Speciality Hospital", "source": "Local Knowledge"}}, {"type": "node", "id": 7821906836, "lat": 12.9305296, "lon": 80.1185855, "tags": {"addr:district": "Chengalpattu", "addr:full": "Ranganathapuram, Tambaram", "addr:postcode": "600045", "addr:state": "Tamil Nadu", "amenity": "hospital", "healthcare": "hospital", "name": "Jyothi Siddha Ayurveda Hospital", "source": "Local Knowledge"}}, {"type": "node", "id": 7821906842, "lat": 12.9264853, "lon": 80.1026633, "tags": {"addr:district": "Chengalpattu", "addr:full": "Mullai Nagar, Tambaram", "addr:postcode": "600045", "addr:state": "Tamil Nadu", "amenity": "hospital", "healthcare": "hospital", "name": "Sarjana Hospital", "source": "Local Knowledge"}}, {"type": "node", "id": 7821906853, "lat": 12.9293353, "lon": 80.1131889, "tags": {"addr:district": "Chengalpattu", "addr:full": "Tambaram", "addr:postcode": "600045", "addr:state": "Tamil Nadu", "amenity": "hospital", "healthcare": "hospital", "name": "Sree Devi Hospital", "source": "Local Knowledge"}}, {"type": "node", "id": 7821906857, "lat": 12.9340178, "lon": 80.1236737, "tags": {"addr:district": "Chengalpattu", "addr:full": "Tambaram", "addr:postcode": "600045", "addr:state": "Tamil Nadu", "amenity": "hospital", "healthcare": "hospital", "name": "Ramana Child Hospital", "source": "Local Knowledge"}}, {"type": "node", "id": 7821906859, "lat": 12.9323992, "lon": 80.1195168, "tags": {"addr:district": "Chengalpattu", "addr:full": "Ranganathapuram, Tambaram", "addr:postcode": "600045", "addr:state": "Tamil Nadu", "amenity": "hospital", "healthcare": "hospital", "name": "Dr. Mehta Hospital", "source": "Local Knowledge"}}, {"type": "node", "id": 7821906860, "lat": 12.9301271, "lon": 80.1195747, "tags": {"addr:district": "Chengalpattu", "addr:full": "Ranganathapuram, Tambaram", "addr:postcode": "600045", "addr:state": "Tamil Nadu", "amenity": "hospital", "healthcare": "hospital", "name": "Seshagiri Hospital", "source": "Local Knowledge"}}, {"type": "node", "id": 7821906861, "lat": 12.9292541, "lon": 80.117767, "tags": {"addr:district": "Chengalpattu", "addr:full": "Tambaram", "addr:postcode": "600045", "addr:state": "Tamil Nadu", "amenity": "hospital", "healthcare": "hospital", "name": "Udhayam Maternity and General Hospital", "source": "Local Knowledge"}}, {"type": "node", "id": 7821906862, "lat": 12.9261301, "lon": 80.1059731, "tags": {"addr:district": "Chengalpattu", "addr:full": "Tambaram", "addr:postcode": "600045", "addr:state": "Tamil Nadu", "amenity": "hospital", "healthcare": "hospital", "name": "Children Care Centre", "source": "Local Knowledge"}}, {"type": "node", "id": 7821906863, "lat": 12.9253206, "lon": 80.1270372, "tags": {"addr:district": "Chengalpattu", "addr:full": "Tambaram", "addr:postcode": "600059", "addr:state": "Tamil Nadu", "amenity": "hospital", "healthcare": "hospital", "name": "Madhu Hospital", "source": "Local Knowledge"}}, {"type": "node", "id": 7821906866, "lat": 12.925426, "lon": 80.10622, "tags": {"addr:district": "Chengalpattu", "addr:full": "Kalyana Nagar, Tambaram", "addr:postcode": "600045", "addr:state": "Tamil Nadu", "amenity": "hospital", "healthcare": "hospital", "name": "Arul Hospital", "source": "Local Knowledge"}}, {"type": "node", "id": 7821906868, "lat": 12.9264826, "lon": 80.1117834, "tags": {"addr:district": "Chengalpattu", "addr:full": "Tambaram", "addr:postcode": "600045", "addr:state": "Tamil Nadu", "amenity": "hospital", "healthcare": "hospital", "name": "A.G Hospital", "source": "Local Knowledge"}}, {"type": "node", "id": 7821906871, "lat": 12.9264209, "lon": 80.1078215, "tags": {"addr:district": "Chengalpattu", "addr:full": "Ethirajpuram, Tambaram", "addr:postcode": "600045", "addr:state": "Tamil Nadu", "amenity": "hospital", "healthcare": "hospital", "name": "Parvathy Ortho Hospital", "source": "Local Knowledge"}}, {"type": "node", "id": 7821906876, "lat": 12.9255619, "lon": 80.1141393, "tags": {"addr:district": "Chengalpattu", "addr:full": "Muthulingam, Tambaram", "addr:postcode": "600045", "addr:state": "Tamil Nadu", "amenity": "hospital", "healthcare": "hospital", "name": "Rainbow Women and Children's Hospital", "source": "Local Knowledge"}}, {"type": "node", "id": 7821906879, "lat": 12.927288, "lon": 80.112985, "tags": {"addr:district": "Chengalpattu", "addr:full": "Tambaram", "addr:postcode": "600045", "addr:state": "Tamil Nadu", "amenity": "hospital", "healthcare": "hospital", "name": "Elmer Kidney Care", "source": "Local Knowledge"}}, {"type": "node", "id": 7821906887, "lat": 12.9279511, "lon": 80.1152234, "tags": {"addr:district": "Chengalpattu", "addr:full": "Tambaram West, Tambaram", "addr:postcode": "600045", "addr:state": "Tamil Nadu", "amenity": "hospital", "healthcare": "hospital", "name": "Sri Jayam Hospital", "source": "Local Knowledge"}}, {"type": "node", "id": 7821906894, "lat": 12.9302816, "lon": 80.1175824, "tags": {"addr:district": "Chengalpattu", "addr:full": "Tambaram", "addr:postcode": "600045", "addr:state": "Tamil Nadu", "amenity": "hospital", "healthcare": "hospital", "name": "Sudar Hospital", "source": "Local Knowledge"}}, {"type": "node", "id": 7821906903, "lat": 12.9370716, "lon": 80.1394473, "tags": {"addr:district": "Chengalpattu", "addr:full": "Tambaram", "addr:postcode": "600064", "addr:state": "Tamil Nadu", "amenity": "hospital", "healthcare": "hospital", "name": "Manimegalai Hospital", "source": "Local Knowledge"}}, {"type": "node", "id": 7821906906, "lat": 12.9261078, "lon": 80.1060872, "tags": {"addr:district": "Chengalpattu", "addr:full": "Tambaram", "addr:postcode": "600045", "addr:state": "Tamil Nadu", "amenity": "hospital", "healthcare": "hospital", "name": "Rajarajan Venkateshan Hospital", "source": "Local Knowledge"}}, {"type": "node", "id": 7821906907, "lat": 12.9309721, "lon": 80.1071121, "tags": {"addr:district": "Chengalpattu", "addr:full": "Tambaram", "addr:postcode": "600059", "addr:state": "Tamil Nadu", "amenity": "hospital", "healthcare": "hospital", "name": "Dhanwanthralaya Ayurveda Speciality Hospital", "source": "Local Knowledge"}}, {"type": "node", "id": 7821906908, "lat": 12.926297, "lon": 80.11211, "tags": {"addr:district": "Chengalpattu", "addr:full": "Tambaram", "addr:postcode": "600045", "addr:state": "Tamil Nadu", "amenity": "hospital", "healthcare": "hospital", "name": "Dhanwantralaya", "source": "Local Knowledge"}}, {"type": "node", "id": 7822543395, "lat": 12.9383762, "lon": 80.1725401, "tags": {"addr:district": "Chengalpattu", "addr:full": "Nanmangalam", "addr:postcode": "600117", "addr:state": "Tamil Nadu", "amenity": "hospital", "name": "Avinash Ortho Hospital", "source": "Local Knowledge"}}, {"type": "node", "id": 7822543399, "lat": 12.9502691, "lon": 80.1513316, "tags": {"addr:district": "Chengalpattu", "addr:full": "Jamin Rayapettah, Chromepet", "addr:postcode": "600044", "addr:state": "Tamil Nadu", "amenity": "hospital", "healthcare": "hospital", "name": "Kavitha Ortho and Multi Speciality Hospital", "source": "Local Knowledge"}}, {"type": "node", "id": 7822543402, "lat": 12.955108, "lon": 80.131944, "tags": {"addr:district": "Chengalpattu", "addr:full": "Madhuvappar Nagar, Chromepet", "addr:postcode": "600044", "addr:state": "Tamil Nadu", "amenity": "hospital", "healthcare": "hospital", "name": "Dr. Gomathi Hospital", "source": "Local Knowledge"}}, {"type": "node", "id": 7822543406, "lat": 12.9549234, "lon": 80.1340441, "tags": {"addr:district": "Chengalpattu", "addr:full": "Nagappa Nagar, Chromepet", "addr:postcode": "600044", "addr:state": "Tamil Nadu", "amenity": "hospital", "healthcare": "hospital", "name": "Ray's Head, Neck Care Centre-ENT and Dental Clinic", "source": "Local Knowledge"}}, {"type": "node", "id": 7822543416, "lat": 12.9462077, "lon": 80.1399766, "tags": {"addr:district": "Chengalpattu", "addr:full": "Nehru Nagar", "addr:postcode": "600044", "addr:state": "Tamil Nadu", "amenity": "hospital", "healthcare": "hospital", "name": "Sri Santhanakrishna Padmavati Health Care and Research Centre", "source": "Local Knowledge"}}, {"type": "node", "id": 7822543423, "lat": 12.9540623, "lon": 80.1339845, "tags": {"addr:district": "Chengalpattu", "addr:full": "Chandran Nagar, Chromepet", "addr:postcode": "600044", "addr:state": "Tamil Nadu", "amenity": "hospital", "healthcare": "hospital", "name": "Sri Venkateshwara Hospital", "source": "Local Knowledge"}}, {"type": "node", "id": 7822543426, "lat": 12.9499064, "lon": 80.1349811, "tags": {"addr:district": "Chengalpattu", "addr:full": "Chromepet", "addr:postcode": "600047", "addr:state": "Tamil Nadu", "amenity": "hospital", "healthcare": "hospital", "name": "Sri Ram Hospital", "source": "Local Knowledge"}}, {"type": "node", "id": 7822543429, "lat": 12.952496, "lon": 80.137893, "tags": {"addr:district": "Chengalpattu", "addr:full": "Pallavapuram, Chromepet", "addr:postcode": "600044", "addr:state": "Tamil Nadu", "amenity": "hospital", "healthcare": "hospital", "name": "Kidney Hospital and Diagnostic Centre", "source": "Local Knowledge"}}, {"type": "node", "id": 7822543430, "lat": 12.9344546, "lon": 80.1819961, "tags": {"addr:district": "Chengalpattu", "addr:full": "Medavakkam, Nanmangalam", "addr:postcode": "600117", "addr:state": "Tamil Nadu", "amenity": "hospital", "healthcare": "hospital", "name": "AM Hospital", "source": "Local Knowledge"}}, {"type": "node", "id": 7822543432, "lat": 12.9448167, "lon": 80.1303935, "tags": {"addr:district": "Chengalpattu", "addr:full": "Tambaram Sanatoruim", "addr:postcode": "600047", "addr:state": "Tamil Nadu", "amenity": "hospital", "healthcare": "hospital", "name": "TB Hospital", "source": "Local Knowledge"}}, {"type": "node", "id": 7822543433, "lat": 12.9575434, "lon": 80.143138, "tags": {"addr:district": "Chengalpattu", "addr:full": "Kothandam Nagar, Chromepet", "addr:postcode": "600044", "addr:state": "Tamil Nadu", "amenity": "hospital", "healthcare": "hospital", "name": "HCG Cancer Centre", "source": "Local Knowledge"}}, {"type": "node", "id": 7822543434, "lat": 12.9521949, "lon": 80.1432074, "tags": {"addr:district": "Chengalpattu", "addr:full": "Chromepet", "addr:postcode": "600044", "addr:state": "Tamil Nadu", "amenity": "hospital", "healthcare": "hospital", "name": "Sayee Hospitals", "source": "Local Knowledge"}}, {"type": "node", "id": 7822543439, "lat": 12.9503116, "lon": 80.1513212, "tags": {"addr:district": "Chengalpattu", "addr:full": "Jamin Rayapettah, Gajalakshmi Colony, Chromepet", "addr:postcode": "600044", "addr:state": "Tamil Nadu", "amenity": "hospital", "healthcare": "hospital", "name": "Thanushika Hospital", "source": "Local Knowledge"}}, {"type": "node", "id": 7822543444, "lat": 12.9393514, "lon": 80.1806898, "tags": {"addr:district": "Chengalpattu", "addr:full": "Nanmangalam", "addr:postcode": "600117", "addr:state": "Tamil Nadu", "amenity": "hospital", "healthcare": "hospital", "name": "Hindusthan Hospital", "source": "Local Knowledge"}}, {"type": "node", "id": 7822543448, "lat": 12.9478556, "lon": 80.1370503, "tags": {"addr:district": "Chengalpattu", "addr:full": "Chromepet", "addr:postcode": "600047", "addr:state": "Tamil Nadu", "amenity": "hospital", "healthcare": "hospital", "name": "Puthur Kattu", "source": "Local Knowledge"}}, {"type": "node", "id": 7822543452, "lat": 12.9379829, "lon": 80.1799993, "tags": {"addr:district": "Chengalpattu", "addr:full": "Vaithiyalingam Nagar, Nanmangalam", "addr:postcode": "600117", "addr:state": "Tamil Nadu", "amenity": "hospital", "healthcare": "hospital", "name": "RKP Hospital", "source": "Local Knowledge"}}, {"type": "node", "id": 7822543459, "lat": 12.960669, "lon": 80.139703, "tags": {"addr:district": "Chengalpattu", "addr:full": "Chromepet", "addr:postcode": "600044", "addr:state": "Tamil Nadu", "amenity": "hospital", "healthcare": "hospital", "name": "Kokila Siddha Hospital", "source": "Local Knowledge"}}, {"type": "node", "id": 7822543469, "lat": 12.9544931, "lon": 80.1439701, "tags": {"addr:district": "Chengalpattu", "addr:postcode": "600044", "addr:state": "Tamil Nadu", "amenity": "hospital", "healthcare": "hospital", "name": "Thomas Health Care Centre", "source": "Local Knowledge"}}, {"type": "node", "id": 7822543471, "lat": 12.935221, "lon": 80.181802, "tags": {"addr:district": "Chengalpattu", "addr:full": "Nehru Nagar, Nanmangalam", "addr:postcode": "600117", "addr:state": "Tamil Nadu", "amenity": "hospital", "healthcare": "hospital", "name": "Raj Joty Eye Hospital", "source": "Local Knowledge"}}, {"type": "node", "id": 7822543477, "lat": 12.9537198, "lon": 80.143246, "tags": {"addr:district": "Chengalpattu", "addr:full": "Lakshmi Nagar, Rajaji Nagar, Chromepet", "addr:postcode": "600044", "addr:state": "Tamil Nadu", "amenity": "hospital", "healthcare": "hospital", "name": "Sun Hospital", "source": "Local Knowledge"}}, {"type": "node", "id": 7822543484, "lat": 12.9520555, "lon": 80.1372784, "tags": {"addr:district": "Chengalpattu", "addr:full": "Pallavapuram, Chromepet", "addr:postcode": "600044", "addr:state": "Tamil Nadu", "amenity": "hospital", "healthcare": "hospital", "name": "Apollo Hospitals", "operator": "Apollo Hospitals", "operator:wikidata": "Q4780321", "operator:wikipedia": "en:Apollo Hospitals", "source": "Local Knowledge"}}, {"type": "node", "id": 7822543489, "lat": 12.9531004, "lon": 80.1440661, "tags": {"addr:district": "Chengalpattu", "addr:full": "Chromepet", "addr:postcode": "600044", "addr:state": "Tamil Nadu", "amenity": "hospital", "healthcare": "hospital", "name": "Shailaja Hospital", "source": "Local Knowledge"}}, {"type": "node", "id": 7822543490, "lat": 12.9452437, "lon": 80.140022, "tags": {"addr:district": "Chengalpattu", "addr:full": "Chromepet", "addr:postcode": "600044", "addr:state": "Tamil Nadu", "amenity": "hospital", "healthcare": "hospital", "name": "Dhanwantari Hospital", "source": "Local Knowledge"}}, {"type": "node", "id": 7822543491, "lat": 12.954659, "lon": 80.134998, "tags": {"addr:district": "Chengalpattu", "addr:full": "Nagappa Nagar, Chromepet", "addr:postcode": "600044", "addr:state": "Tamil Nadu", "amenity": "hospital", "healthcare": "hospital", "name": "Dr. Ashok Kumar Children's Hospital", "source": "Local Knowledge"}}, {"type": "node", "id": 7822543498, "lat": 12.9422406, "lon": 80.1381022, "tags": {"addr:district": "Chengalpattu", "addr:full": "Nehru Nagar, Chromepet", "addr:postcode": "600044", "addr:state": "Tamil Nadu", "amenity": "hospital", "healthcare": "hospital", "name": "Venus Accupoint", "source": "Local Knowledge"}}, {"type": "node", "id": 7822543500, "lat": 12.9425452, "lon": 80.1405737, "tags": {"addr:district": "Chengalpattu", "addr:full": "Nehru Nagar, Chromepet", "addr:postcode": "600044", "addr:state": "Tamil Nadu", "amenity": "hospital", "healthcare": "hospital", "name": "Saraswathy Hospital", "source": "Local Knowledge"}}, {"type": "node", "id": 7822543502, "lat": 12.9569609, "lon": 80.1424509, "tags": {"addr:district": "Chengalpattu", "addr:full": "Chambers Colony, Chromepet", "addr:postcode": "600044", "addr:state": "Tamil Nadu", "amenity": "hospital", "healthcare": "hospital", "name": "Al Elaj Accupressure and Health Centre", "source": "Local Knowledge"}}, {"type": "node", "id": 7822543505, "lat": 12.933726, "lon": 80.1811973, "tags": {"addr:district": "Chengalpattu", "addr:full": "Vellakkal", "addr:postcode": "600117", "addr:state": "Tamil Nadu", "amenity": "hospital", "healthcare": "hospital", "name": "V.S. Hospital", "source": "Local Knowledge"}}, {"type": "node", "id": 7822543510, "lat": 12.9576893, "lon": 80.1429026, "tags": {"addr:district": "Chengalpattu", "addr:full": "Kothandam Nagar, Chromepet", "addr:postcode": "600044", "addr:state": "Tamil Nadu", "amenity": "hospital", "healthcare": "hospital", "name": "Daisy Hospitals", "source": "Local Knowledge"}}, {"type": "node", "id": 7823212561, "lat": 12.9712805, "lon": 80.132333, "tags": {"addr:district": "Chengalpattu", "addr:full": "Pammal", "addr:postcode": "600075", "addr:state": "Tamil Nadu", "amenity": "hospital", "healthcare": "hospital", "name": "Chennai Emergency Care Centre", "source": "Local Knowledge"}}, {"type": "node", "id": 7823212562, "lat": 12.9719872, "lon": 80.1407516, "tags": {"addr:district": "Chengalpattu", "addr:full": "Muthamizh Nagar, Pallavaram", "addr:postcode": "600074", "addr:state": "Tamil Nadu", "amenity": "hospital", "healthcare": "hospital", "name": "JIP Hospital", "source": "Local Knowledge"}}, {"type": "node", "id": 7823212567, "lat": 12.9668133, "lon": 80.144778, "tags": {"addr:district": "Chengalpattu", "addr:full": "Abdul Kalam Nagar, Periyar Nagar, Pallavaram", "addr:postcode": "600043", "addr:state": "Tamil Nadu", "amenity": "hospital", "healthcare": "hospital", "name": "Dr. Habeb Child Care Hospital", "source": "Local Knowledge"}}, {"type": "node", "id": 7823212569, "lat": 12.9981038, "lon": 80.0955575, "tags": {"addr:district": "Chengalpattu", "addr:full": "Kundrathur", "addr:postcode": "600069", "addr:state": "Tamil Nadu", "amenity": "hospital", "healthcare": "hospital", "name": "Sri Jaya Hospital", "source": "Local Knowledge"}}, {"type": "node", "id": 7823212577, "lat": 12.997158, "lon": 80.0965483, "tags": {"addr:district": "Chengalpattu", "addr:full": "Kundrathur, Sikkarayapuram", "addr:postcode": "600069", "addr:state": "Tamil Nadu", "amenity": "hospital", "healthcare": "hospital", "name": "Sivanthi Heart Care", "source": "Local Knowledge"}}, {"type": "node", "id": 7823212587, "lat": 12.973474, "lon": 80.1307991, "tags": {"addr:district": "Chengalpattu", "addr:full": "Pammal", "addr:postcode": "600075", "addr:state": "Tamil Nadu", "amenity": "hospital", "healthcare": "hospital", "name": "Chennai Hospital", "source": "Local Knowledge"}}, {"type": "node", "id": 7823212603, "lat": 12.9738819, "lon": 80.1315486, "tags": {"addr:district": "Chengalpattu", "addr:full": "Lakshmi Narayana Nagar, Pammal", "addr:postcode": "600075", "addr:state": "Tamil Nadu", "amenity": "hospital", "healthcare": "hospital", "name": "Deenan Health Care", "source": "Local Knowledge"}}, {"type": "node", "id": 7823212608, "lat": 12.9971757, "lon": 80.0978782, "tags": {"addr:district": "Chengalpattu", "addr:full": "Kundrathur", "addr:postcode": "600069", "addr:state": "Tamil Nadu", "amenity": "hospital", "healthcare": "hospital", "name": "Dr. JRK Hospital", "source": "Local Knowledge"}}, {"type": "node", "id": 7823212616, "lat": 12.9718921, "lon": 80.1445381, "tags": {"addr:district": "Chengalpattu", "addr:full": "Pallavaram", "addr:postcode": "600043", "addr:state": "Tamil Nadu", "amenity": "hospital", "healthcare": "hospital", "name": "Shadithya Hospital", "source": "Local Knowledge"}}, {"type": "node", "id": 7823212633, "lat": 12.9700475, "lon": 80.1499015, "tags": {"addr:district": "Chengalpattu", "addr:full": "Pallavaram", "addr:postcode": "600043", "addr:state": "Tamil Nadu", "amenity": "hospital", "healthcare": "hospital", "name": "Medforte Health Care", "source": "Local Knowledge"}}, {"type": "node", "id": 7823212640, "lat": 12.97059, "lon": 80.148318, "tags": {"addr:district": "Chengalpattu", "addr:full": "Pallavaram", "addr:postcode": "600044", "addr:state": "Tamil Nadu", "amenity": "hospital", "healthcare": "hospital", "name": "Contonment Board General Hospital", "source": "Local Knowledge"}}, {"type": "node", "id": 8714264559, "lat": 12.969558, "lon": 80.1850882}, {"type": "node", "id": 8714264560, "lat": 12.9694349, "lon": 80.185025}, {"type": "node", "id": 8714264561, "lat": 12.9693465, "lon": 80.1849803}, {"type": "node", "id": 8714264562, "lat": 12.9693174, "lon": 80.1851514}, {"type": "node", "id": 8714264563, "lat": 12.9693084, "lon": 80.1851938}, {"type": "node", "id": 8714264564, "lat": 12.9694998, "lon": 80.1852306}, {"type": "node", "id": 9902439490, "lat": 12.9558886, "lon": 80.1379761}, {"type": "node", "id": 9902439499, "lat": 12.956414, "lon": 80.1367933}, {"type": "node", "id": 9902439500, "lat": 12.9563011, "lon": 80.1367483}, {"type": "node", "id": 9902439501, "lat": 12.9542707, "lon": 80.1362971}, {"type": "node", "id": 11081786797, "lat": 12.9580448, "lon": 80.1280036, "tags": {"amenity": "hospital", "healthcare": "hospital", "name": "L Rapha Life Care Hospital"}}, {"type": "node", "id": 11207304481, "lat": 12.9549742, "lon": 80.1399698}, {"type": "node", "id": 11782793599, "lat": 12.9622155, "lon": 80.159938, "tags": {"amenity": "hospital", "healthcare": "hospital", "name": "Sugam Hospital"}}, {"type": "way", "id": 31240956, "nodes": [347340595, 347340596, 347340597, 347340598, 347340915, 347340957, 347340958, 347340959, 347340599, 347340600, 347340629, 347340601, 256203226, 256203231, 347340602, 347340603, 347340604, 347340595], "tags": {"amenity": "hospital", "healthcare": "hospital", "name": "Government Hospital of Thoracic Medicine", "wikidata": "Q14956834", "wikipedia": "en:Government Hospital of Thoracic Medicine, Chennai"}}, {"type": "way", "id": 44034276, "nodes": [559841172, 559841171, 559841177, 559841173, 559841172], "tags": {"addr:city": "Chennai", "addr:district": "Kanchipuram", "addr:full": "No.241, G S T Road (Near M I T Gate), Chromepet, Chennai", "addr:place": "Chromepet", "addr:postcode": "600044", "addr:state": "Tamil Nadu", "addr:street": "Grand Southern Trunk Road", "amenity": "hospital", "check_date": "2019-02-23", "contact:facebook": "parvathyhospitalchennai", "contact:linkedin": "https://www.linkedin.com/company/parvathy-hospital/", "contact:twitter": "parvathychennai", "healthcare": "hospital", "name": "Parvathy Hospital", "phone": "+91-98412-98412", "source": "OpenGovernmentData", "website": "https://www.parvathyhospital.com/"}}, {"type": "way", "id": 44034282, "nodes": [559841174, 559841175, 559841179, 559841178, 559841174], "tags": {"addr:block": "Tambaram Mpty", "addr:district": "Kancheepuram", "addr:full": "297, Gst Road, Near Mit Gate, Chrompet", "addr:postcode": "600044", "addr:state": "Tamil Nadu", "addr:subdistrict": "Tambaram", "amenity": "hospital", "healthcare": "hospital", "name": "Chennai Krishna Hospital", "source": "OpenGovernmentData"}}, {"type": "way", "id": 180145742, "nodes": [9902439500, 9902439499, 9902439490, 6915207418, 1905763246, 1905763242, 1905763239, 1905763234, 1905763233, 11207304481, 1905763231, 1905763222, 6853185490, 9902439501, 9902439500], "tags": {"addr:block": "Tambaram Mpty", "addr:district": "Kancheepuram", "addr:full": "Works, Road, Chromepet", "addr:postcode": "600044", "addr:state": "Tamil Nadu", "addr:subdistrict": "Tambaram", "amenity": "hospital", "healthcare": "hospital", "name": "Sree Balaji Medical College And Hospital", "operator:type": "government", "source": "OpenGovernmentData", "website": "https://sbmch.ac.in/"}}, {"type": "way", "id": 354562297, "nodes": [3602473688, 3602473679, 3602473678, 3602473682, 3602473688], "tags": {"addr:block": "Tambaram Mpty", "addr:city": "Chrompet", "addr:full": "No. 107 A, Grand Southern Trunk Rd, Sunnambu Colony, Chromepet, Chennai", "addr:housenumber": "No 107 A", "addr:postcode": "600044", "addr:street": "Grand Southern Trunk Road", "amenity": "hospital", "emergency": "yes", "healthcare": "hospital", "name": "Deepam Hospitals"}}, {"type": "way", "id": 364483211, "nodes": [3685254915, 3685254910, 3685254890, 3685254892, 3685254915], "tags": {"addr:district": "Kanchipuram", "addr:full": "108, Ayyasamy Street,West Tambaram", "addr:postcode": "600045", "addr:state": "Tamil Nadu", "amenity": "hospital", "building": "yes", "healthcare": "optometrist", "name": "Nirmal Eye Hospital", "source": "OpenGovernmentData"}}, {"type": "way", "id": 503337819, "nodes": [4936671733, 4936671732, 4936671731, 4936671730, 4936671733]}, {"type": "way", "id": 503337820, "nodes": [4936671737, 4936671736, 4936671735, 4936671734, 4936671737]}, {"type": "way", "id": 503337821, "nodes": [4936671741, 4936671740, 4936671739, 4936671738, 4936671741]}, {"type": "way", "id": 503337822, "nodes": [4936671745, 4936671744, 4936671743, 4936671742, 4936671745]}, {"type": "way", "id": 503337823, "nodes": [4936671781, 4936671780, 4936671779, 4936671778, 4936671777, 4936671776, 4936671775, 4936671774, 4936671773, 4936671772, 4936671771, 4936671770, 4936671769, 4936671768, 4936671767, 4936671766, 4936671765, 4936671764, 4936671763, 4936671762, 4936671761, 4936671760, 4936671759, 4936671758, 4936671757, 4936671756, 4936671755, 4936671754, 4936671753, 4936671752, 4936671751, 4936671750, 4936671749, 4936671748, 4936671747, 4936671746, 4936671781]}, {"type": "way", "id": 940932459, "nodes": [8714264559, 8714264560, 8714264561, 8714264562, 8714264563, 8714264564, 8714264559], "tags": {"amenity": "hospital", "healthcare": "hospital"}}, {"type": "relation", "id": 7357637, "members": [{"type": "way", "ref": 503337823, "role": "outer"}, {"type": "way", "ref": 503337820, "role": "inner"}, {"type": "way", "ref": 503337822, "role": "inner"}, {"type": "way", "ref": 503337821, "role": "inner"}, {"type": "way", "ref": 503337819, "role": "inner"}], "tags": {"addr:block": "Kundrathur", "addr:district": "Kancheepuram", "addr:full": "Kovoor, Kundrathur Main Road", "addr:postcode": "600122", "addr:state": "Tamil Nadu", "addr:subdistrict": "Sriperumbudur", "amenity": "hospital", "building": "yes", "name": "Madha Medical College Hospital", "source": "OpenGovernmentData", "type": "multipolygon"}}]}