{"version": 0.6, "generator": "Overpass API 0.7.62.8 e802775f", "osm3s": {"timestamp_osm_base": "2026-01-12T01:33:16Z", "copyright": "The data included in this document is from www.openstreetmap.org. The data is made available under ODbL."}, "elements": [{"type": "node", "id": 1050786520, "lat": 17.4693193, "lon": 78.4778376, "tags": {"amenity": "hospital"}}, {"type": "node", "id": 3390967828, "lat": 17.5113399, "lon": 78.4469461, "tags": {"addr:district": "Hyderabad", "addr:full": "Plot No.: 43, Gajularamaram Road, Shapur Nagar", "addr:postcode": "500055", "addr:state": "Telangana", "addr:street": "gajuularamaram road", "amenity": "hospital", "name": "Carewell Diabetes and General Hospital", "source": "OpenGovernmentData"}}, {"type": "node", "id": 3391103941, "lat": 17.5220823, "lon": 78.4431753, "tags": {"addr:district": "Hyderabad", "addr:full": "22-4/1, Apiic Colony, Near Sub Station, IDA Jeedimetla", "addr:postcode": "500055", "addr:state": "Telangana", "addr:street": "substation", "amenity": "hospital", "healthcare": "hospital", "name": "Sigma Hospitals", "source": "OpenGovernmentData"}}, {"type": "node", "id": 3614774687, "lat": 17.4685801, "lon": 78.4895471}, {"type": "node", "id": 3614774696, "lat": 17.468604, "lon": 78.4894077}, {"type": "node", "id": 3614774839, "lat": 17.4688871, "lon": 78.4896576}, {"type": "node", "id": 3614774844, "lat": 17.4688958, "lon": 78.4896067}, {"type": "node", "id": 3614774894, "lat": 17.4690011, "lon": 78.4896791}, {"type": "node", "id": 3614774908, "lat": 17.4690338, "lon": 78.4894888}, {"type": "node", "id": 6133853785, "lat": 17.536328, "lon": 78.4885233, "tags": {"amenity": "hospital", "name": "Surekha Hospital"}}, {"type": "node", "id": 6482123599, "lat": 17.5123618, "lon": 78.4754596, "tags": {"addr:district": "Hyderabad", "addr:full": "Plot Number 13 and 14, Pipeline Road, Behind Deevan Dhaba, Petbasheerabad, Jeedimetla", "addr:postcode": "500055", "addr:state": "Telangana", "amenity": "hospital", "contact:mobile": "9963545454", "email": "info@konarkhospitals.com", "health_facility:type": "Cashless Billing and Reimbursement Facility;Emergency Ambulance Services;Diagnostic Services;Surgical Services;ICU Facility;Operation Theater;Pharmacy Services", "healthcare:speciality": "multi specialty", "medical_system": "Allopathic", "name": "Konark Hospitals", "operator:type": "private", "phone": "040 44661515", "source": "OpenGovernmentData", "website": "https://www.konarkhospitals.com/"}}, {"type": "node", "id": 6484735190, "lat": 17.4691656, "lon": 78.4773293, "tags": {"addr:district": "Hyderabad", "addr:full": "1-10-314/P, Opposite Mallareddy Gardens, Thokatta Village, Bowenpally", "addr:postcode": "500011", "addr:state": "Telangana", "amenity": "hospital", "email": "doctor@dristenetralaya.com", "name": "Dristi Netralaya Hospital", "phone": "040-27950101", "source": "OpenGovernmentData", "website": "www.dristenetralaya.com"}}, {"type": "node", "id": 6484901165, "lat": 17.5160805, "lon": 78.4476453, "tags": {"addr:district": "Hyderabad", "addr:full": "57/A, Shapur Nagar, I.D.A., Jeedimetla", "addr:postcode": "500055", "addr:state": "Telangana", "amenity": "hospital", "fax": "040 44543734", "health_facility:type": "24 Hours Lab Services;24 Hours Emergency Services", "healthcare": "hospital", "healthcare:speciality": "General Surgery;Trauma and Orthopaedics;Plastic Surgery;ENT;Urology;Gynaecology and Obstetrics;Neurology;General Medicine;Neurology;Gastroenterology;Cardiology;Nephrology;Endocrinology;Dermatology;Paediatrics;Psychiatry;Physiotheraphy", "medical_system": "Allopathic", "name": "Ram Hospital", "operator:type": "private", "phone": "040 23096655;040 23096644;040 44543737", "source": "OpenGovernmentData", "website": "http://www.ramhospital.org"}}, {"type": "node", "id": 6485054519, "lat": 17.4841162, "lon": 78.4488925, "tags": {"addr:district": "Hyderabad", "addr:full": "10-84, Sowbhagya Nagar, Opp. IDPL Colony", "addr:postcode": "500037", "addr:state": "Telangana", "amenity": "hospital", "name": "Kid Care Children's Hospital", "source": "OpenGovernmentData"}}, {"type": "node", "id": 6485316309, "lat": 17.5160364, "lon": 78.4472698, "tags": {"addr:district": "Hyderabad", "addr:full": "Shapur Nagar Main Road, Chinthal", "addr:postcode": "500055", "addr:state": "Telangana", "amenity": "hospital", "contact:phone": "23093903", "healthcare": "hospital", "name": "Dr. Laxman's Children Hospital", "operator:type": "private", "source": "OpenGovernmentData"}}, {"type": "node", "id": 6485763799, "lat": 17.4767414, "lon": 78.4798486, "tags": {"addr:district": "Hyderabad", "addr:full": "8-4-123, Near Old Bowenpally Bus Stop", "addr:postcode": "500011", "addr:state": "Telangana", "amenity": "hospital", "name": "Vinciti Hospital", "source": "OpenGovernmentData"}}, {"type": "node", "id": 6486059355, "lat": 17.4810002, "lon": 78.5334009, "tags": {"addr:district": "Hyderabad", "addr:full": "35-601/1, G K Colony, Sainikpuri", "addr:postcode": "500094", "addr:state": "Telangana", "amenity": "hospital", "name": "Rishab Eye Centre", "source": "OpenGovernmentData"}}, {"type": "node", "id": 6487508548, "lat": 17.4850586, "lon": 78.4471166, "tags": {"addr:district": "Hyderabad", "addr:full": "12-143, Community Hall Road, Adarsh Nagar, Opposite IDPL Colony Bus Stop, Balanagar", "addr:postcode": "500037", "addr:state": "Telangana", "amenity": "hospital", "name": "Jayasai Hospital For Women", "source": "OpenGovernmentData"}}, {"type": "node", "id": 6487685466, "lat": 17.5028854, "lon": 78.5132843, "tags": {"addr:district": "Hyderabad", "addr:full": "8-84, Temple Road, Alwal", "addr:postcode": "500010", "addr:state": "Telangana", "amenity": "hospital", "name": "Sundari Maternity and General Hospital", "source": "OpenGovernmentData"}}, {"type": "node", "id": 6487901010, "lat": 17.4951472, "lon": 78.5130295, "tags": {"addr:district": "Hyderabad", "addr:full": "Next To Hanuman Temple Main Road Lothkunta (Alwal) ad", "addr:postcode": "500015", "addr:state": "Telangana", "amenity": "hospital", "name": "Jayaprada Hospital", "source": "OpenGovernmentData"}}, {"type": "node", "id": 6489790935, "lat": 17.5185239, "lon": 78.4822022, "tags": {"addr:district": "Hyderabad", "addr:full": "Plot No. 34, 34/A, NCL South, Petbasheerabad, Medchal Road, Secunderabad", "addr:postcode": "500055", "addr:state": "Telangana", "amenity": "hospital", "email": "balaji.hospital@yahoo.com", "name": "Sree Balaji Hospital", "phone": "040-27164000", "source": "OpenGovernmentData", "website": "www.sreebalajihospital.com"}}, {"type": "node", "id": 6490089435, "lat": 17.520925, "lon": 78.484531, "tags": {"addr:district": "Hyderabad", "addr:full": "Plot No: 1-76/1/b/4, Ganga Enclave, Pet Basheerabad, Medchal Road, Secunderabad", "addr:postcode": "500055", "addr:state": "Telangana", "amenity": "hospital", "contact:email": "drprsunk@yahoo.com", "contact:mobile": "9949073049", "fax": "040 27165116", "healthcare:speciality": "multi specialty", "medical_system": "Allopathic", "name": "Harsha Hospitals", "operator:type": "private", "phone": "040 27165110", "source": "OpenGovernmentData", "website": "http://www.harshahospitals.com"}}, {"type": "node", "id": 6491359724, "lat": 17.49926, "lon": 78.5129283, "tags": {"addr:district": "Hyderabad", "addr:full": "Behind Satya Petrol Pump, Alwal", "addr:postcode": "500010", "addr:state": "Telangana", "amenity": "hospital", "name": "G.N.R. Multispeciality Hospital", "source": "OpenGovernmentData"}}, {"type": "node", "id": 6493463498, "lat": 17.5141839, "lon": 78.4470136, "tags": {"addr:district": "Hyderabad", "addr:full": "Opposite Adarsh Bank, Beside Sagar Hotel, Shapur Nagar Main Road", "addr:postcode": "500055", "addr:state": "Telangana", "amenity": "hospital", "healthcare": "hospital", "name": "Ragani Children's Hospital", "source": "OpenGovernmentData"}}, {"type": "node", "id": 6494135269, "lat": 17.4711657, "lon": 78.5050875, "tags": {"addr:district": "Hyderabad", "addr:full": "Plot No-136, S. P. Colony , Trimulgherry", "addr:postcode": "500015", "addr:state": "Telangana", "amenity": "hospital", "name": "Pratibha Maternity Home", "source": "OpenGovernmentData"}}, {"type": "node", "id": 6494829945, "lat": 17.4936174, "lon": 78.5127834, "tags": {"addr:district": "Hyderabad", "addr:full": "5-Saraswathi Nagar,Lothkunta", "addr:postcode": "500015", "addr:state": "Telangana", "amenity": "hospital", "name": "Devi Maternity Home", "source": "OpenGovernmentData"}}, {"type": "node", "id": 6495023719, "lat": 17.496063, "lon": 78.4541865, "tags": {"addr:district": "Hyderabad", "addr:full": "Plot No. 29,30, Beside Lingam Gound Residency, MNR College", "addr:postcode": "500055", "addr:state": "Telangana", "amenity": "hospital", "name": "Sanjeevani Children and General Hospital", "source": "OpenGovernmentData"}}, {"type": "node", "id": 6503384572, "lat": 17.4660729, "lon": 78.4832785, "tags": {"addr:district": "Hyderabad", "addr:full": "Plot No-2, H No-2-12-149, Breg Syed Road,Bapuji Nagar Bowenpally, Cantonment", "addr:postcode": "500009", "addr:state": "Telangana", "amenity": "hospital", "name": "Lifespring Hospital", "source": "OpenGovernmentData"}}, {"type": "node", "id": 6503410509, "lat": 17.4713934, "lon": 78.4849957, "tags": {"addr:district": "Hyderabad", "addr:full": "7-A, Panchasheela Enclave, near ICRISAT Colony Phase 2, Hashmathpet", "addr:postcode": "500009", "addr:state": "Telangana", "amenity": "hospital", "name": "SKM Multi Speciality Hospital", "source": "OpenGovernmentData"}}, {"type": "node", "id": 6503431563, "lat": 17.5119189, "lon": 78.4465805, "tags": {"addr:district": "Hyderabad", "addr:full": "Plot No.78, 2nd Right, Gajularamaram Road, IDA, Shapurnagar, Jeedimetla", "addr:postcode": "500055", "addr:state": "Telangana", "amenity": "hospital", "name": "S.V.K. Hospital Private Ltd.", "source": "OpenGovernmentData"}}, {"type": "node", "id": 6504107685, "lat": 17.467585, "lon": 78.4819903, "tags": {"addr:district": "Hyderabad", "addr:full": "Plot No. 129/1, Viceroy Residency, Besides Ashok Gardens, Bapuji Nagar, Main Road, Bowenpalli", "addr:postcode": "500011", "addr:state": "Telangana", "amenity": "hospital", "name": "Pavithra Hospital", "source": "OpenGovernmentData"}}, {"type": "node", "id": 6505307085, "lat": 17.4759595, "lon": 78.4837787, "tags": {"addr:district": "Hyderabad", "addr:full": "Plot No 8, Main Road, Old Bowenpally", "addr:postcode": "500011", "addr:state": "Telangana", "amenity": "hospital", "name": "Ramya Nursing Home", "source": "OpenGovernmentData"}}, {"type": "node", "id": 6505550308, "lat": 17.503255, "lon": 78.5095681, "tags": {"addr:district": "Hyderabad", "addr:full": "1-10-11/6, New Police Station Bus Stop, Temple Alwal, Alwal", "addr:postcode": "500010", "addr:state": "Telangana", "amenity": "hospital", "email": "prashamsahospital@gmail.com", "name": "Prashamsha Hospital", "phone": "040 27970458; 040 27961858", "source": "OpenGovernmentData", "website": "www.prashamsahospital.com"}}, {"type": "node", "id": 6511011214, "lat": 17.5218368, "lon": 78.4831209, "tags": {"addr:district": "Hyderabad", "addr:full": "C - 4,5, Ganga Enclave, Opp Excellancy Garden, Petbasheerabad, Medchal Road, Rangareddy", "addr:postcode": "500055", "addr:state": "Telangana", "amenity": "hospital", "name": "RR Hospital", "source": "OpenGovernmentData"}}, {"type": "node", "id": 6512526669, "lat": 17.4900948, "lon": 78.4481992, "tags": {"addr:district": "Hyderabad", "addr:full": "Jeedimetla Main Road, Near Gautami Techno School", "addr:postcode": "500055", "addr:state": "Telangana", "amenity": "hospital", "name": "Pulse Hospital", "source": "OpenGovernmentData"}}, {"type": "node", "id": 6537169461, "lat": 17.4840637, "lon": 78.4487262, "tags": {"addr:district": "Hyderabad", "addr:full": "Adarsh Nagar, Opp. IDPL Colony, Balanagar", "addr:postcode": "500037", "addr:state": "Telangana", "amenity": "hospital", "contact:phone": "040-67599999", "name": "Ankura Kodali Hospital", "source": "OpenGovernmentData"}}, {"type": "node", "id": 6548796448, "lat": 17.469289, "lon": 78.4862155, "tags": {"addr:city": "Hyderabad", "addr:full": "Plot No:. 27 & 28, Hasmathpet Road, Bowenpally Beside Reliance Fresh Super Market", "addr:postcode": "500011", "addr:state": "Telangana", "amenity": "hospital", "contact:phone": "04042306565;64595609", "name": "KRUTI HOSPITAL ADVANCED EYE & DENTAL CARE", "operator": "Private", "source": "OpenGovernmentData"}}, {"type": "node", "id": 6549122919, "lat": 17.5072656, "lon": 78.4788038, "tags": {"addr:city": "Hyderabad", "addr:full": "H.No: 120, Green Park Avenue, Suchitra Circle, Jeedimetla Village", "addr:postcode": "500067", "addr:state": "Telangana", "amenity": "hospital", "contact:phone": "4027235867", "name": "Refracto Eye Hospital", "operator:type": "private", "source": "OpenGovernmentData"}}, {"type": "node", "id": 6549138754, "lat": 17.5246107, "lon": 78.482795, "tags": {"addr:district": "Hyderabad", "addr:full": "6A, 7A, Petbasheerabad, NH7, Near DPS, Opp St Anns, Kompally", "addr:postcode": "500055", "addr:state": "Telangana", "alt_name": "Bloom Hospitals", "amenity": "hospital", "contact:email": "admin@janapareddy.co.in", "contact:phone": "+91 9963233911 ; +91 9963233922", "name": "JANAPAREDDY HOSPITAL PVT LTD", "operator:type": "private", "source": "OpenGovernmentData"}}, {"type": "node", "id": 6549150687, "lat": 17.5162288, "lon": 78.4472376, "tags": {"addr:city": "Hyderabad", "addr:full": "PLOT No.1, 2 & 3, SHAPUR NAGAR MAIN ROAD, BESIDES R.S. BROTHERS, JEEDIMETLA", "addr:postcode": "500055", "addr:state": "Telangana", "amenity": "hospital", "contact:email": "Info@medivisionhospital.com", "contact:phone": "+91 9515966644; 040-23193777", "healthcare": "hospital", "name": "MEDIVISION SUPER SPECIALTY HOSPITAL", "operator:type": "private", "source": "OpenGovernmentData"}}, {"type": "node", "id": 6549183267, "lat": 17.5084337, "lon": 78.4614305, "tags": {"addr:city": "Hyderabad", "addr:full": "Plot No:413, ROAD NO - 1, BHAGYA LAXMI COLONY, QUTHBULLAPUR", "addr:postcode": "500055", "addr:state": "Telangana", "amenity": "hospital", "contact:phone": "040 23080666", "name": "Lakshmi Sailaja Hospiatal", "operator:type": "private", "source": "OpenGovernmentData"}}, {"type": "node", "id": 6549206566, "lat": 17.470118, "lon": 78.5086575, "tags": {"addr:city": "Secunderabad", "addr:full": "MOTI VALLEY, BESIDE ACER MOTORS, TIRUMALAGIRI `X` ROAD", "addr:postcode": "500015", "addr:state": "Telangana", "amenity": "hospital", "contact:phone": "4060608899", "name": "STERLING HOSPITALS PVT LTD", "operator": "Private", "source": "OpenGovernmentData"}}, {"type": "node", "id": 6549219227, "lat": 17.4691425, "lon": 78.4777518, "tags": {"addr:city": "Hyderabad", "addr:full": "Plot No:.3, BAPUJI NAGAR, Opp: SAROJINI PULLA REDDY HOUSE, BOWENPALLY", "addr:postcode": "500011", "addr:state": "Telangana", "amenity": "hospital", "name": "KS MULTISPECIALTY HOSPITAL", "operator": "Private", "source": "OpenGovernmentData"}}, {"type": "node", "id": 6549322814, "lat": 17.5064398, "lon": 78.5160054, "tags": {"addr:district": "Secunderabad", "addr:full": "BUNGALOW NO-56, SURVEY NO- 606, GV REDDY COLONY, Opp: RYTHU BAZAAR, ALWAL", "addr:postcode": "500010", "addr:state": "Telangana", "amenity": "hospital", "contact:phone": "27862699", "name": "jubilee hospitals", "operator": "Private", "source": "OpenGovernmentData"}}, {"type": "node", "id": 6549338256, "lat": 17.4997723, "lon": 78.477497, "tags": {"addr:district": "Hyderabad", "addr:full": "H.No. 2-181/2/C , Near Suchitra Circle, Alwal Road, Ramraj Nagar, Jeedimetla", "addr:postcode": "500067", "addr:state": "Telangana", "amenity": "hospital", "contact:phone": "040 44441111; +91 8886611108", "name": "RUSSH SUPER SPECIALITY HOSPITAL", "operator:type": "private", "source": "OpenGovernmentData", "website": "https://russhhospital.com/"}}, {"type": "node", "id": 6549358302, "lat": 17.4955297, "lon": 78.4541658, "tags": {"addr:city": "Hyderabad", "addr:full": "H.No: 6-172, SURDHARSHAN REDDY NAGAR , Opp. AKSHARA SCHOOL, CHINTAL", "addr:postcode": "500054", "addr:state": "Telangana", "amenity": "hospital", "contact:phone": "4064559694", "name": "NETRA EYE AND MULTI SPECIALITY HOSPITAL", "operator:type": "private", "source": "OpenGovernmentData"}}, {"type": "node", "id": 6549440030, "lat": 17.5171414, "lon": 78.4449886, "tags": {"addr:city": "Hyderabad", "addr:full": "4/32-130, Shapur Nagar, IDA Jeedimetla, Chinthal", "addr:postcode": "500055", "addr:state": "Telangana", "amenity": "hospital", "contact:phone": "4023090409", "healthcare": "hospital", "name": "SAI SIDDHARTHA HOSPITAL", "operator:type": "private", "source": "OpenGovernmentData"}}, {"type": "node", "id": 6559228898, "lat": 17.5162813, "lon": 78.4473006, "tags": {"addr:district": "Hyderabad", "addr:full": "Main Road, Shapur Nagar, Near RS Brothers, Jeedimetla.", "addr:postcode": "500055", "addr:state": "Telangana", "amenity": "hospital", "healthcare": "hospital", "name": "Sai Bhavani Super Speciality Hospital", "source": "OpenGovernmentData"}}, {"type": "node", "id": 6560362897, "lat": 17.4722792, "lon": 78.5170314, "tags": {"addr:district": "Hyderabad", "addr:full": "Military Hospital premises Trimulgherry", "addr:place": "Secunderabad", "addr:state": "Telangana", "amenity": "hospital", "name": "Military Hospital"}}, {"type": "node", "id": 6561171891, "lat": 17.4711388, "lon": 78.5078877, "tags": {"addr:district": "Hyderabad", "addr:full": "Rtc Colony, Trimulgherry", "addr:postcode": "500015", "addr:state": "Telangana", "amenity": "hospital", "name": "Vamshi Hospital - Trimulgherry", "source": "OpenGovernmentData"}}, {"type": "node", "id": 6561341420, "lat": 17.4963994, "lon": 78.4523928, "tags": {"addr:district": "Hyderabad", "addr:full": "H .No.: 6-15 & 116, Opp. Chintal Bus Stop, Chintal", "addr:postcode": "500054", "addr:state": "Telangana", "amenity": "hospital", "name": "Happy Children Hospital - Chintal", "source": "OpenGovernmentData"}}, {"type": "node", "id": 6562751438, "lat": 17.5051697, "lon": 78.5071749, "tags": {"addr:district": "Hyderabad", "addr:full": "House No. 1-7-39/B, Plot No. 9, Main Road, Temple Alwal, Secunderabad", "addr:postcode": "5000010", "addr:state": "Telangana", "amenity": "hospital", "contact:phone": "+91 9652100844", "name": "Life Spring Maternity Hospital", "source": "OpenGovernmentData", "website": "https://www.lifespring.in/"}}, {"type": "node", "id": 6811749014, "lat": 17.468492, "lon": 78.4576658, "tags": {"addr:district": "Hyderabad", "addr:full": "Vinayak Nagar, Balanagar", "addr:postcode": "500042", "addr:state": "Telangana", "amenity": "hospital", "name": "Vijaylaxmi Maternity Hospital", "source": "OpenGovernmentData"}}, {"type": "node", "id": 6811749062, "lat": 17.492517, "lon": 78.451227, "tags": {"addr:district": "Hyderabad", "addr:full": "5-120/2, Opposite Sha SHAhensha Theatre, HMT Road, Chintal", "addr:state": "Telangana", "amenity": "hospital", "name": "Alavi Hospital", "source": "OpenGovernmentData"}}, {"type": "node", "id": 6811749084, "lat": 17.4958036, "lon": 78.4524391, "tags": {"addr:district": "Medchal Malkajgiri", "addr:full": "Jeedimetla Main Road, Sudershan Reddy Nagar, Quthbullapur, Opp Chintal Bus Stop", "addr:postcode": "500055", "addr:state": "Telangana", "amenity": "hospital", "contact:mobile": "9912186174", "name": "Harsha Dental Dantam Network Dental Hospitals", "source": "OpenGovernmentData", "website": "https://dantamclinics.com/"}}, {"type": "node", "id": 6811749088, "lat": 17.5314158, "lon": 78.4875009, "tags": {"addr:district": "Hyderabad", "addr:full": "H.No: 3-63/4a, Main Road, NH 7, Near Cine Planet, Beside Croma, Komapally", "addr:state": "Telangana", "amenity": "hospital", "contact:mobile": "8096104104", "contact:phone": "040 68180000", "name": "Srikara Hospital", "operator:type": "Private", "source": "OpenGovernmentData"}}, {"type": "node", "id": 6811749127, "lat": 17.517046, "lon": 78.480475, "tags": {"addr:district": "Medchal Malkajgiri", "addr:full": "National Highway 44, Opp.Canton Residential Township, NCL Enclave South, Jeedimetla", "addr:postcode": "500015", "addr:state": "Telangana", "amenity": "hospital", "contact:mobile": "8886668026", "name": "Suraksha Women And Children Hospital", "source": "OpenGovernmentData"}}, {"type": "node", "id": 6811749141, "lat": 17.4956577, "lon": 78.4532466, "tags": {"addr:district": "Medchal Malkajgiri", "addr:full": "Behind Chintal Bus Stop, Sudharshan Reddy Nagar, Qutubullapur, Dwarakapuri Colony", "addr:postcode": "500055", "addr:state": "Telangana", "amenity": "hospital", "name": "Raman Hospital", "source": "OpenGovernmentData"}}, {"type": "node", "id": 6935540196, "lat": 17.4787553, "lon": 78.4816433, "tags": {"addr:city": "SECUNDERABAD", "addr:street": "MALLIKARJUNA COLONY", "amenity": "hospital", "healthcare": "hospital", "name": "SHEKAR HOSPITAL"}}, {"type": "node", "id": 7117631786, "lat": 17.510807, "lon": 78.4475672}, {"type": "node", "id": 7244059229, "lat": 17.5422595, "lon": 78.474491, "tags": {"amenity": "hospital", "healthcare": "hospital"}}, {"type": "node", "id": 7925585585, "lat": 17.51644, "lon": 78.445742, "tags": {"addr:city": "Hyderabad", "addr:country": "IN", "addr:district": "Medchal\u2013Malkajgiri", "addr:postcode": "500055", "addr:state": "Telangana", "addr:street": "RS Brothers Road", "addr:subdistrict": "Quthbullapur mandal", "addr:suburb": "Shapur Nagar", "amenity": "hospital", "healthcare": "hospital", "name": "Bhaskara Hospital"}}, {"type": "node", "id": 8151182017, "lat": 17.493969, "lon": 78.513036, "tags": {"addr:street": "Lothkunta", "amenity": "hospital", "name": "Sri sanjeevini", "name:en": "Sri sanjeevini multi speciality, sharadha dental clinic,sks eye care hospitals"}}, {"type": "node", "id": 8182514342, "lat": 17.5102596, "lon": 78.4476155}, {"type": "node", "id": 8182514343, "lat": 17.5112589, "lon": 78.446559}, {"type": "node", "id": 8182514344, "lat": 17.5101488, "lon": 78.4466824}, {"type": "node", "id": 8759169871, "lat": 17.4753103, "lon": 78.4857756, "tags": {"addr:district": "Hyderabad", "addr:full": "Hasmathpet, Bowenpally, Secunderabad", "addr:postcode": "500009", "addr:state": "Telangana", "amenity": "hospital", "name": "SKS Hospital", "source": "Local Knowledge"}}, {"type": "node", "id": 8760982633, "lat": 17.5057005, "lon": 78.4670243, "tags": {"addr:district": "Medchal", "addr:full": "Suchitra, Sri Krishna Nagar, Quthbullapur, Hyderabad", "addr:postcode": "500055", "addr:state": "Telangana", "amenity": "hospital", "name": "Srujana Hospitals", "source": "Local Knowledge"}}, {"type": "node", "id": 8763113701, "lat": 17.4957164, "lon": 78.4525108, "tags": {"addr:district": "Medchal", "addr:full": "Jeedimetla Main Road, Chinthal, Hyderabad", "addr:postcode": "500037", "addr:state": "Telangana", "amenity": "hospital", "name": "Tesla Diagnostics", "source": "Local Knowledge"}}, {"type": "node", "id": 8763411325, "lat": 17.5079988, "lon": 78.5022081, "tags": {"addr:district": "Medchal", "addr:full": "1-5-56/29,Plot No.29,Old Alwal,Near IG Statue, Secunderabad", "addr:postcode": "500010", "addr:state": "Telangana", "amenity": "hospital", "name": "Excel Hospitals", "source": "Local Knowledge"}}, {"type": "node", "id": 9355590863, "lat": 17.4801489, "lon": 78.5121788, "tags": {"amenity": "hospital", "healthcare": "hospital"}}, {"type": "node", "id": 12669348711, "lat": 17.4865279, "lon": 78.4497546, "tags": {"addr:city": "Hyderabad", "addr:district": "hyderabad", "addr:postcode": "500054", "addr:street": "Sumithra Nagar, Gudement Nagar, IDPL Colony, Balanagar", "amenity": "hospital", "contact:facebook": "https://www.facebook.com/revivemultispecialityhospital", "email": "revivehospitalhyd@gmail.com", "emergency": "yes", "healthcare": "hospital", "healthcare:speciality": "orthopaedics;gynaecology;general;paediatrics;dermatology;otolaryngology;surgery;neurology;emergency;gastroenterology", "internet_access": "yes", "name": "Revive Multispeciality Hospital", "opening_hours": "24/7", "source": "local knowledge;gps", "wheelchair": "yes"}}, {"type": "way", "id": 355979902, "nodes": [3614774696, 3614774908, 3614774894, 3614774839, 3614774844, 3614774687, 3614774696], "tags": {"addr:district": "Hyderabad", "addr:full": "Manovikas Nagar, Secunderabad, Near Delhi Public School", "addr:postcode": "500009", "addr:state": "Telangana", "addr:subdistrict": "Secunderabad", "amenity": "hospital", "building": "yes", "contact:phone": "04027753385", "health_facility:type": "Others", "healthcare": "centre", "name": "Southern Regional Centre of Ali Yavar Jung National Institute for the Hearing Handicapped (AYJNIHH)", "source": "OpenGovernmentData"}}, {"type": "way", "id": 879583475, "nodes": [8182514344, 8182514343, 7117631786, 8182514342, 8182514344], "tags": {"amenity": "hospital", "name": "ESI Hospital"}}]}