{"version": 0.6, "generator": "Overpass API 0.7.62.8 e802775f", "osm3s": {"timestamp_osm_base": "2026-01-16T10:31:48Z", "copyright": "The data included in this document is from www.openstreetmap.org. The data is made available under ODbL."}, "elements": [{"type": "node", "id": 452415318, "lat": 59.7194, "lon": 10.1608, "tags": {"highway": "bus_stop", "name": "Skjelsbekk \u00f8vre", "ref:nsrq": "29911"}}, {"type": "node", "id": 1119662266, "lat": 59.71821, "lon": 10.15128, "tags": {"bench": "yes", "highway": "bus_stop", "name": "Konnerudsenteret", "ref:nsrq": "29928", "shelter": "yes"}}, {"type": "node", "id": 1119662462, "lat": 59.7173, "lon": 10.1621, "tags": {"highway": "bus_stop", "name": "Venusfaret", "ref:nsrq": "29917"}}, {"type": "node", "id": 1289230078, "lat": 59.6955, "lon": 10.1607, "tags": {"highway": "bus_stop", "name": "Berg Skoger", "ref:nsrq": "29836"}}, {"type": "node", "id": 1289230290, "lat": 59.7093, "lon": 10.1566, "tags": {"highway": "bus_stop", "name": "Vallersveien", "ref:nsrq": "29941"}}, {"type": "node", "id": 1289230354, "lat": 59.7038, "lon": 10.1583, "tags": {"highway": "bus_stop", "name": "Jarlsbergveien 232", "ref:nsrq": "29950"}}, {"type": "node", "id": 1289230462, "lat": 59.6963, "lon": 10.163, "tags": {"highway": "bus_stop", "name": "Svingen", "ref:nsrq": "29833", "shelter": "yes"}}, {"type": "node", "id": 1289230973, "lat": 59.7188, "lon": 10.146, "tags": {"highway": "bus_stop", "name": "Jarlsbergsenteret", "ref:nsrq": "29932"}}, {"type": "node", "id": 1289231027, "lat": 59.70848, "lon": 10.16117, "tags": {"highway": "bus_stop", "name": "Lundaveien", "ref:nsrq": "29945"}}, {"type": "node", "id": 1289231958, "lat": 59.6997, "lon": 10.1597, "tags": {"highway": "bus_stop", "name": "Haldenlia", "ref:nsrq": "29957"}}, {"type": "node", "id": 1289232050, "lat": 59.6915, "lon": 10.1464, "tags": {"highway": "bus_stop", "name": "Berget Skoger", "ref:nsrq": "29845"}}, {"type": "node", "id": 1289233639, "lat": 59.6907, "lon": 10.141, "tags": {"highway": "bus_stop", "name": "Gar\u00e5s", "ref:nsrq": "29848"}}, {"type": "node", "id": 1289235349, "lat": 59.7064, "lon": 10.1558, "tags": {"bench": "yes", "bin": "yes", "highway": "bus_stop", "lit": "no", "name": "S\u00f8rskogen", "ref:nsrq": "29947", "shelter": "yes", "tactile_paving": "no"}}, {"type": "node", "id": 1289236304, "lat": 59.6925, "lon": 10.1545, "tags": {"highway": "bus_stop", "name": "Imjelt", "ref:nsrq": "29840"}}, {"type": "node", "id": 1289237272, "lat": 59.6885, "lon": 10.1344, "tags": {"highway": "bus_stop", "name": "\u00c5serud", "ref:nsrq": "29852"}}, {"type": "node", "id": 1357052815, "lat": 59.7155, "lon": 10.1593, "tags": {"highway": "bus_stop", "name": "Djupdalen", "ref:nsrq": "29921"}}, {"type": "node", "id": 1357052819, "lat": 59.7157, "lon": 10.1581, "tags": {"highway": "bus_stop", "name": "Djupdalsveien", "ref:nsrq": "29925"}}, {"type": "node", "id": 1357052893, "lat": 59.719704, "lon": 10.141952, "tags": {"highway": "bus_stop", "name": "Gramsborg", "ref:nsrq": "29937", "shelter": "no"}}, {"type": "node", "id": 1357053371, "lat": 59.7171, "lon": 10.161, "tags": {"highway": "bus_stop", "name": "Venusfaret", "ref:nsrq": "29918"}}, {"type": "node", "id": 2883431809, "lat": 59.685734, "lon": 10.1942, "tags": {"highway": "bus_stop", "name": "L\u00f8se", "ref:nsrq": "29816"}}, {"type": "node", "id": 2883469883, "lat": 59.6858, "lon": 10.1797, "tags": {"highway": "bus_stop", "name": "Borgeveien", "ref:nsrq": "29826"}}, {"type": "node", "id": 2883469884, "lat": 59.6901, "lon": 10.1736, "tags": {"highway": "bus_stop", "name": "Skalstad Skoger", "ref:nsrq": "29828"}}, {"type": "node", "id": 4824745172, "lat": 59.7181, "lon": 10.149728, "tags": {"highway": "bus_stop", "name": "Konnerudsenteret", "ref:nsrq": "29929"}}, {"type": "node", "id": 6372879087, "lat": 59.7003, "lon": 10.1584, "tags": {"highway": "bus_stop", "name": "Haldenlia", "ref:nsrq": "29955"}}, {"type": "node", "id": 6372879088, "lat": 59.71974, "lon": 10.140791, "tags": {"highway": "bus_stop", "name": "Kirkelunden", "ref:nsrq": "29959"}}, {"type": "node", "id": 6372879089, "lat": 59.7032, "lon": 10.158, "tags": {"highway": "bus_stop", "name": "Jarlsbergveien 232", "ref:nsrq": "29951"}}, {"type": "node", "id": 6372879090, "lat": 59.7092, "lon": 10.1572, "tags": {"bench": "yes", "bin": "yes", "highway": "bus_stop", "name": "Vallersveien", "ref:nsrq": "29940", "shelter": "yes"}}, {"type": "node", "id": 6372879091, "lat": 59.7065, "lon": 10.1547, "tags": {"bench": "no", "bin": "no", "highway": "bus_stop", "lit": "yes", "name": "S\u00f8rskogen", "ref:nsrq": "29949", "shelter": "no", "tactile_paving": "no"}}, {"type": "node", "id": 6372879092, "lat": 59.7187, "lon": 10.1466, "tags": {"highway": "bus_stop", "name": "Jarlsbergsenteret", "ref:nsrq": "29933"}}, {"type": "node", "id": 6372879093, "lat": 59.70854, "lon": 10.1624, "tags": {"highway": "bus_stop", "name": "Lundaveien", "ref:nsrq": "29944"}}, {"type": "node", "id": 6372879094, "lat": 59.7156, "lon": 10.1591, "tags": {"highway": "bus_stop", "name": "Djupdalen", "ref:nsrq": "29922"}}, {"type": "node", "id": 6372879095, "lat": 59.7156, "lon": 10.1578, "tags": {"highway": "bus_stop", "name": "Djupdalsveien", "ref:nsrq": "29924"}}, {"type": "node", "id": 6372879153, "lat": 59.7196, "lon": 10.1609, "tags": {"highway": "bus_stop", "name": "Skjelsbekk \u00f8vre", "ref:nsrq": "29913"}}, {"type": "node", "id": 6372879178, "lat": 59.6886, "lon": 10.1341, "tags": {"highway": "bus_stop", "name": "\u00c5serud", "ref:nsrq": "29853"}}, {"type": "node", "id": 6372879180, "lat": 59.6908, "lon": 10.1409, "tags": {"highway": "bus_stop", "name": "Gar\u00e5s", "ref:nsrq": "29849"}}, {"type": "node", "id": 6372879182, "lat": 59.6916, "lon": 10.1463, "tags": {"highway": "bus_stop", "name": "Berget Skoger", "ref:nsrq": "29844"}}, {"type": "node", "id": 6372879183, "lat": 59.6927, "lon": 10.1543, "tags": {"highway": "bus_stop", "name": "Imjelt", "ref:nsrq": "29841"}}, {"type": "node", "id": 6372879185, "lat": 59.6956, "lon": 10.1605, "tags": {"highway": "bus_stop", "name": "Berg Skoger", "ref:nsrq": "29837"}}, {"type": "node", "id": 6372879186, "lat": 59.69625, "lon": 10.163052, "tags": {"highway": "bus_stop", "name": "Svingen", "ref:nsrq": "29832"}}, {"type": "node", "id": 6372879187, "lat": 59.6902, "lon": 10.1744, "tags": {"highway": "bus_stop", "name": "Skalstad Skoger", "ref:nsrq": "29830"}}, {"type": "node", "id": 6372879188, "lat": 59.6867, "lon": 10.1788, "tags": {"highway": "bus_stop", "name": "Borgeveien", "ref:nsrq": "29824"}}, {"type": "node", "id": 6372879192, "lat": 59.6856, "lon": 10.1947, "tags": {"highway": "bus_stop", "name": "L\u00f8se", "ref:nsrq": "29815"}}, {"type": "node", "id": 11659116602, "lat": 59.7180874, "lon": 10.1509212}, {"type": "node", "id": 11659116603, "lat": 59.7182081, "lon": 10.1513053}, {"type": "way", "id": 1254255176, "nodes": [11659116603, 11659116602], "tags": {"bus": "yes", "public_transport": "platform"}}]}