{"version": 0.6, "generator": "Overpass API 0.7.62.8 e802775f", "osm3s": {"timestamp_osm_base": "2026-01-15T00:02:53Z", "copyright": "The data included in this document is from www.openstreetmap.org. The data is made available under ODbL."}, "elements": [{"type": "node", "id": 30084501, "lat": 43.2806646, "lon": 5.3526126, "tags": {"bus": "yes", "name": "Fausse Monnaie", "name:oc": "Moneda Faussa", "public_transport": "stop_position", "source:name:oc": "ieo-bdtopoc"}}, {"type": "node", "id": 30084517, "lat": 43.2886588, "lon": 5.3535939, "tags": {"bus": "yes", "name": "Catalans", "name:oc": "Catalans", "public_transport": "stop_position", "source:name:oc": "ieo-bdtopoc"}}, {"type": "node", "id": 30084519, "lat": 43.2890447, "lon": 5.3542931, "tags": {"bus": "yes", "name": "Catalans", "name:oc": "Catalans", "public_transport": "stop_position", "source:name:oc": "ieo-bdtopoc"}}, {"type": "node", "id": 30084531, "lat": 43.2882736, "lon": 5.3570895, "tags": {"bus": "yes", "name": "Lyc\u00e9e Colbert", "name:oc": "Lic\u00e8u Colb\u00e8rt", "public_transport": "stop_position", "source:name:oc": "ieo-bdtopoc"}}, {"type": "node", "id": 32691161, "lat": 43.2804186, "lon": 5.3267152}, {"type": "node", "id": 32691162, "lat": 43.2804348, "lon": 5.3264922}, {"type": "node", "id": 32691163, "lat": 43.2804111, "lon": 5.3264225}, {"type": "node", "id": 33806220, "lat": 43.2914561, "lon": 5.3590654, "tags": {"bus": "yes", "name": "Le Pharo", "name:oc": "Lo Far\u00f2t", "public_transport": "stop_position", "source:name:oc": "ieo-bdtopoc"}}, {"type": "node", "id": 33955540, "lat": 43.2759183, "lon": 5.3587838, "tags": {"bus": "yes", "name": "Vallon de l'Oriol", "name:oc": "Valon d\u2019En Auru\u00f2u", "public_transport": "stop_position", "source:name:oc": "ieo-bdtopoc"}}, {"type": "node", "id": 255880618, "lat": 43.3122587, "lon": 5.3641653, "tags": {"amenity": "ferry_terminal", "cargo": "passengers;vehicle", "ferry": "yes", "harbour": "yes", "name": "Gare Maritime d'Arenc", "name:ar": "\u0645\u062d\u0637\u0629 \u0622\u0631\u0646\u0643 \u0627\u0644\u0628\u062d\u0631\u064a\u0629", "name:oc": "Estacion maritima d'Arenh", "public_transport": "station", "seamark:harbour:category": "ferry", "seamark:type": "harbour", "source:name:oc": "ieo-bdtopoc"}}, {"type": "node", "id": 255880619, "lat": 43.2983471, "lon": 5.358287}, {"type": "node", "id": 255885515, "lat": 43.1582687, "lon": 5.3714573}, {"type": "node", "id": 310222792, "lat": 43.292081, "lon": 5.3592845, "tags": {"bus": "yes", "name": "Le Pharo", "name:oc": "Lo Far\u00f2t", "public_transport": "stop_position", "source:name:oc": "ieo-bdtopoc"}}, {"type": "node", "id": 498495269, "lat": 43.2788017, "lon": 5.3605161, "tags": {"bus": "yes", "name": "Bompard", "name:oc": "Bompar", "public_transport": "stop_position", "source:name:oc": "ieo-bdtopoc"}}, {"type": "node", "id": 567463867, "lat": 43.2962622, "lon": 5.3542871}, {"type": "node", "id": 750546764, "lat": 43.2886196, "lon": 5.3590777, "tags": {"bus": "yes", "name": "Place du 4 Septembre", "name:oc": "Pla\u00e7a dau 4 de Setembre", "public_transport": "stop_position", "source:name:oc": "ieo-bdtopoc"}}, {"type": "node", "id": 826827687, "lat": 43.2803787, "lon": 5.3263391}, {"type": "node", "id": 826827721, "lat": 43.280459, "lon": 5.326549, "tags": {"amenity": "ferry_terminal", "cargo": "passengers", "ferry": "yes", "name": "Ch\u00e2teau d'If", "name:oc": "Cast\u00e8u d'It", "public_transport": "station", "source:name:oc": "ieo-bdtopoc", "wheelchair": "no"}}, {"type": "node", "id": 826827802, "lat": 43.2804334, "lon": 5.3266563}, {"type": "node", "id": 826827913, "lat": 43.2802934, "lon": 5.3262847}, {"type": "node", "id": 1065885280, "lat": 43.2882253, "lon": 5.3571247, "tags": {"bench": "yes", "bin": "yes", "bus": "yes", "highway": "bus_stop", "lit": "no", "name": "Lyc\u00e9e Colbert", "name:oc": "Lic\u00e8u Colb\u00e8rt", "public_transport": "platform", "route_ref": "54;81;82;825", "shelter": "yes", "source:name:oc": "ieo-bdtopoc", "tactile_paving": "no"}}, {"type": "node", "id": 1288022323, "lat": 43.2805974, "lon": 5.3526445, "tags": {"bench": "yes", "bin": "yes", "bus": "yes", "check_date:shelter": "2023-06-13", "highway": "bus_stop", "lit": "no", "name": "Fausse Monnaie", "name:oc": "Moneda Faussa", "public_transport": "platform", "shelter": "yes", "source:name:oc": "ieo-bdtopoc", "tactile_paving": "yes", "wheelchair": "yes"}}, {"type": "node", "id": 1288022332, "lat": 43.2856482, "lon": 5.3508026, "tags": {"bench": "yes", "bin": "yes", "bus": "yes", "highway": "bus_stop", "lit": "yes", "name": "Vallon des Auffes", "name:oc": "Valon deis Aufas", "public_transport": "platform", "shelter": "yes", "source:name:oc": "ieo-bdtopoc", "tactile_paving": "yes", "wheelchair": "no"}}, {"type": "node", "id": 1288022362, "lat": 43.2807484, "lon": 5.3525077, "tags": {"bin": "yes", "bus": "yes", "highway": "bus_stop", "lit": "yes", "name": "Fausse Monnaie", "name:oc": "Moneda Faussa", "public_transport": "platform", "shelter": "no", "source:name:oc": "ieo-bdtopoc", "tactile_paving": "yes", "wheelchair": "yes"}}, {"type": "node", "id": 1288022366, "lat": 43.2857318, "lon": 5.3506948, "tags": {"bench": "yes", "bin": "yes", "bus": "yes", "highway": "bus_stop", "lit": "yes", "name": "Vallon des Auffes", "name:oc": "Valon deis Aufas", "public_transport": "platform", "shelter": "yes", "source:name:oc": "ieo-bdtopoc", "tactile_paving": "yes", "wheelchair": "yes"}}, {"type": "node", "id": 1291836212, "lat": 43.2832438, "lon": 5.3504357, "tags": {"bench": "yes", "bin": "yes", "bus": "yes", "highway": "bus_stop", "lit": "yes", "name": "Endoume", "name:oc": "En Domes", "public_transport": "platform", "shelter": "yes", "source:name:oc": "ieo-bdtopoc", "tactile_paving": "yes", "wheelchair": "yes"}}, {"type": "node", "id": 1291836213, "lat": 43.283021, "lon": 5.3503679, "tags": {"bench": "yes", "bin": "yes", "bus": "yes", "highway": "bus_stop", "lit": "no", "name": "Endoume", "name:oc": "En Domes", "public_transport": "platform", "shelter": "yes", "source:name:oc": "ieo-bdtopoc", "tactile_paving": "yes", "wheelchair": "yes"}}, {"type": "node", "id": 1297484854, "lat": 43.2894526, "lon": 5.3571674, "tags": {"bench": "yes", "bin": "yes", "bus": "yes", "check_date:shelter": "2023-06-13", "highway": "bus_stop", "lit": "yes", "name": "Corniche Aud\u00e9oud", "name:oc": "Cornissa - Audeoud", "public_transport": "platform", "shelter": "yes", "source:name:oc": "ieo-bdtopoc", "tactile_paving": "yes"}}, {"type": "node", "id": 1297484858, "lat": 43.2874941, "lon": 5.3522983, "tags": {"bench": "yes", "bin": "yes", "bus": "yes", "highway": "bus_stop", "lit": "no", "name": "Corniche Fr\u00e9gier", "name:oc": "Cornissa - Fregier", "public_transport": "platform", "shelter": "yes", "source:name:oc": "ieo-bdtopoc", "tactile_paving": "yes", "wheelchair": "yes"}}, {"type": "node", "id": 1297484859, "lat": 43.2889452, "lon": 5.3549204, "tags": {"bench": "yes", "bin": "yes", "bus": "yes", "check_date:shelter": "2023-08-15", "highway": "bus_stop", "lit": "yes", "name": "Catalans", "name:oc": "Catalans", "public_transport": "platform", "shelter": "yes", "source:name:oc": "ieo-bdtopoc", "tactile_paving": "no"}}, {"type": "node", "id": 1297484864, "lat": 43.2886254, "lon": 5.3536505, "tags": {"bench": "yes", "bin": "yes", "bus": "yes", "check_date:shelter": "2023-06-13", "highway": "bus_stop", "lit": "no", "name": "Catalans", "name:oc": "Catalans", "public_transport": "platform", "shelter": "yes", "source:name:oc": "ieo-bdtopoc", "tactile_paving": "yes", "wheelchair": "yes"}}, {"type": "node", "id": 1297484865, "lat": 43.2874897, "lon": 5.3521423, "tags": {"bench": "yes", "bin": "no", "bus": "yes", "check_date:shelter": "2023-06-13", "highway": "bus_stop", "lit": "no", "name": "Corniche Fr\u00e9gier", "name:oc": "Cornissa - Fregier", "public_transport": "platform", "shelter": "yes", "source:name:oc": "ieo-bdtopoc", "tactile_paving": "yes", "wheelchair": "yes"}}, {"type": "node", "id": 1297484866, "lat": 43.2887924, "lon": 5.355257, "tags": {"bench": "yes", "bin": "no", "bus": "yes", "highway": "bus_stop", "lit": "no", "name": "Catalans", "name:oc": "Catalans", "public_transport": "platform", "route_ref": "54", "shelter": "yes", "source:name:oc": "ieo-bdtopoc", "tactile_paving": "no"}}, {"type": "node", "id": 1297484867, "lat": 43.289026, "lon": 5.3541558, "tags": {"bench": "yes", "bin": "no", "bus": "yes", "check_date:shelter": "2023-06-13", "highway": "bus_stop", "lit": "yes", "name": "Catalans", "name:oc": "Catalans", "public_transport": "platform", "shelter": "yes", "source:name:oc": "ieo-bdtopoc", "tactile_paving": "yes", "wheelchair": "yes"}}, {"type": "node", "id": 1305557891, "lat": 43.2917177, "lon": 5.3591036, "tags": {"bench": "yes", "bin": "yes", "bus": "yes", "highway": "bus_stop", "lit": "yes", "name": "Le Pharo", "name:oc": "Lo Far\u00f2t", "public_transport": "platform", "shelter": "yes", "source:name:oc": "ieo-bdtopoc", "tactile_paving": "yes", "wheelchair": "yes"}}, {"type": "node", "id": 1305557893, "lat": 43.2885579, "lon": 5.3591649, "tags": {"bench": "yes", "bin": "yes", "bus": "yes", "check_date:shelter": "2023-06-13", "highway": "bus_stop", "lit": "yes", "name": "Place du 4 Septembre", "name:oc": "Pla\u00e7a dau 4 de Setembre", "public_transport": "platform", "route_ref": "54;81", "shelter": "yes", "source:name:oc": "ieo-bdtopoc", "tactile_paving": "yes"}}, {"type": "node", "id": 1340345800, "lat": 43.277927, "lon": 5.3551096, "tags": {"bench": "yes", "bin": "yes", "bus": "yes", "check_date:shelter": "2023-06-13", "highway": "bus_stop", "lit": "no", "name": "Parc Valmer", "name:oc": "Pargue Valmar", "public_transport": "platform", "shelter": "yes", "source:name:oc": "ieo-bdtopoc", "tactile_paving": "yes", "wheelchair": "yes"}}, {"type": "node", "id": 1340345852, "lat": 43.2771719, "lon": 5.3570159, "tags": {"bench": "no", "bin": "yes", "bus": "yes", "check_date:shelter": "2023-06-13", "highway": "bus_stop", "lit": "no", "name": "Vallon de la Baudille", "name:oc": "Valon de la Baudilha", "public_transport": "platform", "shelter": "no", "source:name:oc": "ieo-bdtopoc", "tactile_paving": "yes", "wheelchair": "yes"}}, {"type": "node", "id": 1340345865, "lat": 43.2754839, "lon": 5.3602592, "tags": {"bench": "no", "bin": "no", "bus": "yes", "check_date:shelter": "2023-06-13", "highway": "bus_stop", "lit": "yes", "name": "Oriol Corniche", "name:oc": "Auri\u00f2u - Cornissa", "public_transport": "platform", "shelter": "no", "source:name:oc": "ieo-bdtopoc", "tactile_paving": "no"}}, {"type": "node", "id": 1340345888, "lat": 43.2770293, "lon": 5.3569075, "tags": {"bench": "yes", "bin": "yes", "bus": "yes", "check_date:shelter": "2023-06-13", "highway": "bus_stop", "lit": "no", "name": "Vallon de la Baudille", "name:oc": "Valon de la Baudilha", "public_transport": "platform", "shelter": "yes", "source:name:oc": "ieo-bdtopoc", "tactile_paving": "yes", "wheelchair": "yes"}}, {"type": "node", "id": 1340345916, "lat": 43.2759862, "lon": 5.3589064, "tags": {"bench": "yes", "bin": "yes", "bus": "yes", "highway": "bus_stop", "lit": "yes", "name": "Vallon de l'Oriol", "name:oc": "Valon d\u2019En Auru\u00f2u", "public_transport": "platform", "shelter": "yes", "source:name:oc": "ieo-bdtopoc", "tactile_paving": "yes", "wheelchair": "yes"}}, {"type": "node", "id": 1340345939, "lat": 43.2759008, "lon": 5.3587219, "tags": {"bench": "yes", "bin": "yes", "bus": "yes", "check_date:shelter": "2023-06-13", "highway": "bus_stop", "lit": "yes", "name": "Vallon de l'Oriol", "name:oc": "Valon d\u2019En Auru\u00f2u", "public_transport": "platform", "shelter": "yes", "source:name:oc": "ieo-bdtopoc", "tactile_paving": "yes", "wheelchair": "yes"}}, {"type": "node", "id": 1351757367, "lat": 43.2916675, "lon": 5.3590304, "tags": {"bus": "yes", "name": "Le Pharo", "name:oc": "Lo Far\u00f2t", "public_transport": "stop_position", "source:name:oc": "ieo-bdtopoc"}}, {"type": "node", "id": 1351757375, "lat": 43.2895061, "lon": 5.3572022, "tags": {"bus": "yes", "name": "Corniche Aud\u00e9oud", "name:oc": "Cornissa - Audeoud", "public_transport": "stop_position", "source:name:oc": "ieo-bdtopoc"}}, {"type": "node", "id": 1353262876, "lat": 43.2844009, "lon": 5.358312, "tags": {"bench": "no", "bin": "no", "bus": "yes", "highway": "bus_stop", "lit": "no", "name": "Place Saint-Eug\u00e8ne", "name:oc": "Pla\u00e7a de Sant Eug\u00e8ni", "public_transport": "platform", "shelter": "no", "source:name:oc": "ieo-bdtopoc", "tactile_paving": "no"}}, {"type": "node", "id": 1353262889, "lat": 43.2836414, "lon": 5.355073, "tags": {"bus": "yes", "name": "Endoume Vallon des Auffes", "name:oc": "En Domes - Valon deis Aufas", "public_transport": "stop_position", "source:name:oc": "ieo-bdtopoc"}}, {"type": "node", "id": 1353262900, "lat": 43.2848361, "lon": 5.3595161, "tags": {"bench": "yes", "bin": "yes", "bus": "yes", "highway": "bus_stop", "lit": "no", "name": "Endoume Bompard", "name:oc": "En Domes - Bompar", "public_transport": "platform", "shelter": "yes", "source:name:oc": "ieo-bdtopoc", "tactile_paving": "no"}}, {"type": "node", "id": 1353262911, "lat": 43.2835971, "lon": 5.3550592, "tags": {"bench": "no", "bin": "no", "bus": "yes", "highway": "bus_stop", "lit": "no", "name": "Endoume Vallon des Auffes", "name:oc": "En Domes - Valon deis Aufas", "public_transport": "platform", "shelter": "no", "source:name:oc": "ieo-bdtopoc", "tactile_paving": "no"}}, {"type": "node", "id": 1353262916, "lat": 43.2843662, "lon": 5.3583388, "tags": {"bus": "yes", "name": "Place Saint-Eug\u00e8ne", "name:oc": "Pla\u00e7a de Sant Eug\u00e8ni", "public_transport": "stop_position", "source:name:oc": "ieo-bdtopoc"}}, {"type": "node", "id": 1353262922, "lat": 43.283768, "lon": 5.3533695, "tags": {"bus": "yes", "name": "Endoume Bensa", "name:oc": "En Domes - Bensa", "public_transport": "stop_position", "source:name:oc": "ieo-bdtopoc"}}, {"type": "node", "id": 1353262932, "lat": 43.2830751, "lon": 5.3527193, "tags": {"bench": "no", "bin": "no", "bus": "yes", "highway": "bus_stop", "lit": "no", "name": "\u00c9glise d'Endoume", "name:oc": "Gleisa d'En Domes", "public_transport": "platform", "shelter": "no", "source:name:oc": "ieo-bdtopoc", "tactile_paving": "no"}}, {"type": "node", "id": 1353262938, "lat": 43.283902, "lon": 5.3557887, "tags": {"bus": "yes", "name": "Endoume Vallon des Auffes", "name:oc": "En Domes - Valon deis Aufas", "public_transport": "stop_position", "source:name:oc": "ieo-bdtopoc"}}, {"type": "node", "id": 1353262940, "lat": 43.2848606, "lon": 5.3594759, "tags": {"bus": "yes", "name": "Endoume Bompard", "name:oc": "En Domes - Bompar", "public_transport": "stop_position", "source:name:oc": "ieo-bdtopoc"}}, {"type": "node", "id": 1353262943, "lat": 43.2838005, "lon": 5.3533563, "tags": {"bench": "no", "bin": "no", "bus": "yes", "highway": "bus_stop", "lit": "no", "name": "Endoume Bensa", "name:oc": "En Domes - Bensa", "public_transport": "platform", "shelter": "no", "source:name:oc": "ieo-bdtopoc", "tactile_paving": "no"}}, {"type": "node", "id": 1353262951, "lat": 43.2839305, "lon": 5.35576, "tags": {"bench": "no", "bin": "no", "bus": "yes", "highway": "bus_stop", "lit": "no", "name": "Endoume Vallon des Auffes", "name:oc": "En Domes - Valon deis Aufas", "public_transport": "platform", "shelter": "no", "source:name:oc": "ieo-bdtopoc", "tactile_paving": "no"}}, {"type": "node", "id": 1353262955, "lat": 43.2848953, "lon": 5.3594186, "tags": {"bench": "no", "bin": "no", "bus": "yes", "highway": "bus_stop", "lit": "no", "name": "Endoume Bompard", "name:oc": "En Domes - Bompar", "public_transport": "platform", "shelter": "no", "source:name:oc": "ieo-bdtopoc", "tactile_paving": "no"}}, {"type": "node", "id": 1353262964, "lat": 43.2839301, "lon": 5.3574658, "tags": {"bench": "yes", "bin": "no", "bus": "yes", "highway": "bus_stop", "lit": "no", "name": "Place Saint-Eug\u00e8ne", "name:oc": "Pla\u00e7a de Sant Eug\u00e8ni", "public_transport": "platform", "shelter": "yes", "source:name:oc": "ieo-bdtopoc", "tactile_paving": "no"}}, {"type": "node", "id": 1353262975, "lat": 43.283983, "lon": 5.3574255, "tags": {"bus": "yes", "name": "Place Saint-Eug\u00e8ne", "name:oc": "Pla\u00e7a de Sant Eug\u00e8ni", "public_transport": "stop_position", "source:name:oc": "ieo-bdtopoc"}}, {"type": "node", "id": 1353262997, "lat": 43.2830627, "lon": 5.352665, "tags": {"bus": "yes", "name": "\u00c9glise d'Endoume", "name:oc": "Gleisa d'En Domes", "public_transport": "stop_position", "source:name:oc": "ieo-bdtopoc"}}, {"type": "node", "id": 1354654298, "lat": 43.2779768, "lon": 5.3551447, "tags": {"bus": "yes", "name": "Parc Valmer", "name:oc": "Pargue Valmar", "public_transport": "stop_position", "source:name:oc": "ieo-bdtopoc"}}, {"type": "node", "id": 1354654307, "lat": 43.28752, "lon": 5.3522235, "tags": {"bus": "yes", "name": "Corniche Fr\u00e9gier", "name:oc": "Cornissa - Fregier", "public_transport": "stop_position", "source:name:oc": "ieo-bdtopoc"}}, {"type": "node", "id": 1354654308, "lat": 43.2771415, "lon": 5.356977, "tags": {"bus": "yes", "name": "Vallon de la Baudille", "name:oc": "Valon de la Baudilha", "public_transport": "stop_position", "source:name:oc": "ieo-bdtopoc"}}, {"type": "node", "id": 1354654309, "lat": 43.2856941, "lon": 5.3507519, "tags": {"bus": "yes", "name": "Vallon des Auffes", "name:oc": "Valon deis Aufas", "public_transport": "stop_position", "source:name:oc": "ieo-bdtopoc"}}, {"type": "node", "id": 1354654316, "lat": 43.2788295, "lon": 5.3542859, "tags": {"bus": "yes", "name": "Parc Valmer", "name:oc": "Pargue Valmar", "public_transport": "stop_position", "source:name:oc": "ieo-bdtopoc"}}, {"type": "node", "id": 1354654319, "lat": 43.283005, "lon": 5.3504656, "tags": {"bus": "yes", "name": "Endoume", "name:oc": "En Domes", "public_transport": "stop_position", "source:name:oc": "ieo-bdtopoc"}}, {"type": "node", "id": 1354654334, "lat": 43.2759595, "lon": 5.358844, "tags": {"bus": "yes", "name": "Vallon de l'Oriol", "name:oc": "Valon d\u2019En Auru\u00f2u", "public_transport": "stop_position", "source:name:oc": "ieo-bdtopoc"}}, {"type": "node", "id": 1354654337, "lat": 43.2770657, "lon": 5.3569626, "tags": {"bus": "yes", "name": "Vallon de la Baudille", "name:oc": "Valon de la Baudilha", "public_transport": "stop_position", "source:name:oc": "ieo-bdtopoc"}}, {"type": "node", "id": 1354654339, "lat": 43.2831809, "lon": 5.3503708, "tags": {"bus": "yes", "name": "Endoume", "name:oc": "En Domes", "public_transport": "stop_position", "source:name:oc": "ieo-bdtopoc"}}, {"type": "node", "id": 1354654341, "lat": 43.2806399, "lon": 5.3526859, "tags": {"bus": "yes", "name": "Fausse Monnaie", "name:oc": "Moneda Faussa", "public_transport": "stop_position", "source:name:oc": "ieo-bdtopoc"}}, {"type": "node", "id": 1382005849, "lat": 43.2788085, "lon": 5.360454, "tags": {"bench": "no", "bin": "no", "bus": "yes", "highway": "bus_stop", "lit": "no", "name": "Bompard", "name:oc": "Bompar", "public_transport": "platform", "shelter": "no", "source:name:oc": "ieo-bdtopoc", "tactile_paving": "no"}}, {"type": "node", "id": 1382005851, "lat": 43.2791699, "lon": 5.3604437, "tags": {"bus": "yes", "name": "Bompard", "name:oc": "Bompar", "public_transport": "stop_position", "source:name:oc": "ieo-bdtopoc"}}, {"type": "node", "id": 1382005859, "lat": 43.2791724, "lon": 5.360497, "tags": {"bench": "no", "bin": "no", "bus": "yes", "highway": "bus_stop", "lit": "no", "name": "Bompard", "name:oc": "Bompar", "public_transport": "platform", "shelter": "no", "source:name:oc": "ieo-bdtopoc", "tactile_paving": "no"}}, {"type": "node", "id": 1382005860, "lat": 43.2813469, "lon": 5.3601464, "tags": {"bus": "yes", "name": "Bompard Beaulieu", "name:oc": "Bompar - B\u00e8ulu\u00f2c", "public_transport": "stop_position", "source:name:oc": "ieo-bdtopoc"}}, {"type": "node", "id": 1382005863, "lat": 43.2812863, "lon": 5.3600363, "tags": {"bench": "no", "bin": "no", "bus": "yes", "highway": "bus_stop", "lit": "no", "name": "Bompard Beaulieu", "name:oc": "Bompar - B\u00e8ulu\u00f2c", "public_transport": "platform", "shelter": "no", "source:name:oc": "ieo-bdtopoc", "tactile_paving": "no"}}, {"type": "node", "id": 1382005877, "lat": 43.2807538, "lon": 5.3606506, "tags": {"bus": "yes", "name": "Bompard F\u00e9d\u00e9li", "name:oc": "Bompar - Fedeli", "operator": "RTM", "public_transport": "stop_position", "source:name:oc": "ieo-bdtopoc"}}, {"type": "node", "id": 1382005884, "lat": 43.2807716, "lon": 5.3607034, "tags": {"bench": "no", "bin": "no", "bus": "yes", "highway": "bus_stop", "lit": "no", "name": "Bompard F\u00e9d\u00e9li", "name:oc": "Bompar - Fedeli", "public_transport": "platform", "shelter": "no", "source:name:oc": "ieo-bdtopoc", "tactile_paving": "no"}}, {"type": "node", "id": 1382005901, "lat": 43.2844399, "lon": 5.3601807, "tags": {"bench": "no", "bin": "no", "bus": "yes", "highway": "bus_stop", "lit": "no", "name": "Bompard Endoume", "name:oc": "Bompar - En Domes", "public_transport": "platform", "shelter": "no", "source:name:oc": "ieo-bdtopoc", "tactile_paving": "no"}}, {"type": "node", "id": 1382005907, "lat": 43.2844529, "lon": 5.3602491, "tags": {"bus": "yes", "name": "Bompard Endoume", "name:oc": "Bompar - En Domes", "public_transport": "stop_position", "source:name:oc": "ieo-bdtopoc"}}, {"type": "node", "id": 1382005915, "lat": 43.2846957, "lon": 5.3601268, "tags": {"bus": "yes", "name": "Bompard Endoume", "name:oc": "Bompar - En Domes", "public_transport": "stop_position", "source:name:oc": "ieo-bdtopoc"}}, {"type": "node", "id": 1382005918, "lat": 43.2847046, "lon": 5.3601876, "tags": {"bench": "no", "bin": "no", "bus": "yes", "highway": "bus_stop", "lit": "no", "name": "Bompard Endoume", "name:oc": "Bompar - En Domes", "public_transport": "platform", "shelter": "no", "source:name:oc": "ieo-bdtopoc", "tactile_paving": "no"}}, {"type": "node", "id": 1401614984, "lat": 43.2889875, "lon": 5.354939, "tags": {"bus": "yes", "name": "Catalans", "name:oc": "Catalans", "public_transport": "stop_position", "source:name:oc": "ieo-bdtopoc"}}, {"type": "node", "id": 1401614992, "lat": 43.2888517, "lon": 5.3552605, "tags": {"bus": "yes", "name": "Catalans", "name:oc": "Catalans", "public_transport": "stop_position", "source:name:oc": "ieo-bdtopoc"}}, {"type": "node", "id": 1404031933, "lat": 43.2887937, "lon": 5.3601455, "tags": {"bus": "yes", "name": "Corse 4 Septembre", "name:oc": "Corsega - 4 de Setembre", "public_transport": "stop_position", "source:name:oc": "ieo-bdtopoc"}}, {"type": "node", "id": 1404031934, "lat": 43.2888611, "lon": 5.3601331, "tags": {"bench": "yes", "bin": "yes", "bus": "yes", "highway": "bus_stop", "lit": "no", "name": "Corse 4 Septembre", "name:oc": "Corsega - 4 de Setembre", "public_transport": "platform", "route_ref": "54;81", "shelter": "yes", "source:name:oc": "ieo-bdtopoc", "tactile_paving": "no"}}, {"type": "node", "id": 1500750858, "lat": 43.2755077, "lon": 5.3602164, "tags": {"bus": "yes", "name": "Oriol Corniche", "name:oc": "En Auru\u00f2u - Cornissa", "public_transport": "stop_position", "source:name:oc": "ieo-bdtopoc"}}, {"type": "node", "id": 1900085364, "lat": 41.5872542, "lon": 9.2912908, "tags": {"amenity": "ferry_terminal", "cargo": "passengers;vehicle", "ferry": "yes", "public_transport": "station"}}, {"type": "node", "id": 1900085407, "lat": 41.6015446, "lon": 9.3830539}, {"type": "node", "id": 1900085417, "lat": 41.2914992, "lon": 9.161989}, {"type": "node", "id": 1900085420, "lat": 41.6331365, "lon": 8.4787615}, {"type": "node", "id": 2134349203, "lat": 41.324454, "lon": 9.2900943}, {"type": "node", "id": 2134349204, "lat": 41.5066169, "lon": 9.3983959}, {"type": "node", "id": 2134349207, "lat": 41.6038494, "lon": 9.3797264}, {"type": "node", "id": 2134349208, "lat": 41.6050884, "lon": 9.3770286}, {"type": "node", "id": 2378870442, "lat": 43.2120448, "lon": 5.3091283}, {"type": "node", "id": 2378870444, "lat": 43.2811641, "lon": 5.3355258}, {"type": "node", "id": 2378870445, "lat": 43.2845676, "lon": 5.336555}, {"type": "node", "id": 2451144537, "lat": 43.2802777, "lon": 5.3267556}, {"type": "node", "id": 3524371307, "lat": 41.607177, "lon": 9.3153967}, {"type": "node", "id": 3526597717, "lat": 43.2919308, "lon": 5.3445724}, {"type": "node", "id": 4251644249, "lat": 43.2915619, "lon": 5.3559003, "tags": {"bus": "yes", "name": "Plage des Catalans", "name:oc": "Far\u00f2t - Catalans", "public_transport": "stop_position", "source:name:oc": "ieo-bdtopoc"}}, {"type": "node", "id": 4293524079, "lat": 43.2895805, "lon": 5.3570526, "tags": {"bus": "yes", "name": "Corniche Aud\u00e9oud", "name:oc": "Cornissa - Audeoud", "public_transport": "stop_position", "source:name:oc": "ieo-bdtopoc"}}, {"type": "node", "id": 4293524080, "lat": 43.2896227, "lon": 5.3570661, "tags": {"bench": "yes", "bin": "yes", "bus": "yes", "highway": "bus_stop", "lit": "yes", "name": "Corniche Aud\u00e9oud", "name:oc": "Cornissa - Audeoud", "public_transport": "platform", "shelter": "yes", "source:name:oc": "ieo-bdtopoc", "tactile_paving": "yes"}}, {"type": "node", "id": 4293524084, "lat": 43.2912022, "lon": 5.3590244, "tags": {"bench": "yes", "bin": "no", "bus": "yes", "check_date:shelter": "2023-06-13", "highway": "bus_stop", "lit": "no", "name": "Le Pharo", "name:oc": "Lo Far\u00f2t", "public_transport": "platform", "shelter": "yes", "source:name:oc": "ieo-bdtopoc", "tactile_paving": "yes", "wheelchair": "yes"}}, {"type": "node", "id": 4293524085, "lat": 43.2912291, "lon": 5.3591034, "tags": {"bus": "yes", "name": "Le Pharo", "name:oc": "Lo Far\u00f2t", "public_transport": "stop_position", "source:name:oc": "ieo-bdtopoc"}}, {"type": "node", "id": 4293524086, "lat": 43.2914942, "lon": 5.3591689, "tags": {"bench": "no", "bin": "no", "bus": "yes", "check_date:shelter": "2023-06-13", "highway": "bus_stop", "lit": "no", "name": "Le Pharo", "name:oc": "Lo Far\u00f2t", "public_transport": "platform", "shelter": "no", "source:name:oc": "ieo-bdtopoc", "tactile_paving": "yes", "wheelchair": "yes"}}, {"type": "node", "id": 4293524087, "lat": 43.2921424, "lon": 5.359293, "tags": {"bench": "no", "bin": "yes", "bus": "yes", "check_date:shelter": "2023-07-11", "highway": "bus_stop", "lit": "no", "name": "Le Pharo", "name:oc": "Lo Far\u00f2t", "public_transport": "platform", "shelter": "no", "source:name:oc": "ieo-bdtopoc", "tactile_paving": "yes"}}, {"type": "node", "id": 4293524088, "lat": 43.2918084, "lon": 5.3564263, "tags": {"bus": "yes", "name": "Pharo Catalans", "name:oc": "Far\u00f2t - Catalans", "public_transport": "stop_position", "source:name:oc": "ieo-bdtopoc"}}, {"type": "node", "id": 4293524279, "lat": 43.291863, "lon": 5.3562624, "tags": {"bench": "no", "bin": "no", "bus": "yes", "check_date:shelter": "2023-07-11", "highway": "bus_stop", "lit": "yes", "name": "Pharo Catalans", "name:oc": "Far\u00f2t - Catalans", "public_transport": "platform", "shelter": "no", "source:name:oc": "ieo-bdtopoc", "tactile_paving": "yes", "wheelchair": "yes"}}, {"type": "node", "id": 4293524280, "lat": 43.2889661, "lon": 5.3593937, "tags": {"bench": "no", "bin": "yes", "bus": "yes", "check_date:shelter": "2023-06-13", "highway": "bus_stop", "lit": "no", "name": "Place du 4 Septembre", "name:oc": "Pla\u00e7a dau 4 de Setembre", "public_transport": "platform", "shelter": "no", "source:name:oc": "ieo-bdtopoc", "tactile_paving": "no"}}, {"type": "node", "id": 4293524281, "lat": 43.2890401, "lon": 5.3594444, "tags": {"bus": "yes", "name": "Place du 4 Septembre", "name:oc": "Pla\u00e7a dau 4 de Setembre", "public_transport": "stop_position", "source:name:oc": "ieo-bdtopoc"}}, {"type": "node", "id": 4293524282, "lat": 43.289095, "lon": 5.3594988, "tags": {"bench": "no", "bin": "yes", "bus": "yes", "highway": "bus_stop", "lit": "no", "name": "Place du 4 Septembre", "name:oc": "Pla\u00e7a dau 4 de Setembre", "public_transport": "platform", "shelter": "yes", "source:name:oc": "ieo-bdtopoc", "tactile_paving": "yes"}}, {"type": "node", "id": 4293524283, "lat": 43.2915824, "lon": 5.3558337, "tags": {"bench": "no", "bin": "yes", "bus": "yes", "highway": "bus_stop", "lit": "no", "name": "Plage des Catalans", "name:oc": "Far\u00f2t - Catalans", "public_transport": "platform", "shelter": "no", "source:name:oc": "ieo-bdtopoc", "tactile_paving": "yes", "wheelchair": "yes"}}, {"type": "node", "id": 4293524306, "lat": 43.2921254, "lon": 5.3592684}, {"type": "node", "id": 4293524307, "lat": 43.2921509, "lon": 5.3594915}, {"type": "node", "id": 4294444114, "lat": 43.2788541, "lon": 5.3543263, "tags": {"bench": "yes", "bin": "yes", "bus": "yes", "highway": "bus_stop", "lit": "no", "name": "Parc Valmer", "name:oc": "Pargue Valmar", "public_transport": "platform", "shelter": "yes", "source:name:oc": "ieo-bdtopoc", "tactile_paving": "yes", "wheelchair": "yes"}}, {"type": "node", "id": 4329356444, "lat": 43.2880005, "lon": 5.3596302, "tags": {"bus": "yes", "name": "Place du 4 Septembre", "name:oc": "Pla\u00e7a dau 4 de Setembre", "public_transport": "stop_position", "source:name:oc": "ieo-bdtopoc"}}, {"type": "node", "id": 4329356445, "lat": 43.2880035, "lon": 5.3596849, "tags": {"bench": "no", "bin": "no", "bus": "yes", "highway": "bus_stop", "lit": "yes", "name": "Place du 4 Septembre", "name:oc": "Pla\u00e7a dau 4 de Setembre", "note": "ligne 84", "public_transport": "platform", "shelter": "no", "source:name:oc": "ieo-bdtopoc", "tactile_paving": "no"}}, {"type": "node", "id": 4588258179, "lat": 43.2802147, "lon": 5.3261973}, {"type": "node", "id": 4588258180, "lat": 43.2802669, "lon": 5.3262338}, {"type": "node", "id": 4588258181, "lat": 43.2802493, "lon": 5.3266844}, {"type": "node", "id": 4588258182, "lat": 43.2802688, "lon": 5.3266468}, {"type": "node", "id": 4588258183, "lat": 43.2802737, "lon": 5.326561}, {"type": "node", "id": 4588258184, "lat": 43.2803333, "lon": 5.326498}, {"type": "node", "id": 4588258185, "lat": 43.2803548, "lon": 5.3264215}, {"type": "node", "id": 4588258186, "lat": 43.2803313, "lon": 5.3263867}, {"type": "node", "id": 4588258187, "lat": 43.2802835, "lon": 5.3263303}, {"type": "node", "id": 4588258188, "lat": 43.2801966, "lon": 5.3262579}, {"type": "node", "id": 4588259893, "lat": 43.2802545, "lon": 5.3262252}, {"type": "node", "id": 6104187428, "lat": 43.2849656, "lon": 5.3576327, "tags": {"bus": "yes", "name": "Guidicelli Charras", "name:oc": "Guidicelli - Charr\u00e0s", "public_transport": "stop_position", "source:name:oc": "ieo-bdtopoc"}}, {"type": "node", "id": 7935426146, "lat": 43.2981715, "lon": 5.3580091}, {"type": "node", "id": 7935426156, "lat": 43.2989137, "lon": 5.358641}, {"type": "node", "id": 7935426168, "lat": 43.3087053, "lon": 5.362655}, {"type": "node", "id": 7935426183, "lat": 43.2986598, "lon": 5.3585244}, {"type": "node", "id": 7935435893, "lat": 43.2924188, "lon": 5.3453052}, {"type": "node", "id": 7936639011, "lat": 43.2157626, "lon": 5.3082818}, {"type": "node", "id": 7936639022, "lat": 43.2865503, "lon": 5.3381957}, {"type": "node", "id": 7936639028, "lat": 43.2141583, "lon": 5.3082799}, {"type": "node", "id": 7936639038, "lat": 43.2131864, "lon": 5.308491}, {"type": "node", "id": 7936639044, "lat": 43.2125866, "lon": 5.3087401}, {"type": "node", "id": 7936639057, "lat": 43.2150405, "lon": 5.3082021}, {"type": "node", "id": 7937664883, "lat": 41.3264982, "lon": 9.2930078}, {"type": "node", "id": 7937664885, "lat": 41.2913157, "lon": 9.1605497}, {"type": "node", "id": 7937664886, "lat": 41.2916359, "lon": 9.1589055}, {"type": "node", "id": 8587061266, "lat": 43.2874946, "lon": 5.358261, "tags": {"bench": "no", "bin": "no", "bus": "yes", "highway": "bus_stop", "lit": "no", "name": "Codaccioni", "name:oc": "Codaccioni", "public_transport": "platform", "shelter": "no", "source:name:oc": "ieo-bdtopoc", "tactile_paving": "no"}}, {"type": "node", "id": 8587061267, "lat": 43.2875522, "lon": 5.3562775, "tags": {"bench": "no", "bin": "no", "bus": "yes", "highway": "bus_stop", "lit": "no", "name": "Four \u00e0 Chaux", "name:oc": "Forn Quauquier", "public_transport": "platform", "shelter": "no", "source:name:oc": "ieo-bdtopoc", "tactile_paving": "no"}}, {"type": "node", "id": 8587061276, "lat": 43.288064, "lon": 5.3549498, "tags": {"bench": "no", "bin": "no", "bus": "yes", "highway": "bus_stop", "lit": "no", "name": "Samantan", "name:oc": "Samatan", "public_transport": "platform", "shelter": "no", "source:name:oc": "ieo-bdtopoc", "tactile_paving": "no"}}, {"type": "node", "id": 8587061277, "lat": 43.2864686, "lon": 5.3546736, "tags": {"bench": "no", "bin": "no", "bus": "yes", "highway": "bus_stop", "lit": "no", "name": "Guidicelli Fouquet", "name:oc": "Guidicelli - Foquet", "public_transport": "platform", "shelter": "no", "source:name:oc": "ieo-bdtopoc", "tactile_paving": "no"}}, {"type": "node", "id": 8587061294, "lat": 43.2864368, "lon": 5.3546602, "tags": {"bus": "yes", "name": "Guidicelli Fouquet", "name:oc": "Guidicelli - Foquet", "public_transport": "stop_position", "source:name:oc": "ieo-bdtopoc"}}, {"type": "node", "id": 8587061300, "lat": 43.2849832, "lon": 5.3576528, "tags": {"bench": "no", "bin": "no", "bus": "yes", "highway": "bus_stop", "lit": "no", "name": "Guidicelli Charras", "name:oc": "Guidicelli - Charr\u00e0s", "public_transport": "platform", "shelter": "no", "source:name:oc": "ieo-bdtopoc", "tactile_paving": "no"}}, {"type": "node", "id": 8589568445, "lat": 43.2875236, "lon": 5.3582514, "tags": {"bus": "yes", "name": "Codaccioni", "name:oc": "Codaccioni", "public_transport": "stop_position", "source:name:oc": "ieo-bdtopoc"}}, {"type": "node", "id": 8589568446, "lat": 43.2875694, "lon": 5.3563213, "tags": {"bus": "yes", "name": "Four \u00e0 Chaux", "name:oc": "Forn Quauquier", "public_transport": "stop_position", "source:name:oc": "ieo-bdtopoc"}}, {"type": "node", "id": 8589568447, "lat": 43.2880922, "lon": 5.3549365, "tags": {"bus": "yes", "name": "Samantan", "name:oc": "Samatab", "public_transport": "stop_position", "source:name:oc": "ieo-bdtopoc"}}, {"type": "node", "id": 9360548508, "lat": 43.2802036, "lon": 5.3262345}, {"type": "node", "id": 12396702392, "lat": 41.5270698, "lon": 9.4014644}, {"type": "node", "id": 12396702395, "lat": 41.5912656, "lon": 9.3934164}, {"type": "node", "id": 12396707802, "lat": 41.5942037, "lon": 9.391519}, {"type": "node", "id": 12396707803, "lat": 41.5999269, "lon": 9.3852057}, {"type": "node", "id": 12396707804, "lat": 41.598478, "lon": 9.3871454}, {"type": "node", "id": 12396707805, "lat": 41.5966519, "lon": 9.3892607}, {"type": "node", "id": 12396707806, "lat": 41.5866884, "lon": 9.3957781}, {"type": "node", "id": 12396707807, "lat": 41.4435794, "lon": 9.3836754}, {"type": "node", "id": 12396707808, "lat": 41.3762938, "lon": 9.344558}, {"type": "node", "id": 12396707809, "lat": 41.555754, "lon": 9.4008528}, {"type": "node", "id": 12396707811, "lat": 41.6052804, "lon": 9.31244}, {"type": "node", "id": 12396707814, "lat": 41.6085799, "lon": 9.3234918}, {"type": "node", "id": 12396707817, "lat": 41.6080873, "lon": 9.3180185}, {"type": "node", "id": 12396707825, "lat": 41.6064009, "lon": 9.3724849}, {"type": "node", "id": 12396707826, "lat": 41.6078405, "lon": 9.3584766}, {"type": "node", "id": 12396707827, "lat": 41.6084276, "lon": 9.350261}, {"type": "node", "id": 12396707828, "lat": 41.6087253, "lon": 9.3418162}, {"type": "node", "id": 12396707829, "lat": 41.6087043, "lon": 9.333905}, {"type": "node", "id": 12396707831, "lat": 41.6084872, "lon": 9.3204327}, {"type": "node", "id": 12396707834, "lat": 41.5925524, "lon": 9.2969645}, {"type": "node", "id": 12396707835, "lat": 41.5949517, "lon": 9.2998321}, {"type": "node", "id": 13450504294, "lat": 43.275551, "lon": 5.3601376, "tags": {"bus": "yes", "name": "Oriol Corniche", "name:oc": "En Auru\u00f2u - Cornissa", "public_transport": "stop_position", "source:name:oc": "ieo-bdtopoc"}}, {"type": "node", "id": 13450504295, "lat": 43.2755658, "lon": 5.3601106, "tags": {"bus": "yes", "highway": "bus_stop", "name": "Oriol Corniche", "name:oc": "Auri\u00f2u - Cornissa", "public_transport": "platform", "source:name:oc": "ieo-bdtopoc"}}, {"type": "way", "id": 174347425, "nodes": [255880618, 7935426168, 7935426156, 7935426183, 255880619, 7935426146, 567463867, 7935435893, 3526597717, 7936639022, 2378870445, 2378870444, 7936639011, 7936639057, 7936639028, 7936639038, 7936639044, 2378870442, 255885515, 1900085420, 7937664886, 7937664885, 1900085417, 2134349203, 7937664883, 12396707808, 12396707807, 2134349204, 12396702392, 12396707809, 12396707806, 12396702395, 12396707802, 12396707805, 12396707804, 12396707803, 1900085407, 2134349207, 2134349208, 12396707825, 12396707826, 12396707827, 12396707828, 12396707829, 12396707814, 12396707831, 12396707817, 3524371307, 12396707811, 12396707835, 12396707834, 1900085364], "tags": {"bicycle": "yes", "duration": "14:00", "fee": "yes", "foot": "yes", "hgv": "yes", "motor_vehicle": "yes", "motorcar": "yes", "motorcycle": "yes", "name": "Marseille - Porto Vecchio", "name:es": "Marsella - Porto Vecchio", "name:oc": "Marselha - Portivechju", "operator": "La M\u00e9ridionale;Corsica Linea", "railway": "no", "route": "ferry", "seamark:type": "ferry_route", "wheelchair": "yes"}}, {"type": "way", "id": 430089038, "nodes": [4293524307, 4293524306], "tags": {"bench": "no", "bin": "yes", "bus": "yes", "check_date:shelter": "2023-07-11", "highway": "platform", "lit": "no", "name": "Le Pharo", "name:oc": "Lo Far\u00f2t", "network": "RTM", "operator": "R\u00e9gie des Transports Marseillais", "public_transport": "platform", "shelter": "no", "source:name:oc": "ieo-bdtopoc", "tactile_paving": "yes"}}, {"type": "way", "id": 463554558, "nodes": [4588258179, 4588259893, 4588258180, 826827913, 826827687, 32691163, 32691162, 826827721, 826827802, 32691161, 2451144537, 4588258181, 4588258182, 4588258183, 4588258184, 4588258185, 4588258186, 4588258187, 4588258188, 9360548508, 4588258179], "tags": {"bench": "yes", "bin": "no", "ferry": "yes", "lit": "yes", "mooring": "ferry", "public_transport": "platform", "shelter": "yes", "surface": "concrete"}}, {"type": "relation", "id": 6398466, "members": [{"type": "node", "ref": 1401614992, "role": "stop"}, {"type": "node", "ref": 1297484866, "role": "platform"}, {"type": "node", "ref": 1401614984, "role": "stop"}, {"type": "node", "ref": 1297484859, "role": "platform"}, {"type": "node", "ref": 30084519, "role": "stop"}, {"type": "node", "ref": 1297484867, "role": "platform"}, {"type": "node", "ref": 30084517, "role": "stop"}, {"type": "node", "ref": 1297484864, "role": "platform"}], "tags": {"name": "Catalans", "name:oc": "Catalans", "network": "RTM", "operator": "R\u00e9gie des Transports M\u00e9tropolitains", "public_transport": "stop_area", "source:name:oc": "ieo-bdtopoc", "type": "public_transport"}}, {"type": "relation", "id": 6398467, "members": [{"type": "node", "ref": 1351757375, "role": "stop"}, {"type": "node", "ref": 1297484854, "role": "platform"}, {"type": "node", "ref": 4293524079, "role": "stop"}, {"type": "node", "ref": 4293524080, "role": "platform"}], "tags": {"name": "Corniche Aud\u00e9oud", "name:oc": "Cornissa - Audeoud", "network": "RTM", "operator": "R\u00e9gie des Transports M\u00e9tropolitains", "public_transport": "stop_area", "source:name:oc": "ieo-bdtopoc", "type": "public_transport"}}, {"type": "relation", "id": 6398470, "members": [{"type": "node", "ref": 4293524087, "role": "platform"}, {"type": "node", "ref": 310222792, "role": "stop"}, {"type": "node", "ref": 1305557891, "role": "platform"}, {"type": "node", "ref": 1351757367, "role": "stop"}, {"type": "node", "ref": 4293524086, "role": "platform"}, {"type": "node", "ref": 33806220, "role": "stop"}, {"type": "node", "ref": 4293524084, "role": "platform"}, {"type": "node", "ref": 4293524085, "role": "stop"}], "tags": {"name": "Le Pharo", "name:oc": "Lo Far\u00f2t", "network": "RTM", "operator": "R\u00e9gie des Transports M\u00e9tropolitains", "public_transport": "stop_area", "source:name:oc": "ieo-bdtopoc", "type": "public_transport"}}, {"type": "relation", "id": 6398472, "members": [{"type": "node", "ref": 30084531, "role": "stop"}, {"type": "node", "ref": 1065885280, "role": "platform"}], "tags": {"name": "Lyc\u00e9e Colbert", "name:oc": "Lic\u00e8u Colb\u00e8rt", "network": "RTM", "operator": "R\u00e9gie des Transports M\u00e9tropolitains", "public_transport": "stop_area", "source:name:oc": "ieo-bdtopoc", "type": "public_transport"}}, {"type": "relation", "id": 6398474, "members": [{"type": "node", "ref": 4293524088, "role": "stop"}, {"type": "node", "ref": 4293524279, "role": "platform"}], "tags": {"name": "Pharo Catalans", "name:oc": "Far\u00f2t - Catalans", "network": "RTM", "operator": "R\u00e9gie des Transports M\u00e9tropolitains", "public_transport": "stop_area", "source:name:oc": "ieo-bdtopoc", "type": "public_transport"}}, {"type": "relation", "id": 6398475, "members": [{"type": "node", "ref": 4293524282, "role": "platform"}, {"type": "node", "ref": 4293524281, "role": "stop"}, {"type": "node", "ref": 4293524280, "role": "platform"}, {"type": "node", "ref": 750546764, "role": "stop"}, {"type": "node", "ref": 1305557893, "role": "platform"}, {"type": "node", "ref": 4329356444, "role": "stop"}, {"type": "node", "ref": 4329356445, "role": "platform"}], "tags": {"name": "Place du 4 Septembre", "name:oc": "Pla\u00e7a dau 4 de Setembre", "network": "RTM", "operator": "R\u00e9gie des Transports M\u00e9tropolitains", "public_transport": "stop_area", "source:name:oc": "ieo-bdtopoc", "type": "public_transport"}}, {"type": "relation", "id": 6398476, "members": [{"type": "node", "ref": 4251644249, "role": "stop"}, {"type": "node", "ref": 4293524283, "role": "platform"}], "tags": {"name": "Plage des Catalans", "name:oc": "Plaja dei Catalans", "network": "RTM", "operator": "R\u00e9gie des Transports M\u00e9tropolitains", "public_transport": "stop_area", "source:name:oc": "ieo-bdtopoc", "type": "public_transport"}}, {"type": "relation", "id": 6399996, "members": [{"type": "node", "ref": 1354654307, "role": "stop"}, {"type": "node", "ref": 1297484858, "role": "platform"}, {"type": "node", "ref": 1297484865, "role": "platform"}], "tags": {"name": "Corniche Fr\u00e9gier", "name:oc": "Cornissa - Fregier", "network": "RTM", "operator": "R\u00e9gie des Transports M\u00e9tropolitains", "public_transport": "stop_area", "source:name:oc": "ieo-bdtopoc", "type": "public_transport"}}, {"type": "relation", "id": 6399997, "members": [{"type": "node", "ref": 1354654316, "role": "stop"}, {"type": "node", "ref": 4294444114, "role": "platform"}, {"type": "node", "ref": 1354654298, "role": "stop"}, {"type": "node", "ref": 1340345800, "role": "platform"}], "tags": {"name": "Corniche Jean Martin", "name:oc": "Cornissa Joan Martin", "network": "RTM", "operator": "R\u00e9gie des Transports M\u00e9tropolitains", "public_transport": "stop_area", "source:name:oc": "ieo-bdtopoc", "type": "public_transport"}}, {"type": "relation", "id": 6400000, "members": [{"type": "node", "ref": 1354654334, "role": "stop"}, {"type": "node", "ref": 1340345916, "role": "platform"}, {"type": "node", "ref": 33955540, "role": "stop"}, {"type": "node", "ref": 1340345939, "role": "platform"}, {"type": "node", "ref": 13450504294, "role": "stop"}, {"type": "node", "ref": 13450504295, "role": ""}], "tags": {"name": "Corniche Vallon de L'Oriol", "name:oc": "Valon d\u2019En Auru\u00f2u", "network": "RTM", "operator": "R\u00e9gie des Transports M\u00e9tropolitains", "public_transport": "stop_area", "source:name:oc": "ieo-bdtopoc", "type": "public_transport"}}, {"type": "relation", "id": 6400001, "members": [{"type": "node", "ref": 1354654319, "role": "stop"}, {"type": "node", "ref": 1291836213, "role": "platform"}, {"type": "node", "ref": 1354654339, "role": "stop"}, {"type": "node", "ref": 1291836212, "role": "platform"}], "tags": {"name": "Endoume", "name:oc": "En Domes", "network": "RTM", "operator": "R\u00e9gie des Transports M\u00e9tropolitains", "public_transport": "stop_area", "source:name:oc": "ieo-bdtopoc", "type": "public_transport"}}, {"type": "relation", "id": 6400002, "members": [{"type": "node", "ref": 30084501, "role": "stop"}, {"type": "node", "ref": 1288022362, "role": "platform"}, {"type": "node", "ref": 1354654341, "role": "stop"}, {"type": "node", "ref": 1288022323, "role": "platform"}], "tags": {"name": "Fausse Monnaie", "name:oc": "Moneda Faussa", "network": "RTM", "operator": "R\u00e9gie des Transports M\u00e9tropolitains", "public_transport": "stop_area", "source:name:oc": "ieo-bdtopoc", "type": "public_transport"}}, {"type": "relation", "id": 6400010, "members": [{"type": "node", "ref": 1354654308, "role": "stop"}, {"type": "node", "ref": 1340345852, "role": "platform"}, {"type": "node", "ref": 1354654337, "role": "stop"}, {"type": "node", "ref": 1340345888, "role": "platform"}], "tags": {"name": "Vallon de la Baudille", "name:oc": "Valon de la Baudilha", "network": "RTM", "operator": "R\u00e9gie des Transports M\u00e9tropolitains", "public_transport": "stop_area", "source:name:oc": "ieo-bdtopoc", "type": "public_transport"}}, {"type": "relation", "id": 6400011, "members": [{"type": "node", "ref": 1354654309, "role": "stop"}, {"type": "node", "ref": 1288022332, "role": "platform"}, {"type": "node", "ref": 1288022366, "role": "platform"}], "tags": {"name": "Vallon des Auffes", "name:oc": "Valon deis Aufas", "network": "RTM", "operator": "R\u00e9gie des Transports M\u00e9tropolitains", "public_transport": "stop_area", "source:name:oc": "ieo-bdtopoc", "type": "public_transport"}}, {"type": "relation", "id": 6448947, "members": [{"type": "node", "ref": 1404031933, "role": "stop"}, {"type": "node", "ref": 1404031934, "role": "platform"}], "tags": {"name": "Corse 4 septembre", "name:oc": "Corsega - 4 de Setembre", "network": "RTM", "operator": "R\u00e9gie des Transports M\u00e9tropolitains", "public_transport": "stop_area", "source:name:oc": "ieo-bdtopoc", "type": "public_transport"}}]}