{"version": 0.6, "generator": "Overpass API 0.7.62.8 e802775f", "osm3s": {"timestamp_osm_base": "2026-01-15T07:00:12Z", "copyright": "The data included in this document is from www.openstreetmap.org. The data is made available under ODbL."}, "elements": [{"type": "node", "id": 245981734, "lat": 45.0675694, "lon": 7.6926235}, {"type": "node", "id": 245981735, "lat": 45.0681478, "lon": 7.69281}, {"type": "node", "id": 245981736, "lat": 45.0678205, "lon": 7.6936728}, {"type": "node", "id": 245981737, "lat": 45.067303, "lon": 7.6933052}, {"type": "node", "id": 536542027, "lat": 45.0713269, "lon": 7.6926356}, {"type": "node", "id": 601868991, "lat": 45.0412034, "lon": 7.68255, "tags": {"amenity": "school", "check_date": "2025-07-20", "name": "Parato primary school"}}, {"type": "node", "id": 957885350, "lat": 45.0668351, "lon": 7.7174871}, {"type": "node", "id": 957893091, "lat": 45.0648088, "lon": 7.7091746}, {"type": "node", "id": 957893530, "lat": 45.0652818, "lon": 7.7104172}, {"type": "node", "id": 957893590, "lat": 45.063688, "lon": 7.7100373}, {"type": "node", "id": 957893752, "lat": 45.0641836, "lon": 7.7111331}, {"type": "node", "id": 966578342, "lat": 45.0672187, "lon": 7.7120108}, {"type": "node", "id": 966578343, "lat": 45.067203, "lon": 7.7120648}, {"type": "node", "id": 966578347, "lat": 45.0670165, "lon": 7.7120806}, {"type": "node", "id": 966578348, "lat": 45.0670101, "lon": 7.7122325}, {"type": "node", "id": 966578352, "lat": 45.0667528, "lon": 7.711938}, {"type": "node", "id": 966578353, "lat": 45.0674424, "lon": 7.7115912}, {"type": "node", "id": 966578355, "lat": 45.0668095, "lon": 7.7122561}, {"type": "node", "id": 966578356, "lat": 45.0672498, "lon": 7.7120721}, {"type": "node", "id": 966578358, "lat": 45.0670727, "lon": 7.7120625}, {"type": "node", "id": 966578359, "lat": 45.0671644, "lon": 7.7116837}, {"type": "node", "id": 966578361, "lat": 45.0670543, "lon": 7.7121264}, {"type": "node", "id": 966578366, "lat": 45.0672791, "lon": 7.7123929}, {"type": "node", "id": 966578367, "lat": 45.0674922, "lon": 7.7114345}, {"type": "node", "id": 966578369, "lat": 45.0672366, "lon": 7.7121139}, {"type": "node", "id": 966578374, "lat": 45.0669769, "lon": 7.711858}, {"type": "node", "id": 966578376, "lat": 45.0675096, "lon": 7.7119964}, {"type": "node", "id": 966578379, "lat": 45.0670393, "lon": 7.7120341}, {"type": "node", "id": 966578386, "lat": 45.0676147, "lon": 7.7113883}, {"type": "node", "id": 966578388, "lat": 45.0670524, "lon": 7.7124712}, {"type": "node", "id": 966578393, "lat": 45.0669639, "lon": 7.712201}, {"type": "node", "id": 1245624329, "lat": 45.0701182, "lon": 7.6987083}, {"type": "node", "id": 1245624333, "lat": 45.0708188, "lon": 7.6987979}, {"type": "node", "id": 1245624338, "lat": 45.0702786, "lon": 7.6986618}, {"type": "node", "id": 1245624340, "lat": 45.070363, "lon": 7.6985316}, {"type": "node", "id": 1245624343, "lat": 45.0705267, "lon": 7.6989803}, {"type": "node", "id": 1245624356, "lat": 45.0705297, "lon": 7.6992436}, {"type": "node", "id": 1245624358, "lat": 45.0707246, "lon": 7.6986753}, {"type": "node", "id": 1304814076, "lat": 45.0650915, "lon": 7.692529, "tags": {"addr:city": "Torino", "addr:country": "IT", "addr:housenumber": "39bis", "addr:postcode": "10123", "addr:street": "Via Maria Vittoria", "amenity": "school", "check_date": "2024-06-09", "isced:level": "3", "name": "Liceo Scientifico \"Piero Gobetti\"", "phone": "+39 011 839 5219", "website": "http://www.lsgobettitorino.gov.it"}}, {"type": "node", "id": 1317427256, "lat": 45.0664126, "lon": 7.6957505}, {"type": "node", "id": 1317427260, "lat": 45.06653, "lon": 7.6955779}, {"type": "node", "id": 1323404073, "lat": 45.0702925, "lon": 7.6984398}, {"type": "node", "id": 1323566666, "lat": 45.0625343, "lon": 7.6885596}, {"type": "node", "id": 1323566668, "lat": 45.0625033, "lon": 7.6881099}, {"type": "node", "id": 1323566675, "lat": 45.0629765, "lon": 7.6884614}, {"type": "node", "id": 1323566677, "lat": 45.0623841, "lon": 7.6884506}, {"type": "node", "id": 1323566733, "lat": 45.0627026, "lon": 7.6886836}, {"type": "node", "id": 1323566736, "lat": 45.0628557, "lon": 7.6887953}, {"type": "node", "id": 1323871459, "lat": 45.0660039, "lon": 7.6959977}, {"type": "node", "id": 1323871471, "lat": 45.066092, "lon": 7.6958267}, {"type": "node", "id": 1323871473, "lat": 45.0666098, "lon": 7.696086}, {"type": "node", "id": 1323871474, "lat": 45.0669134, "lon": 7.6961511, "tags": {"access": "customers", "addr:city": "Torino", "addr:housenumber": "32a", "addr:postcode": "10124", "addr:street": "Via Giuseppe Verdi", "barrier": "gate", "bicycle": "no", "foot": "customers", "horse": "no", "locked": "yes", "motor_vehicle": "no", "wheelchair": "yes"}}, {"type": "node", "id": 1323871478, "lat": 45.0663569, "lon": 7.6956746}, {"type": "node", "id": 1323871481, "lat": 45.0661907, "lon": 7.6959473}, {"type": "node", "id": 1323871493, "lat": 45.0660797, "lon": 7.6958744}, {"type": "node", "id": 1323871494, "lat": 45.066602, "lon": 7.6960747}, {"type": "node", "id": 1323871496, "lat": 45.0663871, "lon": 7.6962738}, {"type": "node", "id": 1323871505, "lat": 45.0666519, "lon": 7.6968294}, {"type": "node", "id": 1323871506, "lat": 45.0667564, "lon": 7.695836}, {"type": "node", "id": 1323871509, "lat": 45.0665907, "lon": 7.6967513}, {"type": "node", "id": 1323871510, "lat": 45.0663831, "lon": 7.6965034}, {"type": "node", "id": 1323871513, "lat": 45.0669398, "lon": 7.6960854}, {"type": "node", "id": 1463838773, "lat": 45.0718323, "lon": 7.7053438}, {"type": "node", "id": 1463838776, "lat": 45.0720126, "lon": 7.7051787}, {"type": "node", "id": 1463838783, "lat": 45.0724467, "lon": 7.7066702}, {"type": "node", "id": 1463838784, "lat": 45.0724731, "lon": 7.7055788}, {"type": "node", "id": 1463838786, "lat": 45.072544, "lon": 7.705734}, {"type": "node", "id": 1463838788, "lat": 45.0726258, "lon": 7.7065062}, {"type": "node", "id": 1463841684, "lat": 45.0720341, "lon": 7.705159}, {"type": "node", "id": 1463841699, "lat": 45.0722084, "lon": 7.7049993}, {"type": "node", "id": 1463841703, "lat": 45.0722797, "lon": 7.7051555}, {"type": "node", "id": 1463841705, "lat": 45.0726401, "lon": 7.7064931}, {"type": "node", "id": 1463841706, "lat": 45.0727459, "lon": 7.706176}, {"type": "node", "id": 1463841708, "lat": 45.0728168, "lon": 7.7063312}, {"type": "node", "id": 2011390795, "lat": 45.0550016, "lon": 7.6814098}, {"type": "node", "id": 2011390797, "lat": 45.0550377, "lon": 7.6825436}, {"type": "node", "id": 2011390798, "lat": 45.055078, "lon": 7.6811808}, {"type": "node", "id": 2011390799, "lat": 45.055115, "lon": 7.682311}, {"type": "node", "id": 2011390800, "lat": 45.0551206, "lon": 7.6814882}, {"type": "node", "id": 2011390801, "lat": 45.055131, "lon": 7.6814606}, {"type": "node", "id": 2011390803, "lat": 45.0551494, "lon": 7.6826198}, {"type": "node", "id": 2011390805, "lat": 45.0551926, "lon": 7.682469, "tags": {"addr:housenumber": "30", "addr:street": "Corso Guglielmo Marconi", "entrance": "yes"}}, {"type": "node", "id": 2011390806, "lat": 45.0553349, "lon": 7.6815992}, {"type": "node", "id": 2011390807, "lat": 45.0551705, "lon": 7.6821308}, {"type": "node", "id": 2011390810, "lat": 45.055481, "lon": 7.6815594, "tags": {"addr:housenumber": "28", "addr:street": "Corso Guglielmo Marconi", "entrance": "yes"}}, {"type": "node", "id": 2011390811, "lat": 45.0555084, "lon": 7.6814743}, {"type": "node", "id": 2017190637, "lat": 45.0550441, "lon": 7.6812816, "tags": {"addr:housenumber": "23", "addr:street": "Via Giuseppe Giacosa", "entrance": "yes"}}, {"type": "node", "id": 2500315425, "lat": 45.055317, "lon": 7.6813453, "tags": {"addr:housenumber": "41", "addr:street": "Via Madama Cristina", "amenity": "library", "name": "Biblioteca Shahraz\u00e0d", "wikidata": "Q113360087"}}, {"type": "node", "id": 2500322424, "lat": 45.0550933, "lon": 7.682583, "tags": {"addr:housenumber": "42", "addr:street": "Via Ormea"}}, {"type": "node", "id": 2719739805, "lat": 45.072219, "lon": 7.7210177}, {"type": "node", "id": 2719739807, "lat": 45.0720875, "lon": 7.7210606}, {"type": "node", "id": 2719739848, "lat": 45.0714809, "lon": 7.7212582}, {"type": "node", "id": 2924486302, "lat": 45.0675212, "lon": 7.6933486}, {"type": "node", "id": 2924486304, "lat": 45.0677837, "lon": 7.6929717}, {"type": "node", "id": 2924486305, "lat": 45.0677591, "lon": 7.6937113}, {"type": "node", "id": 2924486307, "lat": 45.0676211, "lon": 7.693022}, {"type": "node", "id": 2924486309, "lat": 45.0677905, "lon": 7.6936912, "tags": {"addr:city": "Torino", "addr:country": "IT", "addr:housenumber": "11", "addr:postcode": "10124", "addr:street": "Via Sant'Ottavio", "entrance": "yes"}}, {"type": "node", "id": 2924486311, "lat": 45.0673194, "lon": 7.6933774}, {"type": "node", "id": 2924486312, "lat": 45.0674922, "lon": 7.6931951}, {"type": "node", "id": 2924486313, "lat": 45.067529, "lon": 7.693227}, {"type": "node", "id": 2924486315, "lat": 45.0676124, "lon": 7.6925585}, {"type": "node", "id": 2924486317, "lat": 45.0675766, "lon": 7.692985}, {"type": "node", "id": 2924486319, "lat": 45.0675797, "lon": 7.6931324}, {"type": "node", "id": 2924486320, "lat": 45.067308, "lon": 7.6933358, "tags": {"access": "yes", "addr:city": "Torino", "addr:country": "IT", "addr:housenumber": "7", "addr:postcode": "10124", "addr:street": "Via Sant'Ottavio", "door": "yes", "entrance": "main", "wheelchair": "no"}}, {"type": "node", "id": 2924486322, "lat": 45.0680452, "lon": 7.6927322}, {"type": "node", "id": 2924486325, "lat": 45.0675291, "lon": 7.6930934}, {"type": "node", "id": 2924486331, "lat": 45.0676901, "lon": 7.6923555}, {"type": "node", "id": 2924486335, "lat": 45.0675401, "lon": 7.6932924}, {"type": "node", "id": 2924486336, "lat": 45.0677318, "lon": 7.6924923}, {"type": "node", "id": 2924486339, "lat": 45.067764, "lon": 7.6924091}, {"type": "node", "id": 2924486340, "lat": 45.0678365, "lon": 7.6928148}, {"type": "node", "id": 2924486342, "lat": 45.0676186, "lon": 7.6928579}, {"type": "node", "id": 2925635611, "lat": 45.0663145, "lon": 7.6963957, "tags": {"addr:city": "Torino", "addr:housenumber": "5a", "addr:postcode": "10124", "addr:street": "Via Vanchiglia", "barrier": "gate", "entrance": "service"}}, {"type": "node", "id": 3027468822, "lat": 45.0551115, "lon": 7.693309}, {"type": "node", "id": 3027468823, "lat": 45.0557573, "lon": 7.6922198}, {"type": "node", "id": 3027468824, "lat": 45.0565869, "lon": 7.6926651}, {"type": "node", "id": 3027468825, "lat": 45.0564772, "lon": 7.6930451}, {"type": "node", "id": 3027468826, "lat": 45.0553799, "lon": 7.6936271}, {"type": "node", "id": 3120146054, "lat": 45.065135, "lon": 7.6935659}, {"type": "node", "id": 3120146055, "lat": 45.065204, "lon": 7.6934579}, {"type": "node", "id": 3120146056, "lat": 45.0649694, "lon": 7.6931498}, {"type": "node", "id": 3120146057, "lat": 45.0650145, "lon": 7.6930063}, {"type": "node", "id": 3120146059, "lat": 45.064825, "lon": 7.693179}, {"type": "node", "id": 3253393325, "lat": 45.0699369, "lon": 7.6924375}, {"type": "node", "id": 3343605435, "lat": 45.0719274, "lon": 7.7052567, "tags": {"addr:city": "Torino", "addr:housenumber": "30", "addr:postcode": "10153", "addr:street": "Via Bettino Ricasoli", "amenity": "school", "elevator": "yes", "name": "Scuola Primaria \"Ludovico Antonio Muratori\"", "phone": "+39 011 889166", "ramp:wheelchair": "yes", "toilets:wheelchair": "yes", "website": "http://ic-viaricasoli-torino.org/index.php?option=com_content&view=article&id=54&Itemid=83", "wheelchair": "yes"}}, {"type": "node", "id": 3343680527, "lat": 45.0706303, "lon": 7.6946646, "tags": {"addr:city": "Torino", "addr:housenumber": "4", "addr:postcode": "10124", "addr:street": "Via degli Artisti", "amenity": "school", "email": "info@istitutocabrinitorino.it", "name": "Istituto Madre Cabrini", "phone": "+39 011 835858", "ramp:wheelchair": "yes", "toilets:wheelchair": "no", "website": "http://istitutocabrinitorino.it/", "wheelchair": "yes"}}, {"type": "node", "id": 3343687306, "lat": 45.0709316, "lon": 7.7002595, "tags": {"addr:city": "Torino", "addr:housenumber": "33", "addr:postcode": "10124", "addr:street": "Via Giulia di Barolo", "amenity": "school", "elevator": "yes", "email": "segreteria@liceogobetti.it", "name": "Liceo Scientifico Gobetti Segr\u00e8", "phone": "+39 011 8172325", "toilets:wheelchair": "yes", "website": "http://www.lsgobetti.torino.it/web/", "wheelchair": "yes"}}, {"type": "node", "id": 3343687307, "lat": 45.0706891, "lon": 7.7004982, "tags": {"addr:city": "Torino", "addr:housenumber": "33", "addr:postcode": "10124", "addr:street": "Via Giulia di Barolo", "amenity": "school", "elevator": "yes", "email": "succursale@liceogioberti.it", "name": "Liceo Classico Statale Gioberti", "phone": "+39 011 882701", "toilets:wheelchair": "no", "website": "https://www.liceogioberti.it/identita.htm", "wheelchair": "yes"}}, {"type": "node", "id": 3676355602, "lat": 45.0723493, "lon": 7.7218199}, {"type": "node", "id": 3676355603, "lat": 45.071492, "lon": 7.7220992}, {"type": "node", "id": 3676355604, "lat": 45.0713616, "lon": 7.721297}, {"type": "node", "id": 3733095043, "lat": 45.0552629, "lon": 7.6934884, "tags": {"addr:city": "Torino", "addr:housenumber": "14", "addr:postcode": "10133", "addr:street": "Via Mentana", "entrance": "main"}}, {"type": "node", "id": 3733095057, "lat": 45.0557717, "lon": 7.6922275, "tags": {"entrance": "yes"}}, {"type": "node", "id": 3939391946, "lat": 45.0405226, "lon": 7.6820158}, {"type": "node", "id": 3939391953, "lat": 45.0407771, "lon": 7.6821289}, {"type": "node", "id": 3939391954, "lat": 45.0405518, "lon": 7.682791}, {"type": "node", "id": 3939391955, "lat": 45.0403127, "lon": 7.6826174}, {"type": "node", "id": 3939392957, "lat": 45.0406552, "lon": 7.682075, "tags": {"addr:housenumber": "39a", "addr:street": "Corso Sicilia", "entrance": "yes"}}, {"type": "node", "id": 4140314425, "lat": 45.066165, "lon": 7.7171172}, {"type": "node", "id": 4140314426, "lat": 45.0662768, "lon": 7.7174833}, {"type": "node", "id": 4140314427, "lat": 45.0667978, "lon": 7.7166357}, {"type": "node", "id": 4140314428, "lat": 45.0668579, "lon": 7.7166974}, {"type": "node", "id": 4735655384, "lat": 45.0638149, "lon": 7.7085264, "tags": {"addr:city": "Torino", "addr:housenumber": "32a", "addr:postcode": "10131", "addr:street": "Via Asti"}}, {"type": "node", "id": 4735655385, "lat": 45.0638543, "lon": 7.7086264, "tags": {"addr:city": "Torino", "addr:housenumber": "32", "addr:postcode": "10131", "addr:street": "Via Asti"}}, {"type": "node", "id": 4735866680, "lat": 45.06648, "lon": 7.6966192, "tags": {"addr:city": "Torino", "addr:housenumber": "5c", "addr:postcode": "10124", "addr:street": "Via Vanchiglia"}}, {"type": "node", "id": 4735868694, "lat": 45.0668321, "lon": 7.6963621, "tags": {"addr:city": "Torino", "addr:housenumber": "32", "addr:postcode": "10124", "addr:street": "Via Giuseppe Verdi"}}, {"type": "node", "id": 4735868836, "lat": 45.0668507, "lon": 7.6959585, "tags": {"access": "customers", "addr:city": "Torino", "addr:housenumber": "8", "addr:postcode": "10124", "addr:street": "Via Giulia di Barolo", "door": "yes/manual", "entrance": "secondary", "level": "0"}}, {"type": "node", "id": 4736054142, "lat": 45.0627349, "lon": 7.6882819, "tags": {"access": "customers", "addr:city": "Torino", "addr:housenumber": "37", "addr:postcode": "10123", "addr:street": "Via San Massimo", "door": "yes/manual", "entrance": "secondary", "level": "0", "wheelchair": "no"}}, {"type": "node", "id": 4736057797, "lat": 45.0625624, "lon": 7.6885803, "tags": {"access": "customers", "addr:city": "Torino", "addr:housenumber": "4a", "addr:postcode": "10123", "addr:street": "Via Andrea Provana", "barrier": "gate", "bicycle": "no", "foot": "customers", "horse": "no", "locked": "yes", "material": "metal", "motor_vehicle": "permit", "wheelchair": "yes"}}, {"type": "node", "id": 4736057804, "lat": 45.0626478, "lon": 7.6886432, "tags": {"access": "customers", "addr:housenumber": "2a", "addr:postcode": "10123", "addr:street": "Via Andrea Provana", "barrier": "gate", "bicycle": "no", "foot": "customers", "horse": "no", "locked": "yes", "motor_vehicle": "permit", "wheelchair": "yes"}}, {"type": "node", "id": 4946642021, "lat": 45.0490662, "lon": 7.7133221, "tags": {"addr:housenumber": "12", "amenity": "school", "name": "il cucciolo", "name:en": "project cucciolo"}}, {"type": "node", "id": 5459409269, "lat": 45.0643481, "lon": 7.7111186}, {"type": "node", "id": 5459409281, "lat": 45.0644127, "lon": 7.7111978}, {"type": "node", "id": 5459409282, "lat": 45.0642612, "lon": 7.7111051}, {"type": "node", "id": 5459427010, "lat": 45.0641291, "lon": 7.7097119}, {"type": "node", "id": 5459427011, "lat": 45.0641524, "lon": 7.709775}, {"type": "node", "id": 5459427012, "lat": 45.0644251, "lon": 7.7094787}, {"type": "node", "id": 5459427013, "lat": 45.0644464, "lon": 7.7095456}, {"type": "node", "id": 5459427015, "lat": 45.0645874, "lon": 7.7093537}, {"type": "node", "id": 5832595849, "lat": 45.0706863, "lon": 7.7054219}, {"type": "node", "id": 5832595850, "lat": 45.0710007, "lon": 7.7058262}, {"type": "node", "id": 5832595851, "lat": 45.0700768, "lon": 7.7066233}, {"type": "node", "id": 5832595852, "lat": 45.069857, "lon": 7.7061396}, {"type": "node", "id": 5832780201, "lat": 45.0718081, "lon": 7.7053627}, {"type": "node", "id": 5832780202, "lat": 45.0719895, "lon": 7.7066971}, {"type": "node", "id": 5832780203, "lat": 45.0722715, "lon": 7.7068151}, {"type": "node", "id": 6549455408, "lat": 45.070982, "lon": 7.7262925, "tags": {"addr:housenumber": "6", "addr:street": "Via San Sebastiano Po", "amenity": "school", "description": "Scuola elementare", "name": "Scuola internazionale Spinelli", "website": "https://www.istitutoaltierospinelli.com/secondaria-di-primo-grado"}}, {"type": "node", "id": 7036126126, "lat": 45.0722818, "lon": 7.7214045, "tags": {"addr:city": "Torino", "addr:housenumber": "20", "addr:postcode": "10153", "addr:street": "Via Vezzolano", "entrance": "yes"}}, {"type": "node", "id": 7036126127, "lat": 45.0714254, "lon": 7.7216894, "tags": {"addr:housenumber": "111", "addr:postcode": "10153", "addr:street": "Lungo Po Alessandro Antonelli"}}, {"type": "node", "id": 7415560819, "lat": 45.0700102, "lon": 7.6922278}, {"type": "node", "id": 7415560826, "lat": 45.07006, "lon": 7.6920853}, {"type": "node", "id": 7415560827, "lat": 45.069967, "lon": 7.6923514}, {"type": "node", "id": 7415560828, "lat": 45.0699015, "lon": 7.6925389}, {"type": "node", "id": 7415560829, "lat": 45.0701856, "lon": 7.6927418}, {"type": "node", "id": 7415560830, "lat": 45.0702047, "lon": 7.6927564}, {"type": "node", "id": 7415560831, "lat": 45.0703087, "lon": 7.6928329}, {"type": "node", "id": 7415560832, "lat": 45.0704116, "lon": 7.6929071}, {"type": "node", "id": 7415560833, "lat": 45.0704937, "lon": 7.6929654}, {"type": "node", "id": 7415560834, "lat": 45.0705724, "lon": 7.6930221}, {"type": "node", "id": 7415560835, "lat": 45.0707719, "lon": 7.6932038}, {"type": "node", "id": 7415560836, "lat": 45.0708145, "lon": 7.6930909}, {"type": "node", "id": 7415560838, "lat": 45.0710397, "lon": 7.6928458}, {"type": "node", "id": 7415560839, "lat": 45.0712522, "lon": 7.69272}, {"type": "node", "id": 7415560840, "lat": 45.0708632, "lon": 7.6922124}, {"type": "node", "id": 7415560841, "lat": 45.0707681, "lon": 7.6921492}, {"type": "node", "id": 7415560842, "lat": 45.0706951, "lon": 7.6921006}, {"type": "node", "id": 7415560843, "lat": 45.070306, "lon": 7.6918261, "tags": {"entrance": "yes"}}, {"type": "node", "id": 7415560844, "lat": 45.0701815, "lon": 7.6917375}, {"type": "node", "id": 7415560845, "lat": 45.0701374, "lon": 7.6918638}, {"type": "node", "id": 7415567628, "lat": 45.0712592, "lon": 7.6924828}, {"type": "node", "id": 7415567631, "lat": 45.0712027, "lon": 7.6924437}, {"type": "node", "id": 7415567632, "lat": 45.0712875, "lon": 7.6925045}, {"type": "node", "id": 7415567633, "lat": 45.0712418, "lon": 7.6924695}, {"type": "node", "id": 7796907023, "lat": 45.0593472, "lon": 7.7069381, "tags": {"addr:city": "Torino", "addr:housenumber": "14", "addr:postcode": "10131", "addr:street": "Corso Alberto Picco", "amenity": "school", "name": "Liceo Scientifico Statale Gino Segr\u00e8", "phone": "+39 011 819 4533", "website": "https://www.lsgobettitorino.edu.it/web2/"}}, {"type": "node", "id": 8259759258, "lat": 45.0626963, "lon": 7.7180833, "tags": {"amenity": "school", "name": "Saint Denise scuola paritaria"}}, {"type": "node", "id": 8281401811, "lat": 45.0639073, "lon": 7.7087614}, {"type": "node", "id": 8281403944, "lat": 45.0637831, "lon": 7.7088592}, {"type": "node", "id": 8596791290, "lat": 45.0665699, "lon": 7.7117568}, {"type": "node", "id": 8596791291, "lat": 45.0665449, "lon": 7.7118746}, {"type": "node", "id": 8596791292, "lat": 45.0665776, "lon": 7.7119769}, {"type": "node", "id": 8596792653, "lat": 45.0677967, "lon": 7.7124491}, {"type": "node", "id": 8596792676, "lat": 45.067467, "lon": 7.7125469}, {"type": "node", "id": 8596792707, "lat": 45.0667736, "lon": 7.7120568}, {"type": "node", "id": 8596792708, "lat": 45.0666196, "lon": 7.7121135}, {"type": "node", "id": 8596792709, "lat": 45.0667892, "lon": 7.7121305}, {"type": "node", "id": 8596792710, "lat": 45.0666302, "lon": 7.7121804}, {"type": "node", "id": 9862009804, "lat": 45.053911, "lon": 7.7013558}, {"type": "node", "id": 9862009805, "lat": 45.05501, "lon": 7.7014765}, {"type": "node", "id": 9862009806, "lat": 45.0550706, "lon": 7.7031127}, {"type": "node", "id": 9862009807, "lat": 45.0549759, "lon": 7.7032387}, {"type": "node", "id": 9862009808, "lat": 45.0539489, "lon": 7.7032361}, {"type": "node", "id": 9862009809, "lat": 45.0539717, "lon": 7.7028713}, {"type": "node", "id": 9862009810, "lat": 45.054002, "lon": 7.7025333}, {"type": "node", "id": 9862009811, "lat": 45.0539413, "lon": 7.7021149}, {"type": "node", "id": 9862009812, "lat": 45.0539186, "lon": 7.701447}, {"type": "node", "id": 9909168740, "lat": 45.0671712, "lon": 7.7117251}, {"type": "node", "id": 9909168744, "lat": 45.0677662, "lon": 7.7122653, "tags": {"barrier": "gate"}}, {"type": "node", "id": 9909168745, "lat": 45.0673758, "lon": 7.7114849}, {"type": "node", "id": 9909168746, "lat": 45.0673693, "lon": 7.7114405}, {"type": "node", "id": 9909168747, "lat": 45.0673379, "lon": 7.7114507}, {"type": "node", "id": 9909168748, "lat": 45.0673255, "lon": 7.7113832}, {"type": "node", "id": 9909168752, "lat": 45.067311, "lon": 7.7111486}, {"type": "node", "id": 9909168753, "lat": 45.0673525, "lon": 7.7113728}, {"type": "node", "id": 9909168756, "lat": 45.0667117, "lon": 7.7128088}, {"type": "node", "id": 9909168757, "lat": 45.0666073, "lon": 7.7116464}, {"type": "node", "id": 9909168758, "lat": 45.0666159, "lon": 7.7116674}, {"type": "node", "id": 9909168764, "lat": 45.0672588, "lon": 7.7111779, "tags": {"access": "private", "barrier": "gate"}}, {"type": "node", "id": 9909168765, "lat": 45.0670905, "lon": 7.711309}, {"type": "node", "id": 9909168766, "lat": 45.0668437, "lon": 7.7114806}, {"type": "node", "id": 10084872027, "lat": 45.0704913, "lon": 7.6989343}, {"type": "node", "id": 10084872028, "lat": 45.0703349, "lon": 7.6987351}, {"type": "node", "id": 10084872029, "lat": 45.0703504, "lon": 7.6987113}, {"type": "node", "id": 10084872030, "lat": 45.0705053, "lon": 7.6989127}, {"type": "node", "id": 10084915339, "lat": 45.0630024, "lon": 7.6884883}, {"type": "node", "id": 10084915340, "lat": 45.0630197, "lon": 7.6885353}, {"type": "node", "id": 10084915341, "lat": 45.0630296, "lon": 7.6885833}, {"type": "node", "id": 10084915342, "lat": 45.0630316, "lon": 7.6886444}, {"type": "node", "id": 10084915343, "lat": 45.0630217, "lon": 7.6886905}, {"type": "node", "id": 10084915344, "lat": 45.0630017, "lon": 7.6887394}, {"type": "node", "id": 10084915345, "lat": 45.0629758, "lon": 7.6887685}, {"type": "node", "id": 10084915346, "lat": 45.0629366, "lon": 7.6887958}, {"type": "node", "id": 10084915347, "lat": 45.0628974, "lon": 7.6888052}, {"type": "node", "id": 10215357193, "lat": 45.06248, "lon": 7.6880982}, {"type": "node", "id": 10215357194, "lat": 45.0624617, "lon": 7.688094}, {"type": "node", "id": 10215357195, "lat": 45.062445, "lon": 7.6880947}, {"type": "node", "id": 10215357196, "lat": 45.0624253, "lon": 7.6880982}, {"type": "node", "id": 10215357197, "lat": 45.0624012, "lon": 7.6881087}, {"type": "node", "id": 10215357198, "lat": 45.0623793, "lon": 7.6881235}, {"type": "node", "id": 10215357199, "lat": 45.0623667, "lon": 7.6881386}, {"type": "node", "id": 10215357200, "lat": 45.0623513, "lon": 7.688164}, {"type": "node", "id": 10215357201, "lat": 45.0623397, "lon": 7.6881875}, {"type": "node", "id": 10215357202, "lat": 45.062334, "lon": 7.6882108}, {"type": "node", "id": 10215357203, "lat": 45.0623304, "lon": 7.6882365}, {"type": "node", "id": 10215357204, "lat": 45.0623278, "lon": 7.6882688}, {"type": "node", "id": 10215357205, "lat": 45.062327, "lon": 7.6883001}, {"type": "node", "id": 10215357206, "lat": 45.0623269, "lon": 7.6883326}, {"type": "node", "id": 10215357207, "lat": 45.0623276, "lon": 7.6883602}, {"type": "node", "id": 10215357208, "lat": 45.0623311, "lon": 7.6883881}, {"type": "node", "id": 10215357209, "lat": 45.0623514, "lon": 7.6884237}, {"type": "node", "id": 10228803674, "lat": 45.0665087, "lon": 7.6962282}, {"type": "node", "id": 10228803675, "lat": 45.0665343, "lon": 7.6962623}, {"type": "node", "id": 10270205665, "lat": 45.070837, "lon": 7.6931322}, {"type": "node", "id": 10270205666, "lat": 45.070658, "lon": 7.6930656}, {"type": "node", "id": 10270205667, "lat": 45.0706832, "lon": 7.6930369}, {"type": "node", "id": 10270205669, "lat": 45.0713244, "lon": 7.6925504}, {"type": "node", "id": 10284513698, "lat": 45.0563787, "lon": 7.6925533}, {"type": "node", "id": 10765663105, "lat": 45.0691151, "lon": 7.6898971, "tags": {"addr:housenumber": "10", "addr:street": "Via Giuseppe Verdi", "amenity": "school", "check_date": "2024-09-09", "name": "Universit\u00e0 degli studi di Torino - Dipartimento di Psichologia", "name:en": "University of Turin - department of psychology"}}, {"type": "node", "id": 10865234778, "lat": 45.065158, "lon": 7.6933975}, {"type": "node", "id": 10865234780, "lat": 45.0650046, "lon": 7.6930379}, {"type": "node", "id": 10881747900, "lat": 45.0664886, "lon": 7.6963351}, {"type": "node", "id": 10933653766, "lat": 45.0636809, "lon": 7.708599}, {"type": "node", "id": 10933653767, "lat": 45.063805, "lon": 7.7085012}, {"type": "node", "id": 10967443496, "lat": 45.066845, "lon": 7.6959503}, {"type": "node", "id": 11190915185, "lat": 45.0649075, "lon": 7.6929187}, {"type": "node", "id": 11964678317, "lat": 45.0703186, "lon": 7.698969, "tags": {"addr:housenumber": "19", "addr:street": "Via Michele Buniva", "entrance": "main"}}, {"type": "node", "id": 12073527300, "lat": 45.0623392, "lon": 7.6884082}, {"type": "node", "id": 12073527307, "lat": 45.0630258, "lon": 7.6886714, "tags": {"access": "customers", "barrier": "gate", "bicycle": "no", "foot": "customers", "horse": "no", "locked": "yes", "material": "metal", "motor_vehicle": "permit", "wheelchair": "yes"}}, {"type": "node", "id": 12887336456, "lat": 45.0675557, "lon": 7.6933746}, {"type": "node", "id": 12887336457, "lat": 45.0675019, "lon": 7.6935104}, {"type": "node", "id": 12887336458, "lat": 45.0678602, "lon": 7.692748}, {"type": "way", "id": 42864476, "nodes": [7415560826, 7415560819, 7415560827, 3253393325, 7415560828, 7415560829, 7415560830, 7415560831, 7415560832, 7415560833, 7415560834, 10270205666, 10270205667, 7415560835, 10270205665, 7415560836, 7415560838, 7415560839, 536542027, 10270205669, 7415567632, 7415567628, 7415567633, 7415567631, 7415560840, 7415560841, 7415560842, 7415560843, 7415560844, 7415560845, 7415560826], "tags": {"alt_name": "Istituto di Istruzione superiore Amedeo Avogadro", "amenity": "school", "name": "IIS Amedeo Avogadro", "name:etymology:wikidata": "Q43476", "website": "https://itisavogadro.it/", "wheelchair": "yes", "wikidata": "Q16165640", "wikipedia": "it:Istituto tecnico industriale statale Amedeo Avogadro"}}, {"type": "way", "id": 82256497, "nodes": [957893590, 957893752, 5459409282, 5459409269, 5459409281, 957893530, 957893091, 5459427015, 5459427012, 5459427013, 5459427011, 5459427010, 957893590], "tags": {"amenity": "school", "name": "Scuola Internazionale Europea Statale Altiero Spinelli", "name:etymology:wikidata": "Q441294", "ref": "TOPS270001", "website": "https://www.istitutoaltierospinelli.com"}}, {"type": "way", "id": 83076321, "nodes": [966578348, 966578393, 966578355, 8596792709, 8596792710, 8596792708, 8596792707, 966578352, 966578374, 966578347, 966578379, 966578358, 966578361, 966578343, 966578342, 9909168740, 966578359, 966578353, 966578376, 966578356, 966578369, 966578366, 966578388, 966578348], "tags": {"amenity": "school", "building": "school", "name": "Istituto Comprensivo Gozzi Olivetti"}}, {"type": "way", "id": 108601368, "nodes": [1323404073, 1245624340, 1245624338, 10084872028, 10084872029, 10084872030, 10084872027, 1245624343, 1245624358, 1245624333, 1245624356, 11964678317, 1245624329, 1323404073], "tags": {"amenity": "school", "building": "yes", "elevator": "yes", "name": "Scuola Primaria Leone Fontana", "phone": "+39 011 889166", "toilets:wheelchair": "yes", "wheelchair": "yes"}}, {"type": "way", "id": 117493773, "nodes": [1323566666, 1323566677, 10215357209, 12073527300, 10215357208, 10215357207, 10215357206, 10215357205, 10215357204, 10215357203, 10215357202, 10215357201, 10215357200, 10215357199, 10215357198, 10215357197, 10215357196, 10215357195, 10215357194, 10215357193, 1323566668, 4736054142, 1323566675, 10084915339, 10084915340, 10084915341, 10084915342, 12073527307, 10084915343, 10084915344, 10084915345, 10084915346, 10084915347, 1323566736, 1323566733, 4736057804, 4736057797, 1323566666], "tags": {"addr:city": "Torino", "addr:housenumber": "15", "addr:postcode": "10123", "addr:street": "Via dei Mille", "amenity": "school", "building:levels": "3", "denomination": "catholic", "fee": "no", "grades": "1-5", "height": "15", "name": "Scuola Primaria \"Niccol\u00f2 Tommaseo\"", "name:etymology:wikidata": "Q558177", "official_name:etymology:wikidata": "Q558177", "phone": "+3901101159100", "religion": "christian", "roof:levels": "0", "school:type": "primary", "source": "Survey", "start_date": "1877-10-15", "website": "https://tommaseo.edu.it/la-scuola/i-luoghi/16-primaria-niccolo-tommaseo", "wheelchair": "yes"}}, {"type": "way", "id": 190499456, "nodes": [2011390798, 2500315425, 2011390811, 2011390810, 2011390805, 2011390803, 2500322424, 2011390797, 2011390799, 2011390807, 2011390806, 2011390801, 2011390800, 2011390795, 2017190637, 2011390798], "tags": {"amenity": "school", "building": "yes", "building:levels": "4", "name": "Scuola dell'Infanzia e Primaria \"Antonio Rayneri\"", "name:etymology:wikidata": "Q50328946"}}, {"type": "way", "id": 298804713, "nodes": [3027468822, 3027468823, 3733095057, 10284513698, 3027468824, 3027468825, 3027468826, 3733095043, 3027468822], "tags": {"amenity": "school", "name": "Scuola media Ippolito Nievo"}}, {"type": "way", "id": 363472757, "nodes": [2719739805, 2719739807, 2719739848, 3676355604, 7036126127, 3676355603, 3676355602, 7036126126, 2719739805], "tags": {"amenity": "school", "name": "Scuola Primaria Statale Alessandro Antonelli", "name:etymology:wikidata": "Q2143077"}}, {"type": "way", "id": 390805217, "nodes": [3939391953, 3939391954, 3939391955, 3939391946, 3939392957, 3939391953], "tags": {"amenity": "school"}}, {"type": "way", "id": 412663770, "nodes": [4140314428, 957885350, 4140314426, 4140314425, 4140314427, 4140314428], "tags": {"amenity": "school", "name": "Scuola Primaria \"Gozzi\""}}, {"type": "way", "id": 450287805, "nodes": [12887336457, 12887336456, 2924486302, 2924486335, 2924486313, 2924486312, 2924486325, 2924486319, 2924486307, 2924486317, 2924486342, 2924486304, 2924486340, 12887336458, 2924486315, 2924486331, 2924486339, 2924486336, 2924486322, 245981735, 245981736, 2924486309, 2924486305, 12887336457], "tags": {"amenity": "school", "name": "Liceo Classico Statale \"Vincenzo Gioberti\"", "name:etymology:wikidata": "Q378706", "website": "http://www.liceogioberti.gov.it", "wikidata": "Q3831927", "wikipedia": "it:Liceo classico Vincenzo Gioberti"}}, {"type": "way", "id": 616984801, "nodes": [5832595849, 5832595850, 5832595851, 5832595852, 5832595849], "tags": {"amenity": "school"}}, {"type": "way", "id": 616994936, "nodes": [1463841708, 1463841705, 1463838788, 1463838783, 5832780203, 5832780202, 5832780201, 1463838773, 1463838776, 1463841684, 1463841699, 1463841703, 1463838784, 1463838786, 1463841706, 1463841708], "tags": {"amenity": "school"}}, {"type": "way", "id": 1075307126, "nodes": [9862009804, 9862009805, 9862009806, 9862009807, 9862009808, 9862009809, 9862009810, 9862009811, 9862009812, 9862009804], "tags": {"addr:city": "Torino", "addr:housenumber": "37", "addr:postcode": "10131", "addr:street": "Viale Enrico Thovez", "amenity": "school", "denomination": "catholic", "name": "Liceo Salesiano Valsalice", "phone": "+39 0116300611", "religion": "christian", "website": "http://www.liceovalsalice.it/", "wikidata": "Q766265", "wikipedia": "it:Liceo salesiano Valsalice"}}, {"type": "way", "id": 1081110260, "nodes": [966578386, 9909168744, 8596792653, 8596792676, 9909168756, 8596791292, 8596791291, 8596791290, 9909168758, 9909168757, 9909168766, 9909168765, 9909168764, 9909168752, 9909168753, 9909168748, 9909168747, 9909168746, 9909168745, 966578367, 966578386], "tags": {"addr:city": "Torino", "addr:housenumber": "5", "addr:postcode": "10132", "addr:street": "Via Bardassano", "amenity": "school", "name": "Istituto Comprensivo Gozzi Olivetti", "operator": "Ministero dell'Istruzione", "operator:type": "public", "operator:wikidata": "Q3858490", "website": "http://www.gozzi-olivetti.org/"}}, {"type": "way", "id": 1091923526, "nodes": [245981734, 2924486340, 2924486304, 2924486342, 2924486317, 2924486307, 2924486319, 2924486325, 2924486312, 2924486313, 2924486335, 2924486302, 12887336456, 12887336457, 2924486311, 2924486320, 245981737, 245981734], "tags": {"addr:city": "Torino", "addr:housenumber": "7", "addr:postcode": "10124", "addr:street": "Via Sant'Ottavio", "amenity": "school", "denomination": "catholic", "grades": "6-8", "name": "Scuola Secondaria di Primo Grado \"Italo Calvino\"", "name:etymology:wikidata": "Q154756", "old_name:-1996": "Scuola Media \"Goffredo Mameli\"", "phone": "+39011885279", "religion": "christian", "website": "https://www.tommaseo.edu.it/pagina/4/secondaria-calvino"}}, {"type": "way", "id": 1091926916, "nodes": [1323871494, 1323871506, 10967443496, 4735868836, 1323871513, 1323871474, 4735868694, 1323871505, 1323871509, 4735866680, 1323871510]}, {"type": "way", "id": 1093351159, "nodes": [1323871510, 2925635611, 1323871459, 1323871493, 1323871496, 10881747900, 10228803675, 10228803674, 1323871473, 1323871494]}, {"type": "way", "id": 1168299037, "nodes": [1323871513, 4735868836, 10967443496, 1323871506, 1317427260, 1317427256, 1323871478, 1323871481, 1323871471, 1323871493, 1323871459, 2925635611, 1323871510, 4735866680, 1323871509, 1323871505, 4735868694, 1323871474, 1323871513], "tags": {"addr:city": "Torino", "addr:housenumber": "8", "addr:postcode": "10124", "addr:street": "Via Giulia di Barolo", "amenity": "school", "denomination": "catholic", "grades": "1-5", "name": "Scuola Primaria \"San Francesco d'Assisi\"", "name:etymology": "San Francesco d'Assisi", "name:etymology:it": "San Francesco d'Assisi", "name:etymology:wikidata": "Q676555", "phone": "+390118178655", "religion": "christian", "school:type": "primary", "website": "https://tommaseo.edu.it/la-scuola/i-luoghi/18-primaria-francesco-dassisi"}}, {"type": "way", "id": 1168299038, "nodes": [3120146055, 3120146054, 3120146059, 11190915185, 3120146057, 10865234780, 3120146056, 10865234778, 3120146055], "tags": {"addr:city": "Torino", "addr:housenumber": "2", "addr:postcode": "10123", "addr:street": "Via Giovanni Plana", "amenity": "school", "building": "school", "denomination": "catholic", "grades": "0", "name": "Scuola dell'Infanzia Giovanni Plana", "phone": "+3901101129344", "preschool": "yes", "religion": "christian", "website": "https://tommaseo.edu.it/la-scuola/i-luoghi/17-infanzia-plana"}}, {"type": "way", "id": 1176873243, "nodes": [8281401811, 8281403944, 10933653766, 10933653767, 4735655384, 4735655385, 8281401811], "tags": {"amenity": "school", "building": "yes", "name": "Istituto Pro Infantia Derelicta", "phone": "+39 011 819 0795", "website": "http://www.proinfantia.org"}}, {"type": "relation", "id": 14563347, "members": [{"type": "way", "ref": 1091926916, "role": "outer"}, {"type": "way", "ref": 1093351159, "role": "outer"}], "tags": {"addr:city": "Torino", "addr:housenumber": "5", "addr:postcode": "10124", "addr:street": "Via Vanchiglia", "amenity": "school", "denomination": "catholic", "grades": "6-8", "name": "Scuola Secondaria di Primo Grado \"Giuseppe Verdi\"", "name:etymology:wikidata": "Q7317", "phone": "+39011882925", "religion": "christian", "school:type": "secondary", "type": "multipolygon", "website": "https://www.tommaseo.edu.it/pagina/6/secondaria-verdi"}}]}