{"version": 0.6, "generator": "Overpass API 0.7.62.8 e802775f", "osm3s": {"timestamp_osm_base": "2026-01-11T21:22:30Z", "copyright": "The data included in this document is from www.openstreetmap.org. The data is made available under ODbL."}, "elements": [{"type": "node", "id": 358825800, "lat": 33.989313, "lon": -118.2245325}, {"type": "node", "id": 358826153, "lat": 34.0191797, "lon": -118.1864606, "tags": {"addr:city": "Los Angeles", "addr:housenumber": "4081", "addr:postcode": "90023", "addr:street": "East Olympic Boulevard", "amenity": "hospital", "emergency": "yes", "gnis:feature_id": "1732538", "healthcare": "hospital", "name": "Los Angeles Community Hospital", "opening_hours": "24/7", "operator": "Alta Los Angeles Hospitals", "phone": "+1 323 267 0477", "website": "https://www.lach-la.com/"}}, {"type": "node", "id": 358826458, "lat": 34.0370643, "lon": -118.2671276}, {"type": "node", "id": 2556689683, "lat": 34.0073173, "lon": -118.2661911, "tags": {"addr:city": "Los Angeles", "addr:housenumber": "4211", "addr:postcode": "90011", "addr:street": "South Avalon Boulevard", "amenity": "hospital", "emergency": "no", "healthcare": "hospital", "healthcare:speciality": "psychiatry", "name": "Kedren Community Health Center", "phone": "+1 323 233 0425", "website": "https://kedren.org/"}}, {"type": "node", "id": 4274906839, "lat": 34.0364546, "lon": -118.2649533}, {"type": "node", "id": 4274907027, "lat": 34.0367239, "lon": -118.2647357}, {"type": "node", "id": 4274907029, "lat": 34.0367453, "lon": -118.264817}, {"type": "node", "id": 4274907031, "lat": 34.0367539, "lon": -118.2654807}, {"type": "node", "id": 4274907035, "lat": 34.0367623, "lon": -118.2648028}, {"type": "node", "id": 4274907039, "lat": 34.0367669, "lon": -118.2648543}, {"type": "node", "id": 4274907044, "lat": 34.0367755, "lon": -118.2648472}, {"type": "node", "id": 4274907048, "lat": 34.0367817, "lon": -118.2648581}, {"type": "node", "id": 4274907051, "lat": 34.0367876, "lon": -118.2648614}, {"type": "node", "id": 4274907057, "lat": 34.0367944, "lon": -118.2648675}, {"type": "node", "id": 4274907064, "lat": 34.0368028, "lon": -118.2649207}, {"type": "node", "id": 4274907065, "lat": 34.0368036, "lon": -118.2648848}, {"type": "node", "id": 4274907071, "lat": 34.0368058, "lon": -118.264902}, {"type": "node", "id": 4274907075, "lat": 34.0368122, "lon": -118.2649129}, {"type": "node", "id": 4274907081, "lat": 34.0368207, "lon": -118.2649513}, {"type": "node", "id": 4274907083, "lat": 34.0368296, "lon": -118.2654272}, {"type": "node", "id": 4274907084, "lat": 34.0368298, "lon": -118.2649436}, {"type": "node", "id": 4274907088, "lat": 34.036836, "lon": -118.2649542}, {"type": "node", "id": 4274907191, "lat": 34.0368426, "lon": -118.2649584}, {"type": "node", "id": 4274907193, "lat": 34.0368489, "lon": -118.2649644}, {"type": "node", "id": 4274907194, "lat": 34.0368527, "lon": -118.2649698}, {"type": "node", "id": 4274907196, "lat": 34.0368569, "lon": -118.2649792}, {"type": "node", "id": 4274907198, "lat": 34.0368573, "lon": -118.2650152}, {"type": "node", "id": 4274907200, "lat": 34.03686, "lon": -118.264989}, {"type": "node", "id": 4274907201, "lat": 34.03686, "lon": -118.264997}, {"type": "node", "id": 4274907207, "lat": 34.0368662, "lon": -118.2650084}, {"type": "node", "id": 4274907208, "lat": 34.0368674, "lon": -118.265421}, {"type": "node", "id": 4274907213, "lat": 34.0368745, "lon": -118.2650471}, {"type": "node", "id": 4274907218, "lat": 34.0368844, "lon": -118.2650394}, {"type": "node", "id": 4274907222, "lat": 34.0368866, "lon": -118.2654015}, {"type": "node", "id": 4274907224, "lat": 34.0368896, "lon": -118.2654113}, {"type": "node", "id": 4274907227, "lat": 34.0368901, "lon": -118.26505}, {"type": "node", "id": 4274907228, "lat": 34.0368978, "lon": -118.2650544}, {"type": "node", "id": 4274907231, "lat": 34.0369003, "lon": -118.2653924}, {"type": "node", "id": 4274907233, "lat": 34.0369039, "lon": -118.2650608}, {"type": "node", "id": 4274907237, "lat": 34.0369095, "lon": -118.2650702}, {"type": "node", "id": 4274907239, "lat": 34.0369115, "lon": -118.2651103}, {"type": "node", "id": 4274907240, "lat": 34.0369122, "lon": -118.2650792}, {"type": "node", "id": 4274907245, "lat": 34.036915, "lon": -118.2650932}, {"type": "node", "id": 4274907247, "lat": 34.0369177, "lon": -118.2653746}, {"type": "node", "id": 4274907250, "lat": 34.0369205, "lon": -118.2651029}, {"type": "node", "id": 4274907251, "lat": 34.0369208, "lon": -118.2653783}, {"type": "node", "id": 4274907254, "lat": 34.0369239, "lon": -118.265382}, {"type": "node", "id": 4274907262, "lat": 34.0369387, "lon": -118.2653641}, {"type": "node", "id": 4274907268, "lat": 34.0369507, "lon": -118.2653424}, {"type": "node", "id": 4274907273, "lat": 34.0369572, "lon": -118.2653272}, {"type": "node", "id": 4274907274, "lat": 34.036963, "lon": -118.265305}, {"type": "node", "id": 4274907284, "lat": 34.0370192, "lon": -118.265266}, {"type": "node", "id": 4385457178, "lat": 34.0228415, "lon": -118.1841406}, {"type": "node", "id": 4385457179, "lat": 34.0228416, "lon": -118.1841}, {"type": "node", "id": 4385457296, "lat": 34.0228642, "lon": -118.1848516}, {"type": "node", "id": 4385457297, "lat": 34.0228653, "lon": -118.1841406}, {"type": "node", "id": 4385457298, "lat": 34.0228655, "lon": -118.1841}, {"type": "node", "id": 4385457299, "lat": 34.0228658, "lon": -118.1839085}, {"type": "node", "id": 4385457848, "lat": 34.0234547, "lon": -118.1838553}, {"type": "node", "id": 4385457934, "lat": 34.0236006, "lon": -118.1848939}, {"type": "node", "id": 4385458054, "lat": 34.023774, "lon": -118.184895}, {"type": "node", "id": 4385458057, "lat": 34.0237816, "lon": -118.1838565}, {"type": "node", "id": 4385458058, "lat": 34.0237819, "lon": -118.1848957}, {"type": "node", "id": 4385458061, "lat": 34.0237979, "lon": -118.1848882}, {"type": "node", "id": 4385458063, "lat": 34.0238047, "lon": -118.1848829}, {"type": "node", "id": 4385458067, "lat": 34.0238151, "lon": -118.1848686}, {"type": "node", "id": 4385458092, "lat": 34.0238204, "lon": -118.184853}, {"type": "node", "id": 4385458093, "lat": 34.0238222, "lon": -118.1848448}, {"type": "node", "id": 4385458094, "lat": 34.0238225, "lon": -118.1846963}, {"type": "node", "id": 4385458108, "lat": 34.0238248, "lon": -118.1846963}, {"type": "node", "id": 4385458113, "lat": 34.023825, "lon": -118.1842313}, {"type": "node", "id": 4385458114, "lat": 34.023825, "lon": -118.1842528}, {"type": "node", "id": 4385458116, "lat": 34.0238251, "lon": -118.1842024}, {"type": "node", "id": 4385458119, "lat": 34.0238253, "lon": -118.1841048}, {"type": "node", "id": 4385458120, "lat": 34.0238256, "lon": -118.1842803}, {"type": "node", "id": 4385458125, "lat": 34.023826, "lon": -118.183972}, {"type": "node", "id": 4385458126, "lat": 34.023826, "lon": -118.1840767}, {"type": "node", "id": 4385458127, "lat": 34.0238261, "lon": -118.1840548}, {"type": "node", "id": 4385458128, "lat": 34.0238262, "lon": -118.183911}, {"type": "node", "id": 4385458146, "lat": 34.0238359, "lon": -118.1842024}, {"type": "node", "id": 4385458147, "lat": 34.0238359, "lon": -118.1842313}, {"type": "node", "id": 4385458148, "lat": 34.0238365, "lon": -118.1842803}, {"type": "node", "id": 4385458149, "lat": 34.0238366, "lon": -118.1842529}, {"type": "node", "id": 4385458150, "lat": 34.023837, "lon": -118.1840309}, {"type": "node", "id": 4385458151, "lat": 34.023837, "lon": -118.1840548}, {"type": "node", "id": 4385458152, "lat": 34.0238373, "lon": -118.1840767}, {"type": "node", "id": 4385458153, "lat": 34.0238373, "lon": -118.1841049}, {"type": "node", "id": 4385458154, "lat": 34.0238394, "lon": -118.1840309}, {"type": "node", "id": 4385458155, "lat": 34.0238395, "lon": -118.183972}, {"type": "node", "id": 4593262082, "lat": 33.990111, "lon": -118.2245362}, {"type": "node", "id": 4593262083, "lat": 33.9901151, "lon": -118.2232259}, {"type": "node", "id": 4593262084, "lat": 33.9893171, "lon": -118.2232222}, {"type": "node", "id": 5514036901, "lat": 34.038818, "lon": -118.2660359}, {"type": "node", "id": 5514036902, "lat": 34.0382323, "lon": -118.2648772}, {"type": "node", "id": 5514036903, "lat": 34.0376244, "lon": -118.2652688}, {"type": "node", "id": 5514036904, "lat": 34.0375805, "lon": -118.265354}, {"type": "node", "id": 5514036905, "lat": 34.0365898, "lon": -118.2659622}, {"type": "node", "id": 5514036906, "lat": 34.0365692, "lon": -118.2660178}, {"type": "node", "id": 5608310324, "lat": 34.0228632, "lon": -118.184894}, {"type": "node", "id": 5608310325, "lat": 34.0228638, "lon": -118.1838493}, {"type": "node", "id": 9211554934, "lat": 34.0421489, "lon": -118.2485451, "tags": {"addr:city": "Los Angeles", "addr:housenumber": "325", "addr:postcode": "90014", "addr:state": "CA", "addr:street": "East 7th Street", "amenity": "hospital", "emergency": "no", "healthcare": "hospital", "healthcare:speciality": "dentist;psychiatry;optometry;social_serv;medical", "name": "Joshua House Health Center", "operator": "Los Angeles Christian Health Center", "operator:type": "community", "phone": "+1-213-893-1960"}}, {"type": "node", "id": 9438017617, "lat": 33.9886634, "lon": -118.273426, "tags": {"addr:housenumber": "5850", "addr:postcode": "90003", "addr:street": "South Main Street", "amenity": "hospital", "healthcare": "hospital", "internet_access": "wlan", "name": "Hubert H. Humphrey Comprehensive Health Center", "website": "https://dhs.lacounty.gov/humphrey/"}}, {"type": "node", "id": 12545765303, "lat": 33.9828948, "lon": -118.2256917, "tags": {"addr:city": "Huntington Park", "addr:housenumber": "6316 1/2Pacific Blvdz", "addr:postcode": "90255", "addr:state": "CA", "addr:street": "Pacific Boulevard", "addr:unit": "Suite 206", "amenity": "hospital", "description": "Welcome to New Horizon Hydration! I am Anita Jones, a board-certified Advanced Registered Nurse Practitioner (ARNP) dedicated to helping you achieve your health and wellness goals. At New Horizon Hydration, we specialize in treatments designed to enhance", "emergency": "no", "healthcare": "hospital", "healthcare:speciality": "community;weight_loss", "name": "New Horizon Hydration", "opening_hours": "Mo-Fr 09:00\u201321:00, Sa 10:00\u201317:00", "operator": "Dignity Health", "operator:type": "public", "operator:wikidata": "Q5276334", "website": "https://newhorizonhydration.com/"}}, {"type": "node", "id": 12982301420, "lat": 34.0368318, "lon": -118.2658287}, {"type": "node", "id": 13049293479, "lat": 34.0233283, "lon": -118.1838545}, {"type": "node", "id": 13049293480, "lat": 34.0232326, "lon": -118.1838563}, {"type": "node", "id": 13049293481, "lat": 34.0232784, "lon": -118.1838554, "tags": {"entrance": "yes"}}, {"type": "node", "id": 13049293484, "lat": 34.0234334, "lon": -118.1838552, "tags": {"access": "private", "barrier": "gate", "material": "metal", "opening_hours": "Mo-Su 08:00-20:00"}}, {"type": "node", "id": 13072006805, "lat": 34.0238252, "lon": -118.1841536, "tags": {"door": "sliding", "entrance": "main", "wheelchair": "yes"}}, {"type": "node", "id": 13083665230, "lat": 34.0232122, "lon": -118.184894}, {"type": "node", "id": 13083665238, "lat": 34.0233692, "lon": -118.1848939}, {"type": "node", "id": 13083665239, "lat": 34.0235588, "lon": -118.1848939}, {"type": "node", "id": 13083665240, "lat": 34.0234484, "lon": -118.1848939}, {"type": "way", "id": 428383276, "nodes": [4274907254, 4274907262, 4274907268, 4274907273, 4274907274, 4274907284, 4274907239, 4274907250, 4274907245, 4274907240, 4274907237, 4274907233, 4274907228, 4274907227, 4274907218, 4274907213, 4274907198, 4274907207, 4274907201, 4274907200, 4274907196, 4274907194, 4274907193, 4274907191, 4274907088, 4274907084, 4274907081, 4274907064, 4274907075, 4274907071, 4274907065, 4274907057, 4274907051, 4274907048, 4274907044, 4274907039, 4274907029, 4274907035, 4274907027, 4274906839, 4274907031, 4274907083, 4274907208, 4274907224, 4274907222, 4274907231, 4274907247, 4274907251, 4274907254], "tags": {"addr:city": "Los Angeles", "addr:housenumber": "1400", "addr:postcode": "90015", "addr:state": "CA", "addr:street": "South Grand Avenue", "amenity": "hospital", "building": "hospital", "ele": "105.6", "healthcare": "hospital", "height": "34.6", "lacounty:ain": "5134020023", "lacounty:bld_id": "481308835886", "name": "USC-Eisner Family Medicine Center at California Hospital", "office": "yes", "start_date": "1989"}}, {"type": "way", "id": 464183836, "nodes": [4593262084, 4593262083, 4593262082, 358825800, 4593262084], "tags": {"addr:city": "Huntington Park", "addr:housenumber": "2623", "addr:postcode": "90255", "addr:street": "East Slauson Avenue", "amenity": "hospital", "beds": "81", "emergency": "yes", "gnis:feature_id": "1732238", "healthcare": "hospital", "name": "Community Hospital of Huntington Park", "opening_hours": "24/7", "operator": "Avanti Hospitals", "phone": "+1 323 583 1931", "website": "https://chhp.avantihospitals.com/"}}, {"type": "way", "id": 574464500, "nodes": [5514036906, 5514036905, 12982301420, 5514036904, 5514036903, 5514036902, 5514036901, 358826458, 5514036906], "tags": {"addr:city": "Los Angeles", "addr:housenumber": "1401", "addr:postcode": "90007", "addr:street": "South Grand Avenue", "amenity": "hospital", "emergency": "yes", "gnis:feature_id": "1732760", "healthcare": "hospital", "name": "California Hospital Medical Center", "opening_hours": "24/7", "operator": "Dignity Health", "operator:type": "private", "operator:wikidata": "Q5276334", "operator:wikipedia": "en:Dignity Health", "phone": "+1 213 748 2411", "website": "https://www.dignityhealth.org/socal/locations/californiahospital", "wikidata": "Q5020617", "wikipedia": "en:California Hospital Medical Center"}}, {"type": "way", "id": 587066427, "nodes": [5608310325, 4385457299, 4385457298, 4385457179, 4385457178, 4385457297, 4385457296, 5608310324, 13083665230, 13083665238, 13083665240, 13083665239, 4385457934, 4385458054, 4385458058, 4385458061, 4385458063, 4385458067, 4385458092, 4385458093, 4385458094, 4385458108, 4385458120, 4385458148, 4385458149, 4385458114, 4385458113, 4385458147, 4385458146, 4385458116, 13072006805, 4385458119, 4385458153, 4385458152, 4385458126, 4385458127, 4385458151, 4385458150, 4385458154, 4385458155, 4385458125, 4385458128, 4385458057, 4385457848, 13049293484, 13049293479, 13049293481, 13049293480, 5608310325], "tags": {"addr:city": "Los Angeles", "addr:housenumber": "4060", "addr:postcode": "90023", "addr:street": "Whittier Boulevard", "amenity": "hospital", "beds": "127", "emergency": "yes", "healthcare": "hospital", "name": "East Los Angeles Doctors Hospital", "opening_hours": "24/7", "operator": "Avanti Hospitals", "phone": "+1 323 268 5514", "website": "https://eladh.avantihospitals.com/"}}]}