{"version": 0.6, "generator": "Overpass API 0.7.62.8 e802775f", "osm3s": {"timestamp_osm_base": "2026-01-12T19:39:30Z", "copyright": "The data included in this document is from www.openstreetmap.org. The data is made available under ODbL."}, "elements": [{"type": "node", "id": 266737816, "lat": 12.8718058, "lon": 77.654025}, {"type": "node", "id": 266737817, "lat": 12.8705981, "lon": 77.6540177}, {"type": "node", "id": 266737832, "lat": 12.8705291, "lon": 77.6532434}, {"type": "node", "id": 1192791521, "lat": 12.8251205, "lon": 77.6829303}, {"type": "node", "id": 1469644048, "lat": 12.8889212, "lon": 77.6252612, "tags": {"amenity": "school", "name": "St Francis ICSE school", "wheelchair": "yes"}}, {"type": "node", "id": 1472934583, "lat": 12.867378, "lon": 77.6162668, "tags": {"addr:place": "Yelenahalli", "amenity": "school", "isced:level": "1", "name": "Government Primary School Yelenahalli", "name:kn": "\u0cb8\u0cb0\u0ccd\u0c95\u0cbe\u0cb0\u0cbf \u0caa\u0ccd\u0cb0\u0cbe\u0ca5\u0cae\u0cbf\u0c95 \u0cb6\u0cbe\u0cb2\u0cc6 \u0c8e\u0cb2\u0cc7\u0ca8\u0cb9\u0cb3\u0ccd\u0cb3\u0cbf", "operator": "Department of Education", "school": "primary"}}, {"type": "node", "id": 1482388692, "lat": 12.8988226, "lon": 77.6569918}, {"type": "node", "id": 1818493716, "lat": 12.8594794, "lon": 77.6344242, "tags": {"amenity": "school", "name": "Government Primary School, Vittasandra", "name:kn": "\u0cb8\u0cb0\u0ccd\u0c95\u0cbe\u0cb0\u0cbf \u0caa\u0ccd\u0cb0\u0cbe\u0ca5\u0cae\u0cbf\u0c95 \u0cb6\u0cbe\u0cb2\u0cc6", "source": "survey"}}, {"type": "node", "id": 1827508643, "lat": 12.8163535, "lon": 77.6527643}, {"type": "node", "id": 1827508645, "lat": 12.8167867, "lon": 77.6529056}, {"type": "node", "id": 1827508647, "lat": 12.8169344, "lon": 77.6533196}, {"type": "node", "id": 1827508649, "lat": 12.8171904, "lon": 77.6535316}, {"type": "node", "id": 1827508651, "lat": 12.8175645, "lon": 77.6537134}, {"type": "node", "id": 1827508653, "lat": 12.8179091, "lon": 77.6539052}, {"type": "node", "id": 1847882481, "lat": 12.9000623, "lon": 77.666291}, {"type": "node", "id": 1847882496, "lat": 12.900397, "lon": 77.6664519}, {"type": "node", "id": 2116654606, "lat": 12.8476878, "lon": 77.6306046}, {"type": "node", "id": 2116654927, "lat": 12.8468248, "lon": 77.6309179}, {"type": "node", "id": 2301139534, "lat": 12.8902789, "lon": 77.695085}, {"type": "node", "id": 2399188083, "lat": 12.8431833, "lon": 77.6391991}, {"type": "node", "id": 2399188093, "lat": 12.8435917, "lon": 77.6371468}, {"type": "node", "id": 2399188097, "lat": 12.8433359, "lon": 77.6397135}, {"type": "node", "id": 2399188099, "lat": 12.8435919, "lon": 77.6397724}, {"type": "node", "id": 2399188105, "lat": 12.844139, "lon": 77.6373097}, {"type": "node", "id": 2399188107, "lat": 12.8434446, "lon": 77.6392641}, {"type": "node", "id": 2399197710, "lat": 12.8405143, "lon": 77.6310921, "tags": {"addr:place": "Bettadasana Pura", "amenity": "school", "isced:level": "2", "name": "GHPS Bettadasana Pura", "name:kn": "\u0cb8\u0cb0\u0ccd\u0c95\u0cbe\u0cb0\u0cbf \u0cb9\u0cbf\u0cb0\u0cbf\u0caf \u0caa\u0ccd\u0cb0\u0cbe\u0ca5\u0cae\u0cbf\u0c95 \u0cb6\u0cbe\u0cb2\u0cc6 \u0cac\u0cc6\u0c9f\u0ccd\u0c9f\u0ca6\u0cbe\u0cb8\u0ca8 \u0caa\u0cc1\u0cb0", "operator": "Department of Education", "school": "primary"}}, {"type": "node", "id": 2450381201, "lat": 12.8985299, "lon": 77.6204495}, {"type": "node", "id": 2450381203, "lat": 12.8984854, "lon": 77.6202832}, {"type": "node", "id": 2450381204, "lat": 12.8984303, "lon": 77.6204157}, {"type": "node", "id": 2450381205, "lat": 12.8985427, "lon": 77.6203057}, {"type": "node", "id": 2550433504, "lat": 12.8346225, "lon": 77.6800993}, {"type": "node", "id": 2550433505, "lat": 12.8345571, "lon": 77.6821794}, {"type": "node", "id": 2550433506, "lat": 12.8338013, "lon": 77.682233}, {"type": "node", "id": 2550433508, "lat": 12.8328141, "lon": 77.6807069}, {"type": "node", "id": 2720498307, "lat": 12.9003488, "lon": 77.6271298, "tags": {"amenity": "school", "name": "Sri Ram Driving School"}}, {"type": "node", "id": 2892761118, "lat": 12.8947594, "lon": 77.6150069, "tags": {"addr:place": "Bommanahalli", "amenity": "school", "isced:level": "3", "name": "New Arvind Memorial School", "name:kn": "\u0ca8\u0ccd\u0caf\u0cc2 \u0c85\u0cb0\u0cb5\u0cbf\u0c82\u0ca6 \u0cb8\u0ccd\u0cae\u0cbe\u0cb0\u0c95 \u0caa\u0ccd\u0cb0\u0ccc\u0ca2\u0cb6\u0cbe\u0cb2\u0cc6,", "operator": "Private Un-Aided", "school": "Higher Secondary"}}, {"type": "node", "id": 2907073150, "lat": 12.8730251, "lon": 77.6260135, "tags": {"addr:city": "Begur", "addr:place": "Begur", "amenity": "school", "isced:level": "2", "name": "St Teresa Hps Begur", "name:kn": "\u0cb8\u0cc6\u0c82\u0c9f\u0ccd\u200c \u0ca4\u0cc6\u0cb0\u0cc7\u0cb8\u0cbe \u0cb9\u0cbf\u0cb0\u0cbf\u0caf \u0caa\u0ccd\u0cb0\u0cbe\u0ca5\u0cae\u0cbf\u0c95 \u0cb6\u0cbe\u0cb2\u0cc6 \u0cac\u0cc7\u0c97\u0cc2\u0cb0\u0cc1", "operator": "Department of Education", "school": "primary"}}, {"type": "node", "id": 2907073152, "lat": 12.8737507, "lon": 77.6259345, "tags": {"addr:place": "Begur", "amenity": "school", "isced:level": "3", "name": "St Teresa Hs", "name:kn": "\u0cb8\u0cc6\u0c82\u0c9f\u0ccd\u200c \u0ca4\u0cc6\u0cb0\u0cc7\u0cb8\u0cbe \u0caa\u0ccd\u0cb0\u0ccc\u0ca2\u0cb6\u0cbe\u0cb2\u0cc6, \u0cac\u0cc7\u0c97\u0cc2\u0cb0\u0cc1", "operator": "Private Un-Aided", "school": "secondary"}}, {"type": "node", "id": 2952008218, "lat": 12.8253489, "lon": 77.6826753}, {"type": "node", "id": 2952008221, "lat": 12.8259007, "lon": 77.6816292}, {"type": "node", "id": 3134803465, "lat": 12.8249426, "lon": 77.6211194}, {"type": "node", "id": 3134803466, "lat": 12.8250577, "lon": 77.6204006}, {"type": "node", "id": 3134803467, "lat": 12.8240638, "lon": 77.6202531}, {"type": "node", "id": 3134803468, "lat": 12.8240037, "lon": 77.6209236}, {"type": "node", "id": 3247465143, "lat": 12.890203, "lon": 77.6950477}, {"type": "node", "id": 3247465145, "lat": 12.8900553, "lon": 77.6956097}, {"type": "node", "id": 3247465146, "lat": 12.8908532, "lon": 77.6956944}, {"type": "node", "id": 3247465147, "lat": 12.8913432, "lon": 77.6952971}, {"type": "node", "id": 3417146657, "lat": 12.8826124, "lon": 77.6247003}, {"type": "node", "id": 3417146659, "lat": 12.882697, "lon": 77.6236133}, {"type": "node", "id": 3417146660, "lat": 12.8829613, "lon": 77.6247288}, {"type": "node", "id": 3417146661, "lat": 12.8830459, "lon": 77.6236419}, {"type": "node", "id": 3535459129, "lat": 12.8815031, "lon": 77.6235621}, {"type": "node", "id": 3535459133, "lat": 12.8815167, "lon": 77.6234983}, {"type": "node", "id": 3535459159, "lat": 12.8816111, "lon": 77.6237009}, {"type": "node", "id": 3535459168, "lat": 12.8816344, "lon": 77.6235916}, {"type": "node", "id": 3535459176, "lat": 12.8816494, "lon": 77.623528}, {"type": "node", "id": 3535459188, "lat": 12.8816875, "lon": 77.623718}, {"type": "node", "id": 3535459604, "lat": 12.8817244, "lon": 77.6235449}, {"type": "node", "id": 3565191729, "lat": 12.9037593, "lon": 77.6365162}, {"type": "node", "id": 4146211240, "lat": 12.9010037, "lon": 77.6471045}, {"type": "node", "id": 4146211242, "lat": 12.9012105, "lon": 77.6485188}, {"type": "node", "id": 4146211246, "lat": 12.901511, "lon": 77.6469516}, {"type": "node", "id": 4146211250, "lat": 12.9017335, "lon": 77.6484937}, {"type": "node", "id": 4310792835, "lat": 12.8857982, "lon": 77.696642}, {"type": "node", "id": 4310792836, "lat": 12.8859185, "lon": 77.6976009}, {"type": "node", "id": 4310792837, "lat": 12.8857486, "lon": 77.6987864}, {"type": "node", "id": 4310792838, "lat": 12.8866428, "lon": 77.6988266}, {"type": "node", "id": 4310792839, "lat": 12.8867709, "lon": 77.6974077}, {"type": "node", "id": 4310817861, "lat": 12.8867166, "lon": 77.6965806}, {"type": "node", "id": 4310817862, "lat": 12.886247, "lon": 77.6966253}, {"type": "node", "id": 4310821159, "lat": 12.8877094, "lon": 77.6964359}, {"type": "node", "id": 4310821160, "lat": 12.8878349, "lon": 77.6972781}, {"type": "node", "id": 4310821161, "lat": 12.8893618, "lon": 77.6971467}, {"type": "node", "id": 4310821162, "lat": 12.888329, "lon": 77.6962588}, {"type": "node", "id": 5018250545, "lat": 12.8708486, "lon": 77.6536886}, {"type": "node", "id": 5018250563, "lat": 12.8718358, "lon": 77.6537258}, {"type": "node", "id": 5795239503, "lat": 12.9040868, "lon": 77.6652954}, {"type": "node", "id": 5806622767, "lat": 12.8847562, "lon": 77.6788324}, {"type": "node", "id": 5806622768, "lat": 12.884683, "lon": 77.6794547}, {"type": "node", "id": 5806622769, "lat": 12.8843274, "lon": 77.6794278}, {"type": "node", "id": 5806622770, "lat": 12.8842333, "lon": 77.6802271}, {"type": "node", "id": 5806622771, "lat": 12.8831378, "lon": 77.6800448}, {"type": "node", "id": 5806622772, "lat": 12.8833443, "lon": 77.6785669}, {"type": "node", "id": 6137643193, "lat": 12.8990442, "lon": 77.6945851}, {"type": "node", "id": 6137643194, "lat": 12.8983278, "lon": 77.6941533}, {"type": "node", "id": 6137643195, "lat": 12.8982154, "lon": 77.6940541}, {"type": "node", "id": 6137643196, "lat": 12.8982389, "lon": 77.6939816}, {"type": "node", "id": 6137643197, "lat": 12.8995227, "lon": 77.6937832}, {"type": "node", "id": 6137643198, "lat": 12.8994625, "lon": 77.6945395}, {"type": "node", "id": 6137643199, "lat": 12.8991305, "lon": 77.694569}, {"type": "node", "id": 6137643213, "lat": 12.8997135, "lon": 77.6951793}, {"type": "node", "id": 6137643214, "lat": 12.8997083, "lon": 77.6949352}, {"type": "node", "id": 6137643215, "lat": 12.8999228, "lon": 77.6949253}, {"type": "node", "id": 6346934417, "lat": 12.8982752, "lon": 77.6515095, "tags": {"addr:place": "aralakunate", "amenity": "school", "isced:level": "2", "name": "GHPS Aralakunate", "name:kn": "\u0cb8\u0cb0\u0ccd\u0c95\u0cbe\u0cb0\u0cbf \u0cb9\u0cbf\u0cb0\u0cbf\u0caf \u0caa\u0ccd\u0cb0\u0cbe\u0ca5\u0cae\u0cbf\u0c95 \u0cb6\u0cbe\u0cb2\u0cc6 \u0c85\u0cb0\u0cb3\u0c95\u0cc1\u0c82\u0c9f\u0cc6", "operator": "Department of Education", "school": "primary"}}, {"type": "node", "id": 6347228492, "lat": 12.8673681, "lon": 77.6559799, "tags": {"addr:place": "Beratena Agrahara", "amenity": "school", "isced:level": "2", "name": "GHPS Beratena Agrahara", "name:kn": "\u0cb8\u0cb0\u0ccd\u0c95\u0cbe\u0cb0\u0cbf \u0cb9\u0cbf\u0cb0\u0cbf\u0caf \u0caa\u0ccd\u0cb0\u0cbe\u0ca5\u0cae\u0cbf\u0c95 \u0cb6\u0cbe\u0cb2\u0cc6 \u0cac\u0cc6\u0cb0\u0c9f\u0cc6\u0ca8 \u0c85\u0c97\u0ccd\u0cb0\u0cb9\u0cbe\u0cb0", "operator": "Department of Primary and Secondary Education", "operator:type": "government", "operator:wikidata": "Q111467381", "school": "Higher Primary"}}, {"type": "node", "id": 6348722007, "lat": 12.8733, "lon": 77.6392183, "tags": {"addr:place": "Subhash Nagar", "amenity": "school", "isced:level": "2", "name": "GUHPS Subhash Nagar", "name:kn": "\u0cb8\u0cb0\u0ccd\u0c95\u0cbe\u0cb0\u0cbf \u0c89\u0cb0\u0ccd\u0ca6\u0cc1 \u0cb9\u0cbf\u0cb0\u0cbf\u0caf \u0caa\u0ccd\u0cb0\u0cbe\u0ca5\u0cae\u0cbf\u0c95 \u0cb6\u0cbe\u0cb2\u0cc6 \u0cb8\u0cc1\u0cad\u0cbe\u0cb7\u0ccd \u0ca8\u0c97\u0cb0", "operator": "Department of Education", "school": "primary"}}, {"type": "node", "id": 6348765081, "lat": 12.8516643, "lon": 77.6559357, "tags": {"addr:place": "Doddathoguru", "amenity": "school", "isced:level": "2", "name": "GHPS Doddathoguru", "name:kn": "\u0cb8\u0cb0\u0ccd\u0c95\u0cbe\u0cb0\u0cbf \u0cb9\u0cbf\u0cb0\u0cbf\u0caf \u0caa\u0ccd\u0cb0\u0cbe\u0ca5\u0cae\u0cbf\u0c95 \u0cb6\u0cbe\u0cb2\u0cc6 \u0ca6\u0cca\u0ca1\u0ccd\u0ca1\u0ca4\u0ccb\u0c97\u0cc2\u0cb0\u0cc1", "operator": "Department of Primary and Secondary Education", "operator:type": "government", "operator:wikidata": "Q111467381", "school": "primary"}}, {"type": "node", "id": 6348771620, "lat": 12.8621626, "lon": 77.6750136, "tags": {"addr:place": "Doddanagamangala", "amenity": "school", "isced:level": "2", "name": "GHPS Doddanagamangala", "name:kn": "\u0cb8\u0cb0\u0ccd\u0c95\u0cbe\u0cb0\u0cbf \u0cb9\u0cbf\u0cb0\u0cbf\u0caf \u0caa\u0ccd\u0cb0\u0cbe\u0ca5\u0cae\u0cbf\u0c95 \u0cb6\u0cbe\u0cb2\u0cc6 \u0ca6\u0cca\u0ca1\u0ccd\u0ca1\u0ca8\u0cbe\u0c97\u0cae\u0c82\u0c97\u0cb2", "operator": "Department of Primary and Secondary Education", "operator:type": "government", "operator:wikidata": "Q111467381", "school": "primary"}}, {"type": "node", "id": 6348775331, "lat": 12.8887812, "lon": 77.6158231, "tags": {"addr:place": "Devarachikkana Halli", "amenity": "school", "isced:level": "2", "name": "GHPS Devarachikkana Halli", "name:kn": "\u0cb8\u0cb0\u0ccd\u0c95\u0cbe\u0cb0\u0cbf \u0cb9\u0cbf\u0cb0\u0cbf\u0caf \u0caa\u0ccd\u0cb0\u0cbe\u0ca5\u0cae\u0cbf\u0c95 \u0cb6\u0cbe\u0cb2\u0cc6 \u0ca6\u0cc7\u0cb5\u0cb0\u0c9a\u0cbf\u0c95\u0ccd\u0c95\u0ca8\u0cb9\u0cb3\u0ccd\u0cb3\u0cbf", "operator": "Department of Education", "school": "primary"}}, {"type": "node", "id": 6348821760, "lat": 12.896159, "lon": 77.6243027, "tags": {"amenity": "school", "isced:level": "2", "name": "GMPS Hongassandra", "name:kn": "\u0cb8\u0cb0\u0ccd\u0c95\u0cbe\u0cb0\u0cbf \u0cae\u0cbe\u0ca6\u0cb0\u0cbf \u0caa\u0ccd\u0cb0\u0cbe\u0ca5\u0cae\u0cbf\u0c95 \u0cb6\u0cbe\u0cb2\u0cc6 \u0cb9\u0cca\u0c82\u0c97\u0cb8\u0c82\u0ca6\u0ccd\u0cb0", "operator": "Department of Education", "school": "primary"}}, {"type": "node", "id": 6348823186, "lat": 12.8910839, "lon": 77.627282, "tags": {"addr:place": "Hongasandra", "amenity": "school", "isced:level": "2", "name": "Svs HPS Hongasandra", "name:kn": "\u0c8e\u0cb8\u0ccd\u200c.\u0cb5\u0cbf.\u0c8e\u0cb8\u0ccd\u200c.\u0cb9\u0cbf\u0cb0\u0cbf\u0caf \u0caa\u0ccd\u0cb0\u0cbe\u0ca5\u0cae\u0cbf\u0c95 \u0cb6\u0cbe\u0cb2\u0cc6 \u0cb9\u0cca\u0c82\u0c97\u0cb8\u0c82\u0ca6\u0ccd\u0cb0", "operator": "Department of Education", "school": "primary"}}, {"type": "node", "id": 6349022511, "lat": 12.8814541, "lon": 77.6674463, "tags": {"addr:place": "Parappana Agrahara", "amenity": "school", "isced:level": "2", "name": "GHPS Parappana Agrahara Centra", "name:kn": "\u0cb8\u0cb0\u0ccd\u0c95\u0cbe\u0cb0\u0cbf \u0cb9\u0cbf\u0cb0\u0cbf\u0caf \u0caa\u0ccd\u0cb0\u0cbe\u0ca5\u0cae\u0cbf\u0c95 \u0cb6\u0cbe\u0cb2\u0cc6 \u0caa\u0cb0\u0caa\u0ccd\u0caa\u0ca8 \u0c85\u0c97\u0ccd\u0cb0\u0cb9\u0cbe\u0cb0", "operator": "Department of Education", "school": "primary"}}, {"type": "node", "id": 6349076476, "lat": 12.8774636, "lon": 77.6474284}, {"type": "node", "id": 6349202586, "lat": 12.9006028, "lon": 77.6201862, "tags": {"addr:place": "Kodichikkana Halli", "amenity": "school", "isced:level": "2", "name": "GHPS Kodichikkana Halli", "name:kn": "\u0cb8\u0cb0\u0ccd\u0c95\u0cbe\u0cb0\u0cbf \u0cb9\u0cbf\u0cb0\u0cbf\u0caf \u0caa\u0ccd\u0cb0\u0cbe\u0ca5\u0cae\u0cbf\u0c95 \u0cb6\u0cbe\u0cb2\u0cc6 \u0c95\u0ccb\u0ca1\u0cbf\u0c9a\u0cbf\u0c95\u0ccd\u0c95\u0ca8\u0cb9\u0cb3\u0ccd\u0cb3\u0cbf", "operator": "Department of Education", "school": "primary"}}, {"type": "node", "id": 6349339627, "lat": 12.8957283, "lon": 77.6417421}, {"type": "node", "id": 6349440643, "lat": 12.8584295, "lon": 77.6354127, "tags": {"addr:place": "Vittasandra", "amenity": "school", "isced:level": "2", "name": "GHPS Vittasandra", "name:kn": "\u0cb8\u0cb0\u0ccd\u0c95\u0cbe\u0cb0\u0cbf \u0cb9\u0cbf\u0cb0\u0cbf\u0caf \u0caa\u0ccd\u0cb0\u0cbe\u0ca5\u0cae\u0cbf\u0c95 \u0cb6\u0cbe\u0cb2\u0cc6 \u0cb5\u0cbf\u0c9f\u0ccd\u0c9f\u0cb8\u0c82\u0ca6\u0ccd\u0cb0", "operator": "Department of Education", "school": "primary"}}, {"type": "node", "id": 6349546960, "lat": 12.9042134, "lon": 77.6350512, "tags": {"addr:place": "Mangammana Palya", "amenity": "school", "isced:level": "2", "name": "GUHPS Mangammana Palya", "name:kn": "\u0cb8\u0cb0\u0ccd\u0c95\u0cbe\u0cb0\u0cbf \u0c89\u0cb0\u0ccd\u0ca6\u0cc1 \u0cb9\u0cbf\u0cb0\u0cbf\u0caf \u0caa\u0ccd\u0cb0\u0cbe\u0ca5\u0cae\u0cbf\u0c95 \u0cb6\u0cbe\u0cb2\u0cc6 \u0cae\u0c82\u0c97\u0cae\u0ccd\u0cae\u0ca8 \u0caa\u0cbe\u0cb3\u0ccd\u0caf", "operator": "Department of Primary and Secondary Education", "operator:type": "government", "operator:wikidata": "Q111467381", "school": "primary"}}, {"type": "node", "id": 6364133318, "lat": 12.8539353, "lon": 77.6717128, "tags": {"addr:place": "\u0c97\u0ccb\u0cb5\u0cbf\u0c82\u0ca6\u0cb6\u0cc6\u0c9f\u0ccd\u0c9f\u0cbf \u0caa\u0cbe\u0cb3\u0ccd\u0caf", "amenity": "school", "isced:level": "2", "name": "GHPS Govindashetty Palya", "name:kn": "\u0cb8\u0cb0\u0ccd\u0c95\u0cbe\u0cb0\u0cbf \u0cb9\u0cbf\u0cb0\u0cbf\u0caf \u0caa\u0ccd\u0cb0\u0cbe\u0ca5\u0cae\u0cbf\u0c95 \u0cb6\u0cbe\u0cb2\u0cc6 \u0c97\u0ccb\u0cb5\u0cbf\u0c82\u0ca6\u0cb6\u0cc6\u0c9f\u0ccd\u0c9f\u0cbf \u0caa\u0cbe\u0cb3\u0ccd\u0caf", "operator": "Department of Primary and Secondary Education", "operator:type": "government", "operator:wikidata": "Q111467381", "school": "primary"}}, {"type": "node", "id": 6387329957, "lat": 12.8893736, "lon": 77.6969669}, {"type": "node", "id": 6422320802, "lat": 12.8661456, "lon": 77.6585897, "tags": {"addr:place": "Beratena Agrahara", "amenity": "school", "isced:level": "3", "name": "Act Secondary HPS , Beratena Agrahara", "name:kn": "\u0c86\u0c95\u0ccd\u0c9f\u0ccd \u0cb8\u0cc6\u0c95\u0cc6\u0c82\u0ca1\u0cb0\u0cbf \u0cb9\u0cbf\u0cb0\u0cbf\u0caf \u0caa\u0ccd\u0cb0\u0cbe\u0ca5\u0cae\u0cbf\u0c95 \u0cb6\u0cbe\u0cb2\u0cc6 \u0cac\u0cc6\u0cb0\u0c9f\u0cc6\u0ca8 \u0c85\u0c97\u0ccd\u0cb0\u0cb9\u0cbe\u0cb0", "operator": "Private Un-Aided", "school": "Higher Secondary"}}, {"type": "node", "id": 6422335745, "lat": 12.8685514, "lon": 77.6557291, "tags": {"addr:place": "Beratena Agrahara", "amenity": "school", "isced:level": "3", "name": "St Joseph Eng Sch Hosur Road, Beratena Agrahara", "name:kn": "\u0cb8\u0cc6\u0c82\u0c9f\u0ccd\u200c \u0c9c\u0ccb\u0cb8\u0cc6\u0cab\u0ccd \u0c86\u0c82\u0c97\u0ccd\u0cb2 \u0cb6\u0cbe\u0cb2\u0cc6 \u0cb9\u0cca\u0cb8\u0cc2\u0cb0\u0ccd \u0cb0\u0cb8\u0ccd\u0ca4\u0cc6,\u0cac\u0cc6\u0cb0\u0c9f\u0cc6\u0ca8 \u0c85\u0c97\u0ccd\u0cb0\u0cb9\u0cbe\u0cb0", "operator": "Private Un-Aided", "school": "Higher secondary"}}, {"type": "node", "id": 6422425448, "lat": 12.8757154, "lon": 77.6568415, "tags": {"addr:place": "Beratena Agrahara", "amenity": "school", "isced:level": "2", "name": "Oxford School, Beratena Agrahara", "name:kn": "\u0c86\u0c95\u0ccd\u0cb8\u0ccd\u0cab\u0cb0\u0ccd\u0ca1\u0ccd \u0cb6\u0cbe\u0cb2\u0cc6,\u0cac\u0cc6\u0cb0\u0c9f\u0cc6\u0ca8 \u0c85\u0c97\u0ccd\u0cb0\u0cb9\u0cbe\u0cb0", "operator": "Higher primary"}}, {"type": "node", "id": 6422436022, "lat": 12.8984964, "lon": 77.6203713, "tags": {"addr:place": "Bommanahalli", "amenity": "school", "isced:level": "3", "name": "Silicon City HPS Bommana Halli", "name:kn": "\u0cb8\u0cbf\u0cb2\u0cbf\u0c95\u0cbe\u0ca8\u0ccd \u0cb8\u0cbf\u0c9f\u0cbf \u0caa\u0ccd\u0cb0\u0ccc\u0ca2\u0cb6\u0cbe\u0cb2\u0cc6 \u0cac\u0cca\u0cae\u0ccd\u0cae\u0ca8\u0cb9\u0cb3\u0ccd\u0cb3\u0cbf", "operator": "Private Un-Aided", "school": "Higher Secondary"}}, {"type": "node", "id": 6422582704, "lat": 12.8996038, "lon": 77.6515434, "tags": {"addr:place": "BommanaHalli", "amenity": "school", "isced:level": "3", "name": "Chinmaya Vidya Mandira, Bommana Halli", "name:kn": "\u0c9a\u0cbf\u0ca8\u0ccd\u0cae\u0caf \u0cb5\u0cbf\u0ca6\u0ccd\u0caf\u0cbe \u0cae\u0c82\u0ca6\u0cbf\u0cb0, \u0cac\u0cca\u0cae\u0ccd\u0cae\u0ca8\u0cb9\u0cb3\u0ccd\u0cb3\u0cbf", "operator": "Private Un-Aided", "school": "Higher Secondary"}}, {"type": "node", "id": 6422593981, "lat": 12.9043475, "lon": 77.6205177, "tags": {"addr:place": "BommanaHalli", "amenity": "school", "isced:level": "3", "name": "EHPS New Francis, Bommana Halli", "name:kn": "\u0c86\u0c82\u0c97\u0ccd\u0cb2 \u0cb9\u0cbf\u0cb0\u0cbf\u0caf \u0caa\u0ccd\u0cb0\u0cbe\u0ca5\u0cae\u0cbf\u0c95 \u0cb6\u0cbe\u0cb2\u0cc6 \u0ca8\u0ccd\u0caf\u0cc2 \u0cab\u0ccd\u0cb0\u0cbe\u0ca8\u0ccd\u0cb8\u0cbf\u0cb8\u0ccd, \u0cac\u0cca\u0cae\u0ccd\u0cae\u0ca8\u0cb9\u0cb3\u0ccd\u0cb3\u0cbf", "operator": "Private Un-Aided", "school": "Higher Secondary"}}, {"type": "node", "id": 6422614289, "lat": 12.8901178, "lon": 77.6409735, "tags": {"addr:place": "Bommanahalli", "amenity": "school", "isced:level": "3", "name": "New Bharat International Kudlu Gate, Bommana Halli", "name:kn": "\u0ca8\u0ccd\u0caf\u0cc2 \u0cad\u0cb0\u0ca4\u0ccd \u0c87\u0c82\u0c9f\u0cb0\u0ccd\u0ca8\u0ccd\u0caf\u0cbe\u0cb7\u0ca8\u0cb2\u0ccd \u0c95\u0cc1\u0ca1\u0ccd\u0cb2\u0cc1 \u0c97\u0cc7\u0c9f\u0ccd ,\u0cac\u0cca\u0cae\u0ccd\u0cae\u0ca8\u0cb9\u0cb3\u0ccd\u0cb3\u0cbf", "operator": "Private Un-Aided", "school": "Higher Secondary"}}, {"type": "node", "id": 6430430717, "lat": 12.9037178, "lon": 77.6257972, "tags": {"addr:place": "Bommanahalli", "amenity": "school", "isced:level": "2", "name": "Lorven Pub Sch, Bommanahalli", "name:kn": "\u0cb2\u0cbe\u0cb0\u0ccd\u0cb5\u0cc6\u0ca8\u0ccd \u0caa\u0cac\u0ccd\u0cb2\u0cbf\u0c95\u0ccd \u0cb6\u0cbe\u0cb2\u0cc6,\u0cac\u0cca\u0cae\u0ccd\u0cae\u0ca8\u0cb9\u0cb3\u0ccd\u0cb3\u0cbf", "operator": "Private Un-Aided", "school": "Higher Primary"}}, {"type": "node", "id": 6430475977, "lat": 12.8826959, "lon": 77.6265059, "tags": {"addr:place": "Begur", "amenity": "school", "isced:level": "3", "name": "The Selony LPS Begur", "name:kn": "\u0ca6\u0cbf \u0cb8\u0cc6\u0cb2\u0ccb\u0ca8\u0cbf \u0c95\u0cbf\u0cb0\u0cbf\u0caf \u0caa\u0ccd\u0cb0\u0cbe\u0ca5\u0cae\u0cbf\u0c95 \u0cb6\u0cbe\u0cb2\u0cc6 \u0cac\u0cc7\u0c97\u0cc2\u0cb0\u0cc1", "operator": "Private Un-Aided", "school": "Higher Secondary"}}, {"type": "node", "id": 6430493134, "lat": 12.8780562, "lon": 77.6167931, "tags": {"addr:place": "Begur", "amenity": "school", "isced": "1", "name": "St Pauls School, Begur", "name:kn": "\u0cb8\u0cc6\u0c82\u0c9f\u0ccd \u0caa\u0cbe\u0cb2\u0ccd\u0cb8\u0ccd \u0cb6\u0cbe\u0cb2\u0cc6,\u0cac\u0cc7\u0c97\u0cc2\u0cb0\u0cc1", "operator": "Private Un-Aided", "school": "primary"}}, {"type": "node", "id": 6430508829, "lat": 12.8376165, "lon": 77.6197366, "tags": {"addr:place": "Begur", "amenity": "school", "isced:level": "3", "name": "Preethidhama, Begur", "name:kn": "\u0caa\u0ccd\u0cb0\u0cc0\u0ca4\u0cbf\u0ca7\u0cbe\u0cae,\u0cac\u0cc7\u0c97\u0cc2\u0cb0\u0cc1", "operator": "Private Un-Aided", "school": "Higher Secondary"}}, {"type": "node", "id": 6430517785, "lat": 12.8755953, "lon": 77.6388735, "tags": {"addr:place": "Begur", "amenity": "school", "isced:level": "3", "name": "Priyadarshini School, Begur", "name:kn": "\u0caa\u0ccd\u0cb0\u0cbf\u0caf\u0ca6\u0cb0\u0ccd\u0cb6\u0cbf\u0ca8\u0cbf,\u0cb6\u0cbe\u0cb2\u0cc6 \u0cac\u0cc7\u0c97\u0cc2\u0cb0\u0cc1", "operator": "Private Un-Aided", "school": "Higher Secondary"}}, {"type": "node", "id": 6430532645, "lat": 12.8714779, "lon": 77.6355626, "tags": {"addr:place": "Begur", "amenity": "school", "isced:level": "3", "name": "Cresent Eng School, Begur", "name:kn": "\u0c95\u0ccd\u0cb0\u0cc6\u0cb8\u0cc6\u0c82\u0c9f\u0ccd \u0c86\u0c82\u0c97\u0ccd\u0cb2 \u0cb6\u0cbe\u0cb2\u0cc6,\u0cac\u0cc7\u0c97\u0cc2\u0cb0\u0cc1", "operator": "Private Un-Aided", "school": "Higher Secondary"}}, {"type": "node", "id": 6437573479, "lat": 12.8706196, "lon": 77.638, "tags": {"addr:place": "Begur", "amenity": "school", "isced:level": "3", "name": "Little Angel Eng School, Begur", "name:kn": "\u0cb2\u0cbf\u0c9f\u0cb2\u0ccd \u0c8f\u0c82\u0c9c\u0cb2\u0ccd \u0c86\u0c82\u0c97\u0ccd\u0cb2 \u0cb6\u0cbe\u0cb2\u0cc6,\u0cac\u0cc7\u0c97\u0cc2\u0cb0\u0cc1", "operator": "Private Un-Aided", "school": "Higher Secondary"}}, {"type": "node", "id": 6437580355, "lat": 12.8707092, "lon": 77.6384891, "tags": {"addr:place": "Begur", "amenity": "school", "isced:level": "1", "name": "GLPS Subhash Nagar, Begur", "name:kn": "\u0cb8\u0cb0\u0ccd\u0c95\u0cbe\u0cb0\u0cbf \u0c95\u0cbf\u0cb0\u0cbf\u0caf \u0caa\u0ccd\u0cb0\u0cbe\u0ca5\u0cae\u0cbf\u0c95 \u0cb6\u0cbe\u0cb2\u0cc6 \u0cb8\u0cc1\u0cad\u0cbe\u0cb7\u0ccd \u0ca8\u0c97\u0cb0,\u0cac\u0cc7\u0c97\u0cc2\u0cb0\u0cc1", "operator": "Department of Education", "school": "Primary Only"}}, {"type": "node", "id": 6437600296, "lat": 12.8514983, "lon": 77.6204097, "tags": {"addr:place": "Begur", "amenity": "school", "isced:level": "1", "name": "GLPS Mylasandra, Begur", "name:kn": "\u0cb8\u0cb0\u0ccd\u0c95\u0cbe\u0cb0\u0cbf \u0c95\u0cbf\u0cb0\u0cbf\u0caf \u0caa\u0ccd\u0cb0\u0cbe\u0ca5\u0cae\u0cbf\u0c95 \u0cb6\u0cbe\u0cb2\u0cc6 \u0cae\u0cc8\u0cb2\u0cb8\u0c82\u0ca6\u0ccd\u0cb0, \u0cac\u0cc7\u0c97\u0cc2\u0cb0\u0cc1", "operator": "Department of Education", "school": "Primary Only"}}, {"type": "node", "id": 6437760193, "lat": 12.8808502, "lon": 77.6370167, "tags": {"addr:place": "Begur", "amenity": "school", "isced:level": "2", "name": "Jnanajyothi Eng School, Begur", "name:kn": "\u0c9c\u0ccd\u0c9e\u0cbe\u0ca8\u0c9c\u0ccd\u0caf\u0ccb\u0ca4\u0cbf \u0c86\u0c82\u0c97\u0ccd\u0cb2 \u0cb6\u0cbe\u0cb2\u0cc6, \u0cac\u0cc7\u0c97\u0cc2\u0cb0\u0cc1", "operator": "Private Un-Aided", "school": "Higher Primary"}}, {"type": "node", "id": 6437780198, "lat": 12.9013007, "lon": 77.6363305, "tags": {"addr:place": "BommanaHalli Cmc", "amenity": "school", "isced:level": "2", "name": "Tilak English School, Bommana Halli Cmc", "name:kn": "\u0ca4\u0cbf\u0cb2\u0c95\u0ccd \u0c86\u0c82\u0c97\u0ccd\u0cb2 \u0cb6\u0cbe\u0cb2\u0cc6, \u0cac\u0cca\u0cae\u0ccd\u0cae\u0ca8\u0cb9\u0cb3\u0ccd\u0cb3\u0cbf \u0cb8\u0cbf.\u0c8e\u0c82.\u0cb8\u0cbf", "operator": "Private Un-Aided", "school": "Higher Primary"}}, {"type": "node", "id": 6438094032, "lat": 12.8655289, "lon": 77.6471089, "tags": {"addr:place": "Basapura", "amenity": "school", "isced:level": "1", "name": "GLPS Basapura, Basapura", "name:kn": "\u0cb8\u0cb0\u0ccd\u0c95\u0cbe\u0cb0\u0cbf \u0c95\u0cbf\u0cb0\u0cbf\u0caf \u0caa\u0ccd\u0cb0\u0cbe\u0ca5\u0cae\u0cbf\u0c95 \u0cb6\u0cbe\u0cb2\u0cc6,\u0cac\u0cb8\u0cbe\u0caa\u0cc1\u0cb0", "operator": "Department of Education", "school": "primary"}}, {"type": "node", "id": 6438097400, "lat": 12.8657376, "lon": 77.645392, "tags": {"addr:place": "Basapura", "amenity": "school", "isced:level": "1", "name": "The Paradise Residential Sch, Basapura", "name:kn": "\u0caa\u0ccd\u0caf\u0cbe\u0cb0\u0ca1\u0cc8\u0cb8\u0ccd \u0cb5\u0cb8\u0ca4\u0cbf \u0cb6\u0cbe\u0cb2\u0cc6,\u0cac\u0cb8\u0cbe\u0caa\u0cc1\u0cb0", "operator": "Private Un-Aided", "school": "primary"}}, {"type": "node", "id": 6438105185, "lat": 12.8801561, "lon": 77.6341829, "tags": {"addr:place": "Chikkabegur", "amenity": "school", "isced:level": "1", "name": "GLPS Chikkabegur", "name:kn": "\u0cb8\u0cb0\u0ccd\u0c95\u0cbe\u0cb0\u0cbf \u0c95\u0cbf\u0cb0\u0cbf\u0caf \u0caa\u0ccd\u0cb0\u0cbe\u0ca5\u0cae\u0cbf\u0c95 \u0cb6\u0cbe\u0cb2\u0cc6 \u0c9a\u0cbf\u0c95\u0ccd\u0c95\u0cac\u0cc7\u0c97\u0cc2\u0cb0\u0cc1", "operator": "Department of Education", "school": "primary"}}, {"type": "node", "id": 6438107328, "lat": 12.8818317, "lon": 77.6358456, "tags": {"addr:place": "Chikkabegur", "amenity": "school", "isced:level": "3", "name": "Begur Channarayappa Ramiya, Chikkabegur", "name:kn": "\u0cac\u0cc7\u0c97\u0cc2\u0cb0\u0cc1 \u0c9a\u0ca8\u0ccd\u0ca8\u0cbe\u0cb0\u0cbe\u0caf\u0caa\u0ccd\u0caa \u0cb0\u0cbe\u0cae\u0caf,\u0c9a\u0cbf\u0c95\u0ccd\u0c95\u0cac\u0cc7\u0c97\u0cc2\u0cb0\u0cc1", "operator": "Private Un-Aided", "school": "Higher Secondary"}}, {"type": "node", "id": 6438110969, "lat": 12.8575245, "lon": 77.6534136, "tags": {"addr:place": "Chikkatoru", "amenity": "school", "isced:level": "1", "name": "GLPS Chikkatoru", "name:kn": "\u0cb8\u0cb0\u0ccd\u0c95\u0cbe\u0cb0\u0cbf \u0c95\u0cbf\u0cb0\u0cbf\u0caf \u0caa\u0ccd\u0cb0\u0cbe\u0ca5\u0cae\u0cbf\u0c95 \u0cb6\u0cbe\u0cb2\u0cc6 \u0c9a\u0cbf\u0c95\u0ccd\u0c95\u0ca4\u0ccb\u0cb0\u0cc1", "operator": "Department of Education", "school": "primary"}}, {"type": "node", "id": 6438128850, "lat": 12.8628345, "lon": 77.6508047, "tags": {"addr:place": "Chikkatoru", "amenity": "school", "isced:level": "1", "name": "Pragathi School, Chikkatoru", "name:kn": "\u0caa\u0ccd\u0cb0\u0c97\u0ca4\u0cbf \u0cb6\u0cbe\u0cb2\u0cc6,\u0c9a\u0cbf\u0c95\u0ccd\u0c95\u0ca4\u0ccb\u0cb0\u0cc1", "operator": "Private Un-Aided", "school": "primary"}}, {"type": "node", "id": 6469096365, "lat": 12.854687, "lon": 77.6592678, "tags": {"addr:place": "Doddathoru", "amenity": "school", "isced:level": "3", "name": "Mme Sch Konnappana Agrahara", "name:kn": "\u0c8e\u0c82.\u0c8e\u0c82.\u0c87. \u0c8e\u0cb8\u0ccd.\u0cb8\u0cbf.\u0c8e\u0c9a\u0ccd. \u0c95\u0cca\u0ca8\u0ccd\u0ca8\u0caa\u0ccd\u0caa\u0ca8 \u0c85\u0c97\u0ccd\u0cb0\u0cb9\u0cbe\u0cb0", "operator": "Private Un-Aided", "school": "Higher Secondary"}}, {"type": "node", "id": 6493888851, "lat": 12.8507072, "lon": 77.6529146, "tags": {"addr:place": "Doddathoru", "amenity": "school", "isced:level": "3", "name": "Sacretis School", "name:kn": "\u0cb8\u0cbe\u0c95\u0ccd\u0cb0\u0cc6\u0c9f\u0cbf\u0cb8\u0ccd \u0cb6\u0cbe\u0cb2\u0cc6,\u0ca6\u0cca\u0ca1\u0ccd\u0ca1\u0ca4\u0ccb\u0cb0\u0cc1", "operator": "Private Un-Aided", "school": "Higher Secondary"}}, {"type": "node", "id": 6494081758, "lat": 12.8506548, "lon": 77.6546922, "tags": {"addr:place": "Doddathoru", "amenity": "school", "isced:level": "3", "name": "New Horizon Eng School", "name:kn": "\u0ca8\u0ccd\u0caf\u0cc2 \u0cb9\u0cca\u0cb0\u0cc8\u0c9c\u0ca8\u0ccd \u0c86\u0c82\u0c97\u0ccd\u0cb2 \u0cb6\u0cbe\u0cb2\u0cc6, \u0ca6\u0cca\u0ca1\u0ccd\u0ca1\u0ca4\u0ccb\u0cb0\u0cc1", "operator": "Private Un-Aided", "school": "Higher Secondary"}}, {"type": "node", "id": 6494127493, "lat": 12.8625525, "lon": 77.6783059, "tags": {"addr:place": "Doddanagamangala", "amenity": "school", "isced:level": "3", "name": "St Gasper School", "name:kn": "\u0cb8\u0cc6\u0c82\u0c9f\u0ccd \u0c97\u0ccd\u0caf\u0cbe\u0cb8\u0ccd\u0caa\u0cb0\u0ccd \u0cb6\u0cbe\u0cb2\u0cc6 \u0ca1\u0cca\u0ca1\u0ccd\u0ca1\u0ca8\u0c97\u0cae\u0c82\u0c97\u0cb2", "operator": "Private Un-Aided", "school": "Higher Secondary"}}, {"type": "node", "id": 6494392041, "lat": 12.8775539, "lon": 77.6700895, "tags": {"addr:place": "Ellikunte", "amenity": "school", "isced": "2", "name": "New Shanthiniketan Eng Convent", "name:kn": "\u0ca8\u0ccd\u0caf\u0cc2 \u0cb6\u0cbe\u0c82\u0ca4\u0cbf\u0ca8\u0cbf\u0c95\u0cc7\u0ca4\u0ca8 \u0c86\u0c82\u0c97\u0ccd\u0cb2 \u0c95\u0cbe\u0ca8\u0ccd\u0cb5\u0cc6\u0c82\u0c9f\u0ccd, \u0c8e\u0cb3\u0ccd\u0cb3\u0cc1\u0c95\u0cc1\u0c82\u0c9f\u0cc6", "operator": "Private Un-Aided", "school": "Higher Primary"}}, {"type": "node", "id": 6494555050, "lat": 12.872912, "lon": 77.6581646, "tags": {"addr:place": "Ellikunate", "amenity": "school", "isced:level": "3", "name": "Sujana Convent", "name:kn": "\u0cb8\u0cc1\u0c9c\u0ca8\u0cbe \u0c95\u0cbe\u0ca8\u0ccd\u0cb5\u0cc6\u0c82\u0c9f\u0ccd,\u0c8e\u0cb3\u0ccd\u0cb3\u0cc1\u0c95\u0cc1\u0c82\u0c9f\u0cc6", "operator": "Private Un-Aided", "school": "Higher Secondary"}}, {"type": "node", "id": 6494578596, "lat": 12.8946717, "lon": 77.6234961, "tags": {"amenity": "school", "isced:level": "1", "name": "Bloosom Sch", "name:kn": "\u0cac\u0ccd\u0cb2\u0cbe\u0cb8\u0cae\u0ccd \u0cb6\u0cbe\u0cb2\u0cc6,\u0c8e\u0cb3\u0ccd\u0cb3\u0cc1\u0c95\u0cc1\u0c82\u0c9f\u0cc6", "operator": "Private Un-Aided", "school": "Primary Only"}}, {"type": "node", "id": 6494585382, "lat": 12.8719195, "lon": 77.6590904, "tags": {"addr:place": "Ellikunate", "amenity": "school", "isced:level": "3", "name": "Blue Bel Public School", "name:kn": "\u0cac\u0ccd\u0cb2\u0cc2 \u0cac\u0cc6\u0cb2\u0ccd \u0caa\u0cac\u0ccd\u0cb2\u0cbf\u0c95\u0ccd \u0cb6\u0cbe\u0cb2\u0cc6,\u0c8e\u0cb3\u0ccd\u0cb3\u0cc1\u0c95\u0cc1\u0c82\u0c9f\u0cc6", "operator": "Private Un-Aided", "school": "Higher Secondary"}}, {"type": "node", "id": 6494646365, "lat": 12.8523461, "lon": 77.6709539, "tags": {"addr:place": "Ellikunate", "amenity": "school", "isced:level": "2", "name": "Infont Pub Sch", "name:kn": "\u0c87\u0ca8\u0ccd\u0cab\u0ccb\u0c82\u0c9f\u0ccd \u0caa\u0cac\u0ccd\u0cb2\u0cbf\u0c95\u0ccd \u0cb6\u0cbe\u0cb2\u0cc6,\u0c8e\u0cb3\u0ccd\u0cb3\u0cc1\u0c95\u0cc1\u0c82\u0c9f\u0cc6", "operator": "Private Un-Aided", "school": "Higher Primary"}}, {"type": "node", "id": 6494721727, "lat": 12.9000115, "lon": 77.6452749, "tags": {"addr:place": "Ellikunate", "amenity": "school", "isced:level": "3", "name": "New Madar Teresa", "name:kn": "\u0cb9\u0cca\u0cb8 \u0cae\u0ca6\u0cb0\u0ccd \u0ca4\u0cc6\u0cb0\u0cc7\u0cb8\u0cbe, \u0c8e\u0cb3\u0ccd\u0cb3\u0cc1\u0c95\u0cc1\u0c82\u0c9f\u0cc6", "operator": "Private Un-Aided", "school": "Higher Secondary"}}, {"type": "node", "id": 6496775856, "lat": 12.8892307, "lon": 77.6184252, "tags": {"addr:place": "DevarachikkanaHalli", "amenity": "school", "isced:level": "2", "name": "St Philomina English School", "name:kn": "\u0cb8\u0cc6\u0c82\u0c9f\u0ccd \u0cab\u0cbf\u0cb2\u0ccb\u0cae\u0cc6\u0ca8\u0cbe \u0c86\u0c82\u0c97\u0ccd\u0cb2 \u0cb6\u0cbe\u0cb2\u0cc6 \u0ca6\u0cc7\u0cb5\u0cb0\u0c9a\u0cbf\u0c95\u0ccd\u0c95\u0ca8\u0cb9\u0cb3\u0ccd\u0cb3\u0cbf", "operator": "Private Un-Aided", "school": "Higher Primary"}}, {"type": "node", "id": 6496843480, "lat": 12.8552691, "lon": 77.6701683, "tags": {"addr:place": "Govindashetty Palya", "amenity": "school", "isced:level": "3", "name": "Sham's LPS Govindashetty Palya", "name:kn": "\u0cb6\u0cbe\u0cae\u0ccd\u0cb8\u0ccd \u0c95\u0cbf\u0cb0\u0cbf\u0caf \u0caa\u0ccd\u0cb0\u0cbe\u0ca5\u0cae\u0cbf\u0c95 \u0cb6\u0cbe\u0cb2\u0cc6 \u0c97\u0ccb\u0cb5\u0cbf\u0c82\u0ca6\u0cb6\u0cc6\u0c9f\u0ccd\u0c9f\u0cbf \u0caa\u0cbe\u0cb3\u0ccd\u0caf", "operator": "Private Un-Aided", "school": "Higher Secondary"}}, {"type": "node", "id": 6496853668, "lat": 12.8946113, "lon": 77.633992, "tags": {"addr:place": "Garvebhavi Palya", "amenity": "school", "isced:level": "3", "name": "Bright Future LPS Garvebhavi Palya,", "name:kn": "\u0cac\u0ccd\u0cb0\u0cc8\u0c9f\u0ccd \u0cab\u0ccd\u0caf\u0cc2\u0c9a\u0cb0\u0ccd \u0c95\u0cbf\u0cb0\u0cbf\u0caf \u0caa\u0ccd\u0cb0\u0cbe\u0ca5\u0cae\u0cbf\u0c95 \u0cb6\u0cbe\u0cb2\u0cc6 \u0c97\u0cb0\u0ccd\u0cb5\u0cc6\u0cad\u0cb5\u0cbf \u0caa\u0cbe\u0cb3\u0ccd\u0caf", "operator": "Private Un-Aided", "school": "Higher Secondary"}}, {"type": "node", "id": 6510096877, "lat": 12.8935005, "lon": 77.6442533, "tags": {"addr:place": "Garvebhavi Palya", "amenity": "school", "isced:level": "3", "name": "Mekale HPS", "name:kn": "\u0cae\u0cc6\u0c95\u0cbe\u0cb2\u0cc6 \u0cb9\u0cbf\u0cb0\u0cbf\u0caf \u0caa\u0ccd\u0cb0\u0cbe\u0ca5\u0cae\u0cbf\u0c95 \u0cb6\u0cbe\u0cb2\u0cc6 \u0c97\u0cbe\u0cb0\u0ccd\u0cb5\u0cc7\u0cac\u0cbe\u0cb5\u0cbf \u0caa\u0cbe\u0cb3\u0ccd\u0caf", "operator": "Private Un-Aided", "school": "Higher Secondary"}}, {"type": "node", "id": 6510130946, "lat": 12.891396, "lon": 77.6340809, "tags": {"addr:place": "Garvebhavi Palya", "amenity": "school", "isced:level": "3", "name": "Mathas Education Society", "name:kn": "\u0cae\u0cbe\u0ca4\u0cbe\u0cb8\u0ccd \u0c8e\u0c9c\u0cc1\u0c95\u0cc7\u0cb6\u0ca8\u0ccd \u0cb8\u0cca\u0cb8\u0cc8\u0c9f\u0cbf \u0c97\u0cbe\u0cb0\u0ccd\u0cb5\u0cc7\u0cac\u0cbe\u0cb5\u0cbf \u0caa\u0cbe\u0cb3\u0ccd\u0caf", "operator": "Private Un-Aided", "school": "Higher Secondary"}}, {"type": "node", "id": 6528157314, "lat": 12.8911632, "lon": 77.6359252, "tags": {"addr:place": "Garvebhavi Palya", "amenity": "school", "isced:level": "3", "name": "Rajrajeshwari HS, Garvebhavi Palya", "name:kn": "\u0cb0\u0cbe\u0c9c\u0cb0\u0cbe\u0c9c\u0cc7\u0cb6\u0ccd\u0cb5\u0cb0\u0cbf \u0caa\u0ccd\u0cb0\u0ccc\u0ca2\u0cb6\u0cbe\u0cb2\u0cc6 \u0c97\u0cbe\u0cb0\u0ccd\u0cb5\u0cc7\u0cac\u0cbe\u0cb5\u0cbf \u0caa\u0cbe\u0cb3\u0ccd\u0caf", "operator": "Private Un-Aided", "school": "Higher Secondary"}}, {"type": "node", "id": 6528174729, "lat": 12.8959096, "lon": 77.6352778, "tags": {"addr:place": "Garvebhavi Palya", "amenity": "school", "isced:level": "3", "name": "Ves HS, Garvebhavi Palya", "name:kn": "\u0cb5\u0cbf.\u0c87.\u0c8e\u0cb8\u0ccd. \u0caa\u0ccd\u0cb0\u0ccc\u0ca2\u0cb6\u0cbe\u0cb2\u0cc6 \u0c97\u0cbe\u0cb0\u0ccd\u0cb5\u0cc7\u0cac\u0cbe\u0cb5\u0cbf \u0caa\u0cbe\u0cb3\u0ccd\u0caf", "operator": "Private Un-Aided", "school": "Higher Secondary"}}, {"type": "node", "id": 6528187028, "lat": 12.8915456, "lon": 77.6250974, "tags": {"addr:place": "Hongasandra", "amenity": "school", "isced:level": "3", "name": "Adarsha Edu Centre HPS , Hongasandra 1", "name:kn": "\u0c86\u0ca6\u0cb0\u0ccd\u0cb6 \u0c8e\u0c9c\u0cc1\u0c95\u0cc7\u0cb6\u0ca8\u0ccd \u0cb8\u0cc6\u0c82\u0c9f\u0cb0\u0ccd \u0cb9\u0cbf\u0cb0\u0cbf\u0caf \u0caa\u0ccd\u0cb0\u0cbe\u0ca5\u0cae\u0cbf\u0c95 \u0cb6\u0cbe\u0cb2\u0cc6 \u0cb9\u0cca\u0c82\u0c97\u0cb8\u0c82\u0ca6\u0ccd\u0cb0", "operator": "Private Un-Aided", "school": "Higher Secondary"}}, {"type": "node", "id": 6528190736, "lat": 12.8866375, "lon": 77.6344577, "tags": {"addr:place": "Garvebhavi Palya", "amenity": "school", "isced:level": "2", "name": "Sahyadri EHPS, Garvebhavi Palya", "name:kn": "\u0ca8\u0cb5\u0ccb\u0ca6\u0caf \u0cb5\u0cbf\u0ca6\u0ccd\u0caf\u0cbe\u0cb2\u0caf,\u0c97\u0cbe\u0cb0\u0ccd\u0cb5\u0cc7\u0cac\u0cbe\u0cb5\u0cbf \u0caa\u0cbe\u0cb3\u0ccd\u0caf", "operator": "Private Un-Aided", "school": "Higher Primary"}}, {"type": "node", "id": 6528196662, "lat": 12.8934705, "lon": 77.6307067, "tags": {"addr:place": "Hongasandra", "amenity": "school", "isced:level": "3", "name": "Mother Theresa HS, Hongasandra 1", "name:kn": "\u0cae\u0ca6\u0cb0\u0ccd \u0ca4\u0cc6\u0cb0\u0cc7\u0cb8\u0cbe \u0caa\u0ccd\u0cb0\u0ccc\u0ca2\u0cb6\u0cbe\u0cb2\u0cc6, \u0cb9\u0cca\u0c82\u0c97\u0cb8\u0c82\u0ca6\u0ccd\u0cb0", "operator": "Private Un-Aided", "school": "Higher Secondary"}}, {"type": "node", "id": 6528204204, "lat": 12.8974858, "lon": 77.6302097, "tags": {"addr:place": "Hongasandra", "amenity": "school", "isced:level": "3", "name": "Gnanabharathi HPS , Hongasandra 1", "name:kn": "\u0c9c\u0ccd\u0c9e\u0cbe\u0ca8\u0cad\u0cbe\u0cb0\u0ca4\u0cbf \u0cb9\u0cbf\u0cb0\u0cbf\u0caf \u0caa\u0ccd\u0cb0\u0cbe\u0ca5\u0cae\u0cbf\u0c95 \u0cb6\u0cbe\u0cb2\u0cc6 \u0cb9\u0cca\u0c82\u0c97\u0cb8\u0c82\u0ca6\u0ccd\u0cb0", "operator": "Private Un-Aided", "school": "Higher Secondary"}}, {"type": "node", "id": 6528208622, "lat": 12.8956428, "lon": 77.6265101, "tags": {"addr:place": "Hongasandra", "amenity": "school", "isced:level": "3", "name": "Oxford HPS, Hongasandra 2", "name:kn": "\u0c86\u0c95\u0ccd\u0cb8\u0ccd\u0cab\u0cb0\u0ccd\u0ca1\u0ccd \u0cb9\u0cbf\u0cb0\u0cbf\u0caf \u0caa\u0ccd\u0cb0\u0cbe\u0ca5\u0cae\u0cbf\u0c95 \u0cb6\u0cbe\u0cb2\u0cc6 \u0cb9\u0cca\u0c82\u0c97\u0cb8\u0c82\u0ca6\u0ccd\u0cb0", "operator": "Private Un-Aided", "school": "Higher secondary"}}, {"type": "node", "id": 6528217093, "lat": 12.8999361, "lon": 77.6264784, "tags": {"addr:place": "Hongasandra", "amenity": "school", "isced:level": "2", "name": "Anikethan Pub Sch , Hongasandra 1", "name:kn": "\u0c85\u0ca8\u0cbf\u0c95\u0cc7\u0ca4\u0ca8 \u0caa\u0cac\u0ccd\u0cb2\u0cbf\u0c95\u0ccd \u0c8e\u0cb8\u0ccd.\u0cb8\u0cbf.\u0c8e\u0c9a\u0ccd \u0cb9\u0cca\u0c82\u0c97\u0cb8\u0c82\u0ca6\u0ccd\u0cb0", "operator": "Private Un-Aided", "school": "Higher Primary"}}, {"type": "node", "id": 6536665928, "lat": 12.8507016, "lon": 77.6709723, "tags": {"addr:place": "Konappana Agrahara", "amenity": "school", "isced:level": "3", "name": "Silicon Valley School, Konappana Agrahara", "name:kn": "\u0cb8\u0cbf\u0cb2\u0cbf\u0c95\u0cbe\u0ca8\u0ccd \u0cb5\u0ccd\u0caf\u0cbe\u0cb2\u0cbf \u0cb6\u0cbe\u0cb2\u0cc6, \u0c95\u0cca\u0ca8\u0cbe\u0caa\u0ccd\u0caa\u0ca8\u0cbe \u0c85\u0c97\u0ccd\u0cb0\u0cb9\u0cbe\u0cb0", "operator": "Private Un-Aided", "school": "Higher Secondary"}}, {"type": "node", "id": 6536695625, "lat": 12.8517345, "lon": 77.668652, "tags": {"addr:place": "Konappana Agrahara", "amenity": "school", "isced:level": "2", "name": "Arunodaya Vidya Samsthe, Konappana Agrahara", "name:kn": "\u0c85\u0cb0\u0cc1\u0ca8\u0cca\u0ca6\u0caf \u0cb5\u0cbf\u0ca6\u0ccd\u0caf\u0cbe \u0cb8\u0c82\u0cb8\u0ccd\u0ca5\u0cc6, \u0c95\u0cca\u0ca8\u0cbe\u0caa\u0ccd\u0caa \u0c85\u0c97\u0ccd\u0cb0\u0cb9\u0cbe\u0cb0", "operator": "Private Un-Aided", "school": "Higher Primary"}}, {"type": "node", "id": 6745433500, "lat": 12.8717726, "lon": 77.6714141, "tags": {"addr:place": "Naganathapura", "amenity": "school", "isced:level": "3", "name": "BES Naganathapura", "name:kn": "\u0cac\u0cbf.\u0c87.\u0c8e\u0cb8\u0ccd \u0ca8\u0cbe\u0c97\u0ca8\u0cbe\u0ca5\u0caa\u0cc1\u0cb0, \u0ca8\u0cbe\u0c97\u0ca8\u0cbe\u0ca5\u0caa\u0cc1\u0cb0", "operator": "Private Un-Aided", "school": "Higher Secondary"}}, {"type": "node", "id": 6745434171, "lat": 12.8717058, "lon": 77.6687097, "tags": {"addr:place": "Naganathapura", "amenity": "school", "isced:level": "2", "name": "Sahana Vidya Mandira", "name:kn": "\u0cb8\u0cb9\u0ca8\u0cbe \u0cb5\u0cbf\u0ca6\u0ccd\u0caf\u0cbe \u0cae\u0c82\u0ca6\u0cbf\u0cb0, \u0ca8\u0cbe\u0c97\u0ca8\u0cbe\u0ca5\u0caa\u0cc1\u0cb0", "operator": "Private Un-Aided", "school": "Higher Primary"}}, {"type": "node", "id": 6745841071, "lat": 12.8821255, "lon": 77.6559921, "tags": {"addr:place": "Parappana Agrahara", "amenity": "school", "isced:level": "3", "name": "Shree Vidyanikethan", "name:kn": "\u0cb6\u0ccd\u0cb0\u0cc0 \u0cb5\u0cbf\u0ca6\u0ccd\u0caf\u0cbe\u0ca8\u0cbf\u0c95\u0cc7\u0ca4\u0ca8, \u0caa\u0cb0\u0caa\u0ccd\u0caa\u0ca8 \u0c85\u0c97\u0ccd\u0cb0\u0cb9\u0cbe\u0cb0", "operator": "Private Un-Aided", "school": "Higher Secondary"}}, {"type": "node", "id": 6745848093, "lat": 12.8817347, "lon": 77.6597705, "tags": {"addr:place": "Parappana Agrahara", "amenity": "school", "isced:level": "1", "name": "GLPS Parappana Agrahara", "name:kn": "\u0cb8\u0cb0\u0ccd\u0c95\u0cbe\u0cb0\u0cbf \u0c95\u0cbf\u0cb0\u0cbf\u0caf \u0caa\u0ccd\u0cb0\u0cbe\u0ca5\u0cae\u0cbf\u0c95 \u0cb6\u0cbe\u0cb2\u0cc6 \u0caa\u0cb0\u0caa\u0ccd\u0caa\u0ca8 \u0c85\u0c97\u0ccd\u0cb0\u0cb9\u0cbe\u0cb0", "operator": "Department of Education", "school": "primary"}}, {"type": "node", "id": 7205501030, "lat": 12.8475016, "lon": 77.628279}, {"type": "node", "id": 7205501031, "lat": 12.847087, "lon": 77.6283263}, {"type": "node", "id": 7205501037, "lat": 12.8463284, "lon": 77.6298504}, {"type": "node", "id": 7217875560, "lat": 12.8858162, "lon": 77.6983145}, {"type": "node", "id": 7217875561, "lat": 12.8858927, "lon": 77.6977812}, {"type": "node", "id": 7298320864, "lat": 12.8900763, "lon": 77.6673075}, {"type": "node", "id": 7298320865, "lat": 12.8906207, "lon": 77.666629}, {"type": "node", "id": 7298320866, "lat": 12.8914312, "lon": 77.6672029}, {"type": "node", "id": 7298320871, "lat": 12.8906887, "lon": 77.6681015}, {"type": "node", "id": 7298370288, "lat": 12.9040621, "lon": 77.665835}, {"type": "node", "id": 7331742667, "lat": 12.819539, "lon": 77.6195079}, {"type": "node", "id": 7331742668, "lat": 12.8195586, "lon": 77.6194932}, {"type": "node", "id": 7331742669, "lat": 12.8206292, "lon": 77.6199181}, {"type": "node", "id": 7331742673, "lat": 12.8204295, "lon": 77.621706}, {"type": "node", "id": 7331742676, "lat": 12.8205132, "lon": 77.6212808}, {"type": "node", "id": 7331742678, "lat": 12.8206204, "lon": 77.6194999}, {"type": "node", "id": 7331742688, "lat": 12.8201861, "lon": 77.6219117}, {"type": "node", "id": 7331742696, "lat": 12.8201943, "lon": 77.6223224}, {"type": "node", "id": 7331742697, "lat": 12.8197436, "lon": 77.6222565}, {"type": "node", "id": 7331742701, "lat": 12.819603, "lon": 77.6220317}, {"type": "node", "id": 7331742710, "lat": 12.8194082, "lon": 77.6217201}, {"type": "node", "id": 7463285999, "lat": 12.8476695, "lon": 77.6263729}, {"type": "node", "id": 7465668862, "lat": 12.8484091, "lon": 77.62644}, {"type": "node", "id": 8293160680, "lat": 12.9038994, "lon": 77.6652746}, {"type": "node", "id": 8293160681, "lat": 12.903714, "lon": 77.6652458}, {"type": "node", "id": 8293180240, "lat": 12.9033492, "lon": 77.6652025}, {"type": "node", "id": 8293180241, "lat": 12.9033771, "lon": 77.6656151}, {"type": "node", "id": 8293180242, "lat": 12.9034895, "lon": 77.6658913}, {"type": "node", "id": 8293180243, "lat": 12.9036856, "lon": 77.6659155}, {"type": "node", "id": 8375016087, "lat": 12.8201136, "lon": 77.6194959}, {"type": "node", "id": 8386689520, "lat": 12.8961122, "lon": 77.6787958}, {"type": "node", "id": 8386689521, "lat": 12.8958507, "lon": 77.6794127}, {"type": "node", "id": 8386689522, "lat": 12.8954925, "lon": 77.6792625}, {"type": "node", "id": 8386689523, "lat": 12.8958193, "lon": 77.6785249}, {"type": "node", "id": 8416425760, "lat": 12.8251191, "lon": 77.6823602}, {"type": "node", "id": 8427799166, "lat": 12.8960923, "lon": 77.6787774, "tags": {"barrier": "gate"}}, {"type": "node", "id": 8427799176, "lat": 12.8978479, "lon": 77.684279}, {"type": "node", "id": 8427799177, "lat": 12.8978296, "lon": 77.6843836}, {"type": "node", "id": 8427799178, "lat": 12.8974954, "lon": 77.6843611}, {"type": "node", "id": 8427799179, "lat": 12.8974229, "lon": 77.6853114}, {"type": "node", "id": 8427799180, "lat": 12.8979734, "lon": 77.6852929}, {"type": "node", "id": 8427799181, "lat": 12.898057, "lon": 77.6843219}, {"type": "node", "id": 8427826423, "lat": 12.8979525, "lon": 77.6843004, "tags": {"barrier": "gate"}}, {"type": "node", "id": 8427826432, "lat": 12.8974843, "lon": 77.6830418}, {"type": "node", "id": 8427826433, "lat": 12.8971052, "lon": 77.6829908}, {"type": "node", "id": 8427826434, "lat": 12.8970634, "lon": 77.6836748}, {"type": "node", "id": 8427826435, "lat": 12.897385, "lon": 77.6837043}, {"type": "node", "id": 8566795376, "lat": 12.8977969, "lon": 77.6720799}, {"type": "node", "id": 8566795377, "lat": 12.8977028, "lon": 77.6728953}, {"type": "node", "id": 8566795378, "lat": 12.8944424, "lon": 77.6736383}, {"type": "node", "id": 8566795380, "lat": 12.8953053, "lon": 77.6717205}, {"type": "node", "id": 8566795381, "lat": 12.8960504, "lon": 77.6719754}, {"type": "node", "id": 9602498717, "lat": 12.8481064, "lon": 77.6282951}, {"type": "node", "id": 9794050401, "lat": 12.8999084, "lon": 77.6948158}, {"type": "node", "id": 9838468073, "lat": 12.8295361, "lon": 77.6816955}, {"type": "node", "id": 9838468074, "lat": 12.8291959, "lon": 77.6828644}, {"type": "node", "id": 9838468075, "lat": 12.8297347, "lon": 77.6830294}, {"type": "node", "id": 9838468076, "lat": 12.829991, "lon": 77.6815796}, {"type": "node", "id": 9970369532, "lat": 12.8450883, "lon": 77.701208}, {"type": "node", "id": 9970369533, "lat": 12.8450936, "lon": 77.7010256}, {"type": "node", "id": 9970369534, "lat": 12.8429178, "lon": 77.7010041}, {"type": "node", "id": 9970369535, "lat": 12.8429073, "lon": 77.7014548}, {"type": "node", "id": 9970369536, "lat": 12.8435664, "lon": 77.7015513}, {"type": "node", "id": 9970369537, "lat": 12.843786, "lon": 77.7023506}, {"type": "node", "id": 9970369538, "lat": 12.843786, "lon": 77.7031606}, {"type": "node", "id": 9970369539, "lat": 12.8443561, "lon": 77.7031392}, {"type": "node", "id": 9970369540, "lat": 12.844989, "lon": 77.7032465}, {"type": "node", "id": 9970369541, "lat": 12.8455643, "lon": 77.7013206}, {"type": "node", "id": 9970369542, "lat": 12.8409512, "lon": 77.7064383}, {"type": "node", "id": 9970369543, "lat": 12.8406165, "lon": 77.7064115}, {"type": "node", "id": 9970369544, "lat": 12.8405642, "lon": 77.7073932}, {"type": "node", "id": 9970369545, "lat": 12.840674, "lon": 77.7079242}, {"type": "node", "id": 9970369546, "lat": 12.8408205, "lon": 77.7096462}, {"type": "node", "id": 9970369547, "lat": 12.8401928, "lon": 77.7096462}, {"type": "node", "id": 9970369548, "lat": 12.8402347, "lon": 77.7086323}, {"type": "node", "id": 9970369549, "lat": 12.8395443, "lon": 77.7086323}, {"type": "node", "id": 9970369550, "lat": 12.8395861, "lon": 77.7061754}, {"type": "node", "id": 9970369551, "lat": 12.8399993, "lon": 77.7061808}, {"type": "node", "id": 9970369552, "lat": 12.8400203, "lon": 77.7058589}, {"type": "node", "id": 9970369553, "lat": 12.8409879, "lon": 77.7056283}, {"type": "node", "id": 10185153752, "lat": 12.8203611, "lon": 77.6194979}, {"type": "node", "id": 10206419186, "lat": 12.8482897, "lon": 77.6283037}, {"type": "node", "id": 10206419187, "lat": 12.8468481, "lon": 77.6301471}, {"type": "node", "id": 10206419188, "lat": 12.8468315, "lon": 77.6305751}, {"type": "node", "id": 10206419189, "lat": 12.8472794, "lon": 77.6307439}, {"type": "node", "id": 10206419190, "lat": 12.8482687, "lon": 77.628977}, {"type": "node", "id": 10206419191, "lat": 12.8482661, "lon": 77.6291415}, {"type": "node", "id": 10206419192, "lat": 12.8478767, "lon": 77.6290436}, {"type": "node", "id": 10206419193, "lat": 12.8479159, "lon": 77.6305269}, {"type": "node", "id": 10206419194, "lat": 12.8482877, "lon": 77.6283677}, {"type": "node", "id": 10206755499, "lat": 12.8468473, "lon": 77.6298187}, {"type": "node", "id": 10206755500, "lat": 12.8465037, "lon": 77.6290696}, {"type": "node", "id": 10206755501, "lat": 12.8470098, "lon": 77.6289849}, {"type": "node", "id": 10224145443, "lat": 12.826527, "lon": 77.7052833}, {"type": "node", "id": 10224145444, "lat": 12.8270366, "lon": 77.7053551}, {"type": "node", "id": 10242924636, "lat": 12.8739572, "lon": 77.6260002}, {"type": "node", "id": 10242924637, "lat": 12.8731493, "lon": 77.6260659}, {"type": "node", "id": 10242924638, "lat": 12.8731876, "lon": 77.626525}, {"type": "node", "id": 10285558609, "lat": 12.8175866, "lon": 77.650702}, {"type": "node", "id": 10307198783, "lat": 12.8617249, "lon": 77.7049971}, {"type": "node", "id": 10307198784, "lat": 12.861508, "lon": 77.7049976}, {"type": "node", "id": 10307198785, "lat": 12.8615072, "lon": 77.7045907}, {"type": "node", "id": 10307198786, "lat": 12.861724, "lon": 77.7045902}, {"type": "node", "id": 10589178307, "lat": 12.8886558, "lon": 77.6972376}, {"type": "node", "id": 10947302031, "lat": 12.8499497, "lon": 77.6392436}, {"type": "node", "id": 10947302032, "lat": 12.849887, "lon": 77.641494}, {"type": "node", "id": 10947302033, "lat": 12.8503577, "lon": 77.6415047}, {"type": "node", "id": 10947302034, "lat": 12.8511971, "lon": 77.6399839}, {"type": "node", "id": 11027579060, "lat": 12.8831899, "lon": 77.6796718}, {"type": "node", "id": 11071562692, "lat": 12.8997429, "lon": 77.6943228}, {"type": "node", "id": 11071562693, "lat": 12.8997664, "lon": 77.6948404}, {"type": "node", "id": 11071562694, "lat": 12.8995834, "lon": 77.6948404}, {"type": "node", "id": 11071562695, "lat": 12.899552, "lon": 77.6951167}, {"type": "node", "id": 11071562696, "lat": 12.9011845, "lon": 77.6950187}, {"type": "node", "id": 11071562697, "lat": 12.9012933, "lon": 77.6941833}, {"type": "node", "id": 11071562698, "lat": 12.9009038, "lon": 77.69384}, {"type": "node", "id": 11071562699, "lat": 12.9009011, "lon": 77.6935288}, {"type": "node", "id": 11071562700, "lat": 12.8994785, "lon": 77.694338}, {"type": "node", "id": 11071562701, "lat": 12.8995141, "lon": 77.6935831}, {"type": "node", "id": 11433621204, "lat": 12.8995179, "lon": 77.6662545, "tags": {"access": "private", "barrier": "gate"}}, {"type": "node", "id": 11520696891, "lat": 12.8826565, "lon": 77.6849592}, {"type": "node", "id": 11520696895, "lat": 12.8837947, "lon": 77.6850608}, {"type": "node", "id": 11520696912, "lat": 12.8848031, "lon": 77.6836476}, {"type": "node", "id": 11520696913, "lat": 12.8844005, "lon": 77.6839104}, {"type": "node", "id": 11520696914, "lat": 12.8842906, "lon": 77.6845917}, {"type": "node", "id": 11520696915, "lat": 12.8842671, "lon": 77.6850852}, {"type": "node", "id": 11520696916, "lat": 12.8828526, "lon": 77.6829421}, {"type": "node", "id": 11520696917, "lat": 12.884926, "lon": 77.6831567}, {"type": "node", "id": 11521368790, "lat": 12.8704429, "lon": 77.6536337}, {"type": "node", "id": 11521368796, "lat": 12.8703071, "lon": 77.6534098}, {"type": "node", "id": 11521368797, "lat": 12.8703527, "lon": 77.6536967}, {"type": "node", "id": 11553132823, "lat": 12.8306082, "lon": 77.6874858}, {"type": "node", "id": 11553132824, "lat": 12.8307429, "lon": 77.6867509}, {"type": "node", "id": 11553132825, "lat": 12.8314359, "lon": 77.6867831}, {"type": "node", "id": 11553132826, "lat": 12.8313548, "lon": 77.6875971}, {"type": "node", "id": 11553139556, "lat": 12.8337887, "lon": 77.6803791}, {"type": "node", "id": 11553139557, "lat": 12.8338341, "lon": 77.6806435}, {"type": "node", "id": 11553139558, "lat": 12.8339427, "lon": 77.6803273}, {"type": "node", "id": 11553139559, "lat": 12.8339069, "lon": 77.6822255}, {"type": "node", "id": 11553139560, "lat": 12.8327056, "lon": 77.6822193}, {"type": "node", "id": 11553139561, "lat": 12.8327448, "lon": 77.681125}, {"type": "node", "id": 11553139562, "lat": 12.8328756, "lon": 77.6811142}, {"type": "node", "id": 11623089946, "lat": 12.8792639, "lon": 77.6984628}, {"type": "node", "id": 11623089950, "lat": 12.8800522, "lon": 77.6983098}, {"type": "node", "id": 11623089951, "lat": 12.8798718, "lon": 77.6974073}, {"type": "node", "id": 11689992035, "lat": 12.8879276, "lon": 77.645072}, {"type": "node", "id": 11689992036, "lat": 12.8878309, "lon": 77.6445383}, {"type": "node", "id": 11689992037, "lat": 12.8879512, "lon": 77.6443076}, {"type": "node", "id": 11689992038, "lat": 12.8881786, "lon": 77.6443318}, {"type": "node", "id": 11689992039, "lat": 12.8887146, "lon": 77.6445034}, {"type": "node", "id": 11689992040, "lat": 12.8891539, "lon": 77.6445329}, {"type": "node", "id": 11689992041, "lat": 12.8891447, "lon": 77.6447301}, {"type": "node", "id": 11689992042, "lat": 12.8887055, "lon": 77.6447073}, {"type": "node", "id": 11689992043, "lat": 12.8886793, "lon": 77.645115}, {"type": "node", "id": 11689992044, "lat": 12.8897004, "lon": 77.6451538}, {"type": "node", "id": 11689992045, "lat": 12.8896892, "lon": 77.6446008}, {"type": "node", "id": 11722359071, "lat": 12.8728655, "lon": 77.6265648}, {"type": "node", "id": 11722359072, "lat": 12.8728119, "lon": 77.6258647}, {"type": "node", "id": 11722359073, "lat": 12.8735441, "lon": 77.6258352}, {"type": "node", "id": 11722359074, "lat": 12.8737467, "lon": 77.6257507}, {"type": "node", "id": 11774875316, "lat": 12.885866, "lon": 77.6505947}, {"type": "node", "id": 11774875317, "lat": 12.8855235, "lon": 77.6515952}, {"type": "node", "id": 11774875318, "lat": 12.8859967, "lon": 77.6517253}, {"type": "node", "id": 11774875319, "lat": 12.8862817, "lon": 77.6507194}, {"type": "node", "id": 11774876090, "lat": 12.8894109, "lon": 77.6445684}, {"type": "node", "id": 11870936052, "lat": 12.861708, "lon": 77.6173688}, {"type": "node", "id": 11870936053, "lat": 12.8615851, "lon": 77.6173715}, {"type": "node", "id": 11870936054, "lat": 12.8613353, "lon": 77.6183492}, {"type": "node", "id": 11870936055, "lat": 12.8613118, "lon": 77.6187327}, {"type": "node", "id": 11870936056, "lat": 12.8608097, "lon": 77.6187327}, {"type": "node", "id": 11870936057, "lat": 12.8602057, "lon": 77.6186255}, {"type": "node", "id": 11870936058, "lat": 12.8603495, "lon": 77.6181775}, {"type": "node", "id": 11870936059, "lat": 12.8602737, "lon": 77.6178557}, {"type": "node", "id": 11870936060, "lat": 12.8602685, "lon": 77.6172388}, {"type": "node", "id": 11870936061, "lat": 12.8603861, "lon": 77.6169705}, {"type": "node", "id": 11870936062, "lat": 12.8610189, "lon": 77.6171744}, {"type": "node", "id": 11870936063, "lat": 12.8617629, "lon": 77.6171958}, {"type": "node", "id": 11888692444, "lat": 12.8966841, "lon": 77.6731273}, {"type": "node", "id": 11921456283, "lat": 12.8340327, "lon": 77.7023232}, {"type": "node", "id": 11921456284, "lat": 12.8334588, "lon": 77.7018893}, {"type": "node", "id": 11921456285, "lat": 12.83394, "lon": 77.701377}, {"type": "node", "id": 11921456293, "lat": 12.8343166, "lon": 77.7018249}, {"type": "node", "id": 11936944791, "lat": 12.8165195, "lon": 77.6506484}, {"type": "node", "id": 11936944792, "lat": 12.8164515, "lon": 77.6526037}, {"type": "node", "id": 11936944793, "lat": 12.8180023, "lon": 77.6539371}, {"type": "node", "id": 11936944794, "lat": 12.8182247, "lon": 77.6523623}, {"type": "node", "id": 11936944795, "lat": 12.8174872, "lon": 77.6523891}, {"type": "node", "id": 12109492011, "lat": 12.852706, "lon": 77.6811048}, {"type": "node", "id": 12109492012, "lat": 12.852179, "lon": 77.6805992}, {"type": "node", "id": 12109492013, "lat": 12.8527217, "lon": 77.6800749}, {"type": "node", "id": 12145276488, "lat": 12.8827903, "lon": 77.683624}, {"type": "node", "id": 12145276514, "lat": 12.8793109, "lon": 77.6975388}, {"type": "node", "id": 12150815167, "lat": 12.8950205, "lon": 77.6718519}, {"type": "node", "id": 12150893030, "lat": 12.8977772, "lon": 77.6722509}, {"type": "node", "id": 12150893031, "lat": 12.8976229, "lon": 77.6720695}, {"type": "node", "id": 12150893038, "lat": 12.8943465, "lon": 77.6721382}, {"type": "node", "id": 12150893039, "lat": 12.8945007, "lon": 77.6721194}, {"type": "node", "id": 12150893040, "lat": 12.8944589, "lon": 77.6718968}, {"type": "node", "id": 12281105101, "lat": 12.9003661, "lon": 77.6397981, "tags": {"amenity": "school", "name": "Kidzee Pre School", "phone": "07619438532"}}, {"type": "node", "id": 12430991880, "lat": 12.8858929, "lon": 77.6974154}, {"type": "node", "id": 12450827728, "lat": 12.8196266, "lon": 77.6573244}, {"type": "node", "id": 12475405097, "lat": 12.9009812, "lon": 77.6400573, "tags": {"amenity": "school", "name": "Shubhodhini English Medium High School"}}, {"type": "node", "id": 12475559932, "lat": 12.9024528, "lon": 77.6373567}, {"type": "node", "id": 12475559933, "lat": 12.9034032, "lon": 77.637586}, {"type": "node", "id": 12475559934, "lat": 12.9034777, "lon": 77.6370107}, {"type": "node", "id": 12475559935, "lat": 12.903679, "lon": 77.6370335}, {"type": "node", "id": 12475559936, "lat": 12.902564, "lon": 77.6363656}, {"type": "node", "id": 12487746610, "lat": 12.8612771, "lon": 77.6718722}, {"type": "node", "id": 12487746611, "lat": 12.8613393, "lon": 77.6717117}, {"type": "node", "id": 12487746612, "lat": 12.8608673, "lon": 77.6715066}, {"type": "node", "id": 12487746613, "lat": 12.8606581, "lon": 77.6721503}, {"type": "node", "id": 12487746614, "lat": 12.8610573, "lon": 77.6722691}, {"type": "node", "id": 12487746615, "lat": 12.8612164, "lon": 77.6718231}, {"type": "node", "id": 12498354493, "lat": 12.8971683, "lon": 77.6829993}, {"type": "node", "id": 12622733484, "lat": 12.900182, "lon": 77.6653302}, {"type": "node", "id": 12622733485, "lat": 12.8998603, "lon": 77.6652802}, {"type": "node", "id": 12622733486, "lat": 12.8998094, "lon": 77.6655803}, {"type": "node", "id": 12622733487, "lat": 12.8996555, "lon": 77.6659515}, {"type": "node", "id": 12622733488, "lat": 12.8995732, "lon": 77.6660927}, {"type": "node", "id": 12622733489, "lat": 12.8994811, "lon": 77.6664628}, {"type": "node", "id": 12622733490, "lat": 12.9003576, "lon": 77.6666791}, {"type": "node", "id": 12625086622, "lat": 12.8957566, "lon": 77.6794912}, {"type": "node", "id": 12625086623, "lat": 12.895462, "lon": 77.679361}, {"type": "node", "id": 12625086624, "lat": 12.895543, "lon": 77.6799997}, {"type": "node", "id": 12625086625, "lat": 12.8952484, "lon": 77.6798695}, {"type": "node", "id": 12625086626, "lat": 12.8956357, "lon": 77.6797789}, {"type": "node", "id": 12625086627, "lat": 12.8956268, "lon": 77.6794338}, {"type": "node", "id": 12632042001, "lat": 12.8989363, "lon": 77.6569489}, {"type": "node", "id": 12632042002, "lat": 12.8986108, "lon": 77.6574732}, {"type": "node", "id": 12632042003, "lat": 12.900058, "lon": 77.657724}, {"type": "node", "id": 12632042004, "lat": 12.9001795, "lon": 77.6569797}, {"type": "node", "id": 12632042005, "lat": 12.8989912, "lon": 77.6567423}, {"type": "node", "id": 12632670893, "lat": 12.8820812, "lon": 77.680158}, {"type": "node", "id": 12878810901, "lat": 12.8814976, "lon": 77.6352146, "tags": {"addr:street": "Begur Lake Road", "amenity": "school", "name": "BCR Public school"}}, {"type": "node", "id": 12912646241, "lat": 12.838752, "lon": 77.7000611}, {"type": "node", "id": 12912646242, "lat": 12.8387649, "lon": 77.6997649}, {"type": "node", "id": 12912646243, "lat": 12.8389635, "lon": 77.6990797}, {"type": "node", "id": 12912646244, "lat": 12.8388294, "lon": 77.6990268}, {"type": "node", "id": 12912646245, "lat": 12.8385625, "lon": 77.6990043}, {"type": "node", "id": 12912646246, "lat": 12.8381434, "lon": 77.6990321}, {"type": "node", "id": 12912646247, "lat": 12.8379913, "lon": 77.6990458}, {"type": "node", "id": 12912646248, "lat": 12.8377979, "lon": 77.6990546}, {"type": "node", "id": 12912646249, "lat": 12.8378236, "lon": 77.6996197}, {"type": "node", "id": 12912646250, "lat": 12.8378971, "lon": 77.6996565}, {"type": "node", "id": 12912646251, "lat": 12.8378954, "lon": 77.6996986}, {"type": "node", "id": 12912646252, "lat": 12.8378167, "lon": 77.6998162}, {"type": "node", "id": 12912646253, "lat": 12.8370765, "lon": 77.6999828}, {"type": "node", "id": 12912646254, "lat": 12.8371061, "lon": 77.7002389}, {"type": "node", "id": 13039719355, "lat": 12.8703911, "lon": 77.6534148, "tags": {"amenity": "school", "check_date": "2025-07-31", "name": "Sri Channakeshava English School", "name:en": "Sri Channakeshava English School"}}, {"type": "node", "id": 13046364776, "lat": 12.8345774, "lon": 77.6815341}, {"type": "node", "id": 13046364777, "lat": 12.8339201, "lon": 77.6815232}, {"type": "node", "id": 13046402621, "lat": 12.8345742, "lon": 77.6816342}, {"type": "node", "id": 13046403048, "lat": 12.8264368, "lon": 77.7060264}, {"type": "node", "id": 13046403049, "lat": 12.8276509, "lon": 77.706188}, {"type": "node", "id": 13046403051, "lat": 12.8279146, "lon": 77.7049311}, {"type": "node", "id": 13046403052, "lat": 12.8279335, "lon": 77.7048767}, {"type": "node", "id": 13046403053, "lat": 12.8279578, "lon": 77.7048246}, {"type": "node", "id": 13046403054, "lat": 12.8279873, "lon": 77.7047755}, {"type": "node", "id": 13046403055, "lat": 12.828063, "lon": 77.7046856}, {"type": "node", "id": 13046403056, "lat": 12.8281088, "lon": 77.7046465}, {"type": "node", "id": 13046403057, "lat": 12.8281586, "lon": 77.7046128}, {"type": "node", "id": 13046403058, "lat": 12.8282117, "lon": 77.704585}, {"type": "node", "id": 13046403059, "lat": 12.8279014, "lon": 77.7049872}, {"type": "node", "id": 13046403060, "lat": 12.8280217, "lon": 77.7047297}, {"type": "node", "id": 13046403061, "lat": 12.8282675, "lon": 77.7045634}, {"type": "node", "id": 13046403090, "lat": 12.8278504, "lon": 77.7056833}, {"type": "node", "id": 13046403091, "lat": 12.8276425, "lon": 77.7067105}, {"type": "node", "id": 13046403092, "lat": 12.8277458, "lon": 77.7068849}, {"type": "node", "id": 13046403113, "lat": 12.8279053, "lon": 77.7069761}, {"type": "node", "id": 13046403114, "lat": 12.8282375, "lon": 77.7068232}, {"type": "node", "id": 13046403115, "lat": 12.828448, "lon": 77.7058107}, {"type": "node", "id": 13046403173, "lat": 12.8444502, "lon": 77.7010192}, {"type": "node", "id": 13046403229, "lat": 12.8378656, "lon": 77.7034363}, {"type": "node", "id": 13046403242, "lat": 12.8379425, "lon": 77.7034383}, {"type": "node", "id": 13046403243, "lat": 12.8379321, "lon": 77.702879}, {"type": "node", "id": 13046403244, "lat": 12.837698, "lon": 77.7028884}, {"type": "node", "id": 13046403245, "lat": 12.8366532, "lon": 77.7034047}, {"type": "node", "id": 13046403286, "lat": 12.8274411, "lon": 77.7054056}, {"type": "node", "id": 13046403287, "lat": 12.8275954, "lon": 77.7044427}, {"type": "node", "id": 13046403288, "lat": 12.8277628, "lon": 77.7044696}, {"type": "node", "id": 13048237349, "lat": 12.8251205, "lon": 77.6829221}, {"type": "node", "id": 13048237350, "lat": 12.8258553, "lon": 77.6824193}, {"type": "node", "id": 13048237351, "lat": 12.8251571, "lon": 77.6815696}, {"type": "node", "id": 13049515024, "lat": 12.8903263, "lon": 77.6946897}, {"type": "node", "id": 13049515025, "lat": 12.8911855, "lon": 77.6950993}, {"type": "node", "id": 13049515031, "lat": 12.8877122, "lon": 77.6964546}, {"type": "node", "id": 13049515116, "lat": 12.8946546, "lon": 77.6735899}, {"type": "node", "id": 13049515370, "lat": 12.8682086, "lon": 77.6872163}, {"type": "node", "id": 13049515371, "lat": 12.8674515, "lon": 77.6870405}, {"type": "node", "id": 13049515372, "lat": 12.8681393, "lon": 77.6874429}, {"type": "node", "id": 13049515373, "lat": 12.8674071, "lon": 77.6872846}, {"type": "node", "id": 13049515443, "lat": 12.8830325, "lon": 77.6803335}, {"type": "node", "id": 13049515444, "lat": 12.8830849, "lon": 77.6800366}, {"type": "node", "id": 13049515445, "lat": 12.8821888, "lon": 77.6795412}, {"type": "node", "id": 13049791636, "lat": 12.8757045, "lon": 77.6519318}, {"type": "node", "id": 13049791637, "lat": 12.8757588, "lon": 77.6515174}, {"type": "node", "id": 13049791638, "lat": 12.8754934, "lon": 77.6514772}, {"type": "node", "id": 13049791639, "lat": 12.8754869, "lon": 77.6519023}, {"type": "node", "id": 13049793511, "lat": 12.8778408, "lon": 77.6478475}, {"type": "node", "id": 13049793512, "lat": 12.8778702, "lon": 77.6472057}, {"type": "node", "id": 13049793513, "lat": 12.8774519, "lon": 77.647533}, {"type": "node", "id": 13049793514, "lat": 12.8777016, "lon": 77.6479045}, {"type": "node", "id": 13058342397, "lat": 12.895659, "lon": 77.6417179}, {"type": "node", "id": 13058342398, "lat": 12.8957204, "lon": 77.6419875}, {"type": "node", "id": 13058342399, "lat": 12.8962094, "lon": 77.6420559}, {"type": "node", "id": 13058342400, "lat": 12.8961558, "lon": 77.6413585}, {"type": "node", "id": 13058385101, "lat": 12.8957374, "lon": 77.6413116}, {"type": "node", "id": 13058385102, "lat": 12.8956825, "lon": 77.6413572}, {"type": "node", "id": 13058385103, "lat": 12.8955753, "lon": 77.6416455}, {"type": "node", "id": 13058385173, "lat": 12.8896911, "lon": 77.6446924}, {"type": "node", "id": 13058385176, "lat": 12.8896979, "lon": 77.6450318}, {"type": "node", "id": 13058386233, "lat": 12.871281, "lon": 77.6540226}, {"type": "node", "id": 13068311791, "lat": 12.8243342, "lon": 77.6715025}, {"type": "node", "id": 13068311792, "lat": 12.8245251, "lon": 77.6709017}, {"type": "node", "id": 13068311793, "lat": 12.8239981, "lon": 77.6708387}, {"type": "node", "id": 13068311794, "lat": 12.8239536, "lon": 77.6713845}, {"type": "node", "id": 13070299182, "lat": 12.8168785, "lon": 77.6939207}, {"type": "node", "id": 13070299183, "lat": 12.8165567, "lon": 77.693879}, {"type": "node", "id": 13070299184, "lat": 12.8165197, "lon": 77.6942849}, {"type": "node", "id": 13113991828, "lat": 12.8170544, "lon": 77.6700474}, {"type": "node", "id": 13113991829, "lat": 12.8168634, "lon": 77.6699921}, {"type": "node", "id": 13113991830, "lat": 12.8169365, "lon": 77.6696611}, {"type": "node", "id": 13113991831, "lat": 12.8162922, "lon": 77.6695113}, {"type": "node", "id": 13113991832, "lat": 12.8161949, "lon": 77.6699513}, {"type": "node", "id": 13113991833, "lat": 12.8164193, "lon": 77.6700035}, {"type": "node", "id": 13113991834, "lat": 12.8163907, "lon": 77.6701331}, {"type": "node", "id": 13113991835, "lat": 12.8169827, "lon": 77.6702707}, {"type": "node", "id": 13113991851, "lat": 12.8176293, "lon": 77.6676432}, {"type": "node", "id": 13113991852, "lat": 12.8172668, "lon": 77.6674725}, {"type": "node", "id": 13113991853, "lat": 12.8169192, "lon": 77.6673322}, {"type": "node", "id": 13113991854, "lat": 12.8167527, "lon": 77.6681439}, {"type": "node", "id": 13113991857, "lat": 12.8175748, "lon": 77.6683389}, {"type": "node", "id": 13113991964, "lat": 12.8182768, "lon": 77.6577156}, {"type": "node", "id": 13113991965, "lat": 12.8184245, "lon": 77.6582702}, {"type": "node", "id": 13113991966, "lat": 12.8196448, "lon": 77.6579023}, {"type": "node", "id": 13128101768, "lat": 12.81653, "lon": 77.6948498}, {"type": "node", "id": 13128101769, "lat": 12.8167471, "lon": 77.6948471}, {"type": "node", "id": 13245208777, "lat": 12.8507735, "lon": 77.6396996}, {"type": "node", "id": 13245208778, "lat": 12.850695, "lon": 77.6395681}, {"type": "way", "id": 24530992, "nodes": [11521368796, 266737832, 5018250545, 5018250563, 266737816, 13058386233, 266737817, 11521368797, 11521368790, 11521368796], "tags": {"amenity": "school", "name": "CKN English Medium School"}}, {"type": "way", "id": 231552474, "nodes": [2399188105, 2399188093, 2399188083, 2399188107, 2399188097, 2399188099, 2399188105], "tags": {"amenity": "school", "name": "St. Xavier's School"}}, {"type": "way", "id": 237087599, "nodes": [2450381203, 2450381204, 2450381201, 2450381205, 2450381203], "tags": {"amenity": "school", "name": "Silicon City High School"}}, {"type": "way", "id": 248215991, "nodes": [11553139556, 11553139557, 2550433506, 11553139560, 11553139561, 11553139562, 2550433508, 11553139556], "tags": {"amenity": "school", "name": "SFS High School"}}, {"type": "way", "id": 291715226, "nodes": [1192791521, 13048237349, 8416425760, 13048237351, 2952008221, 13048237350, 2952008218, 13048237349], "tags": {"addr:place": "Hebbagodi", "amenity": "school", "check_date": "2025-01-27", "name": "Government Higher Primary School", "name:kn": "\u0cb8\u0cb0\u0ccd\u0c95\u0cbe\u0cb0\u0cbf \u0cb9\u0cbf\u0cb0\u0cbf\u0caf \u0caa\u0ccd\u0cb0\u0cbe\u0ca5\u0cae\u0cbf\u0c95 \u0cb6\u0cbe\u0cb2\u0cc6", "operator:type": "government", "source": "survey"}}, {"type": "way", "id": 308189767, "nodes": [3134803465, 3134803466, 3134803467, 3134803468, 3134803465], "tags": {"amenity": "school", "name": "Christ Academy ICSE School"}}, {"type": "way", "id": 334653046, "nodes": [3417146661, 3417146660, 3417146657, 3417146659, 3417146661], "tags": {"amenity": "school", "name": "Government High School", "name:kn": "\u0cb8\u0cb0\u0ccd\u0c95\u0cbe\u0cb0\u0cbf \u0caa\u0ccd\u0cb0\u0ccc\u0ca2 \u0cb6\u0cbe\u0cb2\u0cc6"}}, {"type": "way", "id": 347147615, "nodes": [3535459604, 3535459188, 3535459159, 3535459168, 3535459129, 3535459133, 3535459176, 3535459604], "tags": {"addr:city": "Begur", "alt_name": "GMPS Begur", "amenity": "school", "building": "yes", "name": "Government Lower Primary School", "name:kn": "\u0cb8\u0cb0\u0ccd\u0c95\u0cbe\u0cb0\u0cbf \u0cb9\u0cbf\u0cb0\u0cbf\u0caf \u0caa\u0ccd\u0cb0\u0cbe\u0ca5\u0cae\u0cbf\u0c95 \u0cb6\u0cbe\u0cb2\u0cc6 \u0cac\u0cc7\u0c97\u0cc2\u0cb0\u0cc1"}}, {"type": "way", "id": 431855665, "nodes": [4310792835, 12430991880, 4310792836, 7217875561, 7217875560, 4310792837, 4310792838, 4310792839, 4310817861, 4310817862, 4310792835], "tags": {"addr:city": "Bangalore", "addr:housenumber": "70", "addr:postcode": "560035", "addr:street": "Chikkanayakanahalli Road, Off Doddakanekkundi, Sarjapur Road", "amenity": "school", "name": "Prakriya Green Wisdom School", "office": "educational_institution", "phone": "+91-80-28440925/ 91-80-28441172", "website": "http://www.prakriyaschool.com/site/"}}, {"type": "way", "id": 431858470, "nodes": [4310821159, 13049515031, 4310821160, 10589178307, 4310821161, 6387329957, 4310821162, 4310821159], "tags": {"addr:city": "Bangalore", "addr:housenumber": "Post Box No. 21", "addr:postcode": "560035", "addr:street": "Chikanayakanahalli Village, Off. Sarjapur Road", "amenity": "school", "name": "Primus Public School", "phone": "+91-80-2574 1450, 2574 1452. +91-7338699351 & +91-7338699352", "website": "https://primusschool.com/"}}, {"type": "way", "id": 613757688, "nodes": [11027579060, 5806622772, 5806622767, 5806622768, 5806622769, 5806622770, 5806622771, 13049515444, 13049515443, 12632670893, 13049515445, 11027579060], "tags": {"addr:city": "Bengaluru", "addr:postcode": "560099", "addr:street": "Notre Dame Nagar, Huskur, Choodasandra", "amenity": "school", "landuse": "education", "name": "Notre Dame Academy"}}, {"type": "way", "id": 655045234, "nodes": [6137643193, 6137643194, 6137643195, 6137643196, 6137643197, 11071562700, 6137643198, 6137643199, 6137643193], "tags": {"amenity": "school", "name": "Lake View PU College"}}, {"type": "way", "id": 781696177, "nodes": [7298320871, 7298320866, 7298320865, 7298320864, 7298320871], "tags": {"addr:full": "Survey no.145/2, 100 Feet Road, Harlur, Off Sarjapur Rd, Kudlu, Karnataka 560068", "amenity": "school", "grades": "1-12", "mobile": "+91 7899025333", "name": "The Cambridge International School", "short_name": "TCIS", "website": "https://tcis.in/"}}, {"type": "way", "id": 892243920, "nodes": [5795239503, 7298370288, 8293180243, 8293180242, 8293180241, 8293180240, 8293160681, 8293160680, 5795239503], "tags": {"amenity": "school"}}, {"type": "way", "id": 901563734, "nodes": [7331742678, 7331742669, 7331742676, 7331742673, 7331742688, 7331742696, 7331742697, 7331742701, 7331742710, 7331742667, 7331742668, 8375016087, 10185153752, 7331742678], "tags": {"addr:city": "Bangluru", "addr:postcode": "560105", "addr:street": "Koppa-harapanhalli Road", "amenity": "school", "email": "admissions@candorschool.com", "grades": "0-12", "name": "Candor International School", "phone": "+91 77602 99995", "religion": "none", "school:gender": "mixed", "website": "https://candorschool.edu.in/"}}, {"type": "way", "id": 902970378, "nodes": [8386689520, 8386689521, 8386689522, 8386689523, 8427799166, 8386689520], "tags": {"amenity": "school", "name": "Narayana CO-Kaveri Bhavan", "operator": "Narayana", "operator:type": "private", "phone": "1800 102 3344", "website": "https://narayanaschools.in"}}, {"type": "way", "id": 907621380, "nodes": [8427799176, 8427799177, 8427799178, 8427799179, 8427799180, 8427799181, 8427826423, 8427799176], "tags": {"amenity": "school", "name": "Glentree Academy"}}, {"type": "way", "id": 907621385, "nodes": [8427826432, 12498354493, 8427826433, 8427826434, 8427826435, 8427826432], "tags": {"amenity": "school", "name": "Government School"}}, {"type": "way", "id": 922840254, "nodes": [13049515116, 8566795378, 12150893038, 12150893039, 12150893040, 12150815167, 8566795380, 8566795381, 12150893031, 8566795376, 12150893030, 8566795377, 11888692444, 13049515116], "tags": {"amenity": "school", "name": "Amatra Academy"}}, {"type": "way", "id": 1072261803, "nodes": [9838468073, 9838468076, 9838468075, 9838468074, 9838468073], "tags": {"amenity": "school", "check_date": "2025-01-22", "name": "National Public School, Hosur Road"}}, {"type": "way", "id": 1088209018, "nodes": [9970369541, 9970369540, 9970369539, 9970369538, 9970369537, 9970369536, 9970369535, 9970369534, 13046403173, 9970369533, 9970369532, 9970369541], "tags": {"amenity": "school"}}, {"type": "way", "id": 1088209019, "nodes": [9970369553, 9970369552, 9970369551, 9970369550, 9970369549, 9970369548, 9970369547, 9970369546, 9970369545, 9970369544, 9970369543, 9970369542, 9970369553], "tags": {"alt_name": "ESIB", "amenity": "school", "email": "info.eisb@eis.edu.in", "name": "Ebenezer International School Bangalore", "phone": "+91 80 4876 7722", "school:gender": "mixed", "website": "https://eisbangalore.edu.in/"}}, {"type": "way", "id": 1115903963, "nodes": [10206419186, 9602498717, 7465668862, 7463285999, 7205501030, 7205501031, 10206755501, 10206755500, 7205501037, 10206755499, 10206419187, 10206419188, 2116654927, 10206419189, 2116654606, 10206419193, 10206419192, 10206419191, 10206419190, 10206419194, 10206419186], "tags": {"amenity": "school", "name": "Delhi Public School Electronic City"}}, {"type": "way", "id": 1127316236, "nodes": [10307198786, 10307198785, 10307198784, 10307198783, 10307198786], "tags": {"amenity": "school"}}, {"type": "way", "id": 1178402483, "nodes": [10947302034, 10947302033, 10947302032, 10947302031, 13245208778, 13245208777, 10947302034], "tags": {"amenity": "school"}}, {"type": "way", "id": 1188968077, "nodes": [4146211246, 4146211240, 4146211242, 4146211250, 4146211246], "tags": {"amenity": "school"}}, {"type": "way", "id": 1192698538, "nodes": [11071562700, 11071562692, 11071562693, 11071562694, 11071562695, 6137643213, 6137643214, 6137643215, 9794050401, 11071562696, 11071562697, 11071562698, 11071562699, 11071562701, 6137643197, 11071562700], "tags": {"amenity": "school", "name": "NPS East, Sarjapur"}}, {"type": "way", "id": 1240048340, "nodes": [11520696917, 11520696916, 12145276488, 11520696891, 11520696895, 11520696915, 11520696914, 11520696913, 11520696912, 11520696917], "tags": {"amenity": "school", "name": "Amrita International Vidyalayam"}}, {"type": "way", "id": 1243090906, "nodes": [11553132826, 11553132825, 11553132824, 11553132823, 11553132826], "tags": {"amenity": "school", "name": "St. Augustine School"}}, {"type": "way", "id": 1243090929, "nodes": [11553139558, 2550433504, 13046364776, 13046402621, 2550433505, 11553139559, 13046364777, 11553139558], "tags": {"amenity": "school", "name": "SFS Kannada Medium School", "name:kn": "\u0c8e\u0cb8\u0ccd.\u0c8e\u0cab\u0ccd.\u0c8e\u0cb8\u0ccd \u0c95\u0ca8\u0ccd\u0ca8\u0ca1 \u0cae\u0cbe\u0ca7\u0ccd\u0caf\u0cae \u0cb6\u0cbe\u0cb2\u0cc6"}}, {"type": "way", "id": 1257330713, "nodes": [11689992043, 11689992044, 13058385176, 13058385173, 11689992045, 11774876090, 11689992040, 11689992041, 11689992042, 11689992039, 11689992038, 11689992037, 11689992036, 11689992035, 11689992043], "tags": {"amenity": "school"}}, {"type": "way", "id": 1261422248, "nodes": [10242924636, 11722359074, 11722359073, 11722359072, 11722359071, 10242924638, 10242924637, 10242924636], "tags": {"amenity": "school", "name": "St. Teresa School, Begur", "name:kn": "\u0cb8\u0c82\u0ca4 \u0ca4\u0cc6\u0cb0\u0cc7\u0cb8\u0cb0 \u0cb6\u0cbe\u0cb2\u0cc6"}}, {"type": "way", "id": 1267842313, "nodes": [11774875319, 11774875318, 11774875317, 11774875316, 11774875319], "tags": {"amenity": "school", "education": "school", "name": "Kalanikethan School"}}, {"type": "way", "id": 1278704434, "nodes": [11870936063, 11870936062, 11870936061, 11870936060, 11870936059, 11870936058, 11870936057, 11870936056, 11870936055, 11870936054, 11870936053, 11870936052, 11870936063], "tags": {"amenity": "school", "landuse": "education", "name": "St. Anthony's School"}}, {"type": "way", "id": 1285068977, "nodes": [11921456293, 11921456285, 11921456284, 11921456283, 11921456293], "tags": {"amenity": "school"}}, {"type": "way", "id": 1287043461, "nodes": [10285558609, 11936944795, 11936944794, 11936944793, 1827508653, 1827508651, 1827508649, 1827508647, 1827508645, 1827508643, 11936944792, 11936944791, 10285558609], "tags": {"addr:postcode": "560105", "amenity": "school", "name": "Treamis World School"}}, {"type": "way", "id": 1307630867, "nodes": [12109492013, 12109492012, 12109492011, 12109492013], "tags": {"amenity": "school"}}, {"type": "way", "id": 1346135001, "nodes": [13113991966, 13113991965, 13113991964, 12450827728, 13113991966], "tags": {"amenity": "school", "landuse": "education", "name": "EuroSchool Electronic City"}}, {"type": "way", "id": 1348689004, "nodes": [12475559936, 3565191729, 12475559935, 12475559934, 12475559933, 12475559932, 12475559936], "tags": {"amenity": "school"}}, {"type": "way", "id": 1349913933, "nodes": [12487746614, 12487746613, 12487746612, 12487746611, 12487746610, 12487746615, 12487746614], "tags": {"amenity": "school"}}, {"type": "way", "id": 1363265488, "nodes": [12622733484, 12622733485, 12622733486, 12622733487, 12622733488, 11433621204, 12622733489, 12622733490, 1847882496, 1847882481, 12622733484], "tags": {"amenity": "school", "name": "Orchids the International School"}}, {"type": "way", "id": 1363512459, "nodes": [12625086622, 12625086627, 12625086623, 12625086625, 12625086624, 12625086626, 12625086622], "tags": {"addr:city": "Bangalore", "addr:postcode": "560035", "addr:street": "15th Main Road", "amenity": "school", "name": "Narayana", "roof:colour": "#f8f7f7"}}, {"type": "way", "id": 1364168917, "nodes": [12632042005, 12632042004, 12632042003, 12632042002, 1482388692, 12632042001, 12632042005], "tags": {"addr:housename": "Vibgyor", "addr:street": "hosa road", "amenity": "school", "name": "Vibgyor School", "name:en": "Vibgyor", "name:hi": "\u0935\u093f\u092d\u094d\u092f\u094b\u0930", "name:kn": "\u0cb5\u0cbf\u0cac\u0ccd\u0c97\u0ccd\u0caf\u0ccb\u0cb0\u0ccd \u0cb6\u0cbe\u0cb2\u0cc6", "source": "bing"}}, {"type": "way", "id": 1394991832, "nodes": [12912646241, 12912646242, 12912646243, 12912646244, 12912646245, 12912646246, 12912646247, 12912646248, 12912646249, 12912646250, 12912646251, 12912646252, 12912646253, 12912646254, 12912646241], "tags": {"addr:city": "Gulimangala", "addr:district": "Bengaluru", "addr:postcode": "560100", "addr:street": "Singena Agrahara Road", "amenity": "school", "mobile": "9243606247", "name": "Brookfield High School", "opening_hours": "Mo-Fr 09:00-15:00", "website": "https://www.brookfieldhigh.com/"}}, {"type": "way", "id": 1419688732, "nodes": [13046403048, 10224145443, 10224145444, 13046403286, 13046403287, 13046403288, 13046403061, 13046403058, 13046403057, 13046403056, 13046403055, 13046403060, 13046403054, 13046403053, 13046403052, 13046403051, 13046403059, 13046403049, 13046403048]}, {"type": "way", "id": 1419688740, "nodes": [13046403113, 13046403092, 13046403091, 13046403090, 13046403115, 13046403114, 13046403113]}, {"type": "way", "id": 1419688768, "nodes": [13046403245, 13046403244, 13046403243, 13046403242, 13046403229, 13046403245], "tags": {"amenity": "school", "landuse": "education", "name": "IGNOU Regional Centre"}}, {"type": "way", "id": 1420117071, "nodes": [11623089950, 11623089946, 12145276514, 11623089951, 11623089950], "tags": {"amenity": "school", "name": "Edenbridge International School"}}, {"type": "way", "id": 1420117170, "nodes": [13049515024, 3247465143, 2301139534, 3247465145, 3247465146, 3247465147, 13049515025, 13049515024], "tags": {"amenity": "school", "name": "Sri Chaitanya Techno School"}}, {"type": "way", "id": 1420117223, "nodes": [13049515371, 13049515370, 13049515372, 13049515373, 13049515371], "tags": {"amenity": "school"}}, {"type": "way", "id": 1420149136, "nodes": [13049791639, 13049791638, 13049791637, 13049791636, 13049791639], "tags": {"amenity": "school"}}, {"type": "way", "id": 1420149566, "nodes": [13049793514, 13049793513, 6349076476, 13049793512, 13049793511, 13049793514], "tags": {"addr:place": "Singasandra", "amenity": "school", "check_date": "2025-03-11", "isced:level": "2", "name": "GHPS Singasandra", "name:kn": "\u0cb8\u0cb0\u0ccd\u0c95\u0cbe\u0cb0\u0cbf \u0cb9\u0cbf\u0cb0\u0cbf\u0caf \u0caa\u0ccd\u0cb0\u0cbe\u0ca5\u0cae\u0cbf\u0c95 \u0cb6\u0cbe\u0cb2\u0cc6 \u0cb8\u0cbf\u0c82\u0c97\u0cb8\u0c82\u0ca6\u0ccd\u0cb0", "operator": "Department of Education", "school": "primary"}}, {"type": "way", "id": 1420991668, "nodes": [13058385103, 13058385102, 13058385101, 13058342400, 13058342399, 13058342398, 6349339627, 13058342397, 13058385103], "tags": {"addr:place": "Bandepalya", "amenity": "school", "isced:level": "2", "name": "GHPS Bandepalya", "name:kn": "\u0cb8\u0cb0\u0ccd\u0c95\u0cbe\u0cb0\u0cbf \u0cb9\u0cbf\u0cb0\u0cbf\u0caf \u0caa\u0ccd\u0cb0\u0cbe\u0ca5\u0cae\u0cbf\u0c95 \u0cb6\u0cbe\u0cb2\u0cc6 \u0cac\u0c82\u0ca1\u0cc6\u0caa\u0cbe\u0cb3\u0ccd\u0caf", "operator": "Department of Education", "school": "primary"}}, {"type": "way", "id": 1421987311, "nodes": [13068311794, 13068311793, 13068311792, 13068311791, 13068311794], "tags": {"amenity": "school"}}, {"type": "way", "id": 1426561467, "nodes": [13113991835, 13113991834, 13113991833, 13113991832, 13113991831, 13113991830, 13113991829, 13113991828, 13113991835], "tags": {"amenity": "school", "name": "White Academy"}}, {"type": "way", "id": 1426561471, "nodes": [13113991854, 13113991853, 13113991852, 13113991851, 13113991857, 13113991854], "tags": {"amenity": "school", "name": "Government School"}}, {"type": "way", "id": 1427978938, "nodes": [13070299182, 13128101769, 13128101768, 13070299184, 13070299183, 13070299182], "tags": {"amenity": "school"}}, {"type": "relation", "id": 19422826, "members": [{"type": "way", "ref": 1419688732, "role": "outer"}, {"type": "way", "ref": 1419688740, "role": "outer"}], "tags": {"addr:city": "Deepahalli, Andapura", "addr:district": "Bengaluru", "addr:postcode": "560099", "addr:street": "Hilalige Road", "amenity": "school", "contact:email": "info@stjosephchaminade.com", "landuse": "education", "name": "St. Joseph Chaminade Academy (ICSE)", "phone": "8971780078", "type": "multipolygon", "website": "https://stjosephchaminade.com/"}}]}