{"version": 0.6, "generator": "Overpass API 0.7.62.8 e802775f", "osm3s": {"timestamp_osm_base": "2026-01-11T13:12:26Z", "copyright": "The data included in this document is from www.openstreetmap.org. The data is made available under ODbL."}, "elements": [{"type": "node", "id": 308971546, "lat": 17.4473271, "lon": 78.3634745, "tags": {"bus": "yes", "highway": "bus_stop", "name": "Chhota Anjaiah Nagar", "public_transport": "platform", "shelter": "no"}}, {"type": "node", "id": 315069354, "lat": 17.4620962, "lon": 78.4286626, "tags": {"name": "Bharath Nagar", "public_transport": "stop_position", "railway": "stop", "ref": "2", "train": "yes"}}, {"type": "node", "id": 343319245, "lat": 17.4456571, "lon": 78.4521487, "tags": {"internet_access": "no", "name": "Nature Cure Hospital", "name:te": "\u0c2a\u0c4d\u0c30\u0c15\u0c43\u0c24\u0c3f \u0c1a\u0c3f\u0c15\u0c3f\u0c24\u0c4d\u0c38\u0c3e\u0c32\u0c2f \u0c30\u0c48\u0c32\u0c4d\u0c35\u0c47 \u0c38\u0c4d\u0c1f\u0c47\u0c37\u0c28\u0c4d", "network": "IR", "operator": "SCR", "platforms": "2", "public_transport": "station", "railway": "station", "ref": "NCHS", "train": "yes", "wikidata": "Q6980906", "wikipedia": "en:Nature Cure Hospital railway station"}}, {"type": "node", "id": 343641073, "lat": 17.4386951, "lon": 78.4580969, "tags": {"internet_access": "no", "name": "Begumpet", "name:te": "\u0c2c\u0c47\u0c17\u0c02\u0c2a\u0c47\u0c1f\u0c4d", "name:ur": "\u0628\u06cc\u06af\u0645 \u067e\u06cc\u0679", "network": "IR", "operator": "SCR", "platforms": "2", "public_transport": "station", "railway": "station", "ref": "BMT", "train": "yes", "wikidata": "Q4880629", "wikipedia": "en:Begumpet railway station"}}, {"type": "node", "id": 349267769, "lat": 17.4411141, "lon": 78.3914668, "tags": {"bus": "yes", "highway": "bus_stop", "name": "Madhapur Petrol Pump", "public_transport": "platform"}}, {"type": "node", "id": 349267780, "lat": 17.440965, "lon": 78.3913097, "tags": {"bus": "yes", "highway": "bus_stop", "name": "Madhapur Petrol Pump", "public_transport": "platform"}}, {"type": "node", "id": 353027468, "lat": 17.4374277, "lon": 78.443449, "tags": {"bus": "yes", "highway": "bus_stop", "name": "S.R.Nagar Bus Stop", "operator": "A.P.S.R.T.C", "public_transport": "platform", "shelter": "yes", "wheelchair": "no"}}, {"type": "node", "id": 354662996, "lat": 17.4364999, "lon": 78.4440447, "tags": {"bus": "yes", "highway": "bus_stop", "public_transport": "platform"}}, {"type": "node", "id": 655158856, "lat": 17.450675, "lon": 78.3801434, "tags": {"bus": "yes", "highway": "bus_stop", "name": "Cyber Towers", "public_transport": "platform"}}, {"type": "node", "id": 655158870, "lat": 17.4507134, "lon": 78.3821189, "tags": {"bus": "yes", "highway": "bus_stop", "name": "Cyber Towers Bus Stop", "name:te": "\u0c38\u0c48\u0c2c\u0c30\u0c4d \u0c1f\u0c35\u0c30\u0c4d\u0c38\u0c4d \u0c2c\u0c38\u0c4d\u0c38\u0c41 \u0c38\u0c4d\u0c1f\u0c3e\u0c2a\u0c4d", "public_transport": "platform"}}, {"type": "node", "id": 655158946, "lat": 17.4342977, "lon": 78.3843417, "tags": {"bench": "yes", "bin": "no", "bus": "yes", "highway": "bus_stop", "lit": "yes", "name": "V IT Park", "public_transport": "platform", "shelter": "yes", "source": "Maxar"}}, {"type": "node", "id": 655159062, "lat": 17.4340492, "lon": 78.3840991, "tags": {"bench": "yes", "bin": "no", "bus": "yes", "highway": "bus_stop", "lit": "yes", "name": "V IT Park", "public_transport": "platform", "shelter": "no", "source": "Maxar"}}, {"type": "node", "id": 655159152, "lat": 17.4414196, "lon": 78.3769845, "tags": {"bus": "yes", "highway": "bus_stop", "name": "Mindspace", "public_transport": "platform"}}, {"type": "node", "id": 660916026, "lat": 17.4318264, "lon": 78.4068998, "tags": {"bus": "yes", "highway": "bus_stop", "public_transport": "platform"}}, {"type": "node", "id": 660916027, "lat": 17.4315449, "lon": 78.4071305, "tags": {"bus": "yes", "highway": "bus_stop", "public_transport": "platform"}}, {"type": "node", "id": 660916060, "lat": 17.4235017, "lon": 78.4276065, "tags": {"bench": "yes", "bus": "yes", "highway": "bus_stop", "name": "L V Prasad", "name:te": "\u0c0e\u0c32\u0c4d \u0c35\u0c40 \u0c2a\u0c4d\u0c30\u0c38\u0c3e\u0c26\u0c4d \u0c2c\u0c38\u0c4d\u0c38\u0c41 \u0c38\u0c4d\u0c1f\u0c3e\u0c2a\u0c4d", "public_transport": "platform", "shelter": "yes"}}, {"type": "node", "id": 813570709, "lat": 17.4269784, "lon": 78.4396869, "tags": {"bus": "yes", "highway": "bus_stop", "name": "TV9 Bus Stop", "name:te": "\u0c1f\u0c40\u0c35\u0c40 9 \u0c2c\u0c38\u0c4d\u0c38\u0c41 \u0c38\u0c4d\u0c1f\u0c3e\u0c2a\u0c4d", "public_transport": "platform", "shelter": "yes"}}, {"type": "node", "id": 1215192975, "lat": 17.4594101, "lon": 78.3659425, "tags": {"bus": "yes", "highway": "bus_stop", "name": "Kothaguda", "public_transport": "platform"}}, {"type": "node", "id": 1215782332, "lat": 17.4445422, "lon": 78.3536778, "tags": {"bus": "yes", "highway": "bus_stop", "name": "DLF Bus stop near JNIB", "public_transport": "platform"}}, {"type": "node", "id": 1224549888, "lat": 17.439503, "lon": 78.3635448, "tags": {"bench": "yes", "bin": "yes", "bus": "yes", "highway": "bus_stop", "lit": "yes", "name": "Gachibowli", "public_transport": "platform", "shelter": "yes"}}, {"type": "node", "id": 1224549897, "lat": 17.441046, "lon": 78.3603475, "tags": {"bus": "yes", "highway": "bus_stop", "name": "Indra Nagar", "public_transport": "platform"}}, {"type": "node", "id": 1242172638, "lat": 17.457719, "lon": 78.3716207, "tags": {"bus": "yes", "highway": "bus_stop", "public_transport": "platform"}}, {"type": "node", "id": 1365115101, "lat": 17.4390017, "lon": 78.3970577, "tags": {"bus": "yes", "highway": "bus_stop", "local_ref": "Kavuri Hills", "public_transport": "platform"}}, {"type": "node", "id": 1437208970, "lat": 17.4590703, "lon": 78.4092307}, {"type": "node", "id": 1437208972, "lat": 17.4593623, "lon": 78.4065128}, {"type": "node", "id": 1437208980, "lat": 17.4589126, "lon": 78.4092092}, {"type": "node", "id": 1437208985, "lat": 17.4590687, "lon": 78.4078664, "tags": {"internet_access": "no", "name": "Borabanda", "name:ur": "\u0628\u0648\u0631\u0627 \u0628\u0646\u0688\u0627", "network": "IR", "operator": "SCR", "platforms": "2", "public_transport": "station", "railway": "station", "ref": "BRBD", "wikidata": "Q4944267", "wikipedia": "en:Borabanda railway station"}}, {"type": "node", "id": 1437208986, "lat": 17.4595103, "lon": 78.4065377}, {"type": "node", "id": 1437208991, "lat": 17.4594387, "lon": 78.4065216}, {"type": "node", "id": 1437208992, "lat": 17.4589963, "lon": 78.4092206}, {"type": "node", "id": 1437208993, "lat": 17.4593717, "lon": 78.407561}, {"type": "node", "id": 1437209002, "lat": 17.459276, "lon": 78.406499}, {"type": "node", "id": 1437209009, "lat": 17.459147, "lon": 78.4092468}, {"type": "node", "id": 1437209826, "lat": 17.4620329, "lon": 78.4283435}, {"type": "node", "id": 1437209827, "lat": 17.4618943, "lon": 78.4273402}, {"type": "node", "id": 1437209832, "lat": 17.4622583, "lon": 78.4289806}, {"type": "node", "id": 1437209833, "lat": 17.4621879, "lon": 78.4289828}, {"type": "node", "id": 1437209834, "lat": 17.4621159, "lon": 78.4283322}, {"type": "node", "id": 1437209836, "lat": 17.4618064, "lon": 78.4273698}, {"type": "node", "id": 1437209837, "lat": 17.4620332, "lon": 78.4279468}, {"type": "node", "id": 1437209838, "lat": 17.4620178, "lon": 78.4286827}, {"type": "node", "id": 1437209840, "lat": 17.4620527, "lon": 78.4297624}, {"type": "node", "id": 1437209841, "lat": 17.4621016, "lon": 78.4279296}, {"type": "node", "id": 1437209842, "lat": 17.4626026, "lon": 78.4301562, "tags": {"internet_access": "no", "name": "Bharath Nagar", "network": "IR", "operator": "SCR", "platforms": "3", "public_transport": "station", "railway": "station", "ref": "BTNR", "train": "yes", "wikidata": "Q4901137", "wikipedia": "en:Bharat Nagar railway station"}}, {"type": "node", "id": 1437209843, "lat": 17.462049, "lon": 78.4291987}, {"type": "node", "id": 1437209844, "lat": 17.4622294, "lon": 78.428653}, {"type": "node", "id": 1437209846, "lat": 17.4617527, "lon": 78.4273887}, {"type": "node", "id": 1437209847, "lat": 17.4621924, "lon": 78.4292906}, {"type": "node", "id": 1437209848, "lat": 17.4620759, "lon": 78.4286676}, {"type": "node", "id": 1437209851, "lat": 17.4619563, "lon": 78.4273346}, {"type": "node", "id": 1437209852, "lat": 17.462117, "lon": 78.4293023}, {"type": "node", "id": 1437209853, "lat": 17.4622462, "lon": 78.4293643}, {"type": "node", "id": 1437209854, "lat": 17.4621036, "lon": 78.4289822}, {"type": "node", "id": 1437209856, "lat": 17.4621852, "lon": 78.428319}, {"type": "node", "id": 1437209857, "lat": 17.462179, "lon": 78.4300527}, {"type": "node", "id": 1437209858, "lat": 17.4620937, "lon": 78.4300641}, {"type": "node", "id": 1437209860, "lat": 17.4619512, "lon": 78.4279625}, {"type": "node", "id": 1437209861, "lat": 17.4622248, "lon": 78.4300398}, {"type": "node", "id": 1437209862, "lat": 17.4619735, "lon": 78.4283539}, {"type": "node", "id": 1437209863, "lat": 17.4620642, "lon": 78.4300629}, {"type": "node", "id": 1437209865, "lat": 17.4621596, "lon": 78.4286614}, {"type": "node", "id": 1437209866, "lat": 17.4618909, "lon": 78.4279844}, {"type": "node", "id": 1699091338, "lat": 17.4413689, "lon": 78.3627758, "tags": {"bus": "yes", "highway": "bus_stop", "name": "Rajiv Gandhi Nagar", "public_transport": "platform"}}, {"type": "node", "id": 1720122633, "lat": 17.4409616, "lon": 78.360012, "tags": {"bus": "yes", "highway": "bus_stop", "name": "Indra Nagar", "public_transport": "platform"}}, {"type": "node", "id": 1802668812, "lat": 17.4472459, "lon": 78.3778986, "tags": {"bus": "yes", "highway": "bus_stop", "local_ref": "Cyber Gateway", "name": "Cyber Gateway", "public_transport": "platform", "shelter": "yes"}}, {"type": "node", "id": 1883488178, "lat": 17.4258368, "lon": 78.4359253, "tags": {"bus": "yes", "highway": "bus_stop", "name": "Banjara Hills Road No.2 Lumbini Mall", "public_transport": "platform", "shelter": "yes"}}, {"type": "node", "id": 1967910698, "lat": 17.4385641, "lon": 78.3643036, "tags": {"bench": "yes", "bin": "yes", "bus": "yes", "highway": "bus_stop", "lit": "yes", "name": "Gachibowli", "public_transport": "platform", "shelter": "yes"}}, {"type": "node", "id": 1967910702, "lat": 17.439004, "lon": 78.3629707, "tags": {"bench": "yes", "bin": "no", "bus": "yes", "highway": "bus_stop", "lit": "yes", "name": "Gachibowli", "public_transport": "platform", "shelter": "yes"}}, {"type": "node", "id": 1985561804, "lat": 17.4400243, "lon": 78.3557675, "tags": {"amenity": "bus_station", "bus": "yes", "name": "GPR Quarters", "public_transport": "station"}}, {"type": "node", "id": 1985561809, "lat": 17.4382485, "lon": 78.3580736, "tags": {"bench": "yes", "bus": "yes", "highway": "bus_stop", "name": "GPRA Quarters Enterance", "public_transport": "platform", "shelter": "yes"}}, {"type": "node", "id": 2166591609, "lat": 17.3960184, "lon": 78.4307445, "tags": {"bus": "yes", "highway": "bus_stop", "name": "Rethibowli", "public_transport": "platform"}}, {"type": "node", "id": 2166591614, "lat": 17.4494087, "lon": 78.3484676, "tags": {"bus": "yes", "highway": "bus_stop", "name": "Gachibowli Stadium", "public_transport": "platform"}}, {"type": "node", "id": 2166591615, "lat": 17.4281236, "lon": 78.3753876, "tags": {"alt_name": "HITEX Cross Roads", "bus": "yes", "highway": "bus_stop", "name": "Roda Mistry College", "public_transport": "platform"}}, {"type": "node", "id": 2166591616, "lat": 17.4099224, "lon": 78.3985713, "tags": {"bus": "yes", "highway": "bus_stop", "name": "Narayanamma College", "public_transport": "platform"}}, {"type": "node", "id": 2166591622, "lat": 17.4226931, "lon": 78.3822849, "tags": {"alt_name": "Dhaba", "bus": "yes", "highway": "bus_stop", "name": "Khajaguda X Roads", "public_transport": "platform", "shelter": "yes", "tactile_paving": "yes"}}, {"type": "node", "id": 2166591623, "lat": 17.3986352, "lon": 78.4168535, "tags": {"bus": "yes", "highway": "bus_stop", "name": "Tolichowki", "public_transport": "platform"}}, {"type": "node", "id": 2166591638, "lat": 17.422995, "lon": 78.3812764, "tags": {"alt_name": "Dhaba", "bus": "yes", "highway": "bus_stop", "name": "Khajaguda X Roads", "public_transport": "platform"}}, {"type": "node", "id": 2166591650, "lat": 17.4350994, "lon": 78.3680692, "tags": {"bus": "yes", "fixme": "yes", "highway": "bus_stop", "name": "Telecom Nagar", "public_transport": "platform"}}, {"type": "node", "id": 2166591663, "lat": 17.3989449, "lon": 78.4154157, "tags": {"bus": "yes", "highway": "bus_stop", "name": "Tolichowki", "public_transport": "platform"}}, {"type": "node", "id": 2166591669, "lat": 17.4034981, "lon": 78.4092359, "tags": {"bus": "yes", "highway": "bus_stop", "name": "Galaxy", "public_transport": "platform"}}, {"type": "node", "id": 2166591674, "lat": 17.4062472, "lon": 78.4035656, "tags": {"bus": "yes", "highway": "bus_stop", "name": "Sheikpet Nala", "public_transport": "platform"}}, {"type": "node", "id": 2166591677, "lat": 17.4279875, "lon": 78.3751237, "tags": {"alt_name": "HITEX Cross Roads", "bus": "yes", "highway": "bus_stop", "name": "Roda Mistry College", "public_transport": "platform"}}, {"type": "node", "id": 2166591685, "lat": 17.3962507, "lon": 78.4270607, "tags": {"alt_name": "Rethibowli", "bus": "yes", "highway": "bus_stop", "name": "Nanalnagar", "public_transport": "platform"}}, {"type": "node", "id": 2166860253, "lat": 17.4351458, "lon": 78.367504, "tags": {"addr:street": "Telecom nagar", "bus": "yes", "description": "Bus stop, Airport (Pushpak) bus stop", "fixme": "yes", "highway": "bus_stop", "name": "Telecom Nagar", "phone": "7382925897", "public_transport": "platform"}}, {"type": "node", "id": 2166860258, "lat": 17.4499788, "lon": 78.3471358, "tags": {"bus": "yes", "highway": "bus_stop", "name": "Gachibowli Stadium", "public_transport": "platform"}}, {"type": "node", "id": 2170579980, "lat": 17.4325045, "lon": 78.3701881, "tags": {"bus": "yes", "highway": "bus_stop", "name": "Cyberabad Police Commissionerate", "public_transport": "platform"}}, {"type": "node", "id": 2170766680, "lat": 17.4319465, "lon": 78.3714355, "tags": {"bus": "yes", "highway": "bus_stop", "name": "Cyberabad Police Commissionerate", "public_transport": "platform"}}, {"type": "node", "id": 2210776943, "lat": 17.4584484, "lon": 78.3673638, "tags": {"bus": "yes", "highway": "bus_stop", "public_transport": "platform", "shelter": "yes"}}, {"type": "node", "id": 2422172970, "lat": 17.4375661, "lon": 78.4569341, "tags": {"name": "Begumpet", "name:fa": "\u0628\u06cc\u06af\u0645 \u067e\u06cc\u062a", "name:ml": "\u0d2c\u0d47\u0d17\u0d02\u0d2a\u0d47\u0d1f\u0d4d\u0d1f\u0d4d", "name:te": "\u0c2c\u0c47\u0c17\u0c02\u0c2a\u0c47\u0c1f\u0c4d", "name:ur": "\u0628\u06cc\u06af\u0645 \u067e\u06cc\u0679", "network": "Hyderabad Metro", "note": "Contributors are requested to not edit the \"network\" and the \"operator\" tags. (2023/11/08)", "operator": "Hyderabad Metro Rail Limited", "public_transport": "station", "railway": "station", "station": "subway", "subway": "yes"}}, {"type": "node", "id": 2422172978, "lat": 17.4306371, "lon": 78.4083638, "tags": {"name": "Peddamma Gudi", "name:te": "\u0c2a\u0c46\u0c26\u0c4d\u0c26\u0c2e\u0c4d\u0c2e \u0c17\u0c41\u0c21\u0c3f", "network": "Hyderabad Metro", "note": "Contributors are requested to not edit the \"network\" and the \"operator\" tags. (2023/11/08)", "operator": "Hyderabad Metro Rail Limited", "public_transport": "stop_position", "railway": "stop", "subway": "yes"}}, {"type": "node", "id": 2422172983, "lat": 17.4489916, "lon": 78.3831192, "tags": {"name": "HITEC City", "name:te": "\u0c39\u0c48\u0c1f\u0c46\u0c15\u0c4d \u0c38\u0c3f\u0c1f\u0c3f", "network": "Hyderabad Metro", "note": "Contributors are requested to not edit the \"network\" and the \"operator\" tags. (2023/11/08)", "operator": "Hyderabad Metro Rail Limited", "public_transport": "stop_position", "railway": "stop", "subway": "yes"}}, {"type": "node", "id": 2422172987, "lat": 17.4375612, "lon": 78.4569588, "tags": {"name": "Begumpet", "name:te": "\u0c2c\u0c47\u0c17\u0c02\u0c2a\u0c47\u0c1f\u0c4d", "network": "Hyderabad Metro", "note": "Contributors are requested to not edit the \"network\" and the \"operator\" tags. (2023/11/08)", "operator": "Hyderabad Metro Rail Limited", "public_transport": "stop_position", "railway": "stop", "subway": "yes", "wikidata": "Q84301996", "wikipedia": "en:Begumpet metro station"}}, {"type": "node", "id": 2422172989, "lat": 17.436951, "lon": 78.4391108, "tags": {"alt_name": "Taruni Madhura Nagar", "name": "Madhura Nagar", "name:te": "\u0c2e\u0c27\u0c41\u0c30 \u0c28\u0c17\u0c30\u0c4d", "network": "Hyderabad Metro", "note": "Contributors are requested to not edit the \"network\" and the \"operator\" tags. (2023/11/08)", "operator": "Hyderabad Metro Rail Limited", "public_transport": "stop_position", "railway": "stop", "subway": "yes"}}, {"type": "node", "id": 2422173008, "lat": 17.4372512, "lon": 78.4004097, "tags": {"name": "Madhapur", "name:te": "\u0c2e\u0c3e\u0c27\u0c3e\u0c2a\u0c42\u0c30\u0c4d", "network": "Hyderabad Metro", "note": "Contributors are requested to not edit the \"network\" and the \"operator\" tags. (2023/11/08)", "operator": "Hyderabad Metro Rail Limited", "platforms": "2", "public_transport": "stop_position", "public_transport:version": "2", "railway": "stop", "subway": "yes", "wheelchair": "yes"}}, {"type": "node", "id": 2422173105, "lat": 17.4421814, "lon": 78.3772038, "tags": {"name": "Raidurg", "network": "Hyderabad Metro", "note": "Contributors are requested to not edit the \"network\" and the \"operator\" tags. (2023/11/08)", "operator": "Hyderabad Metro Rail Limited", "public_transport": "stop_position", "railway": "stop", "subway": "yes"}}, {"type": "node", "id": 2422173110, "lat": 17.4353341, "lon": 78.4446031, "tags": {"name": "Ameerpet", "name:te": "\u0c05\u0c2e\u0c40\u0c30\u0c4d\u200c\u0c2a\u0c47\u0c1f\u0c4d", "network": "Hyderabad Metro", "note": "Contributors are requested to not edit the \"network\" and the \"operator\" tags. (2023/11/08)", "operator": "Hyderabad Metro Rail Limited", "public_transport": "stop_position", "public_transport:version": "2", "railway": "stop", "subway": "yes", "wikidata": "Q56701862", "wikipedia": "en:Ameerpet metro station"}}, {"type": "node", "id": 2422173139, "lat": 17.4282098, "lon": 78.4136829, "tags": {"name": "Jubilee Hills Checkpost", "network": "Hyderabad Metro", "note": "Contributors are requested to not edit the \"network\" and the \"operator\" tags. (2023/11/08)", "operator": "Hyderabad Metro Rail Limited", "platforms": "2", "public_transport": "stop_position", "public_transport:version": "2", "railway": "stop", "subway": "yes", "wheelchair": "yes"}}, {"type": "node", "id": 2422988997, "lat": 17.4355002, "lon": 78.4447343, "tags": {"addr:city": "Hyderabad", "addr:city:ar": "\u062d\u064a\u062f\u0631 \u0622\u0628\u0627\u062f", "addr:city:ur": "\u062d\u06cc\u062f\u0631\u0622\u0628\u0627\u062f", "name": "Ameerpet", "name:te": "\u0c05\u0c2e\u0c40\u0c30\u0c4d\u200c\u0c2a\u0c47\u0c1f\u0c4d", "network": "Hyderabad Metro", "note": "Contributors are requested to not edit the \"network\" and the \"operator\" tags. (2023/11/08)", "operator": "Hyderabad Metro Rail Limited", "public_transport": "stop_position", "public_transport:version": "2", "railway": "stop", "subway": "yes", "wikidata": "Q56701862", "wikipedia": "en:Ameerpet metro station"}}, {"type": "node", "id": 2422989021, "lat": 17.4570724, "lon": 78.4335941, "tags": {"addr:city": "Hyderabad", "addr:city:ar": "\u062d\u064a\u062f\u0631 \u0622\u0628\u0627\u062f", "addr:city:ur": "\u062d\u06cc\u062f\u0631\u0622\u0628\u0627\u062f", "name": "Erragadda", "name:ml": "\u0d0e\u0d31\u0d17\u0d22", "name:te": "\u0c0e\u0c30\u0c4d\u0c30\u0c17\u0c21\u0c4d\u0c21", "network": "Hyderabad Metro", "note": "Contributors are requested to not edit the \"network\" and the \"operator\" tags. (2023/11/08)", "operator": "Hyderabad Metro Rail Limited", "public_transport": "stop_position", "public_transport:version": "2", "railway": "stop", "subway": "yes"}}, {"type": "node", "id": 2422989191, "lat": 17.4202292, "lon": 78.4563489, "tags": {"addr:city": "Hyderabad", "addr:city:ar": "\u062d\u064a\u062f\u0631 \u0622\u0628\u0627\u062f", "addr:city:ur": "\u062d\u06cc\u062f\u0631\u0622\u0628\u0627\u062f", "name": "Irrum Manzil", "name:ml": "\u0d0e\u0d31\u0d02 \u0d2e\u0d7b\u0d38\u0d3f\u0d7d", "name:te": "\u0c07\u0c31\u0c02 \u0c2e\u0c02\u0c1c\u0c3f\u0c32\u0c4d", "network": "Hyderabad Metro", "note": "Contributors are requested to not edit the \"network\" and the \"operator\" tags. (2023/11/08)", "operator": "Hyderabad Metro Rail Limited", "public_transport": "stop_position", "public_transport:version": "2", "railway": "stop", "subway": "yes"}}, {"type": "node", "id": 2422989193, "lat": 17.443146, "lon": 78.4408077, "tags": {"addr:city": "Hyderabad", "addr:city:ar": "\u062d\u064a\u062f\u0631 \u0622\u0628\u0627\u062f", "addr:city:ur": "\u062d\u06cc\u062f\u0631\u0622\u0628\u0627\u062f", "name": "S. R. Nagar", "name:te": "\u0c0e\u0c38\u0c4d.\u0c06\u0c30\u0c4d. \u0c28\u0c17\u0c30\u0c4d", "network": "Hyderabad Metro", "note": "Contributors are requested to not edit the \"network\" and the \"operator\" tags. (2023/11/08)", "operator": "Hyderabad Metro Rail Limited", "public_transport": "stop_position", "public_transport:version": "2", "railway": "stop", "subway": "yes"}}, {"type": "node", "id": 2424019772, "lat": 17.4284456, "lon": 78.4513095, "tags": {"addr:city": "Hyderabad", "addr:city:ar": "\u062d\u064a\u062f\u0631 \u0622\u0628\u0627\u062f", "addr:city:ur": "\u062d\u06cc\u062f\u0631\u0622\u0628\u0627\u062f", "name": "Panjagutta", "name:ml": "\u0d2a\u0d1e\u0d4d\u0d1a\u0d17\u0d41\u0d1f\u0d4d\u0d1f", "name:te": "\u0c2a\u0c02\u0c1c\u0c3e\u0c17\u0c41\u0c1f\u0c4d\u0c1f", "network": "Hyderabad Metro", "note": "Contributors are requested to not edit the \"network\" and the \"operator\" tags. (2023/11/08)", "operator": "Hyderabad Metro Rail Limited", "public_transport": "stop_position", "public_transport:version": "2", "railway": "stop", "subway": "yes"}}, {"type": "node", "id": 2425474186, "lat": 17.4470156, "lon": 78.438567, "tags": {"addr:city": "Hyderabad", "addr:city:ar": "\u062d\u064a\u062f\u0631 \u0622\u0628\u0627\u062f", "addr:city:ur": "\u062d\u06cc\u062f\u0631\u0622\u0628\u0627\u062f", "name": "ESI Hospital", "name:ml": "\u0d07.\u0d0e\u0d38\u0d4d.\u0d10 \u0d06\u0d36\u0d41\u0d2a\u0d24\u0d4d\u0d30\u0d3f", "name:te": "\u0c08.\u0c0e\u0c38\u0c4d.\u0c10 \u0c06\u0c38\u0c4d\u0c2a\u0c24\u0c4d\u0c30\u0c3f", "network": "Hyderabad Metro", "note": "Contributors are requested to not edit the \"network\" and the \"operator\" tags. (2023/11/08)", "operator": "Hyderabad Metro Rail Limited", "public_transport": "stop_position", "public_transport:version": "2", "railway": "stop", "subway": "yes"}}, {"type": "node", "id": 2461447890, "lat": 17.4385942, "lon": 78.458062, "tags": {"name": "Begumpet", "name:kn": "\u0cac\u0cc7\u0c97\u0c82\u0caa\u0cc7\u0c9f\u0cc6", "name:ur": "\u0628\u06cc\u06af\u0645 \u067e\u06cc\u0679", "public_transport": "station", "railway": "station", "ref": "2", "train": "yes", "wikidata": "Q4880629", "wikipedia": "en:Begumpet railway station"}}, {"type": "node", "id": 2461447891, "lat": 17.4386323, "lon": 78.4580666, "tags": {"name": "Begumpet", "name:kn": "\u0cac\u0cc7\u0c97\u0c82\u0caa\u0cc7\u0c9f\u0cc6", "public_transport": "stop_position", "railway": "stop", "ref": "1", "train": "yes"}}, {"type": "node", "id": 2461453427, "lat": 17.4377516, "lon": 78.4613458}, {"type": "node", "id": 2461453429, "lat": 17.4378371, "lon": 78.4613931}, {"type": "node", "id": 2461453430, "lat": 17.4378487, "lon": 78.461118}, {"type": "node", "id": 2461453431, "lat": 17.4378815, "lon": 78.4615121}, {"type": "node", "id": 2461453432, "lat": 17.4379102, "lon": 78.4612094}, {"type": "node", "id": 2461453433, "lat": 17.4379419, "lon": 78.4615426}, {"type": "node", "id": 2461453434, "lat": 17.4379828, "lon": 78.4607248}, {"type": "node", "id": 2461453435, "lat": 17.4379882, "lon": 78.4612413}, {"type": "node", "id": 2461453438, "lat": 17.4380743, "lon": 78.4612232}, {"type": "node", "id": 2461453439, "lat": 17.4380745, "lon": 78.4607615}, {"type": "node", "id": 2461453440, "lat": 17.4380967, "lon": 78.4602893}, {"type": "node", "id": 2461453443, "lat": 17.4381496, "lon": 78.4607907}, {"type": "node", "id": 2461453446, "lat": 17.4381877, "lon": 78.460306}, {"type": "node", "id": 2461453448, "lat": 17.4382096, "lon": 78.459772}, {"type": "node", "id": 2461453450, "lat": 17.4382141, "lon": 78.4607945}, {"type": "node", "id": 2461453451, "lat": 17.4382515, "lon": 78.4595427}, {"type": "node", "id": 2461453453, "lat": 17.4382645, "lon": 78.4603779}, {"type": "node", "id": 2461453455, "lat": 17.4382888, "lon": 78.4593205}, {"type": "node", "id": 2461453456, "lat": 17.4382973, "lon": 78.4597778}, {"type": "node", "id": 2461453458, "lat": 17.4383809, "lon": 78.4601717}, {"type": "node", "id": 2461453459, "lat": 17.4383859, "lon": 78.4598244}, {"type": "node", "id": 2461453460, "lat": 17.4383983, "lon": 78.4586947}, {"type": "node", "id": 2461453462, "lat": 17.4384375, "lon": 78.4595104}, {"type": "node", "id": 2461453463, "lat": 17.4384672, "lon": 78.4598596}, {"type": "node", "id": 2461453465, "lat": 17.4385127, "lon": 78.4580036}, {"type": "node", "id": 2461453466, "lat": 17.4385145, "lon": 78.4574868}, {"type": "node", "id": 2461453467, "lat": 17.4385227, "lon": 78.4595657}, {"type": "node", "id": 2461453470, "lat": 17.4385565, "lon": 78.4575385}, {"type": "node", "id": 2461453471, "lat": 17.4385584, "lon": 78.4573433}, {"type": "node", "id": 2461453472, "lat": 17.4385657, "lon": 78.4575059}, {"type": "node", "id": 2461453473, "lat": 17.4385876, "lon": 78.4576705}, {"type": "node", "id": 2461453474, "lat": 17.4386182, "lon": 78.4573611}, {"type": "node", "id": 2461453475, "lat": 17.4386186, "lon": 78.4575595}, {"type": "node", "id": 2461453476, "lat": 17.4386346, "lon": 78.4573106}, {"type": "node", "id": 2461453477, "lat": 17.4386506, "lon": 78.4580772}, {"type": "node", "id": 2461453478, "lat": 17.4386533, "lon": 78.4576954}, {"type": "node", "id": 2461453479, "lat": 17.4386825, "lon": 78.4573299}, {"type": "node", "id": 2461453480, "lat": 17.438704, "lon": 78.4583112}, {"type": "node", "id": 2461453482, "lat": 17.4387191, "lon": 78.4577213}, {"type": "node", "id": 2461453487, "lat": 17.4387423, "lon": 78.4583169}, {"type": "node", "id": 2461453489, "lat": 17.4387597, "lon": 78.457091}, {"type": "node", "id": 2461453491, "lat": 17.4387628, "lon": 78.4581948}, {"type": "node", "id": 2461453493, "lat": 17.4387679, "lon": 78.457959}, {"type": "node", "id": 2461453497, "lat": 17.4387766, "lon": 78.4581126}, {"type": "node", "id": 2461453499, "lat": 17.4387921, "lon": 78.4571021}, {"type": "node", "id": 2461453501, "lat": 17.4387939, "lon": 78.4572035}, {"type": "node", "id": 2461453503, "lat": 17.4388007, "lon": 78.4579686}, {"type": "node", "id": 2461453509, "lat": 17.4388167, "lon": 78.4582048}, {"type": "node", "id": 2461453510, "lat": 17.4388186, "lon": 78.4573949}, {"type": "node", "id": 2461453511, "lat": 17.4388305, "lon": 78.4581225}, {"type": "node", "id": 2461453516, "lat": 17.4388742, "lon": 78.4569075}, {"type": "node", "id": 2461453517, "lat": 17.4388779, "lon": 78.4572198}, {"type": "node", "id": 2461453518, "lat": 17.4389023, "lon": 78.4574071}, {"type": "node", "id": 2461453519, "lat": 17.4389053, "lon": 78.4569241}, {"type": "node", "id": 2461453521, "lat": 17.4389771, "lon": 78.4571365}, {"type": "node", "id": 2461453522, "lat": 17.4389993, "lon": 78.456927}, {"type": "node", "id": 2461453526, "lat": 17.4390343, "lon": 78.4565956}, {"type": "node", "id": 2461453528, "lat": 17.4390546, "lon": 78.4569313}, {"type": "node", "id": 2461453529, "lat": 17.4390623, "lon": 78.4566102}, {"type": "node", "id": 2461453535, "lat": 17.4392173, "lon": 78.4562622}, {"type": "node", "id": 2461453537, "lat": 17.4392413, "lon": 78.4564571}, {"type": "node", "id": 2461453538, "lat": 17.4392449, "lon": 78.456281}, {"type": "node", "id": 2461453539, "lat": 17.4392818, "lon": 78.4564842}, {"type": "node", "id": 2496725867, "lat": 17.4158228, "lon": 78.4489433, "tags": {"bus": "yes", "highway": "bus_stop", "name": "City Center", "public_transport": "platform"}}, {"type": "node", "id": 2528181881, "lat": 17.4592409, "lon": 78.4078466, "tags": {"name": "Borabanda", "public_transport": "stop_position", "railway": "stop", "ref": "1", "train": "yes"}}, {"type": "node", "id": 2528181917, "lat": 17.4621388, "lon": 78.4286604, "tags": {"name": "Bharath Nagar", "public_transport": "stop_position", "railway": "stop", "ref": "1", "train": "yes"}}, {"type": "node", "id": 2528193014, "lat": 17.4562011, "lon": 78.4499241, "tags": {"internet_access": "no", "name": "Fateh Nagar", "name:ur": "\u0641\u062a\u062d \u0646\u06af\u0631", "network": "IR", "operator": "SCR", "platforms": "2", "public_transport": "station", "railway": "station", "ref": "FNB", "train": "yes", "wikidata": "Q5437396", "wikipedia": "en:Fateh Nagar railway station"}}, {"type": "node", "id": 2706499729, "lat": 17.4366898, "lon": 78.4328757, "tags": {"bus": "yes", "highway": "bus_stop", "note": "This stop is not used anymore", "public_transport": "platform"}}, {"type": "node", "id": 2714172218, "lat": 17.4521229, "lon": 78.3637319, "tags": {"bus": "yes", "highway": "bus_stop", "name": "Anjaya Nagar", "public_transport": "platform"}}, {"type": "node", "id": 2787194458, "lat": 17.3950152, "lon": 78.4408041}, {"type": "node", "id": 2852473282, "lat": 17.4390875, "lon": 78.4568666}, {"type": "node", "id": 3155691531, "lat": 17.4365057, "lon": 78.4339221, "tags": {"bus": "yes", "highway": "bus_stop", "name": "Yousufguda basti", "operator": "APSRTC", "public_transport": "platform", "shelter": "no"}}, {"type": "node", "id": 3155691532, "lat": 17.4367359, "lon": 78.4321998, "tags": {"bus": "yes", "highway": "bus_stop", "name": "Yousufguda Basti stop", "name:en": "Yousufguda Basti Bus Stop", "name:hi": "\u092f\u0942\u0938\u0941\u092b\u0917\u0941\u0921\u093e \u092c\u0938\u094d\u0924\u0940 \u092c\u0938 \u0938\u094d\u091f\u0949\u092a", "operator": "APSRTC", "public_transport": "platform", "shelter": "no"}}, {"type": "node", "id": 3155693783, "lat": 17.4365545, "lon": 78.4282035, "tags": {"bus": "yes", "highway": "bus_stop", "name": "Yousufguda checkpost", "operator": "APSRTC", "public_transport": "platform", "shelter": "no"}}, {"type": "node", "id": 3155693784, "lat": 17.4365604, "lon": 78.427961, "tags": {"bus": "yes", "highway": "bus_stop", "name": "Yousufguda checkpost", "name:en": "Yousufguda Checkpost Bus Stop", "operator": "APSRTC", "public_transport": "platform", "shelter": "no"}}, {"type": "node", "id": 3166221993, "lat": 17.4442963, "lon": 78.4331967, "tags": {"bus": "yes", "departures_board": "yes", "highway": "bus_stop", "name": "Kalyan Nagar Jn Bustop", "network": "RTC buses", "operator": "TS RTC", "public_transport": "platform", "shelter": "yes"}}, {"type": "node", "id": 3166260338, "lat": 17.4305963, "lon": 78.4209562, "tags": {"bus": "yes", "highway": "bus_stop", "operator": "A.P.S.R.T.C", "public_transport": "platform", "shelter": "no"}}, {"type": "node", "id": 3272863814, "lat": 17.45498, "lon": 78.4478717, "tags": {"addr:city": "Hyderabad", "addr:postcode": "500018", "addr:street": "Sanath Nagar Main Road", "amenity": "bus_station", "bus": "yes", "internet_access": "no", "name": "Sanath Nagar Bus Depot", "operator": "Government", "public_transport": "station"}}, {"type": "node", "id": 3384133030, "lat": 17.4560989, "lon": 78.3774684, "tags": {"bus": "yes", "highway": "bus_stop", "name": "hitex bus stop", "public_transport": "platform"}}, {"type": "node", "id": 3384147270, "lat": 17.4262292, "lon": 78.4153658, "tags": {"bus": "yes", "highway": "bus_stop", "public_transport": "platform"}}, {"type": "node", "id": 3384148486, "lat": 17.427057, "lon": 78.4157649, "tags": {"bus": "yes", "highway": "bus_stop", "public_transport": "platform"}}, {"type": "node", "id": 3384155183, "lat": 17.4309126, "lon": 78.420884, "tags": {"bus": "yes", "highway": "bus_stop", "public_transport": "platform"}}, {"type": "node", "id": 3461558525, "lat": 17.4386894, "lon": 78.4584122}, {"type": "node", "id": 3461558527, "lat": 17.4386748, "lon": 78.4586041}, {"type": "node", "id": 3461573793, "lat": 17.4594362, "lon": 78.4070906}, {"type": "node", "id": 3461573795, "lat": 17.4591647, "lon": 78.409115}, {"type": "node", "id": 3463717321, "lat": 17.4384352, "lon": 78.4584847}, {"type": "node", "id": 3463720175, "lat": 17.4386841, "lon": 78.4584821}, {"type": "node", "id": 3782317022, "lat": 17.4618189, "lon": 78.4276798}, {"type": "node", "id": 3782317047, "lat": 17.4620412, "lon": 78.4289854}, {"type": "node", "id": 3969765540, "lat": 17.395382, "lon": 78.4406639, "tags": {"bus": "yes", "highway": "bus_stop", "name": "Mehdipatnam Bus Stop", "public_transport": "platform"}}, {"type": "node", "id": 3970065519, "lat": 17.3940987, "lon": 78.4311053, "tags": {"name": "bus stop", "public_transport": "platform"}}, {"type": "node", "id": 4407581196, "lat": 17.42008, "lon": 78.4308367, "tags": {"amenity": "bus_station", "bus": "yes", "name": "Nandi Nagar bus stand", "name:en": "Nandi Nagar bus stand", "public_transport": "station"}}, {"type": "node", "id": 4556707782, "lat": 17.4457469, "lon": 78.4522785, "tags": {"local_ref": "1", "name": "Nature Cure Hospital", "name:te": "\u0c2a\u0c4d\u0c30\u0c15\u0c43\u0c24\u0c3f \u0c1a\u0c3f\u0c15\u0c3f\u0c24\u0c4d\u0c38\u0c3e\u0c32\u0c2f \u0c30\u0c48\u0c32\u0c4d\u0c35\u0c47 \u0c38\u0c4d\u0c1f\u0c47\u0c37\u0c28\u0c4d", "public_transport": "stop_position", "railway": "stop", "ref": "2", "train": "yes"}}, {"type": "node", "id": 4556707783, "lat": 17.445761, "lon": 78.4523207, "tags": {"local_ref": "2", "name": "Nature Cure Hospital", "name:te": "\u0c2a\u0c4d\u0c30\u0c15\u0c43\u0c24\u0c3f \u0c1a\u0c3f\u0c15\u0c3f\u0c24\u0c4d\u0c38\u0c3e\u0c32\u0c2f \u0c30\u0c48\u0c32\u0c4d\u0c35\u0c47 \u0c38\u0c4d\u0c1f\u0c47\u0c37\u0c28\u0c4d", "public_transport": "stop_position", "railway": "stop", "ref": "1", "train": "yes"}}, {"type": "node", "id": 4556707784, "lat": 17.4466747, "lon": 78.4517976}, {"type": "node", "id": 4556707785, "lat": 17.4466901, "lon": 78.4518539}, {"type": "node", "id": 4556707786, "lat": 17.4443725, "lon": 78.4528197}, {"type": "node", "id": 4556707787, "lat": 17.4443626, "lon": 78.4527717}, {"type": "node", "id": 4556707788, "lat": 17.4467162, "lon": 78.4519619}, {"type": "node", "id": 4556708689, "lat": 17.4467329, "lon": 78.4520128}, {"type": "node", "id": 4556708690, "lat": 17.4440372, "lon": 78.453147}, {"type": "node", "id": 4556708691, "lat": 17.4440178, "lon": 78.4530931}, {"type": "node", "id": 4706061589, "lat": 17.4395401, "lon": 78.3959296, "tags": {"bus": "yes", "highway": "bus_stop", "name": "Madhapur-Hi Tech city-Kondapur", "name:en": "Madhapur-Hi Tech city-Kondapur", "public_transport": "platform"}}, {"type": "node", "id": 5186129525, "lat": 17.4622355, "lon": 78.4366978, "tags": {"internet_access": "no", "name": "Sanat Nagar", "network": "IR", "operator": "SCR", "platforms": "2", "public_transport": "station", "railway": "station", "ref": "SNF", "train": "yes", "wikidata": "Q63369718"}}, {"type": "node", "id": 5405052395, "lat": 17.4455592, "lon": 78.3519362, "tags": {"bench": "no", "bus": "yes", "highway": "bus_stop", "name": "Bustop", "public_transport": "platform", "shelter": "no"}}, {"type": "node", "id": 5405054116, "lat": 17.4322281, "lon": 78.3785652, "tags": {"bus": "yes", "highway": "bus_stop", "name": "Bus stop 2", "public_transport": "platform"}}, {"type": "node", "id": 5405055292, "lat": 17.4462582, "lon": 78.351225, "tags": {"bench": "yes", "bin": "yes", "bus": "yes", "description": "Opp of police station", "highway": "bus_stop", "name": "IIIT Bus stop1", "public_transport": "platform", "shelter": "no"}}, {"type": "node", "id": 5405055553, "lat": 17.4408024, "lon": 78.3607926, "tags": {"bus": "yes", "highway": "bus_stop", "name": "Gachibowli flyover bustop", "public_transport": "platform"}}, {"type": "node", "id": 5405059602, "lat": 17.439886, "lon": 78.363404, "tags": {"bus": "yes", "highway": "bus_stop", "public_transport": "platform"}}, {"type": "node", "id": 5425191914, "lat": 17.3959857, "lon": 78.4307454, "tags": {"bus": "yes", "public_transport": "stop_position"}}, {"type": "node", "id": 5425191915, "lat": 17.4129007, "lon": 78.3951039, "tags": {"alt_name": "Dargah", "bus": "yes", "highway": "bus_stop", "name": "Shaikpet Dargah", "public_transport": "platform"}}, {"type": "node", "id": 5598599761, "lat": 17.3948107, "lon": 78.4406921}, {"type": "node", "id": 5787787852, "lat": 17.4490132, "lon": 78.3831555, "tags": {"name": "HITEC City", "name:te": "\u0c39\u0c48\u0c1f\u0c46\u0c15\u0c4d \u0c38\u0c3f\u0c1f\u0c3f", "network": "Hyderabad Metro", "note": "Contributors are requested to not edit the \"network\" and the \"operator\" tags. (2023/11/08)", "operator": "Hyderabad Metro Rail Limited", "public_transport": "stop_position", "railway": "stop", "subway": "yes"}}, {"type": "node", "id": 5787787896, "lat": 17.4372693, "lon": 78.4004421, "tags": {"name": "Madhapur", "name:te": "\u0c2e\u0c3e\u0c27\u0c3e\u0c2a\u0c42\u0c30\u0c4d", "network": "Hyderabad Metro", "note": "Contributors are requested to not edit the \"network\" and the \"operator\" tags. (2023/11/08)", "operator": "Hyderabad Metro Rail Limited", "platforms": "2", "public_transport": "stop_position", "public_transport:version": "2", "railway": "stop", "subway": "yes", "wheelchair": "yes"}}, {"type": "node", "id": 5787787938, "lat": 17.4300702, "lon": 78.4232137, "tags": {"name": "Road No 5 Jubilee Hills", "name:te": "\u0c30\u0c4b\u0c21\u0c4d \u0c28\u0c02 5 \u0c1c\u0c42\u0c2c\u0c3f\u0c32\u0c40 \u0c39\u0c3f\u0c32\u0c4d\u0c38\u0c4d", "network": "Hyderabad Metro", "note": "Contributors are requested to not edit the \"network\" and the \"operator\" tags. (2023/11/08)", "operator": "Hyderabad Metro Rail Limited", "public_transport": "stop_position", "railway": "stop", "subway": "yes"}}, {"type": "node", "id": 5787787982, "lat": 17.4353528, "lon": 78.4446353, "tags": {"name": "Ameerpet", "name:te": "\u0c05\u0c2e\u0c40\u0c30\u0c4d\u200c\u0c2a\u0c47\u0c1f\u0c4d", "network": "Hyderabad Metro", "note": "Contributors are requested to not edit the \"network\" and the \"operator\" tags. (2023/11/08)", "operator": "Hyderabad Metro Rail Limited", "public_transport": "stop_position", "public_transport:version": "2", "railway": "stop", "subway": "yes", "wikidata": "Q56701862", "wikipedia": "en:Ameerpet metro station"}}, {"type": "node", "id": 5787787987, "lat": 17.4421818, "lon": 78.3771643, "tags": {"name": "Raidurg", "network": "Hyderabad Metro", "note": "Contributors are requested to not edit the \"network\" and the \"operator\" tags. (2023/11/08)", "operator": "Hyderabad Metro Rail Limited", "public_transport": "stop_position", "railway": "stop", "subway": "yes"}}, {"type": "node", "id": 5787787991, "lat": 17.4354849, "lon": 78.4447024, "tags": {"addr:city": "Hyderabad", "addr:city:ar": "\u062d\u064a\u062f\u0631 \u0622\u0628\u0627\u062f", "addr:city:ur": "\u062d\u06cc\u062f\u0631\u0622\u0628\u0627\u062f", "name": "Ameerpet", "name:te": "\u0c05\u0c2e\u0c40\u0c30\u0c4d\u200c\u0c2a\u0c47\u0c1f\u0c4d", "network": "Hyderabad Metro", "note": "Contributors are requested to not edit the \"network\" and the \"operator\" tags. (2023/11/08)", "operator": "Hyderabad Metro Rail Limited", "public_transport": "stop_position", "public_transport:version": "2", "railway": "stop", "subway": "yes", "wikidata": "Q56701862", "wikipedia": "en:Ameerpet metro station"}}, {"type": "node", "id": 5787787993, "lat": 17.4431312, "lon": 78.4407689, "tags": {"addr:city": "Hyderabad", "addr:city:ar": "\u062d\u064a\u062f\u0631 \u0622\u0628\u0627\u062f", "addr:city:ur": "\u062d\u06cc\u062f\u0631\u0622\u0628\u0627\u062f", "name": "S. R. Nagar", "network": "Hyderabad Metro", "note": "Contributors are requested to not edit the \"network\" and the \"operator\" tags. (2023/11/08)", "operator": "Hyderabad Metro Rail Limited", "public_transport": "stop_position", "public_transport:version": "2", "railway": "stop", "subway": "yes"}}, {"type": "node", "id": 5787788011, "lat": 17.4289005, "lon": 78.4508989, "tags": {"addr:city": "Hyderabad", "addr:city:ar": "\u062d\u064a\u062f\u0631 \u0622\u0628\u0627\u062f", "addr:city:ur": "\u062d\u06cc\u062f\u0631\u0622\u0628\u0627\u062f", "name": "Panjagutta", "name:ml": "\u0d2a\u0d1e\u0d4d\u0d1a\u0d17\u0d41\u0d1f\u0d4d\u0d1f", "name:te": "\u0c2a\u0c02\u0c1c\u0c3e\u0c17\u0c41\u0c1f\u0c4d\u0c1f", "network": "Hyderabad Metro", "note": "Contributors are requested to not edit the \"network\" and the \"operator\" tags. (2023/11/08)", "operator": "Hyderabad Metro Rail Limited", "public_transport": "stop_position", "public_transport:version": "2", "railway": "stop", "subway": "yes"}}, {"type": "node", "id": 5787788712, "lat": 17.4300272, "lon": 78.4231997, "tags": {"name": "Road No 5 Jubilee Hills", "name:te": "\u0c30\u0c4b\u0c21\u0c4d \u0c28\u0c02 5 \u0c1c\u0c42\u0c2c\u0c3f\u0c32\u0c40 \u0c39\u0c3f\u0c32\u0c4d\u0c38\u0c4d", "network": "Hyderabad Metro", "note": "Contributors are requested to not edit the \"network\" and the \"operator\" tags. (2023/11/08)", "operator": "Hyderabad Metro Rail Limited", "public_transport": "stop_position", "railway": "stop", "subway": "yes"}}, {"type": "node", "id": 5787788719, "lat": 17.435108, "lon": 78.4273374, "tags": {"name": "Yusufguda", "name:te": "\u0c2f\u0c42\u0c38\u0c41\u0c2b\u0c4d\u200c\u0c17\u0c42\u0c21", "network": "Hyderabad Metro", "note": "Contributors are requested to not edit the \"network\" and the \"operator\" tags. (2023/11/08)", "operator": "Hyderabad Metro Rail Limited", "public_transport": "stop_position", "railway": "stop", "subway": "yes"}}, {"type": "node", "id": 5787788969, "lat": 17.4375841, "lon": 78.456906, "tags": {"name": "Begumpet", "name:te": "\u0c2c\u0c47\u0c17\u0c02\u0c2a\u0c47\u0c1f\u0c4d", "network": "Hyderabad Metro", "note": "Contributors are requested to not edit the \"network\" and the \"operator\" tags. (2023/11/08)", "operator": "Hyderabad Metro Rail Limited", "public_transport": "stop_position", "railway": "stop", "subway": "yes", "wikidata": "Q84301996", "wikipedia": "en:Begumpet metro station"}}, {"type": "node", "id": 5942734589, "lat": 17.4462587, "lon": 78.3853261, "tags": {"bus": "yes", "highway": "bus_stop", "name": "Madhapur Image Gardens", "operator": "Govt Of Telangana", "public_transport": "platform", "shelter": "yes", "tactile_paving": "yes"}}, {"type": "node", "id": 5942740806, "lat": 17.4461737, "lon": 78.3850424, "tags": {"bus": "yes", "highway": "bus_stop", "name": "Madhapur Image Gardens", "public_transport": "platform", "shelter": "yes", "tactile_paving": "yes"}}, {"type": "node", "id": 5994099503, "lat": 17.4484132, "lon": 78.3835495}, {"type": "node", "id": 5994099504, "lat": 17.4485532, "lon": 78.3837315}, {"type": "node", "id": 5994099505, "lat": 17.4495201, "lon": 78.3829146}, {"type": "node", "id": 5994099506, "lat": 17.4493802, "lon": 78.3827326}, {"type": "node", "id": 6154498147, "lat": 17.3950598, "lon": 78.4407567}, {"type": "node", "id": 6154498148, "lat": 17.3949754, "lon": 78.4405868}, {"type": "node", "id": 6154498149, "lat": 17.3948521, "lon": 78.4403621}, {"type": "node", "id": 6154498150, "lat": 17.3947541, "lon": 78.4401551}, {"type": "node", "id": 6154498151, "lat": 17.3946646, "lon": 78.439833}, {"type": "node", "id": 6154498152, "lat": 17.394516, "lon": 78.440309}, {"type": "node", "id": 6154498321, "lat": 17.3944426, "lon": 78.4406085}, {"type": "node", "id": 6308192283, "lat": 17.3595923, "lon": 78.3880368, "tags": {"highway": "bus_stop", "name": "Bandlaguda Bus Stop", "public_transport": "platform"}}, {"type": "node", "id": 6444553238, "lat": 17.4431396, "lon": 78.4407903, "tags": {"name": "S. R. Nagar", "name:fa": "\u0627\u0633 \u0622\u0631 \u0646\u06af\u0631", "name:ml": "\u0d0e\u0d38\u0d4d \u0d06\u0d7c \u0d28\u0d17\u0d7c", "name:te": "\u0c0e\u0c38\u0c4d.\u0c06\u0c30\u0c4d. \u0c28\u0c17\u0c30\u0c4d", "network": "Hyderabad Metro", "note": "Contributors are requested to not edit the \"network\" and the \"operator\" tags. (2023/11/08)", "operator": "Hyderabad Metro Rail Limited", "public_transport": "station", "public_transport:version": "2", "railway": "station", "station": "subway", "subway": "yes", "wikidata": "Q83175963"}}, {"type": "node", "id": 6444553239, "lat": 17.4490055, "lon": 78.3831376, "tags": {"name": "HITEC City", "name:fa": "\u0634\u0647\u0631 \u0647\u0627\u06cc\u062a\u06a9", "name:ml": "\u0d39\u0d48\u0d1f\u0d46\u0d15\u0d4d \u0d38\u0d3f\u0d31\u0d4d\u0d31\u0d3f", "name:te": "\u0c39\u0c48\u0c1f\u0c46\u0c15\u0c4d \u0c38\u0c3f\u0c1f\u0c3f", "network": "Hyderabad Metro", "note": "Contributors are requested to not edit the \"network\" and the \"operator\" tags. (2023/11/08)", "operator": "Hyderabad Metro Rail Limited", "public_transport": "station", "railway": "station", "station": "subway", "subway": "yes", "wikidata": "Q56701859"}}, {"type": "node", "id": 6447191882, "lat": 17.4357214, "lon": 78.4447933, "tags": {"name": "Ameerpet (Red Line)", "name:fa": "\u0627\u0645\u06cc\u0631\u067e\u06cc\u062a (\u062e\u0637 \u0642\u0631\u0645\u0632)", "name:ml": "\u0d05\u0d2e\u0d40\u0d7c\u0d2a\u0d47\u0d1f\u0d4d\u0d1f\u0d4d", "name:te": "\u0c05\u0c2e\u0c40\u0c30\u0c4d\u200c\u0c2a\u0c47\u0c1f\u0c4d", "network": "Hyderabad Metro", "note": "Contributors are requested to not edit the \"network\" and the \"operator\" tags. (2023/11/08)", "operator": "Hyderabad Metro Rail Limited", "public_transport": "station", "public_transport:version": "2", "railway": "station", "station": "subway", "subway": "yes", "wikidata": "Q56701862", "wikipedia": "en:Ameerpet metro station"}}, {"type": "node", "id": 6451675812, "lat": 17.4429466, "lon": 78.3875721, "tags": {"internet_access": "no", "name": "Durgam Cheruvu", "name:fa": "\u062f\u0631\u06af\u0627\u0645 \u0686\u0631\u0648\u0648", "name:ml": "\u0d26\u0d41\u0d7c\u0d17\u0d4d\u0d17\u0d02 \u0d1a\u0d46\u0d30\u0d41\u0d35\u0d4d", "name:te": "\u0c26\u0c41\u0c30\u0c4d\u0c17\u0c02 \u0c1a\u0c46\u0c30\u0c41\u0c35\u0c41", "network": "Hyderabad Metro", "note": "Contributors are requested to not edit the \"network\" and the \"operator\" tags. (2023/11/08)", "operator": "Hyderabad Metro Rail Limited", "public_transport": "station", "railway": "station", "station": "Metro", "subway": "yes", "website": "https://hmrl.co.in", "wheelchair": "yes", "wikidata": "Q83554384"}}, {"type": "node", "id": 6453519084, "lat": 17.4429159, "lon": 78.3875922, "tags": {"internet_access": "no", "name": "Durgam Cheruvu", "name:te": "\u0c26\u0c41\u0c30\u0c4d\u0c17\u0c02 \u0c1a\u0c46\u0c30\u0c41\u0c35\u0c41", "network": "Hyderabad Metro", "note": "Contributors are requested to not edit the \"network\" and the \"operator\" tags. (2023/11/08)", "operator": "Hyderabad Metro Rail Limited", "public_transport": "stop_position", "railway": "stop", "subway": "yes"}}, {"type": "node", "id": 6453520185, "lat": 17.442903, "lon": 78.387557, "tags": {"internet_access": "no", "name": "Durgam Cheruvu", "name:en": "Durgam Cheruvu Metro Station", "name:te": "\u0c26\u0c41\u0c30\u0c4d\u0c17\u0c02 \u0c1a\u0c46\u0c30\u0c41\u0c35\u0c41 \u0c2e\u0c46\u0c1f\u0c4d\u0c30\u0c4b \u0c38\u0c4d\u0c1f\u0c47\u0c37\u0c28\u0c4d", "network": "Hyderabad Metro", "note": "Contributors are requested to not edit the \"network\" and the \"operator\" tags. (2023/11/08)", "operator": "Hyderabad Metro Rail Limited", "public_transport": "stop_position", "railway": "stop", "subway": "yes"}}, {"type": "node", "id": 6594683312, "lat": 17.4592009, "lon": 78.4078495, "tags": {"name": "Borabanda", "public_transport": "stop_position", "railway": "stop", "ref": "2", "train": "yes"}}, {"type": "node", "id": 6672440858, "lat": 17.4351132, "lon": 78.4273216, "tags": {"name": "Yusufguda", "name:fa": "\u06cc\u0648\u0633\u0641 \u06af\u0648\u062f\u0627", "name:ml": "\u0d2f\u0d42\u0d38\u0d41\u0d2b\u0d4d\u0d17\u0d41\u0d21", "name:te": "\u0c2f\u0c42\u0c38\u0c41\u0c2b\u0c4d\u200c\u0c17\u0c42\u0c21", "name:ur": "\u06cc\u0648\u0633\u0641 \u06af\u0648\u0691\u06c1", "network": "Hyderabad Metro", "note": "Contributors are requested to not edit the \"network\" and the \"operator\" tags. (2023/11/08)", "operator": "Hyderabad Metro Rail Limited", "public_transport": "station", "railway": "station", "station": "subway", "subway": "yes", "wikidata": "Q85518572"}}, {"type": "node", "id": 6700511122, "lat": 17.4352864, "lon": 78.4447834, "tags": {"name": "Ameerpet (Blue Line)", "name:fa": "\u0627\u0645\u06cc\u0631\u067e\u06cc\u062a (\u062e\u0637 \u0622\u0628\u06cc)", "name:ml": "\u0d05\u0d2e\u0d40\u0d7c\u0d2a\u0d47\u0d1f\u0d4d\u0d1f\u0d4d", "name:te": "\u0c05\u0c2e\u0c40\u0c30\u0c4d\u200c\u0c2a\u0c47\u0c1f\u0c4d", "network": "Hyderabad Metro", "note": "Contributors are requested to not edit the \"network\" and the \"operator\" tags. (2023/11/08)", "operator": "Hyderabad Metro Rail Limited", "public_transport": "station", "public_transport:version": "2", "railway": "station", "station": "subway", "subway": "yes", "wikidata": "Q56701862", "wikipedia": "en:Ameerpet metro station"}}, {"type": "node", "id": 6774880494, "lat": 17.4588091, "lon": 78.3672857, "tags": {"bench": "yes", "bin": "yes", "bus": "yes", "highway": "bus_stop", "lit": "yes", "name": "Kothaguda", "network": "10H", "public_transport": "platform", "shelter": "yes"}}, {"type": "node", "id": 6777782857, "lat": 17.4282348, "lon": 78.4137054, "tags": {"name": "Jubilee Hills Checkpost", "network": "Hyderabad Metro", "note": "Contributors are requested to not edit the \"network\" and the \"operator\" tags. (2023/11/08)", "operator": "Hyderabad Metro Rail Limited", "platforms": "2", "public_transport": "stop_position", "public_transport:version": "2", "railway": "stop", "subway": "yes", "wheelchair": "yes"}}, {"type": "node", "id": 6777782858, "lat": 17.4281969, "lon": 78.4137145, "tags": {"layer": "1", "lit": "yes", "name": "Jubilee Hills Checkpost", "name:fa": "\u0627\u06cc\u0633\u062a \u0628\u0627\u0632\u0631\u0633\u06cc \u062c\u0648\u0628\u06cc\u0644\u06cc \u0647\u06cc\u0644\u0632", "name:ml": "\u0d1c\u0d42\u0d2c\u0d3f\u0d32\u0d3f \u0d39\u0d3f\u0d7d\u0d38\u0d4d \u0d1a\u0d46\u0d15\u0d4d\u0d15\u0d4d\u0d2a\u0d4b\u0d38\u0d4d\u0d31\u0d4d\u0d31\u0d4d", "name:te": "\u0c1c\u0c42\u0c2c\u0c4d\u0c32\u0c40 \u0c39\u0c3f\u0c32\u0c4d\u0c38\u0c4d \u0c1a\u0c46\u0c15\u0c4d\u200c\u0c2a\u0c4b\u0c38\u0c4d\u0c1f\u0c4d", "network": "Hyderabad Metro", "note": "Contributors are requested to not edit the \"network\" and the \"operator\" tags. (2023/11/08)", "operator": "Hyderabad Metro Rail Limited", "platforms": "2", "public_transport": "station", "public_transport:version": "2", "railway": "station", "shelter": "yes", "station": "subway", "subway": "yes", "wheelchair": "yes", "wikidata": "Q64038090"}}, {"type": "node", "id": 7052069769, "lat": 17.4369785, "lon": 78.4390865, "tags": {"alt_name": "Taruni Madhura Nagar", "name": "Madhura Nagar", "name:te": "\u0c2e\u0c27\u0c41\u0c30 \u0c28\u0c17\u0c30\u0c4d", "network": "Hyderabad Metro", "note": "Contributors are requested to not edit the \"network\" and the \"operator\" tags. (2023/11/08)", "operator": "Hyderabad Metro Rail Limited", "public_transport": "stop_position", "railway": "stop", "subway": "yes"}}, {"type": "node", "id": 7052069770, "lat": 17.4369652, "lon": 78.4390993, "tags": {"alt_name": "Taruni Madhura Nagar", "name": "Madhura Nagar", "name:fa": "\u0645\u062f\u0647\u0648\u0631\u0627 \u0646\u06af\u0631", "name:ml": "\u0d2e\u0d27\u0d41\u0d30 \u0d28\u0d17\u0d7c", "name:te": "\u0c2e\u0c27\u0c41\u0c30 \u0c28\u0c17\u0c30\u0c4d", "name:ur": "\u0645\u062f\u06be\u0648\u0631\u0627 \u0646\u06af\u0631", "network": "Hyderabad Metro", "note": "Contributors are requested to not edit the \"network\" and the \"operator\" tags. (2023/11/08)", "operator": "Hyderabad Metro Rail Limited", "public_transport": "station", "railway": "station", "station": "subway", "subway": "yes", "wikidata": "Q63250572"}}, {"type": "node", "id": 7052069771, "lat": 17.4351156, "lon": 78.4273014, "tags": {"name": "Yusufguda", "name:te": "\u0c2f\u0c42\u0c38\u0c41\u0c2b\u0c4d\u200c\u0c17\u0c42\u0c21", "network": "Hyderabad Metro", "note": "Contributors are requested to not edit the \"network\" and the \"operator\" tags. (2023/11/08)", "operator": "Hyderabad Metro Rail Limited", "public_transport": "stop_position", "railway": "stop", "subway": "yes"}}, {"type": "node", "id": 7052069772, "lat": 17.4300489, "lon": 78.4232069, "tags": {"name": "Road No 5 Jubilee Hills", "name:fa": "\u062c\u0627\u062f\u0647 \u0634\u0645\u0627\u0631\u0647 \u06f5 \u062c\u0648\u0628\u06cc\u0644\u06cc \u0647\u06cc\u0644\u0632", "name:ml": "\u0d31\u0d4b\u0d21\u0d4d \u0d28\u0d2e\u0d4d\u0d2a\u0d7c 5 \u0d1c\u0d42\u0d2c\u0d3f\u0d32\u0d3f \u0d39\u0d3f\u0d7d\u0d38\u0d4d", "name:te": "\u0c30\u0c4b\u0c21\u0c4d \u0c28\u0c02 5 \u0c1c\u0c42\u0c2c\u0c3f\u0c32\u0c40 \u0c39\u0c3f\u0c32\u0c4d\u0c38\u0c4d", "network": "Hyderabad Metro", "note": "Contributors are requested to not edit the \"network\" and the \"operator\" tags. (2023/11/08)", "operator": "Hyderabad Metro Rail Limited", "public_transport": "station", "railway": "station", "station": "subway", "subway": "yes", "wikidata": "Q108874431"}}, {"type": "node", "id": 7052069773, "lat": 17.4306677, "lon": 78.4083833, "tags": {"name": "Peddamma Gudi", "name:te": "\u0c2a\u0c46\u0c26\u0c4d\u0c26\u0c2e\u0c4d\u0c2e \u0c17\u0c41\u0c21\u0c3f", "network": "Hyderabad Metro", "note": "Contributors are requested to not edit the \"network\" and the \"operator\" tags. (2023/11/08)", "operator": "Hyderabad Metro Rail Limited", "public_transport": "stop_position", "railway": "stop", "subway": "yes"}}, {"type": "node", "id": 7052069774, "lat": 17.4306512, "lon": 78.4083721, "tags": {"name": "Peddamma Gudi", "name:fa": "\u067e\u062f\u0627\u0645\u0627 \u06af\u0648\u062f\u06cc", "name:ml": "\u0d2a\u0d46\u0d26\u0d4d\u0d26\u0d2e\u0d4d\u0d2e \u0d17\u0d41\u0d21\u0d3f", "name:te": "\u0c2a\u0c46\u0c26\u0c4d\u0c26\u0c2e\u0c4d\u0c2e \u0c17\u0c41\u0c21\u0c3f", "name:ur": "\u067e\u06cc\u062f\u0645\u0627 \u06af\u0688\u06cc", "network": "Hyderabad Metro", "note": "Contributors are requested to not edit the \"network\" and the \"operator\" tags. (2023/11/08)", "operator": "Hyderabad Metro Rail Limited", "public_transport": "station", "railway": "station", "station": "subway", "subway": "yes", "wikidata": "Q84028775"}}, {"type": "node", "id": 7052069775, "lat": 17.44218, "lon": 78.3771819, "tags": {"name": "Raidurg", "name:fa": "\u0631\u0627\u06cc\u062f\u0648\u0631\u06af", "name:ml": "\u0d31\u0d3e\u0d2f\u0d4d\u0d26\u0d41\u0d7c\u0d17\u0d4d", "name:te": "\u0c30\u0c3e\u0c2f\u0c26\u0c41\u0c30\u0c4d\u0c17\u0c4d", "network": "Hyderabad Metro", "note": "Contributors are requested to not edit the \"network\" and the \"operator\" tags. (2023/11/08)", "operator": "Hyderabad Metro Rail Limited", "public_transport": "station", "railway": "station", "station": "subway", "subway": "yes", "wikidata": "Q58814837"}}, {"type": "node", "id": 7180083268, "lat": 17.4368702, "lon": 78.4234752}, {"type": "node", "id": 7180083269, "lat": 17.4367873, "lon": 78.4236925}, {"type": "node", "id": 7180083270, "lat": 17.4368426, "lon": 78.4237142}, {"type": "node", "id": 7180083271, "lat": 17.4369232, "lon": 78.4235307}, {"type": "node", "id": 7180083272, "lat": 17.4368679, "lon": 78.4235911, "tags": {"bus": "yes", "highway": "bus_stop", "name": "police line bus stop", "public_transport": "platform"}}, {"type": "node", "id": 7243921392, "lat": 17.3952865, "lon": 78.4352397, "tags": {"bus": "yes", "highway": "bus_stop", "name": "medipatnam bus stop", "public_transport": "platform"}}, {"type": "node", "id": 7636066509, "lat": 17.4568537, "lon": 78.4500012, "tags": {"name": "Fateh Nagar", "public_transport": "stop_position", "railway": "stop", "ref": "1", "train": "yes"}}, {"type": "node", "id": 7636066510, "lat": 17.456849, "lon": 78.4499607, "tags": {"name": "Fateh Nagar", "public_transport": "stop_position", "railway": "stop", "ref": "2", "train": "yes"}}, {"type": "node", "id": 7636066511, "lat": 17.4581144, "lon": 78.4498011}, {"type": "node", "id": 7636066512, "lat": 17.4578777, "lon": 78.4498662}, {"type": "node", "id": 7636066513, "lat": 17.4575656, "lon": 78.4499406}, {"type": "node", "id": 7636066514, "lat": 17.4557297, "lon": 78.4502752}, {"type": "node", "id": 7636066515, "lat": 17.4557195, "lon": 78.4502108}, {"type": "node", "id": 7636066516, "lat": 17.4575534, "lon": 78.4498903}, {"type": "node", "id": 7636066517, "lat": 17.457863, "lon": 78.4498212}, {"type": "node", "id": 7636066518, "lat": 17.4581016, "lon": 78.4497575}, {"type": "node", "id": 7636066519, "lat": 17.4556926, "lon": 78.4500546}, {"type": "node", "id": 7636066520, "lat": 17.4575093, "lon": 78.4497488}, {"type": "node", "id": 7636066521, "lat": 17.4578214, "lon": 78.4496798}, {"type": "node", "id": 7636066522, "lat": 17.4580511, "lon": 78.44961}, {"type": "node", "id": 7636066523, "lat": 17.4580773, "lon": 78.4496677}, {"type": "node", "id": 7636066524, "lat": 17.4578534, "lon": 78.4497361}, {"type": "node", "id": 7636066525, "lat": 17.4575323, "lon": 78.4498112}, {"type": "node", "id": 7636066526, "lat": 17.4557093, "lon": 78.4501344}, {"type": "node", "id": 7729493399, "lat": 17.4621218, "lon": 78.4295595}, {"type": "node", "id": 7729493400, "lat": 17.4620505, "lon": 78.4295583}, {"type": "node", "id": 7729493401, "lat": 17.4621949, "lon": 78.4295591}, {"type": "node", "id": 7729493402, "lat": 17.4622399, "lon": 78.4295631}, {"type": "node", "id": 7924598598, "lat": 17.4455523, "lon": 78.4522705}, {"type": "node", "id": 7924598599, "lat": 17.4452621, "lon": 78.4523927}, {"type": "node", "id": 8220206637, "lat": 17.4619127, "lon": 78.4346259}, {"type": "node", "id": 8220206638, "lat": 17.4616185, "lon": 78.4388436}, {"type": "node", "id": 8220206639, "lat": 17.4615647, "lon": 78.438841}, {"type": "node", "id": 8220206640, "lat": 17.4618628, "lon": 78.4346245}, {"type": "node", "id": 8220206641, "lat": 17.4617426, "lon": 78.4344958}, {"type": "node", "id": 8220206642, "lat": 17.4614611, "lon": 78.4385432}, {"type": "node", "id": 8220206643, "lat": 17.4613895, "lon": 78.4385405}, {"type": "node", "id": 8220206644, "lat": 17.4613895, "lon": 78.4379666}, {"type": "node", "id": 8220206645, "lat": 17.4613997, "lon": 78.4376863}, {"type": "node", "id": 8220206646, "lat": 17.4615737, "lon": 78.4352575}, {"type": "node", "id": 8220206647, "lat": 17.4616018, "lon": 78.4350108}, {"type": "node", "id": 8220206648, "lat": 17.46163, "lon": 78.4348525}, {"type": "node", "id": 8220206649, "lat": 17.4617055, "lon": 78.4344904}, {"type": "node", "id": 8405082471, "lat": 17.3946964, "lon": 78.4405242, "tags": {"bus": "yes", "highway": "bus_stop", "name": "Mehdipatnam Bus Station", "operator": "TSRTC", "public_transport": "platform"}}, {"type": "node", "id": 8405082481, "lat": 17.3948051, "lon": 78.4404249, "tags": {"bus": "yes", "highway": "bus_stop", "name": "Mehdipatnam Bus Station", "operator": "TSRTC", "public_transport": "platform"}}, {"type": "node", "id": 8405082482, "lat": 17.3947641, "lon": 78.4404769, "tags": {"bus": "yes", "highway": "bus_stop", "name": "Mehdipatnam Bus Station", "operator": "TSRTC", "public_transport": "platform"}}, {"type": "node", "id": 8501019952, "lat": 17.4388837, "lon": 78.4574835}, {"type": "node", "id": 9144573053, "lat": 17.4372637, "lon": 78.4004257, "tags": {"layer": "1", "lit": "yes", "name": "Madhapur", "name:fa": "\u0645\u0627\u062f\u0647\u0627\u067e\u0648\u0631", "name:ml": "\u0d2e\u0d3e\u0d27\u0d3e\u0d2a\u0d42\u0d7c", "name:te": "\u0c2e\u0c3e\u0c27\u0c3e\u0c2a\u0c42\u0c30\u0c4d", "network": "Hyderabad Metro", "note": "Contributors are requested to not edit the \"network\" and the \"operator\" tags. (2023/11/08)", "operator": "Hyderabad Metro Rail Limited", "platforms": "2", "public_transport": "station", "public_transport:version": "2", "railway": "station", "shelter": "yes", "station": "subway", "subway": "yes", "wheelchair": "yes", "wikidata": "Q83637027"}}, {"type": "node", "id": 10992500529, "lat": 17.3922572, "lon": 78.4405896, "tags": {"amenity": "bus_station", "bus": "yes", "name": "TSRTC BUS DEPOT , MEHADIPATANM", "public_transport": "station"}}, {"type": "node", "id": 10992500530, "lat": 17.3921581, "lon": 78.4418493, "tags": {"amenity": "bus_station", "bus": "yes", "name": "Mehdipatnam  Bus Stop", "public_transport": "station"}}, {"type": "node", "id": 11598852391, "lat": 17.4197999, "lon": 78.3481785}, {"type": "node", "id": 11598852392, "lat": 17.4197609, "lon": 78.3481682}, {"type": "node", "id": 11598852393, "lat": 17.4197413, "lon": 78.348245}, {"type": "node", "id": 11598852394, "lat": 17.4197853, "lon": 78.3482553}, {"type": "node", "id": 11738179192, "lat": 17.4209654, "lon": 78.4558011, "tags": {"addr:city": "Hyderabad", "addr:city:ar": "\u062d\u064a\u062f\u0631 \u0622\u0628\u0627\u062f", "addr:city:ur": "\u062d\u06cc\u062f\u0631\u0622\u0628\u0627\u062f", "name": "Irrum Manzil", "name:ml": "\u0d0e\u0d31\u0d02 \u0d2e\u0d7b\u0d38\u0d3f\u0d7d", "name:te": "\u0c07\u0c31\u0c02 \u0c2e\u0c02\u0c1c\u0c3f\u0c32\u0c4d", "network": "Hyderabad Metro", "note": "Contributors are requested to not edit the \"network\" and the \"operator\" tags. (2023/11/08)", "operator": "Hyderabad Metro Rail Limited", "public_transport": "stop_position", "public_transport:version": "2", "railway": "stop", "subway": "yes"}}, {"type": "node", "id": 11738179193, "lat": 17.4205559, "lon": 78.456101, "tags": {"internet_access": "no", "name": "Irrum Manzil", "name:fa": "\u0627\u0631\u0645 \u0645\u0646\u0632\u0644", "name:ml": "\u0d0e\u0d31\u0d02 \u0d2e\u0d7b\u0d38\u0d3f\u0d7d", "name:te": "\u0c07\u0c31\u0c02 \u0c2e\u0c02\u0c1c\u0c3f\u0c32\u0c4d", "name:ur": "\u0627\u0631\u0645 \u0645\u0646\u0632\u0644", "network": "Hyderabad Metro", "note": "Contributors are requested to not edit the \"network\" and the \"operator\" tags. (2023/11/08)", "operator": "Hyderabad Metro Rail Limited", "public_transport": "station", "railway": "station", "station": "subway", "subway": "yes", "website": "https://hmrl.co.in", "wheelchair": "yes", "wikidata": "Q85770033"}}, {"type": "node", "id": 11738179195, "lat": 17.4474042, "lon": 78.4383501, "tags": {"internet_access": "no", "name": "ESI Hospital", "name:fa": "\u0628\u06cc\u0645\u0627\u0631\u0633\u062a\u0627\u0646 \u0627\u06cc \u0627\u0633 \u0622\u06cc", "name:ml": "\u0d07.\u0d0e\u0d38\u0d4d.\u0d10 \u0d06\u0d36\u0d41\u0d2a\u0d24\u0d4d\u0d30\u0d3f", "name:te": "\u0c08.\u0c0e\u0c38\u0c4d.\u0c10 \u0c06\u0c38\u0c4d\u0c2a\u0c24\u0c4d\u0c30\u0c3f", "network": "Hyderabad Metro", "note": "Contributors are requested to not edit the \"network\" and the \"operator\" tags. (2023/11/08)", "operator": "Hyderabad Metro Rail Limited", "public_transport": "station", "railway": "station", "station": "subway", "subway": "yes", "website": "https://hmrl.co.in", "wheelchair": "yes", "wikidata": "Q83008743"}}, {"type": "node", "id": 11738179196, "lat": 17.4573276, "lon": 78.4334618, "tags": {"internet_access": "no", "name": "Erragadda", "name:fa": "\u0627\u0631\u0627\u06af\u062f\u0627", "name:ml": "\u0d0e\u0d31\u0d17\u0d22", "name:te": "\u0c0e\u0c30\u0c4d\u0c30\u0c17\u0c21\u0c4d\u0c21", "name:ur": "\u0627\u06cc\u0631\u06c1 \u06af\u0688\u06c1", "network": "Hyderabad Metro", "note": "Contributors are requested to not edit the \"network\" and the \"operator\" tags. (2023/11/08)", "operator": "Hyderabad Metro Rail Limited", "public_transport": "station", "railway": "station", "station": "subway", "subway": "yes", "website": "https://hmrl.co.in", "wheelchair": "yes", "wikidata": "Q82698806"}}, {"type": "node", "id": 11738179209, "lat": 17.4577203, "lon": 78.4332668, "tags": {"addr:city": "Hyderabad", "addr:city:ar": "\u062d\u064a\u062f\u0631 \u0622\u0628\u0627\u062f", "addr:city:ur": "\u062d\u06cc\u062f\u0631\u0622\u0628\u0627\u062f", "name": "Erragadda", "name:ml": "\u0d0e\u0d31\u0d17\u0d22", "name:te": "\u0c0e\u0c30\u0c4d\u0c30\u0c17\u0c21\u0c4d\u0c21", "network": "Hyderabad Metro", "note": "Contributors are requested to not edit the \"network\" and the \"operator\" tags. (2023/11/08)", "operator": "Hyderabad Metro Rail Limited", "public_transport": "stop_position", "public_transport:version": "2", "railway": "stop", "subway": "yes"}}, {"type": "node", "id": 11738179216, "lat": 17.4477279, "lon": 78.4381333, "tags": {"addr:city": "Hyderabad", "addr:city:ar": "\u062d\u064a\u062f\u0631 \u0622\u0628\u0627\u062f", "addr:city:ur": "\u062d\u06cc\u062f\u0631\u0622\u0628\u0627\u062f", "name": "ESI Hospital", "name:ml": "\u0d07.\u0d0e\u0d38\u0d4d.\u0d10 \u0d06\u0d36\u0d41\u0d2a\u0d24\u0d4d\u0d30\u0d3f", "name:te": "\u0c08.\u0c0e\u0c38\u0c4d.\u0c10 \u0c06\u0c38\u0c4d\u0c2a\u0c24\u0c4d\u0c30\u0c3f", "network": "Hyderabad Metro", "note": "Contributors are requested to not edit the \"network\" and the \"operator\" tags. (2023/11/08)", "operator": "Hyderabad Metro Rail Limited", "public_transport": "stop_position", "public_transport:version": "2", "railway": "stop", "subway": "yes"}}, {"type": "node", "id": 11738663633, "lat": 17.4286312, "lon": 78.4511322, "tags": {"internet_access": "no", "name": "Panjagutta", "name:fa": "\u067e\u0646\u062c\u0627\u06af\u0648\u062a\u0627", "name:ml": "\u0d2a\u0d1e\u0d4d\u0d1a\u0d17\u0d41\u0d1f\u0d4d\u0d1f", "name:te": "\u0c2a\u0c02\u0c1c\u0c3e\u0c17\u0c41\u0c1f\u0c4d\u0c1f", "name:ur": "\u067e\u0646\u062c\u06c1 \u06af\u0679\u06c1", "network": "Hyderabad Metro", "note": "Contributors are requested to not edit the \"network\" and the \"operator\" tags. (2023/11/08)", "operator": "Hyderabad Metro Rail Limited", "public_transport": "station", "railway": "station", "station": "subway", "subway": "yes", "website": "https://hmrl.co.in", "wheelchair": "yes"}}, {"type": "node", "id": 11770988840, "lat": 17.4343964, "lon": 78.3688876, "tags": {"bus": "yes", "highway": "bus_stop", "public_transport": "platform"}}, {"type": "node", "id": 11770988842, "lat": 17.4308354, "lon": 78.3724103, "tags": {"bus": "yes", "highway": "bus_stop", "public_transport": "platform"}}, {"type": "node", "id": 11770988859, "lat": 17.442626, "lon": 78.3774021, "tags": {"bus": "yes", "highway": "bus_stop", "public_transport": "platform"}}, {"type": "node", "id": 11770993387, "lat": 17.4263581, "lon": 78.4166031, "tags": {"bus": "yes", "highway": "bus_stop", "name": "Jubilee Hills - Checkpost", "public_transport": "platform"}}, {"type": "node", "id": 11771783688, "lat": 17.4222531, "lon": 78.3832381, "tags": {"bus": "yes", "highway": "bus_stop", "public_transport": "platform"}}, {"type": "node", "id": 11771783711, "lat": 17.4121581, "lon": 78.4321338, "tags": {"bus": "yes", "highway": "bus_stop", "public_transport": "platform"}}, {"type": "node", "id": 12114475122, "lat": 17.4455911, "lon": 78.4524172}, {"type": "node", "id": 12114475123, "lat": 17.4456117, "lon": 78.4524703}, {"type": "node", "id": 12114475124, "lat": 17.4458641, "lon": 78.4523}, {"type": "node", "id": 12114475125, "lat": 17.4458846, "lon": 78.452353}, {"type": "node", "id": 12114475126, "lat": 17.4458237, "lon": 78.4521561}, {"type": "node", "id": 12114475127, "lat": 17.4455715, "lon": 78.45232}, {"type": "node", "id": 12114475128, "lat": 17.4458433, "lon": 78.4522068}, {"type": "node", "id": 13368585997, "lat": 17.375228, "lon": 78.3959336, "tags": {"bus": "yes", "highway": "bus_stop", "name": "Ramdev Guda", "public_transport": "platform"}}, {"type": "node", "id": 13368619690, "lat": 17.3752166, "lon": 78.3969025, "tags": {"bus": "yes", "highway": "bus_stop", "name": "Ramdev Guda", "public_transport": "platform"}}, {"type": "node", "id": 13399710689, "lat": 17.4221695, "lon": 78.3811563, "tags": {"bench": "yes", "bus": "yes", "highway": "bus_stop", "name": "Khajaguda X Road", "public_transport": "platform", "shelter": "yes"}}, {"type": "node", "id": 13437031504, "lat": 17.368353, "lon": 78.4009289}, {"type": "node", "id": 13437031505, "lat": 17.3683733, "lon": 78.4009262}, {"type": "node", "id": 13437031506, "lat": 17.3683779, "lon": 78.401008}, {"type": "node", "id": 13437031507, "lat": 17.3683558, "lon": 78.4010104}, {"type": "way", "id": 130510750, "nodes": [1437208972, 1437208992, 1437208980, 1437209002, 1437208972], "tags": {"area": "yes", "public_transport": "platform", "railway": "platform"}}, {"type": "way", "id": 130510751, "nodes": [1437208986, 3461573793, 1437208993, 3461573795, 1437209009, 1437208970, 1437208991, 1437208986], "tags": {"area": "yes", "public_transport": "platform", "railway": "platform"}}, {"type": "way", "id": 130510832, "nodes": [1437209857, 7729493401, 1437209847, 1437209833, 1437209865, 1437209834, 1437209837, 1437209827, 1437209851, 1437209841, 1437209856, 1437209844, 1437209832, 1437209853, 7729493402, 1437209861, 1437209857], "tags": {"area": "yes", "public_transport": "platform", "railway": "platform"}}, {"type": "way", "id": 130510834, "nodes": [1437209863, 1437209858, 7729493399, 1437209852, 1437209854, 1437209848, 1437209826, 1437209860, 1437209836, 1437209846, 3782317022, 1437209866, 1437209862, 1437209838, 3782317047, 1437209843, 7729493400, 1437209840, 1437209863], "tags": {"area": "yes", "public_transport": "platform", "railway": "platform"}}, {"type": "way", "id": 238299270, "nodes": [2461453433, 2461453438, 2461453450, 2461453458, 2461453463, 2461453467, 3461558527, 3463720175, 3461558525, 2461453480, 2461453487, 2461453491, 2461453509, 2461453511, 2461453497, 2461453503, 2461453493, 8501019952, 2461453518, 2461453521, 2461453528, 2852473282, 2461453539, 2461453537, 2461453522, 2461453517, 2461453510, 2461453482, 2461453477, 2461453462, 2461453459, 2461453453, 2461453443, 2461453435, 2461453431, 2461453433], "tags": {"area": "yes", "public_transport": "platform", "railway": "platform"}}, {"type": "way", "id": 238299271, "nodes": [2461453499, 2461453516, 2461453526, 2461453535, 2461453538, 2461453529, 2461453519, 2461453501, 2461453478, 2461453456, 2461453446, 2461453439, 2461453432, 2461453429, 2461453427, 2461453430, 2461453434, 2461453440, 2461453448, 2461453451, 2461453455, 2461453460, 3463717321, 2461453465, 2461453473, 2461453475, 2461453470, 2461453472, 2461453466, 2461453471, 2461453474, 2461453476, 2461453479, 2461453489, 2461453499], "tags": {"area": "yes", "public_transport": "platform", "railway": "platform"}}, {"type": "way", "id": 459966696, "nodes": [4556707784, 4556707785, 12114475128, 12114475127, 4556707786, 4556707787, 7924598599, 7924598598, 12114475126, 4556707784], "tags": {"area": "yes", "public_transport": "platform", "railway": "platform", "ref": "2"}}, {"type": "way", "id": 459966697, "nodes": [4556707788, 4556708689, 12114475125, 12114475123, 4556708690, 4556708691, 12114475122, 12114475124, 4556707788], "tags": {"area": "yes", "public_transport": "platform", "railway": "platform", "ref": "1"}}, {"type": "way", "id": 635428041, "nodes": [5994099506, 5994099505, 5994099504, 5994099503, 5994099506], "tags": {"layer": "1", "name": "HITEC City", "network": "Hyderabad Metro", "network:wikidata": "Q646209", "public_transport": "station", "railway": "station", "source": "survey", "station": "subway", "subway": "yes"}}, {"type": "way", "id": 657091805, "nodes": [6154498321, 6154498152, 6154498151, 6154498150, 6154498149, 6154498148, 6154498147, 2787194458, 5598599761, 6154498321], "tags": {"amenity": "bus_station", "building": "no", "bus": "yes", "name": "Mehdipatnam Bus Station", "operator": "TSRTC", "public_transport": "station"}}, {"type": "way", "id": 769175013, "nodes": [7180083268, 7180083269, 7180083270, 7180083271, 7180083268], "tags": {"amenity": "bus_station", "building": "yes", "bus": "yes", "name": "police line bus stop", "public_transport": "station"}}, {"type": "way", "id": 817638542, "nodes": [7636066518, 7636066517, 7636066516, 7636066515, 7636066514, 7636066513, 7636066512, 7636066511, 7636066518], "tags": {"area": "yes", "public_transport": "platform", "railway": "platform"}}, {"type": "way", "id": 817638543, "nodes": [7636066526, 7636066525, 7636066524, 7636066523, 7636066522, 7636066521, 7636066520, 7636066519, 7636066526], "tags": {"area": "yes", "public_transport": "platform", "railway": "platform"}}, {"type": "way", "id": 883864217, "nodes": [8220206640, 8220206639, 8220206638, 8220206637, 8220206640], "tags": {"area": "yes", "public_transport": "platform", "railway": "platform"}}, {"type": "way", "id": 883864218, "nodes": [8220206649, 8220206648, 8220206647, 8220206646, 8220206645, 8220206644, 8220206643, 8220206642, 8220206641, 8220206649], "tags": {"area": "yes", "public_transport": "platform", "railway": "platform"}}, {"type": "way", "id": 1247721914, "nodes": [11598852391, 11598852392, 11598852393, 11598852394, 11598852391], "tags": {"bench": "yes", "bus": "yes", "public_transport": "platform", "shelter": "yes"}}, {"type": "way", "id": 1465008222, "nodes": [13437031504, 13437031505, 13437031506, 13437031507, 13437031504], "tags": {"amenity": "bus_station", "bus": "yes", "public_transport": "station"}}, {"type": "relation", "id": 8297711, "members": [{"type": "node", "ref": 6447191882, "role": ""}, {"type": "node", "ref": 2422988997, "role": "stop"}, {"type": "node", "ref": 5787787991, "role": "stop"}], "tags": {"colour": "red", "name": "Ameerpet (Red Line)", "network": "Hyderabad Metro", "operator": "HMRL", "public_transport": "stop_area", "type": "public_transport"}}, {"type": "relation", "id": 8297712, "members": [{"type": "node", "ref": 6700511122, "role": ""}, {"type": "node", "ref": 5787787982, "role": "stop"}, {"type": "node", "ref": 2422173110, "role": "stop"}], "tags": {"colour": "blue", "name": "Ameerpet (Blue Line)", "network": "Hyderabad Metro", "operator": "HMRL", "public_transport": "stop_area", "type": "public_transport"}}, {"type": "relation", "id": 9538474, "members": [{"type": "node", "ref": 6444553238, "role": ""}, {"type": "node", "ref": 5787787993, "role": "stop"}, {"type": "node", "ref": 2422989193, "role": "stop"}], "tags": {"colour": "red", "name": "S. R. Nagar", "name:te": "\u0c0e\u0c38\u0c4d.\u0c06\u0c30\u0c4d. \u0c28\u0c17\u0c30\u0c4d", "public_transport": "stop_area", "type": "public_transport"}}, {"type": "relation", "id": 9538475, "members": [{"type": "node", "ref": 6444553239, "role": ""}, {"type": "node", "ref": 2422172983, "role": "stop"}, {"type": "node", "ref": 5787787852, "role": "stop"}], "tags": {"colour": "blue", "name": "HITEC City", "name:te": "\u0c39\u0c48\u0c1f\u0c46\u0c15\u0c4d \u0c38\u0c3f\u0c1f\u0c3f", "public_transport": "stop_area", "type": "public_transport"}}, {"type": "relation", "id": 9565585, "members": [{"type": "node", "ref": 6451675812, "role": ""}, {"type": "node", "ref": 6453520185, "role": "stop"}, {"type": "node", "ref": 6453519084, "role": "stop"}], "tags": {"colour": "blue", "name": "Durgam Cheruvu", "name:te": "\u0c26\u0c41\u0c30\u0c4d\u0c17\u0c02 \u0c1a\u0c46\u0c30\u0c41\u0c35\u0c41", "network": "Hyderabad Metro", "operator": "HMRL", "public_transport": "stop_area", "type": "public_transport"}}, {"type": "relation", "id": 9873091, "members": [{"type": "node", "ref": 6672440858, "role": ""}, {"type": "node", "ref": 5787788719, "role": "stop"}, {"type": "node", "ref": 7052069771, "role": "stop"}], "tags": {"colour": "blue", "name": "Yusufguda", "name:te": "\u0c2f\u0c42\u0c38\u0c41\u0c2b\u0c4d\u200c\u0c17\u0c42\u0c21", "public_transport": "stop_area", "type": "public_transport"}}, {"type": "relation", "id": 10011782, "members": [{"type": "node", "ref": 6777782858, "role": ""}, {"type": "node", "ref": 6777782857, "role": "stop"}, {"type": "node", "ref": 2422173139, "role": "stop"}], "tags": {"colour": "blue", "name": "Jubilee Hills Checkpost", "network": "Hyderabad Metro", "note": "Contributors are requested to not edit the \"network\" and the \"operator\" tags. (2023/11/08)", "operator": "Hyderabad Metro Rail Limited", "public_transport": "stop_area", "public_transport:version": "2", "subway": "yes", "type": "public_transport"}}, {"type": "relation", "id": 10011783, "members": [{"type": "node", "ref": 9144573053, "role": ""}, {"type": "node", "ref": 5787787896, "role": "stop"}, {"type": "node", "ref": 2422173008, "role": "stop"}], "tags": {"colour": "blue", "name": "Madhapur", "name:te": "\u0c2e\u0c3e\u0c27\u0c3e\u0c2a\u0c42\u0c30\u0c4d", "network": "Hyderabad Metro", "note": "Contributors are requested to not edit the \"network\" and the \"operator\" tags. (2023/11/08)", "operator": "Hyderabad Metro Rail Limited", "public_transport": "stop_area", "public_transport:version": "2", "subway": "yes", "type": "public_transport"}}, {"type": "relation", "id": 10402712, "members": [{"type": "node", "ref": 2422172970, "role": ""}, {"type": "node", "ref": 2422172987, "role": "stop"}, {"type": "node", "ref": 5787788969, "role": "stop"}], "tags": {"colour": "blue", "name": "Begumpet", "name:te": "\u0c2c\u0c47\u0c17\u0c02\u0c2a\u0c47\u0c1f\u0c4d", "public_transport": "stop_area", "type": "public_transport"}}, {"type": "relation", "id": 10402713, "members": [{"type": "node", "ref": 7052069770, "role": ""}, {"type": "node", "ref": 7052069769, "role": "stop"}, {"type": "node", "ref": 2422172989, "role": "stop"}], "tags": {"colour": "blue", "name": "Madhura Nagar", "name:te": "\u0c2e\u0c27\u0c41\u0c30 \u0c28\u0c17\u0c30\u0c4d", "public_transport": "stop_area", "type": "public_transport"}}, {"type": "relation", "id": 10402714, "members": [{"type": "node", "ref": 7052069772, "role": ""}, {"type": "node", "ref": 5787787938, "role": "stop"}, {"type": "node", "ref": 5787788712, "role": "stop"}], "tags": {"colour": "blue", "name": "Road No 5 Jubilee Hills", "name:te": "\u0c30\u0c4b\u0c21\u0c4d \u0c28\u0c02 5 \u0c1c\u0c42\u0c2c\u0c3f\u0c32\u0c40 \u0c39\u0c3f\u0c32\u0c4d\u0c38\u0c4d", "public_transport": "stop_area", "type": "public_transport"}}, {"type": "relation", "id": 10402715, "members": [{"type": "node", "ref": 7052069774, "role": ""}, {"type": "node", "ref": 2422172978, "role": "stop"}, {"type": "node", "ref": 7052069773, "role": "stop"}], "tags": {"colour": "blue", "name": "Peddamma Gudi", "name:te": "\u0c2a\u0c46\u0c26\u0c4d\u0c26\u0c2e\u0c4d\u0c2e \u0c17\u0c41\u0c21\u0c3f", "public_transport": "stop_area", "type": "public_transport"}}, {"type": "relation", "id": 10402716, "members": [{"type": "node", "ref": 7052069775, "role": ""}, {"type": "node", "ref": 2422173105, "role": "stop"}, {"type": "node", "ref": 5787787987, "role": "stop"}], "tags": {"colour": "blue", "name": "Raidurg", "public_transport": "stop_area", "type": "public_transport"}}, {"type": "relation", "id": 17354151, "members": [{"type": "node", "ref": 11738179193, "role": ""}, {"type": "node", "ref": 11738179192, "role": "stop"}, {"type": "node", "ref": 2422989191, "role": "stop"}], "tags": {"colour": "red", "name": "Irrum Manzil", "name:te": "\u0c07\u0c31\u0c02 \u0c2e\u0c02\u0c1c\u0c3f\u0c32\u0c4d", "network": "Hyderabad Metro", "operator": "HMRL", "public_transport": "stop_area", "type": "public_transport"}}, {"type": "relation", "id": 17354153, "members": [{"type": "node", "ref": 11738179195, "role": ""}, {"type": "node", "ref": 2425474186, "role": "stop"}, {"type": "node", "ref": 11738179216, "role": "stop"}], "tags": {"colour": "red", "name": "ESI Hospital", "name:te": "\u0c08.\u0c0e\u0c38\u0c4d.\u0c10 \u0c06\u0c38\u0c4d\u0c2a\u0c24\u0c4d\u0c30\u0c3f", "network": "Hyderabad Metro", "operator": "HMRL", "public_transport": "stop_area", "type": "public_transport"}}, {"type": "relation", "id": 17354154, "members": [{"type": "node", "ref": 11738179196, "role": ""}, {"type": "node", "ref": 2422989021, "role": "stop"}, {"type": "node", "ref": 11738179209, "role": "stop"}], "tags": {"colour": "red", "name": "Erragadda", "name:te": "\u0c0e\u0c30\u0c4d\u0c30\u0c17\u0c21\u0c4d\u0c21", "network": "Hyderabad Metro", "operator": "HMRL", "public_transport": "stop_area", "type": "public_transport"}}, {"type": "relation", "id": 17354901, "members": [{"type": "node", "ref": 11738663633, "role": ""}, {"type": "node", "ref": 5787788011, "role": "stop"}, {"type": "node", "ref": 2424019772, "role": "stop"}], "tags": {"colour": "red", "name": "Panjagutta", "name:ml": "\u0d2a\u0d1e\u0d4d\u0d1a\u0d17\u0d41\u0d1f\u0d4d\u0d1f", "name:te": "\u0c2a\u0c02\u0c1c\u0c3e\u0c17\u0c41\u0c1f\u0c4d\u0c1f", "network": "Hyderabad Metro", "operator": "HMRL", "public_transport": "stop_area", "type": "public_transport"}}, {"type": "relation", "id": 17943744, "members": [{"type": "node", "ref": 343641073, "role": ""}, {"type": "way", "ref": 238299270, "role": "platform"}, {"type": "way", "ref": 238299271, "role": "platform"}, {"type": "node", "ref": 2461447891, "role": "stop"}, {"type": "node", "ref": 2461447890, "role": "stop"}], "tags": {"name": "Begumpet", "operator": "South Central Railway", "public_transport": "stop_area", "train": "yes", "type": "public_transport"}}, {"type": "relation", "id": 17943745, "members": [{"type": "node", "ref": 343319245, "role": ""}, {"type": "way", "ref": 459966696, "role": "platform"}, {"type": "way", "ref": 459966697, "role": "platform"}, {"type": "node", "ref": 4556707782, "role": "stop"}, {"type": "node", "ref": 4556707783, "role": "stop"}], "tags": {"name": "Nature Cure Hospital", "operator": "South Central Railway", "public_transport": "stop_area", "train": "yes", "type": "public_transport"}}, {"type": "relation", "id": 17943746, "members": [{"type": "node", "ref": 2528193014, "role": ""}, {"type": "way", "ref": 817638543, "role": "platform"}, {"type": "way", "ref": 817638542, "role": "platform"}, {"type": "node", "ref": 7636066510, "role": "stop"}, {"type": "node", "ref": 7636066509, "role": "stop"}], "tags": {"name": "Fateh Nagar", "operator": "South Central Railway", "public_transport": "stop_area", "train": "yes", "type": "public_transport"}}, {"type": "relation", "id": 17943747, "members": [{"type": "node", "ref": 1437209842, "role": ""}, {"type": "way", "ref": 130510832, "role": "platform"}, {"type": "way", "ref": 130510834, "role": "platform"}, {"type": "node", "ref": 2528181917, "role": "stop"}, {"type": "node", "ref": 315069354, "role": "stop"}], "tags": {"name": "Bharath Nagar", "operator": "South Central Railway", "public_transport": "stop_area", "train": "yes", "type": "public_transport"}}, {"type": "relation", "id": 17943748, "members": [{"type": "node", "ref": 1437208985, "role": ""}, {"type": "way", "ref": 130510750, "role": "platform"}, {"type": "way", "ref": 130510751, "role": "platform"}, {"type": "node", "ref": 6594683312, "role": "stop"}, {"type": "node", "ref": 2528181881, "role": "stop"}], "tags": {"name": "Borabanda", "operator": "South Central Railway", "public_transport": "stop_area", "train": "yes", "type": "public_transport"}}]}