{"version": 0.6, "generator": "Overpass API 0.7.62.8 e802775f", "osm3s": {"timestamp_osm_base": "2026-01-13T09:30:39Z", "copyright": "The data included in this document is from www.openstreetmap.org. The data is made available under ODbL."}, "elements": [{"type": "node", "id": 246446609, "lat": 19.0436727, "lon": 72.9256871, "tags": {"amenity": "school", "name": "Home for mental deficient childern"}}, {"type": "node", "id": 1360113373, "lat": 19.0423451, "lon": 72.9316158}, {"type": "node", "id": 1360113374, "lat": 19.0410142, "lon": 72.9312103}, {"type": "node", "id": 1360113375, "lat": 19.0423986, "lon": 72.9311942}, {"type": "node", "id": 1360113376, "lat": 19.0410446, "lon": 72.9316448}, {"type": "node", "id": 2319214080, "lat": 19.0393107, "lon": 72.8973985}, {"type": "node", "id": 2319214081, "lat": 19.0396691, "lon": 72.8981732}, {"type": "node", "id": 2834343355, "lat": 19.0385569, "lon": 72.9329644}, {"type": "node", "id": 2834343356, "lat": 19.0384358, "lon": 72.9337817}, {"type": "node", "id": 2834343357, "lat": 19.0376506, "lon": 72.9336625}, {"type": "node", "id": 2834343358, "lat": 19.0376673, "lon": 72.9328849}, {"type": "node", "id": 2834343359, "lat": 19.0378678, "lon": 72.932633}, {"type": "node", "id": 3125232138, "lat": 19.0408975, "lon": 72.9487218, "tags": {"addr:city": "Mumbai", "addr:postcode": "400088", "addr:street": "M G Ramchandran Marg", "amenity": "school", "name": "Azad School"}}, {"type": "node", "id": 3125242380, "lat": 19.0405291, "lon": 72.9470264}, {"type": "node", "id": 3125242381, "lat": 19.0405842, "lon": 72.9471786}, {"type": "node", "id": 3125242382, "lat": 19.0404924, "lon": 72.9471731}, {"type": "node", "id": 3125242383, "lat": 19.0404539, "lon": 72.9471015}, {"type": "node", "id": 3125242385, "lat": 19.0405291, "lon": 72.9470838, "tags": {"addr:city": "MUMBAI", "addr:housenumber": "F Sector U 3 Line Room No 1", "addr:postcode": "400088", "addr:street": "M G Ramchandran Marg", "amenity": "school", "name": "Sana Classes", "name:ur": "\u0633\u0646\u0627 \u06a9\u0644\u0627 \u0633\u064e\u06cc\u0633", "operator": "Kutty Sana Asar"}}, {"type": "node", "id": 3125252497, "lat": 19.0409351, "lon": 72.9486202}, {"type": "node", "id": 3125252498, "lat": 19.0409476, "lon": 72.9488234}, {"type": "node", "id": 3125252499, "lat": 19.0406845, "lon": 72.9489073}, {"type": "node", "id": 3125252500, "lat": 19.0406219, "lon": 72.9486511}, {"type": "node", "id": 3125252501, "lat": 19.0408683, "lon": 72.948545}, {"type": "node", "id": 3591466912, "lat": 19.0388957, "lon": 72.8972884}, {"type": "node", "id": 3591466913, "lat": 19.0389127, "lon": 72.8974504}, {"type": "node", "id": 3591466914, "lat": 19.0389658, "lon": 72.8974442}, {"type": "node", "id": 3591466915, "lat": 19.0390026, "lon": 72.8977947}, {"type": "node", "id": 3591466916, "lat": 19.0391019, "lon": 72.8972642}, {"type": "node", "id": 3591466917, "lat": 19.0391082, "lon": 72.8973239}, {"type": "node", "id": 3591466919, "lat": 19.039348, "lon": 72.8977541}, {"type": "node", "id": 3591466920, "lat": 19.0393762, "lon": 72.8972924}, {"type": "node", "id": 3591466921, "lat": 19.0393865, "lon": 72.8973896}, {"type": "node", "id": 3591466922, "lat": 19.0395651, "lon": 72.8977302}, {"type": "node", "id": 3591466923, "lat": 19.0395687, "lon": 72.8983607}, {"type": "node", "id": 3591466924, "lat": 19.0396641, "lon": 72.8977296}, {"type": "node", "id": 3591466925, "lat": 19.0396644, "lon": 72.8977821}, {"type": "node", "id": 3591466927, "lat": 19.0396697, "lon": 72.8982668}, {"type": "node", "id": 3591466928, "lat": 19.039705, "lon": 72.8977819}, {"type": "node", "id": 3591466929, "lat": 19.0397053, "lon": 72.8978407}, {"type": "node", "id": 3591466930, "lat": 19.0397443, "lon": 72.8982664}, {"type": "node", "id": 3591466931, "lat": 19.0397448, "lon": 72.8983596}, {"type": "node", "id": 3591466937, "lat": 19.0398189, "lon": 72.89784}, {"type": "node", "id": 3591466938, "lat": 19.0398208, "lon": 72.8981722}, {"type": "node", "id": 7463765592, "lat": 19.038472, "lon": 72.9453941}, {"type": "node", "id": 7463765598, "lat": 19.0366365, "lon": 72.9456677, "tags": {"addr:housenumber": "VN Purav Rd, Dhobi Ghat, Pailipada, Trombay, Mumbai, Maharashtra 400088", "amenity": "school", "name": "Sir Sayyad English High School"}}, {"type": "node", "id": 7463765602, "lat": 19.0355691, "lon": 72.9456677, "tags": {"addr:housenumber": "B R Patil Marg, Pailipada, Trombay, Mumbai, Maharashtra 400088", "amenity": "school", "name": "Crescent High School"}}, {"type": "node", "id": 7463765603, "lat": 19.0344233, "lon": 72.9441845, "tags": {"addr:housenumber": "Pailipada, Trombay, Mumbai, Maharashtra 400088", "amenity": "school", "name": "Vivekanand English High School"}}, {"type": "node", "id": 7463765609, "lat": 19.0338443, "lon": 72.9493518, "tags": {"amenity": "school", "name": "Trombay Municipal Marathi School"}}, {"type": "node", "id": 7463765611, "lat": 19.0378275, "lon": 72.951103, "tags": {"addr:housenumber": "Cheeta Camp, Trombay, Mumbai, Maharashtra 400088", "amenity": "school", "name": "Fazlani Star English High School and Junior College"}}, {"type": "node", "id": 7463765612, "lat": 19.0406739, "lon": 72.948564, "tags": {"amenity": "school", "name": "Trombay Public High School"}}, {"type": "node", "id": 7463765692, "lat": 19.037267, "lon": 72.927512}, {"type": "node", "id": 7625176811, "lat": 19.0402265, "lon": 72.9198224}, {"type": "node", "id": 7625176812, "lat": 19.039547, "lon": 72.9198009}, {"type": "node", "id": 7625176813, "lat": 19.0394963, "lon": 72.9203106}, {"type": "node", "id": 7625176814, "lat": 19.0401859, "lon": 72.9204018}, {"type": "node", "id": 7944811925, "lat": 19.0353496, "lon": 72.9274199}, {"type": "node", "id": 7944811926, "lat": 19.0353038, "lon": 72.9283641}, {"type": "node", "id": 7944811927, "lat": 19.0347805, "lon": 72.9283398}, {"type": "node", "id": 7944811928, "lat": 19.0347229, "lon": 72.9285439}, {"type": "node", "id": 7944811929, "lat": 19.0338132, "lon": 72.9284912}, {"type": "node", "id": 7944811930, "lat": 19.0338789, "lon": 72.9275647}, {"type": "node", "id": 7944811931, "lat": 19.0345431, "lon": 72.9276284}, {"type": "node", "id": 7944811932, "lat": 19.0345613, "lon": 72.9273736}, {"type": "node", "id": 7944811933, "lat": 19.0372238, "lon": 72.9260709}, {"type": "node", "id": 7944811934, "lat": 19.0371971, "lon": 72.9266838}, {"type": "node", "id": 7944811935, "lat": 19.0373183, "lon": 72.9266947}, {"type": "node", "id": 7944811937, "lat": 19.036443, "lon": 72.9274772}, {"type": "node", "id": 7944811938, "lat": 19.0364739, "lon": 72.9270773}, {"type": "node", "id": 7944811939, "lat": 19.0365622, "lon": 72.9270751}, {"type": "node", "id": 7944811940, "lat": 19.0366197, "lon": 72.9265165}, {"type": "node", "id": 7944811941, "lat": 19.0358164, "lon": 72.9264361}, {"type": "node", "id": 7944811942, "lat": 19.0358842, "lon": 72.9259579}, {"type": "node", "id": 8407343842, "lat": 19.0373047, "lon": 72.9114646}, {"type": "node", "id": 8407343843, "lat": 19.0372724, "lon": 72.9115366}, {"type": "node", "id": 8407343844, "lat": 19.037213, "lon": 72.911524}, {"type": "node", "id": 8407343845, "lat": 19.0371735, "lon": 72.9116161}, {"type": "node", "id": 8407343846, "lat": 19.0372229, "lon": 72.9117563}, {"type": "node", "id": 8407343847, "lat": 19.0370813, "lon": 72.9121592}, {"type": "node", "id": 8407343848, "lat": 19.0362644, "lon": 72.9118377}, {"type": "node", "id": 8407343849, "lat": 19.0364932, "lon": 72.9111872}, {"type": "node", "id": 8407343850, "lat": 19.0365901, "lon": 72.9111057}, {"type": "node", "id": 8407343859, "lat": 19.0369841, "lon": 72.9105975}, {"type": "node", "id": 8407343860, "lat": 19.0368263, "lon": 72.9109373}, {"type": "node", "id": 8407343861, "lat": 19.0373367, "lon": 72.9112026}, {"type": "node", "id": 8407343862, "lat": 19.0374946, "lon": 72.9108626}, {"type": "node", "id": 10278698112, "lat": 19.0390425, "lon": 72.9449918}, {"type": "node", "id": 10278698113, "lat": 19.0387956, "lon": 72.9446}, {"type": "node", "id": 10278698114, "lat": 19.0382251, "lon": 72.9450023}, {"type": "node", "id": 12600342984, "lat": 19.0362419, "lon": 72.879702}, {"type": "node", "id": 12600342985, "lat": 19.0366833, "lon": 72.8796463}, {"type": "node", "id": 12600342986, "lat": 19.0367047, "lon": 72.8798339}, {"type": "node", "id": 12600342987, "lat": 19.0366313, "lon": 72.879833}, {"type": "node", "id": 12600342988, "lat": 19.0366384, "lon": 72.8799278}, {"type": "node", "id": 12600342989, "lat": 19.036358, "lon": 72.8799113}, {"type": "node", "id": 12600342990, "lat": 19.036288, "lon": 72.8799002}, {"type": "node", "id": 12600342991, "lat": 19.0362461, "lon": 72.8798918}, {"type": "node", "id": 12600342992, "lat": 19.0362254, "lon": 72.8798781}, {"type": "node", "id": 12600342993, "lat": 19.0362331, "lon": 72.8798121}, {"type": "node", "id": 12706017665, "lat": 19.0364583, "lon": 72.905377}, {"type": "node", "id": 12706017666, "lat": 19.0364663, "lon": 72.9051958}, {"type": "node", "id": 12706017667, "lat": 19.0361664, "lon": 72.905203}, {"type": "node", "id": 12706017668, "lat": 19.0361701, "lon": 72.905396}, {"type": "way", "id": 121513368, "nodes": [1360113375, 1360113373, 1360113376, 1360113374, 1360113375], "tags": {"amenity": "school", "check_date": "2024-04-24", "name": "Nutan Vidya Mandir"}}, {"type": "way", "id": 279196737, "nodes": [2834343355, 2834343356, 2834343357, 2834343358, 2834343359, 2834343355], "tags": {"addr:city": "Mumbai", "addr:housenumber": "New Mandala", "addr:postcode": "400094", "addr:street": "V.N. Purav Marg", "amenity": "school", "check_date": "2024-04-26", "name": "Atomic Energy Central School V"}}, {"type": "way", "id": 307395924, "nodes": [3125242380, 3125242381, 3125242382, 3125242383, 3125242380], "tags": {"addr:city": "MUMBAI", "addr:housenumber": "F sector U 3 Line Room No 1", "addr:postcode": "400088", "addr:street": "M G Ramchandran Marg", "amenity": "school", "name": "Sana Classes", "operator": "Kutty Sana Asar"}}, {"type": "way", "id": 307396170, "nodes": [3125252497, 3125252498, 3125252499, 3125252500, 3125252501, 3125252497], "tags": {"addr:city": "Mumbai", "addr:postcode": "400088", "addr:street": "M G Ramchandran Marg", "amenity": "school", "name": "Azad High School and jr.college"}}, {"type": "way", "id": 353364903, "nodes": [3591466920, 3591466921, 2319214080, 3591466919, 3591466915, 3591466914, 3591466913, 3591466912, 3591466916, 3591466917, 3591466920], "tags": {"addr:city": "Chembur, Mumbai", "addr:postcode": "400074", "addr:street": "TEC Niwas Sthan Road", "amenity": "school", "building": "school", "name": "Jawahar Vidya Bhawan"}}, {"type": "way", "id": 353364906, "nodes": [3591466922, 3591466924, 3591466925, 3591466928, 3591466929, 3591466937, 3591466938, 2319214081, 3591466927, 3591466930, 3591466931, 3591466923, 3591466922], "tags": {"addr:city": "Chembur, Mumbai", "addr:postcode": "400074", "addr:street": "Ramakrishna Chemburkar Marg (Ghatkopar Mahul Road)", "amenity": "school", "building": "school", "name": "St. Sebastian's High School", "website": "http://www.sebastians.in/"}}, {"type": "way", "id": 816434676, "nodes": [7625176811, 7625176812, 7625176813, 7625176814, 7625176811], "tags": {"amenity": "school", "check_date": "2024-06-29", "name": "Atomic Energy Central School 1 Grounds"}}, {"type": "way", "id": 851810124, "nodes": [7944811925, 7944811926, 7944811927, 7944811928, 7944811929, 7944811930, 7944811931, 7944811932, 7944811925], "tags": {"amenity": "school", "name": "AECS 4"}}, {"type": "way", "id": 851810125, "nodes": [7944811933, 7944811934, 7944811935, 7463765692, 7944811937, 7944811938, 7944811939, 7944811940, 7944811941, 7944811942, 7944811933], "tags": {"addr:housenumber": "Anushakti Nagar, Mumbai, Maharashtra 400094", "addr:street": "AECS School-2 Road", "amenity": "school", "name": "Atomic Energy Central School 2"}}, {"type": "way", "id": 905319538, "nodes": [8407343842, 8407343843, 8407343844, 8407343845, 8407343846, 8407343847, 8407343848, 8407343849, 8407343850, 8407343842], "tags": {"amenity": "school", "name": "Atomic Energy Central School 6"}}, {"type": "way", "id": 905319541, "nodes": [8407343859, 8407343860, 8407343861, 8407343862, 8407343859], "tags": {"amenity": "school", "name": "Atomic Energy Central School 6 Grounds"}}, {"type": "way", "id": 1123961010, "nodes": [10278698114, 7463765592, 10278698112, 10278698113, 10278698114], "tags": {"amenity": "school", "name": "Shahaji Nagar Municipal Public School"}}, {"type": "way", "id": 1361121711, "nodes": [12600342984, 12600342985, 12600342986, 12600342987, 12600342988, 12600342989, 12600342990, 12600342991, 12600342992, 12600342993, 12600342984], "tags": {"addr:city": "Mumbai", "addr:district": "Maharashtra", "addr:postcode": "400037", "addr:street": "Sion", "amenity": "school", "name": "Lodha Oakwood School"}}, {"type": "way", "id": 1372204911, "nodes": [12706017665, 12706017666, 12706017667, 12706017668, 12706017665], "tags": {"addr:city": "Mumbai", "addr:district": "mumbai suburban", "addr:postcode": "400074", "addr:street": "ashok nagar", "amenity": "school", "building": "yes", "building:levels": "1", "name": "Model High School"}}]}