{"version": 0.6, "generator": "Overpass API 0.7.62.8 e802775f", "osm3s": {"timestamp_osm_base": "2026-01-12T15:11:30Z", "copyright": "The data included in this document is from www.openstreetmap.org. The data is made available under ODbL."}, "elements": [{"type": "node", "id": 446053937, "lat": 13.015694, "lon": 77.563702}, {"type": "node", "id": 446053938, "lat": 13.015691, "lon": 77.5639031}, {"type": "node", "id": 446053939, "lat": 13.0158506, "lon": 77.5639056}, {"type": "node", "id": 446053940, "lat": 13.0158535, "lon": 77.5637044}, {"type": "node", "id": 456039710, "lat": 12.9934872, "lon": 77.5708719}, {"type": "node", "id": 456039711, "lat": 12.993419, "lon": 77.5696323}, {"type": "node", "id": 456039712, "lat": 12.9965469, "lon": 77.5686143}, {"type": "node", "id": 456039713, "lat": 12.9965279, "lon": 77.569993}, {"type": "node", "id": 456039714, "lat": 12.995708, "lon": 77.5699876}, {"type": "node", "id": 456039715, "lat": 12.9956702, "lon": 77.5708417}, {"type": "node", "id": 456209036, "lat": 12.9704823, "lon": 77.5844827}, {"type": "node", "id": 456209040, "lat": 12.969032, "lon": 77.5861597}, {"type": "node", "id": 456209041, "lat": 12.9698959, "lon": 77.5870036}, {"type": "node", "id": 456209042, "lat": 12.9716341, "lon": 77.5867497}, {"type": "node", "id": 456209045, "lat": 12.9715663, "lon": 77.5849896}, {"type": "node", "id": 456209046, "lat": 12.9713608, "lon": 77.5852082}, {"type": "node", "id": 456209054, "lat": 12.9726031, "lon": 77.5855842}, {"type": "node", "id": 459478506, "lat": 12.9685278, "lon": 77.5952876}, {"type": "node", "id": 459815979, "lat": 12.9685229, "lon": 77.5947891}, {"type": "node", "id": 459815980, "lat": 12.9686018, "lon": 77.5952952}, {"type": "node", "id": 491504267, "lat": 12.9880598, "lon": 77.5943063}, {"type": "node", "id": 493530781, "lat": 12.9408169, "lon": 77.592661}, {"type": "node", "id": 493530784, "lat": 12.9409395, "lon": 77.592126}, {"type": "node", "id": 493530786, "lat": 12.9410122, "lon": 77.5911668}, {"type": "node", "id": 493530788, "lat": 12.9402375, "lon": 77.5909079}, {"type": "node", "id": 493530789, "lat": 12.9397567, "lon": 77.588217}, {"type": "node", "id": 493530791, "lat": 12.9374, "lon": 77.5871527}, {"type": "node", "id": 493530796, "lat": 12.935562, "lon": 77.5900109}, {"type": "node", "id": 493530798, "lat": 12.9363409, "lon": 77.5901535}, {"type": "node", "id": 493530800, "lat": 12.9385991, "lon": 77.5924953}, {"type": "node", "id": 493530801, "lat": 12.9405242, "lon": 77.5924597}, {"type": "node", "id": 519549595, "lat": 12.9981215, "lon": 77.5404836, "tags": {"addr:city": "Basaveshwara Nagar, Bangalore", "addr:district": "Bengaluru Urban", "addr:full": "#100/101, Lic Colony West Of Chord, Basaveshwaranagar", "addr:housenumber": "100", "addr:postcode": "560079", "addr:state": "Karnataka", "addr:street": "West of Chord Road (LIC Colony)", "amenity": "hospital", "email": "chordroadhospital100@yahoo.co.in", "healthcare:speciality": "multi speciality", "name": "Chord Road Hospital Pvt Ltd", "name:kn": "\u0c95\u0cca\u0cb0\u0ccd\u0ca1\u0ccd \u0cb0\u0cb8\u0ccd\u0ca4\u0cc6 \u0c86\u0cb8\u0ccd\u0caa\u0ca4\u0ccd\u0cb0\u0cc6", "operator:type": "private", "phone": "+91-80-23225858;+91-80-23225868;+91-80-23225878", "source": "OpenGovernmentData", "website": "http://www.chordroadhospitalent.com/", "wheelchair": "yes"}}, {"type": "node", "id": 529488722, "lat": 13.013826, "lon": 77.556496}, {"type": "node", "id": 530353033, "lat": 12.9978931, "lon": 77.5436127, "tags": {"addr:city": "Basaveshwara Nagar, Bangalore", "addr:housenumber": "877", "addr:postcode": "560079", "addr:street": "Modi Hospital Road (West of Chord Road)", "amenity": "hospital", "email": "pristinehospitals@pristinehospitals.com", "fax": "+91-80-41354455", "healthcare": "hospital", "name": "Pristline Hospital", "name:kn": "\u0caa\u0ccd\u0cb0\u0cbf\u0cb8\u0ccd\u0c9f\u0cc0\u0ca8\u0ccd \u0c86\u0cb8\u0ccd\u0caa\u0ca4\u0ccd\u0cb0\u0cc6", "phone": "+91-80-41354444;+91-80-51270776", "website": "http://www.pristinehospitals.com/"}}, {"type": "node", "id": 573420981, "lat": 12.9925629, "lon": 77.5949902}, {"type": "node", "id": 573420982, "lat": 12.9919307, "lon": 77.5944482}, {"type": "node", "id": 573420983, "lat": 12.9904139, "lon": 77.5954506}, {"type": "node", "id": 573420984, "lat": 12.9906983, "lon": 77.5961504}, {"type": "node", "id": 578143351, "lat": 12.9838504, "lon": 77.6060501}, {"type": "node", "id": 578143354, "lat": 12.9840783, "lon": 77.6045075}, {"type": "node", "id": 578143356, "lat": 12.9839399, "lon": 77.603692}, {"type": "node", "id": 578143360, "lat": 12.9829684, "lon": 77.6033731}, {"type": "node", "id": 578143367, "lat": 12.9822078, "lon": 77.6035776}, {"type": "node", "id": 582384953, "lat": 12.9376734, "lon": 77.5802836, "tags": {"addr:district": "Bengaluru Urban", "addr:full": "202, R.V.Road", "addr:postcode": "560001", "addr:state": "Karnataka", "addr:street": "Rashtriya Vidyalaya Road", "amenity": "hospital", "email": "info@Bengaluruhospital.co.in", "healthcare": "hospital", "name": "Bengaluru Hospital, Susruta Medical Aid AndResearch Home Limited", "name:kn": "\u0cac\u0cc6\u0c82\u0c97\u0cb3\u0cc2\u0cb0\u0cc1 \u0c86\u0cb8\u0ccd\u0caa\u0ca4\u0ccd\u0cb0\u0cc6", "operator:type": "private", "source": "OpenGovernmentData", "website": "http://dpal.kar.nic.in/Kanunu%20padakosha%20PDF%20Files/Recognised%20Hospitals.pdf"}}, {"type": "node", "id": 625856709, "lat": 13.0011275, "lon": 77.5639285, "tags": {"addr:city": "bangalore", "addr:district": "Bengaluru Urban", "addr:full": "71, 11Th Main Road, Opposite Malleshwaram Railway Station, Malleshwaram", "addr:housenumber": "71", "addr:postcode": "560003", "addr:state": "Karnataka", "addr:street": "11th Main Road, Opp Railway Station, Malleswaram", "amenity": "hospital", "name": "Manipal Northside Hospital", "phone": "080 2222 1111", "source": "OpenGovernmentData", "wheelchair": "yes"}}, {"type": "node", "id": 663596614, "lat": 12.9842446, "lon": 77.599777}, {"type": "node", "id": 663596615, "lat": 12.9831904, "lon": 77.6002669}, {"type": "node", "id": 663604723, "lat": 12.9503234, "lon": 77.6162619, "tags": {"amenity": "hospital", "healthcare": "hospital", "name": "Government Primary Health Centre", "name:kn": "\u0cb8\u0cb0\u0ccd\u0c95\u0cbe\u0cb0\u0cbf \u0caa\u0ccd\u0cb0\u0cbe\u0ca5\u0cae\u0cbf\u0c95 \u0c86\u0cb0\u0ccb\u0c97\u0ccd\u0caf \u0c95\u0cc7\u0c82\u0ca6\u0ccd\u0cb0", "ups_hospital": "hospital"}}, {"type": "node", "id": 679886725, "lat": 12.9649071, "lon": 77.5681542}, {"type": "node", "id": 679886767, "lat": 12.9635035, "lon": 77.5674932}, {"type": "node", "id": 679886785, "lat": 12.9647552, "lon": 77.5672137}, {"type": "node", "id": 679886814, "lat": 12.9639958, "lon": 77.5681757}, {"type": "node", "id": 679886851, "lat": 12.9633987, "lon": 77.5673373}, {"type": "node", "id": 679886893, "lat": 12.9637968, "lon": 77.5680521}, {"type": "node", "id": 680004360, "lat": 12.9802166, "lon": 77.56574}, {"type": "node", "id": 680004373, "lat": 12.9794404, "lon": 77.564481}, {"type": "node", "id": 680004435, "lat": 12.9793627, "lon": 77.5656525}, {"type": "node", "id": 680004477, "lat": 12.9802981, "lon": 77.5645109}, {"type": "node", "id": 769216417, "lat": 12.9364329, "lon": 77.583477, "tags": {"amenity": "hospital", "healthcare": "hospital", "name": "Ramakrishna Nursing Home and Hospital"}}, {"type": "node", "id": 954623054, "lat": 12.939058, "lon": 77.5510802, "tags": {"addr:city": "bangalore", "addr:housenumber": "8/45", "addr:postcode": "560050", "addr:street": "80 Feet Road, SBM Colony, Near-Bank Colony Bus Stop, Banashankari 1st Stage", "amenity": "hospital", "name": "Sri Vinayaka Poly Clinic", "phone": "080 2672 8455", "source": "justdial"}}, {"type": "node", "id": 1005544881, "lat": 12.9815051, "lon": 77.6011944, "tags": {"addr:city": "Bangalore", "addr:housenumber": "55", "addr:postcode": "560001", "addr:street": "Infantry Road", "amenity": "hospital", "email": "bengaluru@medinovaindia.com", "fax": "+918022867244", "name": "Mallya Audikesh Diagnostics Center", "phone": "+918022868423", "website": "http://www.medinovaindia.com"}}, {"type": "node", "id": 1006462338, "lat": 12.985247, "lon": 77.5803846, "tags": {"addr:city": "Bangalore", "addr:housenumber": "31/32", "addr:postcode": "560001", "addr:street": "Crescent Rd,Nehru Nagar,Gandhi Nagar", "amenity": "hospital", "name": "Mallige Medical Centre", "phone": "080 2220 3333", "website": "https://www.mallige.com/"}}, {"type": "node", "id": 1067181192, "lat": 13.0038999, "lon": 77.6039313, "tags": {"addr:district": "Bengaluru Urban", "addr:full": "110,6Th Main Iti Layout Benson Town Post", "addr:postcode": "560046", "addr:state": "Karnataka", "amenity": "hospital", "name": "Devine Hospital", "name:kn": "\u0ca1\u0cbf\u0cb5\u0cc8\u0ca8\u0ccd \u0c86\u0cb8\u0ccd\u0caa\u0ca4\u0ccd\u0cb0\u0cc6", "source": "OpenGovernmentData"}}, {"type": "node", "id": 1085786951, "lat": 12.9452313, "lon": 77.5861734, "tags": {"addr:street": "Siddapura Road", "amenity": "hospital", "name": "Lalbagh Nursing Home", "name:kn": "\u0cb2\u0cbe\u0cb2\u0ccd\u0cac\u0cbe\u0c97\u0ccd \u0ca8\u0cb0\u0ccd\u0cb8\u0cbf\u0c82\u0c97\u0ccd \u0cb9\u0ccb\u0c82"}}, {"type": "node", "id": 1096956219, "lat": 13.0147677, "lon": 77.5563618}, {"type": "node", "id": 1101622501, "lat": 12.9988604, "lon": 77.5817424, "tags": {"amenity": "hospital", "name": "Government Maternity Hospital", "name:kn": "\u0cb8\u0cb0\u0c95\u0cbe\u0cb0\u0cbf \u0cb9\u0cc6\u0cb0\u0cbf\u0c97\u0cc6 \u0c86\u0cb8\u0ccd\u0caa\u0ca4\u0ccd\u0cb0\u0cc6"}}, {"type": "node", "id": 1108014134, "lat": 12.9681189, "lon": 77.54325, "tags": {"amenity": "hospital", "emergency": "no", "name": "Soujanya Clinic"}}, {"type": "node", "id": 1108040901, "lat": 12.967291, "lon": 77.5429164, "tags": {"amenity": "hospital", "name": "Kanva Diagnostics Collection Centre"}}, {"type": "node", "id": 1118254826, "lat": 12.9883175, "lon": 77.5596746}, {"type": "node", "id": 1118258254, "lat": 13.0066402, "lon": 77.554223}, {"type": "node", "id": 1290125198, "lat": 13.0043642, "lon": 77.5652959, "tags": {"amenity": "hospital"}}, {"type": "node", "id": 1307598703, "lat": 12.9833885, "lon": 77.5950608}, {"type": "node", "id": 1387523802, "lat": 12.9829748, "lon": 77.5949195}, {"type": "node", "id": 1387523809, "lat": 12.9832706, "lon": 77.5940109}, {"type": "node", "id": 1387523823, "lat": 12.9836942, "lon": 77.5941561}, {"type": "node", "id": 1438212033, "lat": 12.9367955, "lon": 77.5907094, "tags": {"amenity": "hospital", "designation": "Sanatorium", "emergency": "no", "name": "SDS Tuberculosis Research Centre and Rajiv Gandhi Institute of Chest diseases", "research": "medical"}}, {"type": "node", "id": 1440343668, "lat": 12.942614, "lon": 77.5854533, "tags": {"addr:district": "Bengaluru Urban", "addr:full": "34, 10Th Main 1st Block, Jayanagar", "addr:postcode": "560011", "addr:state": "Karnataka", "amenity": "hospital", "name": "Maiya Multispecialty Hospital", "source": "OpenGovernmentData", "wheelchair": "yes"}}, {"type": "node", "id": 1446213195, "lat": 12.9387662, "lon": 77.5924922}, {"type": "node", "id": 1446213202, "lat": 12.9387276, "lon": 77.5923334}, {"type": "node", "id": 1446213205, "lat": 12.9390167, "lon": 77.5924876}, {"type": "node", "id": 1446213220, "lat": 12.9389728, "lon": 77.5922685}, {"type": "node", "id": 1446581013, "lat": 12.9474657, "lon": 77.5923861}, {"type": "node", "id": 1448082584, "lat": 12.9375871, "lon": 77.5873956}, {"type": "node", "id": 1448082587, "lat": 12.936693, "lon": 77.5911016}, {"type": "node", "id": 1448082598, "lat": 12.93618, "lon": 77.5926361}, {"type": "node", "id": 1448082604, "lat": 12.937314, "lon": 77.5872788}, {"type": "node", "id": 1448082613, "lat": 12.9363336, "lon": 77.5918227}, {"type": "node", "id": 1448082615, "lat": 12.9387741, "lon": 77.5880107}, {"type": "node", "id": 1448082622, "lat": 12.9402148, "lon": 77.5884474}, {"type": "node", "id": 1448082624, "lat": 12.9364859, "lon": 77.5914554}, {"type": "node", "id": 1448082635, "lat": 12.9390354, "lon": 77.5882017}, {"type": "node", "id": 1448082643, "lat": 12.9391547, "lon": 77.5880671}, {"type": "node", "id": 1448082645, "lat": 12.9381828, "lon": 77.587907}, {"type": "node", "id": 1448082657, "lat": 12.9411746, "lon": 77.5895257}, {"type": "node", "id": 1448082660, "lat": 12.9386347, "lon": 77.5881681}, {"type": "node", "id": 1448082662, "lat": 12.9361363, "lon": 77.5906341}, {"type": "node", "id": 1448089236, "lat": 12.9405614, "lon": 77.5899032}, {"type": "node", "id": 1448634281, "lat": 12.9356233, "lon": 77.589596}, {"type": "node", "id": 1454651983, "lat": 12.9624168, "lon": 77.6284491}, {"type": "node", "id": 1454651986, "lat": 12.9671401, "lon": 77.6094485, "tags": {"addr:district": "Bengaluru Urban", "addr:full": "#37, Castle Street, Opp Sacred Heart Church, Ashok Nagar, B.E", "addr:housenumber": "37", "addr:postcode": "560025", "addr:state": "Karnataka", "addr:street": "Castle Street", "amenity": "hospital", "name": "Narayana Netralaya", "name:kn": "\u0ca8\u0cbe\u0cb0\u0cbe\u0caf\u0ca3 \u0ca8\u0cc7\u0ca4\u0ccd\u0cb0\u0cbe\u0cb2\u0caf", "source": "OpenGovernmentData"}}, {"type": "node", "id": 1466638204, "lat": 12.9423039, "lon": 77.6174893, "tags": {"amenity": "hospital", "healthcare": "hospital", "name": "Srinivasa Nursing Home"}}, {"type": "node", "id": 1468296636, "lat": 12.9410014, "lon": 77.5454222}, {"type": "node", "id": 1468296638, "lat": 12.9408975, "lon": 77.5456958}, {"type": "node", "id": 1468296641, "lat": 12.9409341, "lon": 77.5454222}, {"type": "node", "id": 1468296642, "lat": 12.9410197, "lon": 77.545551}, {"type": "node", "id": 1468296644, "lat": 12.9410249, "lon": 77.5457012}, {"type": "node", "id": 1468296645, "lat": 12.9409184, "lon": 77.5455644}, {"type": "node", "id": 1468540733, "lat": 12.9402371, "lon": 77.6253403, "tags": {"addr:district": "Bengaluru Urban", "addr:full": "No.897/C, 80 Feet Road, 6th Block, Koramangala", "addr:postcode": "560095", "addr:state": "Karnataka", "addr:subdistrict": "Koramangala", "amenity": "hospital", "emergency": "yes", "healthcare": "hospital", "name": "Vasan Eye Care Hospital, Koramangala", "operator:type": "private", "source": "OpenGovernmentData", "website": "http://www.vasaneye.in/"}}, {"type": "node", "id": 1469181813, "lat": 12.995625, "lon": 77.6113272, "tags": {"addr:city": "Bengaluru", "addr:country": "IN", "addr:hamlet": "Frazer Town", "addr:postcode": "560005", "addr:street": "Saunders Road", "amenity": "hospital", "name": "Seventh Day Adventist Hospital", "name:kn": "\u0cb8\u0cc6\u0cb5\u0cc6\u0c82\u0ca4\u0ccd \u0ca1\u0cc7 \u0c85\u0ca1\u0ccd\u0cb5\u0cc6\u0ca8\u0ccd\u0c9f\u0cbf\u0cb8\u0ccd\u0c9f\u0ccd \u0c86\u0cb8\u0ccd\u0caa\u0ca4\u0ccd\u0cb0\u0cc6"}}, {"type": "node", "id": 1469314053, "lat": 12.9965077, "lon": 77.6220456, "tags": {"amenity": "hospital", "name": "Srinivasa Nursing Home"}}, {"type": "node", "id": 1471128628, "lat": 12.9382768, "lon": 77.6186753, "tags": {"amenity": "hospital", "emergency": "yes", "healthcare": "hospital", "name": "Pristine Health care"}}, {"type": "node", "id": 1471737564, "lat": 13.0079383, "lon": 77.5469059, "tags": {"amenity": "hospital", "name": "Suprabha Hospital", "wheelchair": "yes"}}, {"type": "node", "id": 1471738635, "lat": 13.0083564, "lon": 77.5469273, "tags": {"amenity": "hospital", "name": "Sangolli Nursing Home"}}, {"type": "node", "id": 1471781028, "lat": 13.0037682, "lon": 77.5498337, "tags": {"addr:district": "Bengaluru Urban", "addr:full": "359 / 360, 19Th Main 1 St Block Rajajinagar Near Indian Bank", "addr:postcode": "560010", "addr:state": "Karnataka", "amenity": "hospital", "healthcare": "hospital", "name": "Diacon Hospital", "source": "OpenGovernmentData", "wheelchair": "yes"}}, {"type": "node", "id": 1472808792, "lat": 13.0047859, "lon": 77.543073, "tags": {"amenity": "hospital", "name": "Namratha Hospital", "name:kn": "\u0ca8\u0cae\u0ccd\u0cb0\u0ca4 \u0c86\u0cb8\u0ccd\u0caa\u0ca4\u0ccd\u0cb0\u0cc6"}}, {"type": "node", "id": 1473002847, "lat": 13.0214364, "lon": 77.5535277}, {"type": "node", "id": 1473921774, "lat": 12.9458714, "lon": 77.5675192, "tags": {"addr:district": "Bengaluru Urban", "addr:full": "No.81,Bulltemple Road,Near Ramakrishna Ashram", "addr:postcode": "560019", "addr:state": "Karnataka", "addr:street": "Shyamaraja Iyengar Road", "amenity": "hospital", "emergency": "no", "name": "Shekar Hospital", "name:en": "Shekhar Hospital", "name:hi": "\u0936\u0947\u0916\u0930 \u0939\u0949\u0938\u094d\u092a\u093f\u091f\u0932", "name:kn": "\u0cb6\u0cc7\u0c96\u0cb0\u0ccd \u0cb9\u0cbe\u0cb8\u0ccd\u0caa\u0cbf\u0c9f\u0cb2\u0ccd", "source": "OpenGovernmentData"}}, {"type": "node", "id": 1474001855, "lat": 13.0011459, "lon": 77.5359798, "tags": {"amenity": "hospital", "emergency": "yes", "healthcare": "hospital", "name": "Punya Hospital"}}, {"type": "node", "id": 1474432217, "lat": 12.9442628, "lon": 77.5967219}, {"type": "node", "id": 1474458358, "lat": 12.9351929, "lon": 77.6086817, "tags": {"amenity": "hospital", "healthcare": "hospital", "name": "Prasad Eye Hospital"}}, {"type": "node", "id": 1474472488, "lat": 12.9387115, "lon": 77.5937737, "tags": {"amenity": "hospital", "description": "Patients initally should come here to scrrened to refer to the appropriate department for their disorder", "emergency": "no", "healthcare": "hospital", "name": "NIMHANS Screening block"}}, {"type": "node", "id": 1474472859, "lat": 12.9388056, "lon": 77.5942994, "tags": {"amenity": "hospital", "healthcare": "hospital", "name": "NIMHANS OPD"}}, {"type": "node", "id": 1474511948, "lat": 12.9483598, "lon": 77.5940621, "tags": {"addr:district": "Bengaluru Urban", "addr:full": "87/2, 8Th Cross,Wilson Garden", "addr:postcode": "560027", "addr:state": "Karnataka", "amenity": "hospital", "healthcare": "hospital", "name": "Manjunath Hospital", "name:kn": "\u0cae\u0c82\u0c9c\u0cc1\u0ca8\u0cbe\u0ca5 \u0c86\u0cb8\u0ccd\u0caa\u0ca4\u0ccd\u0cb0\u0cc6", "source": "OpenGovernmentData"}}, {"type": "node", "id": 1474512442, "lat": 12.9484356, "lon": 77.5942592, "tags": {"addr:street": "8th Cross", "amenity": "hospital", "healthcare": "hospital", "name": "Karthik Hospital", "name:kn": "\u0c95\u0cbe\u0cb0\u0ccd\u0ca4\u0cbf\u0c95\u0ccd \u0c86\u0cb8\u0ccd\u0caa\u0ca4\u0ccd\u0cb0\u0cc6"}}, {"type": "node", "id": 1474819886, "lat": 13.0022409, "lon": 77.5490879, "tags": {"addr:district": "Bengaluru Urban", "addr:full": "111, West Of Chord Road, Mahalakshmipuram, Rajajinagar I Block", "addr:postcode": "560086", "addr:state": "Karnataka", "alt_name": "Fortis Hospitals Limited, Rajajinagar", "amenity": "hospital", "healthcare": "hospital", "name": "Fortis Hospital", "name:kn": "\u0cab\u0ccb\u0cb0\u0ccd\u0c9f\u0cbf\u0cb8\u0ccd \u0c86\u0cb8\u0ccd\u0caa\u0ca4\u0ccd\u0cb0\u0cc6", "source": "OpenGovernmentData"}}, {"type": "node", "id": 1474819896, "lat": 12.9956506, "lon": 77.5510696, "tags": {"addr:city": "Bangalore", "addr:district": "Bengaluru Urban", "addr:full": "25/91, Chord Road, Iind Block, Rajajinagar", "addr:housenumber": "25/91", "addr:postcode": "560010", "addr:state": "Karnataka", "addr:street": "Chord Road", "amenity": "hospital", "name": "Citi Hospital", "opening_hours": "24/7", "phone": "+(91)-80-23131778", "phone_1": "23131777", "phone_2": "23526910", "source": "OpenGovernmentData"}}, {"type": "node", "id": 1474819897, "lat": 12.9995223, "lon": 77.5505328, "tags": {"addr:city": "Bengaluru", "addr:country": "IN", "addr:district": "Bengaluru Urban", "addr:full": "Old 389, New 46, 19th Main, 1st Block, Rajaji Nagar", "addr:hamlet": "Rajajinagar 1st Block", "addr:housenumber": "46", "addr:postcode": "560010", "addr:state": "Karnataka", "addr:street": "19th Cross Road", "amenity": "hospital", "healthcare": "hospital", "name": "Vasan Eye Care Hospital, Rajaji Nagar", "source": "OpenGovernmentData", "wheelchair": "no"}}, {"type": "node", "id": 1474819898, "lat": 12.9998205, "lon": 77.55045, "tags": {"addr:district": "Bengaluru Urban", "addr:full": "No.389/44, 19th Main, 1st Block, Rajajinagar", "addr:postcode": "560010", "addr:state": "Karnataka", "amenity": "hospital", "contact:email": "enquiries@ananyahospital.org", "emergency_telephone_code": "080 23527411;09980783835", "healthcare": "hospital", "healthcare:speciality": "Cardiology;Cosmetology;Dermatology;Diabetology;Emergency Medicine;ENT;Gastroenterology;General Medicine;General Surgery;Internal Medicine;Laparoscopic Surgery;Medical Oncology;Nephrology;Obesity;Obstetricsand Gynaecology", "medical_system": "Allopathic", "name": "Ananya Hospital", "name:kn": "\u0c85\u0ca8\u0ca8\u0ccd\u0caf \u0c86\u0cb8\u0ccd\u0caa\u0ca4\u0ccd\u0cb0\u0cc6", "operator:type": "private", "source": "https://data.gov.in", "website": "www.ananyahospital.org"}}, {"type": "node", "id": 1474820321, "lat": 12.9970915, "lon": 77.5719766, "tags": {"amenity": "hospital", "healthcare": "hospital", "name": "Baptist"}}, {"type": "node", "id": 1474827898, "lat": 12.973967, "lon": 77.5479135, "tags": {"amenity": "hospital", "name": "Shivakrupa Hospital", "name:kn": "\u0cb6\u0cbf\u0cb5\u0c95\u0cc3\u0caa \u0c86\u0cb8\u0ccd\u0caa\u0ca4\u0ccd\u0cb0\u0cc6"}}, {"type": "node", "id": 1474875685, "lat": 13.0248621, "lon": 77.6139585, "tags": {"amenity": "hospital", "emergency": "yes", "name": "Dr. Ambedkar Medical College Hospital", "name:kn": "\u0c85\u0c82\u0cac\u0cc7\u0ca1\u0ccd\u0c95\u0cb0\u0ccd \u0cb5\u0cc8\u0ca6\u0ccd\u0caf\u0c95\u0cc0\u0caf \u0c95\u0cbe\u0cb2\u0cc7\u0c9c\u0cc1 \u0c86\u0cb8\u0ccd\u0caa\u0ca4\u0ccd\u0cb0\u0cc6"}}, {"type": "node", "id": 1517317433, "lat": 12.9825652, "lon": 77.603472}, {"type": "node", "id": 1517317453, "lat": 12.9823736, "lon": 77.6035481}, {"type": "node", "id": 1520843420, "lat": 12.9900817, "lon": 77.5525369}, {"type": "node", "id": 1520843445, "lat": 12.9918867, "lon": 77.5526093}, {"type": "node", "id": 1520843455, "lat": 12.990019, "lon": 77.5543434}, {"type": "node", "id": 1611772464, "lat": 12.9694639, "lon": 77.6135166}, {"type": "node", "id": 1611772471, "lat": 12.9692291, "lon": 77.613631}, {"type": "node", "id": 1611772497, "lat": 12.9690222, "lon": 77.6129024}, {"type": "node", "id": 1617398469, "lat": 12.9926441, "lon": 77.5742046, "tags": {"addr:city": "bangalore", "addr:district": "Bengaluru Urban", "addr:full": "No.67,Link Road,Sheshadripuram", "addr:housenumber": "67", "addr:postcode": "560020", "addr:state": "Karnataka", "addr:street": "Link Rd, Malleswaram, Jai Bheema Nagar, Seshadripuram", "amenity": "hospital", "healthcare": "hospital", "name": "Sri Maruthi hospital, Sheshadripuram", "phone": "080 2344 9632", "source": "OpenGovernmentData"}}, {"type": "node", "id": 1624836124, "lat": 13.0145733, "lon": 77.5556655}, {"type": "node", "id": 1624836198, "lat": 13.0146362, "lon": 77.5564812}, {"type": "node", "id": 1632708776, "lat": 12.9635923, "lon": 77.5735617}, {"type": "node", "id": 1632708781, "lat": 12.9609064, "lon": 77.5720128}, {"type": "node", "id": 1632708784, "lat": 12.9610663, "lon": 77.5733989}, {"type": "node", "id": 1632708796, "lat": 12.9609362, "lon": 77.5720543}, {"type": "node", "id": 1632708808, "lat": 12.9613103, "lon": 77.5722069}, {"type": "node", "id": 1632708811, "lat": 12.9611323, "lon": 77.5719575}, {"type": "node", "id": 1632708861, "lat": 12.9618872, "lon": 77.5734058}, {"type": "node", "id": 1632708866, "lat": 12.961672, "lon": 77.5733164}, {"type": "node", "id": 1632708889, "lat": 12.9634706, "lon": 77.57357}, {"type": "node", "id": 1632708898, "lat": 12.9633993, "lon": 77.5735928}, {"type": "node", "id": 1632708906, "lat": 12.9616998, "lon": 77.5735952}, {"type": "node", "id": 1632708925, "lat": 12.9637386, "lon": 77.5737248}, {"type": "node", "id": 1632708928, "lat": 12.9619056, "lon": 77.573637}, {"type": "node", "id": 1632708934, "lat": 12.9636543, "lon": 77.5735268}, {"type": "node", "id": 1632708941, "lat": 12.9633974, "lon": 77.5736089}, {"type": "node", "id": 1632708947, "lat": 12.9615975, "lon": 77.5732888}, {"type": "node", "id": 1632708951, "lat": 12.9614968, "lon": 77.5732328}, {"type": "node", "id": 1632708968, "lat": 12.9634411, "lon": 77.5735601}, {"type": "node", "id": 1632708973, "lat": 12.9609748, "lon": 77.5720251}, {"type": "node", "id": 1632708976, "lat": 12.9611299, "lon": 77.5735103}, {"type": "node", "id": 1632709009, "lat": 12.9610084, "lon": 77.5726205}, {"type": "node", "id": 1632709017, "lat": 12.9615949, "lon": 77.5735579}, {"type": "node", "id": 1632709027, "lat": 12.9613888, "lon": 77.5741417}, {"type": "node", "id": 1632709048, "lat": 12.9633443, "lon": 77.5737318}, {"type": "node", "id": 1632709052, "lat": 12.9614382, "lon": 77.573406}, {"type": "node", "id": 1632709056, "lat": 12.9634811, "lon": 77.573582}, {"type": "node", "id": 1632709065, "lat": 12.9613965, "lon": 77.572327}, {"type": "node", "id": 1632709074, "lat": 12.960893, "lon": 77.5721517}, {"type": "node", "id": 1632709078, "lat": 12.9609988, "lon": 77.5720585}, {"type": "node", "id": 1632709079, "lat": 12.9611431, "lon": 77.5719724}, {"type": "node", "id": 1632709086, "lat": 12.9634018, "lon": 77.5736268}, {"type": "node", "id": 1632709091, "lat": 12.9619383, "lon": 77.5734103}, {"type": "node", "id": 1632709096, "lat": 12.9617719, "lon": 77.5735024}, {"type": "node", "id": 1632709098, "lat": 12.963528, "lon": 77.5738818}, {"type": "node", "id": 1632709106, "lat": 12.9611219, "lon": 77.5721183}, {"type": "node", "id": 1632709111, "lat": 12.9632805, "lon": 77.5739684}, {"type": "node", "id": 1632709127, "lat": 12.9634181, "lon": 77.5735675}, {"type": "node", "id": 1632709139, "lat": 12.9631721, "lon": 77.5737306}, {"type": "node", "id": 1632709141, "lat": 12.9632032, "lon": 77.5737886}, {"type": "node", "id": 1632709144, "lat": 12.9615532, "lon": 77.5734148}, {"type": "node", "id": 1632709146, "lat": 12.9608908, "lon": 77.572297}, {"type": "node", "id": 1632709151, "lat": 12.963591, "lon": 77.5737667}, {"type": "node", "id": 1632709163, "lat": 12.9632317, "lon": 77.5739593}, {"type": "node", "id": 1632709170, "lat": 12.9618173, "lon": 77.5741956}, {"type": "node", "id": 1632709175, "lat": 12.9632677, "lon": 77.573775}, {"type": "node", "id": 1632709181, "lat": 12.961012, "lon": 77.5724621}, {"type": "node", "id": 1632709198, "lat": 12.9634884, "lon": 77.5735951}, {"type": "node", "id": 1632709210, "lat": 12.9614134, "lon": 77.5734345}, {"type": "node", "id": 1632709213, "lat": 12.9618153, "lon": 77.5733792}, {"type": "node", "id": 1632709223, "lat": 12.9618579, "lon": 77.5737696}, {"type": "node", "id": 1632709230, "lat": 12.961258, "lon": 77.5738403}, {"type": "node", "id": 1632709263, "lat": 12.9634798, "lon": 77.5735144}, {"type": "node", "id": 1632709265, "lat": 12.9635149, "lon": 77.5735802}, {"type": "node", "id": 1632709272, "lat": 12.9615343, "lon": 77.5734966}, {"type": "node", "id": 1632709273, "lat": 12.9634065, "lon": 77.5735785}, {"type": "node", "id": 1632709285, "lat": 12.9632948, "lon": 77.5736392}, {"type": "node", "id": 1632709327, "lat": 12.9617111, "lon": 77.573562}, {"type": "node", "id": 1632709348, "lat": 12.9637216, "lon": 77.5736931}, {"type": "node", "id": 1632709354, "lat": 12.9616277, "lon": 77.5734424}, {"type": "node", "id": 1632709372, "lat": 12.9636224, "lon": 77.573467}, {"type": "node", "id": 1632709374, "lat": 12.9634077, "lon": 77.5736406}, {"type": "node", "id": 1632709375, "lat": 12.961969, "lon": 77.5733195}, {"type": "node", "id": 1632709376, "lat": 12.9633609, "lon": 77.5739231}, {"type": "node", "id": 1632709386, "lat": 12.9611334, "lon": 77.5739135}, {"type": "node", "id": 1632709394, "lat": 12.9612431, "lon": 77.5722834}, {"type": "node", "id": 1632709403, "lat": 12.9634257, "lon": 77.5735635}, {"type": "node", "id": 1632709422, "lat": 12.9612609, "lon": 77.5735601}, {"type": "node", "id": 1632709424, "lat": 12.9633727, "lon": 77.5736603}, {"type": "node", "id": 1632709425, "lat": 12.9612827, "lon": 77.5733848}, {"type": "node", "id": 1632709439, "lat": 12.9618438, "lon": 77.573529}, {"type": "node", "id": 1632709440, "lat": 12.9635468, "lon": 77.5734767}, {"type": "node", "id": 1632709442, "lat": 12.9638365, "lon": 77.5736696}, {"type": "node", "id": 1632709444, "lat": 12.9637036, "lon": 77.5734212}, {"type": "node", "id": 1632709474, "lat": 12.9608586, "lon": 77.5720489}, {"type": "node", "id": 1632709477, "lat": 12.9608893, "lon": 77.5720917}, {"type": "node", "id": 1632709511, "lat": 12.9610247, "lon": 77.573802}, {"type": "node", "id": 1632709513, "lat": 12.9611249, "lon": 77.573937}, {"type": "node", "id": 1632709549, "lat": 12.9617947, "lon": 77.5735918}, {"type": "node", "id": 1632709550, "lat": 12.9631549, "lon": 77.5738158}, {"type": "node", "id": 1632709559, "lat": 12.9618927, "lon": 77.573673}, {"type": "node", "id": 1632709561, "lat": 12.9617574, "lon": 77.5740375}, {"type": "node", "id": 1632709565, "lat": 12.9615834, "lon": 77.5731822}, {"type": "node", "id": 1632709569, "lat": 12.9619709, "lon": 77.5734219}, {"type": "node", "id": 1632709571, "lat": 12.9615515, "lon": 77.5734447}, {"type": "node", "id": 1632709574, "lat": 12.9614219, "lon": 77.5740498}, {"type": "node", "id": 1632709576, "lat": 12.9613585, "lon": 77.5735723}, {"type": "node", "id": 1632709577, "lat": 12.9634567, "lon": 77.5735624}, {"type": "node", "id": 1632709578, "lat": 12.9636238, "lon": 77.5738279}, {"type": "node", "id": 1632709594, "lat": 12.9608638, "lon": 77.572111}, {"type": "node", "id": 1632709611, "lat": 12.9614809, "lon": 77.5740678}, {"type": "node", "id": 1632709618, "lat": 12.9634922, "lon": 77.5738149}, {"type": "node", "id": 1632709626, "lat": 12.9633469, "lon": 77.5738968}, {"type": "node", "id": 1632709641, "lat": 12.9616069, "lon": 77.5735225}, {"type": "node", "id": 1632709654, "lat": 12.9613956, "lon": 77.573484}, {"type": "node", "id": 1632709661, "lat": 12.9615588, "lon": 77.5732549}, {"type": "node", "id": 1632709688, "lat": 12.9620052, "lon": 77.5736748}, {"type": "node", "id": 1632709691, "lat": 12.9609333, "lon": 77.5737673}, {"type": "node", "id": 1632709699, "lat": 12.9607496, "lon": 77.5722602}, {"type": "node", "id": 1632709701, "lat": 12.9614463, "lon": 77.5741635}, {"type": "node", "id": 1632709704, "lat": 12.9632273, "lon": 77.5736995}, {"type": "node", "id": 1632709707, "lat": 12.9618108, "lon": 77.5735443}, {"type": "node", "id": 1632709717, "lat": 12.9619168, "lon": 77.5735821}, {"type": "node", "id": 1632709722, "lat": 12.9632654, "lon": 77.5739403}, {"type": "node", "id": 1632709734, "lat": 12.963346, "lon": 77.5736104}, {"type": "node", "id": 1632709738, "lat": 12.9612522, "lon": 77.5734695}, {"type": "node", "id": 1707859921, "lat": 12.9918553, "lon": 77.5955229}, {"type": "node", "id": 1707859950, "lat": 12.9923661, "lon": 77.5951738}, {"type": "node", "id": 1739362236, "lat": 12.9647429, "lon": 77.5849317}, {"type": "node", "id": 1739362251, "lat": 12.9646929, "lon": 77.5842044}, {"type": "node", "id": 1739362285, "lat": 12.9639833, "lon": 77.5840472}, {"type": "node", "id": 1739362319, "lat": 12.9639525, "lon": 77.5849664}, {"type": "node", "id": 1739362370, "lat": 12.9643655, "lon": 77.585004}, {"type": "node", "id": 1739362385, "lat": 12.9645671, "lon": 77.5841174}, {"type": "node", "id": 1739366976, "lat": 12.9645699, "lon": 77.5842}, {"type": "node", "id": 1778953072, "lat": 12.9744053, "lon": 77.5426819, "tags": {"addr:district": "Bengaluru Urban", "addr:full": "# 91, Magadi Chord Road", "addr:postcode": "560040", "addr:state": "Karnataka", "amenity": "hospital", "designation": "Gayathri Nursing Home", "emergency": "yes", "name": "Gayathri Hospital, Bengaluru Urban", "operator:type": "private", "source": "OpenGovernmentData", "website": "http://dpal.kar.nic.in/Kanunu%20padakosha%20PDF%20Files/Recognised%20Hospitals.pdf", "wheelchair": "no"}}, {"type": "node", "id": 1780474089, "lat": 12.9736183, "lon": 77.5647794}, {"type": "node", "id": 1791567114, "lat": 12.9534505, "lon": 77.5705954}, {"type": "node", "id": 1809622904, "lat": 12.9799069, "lon": 77.5389254}, {"type": "node", "id": 1809622908, "lat": 12.9800265, "lon": 77.5387148}, {"type": "node", "id": 1809622909, "lat": 12.9807207, "lon": 77.539317}, {"type": "node", "id": 1809622910, "lat": 12.9808268, "lon": 77.5390417}, {"type": "node", "id": 1809622941, "lat": 12.9776656, "lon": 77.5430998}, {"type": "node", "id": 1809622942, "lat": 12.9770135, "lon": 77.5424279}, {"type": "node", "id": 1809622943, "lat": 12.9769482, "lon": 77.543187}, {"type": "node", "id": 1809622944, "lat": 12.9777715, "lon": 77.5425472}, {"type": "node", "id": 1837634259, "lat": 12.9840698, "lon": 77.6038967}, {"type": "node", "id": 1838375769, "lat": 12.9903223, "lon": 77.5943339}, {"type": "node", "id": 1851701912, "lat": 12.9567115, "lon": 77.6048938}, {"type": "node", "id": 1905152108, "lat": 12.9411061, "lon": 77.5850591, "tags": {"amenity": "hospital", "emergency": "no", "name": "Kottakkal Arya Vaidya Sala", "source": "survey"}}, {"type": "node", "id": 2019362244, "lat": 13.0078742, "lon": 77.5625316, "tags": {"addr:city": "Bangalore", "addr:street": "11th Main Road,17th Cross", "amenity": "hospital", "dispensing": "yes", "name": "Cloud Nine Hospital", "note": "Only for pregnency", "phone": "9972999729"}}, {"type": "node", "id": 2026076836, "lat": 12.9993857, "lon": 77.5606403, "tags": {"addr:district": "Bengaluru Urban", "addr:full": "No 3367,5Th Cross, Gayathri Nagar", "addr:postcode": "560021", "addr:state": "Karnataka", "amenity": "hospital", "emergency": "yes", "name": "Nayak Hospital, Gayathri Nagar", "source": "OpenGovernmentData"}}, {"type": "node", "id": 2247460571, "lat": 12.9948082, "lon": 77.5935079}, {"type": "node", "id": 2249069522, "lat": 12.9856882, "lon": 77.5435424, "tags": {"addr:district": "Bengaluru Urban", "addr:full": "#6, Thimmaiah Layout, 1st Main 3rd D Cross, 3rd Stage, 2nd Block", "addr:postcode": "560079", "addr:state": "Karnataka", "addr:subdistrict": "Basaveshwaranagar", "amenity": "hospital", "name": "Shanbhag Hospital", "operator:type": "private", "source": "OpenGovernmentData", "website": "http://snsvo7.seekandsource.com/shanbhag/", "wheelchair": "yes"}}, {"type": "node", "id": 2268407035, "lat": 12.9946566, "lon": 77.5397544, "tags": {"addr:district": "Bengaluru Urban", "addr:full": "No. 463, 1st Block, 3Road Stage, Dr.Siddaiah Puranika Road, Basaveshwaranagear", "addr:postcode": "560079", "addr:state": "Karnataka", "amenity": "hospital", "healthcare": "hospital", "name": "Trupti Nursing Home", "source": "OpenGovernmentData"}}, {"type": "node", "id": 2296630617, "lat": 12.998445, "lon": 77.5463468}, {"type": "node", "id": 2296638505, "lat": 13.000431, "lon": 77.5411664, "tags": {"amenity": "hospital", "emergency": "no", "healthcare": "hospital", "name": "Krupa Medical center"}}, {"type": "node", "id": 2475117856, "lat": 12.9384822, "lon": 77.5983896}, {"type": "node", "id": 2475117859, "lat": 12.9373526, "lon": 77.5996754}, {"type": "node", "id": 2475117860, "lat": 12.9351044, "lon": 77.5966023}, {"type": "node", "id": 2475117870, "lat": 12.9378533, "lon": 77.5973517}, {"type": "node", "id": 2475117871, "lat": 12.9345698, "lon": 77.5988815}, {"type": "node", "id": 2475117938, "lat": 12.9350783, "lon": 77.5968001}, {"type": "node", "id": 2475118016, "lat": 12.9378865, "lon": 77.5989042}, {"type": "node", "id": 2483779679, "lat": 12.9736894, "lon": 77.5369482, "tags": {"addr:city": "Bangalore", "addr:housename": "Near Ganapathi Temple", "addr:postcode": "560040", "addr:street": "Vijayanagar Water Tank Road", "amenity": "hospital", "name": "Penta Care Ayurvedic Hospital"}}, {"type": "node", "id": 2484900084, "lat": 12.9436624, "lon": 77.5419997, "tags": {"addr:city": "Bangalore", "addr:housename": "Near BDA Park", "addr:housenumber": "63", "addr:postcode": "560085", "addr:street": "6th Main Road", "amenity": "hospital", "name": "Shalini Nursing & MAternity Home"}}, {"type": "node", "id": 2487658338, "lat": 12.9729127, "lon": 77.5394723, "tags": {"addr:city": "Bangalore", "addr:housename": "Service Road, Near Park View, Vijayanagar", "addr:postcode": "560040", "addr:street": "6th Main", "amenity": "hospital", "name": "Shreya Poly Clinic"}}, {"type": "node", "id": 2533566686, "lat": 13.0007683, "lon": 77.6132902, "tags": {"amenity": "hospital", "name": "United Medical lab", "name:kn": "\u0caf\u0cc1\u0ca8\u0cc8\u0c9f\u0cc6\u0ca1\u0ccd \u0cae\u0cc6\u0ca1\u0cbf\u0c95\u0cb2\u0ccd \u0cb2\u0ccd\u0caf\u0cbe\u0cac\u0ccd"}}, {"type": "node", "id": 2554302512, "lat": 12.9843701, "lon": 77.555666, "tags": {"amenity": "hospital", "name": "Pragathi Ayurvedic Center", "wheelchair": "no"}}, {"type": "node", "id": 2623402149, "lat": 12.9644702, "lon": 77.5928447}, {"type": "node", "id": 2623402150, "lat": 12.9643526, "lon": 77.5928366}, {"type": "node", "id": 2623402151, "lat": 12.9643496, "lon": 77.5925022}, {"type": "node", "id": 2623402152, "lat": 12.9644937, "lon": 77.592445}, {"type": "node", "id": 2623402153, "lat": 12.9643578, "lon": 77.5924316}, {"type": "node", "id": 2705350740, "lat": 12.9361689, "lon": 77.5944231}, {"type": "node", "id": 2705350763, "lat": 12.9434673, "lon": 77.5971222}, {"type": "node", "id": 2705350771, "lat": 12.9349533, "lon": 77.5932473}, {"type": "node", "id": 2705350776, "lat": 12.9362071, "lon": 77.5927708}, {"type": "node", "id": 2705350781, "lat": 12.9349386, "lon": 77.5940938}, {"type": "node", "id": 2767224739, "lat": 12.9905166, "lon": 77.5647289}, {"type": "node", "id": 2767224740, "lat": 12.99098, "lon": 77.5647436}, {"type": "node", "id": 2767224741, "lat": 12.9905063, "lon": 77.5650728}, {"type": "node", "id": 2767224743, "lat": 12.9905093, "lon": 77.5649713}, {"type": "node", "id": 2767224744, "lat": 12.9909697, "lon": 77.5650875}, {"type": "node", "id": 2914260121, "lat": 12.9623406, "lon": 77.5342853, "tags": {"addr:district": "Bengaluru Urban", "addr:full": "No.1133/F,30 Ft.Service Road, R.P.C. Layout,Vijaynagar", "addr:postcode": "560040", "addr:state": "Karnataka", "amenity": "hospital", "healthcare": "hospital", "name": "Sharavathi Hospitals (P) Ltd.", "source": "OpenGovernmentData"}}, {"type": "node", "id": 3039639118, "lat": 12.9417609, "lon": 77.5676447}, {"type": "node", "id": 3118790621, "lat": 12.9364674, "lon": 77.5841345}, {"type": "node", "id": 3118790622, "lat": 12.9361197, "lon": 77.5841318}, {"type": "node", "id": 3118790623, "lat": 12.9360962, "lon": 77.5845073}, {"type": "node", "id": 3118790624, "lat": 12.9362321, "lon": 77.5845529}, {"type": "node", "id": 3118790625, "lat": 12.9364595, "lon": 77.5845503}, {"type": "node", "id": 3198616664, "lat": 12.9863154, "lon": 77.5788564}, {"type": "node", "id": 3198616666, "lat": 12.9866991, "lon": 77.5791557}, {"type": "node", "id": 3320950153, "lat": 12.9889265, "lon": 77.5947264}, {"type": "node", "id": 3320950154, "lat": 12.9887431, "lon": 77.5949331}, {"type": "node", "id": 3320950160, "lat": 12.9882621, "lon": 77.5941516}, {"type": "node", "id": 3334054156, "lat": 13.0099493, "lon": 77.5935768}, {"type": "node", "id": 3334054158, "lat": 13.0100512, "lon": 77.5947007}, {"type": "node", "id": 3334054177, "lat": 13.0102759, "lon": 77.5940703}, {"type": "node", "id": 3391834193, "lat": 13.0116947, "lon": 77.5437623}, {"type": "node", "id": 3391834194, "lat": 13.0118449, "lon": 77.543884}, {"type": "node", "id": 3391834195, "lat": 13.0117815, "lon": 77.5439493}, {"type": "node", "id": 3391834196, "lat": 13.0117236, "lon": 77.5439225}, {"type": "node", "id": 3391834197, "lat": 13.0117024, "lon": 77.5439502}, {"type": "node", "id": 3391834198, "lat": 13.0116773, "lon": 77.5439284}, {"type": "node", "id": 3391834199, "lat": 13.0116195, "lon": 77.5439838}, {"type": "node", "id": 3391834200, "lat": 13.0115386, "lon": 77.5439225}, {"type": "node", "id": 3394753831, "lat": 12.9425246, "lon": 77.6025303, "tags": {"addr:district": "Bengaluru Urban", "addr:full": "1, 1st Cross, Gupta Layout,Lakksandra, Near Dairy Circle", "addr:housenumber": "#1", "addr:postcode": "560030", "addr:state": "Karnataka", "addr:street": "Bannerghatta Road", "amenity": "hospital", "name": "Sree Venkateshwara Speciality Hospital", "name:kn": "\u0cb6\u0ccd\u0cb0\u0cc0 \u0cb5\u0cc6\u0c82\u0c95\u0c9f\u0cc6\u0cb6\u0ccd\u0cb5\u0cb0 \u0c86\u0cb8\u0ccd\u0caa\u0ca4\u0ccd\u0cb0\u0cc6"}}, {"type": "node", "id": 3400223539, "lat": 13.0002667, "lon": 77.5694894, "tags": {"addr:district": "Bengaluru Urban", "addr:full": "# 133, Margosa Road,10Th Cross, Malleshwaram", "addr:postcode": "560003", "addr:state": "Karnataka", "amenity": "hospital", "healthcare": "hospital", "name": "Leela Hospital and Diagnostic Center", "source": "OpenGovernmentData"}}, {"type": "node", "id": 3400223541, "lat": 12.968031, "lon": 77.5878222, "tags": {"amenity": "hospital", "name": "Dr. Rajkumar Blood Bank"}}, {"type": "node", "id": 3415857085, "lat": 12.9354528, "lon": 77.5942138}, {"type": "node", "id": 3415857086, "lat": 12.935489, "lon": 77.5936333}, {"type": "node", "id": 3415857087, "lat": 12.935758, "lon": 77.5934435}, {"type": "node", "id": 3415857088, "lat": 12.9357868, "lon": 77.5933622}, {"type": "node", "id": 3415857089, "lat": 12.9359477, "lon": 77.5933598}, {"type": "node", "id": 3415857090, "lat": 12.9359789, "lon": 77.5927659}, {"type": "node", "id": 3415857091, "lat": 12.9360532, "lon": 77.5942533}, {"type": "node", "id": 3415857092, "lat": 12.936087, "lon": 77.5927708}, {"type": "node", "id": 3415857193, "lat": 12.9360894, "lon": 77.5936727}, {"type": "node", "id": 3415857197, "lat": 12.936183, "lon": 77.5936678}, {"type": "node", "id": 3415857201, "lat": 12.9363392, "lon": 77.5937713}, {"type": "node", "id": 3422041073, "lat": 12.9356054, "lon": 77.5897045}, {"type": "node", "id": 3422041295, "lat": 12.9361328, "lon": 77.5896621}, {"type": "node", "id": 3422041298, "lat": 12.9363913, "lon": 77.5895595}, {"type": "node", "id": 3422041315, "lat": 12.9369876, "lon": 77.5891528}, {"type": "node", "id": 3422041322, "lat": 12.937384, "lon": 77.5883535}, {"type": "node", "id": 3422041323, "lat": 12.9373909, "lon": 77.588732}, {"type": "node", "id": 3422041324, "lat": 12.937477, "lon": 77.5888911}, {"type": "node", "id": 3422041325, "lat": 12.9374874, "lon": 77.5891387}, {"type": "node", "id": 3422041327, "lat": 12.9377907, "lon": 77.5883359}, {"type": "node", "id": 3425328776, "lat": 12.9406537, "lon": 77.5678462}, {"type": "node", "id": 3425328780, "lat": 12.9414736, "lon": 77.5678339}, {"type": "node", "id": 3450573832, "lat": 12.9756047, "lon": 77.5643777}, {"type": "node", "id": 3450573833, "lat": 12.9743718, "lon": 77.5648704}, {"type": "node", "id": 3450573834, "lat": 12.9747892, "lon": 77.5630258}, {"type": "node", "id": 3450573835, "lat": 12.975074, "lon": 77.5650884}, {"type": "node", "id": 3450573836, "lat": 12.9733045, "lon": 77.5631586}, {"type": "node", "id": 3450573837, "lat": 12.9754479, "lon": 77.5629561}, {"type": "node", "id": 3450573838, "lat": 12.9754308, "lon": 77.5648577}, {"type": "node", "id": 3525674088, "lat": 12.9998316, "lon": 77.614639}, {"type": "node", "id": 3525674091, "lat": 12.9998648, "lon": 77.6143285}, {"type": "node", "id": 3525674205, "lat": 13.0000958, "lon": 77.6146687}, {"type": "node", "id": 3525674209, "lat": 13.000129, "lon": 77.6143583}, {"type": "node", "id": 3530510343, "lat": 12.9655116, "lon": 77.6097999}, {"type": "node", "id": 3530510383, "lat": 12.9656379, "lon": 77.6099449}, {"type": "node", "id": 3530510527, "lat": 12.9658525, "lon": 77.6094872}, {"type": "node", "id": 3530510570, "lat": 12.9659788, "lon": 77.6096322}, {"type": "node", "id": 3535000927, "lat": 12.9460615, "lon": 77.5948157}, {"type": "node", "id": 3535000952, "lat": 12.946203, "lon": 77.594594}, {"type": "node", "id": 3535000968, "lat": 12.9463265, "lon": 77.5949738}, {"type": "node", "id": 3535000988, "lat": 12.9464982, "lon": 77.5947615}, {"type": "node", "id": 3535553589, "lat": 12.9487525, "lon": 77.5967521}, {"type": "node", "id": 3535553599, "lat": 12.9493822, "lon": 77.5963574}, {"type": "node", "id": 3535553601, "lat": 12.9493222, "lon": 77.5972587}, {"type": "node", "id": 3535553615, "lat": 12.9496434, "lon": 77.5969043}, {"type": "node", "id": 3535630375, "lat": 12.9786302, "lon": 77.5744195}, {"type": "node", "id": 3535630381, "lat": 12.978641, "lon": 77.5745168}, {"type": "node", "id": 3535630510, "lat": 12.978747, "lon": 77.5744059}, {"type": "node", "id": 3535630517, "lat": 12.9787577, "lon": 77.5745031}, {"type": "node", "id": 3537802305, "lat": 12.9882064, "lon": 77.5726591}, {"type": "node", "id": 3537802306, "lat": 12.9882411, "lon": 77.5723901}, {"type": "node", "id": 3537802307, "lat": 12.988224, "lon": 77.5726601}, {"type": "node", "id": 3537802308, "lat": 12.9882195, "lon": 77.5727387}, {"type": "node", "id": 3537802309, "lat": 12.9882714, "lon": 77.5729925}, {"type": "node", "id": 3537802310, "lat": 12.9882796, "lon": 77.5728496}, {"type": "node", "id": 3537802311, "lat": 12.9883684, "lon": 77.5729983}, {"type": "node", "id": 3537802313, "lat": 12.988387, "lon": 77.5726725}, {"type": "node", "id": 3537802314, "lat": 12.9884132, "lon": 77.5724732}, {"type": "node", "id": 3537802315, "lat": 12.9884125, "lon": 77.572674}, {"type": "node", "id": 3537802316, "lat": 12.9884174, "lon": 77.5724007}, {"type": "node", "id": 3537802317, "lat": 12.988424, "lon": 77.5724739}, {"type": "node", "id": 3537864040, "lat": 12.9927273, "lon": 77.5387084}, {"type": "node", "id": 3537864045, "lat": 12.9927873, "lon": 77.5385401}, {"type": "node", "id": 3537864051, "lat": 12.9928589, "lon": 77.5387518}, {"type": "node", "id": 3537864052, "lat": 12.9929001, "lon": 77.5385824}, {"type": "node", "id": 3537864054, "lat": 12.9929167, "lon": 77.5385897}, {"type": "node", "id": 3537864061, "lat": 12.9930336, "lon": 77.5386336}, {"type": "node", "id": 3544299986, "lat": 12.9391198, "lon": 77.5512468}, {"type": "node", "id": 3544300103, "lat": 12.9391862, "lon": 77.5514089}, {"type": "node", "id": 3544300106, "lat": 12.9391903, "lon": 77.5512164}, {"type": "node", "id": 3544300124, "lat": 12.9392567, "lon": 77.5513785}, {"type": "node", "id": 3549018169, "lat": 13.0083958, "lon": 77.5685903}, {"type": "node", "id": 3549018173, "lat": 13.0084024, "lon": 77.5682498}, {"type": "node", "id": 3549018212, "lat": 13.0085522, "lon": 77.5685935}, {"type": "node", "id": 3549018217, "lat": 13.0085588, "lon": 77.5682529}, {"type": "node", "id": 3602104364, "lat": 12.9954824, "lon": 77.535466}, {"type": "node", "id": 3602104369, "lat": 12.9954992, "lon": 77.5353546}, {"type": "node", "id": 3602104516, "lat": 12.995634, "lon": 77.5354901}, {"type": "node", "id": 3602104521, "lat": 12.9956509, "lon": 77.5353788}, {"type": "node", "id": 3602433012, "lat": 12.9882971, "lon": 77.5343608}, {"type": "node", "id": 3602433030, "lat": 12.988331, "lon": 77.534258}, {"type": "node", "id": 3602433054, "lat": 12.9883934, "lon": 77.5343943}, {"type": "node", "id": 3602433072, "lat": 12.9884273, "lon": 77.5342914}, {"type": "node", "id": 3700542233, "lat": 12.9882181, "lon": 77.5724539}, {"type": "node", "id": 3700542234, "lat": 12.9882374, "lon": 77.572455}, {"type": "node", "id": 3710210170, "lat": 12.9474222, "lon": 77.5986921, "tags": {"amenity": "hospital", "healthcare": "hospital", "name": "Krishna Nursing Home"}}, {"type": "node", "id": 3714125744, "lat": 12.9900105, "lon": 77.5988107, "tags": {"addr:district": "Bengaluru Urban", "addr:full": "Queens Road", "addr:state": "Karnataka", "addr:street": "Queen's Road", "amenity": "hospital", "name": "Shifa Hospital, Bengaluru Urban", "name:kn": "\u0cb6\u0cbf\u0cab\u0cbe \u0c86\u0cb8\u0ccd\u0caa\u0ca4\u0ccd\u0cb0\u0cc6", "operator:type": "private", "source": "OpenGovernmentData", "website": "http://dpal.kar.nic.in/Kanunu%20padakosha%20PDF%20Files/Recognised%20Hospitals.pdf"}}, {"type": "node", "id": 3751677696, "lat": 12.9885534, "lon": 77.5920009}, {"type": "node", "id": 3751677697, "lat": 12.9881065, "lon": 77.5925371}, {"type": "node", "id": 3751677698, "lat": 12.9878634, "lon": 77.5923413}, {"type": "node", "id": 3751677699, "lat": 12.9883192, "lon": 77.5917773}, {"type": "node", "id": 3770161958, "lat": 12.9543778, "lon": 77.5714995}, {"type": "node", "id": 3773028057, "lat": 12.9603157, "lon": 77.5930493, "tags": {"addr:city": "Bengaluru", "addr:district": "Bengaluru Urban", "addr:full": "44-45/2, 2nd Cross Raja Rammohan Roy Extn Off Lalbagh Double Road", "addr:postcode": "560027", "addr:state": "Karnataka", "amenity": "hospital", "building": "hospital", "name": "HCG Cancer Hospital", "source": "OpenGovernmentData", "website": "https://www.hcgoncology.com/"}}, {"type": "node", "id": 3922280181, "lat": 12.9584755, "lon": 77.5919279, "tags": {"amenity": "hospital", "name": "Health Care Global"}}, {"type": "node", "id": 3942993142, "lat": 12.9819805, "lon": 77.6043112}, {"type": "node", "id": 3942993148, "lat": 12.9827887, "lon": 77.603376}, {"type": "node", "id": 4008910190, "lat": 13.0082293, "lon": 77.5633515}, {"type": "node", "id": 4008910191, "lat": 13.0081174, "lon": 77.5633492}, {"type": "node", "id": 4008910192, "lat": 13.008116, "lon": 77.5635795}, {"type": "node", "id": 4008910193, "lat": 13.0082315, "lon": 77.563504}, {"type": "node", "id": 4030269686, "lat": 12.9821131, "lon": 77.6056163}, {"type": "node", "id": 4030269688, "lat": 12.982526, "lon": 77.6056}, {"type": "node", "id": 4030279575, "lat": 12.9906194, "lon": 77.6019441}, {"type": "node", "id": 4030279576, "lat": 12.9906494, "lon": 77.6009547}, {"type": "node", "id": 4030279577, "lat": 12.9906768, "lon": 77.6008526}, {"type": "node", "id": 4030279578, "lat": 12.990971, "lon": 77.6006119}, {"type": "node", "id": 4030279580, "lat": 12.9917597, "lon": 77.6019527}, {"type": "node", "id": 4030279582, "lat": 12.9918111, "lon": 77.6015374}, {"type": "node", "id": 4030279585, "lat": 12.9919243, "lon": 77.600918}, {"type": "node", "id": 4044099876, "lat": 12.9489193, "lon": 77.6199783}, {"type": "node", "id": 4044099877, "lat": 12.9490186, "lon": 77.6198067}, {"type": "node", "id": 4044099878, "lat": 12.9490317, "lon": 77.6200427}, {"type": "node", "id": 4044099880, "lat": 12.9491266, "lon": 77.6198715}, {"type": "node", "id": 4107785991, "lat": 12.9601534, "lon": 77.5840184}, {"type": "node", "id": 4107785992, "lat": 12.9602284, "lon": 77.583911}, {"type": "node", "id": 4127931135, "lat": 12.9542849, "lon": 77.5721857}, {"type": "node", "id": 4171032289, "lat": 12.9767055, "lon": 77.5424167, "tags": {"addr:street": "8th cross", "amenity": "hospital"}}, {"type": "node", "id": 4343881190, "lat": 12.9850421, "lon": 77.5460481, "tags": {"addr:district": "Bengaluru Urban", "addr:full": "No 370.371,I Stage West Of Cord Road", "addr:postcode": "560079", "addr:state": "Karnataka", "amenity": "hospital", "name": "Dr Raos Maternity Hospital", "source": "OpenGovernmentData"}}, {"type": "node", "id": 4349307192, "lat": 12.9485535, "lon": 77.5748248, "tags": {"amenity": "hospital", "check_date": "2024-03-09", "healthcare:speciality": "gynaecology", "name": "Sagar Chandramma Hospitals", "name:en": "Sagar Chandramma Hospitals"}}, {"type": "node", "id": 4353504160, "lat": 12.9474781, "lon": 77.5924324}, {"type": "node", "id": 4353504182, "lat": 12.9476872, "lon": 77.5927462}, {"type": "node", "id": 4353504208, "lat": 12.9480113, "lon": 77.5928052}, {"type": "node", "id": 4392383890, "lat": 12.9368104, "lon": 77.6206345, "tags": {"addr:district": "Bengaluru Urban", "addr:full": "No.58, 5th Cross, 18th Main Dhanlakshmi Bank Building", "addr:postcode": "560095", "addr:state": "Karnataka", "addr:subdistrict": "Koramangala", "amenity": "hospital", "email": "contactus@apollocradle.com", "healthcare:speciality": "Maternity Services; Birthing Fertility and IVF; Woman's Health; Women Health Checks; Procedures; Cancer Evaluation; Children's Health; New Born Screening; Vaccination", "name": "Apollo Cradle", "name:en": "Apollo Cradle", "operator:type": "private", "source": "OpenGovernmentData", "website": "https://www.apollocradle.com/"}}, {"type": "node", "id": 4406333893, "lat": 12.9717049, "lon": 77.5493718, "tags": {"amenity": "hospital", "name": "Shiva Kumaraswamy Building", "name:en": "shiva kumaraswamy building"}}, {"type": "node", "id": 4444989840, "lat": 12.9390944, "lon": 77.5619057, "tags": {"addr:city": "bangalore", "addr:housenumber": "11/2", "addr:postcode": "560079", "addr:street": "Magadi Main Road", "amenity": "hospital", "name": "Sarvodaya Hospital", "name:kn": "\u0cb8\u0cb0\u0ccd\u0cb5\u0ccb\u0ca6\u0caf \u0c86\u0cb8\u0ccd\u0caa\u0ca4\u0ccd\u0cb0\u0cc6", "phone": "098440 74946"}}, {"type": "node", "id": 4445356902, "lat": 12.966771, "lon": 77.5349228, "tags": {"addr:city": "Bangalore", "addr:postcode": "560040", "addr:street": "17th Cross Rd, Service Road, Opp. Maruthi Mandir, TTMC Bus Stop, Govindaraja Nagar Ward, PF Layout, Vijayanagar", "amenity": "hospital", "healthcare": "hospital", "name": "Employees State Insurance Dispensary", "operator": "Employees' State Insurance", "operator:short": "ESI", "operator:type": "private", "operator:wikidata": "Q3595726", "phone": "080 2845 2785", "website": "globalhospitalsindia.com"}}, {"type": "node", "id": 4445397516, "lat": 12.9951627, "lon": 77.5738144, "tags": {"addr:city": "Bangalore", "addr:district": "Bengaluru Urban", "addr:full": "No: 2, Sirur Park Road (Behind Natraja Theatre) Seshadripuram", "addr:housenumber": "191/1", "addr:postcode": "560020", "addr:state": "Karnataka", "addr:street": ", 2nd cross, Link Road, Malleswaram", "amenity": "hospital", "name": "Dr Solankis Eye Hospital", "phone": "080 2356 2211", "source": "OpenGovernmentData"}}, {"type": "node", "id": 4445430292, "lat": 13.0053923, "lon": 77.5713352, "tags": {"addr:city": "bangalore", "addr:housenumber": "316", "addr:postcode": "560003", "addr:street": "3rd Flr, Srikrupa, Nxt To Adiga Hotel, 15th Crs, Sampige Mn Rd, Malleswaram", "amenity": "hospital", "healthcare": "hospital", "name": "Sri Sanjeevini Cold Laser Therapy", "phone": "080663 79862"}}, {"type": "node", "id": 4446285519, "lat": 12.9876871, "lon": 77.6093097, "tags": {"addr:city": "bangalore", "addr:district": "Bengaluru Urban", "addr:full": "17-1, Sepings Road Cross,Arunachala Mudaliar Road, Shivajinagar,Cole's Park- Taj Hotel", "addr:postcode": "560001", "addr:state": "Karnataka", "addr:street": "AM Road, Bharati Nagar, Shivaji Nagar", "amenity": "hospital", "name": "Medic Star Hospital", "phone": "080 2554 1337", "source": "OpenGovernmentData"}}, {"type": "node", "id": 4446289881, "lat": 12.9856985, "lon": 77.6058578, "tags": {"addr:city": "bangalore", "addr:postcode": "560051", "addr:street": "Tasker Town, Near-KSPCB Limited, Shivaji Nagar, Sulthangunta, Shivaji Nagar", "amenity": "hospital", "name": "Hsis Gosha Hospital", "phone": "\"080 2286 6529"}}, {"type": "node", "id": 4446300155, "lat": 12.9959413, "lon": 77.6082575, "tags": {"addr:city": "bangalore", "addr:district": "Bengaluru Urban", "addr:full": "No. 6 / 1, Promenade Road, Behind Coles Park, Near Goodwill School", "addr:housenumber": "6/1", "addr:postcode": "560005", "addr:state": "Karnataka", "addr:street": "Promenade Road, Near Coles Park, Frazer Town", "amenity": "hospital", "check_date": "2024-12-29", "name": "Santosh Hospital", "name:kn": "\u0cb8\u0c82\u0ca4\u0ccb\u0cb7 \u0c86\u0cb8\u0ccd\u0caa\u0ca4\u0ccd\u0cb0\u0cc6", "phone": "080 2536 7706", "source": "OpenGovernmentData", "website": "https://santoshhealthcare.com/"}}, {"type": "node", "id": 4446312027, "lat": 12.9914123, "lon": 77.6117329, "tags": {"addr:city": "bangalore", "addr:postcode": "560001", "addr:street": "St Johns Church Rd, Bharati Nagar, Shivaji Nagar", "amenity": "hospital", "name": "Hospital", "phone": "+9193411 44150", "website": "https://www.mirlayeyecare.com/"}}, {"type": "node", "id": 4446341278, "lat": 12.9891941, "lon": 77.6037864, "tags": {"addr:city": "bangalore", "addr:postcode": "560051", "addr:street": "Sultan Gunta,, Cock Burn Rd, Sulthangunta, Shivaji Nagar", "amenity": "hospital", "name": "H B S Hospital", "phone": "080 2554 1321"}}, {"type": "node", "id": 4446344840, "lat": 12.9652005, "lon": 77.6106902}, {"type": "node", "id": 4446346449, "lat": 12.9705436, "lon": 77.5834769, "tags": {"addr:city": "Bangalore", "addr:housenumber": "5", "addr:postcode": "560001", "addr:street": "Nrupathunga Rd, RBI Colony, Sampangi Rama Nagar", "amenity": "hospital", "name": "St. Martha's Heart Centre", "phone": "+9195380 43453", "website": "locations.narayanahealth.org"}}, {"type": "node", "id": 4446518811, "lat": 12.9863736, "lon": 77.5793154, "tags": {"addr:city": "Bangalore", "addr:housenumber": "6/6", "addr:postcode": "560001", "addr:street": "Kumarakrupa Road, High Grounds, Madhava Nagar, Gandhi Nagar", "amenity": "hospital", "name": "Desai Nursing Home", "phone": "+9180 2226 0307"}}, {"type": "node", "id": 4446664412, "lat": 12.9881648, "lon": 77.5548179, "tags": {"addr:city": "bangalore", "addr:housenumber": "111", "addr:postcode": "560010", "addr:street": "West of Chord Road,, Opp Rajajinagar 1st Block Junction", "amenity": "hospital", "name": "Fortis Hospital", "name:kn": "\u0cab\u0ccb\u0cb0\u0ccd\u0c9f\u0cbf\u0cb8\u0ccd \u0c86\u0cb8\u0ccd\u0caa\u0ca4\u0ccd\u0cb0\u0cc6", "phone": "080-2300-4444", "website": "fortisbangalore.com"}}, {"type": "node", "id": 4446881168, "lat": 12.9378359, "lon": 77.5573329, "tags": {"addr:city": "Bangalore", "addr:housenumber": "5", "addr:postcode": "560050", "addr:street": "80 Feet Road, 1st Stage, Srinivasa Nagar, Banashankari", "amenity": "hospital", "name": "\" NRS Medical & Dental Specialists Centre\"", "phone": "080-26696054"}}, {"type": "node", "id": 4446891375, "lat": 12.9386994, "lon": 77.5518394, "tags": {"addr:city": "bangalore", "addr:district": "Bengaluru Urban", "addr:housenumber": "60", "addr:postcode": "560050", "addr:state": "Karnataka", "addr:street": "2nd Main, Bsk 1st Stage, 80 Feet Road, Srinivasa Nagar,Sree Manjunatha Temple Street", "amenity": "hospital", "name": "Chiranjeevi Hospital & Maternity Home", "phone": "080 2691 7676", "source": "OpenGovernmentData"}}, {"type": "node", "id": 4446893667, "lat": 12.9373748, "lon": 77.5494778, "tags": {"addr:city": "bangalore", "addr:district": "Bengaluru Urban", "addr:full": "110, 1st Main, Sbm Colony, Bsk 1st Stage Hanumantha Nagar", "addr:housenumber": "110", "addr:postcode": "560050", "addr:state": "Karnataka", "addr:street": "State Bank Of Mysore Colony, 1st Stage,80 Feet Road,, Banashankari", "amenity": "hospital", "name": "Vinayaka Hospital, Hanumantha Nagar", "operator:type": "private", "phone": "080 2679 6167", "source": "OpenGovernmentData", "website": "http://dpal.kar.nic.in/Kanunu%20padakosha%20PDF%20Files/Recognised%20Hospitals.pdf"}}, {"type": "node", "id": 4446894388, "lat": 12.9354293, "lon": 77.5477956, "tags": {"addr:city": "Banglore", "addr:housenumber": "788", "addr:postcode": "560050", "addr:street": "11th Cross, 2nd Main, 80ft Main Road, SBM Colony, Giri Nagar 4th Phase", "amenity": "hospital", "name": "Diavista Diabetes & Multispeciality Hospital", "phone": "080 4096 9392", "source": "justdail", "website": "diavista.co.in"}}, {"type": "node", "id": 4446897063, "lat": 12.9420715, "lon": 77.553698, "tags": {"addr:city": "Bengaluru", "addr:housenumber": "979/A", "addr:postcode": "560085", "addr:street": "50 Feet Road", "amenity": "hospital", "name": "Meenakshi Hospital", "name:kn": "\u0cae\u0cc0\u0ca8\u0cbe\u0c95\u0ccd\u0cb7\u0cbf \u0c86\u0cb8\u0ccd\u0caa\u0ca4\u0ccd\u0cb0\u0cc6", "phone": "+918026755800"}}, {"type": "node", "id": 4446899253, "lat": 12.9408667, "lon": 77.5603657, "tags": {"addr:city": "bangalore", "addr:district": "Bengaluru Urban", "addr:full": "#795/1, 9Th Main ,Bsk 1st, Stage,2nd Block,Hanumantha Nagar", "addr:housenumber": "795/1", "addr:postcode": "560050", "addr:state": "Karnataka", "addr:street": "9th Main, 2nd Block, Hanumantha Nagar, Near-Shaneshwara Temple Road, Banashankari 1st Stage", "amenity": "hospital", "name": "Medi-Tech Multi Speciality Hospital", "phone": "080 2660 2910", "source": "OpenGovernmentData"}}, {"type": "node", "id": 4446900247, "lat": 12.9420124, "lon": 77.5506918, "tags": {"addr:city": "bangalore", "addr:housenumber": "237/37", "addr:postcode": "560050", "addr:street": "Nagendra Block, 50ft Road, 10th Main Rd, Srinagar, Banashankari", "amenity": "hospital", "name": "Kusuma Hospital", "phone": "080 2642 1177", "source": "justdail"}}, {"type": "node", "id": 4446907712, "lat": 12.9389007, "lon": 77.5438808, "tags": {"addr:city": "bangalore", "addr:housenumber": "5/8/1", "addr:postcode": "560085", "addr:street": "20th Main Road, Muneshwara Block, Girinagar, 1st phase Girinagar, Kadavanthra, Banashankari", "amenity": "hospital", "name": "Pulse Multispecialty Hospital", "phone": "080 2672 4466", "source": "just dial"}}, {"type": "node", "id": 4447003711, "lat": 12.9946163, "lon": 77.6023871, "tags": {"addr:city": "bangalore", "addr:housenumber": "62", "addr:street": "Millers Rd, Cantonment Railway Quarters", "amenity": "hospital", "name": "Ayushman Ayurvedic therapy centre", "phone": "+91 95356 68668", "source": "www.justdial.com", "website": "ayushmanayurvedic.com"}}, {"type": "node", "id": 4447009524, "lat": 12.9984229, "lon": 77.5403887, "tags": {"addr:city": "Bangalore", "addr:housenumber": "877", "addr:postcode": "560010", "addr:street": "Dr. Modi Hospital Road, 2nd stage extension", "amenity": "hospital", "name": "Pristine Hospital", "name:kn": "\u0caa\u0ccd\u0cb0\u0cbf\u0cb8\u0ccd\u0c9f\u0cc0\u0ca8\u0ccd \u0c86\u0cb8\u0ccd\u0caa\u0ca4\u0ccd\u0cb0\u0cc6", "phone": "+9180 4135 4444", "source": "www.justdial.com", "website": "pristinehospitals.com"}}, {"type": "node", "id": 4447072624, "lat": 12.9735891, "lon": 77.5443283, "tags": {"addr:city": "Bangalore", "addr:postcode": "560040", "addr:street": "Adichunchangiri Shopping Complex Adichunchangirishpgcplx Vjyngrb40 Vijaynagar, Attiguppe", "amenity": "hospital", "name": "Arogya Kendra", "name:kn": "\u0c86\u0cb0\u0ccb\u0c97\u0ccd\u0caf \u0c95\u0cc7\u0c82\u0ca6\u0ccd\u0cb0", "phone": "+918023400463"}}, {"type": "node", "id": 4447073029, "lat": 13.0029689, "lon": 77.5526666, "tags": {"addr:city": "bangalore", "addr:postcode": "560010", "addr:street": "10A Crossroad", "amenity": "hospital", "healthcare": "hospital", "name": "The Family Doctor Malleswaram", "phone": "+9180 2337 6262", "source": "www.yellowpages.co.in", "website": "https://thefamilydoctor.co.in/"}}, {"type": "node", "id": 4447076167, "lat": 12.9787049, "lon": 77.5403581, "tags": {"addr:housenumber": "30/2", "addr:street": "S V Complex Magadi Main\u00a0Vijaynagar, Magadi Road", "amenity": "hospital", "name": "V Care\u00a0Medical\u00a0Systems P Ltd", "phone": "+918023110651"}}, {"type": "node", "id": 4447079172, "lat": 12.9691657, "lon": 77.5351921, "tags": {"addr:city": "Bangalore", "addr:district": "Vijayapura", "addr:full": "20th B Cross, Marenahalli Main Road, Vijayanagar", "addr:housenumber": "51/88", "addr:postcode": "560040", "addr:state": "Karnataka", "addr:street": "20th B Cross, Marenahalli Main Road, Govindaraja Nagar Ward, Vijayanagar", "amenity": "hospital", "name": "Saikrupa Hospital For Women's and Surgical Centre", "operator:type": "private", "phone": "+91080 2311 9592", "source": "OpenGovernmentData", "website": "http://dpal.kar.nic.in/Kanunu%20padakosha%20PDF%20Files/Recognised%20Hospitals.pdf"}}, {"type": "node", "id": 4447082866, "lat": 12.9768117, "lon": 77.5449094, "tags": {"addr:city": "Bangalore", "addr:housenumber": "5/1", "addr:postcode": "560040", "addr:street": "4th Main, MRCR Layout, Vijayanagar, Behind Godrej Interio, Near Veeresh Theatre, Govindaraja Nagar Ward, MC Layout, Vijayanagar", "amenity": "hospital", "healthcare": "hospital", "name": "Cutis Academy of Cutaneous Sciences", "phone": "080 4115 9049"}}, {"type": "node", "id": 4447087999, "lat": 12.9353208, "lon": 77.6205504, "tags": {"addr:city": "Bangalore", "addr:district": "Bengaluru Urban", "addr:full": "435, Acura Hospital, 18th Main, 6th Block, Koramangala", "addr:housenumber": "105", "addr:postcode": "560095", "addr:state": "Karnataka", "addr:street": "5th Block, 17th C Main Road, KHB Colony , Koramangala", "amenity": "hospital", "name": "Acura Speciality Hospital", "operator:type": "private", "phone": "+9180 4110 5151", "source": "OpenGovernmentData", "website": "https://www.seekandsource.com/acurahospital"}}, {"type": "node", "id": 4447097087, "lat": 12.9717905, "lon": 77.5372864, "tags": {"addr:city": "Bangalore", "addr:housenumber": "46", "addr:postcode": "560040", "addr:street": "17th Cross, Near Main Bus Stand, M.C. Road, Vijayanagar", "amenity": "hospital", "name": "Vijayanagar Global Hospital", "phone": "080 4240 8200"}}, {"type": "node", "id": 4447100075, "lat": 12.9649703, "lon": 77.5389842, "tags": {"addr:city": "Bangalore", "addr:housenumber": "221", "addr:postcode": "560040", "addr:street": "1st Floor, Next to Sai Prasadam Hotel, 5th Main Rd, Hampi Nagar 2nd Stage, RPC Layout", "amenity": "hospital", "healthcare": "hospital", "name": "Blossom Infertility Center", "phone": "+91 99009 99116"}}, {"type": "node", "id": 4447105332, "lat": 12.958321, "lon": 77.5350434, "tags": {"addr:city": "Bangalore", "addr:housenumber": "30", "addr:postcode": "560040", "addr:street": "1108/30 10Th Main 4Th Cross, Rpc Layout, Vijayanagar", "amenity": "hospital", "name": "Padmashree Nursing Home and Maternity Home", "phone": "080 2311 8372"}}, {"type": "node", "id": 4447171840, "lat": 12.9947201, "lon": 77.5715879, "tags": {"addr:city": "Bangalore", "addr:housenumber": "1", "addr:postcode": "560003", "addr:street": "2nd Cross Rd, Malleshwaram", "amenity": "hospital", "name": "The Homoeo World", "phone": "080 2346 1995"}}, {"type": "node", "id": 4448075597, "lat": 12.9458746, "lon": 77.5877756, "tags": {"addr:city": "bangalore", "addr:housenumber": "58,59", "addr:postcode": "560029", "addr:street": "3rd Main,KEB Layout, BTM Layout  1", "amenity": "hospital", "emergency": "yes", "name": "Vijay Diagnostic Centre", "phone": "080 2668 4260", "source": "http://www.bangalorean.co.in/"}}, {"type": "node", "id": 4484938764, "lat": 13.0044499, "lon": 77.5530755, "tags": {"addr:city": "bangalore", "addr:housenumber": "34/3", "addr:postcode": "560010", "addr:street": "Vidhya Vardhaka Sangha Road", "amenity": "hospital", "healthcare": "hospital", "name": "Tamara Hospital & IVF Centre", "phone": "+91 80 2337 0780", "website": "https://tamarahealthcare.com/"}}, {"type": "node", "id": 4509817152, "lat": 12.995573, "lon": 77.5354215, "tags": {"amenity": "hospital", "healthcare": "hospital", "name": "ChanRe Rheumatology and Immunology Center and Research", "name_1": "Chan re hospital", "name_2": "Chanre hospital"}}, {"type": "node", "id": 4533735695, "lat": 12.9709463, "lon": 77.5451059, "tags": {"addr:district": "Bengaluru Urban", "addr:full": "No. 318, 6Th Main,2nd Cross,Vijayanagar", "addr:postcode": "560040", "addr:state": "Karnataka", "amenity": "hospital", "name": "Manasa Hospital, Vijayanagar", "source": "OpenGovernmentData"}}, {"type": "node", "id": 4552286367, "lat": 13.0130826, "lon": 77.5761449, "tags": {"amenity": "hospital", "name": "Ramana Rao's clinic"}}, {"type": "node", "id": 4577045761, "lat": 12.9983402, "lon": 77.6200927, "tags": {"amenity": "hospital", "name": "Government Maternity Home", "name:kn": "\u0cb8\u0cb0\u0ccd\u0c95\u0cbe\u0cb0\u0cbf \u0cae\u0cbe\u0ca4\u0cc3\u0ca4\u0ccd\u0cb5 \u0cae\u0ca8\u0cc6"}}, {"type": "node", "id": 4597833389, "lat": 12.9984887, "lon": 77.5504219, "tags": {"addr:district": "Bengaluru Urban", "addr:full": "No. 408, 20Th Main, 1st Block,Opp Swathi Hotel, Woc Road, Rajajinagar", "addr:postcode": "560010", "addr:state": "Karnataka", "amenity": "hospital", "healthcare": "hospital", "healthcare:speciality": "orthopaedics", "name": "Cauvery Orthopaedic Centre", "source": "OpenGovernmentData"}}, {"type": "node", "id": 4623723101, "lat": 12.997613, "lon": 77.5509423, "tags": {"addr:district": "Bengaluru Urban", "addr:full": "No.607/77, 1st Main, Dr.Rajkumar Road, Rajajinagar 2nd Block", "addr:postcode": "560021", "addr:state": "Karnataka", "amenity": "hospital", "healthcare": "hospital", "name": "Nethradhama Superspeciality Eye Hospital, Rajajinagar", "name:en": "Nethradhama", "name:kn": "\u0ca8\u0cc7\u0ca4\u0ccd\u0cb0\u0ca7\u0cbe\u0cae", "source": "OpenGovernmentData"}}, {"type": "node", "id": 4676566777, "lat": 12.9842193, "lon": 77.5999264}, {"type": "node", "id": 4680014207, "lat": 12.9397588, "lon": 77.59445, "tags": {"amenity": "hospital", "healthcare": "yes", "name": "NIMHANS - Ashwini Block"}}, {"type": "node", "id": 4685633732, "lat": 12.9682031, "lon": 77.5952645}, {"type": "node", "id": 4714521495, "lat": 12.9622495, "lon": 77.629302}, {"type": "node", "id": 4714521496, "lat": 12.9622756, "lon": 77.628964}, {"type": "node", "id": 4714521497, "lat": 12.9633944, "lon": 77.6267915}, {"type": "node", "id": 4714521498, "lat": 12.9636767, "lon": 77.6264964}, {"type": "node", "id": 4714521499, "lat": 12.9657364, "lon": 77.6254235}, {"type": "node", "id": 4714521500, "lat": 12.96582, "lon": 77.6255791}, {"type": "node", "id": 4714521501, "lat": 12.9652397, "lon": 77.6265018}, {"type": "node", "id": 4714521502, "lat": 12.9648215, "lon": 77.6271777}, {"type": "node", "id": 4714521503, "lat": 12.9647222, "lon": 77.6277302}, {"type": "node", "id": 4714521504, "lat": 12.9647326, "lon": 77.6280253}, {"type": "node", "id": 4714521505, "lat": 12.9643772, "lon": 77.6283525}, {"type": "node", "id": 4714521506, "lat": 12.9621188, "lon": 77.6305036}, {"type": "node", "id": 4714521507, "lat": 12.9619097, "lon": 77.6304607}, {"type": "node", "id": 4729472422, "lat": 12.9400669, "lon": 77.5931597, "tags": {"addr:district": "Bangalore", "addr:full": "Lakkasandra, Wilson Garden, Bangalore, Karnataka, India", "addr:postcode": "560029", "addr:state": "Karnataka", "addr:subdistrict": "Bangalore East", "amenity": "hospital", "contact:phone": "08026995201;08026995000;08026995202", "description": "Medical Colleges Hospital", "healthcare": "hospital", "name": "National Institute of Mental Health and Neuro Sciences", "short_name": "NIMHANS", "source": "OpenGovernmentData"}}, {"type": "node", "id": 4729478014, "lat": 12.9404277, "lon": 77.5988406, "tags": {"amenity": "hospital", "name": "NBRC(National Brain Research Center)"}}, {"type": "node", "id": 4803391620, "lat": 12.9654425, "lon": 77.6113286}, {"type": "node", "id": 4803392448, "lat": 12.9646699, "lon": 77.6102945}, {"type": "node", "id": 4803392449, "lat": 12.9642281, "lon": 77.6106258}, {"type": "node", "id": 4803392450, "lat": 12.9640621, "lon": 77.6111783}, {"type": "node", "id": 4803392451, "lat": 12.9640021, "lon": 77.6119414}, {"type": "node", "id": 4803392452, "lat": 12.9643497, "lon": 77.6119871}, {"type": "node", "id": 4803392453, "lat": 12.9646722, "lon": 77.611518}, {"type": "node", "id": 4803392461, "lat": 12.9654566, "lon": 77.6102878}, {"type": "node", "id": 4803392462, "lat": 12.9651399, "lon": 77.6106524}, {"type": "node", "id": 4803392463, "lat": 12.9651064, "lon": 77.6118542}, {"type": "node", "id": 4803392464, "lat": 12.9659115, "lon": 77.610607}, {"type": "node", "id": 4843104321, "lat": 12.9555357, "lon": 77.5918347, "tags": {"amenity": "hospital", "name": "Respigen healthcare", "name:en": "Respigen healthcare"}}, {"type": "node", "id": 4849107926, "lat": 13.0080001, "lon": 77.5837482, "tags": {"amenity": "hospital", "check_date": "2025-03-01", "name": "Hosmat Hospital"}}, {"type": "node", "id": 4884890996, "lat": 12.9376934, "lon": 77.5694845}, {"type": "node", "id": 4884890997, "lat": 12.9379575, "lon": 77.5699754}, {"type": "node", "id": 4884890998, "lat": 12.93776, "lon": 77.5700872}, {"type": "node", "id": 4884890999, "lat": 12.9374959, "lon": 77.5695964}, {"type": "node", "id": 4988304263, "lat": 12.9645264, "lon": 77.5896245}, {"type": "node", "id": 4988304264, "lat": 12.964449, "lon": 77.5900145}, {"type": "node", "id": 4988304265, "lat": 12.963021, "lon": 77.5896489}, {"type": "node", "id": 4988304266, "lat": 12.9633509, "lon": 77.5893521}, {"type": "node", "id": 5012445073, "lat": 12.9894437, "lon": 77.5942259}, {"type": "node", "id": 5012445074, "lat": 12.9898005, "lon": 77.5938637}, {"type": "node", "id": 5012445075, "lat": 12.9899223, "lon": 77.5946566}, {"type": "node", "id": 5012445076, "lat": 12.9895972, "lon": 77.594369}, {"type": "node", "id": 5019525996, "lat": 13.0054254, "lon": 77.5524929}, {"type": "node", "id": 5019525997, "lat": 13.0058201, "lon": 77.551624}, {"type": "node", "id": 5157373807, "lat": 12.9849537, "lon": 77.5569222, "tags": {"addr:district": "Bengaluru Urban", "addr:full": "6/63, 59Th Cross, 4Th Block, Rajajinagar Entrance, Mei Polytechnic, Rajajinagar", "addr:postcode": "560010", "addr:state": "Karnataka", "alt_name": "Altius Cancer Center", "amenity": "hospital", "healthcare": "hospital", "name": "Altius Hospital", "source": "OpenGovernmentData"}}, {"type": "node", "id": 5174903787, "lat": 12.9918415, "lon": 77.5968531, "tags": {"amenity": "hospital", "healthcare": "hospital", "name": "Bangalore Diabetes Hospital"}}, {"type": "node", "id": 5174994725, "lat": 13.011845, "lon": 77.5526061, "tags": {"amenity": "hospital", "healthcare": "hospital", "name": "NU Hospitals"}}, {"type": "node", "id": 5234723863, "lat": 12.9472091, "lon": 77.5966914, "tags": {"addr:district": "Bengaluru Urban", "addr:full": "196, 10Th Cross, Wilson Gardens", "addr:postcode": "560027", "addr:state": "Karnataka", "amenity": "hospital", "healthcare": "hospital", "name": "V. S. Achar Multispeciality Hospital", "source": "OpenGovernmentData"}}, {"type": "node", "id": 5259407821, "lat": 12.966103, "lon": 77.5549647, "tags": {"amenity": "hospital", "healthcare": "hospital", "name": "Government Hospital", "name:kn": "\u0cb8\u0cb0\u0ccd\u0c95\u0cbe\u0cb0\u0cbf \u0c86\u0cb8\u0ccd\u0caa\u0ca4\u0ccd\u0cb0\u0cc6"}}, {"type": "node", "id": 5265649228, "lat": 12.9403849, "lon": 77.5945391, "tags": {"amenity": "hospital", "emergency": "yes", "healthcare": "hospital", "name": "Emergency Block , NIMHANS"}}, {"type": "node", "id": 5306746595, "lat": 12.9495993, "lon": 77.5802119}, {"type": "node", "id": 5306746596, "lat": 12.9495944, "lon": 77.5803999}, {"type": "node", "id": 5306746597, "lat": 12.949704, "lon": 77.5804029}, {"type": "node", "id": 5306746598, "lat": 12.9497089, "lon": 77.5802149}, {"type": "node", "id": 5716797221, "lat": 12.9542624, "lon": 77.5709473, "tags": {"addr:district": "Bengaluru Urban", "addr:full": "1st Cross, Shankarapuram, Basavanaagudi", "addr:postcode": "560004", "addr:state": "Karnataka", "amenity": "hospital", "name": "Sri Shankara Cancer Hospital And Research Centre (A Service Unit Of Sscf)", "operator:type": "private", "phone": "080-26981000", "source": "OpenGovernmentData", "website": "http://shankaracancerfoundation.org/"}}, {"type": "node", "id": 5825292845, "lat": 12.9939752, "lon": 77.5391801, "tags": {"addr:district": "Bengaluru Urban", "addr:full": "565 Iii Stage 4Th Block", "addr:postcode": "560079", "addr:state": "Karnataka", "amenity": "hospital", "healthcare": "hospital", "healthcare:speciality": "gynaecology", "name": "Vathsalya Speciality Hospital", "source": "OpenGovernmentData"}}, {"type": "node", "id": 5862574185, "lat": 12.9878631, "lon": 77.6177434, "tags": {"amenity": "hospital", "name": "Lakeside Medical Centre and Hospital"}}, {"type": "node", "id": 5879132707, "lat": 12.9677607, "lon": 77.5413282, "tags": {"addr:district": "Bengaluru Urban", "addr:full": "No.14 , Maruthi Nagar , Near Maruthi Temple , Nagarbhavi Main Road", "addr:postcode": "560072", "addr:state": "Karnataka", "amenity": "hospital", "name": "Maruthi Hospital", "name:kn": "\u0cae\u0cbe\u0cb0\u0cc1\u0ca4\u0cbf \u0c86\u0cb8\u0ccd\u0caa\u0ca4\u0ccd\u0cb0\u0cc6", "source": "OpenGovernmentData"}}, {"type": "node", "id": 5915195092, "lat": 12.9362087, "lon": 77.616947, "tags": {"amenity": "hospital", "healthcare": "hospital", "name": "Aparna Hospital"}}, {"type": "node", "id": 6021739953, "lat": 12.9493031, "lon": 77.5976958}, {"type": "node", "id": 6021739954, "lat": 12.9492425, "lon": 77.5977682}, {"type": "node", "id": 6021739955, "lat": 12.9492994, "lon": 77.5978183}, {"type": "node", "id": 6021739956, "lat": 12.9492041, "lon": 77.5979323}, {"type": "node", "id": 6021739957, "lat": 12.9491008, "lon": 77.5978413}, {"type": "node", "id": 6021739958, "lat": 12.9492568, "lon": 77.597655}, {"type": "node", "id": 6311328128, "lat": 12.9361642, "lon": 77.5992302}, {"type": "node", "id": 6311328129, "lat": 12.9366861, "lon": 77.5995082}, {"type": "node", "id": 6345494316, "lat": 12.9900436, "lon": 77.5537173, "tags": {"access": "private", "barrier": "gate"}}, {"type": "node", "id": 6442518238, "lat": 12.9416008, "lon": 77.5678464}, {"type": "node", "id": 6442518239, "lat": 12.9420317, "lon": 77.567355}, {"type": "node", "id": 6442518240, "lat": 12.9417076, "lon": 77.5670895}, {"type": "node", "id": 6442518241, "lat": 12.9415246, "lon": 77.5673389}, {"type": "node", "id": 6442518242, "lat": 12.940641, "lon": 77.5673336}, {"type": "node", "id": 6502980174, "lat": 12.9821954, "lon": 77.5493143, "tags": {"addr:district": "Bengaluru Urban", "addr:full": "1032, 5th Block Opp Ganesh Temple, Chor Road Rajajinagar", "addr:postcode": "560010", "addr:state": "Karnataka", "amenity": "hospital", "healthcare": "hospital", "name": "The Eye Surgical Centre"}}, {"type": "node", "id": 6546893768, "lat": 12.9975999, "lon": 77.5456096}, {"type": "node", "id": 6546893769, "lat": 12.9983899, "lon": 77.5454543}, {"type": "node", "id": 6656628403, "lat": 13.0158522, "lon": 77.563794, "tags": {"entrance": "yes"}}, {"type": "node", "id": 6807542967, "lat": 13.0182102, "lon": 77.540004, "tags": {"amenity": "hospital", "healthcare": "hospital", "name": "Lourdes High School"}}, {"type": "node", "id": 6807544239, "lat": 13.0178339, "lon": 77.5416911}, {"type": "node", "id": 6807544240, "lat": 13.0177215, "lon": 77.5416428}, {"type": "node", "id": 6807544241, "lat": 13.0177006, "lon": 77.5417153}, {"type": "node", "id": 6807544242, "lat": 13.0178156, "lon": 77.5417689}, {"type": "node", "id": 6807551928, "lat": 13.016705, "lon": 77.539386, "tags": {"amenity": "hospital", "healthcare": "hospital", "name": "Boregowda Lingamma Hospital", "name:kn": "\u0cac\u0ccb\u0cb0\u0cc6\u0c97\u0ccc\u0ca1 \u0cb2\u0cbf\u0c82\u0c97\u0cae\u0ccd\u0cae \u0c86\u0cb8\u0ccd\u0caa\u0ca4\u0ccd\u0cb0\u0cc6"}}, {"type": "node", "id": 6807551937, "lat": 13.0175606, "lon": 77.5394308, "tags": {"amenity": "hospital", "healthcare": "hospital", "name": "Kanva Hospital"}}, {"type": "node", "id": 6854592430, "lat": 13.0057054, "lon": 77.5518793}, {"type": "node", "id": 6855409793, "lat": 12.9998982, "lon": 77.5501121, "tags": {"addr:district": "Bengaluru Urban", "addr:full": "Laxmi, No.20, Shankarmutt Main Road", "addr:postcode": "560004", "addr:state": "Karnataka", "amenity": "hospital", "healthcare": "hospital", "name": "Dr. Agrawal's Eye Hospital", "source": "OpenGovernmentData"}}, {"type": "node", "id": 6900054522, "lat": 13.0039532, "lon": 77.5499571}, {"type": "node", "id": 6937748988, "lat": 12.9948905, "lon": 77.5347984, "tags": {"addr:district": "Bengaluru Urban", "addr:full": "No.65,N.H.C.S. Layout,3Road Stage,4Th Block,Basaveshwar Nagar,Kamalanagar Main Road", "addr:postcode": "560079", "addr:state": "Karnataka", "amenity": "hospital", "healthcare": "hospital", "name": "Ashok Hospital", "source": "OpenGovernmentData"}}, {"type": "node", "id": 6937814427, "lat": 12.9376087, "lon": 77.5666429, "tags": {"addr:district": "Bengaluru Urban", "addr:full": "#118, 5 Th Main , 7Th Cross, N R Colony , Bull Temple Road", "addr:postcode": "560019", "addr:state": "Karnataka", "amenity": "hospital", "name": "Balaji Hospital and Gastroenterology Center", "source": "OpenGovernmentData"}}, {"type": "node", "id": 6937890455, "lat": 13.0237316, "lon": 77.5941463, "tags": {"addr:district": "Bengaluru Urban", "addr:full": "No 80, P&T Colony R T Nagar", "addr:postcode": "560032", "addr:state": "Karnataka", "amenity": "hospital", "name": "Chaitanya Hospital", "name:kn": "\u0c9a\u0cc8\u0ca4\u0ca8\u0ccd\u0caf \u0c86\u0cb8\u0ccd\u0caa\u0ca4\u0ccd\u0cb0\u0cc6", "source": "OpenGovernmentData"}}, {"type": "node", "id": 6937892396, "lat": 12.9981979, "lon": 77.568151, "tags": {"addr:district": "Bengaluru Urban", "addr:full": "53, 7Th Cross , 4Th Main Road, Malleswaram", "addr:postcode": "560003", "addr:state": "Karnataka", "amenity": "hospital", "name": "Dr. B. Venkatasubbarao Memorial Hospital", "source": "OpenGovernmentData"}}, {"type": "node", "id": 6937898160, "lat": 12.9497745, "lon": 77.5802779, "tags": {"addr:district": "Bengaluru Urban", "addr:full": "#53/1 (45), Shalini,Susheela Road,Lalbagh Upparahalli ( Lalbagh West Gate)", "addr:postcode": "560004", "addr:state": "Karnataka", "amenity": "hospital", "healthcare": "hospital", "name": "South City Hospital, Bengaluru Urban", "source": "OpenGovernmentData"}}, {"type": "node", "id": 6938414183, "lat": 12.9998457, "lon": 77.5663653, "tags": {"addr:district": "Bengaluru Urban", "addr:full": "28, 7Th Main 9Th Cross, Malleshwaram", "addr:postcode": "560003", "addr:state": "Karnataka", "amenity": "hospital", "name": "Jupiter Hospital And Institute Of Vascular Surgery", "source": "OpenGovernmentData"}}, {"type": "node", "id": 6938690597, "lat": 12.9690441, "lon": 77.5688544, "tags": {"addr:district": "Bengaluru Urban", "addr:full": "No.71, Mill Road, Cottonpet", "addr:postcode": "560053", "addr:state": "Karnataka", "amenity": "hospital", "name": "Radha Maternity and Surgical Hospital", "source": "OpenGovernmentData"}}, {"type": "node", "id": 6938690598, "lat": 12.9878104, "lon": 77.5809833, "tags": {"addr:district": "Bengaluru Urban", "addr:full": "No.6/7, Crescent Road Cross, Kumar Park East", "addr:postcode": "560001", "addr:state": "Karnataka", "amenity": "hospital", "healthcare:speciality": "Dornier AlphaLithotripsy Treatment; X-Rays; US Scan; Urologist Consultation", "name": "Hitech Kidney Stone Hospital, Bengaluru Urban", "operator:type": "private", "source": "OpenGovernmentData", "website": "http://www.hitechkidneystonehospital.org/"}}, {"type": "node", "id": 6938690600, "lat": 12.9822186, "lon": 77.5599374, "tags": {"addr:district": "Bengaluru Urban", "addr:full": "1033,4 Th Block Dr Rajdumar Road", "addr:postcode": "560010", "addr:state": "Karnataka", "amenity": "hospital", "name": "Sri Dhavantari Ayurveda Hoapital", "source": "OpenGovernmentData"}}, {"type": "node", "id": 6938690603, "lat": 12.9845512, "lon": 77.5528322, "tags": {"addr:district": "Bengaluru Urban", "addr:full": "No. 851/D , 5Th Block , Rajajinagar , 60Th Cross", "addr:postcode": "560040", "addr:state": "Karnataka", "amenity": "hospital", "name": "Vaidyam Hospital", "source": "OpenGovernmentData"}}, {"type": "node", "id": 6938690604, "lat": 12.9897745, "lon": 77.5551014, "tags": {"addr:district": "Bengaluru Urban", "addr:full": "723 / B Main E S I Hospital Raod, 3Road Block, Rajajinagar", "addr:postcode": "560010", "addr:state": "Karnataka", "amenity": "hospital", "name": "Suresh Hospital - Bangalore", "source": "OpenGovernmentData"}}, {"type": "node", "id": 6938690614, "lat": 13.0058226, "lon": 77.5694512, "tags": {"addr:district": "Bengaluru Urban", "addr:full": "No. 95 and 96, Margosa Road, 15Th Cross, Malleswaram", "addr:postcode": "560055", "addr:state": "Karnataka", "amenity": "hospital", "check_date": "2024-05-12", "name": "Lakshmi Maternity Home", "source": "OpenGovernmentData"}}, {"type": "node", "id": 6938690621, "lat": 13.0077265, "lon": 77.5696993, "tags": {"addr:district": "Bengaluru Urban", "addr:full": "# 90/1, West Park Road,Between 17Th And 18Th Cross,Malleswaram", "addr:postcode": "560055", "addr:state": "Karnataka", "amenity": "hospital", "name": "Manjunatha Maternity Home and Surgical Centre", "source": "OpenGovernmentData"}}, {"type": "node", "id": 6938690626, "lat": 12.9932806, "lon": 77.580691, "tags": {"addr:district": "Bengaluru Urban", "addr:full": "# 111 Railway Parallel Road, 7 Th Cross, Kumara Park (W)", "addr:postcode": "560020", "addr:state": "Karnataka", "addr:subdistrict": "Kumara Park (W)", "amenity": "hospital", "email": "info@squinteyehospital.com", "name": "Samprathi Eye Hospital And Squint Centre", "operator:type": "private", "source": "OpenGovernmentData", "website": "https://squinteyehospital.com/"}}, {"type": "node", "id": 6938690629, "lat": 13.0089953, "lon": 77.5406188, "tags": {"addr:district": "Bengaluru Urban", "addr:full": "41-42/5 7Th Cross, Saraswathipuram, Nandini Layout, Main Road", "addr:postcode": "560096", "addr:state": "Karnataka", "amenity": "hospital", "name": "Shankara Nethralaya Eye Hospital", "source": "OpenGovernmentData"}}, {"type": "node", "id": 6938695148, "lat": 12.9992083, "lon": 77.550269, "tags": {"addr:district": "Bengaluru Urban", "addr:full": "No. 414/65, 20th Main, West of Chord road, 1st Block, Rajajinagar, Bangalore", "addr:postcode": "560010", "addr:state": "Karnataka", "amenity": "hospital", "contact:email": "info@chanrericr.com", "contact:phone": "080 - 42516699", "healthcare": "hospital", "name": "ChanRe Rheumatology and Immunology Center and Research", "source": "OpenGovernmentData", "website": "https://www.chanrericr.com/"}}, {"type": "node", "id": 6938717990, "lat": 12.9966677, "lon": 77.5716037, "tags": {"addr:district": "Bengaluru Urban", "addr:full": "24/1 5Th Cross Malleswaram", "addr:postcode": "560003", "addr:state": "Karnataka", "amenity": "hospital", "healthcare": "hospital", "name": "Malleswaram Eye Day Care Hospital - Bengalore", "source": "OpenGovernmentData"}}, {"type": "node", "id": 6938717991, "lat": 12.9933551, "lon": 77.5729595, "tags": {"addr:district": "Bengaluru Urban", "addr:full": "No.02, Sirur Park Road, Seshadripuram", "addr:postcode": "560020", "addr:state": "Karnataka", "amenity": "hospital", "healthcare": "hospital", "name": "Mahaveer Eye Hospital Private Limited", "operator:type": "private", "source": "OpenGovernmentData", "website": "http://dpal.kar.nic.in/Kanunu%20padakosha%20PDF%20Files/Recognised%20Hospitals.pdf"}}, {"type": "node", "id": 6938717993, "lat": 12.9989833, "lon": 77.5802015, "tags": {"addr:district": "Bengaluru Urban", "addr:full": "No.21,22,2nd Main Road, Palace Guttahalli", "addr:postcode": "560003", "addr:state": "Karnataka", "amenity": "hospital", "name": "Bilva Hospital", "name:kn": "\u0cac\u0cbf\u0cb2\u0ccd\u0cb5\u0cbe \u0c86\u0cb8\u0ccd\u0caa\u0ca4\u0ccd\u0cb0\u0cc6", "source": "OpenGovernmentData"}}, {"type": "node", "id": 6938774143, "lat": 12.9650437, "lon": 77.5435022, "tags": {"addr:district": "Bengaluru Urban", "addr:full": "No.10, Pipeline Road, RPC Layout, Vijayanagar, 2nd Stage", "addr:postcode": "560104", "addr:state": "Karnataka", "amenity": "hospital", "email": "skamcBengaluru@gmail.com", "healthcare": "hospital", "name": "Sri Kalabyraveshwara Swamy Ayurvedic Medical College hospital", "operator:type": "private", "source": "OpenGovernmentData", "website": "http://skayurvediccollegeandhospital.com/"}}, {"type": "node", "id": 6938775801, "lat": 12.9765645, "lon": 77.5455876, "tags": {"addr:district": "Bengaluru Urban", "addr:full": "No 18/2, 1st Cross, M.C. Layout, Vijayanagar", "addr:postcode": "560079", "addr:state": "Karnataka", "amenity": "hospital", "name": "Anugraha Hospital, Vijayanagar", "name:kn": "\u0c85\u0ca8\u0cc1\u0c97\u0ccd\u0cb0\u0cb9 \u0c86\u0cb8\u0ccd\u0caa\u0ca4\u0ccd\u0cb0\u0cc6", "source": "OpenGovernmentData"}}, {"type": "node", "id": 6938775840, "lat": 12.9711822, "lon": 77.5781228, "tags": {"addr:district": "Bengaluru Urban", "addr:full": "7Th Cross, Rangaswamy Temple Street", "addr:postcode": "560053", "addr:state": "Karnataka", "amenity": "hospital", "name": "Amar Hospital", "name:kn": "\u0c85\u0cae\u0cb0\u0ccd \u0c86\u0cb8\u0ccd\u0caa\u0ca4\u0ccd\u0cb0\u0cc6", "source": "OpenGovernmentData"}}, {"type": "node", "id": 6938775845, "lat": 12.95727, "lon": 77.5640827, "tags": {"addr:district": "Bengaluru Urban", "addr:full": "# 122, 5th Main Road, Chamarajpet", "addr:postcode": "560018", "addr:state": "Karnataka", "amenity": "hospital", "email": "retinaKarnatakaa@gmail.com", "name": "Retina Institute Of Karnataka", "operator:type": "private", "source": "OpenGovernmentData", "website": "https://www.retinainstitute.org/"}}, {"type": "node", "id": 6938775846, "lat": 12.9572978, "lon": 77.5644522, "tags": {"addr:district": "Bengaluru Urban", "addr:full": "123, 5Th Main Road, Chamarajpet", "addr:postcode": "560018", "addr:state": "Karnataka", "amenity": "hospital", "name": "The Venlakh Hospital", "source": "OpenGovernmentData"}}, {"type": "node", "id": 6938775854, "lat": 12.9406698, "lon": 77.5644596, "tags": {"addr:district": "Bengaluru Urban", "addr:full": "No.10/4 & 10/5, 3Road Main Road, Hanumanthanagar", "addr:postcode": "560019", "addr:state": "Karnataka", "amenity": "hospital", "name": "Vishwabharathi Hospital Pvt. Ltd", "source": "OpenGovernmentData"}}, {"type": "node", "id": 6938775855, "lat": 12.9404548, "lon": 77.5578493, "tags": {"addr:district": "Bengaluru Urban", "addr:full": "No 519/34, 2nd Cross 10Th Main, Bsk 1st Stage Banashankari", "addr:postcode": "560050", "addr:state": "Karnataka", "amenity": "hospital", "name": "Sunetra Eye Hospital, Bengaluru Urban", "source": "OpenGovernmentData"}}, {"type": "node", "id": 6938777910, "lat": 12.9386321, "lon": 77.5944105, "tags": {"addr:district": "Bengaluru Urban", "addr:full": "Hosur Road", "addr:postcode": "560029", "addr:state": "Karnataka", "amenity": "hospital", "email": "rmo@nimhans.kar.nic.in;ms@nimhans.kar.nic.in", "healthcare": "hospital", "name": "National Institute of Mental Health and Neuro Sciences", "operator:type": "government", "short_name": "NIMHANS", "source": "OpenGovernmentData", "website": "https://nimhans.ac.in/"}}, {"type": "node", "id": 6938781514, "lat": 13.0090828, "lon": 77.6235594, "tags": {"addr:district": "Bengaluru Urban", "addr:full": "Hennur Main Road Opposite Srirama Temple", "addr:postcode": "560043", "addr:state": "Karnataka", "amenity": "hospital", "healthcare": "hospital", "name": "K C Raju Multi Speciality Hospital", "source": "OpenGovernmentData"}}, {"type": "node", "id": 6938794412, "lat": 13.0223669, "lon": 77.5587304, "tags": {"addr:district": "Bengaluru Urban", "addr:full": "1105, 5Th Cross,Kn Extension, Yeshwanthpur", "addr:postcode": "560022", "addr:state": "Karnataka", "amenity": "hospital", "name": "Kala Hospital", "source": "OpenGovernmentData"}}, {"type": "node", "id": 6938948962, "lat": 13.024837, "lon": 77.592089, "tags": {"addr:district": "Bengaluru Urban", "addr:full": "402, 2nd Cross Judges Colony Ganganagar", "addr:postcode": "560032", "addr:state": "Karnataka", "amenity": "hospital", "name": "Lakshmi Hospital, Ganganagar", "source": "OpenGovernmentData"}}, {"type": "node", "id": 6939048258, "lat": 12.9605309, "lon": 77.592659, "tags": {"addr:district": "Bengaluru Urban", "addr:full": "No 44-45/2, 2nd Cross, Raja Rammohan Roy Extension, Opposite Double Road", "addr:postcode": "560027", "addr:state": "Karnataka", "amenity": "hospital", "name": "HCG", "source": "OpenGovernmentData"}}, {"type": "node", "id": 6939074293, "lat": 13.0218188, "lon": 77.613084, "tags": {"addr:district": "Bengaluru Urban", "addr:full": "Kadugondanahalli", "addr:postcode": "560045", "addr:state": "Karnataka", "amenity": "hospital", "email": "drbramc@rediffmail.com", "healthcare:speciality": "multi speciality", "name": "Dr Ambedkar Medical College Hospital", "operator:type": "private", "source": "OpenGovernmentData", "website": "http://www.bramc.org/"}}, {"type": "node", "id": 6939075872, "lat": 12.9929043, "lon": 77.5588015, "tags": {"addr:district": "Bengaluru Urban", "addr:full": "15/1 Iyappaswamy Templestraight Road", "addr:postcode": "560021", "addr:state": "Karnataka", "amenity": "hospital", "healthcare": "hospital", "name": "Supriya Hospital, Bengaluru Urban", "source": "OpenGovernmentData"}}, {"type": "node", "id": 6939076687, "lat": 13.0212406, "lon": 77.6070739, "tags": {"addr:district": "Bengaluru Urban", "addr:full": "91, Kavalbhyrasandra Dr Amc Road, Rt Nagar Post R T Nagar", "addr:postcode": "560032", "addr:state": "Karnataka", "amenity": "hospital", "name": "Manju Sree Hospital", "name:kn": "\u0cae\u0c82\u0c9c\u0cc1\u0cb6\u0ccd\u0cb0\u0cc0 \u0c86\u0cb8\u0ccd\u0caa\u0ca4\u0ccd\u0cb0\u0cc6", "source": "OpenGovernmentData"}}, {"type": "node", "id": 6939253041, "lat": 12.9412109, "lon": 77.6238987, "tags": {"addr:district": "Bengaluru Urban", "addr:full": "#434, 18Th Main 80 Ft Road, 6Th Block, Opp Koramangala Bus Depot", "addr:housenumber": "434", "addr:postcode": "560095", "addr:state": "Karnataka", "addr:street": "18th Main Road", "amenity": "hospital", "check_date": "2024-01-10", "email": "care@devieyehospital.in", "full_name": "Devi Super Speciality Eye Hospital Pvt Ltd", "healthcare": "hospital", "healthcare:speciality": "multi speciality", "name": "Devi Eye Hospital", "operator:type": "private", "source": "OpenGovernmentData", "website": "http://www.devieyehospital.in/"}}, {"type": "node", "id": 6939319393, "lat": 12.9548208, "lon": 77.5672585, "tags": {"addr:district": "Bengaluru Urban", "addr:full": "127/1, Bull Temple Road", "addr:postcode": "560019", "addr:state": "Karnataka", "amenity": "hospital", "name": "Kalasa Maternity Home", "source": "OpenGovernmentData"}}, {"type": "node", "id": 6939438895, "lat": 12.982442, "lon": 77.5493681, "tags": {"addr:district": "Bengaluru Urban", "addr:full": "1031, 20Th Main Road, 5Th Block, Rajajinagar", "addr:postcode": "560010", "addr:state": "Karnataka", "amenity": "hospital", "name": "Sidvin Hospital Pvt Ltd", "source": "OpenGovernmentData"}}, {"type": "node", "id": 6939699617, "lat": 12.9988238, "lon": 77.5819892, "tags": {"addr:district": "Bengaluru Urban", "addr:full": "Near Nti Qtrs, Jataka Stand, P.G.Halli, East", "addr:postcode": "560003", "addr:state": "Karnataka", "amenity": "hospital", "name": "Place Guttahalli Maternity Home", "source": "OpenGovernmentData"}}, {"type": "node", "id": 6939719899, "lat": 12.9608027, "lon": 77.5911717, "tags": {"addr:district": "Bengaluru Urban", "addr:full": "26, 1st Main, 2nd Cross, Ckc Garden Off Mission Road", "addr:postcode": "560027", "addr:state": "Karnataka", "amenity": "hospital", "name": "Phoenix Hospital, Bengaluru Urban", "source": "OpenGovernmentData"}}, {"type": "node", "id": 6944128588, "lat": 12.9563016, "lon": 77.5747874, "tags": {"addr:district": "Bengaluru Urban", "addr:full": "K. R. Road, V. V. Puram", "addr:postcode": "560004", "addr:state": "Karnataka", "amenity": "hospital", "name": "Kims Hospital and Research Centre", "source": "OpenGovernmentData"}}, {"type": "node", "id": 6944138103, "lat": 12.9489406, "lon": 77.5949925, "tags": {"addr:district": "Bengaluru Urban", "addr:full": "56, 8Th Cross, Wilson Garden", "addr:postcode": "560027", "addr:state": "Karnataka", "amenity": "hospital", "healthcare": "hospital", "name": "Karthik Hospital, Bengaluru Urban", "source": "OpenGovernmentData"}}, {"type": "node", "id": 6944138105, "lat": 12.9670215, "lon": 77.5892667, "tags": {"addr:district": "Bengaluru Urban", "addr:full": "10, Vokkaligara Bhavana, Hudson Circle", "addr:postcode": "560027", "addr:state": "Karnataka", "amenity": "hospital", "name": "Bangalore Kidney Stones Hospital", "source": "OpenGovernmentData"}}, {"type": "node", "id": 6944231454, "lat": 12.9994472, "lon": 77.6162584, "tags": {"addr:district": "Bengaluru Urban", "addr:full": "Pillana Garden", "addr:postcode": "560045", "addr:state": "Karnataka", "amenity": "hospital", "name": "Mediscope Hospital Private Limited", "operator:type": "private", "source": "OpenGovernmentData", "website": "http://dpal.kar.nic.in/Kanunu%20padakosha%20PDF%20Files/Recognised%20Hospitals.pdf"}}, {"type": "node", "id": 6944239588, "lat": 12.9825845, "lon": 77.6124926, "tags": {"addr:district": "Bengaluru Urban", "addr:full": "22/70, St. John`S Road, (Opposite R B A N M S Ground)", "addr:postcode": "560042", "addr:state": "Karnataka", "amenity": "hospital", "name": "Manjushree Speciality Hospital", "source": "OpenGovernmentData"}}, {"type": "node", "id": 6944256035, "lat": 13.0045747, "lon": 77.5432728, "tags": {"addr:district": "Bengaluru Urban", "addr:full": "158, 6Th Main Road 4Th Stage, Ii Phase West Of Chord Road", "addr:postcode": "560086", "addr:state": "Karnataka", "amenity": "hospital", "name": "Namratha Nursing And Maternity Home", "source": "OpenGovernmentData"}}, {"type": "node", "id": 6944256036, "lat": 12.9424801, "lon": 77.5473283, "tags": {"addr:district": "Bengaluru Urban", "addr:full": "5/81, 50 Feet Road, 20Th Main Road, Muneshwara Block, Girinagar", "addr:postcode": "560085", "addr:state": "Karnataka", "amenity": "hospital", "name": "The Pulse Multi Speciality Hospital", "source": "OpenGovernmentData"}}, {"type": "node", "id": 6944256037, "lat": 12.9514854, "lon": 77.5703564, "tags": {"addr:city": "Bangaluru", "addr:district": "Bengaluru Urban", "addr:full": "No. 16, 3Road Cross, Shankarpuram", "addr:housenumber": "16", "addr:postcode": "560004", "addr:state": "Karnataka", "addr:street": "3rd Cross Road", "amenity": "hospital", "emergency": "yes", "healthcare": "hospital", "healthcare:speciality": "general", "name": "Popular Hospital", "operator": "Dr Lingham Murali", "operator:type": "private", "source": "local knowledge"}}, {"type": "node", "id": 6944269353, "lat": 12.9526505, "lon": 77.5548633, "tags": {"addr:district": "Bengaluru Urban", "addr:full": "Kempegoudanagara, Near Police Station, South", "addr:postcode": "560018", "addr:state": "Karnataka", "amenity": "hospital", "name": "Gavipuramguttahalli Maternity Home", "source": "OpenGovernmentData"}}, {"type": "node", "id": 6944276882, "lat": 12.9745134, "lon": 77.5493883, "tags": {"addr:district": "Bengaluru Urban", "addr:full": "No-170, 12th, Ist Main, Near Anjaneya Temple, Opposite Karnatakaa Bank", "addr:postcode": "560086", "addr:state": "Karnataka", "amenity": "hospital", "email": "info@bengaluruspinecare.com", "name": "Spine Care And Ortho Care Hospital", "operator:type": "private", "source": "OpenGovernmentData", "website": "https://www.bengaluruspinecare.com/"}}, {"type": "node", "id": 6944287716, "lat": 12.9733764, "lon": 77.5474034, "tags": {"addr:district": "Bengaluru Urban", "addr:full": "66 B/7, Pipe Line Road, Vijayanagara", "addr:postcode": "560040", "addr:state": "Karnataka", "amenity": "hospital", "name": "Tanmay Hospital", "source": "OpenGovernmentData"}}, {"type": "node", "id": 6944309977, "lat": 12.9645006, "lon": 77.5427189, "tags": {"addr:district": "Bengaluru Urban", "addr:full": "No. 1869, 5Th Main, 13Th Cross, R.P.C. Lay Out, Vijayanagar", "addr:postcode": "560040", "addr:state": "Karnataka", "amenity": "hospital", "healthcare": "hospital", "name": "Susheel Hospital", "source": "OpenGovernmentData"}}, {"type": "node", "id": 6944392363, "lat": 12.938853, "lon": 77.5786096, "tags": {"addr:district": "Bengaluru Urban", "addr:full": "9, Patalamma Temple Street, Basavanagudi", "addr:postcode": "560004", "addr:state": "Karnataka", "amenity": "hospital", "name": "Av Hospital", "source": "OpenGovernmentData"}}, {"type": "node", "id": 6944392364, "lat": 12.9632506, "lon": 77.5602901, "tags": {"addr:district": "Bengaluru Urban", "addr:full": "No. 40/1, J.J.R. Nagar Main Road, K.H. Ranganath Colony, Behind Sadarshini Hotel", "addr:postcode": "560018", "addr:state": "Karnataka", "amenity": "hospital", "healthcare": "hospital", "name": "Balaji Hospital, K.H. Ranganath Colony", "source": "OpenGovernmentData"}}, {"type": "node", "id": 6944400815, "lat": 12.9670615, "lon": 77.5903161, "tags": {"addr:district": "Bengaluru Urban", "addr:full": "No.2 , 8Th A Main,S.R.Nagar,Near Corporation Offices", "addr:postcode": "560027", "addr:state": "Karnataka", "amenity": "hospital", "name": "Bhavatprabhu Hospitals Pvt Limited", "source": "OpenGovernmentData"}}, {"type": "node", "id": 6944418996, "lat": 12.975802, "lon": 77.6184806, "tags": {"addr:district": "Bengaluru Urban", "addr:full": "No.1 Haudin Road, Off Ulsoor Road", "addr:postcode": "560042", "addr:state": "Karnataka", "amenity": "hospital", "name": "Nikad Ortho Centre", "source": "OpenGovernmentData"}}, {"type": "node", "id": 6944437383, "lat": 13.0195733, "lon": 77.5419559, "tags": {"addr:district": "Bengaluru Urban", "addr:full": "# 141/142, 1st Main, Krishnandanagar, Khb Colony", "addr:postcode": "560096", "addr:state": "Karnataka", "addr:subdistrict": "Nandini Layout", "amenity": "hospital", "email": "info@rakshahospital.in", "name": "Raksha Multispeciality Hospital", "operator:type": "private", "source": "OpenGovernmentData", "website": "http://www.rakshahospital.in/"}}, {"type": "node", "id": 6944449930, "lat": 13.0195955, "lon": 77.5419813, "tags": {"addr:district": "Bengaluru Urban", "addr:full": "18/17,Cambridge Road,Ulsoor", "addr:postcode": "560038", "addr:state": "Karnataka", "amenity": "hospital", "name": "Cambridge Hospital", "source": "OpenGovernmentData"}}, {"type": "node", "id": 6944464994, "lat": 12.9559644, "lon": 77.5485635, "tags": {"addr:district": "Bengaluru Urban", "addr:full": "Kasturabanagar, Mysore Road , South", "addr:postcode": "560026", "addr:state": "Karnataka", "amenity": "hospital", "name": "Azad Nagar Maternity Home", "source": "OpenGovernmentData"}}, {"type": "node", "id": 6944507652, "lat": 12.9403012, "lon": 77.5764705, "tags": {"addr:district": "Bengaluru Urban", "addr:full": "1,Dewan N, Madhava Rao Road, Basavanagudi", "addr:postcode": "560004", "addr:state": "Karnataka", "amenity": "hospital", "healthcare": "hospital", "name": "Gunasheela Surgical and Maternity Hospital", "source": "OpenGovernmentData"}}, {"type": "node", "id": 6944525392, "lat": 12.9356703, "lon": 77.6079905, "tags": {"addr:district": "Bengaluru Urban", "addr:full": "#11, Krishna Nagar Industrial Layout, D.R.C.Post,Near Christ College,Hosur", "addr:postcode": "560029", "addr:state": "Karnataka", "amenity": "hospital", "name": "Prasad Eye Hospital, Bengaluru Urban", "source": "OpenGovernmentData"}}, {"type": "node", "id": 6944543261, "lat": 13.0098352, "lon": 77.5384723, "tags": {"addr:district": "Bengaluru Urban", "addr:full": "#4,Sfhs,Next To Nandini Layout", "addr:postcode": "560096", "addr:state": "Karnataka", "amenity": "hospital", "healthcare": "hospital", "healthcare:speciality": "blood_check;general", "name": "J.P.Nursing Home", "opening_hours": "24/7", "operator": "Jyothi Prakash", "operator:type": "public", "source": "OpenGovernmentData"}}, {"type": "node", "id": 6944888150, "lat": 12.9496114, "lon": 77.5790786, "tags": {"addr:district": "Bengaluru Urban", "addr:full": "37, M.N. Krishna Rao Road, Opp Lalbagh West Gate", "addr:postcode": "560004", "addr:state": "Karnataka", "amenity": "hospital", "healthcare": "hospital", "name": "Jyothi The Lasik Vision Centre", "source": "OpenGovernmentData"}}, {"type": "node", "id": 6944925493, "lat": 12.9563042, "lon": 77.5830996, "tags": {"addr:district": "Bengaluru Urban", "addr:full": "J.C.Road", "addr:postcode": "560002", "addr:state": "Karnataka", "amenity": "hospital", "name": "Bengaluru West Lions Hospital", "operator:type": "private", "source": "OpenGovernmentData", "website": "http://dpal.kar.nic.in/Kanunu%20padakosha%20PDF%20Files/Recognised%20Hospitals.pdf"}}, {"type": "node", "id": 6944983789, "lat": 12.9716291, "lon": 77.5371969, "tags": {"addr:district": "Bengaluru Urban", "addr:full": "17th Cross, Near Main Bus Stand, MC Road, Vijayanagar", "addr:postcode": "560040", "addr:state": "Karnataka", "amenity": "hospital", "check_date": "2024-12-21", "healthcare": "hospital", "name": "Vijayanagar Hospital", "operator:type": "private", "source": "OpenGovernmentData", "website": "http://dpal.kar.nic.in/Kanunu%20padakosha%20PDF%20Files/Recognised%20Hospitals.pdf"}}, {"type": "node", "id": 6945001435, "lat": 12.9550181, "lon": 77.5683897, "tags": {"addr:district": "Bengaluru Urban", "addr:full": "No. 36, Vagdevi, Shankara Park, Opposite Jnanodaya School", "addr:postcode": "560004", "addr:state": "Karnataka", "amenity": "hospital", "healthcare": "hospital", "name": "Abhinava Eye Hospital", "source": "OpenGovernmentData"}}, {"type": "node", "id": 6945020140, "lat": 12.9685305, "lon": 77.5843965, "tags": {"addr:district": "Bengaluru Urban", "addr:full": "No 37, Next To Ganesha Temple Near Cubbonpet Market Near Cubbonpet Market", "addr:postcode": "560002", "addr:state": "Karnataka", "amenity": "hospital", "name": "Punarjyoti Eye Hospital, Bengaluru Urban", "source": "OpenGovernmentData"}}, {"type": "node", "id": 6945031202, "lat": 13.0080166, "lon": 77.6221479, "tags": {"addr:district": "Bengaluru Urban", "addr:full": "1 & 2, Hennur Road Cross, Lingarajpuram,Below Railway Flyover", "addr:postcode": "560084", "addr:state": "Karnataka", "amenity": "hospital", "name": "Sundar Hospital", "source": "OpenGovernmentData"}}, {"type": "node", "id": 6945075435, "lat": 13.015884, "lon": 77.5973475, "tags": {"addr:district": "Bengaluru Urban", "addr:full": "No 29, 9Th Cross Adi Kabir Ashram Road,H.D Devegowda Road", "addr:postcode": "560037", "addr:state": "Karnataka", "amenity": "hospital", "name": "V Care Hospital", "source": "OpenGovernmentData"}}, {"type": "node", "id": 6945348721, "lat": 12.9586907, "lon": 77.5352668, "tags": {"addr:district": "Bengaluru Urban", "addr:full": "#966/ 22, Service Road, RPC Layout, Vijayanagar, Opposite Syndicate Bank", "addr:postcode": "560104", "addr:state": "Karnataka", "amenity": "hospital", "healthcare": "hospital", "healthcare:speciality": "Cataract Treatment; Cornea Clinic; Retina Clinic; Glaucoma Clinic", "name": "Divya Drishti Eye Hospital, Vijayanagar", "operator:type": "private", "source": "OpenGovernmentData", "website": "http://divyadrishtieyehospital.com/"}}, {"type": "node", "id": 6945768862, "lat": 12.9732706, "lon": 77.5725357, "tags": {"addr:district": "Bengaluru Urban", "addr:full": "No. 12, Park Road, Bale Peth", "addr:postcode": "560053", "addr:state": "Karnataka", "amenity": "hospital", "name": "Sreeniwasa Hospital", "name:kn": "\u0cb6\u0ccd\u0cb0\u0cc0\u0ca8\u0cbf\u0cb5\u0cbe\u0cb8 \u0ca6\u0cc7\u0cb5\u0cb8\u0ccd\u0ca5\u0cbe\u0ca8", "source": "OpenGovernmentData"}}, {"type": "node", "id": 6947003707, "lat": 12.9741253, "lon": 77.561823, "tags": {"addr:district": "Bengaluru Urban", "addr:full": "2nd Cross, Magadi Road", "addr:postcode": "560023", "addr:state": "Karnataka", "amenity": "hospital", "name": "Magadi Road Maternity Home", "source": "OpenGovernmentData"}}, {"type": "node", "id": 6947033494, "lat": 12.9980009, "lon": 77.5432779, "tags": {"addr:district": "Bengaluru Urban", "addr:full": "No.877, Modi Hospital Road, West of Chord Road, II Stage Extension", "addr:postcode": "560086", "addr:state": "Karnataka", "amenity": "hospital", "healthcare": "hospital", "name": "Pristine Hospital", "name:kn": "\u0caa\u0ccd\u0cb0\u0cbf\u0cb8\u0ccd\u0c9f\u0cc0\u0ca8\u0ccd \u0c86\u0cb8\u0ccd\u0caa\u0ca4\u0ccd\u0cb0\u0cc6", "operator:type": "private", "source": "OpenGovernmentData", "website": "http://pristinehospitals.com/"}}, {"type": "node", "id": 6947499711, "lat": 12.9960196, "lon": 77.6128413, "tags": {"addr:district": "Bengaluru Urban", "addr:full": "No.33, Coles Road,Frazer Town", "addr:postcode": "560005", "addr:state": "Karnataka", "amenity": "hospital", "name": "Dr.Agarwal Eye Hospital, Frazer Town, Bangalore", "source": "OpenGovernmentData"}}, {"type": "node", "id": 6947504038, "lat": 12.964162, "lon": 77.5982255, "tags": {"addr:district": "Bengaluru Urban", "addr:full": "No. 5, Langford Gardens, Near Richmond Circle", "addr:postcode": "560025", "addr:state": "Karnataka", "amenity": "hospital", "name": "Republic Hospital", "source": "OpenGovernmentData"}}, {"type": "node", "id": 6947674447, "lat": 12.9543777, "lon": 77.6209764, "tags": {"addr:district": "Bengaluru Urban", "addr:full": "No.162, 4Th Main, Opposite Post Office, Viveknagar, 20Yds, Viveknagar Bus Stand", "addr:postcode": "560047", "addr:state": "Karnataka", "amenity": "hospital", "name": "Sri Ram Speciality Hospital", "source": "OpenGovernmentData"}}, {"type": "node", "id": 6947682067, "lat": 12.9619528, "lon": 77.5728562, "tags": {"addr:district": "Bengaluru Urban", "addr:full": "Victoria Hospital Campus", "addr:postcode": "560002", "addr:state": "Karnataka", "amenity": "hospital", "healthcare": "hospital", "name": "Institute Of Nephro Urology hospital", "source": "OpenGovernmentData"}}, {"type": "node", "id": 6947701126, "lat": 12.9425676, "lon": 77.6224349, "tags": {"addr:district": "Bengaluru Urban", "addr:full": "Koramangala", "addr:postcode": "560095", "addr:state": "Karnataka", "amenity": "hospital", "healthcare": "hospital", "name": "Well Spring hospital", "source": "OpenGovernmentData"}}, {"type": "node", "id": 6947707788, "lat": 13.0105038, "lon": 77.5502452, "tags": {"addr:district": "Bengaluru Urban", "addr:full": "Bengaluru Urban", "addr:postcode": "560002", "addr:state": "Karnataka", "amenity": "hospital", "name": "Aaroyha Mandir Hospital", "source": "OpenGovernmentData"}}, {"type": "node", "id": 6947707895, "lat": 12.9862161, "lon": 77.5374853, "tags": {"addr:district": "Bengaluru Urban", "addr:full": "# 52 /10 80 Ft Road, Khb Colony Basaveshwaranagar", "addr:postcode": "560079", "addr:state": "Karnataka", "amenity": "hospital", "email": "support@punyahospitals.com", "healthcare": "hospital", "name": "Punya Hospital, Bengaluru Urban", "operator:type": "private", "source": "OpenGovernmentData", "website": "https://punyahospitals.com/"}}, {"type": "node", "id": 6947915400, "lat": 12.9646359, "lon": 77.5926509, "tags": {"addr:district": "Bengaluru Urban", "addr:full": "Sindhi Hospital Road Sampangiramnagar S R Nagar", "addr:postcode": "560027", "addr:state": "Karnataka", "amenity": "hospital", "name": "Pd Hinduja Sindhi Hospital", "source": "OpenGovernmentData"}}, {"type": "node", "id": 6948030294, "lat": 12.9986239, "lon": 77.542782, "tags": {"addr:district": "Bengaluru Urban", "addr:full": "1078 11Th Main 9Th Cross Above Punjab National Bank Mahalakshmipura", "addr:postcode": "560086", "addr:state": "Karnataka", "amenity": "hospital", "healthcare": "hospital", "name": "Sri Ranga Arogyadhama", "source": "OpenGovernmentData"}}, {"type": "node", "id": 6948438892, "lat": 12.9817233, "lon": 77.5549364, "tags": {"addr:district": "Bengaluru Urban", "addr:full": "10Th, A Main, 68Th Cross, 5Th Block, Rajajinagar Near Bhasyam Circle", "addr:postcode": "560010", "addr:state": "Karnataka", "amenity": "hospital", "name": "Rotary Eye Hospital (A Unit Of Bangalore North Rotary Trust)", "source": "OpenGovernmentData"}}, {"type": "node", "id": 6948459038, "lat": 13.0218344, "lon": 77.5567093, "tags": {"addr:district": "Bengaluru Urban", "addr:full": "No. 22/21, 6Th Cross, K N Extn, Yeshwanth Pur", "addr:postcode": "560022", "addr:state": "Karnataka", "amenity": "hospital", "name": "Acharya Tulsi Jain Hospital", "source": "OpenGovernmentData"}}, {"type": "node", "id": 6948552667, "lat": 12.9526616, "lon": 77.61503, "tags": {"addr:district": "Bengaluru Urban", "addr:full": "#20, 7Th Cross Rosegarden, Neelasandra", "addr:postcode": "560047", "addr:state": "Karnataka", "amenity": "hospital", "name": "Get Well Hospital", "source": "OpenGovernmentData"}}, {"type": "node", "id": 6948590938, "lat": 13.0241863, "lon": 77.5960574, "tags": {"addr:district": "Bengaluru Urban", "addr:full": "No.2, Ex-Servicemen Colony, 5Th Cross, Dinnur Main Road, R.T.Nagar", "addr:postcode": "560032", "addr:state": "Karnataka", "amenity": "hospital", "name": "Premier Hospital", "source": "OpenGovernmentData"}}, {"type": "node", "id": 6948604083, "lat": 13.0001802, "lon": 77.5461146, "tags": {"addr:district": "Bengaluru Urban", "addr:full": "No - 30,1st Cross, Opp Geleyara Balaga Bus Stop,Mahalakshmipuram,Banglore", "addr:postcode": "560086", "addr:state": "Karnataka", "amenity": "hospital", "name": "Gurukripa Hospital and Health Care Centre", "source": "OpenGovernmentData"}}, {"type": "node", "id": 6950124308, "lat": 12.9543465, "lon": 77.5755649, "tags": {"addr:district": "Bengaluru Urban", "addr:full": "506, Aswathankatte Road V V Puram", "addr:postcode": "560004", "addr:state": "Karnataka", "amenity": "hospital", "name": "Venkateswara Hospital, Bengaluru Urban", "name:kn": "\u0cb5\u0cc6\u0c82\u0c95\u0c9f\u0cc7\u0cb6\u0ccd\u0cb5\u0cb0 \u0c86\u0cb8\u0ccd\u0caa\u0ca4\u0ccd\u0cb0\u0cc6", "source": "OpenGovernmentData"}}, {"type": "node", "id": 6950185730, "lat": 12.9783164, "lon": 77.5429603, "tags": {"addr:district": "Bengaluru Urban", "addr:full": "58, M. Muniyappa Complex Magadi Main Road, Agrahara Dasarahalli,", "addr:postcode": "560079", "addr:state": "Karnataka", "amenity": "hospital", "name": "Madhu Hospital, Bengaluru Urban", "source": "OpenGovernmentData"}}, {"type": "node", "id": 6950412307, "lat": 13.0236062, "lon": 77.6196139, "tags": {"addr:district": "Bengaluru Urban", "addr:full": "5, Arabic College Main Road, Banglore", "addr:postcode": "560045", "addr:state": "Karnataka", "amenity": "hospital", "name": "Al- Habeeb Hospital", "source": "OpenGovernmentData"}}, {"type": "node", "id": 6950412318, "lat": 12.9439008, "lon": 77.6065864, "tags": {"addr:district": "Bengaluru Urban", "addr:full": "No.2/2, ARS Mansion, New Mico Factory Road, Opposite GovernmentHigh School, Adugodi", "addr:postcode": "560030", "addr:state": "Karnataka", "amenity": "hospital", "email": "communication@santhigiriashram.org", "name": "Santhigiri Ayurveda and Siddha Hospital, Bengaluru Urban", "operator:type": "private", "source": "OpenGovernmentData", "website": "https://www.santhigiriashram.org/"}}, {"type": "node", "id": 7007284257, "lat": 12.9848995, "lon": 77.5568087}, {"type": "node", "id": 7139631443, "lat": 12.9745983, "lon": 77.5436792, "tags": {"amenity": "hospital", "name": "Padmashree Diagnostics"}}, {"type": "node", "id": 7201052011, "lat": 13.005837, "lon": 77.5531299}, {"type": "node", "id": 7201052012, "lat": 13.0052529, "lon": 77.5527906}, {"type": "node", "id": 7202935829, "lat": 12.993382, "lon": 77.5694167, "tags": {"addr:district": "Chitradurga", "addr:full": "K.C. General Hospital, Srirampura", "addr:postcode": "560003", "addr:state": "Karnataka", "addr:subdistrict": "Hosdurga", "amenity": "hospital", "contact:phone": "08199-242555", "name": "K.C. General Hospital", "source": "OpenGovernmentData"}}, {"type": "node", "id": 7235403686, "lat": 12.9853993, "lon": 77.5454024, "tags": {"amenity": "hospital", "name": "Yashas Neurocare"}}, {"type": "node", "id": 7235403985, "lat": 12.9870634, "lon": 77.549951, "tags": {"amenity": "hospital", "name": "Focus Diagnostic Center"}}, {"type": "node", "id": 7292235598, "lat": 12.9850791, "lon": 77.5569447}, {"type": "node", "id": 7292337020, "lat": 12.963623, "lon": 77.5673169}, {"type": "node", "id": 7293719494, "lat": 12.96384, "lon": 77.5898682}, {"type": "node", "id": 7293719495, "lat": 12.9638491, "lon": 77.5898319}, {"type": "node", "id": 7395562818, "lat": 12.9677564, "lon": 77.5952352}, {"type": "node", "id": 7395562819, "lat": 12.9677088, "lon": 77.594954}, {"type": "node", "id": 7413376528, "lat": 12.9984165, "lon": 77.5458615}, {"type": "node", "id": 7413376529, "lat": 12.9980263, "lon": 77.5463388}, {"type": "node", "id": 7413376530, "lat": 12.9980298, "lon": 77.5462056}, {"type": "node", "id": 7413376531, "lat": 12.9975687, "lon": 77.546189}, {"type": "node", "id": 7448009622, "lat": 13.0098978, "lon": 77.5935437}, {"type": "node", "id": 7448009623, "lat": 13.0095859, "lon": 77.5945352}, {"type": "node", "id": 7448743127, "lat": 12.9641864, "lon": 77.6119414}, {"type": "node", "id": 7448743129, "lat": 12.9642243, "lon": 77.6112815}, {"type": "node", "id": 7572526686, "lat": 12.975501, "lon": 77.534972, "tags": {"addr:district": "Bengaluru Urban", "addr:full": "Govindarajanagar, Bengaluru", "addr:postcode": "560040", "addr:state": "Karnataka", "amenity": "hospital", "name": "Kamadhenu Hospital", "source": "Local Knowledge"}}, {"type": "node", "id": 7572526698, "lat": 12.9744928, "lon": 77.5342045, "tags": {"addr:district": "Bengaluru Urban", "addr:full": "Stage 2, Vijayanagar, Bengaluru", "addr:postcode": "560040", "addr:state": "Karnataka", "amenity": "hospital", "name": "Goverment Hospital, Hosahalli", "source": "Local Knowledge"}}, {"type": "node", "id": 7572526708, "lat": 12.9734087, "lon": 77.5462808, "tags": {"addr:district": "Bengaluru Urban", "addr:full": "Hoshalli Extension, Vijayanagar, Bengaluru", "addr:postcode": "560040", "addr:state": "Karnataka", "amenity": "hospital", "name": "Sriprasad Ayurveda", "source": "Local Knowledge"}}, {"type": "node", "id": 7572526709, "lat": 12.9707429, "lon": 77.5377684, "tags": {"addr:district": "Bengaluru Urban", "addr:full": "Near Vijayanagar Police Station, Vijaya Nagar, Bengaluru", "addr:postcode": "560040", "addr:state": "Karnataka", "amenity": "hospital", "healthcare": "hospital", "name": "Vidya Eye Hospital", "source": "Local Knowledge"}}, {"type": "node", "id": 7572526752, "lat": 12.9802303, "lon": 77.5548818, "tags": {"addr:district": "Bengaluru Urban", "addr:full": "Rajajinagar, Bengaluru", "addr:postcode": "560010", "addr:state": "Karnataka", "amenity": "hospital", "name": "G.R. Hospital", "source": "Local Knowledge"}}, {"type": "node", "id": 7572526753, "lat": 12.9754301, "lon": 77.5358001, "tags": {"addr:district": "Bengaluru Urban", "addr:full": "Nagarabhavi Main Road, Govindaraja Nagar Ward, Vijayanagar, Bengaluru", "addr:postcode": "560040", "addr:state": "Karnataka", "amenity": "hospital", "name": "Sneha Horizon Hospital", "source": "Local Knowledge"}}, {"type": "node", "id": 7572526757, "lat": 12.974339, "lon": 77.542325, "tags": {"addr:district": "Bengaluru Urban", "addr:full": "CHBS Layout, Vijayanagar, Bengaluru", "addr:postcode": "560040", "addr:state": "Karnataka", "amenity": "hospital", "name": "Kangroo Hospital", "source": "Local Knowledge"}}, {"type": "node", "id": 7572526762, "lat": 12.9757486, "lon": 77.553782, "tags": {"addr:district": "Bengaluru Urban", "addr:full": "Rajajinagar, Bengaluru", "addr:postcode": "560023", "addr:state": "Karnataka", "amenity": "hospital", "name": "Abhinav Hospital", "source": "Local Knowledge"}}, {"type": "node", "id": 7572526763, "lat": 12.969102, "lon": 77.534951, "tags": {"addr:district": "Bengaluru Urban", "addr:full": "Govindaraja Nagar Ward, PF Layout, Vijayanagar, Bengaluru", "addr:postcode": "560040", "addr:state": "Karnataka", "amenity": "hospital", "name": "Suhusannidhi Hospital", "source": "Local Knowledge"}}, {"type": "node", "id": 7572526776, "lat": 12.9698191, "lon": 77.5360801, "tags": {"addr:district": "Bengaluru Urban", "addr:full": "CHBS Layout, MC Layout, Vijayanagar, Bengaluru", "addr:postcode": "560040", "addr:state": "Karnataka", "amenity": "hospital", "name": "Sai Ortho and Dental Centre", "source": "Local Knowledge"}}, {"type": "node", "id": 7572526781, "lat": 12.9794315, "lon": 77.5441641, "tags": {"addr:district": "Bengaluru Urban", "addr:full": "Agrahara Dasarahalli, Rajajinagar, Bengaluru", "addr:postcode": "560010", "addr:state": "Karnataka", "amenity": "hospital", "name": "Ammashrees Hospital", "source": "Local Knowledge"}}, {"type": "node", "id": 7572526791, "lat": 12.9735574, "lon": 77.5461246, "tags": {"addr:district": "Bengaluru Urban", "addr:full": "Hans Complex, Manuvana, Vijayanagar, Bengaluru", "addr:postcode": "560040", "addr:state": "Karnataka", "amenity": "hospital", "name": "Bengaluru Child Neurology and Rehabilitaion Centre", "source": "Local Knowledge"}}, {"type": "node", "id": 7572526800, "lat": 12.975423, "lon": 77.540659, "tags": {"addr:district": "Bengaluru Urban", "addr:full": "Near SBI, Vijayanagar, Bengaluru", "addr:postcode": "560040", "addr:state": "Karnataka", "amenity": "hospital", "name": "Dr. Nothesh Child Specialist", "source": "Local Knowledge"}}, {"type": "node", "id": 7576958025, "lat": 12.93753, "lon": 77.549675, "tags": {"addr:district": "Bengaluru Urban", "addr:full": "Srinivasnagar, Banashankari, Bengaluru", "addr:state": "Karnataka", "amenity": "hospital", "name": "Vinayaka Hospital", "source": "Local Knowledge"}}, {"type": "node", "id": 7576958028, "lat": 12.9633185, "lon": 77.5790145, "tags": {"addr:district": "Bengaluru Urban", "addr:full": "Near Jamia Masjid, NR Road, Bengaluru", "addr:postcode": "560002", "addr:state": "Karnataka", "amenity": "hospital", "name": "Unani Hospital", "source": "Local Knowledge"}}, {"type": "node", "id": 7576958032, "lat": 12.9596227, "lon": 77.6146819, "tags": {"addr:district": "Bengaluru Urban", "addr:full": "Austin Town, Neelasandra, Bengaluru", "addr:postcode": "560047", "addr:state": "Karnataka", "amenity": "hospital", "name": "Rahul Maternity & Child Health Centre", "source": "Local Knowledge"}}, {"type": "node", "id": 7576958033, "lat": 12.9405198, "lon": 77.5794387, "tags": {"addr:district": "Bengaluru Urban", "addr:full": "Basavanagudi, Bengaluru", "addr:postcode": "560004", "addr:state": "Karnataka", "amenity": "hospital", "name": "Bangaluru Unani Hospital", "source": "Local Knowledge"}}, {"type": "node", "id": 7576958037, "lat": 12.953049, "lon": 77.574203, "tags": {"addr:district": "Bengaluru Urban", "addr:full": "S.S. Temple Street, V V Puram, Bengaluru", "addr:postcode": "560004", "addr:state": "Karnataka", "amenity": "hospital", "name": "Medcare Hospital", "source": "Local Knowledge"}}, {"type": "node", "id": 7576958039, "lat": 12.9417439, "lon": 77.5601782, "tags": {"addr:district": "Bengaluru Urban", "addr:full": "50 Feet Road, Basavanagadi, Banashankari, Bengaluru", "addr:postcode": "560019", "addr:state": "Karnataka", "amenity": "hospital", "name": "Sumanjara Hospital", "source": "Local Knowledge"}}, {"type": "node", "id": 7576958043, "lat": 12.961345, "lon": 77.560893, "tags": {"addr:district": "Bengaluru Urban", "addr:full": "Mahaveer Arcade, Sirsi Road, Chamrajpet, Bengaluru", "addr:postcode": "560018", "addr:state": "Karnataka", "amenity": "hospital", "name": "Corporation Hospital", "source": "Local Knowledge"}}, {"type": "node", "id": 7576958045, "lat": 12.945591, "lon": 77.5712865, "tags": {"addr:district": "Bengaluru Urban", "addr:full": "DVG Road, Gandhi Bazaar, Basavanagudi, Bengaluru", "addr:postcode": "560004", "addr:state": "Karnataka", "amenity": "hospital", "name": "Mitralaya Hospital", "source": "Local Knowledge"}}, {"type": "node", "id": 7576958048, "lat": 12.942076, "lon": 77.553598, "tags": {"addr:district": "Bengaluru Urban", "addr:full": "Dasarhalli, Srinagar, Banashankari, Bengaluru", "addr:state": "Karnataka", "amenity": "hospital", "name": "People Tree Hospitals", "source": "Local Knowledge"}}, {"type": "node", "id": 7576958051, "lat": 12.936459, "lon": 77.584422, "tags": {"addr:district": "Bengaluru Urban", "addr:full": "Jaya Nagar East, Jayanagar, Bengaluru", "addr:postcode": "560011", "addr:state": "Karnataka", "amenity": "hospital", "healthcare": "hospital", "name": "Apollo Specialty Hospital", "source": "Local Knowledge"}}, {"type": "node", "id": 7576958052, "lat": 12.9609494, "lon": 77.5613939, "tags": {"addr:district": "Bengaluru Urban", "addr:full": "Sirsi Road, Chamrajpet, Bengaluru", "addr:postcode": "560018", "addr:state": "Karnataka", "amenity": "hospital", "name": "Government Hospital", "name:kn": "\u0c9a\u0cbe\u0cae\u0cb0\u0cbe\u0c9c\u0caa\u0cc7\u0c9f\u0cc6 \u0cb8\u0cb0\u0ccd\u0c95\u0cbe\u0cb0\u0cbf \u0c86\u0cb8\u0ccd\u0caa\u0ca4\u0ccd\u0cb0\u0cc6", "source": "Local Knowledge"}}, {"type": "node", "id": 7576958060, "lat": 12.940404, "lon": 77.5580361, "tags": {"addr:district": "Bengaluru Urban", "addr:full": "SBM Colony, Banashankari, Bengaluru", "addr:postcode": "560050", "addr:state": "Karnataka", "amenity": "hospital", "name": "Verna Hospital", "source": "Local Knowledge"}}, {"type": "node", "id": 7576958061, "lat": 12.9587464, "lon": 77.5573456, "tags": {"addr:district": "Bengaluru Urban", "addr:full": "Ramachandra Agrahara, Azad Nagar, Bengaluru", "addr:postcode": "560026", "addr:state": "Karnataka", "amenity": "hospital", "name": "Government Hospital, Banglore", "source": "Local Knowledge"}}, {"type": "node", "id": 7576958062, "lat": 12.960311, "lon": 77.568274, "tags": {"addr:district": "Bengaluru Urban", "addr:full": "Kamalanagar, Chamrajpet, Bengaluru", "addr:postcode": "560018", "addr:state": "Karnataka", "amenity": "hospital", "name": "Royan Maternity & Child Welfare Centre", "source": "Local Knowledge"}}, {"type": "node", "id": 7576958064, "lat": 12.9652304, "lon": 77.6104334, "tags": {"addr:district": "Bengaluru Urban", "addr:full": "Campbell Road, Bangalore", "addr:postcode": "560047", "addr:state": "Karnataka", "amenity": "hospital", "name": "Alisa Eye Hospital", "source": "Local Knowledge"}}, {"type": "node", "id": 7576958065, "lat": 12.945944, "lon": 77.567404, "tags": {"addr:district": "Bengaluru Urban", "addr:full": "Bull Temple Road, Hanumanthnagar, Bengaluru", "addr:postcode": "560019", "addr:state": "Karnataka", "amenity": "hospital", "name": "Shekhar Hospital", "source": "Local Knowledge"}}, {"type": "node", "id": 7576958066, "lat": 12.949104, "lon": 77.563226, "tags": {"addr:district": "Bengaluru Urban", "addr:full": "RK Mutt Layout, Kempegowda Nagar, Bengaluru", "addr:state": "Karnataka", "amenity": "hospital", "name": "Government Hospital", "name:kn": "\u0cb8\u0cb0\u0ccd\u0c95\u0cbe\u0cb0\u0cbf \u0c86\u0cb8\u0ccd\u0caa\u0ca4\u0ccd\u0cb0\u0cc6", "source": "Local Knowledge"}}, {"type": "node", "id": 7576958068, "lat": 12.9415883, "lon": 77.5641917, "tags": {"addr:district": "Bengaluru Urban", "addr:full": "Hanumanthnagar, Banashankari, Bengaluru", "addr:postcode": "560019", "addr:state": "Karnataka", "amenity": "hospital", "name": "Jeevini Sarvodaya Hospital", "source": "Local Knowledge"}}, {"type": "node", "id": 7576958070, "lat": 12.9569684, "lon": 77.5695045, "tags": {"addr:district": "Bengaluru Urban", "addr:full": "Shankar Mutt Road, Chikkanna Garden, Shankarapura, Bengaluru", "addr:postcode": "560004", "addr:state": "Karnataka", "amenity": "hospital", "name": "Mahaveer Ortho Care Speciality Centre", "source": "Local Knowledge"}}, {"type": "node", "id": 7576958071, "lat": 12.938787, "lon": 77.554296, "tags": {"addr:district": "Bengaluru Urban", "addr:full": "Banashankari, Bengaluru", "addr:state": "Karnataka", "amenity": "hospital", "name": "Raghavendra Hospital", "source": "Local Knowledge"}}, {"type": "node", "id": 7576958074, "lat": 12.938453, "lon": 77.551329, "tags": {"addr:district": "Bengaluru Urban", "addr:full": "Srinivasnagar, Banashankari, Bengaluru", "addr:state": "Karnataka", "amenity": "hospital", "name": "Apaara Multi Speciality", "source": "Local Knowledge"}}, {"type": "node", "id": 7576958078, "lat": 12.939882, "lon": 77.573989, "tags": {"addr:district": "Bengaluru Urban", "addr:full": "Krishna Rajendra Road, Basavanagudi, Bengaluru", "addr:postcode": "560004", "addr:state": "Karnataka", "amenity": "hospital", "healthcare": "hospital", "name": "Khincha Orthopaedic Centre", "source": "Local Knowledge"}}, {"type": "node", "id": 7576958080, "lat": 12.948971, "lon": 77.563543, "tags": {"addr:district": "Bengaluru Urban", "addr:full": "RK Mutt Layout, Gavipura, Kempegowda Nagar, Bengaluru", "addr:state": "Karnataka", "amenity": "hospital", "name": "Parameshwari Hospital", "source": "Local Knowledge"}}, {"type": "node", "id": 7576958083, "lat": 12.9422541, "lon": 77.5506328, "tags": {"addr:district": "Bengaluru Urban", "addr:full": "Giri Nagar, Banashankari, Bengaluru", "addr:state": "Karnataka", "amenity": "hospital", "name": "Drishti Nethralaya", "name:kn": "\u0ca6\u0cc3\u0cb7\u0ccd\u0c9f\u0cbf \u0ca8\u0cc7\u0ca4\u0ccd\u0cb0\u0cbe\u0cb2\u0caf", "source": "Local Knowledge"}}, {"type": "node", "id": 7576958084, "lat": 12.9654649, "lon": 77.5894756, "tags": {"addr:district": "Bengaluru Urban", "addr:full": "Sampangi Rama Nagar, Bengaluru", "addr:postcode": "560002", "addr:state": "Karnataka", "amenity": "hospital", "name": "Furtde Hospital", "source": "Local Knowledge"}}, {"type": "node", "id": 7576958086, "lat": 12.9702549, "lon": 77.5734571, "tags": {"addr:district": "Bengaluru Urban", "addr:full": "Santhusapet, Bengaluru", "addr:postcode": "560053", "addr:state": "Karnataka", "amenity": "hospital", "name": "Manavarthapet Pregnancy Hospital", "source": "Local Knowledge"}}, {"type": "node", "id": 7576958089, "lat": 12.9434996, "lon": 77.5796583, "tags": {"addr:district": "Bengaluru Urban", "addr:full": "Basavanagudi, Bengaluru", "addr:postcode": "560004", "addr:state": "Karnataka", "amenity": "hospital", "healthcare": "hospital", "name": "Trinity Hospital and Heart Foundation", "source": "Local Knowledge"}}, {"type": "node", "id": 7576958091, "lat": 12.957222, "lon": 77.566486, "tags": {"addr:district": "Bengaluru Urban", "addr:full": "Chamrajpet, Bengaluru", "addr:postcode": "560018", "addr:state": "Karnataka", "amenity": "hospital", "name": "Spandana Heart Centre", "source": "Local Knowledge"}}, {"type": "node", "id": 7576958092, "lat": 12.960296, "lon": 77.614714, "tags": {"addr:district": "Bengaluru Urban", "addr:full": "Victoria Layout, Bengaluru", "addr:postcode": "560047", "addr:state": "Karnataka", "amenity": "hospital", "name": "Shas Eye Care", "source": "Local Knowledge"}}, {"type": "node", "id": 7576958093, "lat": 12.9420276, "lon": 77.575634, "tags": {"addr:district": "Bengaluru Urban", "addr:full": "M N Krishna Rao Park Road, Basavanagudi, Bengaluru", "addr:postcode": "560070", "addr:state": "Karnataka", "amenity": "hospital", "healthcare": "hospital", "name": "Matha Pitha Hospital", "source": "Local Knowledge"}}, {"type": "node", "id": 7576958095, "lat": 12.972126, "lon": 77.573351, "tags": {"addr:district": "Bengaluru Urban", "addr:full": "JM Road, Upparpete, Bengaluru", "addr:postcode": "560053", "addr:state": "Karnataka", "amenity": "hospital", "healthcare": "hospital", "name": "ESI Hospital", "operator": "Employees' State Insurance", "operator:short": "ESI", "operator:wikidata": "Q3595726", "source": "Local Knowledge"}}, {"type": "node", "id": 7576958096, "lat": 12.960972, "lon": 77.5609696, "tags": {"addr:district": "Bengaluru Urban", "addr:full": "Chamrajpet, Bengaluru", "addr:postcode": "560018", "addr:state": "Karnataka", "amenity": "hospital", "name": "Herige Hospital", "source": "Local Knowledge"}}, {"type": "node", "id": 7576958106, "lat": 12.9654497, "lon": 77.5999044, "tags": {"addr:district": "Bengaluru Urban", "addr:full": "Richmond Road, Shanthala Nagar, Ashok Nagar, Bengaluru", "addr:postcode": "560025", "addr:state": "Karnataka", "amenity": "hospital", "name": "Gleneagles Global Hospitals", "source": "Local Knowledge"}}, {"type": "node", "id": 7576958116, "lat": 12.9658901, "lon": 77.589928, "tags": {"addr:district": "Bengaluru Urban", "addr:full": "Ashwath Nagar, Sampangi Rama Nagara, Bengaluru", "addr:postcode": "560002", "addr:state": "Karnataka", "amenity": "hospital", "name": "Punarjyoti Eye Hospital", "source": "Local Knowledge"}}, {"type": "node", "id": 7576958117, "lat": 12.9479647, "lon": 77.5696395, "tags": {"addr:district": "Bengaluru Urban", "addr:full": "Vanivilas Road, Gandhi Bazaar, Basavanagudi, Bengaluru", "addr:postcode": "560004", "addr:state": "Karnataka", "amenity": "hospital", "name": "Swastik Eye Hospital", "source": "Local Knowledge"}}, {"type": "node", "id": 7576958118, "lat": 12.9458294, "lon": 77.5799015, "tags": {"addr:district": "Bengaluru Urban", "addr:full": "Rashtriya Vidyalaya Road, Basavanagudi, Bengaluru", "addr:postcode": "560004", "addr:state": "Karnataka", "amenity": "hospital", "healthcare": "hospital", "name": "Dave Gray Hospital", "source": "Local Knowledge"}}, {"type": "node", "id": 7576958120, "lat": 12.9650303, "lon": 77.5954946, "tags": {"addr:district": "Bengaluru Urban", "addr:full": "Sampangi Rama Nagara, Bengaluru", "addr:postcode": "560027", "addr:state": "Karnataka", "amenity": "hospital", "name": "Dr. Rudrappa's Hospital", "source": "Local Knowledge"}}, {"type": "node", "id": 7658279911, "lat": 12.9918362, "lon": 77.5540454}, {"type": "node", "id": 7658279912, "lat": 12.9914957, "lon": 77.5540356}, {"type": "node", "id": 7658279913, "lat": 12.9914862, "lon": 77.5543788}, {"type": "node", "id": 8188038659, "lat": 13.006795, "lon": 77.571159, "tags": {"addr:full": "260/1, Abhiram, Near 17th Cross, Sampige Road, Malleswaram, Ranganathapura, Malleshwaram, Bengaluru, Karnataka", "addr:state": "Karnataka", "amenity": "hospital", "healthcare": "hospital", "name": "Nayanalaya Super Speciality Eye Care Centre"}}, {"type": "node", "id": 8188038670, "lat": 13.005821, "lon": 77.5725746, "tags": {"addr:full": "17, 3rd, 15th-16th Cross, Temple Road, Malleshwaram Bengaluru, Vyalikaval, Kodandarampura, Malleshwaram, Bengaluru, Karnataka", "addr:state": "Karnataka", "amenity": "hospital", "healthcare": "hospital", "name": "Srinidhi Health Centre"}}, {"type": "node", "id": 8188038674, "lat": 13.0054934, "lon": 77.5719519, "tags": {"addr:full": "1/1, 15th Cross 1st Temple Road, Behind-Hotel Adigas Sampige, Malleshwaram, Vyalikaval, Kodandarampura, Malleshwaram, Bengaluru, Karnataka", "addr:state": "Karnataka", "amenity": "hospital", "healthcare": "hospital", "name": "Orthopedic & Eye Care Center"}}, {"type": "node", "id": 8188038681, "lat": 13.004596, "lon": 77.5540033, "tags": {"addr:full": "8/3, E Block, I Block, I Stage, Rajajinagar, E block, 2nd Stage, Rajajinagar, Bengaluru, Karnataka", "addr:state": "Karnataka", "amenity": "hospital", "healthcare": "hospital", "name": "ESI Hospital", "operator": "Employees' State Insurance", "operator:short": "ESI", "operator:wikidata": "Q3595726"}}, {"type": "node", "id": 8188038683, "lat": 13.0044307, "lon": 77.5785238, "tags": {"addr:full": "5/19, 1st Main, Vyalikaval, Lower Palace Orchards, Guttahalli, Bengaluru, Karnataka", "addr:state": "Karnataka", "amenity": "hospital", "healthcare": "hospital", "healthcare:speciality": "orthopaedics", "name": "Ramani Orthopaedic Hospital"}}, {"type": "node", "id": 8188038684, "lat": 13.004314, "lon": 77.547749, "tags": {"addr:full": "233, 1st A Main Rd, West of Chord Road 2nd Stage, 2nd Stage, Mahalakshmipuram, Bengaluru, Karnataka", "addr:state": "Karnataka", "amenity": "hospital", "healthcare": "hospital", "name": "Atharva Ayurdhama Ayurvedic Hospital"}}, {"type": "node", "id": 8188038691, "lat": 13.0015461, "lon": 77.5721683, "tags": {"addr:full": "11th Cross Rd, HN Layout, Malleshwaram, Bengaluru, Karnataka", "addr:state": "Karnataka", "amenity": "hospital", "healthcare": "hospital", "name": "RICH CARE HOMEOPATHY"}}, {"type": "node", "id": 8188038705, "lat": 12.998238, "lon": 77.551173, "tags": {"addr:full": "69/26, 19th Main, 19th Cross, Rajajinagar 1st Block, 1st Block, Rajajinagar, Bengaluru, Karnataka", "addr:state": "Karnataka", "amenity": "hospital", "healthcare": "hospital", "name": "Poornayu Ayurveda Hospital"}}, {"type": "node", "id": 8188038706, "lat": 12.9981064, "lon": 77.6008126, "tags": {"addr:full": "79/10, Nandi Durga Rd, Byadarahalli, Benson Town, Bengaluru, Karnataka", "addr:state": "Karnataka", "amenity": "hospital", "name": "Appllo Diagnostic"}}, {"type": "node", "id": 8188038712, "lat": 12.9969996, "lon": 77.5730038, "tags": {"addr:full": "Sangeetha Apts, Malleshwaram, Bengaluru, Karnataka", "addr:state": "Karnataka", "amenity": "hospital", "healthcare": "hospital", "name": "Supra Diagnostics Spine Care And Ortho Care Hospital"}}, {"type": "node", "id": 8188038718, "lat": 12.9960244, "lon": 77.5693714, "tags": {"addr:full": "89, 5th Cross Rd, Behind Police Station, Malleshwaram, Bengaluru, Karnataka", "addr:state": "Karnataka", "amenity": "hospital", "healthcare": "hospital", "name": "K.C.General Hospital"}}, {"type": "node", "id": 8188038735, "lat": 12.9916924, "lon": 77.5539007, "tags": {"addr:full": "620/A/1, 12th Main Rd, 2nd Block, Rajajinagar, Bengaluru, Karnataka", "addr:state": "Karnataka", "amenity": "hospital", "healthcare": "hospital", "name": "ESIC Model Hospital"}}, {"type": "node", "id": 8188038742, "lat": 12.9905045, "lon": 77.5566355, "tags": {"addr:full": "172/A, 8th Main Rd, 2nd Block, Rajajinagar, Bengaluru, Karnataka", "addr:state": "Karnataka", "amenity": "hospital", "healthcare": "hospital", "name": "Government Hospital", "name:kn": "\u0cb8\u0cb0\u0ccd\u0c95\u0cbe\u0cb0\u0cbf \u0c86\u0cb8\u0ccd\u0caa\u0ca4\u0ccd\u0cb0\u0cc6"}}, {"type": "node", "id": 8188038743, "lat": 12.9904985, "lon": 77.5530924, "tags": {"addr:full": "3rd Block, Rajajinagar, Bengaluru, Karnataka", "addr:state": "Karnataka", "amenity": "hospital", "healthcare": "hospital", "name": "Esi Hospital Bangalore", "operator": "Employees' State Insurance", "operator:short": "ESI", "operator:wikidata": "Q3595726"}}, {"type": "node", "id": 8188038786, "lat": 12.9844963, "lon": 77.5551801, "tags": {"addr:full": "20th Main Rd, 5 Block, 3rd Block, Rajajinagar, Bengaluru, Karnataka", "addr:state": "Karnataka", "amenity": "hospital", "name": "Government Hospital", "name:kn": "\u0cb8\u0cb0\u0ccd\u0c95\u0cbe\u0cb0\u0cbf \u0c86\u0cb8\u0ccd\u0caa\u0ca4\u0ccd\u0cb0\u0cc6"}}, {"type": "node", "id": 8240881787, "lat": 12.9980688, "lon": 77.5463413, "tags": {"access": "private", "barrier": "gate"}}, {"type": "node", "id": 9141920972, "lat": 12.9966756, "lon": 77.5695477}, {"type": "node", "id": 9141920973, "lat": 12.9965383, "lon": 77.5695464}, {"type": "node", "id": 9141920974, "lat": 12.9965462, "lon": 77.5689121}, {"type": "node", "id": 9141920975, "lat": 12.9966873, "lon": 77.5689107}, {"type": "node", "id": 9161008293, "lat": 12.9835071, "lon": 77.5364935}, {"type": "node", "id": 9161008294, "lat": 12.9834692, "lon": 77.5364855}, {"type": "node", "id": 9161008295, "lat": 12.9834966, "lon": 77.5363889}, {"type": "node", "id": 9161008296, "lat": 12.9834182, "lon": 77.5363621}, {"type": "node", "id": 9161008297, "lat": 12.9835006, "lon": 77.5360242}, {"type": "node", "id": 9161008298, "lat": 12.9830589, "lon": 77.5358739}, {"type": "node", "id": 9161008299, "lat": 12.982889, "lon": 77.5363675}, {"type": "node", "id": 9161008300, "lat": 12.9828027, "lon": 77.5363407}, {"type": "node", "id": 9161008301, "lat": 12.9825603, "lon": 77.5371675}, {"type": "node", "id": 9161008302, "lat": 12.9826903, "lon": 77.5371808}, {"type": "node", "id": 9161008303, "lat": 12.9834169, "lon": 77.5369361}, {"type": "node", "id": 9214185048, "lat": 12.9860175, "lon": 77.5792829}, {"type": "node", "id": 9214185049, "lat": 12.9863918, "lon": 77.5795658}, {"type": "node", "id": 9214580828, "lat": 12.9687863, "lon": 77.6134645}, {"type": "node", "id": 9276855256, "lat": 12.9395279, "lon": 77.586437, "tags": {"amenity": "hospital", "healthcare": "hospital", "name": "clinic"}}, {"type": "node", "id": 9296328828, "lat": 12.9700244, "lon": 77.5850201, "tags": {"access": "private", "barrier": "gate"}}, {"type": "node", "id": 9296328829, "lat": 12.9701892, "lon": 77.5869643, "tags": {"access": "private", "barrier": "gate"}}, {"type": "node", "id": 9296328875, "lat": 12.9723578, "lon": 77.5858792}, {"type": "node", "id": 9296328876, "lat": 12.9725562, "lon": 77.5856406}, {"type": "node", "id": 9350054881, "lat": 13.0140314, "lon": 77.555662, "tags": {"barrier": "gate"}}, {"type": "node", "id": 9350054882, "lat": 13.0142308, "lon": 77.5556633, "tags": {"access": "permissive", "barrier": "gate"}}, {"type": "node", "id": 9350054894, "lat": 13.0145788, "lon": 77.5563553}, {"type": "node", "id": 9350054897, "lat": 13.0145736, "lon": 77.5557049}, {"type": "node", "id": 9350054901, "lat": 13.0138207, "lon": 77.5556607}, {"type": "node", "id": 9573432733, "lat": 12.9903488, "lon": 77.5987889}, {"type": "node", "id": 9573432734, "lat": 12.9902785, "lon": 77.5990326}, {"type": "node", "id": 9573432735, "lat": 12.9898133, "lon": 77.5985954}, {"type": "node", "id": 9573432736, "lat": 12.9896448, "lon": 77.5991001}, {"type": "node", "id": 9573432737, "lat": 12.9903642, "lon": 77.5990625}, {"type": "node", "id": 9573432738, "lat": 12.9902995, "lon": 77.5993397}, {"type": "node", "id": 9573432800, "lat": 12.9906665, "lon": 77.5960736, "tags": {"access": "private", "barrier": "gate"}}, {"type": "node", "id": 9574153227, "lat": 13.0036303, "lon": 77.5500007}, {"type": "node", "id": 9574153228, "lat": 13.0035917, "lon": 77.5496998}, {"type": "node", "id": 9574153229, "lat": 13.0039146, "lon": 77.5496562}, {"type": "node", "id": 9574153230, "lat": 13.0021052, "lon": 77.5492586}, {"type": "node", "id": 9574153231, "lat": 13.0020643, "lon": 77.5489828}, {"type": "node", "id": 9574153232, "lat": 13.0023382, "lon": 77.5492168}, {"type": "node", "id": 9574153233, "lat": 13.0023092, "lon": 77.5489437}, {"type": "node", "id": 9730853893, "lat": 12.9355966, "lon": 77.5971575, "tags": {"amenity": "hospital", "healthcare": "hospital", "name": "Kidwai Cancer Institute Radiation Block"}}, {"type": "node", "id": 9811397057, "lat": 13.0073486, "lon": 77.5542738}, {"type": "node", "id": 9811397058, "lat": 13.0073476, "lon": 77.5537683}, {"type": "node", "id": 9811397059, "lat": 13.0078782, "lon": 77.553767}, {"type": "node", "id": 9811397066, "lat": 13.0078784, "lon": 77.5536997}, {"type": "node", "id": 9811397071, "lat": 13.0071946, "lon": 77.5542634, "tags": {"access": "permissive", "barrier": "gate"}}, {"type": "node", "id": 9811397073, "lat": 13.0064256, "lon": 77.5541743, "tags": {"access": "permissive", "barrier": "gate"}}, {"type": "node", "id": 9811397075, "lat": 13.0061199, "lon": 77.5541096, "tags": {"access": "permissive", "barrier": "gate"}}, {"type": "node", "id": 9872645096, "lat": 12.9848314, "lon": 77.5569034}, {"type": "node", "id": 9872645097, "lat": 12.9850109, "lon": 77.5570394}, {"type": "node", "id": 9881508847, "lat": 13.0009266, "lon": 77.5638843}, {"type": "node", "id": 9881508848, "lat": 13.0009295, "lon": 77.5641845}, {"type": "node", "id": 9881508849, "lat": 13.001292, "lon": 77.5641808}, {"type": "node", "id": 9881508850, "lat": 13.0012737, "lon": 77.56371}, {"type": "node", "id": 9906259186, "lat": 12.9406607, "lon": 77.5925329}, {"type": "node", "id": 9906259212, "lat": 12.9362011, "lon": 77.5929949}, {"type": "node", "id": 9906259215, "lat": 12.9362768, "lon": 77.5940101}, {"type": "node", "id": 9930000936, "lat": 12.9912446, "lon": 77.6019512}, {"type": "node", "id": 9930000946, "lat": 12.991437, "lon": 77.60031}, {"type": "node", "id": 9930000947, "lat": 12.9919906, "lon": 77.6006729}, {"type": "node", "id": 9930000981, "lat": 12.9893367, "lon": 77.6021245}, {"type": "node", "id": 9930000982, "lat": 12.9895824, "lon": 77.6023713}, {"type": "node", "id": 9930000983, "lat": 12.9895903, "lon": 77.6027387}, {"type": "node", "id": 9930000984, "lat": 12.9899405, "lon": 77.6027763}, {"type": "node", "id": 9930000985, "lat": 12.9898051, "lon": 77.6017436}, {"type": "node", "id": 9930197199, "lat": 12.9640585, "lon": 77.6117628}, {"type": "node", "id": 9934012104, "lat": 12.9429852, "lon": 77.5460604, "tags": {"amenity": "hospital", "healthcare": "hospital", "healthcare:speciality": "dentist", "name": "My Dentist", "operator": "Dr Katta R Venkatesh", "operator:type": "public"}}, {"type": "node", "id": 9935476946, "lat": 13.0057101, "lon": 77.5693823}, {"type": "node", "id": 9935476949, "lat": 13.0057099, "lon": 77.5692895}, {"type": "node", "id": 9935476950, "lat": 13.0057107, "lon": 77.5695887}, {"type": "node", "id": 9935476951, "lat": 13.0059087, "lon": 77.5695882}, {"type": "node", "id": 9935476952, "lat": 13.0059079, "lon": 77.569289}, {"type": "node", "id": 9936581278, "lat": 13.0070307, "lon": 77.552047}, {"type": "node", "id": 9936921085, "lat": 13.0062583, "lon": 77.5517618, "tags": {"access": "no", "barrier": "gate"}}, {"type": "node", "id": 9967147496, "lat": 13.0075958, "lon": 77.5522093}, {"type": "node", "id": 9967147497, "lat": 13.0082479, "lon": 77.5536993}, {"type": "node", "id": 10032117287, "lat": 12.9570886, "lon": 77.6046301}, {"type": "node", "id": 10032117288, "lat": 12.9570024, "lon": 77.6049713}, {"type": "node", "id": 10032974874, "lat": 13.0149494, "lon": 77.5598985}, {"type": "node", "id": 10032974875, "lat": 13.0151277, "lon": 77.560204}, {"type": "node", "id": 10032974876, "lat": 13.0152903, "lon": 77.5601041}, {"type": "node", "id": 10032974877, "lat": 13.015112, "lon": 77.5597986}, {"type": "node", "id": 10032974985, "lat": 13.0061165, "lon": 77.5532703, "tags": {"barrier": "gate"}}, {"type": "node", "id": 10032975001, "lat": 13.0058786, "lon": 77.554048}, {"type": "node", "id": 10032975002, "lat": 13.0059605, "lon": 77.553492}, {"type": "node", "id": 10032975003, "lat": 13.006067, "lon": 77.5535075}, {"type": "node", "id": 10032975004, "lat": 13.0061323, "lon": 77.5531943}, {"type": "node", "id": 10041139974, "lat": 12.9829636, "lon": 77.537095}, {"type": "node", "id": 10188080243, "lat": 12.9755907, "lon": 77.5642512, "tags": {"access": "private", "barrier": "gate"}}, {"type": "node", "id": 10580572136, "lat": 12.9639533, "lon": 77.5846015, "tags": {"access": "private", "barrier": "gate"}}, {"type": "node", "id": 10600743029, "lat": 12.9648041, "lon": 77.6104432}, {"type": "node", "id": 10632697474, "lat": 12.9880155, "lon": 77.5598488}, {"type": "node", "id": 10632697475, "lat": 12.9880077, "lon": 77.560404}, {"type": "node", "id": 10632697476, "lat": 12.9884527, "lon": 77.560398}, {"type": "node", "id": 10691293984, "lat": 12.9567986, "lon": 77.6045496}, {"type": "node", "id": 10761493357, "lat": 12.983533, "lon": 77.5992254}, {"type": "node", "id": 10761493358, "lat": 12.9841666, "lon": 77.5993902}, {"type": "node", "id": 10792855174, "lat": 12.9823029, "lon": 77.6058903}, {"type": "node", "id": 10978269863, "lat": 12.9698589, "lon": 77.585217, "tags": {"access": "private", "barrier": "gate"}}, {"type": "node", "id": 10996542240, "lat": 12.9837528, "lon": 77.603725, "tags": {"access": "destination", "barrier": "gate"}}, {"type": "node", "id": 10996542241, "lat": 12.9826988, "lon": 77.603454, "tags": {"access": "destination", "barrier": "gate"}}, {"type": "node", "id": 11009573409, "lat": 12.9542655, "lon": 77.5721858, "tags": {"access": "permissive", "barrier": "gate"}}, {"type": "node", "id": 11009573410, "lat": 12.9532977, "lon": 77.5706279, "tags": {"access": "permissive", "barrier": "gate"}}, {"type": "node", "id": 11009588219, "lat": 12.9533132, "lon": 77.5711327, "tags": {"access": "private", "barrier": "gate"}}, {"type": "node", "id": 11010175807, "lat": 12.9914487, "lon": 77.5948223, "tags": {"access": "private", "barrier": "gate"}}, {"type": "node", "id": 11011536018, "lat": 12.9688555, "lon": 77.6133781, "tags": {"access": "private", "barrier": "gate"}}, {"type": "node", "id": 11011536022, "lat": 12.9689889, "lon": 77.6129898, "tags": {"access": "private", "barrier": "gate"}}, {"type": "node", "id": 11019492853, "lat": 12.9611542, "lon": 77.5840357}, {"type": "node", "id": 11028992215, "lat": 12.980308, "lon": 77.5647761}, {"type": "node", "id": 11031908387, "lat": 12.9918503, "lon": 77.5437825, "tags": {"addr:city": "Basaveshwara Nagar, Bangalore", "addr:housenumber": "629", "addr:postcode": "560079", "addr:street": "8th B Main Road, 3rd Stage, 2nd Block, Basaveshwaranagara", "amenity": "hospital", "healthcare": "hospital", "healthcare:speciality": "gynaecology;orthodontics;dentist;vaccination;plastic_surgery", "name": "Janani Clinics", "operator": "Dr. V. Jeevan Prakash", "operator:type": "private", "phone": "9036817877"}}, {"type": "node", "id": 11096882147, "lat": 12.9952928, "lon": 77.5940646}, {"type": "node", "id": 11096882148, "lat": 12.9946841, "lon": 77.5937641}, {"type": "node", "id": 11096882149, "lat": 12.9952768, "lon": 77.5937207}, {"type": "node", "id": 11148448520, "lat": 12.9694382, "lon": 77.6134784}, {"type": "node", "id": 11148448521, "lat": 12.9692022, "lon": 77.6137432}, {"type": "node", "id": 11168817968, "lat": 12.9880423, "lon": 77.5598239}, {"type": "node", "id": 11174291857, "lat": 12.9607734, "lon": 77.5615429}, {"type": "node", "id": 11174291858, "lat": 12.9607666, "lon": 77.5608063}, {"type": "node", "id": 11174291859, "lat": 12.961076, "lon": 77.5608032}, {"type": "node", "id": 11174291860, "lat": 12.9610829, "lon": 77.5615398}, {"type": "node", "id": 11188815908, "lat": 12.9434204, "lon": 77.5968499}, {"type": "node", "id": 11215840017, "lat": 12.941992, "lon": 77.5673974}, {"type": "node", "id": 11281453704, "lat": 12.9449539, "lon": 77.5964382}, {"type": "node", "id": 11281453705, "lat": 12.944717, "lon": 77.5966367}, {"type": "node", "id": 11282630686, "lat": 12.9918951, "lon": 77.6010779, "tags": {"access": "private", "barrier": "gate"}}, {"type": "node", "id": 11295071515, "lat": 12.9400516, "lon": 77.5954768, "tags": {"amenity": "hospital", "check_date": "2023-10-28", "healthcare": "hospital", "name": "NIMHANS Department Of Psychiatric and Neuro Rehabilitation", "operator:type": "government", "wheelchair": "yes"}}, {"type": "node", "id": 11295217457, "lat": 12.9396498, "lon": 77.5967825, "tags": {"amenity": "hospital", "check_date": "2023-10-28", "healthcare": "hospital", "healthcare:speciality": "neurology", "name": "Nimhans Mr-pet Center", "operator:type": "government", "wheelchair": "yes"}}, {"type": "node", "id": 11295246682, "lat": 12.9402037, "lon": 77.5954721, "tags": {"amenity": "hospital", "check_date": "2023-10-28", "healthcare": "hospital", "name": "NIMHANS Physiotherapy Center", "operator:type": "government", "wheelchair": "yes"}}, {"type": "node", "id": 11330502270, "lat": 12.9384644, "lon": 77.5983603, "tags": {"access": "private", "barrier": "gate"}}, {"type": "node", "id": 11341218790, "lat": 12.9734141, "lon": 77.5638984}, {"type": "node", "id": 11342881119, "lat": 12.947665, "lon": 77.5922567}, {"type": "node", "id": 11342881121, "lat": 12.9481303, "lon": 77.5928025}, {"type": "node", "id": 11342881122, "lat": 12.9481892, "lon": 77.5927945}, {"type": "node", "id": 11342881123, "lat": 12.9478257, "lon": 77.5921561}, {"type": "node", "id": 11853321328, "lat": 12.9971683, "lon": 77.6145878, "tags": {"amenity": "hospital", "check_date": "2024-04-27", "healthcare": "hospital", "name": "Aspire Hospital"}}, {"type": "node", "id": 11881863274, "lat": 12.9772225, "lon": 77.5430381}, {"type": "node", "id": 11881863275, "lat": 12.9771899, "lon": 77.5432125}, {"type": "node", "id": 11965775664, "lat": 13.0065047, "lon": 77.5545009, "tags": {"amenity": "hospital", "check_date": "2024-06-09", "healthcare": "hospital", "name": "PMC Hospital"}}, {"type": "node", "id": 11982389397, "lat": 12.9988382, "lon": 77.5550964, "tags": {"amenity": "hospital", "check_date": "2024-06-15", "healthcare": "hospital", "name": "New Varalakshmi Hospital"}}, {"type": "node", "id": 11990000678, "lat": 13.0057269, "lon": 77.5518302}, {"type": "node", "id": 11991711393, "lat": 12.9609956, "lon": 77.5844209}, {"type": "node", "id": 11991711396, "lat": 12.9605387, "lon": 77.5842262}, {"type": "node", "id": 11992153785, "lat": 12.9405311, "lon": 77.5899973}, {"type": "node", "id": 12025600510, "lat": 12.9445249, "lon": 77.5963906}, {"type": "node", "id": 12025600511, "lat": 12.9447582, "lon": 77.5961961}, {"type": "node", "id": 12067529023, "lat": 12.9820285, "lon": 77.6047429}, {"type": "node", "id": 12067529024, "lat": 12.9819447, "lon": 77.6050474}, {"type": "node", "id": 12067529025, "lat": 12.9820807, "lon": 77.6050937}, {"type": "node", "id": 12067529026, "lat": 12.981955, "lon": 77.6055304}, {"type": "node", "id": 12067529031, "lat": 12.9824951, "lon": 77.6057117}, {"type": "node", "id": 12067529032, "lat": 12.9823675, "lon": 77.6056758}, {"type": "node", "id": 12103684982, "lat": 13.002768, "lon": 77.5536287, "tags": {"amenity": "hospital", "check_date": "2024-08-11", "healthcare": "hospital", "name": "Apollo Cradle Children's Hospital"}}, {"type": "node", "id": 12112489582, "lat": 12.9841004, "lon": 77.599398}, {"type": "node", "id": 12112511977, "lat": 12.954204, "lon": 77.5721861, "tags": {"access": "permissive", "barrier": "gate"}}, {"type": "node", "id": 12112511980, "lat": 12.9544849, "lon": 77.5715125}, {"type": "node", "id": 12112511993, "lat": 12.9533256, "lon": 77.5715353}, {"type": "node", "id": 12112511994, "lat": 12.9537451, "lon": 77.5715192}, {"type": "node", "id": 12112511995, "lat": 12.9537726, "lon": 77.5721884}, {"type": "node", "id": 12112511996, "lat": 12.9544568, "lon": 77.5701039}, {"type": "node", "id": 12112511997, "lat": 12.9536023, "lon": 77.5701234}, {"type": "node", "id": 12112511998, "lat": 12.9536043, "lon": 77.5702191}, {"type": "node", "id": 12112511999, "lat": 12.9534424, "lon": 77.5702228}, {"type": "node", "id": 12112512000, "lat": 12.9532968, "lon": 77.5705989}, {"type": "node", "id": 12112512013, "lat": 12.9544853, "lon": 77.5714193}, {"type": "node", "id": 12122658686, "lat": 12.9907036, "lon": 77.5953034}, {"type": "node", "id": 12135993276, "lat": 12.960193, "lon": 77.5840398}, {"type": "node", "id": 12135993283, "lat": 12.9604331, "lon": 77.5836597}, {"type": "node", "id": 12137671788, "lat": 12.963954, "lon": 77.5842459}, {"type": "node", "id": 12137671789, "lat": 12.9644672, "lon": 77.5849845}, {"type": "node", "id": 12164916218, "lat": 12.9656244, "lon": 77.6104055}, {"type": "node", "id": 12164916220, "lat": 12.9657438, "lon": 77.6104893}, {"type": "node", "id": 12168378235, "lat": 12.9377453, "lon": 77.5989421}, {"type": "node", "id": 12169987865, "lat": 12.9401325, "lon": 77.5884066}, {"type": "node", "id": 12179846004, "lat": 12.9691487, "lon": 77.5860213}, {"type": "node", "id": 12240737170, "lat": 12.99743, "lon": 77.5510293, "tags": {"amenity": "hospital", "name": "Netradhama"}}, {"type": "node", "id": 12376783811, "lat": 12.9401185, "lon": 77.5887555}, {"type": "node", "id": 12389587601, "lat": 12.9658506, "lon": 77.6109015, "tags": {"addr:housenumber": "4", "addr:postcode": "560047", "addr:street": "Mother Teresa Road", "amenity": "hospital", "name": "St Philomenas Hospital OPD Building", "phone": "08040164346;08040164300", "website": "https://www.stphilomenashospital.com/", "wheelchair": "yes"}}, {"type": "node", "id": 12438173201, "lat": 12.9754354, "lon": 77.5358965, "tags": {"amenity": "hospital", "check_date": "2024-12-21", "healthcare": "hospital", "name": "Hiremath Hospital"}}, {"type": "node", "id": 12460939644, "lat": 12.9962739, "lon": 77.6075693, "tags": {"amenity": "hospital", "check_date": "2024-12-29", "healthcare": "hospital", "name": "Gawai Hospital", "wheelchair": "yes"}}, {"type": "node", "id": 12498576269, "lat": 12.9826309, "lon": 77.6034871}, {"type": "node", "id": 12498576270, "lat": 12.982755, "lon": 77.6034267}, {"type": "node", "id": 12498576271, "lat": 12.9837207, "lon": 77.60362}, {"type": "node", "id": 12498576272, "lat": 12.9837175, "lon": 77.6036742}, {"type": "node", "id": 12498576273, "lat": 12.9837907, "lon": 77.6037794}, {"type": "node", "id": 12498576274, "lat": 12.9838266, "lon": 77.6037969}, {"type": "node", "id": 12498576310, "lat": 12.9840546, "lon": 77.6038183}, {"type": "node", "id": 12498576311, "lat": 12.9840109, "lon": 77.6053016}, {"type": "node", "id": 12498576312, "lat": 12.9821434, "lon": 77.6043621}, {"type": "node", "id": 12511734085, "lat": 13.0215287, "lon": 77.553432}, {"type": "node", "id": 12511734086, "lat": 13.0214974, "lon": 77.5534905}, {"type": "node", "id": 12511734087, "lat": 13.0214659, "lon": 77.5534727}, {"type": "node", "id": 12511734088, "lat": 13.0213924, "lon": 77.5535029}, {"type": "node", "id": 12511734089, "lat": 13.0213549, "lon": 77.5535728}, {"type": "node", "id": 12511734090, "lat": 13.0213191, "lon": 77.5535526}, {"type": "node", "id": 12511734091, "lat": 13.0212721, "lon": 77.5536404}, {"type": "node", "id": 12511734092, "lat": 13.0214944, "lon": 77.5537659}, {"type": "node", "id": 12511734093, "lat": 13.0216397, "lon": 77.5534947}, {"type": "node", "id": 12541779301, "lat": 12.9569057, "lon": 77.5824398, "tags": {"amenity": "hospital", "name": "H Siddiah Referral Hospital"}}, {"type": "node", "id": 12629746512, "lat": 12.9840951, "lon": 77.6002539}, {"type": "node", "id": 12629746513, "lat": 12.9839828, "lon": 77.6001491}, {"type": "node", "id": 12629746514, "lat": 12.9835548, "lon": 77.6000109}, {"type": "node", "id": 12629746515, "lat": 12.9834433, "lon": 77.6003587}, {"type": "node", "id": 12676261338, "lat": 12.9937247, "lon": 77.5539724, "tags": {"amenity": "hospital", "check_date": "2025-03-18", "healthcare": "hospital", "name": "Jindal Charitable Hospital"}}, {"type": "node", "id": 12691255838, "lat": 12.9898389, "lon": 77.6017623}, {"type": "node", "id": 12691255839, "lat": 12.9898901, "lon": 77.6018019}, {"type": "node", "id": 12691255840, "lat": 12.9899037, "lon": 77.6018344}, {"type": "node", "id": 12737013801, "lat": 12.9644726, "lon": 77.6143018, "tags": {"addr:housenumber": "13", "addr:postcode": "560047", "addr:street": "Palmgrove Road, Stage 2, Xavier Layout, Victoria Layout", "amenity": "hospital", "name": "Hosmat Hospitals", "phone": "+918025593796", "website": "https://www.hosmathospitals.com/"}}, {"type": "node", "id": 12809319202, "lat": 13.0010485, "lon": 77.5641833}, {"type": "node", "id": 12995318310, "lat": 12.9405054, "lon": 77.5848675, "tags": {"amenity": "hospital", "check_date": "2025-07-12", "healthcare": "hospital", "name": "Big Hospitals"}}, {"type": "node", "id": 13014786037, "lat": 12.9887325, "lon": 77.5949463}, {"type": "node", "id": 13014786038, "lat": 12.9887147, "lon": 77.5949291}, {"type": "node", "id": 13014786039, "lat": 12.9887296, "lon": 77.5949119}, {"type": "node", "id": 13014786040, "lat": 12.9886266, "lon": 77.5948203}, {"type": "node", "id": 13014786041, "lat": 12.988631, "lon": 77.5948153}, {"type": "node", "id": 13014786042, "lat": 12.988471, "lon": 77.5946741}, {"type": "node", "id": 13014786043, "lat": 12.9884672, "lon": 77.5946788}, {"type": "node", "id": 13014786044, "lat": 12.9883688, "lon": 77.5945907}, {"type": "node", "id": 13014786045, "lat": 12.9883723, "lon": 77.5945864}, {"type": "node", "id": 13162427765, "lat": 12.9441916, "lon": 77.5967327}, {"type": "node", "id": 13162445628, "lat": 12.9443066, "lon": 77.5969633}, {"type": "node", "id": 13267415142, "lat": 12.9447416, "lon": 77.59621}, {"type": "node", "id": 13361644709, "lat": 12.9900245, "lon": 77.5986505}, {"type": "node", "id": 13374340555, "lat": 12.9929758, "lon": 77.5387957}, {"type": "node", "id": 13374340556, "lat": 12.9928401, "lon": 77.5387508}, {"type": "node", "id": 13391186936, "lat": 12.9408397, "lon": 77.5900358}, {"type": "way", "id": 37976777, "nodes": [446053937, 446053938, 446053939, 6656628403, 446053940, 446053937], "tags": {"amenity": "hospital", "building": "university", "name": "Health Centre", "name:kn": "\u0c86\u0cb0\u0ccb\u0c97\u0ccd\u0caf \u0c95\u0cc7\u0c82\u0ca6\u0ccd\u0cb0"}}, {"type": "way", "id": 38536360, "nodes": [456039710, 456039711, 456039712, 9141920974, 9141920975, 9141920972, 9141920973, 456039713, 456039714, 456039715, 456039710], "tags": {"addr:district": "Bengaluru Urban", "addr:full": "Malleswaran", "addr:postcode": "560003", "addr:state": "Karnataka", "amenity": "hospital", "healthcare": "hospital", "name": "K C General Hospital", "name:kn": "\u0c95\u0cc6 \u0cb8\u0cbf \u0c9c\u0ca8\u0cb0\u0cb2\u0ccd \u0c86\u0cb8\u0ccd\u0caa\u0ca4\u0ccd\u0cb0\u0cc6", "source": "OpenGovernmentData", "wheelchair": "limited"}}, {"type": "way", "id": 38542913, "nodes": [456209036, 9296328828, 10978269863, 12179846004, 456209040, 456209041, 9296328829, 456209042, 9296328875, 9296328876, 456209054, 456209045, 456209046, 456209036], "tags": {"addr:district": "Bengaluru Urban", "addr:full": "Office No-05, Nrupathunga Road", "addr:postcode": "560001", "addr:state": "Karnataka", "amenity": "hospital", "email": "info.sm@nhhospitals.org", "emergency": "yes", "healthcare": "hospital", "name": "St Marthas Hospital", "name:kn": "\u0cb8\u0cc6\u0c82\u0c9f\u0ccd \u0cae\u0cbe\u0cb0\u0ccd\u0ca5 \u0c86\u0cb8\u0ccd\u0caa\u0ca4\u0ccd\u0cb0\u0cc6", "operator:type": "private", "source": "OpenGovernmentData", "website": "https://www.narayanahealth.org/"}}, {"type": "way", "id": 38750705, "nodes": [7395562818, 7395562819, 459815979, 459815980, 459478506, 4685633732, 7395562818], "tags": {"addr:city": "Bengaluru", "addr:district": "Bengaluru Urban", "addr:full": "No.2 Vittal Mallya Road", "addr:housenumber": "2", "addr:postcode": "560001", "addr:state": "Karnataka", "addr:street": "Vittal Mallya Road", "amenity": "hospital", "check_date": "2024-08-18", "email": "info@vsshospital.com", "healthcare": "hospital", "healthcare:speciality": "multi speciality", "name": "Vydehi Superspeciality Hospital", "name:kn": "\u0cb5\u0cc8\u0ca6\u0cc7\u0cb9\u0cbf \u0c86\u0cb8\u0ccd\u0caa\u0ca4\u0ccd\u0cb0\u0cc6", "note": "Changed from Mallya Hospital to Vydehi Superspeciality Hospital in Q2 2022", "old_name": "Mallya Hospital", "operator:type": "private", "phone": "+9180 2227 7979", "source": "OpenGovernmentData", "website": "http://www.vsshospital.com/"}}, {"type": "way", "id": 40631657, "nodes": [1446213195, 1446213202, 1446213220, 1446213205, 493530801, 9906259186, 493530781, 493530784, 493530786, 493530788, 11992153785, 1448089236, 13391186936, 1448082657, 12376783811, 1448082622, 12169987865, 493530789, 1448082643, 1448082635, 1448082615, 1448082660, 1448082645, 1448082584, 493530791, 1448082604, 3422041327, 3422041322, 3422041323, 3422041324, 3422041325, 3422041315, 3422041298, 3422041295, 1448634281, 3422041073, 493530796, 493530798, 1448082662, 1448082587, 1448082624, 1448082613, 1448082598, 493530800, 1446213195], "tags": {"amenity": "hospital", "comment": "land reserved for building hospitals", "healthcare": "hospital", "name": "Hospital Complex"}}, {"type": "way", "id": 45185764, "nodes": [573420981, 573420982, 11010175807, 12122658686, 573420983, 9573432800, 573420984, 1707859921, 1707859950, 573420981], "tags": {"amenity": "hospital", "emergency": "yes", "healthcare": "hospital", "name": "Bhagwan Mahaveer Jain Hospital", "name:etymology:wikidata": "Q9422", "name:kn": "\u0cad\u0c97\u0cb5\u0cbe\u0ca8\u0ccd \u0cae\u0cb9\u0cbe\u0cb5\u0cc0\u0cb0 \u0c9c\u0cc8\u0ca8 \u0c86\u0cb8\u0ccd\u0caa\u0ca4\u0ccd\u0cb0\u0cc6", "toilets:wheelchair": "yes", "wheelchair": "yes"}}, {"type": "way", "id": 45444044, "nodes": [12498576271, 578143360, 3942993148, 12498576270, 10996542241, 12498576269, 1517317433, 1517317453, 578143367, 3942993142, 12498576312, 12067529023, 12067529024, 12067529025, 12067529026, 4030269686, 10792855174, 12067529032, 12067529031, 4030269688, 578143351, 12498576311, 578143354, 1837634259, 12498576310, 578143356, 12498576274, 12498576273, 10996542240, 12498576272, 12498576271], "tags": {"addr:city": "Shivaji Nagar, Bangalore", "addr:district": "Bengaluru Urban", "addr:full": "Lady Curzon Road, Shivaji Nagar", "addr:postcode": "560001", "addr:state": "Karnataka", "addr:street": "Lady Curzon Road", "amenity": "hospital", "fax": "+91-80-25591325", "healthcare": "hospital", "healthcare:speciality": "Bio-Chemistry; Cardiology; Cardiothoracic Surgery; Dermatology; ENT; General Medicine; General Surgery; Micro-Biology; Neurology; Ophthalmology; Orthopedics Pathology; Pediatric Surgery; Plastic Surgery; Psychiatry; Pulmonology; Radio-Diagnosis;", "name": "Bowring and Lady Curzon Hospitals", "name:kn": "\u0cac\u0ccc\u0cb0\u0cbf\u0c82\u0c97\u0ccd \u0c86\u0cb8\u0ccd\u0caa\u0ca4\u0ccd\u0cb0\u0cc6", "official_name": "Shri Atal Bihari Vajpayee Medical College and Research Institution", "operator:type": "government", "phone": "+91-80-25591325", "source": "OpenGovernmentData", "website": "https://sabvmcri.karnataka.gov.in/"}}, {"type": "way", "id": 52063534, "nodes": [12629746512, 4676566777, 663596614, 10761493358, 12112489582, 10761493357, 663596615, 12629746515, 12629746514, 12629746513, 12629746512], "tags": {"addr:city": "Shivaji Nagar, Bangalore", "addr:street": "Venkataswamy Naidu Road", "amenity": "hospital", "healthcare": "hospital", "heritage": "2", "heritage:operator": "nmma", "heritage:website": "https://nmma.nic.in/nmma/exploreBuiltState.do?state=29", "name": "Sir Haji Ismail Gosha Sait Hospital", "name:etymology:wikidata": "Q6084847", "name:kn": "\u0cb8\u0cb0\u0ccd \u0cb9\u0cbe\u0c9c\u0cbf \u0c87\u0cb8\u0ccd\u0cae\u0cc8\u0cb2\u0ccd \u0c97\u0cca\u0cb6 \u0cb8\u0cc8\u0c9f\u0ccd \u0c86\u0cb8\u0ccd\u0caa\u0ca4\u0ccd\u0cb0\u0cc6", "ref:nmma": "KR20010684"}}, {"type": "way", "id": 53849361, "nodes": [679886785, 679886725, 679886814, 679886893, 679886767, 679886851, 7292337020, 679886785], "tags": {"amenity": "hospital", "healthcare": "hospital", "name": "Government Veterinary Hospital", "name:kn": "\u0cb8\u0cb0\u0ccd\u0c95\u0cbe\u0cb0\u0cbf \u0caa\u0cb6\u0cc1\u0cb5\u0cc8\u0ca6\u0ccd\u0caf \u0c86\u0cb8\u0ccd\u0caa\u0ca4\u0ccd\u0cb0\u0cc6"}}, {"type": "way", "id": 53859295, "nodes": [680004360, 11028992215, 680004477, 680004373, 680004435, 680004360], "tags": {"amenity": "hospital", "name": "Railways Hospital", "name:kn": "\u0cb0\u0cc8\u0cb2\u0ccd\u0cb5\u0cc7 \u0c86\u0cb8\u0ccd\u0caa\u0ca4\u0ccd\u0cb0\u0cc6"}}, {"type": "way", "id": 124760551, "nodes": [1387523823, 1387523809, 1387523802, 1307598703, 1387523823], "tags": {"addr:city": "Bangalore", "addr:district": "Bengaluru Urban", "addr:full": "# 146, Infantry Road, Prestige Opal Building, Opp Police Commissioners Office", "addr:postcode": "560001", "addr:state": "Karnataka", "addr:street": "Infantry Road", "amenity": "hospital", "name": "Sparsh Hospital For Advanced Surgeries, Bengaluru Urban", "name:kn": "\u0cb8\u0ccd\u0caa\u0cb0\u0ccd\u0cb6\u0ccd \u0c86\u0cb8\u0ccd\u0caa\u0ca4\u0ccd\u0cb0\u0cc6", "source": "OpenGovernmentData", "website": "https://www.sparshhospital.com/", "wheelchair": "yes"}}, {"type": "way", "id": 133379520, "nodes": [1468296644, 1468296642, 1468296636, 1468296641, 1468296645, 1468296638, 1468296644], "tags": {"addr:city": "bangalore", "addr:district": "Bengaluru Urban", "addr:full": "3/4, Sunrise Tower, J.P. Road, Girinagar", "addr:housenumber": "3-4", "addr:postcode": "560085", "addr:state": "Karnataka", "addr:street": "Sunrise Towers, 30th crs JP Rd. Girinagar.,opp Canara Bank", "amenity": "hospital", "emergency": "yes", "name": "Radhakrishna Multispeciality Hospital", "name:kn": "\u0cb0\u0cbe\u0ca7\u0cbe\u0c95\u0cc3\u0cb7\u0ccd\u0ca3 \u0c86\u0cb8\u0ccd\u0caa\u0ca4\u0ccd\u0cb0\u0cc6", "phone": "080 2642 2977", "source": "OpenGovernmentData"}}, {"type": "way", "id": 138697265, "nodes": [7658279911, 7658279912, 7658279913, 1520843455, 6345494316, 1520843420, 1520843445, 7658279911], "tags": {"alt_name": "ESI Hospital", "amenity": "hospital", "emergency": "yes", "healthcare": "hospital", "int_name": "ESICMH", "name": "Employees' State Insurance Corporation Model Hospital", "operator": "Employees' State Insurance", "operator:short": "ESI", "operator:wikidata": "Q3595726", "wheelchair": "yes"}}, {"type": "way", "id": 148065730, "nodes": [1611772464, 11148448520, 1611772497, 11011536022, 11011536018, 9214580828, 1611772471, 11148448521, 1611772464], "tags": {"addr:district": "Bengaluru Urban", "addr:full": "45 Magrath Road, Off Richmond Road", "addr:postcode": "560025", "addr:state": "Karnataka", "amenity": "hospital", "emergency": "yes", "healthcare": "hospital", "name": "Hosmat Hospital", "name:kn": "\u0cb9\u0cca\u0cb8\u0ccd\u0cae\u0ca4\u0ccd \u0c86\u0cb8\u0ccd\u0caa\u0ca4\u0ccd\u0cb0\u0cc6", "source": "OpenGovernmentData", "wheelchair": "yes", "wikidata": "Q5635474", "wikipedia": "en:HOSMAT"}}, {"type": "way", "id": 150350446, "nodes": [1632709106, 1632709146, 1632709181, 1632709394, 1632709106]}, {"type": "way", "id": 150350462, "nodes": [1632708866, 1632708947, 1632709144, 1632709354, 1632708866]}, {"type": "way", "id": 150350476, "nodes": [1632709348, 1632708925, 1632709442, 1632709444, 1632709372, 1632708934, 1632708776, 1632709440, 1632709263, 1632709265, 1632709198, 1632709056, 1632708889, 1632709577, 1632708968, 1632709403, 1632709127, 1632709273, 1632708898, 1632708941, 1632709086, 1632709374, 1632709424, 1632709734, 1632709285, 1632709048, 1632709175, 1632709704, 1632709139, 1632709141, 1632709550, 1632709163, 1632709722, 1632709111, 1632709376, 1632709626, 1632709618, 1632709098, 1632709578, 1632709151, 1632709348], "tags": {"amenity": "hospital", "building": "hospital", "emergency": "yes", "healthcare": "hospital", "heritage": "2", "heritage:operator": "nmma", "heritage:website": "https://nmma.nic.in/nmma/exploreBuiltState.do?state=29", "name": "Victoria Hospital", "name:etymology:wikidata": "Q9439", "name:kn": "\u0cb5\u0cbf\u0c95\u0ccd\u0c9f\u0ccb\u0cb0\u0cbf\u0caf\u0cbe \u0c86\u0cb8\u0ccd\u0caa\u0ca4\u0ccd\u0cb0\u0cc6", "ref:nmma": "KR20011022", "wheelchair": "yes", "wikidata": "Q7926782", "wikimedia_commons": "Category:Victoria Hospital, Bangalore", "wikipedia": "en:Victoria Hospital (Bangalore Medical College)"}}, {"type": "way", "id": 150350482, "nodes": [1632709230, 1632709561, 1632709223, 1632709576, 1632709230]}, {"type": "way", "id": 150350483, "nodes": [1632708811, 1632709078, 1632708973, 1632708796, 1632708781, 1632709474, 1632709477, 1632709594, 1632709074, 1632709699, 1632709009, 1632709065, 1632708808, 1632709079, 1632708811]}, {"type": "way", "id": 150350484, "nodes": [1632708861, 1632709213, 1632709096, 1632709439, 1632708861]}, {"type": "way", "id": 150350487, "nodes": [1632708906, 1632709559, 1632708928, 1632709688, 1632709170, 1632709611, 1632709701, 1632709027, 1632709574, 1632709513, 1632709386, 1632709422, 1632708976, 1632709511, 1632709691, 1632708784, 1632709738, 1632709425, 1632709210, 1632709654, 1632709017, 1632709641, 1632709272, 1632709571, 1632709052, 1632708951, 1632709661, 1632709565, 1632709375, 1632709091, 1632709569, 1632709717, 1632709707, 1632709549, 1632709327, 1632708906]}, {"type": "way", "id": 161984945, "nodes": [1739362251, 1739366976, 1739362385, 1739362285, 12137671788, 10580572136, 1739362319, 1739362370, 12137671789, 1739362236, 1739362251], "tags": {"addr:district": "Bengaluru Urban", "addr:full": "Near Town Hall, Sjp Road , South", "addr:postcode": "560002", "addr:state": "Karnataka", "amenity": "hospital", "emergency": "yes", "healthcare": "hospital", "name": "Dasappa Maternity Hospital", "name:kn": "\u0ca6\u0cbe\u0cb8\u0caa\u0ccd\u0caa \u0ca4\u0cbf\u0cb0\u0cc1\u0cae\u0cb2\u0cae\u0ccd\u0cae \u0c86\u0cb8\u0ccd\u0caa\u0ca4\u0ccd\u0cb0\u0cc6", "source": "OpenGovernmentData"}}, {"type": "way", "id": 169801514, "nodes": [1809622910, 1809622909, 1809622904, 1809622908, 1809622910], "tags": {"addr:district": "Bengaluru Urban", "addr:full": "#11/2, Magadi Main Road ,Agrahara , Dasarahalli,Next To Raheja Park", "addr:postcode": "560079", "addr:state": "Karnataka", "amenity": "hospital", "emergency": "yes", "name": "Sarvodaya Hospital", "name:kn": "\u0cb8\u0cb0\u0ccd\u0cb5\u0ccb\u0ca6\u0caf \u0c86\u0cb8\u0ccd\u0caa\u0ca4\u0ccd\u0cb0\u0cc6", "source": "OpenGovernmentData"}}, {"type": "way", "id": 169801520, "nodes": [1809622944, 1809622941, 11881863274, 11881863275, 1809622943, 1809622942, 1809622944], "tags": {"addr:district": "Bengaluru Urban", "addr:full": "5th Main Road, 7th Cross Road, MC Layout, Vijaynagar", "addr:postcode": "560040", "addr:state": "Karnataka", "amenity": "hospital", "name": "Dasarahalli Referral Hospital", "name:kn": "\u0cb8\u0cb0\u0ccd\u0c95\u0cbe\u0cb0\u0cbf \u0c86\u0cb8\u0ccd\u0caa\u0ca4\u0ccd\u0cb0\u0cc6", "source": "OpenGovernmentData"}}, {"type": "way", "id": 239738408, "nodes": [2475117859, 6311328129, 6311328128, 2475117871, 2475117938, 2475117860, 2475117870, 11330502270, 2475117856, 2475118016, 12168378235, 2475117859], "tags": {"addr:district": "Bengaluru Urban", "addr:full": "Dr.M.H Marigowda Road", "addr:postcode": "560 029", "addr:state": "Karnataka", "amenity": "hospital", "emergency": "yes", "healthcare": "hospital", "healthcare:speciality": "oncology", "name": "Kidwai Memorial Institute of Oncology", "name:etymology:wikidata": "Q7282619", "operator:type": "private", "source": "OpenGovernmentData", "website": "https://www.kidwai.kar.nic.in/", "wikidata": "Q6405058", "wikipedia": "en:Kidwai Memorial Institute of Oncology"}}, {"type": "way", "id": 256703169, "nodes": [2623402152, 2623402149, 2623402150, 2623402151, 2623402153, 2623402152], "tags": {"addr:district": "Bengaluru Urban", "addr:full": "1215 A Cross Sindhi Hospital Road, Sampangiramnagar", "addr:postcode": "560027", "addr:state": "Karnataka", "amenity": "hospital", "emergency": "yes", "name": "P.D. Hinduja Sindhi Hospital", "name:kn": "\u0cb8\u0cbf\u0c82\u0ca7\u0cbf \u0c86\u0cb8\u0ccd\u0caa\u0ca4\u0ccd\u0cb0\u0cc6", "operator:type": "private", "source": "OpenGovernmentData", "website": "https://www.hindujasindhihospital.com/"}}, {"type": "way", "id": 271786067, "nodes": [2767224739, 2767224740, 2767224744, 2767224741, 2767224743, 2767224739], "tags": {"addr:district": "Bengaluru Urban", "addr:full": "Bhashyam Circle,Rajajinagar 5Th Block", "addr:postcode": "560010", "addr:state": "Karnataka", "amenity": "hospital", "healthcare": "hospital", "name": "Sreerampura Referal Hospital", "name:kn": "\u0cb6\u0ccd\u0cb0\u0cc0\u0cb0\u0c82\u0caa\u0cc1\u0cb0 \u0cb0\u0cc6\u0cab\u0cb0\u0cb2\u0ccd \u0c86\u0cb8\u0ccd\u0caa\u0ca4\u0ccd\u0cb0\u0cc6", "source": "OpenGovernmentData"}}, {"type": "way", "id": 306861065, "nodes": [3118790621, 3118790622, 3118790623, 3118790624, 3118790625, 3118790621], "tags": {"addr:district": "Bengaluru Urban", "addr:full": "21/2, 14th Cross, 3rd Block, Jayanagar", "addr:postcode": "560011", "addr:state": "Karnataka", "amenity": "hospital", "building": "yes", "building:levels": "6", "email": "customercarebengaluru@apollohospitals.com", "healthcare": "hospital", "healthcare:speciality": "Cardiac surgery; General and Gastro-intestinal surgery; Gynecology; Pediatric surgery; Thoracic surgery; Urology; Colorectal surgery; Cancer surgery; Orthopedics; Neurosurgery and Ear; Nose and Throat surgery", "name": "Apollo Speciality Hospital", "name:kn": "\u0c85\u0caa\u0ccb\u0cb2\u0ccb \u0c86\u0cb8\u0ccd\u0caa\u0ca4\u0ccd\u0cb0\u0cc6", "operator:type": "private", "source": "OpenGovernmentData", "website": "https://www.apollohospitals.com/"}}, {"type": "way", "id": 325436710, "nodes": [3320950154, 3320950153, 3320950160, 491504267, 13014786045, 13014786044, 13014786043, 13014786042, 13014786041, 13014786040, 13014786039, 13014786038, 13014786037, 3320950154], "tags": {"addr:city": "Bengaluru", "addr:district": "Bengaluru Urban", "addr:full": "14, Cunningham Road", "addr:postcode": "560052", "addr:state": "Karnataka", "addr:street": "Cunningham Road", "amenity": "hospital", "emergency": "yes", "healthcare": "hospital", "name": "Fortis Hospitals Limited, Bengaluru Urban", "name:kn": "\u0cab\u0ccb\u0cb0\u0ccd\u0c9f\u0cbf\u0cb8\u0ccd \u0c86\u0cb8\u0ccd\u0caa\u0ca4\u0ccd\u0cb0\u0cc6", "operator": "Fortis", "operator:type": "private", "source": "OpenGovernmentData", "website": "https://www.fortishealthcare.com/"}}, {"type": "way", "id": 332071569, "nodes": [3391834193, 3391834194, 3391834195, 3391834196, 3391834197, 3391834198, 3391834199, 3391834200, 3391834193], "tags": {"addr:district": "Bengaluru Urban", "addr:full": "#761, 7th Main, Last Bus Stop, Near Swimming pool, Mahalakshmi Layout", "addr:postcode": "560086", "addr:state": "Karnataka", "amenity": "hospital", "building": "yes", "healthcare": "hospital", "name": "Sanjeevani Hospital", "name:kn": "\u0cb8\u0c82\u0c9c\u0cc0\u0cb5\u0ca8\u0cbf \u0c86\u0cb8\u0ccd\u0caa\u0ca4\u0ccd\u0cb0\u0cc6", "operator:type": "private", "source": "OpenGovernmentData", "website": "https://www.sanjeevinihospital.com/"}}, {"type": "way", "id": 334493050, "nodes": [2705350771, 2705350781, 2705350740, 9906259215, 3415857201, 3415857197, 9906259212, 2705350776, 3415857092, 3415857090, 3415857089, 3415857088, 3415857087, 2705350771], "tags": {"amenity": "hospital", "emergency": "yes", "healthcare": "hospital", "name": "Sanjay Gandhi Accident and Trauma Hospital", "name:etymology:wikidata": "Q730045", "name:kn": "\u0cb8\u0c82\u0c9c\u0caf \u0c97\u0cbe\u0c82\u0ca7\u0cbf \u0c86\u0cb8\u0ccd\u0caa\u0ca4\u0ccd\u0cb0\u0cc6"}}, {"type": "way", "id": 334493056, "nodes": [3415857086, 3415857193, 3415857091, 3415857085, 3415857086], "tags": {"amenity": "hospital", "building": "yes", "emergency": "yes", "healthcare": "hospital", "name": "Sanjay Gandhi Accident and Trauma Hospital", "name:etymology:wikidata": "Q730045", "name:kn": "\u0cb8\u0c82\u0c9c\u0caf \u0c97\u0cbe\u0c82\u0ca7\u0cbf \u0c86\u0cb8\u0ccd\u0caa\u0ca4\u0ccd\u0cb0\u0cc6"}}, {"type": "way", "id": 337987686, "nodes": [3450573835, 3450573833, 1780474089, 11341218790, 3450573836, 3450573834, 3450573837, 10188080243, 3450573832, 3450573838, 3450573835], "tags": {"amenity": "hospital", "healthcare": "hospital", "name": "Leprosy Hospital"}}, {"type": "way", "id": 345954862, "nodes": [3525674091, 3525674209, 3525674205, 3525674088, 3525674091], "tags": {"addr:district": "Bengaluru Urban", "addr:full": "No 1 Moore Market Square, Bourdillon Road, Fraser Town", "addr:postcode": "560005", "addr:state": "Karnataka", "amenity": "hospital", "building": "yes", "name": "Annasawmy Mudaliar General Hospital", "name:kn": "\u0c85\u0ca3\u0ccd\u0ca3\u0cb8\u0ccd\u0cb5\u0cbe\u0cae\u0cbf \u0cae\u0cca\u0ca6\u0cb2\u0cbf\u0caf\u0cbe\u0cb0\u0ccd", "source": "OpenGovernmentData"}}, {"type": "way", "id": 346537092, "nodes": [3530510527, 3530510570, 3530510383, 3530510343, 3530510527], "tags": {"addr:district": "Bengaluru Urban", "addr:full": "Richmond Town, Bengaluru", "addr:postcode": "560025", "addr:state": "Karnataka", "amenity": "hospital", "building": "hospital", "name": "Fortis La Femme Hospital", "source": "Local Knowledge"}}, {"type": "way", "id": 347074890, "nodes": [3535000988, 3535000968, 3535000927, 3535000952, 3535000988], "tags": {"addr:district": "Bengaluru Urban", "addr:full": "17, Dr.M.H.Mari Gowda Road, Opp Wilson Garden", "addr:postcode": "560027", "addr:state": "Karnataka", "amenity": "hospital", "healthcare": "hospital", "healthcare:speciality": "Neuro Psychiatry; Neuro Surgery; Oncology; Orthopaedics; Joint Replacements; General Surgery", "name": "Abhaya Hospital", "name:kn": "\u0c85\u0cad\u0caf \u0c86\u0cb8\u0ccd\u0caa\u0ca4\u0ccd\u0cb0\u0cc6", "operator:type": "private", "source": "OpenGovernmentData", "website": "https://www.abhayahospital.org/", "wheelchair": "yes"}}, {"type": "way", "id": 347167749, "nodes": [3535553615, 3535553601, 3535553589, 3535553599, 3535553615], "tags": {"amenity": "hospital", "healthcare": "hospital", "name": "BBMP Maternity Hospital", "name:kn": "\u0cb8\u0cb0\u0c95\u0cbe\u0cb0\u0cbf \u0cb9\u0cc6\u0cb0\u0cbf\u0c97\u0cc6 \u0c86\u0cb8\u0ccd\u0caa\u0ca4\u0ccd\u0cb0\u0cc6"}}, {"type": "way", "id": 347175871, "nodes": [3535630510, 3535630517, 3535630381, 3535630375, 3535630510], "tags": {"addr:city": "Gandhi Nagar, Bangalore", "addr:housename": "Near Gandhrava Uapahara", "addr:street": "4th Cross", "amenity": "hospital", "building": "yes", "emergency": "no", "healthcare": "hospital", "name": "Ramakrishna Clinic"}}, {"type": "way", "id": 347485349, "nodes": [3537802316, 3537802314, 3537802317, 3537802315, 3537802313, 3537802311, 3537802309, 3537802310, 3537802308, 3537802307, 3537802305, 3700542233, 3700542234, 3537802306, 3537802316], "tags": {"amenity": "hospital", "building": "commercial", "building:levels": "5", "name": "Apollo Hospital", "name:kn": "\u0c85\u0caa\u0ccb\u0cb2\u0ccb \u0c86\u0cb8\u0ccd\u0caa\u0ca4\u0ccd\u0cb0\u0cc6"}}, {"type": "way", "id": 347497660, "nodes": [3537864045, 3537864052, 13374340556, 3537864040, 3537864045], "tags": {"addr:district": "Bengaluru Urban", "addr:full": "334, 3rd Stage, 4th Block, Basaveshwaranagar", "addr:postcode": "560079", "addr:state": "Karnataka", "amenity": "hospital", "building": "hospital", "healthcare": "hospital", "name": "Supra Hospital", "operator:type": "private", "website": "http://www.panaceahospital.com/"}}, {"type": "way", "id": 347497848, "nodes": [3537864054, 3537864061, 13374340555, 3537864051, 3537864054], "tags": {"addr:city": "Basaveshwara Nagar, Bangalore", "addr:housenumber": "334", "addr:postcode": "560079", "addr:street": "8th Main, 3rd Stage", "amenity": "hospital", "building": "yes", "emergency": "yes", "healthcare": "hospital", "name": "GM Hospital", "wheelchair": "yes"}}, {"type": "way", "id": 348287598, "nodes": [3544299986, 3544300106, 3544300124, 3544300103, 3544299986], "tags": {"addr:district": "Bengaluru Urban", "addr:full": "SBM Colony, Banashankari, Bengaluru", "addr:state": "Karnataka", "amenity": "hospital", "building": "yes", "name": "Prashanth Hospitals", "name:kn": "\u0caa\u0cbf\u0c87\u0c8e\u0cb8\u0ccd \u0cb5\u0cbf\u0cb6\u0ccd\u0cb5\u0cb5\u0cbf\u0ca6\u0ccd\u0caf\u0cbe\u0cb2\u0caf \u0c95\u0ccd\u0cb0\u0cbf\u0c95\u0cc6\u0c9f\u0ccd \u0cae\u0cc8\u0ca6\u0cbe\u0ca8", "source": "Local Knowledge"}}, {"type": "way", "id": 348827364, "nodes": [3549018217, 3549018212, 3549018169, 3549018173, 3549018217], "tags": {"addr:city": "Bengaluru", "addr:district": "Bengaluru Urban", "addr:full": "6/7/8, 4th Main, 18th Cross, Chitrashilpi Venkatappa Road, Malleshwaram", "addr:housenumber": "6,7,8", "addr:postcode": "560003", "addr:state": "Karnataka", "addr:street": "18th Cross Road", "addr:unit": "Chitrashilpi Venkatappa Road", "amenity": "hospital", "building": "hospital", "email": "info@vagushospital.com", "healthcare": "hospital", "healthcare:speciality": "multi speciality", "name": "Vagus Super Speciality Hospital", "operator:type": "private", "phone": "080-23569970", "source": "OpenGovernmentData", "website": "https://www.vagushospital.com/"}}, {"type": "way", "id": 354497944, "nodes": [3602104521, 3602104516, 3602104364, 3602104369, 3602104521], "tags": {"amenity": "hospital", "healthcare": "hospital", "name": "ChanRe Rheumatology And Immunology Center And Research"}}, {"type": "way", "id": 354557914, "nodes": [3602433072, 3602433054, 3602433012, 3602433030, 3602433072], "tags": {"amenity": "hospital", "building": "yes", "name": "Gopala Eye Care Centre"}}, {"type": "way", "id": 371602983, "nodes": [3751677696, 3751677697, 3751677698, 3751677699, 3751677696], "tags": {"addr:district": "Bengaluru Urban", "addr:full": "No.71/1, Millers Road, Opp. St. Anne's College, Bengaluru", "addr:postcode": "560052", "addr:state": "Karnataka", "amenity": "hospital", "healthcare": "hospital", "name": "Manipal Hospital", "name:kn": "\u0cae\u0ca3\u0cbf\u0caa\u0cbe\u0cb2 \u0c86\u0cb8\u0ccd\u0caa\u0ca4\u0ccd\u0cb0\u0cc6", "old_name": "Vikram Hospital", "old_name:kn": "\u0cb5\u0cbf\u0c95\u0ccd\u0cb0\u0cae\u0ccd \u0c86\u0cb8\u0ccd\u0caa\u0ca4\u0ccd\u0cb0\u0cc6", "source": "OpenGovernmentData", "website": "https://www.vikramhospital.com/"}}, {"type": "way", "id": 398113412, "nodes": [4008910190, 4008910191, 4008910192, 4008910193, 4008910190], "tags": {"amenity": "hospital", "name": "The Fracture and Orthopaedic Clinic"}}, {"type": "way", "id": 400480962, "nodes": [9930000946, 4030279578, 4030279577, 4030279576, 4030279575, 9930000936, 4030279580, 4030279582, 11282630686, 4030279585, 9930000947, 9930000946], "tags": {"addr:district": "Bengaluru Urban", "addr:full": "Post Bag No.4, No.2, Hazarat Kambal Posh Road", "addr:postcode": "560051", "addr:state": "Karnataka", "amenity": "hospital", "contact:email": "info@csihospitalblr.org", "contact:phone": "080 22861103", "healthcare": "hospital", "name": "CSI Hospital", "name:kn": "\u0cb8\u0cbf \u0c8e\u0cb8\u0ccd \u0c90 \u0c86\u0cb8\u0ccd\u0caa\u0ca4\u0ccd\u0cb0\u0cc6", "source": "OpenGovernmentData", "website": "http://csihospitalblr.org"}}, {"type": "way", "id": 401993917, "nodes": [4044099878, 4044099876, 4044099877, 4044099880, 4044099878], "tags": {"amenity": "hospital", "name": "Government Hospital", "name:kn": "\u0cb8\u0cb0\u0ccd\u0c95\u0cbe\u0cb0\u0cbf \u0c86\u0cb8\u0ccd\u0caa\u0ca4\u0ccd\u0cb0\u0cc6", "ups_hospital": "general hospital"}}, {"type": "way", "id": 478206073, "nodes": [4714521507, 4714521506, 4714521505, 4714521504, 4714521503, 4714521502, 4714521501, 4714521500, 4714521499, 4714521498, 4714521497, 1454651983, 4714521496, 4714521495, 4714521507], "tags": {"addr:district": "Bengaluru Urban", "addr:full": "Air Force", "addr:postcode": "560007", "addr:state": "Karnataka", "amenity": "hospital", "healthcare": "hospital", "name": "Command Hospital (Air Force)", "source": "OpenGovernmentData"}}, {"type": "way", "id": 487956103, "nodes": [10600743029, 4803392462, 4446344840, 4803392461, 12164916218, 12164916220, 4803392464, 4803391620, 4803392463, 4803392453, 4803392452, 7448743127, 4803392451, 9930197199, 7448743129, 4803392450, 4803392449, 4803392448, 10600743029], "tags": {"addr:city": "bangalore", "addr:district": "Bengaluru Urban", "addr:full": "No. 4, Mother Theresa Road, Campbell Road", "addr:housenumber": "4", "addr:postcode": "560047", "addr:state": "Karnataka", "addr:street": "Mother Theresa Rd, Vivek Nagar Post, Near Life Style, Xavier Layout, Victoria Layout", "amenity": "hospital", "name": "St. Philomena's Hospital", "name:kn": "\u0cb8\u0cc7\u0c82\u0c9f\u0ccd \u0cab\u0cbf\u0cb2\u0ccb\u0cae\u0cc7\u0ca8 \u0c86\u0cb8\u0ccd\u0caa\u0ca4\u0ccd\u0cb0\u0cc6", "phone": "080 4016 4433", "source": "OpenGovernmentData", "website": "stphilomenashospital.org", "wheelchair": "yes"}}, {"type": "way", "id": 496821816, "nodes": [4884890999, 4884890996, 4884890997, 4884890998, 4884890999], "tags": {"amenity": "hospital", "building": "yes", "healthcare": "hospital", "name": "Government Maternity Hospital", "name:kn": "\u0cb8\u0cb0\u0c95\u0cbe\u0cb0\u0cbf \u0cb9\u0cc6\u0cb0\u0cbf\u0c97\u0cc6 \u0c86\u0cb8\u0ccd\u0caa\u0ca4\u0ccd\u0cb0\u0cc6"}}, {"type": "way", "id": 509638758, "nodes": [4988304263, 4988304264, 7293719494, 7293719495, 4988304265, 4988304266, 4988304263], "tags": {"addr:city": "Bengaluru", "addr:country": "IN", "addr:district": "Bengaluru Urban", "addr:full": "No 8, HCG Towers, P. Kalinga Rao Road, Sampangi Ram Nagar, Bengaluru", "addr:hamlet": "Sampangi Ram Nagar", "addr:housenumber": "8", "addr:postcode": "560027", "addr:state": "Karnataka", "addr:street": "P. Kalinga Rao Road", "amenity": "hospital", "fax": "+918022485962", "name": "HCG Cancer Hospital", "name:bn": "\u098f\u0987\u099a\u09b8\u09bf\u099c\u09bf \u0995\u09cd\u09af\u09be\u09a8\u09cd\u09b8\u09be\u09b0 \u09b9\u09be\u09b8\u09aa\u09be\u09a4\u09be\u09b2", "name:en": "HealthCare Global Enterprises Ltd", "operator:type": "private", "phone": "+918040206000", "source": "OpenGovernmentData", "website": "https://www.hcgoncology.com/"}}, {"type": "way", "id": 512626192, "nodes": [5012445075, 1838375769, 5012445074, 5012445073, 5012445076, 5012445075], "tags": {"addr:district": "Bengaluru Urban", "addr:full": "Cunnigham Road, 2nd Cross No:3", "addr:postcode": "560001", "addr:state": "Karnataka", "amenity": "hospital", "name": "Al-Ameen Hospital", "name:kn": "\u0c86\u0cb2\u0ccd-\u0c86\u0cae\u0cc0\u0ca8\u0ccd \u0c86\u0cb8\u0ccd\u0caa\u0ca4\u0ccd\u0cb0\u0cc6", "source": "OpenGovernmentData"}}, {"type": "way", "id": 513532062, "nodes": [10032975001, 9811397075, 9811397073, 1118258254, 9811397071, 9811397057, 9811397058, 9811397059, 9811397066, 9967147497, 9967147496, 9936581278, 9936921085, 5019525997, 11990000678, 6854592430, 5019525996, 7201052012, 7201052011, 10032975004, 10032974985, 10032975003, 10032975002, 10032975001], "tags": {"addr:district": "Bengaluru Urban", "addr:full": "#1, Dr. Rajkumar Road, I Block,Rajajinagar,Near Vivekananda College", "addr:postcode": "560010", "addr:state": "Karnataka", "addr:street": "Dr Rajkumar Road", "alt_name": "Gudde Hospital", "amenity": "hospital", "healthcare": "hospital", "name": "St. Theresa's Hospital", "name:kn": "\u0cb8\u0cc8\u0c82\u0c9f\u0ccd \u0ca4\u0cc6\u0cb0\u0cc7\u0cb8 \u0c86\u0cb8\u0ccd\u0caa\u0ca4\u0ccd\u0cb0\u0cc6", "old_name": "St Theresa's Tuberculosis Sanatorium", "source": "OpenGovernmentData"}}, {"type": "way", "id": 549373054, "nodes": [5306746598, 5306746597, 5306746596, 5306746595, 5306746598], "tags": {"amenity": "hospital", "building": "yes", "healthcare": "hospital", "name": "South City Hospital"}}, {"type": "way", "id": 639010019, "nodes": [6021739953, 6021739954, 6021739955, 6021739956, 6021739957, 6021739958, 6021739953], "tags": {"addr:district": "Bengaluru Urban", "addr:full": "35, Siddiah Road, Wilson Garden", "addr:postcode": "560027", "addr:state": "Karnataka", "amenity": "hospital", "building": "hospital", "healthcare": "hospital", "name": "Agadi Hospital", "name:kn": "\u0c85\u0c97\u0ca1\u0cbf \u0c86\u0cb8\u0ccd\u0caa\u0ca4\u0ccd\u0cb0\u0cc6", "source": "OpenGovernmentData"}}, {"type": "way", "id": 687319732, "nodes": [3425328776, 6442518242, 6442518241, 6442518240, 6442518239, 11215840017, 3039639118, 6442518238, 3425328780, 3425328776], "tags": {"addr:district": "Bengaluru Urban", "addr:full": "618, Sri Mallikarjuna Swamy Temple St, N.R. Colony", "addr:postcode": "560019", "addr:state": "Karnataka", "amenity": "hospital", "name": "BMS Hospital", "source": "OpenGovernmentData"}}, {"type": "way", "id": 697081723, "nodes": [6546893769, 6546893768, 7413376531, 7413376530, 7413376529, 8240881787, 2296630617, 7413376528, 6546893769], "tags": {"addr:district": "Bengaluru Urban", "addr:full": "Modi Hospital Road, Mahalakshmipuram", "addr:postcode": "560086", "addr:state": "Karnataka", "amenity": "hospital", "email": "modihospital@hotmail.com", "healthcare": "hospital", "name": "M C Modi Eye Hospital", "name:etymology:wikidata": "Q1880759", "name:kn": "\u0cae\u0ccb\u0ca6\u0cbf \u0c95\u0ca3\u0ccd\u0ca3\u0cbf\u0ca8 \u0c86\u0cb8\u0ccd\u0caa\u0ca4\u0ccd\u0cb0\u0cc6", "operator:type": "private", "source": "OpenGovernmentData", "website": "http://www.modieyehospital.com/", "wheelchair": "yes"}}, {"type": "way", "id": 726095464, "nodes": [6807544239, 6807544240, 6807544241, 6807544242, 6807544239], "tags": {"amenity": "hospital", "healthcare": "hospital"}}, {"type": "way", "id": 796374051, "nodes": [7448009623, 7448009622, 3334054156, 3334054177, 3334054158, 7448009623], "tags": {"addr:district": "Bengaluru", "addr:full": "Munireddypalya, J.C.Nagar, Bengaluru", "addr:postcode": "560006", "addr:state": "Karnataka", "amenity": "hospital", "name": "JC Nagar Municipal Hospital", "source": "OpenGovernmentData"}}, {"type": "way", "id": 991531036, "nodes": [9161008303, 10041139974, 9161008302, 9161008301, 9161008300, 9161008299, 9161008298, 9161008297, 9161008296, 9161008295, 9161008294, 9161008293, 9161008303], "tags": {"addr:full": "Stage 1, KHB Colony, Basaveshwar Nagar, Bengaluru, Karnataka", "addr:state": "Karnataka", "amenity": "hospital", "healthcare": "hospital", "name": "Government Homeopathic Hospital"}}, {"type": "way", "id": 997923996, "nodes": [3198616666, 9214185049, 9214185048, 3198616664, 3198616666], "tags": {"addr:district": "Bengaluru Urban", "addr:full": "6/6 Kumarakrupa Road OppositeShivananda Circle , High Grounds", "addr:postcode": "560001", "addr:state": "Karnataka", "amenity": "hospital", "name": "Dr. P.R. Desai Hospital Pvt Ltd", "source": "OpenGovernmentData"}}, {"type": "way", "id": 1013443903, "nodes": [9350054901, 529488722, 1624836198, 1096956219, 9350054894, 9350054897, 1624836124, 9350054882, 9350054881, 9350054901], "tags": {"addr:city": "Bengaluru", "addr:district": "Bengaluru Urban", "addr:full": "26/4, Brigade Gateway, Beside Metro Cash and Carry, Malleshwaram", "addr:housenumber": "26/4", "addr:postcode": "560020", "addr:state": "Karnataka", "addr:street": "Brigade Gateway, Beside Metro Cash and Carry West, Malleshwaram", "amenity": "hospital", "emergency": "yes", "name": "Manipal Hospital Yeshwantpur", "old_name": "Columbia Asia Referral Hospital", "old_name:kn": "\u0c95\u0cca\u0cb2\u0c82\u0cac\u0cbf\u0caf \u0c8f\u0cb7\u0ccd\u0caf\u0cbe \u0c86\u0cb8\u0ccd\u0caa\u0ca4\u0ccd\u0cb0\u0cc6", "phone": "080 3989 8969", "source": "OpenGovernmentData", "website": "https://www.columbiaasia.com/"}}, {"type": "way", "id": 1039668732, "nodes": [9573432736, 9573432738, 9573432737, 9573432734, 9573432733, 13361644709, 9573432735, 9573432736], "tags": {"addr:district": "Bengaluru Urban", "addr:full": "Queens Road", "addr:state": "Karnataka", "addr:street": "Queen's Road", "amenity": "hospital", "name": "Shifa Hospital, Bengaluru Urban", "name:kn": "\u0cb6\u0cbf\u0cab\u0cbe \u0c86\u0cb8\u0ccd\u0caa\u0ca4\u0ccd\u0cb0\u0cc6", "operator:type": "private", "source": "OpenGovernmentData", "website": "http://dpal.kar.nic.in/Kanunu%20padakosha%20PDF%20Files/Recognised%20Hospitals.pdf"}}, {"type": "way", "id": 1039760096, "nodes": [9574153229, 9574153228, 9574153227, 6900054522, 9574153229], "tags": {"addr:district": "Bengaluru Urban", "addr:full": "359 / 360, 19Th Main 1 St Block Rajajinagar Near Indian Bank", "addr:postcode": "560010", "addr:state": "Karnataka", "amenity": "hospital", "healthcare": "hospital", "name": "Diacon Hospital", "source": "OpenGovernmentData", "wheelchair": "yes"}}, {"type": "way", "id": 1039760097, "nodes": [9574153232, 9574153230, 9574153231, 9574153233, 9574153232], "tags": {"addr:district": "Bengaluru Urban", "addr:full": "111, West Of Chord Road, Mahalakshmipuram, Rajajinagar I Block", "addr:postcode": "560086", "addr:state": "Karnataka", "alt_name": "Fortis Hospitals Limited, Rajajinagar", "amenity": "hospital", "healthcare": "hospital", "name": "Fortis Hospital", "name:kn": "\u0cab\u0ccb\u0cb0\u0ccd\u0c9f\u0cbf\u0cb8\u0ccd \u0c86\u0cb8\u0ccd\u0caa\u0ca4\u0ccd\u0cb0\u0cc6", "source": "OpenGovernmentData"}}, {"type": "way", "id": 1076618915, "nodes": [7292235598, 9872645097, 9872645096, 7007284257, 7292235598], "tags": {"amenity": "hospital"}}, {"type": "way", "id": 1077744680, "nodes": [9881508850, 9881508849, 12809319202, 9881508848, 9881508847, 9881508850], "tags": {"amenity": "hospital"}}, {"type": "way", "id": 1083566607, "nodes": [9930000985, 12691255838, 12691255839, 12691255840, 9930000984, 9930000983, 9930000982, 9930000981, 9930000985], "tags": {"amenity": "hospital", "healthcare": "hospital", "name": "Charaka Super Speciality Hospital", "official_name": "Sri Atal Bihari Vajpayee Medical College and Research Institute", "official_name:etymology:wikidata": "Q233289"}}, {"type": "way", "id": 1084220447, "nodes": [9935476949, 9935476952, 9935476951, 9935476950, 9935476946, 9935476949], "tags": {"amenity": "hospital", "check_date": "2024-05-12", "healthcare": "hospital"}}, {"type": "way", "id": 1095561501, "nodes": [10032974877, 10032974876, 10032974875, 10032974874, 10032974877], "tags": {"amenity": "hospital", "healthcare": "hospital", "name": "ESI Hospital Malleshwaram Branch", "operator": "Employees' State Insurance", "operator:short": "ESI", "operator:wikidata": "Q3595726"}}, {"type": "way", "id": 1141353122, "nodes": [1118254826, 10632697476, 10632697475, 10632697474, 11168817968, 1118254826], "tags": {"addr:district": "Bengaluru Urban", "addr:full": "1A/87, Dr Rajkumar Road, 4th Block, Rajajinagar", "addr:postcode": "560010", "addr:state": "Karnataka", "addr:street": "Dr Rajkumar Road", "amenity": "hospital", "emergency": "yes", "name": "Suguna Hospital", "name:kn": "\u0cb8\u0cc1\u0c97\u0cc1\u0ca3 \u0c86\u0cb8\u0ccd\u0caa\u0ca4\u0ccd\u0cb0\u0cc6", "source": "OpenGovernmentData"}}, {"type": "way", "id": 1149213001, "nodes": [10032117288, 1851701912, 10691293984, 10032117287, 10032117288], "tags": {"addr:district": "Bengaluru Urban", "addr:full": "15, Eagle Street Langford Town Shanti Nagar", "addr:postcode": "560025", "addr:state": "Karnataka", "amenity": "hospital", "emergency": "no", "name": "Dr Agarwal's Eye Hospital", "source": "OpenGovernmentData"}}, {"type": "way", "id": 1195581196, "nodes": [11096882149, 2247460571, 11096882148, 11096882147, 11096882149], "tags": {"amenity": "hospital", "name": "BBMP Hospital", "name:kn": "\u0cac\u0cc3. \u0cac\u0cc6\u0c82. \u0cae. \u0caa\u0cbe. \u0c86\u0cb8\u0ccd\u0caa\u0ca4\u0ccd\u0cb0\u0cc6"}}, {"type": "way", "id": 1205832181, "nodes": [11174291860, 11174291859, 11174291858, 11174291857, 11174291860], "tags": {"amenity": "hospital"}}, {"type": "way", "id": 1257327546, "nodes": [4353504160, 1446581013, 11342881119, 11342881123, 11342881122, 11342881121, 4353504208, 4353504182, 4353504160], "tags": {"alt_name": "Truelife Maha Bodhi Hospital", "amenity": "hospital", "name": "Brains Super Speciality Hospital", "official_name": "Maha Bodhi Mallige Hospital", "old_name": "Mallige Hospital", "old_name:kn": "\u0cae\u0cb2\u0ccd\u0cb2\u0cbf\u0c97\u0cc6 \u0c86\u0cb8\u0ccd\u0caa\u0ca4\u0ccd\u0cb0\u0cc6"}}, {"type": "way", "id": 1298074067, "nodes": [11281453705, 11281453704, 12025600511, 13267415142, 12025600510, 11281453705], "tags": {"amenity": "hospital", "name": "Safa Medicure Hospital"}}, {"type": "way", "id": 1307949928, "nodes": [12112512000, 1791567114, 12112511999, 12112511998, 12112511997, 12112511996, 12112512013, 12112511980, 3770161958, 4127931135, 11009573409, 12112511977, 12112511995, 12112511994, 12112511993, 11009588219, 11009573410, 12112512000], "tags": {"addr:district": "Bengaluru Urban", "addr:full": "1st Cross, Shankarapuram, Basavanagudi", "addr:postcode": "560004", "addr:state": "Karnataka", "addr:street": "DV Gundappa Road", "amenity": "hospital", "emergency": "yes", "healthcare": "hospital", "name": "Rangadore Memorial Hospital", "source": "OpenGovernmentData", "wheelchair": "yes"}}, {"type": "way", "id": 1311064558, "nodes": [11019492853, 12135993283, 4107785992, 4107785991, 12135993276, 11991711396, 11991711393, 11019492853], "tags": {"addr:district": "Bengaluru Urban", "addr:full": "Chandrika Tower, JC Road, Bengaluru", "addr:postcode": "560002", "addr:state": "Karnataka", "addr:street": "Jayachamaraja Wodeyar Road", "amenity": "hospital", "healthcare": "hospital", "name": "Trustwell Hospitals", "source": "Local Knowledge", "website": "https://trustwellhospitals.com/"}}, {"type": "way", "id": 1352267564, "nodes": [12511734093, 12511734092, 12511734091, 12511734090, 12511734089, 12511734088, 1473002847, 12511734087, 12511734086, 12511734085, 12511734093], "tags": {"amenity": "hospital", "building": "yes", "name": "Government Maternity Hospital", "name:kn": "\u0cb8\u0cb0\u0ccd\u0c95\u0cbe\u0cb0\u0cbf \u0cb9\u0cc6\u0cb0\u0cbf\u0c97\u0cc6 \u0c86\u0cb8\u0ccd\u0caa\u0ca4\u0ccd\u0cb0\u0cc6", "wheelchair": "limited"}}, {"type": "way", "id": 1432018658, "nodes": [11188815908, 13162427765, 1474432217, 13162445628, 2705350763, 11188815908], "tags": {"amenity": "hospital", "healthcare": "hospital", "name": "Vignan Hospital", "website": "https://bidsinstitution.com/"}}, {"type": "relation", "id": 2025893, "members": [{"type": "way", "ref": 150350487, "role": "outer"}, {"type": "way", "ref": 150350482, "role": "inner"}, {"type": "way", "ref": 150350484, "role": "inner"}, {"type": "way", "ref": 150350462, "role": "inner"}], "tags": {"addr:district": "Bengaluru Urban", "addr:postcode": "560002", "addr:state": "Karnataka", "amenity": "hospital", "building": "yes", "emergency": "yes", "healthcare": "hospital", "heritage": "2", "heritage:operator": "nmma", "heritage:website": "https://nmma.nic.in/nmma/exploreBuiltState.do?state=29", "name": "Vanivilas Women and Children Hospital", "name:kn": "\u0cb5\u0cbe\u0ca3\u0cbf \u0cb5\u0cbf\u0cb2\u0cbe\u0cb8 \u0cae\u0cb9\u0cbf\u0cb3\u0cc6 \u0cae\u0ca4\u0ccd\u0ca4\u0cc1 \u0cae\u0c95\u0ccd\u0c95\u0cb3 \u0c86\u0cb8\u0ccd\u0caa\u0ca4\u0ccd\u0cb0\u0cc6", "ref:nmma": "KR20010691", "source": "OpenGovernmentData", "type": "multipolygon"}}, {"type": "relation", "id": 2025895, "members": [{"type": "way", "ref": 150350483, "role": "outer"}, {"type": "way", "ref": 150350446, "role": "inner"}], "tags": {"alt_name": "Minto Opthalmic Hospital", "amenity": "hospital", "building": "yes", "emergency": "yes", "heritage": "2", "heritage:operator": "nmma", "heritage:website": "https://nmma.nic.in/nmma/exploreBuiltState.do?state=29", "name": "Minto Eye Hospital", "name:kn": "\u0cae\u0cbf\u0c82\u0c9f\u0ccb \u0c95\u0ca3\u0ccd\u0ca3\u0cbf\u0ca8 \u0c86\u0cb8\u0ccd\u0caa\u0ca4\u0ccd\u0cb0\u0cc6", "ref:nmma": "KR20010694", "type": "multipolygon", "wikidata": "Q6869655"}}]}