{"version": 0.6, "generator": "Overpass API 0.7.62.8 e802775f", "osm3s": {"timestamp_osm_base": "2026-01-13T02:45:59Z", "copyright": "The data included in this document is from www.openstreetmap.org. The data is made available under ODbL."}, "elements": [{"type": "node", "id": 6537176722, "lat": 17.2738453, "lon": 78.5391707, "tags": {"addr:district": "Ranga Reddy", "addr:full": "Near Nadergul Bus Stop", "addr:postcode": "501510", "addr:state": "Telangana", "amenity": "hospital", "name": "Sri Raghavendra Hospital", "source": "OpenGovernmentData"}}, {"type": "node", "id": 6811749174, "lat": 17.2743514, "lon": 78.5953443, "tags": {"addr:district": "Ranga Reddy", "addr:full": "Near Catholic Church, Kammaguda ,Turkayamjal, Hyderabad", "addr:postcode": "501510", "addr:state": "Telangana", "amenity": "hospital", "name": "St Joseph's Hospital", "source": "OpenGovernmentData"}}, {"type": "node", "id": 8230992868, "lat": 17.2996609, "lon": 78.5854994, "tags": {"amenity": "hospital", "healthcare": "hospital"}}, {"type": "node", "id": 8751748313, "lat": 17.3137197, "lon": 78.560974, "tags": {"addr:district": "Rangareddy", "addr:full": "5-8-50/93, Nagarjuna Sagar Road, Sripuram Colony, Highway, B N Reddy Nagar", "addr:postcode": "844118", "addr:state": "Telangana", "amenity": "hospital", "name": "Bhrungi Hospitals", "source": "Local Knowledge"}}, {"type": "node", "id": 11690468635, "lat": 17.3147451, "lon": 78.6007159, "tags": {"amenity": "hospital", "healthcare": "hospital", "name": "appolo medical shop1"}}, {"type": "node", "id": 13373196884, "lat": 17.249763, "lon": 78.5979547, "tags": {"amenity": "hospital", "healthcare": "hospital", "name": "city hoispital"}}]}