{"version": 0.6, "generator": "Overpass API 0.7.62.8 e802775f", "osm3s": {"timestamp_osm_base": "2026-01-12T17:25:35Z", "copyright": "The data included in this document is from www.openstreetmap.org. The data is made available under ODbL."}, "elements": [{"type": "node", "id": 303924572, "lat": 12.9235041, "lon": 77.5857517, "tags": {"amenity": "hospital", "name": "Shanti Hospital", "name:kn": "\u0cb6\u0cbe\u0c82\u0ca4\u0cbf \u0c86\u0cb8\u0ccd\u0caa\u0ca4\u0ccd\u0cb0\u0cc6"}}, {"type": "node", "id": 364629422, "lat": 12.9207173, "lon": 77.5745968, "tags": {"addr:street": "Kanakapura Road", "amenity": "hospital", "name": "JBS Hospital", "name:kn": "\u0c9c\u0cc6 \u0cac\u0cbf \u0c8e\u0cb8\u0ccd \u0c86\u0cb8\u0ccd\u0caa\u0ca4\u0ccd\u0cb0\u0cc6"}}, {"type": "node", "id": 364629734, "lat": 12.9231684, "lon": 77.584433, "tags": {"amenity": "hospital", "check_date": "2025-01-11", "healthcare": "hospital", "name": "Jayanagar heart Centre"}}, {"type": "node", "id": 458105013, "lat": 12.9412769, "lon": 77.5219293}, {"type": "node", "id": 582384953, "lat": 12.9376734, "lon": 77.5802836, "tags": {"addr:district": "Bengaluru Urban", "addr:full": "202, R.V.Road", "addr:postcode": "560001", "addr:state": "Karnataka", "addr:street": "Rashtriya Vidyalaya Road", "amenity": "hospital", "email": "info@Bengaluruhospital.co.in", "healthcare": "hospital", "name": "Bengaluru Hospital, Susruta Medical Aid AndResearch Home Limited", "name:kn": "\u0cac\u0cc6\u0c82\u0c97\u0cb3\u0cc2\u0cb0\u0cc1 \u0c86\u0cb8\u0ccd\u0caa\u0ca4\u0ccd\u0cb0\u0cc6", "operator:type": "private", "source": "OpenGovernmentData", "website": "http://dpal.kar.nic.in/Kanunu%20padakosha%20PDF%20Files/Recognised%20Hospitals.pdf"}}, {"type": "node", "id": 769216417, "lat": 12.9364329, "lon": 77.583477, "tags": {"amenity": "hospital", "healthcare": "hospital", "name": "Ramakrishna Nursing Home and Hospital"}}, {"type": "node", "id": 954623054, "lat": 12.939058, "lon": 77.5510802, "tags": {"addr:city": "bangalore", "addr:housenumber": "8/45", "addr:postcode": "560050", "addr:street": "80 Feet Road, SBM Colony, Near-Bank Colony Bus Stop, Banashankari 1st Stage", "amenity": "hospital", "name": "Sri Vinayaka Poly Clinic", "phone": "080 2672 8455", "source": "justdial"}}, {"type": "node", "id": 1228960966, "lat": 12.90306, "lon": 77.4974982, "tags": {"addr:district": "Bengaluru Urban", "addr:full": "67, Uttarahalli Road, Kengeri", "addr:postcode": "560060", "addr:state": "Karnataka", "amenity": "hospital", "email": "web.enquiries@globalhospitalsindia.com", "healthcare": "hospital", "healthcare:speciality": "multi speciality", "name": "BGS Gleneagles Hospitals", "name:kn": "\u0cac\u0cbf\u0c9c\u0cbf\u0c8e\u0cb8\u0ccd \u0c86\u0cb8\u0ccd\u0caa\u0ca4\u0ccd\u0cb0\u0cc6", "operator:type": "private", "source": "OpenGovernmentData", "website": "https://bgsgleneaglesglobalhospitalbengaluru.com/"}}, {"type": "node", "id": 1272424543, "lat": 12.9073391, "lon": 77.5830655, "tags": {"addr:street": "29 Main", "address": "593 14th cross 29th main", "amenity": "hospital", "designation": "Clinic", "emergency": "no", "name": "Srinivas Clinic", "name:kn": "\u0cb6\u0ccd\u0cb0\u0cc0\u0ca8\u0cbf\u0cb5\u0cbe\u0cb8\u0ccd \u0c95\u0ccd\u0cb2\u0cbf\u0ca8\u0cbf\u0c95\u0ccd"}}, {"type": "node", "id": 1318987638, "lat": 12.8915893, "lon": 77.560715, "tags": {"amenity": "hospital", "emergency": "yes", "name": "Metro Hospital"}}, {"type": "node", "id": 1331946750, "lat": 12.9111686, "lon": 77.5795767}, {"type": "node", "id": 1331946751, "lat": 12.9110875, "lon": 77.5799978}, {"type": "node", "id": 1331946769, "lat": 12.9108601, "lon": 77.5800058}, {"type": "node", "id": 1331946771, "lat": 12.9109254, "lon": 77.5795391}, {"type": "node", "id": 1440343668, "lat": 12.942614, "lon": 77.5854533, "tags": {"addr:district": "Bengaluru Urban", "addr:full": "34, 10Th Main 1st Block, Jayanagar", "addr:postcode": "560011", "addr:state": "Karnataka", "amenity": "hospital", "name": "Maiya Multispecialty Hospital", "source": "OpenGovernmentData", "wheelchair": "yes"}}, {"type": "node", "id": 1462175435, "lat": 12.908504, "lon": 77.5139924}, {"type": "node", "id": 1462175436, "lat": 12.9084491, "lon": 77.5138596}, {"type": "node", "id": 1462175438, "lat": 12.9095733, "lon": 77.5134841}, {"type": "node", "id": 1462175439, "lat": 12.909345, "lon": 77.5142567}, {"type": "node", "id": 1462175441, "lat": 12.9090664, "lon": 77.5132532}, {"type": "node", "id": 1462175447, "lat": 12.9084727, "lon": 77.5130697}, {"type": "node", "id": 1462175448, "lat": 12.9081947, "lon": 77.5137658}, {"type": "node", "id": 1463555571, "lat": 12.930936, "lon": 77.5153776, "tags": {"addr:district": "Bengaluru Urban", "addr:full": "No. 484/A, Ideal Homes Township, 18th Main Road, Rajarajeshwarinagar", "addr:postcode": "560098", "addr:state": "Karnataka", "amenity": "hospital", "name": "Rc Hospital", "source": "OpenGovernmentData"}}, {"type": "node", "id": 1463563608, "lat": 12.9263226, "lon": 77.5156579, "tags": {"amenity": "hospital", "name": "Veturi Child Health Centre"}}, {"type": "node", "id": 1464035837, "lat": 12.9246977, "lon": 77.5004222}, {"type": "node", "id": 1464035839, "lat": 12.9244782, "lon": 77.5006593}, {"type": "node", "id": 1466477036, "lat": 12.9256842, "lon": 77.5489346, "tags": {"addr:district": "Bengaluru Urban", "addr:full": "No:114, 100 Feet Ring Road, 3Road Stage Banashankari", "addr:postcode": "560085", "addr:state": "Karnataka", "amenity": "hospital", "emergency": "yes", "name": "Udhbhava Hospital", "name:kn": "\u0c89\u0ca6\u0ccd\u0cad\u0cb5 \u0c86\u0cb8\u0ccd\u0caa\u0ca4\u0ccd\u0cb0\u0cc6", "source": "OpenGovernmentData"}}, {"type": "node", "id": 1466576385, "lat": 12.9206648, "lon": 77.5598673, "tags": {"addr:district": "Bengaluru Urban", "addr:full": "274 / 275, M K Puttalingaiah Road, Padmanabhanagar", "addr:postcode": "560073", "addr:state": "Karnataka", "amenity": "hospital", "emergency": "yes", "name": "DG Hospital", "operator:type": "private", "source": "OpenGovernmentData", "website": "http://dpal.kar.nic.in/Kanunu%20padakosha%20PDF%20Files/Recognised%20Hospitals.pdf"}}, {"type": "node", "id": 1467778591, "lat": 12.9336501, "lon": 77.5660602, "tags": {"amenity": "hospital", "emergency": "yes", "name": "Kangila Clinic"}}, {"type": "node", "id": 1468296636, "lat": 12.9410014, "lon": 77.5454222}, {"type": "node", "id": 1468296638, "lat": 12.9408975, "lon": 77.5456958}, {"type": "node", "id": 1468296641, "lat": 12.9409341, "lon": 77.5454222}, {"type": "node", "id": 1468296642, "lat": 12.9410197, "lon": 77.545551}, {"type": "node", "id": 1468296644, "lat": 12.9410249, "lon": 77.5457012}, {"type": "node", "id": 1468296645, "lat": 12.9409184, "lon": 77.5455644}, {"type": "node", "id": 1473997305, "lat": 12.9162804, "lon": 77.5798278}, {"type": "node", "id": 1473997310, "lat": 12.9162881, "lon": 77.5793963}, {"type": "node", "id": 1473997317, "lat": 12.9166469, "lon": 77.5794031}, {"type": "node", "id": 1474062996, "lat": 12.9266424, "lon": 77.5774782}, {"type": "node", "id": 1474062998, "lat": 12.9271858, "lon": 77.5774895}, {"type": "node", "id": 1474277938, "lat": 12.9135707, "lon": 77.5788941, "tags": {"addr:street": "Ayodhyarama Road", "amenity": "hospital", "name": "Parimala Clinic", "name:kn": "\u0caa\u0cb0\u0cbf\u0cae\u0cb3 \u0c9a\u0cbf\u0c95\u0cbf\u0ca4\u0ccd\u0cb8\u0cbe\u0cb2\u0caf"}}, {"type": "node", "id": 1551996910, "lat": 12.9307467, "lon": 77.5415644}, {"type": "node", "id": 1551996911, "lat": 12.9311353, "lon": 77.5410146}, {"type": "node", "id": 1551996916, "lat": 12.9308423, "lon": 77.5408805}, {"type": "node", "id": 1551996934, "lat": 12.93049, "lon": 77.5414278}, {"type": "node", "id": 1812673570, "lat": 12.9202791, "lon": 77.5598033, "tags": {"addr:district": "Bengaluru Urban", "addr:full": "No. 277, M.K. Puttalingaiah Road, Padmanabha Nagar", "addr:postcode": "560070", "addr:state": "Karnataka", "amenity": "hospital", "emergency": "yes", "name": "Yogananda Medical and Research Centre", "source": "OpenGovernmentData"}}, {"type": "node", "id": 1835530203, "lat": 12.9089008, "lon": 77.5129805}, {"type": "node", "id": 1905152108, "lat": 12.9411061, "lon": 77.5850591, "tags": {"amenity": "hospital", "emergency": "no", "name": "Kottakkal Arya Vaidya Sala", "source": "survey"}}, {"type": "node", "id": 2002686385, "lat": 12.8807554, "lon": 77.5841671, "tags": {"addr:district": "Bengaluru Urban", "addr:full": "Kothanur Dinne Main Road,Sapthagiri Layout,OppositeFabricana Factory,J.P.Ngar,8Th Phase", "addr:postcode": "560078", "addr:state": "Karnataka", "amenity": "hospital", "name": "T.R.Hospital", "source": "OpenGovernmentData"}}, {"type": "node", "id": 2012122119, "lat": 12.891484, "lon": 77.5816961, "tags": {"amenity": "hospital", "emergency": "yes", "healthcare": "hospital", "name": "Rainbow Clinic and Diagnostic Laboratory"}}, {"type": "node", "id": 2122595759, "lat": 12.8845448, "lon": 77.5701276, "tags": {"addr:district": "Bengaluru Rural", "addr:full": "#3, 6 th Cross, Old Bank Colony, Konanakunte", "addr:postcode": "560062", "addr:state": "Karnataka", "amenity": "hospital", "healthcare": "hospital", "name": "Rajnandani Hospital, Bangalore", "source": "OpenGovernmentData"}}, {"type": "node", "id": 2123564200, "lat": 12.915903, "lon": 77.5550223, "tags": {"addr:district": "Bengaluru Urban", "addr:full": "15Th Main, 17Th Cross Padmanabhanagar", "addr:postcode": "560070", "addr:state": "Karnataka", "amenity": "hospital", "emergency": "yes", "name": "Maharaja Agrasen Hospital, Bengaluru Urban", "source": "OpenGovernmentData"}}, {"type": "node", "id": 2123630630, "lat": 12.9231342, "lon": 77.5642974, "tags": {"addr:district": "Bengaluru Urban", "addr:full": "17Th, Main,27Th Cross, Banashankari 2nd Stage, South", "addr:postcode": "560070", "addr:state": "Karnataka", "amenity": "hospital", "healthcare": "hospital", "name": "Banashankari Referral Hospital", "source": "OpenGovernmentData"}}, {"type": "node", "id": 2124813862, "lat": 12.9179548, "lon": 77.555816, "tags": {"amenity": "hospital", "name": "Bangalore Kidney Foundation - NU Hospital"}}, {"type": "node", "id": 2484900084, "lat": 12.9436624, "lon": 77.5419997, "tags": {"addr:city": "Bangalore", "addr:housename": "Near BDA Park", "addr:housenumber": "63", "addr:postcode": "560085", "addr:street": "6th Main Road", "amenity": "hospital", "name": "Shalini Nursing & MAternity Home"}}, {"type": "node", "id": 2649089255, "lat": 12.9172238, "lon": 77.5849242}, {"type": "node", "id": 2649089256, "lat": 12.9172158, "lon": 77.5852762}, {"type": "node", "id": 2649089257, "lat": 12.9174445, "lon": 77.5849295}, {"type": "node", "id": 2649089258, "lat": 12.9174365, "lon": 77.5852815}, {"type": "node", "id": 2932851733, "lat": 12.9169288, "lon": 77.5592568, "tags": {"addr:city": "Bangalore", "addr:district": "Bengaluru Urban", "addr:full": "No. 30, Pavana Dhama, 80 Feet Main Road,Opposite Nilgiris,Padmanabha Nagar", "addr:postcode": "560070", "addr:state": "Karnataka", "amenity": "hospital", "healthcare": "hospital", "name": "Dr.Agarwal's Eye Hospital Ltd, Padmanabha Nagar", "operator": "Dr. Agarwal's Eye Hospital", "operator:wikidata": "Q17052044", "source": "OpenGovernmentData"}}, {"type": "node", "id": 2984295033, "lat": 12.9184617, "lon": 77.5555842, "tags": {"addr:district": "Bengaluru Urban", "addr:full": "Thimmaiah Road, Padmanabhanagar, Bengaluru", "addr:postcode": "560070", "addr:state": "Karnataka", "amenity": "hospital", "name": "Shraddha Eye Care", "source": "Local Knowledge"}}, {"type": "node", "id": 3004275434, "lat": 12.931334, "lon": 77.5154779, "tags": {"addr:district": "Bengaluru Urban", "addr:full": "#483, 16 Th Cross, 8 Th Main", "addr:postcode": "560098", "addr:state": "Karnataka", "addr:subdistrict": "Rajarajeswarinagar", "amenity": "hospital", "healthcare": "doctor", "healthcare:speciality": "ophthalmology", "name": "Vasan Eye Care Hospital, Rajarajeswari Nagar", "operator:type": "private", "source": "OpenGovernmentData", "website": "http://www.vasaneye.in/"}}, {"type": "node", "id": 3016090364, "lat": 12.9055088, "lon": 77.5858347, "tags": {"addr:city": "bangalore", "addr:housenumber": "250", "addr:postcode": "560078", "addr:street": "24th Main, 5th Phase, Opp Nandini Hotel, Puttenhalli, JP Nagar", "amenity": "hospital", "name": "Cloud Nine Fertility", "name:kn": "\u0c95\u0ccd\u0cb2\u0ccc\u0ca1\u0ccd \u0ca8\u0cc8\u0ca8\u0ccd \u0cab\u0cb0\u0ccd\u0c9f\u0cbf\u0cb2\u0cbf\u0c9f\u0cbf", "phone": "080 4350 0123", "source": "justdial", "website": "https://www.cloudninefertility.com/", "wheelchair": "limited"}}, {"type": "node", "id": 3037310855, "lat": 12.8827229, "lon": 77.5466715, "tags": {"addr:city": "Bangalore", "addr:housenumber": "28", "addr:postcode": "560062", "addr:street": "Kanakapura Road", "amenity": "hospital", "healthcare": "hospital", "name": "Aikya Healthcare"}}, {"type": "node", "id": 3039639118, "lat": 12.9417609, "lon": 77.5676447}, {"type": "node", "id": 3100475907, "lat": 12.8840897, "lon": 77.5664029, "tags": {"addr:district": "Bangalore", "addr:full": "PARK, NEAR PARK", "addr:postcode": "560062", "addr:state": "Karnataka", "addr:subdistrict": "Bangalore South", "amenity": "hospital", "contact:phone": "8026323311", "healthcare": "hospital", "name": "Konanakunte Government Hospital", "source": "OpenGovernmentData"}}, {"type": "node", "id": 3118322042, "lat": 12.9293654, "lon": 77.5639296}, {"type": "node", "id": 3118322043, "lat": 12.9293415, "lon": 77.5640447}, {"type": "node", "id": 3118322044, "lat": 12.9295056, "lon": 77.5640805}, {"type": "node", "id": 3118322045, "lat": 12.9295294, "lon": 77.5639654}, {"type": "node", "id": 3118790621, "lat": 12.9364674, "lon": 77.5841345}, {"type": "node", "id": 3118790622, "lat": 12.9361197, "lon": 77.5841318}, {"type": "node", "id": 3118790623, "lat": 12.9360962, "lon": 77.5845073}, {"type": "node", "id": 3118790624, "lat": 12.9362321, "lon": 77.5845529}, {"type": "node", "id": 3118790625, "lat": 12.9364595, "lon": 77.5845503}, {"type": "node", "id": 3121618244, "lat": 12.9218676, "lon": 77.5719475}, {"type": "node", "id": 3121618245, "lat": 12.9215947, "lon": 77.5718802}, {"type": "node", "id": 3121618246, "lat": 12.921477, "lon": 77.5723822}, {"type": "node", "id": 3121618247, "lat": 12.9217499, "lon": 77.5724495}, {"type": "node", "id": 3121629369, "lat": 12.9253799, "lon": 77.5772433}, {"type": "node", "id": 3121629370, "lat": 12.9252275, "lon": 77.5772421}, {"type": "node", "id": 3121629372, "lat": 12.9253774, "lon": 77.5775707}, {"type": "node", "id": 3388805879, "lat": 12.9413723, "lon": 77.5220207}, {"type": "node", "id": 3425328776, "lat": 12.9406537, "lon": 77.5678462}, {"type": "node", "id": 3425328780, "lat": 12.9414736, "lon": 77.5678339}, {"type": "node", "id": 3535301811, "lat": 12.9264501, "lon": 77.5807661}, {"type": "node", "id": 3535301812, "lat": 12.9264501, "lon": 77.5809123}, {"type": "node", "id": 3535301845, "lat": 12.926569, "lon": 77.5807661}, {"type": "node", "id": 3535301846, "lat": 12.926569, "lon": 77.5809123}, {"type": "node", "id": 3544299986, "lat": 12.9391198, "lon": 77.5512468}, {"type": "node", "id": 3544300103, "lat": 12.9391862, "lon": 77.5514089}, {"type": "node", "id": 3544300106, "lat": 12.9391903, "lon": 77.5512164}, {"type": "node", "id": 3544300124, "lat": 12.9392567, "lon": 77.5513785}, {"type": "node", "id": 3570997782, "lat": 12.925225, "lon": 77.5775695}, {"type": "node", "id": 3570997943, "lat": 12.9261251, "lon": 77.5777697}, {"type": "node", "id": 3570997945, "lat": 12.9261338, "lon": 77.5772486}, {"type": "node", "id": 3570997969, "lat": 12.9263134, "lon": 77.577773}, {"type": "node", "id": 3570997970, "lat": 12.9263221, "lon": 77.5772519}, {"type": "node", "id": 3719549886, "lat": 12.9159249, "lon": 77.5856011, "tags": {"addr:district": "Bengaluru Urban", "addr:full": "Jayanagar, J P Nagar, Bengaluru", "addr:postcode": "560041", "addr:state": "Karnataka", "amenity": "hospital", "healthcare": "clinic", "healthcare:speciality": "fertility", "name": "Milann Fertility Center", "source": "Local Knowledge"}}, {"type": "node", "id": 4397421787, "lat": 12.9074635, "lon": 77.5651851}, {"type": "node", "id": 4397421788, "lat": 12.9074713, "lon": 77.565228}, {"type": "node", "id": 4397421789, "lat": 12.9074791, "lon": 77.5651261}, {"type": "node", "id": 4397421791, "lat": 12.9075079, "lon": 77.5653004}, {"type": "node", "id": 4397421798, "lat": 12.9077406, "lon": 77.5652227}, {"type": "node", "id": 4397421799, "lat": 12.9078033, "lon": 77.5650456}, {"type": "node", "id": 4397421803, "lat": 12.9079654, "lon": 77.5652093}, {"type": "node", "id": 4397421804, "lat": 12.9079837, "lon": 77.5650242}, {"type": "node", "id": 4397421812, "lat": 12.9082321, "lon": 77.5650698}, {"type": "node", "id": 4397421813, "lat": 12.9082504, "lon": 77.5652441}, {"type": "node", "id": 4397421814, "lat": 12.9082556, "lon": 77.56511}, {"type": "node", "id": 4397421815, "lat": 12.9082713, "lon": 77.5651798}, {"type": "node", "id": 4443301971, "lat": 12.9151071, "lon": 77.5624888, "tags": {"addr:city": "bangalore", "addr:housenumber": "5", "addr:postcode": "560050", "addr:street": "80 feet road,banashankari", "amenity": "hospital", "name": "NRS Medical & Dental Specialists Centre", "phone": "08026696054"}}, {"type": "node", "id": 4444989840, "lat": 12.9390944, "lon": 77.5619057, "tags": {"addr:city": "bangalore", "addr:housenumber": "11/2", "addr:postcode": "560079", "addr:street": "Magadi Main Road", "amenity": "hospital", "name": "Sarvodaya Hospital", "name:kn": "\u0cb8\u0cb0\u0ccd\u0cb5\u0ccb\u0ca6\u0caf \u0c86\u0cb8\u0ccd\u0caa\u0ca4\u0ccd\u0cb0\u0cc6", "phone": "098440 74946"}}, {"type": "node", "id": 4446881168, "lat": 12.9378359, "lon": 77.5573329, "tags": {"addr:city": "Bangalore", "addr:housenumber": "5", "addr:postcode": "560050", "addr:street": "80 Feet Road, 1st Stage, Srinivasa Nagar, Banashankari", "amenity": "hospital", "name": "\" NRS Medical & Dental Specialists Centre\"", "phone": "080-26696054"}}, {"type": "node", "id": 4446891375, "lat": 12.9386994, "lon": 77.5518394, "tags": {"addr:city": "bangalore", "addr:district": "Bengaluru Urban", "addr:housenumber": "60", "addr:postcode": "560050", "addr:state": "Karnataka", "addr:street": "2nd Main, Bsk 1st Stage, 80 Feet Road, Srinivasa Nagar,Sree Manjunatha Temple Street", "amenity": "hospital", "name": "Chiranjeevi Hospital & Maternity Home", "phone": "080 2691 7676", "source": "OpenGovernmentData"}}, {"type": "node", "id": 4446893667, "lat": 12.9373748, "lon": 77.5494778, "tags": {"addr:city": "bangalore", "addr:district": "Bengaluru Urban", "addr:full": "110, 1st Main, Sbm Colony, Bsk 1st Stage Hanumantha Nagar", "addr:housenumber": "110", "addr:postcode": "560050", "addr:state": "Karnataka", "addr:street": "State Bank Of Mysore Colony, 1st Stage,80 Feet Road,, Banashankari", "amenity": "hospital", "name": "Vinayaka Hospital, Hanumantha Nagar", "operator:type": "private", "phone": "080 2679 6167", "source": "OpenGovernmentData", "website": "http://dpal.kar.nic.in/Kanunu%20padakosha%20PDF%20Files/Recognised%20Hospitals.pdf"}}, {"type": "node", "id": 4446894388, "lat": 12.9354293, "lon": 77.5477956, "tags": {"addr:city": "Banglore", "addr:housenumber": "788", "addr:postcode": "560050", "addr:street": "11th Cross, 2nd Main, 80ft Main Road, SBM Colony, Giri Nagar 4th Phase", "amenity": "hospital", "name": "Diavista Diabetes & Multispeciality Hospital", "phone": "080 4096 9392", "source": "justdail", "website": "diavista.co.in"}}, {"type": "node", "id": 4446897063, "lat": 12.9420715, "lon": 77.553698, "tags": {"addr:city": "Bengaluru", "addr:housenumber": "979/A", "addr:postcode": "560085", "addr:street": "50 Feet Road", "amenity": "hospital", "name": "Meenakshi Hospital", "name:kn": "\u0cae\u0cc0\u0ca8\u0cbe\u0c95\u0ccd\u0cb7\u0cbf \u0c86\u0cb8\u0ccd\u0caa\u0ca4\u0ccd\u0cb0\u0cc6", "phone": "+918026755800"}}, {"type": "node", "id": 4446899253, "lat": 12.9408667, "lon": 77.5603657, "tags": {"addr:city": "bangalore", "addr:district": "Bengaluru Urban", "addr:full": "#795/1, 9Th Main ,Bsk 1st, Stage,2nd Block,Hanumantha Nagar", "addr:housenumber": "795/1", "addr:postcode": "560050", "addr:state": "Karnataka", "addr:street": "9th Main, 2nd Block, Hanumantha Nagar, Near-Shaneshwara Temple Road, Banashankari 1st Stage", "amenity": "hospital", "name": "Medi-Tech Multi Speciality Hospital", "phone": "080 2660 2910", "source": "OpenGovernmentData"}}, {"type": "node", "id": 4446900247, "lat": 12.9420124, "lon": 77.5506918, "tags": {"addr:city": "bangalore", "addr:housenumber": "237/37", "addr:postcode": "560050", "addr:street": "Nagendra Block, 50ft Road, 10th Main Rd, Srinagar, Banashankari", "amenity": "hospital", "name": "Kusuma Hospital", "phone": "080 2642 1177", "source": "justdail"}}, {"type": "node", "id": 4446907220, "lat": 12.9274553, "lon": 77.5516293, "tags": {"addr:city": "Bangalore", "addr:housenumber": "165", "addr:postcode": "560085", "addr:street": "1st Main Road, Kathreguppe Cross Road, Kathreguppe, Banashankari 3rd Stage", "amenity": "hospital", "name": "Ring Road Hospital", "phone": "080 2679 7040", "source": "just dial"}}, {"type": "node", "id": 4446907712, "lat": 12.9389007, "lon": 77.5438808, "tags": {"addr:city": "bangalore", "addr:housenumber": "5/8/1", "addr:postcode": "560085", "addr:street": "20th Main Road, Muneshwara Block, Girinagar, 1st phase Girinagar, Kadavanthra, Banashankari", "amenity": "hospital", "name": "Pulse Multispecialty Hospital", "phone": "080 2672 4466", "source": "just dial"}}, {"type": "node", "id": 4446909294, "lat": 12.9316792, "lon": 77.5450887, "tags": {"addr:city": "bangalore", "addr:housenumber": "103,994", "addr:postcode": "560085", "addr:street": ",2nd Main,1st Block,4th Phase,Kathriguppe,BSK 3rd Stage, Water Tank Road, Banashankari", "amenity": "hospital", "name": "Surya Galaxy Hospital", "phone": "080 2642 1051", "source": "just dial"}}, {"type": "node", "id": 4447156427, "lat": 12.9062193, "lon": 77.580682, "tags": {"addr:city": "Bengaluru", "addr:district": "Bengaluru Urban", "addr:full": "#726, 17Th Cross, 6Th Phase, J.P. Nagar", "addr:housenumber": "5", "addr:postcode": "560078", "addr:state": "Karnataka", "addr:street": "Outer Ring Rd, Rose Garden, JP Nagar Phase 6, JP Nagar,", "amenity": "hospital", "name": "Green City Hospital, Bengaluru Urban", "name:kn": "\u0c97\u0ccd\u0cb0\u0cc0\u0ca8\u0ccd \u0cb8\u0cbf\u0c9f\u0cbf \u0c86\u0cb8\u0ccd\u0caa\u0ca4\u0ccd\u0cb0\u0cc6", "phone": "080 2653 6222", "source": "OpenGovernmentData"}}, {"type": "node", "id": 4447273084, "lat": 12.9312101, "lon": 77.5756907, "tags": {"addr:city": "Bangalore", "addr:postcode": "560078", "addr:street": "Mnr Arcade, Saraki Gate, Kanakapura Road, Saraki Gate", "amenity": "hospital", "healthcare": "hospital", "name": "Oxford Hospital", "phone": "080 2245 2500", "source": "justdial"}}, {"type": "node", "id": 4447383325, "lat": 12.9039905, "lon": 77.5859569, "tags": {"addr:city": "bangalore", "addr:housenumber": "9", "addr:postcode": "560078", "addr:street": "24th Main Rd, KR Layout, 1st Phase, JP Nagar", "amenity": "hospital", "name": "M N Speciality Clinic", "name:kn": "\u0c8e\u0cae\u0ccd \u0c8e\u0ca8\u0ccd \u0cb8\u0ccd\u0caa\u0cc6\u0cb6\u0cbe\u0cb2\u0cbf\u0c9f\u0cbf \u0c95\u0ccd\u0cb2\u0cbf\u0ca8\u0cbf\u0c95\u0ccd", "phone": "080 2653 0121"}}, {"type": "node", "id": 4448118314, "lat": 12.924274, "lon": 77.5680927, "tags": {"addr:city": "Bangalore", "addr:housenumber": "#3", "addr:postcode": "560068", "addr:street": "Ground Floor, 1st Phase, 2nd Stage, Oppo. Ias Colony Ground, BTM Layout, Mahadeshwara Nagar, Stage 2, BTM 2nd Stage", "amenity": "hospital", "emergency": "yes", "name": "Dr Lal PathLabs", "phone": "080 4091 6014", "source": "http://www.bangalorean.co.in/", "website": "https://www.lalpathlabs.com/"}}, {"type": "node", "id": 4456339090, "lat": 12.8943049, "lon": 77.5682821, "tags": {"addr:district": "Bengaluru Urban", "addr:full": "No.6 J.C.Industrial Area, Yelechenahalli", "addr:postcode": "560062", "addr:state": "Karnataka", "addr:street": "Kanakapura Road", "addr:subdistrict": "Kanakpura", "amenity": "hospital", "name": "Sri Sai Ram Hospital", "name:en": "Sri Sai Ram Hospital", "name:kn": "\u0cb6\u0ccd\u0cb0\u0cc0 \u0cb8\u0cbe\u0caf\u0cbf \u0cb0\u0cbe\u0cae \u0c86\u0cb8\u0ccd\u0caa\u0ca4\u0ccd\u0cb0\u0cc6", "operator:type": "private", "source": "OpenGovernmentData", "website": "http://www.srisairamhospital.com/"}}, {"type": "node", "id": 4547191103, "lat": 12.9056092, "lon": 77.5426964, "tags": {"addr:postcode": "560061", "addr:street": "Dr. Vishnuvardhan Road", "amenity": "hospital", "healthcare": "hospital", "name": "Nagarathna Hospital", "name:kn": "\u0ca8\u0cbe\u0c97\u0cb0\u0ca4\u0ccd\u0ca8"}}, {"type": "node", "id": 4578753189, "lat": 12.9306876, "lon": 77.5794541, "tags": {"addr:housenumber": "46", "addr:postcode": "560082", "addr:street": "3 Main Road", "amenity": "hospital", "email": "radiologylucid@gmail.com", "healthcare": "hospital", "internet_access": "wlan", "name": "Lucid Medical Diagnostics", "opening_hours": "24/7", "phone": "08049364444", "website": "https://luciddiagnostics.com/"}}, {"type": "node", "id": 4609603646, "lat": 12.9168014, "lon": 77.5851878, "tags": {"addr:district": "Bengaluru Urban", "addr:full": "No.25, 46th Cross, 5th Block, Jayanagar", "addr:postcode": "560011", "addr:state": "Karnataka", "amenity": "hospital", "email": "contactus@apollocradle.com", "healthcare": "hospital", "name": "Apollo Bengaluru Cradle Limited, Jayanagar", "operator:type": "private", "source": "OpenGovernmentData", "website": "https://www.apollocradle.com/"}}, {"type": "node", "id": 4884890996, "lat": 12.9376934, "lon": 77.5694845}, {"type": "node", "id": 4884890997, "lat": 12.9379575, "lon": 77.5699754}, {"type": "node", "id": 4884890998, "lat": 12.93776, "lon": 77.5700872}, {"type": "node", "id": 4884890999, "lat": 12.9374959, "lon": 77.5695964}, {"type": "node", "id": 5234739990, "lat": 12.933223, "lon": 77.5842632, "tags": {"addr:city": "Bangalore", "addr:district": "Bengaluru Urban", "addr:full": "No.1537/1, 9th Main Road, 3rd Block, Jayanagar", "addr:housenumber": "1537/1", "addr:postcode": "560011", "addr:state": "Karnataka", "addr:street": "9th Main Road", "addr:suburb": "Jayanagar 3rd Block", "amenity": "hospital", "email": "infokpcpt@gmail.com", "healthcare": "hospital", "name": "Nature Cure Hospital", "opening_hours": "We-Mo 07:00-12:00,13:00-18:00", "operator:type": "private", "phone": "+91 80 2663 1945;+91 80 2244 6035", "source": "OpenGovernmentData", "website": "https://www.jayanagarnaturecure.in/"}}, {"type": "node", "id": 5277512112, "lat": 12.9138086, "lon": 77.5273633, "tags": {"amenity": "hospital", "name": "Usha Vikranth Diagnostic Center and Hospital"}}, {"type": "node", "id": 6442518238, "lat": 12.9416008, "lon": 77.5678464}, {"type": "node", "id": 6442518239, "lat": 12.9420317, "lon": 77.567355}, {"type": "node", "id": 6442518240, "lat": 12.9417076, "lon": 77.5670895}, {"type": "node", "id": 6442518241, "lat": 12.9415246, "lon": 77.5673389}, {"type": "node", "id": 6442518242, "lat": 12.940641, "lon": 77.5673336}, {"type": "node", "id": 6531332483, "lat": 12.9248001, "lon": 77.500522}, {"type": "node", "id": 6531332484, "lat": 12.9246684, "lon": 77.5006643}, {"type": "node", "id": 6531332485, "lat": 12.9247366, "lon": 77.5007308}, {"type": "node", "id": 6531332486, "lat": 12.9246489, "lon": 77.5008256}, {"type": "node", "id": 6852266953, "lat": 12.9158516, "lon": 77.5593919, "tags": {"addr:district": "Bengaluru Urban", "addr:full": "Padmanabhanagar, Bengaluru", "addr:postcode": "560070", "addr:state": "Karnataka", "amenity": "hospital", "healthcare": "hospital", "name": "Yogananda Multi Speciality Hospital", "name:kn": "\u0caf\u0ccb\u0c97\u0ca8\u0c82\u0ca6 \u0c86\u0cb8\u0ccd\u0caa\u0ca4\u0ccd\u0cb0\u0cc6", "source": "Local Knowledge"}}, {"type": "node", "id": 6937814427, "lat": 12.9376087, "lon": 77.5666429, "tags": {"addr:district": "Bengaluru Urban", "addr:full": "#118, 5 Th Main , 7Th Cross, N R Colony , Bull Temple Road", "addr:postcode": "560019", "addr:state": "Karnataka", "amenity": "hospital", "name": "Balaji Hospital and Gastroenterology Center", "source": "OpenGovernmentData"}}, {"type": "node", "id": 6938544594, "lat": 12.9166392, "lon": 77.5798346}, {"type": "node", "id": 6938692472, "lat": 12.8919509, "lon": 77.5799654, "tags": {"addr:district": "Bengaluru Urban", "addr:full": "No.2, Chandra Complex,J.P.Nagar, 7Th Phase,Puttenahalli,OppositeRbi Cly", "addr:postcode": "560078", "addr:state": "Karnataka", "amenity": "hospital", "healthcare": "hospital", "name": "Supra South City Hospital", "source": "OpenGovernmentData"}}, {"type": "node", "id": 6938708338, "lat": 12.9215013, "lon": 77.5655432, "tags": {"addr:district": "Bengaluru Urban", "addr:full": "No 154, 17 Th Main, 29 Th Cross, Near Bnm Institution", "addr:postcode": "560070", "addr:state": "Karnataka", "amenity": "hospital", "healthcare": "hospital", "name": "Sri Krishna Hospital", "source": "OpenGovernmentData"}}, {"type": "node", "id": 6938727983, "lat": 12.9256932, "lon": 77.5773127, "tags": {"addr:district": "Bengaluru Urban", "addr:full": "256/14, Kanakapura Main Road, 7th Block, Jayanagar", "addr:postcode": "560082", "addr:state": "Karnataka", "amenity": "hospital", "healthcare:speciality": "ophthalmology", "name": "Nethradhama Superspeciality Eye Hospital, Jayanagar", "operator:type": "private", "source": "OpenGovernmentData", "website": "https://www.nethradhama.org/"}}, {"type": "node", "id": 6938772336, "lat": 12.9118831, "lon": 77.5528805, "tags": {"addr:district": "Bengaluru Urban", "addr:full": "Dr.Gurappa Naidu Complex, Opposite Komarla Brigade Residency. Uttarahalli Main Road, Chikkalasandra", "addr:postcode": "560063", "addr:state": "Karnataka", "amenity": "hospital", "healthcare": "hospital", "name": "C.S. Hospital", "source": "OpenGovernmentData"}}, {"type": "node", "id": 6938775854, "lat": 12.9406698, "lon": 77.5644596, "tags": {"addr:district": "Bengaluru Urban", "addr:full": "No.10/4 & 10/5, 3Road Main Road, Hanumanthanagar", "addr:postcode": "560019", "addr:state": "Karnataka", "amenity": "hospital", "name": "Vishwabharathi Hospital Pvt. Ltd", "source": "OpenGovernmentData"}}, {"type": "node", "id": 6938775855, "lat": 12.9404548, "lon": 77.5578493, "tags": {"addr:district": "Bengaluru Urban", "addr:full": "No 519/34, 2nd Cross 10Th Main, Bsk 1st Stage Banashankari", "addr:postcode": "560050", "addr:state": "Karnataka", "amenity": "hospital", "name": "Sunetra Eye Hospital, Bengaluru Urban", "source": "OpenGovernmentData"}}, {"type": "node", "id": 6938775856, "lat": 12.9253299, "lon": 77.5711893, "tags": {"addr:district": "Bengaluru Urban", "addr:full": "No. 39, 8Th B Main Raod, Bsk 2nd Stage", "addr:postcode": "560070", "addr:state": "Karnataka", "amenity": "hospital", "name": "Sri Vivekananda Sevashrama", "source": "OpenGovernmentData"}}, {"type": "node", "id": 6938775857, "lat": 12.9276382, "lon": 77.568896, "tags": {"addr:district": "Bengaluru Urban", "addr:full": "# 39, 17Thc Cross, 8Thb Main, Banashankari Ii Stage", "addr:postcode": "560070", "addr:state": "Karnataka", "amenity": "hospital", "name": "Saraswathi Hospital", "name:kn": "\u0cb8\u0cb0\u0cb8\u0ccd\u0cb5\u0ca4\u0cbf \u0c86\u0cb8\u0ccd\u0caa\u0ca4\u0ccd\u0cb0\u0cc6", "source": "OpenGovernmentData"}}, {"type": "node", "id": 6938777925, "lat": 12.9291283, "lon": 77.5461361, "tags": {"addr:district": "Bengaluru Urban", "addr:full": "No.160, 1st Floor,Rashi Complex,2nd Stage,2nd Block,Near Bda Complex, Nagarabhavi", "addr:postcode": "560072", "addr:state": "Karnataka", "amenity": "hospital", "name": "Netraspandana Healthcare and Research Pvt. Ltd", "source": "OpenGovernmentData"}}, {"type": "node", "id": 6938777945, "lat": 12.9176216, "lon": 77.5550705, "tags": {"addr:district": "Bengaluru Urban", "addr:full": "Bkf Chand , Nephro- Urology Centre, Ca - 6,15Th, Main Street, 11Th Cross, Padmanabhanagar", "addr:postcode": "560070", "addr:state": "Karnataka", "amenity": "hospital", "name": "Nu Trust", "source": "OpenGovernmentData"}}, {"type": "node", "id": 6938783140, "lat": 12.9278657, "lon": 77.5519297, "tags": {"addr:district": "Bengaluru Urban", "addr:full": "#129, 1 Main Road, Kattriguppe, Banashankari Iii Stage", "addr:postcode": "560085", "addr:state": "Karnataka", "amenity": "hospital", "name": "Ring Road Hospital", "source": "OpenGovernmentData"}}, {"type": "node", "id": 6938876210, "lat": 12.9103393, "lon": 77.5732398, "tags": {"addr:district": "Bengaluru Urban", "addr:full": "Plot No.2(A-2) A Type Bbmp No.57-64-2, Shivana Arcade", "addr:postcode": "560078", "addr:state": "Karnataka", "amenity": "hospital", "healthcare": "hospital", "name": "Vasan Eye Care Hospital, Sarakki", "operator:type": "private", "source": "OpenGovernmentData", "website": "http://www.vasaneye.in/"}}, {"type": "node", "id": 6938995621, "lat": 12.9163994, "lon": 77.5847384, "tags": {"addr:district": "Bengaluru Urban", "addr:full": "909, 47Th Cross, 9Thmain, 5Th Block, Opposite Adarshapalace Apts And Near Raghavendra Matha, Jayanagar", "addr:postcode": "560041", "addr:state": "Karnataka", "amenity": "hospital", "healthcare": "hospital", "name": "Dr Kamini Rao Hospital(A Unit Of Bacc Health Care Pvt Ltd)", "source": "OpenGovernmentData"}}, {"type": "node", "id": 6939444286, "lat": 12.9246384, "lon": 77.5509238, "tags": {"addr:district": "Bengaluru Urban", "addr:full": "#271, 5Th Block, 100 Feet Road, 3Road Phase, Banashankari", "addr:postcode": "560085", "addr:state": "Karnataka", "amenity": "hospital", "name": "Abhilash Hospital And Sara Rehabilitation Centre", "source": "OpenGovernmentData"}}, {"type": "node", "id": 6939582677, "lat": 12.9275311, "lon": 77.5457901, "tags": {"addr:district": "Bengaluru Urban", "addr:full": "30, 2nd Cross Anjaneya Nagar, 3Road Stage Banashankari", "addr:postcode": "560085", "addr:state": "Karnataka", "amenity": "hospital", "name": "Sg Hospital", "source": "OpenGovernmentData"}}, {"type": "node", "id": 6939617697, "lat": 12.9272213, "lon": 77.5764289}, {"type": "node", "id": 6944201468, "lat": 12.9271131, "lon": 77.5471291, "tags": {"addr:district": "Bengaluru Urban", "addr:full": "# 77, 100 Ft.Ring Road, B.S.K.3rd Stage, 5th Block", "addr:postcode": "560085", "addr:state": "Karnataka", "amenity": "hospital", "email": "abhayaeye@yahoo.com", "healthcare:speciality": "Cataract", "name": "Abhaya Eye Hospital, Super Speciality Eye Care Centre", "operator:type": "private", "source": "OpenGovernmentData", "website": "http://www.abhayaeyehospital.com/"}}, {"type": "node", "id": 6944256036, "lat": 12.9424801, "lon": 77.5473283, "tags": {"addr:district": "Bengaluru Urban", "addr:full": "5/81, 50 Feet Road, 20Th Main Road, Muneshwara Block, Girinagar", "addr:postcode": "560085", "addr:state": "Karnataka", "amenity": "hospital", "name": "The Pulse Multi Speciality Hospital", "source": "OpenGovernmentData"}}, {"type": "node", "id": 6944392363, "lat": 12.938853, "lon": 77.5786096, "tags": {"addr:district": "Bengaluru Urban", "addr:full": "9, Patalamma Temple Street, Basavanagudi", "addr:postcode": "560004", "addr:state": "Karnataka", "amenity": "hospital", "name": "Av Hospital", "source": "OpenGovernmentData"}}, {"type": "node", "id": 6944507652, "lat": 12.9403012, "lon": 77.5764705, "tags": {"addr:district": "Bengaluru Urban", "addr:full": "1,Dewan N, Madhava Rao Road, Basavanagudi", "addr:postcode": "560004", "addr:state": "Karnataka", "amenity": "hospital", "healthcare": "hospital", "name": "Gunasheela Surgical and Maternity Hospital", "source": "OpenGovernmentData"}}, {"type": "node", "id": 6944507653, "lat": 12.9207314, "lon": 77.5736019, "tags": {"addr:district": "Bengaluru Urban", "addr:full": "#3/2, 27Th Cross, Banashankari 2nd Stage,Near Brigade Software Park", "addr:postcode": "560070", "addr:state": "Karnataka", "amenity": "hospital", "healthcare": "hospital", "name": "Excel Care Hospital", "source": "OpenGovernmentData"}}, {"type": "node", "id": 6944507654, "lat": 12.9292015, "lon": 77.5819811, "tags": {"addr:district": "Bengaluru Urban", "addr:full": "No 28&29, 7Th Main Diagnal Road, Jayanagar 4Th Blook", "addr:postcode": "560011", "addr:state": "Karnataka", "amenity": "hospital", "name": "Vasan Eye Care Hospital, Jayanagar", "source": "OpenGovernmentData"}}, {"type": "node", "id": 6944507655, "lat": 12.9271389, "lon": 77.579028, "tags": {"addr:district": "Bengaluru Urban", "addr:full": "#240, 32nd Cross, 7 Th Block", "addr:postcode": "560001", "addr:state": "Karnataka", "addr:subdistrict": "Jayanagar", "amenity": "hospital", "email": "shridhar@hitechkidneystonehospital.org; suresh@hitechkidneystonehospital.org", "healthcare:speciality": "Dornier AlphaLithotripsy Treatment; X-Rays; US Scan; Urologist Consultation", "name": "Hi Tech Kidney Stone Hospital", "operator:type": "private", "source": "OpenGovernmentData", "website": "http://www.hitechkidneystonehospital.org/"}}, {"type": "node", "id": 6944507660, "lat": 12.9242515, "lon": 77.573217, "tags": {"addr:district": "Bengaluru Urban", "addr:full": "2269, 22nd Cross K R Road, K.R.Road", "addr:postcode": "560070", "addr:state": "Karnataka", "amenity": "hospital", "name": "Dr. Vidyananda's Surgery and Dia Centre", "source": "OpenGovernmentData"}}, {"type": "node", "id": 6944578226, "lat": 12.910823, "lon": 77.5207892, "tags": {"addr:district": "Bengaluru Urban", "addr:full": "No.886, Beml Layout,Near Police Station Main Road,Rajarajeshwari Nagar", "addr:postcode": "560098", "addr:state": "Karnataka", "amenity": "hospital", "name": "Unity Hospital, Bengaluru Urban", "source": "OpenGovernmentData"}}, {"type": "node", "id": 6945010490, "lat": 12.9067079, "lon": 77.5849275, "tags": {"addr:district": "Bengaluru Urban", "addr:full": "No. 4, Sarakki Industrial Estate, 3Road Phase, J.P.Nagar, Bannerghatta Road", "addr:postcode": "560076", "addr:state": "Karnataka", "amenity": "hospital", "name": "North Star Maternity and Nursing Home", "source": "OpenGovernmentData"}}, {"type": "node", "id": 6947375064, "lat": 12.89708, "lon": 77.5473364, "tags": {"addr:district": "Bengaluru Urban", "addr:full": "No.4, Sagar Complex,Gopalakrishna Layout,Vasanthapura Main Road,Subramanyapura Post,Uttarahalli Hobli", "addr:postcode": "560061", "addr:state": "Karnataka", "amenity": "hospital", "name": "Samastha Hospitals Pvt Ltd", "source": "OpenGovernmentData"}}, {"type": "node", "id": 6947556032, "lat": 12.9074269, "lon": 77.5716318, "tags": {"addr:district": "Bengaluru Urban", "addr:full": "11/2 8Th Cross, Gangadhar Nagar 100 Ring Road, J.P Nagar Post", "addr:postcode": "560078", "addr:state": "Karnataka", "amenity": "hospital", "name": "R.R. Hospital and Trauma Centre", "source": "OpenGovernmentData"}}, {"type": "node", "id": 6947750361, "lat": 12.9162753, "lon": 77.5589544, "tags": {"addr:district": "Bengaluru Urban", "addr:full": "No. 113, 4Th Cross, R. K. Layout, Padmanabhanagar", "addr:postcode": "560070", "addr:state": "Karnataka", "amenity": "hospital", "healthcare": "hospital", "name": "Hillside Hospital", "source": "OpenGovernmentData"}}, {"type": "node", "id": 6950185729, "lat": 12.8914666, "lon": 77.5612113, "tags": {"addr:district": "Bengaluru Rural", "addr:full": "No. 21/3 Vasanthpur Main Road Konanakunte Cross", "addr:postcode": "560062", "addr:state": "Karnataka", "amenity": "hospital", "name": "Metro Hospital, Bengaluru Rural", "source": "OpenGovernmentData"}}, {"type": "node", "id": 6952164952, "lat": 12.9408227, "lon": 77.5227942}, {"type": "node", "id": 6952164953, "lat": 12.9415717, "lon": 77.523348}, {"type": "node", "id": 6952164960, "lat": 12.9420357, "lon": 77.5225983}, {"type": "node", "id": 7229958802, "lat": 12.9427937, "lon": 77.5256266}, {"type": "node", "id": 7229958803, "lat": 12.9428107, "lon": 77.5254495}, {"type": "node", "id": 7229958804, "lat": 12.9426696, "lon": 77.5254013}, {"type": "node", "id": 7229958805, "lat": 12.9426291, "lon": 77.5255233}, {"type": "node", "id": 7258378647, "lat": 12.931298, "lon": 77.5412566, "tags": {"amenity": "hospital", "healthcare": "hospital", "healthcare:speciality": "optometry;optometrist", "name": "Vittal Eye HOspital"}}, {"type": "node", "id": 7576958025, "lat": 12.93753, "lon": 77.549675, "tags": {"addr:district": "Bengaluru Urban", "addr:full": "Srinivasnagar, Banashankari, Bengaluru", "addr:state": "Karnataka", "amenity": "hospital", "name": "Vinayaka Hospital", "source": "Local Knowledge"}}, {"type": "node", "id": 7576958033, "lat": 12.9405198, "lon": 77.5794387, "tags": {"addr:district": "Bengaluru Urban", "addr:full": "Basavanagudi, Bengaluru", "addr:postcode": "560004", "addr:state": "Karnataka", "amenity": "hospital", "name": "Bangaluru Unani Hospital", "source": "Local Knowledge"}}, {"type": "node", "id": 7576958039, "lat": 12.9417439, "lon": 77.5601782, "tags": {"addr:district": "Bengaluru Urban", "addr:full": "50 Feet Road, Basavanagadi, Banashankari, Bengaluru", "addr:postcode": "560019", "addr:state": "Karnataka", "amenity": "hospital", "name": "Sumanjara Hospital", "source": "Local Knowledge"}}, {"type": "node", "id": 7576958048, "lat": 12.942076, "lon": 77.553598, "tags": {"addr:district": "Bengaluru Urban", "addr:full": "Dasarhalli, Srinagar, Banashankari, Bengaluru", "addr:state": "Karnataka", "amenity": "hospital", "name": "People Tree Hospitals", "source": "Local Knowledge"}}, {"type": "node", "id": 7576958051, "lat": 12.936459, "lon": 77.584422, "tags": {"addr:district": "Bengaluru Urban", "addr:full": "Jaya Nagar East, Jayanagar, Bengaluru", "addr:postcode": "560011", "addr:state": "Karnataka", "amenity": "hospital", "healthcare": "hospital", "name": "Apollo Specialty Hospital", "source": "Local Knowledge"}}, {"type": "node", "id": 7576958060, "lat": 12.940404, "lon": 77.5580361, "tags": {"addr:district": "Bengaluru Urban", "addr:full": "SBM Colony, Banashankari, Bengaluru", "addr:postcode": "560050", "addr:state": "Karnataka", "amenity": "hospital", "name": "Verna Hospital", "source": "Local Knowledge"}}, {"type": "node", "id": 7576958068, "lat": 12.9415883, "lon": 77.5641917, "tags": {"addr:district": "Bengaluru Urban", "addr:full": "Hanumanthnagar, Banashankari, Bengaluru", "addr:postcode": "560019", "addr:state": "Karnataka", "amenity": "hospital", "name": "Jeevini Sarvodaya Hospital", "source": "Local Knowledge"}}, {"type": "node", "id": 7576958071, "lat": 12.938787, "lon": 77.554296, "tags": {"addr:district": "Bengaluru Urban", "addr:full": "Banashankari, Bengaluru", "addr:state": "Karnataka", "amenity": "hospital", "name": "Raghavendra Hospital", "source": "Local Knowledge"}}, {"type": "node", "id": 7576958074, "lat": 12.938453, "lon": 77.551329, "tags": {"addr:district": "Bengaluru Urban", "addr:full": "Srinivasnagar, Banashankari, Bengaluru", "addr:state": "Karnataka", "amenity": "hospital", "name": "Apaara Multi Speciality", "source": "Local Knowledge"}}, {"type": "node", "id": 7576958078, "lat": 12.939882, "lon": 77.573989, "tags": {"addr:district": "Bengaluru Urban", "addr:full": "Krishna Rajendra Road, Basavanagudi, Bengaluru", "addr:postcode": "560004", "addr:state": "Karnataka", "amenity": "hospital", "healthcare": "hospital", "name": "Khincha Orthopaedic Centre", "source": "Local Knowledge"}}, {"type": "node", "id": 7576958083, "lat": 12.9422541, "lon": 77.5506328, "tags": {"addr:district": "Bengaluru Urban", "addr:full": "Giri Nagar, Banashankari, Bengaluru", "addr:state": "Karnataka", "amenity": "hospital", "name": "Drishti Nethralaya", "name:kn": "\u0ca6\u0cc3\u0cb7\u0ccd\u0c9f\u0cbf \u0ca8\u0cc7\u0ca4\u0ccd\u0cb0\u0cbe\u0cb2\u0caf", "source": "Local Knowledge"}}, {"type": "node", "id": 7576958089, "lat": 12.9434996, "lon": 77.5796583, "tags": {"addr:district": "Bengaluru Urban", "addr:full": "Basavanagudi, Bengaluru", "addr:postcode": "560004", "addr:state": "Karnataka", "amenity": "hospital", "healthcare": "hospital", "name": "Trinity Hospital and Heart Foundation", "source": "Local Knowledge"}}, {"type": "node", "id": 7576958093, "lat": 12.9420276, "lon": 77.575634, "tags": {"addr:district": "Bengaluru Urban", "addr:full": "M N Krishna Rao Park Road, Basavanagudi, Bengaluru", "addr:postcode": "560070", "addr:state": "Karnataka", "amenity": "hospital", "healthcare": "hospital", "name": "Matha Pitha Hospital", "source": "Local Knowledge"}}, {"type": "node", "id": 7579924715, "lat": 12.9215119, "lon": 77.5724702, "tags": {"addr:district": "Bengaluru Urban", "addr:full": "Banashankari, Bengaluru", "addr:postcode": "560070", "addr:state": "Karnataka", "amenity": "hospital", "healthcare": "hospital", "name": "Sevakshetra Hospital", "name:kn": "\u0cb8\u0cc7\u0cb5\u0cbe\u0c95\u0ccd\u0cb7\u0cc7\u0ca4\u0ccd\u0cb0 \u0c86\u0cb8\u0ccd\u0caa\u0ca4\u0ccd\u0cb0\u0cc6", "source": "Local Knowledge"}}, {"type": "node", "id": 7579924725, "lat": 12.9055752, "lon": 77.5425258, "tags": {"addr:district": "Bengaluru Urban", "addr:full": "Uttarahalli, Bengaluru", "addr:postcode": "560011", "addr:state": "Karnataka", "amenity": "hospital", "name": "Perfetual Help Hospital", "source": "Local Knowledge"}}, {"type": "node", "id": 7579924732, "lat": 12.9334096, "lon": 77.5622345, "tags": {"addr:district": "Bengaluru Urban", "addr:full": "Vidyapeeta Layout, Basavanagudi, Bengaluru", "addr:postcode": "560050", "addr:state": "Karnataka", "amenity": "hospital", "name": "Bharathi Hospitals", "source": "Local Knowledge"}}, {"type": "node", "id": 7579924744, "lat": 12.924153, "lon": 77.565797, "tags": {"addr:district": "Bengaluru Urban", "addr:full": "Banashankari, Bengaluru", "addr:postcode": "560070", "addr:state": "Karnataka", "amenity": "hospital", "name": "Devagiri Hospital", "source": "Local Knowledge"}}, {"type": "node", "id": 7579924760, "lat": 12.9254569, "lon": 77.5467101, "tags": {"addr:district": "Bengaluru Urban", "addr:full": "Banashankari, Bengaluru", "addr:postcode": "560085", "addr:state": "Karnataka", "amenity": "hospital", "name": "Sudha Prevention Centre", "source": "Local Knowledge"}}, {"type": "node", "id": 7579924762, "lat": 12.920651, "lon": 77.5746118, "tags": {"addr:district": "Bengaluru Urban", "addr:full": "Jayanagar, Bengaluru", "addr:postcode": "560082", "addr:state": "Karnataka", "amenity": "hospital", "name": "Sahasra Hospital", "name:kn": "\u0cb8\u0cb9\u0cb8\u0ccd\u0cb0 \u0c86\u0cb8\u0ccd\u0caa\u0ca4\u0ccd\u0cb0\u0cc6", "source": "Local Knowledge"}}, {"type": "node", "id": 7579924768, "lat": 12.9202202, "lon": 77.5772991, "tags": {"addr:district": "Bengaluru Urban", "addr:full": "Jayanagar, Bengaluru", "addr:postcode": "560070", "addr:state": "Karnataka", "amenity": "hospital", "name": "Shanti Hospital", "name:kn": "\u0cb6\u0cbe\u0c82\u0ca4\u0cbf \u0c86\u0cb8\u0ccd\u0caa\u0ca4\u0ccd\u0cb0\u0cc6", "source": "Local Knowledge"}}, {"type": "node", "id": 7579924780, "lat": 12.916885, "lon": 77.585258, "tags": {"addr:district": "Bengaluru Urban", "addr:full": "TMC Layout, Jayanagar, Bengaluru", "addr:postcode": "560011", "addr:state": "Karnataka", "amenity": "hospital", "healthcare": "hospital", "name": "Apollo Cradle Maternity & Children's Hospital", "source": "Local Knowledge"}}, {"type": "node", "id": 7579924783, "lat": 12.906113, "lon": 77.542548, "tags": {"addr:district": "Bengaluru Urban", "addr:full": "Simhadri layout, Uttarahalli Hobli, Bengaluru", "addr:postcode": "560061", "addr:state": "Karnataka", "amenity": "hospital", "name": "St. Martha's Hospital", "source": "Local Knowledge"}}, {"type": "node", "id": 8776646948, "lat": 12.9128623, "lon": 77.5714903, "tags": {"addr:city": "Bangalore", "addr:housenumber": "64/2, Sarakki Main Rd, Sarakki Nagar,", "addr:postcode": "560078", "addr:street": "4th Cross Road", "amenity": "hospital", "healthcare": "hospital", "healthcare:speciality": "physiotherapy;physiotherapist", "name": "Healing Hands Advanced Physiotherapy Clinic", "operator": "www.hhphysio.com", "operator:type": "private"}}, {"type": "node", "id": 8873805759, "lat": 12.9288444, "lon": 77.5828703, "tags": {"amenity": "hospital", "name": "Narayan Multispeciality clinic"}}, {"type": "node", "id": 9884952776, "lat": 12.8832909, "lon": 77.5500857, "tags": {"addr:city": "Bengaluru", "addr:housenumber": "766", "addr:postcode": "560062", "addr:street": "Narayana Nagar, 1st Block, Doddakallasandra Village, Kanakapura Road", "amenity": "hospital", "check_date": "2024-10-19", "description": "Maternity & Kids Hospital", "emergency": "yes", "healthcare": "hospital", "healthcare:speciality": "gynaecology;pulmonology;paediatrics;dermatology;dentistry;physiotherapy;fertility", "name": "Cloudnine Hospital", "operator:type": "private", "phone": "9972999729", "website": "https://www.cloudninecare.com"}}, {"type": "node", "id": 9934012104, "lat": 12.9429852, "lon": 77.5460604, "tags": {"amenity": "hospital", "healthcare": "hospital", "healthcare:speciality": "dentist", "name": "My Dentist", "operator": "Dr Katta R Venkatesh", "operator:type": "public"}}, {"type": "node", "id": 10245038162, "lat": 12.9093485, "lon": 77.5133836}, {"type": "node", "id": 10979388706, "lat": 12.926271, "lon": 77.5210091}, {"type": "node", "id": 10979388707, "lat": 12.9258632, "lon": 77.5221571}, {"type": "node", "id": 10979388708, "lat": 12.9266631, "lon": 77.5223475}, {"type": "node", "id": 10979388709, "lat": 12.9269742, "lon": 77.5211835}, {"type": "node", "id": 11215840017, "lat": 12.941992, "lon": 77.5673974}, {"type": "node", "id": 11299121541, "lat": 12.8784742, "lon": 77.5450234, "tags": {"amenity": "hospital", "healthcare": "hospital", "name": "Zymus Hospitals"}}, {"type": "node", "id": 11757261198, "lat": 12.9411586, "lon": 77.5230597}, {"type": "node", "id": 11757261199, "lat": 12.9418461, "lon": 77.522475}, {"type": "node", "id": 11799695217, "lat": 12.9269958, "lon": 77.5767958}, {"type": "node", "id": 11801601935, "lat": 12.9030689, "lon": 77.5607177}, {"type": "node", "id": 11801601936, "lat": 12.902942, "lon": 77.5606585}, {"type": "node", "id": 11801601937, "lat": 12.9031277, "lon": 77.5598988}, {"type": "node", "id": 11801601938, "lat": 12.9033643, "lon": 77.5599393}, {"type": "node", "id": 11813227397, "lat": 12.9075935, "lon": 77.5707809, "tags": {"amenity": "hospital", "name": "Bengaluru City Hospital"}}, {"type": "node", "id": 11869384815, "lat": 12.8835095, "lon": 77.550214, "tags": {"addr:street": "Kanakapura Road", "amenity": "hospital", "description": "Multi speciality hospital", "name": "Dhee Hospital", "website": "https://dheehospitals.com/"}}, {"type": "node", "id": 12155267775, "lat": 12.924584, "lon": 77.500545}, {"type": "node", "id": 12917083993, "lat": 12.9271997, "lon": 77.5764275}, {"type": "node", "id": 12917083995, "lat": 12.9269971, "lon": 77.5768886}, {"type": "node", "id": 12917083996, "lat": 12.9272219, "lon": 77.5768588}, {"type": "node", "id": 12917083997, "lat": 12.9269903, "lon": 77.5764275}, {"type": "node", "id": 12917083998, "lat": 12.9271847, "lon": 77.5771049}, {"type": "node", "id": 12917083999, "lat": 12.9267808, "lon": 77.5771431}, {"type": "node", "id": 12917084000, "lat": 12.9264082, "lon": 77.5771464}, {"type": "node", "id": 12917084002, "lat": 12.9264017, "lon": 77.5774733}, {"type": "node", "id": 12917084092, "lat": 12.9296701, "lon": 77.5764082, "tags": {"amenity": "hospital", "name": "AMC Multispeciality Hospital"}}, {"type": "node", "id": 12995318310, "lat": 12.9405054, "lon": 77.5848675, "tags": {"amenity": "hospital", "check_date": "2025-07-12", "healthcare": "hospital", "name": "Big Hospitals"}}, {"type": "node", "id": 13257391201, "lat": 12.9070989, "lon": 77.5460762, "tags": {"addr:postcode": "560061", "addr:street": "Dr. Vishnuvardhan Road", "amenity": "hospital", "name": "Nano Hospitals"}}, {"type": "way", "id": 118411722, "nodes": [1331946771, 1331946750, 1331946751, 1331946769, 1331946771], "tags": {"addr:city": "bangalore", "addr:district": "Bengaluru Urban", "addr:full": "No 21, 9Th Cross, B-78 Jp Nagar", "addr:housenumber": "21", "addr:postcode": "560078", "addr:state": "Karnataka", "addr:street": "9th Cross Road, Phase 1, Sarakki Layout, JP Nagar", "amenity": "hospital", "emergency": "yes", "healthcare": "hospital", "name": "Rajshekhar Hospital", "name:kn": "\u0cb0\u0cbe\u0c9c\u0cb6\u0cc7\u0c96\u0cb0 \u0c86\u0cb8\u0ccd\u0caa\u0ca4\u0ccd\u0cb0\u0cc6", "phone": "080 4252 7555", "source": "OpenGovernmentData", "website": "https://www.rajshekarhospital.com/"}}, {"type": "way", "id": 132913842, "nodes": [1462175438, 1462175439, 1462175435, 1462175436, 1462175448, 1462175447, 1835530203, 1462175441, 10245038162, 1462175438], "tags": {"alt_name": "Jayadev Memorial Rashtrotthana Hospital and Research Centre", "amenity": "hospital", "healthcare": "hospital", "name": "Manipal Speciality Hospital", "website": "https://www.rashtrotthanahospital.com/"}}, {"type": "way", "id": 133379520, "nodes": [1468296644, 1468296642, 1468296636, 1468296641, 1468296645, 1468296638, 1468296644], "tags": {"addr:city": "bangalore", "addr:district": "Bengaluru Urban", "addr:full": "3/4, Sunrise Tower, J.P. Road, Girinagar", "addr:housenumber": "3-4", "addr:postcode": "560085", "addr:state": "Karnataka", "addr:street": "Sunrise Towers, 30th crs JP Rd. Girinagar.,opp Canara Bank", "amenity": "hospital", "emergency": "yes", "name": "Radhakrishna Multispeciality Hospital", "name:kn": "\u0cb0\u0cbe\u0ca7\u0cbe\u0c95\u0cc3\u0cb7\u0ccd\u0ca3 \u0c86\u0cb8\u0ccd\u0caa\u0ca4\u0ccd\u0cb0\u0cc6", "phone": "080 2642 2977", "source": "OpenGovernmentData"}}, {"type": "way", "id": 133951786, "nodes": [1473997317, 1473997310, 1473997305, 6938544594, 1473997317], "tags": {"addr:district": "Bengaluru Urban", "addr:full": "VR Layout, J. P. Nagar, Bengaluru", "addr:postcode": "560078", "addr:state": "Karnataka", "amenity": "hospital", "healthcare": "hospital", "name": "Rajalakshmi Multispeciality Hospital", "name:kn": "\u0cb0\u0cbe\u0c9c\u0cbe\u0c9c\u0cbf\u0ca8\u0c97\u0cb0 \u0c86\u0cb8\u0ccd\u0caa\u0ca4\u0ccd\u0cb0\u0cc6"}}, {"type": "way", "id": 141791769, "nodes": [1551996916, 1551996934, 1551996910, 1551996911, 1551996916], "tags": {"addr:district": "Bengaluru Urban", "addr:full": "#1,2nd Cross, 2nd Main,7Th Block, Banashankari 3Road Stage, Hosakerehalli", "addr:postcode": "560085", "addr:state": "Karnataka", "amenity": "hospital", "emergency": "yes", "name": "Vittala International Institute Of Ophthalmology, Hosakerehalli", "source": "OpenGovernmentData"}}, {"type": "way", "id": 259487871, "nodes": [2649089257, 2649089258, 2649089256, 2649089255, 2649089257], "tags": {"addr:city": "Bangalore", "addr:district": "Bengaluru Urban", "addr:full": "#523, 10th Main,45th Cross, 5th Block, Jayanagar", "addr:housename": "523", "addr:postcode": "560041", "addr:state": "Karnataka", "amenity": "hospital", "building": "yes", "email": "admin@sksh.com", "healthcare": "hospital", "name": "Shri Krishna Sevashrama Hospital", "name:kn": "\u0cb6\u0ccd\u0cb0\u0cc0\u0c95\u0ccd\u0cb7\u0cc7\u0ca4\u0ccd\u0cb0 \u0cb8\u0cc7\u0cb5\u0cbe\u0cb6\u0ccd\u0cb0\u0cae \u0c86\u0cb8\u0ccd\u0caa\u0ca4\u0ccd\u0cb0\u0cc6", "operator:type": "private", "phone": "+918022441631", "source": "OpenGovernmentData", "website": "http://www.sks-hospital.org/"}}, {"type": "way", "id": 306826547, "nodes": [3118322042, 3118322043, 3118322044, 3118322045, 3118322042], "tags": {"addr:district": "Bengaluru Urban", "addr:full": "Banashankari, Bengaluru", "addr:postcode": "560070", "addr:state": "Karnataka", "amenity": "hospital", "building": "hospital", "name": "Pro MED Hospital", "name:kn": "\u0caa\u0ccd\u0cb0\u0ccb\u0cae\u0cc6\u0ca1\u0ccd\u200c \u0c86\u0cb8\u0ccd\u0caa\u0ca4\u0ccd\u0cb0\u0cc6", "source": "Local Knowledge"}}, {"type": "way", "id": 306861065, "nodes": [3118790621, 3118790622, 3118790623, 3118790624, 3118790625, 3118790621], "tags": {"addr:district": "Bengaluru Urban", "addr:full": "21/2, 14th Cross, 3rd Block, Jayanagar", "addr:postcode": "560011", "addr:state": "Karnataka", "amenity": "hospital", "building": "yes", "building:levels": "6", "email": "customercarebengaluru@apollohospitals.com", "healthcare": "hospital", "healthcare:speciality": "Cardiac surgery; General and Gastro-intestinal surgery; Gynecology; Pediatric surgery; Thoracic surgery; Urology; Colorectal surgery; Cancer surgery; Orthopedics; Neurosurgery and Ear; Nose and Throat surgery", "name": "Apollo Speciality Hospital", "name:kn": "\u0c85\u0caa\u0ccb\u0cb2\u0ccb \u0c86\u0cb8\u0ccd\u0caa\u0ca4\u0ccd\u0cb0\u0cc6", "operator:type": "private", "source": "OpenGovernmentData", "website": "https://www.apollohospitals.com/"}}, {"type": "way", "id": 307097150, "nodes": [3121618244, 3121618247, 3121618246, 3121618245, 3121618244], "tags": {"addr:city": "Bangalore", "addr:district": "Bengaluru Urban", "addr:full": "B 70, 27Th Cross Banashankari 2nd Stage Banashankari", "addr:postcode": "560070", "addr:state": "Karnataka", "addr:street": "27th Cross", "amenity": "hospital", "emergency": "yes", "healthcare": "hospital", "name": "Sevakshetra Hospital, Bengaluru Urban", "name:kn": "\u0cb8\u0cc7\u0cb5\u0cbe\u0c95\u0ccd\u0cb7\u0cc7\u0ca4\u0ccd\u0cb0 \u0c86\u0cb8\u0ccd\u0caa\u0ca4\u0ccd\u0cb0\u0cc6", "source": "OpenGovernmentData"}}, {"type": "way", "id": 307098232, "nodes": [3121629369, 3121629372, 3570997782, 3121629370, 3121629369], "tags": {"addr:street": "Kanakapura Road", "amenity": "hospital", "emergency": "yes", "name": "Netradhama Hospital", "name:kn": "\u0ca8\u0cc7\u0ca4\u0ccd\u0cb0\u0ca7\u0cbe\u0cae \u0c86\u0cb8\u0ccd\u0caa\u0ca4\u0ccd\u0cb0\u0cc6"}}, {"type": "way", "id": 347120748, "nodes": [3535301845, 3535301846, 3535301812, 3535301811, 3535301845], "tags": {"addr:city": "Bengaluru", "addr:district": "Bengaluru Urban", "addr:housenumber": "175", "addr:postcode": "560011", "addr:street": "5th Main Road", "amenity": "hospital", "healthcare": "hospital", "healthcare:speciality": "general;emergency", "name": "Shashank Clinic", "operator": "Dr. Satish", "operator:type": "public"}}, {"type": "way", "id": 348287598, "nodes": [3544299986, 3544300106, 3544300124, 3544300103, 3544299986], "tags": {"addr:district": "Bengaluru Urban", "addr:full": "SBM Colony, Banashankari, Bengaluru", "addr:state": "Karnataka", "amenity": "hospital", "building": "yes", "name": "Prashanth Hospitals", "name:kn": "\u0caa\u0cbf\u0c87\u0c8e\u0cb8\u0ccd \u0cb5\u0cbf\u0cb6\u0ccd\u0cb5\u0cb5\u0cbf\u0ca6\u0ccd\u0caf\u0cbe\u0cb2\u0caf \u0c95\u0ccd\u0cb0\u0cbf\u0c95\u0cc6\u0c9f\u0ccd \u0cae\u0cc8\u0ca6\u0cbe\u0ca8", "source": "Local Knowledge"}}, {"type": "way", "id": 351326759, "nodes": [3570997970, 3570997969, 3570997943, 3570997945, 3570997970], "tags": {"amenity": "hospital", "building": "yes", "name": "Deepak Hospital"}}, {"type": "way", "id": 442048031, "nodes": [4397421813, 4397421803, 4397421798, 4397421791, 4397421788, 4397421787, 4397421789, 4397421799, 4397421804, 4397421812, 4397421814, 4397421815, 4397421813], "tags": {"amenity": "hospital", "building": "hospital", "name": "Sagar Hospital", "name:kn": "\u0cb8\u0cbe\u0c97\u0cb0 \u0c86\u0cb8\u0ccd\u0caa\u0ca4\u0ccd\u0cb0\u0cc6", "opening_hours": "Mo-Su 00:00-23:00"}}, {"type": "way", "id": 496821816, "nodes": [4884890999, 4884890996, 4884890997, 4884890998, 4884890999], "tags": {"amenity": "hospital", "building": "yes", "healthcare": "hospital", "name": "Government Maternity Hospital", "name:kn": "\u0cb8\u0cb0\u0c95\u0cbe\u0cb0\u0cbf \u0cb9\u0cc6\u0cb0\u0cbf\u0c97\u0cc6 \u0c86\u0cb8\u0ccd\u0caa\u0ca4\u0ccd\u0cb0\u0cc6"}}, {"type": "way", "id": 687319732, "nodes": [3425328776, 6442518242, 6442518241, 6442518240, 6442518239, 11215840017, 3039639118, 6442518238, 3425328780, 3425328776], "tags": {"addr:district": "Bengaluru Urban", "addr:full": "618, Sri Mallikarjuna Swamy Temple St, N.R. Colony", "addr:postcode": "560019", "addr:state": "Karnataka", "amenity": "hospital", "name": "BMS Hospital", "source": "OpenGovernmentData"}}, {"type": "way", "id": 695545711, "nodes": [1464035837, 12155267775, 1464035839, 6531332486, 6531332485, 6531332484, 6531332483, 1464035837], "tags": {"amenity": "hospital", "healthcare": "hospital", "name": "Medical Centre"}}, {"type": "way", "id": 742634558, "nodes": [6952164953, 11757261198, 6952164952, 458105013, 3388805879, 11757261199, 6952164960, 6952164953], "tags": {"amenity": "hospital", "name": "Puneeth Rajkumar Multispeciality Hospital", "name:etymology:wikidata": "Q3351697", "operator": "BBMP"}}, {"type": "way", "id": 774947265, "nodes": [7229958805, 7229958804, 7229958803, 7229958802, 7229958805], "tags": {"amenity": "hospital", "name": "Natus Woman and Children Hospital"}}, {"type": "way", "id": 1182315656, "nodes": [10979388709, 10979388708, 10979388707, 10979388706, 10979388709], "tags": {"amenity": "hospital", "name": "SS Sparsh Hospital"}}, {"type": "way", "id": 1270817507, "nodes": [11801601938, 11801601937, 11801601936, 11801601935, 11801601938], "tags": {"amenity": "hospital", "healthcare": "hospital", "name": "Vasavi Hospital", "name:kn": "\u0cb5\u0cbe\u0cb8\u0cb5\u0cbf \u0c86\u0cb8\u0ccd\u0caa\u0ca4\u0ccd\u0cb0\u0cc6"}}, {"type": "way", "id": 1395462349, "nodes": [12917083997, 12917083993, 6939617697, 12917083996, 12917083995, 11799695217, 12917083997], "tags": {"addr:district": "Bengaluru Rural", "addr:full": "7Th Main, 4Th Cross, Kanakpura Main Road , Bangalore North", "addr:postcode": "560082", "addr:state": "Karnataka", "amenity": "hospital", "name": "Yadiyuru Maternity Hospital", "name:kn": "\u0caf\u0ca1\u0cbf\u0caf\u0cc2\u0cb0\u0cc1 \u0cb9\u0cc6\u0cb0\u0cbf\u0c97\u0cc6 \u0c86\u0cb8\u0ccd\u0caa\u0ca4\u0ccd\u0cb0\u0cc6", "source": "OpenGovernmentData"}}, {"type": "way", "id": 1395462350, "nodes": [12917084002, 12917084000, 12917083999, 12917083998, 1474062998, 1474062996, 12917084002], "tags": {"amenity": "hospital", "name": "Ayurveda Prathisthana Hospital"}}]}