{"version": 0.6, "generator": "Overpass API 0.7.62.8 e802775f", "osm3s": {"timestamp_osm_base": "2026-01-15T12:56:33Z", "copyright": "The data included in this document is from www.openstreetmap.org. The data is made available under ODbL."}, "elements": [{"type": "node", "id": 826365817, "lat": 52.028352, "lon": 5.0946174, "tags": {"barrier": "gate", "gate:type": "turning"}}, {"type": "node", "id": 826415112, "lat": 52.0282766, "lon": 5.0949072}, {"type": "node", "id": 826421001, "lat": 52.0284073, "lon": 5.0941697}, {"type": "node", "id": 826425472, "lat": 52.0283696, "lon": 5.0937614}, {"type": "node", "id": 826467423, "lat": 52.0283944, "lon": 5.0944028}, {"type": "node", "id": 826474439, "lat": 52.0283038, "lon": 5.0934103}, {"type": "node", "id": 854989460, "lat": 52.0384828, "lon": 5.0939698}, {"type": "node", "id": 855002063, "lat": 52.0385733, "lon": 5.0932065}, {"type": "node", "id": 855014104, "lat": 52.0452807, "lon": 5.0739804}, {"type": "node", "id": 855069400, "lat": 52.0456676, "lon": 5.0741242}, {"type": "node", "id": 855070187, "lat": 52.0386214, "lon": 5.0939076}, {"type": "node", "id": 855085224, "lat": 52.0385879, "lon": 5.0929646}, {"type": "node", "id": 994007996, "lat": 52.0383688, "lon": 5.0929253}, {"type": "node", "id": 994008012, "lat": 52.0382322, "lon": 5.0939132}, {"type": "node", "id": 1886624510, "lat": 52.0214078, "lon": 5.0772646, "tags": {"amenity": "school", "name": "PCB De Trompetvogel"}}, {"type": "node", "id": 1924066687, "lat": 52.0254521, "lon": 5.0758008, "tags": {"addr:city": "Nieuwegein", "addr:housenumber": "11", "addr:postcode": "3435BZ", "addr:street": "Groenling", "amenity": "school", "name": "Openbare Basisschool De Krullevaar", "operator": "Stichting Robijn", "source": "survey;BAG", "source:date": "2014-08-08"}}, {"type": "node", "id": 2229364085, "lat": 52.0439388, "lon": 5.0875687, "tags": {"addr:city": "Nieuwegein", "addr:housenumber": "11-13", "addr:street": "Lohengrinhof", "amenity": "school", "check_date": "2025-09-11", "name": "OBS De Toonladder"}}, {"type": "node", "id": 2229364087, "lat": 52.0441692, "lon": 5.0866785, "tags": {"addr:city": "Nieuwegein", "addr:housenumber": "10", "addr:postcode": "3438RA", "addr:street": "Lohengrinhof", "amenity": "school", "check_date": "2025-09-11", "name": "OBS De Beatrixschool", "source": "BAG", "source:date": "2014-08-07"}}, {"type": "node", "id": 2232501998, "lat": 52.0406351, "lon": 5.074131, "tags": {"amenity": "school", "email": "info@veldrakker.nl", "name": "De Veldrakker", "phone": "+31 30 603 5935", "website": "https://veldrakker.nl/"}}, {"type": "node", "id": 2232502101, "lat": 52.0408627, "lon": 5.0728489, "tags": {"amenity": "school", "name": "Lucas Batau"}}, {"type": "node", "id": 2574407606, "lat": 52.0273285, "lon": 5.0940271}, {"type": "node", "id": 2784256542, "lat": 52.0272213, "lon": 5.0939768, "tags": {"access": "destination", "barrier": "gate", "bicycle": "yes", "foot": "yes", "maxheight": "5.20", "maxwidth": "4.0"}}, {"type": "node", "id": 3003095835, "lat": 52.0503663, "lon": 5.0817219, "tags": {"addr:city": "Nieuwegein", "addr:housenumber": "1", "addr:postcode": "3437KB", "addr:street": "Aert de Gelderhage", "amenity": "school", "name": "Lucas Galekop", "source": "BAG", "source:date": "2014-08-07"}}, {"type": "node", "id": 3003096739, "lat": 52.0499503, "lon": 5.0821343, "tags": {"addr:city": "Nieuwegein", "addr:housenumber": "3", "addr:postcode": "3437KB", "addr:street": "Aert de Gelderhage", "amenity": "school", "name": "Lucas Galekop", "source": "BAG", "source:date": "2014-08-07"}}, {"type": "node", "id": 3003097002, "lat": 52.0496085, "lon": 5.0813825, "tags": {"addr:city": "Nieuwegein", "addr:housenumber": "5", "addr:postcode": "3437KB", "addr:street": "Aert de Gelderhage", "amenity": "school", "name": "Koningin Julianaschool", "source": "BAG", "source:date": "2014-08-07"}}, {"type": "node", "id": 3003275818, "lat": 52.0443107, "lon": 5.0876872, "tags": {"addr:city": "Nieuwegein", "addr:housenumber": "15", "addr:postcode": "3438RA", "addr:street": "Lohengrinhof", "amenity": "school", "name": "KBS Vroonestein", "source": "BAG", "source:date": "2014-08-07"}}, {"type": "node", "id": 3003463228, "lat": 52.031005, "lon": 5.0797107}, {"type": "node", "id": 3003463430, "lat": 52.0312602, "lon": 5.0800422}, {"type": "node", "id": 3003463431, "lat": 52.031261, "lon": 5.0800385}, {"type": "node", "id": 3003463660, "lat": 52.0309584, "lon": 5.0799444}, {"type": "node", "id": 3003463664, "lat": 52.0309634, "lon": 5.0799195}, {"type": "node", "id": 3003463665, "lat": 52.0309657, "lon": 5.0799208}, {"type": "node", "id": 3003463669, "lat": 52.0309693, "lon": 5.0799028}, {"type": "node", "id": 3003463933, "lat": 52.0310073, "lon": 5.0797119}, {"type": "node", "id": 3003463936, "lat": 52.03101, "lon": 5.0796859}, {"type": "node", "id": 3003463950, "lat": 52.0310282, "lon": 5.0799809}, {"type": "node", "id": 3003463959, "lat": 52.0310414, "lon": 5.079915}, {"type": "node", "id": 3003463978, "lat": 52.0310661, "lon": 5.0799403}, {"type": "node", "id": 3003463979, "lat": 52.0310683, "lon": 5.0799292}, {"type": "node", "id": 3003463986, "lat": 52.0310725, "lon": 5.0799436}, {"type": "node", "id": 3003463988, "lat": 52.0310732, "lon": 5.0799399}, {"type": "node", "id": 3003463992, "lat": 52.0310767, "lon": 5.0797209}, {"type": "node", "id": 3003464001, "lat": 52.0310825, "lon": 5.0796918}, {"type": "node", "id": 3003464009, "lat": 52.031091, "lon": 5.0796495}, {"type": "node", "id": 3003464011, "lat": 52.0310916, "lon": 5.0796965}, {"type": "node", "id": 3003464020, "lat": 52.0311, "lon": 5.0796542}, {"type": "node", "id": 3003464341, "lat": 52.031127, "lon": 5.0794681}, {"type": "node", "id": 3003464350, "lat": 52.0311449, "lon": 5.0794816}, {"type": "node", "id": 3003464352, "lat": 52.0311457, "lon": 5.0794778}, {"type": "node", "id": 3003464551, "lat": 52.031365, "lon": 5.0797605}, {"type": "node", "id": 3003464557, "lat": 52.0313736, "lon": 5.079765}, {"type": "node", "id": 3003464567, "lat": 52.0313888, "lon": 5.0796527}, {"type": "node", "id": 3003464569, "lat": 52.0313896, "lon": 5.079649}, {"type": "node", "id": 3003464574, "lat": 52.0313961, "lon": 5.0796524}, {"type": "node", "id": 3003464833, "lat": 52.0312624, "lon": 5.0796157}, {"type": "node", "id": 3003464838, "lat": 52.0312662, "lon": 5.0795451}, {"type": "node", "id": 3003464840, "lat": 52.0312669, "lon": 5.0800458}, {"type": "node", "id": 3003464841, "lat": 52.031267, "lon": 5.0795414}, {"type": "node", "id": 3003464843, "lat": 52.0312698, "lon": 5.0800307}, {"type": "node", "id": 3003464847, "lat": 52.0312761, "lon": 5.079546}, {"type": "node", "id": 3003464870, "lat": 52.0313157, "lon": 5.0800548}, {"type": "node", "id": 3003464872, "lat": 52.0313207, "lon": 5.0796462}, {"type": "node", "id": 3003464876, "lat": 52.0313268, "lon": 5.079616}, {"type": "node", "id": 3003464878, "lat": 52.0313276, "lon": 5.079948}, {"type": "node", "id": 3003464882, "lat": 52.0313325, "lon": 5.0796232}, {"type": "node", "id": 3003464883, "lat": 52.0313333, "lon": 5.0796194}, {"type": "node", "id": 3003464885, "lat": 52.0313361, "lon": 5.0799525}, {"type": "node", "id": 3004002961, "lat": 52.0398484, "lon": 5.1011792, "tags": {"addr:city": "Nieuwegein", "addr:housenumber": "6", "addr:postcode": "3439NK", "addr:street": "Newtonbaan", "amenity": "school", "name": "THIM Hogeschool voor Fysiotherapie", "phone": "+31 30 288 7760", "source": "BAG", "source:date": "2014-08-08"}}, {"type": "node", "id": 3004024618, "lat": 52.0277344, "lon": 5.094018, "tags": {"addr:city": "Nieuwegein", "addr:housenumber": "6A", "addr:postcode": "3432NA", "addr:street": "Vreeswijksestraatweg", "alt_name": "Cals Nieuwegein", "amenity": "school", "denomination": "catholic", "name": "Cals College", "religion": "christian", "source": "BAG", "source:date": "2014-08-08", "website": "https://www.cals.nl/nieuwegein"}}, {"type": "node", "id": 3005065614, "lat": 52.0202396, "lon": 5.0758578}, {"type": "node", "id": 3005067437, "lat": 52.0191622, "lon": 5.0745336}, {"type": "node", "id": 3005067459, "lat": 52.01919, "lon": 5.0744367}, {"type": "node", "id": 3005067716, "lat": 52.0193778, "lon": 5.0743267}, {"type": "node", "id": 3005068419, "lat": 52.020126, "lon": 5.0755092}, {"type": "node", "id": 3005068867, "lat": 52.0201523, "lon": 5.0761611}, {"type": "node", "id": 3005069172, "lat": 52.0202147, "lon": 5.0759457}, {"type": "node", "id": 3005069437, "lat": 52.0203016, "lon": 5.0756413}, {"type": "node", "id": 3005144763, "lat": 52.0202888, "lon": 5.0930745, "tags": {"addr:city": "Nieuwegein", "addr:housenumber": "2", "addr:postcode": "3432XW", "addr:street": "Deldenseschans", "amenity": "school", "name": "Daltonschool Uniq", "source": "BAG", "source:date": "2014-08-08"}}, {"type": "node", "id": 3005147464, "lat": 52.0207073, "lon": 5.0922669, "tags": {"addr:city": "Nieuwegein", "addr:housenumber": "30", "addr:postcode": "3432XV", "addr:street": "Dintherseschans", "amenity": "school", "name": "RK basisschool De Schouw", "source": "BAG", "source:date": "2014-08-08"}}, {"type": "node", "id": 3011030821, "lat": 52.0329867, "lon": 5.0703239, "tags": {"addr:city": "Nieuwegein", "addr:housenumber": "15", "addr:postcode": "3436GE", "addr:street": "Morelgaarde", "amenity": "school", "name": "Basisschool De Meander", "source": "BAG", "source:date": "2014-08-11", "website": "https://www.demeander.nl/"}}, {"type": "node", "id": 3011033008, "lat": 52.0323608, "lon": 5.0698846, "tags": {"addr:city": "Nieuwegein", "addr:housenumber": "4", "addr:postcode": "3436GB", "addr:street": "Aardbeigaarde", "amenity": "school", "name": "Prinses Margrietschool", "source": "BAG", "source:date": "2014-08-11", "website": "https://www.margrietschool.net/"}}, {"type": "node", "id": 3534315190, "lat": 52.0270013, "lon": 5.0948494}, {"type": "node", "id": 3534315192, "lat": 52.0271503, "lon": 5.0939435}, {"type": "node", "id": 3534316395, "lat": 52.0273344, "lon": 5.0940313}, {"type": "node", "id": 3534316396, "lat": 52.02737, "lon": 5.0938292}, {"type": "node", "id": 3534316398, "lat": 52.0274962, "lon": 5.0931572}, {"type": "node", "id": 3534316399, "lat": 52.0279615, "lon": 5.0933798}, {"type": "node", "id": 3534316400, "lat": 52.0280696, "lon": 5.0953383}, {"type": "node", "id": 3534316401, "lat": 52.0281398, "lon": 5.0952268}, {"type": "node", "id": 3534316402, "lat": 52.0281781, "lon": 5.0933874}, {"type": "node", "id": 3534316403, "lat": 52.0281966, "lon": 5.095109}, {"type": "node", "id": 3534316404, "lat": 52.0282841, "lon": 5.0933393}, {"type": "node", "id": 3534316405, "lat": 52.0283369, "lon": 5.0935535}, {"type": "node", "id": 3534316406, "lat": 52.0283988, "lon": 5.0939869}, {"type": "node", "id": 4621987654, "lat": 52.0453763, "lon": 5.0751471, "tags": {"entrance": "main"}}, {"type": "node", "id": 4621987655, "lat": 52.045492, "lon": 5.0753071}, {"type": "node", "id": 4621987656, "lat": 52.0451274, "lon": 5.0750204}, {"type": "node", "id": 7387383453, "lat": 52.019866, "lon": 5.0748188}, {"type": "node", "id": 7387383454, "lat": 52.0197777, "lon": 5.0745283}, {"type": "node", "id": 7387383474, "lat": 52.0199568, "lon": 5.0750691}, {"type": "node", "id": 7387383480, "lat": 52.0190499, "lon": 5.0758866}, {"type": "node", "id": 7387383481, "lat": 52.0188734, "lon": 5.0755345}, {"type": "node", "id": 7387386486, "lat": 52.0192962, "lon": 5.0763307}, {"type": "node", "id": 7387386494, "lat": 52.0199075, "lon": 5.0769487}, {"type": "node", "id": 7387386495, "lat": 52.0200856, "lon": 5.0763971}, {"type": "node", "id": 7412726448, "lat": 52.0192484, "lon": 5.074227}, {"type": "node", "id": 7412726449, "lat": 52.0196424, "lon": 5.0745205}, {"type": "node", "id": 7412726450, "lat": 52.0197372, "lon": 5.0745}, {"type": "node", "id": 7412726452, "lat": 52.0198026, "lon": 5.0769017}, {"type": "node", "id": 7412726453, "lat": 52.0197221, "lon": 5.0770328}, {"type": "node", "id": 7473755548, "lat": 52.0197805, "lon": 5.0769378, "tags": {"access": "permissive", "barrier": "gate", "material": "metal"}}, {"type": "node", "id": 10825133024, "lat": 52.0299341, "lon": 5.0987112}, {"type": "node", "id": 10825133025, "lat": 52.0308203, "lon": 5.0988292}, {"type": "node", "id": 10825133026, "lat": 52.0307918, "lon": 5.0990187}, {"type": "node", "id": 10825133027, "lat": 52.0302922, "lon": 5.0970482}, {"type": "node", "id": 10825133028, "lat": 52.0314028, "lon": 5.0975176}, {"type": "node", "id": 10825133029, "lat": 52.0311848, "lon": 5.0989492}, {"type": "node", "id": 10970974465, "lat": 52.0261552, "lon": 5.0750193}, {"type": "node", "id": 10970974466, "lat": 52.0261002, "lon": 5.0752881}, {"type": "node", "id": 10970974467, "lat": 52.0260813, "lon": 5.0752804}, {"type": "node", "id": 10970974468, "lat": 52.0260211, "lon": 5.0755515}, {"type": "node", "id": 10970974469, "lat": 52.0258713, "lon": 5.0758196}, {"type": "node", "id": 10970974470, "lat": 52.0257746, "lon": 5.0757718}, {"type": "node", "id": 10970974471, "lat": 52.0257301, "lon": 5.075999}, {"type": "node", "id": 10970974472, "lat": 52.0256959, "lon": 5.0759821}, {"type": "node", "id": 10970974473, "lat": 52.0256324, "lon": 5.0762971}, {"type": "node", "id": 10970974474, "lat": 52.0249367, "lon": 5.0759151}, {"type": "node", "id": 10970974475, "lat": 52.0248954, "lon": 5.0757764}, {"type": "node", "id": 10970974476, "lat": 52.0250646, "lon": 5.0749938}, {"type": "node", "id": 10970974477, "lat": 52.0252172, "lon": 5.0750431}, {"type": "node", "id": 10970974478, "lat": 52.0253281, "lon": 5.0745317}, {"type": "node", "id": 10970974479, "lat": 52.0250864, "lon": 5.0749738}, {"type": "node", "id": 11458660670, "lat": 52.031097, "lon": 5.0796193}, {"type": "node", "id": 11458660671, "lat": 52.0313448, "lon": 5.0798616}, {"type": "node", "id": 12287561913, "lat": 52.0396673, "lon": 5.0987666, "tags": {"addr:city": "Nieuwegein", "addr:housenumber": "10A", "addr:postcode": "3439NK", "addr:street": "Newtonbaan", "amenity": "school", "name": "'t Hof van Rhijnhuysen", "source": "BAG", "source:date": "2024-10-24", "website": "https://www.thofvanrhijnhuysen.nl/"}}, {"type": "node", "id": 13116786300, "lat": 52.0451534, "lon": 5.0748491}, {"type": "node", "id": 13116786301, "lat": 52.0451451, "lon": 5.0748353}, {"type": "node", "id": 13116786302, "lat": 52.0451334, "lon": 5.0748032}, {"type": "node", "id": 13116786303, "lat": 52.0451193, "lon": 5.0747304}, {"type": "node", "id": 13116786304, "lat": 52.0451148, "lon": 5.0746593}, {"type": "node", "id": 13116786305, "lat": 52.0451179, "lon": 5.0745866}, {"type": "node", "id": 13116786306, "lat": 52.0451286, "lon": 5.0745105}, {"type": "node", "id": 13116786307, "lat": 52.045148, "lon": 5.0744364}, {"type": "node", "id": 13116786308, "lat": 52.0451666, "lon": 5.0743908}, {"type": "node", "id": 13116786309, "lat": 52.0451905, "lon": 5.0743371}, {"type": "node", "id": 13116786310, "lat": 52.0452226, "lon": 5.0742925}, {"type": "node", "id": 13116786311, "lat": 52.045241, "lon": 5.0741584}, {"type": "node", "id": 13116786312, "lat": 52.0452525, "lon": 5.0741621}, {"type": "node", "id": 13116786313, "lat": 52.0453872, "lon": 5.0752471}, {"type": "node", "id": 13116786314, "lat": 52.0454041, "lon": 5.0751606}, {"type": "way", "id": 85677067, "nodes": [854989460, 994008012, 994007996, 855085224, 855002063, 855070187, 854989460], "tags": {"amenity": "school", "name": "Montessorischool De Vleugel", "url": "https://www.devleugel.net"}}, {"type": "way", "id": 296552320, "nodes": [3003463660, 3003463664, 3003463665, 3003463669, 3003463933, 3003463228, 3003463936, 3003463992, 3003464001, 3003464011, 3003464020, 3003464009, 11458660670, 3003464341, 3003464352, 3003464350, 3003464838, 3003464841, 3003464847, 3003464833, 3003464872, 3003464876, 3003464883, 3003464882, 3003464567, 3003464569, 3003464574, 3003464557, 3003464551, 11458660671, 3003464878, 3003464885, 3003464870, 3003464843, 3003464840, 3003463430, 3003463431, 3003463988, 3003463986, 3003463978, 3003463979, 3003463959, 3003463950, 3003463660], "tags": {"amenity": "school", "building": "school", "name": "OBS De Schakel", "ref:bag": "356100000080318", "roof:shape": "flat", "source": "BAG", "source:date": "2014-08-07", "start_date": "1972"}}, {"type": "way", "id": 346990127, "nodes": [826365817, 826467423, 826421001, 3534316406, 826425472, 3534316405, 826474439, 3534316404, 3534316402, 3534316399, 3534316398, 3534316396, 3534316395, 2574407606, 2784256542, 3534315192, 3534315190, 3534316400, 3534316401, 3534316403, 826415112, 826365817], "tags": {"amenity": "school"}}, {"type": "way", "id": 467596948, "nodes": [4621987656, 13116786300, 13116786301, 13116786302, 13116786303, 13116786304, 13116786305, 13116786306, 13116786307, 13116786308, 13116786309, 13116786310, 13116786311, 13116786312, 855014104, 855069400, 4621987655, 13116786313, 13116786314, 4621987654, 4621987656], "tags": {"addr:city": "Nieuwegein", "addr:housenumber": "1", "addr:postcode": "3437WN", "addr:street": "Dasseweide", "amenity": "school", "barrier": "fence", "contact:phone": "+31 30 604 8400", "name": "SBO De Evenaar", "website": "https://www.sbo-evenaar.nl"}}, {"type": "way", "id": 792736688, "nodes": [7412726453, 7473755548, 7412726452, 7387386494, 7387386495, 3005068867, 3005069172, 3005065614, 3005069437, 3005068419, 7387383474, 7387383453, 7387383454, 7412726450, 7412726449, 3005067716, 7412726448, 3005067459, 3005067437, 7387383481, 7387383480, 7387386486, 7412726453], "tags": {"addr:city": "Nieuwegein", "addr:housenumber": "1", "addr:street": "Albatros", "alt_name": "Anna van Rijn College", "amenity": "school", "email": "info-albatros@annavanrijn.nl", "name": "Anna Lyceum en Anna MAVO", "religion": "none", "website": "https://annavanrijn.nl/"}}, {"type": "way", "id": 1163980253, "nodes": [10825133027, 10825133028, 10825133029, 10825133025, 10825133026, 10825133024, 10825133027], "tags": {"amenity": "school", "name": "Oosterlicht College", "wheelchair": "limited"}}, {"type": "way", "id": 1181348367, "nodes": [10970974465, 10970974466, 10970974467, 10970974468, 10970974469, 10970974470, 10970974471, 10970974472, 10970974473, 10970974474, 10970974475, 10970974476, 10970974479, 10970974477, 10970974478, 10970974465], "tags": {"amenity": "school", "name": "Openbare Basisschool de Krullevaar"}}]}