{"version": 0.6, "generator": "Overpass API 0.7.62.8 e802775f", "osm3s": {"timestamp_osm_base": "2026-01-13T02:41:55Z", "copyright": "The data included in this document is from www.openstreetmap.org. The data is made available under ODbL."}, "elements": [{"type": "node", "id": 4596525092, "lat": 17.3246469, "lon": 78.5661745, "tags": {"highway": "bus_stop", "name": "NGO'S bus stop", "name:en": "NGO'S bus stop"}}, {"type": "node", "id": 4867334021, "lat": 17.3324953, "lon": 78.5303283, "tags": {"amenity": "bus_station", "bus": "yes", "name": "Emlibun", "name:hi": "Emlibun", "public_transport": "station"}}, {"type": "node", "id": 7171247795, "lat": 17.3091766, "lon": 78.5331199, "tags": {"bus": "yes", "highway": "bus_stop", "name": "almasguda bus stop", "public_transport": "platform"}}, {"type": "node", "id": 7432609392, "lat": 17.3294749, "lon": 78.5536367, "tags": {"bus": "yes", "highway": "bus_stop", "public_transport": "platform"}}, {"type": "node", "id": 10992518094, "lat": 17.3249083, "lon": 78.5664619, "tags": {"amenity": "bus_station", "bus": "yes", "name": "TSRTC BUS STAND , N.G.O\"S COLONY", "public_transport": "station"}}]}