{"version": 0.6, "generator": "Overpass API 0.7.62.8 e802775f", "osm3s": {"timestamp_osm_base": "2026-01-12T19:41:30Z", "copyright": "The data included in this document is from www.openstreetmap.org. The data is made available under ODbL."}, "elements": [{"type": "node", "id": 253514988, "lat": 12.9323769, "lon": 77.707985, "tags": {"bridge:support": "pier"}}, {"type": "node", "id": 253514989, "lat": 12.9317507, "lon": 77.7080327}, {"type": "node", "id": 253514990, "lat": 12.9311801, "lon": 77.7080059}, {"type": "node", "id": 253514991, "lat": 12.930583, "lon": 77.7079295}, {"type": "node", "id": 253514992, "lat": 12.9261717, "lon": 77.7069361}, {"type": "node", "id": 253514993, "lat": 12.9231365, "lon": 77.7062303}, {"type": "node", "id": 253514999, "lat": 12.9211369, "lon": 77.705759}, {"type": "node", "id": 253515009, "lat": 12.9186275, "lon": 77.7051672}, {"type": "node", "id": 253515017, "lat": 12.9180119, "lon": 77.7050962}, {"type": "node", "id": 253515022, "lat": 12.9173727, "lon": 77.7050251}, {"type": "node", "id": 253515023, "lat": 12.9165442, "lon": 77.7050488}, {"type": "node", "id": 253515024, "lat": 12.9158103, "lon": 77.7051198}, {"type": "node", "id": 264191750, "lat": 12.8410319, "lon": 77.6600262, "tags": {"alt_name": "Shikaripalya Cross", "bus": "yes", "highway": "bus_stop", "name": "Wipro Gate", "name:en": "Wipro Gate", "name:kn": "\u0cb5\u0cbf\u0caa\u0ccd\u0cb0\u0ccb \u0c97\u0cc7\u0c9f\u0ccd", "network": "BMTC", "operator": "BMTC", "public_transport": "platform"}}, {"type": "node", "id": 264845794, "lat": 12.8863586, "lon": 77.6724875, "tags": {"bus": "yes", "name": "KSRP Training Centre", "name:en": "KSRP Training Centre", "network": "Bus", "operator": "BMTC", "public_transport": "stop_position"}}, {"type": "node", "id": 267111272, "lat": 12.8347115, "lon": 77.6564143, "tags": {"highway": "bus_stop"}}, {"type": "node", "id": 293711129, "lat": 12.8922084, "lon": 77.7073426}, {"type": "node", "id": 293711130, "lat": 12.8841428, "lon": 77.708115}, {"type": "node", "id": 293711131, "lat": 12.870827, "lon": 77.7093965}, {"type": "node", "id": 293711132, "lat": 12.8633046, "lon": 77.7101059}, {"type": "node", "id": 293711133, "lat": 12.8527207, "lon": 77.711115, "tags": {"crossing:barrier": "full", "railway": "level_crossing"}}, {"type": "node", "id": 293711135, "lat": 12.847403, "lon": 77.7116175}, {"type": "node", "id": 293711136, "lat": 12.8414592, "lon": 77.7121577}, {"type": "node", "id": 293711137, "lat": 12.8340531, "lon": 77.7128357}, {"type": "node", "id": 293711138, "lat": 12.8327978, "lon": 77.7129387}, {"type": "node", "id": 293711139, "lat": 12.8319525, "lon": 77.7130074}, {"type": "node", "id": 293711140, "lat": 12.8310069, "lon": 77.713016}, {"type": "node", "id": 293711568, "lat": 12.8299608, "lon": 77.7129731}, {"type": "node", "id": 293711569, "lat": 12.8286469, "lon": 77.7128186}, {"type": "node", "id": 293711570, "lat": 12.8272111, "lon": 77.7126762}, {"type": "node", "id": 293711571, "lat": 12.8200352, "lon": 77.7119311}, {"type": "node", "id": 293711572, "lat": 12.8153112, "lon": 77.7114218}, {"type": "node", "id": 293711574, "lat": 12.8097541, "lon": 77.7108501}, {"type": "node", "id": 293711575, "lat": 12.8077658, "lon": 77.7106213}, {"type": "node", "id": 310396851, "lat": 12.8357203, "lon": 77.656811}, {"type": "node", "id": 695068066, "lat": 12.9087734, "lon": 77.7057481, "tags": {"crossing:barrier": "full", "railway": "level_crossing"}}, {"type": "node", "id": 695078633, "lat": 12.8668407, "lon": 77.7097655}, {"type": "node", "id": 695079388, "lat": 12.857, "lon": 77.7106626, "tags": {"crossing:barrier": "full", "railway": "level_crossing"}}, {"type": "node", "id": 695117609, "lat": 12.8393222, "lon": 77.7123533, "tags": {"check_date:crossing:barrier": "2023-01-18", "crossing:barrier": "full", "railway": "level_crossing"}}, {"type": "node", "id": 1417340828, "lat": 12.8895775, "lon": 77.6394582, "tags": {"bench": "yes", "bin": "no", "bus": "yes", "highway": "bus_stop", "name": "Kudlu Gate", "network": "BMTC", "network:wikidata": "Q3345039", "operator": "BMTC", "public_transport": "platform", "shelter": "yes"}}, {"type": "node", "id": 1471687832, "lat": 12.904862, "lon": 77.6300651, "tags": {"bus": "yes", "highway": "bus_stop", "name": "Bommanahalli", "name:kn": "\u0cac\u0cca\u0cae\u0ccd\u0cae\u0ca8\u0cb9\u0cb3\u0ccd\u0cb3\u0cbf", "network": "BMTC", "network:wikidata": "Q3345039", "operator": "BMTC", "public_transport": "platform", "shelter": "yes"}}, {"type": "node", "id": 1471813604, "lat": 12.8773381, "lon": 77.6469899, "tags": {"bus": "yes", "highway": "bus_stop", "name": "Singasandra", "name:kn": "\u0cb8\u0cbf\u0c82\u0c97\u0cb8\u0c82\u0ca6\u0ccd\u0cb0", "network": "BMTC", "network:wikidata": "Q3345039", "operator": "BMTC", "public_transport": "platform"}}, {"type": "node", "id": 1472141960, "lat": 12.8797812, "lon": 77.6245363, "tags": {"highway": "bus_stop", "name": "Aralekatte Bus Stop", "name:kn": "\u0c85\u0cb0\u0cb3\u0cc6\u0c95\u0c9f\u0ccd\u0c9f\u0cc6", "shelter": "no"}}, {"type": "node", "id": 1472934564, "lat": 12.8678276, "lon": 77.6159932, "tags": {"highway": "bus_stop", "name": "Yelenahalli Bus Stop", "name:kn": "\u0c8e\u0cb2\u0cc7\u0ca8\u0cb9\u0cb3\u0ccd\u0cb3\u0cbf", "wheelchair": "no"}}, {"type": "node", "id": 1473298100, "lat": 12.8962931, "lon": 77.6357338, "tags": {"bench": "yes", "bus": "yes", "covered": "yes", "highway": "bus_stop", "name": "Garavebhavipalaya", "name:en": "Garavebhavipalaya", "name:kn": "\u0c97\u0cb0\u0cb5\u0cc7\u0cad\u0cbe\u0cb5\u0cbf \u0caa\u0cbe\u0cb3\u0ccd\u0caf", "network": "BMTC", "network:wikidata": "Q3345039", "operator": "BMTC", "public_transport": "platform", "shelter": "yes"}}, {"type": "node", "id": 1577982346, "lat": 12.8809349, "lon": 77.6448028}, {"type": "node", "id": 1577982399, "lat": 12.8707184, "lon": 77.6524979}, {"type": "node", "id": 1577982449, "lat": 12.8188632, "lon": 77.6888615}, {"type": "node", "id": 1577982500, "lat": 12.8295021, "lon": 77.6812499}, {"type": "node", "id": 1595181210, "lat": 12.8385045, "lon": 77.6586055, "tags": {"bench": "yes", "covered": "yes", "highway": "bus_stop", "name": "Wipro Gate", "name:en": "Wipro Gate", "name:kn": "\u0cb5\u0cbf\u0caa\u0ccd\u0cb0\u0ccb \u0c97\u0cc7\u0c9f\u0ccd", "network": "BMTC", "operator": "BMTC", "public_transport": "platform", "shelter": "yes"}}, {"type": "node", "id": 1723844502, "lat": 12.8962015, "lon": 77.6353965, "tags": {"bus": "yes", "highway": "bus_stop", "name": "Garavebhavipalaya", "name:kn": "\u0c97\u0cb0\u0cb5\u0cc7\u0cad\u0cbe\u0cb5\u0cbf \u0caa\u0cbe\u0cb3\u0ccd\u0caf", "network": "BMTC", "network:wikidata": "Q3345039", "operator": "BMTC", "public_transport": "platform"}}, {"type": "node", "id": 1724216387, "lat": 12.843408, "lon": 77.6442785, "tags": {"bus": "yes", "name": "Thogur Cross", "name:en": "Thogur Cross", "network": "BMTC", "operator": "BMTC", "public_transport": "stop_position"}}, {"type": "node", "id": 1725691266, "lat": 12.8899174, "lon": 77.6396808, "tags": {"bus": "yes", "highway": "bus_stop", "name": "Kudlu Gate", "name:kn": "\u0c95\u0cc1\u0ca1\u0ccd\u0cb2\u0cc1 \u0c97\u0cc7\u0c9f\u0ccd", "network": "BMTC", "network:wikidata": "Q3345039", "operator": "BMTC", "public_transport": "platform"}}, {"type": "node", "id": 1726116452, "lat": 12.8541313, "lon": 77.6661087, "tags": {"bus": "yes", "highway": "bus_stop", "name": "Konappana Agrahara", "name:kn": "\u0c95\u0ccb\u0ca8\u0caa\u0ccd\u0caa\u0ca8 \u0c85\u0c97\u0ccd\u0cb0\u0cb9\u0cbe\u0cb0", "network": "BMTC", "network:wikidata": "Q3345039", "operator": "BMTC", "public_transport": "platform"}}, {"type": "node", "id": 1727454962, "lat": 12.8787449, "lon": 77.6465392, "tags": {"bench": "no", "bin": "yes", "bus": "yes", "highway": "bus_stop", "lit": "no", "name": "Singasandra", "name:kn": "\u0cb8\u0cbf\u0c82\u0c97\u0cb8\u0c82\u0ca6\u0ccd\u0cb0", "network": "BMTC", "network:wikidata": "Q3345039", "operator": "BMTC", "public_transport": "platform", "shelter": "yes"}}, {"type": "node", "id": 1733896359, "lat": 12.8256264, "lon": 77.6829138, "tags": {"bench": "yes", "bus": "yes", "highway": "bus_stop", "name": "Hebbagodi", "name:en": "Hebbagodi", "name:kn": "\u0cb9\u0cc6\u0cac\u0ccd\u0cac\u0c97\u0ccb\u0ca1\u0cbf", "network": "BMTC", "network:wikidata": "Q3345039", "operator": "BMTC", "public_transport": "platform", "shelter": "yes", "wheelchair": "limited"}}, {"type": "node", "id": 1782809606, "lat": 12.8405487, "lon": 77.6519047, "tags": {"bus": "yes", "name": "Concord Apartment Electronic City", "name:en": "Concord Apartment Electronic City", "network": "BMTC", "operator": "BMTC", "public_transport": "stop_position"}}, {"type": "node", "id": 1814895823, "lat": 12.8257037, "lon": 77.6832319, "tags": {"bus": "yes", "highway": "bus_stop", "loc_name": "Hebbagodi", "name": "Hebbagodi", "name:en": "Hebbagodi", "network": "BMTC", "operator": "BMTC", "public_transport": "platform"}}, {"type": "node", "id": 1894649482, "lat": 12.8509524, "lon": 77.6603235, "tags": {"bus": "yes", "name": "Crown Plaza", "name:en": "Crown Plaza", "network": "BMTC", "operator": "BMTC", "public_transport": "stop_position"}}, {"type": "node", "id": 1923371996, "lat": 12.8364248, "lon": 77.6571587}, {"type": "node", "id": 1989451124, "lat": 12.8482046, "lon": 77.6707682, "tags": {"bus": "yes", "highway": "bus_stop", "name": "Electronics City Depot No: 19 Gate", "network": "BMTC", "network:wikidata": "Q3345039", "operator": "BMTC", "public_transport": "platform", "shelter": "yes"}}, {"type": "node", "id": 2117002517, "lat": 12.853297, "lon": 77.6663956, "tags": {"bench": "yes", "bin": "yes", "bus": "yes", "highway": "bus_stop", "lit": "yes", "name": "Konappana Agrahara", "name:kn": "\u0c95\u0ccb\u0ca8\u0caa\u0ccd\u0caa\u0ca8 \u0c85\u0c97\u0ccd\u0cb0\u0cb9\u0cbe\u0cb0", "network": "BMTC", "network:wikidata": "Q3345039", "operator": "BMTC", "public_transport": "platform", "shelter": "yes"}}, {"type": "node", "id": 2389211795, "lat": 12.8271766, "lon": 77.6824768, "tags": {"bench": "no", "bin": "no", "bus": "yes", "highway": "bus_stop", "name": "Hebbagodi", "name:kn": "\u0cb9\u0cc6\u0cac\u0ccd\u0cac\u0c97\u0ccb\u0ca1\u0cbf", "public_transport": "platform", "shelter": "no"}}, {"type": "node", "id": 2389313585, "lat": 12.8707281, "lon": 77.652939, "tags": {"addr:floor": "G", "bench": "yes", "bin": "yes", "bus": "yes", "highway": "bus_stop", "level": "0", "lit": "yes", "name": "Hosa Road Jn", "name:en": "Hosa Road Jn", "name:kn": "\u0cb9\u0cca\u0cb8 \u0cb0\u0cb8\u0ccd\u0ca4\u0cc6", "network": "BMTC", "network:wikidata": "Q3345039", "operator": "BMTC", "public_transport": "platform", "shelter": "yes", "tactile_paving": "no", "wheelchair": "limited"}}, {"type": "node", "id": 2389313587, "lat": 12.8691514, "lon": 77.6537524, "tags": {"bench": "no", "bin": "no", "bus": "yes", "highway": "bus_stop", "name": "Hosa Road", "name:kn": "\u0cb9\u0cca\u0cb8 \u0cb0\u0cb8\u0ccd\u0ca4\u0cc6", "network": "BMTC", "network:wikidata": "Q3345039", "operator": "BMTC", "public_transport": "platform", "shelter": "no"}}, {"type": "node", "id": 2397249178, "lat": 12.8362487, "lon": 77.6575532}, {"type": "node", "id": 2397265625, "lat": 12.835666, "lon": 77.6569167}, {"type": "node", "id": 2397265640, "lat": 12.8355357, "lon": 77.6571943}, {"type": "node", "id": 2397431941, "lat": 12.8389214, "lon": 77.6597223, "tags": {"amenity": "bus_station", "bus": "yes", "name": "Wipro EC Bus Stand", "name:kn": "\u0cb5\u0cbf\u0caa\u0ccd\u0cb0\u0ccb \u0c87\u0cb8\u0cbf \u0cac\u0cb8\u0ccd \u0cb8\u0ccd\u0c9f\u0cbe\u0c82\u0ca1\u0ccd", "public_transport": "station"}}, {"type": "node", "id": 2397514888, "lat": 12.8362675, "lon": 77.6575111}, {"type": "node", "id": 2398152712, "lat": 12.8415549, "lon": 77.6479047, "tags": {"bus": "yes", "name": "Neeladri Nagar", "name:en": "Neeladri Nagar", "name:kn": "\u0ca8\u0cc0\u0cb2\u0cbe\u0ca6\u0ccd\u0cb0\u0cbf\u0ca8\u0c97\u0cb0", "network": "BMTC", "operator": "BMTC", "public_transport": "stop_position"}}, {"type": "node", "id": 2623047212, "lat": 12.8476007, "lon": 77.670661, "tags": {"bus": "yes", "highway": "bus_stop", "name": "Electronic City Depot No: 19 Gate", "network": "BMTC", "network:wikidata": "Q3345039", "operator": "BMTC", "public_transport": "platform"}}, {"type": "node", "id": 2625813360, "lat": 12.82068, "lon": 77.6871146, "tags": {"bus": "yes", "highway": "bus_stop", "name": "Bommasandra", "name:en": "Bommasandra", "name:kn": "\u0cac\u0cca\u0cae\u0ccd\u0cae\u0cb8\u0c82\u0ca6\u0ccd\u0cb0", "network": "BMTC", "operator": "BMTC", "public_transport": "platform", "wheelchair": "limited"}}, {"type": "node", "id": 2647643918, "lat": 12.8406381, "lon": 77.6517192, "tags": {"alt_name": "Concorde Manhattans", "highway": "bus_stop", "name": "Concord Apartment Electronic City", "name:en": "Concord Apartment Electronic City", "network": "BMTC", "operator": "BMTC", "public_transport": "platform"}}, {"type": "node", "id": 2647643919, "lat": 12.8475946, "lon": 77.6581866, "tags": {"bench": "no", "highway": "bus_stop", "name": "HP", "shelter": "no"}}, {"type": "node", "id": 2647643922, "lat": 12.8449776, "lon": 77.6600659, "tags": {"bench": "no", "bus": "yes", "highway": "bus_stop", "name": "Siemens", "name:kn": "\u0cb8\u0cc0\u0cae\u0cc6\u0ca8\u0ccd\u0cb8\u0ccd", "network": "BMTC", "network:wikidata": "Q3345039", "operator": "BMTC", "public_transport": "platform", "shelter": "no"}}, {"type": "node", "id": 2647643923, "lat": 12.8455057, "lon": 77.6621117, "tags": {"highway": "bus_stop", "name": "Siemens", "name:en": "Siemens", "name:kn": "\u0cb8\u0cc0\u0cae\u0cc6\u0ca8\u0ccd\u0cb8\u0ccd", "network": "BMTC", "operator": "BMTC", "public_transport": "platform"}}, {"type": "node", "id": 2647643924, "lat": 12.8510779, "lon": 77.6577483, "tags": {"bench": "yes", "highway": "bus_stop", "name": "Velankani", "name:kn": "\u0cb5\u0cc6\u0cb2\u0cbe\u0c82\u0c95\u0ca8\u0cbf", "operator": "BMTC", "shelter": "yes", "wheelchair": "yes"}}, {"type": "node", "id": 2647643925, "lat": 12.8390686, "lon": 77.6585846, "tags": {"bench": "no", "bus": "yes", "highway": "bus_stop", "name": "Wipro Gate", "name:kn": "\u0cb5\u0cbf\u0caa\u0ccd\u0cb0\u0ccb \u0c97\u0cc7\u0c9f\u0ccd", "network": "BMTC", "network:wikidata": "Q3345039", "operator": "BMTC", "public_transport": "platform", "shelter": "no"}}, {"type": "node", "id": 2647774009, "lat": 12.837131, "lon": 77.6786401, "tags": {"bench": "yes", "bin": "no", "bus": "yes", "check_date:shelter": "2021-11-27", "highway": "bus_stop", "name": "Huskur Gate", "name:kn": "\u0cb9\u0cc1\u0cb8\u0ccd\u0c95\u0cc2\u0cb0\u0ccd \u0c97\u0cc7\u0c9f\u0ccd", "public_transport": "platform", "shelter": "yes"}}, {"type": "node", "id": 2647774010, "lat": 12.8372622, "lon": 77.6789864, "tags": {"bench": "yes", "bin": "no", "bus": "yes", "highway": "bus_stop", "name": "Huskur Gate", "name:en": "Huskur Gate", "name:kn": "\u0cb9\u0cc1\u0cb8\u0ccd\u0c95\u0cc2\u0cb0\u0ccd \u0c97\u0cc7\u0c9f\u0ccd", "network": "BMTC", "operator": "BMTC", "public_transport": "platform", "shelter": "yes"}}, {"type": "node", "id": 2661138086, "lat": 12.9021297, "lon": 77.706388}, {"type": "node", "id": 2661138099, "lat": 12.9022861, "lon": 77.706373}, {"type": "node", "id": 2908681030, "lat": 12.8739338, "lon": 77.6257894, "tags": {"highway": "bus_stop", "name": "Begur", "name:kn": "\u0cac\u0cc7\u0c97\u0cc2\u0cb0\u0cc1"}}, {"type": "node", "id": 2938998578, "lat": 12.8982379, "lon": 77.6180258, "tags": {"highway": "bus_stop", "name": "Kodichikkanahalli", "name:kn": "\u0c95\u0ccb\u0ca1\u0cbf\u0c9a\u0cbf\u0c95\u0ccd\u0c95\u0ca8\u0cb9\u0cb3\u0ccd\u0cb3\u0cbf"}}, {"type": "node", "id": 2989201198, "lat": 12.8343858, "lon": 77.6975391, "tags": {"bus": "yes", "highway": "bus_stop", "name": "Sampige Nagara", "name:kn": "\u0cb8\u0c82\u0caa\u0cbf\u0c97\u0cc6 \u0ca8\u0c97\u0cb0", "operator": "Bangalore Metropolitan Transport Corporation", "public_transport": "platform"}}, {"type": "node", "id": 3558431084, "lat": 12.879753, "lon": 77.624602, "tags": {"highway": "bus_stop", "name": "Aralekatte Bus Stop", "name:kn": "\u0c85\u0cb0\u0cb3\u0cc6\u0c95\u0c9f\u0ccd\u0c9f\u0cc6", "shelter": "no"}}, {"type": "node", "id": 4107837699, "lat": 12.8563854, "lon": 77.6636413}, {"type": "node", "id": 4565334025, "lat": 12.8930672, "lon": 77.7072582}, {"type": "node", "id": 5018216139, "lat": 12.9169198, "lon": 77.6216107}, {"type": "node", "id": 5018216143, "lat": 12.9132082, "lon": 77.6249592}, {"type": "node", "id": 5018216188, "lat": 12.9106217, "lon": 77.6265042}, {"type": "node", "id": 5018250535, "lat": 12.8713203, "lon": 77.6520095}, {"type": "node", "id": 5018250537, "lat": 12.8766448, "lon": 77.6474603}, {"type": "node", "id": 5018250538, "lat": 12.8959546, "lon": 77.6355179}, {"type": "node", "id": 5018250539, "lat": 12.8905484, "lon": 77.6388638}, {"type": "node", "id": 5018250540, "lat": 12.8782921, "lon": 77.6464115}, {"type": "node", "id": 5018250541, "lat": 12.8884423, "lon": 77.6401861}, {"type": "node", "id": 5018250542, "lat": 12.8942937, "lon": 77.636604}, {"type": "node", "id": 5018250544, "lat": 12.8839707, "lon": 77.6429396}, {"type": "node", "id": 5018250553, "lat": 12.8716458, "lon": 77.6517427}, {"type": "node", "id": 5018250554, "lat": 12.8796651, "lon": 77.6455692}, {"type": "node", "id": 5018250557, "lat": 12.8700725, "lon": 77.6529909}, {"type": "node", "id": 5018250560, "lat": 12.8769402, "lon": 77.6472322}, {"type": "node", "id": 5018250561, "lat": 12.8731271, "lon": 77.6506094}, {"type": "node", "id": 5018250565, "lat": 12.8743339, "lon": 77.6495352}, {"type": "node", "id": 5018250571, "lat": 12.9038321, "lon": 77.6307047}, {"type": "node", "id": 5018250572, "lat": 12.8895614, "lon": 77.63947, "tags": {"alt_name": "Muneshwara Nagar", "code": "MSRN", "name": "Kudlu Gate", "name:en": "Kudlu Gate", "name:kn": "\u0c95\u0cc1\u0ca1\u0ccd\u0cb2\u0cc1 \u0c97\u0cc7\u0c9f\u0ccd", "network": "Namma Metro", "note": "Contributors are requested to not edit the \"network\" and the \"operator\" tags. (2023/11/08)", "operator": "Bangalore Metro Rail Corporation Limited", "public_transport": "stop_position", "public_transport:version": "2", "railway": "stop", "source": "http://www.bmrc.co.in/English/Network.htm", "subway": "yes", "wheelchair": "yes"}}, {"type": "node", "id": 5018250574, "lat": 12.9065644, "lon": 77.6290141}, {"type": "node", "id": 5018250576, "lat": 12.8773573, "lon": 77.6469479}, {"type": "node", "id": 5018250577, "lat": 12.9003404, "lon": 77.6328666}, {"type": "node", "id": 5018285436, "lat": 12.8315657, "lon": 77.680563}, {"type": "node", "id": 5018285437, "lat": 12.8380226, "lon": 77.6782255}, {"type": "node", "id": 5018285438, "lat": 12.8573291, "lon": 77.6628562}, {"type": "node", "id": 5018285439, "lat": 12.8310191, "lon": 77.68074}, {"type": "node", "id": 5018285440, "lat": 12.8639524, "lon": 77.6578927}, {"type": "node", "id": 5018285442, "lat": 12.843568, "lon": 77.6739674}, {"type": "node", "id": 5018285443, "lat": 12.8628664, "lon": 77.6587439}, {"type": "node", "id": 5018285446, "lat": 12.8550284, "lon": 77.6649217}, {"type": "node", "id": 5018285447, "lat": 12.855822, "lon": 77.6641411}, {"type": "node", "id": 5018285448, "lat": 12.8480691, "lon": 77.6702175}, {"type": "node", "id": 5018285449, "lat": 12.8455327, "lon": 77.671849}, {"type": "node", "id": 5018285450, "lat": 12.8605345, "lon": 77.6605906}, {"type": "node", "id": 5018285452, "lat": 12.8475484, "lon": 77.6704948}, {"type": "node", "id": 5018285453, "lat": 12.8485803, "lon": 77.6698688}, {"type": "node", "id": 5018285454, "lat": 12.8469771, "lon": 77.670854}, {"type": "node", "id": 5018285455, "lat": 12.8366916, "lon": 77.6788209}, {"type": "node", "id": 5018285456, "lat": 12.838543, "lon": 77.677866}, {"type": "node", "id": 5018285457, "lat": 12.8402546, "lon": 77.6765625}, {"type": "node", "id": 5018285458, "lat": 12.834921, "lon": 77.6795116}, {"type": "node", "id": 5018285461, "lat": 12.8504417, "lon": 77.6684448}, {"type": "node", "id": 5018285463, "lat": 12.857952, "lon": 77.6624071}, {"type": "node", "id": 5018285464, "lat": 12.844499, "lon": 77.6731078}, {"type": "node", "id": 5018285465, "lat": 12.8453354, "lon": 77.6720701}, {"type": "node", "id": 5018285466, "lat": 12.8457169, "lon": 77.6717026}, {"type": "node", "id": 5018285467, "lat": 12.8528881, "lon": 77.6665847}, {"type": "node", "id": 5018285469, "lat": 12.8279964, "lon": 77.6817429}, {"type": "node", "id": 5018285470, "lat": 12.8449742, "lon": 77.6725738}, {"type": "node", "id": 5018285472, "lat": 12.859178, "lon": 77.661577}, {"type": "node", "id": 5018285474, "lat": 12.8646247, "lon": 77.6573064}, {"type": "node", "id": 5018297452, "lat": 12.8179898, "lon": 77.6896114}, {"type": "node", "id": 5018297458, "lat": 12.8251262, "lon": 77.6831752}, {"type": "node", "id": 5018297461, "lat": 12.8185037, "lon": 77.6891876}, {"type": "node", "id": 5018297464, "lat": 12.8271734, "lon": 77.6821039}, {"type": "node", "id": 5018297468, "lat": 12.8245626, "lon": 77.683595}, {"type": "node", "id": 5018297477, "lat": 12.8162361, "lon": 77.6910088}, {"type": "node", "id": 5018297479, "lat": 12.8173005, "lon": 77.6901733}, {"type": "node", "id": 5018297489, "lat": 12.8260415, "lon": 77.6826964}, {"type": "node", "id": 5018297497, "lat": 12.820076, "lon": 77.6877575}, {"type": "node", "id": 5018297502, "lat": 12.8220526, "lon": 77.6859542}, {"type": "node", "id": 5279552026, "lat": 12.8359981, "lon": 77.6571688, "tags": {"amenity": "bus_station", "bench": "yes", "bus": "yes", "covered": "yes", "name": "Electronic City Wipro Main Gate", "name:en": "Electronic City Wipro Main Gate", "network": "Bus", "operator": "BMTC", "public_transport": "platform", "shelter": "yes"}}, {"type": "node", "id": 5631135849, "lat": 12.849798, "lon": 77.6630102, "tags": {"bus": "yes", "public_transport": "stop_position"}}, {"type": "node", "id": 5631135851, "lat": 12.8455152, "lon": 77.6649677, "tags": {"alt_name": "State Bank of India", "bench": "yes", "bin": "yes", "bus": "yes", "highway": "bus_stop", "lit": "no", "name": "State Bank of India", "name:kn": "\u0cad\u0cbe\u0cb0\u0ca4\u0cc0\u0caf \u0cb8\u0ccd\u0c9f\u0cc7\u0c9f\u0ccd \u0cac\u0ccd\u0caf\u0cbe\u0c82\u0c95\u0ccd", "network": "BMTC", "network:wikidata": "Q3345039", "operator": "BMTC", "public_transport": "platform", "shelter": "yes"}}, {"type": "node", "id": 5631135852, "lat": 12.8498255, "lon": 77.6630817, "tags": {"name": "Infosys Bus Station", "name:kn": "\u0cac\u0cb8\u0ccd \u0ca8\u0cbf\u0cb2\u0ccd\u0ca6\u0cbe\u0ca8", "operator": "BMTC", "public_transport": "platform"}}, {"type": "node", "id": 5760197803, "lat": 12.8172772, "lon": 77.6901514}, {"type": "node", "id": 5760197804, "lat": 12.8179575, "lon": 77.6895975}, {"type": "node", "id": 5760197805, "lat": 12.818484, "lon": 77.6891516}, {"type": "node", "id": 5760197806, "lat": 12.8193944, "lon": 77.6883453, "tags": {"code": "BMSD", "layer": "1", "lit": "yes", "name": "Delta Electronics Bommasandra", "name:en": "Delta Electronics Bommasandra", "name:kn": "\u0ca1\u0cc6\u0cb2\u0ccd\u0c9f\u0cbe \u0c8e\u0cb2\u0cc6\u0c95\u0ccd\u0c9f\u0ccd\u0cb0\u0cbe\u0ca8\u0cbf\u0c95\u0ccd\u0cb8\u0ccd \u0cac\u0cca\u0cae\u0ccd\u0cae\u0cb8\u0c82\u0ca6\u0ccd\u0cb0", "network": "Namma Metro", "note": "Contributors are requested to not edit the \"network\" and the \"operator\" tags. (2023/11/08)", "operator": "Bangalore Metro Rail Corporation Limited", "platforms": "2", "public_transport": "station", "public_transport:version": "2", "railway": "station", "ref": "BMSD", "shelter": "yes", "start_date": "2025-08-10", "station": "subway", "subway": "yes", "website": "https://english.brmc.co.in", "wheelchair": "yes"}}, {"type": "node", "id": 5760197807, "lat": 12.8200439, "lon": 77.6877332}, {"type": "node", "id": 5760197808, "lat": 12.8220243, "lon": 77.6859328}, {"type": "node", "id": 5760197809, "lat": 12.8245491, "lon": 77.6835611}, {"type": "node", "id": 5760197810, "lat": 12.8251124, "lon": 77.6831457}, {"type": "node", "id": 5760197811, "lat": 12.8260193, "lon": 77.6826745}, {"type": "node", "id": 5760197812, "lat": 12.8271471, "lon": 77.6820854}, {"type": "node", "id": 5760197813, "lat": 12.8279979, "lon": 77.6817098}, {"type": "node", "id": 5760197814, "lat": 12.8294934, "lon": 77.6812139}, {"type": "node", "id": 5760197815, "lat": 12.8310175, "lon": 77.6807093}, {"type": "node", "id": 5760197816, "lat": 12.8315503, "lon": 77.6805328}, {"type": "node", "id": 5760197817, "lat": 12.8349053, "lon": 77.679482}, {"type": "node", "id": 5760197818, "lat": 12.836664, "lon": 77.6787967}, {"type": "node", "id": 5760197820, "lat": 12.8379911, "lon": 77.6782024}, {"type": "node", "id": 5760198121, "lat": 12.8385126, "lon": 77.6778392}, {"type": "node", "id": 5760198122, "lat": 12.8391572, "lon": 77.6773716, "tags": {"alt_name": "Veerasandra", "alt_name:kn": "\u0cb5\u0cc0\u0cb0\u0cb8\u0c82\u0ca6\u0ccd\u0cb0", "code": "HSKR", "layer": "1", "lit": "yes", "name": "Huskur Road", "name:en": "Huskur Road", "name:kn": "\u0cb9\u0cc1\u0cb8\u0ccd\u0c95\u0cc2\u0cb0\u0cc1 \u0cb0\u0cb8\u0ccd\u0ca4\u0cc6", "network": "Namma Metro", "note": "Contributors are requested to not edit the \"network\" and the \"operator\" tags. (2023/11/08)", "operator": "Bangalore Metro Rail Corporation Limited", "platforms": "2", "public_transport": "station", "public_transport:version": "2", "railway": "station", "shelter": "yes", "start_date": "2025-08-10", "station": "subway", "subway": "yes", "website": "https://english.brmc.co.in", "wheelchair": "yes"}}, {"type": "node", "id": 5760198123, "lat": 12.8402301, "lon": 77.6765258}, {"type": "node", "id": 5760198126, "lat": 12.8435452, "lon": 77.6739366}, {"type": "node", "id": 5760198128, "lat": 12.844466, "lon": 77.6730817}, {"type": "node", "id": 5760198129, "lat": 12.8449409, "lon": 77.6725413}, {"type": "node", "id": 5760198130, "lat": 12.8453019, "lon": 77.672041}, {"type": "node", "id": 5760198131, "lat": 12.8454945, "lon": 77.6718227}, {"type": "node", "id": 5760198132, "lat": 12.8456949, "lon": 77.6716687}, {"type": "node", "id": 5760198133, "lat": 12.8464134, "lon": 77.6711655, "tags": {"code": "ECTN", "layer": "1", "lit": "yes", "name": "Infosys Foundation Konappana Agrahara", "name:en": "Infosys Foundation Konappana Agrahara", "name:kn": "\u0c87\u0ca8\u0ccd\u0cab\u0ccb\u0cb8\u0cbf\u0cb8\u0ccd \u0cab\u0ccc\u0c82\u0ca1\u0cc7\u0cb6\u0ca8\u0ccd \u0c95\u0cca\u0ca8\u0caa\u0ccd\u0caa\u0ca8 \u0c85\u0c97\u0ccd\u0cb0\u0cb9\u0cbe\u0cb0", "network": "Namma Metro", "note": "Contributors are requested to not edit the \"network\" and the \"operator\" tags. (2023/11/08)", "operator": "Bangalore Metro Rail Corporation Limited", "platforms": "2", "public_transport": "station", "public_transport:version": "2", "railway": "station", "shelter": "yes", "start_date": "2025-08-10", "station": "subway", "subway": "yes", "website": "https://english.brmc.co.in", "wheelchair": "yes"}}, {"type": "node", "id": 5760198134, "lat": 12.84695, "lon": 77.6708154}, {"type": "node", "id": 5760198137, "lat": 12.8475327, "lon": 77.6704667}, {"type": "node", "id": 5760198139, "lat": 12.8480561, "lon": 77.6701753}, {"type": "node", "id": 5760198140, "lat": 12.8485514, "lon": 77.6698355}, {"type": "node", "id": 5760198141, "lat": 12.8504165, "lon": 77.6684073}, {"type": "node", "id": 5760198142, "lat": 12.8528576, "lon": 77.6665551}, {"type": "node", "id": 5760198143, "lat": 12.8549968, "lon": 77.6648881}, {"type": "node", "id": 5760198144, "lat": 12.8557842, "lon": 77.6641147}, {"type": "node", "id": 5760198145, "lat": 12.8565053, "lon": 77.6635228, "tags": {"code": "ETCT", "layer": "1", "lit": "yes", "name": "Electronic City", "name:en": "Electronic City", "name:kn": "\u0c8e\u0cb2\u0cc6\u0c95\u0ccd\u0c9f\u0ccd\u0cb0\u0cbe\u0ca8\u0cbf\u0c95\u0ccd \u0cb8\u0cbf\u0c9f\u0cbf", "network": "Namma Metro", "note": "Contributors are requested to not edit the \"network\" and the \"operator\" tags. (2023/11/08)", "operator": "Bangalore Metro Rail Corporation Limited", "platforms": "2", "public_transport": "station", "public_transport:version": "2", "railway": "station", "shelter": "yes", "start_date": "2025-08-10", "station": "subway", "subway": "yes", "website": "https://english.brmc.co.in", "wheelchair": "yes"}}, {"type": "node", "id": 5760198146, "lat": 12.8573115, "lon": 77.6628116}, {"type": "node", "id": 5760198148, "lat": 12.8579357, "lon": 77.6623674}, {"type": "node", "id": 5760198149, "lat": 12.8591545, "lon": 77.6615529}, {"type": "node", "id": 5760198150, "lat": 12.8605064, "lon": 77.6605625}, {"type": "node", "id": 5760198151, "lat": 12.8628298, "lon": 77.6587084}, {"type": "node", "id": 5760198153, "lat": 12.8638665, "lon": 77.6578624, "tags": {"code": "HOSR", "layer": "1", "lit": "yes", "name": "Beratena Agrahara", "name:en": "Beratena Agrahara", "name:kn": "\u0cac\u0cc6\u0cb0\u0c9f\u0cc7\u0ca8 \u0c85\u0c97\u0ccd\u0cb0\u0cb9\u0cbe\u0cb0", "network": "Namma Metro", "note": "Contributors are requested to not edit the \"network\" and the \"operator\" tags. (2023/11/08)", "operator": "Bangalore Metro Rail Corporation Limited", "platforms": "2", "public_transport": "station", "public_transport:version": "2", "railway": "station", "shelter": "yes", "start_date": "2025-08-10", "station": "subway", "subway": "yes", "website": "https://english.brmc.co.in", "wheelchair": "yes"}}, {"type": "node", "id": 5760198155, "lat": 12.8645991, "lon": 77.6572789}, {"type": "node", "id": 5760198158, "lat": 12.8700471, "lon": 77.6529726}, {"type": "node", "id": 5760198162, "lat": 12.8707491, "lon": 77.652447, "tags": {"alt_name": "Basapura Road", "code": "BSRD", "layer": "1", "lit": "yes", "name": "Hosa Road", "name:en": "Hosa Road", "name:kn": "\u0cb9\u0cca\u0cb8 \u0cb0\u0cb8\u0ccd\u0ca4\u0cc6", "network": "Namma Metro", "note": "Contributors are requested to not edit the \"network\" and the \"operator\" tags. (2023/11/08)", "operator": "Bangalore Metro Rail Corporation Limited", "platforms": "2", "public_transport": "station", "public_transport:version": "2", "railway": "station", "shelter": "yes", "start_date": "2025-08-10", "station": "subway", "subway": "yes", "website": "https://english.brmc.co.in", "wheelchair": "yes"}}, {"type": "node", "id": 5760198164, "lat": 12.8712937, "lon": 77.6519746}, {"type": "node", "id": 5760198165, "lat": 12.8716244, "lon": 77.6517123}, {"type": "node", "id": 5760198167, "lat": 12.8730909, "lon": 77.6505681}, {"type": "node", "id": 5760198168, "lat": 12.8742946, "lon": 77.6494942}, {"type": "node", "id": 5760198170, "lat": 12.8766157, "lon": 77.6474277}, {"type": "node", "id": 5760198171, "lat": 12.8769155, "lon": 77.6471997}, {"type": "node", "id": 5760198173, "lat": 12.8773375, "lon": 77.6469235}, {"type": "node", "id": 5760198175, "lat": 12.8782654, "lon": 77.6463799}, {"type": "node", "id": 5760198176, "lat": 12.8796402, "lon": 77.6455402}, {"type": "node", "id": 5760198182, "lat": 12.8808178, "lon": 77.6448456, "tags": {"alt_name": "Chikkabegur", "code": "CKBR", "layer": "1", "lit": "yes", "name": "Singasandra", "name:en": "Singasandra", "name:kn": "\u0cb8\u0cbf\u0c82\u0c97\u0cb8\u0c82\u0ca6\u0ccd\u0cb0", "network": "Namma Metro", "note": "Contributors are requested to not edit the \"network\" and the \"operator\" tags. (2023/11/08)", "operator": "Bangalore Metro Rail Corporation Limited", "platforms": "2", "public_transport": "station", "public_transport:version": "2", "railway": "station", "shelter": "yes", "start_date": "2025-08-10", "station": "subway", "subway": "yes", "website": "https://english.brmc.co.in", "wheelchair": "yes"}}, {"type": "node", "id": 5760198183, "lat": 12.8839478, "lon": 77.6429108}, {"type": "node", "id": 5760198184, "lat": 12.8884395, "lon": 77.6401371}, {"type": "node", "id": 5760198186, "lat": 12.8895341, "lon": 77.639431}, {"type": "node", "id": 5760198187, "lat": 12.8899259, "lon": 77.6392156, "tags": {"alt_name": "Muneshwara Nagar", "code": "MSRN", "layer": "1", "lit": "yes", "name": "Kudlu Gate", "name:en": "Kudlu Gate", "name:kn": "\u0c95\u0cc1\u0ca1\u0ccd\u0cb2\u0cc1 \u0c97\u0cc7\u0c9f\u0ccd", "network": "Namma Metro", "note": "Contributors are requested to not edit the \"network\" and the \"operator\" tags. (2023/11/08)", "operator": "Bangalore Metro Rail Corporation Limited", "platforms": "2", "public_transport": "station", "public_transport:version": "2", "railway": "station", "shelter": "yes", "start_date": "2025-08-10", "station": "subway", "subway": "yes", "website": "https://english.brmc.co.in", "wheelchair": "yes"}}, {"type": "node", "id": 5760198189, "lat": 12.890535, "lon": 77.6388146}, {"type": "node", "id": 5760198192, "lat": 12.8942698, "lon": 77.6365557}, {"type": "node", "id": 5760198193, "lat": 12.8959295, "lon": 77.6355004}, {"type": "node", "id": 5760198194, "lat": 12.9003159, "lon": 77.6328347}, {"type": "node", "id": 5760198198, "lat": 12.9016952, "lon": 77.6319861, "tags": {"alt_name": "Garvebhavi Palya", "alt_name:kn": "\u0c97\u0cbe\u0cb0\u0ccd\u0cb5\u0cc7\u0cac\u0cbe\u0cb5\u0cbf \u0caa\u0cb2\u0ccd\u0caf", "code": "OFDC", "layer": "1", "lit": "yes", "name": "Hongasandra", "name:en": "Hongasandra", "name:kn": "\u0cb9\u0cca\u0c82\u0c97\u0cb8\u0c82\u0ca6\u0ccd\u0cb0", "network": "Namma Metro", "note": "Contributors are requested to not edit the \"network\" and the \"operator\" tags. (2023/11/08)", "operator": "Bangalore Metro Rail Corporation Limited", "platforms": "2", "public_transport": "station", "public_transport:version": "2", "railway": "station", "shelter": "yes", "start_date": "2025-08-10", "station": "subway", "subway": "yes", "website": "https://english.brmc.co.in", "wheelchair": "yes"}}, {"type": "node", "id": 5760198199, "lat": 12.9038128, "lon": 77.6306681}, {"type": "node", "id": 5760198200, "lat": 12.9065466, "lon": 77.6289851}, {"type": "node", "id": 5760198203, "lat": 12.913185, "lon": 77.6249185}, {"type": "node", "id": 5760198211, "lat": 12.9168814, "lon": 77.6216236}, {"type": "node", "id": 5760198266, "lat": 12.8162101, "lon": 77.6909813}, {"type": "node", "id": 5781414900, "lat": 12.9019199, "lon": 77.7064082, "tags": {"crossing:barrier": "no", "crossing:bell": "no", "crossing:light": "no", "railway": "level_crossing"}}, {"type": "node", "id": 5954958473, "lat": 12.8851411, "lon": 77.6250809, "tags": {"bench": "no", "bin": "no", "bus": "yes", "highway": "bus_stop", "name": "Canara Bank Bus Stop", "name:kn": "\u0c95\u0cc6\u0ca8\u0cb0\u0cbe \u0cac\u0ccd\u0caf\u0cbe\u0c82\u0c95\u0ccd", "passenger_information_display": "no", "public_transport": "platform", "shelter": "no", "wheelchair": "limited"}}, {"type": "node", "id": 5954958474, "lat": 12.8851471, "lon": 77.6251035, "tags": {"bench": "no", "bin": "no", "bus": "yes", "check_date:shelter": "2023-10-31", "highway": "bus_stop", "name": "Canara Bank Bus Stop", "passenger_information_display": "no", "public_transport": "platform", "shelter": "no"}}, {"type": "node", "id": 5955006496, "lat": 12.8918009, "lon": 77.6258799, "tags": {"bus": "yes", "highway": "bus_stop", "name": "Tent Bus Stop", "public_transport": "platform", "shelter": "no", "tactile_paving": "no"}}, {"type": "node", "id": 5955006497, "lat": 12.8917728, "lon": 77.6259154, "tags": {"bus": "yes", "highway": "bus_stop", "name": "Tent Bus Stop", "public_transport": "platform", "shelter": "no", "tactile_paving": "no"}}, {"type": "node", "id": 5958980596, "lat": 12.8820078, "lon": 77.624724, "tags": {"bench": "yes", "bus": "yes", "highway": "bus_stop", "kerb": "raised", "lit": "no", "name": "Vishwapriyanagar Bus Stop", "name:kn": "\u0cb5\u0cbf\u0cb6\u0ccd\u0cb5\u0caa\u0ccd\u0cb0\u0cbf\u0caf\u0ca8\u0c97\u0cb0", "passenger_information_display": "no", "public_transport": "platform", "shelter": "yes", "tactile_paving": "no"}}, {"type": "node", "id": 5958980597, "lat": 12.8820137, "lon": 77.6247555, "tags": {"bench": "yes", "bin": "no", "bus": "yes", "highway": "bus_stop", "name": "Vishwapriyanagar Bus Stop", "name:kn": "\u0cb5\u0cbf\u0cb6\u0ccd\u0cb5\u0caa\u0ccd\u0cb0\u0cbf\u0caf\u0ca8\u0c97\u0cb0", "public_transport": "platform", "shelter": "no", "tactile_paving": "no"}}, {"type": "node", "id": 5959651955, "lat": 12.9027599, "lon": 77.6274121, "tags": {"bus": "yes", "highway": "bus_stop", "name": "Deccan Bus Stop", "public_transport": "platform"}}, {"type": "node", "id": 5959651956, "lat": 12.9027726, "lon": 77.6273648, "tags": {"bus": "yes", "highway": "bus_stop", "name": "Deccan Bus Stop", "public_transport": "platform"}}, {"type": "node", "id": 5959651957, "lat": 12.8982875, "lon": 77.6265661, "tags": {"bus": "yes", "highway": "bus_stop", "name": "Kalyana Mantapa Bus Stop", "public_transport": "platform"}}, {"type": "node", "id": 5959651958, "lat": 12.8982918, "lon": 77.6264158, "tags": {"bus": "yes", "highway": "bus_stop", "name": "Kalyana Mantapa Bus Stop", "public_transport": "platform"}}, {"type": "node", "id": 5993281794, "lat": 12.9036289, "lon": 77.7039978, "tags": {"bus": "yes", "highway": "bus_stop", "lit": "no", "name": "Carmelaram Gate", "name:en": "Carmelaram Gate", "network": "BMTC", "operator": "BMTC", "passenger_information_display": "no", "public_transport": "platform"}}, {"type": "node", "id": 6017750738, "lat": 12.8131881, "lon": 77.7112111, "tags": {"name": "Heelalige", "name:kn": "\u0cb9\u0cc0\u0cb2\u0cb2\u0cbf\u0c97\u0cc6 \u0cb0\u0cc8\u0cb2\u0cc1 \u0ca8\u0cbf\u0cb2\u0ccd\u0ca6\u0cbe\u0ca3", "public_transport": "stop_position", "railway": "stop", "train": "yes"}}, {"type": "node", "id": 6017750739, "lat": 12.8112976, "lon": 77.7110142}, {"type": "node", "id": 6017750740, "lat": 12.8176576, "lon": 77.7116768}, {"type": "node", "id": 6017750749, "lat": 12.8098839, "lon": 77.7108738, "tags": {"railway": "switch"}}, {"type": "node", "id": 6017750750, "lat": 12.8235418, "lon": 77.7122999}, {"type": "node", "id": 6017750751, "lat": 12.8601286, "lon": 77.7104107}, {"type": "node", "id": 6017750760, "lat": 12.9115606, "lon": 77.7054949, "tags": {"railway": "switch"}}, {"type": "node", "id": 6017750761, "lat": 12.9068184, "lon": 77.7059369}, {"type": "node", "id": 6017750762, "lat": 12.903368, "lon": 77.7062689, "tags": {"railway": "switch"}}, {"type": "node", "id": 6017767457, "lat": 12.9296557, "lon": 77.7077466}, {"type": "node", "id": 6017767458, "lat": 12.9346788, "lon": 77.7076971}, {"type": "node", "id": 6017767459, "lat": 12.933469, "lon": 77.7078519, "tags": {"railway": "switch"}}, {"type": "node", "id": 6017767460, "lat": 12.937318, "lon": 77.7073446}, {"type": "node", "id": 6017833797, "lat": 12.9034095, "lon": 77.7039508, "tags": {"bus": "yes", "highway": "bus_stop", "name": "Carmelaram Gate", "public_transport": "platform"}}, {"type": "node", "id": 6460878111, "lat": 12.9014441, "lon": 77.6882695, "tags": {"bus": "yes", "highway": "bus_stop", "name": "Halanayakanahalli", "name:kn": "\u0cb9\u0cb2\u0ca8\u0cbe\u0caf\u0c95\u0ca8\u0cb9\u0cb3\u0ccd\u0cb3\u0cbf", "operator": "Bengaluru Metropolitan Transport Corporation", "public_transport": "platform"}}, {"type": "node", "id": 6460878140, "lat": 12.8995668, "lon": 77.6848698, "tags": {"bus": "yes", "highway": "bus_stop", "name": "Kodandaramanagara", "name:kn": "\u0c95\u0ccb\u0ca6\u0c82\u0ca1\u0cb0\u0cbe\u0cae\u0ca8\u0c97\u0cb0", "public_transport": "platform"}}, {"type": "node", "id": 6461616260, "lat": 12.9014631, "lon": 77.6883792, "tags": {"bus": "yes", "highway": "bus_stop", "name": "Halanayakanahalli", "name:kn": "\u0cb9\u0cb2\u0ca8\u0cbe\u0caf\u0c95\u0ca8\u0cb9\u0cb3\u0ccd\u0cb3\u0cbf", "operator": "Bengaluru Metropolitan Transport Corporation", "public_transport": "platform"}}, {"type": "node", "id": 6461616261, "lat": 12.8993768, "lon": 77.6848816, "tags": {"bus": "yes", "highway": "bus_stop", "name": "Kodandaramanagara", "name:kn": "\u0c95\u0ccb\u0ca6\u0c82\u0ca1\u0cb0\u0cbe\u0cae\u0ca8\u0c97\u0cb0", "operator": "Bengaluru Metropolitan Transport Corporation", "public_transport": "platform"}}, {"type": "node", "id": 6863181885, "lat": 12.847791, "lon": 77.6711196, "tags": {"highway": "bus_stop", "name": "Electronic City", "name:en": "Electronic City", "network": "BMTC", "operator": "BMTC", "public_transport": "platform"}}, {"type": "node", "id": 7179096794, "lat": 12.8552525, "lon": 77.6638138, "tags": {"bench": "yes", "highway": "bus_stop", "operator": "BMTC", "shelter": "yes"}}, {"type": "node", "id": 7179096795, "lat": 12.8508834, "lon": 77.6603337, "tags": {"highway": "bus_stop", "name": "Crown Plaza", "name:en": "Crown Plaza", "network": "BMTC", "operator": "BMTC", "public_transport": "platform"}}, {"type": "node", "id": 7179096798, "lat": 12.850569, "lon": 77.661702, "tags": {"highway": "bus_stop", "name": "Electronic City Bus Station", "network": "BMTC", "operator": "BMTC Volvo", "website": "http://www.bmtcvolvo.com"}}, {"type": "node", "id": 7483988247, "lat": 12.8511902, "lon": 77.6577616, "tags": {"bench": "yes", "highway": "bus_stop", "name": "Velankani Drive", "name:en": "Velankani Drive", "name:kn": "\u0cb5\u0cc6\u0cb2\u0cbe\u0c82\u0c95\u0ca8\u0cbf", "network": "BMTC", "operator": "BMTC", "public_transport": "platform", "shelter": "yes"}}, {"type": "node", "id": 9622903014, "lat": 12.903547, "lon": 77.6499433, "tags": {"bus": "yes", "highway": "bus_stop", "name": "HSR KEB Junction", "operator": "BMTC", "public_transport": "platform"}}, {"type": "node", "id": 9822939241, "lat": 12.9043359, "lon": 77.702647, "tags": {"bench": "yes", "bus": "yes", "highway": "bus_stop", "public_transport": "platform", "shelter": "yes"}}, {"type": "node", "id": 9992772709, "lat": 12.8471111, "lon": 77.6727244}, {"type": "node", "id": 9992772710, "lat": 12.8471251, "lon": 77.6727611}, {"type": "node", "id": 9992772711, "lat": 12.8471919, "lon": 77.6727344}, {"type": "node", "id": 9992772712, "lat": 12.8472008, "lon": 77.6727579}, {"type": "node", "id": 9992772713, "lat": 12.8474459, "lon": 77.6726597}, {"type": "node", "id": 9992772714, "lat": 12.8474229, "lon": 77.6725995}, {"type": "node", "id": 10003706927, "lat": 12.8668484, "lon": 77.7097648, "tags": {"railway": "level_crossing"}}, {"type": "node", "id": 10043936002, "lat": 12.8453804, "lon": 77.6648625, "tags": {"bus": "yes", "highway": "bus_stop", "name": "State Bank of India", "network": "BMTC", "network:wikidata": "Q3345039", "operator": "BMTC", "public_transport": "platform", "shelter": "no"}}, {"type": "node", "id": 10043936003, "lat": 12.8448107, "lon": 77.6603155, "tags": {"bus": "yes", "highway": "bus_stop", "name": "BHEL", "name:en": "BHEL", "network": "BMTC", "operator": "BMTC", "public_transport": "platform"}}, {"type": "node", "id": 10043936004, "lat": 12.8392965, "lon": 77.6595579, "tags": {"alt_name": "Shikaripalya Cross", "bus": "yes", "highway": "bus_stop", "name": "Wipro Gate", "name:en": "Wipro Gate", "network": "BMTC", "network:wikidata": "Q3345039", "operator": "BMTC", "public_transport": "platform"}}, {"type": "node", "id": 10107602329, "lat": 12.8077164, "lon": 77.7106153}, {"type": "node", "id": 10135174206, "lat": 12.9417474, "lon": 77.7067334}, {"type": "node", "id": 10182390933, "lat": 12.9191988, "lon": 77.7053019, "tags": {"railway": "level_crossing"}}, {"type": "node", "id": 10219972656, "lat": 12.910939, "lon": 77.6841038, "tags": {"fixme": "Approximate tracing", "name": "Kaikondrahalli", "proposed": "station"}}, {"type": "node", "id": 10219972657, "lat": 12.9071192, "lon": 77.6959301, "tags": {"fixme": "Approximate tracing", "name": "Doddakannalli", "name:kn": "\u0ca6\u0cca\u0ca1\u0ccd\u0ca1\u0c95\u0ca8\u0ccd\u0ca8\u0cb2\u0ccd\u0cb2\u0cbf", "proposed": "station"}}, {"type": "node", "id": 10219972658, "lat": 12.9033341, "lon": 77.7043324, "tags": {"fixme": "Approximate tracing", "name": "Carmelaram", "proposed": "station"}}, {"type": "node", "id": 10301943043, "lat": 12.8473634, "lon": 77.6908708, "tags": {"bus": "yes", "name": "Doddamma Temple", "name:en": "Doddamma Temple", "network": "BMTC", "operator": "BMTC", "public_transport": "stop_position"}}, {"type": "node", "id": 10855128096, "lat": 12.9023252, "lon": 77.6505777, "tags": {"bus": "yes", "name": "SVR College", "name:en": "SVR College", "network": "BMTC", "operator": "BMTC", "public_transport": "stop_position"}}, {"type": "node", "id": 10855128097, "lat": 12.9023182, "lon": 77.6505236, "tags": {"bench": "yes", "highway": "bus_stop", "name": "SVR College", "name:en": "SVR College", "network": "BMTC", "operator": "BMTC", "public_transport": "platform", "shelter": "yes"}}, {"type": "node", "id": 10855128098, "lat": 12.8988124, "lon": 77.6512558, "tags": {"bus": "yes", "name": "Somasundarapalya", "name:en": "Somasundarapalya", "name:kn": "\u0cb8\u0ccb\u0cae\u0cb8\u0cc1\u0c82\u0ca6\u0cb0\u0caa\u0cbe\u0cb3\u0ccd\u0caf", "network": "BMTC", "operator": "BMTC", "public_transport": "stop_position"}}, {"type": "node", "id": 10855128099, "lat": 12.8987938, "lon": 77.6512063, "tags": {"highway": "bus_stop", "name": "Somasundarapalya", "name:en": "Somasundarapalya", "name:kn": "\u0cb8\u0ccb\u0cae\u0cb8\u0cc1\u0c82\u0ca6\u0cb0\u0caa\u0cbe\u0cb3\u0ccd\u0caf", "network": "BMTC", "operator": "BMTC", "public_transport": "platform"}}, {"type": "node", "id": 11100305220, "lat": 12.8452759, "lon": 77.6721317}, {"type": "node", "id": 11171649493, "lat": 12.8415889, "lon": 77.6318595, "tags": {"bus": "yes", "name": "Bettadasanapura", "name:en": "Bettadasanapura", "network": "BMTC", "operator": "BMTC", "public_transport": "stop_position"}}, {"type": "node", "id": 11254559288, "lat": 12.8456235, "lon": 77.7117792}, {"type": "node", "id": 11254559327, "lat": 12.8770978, "lon": 77.708793, "tags": {"railway": "level_crossing"}}, {"type": "node", "id": 11254559328, "lat": 12.8686605, "lon": 77.7095971, "tags": {"railway": "level_crossing"}}, {"type": "node", "id": 11254559329, "lat": 12.8715128, "lon": 77.7093305, "tags": {"railway": "level_crossing"}}, {"type": "node", "id": 11254559330, "lat": 12.8706912, "lon": 77.7094091, "tags": {"railway": "level_crossing"}}, {"type": "node", "id": 11254559331, "lat": 12.8700309, "lon": 77.7094702, "tags": {"railway": "level_crossing"}}, {"type": "node", "id": 11268852997, "lat": 12.8361864, "lon": 77.71264, "tags": {"railway": "level_crossing", "source": "maxar"}}, {"type": "node", "id": 11301855958, "lat": 12.8790241, "lon": 77.6372193, "tags": {"bench": "yes", "highway": "bus_stop", "name": "Chikka Begur", "name:kn": "\u0c9a\u0cbf\u0c95\u0ccd\u0c95 \u0cac\u0cc7\u0c97\u0cc2\u0cb0\u0cc1", "shelter": "yes"}}, {"type": "node", "id": 11404989651, "lat": 12.8736166, "lon": 77.6660808, "tags": {"bus": "yes", "name": "Bengaluru Central Jail", "name:en": "Bengaluru Central Jail", "network": "Bus", "operator": "BMTC", "public_transport": "stop_position"}}, {"type": "node", "id": 11521199307, "lat": 12.8290325, "lon": 77.6813744, "tags": {"code": "HBGI", "layer": "1", "lit": "yes", "name": "Biocon Hebbagodi", "name:en": "Biocon Hebbagodi", "name:kn": "\u0cac\u0caf\u0ccb\u0c95\u0cbe\u0ca8\u0ccd \u0cb9\u0cc6\u0cac\u0ccd\u0cac\u0c97\u0ccb\u0ca1\u0cbf", "network": "Namma Metro", "note": "Contributors are requested to not edit the \"network\" and the \"operator\" tags. (2023/11/08)", "operator": "Bangalore Metro Rail Corporation Limited", "platforms": "2", "public_transport": "station", "public_transport:version": "2", "railway": "station", "shelter": "yes", "start_date": "2025-08-10", "station": "subway", "subway": "yes", "website": "https://english.brmc.co.in", "wheelchair": "yes"}}, {"type": "node", "id": 11521367415, "lat": 12.9046464, "lon": 77.6301871}, {"type": "node", "id": 11521367416, "lat": 12.9046229, "lon": 77.6301509}, {"type": "node", "id": 11521367417, "lat": 12.9038961, "lon": 77.630616}, {"type": "node", "id": 11521367418, "lat": 12.9045994, "lon": 77.6301046}, {"type": "node", "id": 11521367419, "lat": 12.9053552, "lon": 77.6296937}, {"type": "node", "id": 11521367420, "lat": 12.9054686, "lon": 77.629534}, {"type": "node", "id": 11521367421, "lat": 12.9037444, "lon": 77.6306659}, {"type": "node", "id": 11521367422, "lat": 12.8516495, "lon": 77.6674859}, {"type": "node", "id": 11521367423, "lat": 12.8516247, "lon": 77.6674537}, {"type": "node", "id": 11521367424, "lat": 12.8431466, "lon": 77.674288}, {"type": "node", "id": 11521367425, "lat": 12.8431715, "lon": 77.6743202}, {"type": "node", "id": 11521367426, "lat": 12.8427361, "lon": 77.6746219}, {"type": "node", "id": 11521367427, "lat": 12.8427557, "lon": 77.6746434}, {"type": "node", "id": 11521367428, "lat": 12.821048, "lon": 77.6868568}, {"type": "node", "id": 11521367429, "lat": 12.8210794, "lon": 77.6868743}, {"type": "node", "id": 11521368696, "lat": 12.8281691, "lon": 77.6811743}, {"type": "node", "id": 11521368697, "lat": 12.828111, "lon": 77.6812576}, {"type": "node", "id": 11521368698, "lat": 12.8280536, "lon": 77.6813265}, {"type": "node", "id": 11521368699, "lat": 12.827991, "lon": 77.6813902}, {"type": "node", "id": 11521368700, "lat": 12.8279236, "lon": 77.6814486}, {"type": "node", "id": 11521368701, "lat": 12.8278505, "lon": 77.6815022}, {"type": "node", "id": 11521368702, "lat": 12.8271687, "lon": 77.6818768}, {"type": "node", "id": 11521368703, "lat": 12.8263427, "lon": 77.6823171}, {"type": "node", "id": 11521368704, "lat": 12.8255328, "lon": 77.6827338}, {"type": "node", "id": 11521368705, "lat": 12.8283201, "lon": 77.6808001}, {"type": "node", "id": 11521368707, "lat": 12.8281955, "lon": 77.6809646}, {"type": "node", "id": 11521368708, "lat": 12.8281559, "lon": 77.6810514}, {"type": "node", "id": 11521368709, "lat": 12.8281088, "lon": 77.6811342}, {"type": "node", "id": 11521368710, "lat": 12.8280009, "lon": 77.6812763}, {"type": "node", "id": 11521368711, "lat": 12.8279424, "lon": 77.6813359}, {"type": "node", "id": 11521368712, "lat": 12.8278795, "lon": 77.6813904}, {"type": "node", "id": 11521368713, "lat": 12.8282872, "lon": 77.6807481}, {"type": "node", "id": 11521368714, "lat": 12.8280544, "lon": 77.6812121}, {"type": "node", "id": 11521368715, "lat": 12.8278125, "lon": 77.6814394}, {"type": "node", "id": 11521368716, "lat": 12.8271351, "lon": 77.6818116}, {"type": "node", "id": 11521368717, "lat": 12.82631, "lon": 77.6822515}, {"type": "node", "id": 11521368718, "lat": 12.825494, "lon": 77.6826712}, {"type": "node", "id": 11521368719, "lat": 12.8253214, "lon": 77.6828107}, {"type": "node", "id": 11521368720, "lat": 12.8245663, "lon": 77.6833847}, {"type": "node", "id": 11521368721, "lat": 12.8240541, "lon": 77.6840261}, {"type": "node", "id": 11521368722, "lat": 12.8244165, "lon": 77.6835222}, {"type": "node", "id": 11521368723, "lat": 12.8242191, "lon": 77.6837917}, {"type": "node", "id": 11521368724, "lat": 12.8235299, "lon": 77.6844846}, {"type": "node", "id": 11521368725, "lat": 12.8236438, "lon": 77.6844116}, {"type": "node", "id": 11521368726, "lat": 12.8231727, "lon": 77.6847036}, {"type": "node", "id": 11521368727, "lat": 12.8230708, "lon": 77.6847674}, {"type": "node", "id": 11521368728, "lat": 12.8232311, "lon": 77.6846762}, {"type": "node", "id": 11521368729, "lat": 12.8231167, "lon": 77.6847359}, {"type": "node", "id": 11521368730, "lat": 12.8230272, "lon": 77.6848023}, {"type": "node", "id": 11521368731, "lat": 12.8223714, "lon": 77.6854245}, {"type": "node", "id": 11521368759, "lat": 12.8275863, "lon": 77.6819175}, {"type": "node", "id": 11521368760, "lat": 12.8275758, "lon": 77.681884}, {"type": "node", "id": 11521368761, "lat": 12.8324114, "lon": 77.6803109}, {"type": "node", "id": 11521368762, "lat": 12.8323931, "lon": 77.6802827}, {"type": "node", "id": 11521368763, "lat": 12.8332548, "lon": 77.6800789}, {"type": "node", "id": 11521368764, "lat": 12.8332718, "lon": 77.6801097}, {"type": "node", "id": 11521368765, "lat": 12.8357863, "lon": 77.6791482}, {"type": "node", "id": 11521368766, "lat": 12.8358138, "lon": 77.6791763}, {"type": "node", "id": 11521368767, "lat": 12.8377346, "lon": 77.6783435}, {"type": "node", "id": 11521368768, "lat": 12.8377568, "lon": 77.6783743}, {"type": "node", "id": 11521368769, "lat": 12.8418927, "lon": 77.6752603}, {"type": "node", "id": 11521368770, "lat": 12.8419228, "lon": 77.6752911}, {"type": "node", "id": 11521368771, "lat": 12.8447418, "lon": 77.6728503}, {"type": "node", "id": 11521368772, "lat": 12.8447131, "lon": 77.6728249}, {"type": "node", "id": 11521368773, "lat": 12.913904, "lon": 77.6245169}, {"type": "node", "id": 11521368774, "lat": 12.9138877, "lon": 77.6244868}, {"type": "node", "id": 11521368775, "lat": 12.9125485, "lon": 77.6253283}, {"type": "node", "id": 11521368776, "lat": 12.912572, "lon": 77.6253591}, {"type": "node", "id": 11521368777, "lat": 12.9118988, "lon": 77.6257025}, {"type": "node", "id": 11521368778, "lat": 12.9119217, "lon": 77.6257373}, {"type": "node", "id": 11521368779, "lat": 12.9021429, "lon": 77.6315367, "tags": {"railway": "subway_entrance"}}, {"type": "node", "id": 11521368786, "lat": 12.8812146, "lon": 77.6444081, "tags": {"railway": "subway_entrance"}}, {"type": "node", "id": 11521368791, "lat": 12.8702321, "lon": 77.6527176, "tags": {"railway": "subway_entrance"}}, {"type": "node", "id": 11521368822, "lat": 12.8633791, "lon": 77.6583079, "tags": {"railway": "subway_entrance"}}, {"type": "node", "id": 11521368829, "lat": 12.89815, "lon": 77.6342124}, {"type": "node", "id": 11521368830, "lat": 12.8995638, "lon": 77.6333065}, {"type": "node", "id": 11521368831, "lat": 12.8973794, "lon": 77.6346322}, {"type": "node", "id": 11521368832, "lat": 12.9163978, "lon": 77.6231102}, {"type": "node", "id": 11521368833, "lat": 12.9164739, "lon": 77.6230538}, {"type": "node", "id": 11521368834, "lat": 12.9165466, "lon": 77.6229908}, {"type": "node", "id": 11521368835, "lat": 12.9166143, "lon": 77.6229222}, {"type": "node", "id": 11521368836, "lat": 12.9166767, "lon": 77.6228485}, {"type": "node", "id": 11521368837, "lat": 12.9167333, "lon": 77.6227701}, {"type": "node", "id": 11521368838, "lat": 12.916784, "lon": 77.6226874}, {"type": "node", "id": 11521368839, "lat": 12.9168283, "lon": 77.6226011}, {"type": "node", "id": 11521368840, "lat": 12.916866, "lon": 77.6225115}, {"type": "node", "id": 11521368841, "lat": 12.9168977, "lon": 77.6224164}, {"type": "node", "id": 11521368842, "lat": 12.916922, "lon": 77.6223191}, {"type": "node", "id": 11521368843, "lat": 12.9169387, "lon": 77.6222201}, {"type": "node", "id": 11521368844, "lat": 12.9169477, "lon": 77.6221201}, {"type": "node", "id": 11521368845, "lat": 12.916949, "lon": 77.6220196}, {"type": "node", "id": 11521368846, "lat": 12.9169426, "lon": 77.6219194}, {"type": "node", "id": 11521368847, "lat": 12.9169284, "lon": 77.62182}, {"type": "node", "id": 11521368848, "lat": 12.9169067, "lon": 77.6217221}, {"type": "node", "id": 11521368849, "lat": 12.9165016, "lon": 77.6230901}, {"type": "node", "id": 11521368850, "lat": 12.9165769, "lon": 77.6230248}, {"type": "node", "id": 11521368851, "lat": 12.9166471, "lon": 77.6229537}, {"type": "node", "id": 11521368852, "lat": 12.9167117, "lon": 77.6228774}, {"type": "node", "id": 11521368853, "lat": 12.9167704, "lon": 77.6227961}, {"type": "node", "id": 11521368854, "lat": 12.9168229, "lon": 77.6227105}, {"type": "node", "id": 11521368855, "lat": 12.9168688, "lon": 77.6226209}, {"type": "node", "id": 11521368856, "lat": 12.9169408, "lon": 77.6224296}, {"type": "node", "id": 11521368857, "lat": 12.9169659, "lon": 77.6223287}, {"type": "node", "id": 11521368858, "lat": 12.9169832, "lon": 77.6222262}, {"type": "node", "id": 11521368859, "lat": 12.9169926, "lon": 77.6221225}, {"type": "node", "id": 11521368860, "lat": 12.9169939, "lon": 77.6220184}, {"type": "node", "id": 11521368861, "lat": 12.9169873, "lon": 77.6219146}, {"type": "node", "id": 11521368862, "lat": 12.9169726, "lon": 77.6218115}, {"type": "node", "id": 11521368863, "lat": 12.9169501, "lon": 77.6217101}, {"type": "node", "id": 11521368864, "lat": 12.9169079, "lon": 77.6225281}, {"type": "node", "id": 11521368865, "lat": 12.9164217, "lon": 77.6231493}, {"type": "node", "id": 11521368866, "lat": 12.9146132, "lon": 77.6240978}, {"type": "node", "id": 11521368867, "lat": 12.9146328, "lon": 77.6241354}, {"type": "node", "id": 11521368868, "lat": 12.9106073, "lon": 77.6264736}, {"type": "node", "id": 11521368869, "lat": 12.9099145, "lon": 77.6269081}, {"type": "node", "id": 11521368870, "lat": 12.9099406, "lon": 77.6269336}, {"type": "node", "id": 11521368873, "lat": 12.8924065, "lon": 77.6377}, {"type": "node", "id": 11521368874, "lat": 12.8924261, "lon": 77.6377442}, {"type": "node", "id": 11521368875, "lat": 12.8809164, "lon": 77.6447743}, {"type": "node", "id": 11521368876, "lat": 12.8706913, "lon": 77.6524723}, {"type": "node", "id": 11521368877, "lat": 12.8697173, "lon": 77.6532132}, {"type": "node", "id": 11521368878, "lat": 12.8697507, "lon": 77.6532427}, {"type": "node", "id": 11521368879, "lat": 12.8639084, "lon": 77.6578474}, {"type": "node", "id": 11521368889, "lat": 12.8616197, "lon": 77.6596874}, {"type": "node", "id": 11521368890, "lat": 12.8616576, "lon": 77.6597196}, {"type": "node", "id": 11521368899, "lat": 12.8553772, "lon": 77.6645395}, {"type": "node", "id": 11521368900, "lat": 12.8554046, "lon": 77.6645744}, {"type": "node", "id": 11577126058, "lat": 12.8468497, "lon": 77.6721066, "tags": {"highway": "bus_stop", "name": "KSRTC", "survey:date": "2024-02-01"}}, {"type": "node", "id": 11598969427, "lat": 12.8470535, "lon": 77.6703083, "tags": {"bus": "yes", "name": "Electronic City", "name:en": "Electronic City", "network": "BMTC", "operator": "BMTC", "public_transport": "stop_position"}}, {"type": "node", "id": 11598969428, "lat": 12.8470967, "lon": 77.6702848, "tags": {"highway": "bus_stop", "name": "Electronic City", "name:en": "Electronic City", "network": "BMTC", "operator": "BMTC", "public_transport": "platform", "shelter": "no"}}, {"type": "node", "id": 11598969429, "lat": 12.8454725, "lon": 77.6621152, "tags": {"bus": "yes", "name": "Siemens", "name:en": "Siemens", "network": "BMTC", "operator": "BMTC", "public_transport": "stop_position"}}, {"type": "node", "id": 11598969430, "lat": 12.8451717, "lon": 77.6603402, "tags": {"bus": "yes", "name": "BHEL", "name:en": "BHEL", "network": "BMTC", "operator": "BMTC", "public_transport": "stop_position"}}, {"type": "node", "id": 11598969431, "lat": 12.8452099, "lon": 77.6603379, "tags": {"highway": "bus_stop", "name": "BHEL", "name:en": "BHEL", "network": "BMTC", "operator": "BMTC", "public_transport": "platform"}}, {"type": "node", "id": 11598969433, "lat": 12.8406048, "lon": 77.6517091, "tags": {"bus": "yes", "name": "Concord Apartment Electronic City", "name:en": "Concord Apartment Electronic City", "network": "BMTC", "operator": "BMTC", "public_transport": "stop_position"}}, {"type": "node", "id": 11598969436, "lat": 12.8415946, "lon": 77.6479125, "tags": {"highway": "bus_stop", "name": "Neeladri Nagar", "name:en": "Neeladri Nagar", "network": "BMTC", "operator": "BMTC", "public_transport": "platform"}}, {"type": "node", "id": 11598969437, "lat": 12.8434539, "lon": 77.6443197, "tags": {"highway": "bus_stop", "name": "Thogur Cross", "name:en": "Thogur Cross", "network": "BMTC", "operator": "BMTC", "public_transport": "platform"}}, {"type": "node", "id": 11598969438, "lat": 12.843767, "lon": 77.6346387, "tags": {"bus": "yes", "name": "Vittasandra Cross", "name:en": "Vittasandra Cross", "name:kn": "\u0cb5\u0cbf\u0c9f\u0ccd\u0c9f\u0cb8\u0c82\u0ca6\u0ccd\u0cb0 \u0c95\u0ccd\u0cb0\u0cbe\u0cb8\u0ccd", "network": "BMTC", "operator": "BMTC", "public_transport": "stop_position"}}, {"type": "node", "id": 11598969439, "lat": 12.8438213, "lon": 77.6346114, "tags": {"highway": "bus_stop", "name": "Vittasandra Cross", "name:en": "Vittasandra Cross", "name:kn": "\u0cb5\u0cbf\u0c9f\u0ccd\u0c9f\u0cb8\u0c82\u0ca6\u0ccd\u0cb0 \u0c95\u0ccd\u0cb0\u0cbe\u0cb8\u0ccd", "network": "BMTC", "operator": "BMTC", "public_transport": "platform"}}, {"type": "node", "id": 11598969440, "lat": 12.8416246, "lon": 77.6318501, "tags": {"highway": "bus_stop", "name": "Bettadasanapura", "name:en": "Bettadasanapura", "network": "BMTC", "operator": "BMTC", "public_transport": "platform"}}, {"type": "node", "id": 11598969441, "lat": 12.8363756, "lon": 77.6249954, "tags": {"bus": "yes", "name": "Jalli Machine", "name:en": "Jalli Machine", "network": "BMTC", "operator": "BMTC", "public_transport": "stop_position"}}, {"type": "node", "id": 11598969442, "lat": 12.8364015, "lon": 77.6250487, "tags": {"highway": "bus_stop", "name": "Jalli Machine", "name:en": "Jalli Machine", "network": "BMTC", "operator": "BMTC", "public_transport": "platform"}}, {"type": "node", "id": 11598969443, "lat": 12.8422609, "lon": 77.618688, "tags": {"bus": "yes", "name": "Mylasandra Road Junction", "name:en": "Mylasandra Road Junction", "network": "BMTC", "operator": "BMTC", "public_transport": "stop_position"}}, {"type": "node", "id": 11598969444, "lat": 12.8422941, "lon": 77.6187247, "tags": {"highway": "bus_stop", "name": "Mylasandra Road Junction", "name:en": "Mylasandra Road Junction", "network": "BMTC", "operator": "BMTC", "public_transport": "platform"}}, {"type": "node", "id": 11602243227, "lat": 12.8422904, "lon": 77.6186599, "tags": {"bus": "yes", "name": "Mylasandra Road Junction", "name:en": "Mylasandra Road Junction", "network": "BMTC", "operator": "BMTC", "public_transport": "stop_position"}}, {"type": "node", "id": 11602243228, "lat": 12.8422653, "lon": 77.6186322, "tags": {"highway": "bus_stop", "name": "Mylasandra Road Junction", "name:en": "Mylasandra Road Junction", "network": "BMTC", "operator": "BMTC", "public_transport": "platform"}}, {"type": "node", "id": 11602243229, "lat": 12.8362983, "lon": 77.6250349, "tags": {"bus": "yes", "name": "Jalli Machine", "name:en": "Jalli Machine", "network": "BMTC", "operator": "BMTC", "public_transport": "stop_position"}}, {"type": "node", "id": 11602243230, "lat": 12.8362806, "lon": 77.6249984, "tags": {"highway": "bus_stop", "name": "Jalli Machine", "name:en": "Jalli Machine", "network": "BMTC", "operator": "BMTC", "public_transport": "platform"}}, {"type": "node", "id": 11602243231, "lat": 12.8415949, "lon": 77.6319413, "tags": {"bus": "yes", "name": "Bettadasanapura", "name:en": "Bettadasanapura", "network": "BMTC", "operator": "BMTC", "public_transport": "stop_position"}}, {"type": "node", "id": 11602243232, "lat": 12.8415691, "lon": 77.6319433, "tags": {"highway": "bus_stop", "name": "Bettadasanapura", "name:en": "Bettadasanapura", "network": "BMTC", "operator": "BMTC", "public_transport": "platform"}}, {"type": "node", "id": 11602243233, "lat": 12.8438424, "lon": 77.6348075, "tags": {"bus": "yes", "name": "Vittasandra Cross", "name:en": "Vittasandra Cross", "name:kn": "\u0cb5\u0cbf\u0c9f\u0ccd\u0c9f\u0cb8\u0c82\u0ca6\u0ccd\u0cb0 \u0c95\u0ccd\u0cb0\u0cbe\u0cb8\u0ccd", "network": "BMTC", "operator": "BMTC", "public_transport": "stop_position"}}, {"type": "node", "id": 11602243234, "lat": 12.8438082, "lon": 77.6348227, "tags": {"highway": "bus_stop", "name": "Vittasandra Cross", "name:en": "Vittasandra Cross", "network": "BMTC", "operator": "BMTC", "public_transport": "platform"}}, {"type": "node", "id": 11602243235, "lat": 12.8434381, "lon": 77.644274, "tags": {"bus": "yes", "name": "Thogur Cross", "name:en": "Thogur Cross", "network": "BMTC", "operator": "BMTC", "public_transport": "stop_position"}}, {"type": "node", "id": 11602243236, "lat": 12.8434291, "lon": 77.6442111, "tags": {"highway": "bus_stop", "name": "Thogur Cross", "name:en": "Thogur Cross", "network": "BMTC", "operator": "BMTC", "public_transport": "platform"}}, {"type": "node", "id": 11602243237, "lat": 12.841842, "lon": 77.6467349, "tags": {"bus": "yes", "name": "Ajmeer Apartment Neeladri Road", "name:en": "Ajmeer Apartment Neeladri Road", "network": "BMTC", "operator": "BMTC", "public_transport": "stop_position"}}, {"type": "node", "id": 11602243238, "lat": 12.8417868, "lon": 77.6467296, "tags": {"highway": "bus_stop", "name": "Ajmeer Apartment Neeladri Road", "name:en": "Ajmeer Apartment Neeladri Road", "network": "BMTC", "operator": "BMTC", "public_transport": "platform"}}, {"type": "node", "id": 11602243239, "lat": 12.8415333, "lon": 77.6479862, "tags": {"bus": "yes", "name": "Neeladri Nagar", "name:en": "Neeladri Nagar", "name:kn": "\u0ca8\u0cc0\u0cb2\u0cbe\u0ca6\u0ccd\u0cb0\u0cbf\u0ca8\u0c97\u0cb0", "network": "BMTC", "operator": "BMTC", "public_transport": "stop_position"}}, {"type": "node", "id": 11602243240, "lat": 12.8414612, "lon": 77.6479661, "tags": {"highway": "bus_stop", "name": "Neeladri Nagar", "name:en": "Neeladri Nagar", "network": "BMTC", "operator": "BMTC", "public_transport": "platform"}}, {"type": "node", "id": 11602243241, "lat": 12.8405171, "lon": 77.6518272, "tags": {"alt_name": "Concorde Manhattans", "highway": "bus_stop", "name": "Concord Apartment Electronic City", "name:en": "Concord Apartment Electronic City", "network": "BMTC", "operator": "BMTC", "public_transport": "platform"}}, {"type": "node", "id": 11602243242, "lat": 12.8448103, "lon": 77.6602743, "tags": {"bus": "yes", "name": "BHEL", "name:en": "BHEL", "network": "BMTC", "operator": "BMTC", "public_transport": "stop_position"}}, {"type": "node", "id": 11602243243, "lat": 12.8454726, "lon": 77.6622843, "tags": {"bus": "yes", "name": "Siemens", "name:en": "Siemens", "network": "BMTC", "operator": "BMTC", "public_transport": "stop_position"}}, {"type": "node", "id": 11602243244, "lat": 12.8454257, "lon": 77.6622798, "tags": {"highway": "bus_stop", "name": "Siemens", "name:en": "Siemens", "name:kn": "\u0cb8\u0cc0\u0cae\u0cc6\u0ca8\u0ccd\u0cb8\u0ccd", "network": "BMTC", "operator": "BMTC", "public_transport": "platform"}}, {"type": "node", "id": 11602243245, "lat": 12.8468415, "lon": 77.6704173, "tags": {"bus": "yes", "name": "Electronic City", "name:en": "Electronic City", "network": "BMTC", "operator": "BMTC", "public_transport": "stop_position"}}, {"type": "node", "id": 11602243246, "lat": 12.8467986, "lon": 77.6704404, "tags": {"highway": "bus_stop", "name": "Electronic City", "name:en": "Electronic City", "network": "BMTC", "operator": "BMTC", "public_transport": "platform", "shelter": "no"}}, {"type": "node", "id": 11602243247, "lat": 12.8476929, "lon": 77.6718914, "tags": {"highway": "bus_stop", "name": "Electronic City", "name:en": "Electronic City", "network": "BMTC", "operator": "BMTC", "public_transport": "platform"}}, {"type": "node", "id": 11810954352, "lat": 12.8962473, "lon": 77.6356414, "tags": {"bus": "yes", "name": "Garavebhavipalaya", "name:en": "Garavebhavipalaya", "name:kn": "\u0c97\u0cb0\u0cb5\u0cc7\u0cad\u0cbe\u0cb5\u0cbf \u0caa\u0cbe\u0cb3\u0ccd\u0caf", "network": "BMTC", "operator": "BMTC", "public_transport": "stop_position"}}, {"type": "node", "id": 12030513655, "lat": 12.8510856, "lon": 77.6602398, "tags": {"bus": "yes", "name": "Crown Plaza", "name:en": "Crown Plaza", "network": "BMTC", "operator": "BMTC", "public_transport": "stop_position"}}, {"type": "node", "id": 12030513656, "lat": 12.8510899, "lon": 77.660193, "tags": {"highway": "bus_stop", "name": "Crown Plaza", "name:en": "Crown Plaza", "network": "BMTC", "operator": "BMTC", "public_transport": "platform"}}, {"type": "node", "id": 12030513657, "lat": 12.8561776, "lon": 77.6640374, "tags": {"bus": "yes", "name": "Konnappana Agrahara", "name:en": "Konnappana Agrahara", "network": "BMTC", "operator": "BMTC", "public_transport": "stop_position"}}, {"type": "node", "id": 12030513658, "lat": 12.856112, "lon": 77.6639508, "tags": {"highway": "bus_stop", "name": "Konnappana Agrahara", "name:en": "Konnappana Agrahara", "network": "BMTC", "operator": "BMTC", "public_transport": "platform"}}, {"type": "node", "id": 12076711792, "lat": 12.8972797, "lon": 77.6454852, "tags": {"addr:city": "Bengaluru", "addr:district": "Bengaluru", "addr:postcode": "560068", "amenity": "bus_station", "bus": "yes", "name": "Hosapalya Bus Stop", "name:ta": "\u0bb9\u0bcb\u0b9a\u0bbe\u0baa\u0bbe\u0bb2\u0bcd\u0baf\u0bbe \u0baa\u0bb8\u0bcd \u0ba8\u0bbf\u0bb1\u0bc1\u0ba4\u0bcd\u0ba4\u0bae\u0bcd", "public_transport": "station"}}, {"type": "node", "id": 12485019545, "lat": 12.8356232, "lon": 77.6572383}, {"type": "node", "id": 12485019548, "lat": 12.8362166, "lon": 77.657537}, {"type": "node", "id": 12514041531, "lat": 12.8467448, "lon": 77.6716182, "tags": {"bus": "yes", "name": "Electronic City", "name:en": "Electronic City", "network": "BMTC", "operator": "BMTC", "public_transport": "stop_position"}}, {"type": "node", "id": 12514041532, "lat": 12.8466888, "lon": 77.6715401, "tags": {"bench": "yes", "covered": "yes", "highway": "bus_stop", "name": "Electronic City", "name:en": "Electronic City", "network": "BMTC", "operator": "BMTC", "public_transport": "platform", "shelter": "yes"}}, {"type": "node", "id": 12514041533, "lat": 12.8256693, "lon": 77.6830098, "tags": {"bus": "yes", "name": "Hebbagodi", "name:en": "Hebbagodi", "network": "BMTC", "operator": "BMTC", "public_transport": "stop_position"}}, {"type": "node", "id": 12514041534, "lat": 12.8206982, "lon": 77.6871348, "tags": {"bus": "yes", "name": "Bommasandra", "name:en": "Bommasandra", "network": "BMTC", "operator": "BMTC", "public_transport": "stop_position"}}, {"type": "node", "id": 12514041579, "lat": 12.8208741, "lon": 77.6873333, "tags": {"bus": "yes", "name": "Bommasandra", "name:en": "Bommasandra", "network": "BMTC", "operator": "BMTC", "public_transport": "stop_position"}}, {"type": "node", "id": 12514041580, "lat": 12.8209225, "lon": 77.6873866, "tags": {"highway": "bus_stop", "name": "Bommasandra", "name:en": "Bommasandra", "network": "BMTC", "operator": "BMTC", "public_transport": "platform"}}, {"type": "node", "id": 12514041581, "lat": 12.8256592, "lon": 77.6831689, "tags": {"bus": "yes", "name": "Hebbagodi", "name:en": "Hebbagodi", "network": "BMTC", "operator": "BMTC", "public_transport": "stop_position"}}, {"type": "node", "id": 12514041582, "lat": 12.847806, "lon": 77.6711384, "tags": {"bus": "yes", "name": "Electronic City", "name:en": "Electronic City", "network": "BMTC", "operator": "BMTC", "public_transport": "stop_position"}}, {"type": "node", "id": 12681590616, "lat": 12.8467776, "lon": 77.6720227, "tags": {"highway": "bus_stop", "name": "KSRTC Pickup Point - Electronic City"}}, {"type": "node", "id": 13046007538, "lat": 12.8197552, "lon": 77.6879957, "tags": {"code": "BMSD", "name": "Delta Electronics Bommasandra", "name:en": "Delta Electronics Bommasandra", "name:kn": "\u0ca1\u0cc6\u0cb2\u0ccd\u0c9f\u0cbe \u0c8e\u0cb2\u0cc6\u0c95\u0ccd\u0c9f\u0ccd\u0cb0\u0cbe\u0ca8\u0cbf\u0c95\u0ccd\u0cb8\u0ccd \u0cac\u0cca\u0cae\u0ccd\u0cae\u0cb8\u0c82\u0ca6\u0ccd\u0cb0", "network": "Namma Metro", "note": "Contributors are requested to not edit the \"network\" and the \"operator\" tags. (2023/11/08)", "operator": "Bangalore Metro Rail Corporation Limited", "public_transport": "stop_position", "public_transport:version": "2", "railway": "stop", "source": "http://www.bmrc.co.in/English/Network.htm", "subway": "yes", "wheelchair": "yes"}}, {"type": "node", "id": 13046007539, "lat": 12.8190878, "lon": 77.688657, "tags": {"code": "BMSD", "name": "Delta Electronics Bommasandra", "name:en": "Delta Electronics Bommasandra", "name:kn": "\u0ca1\u0cc6\u0cb2\u0ccd\u0c9f\u0cbe \u0c8e\u0cb2\u0cc6\u0c95\u0ccd\u0c9f\u0ccd\u0cb0\u0cbe\u0ca8\u0cbf\u0c95\u0ccd\u0cb8\u0ccd \u0cac\u0cca\u0cae\u0ccd\u0cae\u0cb8\u0c82\u0ca6\u0ccd\u0cb0", "network": "Namma Metro", "note": "Contributors are requested to not edit the \"network\" and the \"operator\" tags. (2023/11/08)", "operator": "Bangalore Metro Rail Corporation Limited", "public_transport": "stop_position", "public_transport:version": "2", "railway": "stop", "source": "http://www.bmrc.co.in/English/Network.htm", "subway": "yes", "wheelchair": "yes"}}, {"type": "node", "id": 13046007540, "lat": 12.8294441, "lon": 77.6812303, "tags": {"code": "HBGI", "name": "Biocon Hebbagodi", "name:en": "Biocon Hebbagodi", "name:kn": "\u0cac\u0caf\u0ccb\u0c95\u0cbe\u0ca8\u0ccd \u0cb9\u0cc6\u0cac\u0ccd\u0cac\u0c97\u0ccb\u0ca1\u0cbf", "network": "Namma Metro", "note": "Contributors are requested to not edit the \"network\" and the \"operator\" tags. (2023/11/08)", "operator": "Bangalore Metro Rail Corporation Limited", "public_transport": "stop_position", "public_transport:version": "2", "railway": "stop", "source": "http://www.bmrc.co.in/English/Network.htm", "subway": "yes", "wheelchair": "yes"}}, {"type": "node", "id": 13046007541, "lat": 12.8285866, "lon": 77.6815497, "tags": {"code": "HBGI", "name": "Biocon Hebbagodi", "name:en": "Biocon Hebbagodi", "name:kn": "\u0cac\u0caf\u0ccb\u0c95\u0cbe\u0ca8\u0ccd \u0cb9\u0cc6\u0cac\u0ccd\u0cac\u0c97\u0ccb\u0ca1\u0cbf", "network": "Namma Metro", "note": "Contributors are requested to not edit the \"network\" and the \"operator\" tags. (2023/11/08)", "operator": "Bangalore Metro Rail Corporation Limited", "public_transport": "stop_position", "public_transport:version": "2", "railway": "stop", "source": "http://www.bmrc.co.in/English/Network.htm", "subway": "yes", "wheelchair": "yes"}}, {"type": "node", "id": 13046007542, "lat": 12.839432, "lon": 77.6771361, "tags": {"alt_name": "Veerasandra", "alt_name:kn": "\u0cb5\u0cc0\u0cb0\u0cb8\u0c82\u0ca6\u0ccd\u0cb0", "code": "HSKR", "name": "Huskur Road", "name:en": "Huskur Road", "name:kn": "\u0cb9\u0cc1\u0cb8\u0ccd\u0c95\u0cc2\u0cb0\u0cc1 \u0cb0\u0cb8\u0ccd\u0ca4\u0cc6", "network": "Namma Metro", "note": "Contributors are requested to not edit the \"network\" and the \"operator\" tags. (2023/11/08)", "operator": "Bangalore Metro Rail Corporation Limited", "public_transport": "stop_position", "public_transport:version": "2", "railway": "stop", "source": "http://www.bmrc.co.in/English/Network.htm", "subway": "yes", "wheelchair": "yes"}}, {"type": "node", "id": 13046007543, "lat": 12.8387166, "lon": 77.6777338, "tags": {"alt_name": "Veerasandra", "alt_name:kn": "\u0cb5\u0cc0\u0cb0\u0cb8\u0c82\u0ca6\u0ccd\u0cb0", "code": "HSKR", "name": "Huskur Road", "name:en": "Huskur Road", "name:kn": "\u0cb9\u0cc1\u0cb8\u0ccd\u0c95\u0cc2\u0cb0\u0cc1 \u0cb0\u0cb8\u0ccd\u0ca4\u0cc6", "network": "Namma Metro", "note": "Contributors are requested to not edit the \"network\" and the \"operator\" tags. (2023/11/08)", "operator": "Bangalore Metro Rail Corporation Limited", "public_transport": "stop_position", "public_transport:version": "2", "railway": "stop", "source": "http://www.bmrc.co.in/English/Network.htm", "subway": "yes", "wheelchair": "yes"}}, {"type": "node", "id": 13046007548, "lat": 12.8467985, "lon": 77.6709184, "tags": {"code": "ECTN", "name": "Infosys Foundation Konappana Agrahara", "name:en": "Infosys Foundation Konappana Agrahara", "name:kn": "\u0c87\u0ca8\u0ccd\u0cab\u0ccb\u0cb8\u0cbf\u0cb8\u0ccd \u0cab\u0ccc\u0c82\u0ca1\u0cc7\u0cb6\u0ca8\u0ccd \u0c95\u0cca\u0ca8\u0caa\u0ccd\u0caa\u0ca8 \u0c85\u0c97\u0ccd\u0cb0\u0cb9\u0cbe\u0cb0", "network": "Namma Metro", "note": "Contributors are requested to not edit the \"network\" and the \"operator\" tags. (2023/11/08)", "operator": "Bangalore Metro Rail Corporation Limited", "public_transport": "stop_position", "public_transport:version": "2", "railway": "stop", "source": "http://www.bmrc.co.in/English/Network.htm", "subway": "yes", "wheelchair": "yes"}}, {"type": "node", "id": 13046007549, "lat": 12.8460892, "lon": 77.6714519, "tags": {"code": "ECTN", "name": "Infosys Foundation Konappana Agrahara", "name:en": "Infosys Foundation Konappana Agrahara", "name:kn": "\u0c87\u0ca8\u0ccd\u0cab\u0ccb\u0cb8\u0cbf\u0cb8\u0ccd \u0cab\u0ccc\u0c82\u0ca1\u0cc7\u0cb6\u0ca8\u0ccd \u0c95\u0cca\u0ca8\u0caa\u0ccd\u0caa\u0ca8 \u0c85\u0c97\u0ccd\u0cb0\u0cb9\u0cbe\u0cb0", "network": "Namma Metro", "note": "Contributors are requested to not edit the \"network\" and the \"operator\" tags. (2023/11/08)", "operator": "Bangalore Metro Rail Corporation Limited", "public_transport": "stop_position", "public_transport:version": "2", "railway": "stop", "source": "http://www.bmrc.co.in/English/Network.htm", "subway": "yes", "wheelchair": "yes"}}, {"type": "node", "id": 13046007550, "lat": 12.8458828, "lon": 77.6712716, "tags": {"name": "B: Electronic City Phase 2", "railway": "subway_entrance", "ref": "B"}}, {"type": "node", "id": 13046007553, "lat": 12.8467081, "lon": 77.6707137, "tags": {"name": "A: Electronic City Phase 1", "railway": "subway_entrance", "ref": "A"}}, {"type": "node", "id": 13046007556, "lat": 12.8567984, "lon": 77.6632379, "tags": {"code": "ETCT", "name": "Electronic City", "name:en": "Electronic City", "name:kn": "\u0c8e\u0cb2\u0cc6\u0c95\u0ccd\u0c9f\u0ccd\u0cb0\u0cbe\u0ca8\u0cbf\u0c95\u0ccd \u0cb8\u0cbf\u0c9f\u0cbf", "network": "Namma Metro", "note": "Contributors are requested to not edit the \"network\" and the \"operator\" tags. (2023/11/08)", "operator": "Bangalore Metro Rail Corporation Limited", "public_transport": "stop_position", "public_transport:version": "2", "railway": "stop", "source": "http://www.bmrc.co.in/English/Network.htm", "subway": "yes", "wheelchair": "yes"}}, {"type": "node", "id": 13046007557, "lat": 12.8562795, "lon": 77.6637352, "tags": {"code": "ETCT", "name": "Electronic City", "name:en": "Electronic City", "name:kn": "\u0c8e\u0cb2\u0cc6\u0c95\u0ccd\u0c9f\u0ccd\u0cb0\u0cbe\u0ca8\u0cbf\u0c95\u0ccd \u0cb8\u0cbf\u0c9f\u0cbf", "network": "Namma Metro", "note": "Contributors are requested to not edit the \"network\" and the \"operator\" tags. (2023/11/08)", "operator": "Bangalore Metro Rail Corporation Limited", "public_transport": "stop_position", "public_transport:version": "2", "railway": "stop", "source": "http://www.bmrc.co.in/English/Network.htm", "subway": "yes", "wheelchair": "yes"}}, {"type": "node", "id": 13046007562, "lat": 12.8642294, "lon": 77.6575832, "tags": {"code": "HOSR", "name": "Beratena Agrahara", "name:en": "Beratena Agrahara", "name:kn": "\u0cac\u0cc6\u0cb0\u0c9f\u0cc7\u0ca8 \u0c85\u0c97\u0ccd\u0cb0\u0cb9\u0cbe\u0cb0", "network": "Namma Metro", "note": "Contributors are requested to not edit the \"network\" and the \"operator\" tags. (2023/11/08)", "operator": "Bangalore Metro Rail Corporation Limited", "public_transport": "stop_position", "public_transport:version": "2", "railway": "stop", "source": "http://www.bmrc.co.in/English/Network.htm", "subway": "yes", "wheelchair": "yes"}}, {"type": "node", "id": 13046007563, "lat": 12.8635659, "lon": 77.6581956, "tags": {"code": "HOSR", "name": "Beratena Agrahara", "name:en": "Beratena Agrahara", "name:kn": "\u0cac\u0cc6\u0cb0\u0c9f\u0cc7\u0ca8 \u0c85\u0c97\u0ccd\u0cb0\u0cb9\u0cbe\u0cb0", "network": "Namma Metro", "note": "Contributors are requested to not edit the \"network\" and the \"operator\" tags. (2023/11/08)", "operator": "Bangalore Metro Rail Corporation Limited", "public_transport": "stop_position", "public_transport:version": "2", "railway": "stop", "source": "http://www.bmrc.co.in/English/Network.htm", "subway": "yes", "wheelchair": "yes"}}, {"type": "node", "id": 13046007564, "lat": 12.8710849, "lon": 77.6521471, "tags": {"alt_name": "Basapura Road", "code": "BSRD", "name": "Hosa Road", "name:en": "Hosa Road", "name:kn": "\u0cb9\u0cca\u0cb8 \u0cb0\u0cb8\u0ccd\u0ca4\u0cc6", "network": "Namma Metro", "note": "Contributors are requested to not edit the \"network\" and the \"operator\" tags. (2023/11/08)", "operator": "Bangalore Metro Rail Corporation Limited", "public_transport": "stop_position", "public_transport:version": "2", "railway": "stop", "source": "http://www.bmrc.co.in/English/Network.htm", "subway": "yes", "wheelchair": "yes"}}, {"type": "node", "id": 13046007565, "lat": 12.8711605, "lon": 77.6520847}, {"type": "node", "id": 13046007566, "lat": 12.8703997, "lon": 77.6527461, "tags": {"alt_name": "Basapura Road", "code": "BSRD", "name": "Hosa Road", "name:en": "Hosa Road", "name:kn": "\u0cb9\u0cca\u0cb8 \u0cb0\u0cb8\u0ccd\u0ca4\u0cc6", "network": "Namma Metro", "note": "Contributors are requested to not edit the \"network\" and the \"operator\" tags. (2023/11/08)", "operator": "Bangalore Metro Rail Corporation Limited", "public_transport": "stop_position", "public_transport:version": "2", "railway": "stop", "source": "http://www.bmrc.co.in/English/Network.htm", "subway": "yes", "wheelchair": "yes"}}, {"type": "node", "id": 13046007567, "lat": 12.8811794, "lon": 77.6446126, "tags": {"alt_name": "Chikkabegur", "code": "CKBR", "name": "Singasandra", "name:en": "Singasandra", "name:kn": "\u0cb8\u0cbf\u0c82\u0c97\u0cb8\u0c82\u0ca6\u0ccd\u0cb0", "network": "Namma Metro", "note": "Contributors are requested to not edit the \"network\" and the \"operator\" tags. (2023/11/08)", "operator": "Bangalore Metro Rail Corporation Limited", "public_transport": "stop_position", "public_transport:version": "2", "railway": "stop", "source": "http://www.bmrc.co.in/English/Network.htm", "subway": "yes", "wheelchair": "yes"}}, {"type": "node", "id": 13046007568, "lat": 12.8804315, "lon": 77.6451067, "tags": {"alt_name": "Chikkabegur", "code": "CKBR", "name": "Singasandra", "name:en": "Singasandra", "name:kn": "\u0cb8\u0cbf\u0c82\u0c97\u0cb8\u0c82\u0ca6\u0ccd\u0cb0", "network": "Namma Metro", "note": "Contributors are requested to not edit the \"network\" and the \"operator\" tags. (2023/11/08)", "operator": "Bangalore Metro Rail Corporation Limited", "public_transport": "stop_position", "public_transport:version": "2", "railway": "stop", "source": "http://www.bmrc.co.in/English/Network.htm", "subway": "yes", "wheelchair": "yes"}}, {"type": "node", "id": 13046007569, "lat": 12.8903178, "lon": 77.6389484, "tags": {"alt_name": "Muneshwara Nagar", "code": "MSRN", "name": "Kudlu Gate", "name:en": "Kudlu Gate", "name:kn": "\u0c95\u0cc1\u0ca1\u0ccd\u0cb2\u0cc1 \u0c97\u0cc7\u0c9f\u0ccd", "network": "Namma Metro", "note": "Contributors are requested to not edit the \"network\" and the \"operator\" tags. (2023/11/08)", "operator": "Bangalore Metro Rail Corporation Limited", "public_transport": "stop_position", "public_transport:version": "2", "railway": "stop", "source": "http://www.bmrc.co.in/English/Network.htm", "subway": "yes", "wheelchair": "yes"}}, {"type": "node", "id": 13046007570, "lat": 12.9021241, "lon": 77.6316985, "tags": {"alt_name": "Garvebhavi Palya", "alt_name:kn": "\u0c97\u0cbe\u0cb0\u0ccd\u0cb5\u0cc7\u0cac\u0cbe\u0cb5\u0cbf \u0caa\u0cb2\u0ccd\u0caf", "code": "OFDC", "name": "Hongasandra", "name:en": "Hongasandra", "name:kn": "\u0cb9\u0cca\u0c82\u0c97\u0cb8\u0c82\u0ca6\u0ccd\u0cb0", "network": "Namma Metro", "note": "Contributors are requested to not edit the \"network\" and the \"operator\" tags. (2023/11/08)", "operator": "Bangalore Metro Rail Corporation Limited", "public_transport": "stop_position", "public_transport:version": "2", "railway": "stop", "source": "http://www.bmrc.co.in/English/Network.htm", "subway": "yes", "wheelchair": "yes"}}, {"type": "node", "id": 13046007571, "lat": 12.9013317, "lon": 77.6322415, "tags": {"alt_name": "Garvebhavi Palya", "alt_name:kn": "\u0c97\u0cbe\u0cb0\u0ccd\u0cb5\u0cc7\u0cac\u0cbe\u0cb5\u0cbf \u0caa\u0cb2\u0ccd\u0caf", "code": "OFDC", "name": "Hongasandra", "name:en": "Hongasandra", "name:kn": "\u0cb9\u0cca\u0c82\u0c97\u0cb8\u0c82\u0ca6\u0ccd\u0cb0", "network": "Namma Metro", "note": "Contributors are requested to not edit the \"network\" and the \"operator\" tags. (2023/11/08)", "operator": "Bangalore Metro Rail Corporation Limited", "public_transport": "stop_position", "public_transport:version": "2", "railway": "stop", "source": "http://www.bmrc.co.in/English/Network.htm", "subway": "yes", "wheelchair": "yes"}}, {"type": "node", "id": 13046007572, "lat": 12.9111955, "lon": 77.6261256, "tags": {"alt_name": "Roopena Agrahara", "alt_name:kn": "\u0cb0\u0cc2\u0caa\u0cc7\u0ca8 \u0c85\u0c97\u0ccd\u0cb0\u0cb9\u0cbe\u0cb0", "code": "HSRL", "name": "Bommanahalli", "name:en": "Bommanahalli", "name:kn": "\u0cac\u0cca\u0cae\u0ccd\u0cae\u0ca8\u0cb9\u0cb3\u0ccd\u0cb3\u0cbf", "network": "Namma Metro", "note": "Contributors are requested to not edit the \"network\" and the \"operator\" tags. (2023/11/08)", "operator": "Bangalore Metro Rail Corporation Limited", "public_transport": "stop_position", "public_transport:version": "2", "railway": "stop", "source": "http://www.bmrc.co.in/English/Network.htm", "subway": "yes", "wheelchair": "yes"}}, {"type": "node", "id": 13046007573, "lat": 12.910304, "lon": 77.6267043, "tags": {"alt_name": "Roopena Agrahara", "alt_name:kn": "\u0cb0\u0cc2\u0caa\u0cc7\u0ca8 \u0c85\u0c97\u0ccd\u0cb0\u0cb9\u0cbe\u0cb0", "code": "HSRL", "name": "Bommanahalli", "name:en": "Bommanahalli", "name:kn": "\u0cac\u0cca\u0cae\u0ccd\u0cae\u0ca8\u0cb9\u0cb3\u0ccd\u0cb3\u0cbf", "network": "Namma Metro", "note": "Contributors are requested to not edit the \"network\" and the \"operator\" tags. (2023/11/08)", "operator": "Bangalore Metro Rail Corporation Limited", "public_transport": "stop_position", "public_transport:version": "2", "railway": "stop", "source": "http://www.bmrc.co.in/English/Network.htm", "subway": "yes", "wheelchair": "yes"}}, {"type": "node", "id": 13046402704, "lat": 12.82948, "lon": 77.6776168}, {"type": "node", "id": 13046402705, "lat": 12.8295974, "lon": 77.6774973}, {"type": "node", "id": 13046402706, "lat": 12.8299531, "lon": 77.6771848}, {"type": "node", "id": 13046402707, "lat": 12.8296137, "lon": 77.6774079}, {"type": "node", "id": 13046402708, "lat": 12.8297622, "lon": 77.6772451}, {"type": "node", "id": 13046402709, "lat": 12.8300354, "lon": 77.6769374}, {"type": "node", "id": 13046402710, "lat": 12.8301551, "lon": 77.6767033}, {"type": "node", "id": 13046402711, "lat": 12.8292839, "lon": 77.6779113}, {"type": "node", "id": 13046402712, "lat": 12.8293928, "lon": 77.6777514}, {"type": "node", "id": 13046402713, "lat": 12.8295444, "lon": 77.6775174}, {"type": "node", "id": 13046402714, "lat": 12.8297569, "lon": 77.6771814}, {"type": "node", "id": 13046402715, "lat": 12.8299871, "lon": 77.6768462}, {"type": "node", "id": 13046402716, "lat": 12.830076, "lon": 77.6766718}, {"type": "node", "id": 13046402717, "lat": 12.8297184, "lon": 77.6771425}, {"type": "node", "id": 13046402718, "lat": 12.8299197, "lon": 77.6768314}, {"type": "node", "id": 13046402719, "lat": 12.8300113, "lon": 77.6766349}, {"type": "node", "id": 13046402720, "lat": 12.8293763, "lon": 77.6776973}, {"type": "node", "id": 13046402721, "lat": 12.8295726, "lon": 77.6773813}, {"type": "node", "id": 13046402722, "lat": 12.8297569, "lon": 77.6769937}, {"type": "node", "id": 13046402723, "lat": 12.8299387, "lon": 77.6766001}, {"type": "node", "id": 13046402724, "lat": 12.8298321, "lon": 77.6765558}, {"type": "node", "id": 13046402725, "lat": 12.8295824, "lon": 77.6770929}, {"type": "node", "id": 13046402726, "lat": 12.829636, "lon": 77.676879}, {"type": "node", "id": 13046402727, "lat": 12.8297831, "lon": 77.6765297}, {"type": "node", "id": 13046402728, "lat": 12.8293928, "lon": 77.6775201}, {"type": "node", "id": 13046402729, "lat": 12.8294725, "lon": 77.677284}, {"type": "node", "id": 13046402730, "lat": 12.8295556, "lon": 77.6769246}, {"type": "node", "id": 13046402731, "lat": 12.8297197, "lon": 77.6765116}, {"type": "node", "id": 13046402732, "lat": 12.8294745, "lon": 77.6770373}, {"type": "node", "id": 13046402733, "lat": 12.8295418, "lon": 77.6767523}, {"type": "node", "id": 13046402734, "lat": 12.8296504, "lon": 77.67647}, {"type": "node", "id": 13046402735, "lat": 12.8293941, "lon": 77.677341}, {"type": "node", "id": 13046402736, "lat": 12.8294405, "lon": 77.6770614}, {"type": "node", "id": 13046402737, "lat": 12.8294947, "lon": 77.6767188}, {"type": "node", "id": 13046402738, "lat": 12.8296052, "lon": 77.6764532}, {"type": "node", "id": 13046402739, "lat": 12.829889, "lon": 77.676588}, {"type": "node", "id": 13046402740, "lat": 12.8298145, "lon": 77.6767637}, {"type": "node", "id": 13046402741, "lat": 12.8295791, "lon": 77.6772277}, {"type": "node", "id": 13046402742, "lat": 12.8291633, "lon": 77.6781906}, {"type": "node", "id": 13046402743, "lat": 12.829005, "lon": 77.6791871}, {"type": "node", "id": 13046402744, "lat": 12.8289554, "lon": 77.6793936}, {"type": "node", "id": 13046402745, "lat": 12.8284042, "lon": 77.6807059}, {"type": "node", "id": 13046402746, "lat": 12.828361, "lon": 77.680677}, {"type": "node", "id": 13046402747, "lat": 12.8287994, "lon": 77.6795495}, {"type": "node", "id": 13046402748, "lat": 12.8287562, "lon": 77.6797484}, {"type": "node", "id": 13046402749, "lat": 12.8284972, "lon": 77.6802565}, {"type": "node", "id": 13046402750, "lat": 12.8286271, "lon": 77.6800507}, {"type": "node", "id": 13046402751, "lat": 12.8289102, "lon": 77.6793876}, {"type": "node", "id": 13046402752, "lat": 12.8289691, "lon": 77.6791602}, {"type": "node", "id": 13046402753, "lat": 12.829056, "lon": 77.6786231}, {"type": "node", "id": 13046402754, "lat": 12.8291325, "lon": 77.6781745}, {"type": "node", "id": 13046402755, "lat": 12.8292894, "lon": 77.6777621}, {"type": "node", "id": 13046402756, "lat": 12.8293496, "lon": 77.6774758}, {"type": "node", "id": 13046402757, "lat": 12.8293986, "lon": 77.6770574}, {"type": "node", "id": 13046402758, "lat": 12.829449, "lon": 77.6767389}, {"type": "node", "id": 13046402759, "lat": 12.8295608, "lon": 77.6764425}, {"type": "node", "id": 13046402760, "lat": 12.8292219, "lon": 77.6768964}, {"type": "node", "id": 13046402761, "lat": 12.8292653, "lon": 77.6766135}, {"type": "node", "id": 13046402762, "lat": 12.8293215, "lon": 77.6763278}, {"type": "node", "id": 13046402763, "lat": 12.8292914, "lon": 77.677052}, {"type": "node", "id": 13046402764, "lat": 12.8293071, "lon": 77.6767141}, {"type": "node", "id": 13046402765, "lat": 12.8293476, "lon": 77.676525}, {"type": "node", "id": 13046402766, "lat": 12.829281, "lon": 77.677457}, {"type": "node", "id": 13046402767, "lat": 12.8292979, "lon": 77.6772009}, {"type": "node", "id": 13046402768, "lat": 12.8293633, "lon": 77.6767905}, {"type": "node", "id": 13046402769, "lat": 12.8294326, "lon": 77.6765625}, {"type": "node", "id": 13046402770, "lat": 12.8291515, "lon": 77.6779237}, {"type": "node", "id": 13046402771, "lat": 12.8292208, "lon": 77.6774745}, {"type": "node", "id": 13046402772, "lat": 12.8292234, "lon": 77.6761575}, {"type": "node", "id": 13046402773, "lat": 12.8290613, "lon": 77.6782858}, {"type": "node", "id": 13046402774, "lat": 12.8291286, "lon": 77.6777963}, {"type": "node", "id": 13046402775, "lat": 12.8291371, "lon": 77.6773444}, {"type": "node", "id": 13046402776, "lat": 12.8290913, "lon": 77.6777266}, {"type": "node", "id": 13046402777, "lat": 12.829094, "lon": 77.6773491}, {"type": "node", "id": 13046402778, "lat": 12.8290253, "lon": 77.6785051}, {"type": "node", "id": 13046402779, "lat": 12.8290312, "lon": 77.6783019}, {"type": "node", "id": 13046402780, "lat": 12.8290632, "lon": 77.6779854}, {"type": "node", "id": 13046402781, "lat": 12.8290626, "lon": 77.6773551}, {"type": "node", "id": 13046402782, "lat": 12.8289774, "lon": 77.6779151}, {"type": "node", "id": 13046402783, "lat": 12.8290077, "lon": 77.6776897}, {"type": "node", "id": 13046402784, "lat": 12.8290116, "lon": 77.6773471}, {"type": "node", "id": 13046402785, "lat": 12.8289861, "lon": 77.6773417}, {"type": "node", "id": 13046402786, "lat": 12.8289301, "lon": 77.6786347}, {"type": "node", "id": 13046402787, "lat": 12.8289528, "lon": 77.6788198}, {"type": "node", "id": 13046402788, "lat": 12.8289536, "lon": 77.6789081}, {"type": "node", "id": 13046402789, "lat": 12.8289482, "lon": 77.6789963}, {"type": "node", "id": 13046402790, "lat": 12.8289455, "lon": 77.6787318}, {"type": "node", "id": 13046402791, "lat": 12.8288396, "lon": 77.6794553}, {"type": "node", "id": 13046402792, "lat": 12.8289364, "lon": 77.6790838}, {"type": "node", "id": 13046402793, "lat": 12.8289887, "lon": 77.6787022}, {"type": "node", "id": 13046402794, "lat": 12.8289808, "lon": 77.678147}, {"type": "node", "id": 13046402795, "lat": 12.8289737, "lon": 77.6776636}, {"type": "node", "id": 13046402796, "lat": 12.8289318, "lon": 77.6774349}, {"type": "node", "id": 13046402797, "lat": 12.8289272, "lon": 77.6773404}, {"type": "node", "id": 13046402798, "lat": 12.828896, "lon": 77.6780069}, {"type": "node", "id": 13046402799, "lat": 12.8288442, "lon": 77.6777246}, {"type": "node", "id": 13046402800, "lat": 12.8287716, "lon": 77.6774892}, {"type": "node", "id": 13046402801, "lat": 12.8287474, "lon": 77.6773444}, {"type": "node", "id": 13046402802, "lat": 12.8288969, "lon": 77.6779292}, {"type": "node", "id": 13046402803, "lat": 12.8288599, "lon": 77.6777011}, {"type": "node", "id": 13046402804, "lat": 12.8287997, "lon": 77.6774597}, {"type": "node", "id": 13046402805, "lat": 12.8287997, "lon": 77.6773417}, {"type": "node", "id": 13046402806, "lat": 12.8288978, "lon": 77.6778513}, {"type": "node", "id": 13046402807, "lat": 12.8288651, "lon": 77.6774946}, {"type": "node", "id": 13046402808, "lat": 12.8288664, "lon": 77.677339}, {"type": "node", "id": 13046402823, "lat": 12.8285809, "lon": 77.6793577}, {"type": "node", "id": 13046402824, "lat": 12.8284951, "lon": 77.6796336}, {"type": "node", "id": 13046402825, "lat": 12.8284415, "lon": 77.6797651}, {"type": "node", "id": 13046402826, "lat": 12.828686, "lon": 77.6791656}, {"type": "node", "id": 13046402827, "lat": 12.8283721, "lon": 77.6797396}, {"type": "node", "id": 13046402828, "lat": 12.828295, "lon": 77.6796632}, {"type": "node", "id": 13046402829, "lat": 12.8286088, "lon": 77.6758222}, {"type": "node", "id": 13046402830, "lat": 12.8286114, "lon": 77.6770239}, {"type": "node", "id": 13046402831, "lat": 12.8286533, "lon": 77.6773068}, {"type": "node", "id": 13046402832, "lat": 12.8288089, "lon": 77.6776743}, {"type": "node", "id": 13046402833, "lat": 12.8288952, "lon": 77.6780753}, {"type": "node", "id": 13046402834, "lat": 12.8288959, "lon": 77.6786347}, {"type": "node", "id": 13046402835, "lat": 12.8288772, "lon": 77.6787288}, {"type": "node", "id": 13046402836, "lat": 12.8288185, "lon": 77.6789067}, {"type": "node", "id": 13046402837, "lat": 12.8287796, "lon": 77.6789896}, {"type": "node", "id": 13046402838, "lat": 12.828907, "lon": 77.6785393}, {"type": "node", "id": 13046402839, "lat": 12.8288507, "lon": 77.6788209}, {"type": "node", "id": 13046402840, "lat": 12.8287344, "lon": 77.679069}, {"type": "node", "id": 13046402841, "lat": 12.828567, "lon": 77.6792917}, {"type": "node", "id": 13046402842, "lat": 12.8283316, "lon": 77.6795116}, {"type": "node", "id": 13046402843, "lat": 12.8282296, "lon": 77.6796283}, {"type": "node", "id": 13048329096, "lat": 12.8829318, "lon": 77.6500714, "tags": {"bus": "yes", "name": "AECS Layout Singasandra", "name:en": "AECS Layout Singasandra", "network": "BMTC", "operator": "BMTC", "public_transport": "stop_position"}}, {"type": "node", "id": 13048329097, "lat": 12.8829572, "lon": 77.6500831, "tags": {"highway": "bus_stop", "name": "AECS Layout Singasandra", "name:en": "AECS Layout Singasandra", "network": "BMTC", "operator": "BMTC", "public_transport": "platform"}}, {"type": "node", "id": 13048329098, "lat": 12.8896242, "lon": 77.6490418, "tags": {"bus": "yes", "name": "Kudlu Panchayath Office", "name:en": "Kudlu Panchayath Office", "network": "BMTC", "operator": "BMTC", "public_transport": "stop_position"}}, {"type": "node", "id": 13048329099, "lat": 12.8896572, "lon": 77.6490618, "tags": {"highway": "bus_stop", "name": "Kudlu Panchayath Office", "name:en": "Kudlu Panchayath Office", "network": "BMTC", "operator": "BMTC", "public_transport": "platform"}}, {"type": "node", "id": 13048329100, "lat": 12.8903278, "lon": 77.6462926, "tags": {"bus": "yes", "name": "BTR Garden", "name:en": "BTR Garden", "network": "BMTC", "operator": "BMTC", "public_transport": "stop_position"}}, {"type": "node", "id": 13048335801, "lat": 12.890354, "lon": 77.6462978, "tags": {"highway": "bus_stop", "name": "BTR Garden", "name:en": "BTR Garden", "network": "BMTC", "operator": "BMTC", "public_transport": "platform"}}, {"type": "node", "id": 13048471371, "lat": 12.8557139, "lon": 77.66417, "tags": {"highway": "elevator", "name": "B", "operator": "BMRCL", "railway": "subway_entrance", "ref": "B"}}, {"type": "node", "id": 13061996477, "lat": 12.8614314, "lon": 77.7052711, "tags": {"bus": "yes", "name": "Huskur", "name:en": "Huskur", "network": "BMTC", "operator": "BMTC", "public_transport": "stop_position"}}, {"type": "node", "id": 13061996478, "lat": 12.8615602, "lon": 77.7052689, "tags": {"bench": "yes", "covered": "yes", "highway": "bus_stop", "name": "Huskur", "name:en": "Huskur", "network": "BMTC", "operator": "BMTC", "public_transport": "platform", "shelter": "yes"}}, {"type": "node", "id": 13061996479, "lat": 12.8593467, "lon": 77.703754, "tags": {"bus": "yes", "name": "Chikka Nagamangala Gate", "name:en": "Chikka Nagamangala Gate", "network": "BMTC", "operator": "BMTC", "public_transport": "stop_position"}}, {"type": "node", "id": 13061996480, "lat": 12.8593846, "lon": 77.7036998, "tags": {"highway": "bus_stop", "name": "Chikka Nagamangala Gate", "name:en": "Chikka Nagamangala Gate", "network": "BMTC", "operator": "BMTC", "public_transport": "platform"}}, {"type": "node", "id": 13061996481, "lat": 12.8547029, "lon": 77.6998985, "tags": {"bus": "yes", "name": "Sumuka Layout", "name:en": "Sumuka Layout", "network": "BMTC", "operator": "BMTC", "public_transport": "stop_position"}}, {"type": "node", "id": 13061996482, "lat": 12.8547483, "lon": 77.6998562, "tags": {"highway": "bus_stop", "name": "Sumuka Layout", "name:en": "Sumuka Layout", "network": "BMTC", "operator": "BMTC", "public_transport": "platform"}}, {"type": "node", "id": 13061996483, "lat": 12.8489789, "lon": 77.6925091, "tags": {"bus": "yes", "name": "Depot 38 Gate", "name:en": "Depot 38 Gate", "network": "BMTC", "operator": "BMTC", "public_transport": "stop_position"}}, {"type": "node", "id": 13061996484, "lat": 12.8490031, "lon": 77.6924747, "tags": {"highway": "bus_stop", "name": "Depot 38 Gate", "name:en": "Depot 38 Gate", "network": "BMTC", "operator": "BMTC", "public_transport": "platform"}}, {"type": "node", "id": 13061996485, "lat": 12.8474372, "lon": 77.6908976, "tags": {"highway": "bus_stop", "name": "Doddamma Temple", "name:en": "Doddamma Temple", "network": "BMTC", "operator": "BMTC", "public_transport": "platform"}}, {"type": "node", "id": 13061996486, "lat": 12.8425586, "lon": 77.6871499, "tags": {"bus": "yes", "name": "Singena Agrahara Fruit Market", "name:en": "Singena Agrahara Fruit Market", "network": "BMTC", "operator": "BMTC", "public_transport": "stop_position"}}, {"type": "node", "id": 13061996487, "lat": 12.8425831, "lon": 77.6871157, "tags": {"highway": "bus_stop", "name": "Singena Agrahara Fruit Market", "name:en": "Singena Agrahara Fruit Market", "network": "BMTC", "operator": "BMTC", "public_transport": "platform"}}, {"type": "node", "id": 13061996488, "lat": 12.8372715, "lon": 77.6790201, "tags": {"bus": "yes", "name": "Huskur Gate", "name:en": "Huskur Gate", "network": "BMTC", "operator": "BMTC", "public_transport": "stop_position"}}, {"type": "node", "id": 13061996489, "lat": 12.8399443, "lon": 77.677166, "tags": {"bus": "yes", "name": "Veerasandra", "name:en": "Veerasandra", "network": "BMTC", "operator": "BMTC", "public_transport": "stop_position"}}, {"type": "node", "id": 13061996490, "lat": 12.8399235, "lon": 77.6771392, "tags": {"highway": "bus_stop", "name": "Veerasandra", "name:en": "Veerasandra", "network": "BMTC", "operator": "BMTC", "public_transport": "platform"}}, {"type": "node", "id": 13061996491, "lat": 12.8511533, "lon": 77.657757, "tags": {"bus": "yes", "name": "Velankani Drive", "name:en": "Velankani Drive", "network": "BMTC", "operator": "BMTC", "public_transport": "stop_position"}}, {"type": "node", "id": 13061996492, "lat": 12.8450932, "lon": 77.6599864, "tags": {"bus": "yes", "name": "BHEL", "name:en": "BHEL", "network": "BMTC", "operator": "BMTC", "public_transport": "stop_position"}}, {"type": "node", "id": 13061996493, "lat": 12.8450668, "lon": 77.6599831, "tags": {"highway": "bus_stop", "name": "BHEL", "name:en": "BHEL", "network": "BMTC", "operator": "BMTC", "public_transport": "platform"}}, {"type": "node", "id": 13062011335, "lat": 12.9048756, "lon": 77.6760149, "tags": {"bus": "yes", "name": "Kasavanahalli", "name:en": "Kasavanahalli", "network": "Bus", "operator": "BMTC", "public_transport": "stop_position"}}, {"type": "node", "id": 13062011336, "lat": 12.9048811, "lon": 77.6759314, "tags": {"highway": "bus_stop", "name": "Kasavanahalli", "name:en": "Kasavanahalli", "network": "Bus", "operator": "BMTC", "public_transport": "platform"}}, {"type": "node", "id": 13062011337, "lat": 12.8968642, "lon": 77.6751856, "tags": {"bus": "yes", "name": "Amrita University - Kasavanahalli", "name:en": "Amrita University - Kasavanahalli", "network": "Bus", "operator": "BMTC", "public_transport": "stop_position"}}, {"type": "node", "id": 13062011338, "lat": 12.8968817, "lon": 77.6751329, "tags": {"bench": "no", "bin": "no", "bus": "yes", "highway": "bus_stop", "lit": "no", "name": "Amrita University - Kasavanahalli", "name:en": "Amrita University - Kasavanahalli", "network": "Bus", "operator": "BMTC", "public_transport": "platform", "shelter": "no"}}, {"type": "node", "id": 13062011339, "lat": 12.8885816, "lon": 77.6729848, "tags": {"bus": "yes", "name": "Choodasandra Circle", "name:en": "Choodasandra Circle", "network": "Bus", "operator": "BMTC", "public_transport": "stop_position"}}, {"type": "node", "id": 13062011340, "lat": 12.8885865, "lon": 77.672959, "tags": {"highway": "bus_stop", "name": "Choodasandra Circle", "name:en": "Choodasandra Circle", "network": "Bus", "operator": "BMTC", "public_transport": "platform"}}, {"type": "node", "id": 13062011341, "lat": 12.8795539, "lon": 77.6720841, "tags": {"bus": "yes", "name": "Rayasandra", "name:en": "Rayasandra", "network": "Bus", "operator": "BMTC", "public_transport": "stop_position"}}, {"type": "node", "id": 13062011342, "lat": 12.8863615, "lon": 77.6724601, "tags": {"highway": "bus_stop", "name": "KSRP Training Centre", "name:en": "KSRP Training Centre", "network": "Bus", "operator": "BMTC", "public_transport": "platform"}}, {"type": "node", "id": 13062011343, "lat": 12.8795774, "lon": 77.6719842, "tags": {"highway": "bus_stop", "name": "Rayasandra", "name:en": "Rayasandra", "network": "Bus", "operator": "BMTC", "public_transport": "platform"}}, {"type": "node", "id": 13062011344, "lat": 12.8757208, "lon": 77.6711966, "tags": {"bus": "yes", "name": "Rayasandra Circle", "name:en": "Rayasandra Circle", "network": "Bus", "operator": "BMTC", "public_transport": "stop_position"}}, {"type": "node", "id": 13062011345, "lat": 12.8757671, "lon": 77.6711906, "tags": {"highway": "bus_stop", "name": "Rayasandra Circle", "name:en": "Rayasandra Circle", "network": "Bus", "operator": "BMTC", "public_transport": "platform"}}, {"type": "node", "id": 13062011346, "lat": 12.8736931, "lon": 77.6660536, "tags": {"highway": "bus_stop", "name": "Bengaluru Central Jail", "name:en": "Bengaluru Central Jail", "network": "Bus", "operator": "BMTC", "public_transport": "platform"}}, {"type": "node", "id": 13062011347, "lat": 12.8703958, "lon": 77.6580377, "tags": {"bus": "yes", "name": "New MICO Gate", "name:en": "New MICO Gate", "network": "Bus", "operator": "BMTC", "public_transport": "stop_position"}}, {"type": "node", "id": 13062011348, "lat": 12.8704467, "lon": 77.6580426, "tags": {"highway": "bus_stop", "name": "New MICO Gate", "name:en": "New MICO Gate", "network": "Bus", "operator": "BMTC", "public_transport": "platform"}}, {"type": "node", "id": 13062011349, "lat": 12.8703135, "lon": 77.6537185, "tags": {"bus": "yes", "name": "Hosa Road", "name:en": "Hosa Road", "network": "Bus", "operator": "BMTC", "public_transport": "stop_position"}}, {"type": "node", "id": 13062011350, "lat": 12.8703422, "lon": 77.6536923, "tags": {"highway": "bus_stop", "name": "Hosa Road", "name:en": "Hosa Road", "network": "Bus", "operator": "BMTC", "public_transport": "platform"}}, {"type": "node", "id": 13062011351, "lat": 12.859154, "lon": 77.6616694, "tags": {"bus": "yes", "name": "Electronic City PESIT College", "name:en": "Electronic City PESIT College", "network": "Bus", "operator": "BMTC", "public_transport": "stop_position"}}, {"type": "node", "id": 13062011352, "lat": 12.8591368, "lon": 77.6616468, "tags": {"highway": "bus_stop", "name": "Electronic City PESIT College", "name:en": "Electronic City PESIT College", "network": "Bus", "operator": "BMTC", "public_transport": "platform"}}, {"type": "node", "id": 13062011353, "lat": 12.8359614, "lon": 77.6572509, "tags": {"bus": "yes", "name": "Electronic City Wipro Main Gate", "name:en": "Electronic City Wipro Main Gate", "network": "Bus", "operator": "BMTC", "public_transport": "stop_position"}}, {"type": "node", "id": 13062022653, "lat": 12.8339336, "lon": 77.6802202, "tags": {"bus": "yes", "name": "SFS High School Hebbagodi", "name:en": "SFS High School Hebbagodi", "network": "BMTC", "operator": "BMTC", "public_transport": "stop_position"}}, {"type": "node", "id": 13062022654, "lat": 12.8339482, "lon": 77.6802638, "tags": {"highway": "bus_stop", "name": "SFS High School Hebbagodi", "name:en": "SFS High School Hebbagodi", "network": "BMTC", "operator": "BMTC", "public_transport": "platform"}}, {"type": "node", "id": 13062022655, "lat": 12.8203405, "lon": 77.6604463, "tags": {"bus": "yes", "name": "Smondo 3 Apartment", "name:en": "Smondo 3 Apartment", "network": "BMTC", "operator": "BMTC", "public_transport": "stop_position"}}, {"type": "node", "id": 13062022656, "lat": 12.8203417, "lon": 77.6604097, "tags": {"highway": "bus_stop", "name": "Smondo 3 Apartment", "name:en": "Smondo 3 Apartment", "network": "BMTC", "operator": "BMTC", "public_transport": "platform"}}, {"type": "node", "id": 13062022657, "lat": 12.8176827, "lon": 77.6683519, "tags": {"bus": "yes", "name": "Atal Bihari Vajpayee Circle Thirupalya", "name:en": "Atal Bihari Vajpayee Circle Thirupalya", "network": "BMTC", "operator": "BMTC", "public_transport": "stop_position"}}, {"type": "node", "id": 13062022658, "lat": 12.8176285, "lon": 77.6683209, "tags": {"highway": "bus_stop", "name": "Atal Bihari Vajpayee Circle Thirupalya", "name:en": "Atal Bihari Vajpayee Circle Thirupalya", "network": "BMTC", "operator": "BMTC", "public_transport": "platform"}}, {"type": "node", "id": 13062091909, "lat": 12.839718, "lon": 77.6768585, "tags": {"bus": "yes", "name": "Veerasandra", "name:en": "Veerasandra", "network": "BMTC", "operator": "BMTC", "public_transport": "stop_position"}}, {"type": "node", "id": 13062091910, "lat": 12.8397342, "lon": 77.6768796, "tags": {"highway": "bus_stop", "name": "Veerasandra", "name:en": "Veerasandra", "network": "BMTC", "operator": "BMTC", "public_transport": "platform"}}, {"type": "node", "id": 13062091911, "lat": 12.833825, "lon": 77.6798566, "tags": {"bus": "yes", "name": "SFS High School Hebbagodi", "name:en": "SFS High School Hebbagodi", "network": "BMTC", "operator": "BMTC", "public_transport": "stop_position"}}, {"type": "node", "id": 13062091912, "lat": 12.8338356, "lon": 77.6798873, "tags": {"highway": "bus_stop", "name": "SFS High School Hebbagodi", "name:en": "SFS High School Hebbagodi", "network": "BMTC", "operator": "BMTC", "public_transport": "platform"}}, {"type": "node", "id": 13062091914, "lat": 12.8555495, "lon": 77.6639236, "tags": {"bus": "yes", "name": "Konnappana Agrahara", "name:en": "Konnappana Agrahara", "network": "BMTC", "operator": "BMTC", "public_transport": "stop_position"}}, {"type": "node", "id": 13062091915, "lat": 12.8555229, "lon": 77.6639549, "tags": {"highway": "bus_stop", "name": "Konnappana Agrahara", "name:en": "Konnappana Agrahara", "network": "BMTC", "operator": "BMTC", "public_transport": "platform"}}, {"type": "node", "id": 13070290262, "lat": 12.8470127, "lon": 77.6708986, "tags": {"name": "C: Electronic City Phase 2", "railway": "subway_entrance", "ref": "C"}}, {"type": "node", "id": 13070290270, "lat": 12.8289182, "lon": 77.6812025, "tags": {"railway": "subway_entrance"}}, {"type": "node", "id": 13070296275, "lat": 12.8383089, "lon": 77.6778063, "tags": {"name": "A", "railway": "subway_entrance", "ref": "A"}}, {"type": "node", "id": 13070296276, "lat": 12.8391485, "lon": 77.6779375, "tags": {"name": "B", "railway": "subway_entrance", "ref": "B"}}, {"type": "node", "id": 13070299122, "lat": 12.819263, "lon": 77.6881719, "tags": {"name": "A: Bommasandra Industrial Area", "railway": "subway_entrance", "ref": "A"}}, {"type": "node", "id": 13070432933, "lat": 12.9015986, "lon": 77.6318508, "tags": {"railway": "subway_entrance"}}, {"type": "node", "id": 13070432942, "lat": 12.8898609, "lon": 77.6390457, "tags": {"railway": "subway_entrance"}}, {"type": "node", "id": 13070432950, "lat": 12.8893442, "lon": 77.639426, "tags": {"railway": "subway_entrance"}}, {"type": "node", "id": 13070437909, "lat": 12.8806709, "lon": 77.6447255, "tags": {"railway": "subway_entrance"}}, {"type": "node", "id": 13070438051, "lat": 12.870684, "lon": 77.6522862, "tags": {"railway": "subway_entrance"}}, {"type": "node", "id": 13070438114, "lat": 12.8637636, "lon": 77.6577677, "tags": {"railway": "subway_entrance"}}, {"type": "node", "id": 13070438140, "lat": 12.8559991, "lon": 77.6639029, "tags": {"name": "B", "railway": "subway_entrance", "ref": "B"}}, {"type": "node", "id": 13070438142, "lat": 12.8564021, "lon": 77.6634179, "tags": {"name": "A: Doddathoguru", "railway": "subway_entrance", "ref": "A"}}, {"type": "node", "id": 13071979650, "lat": 12.8432122, "lon": 77.6602772, "tags": {"bench": "yes", "bin": "yes", "bus": "yes", "covered": "yes", "departures_board": "realtime", "highway": "bus_stop", "lit": "yes", "network": "ELCITA", "operator": "ELCITA", "public_transport": "platform", "shelter": "yes", "tactile_paving": "no"}}, {"type": "node", "id": 13072789355, "lat": 12.819446, "lon": 77.6883822, "tags": {"bus": "yes", "name": "Bommasandra", "name:en": "Bommasandra", "network": "BMTC", "operator": "BMTC", "public_transport": "stop_position"}}, {"type": "node", "id": 13072789356, "lat": 12.8194407, "lon": 77.6883765, "tags": {"bench": "yes", "covered": "yes", "highway": "bus_stop", "name": "Bommasandra", "name:en": "Bommasandra", "network": "BMTC", "operator": "BMTC", "public_transport": "platform", "shelter": "yes"}}, {"type": "node", "id": 13072789357, "lat": 12.8194273, "lon": 77.6883479, "tags": {"name": "A: Bommasandra Industrial Area", "railway": "subway_entrance", "ref": "A"}}, {"type": "node", "id": 13072789389, "lat": 12.8410254, "lon": 77.6600756, "tags": {"alt_name": "Shikaripalya Cross", "bus": "yes", "name": "Wipro Gate", "name:en": "Wipro Gate", "network": "BMTC", "operator": "BMTC", "public_transport": "stop_position"}}, {"type": "node", "id": 13072789393, "lat": 12.8432185, "lon": 77.6603286, "tags": {"bus": "yes", "network": "ELCITA", "operator": "ELCITA", "public_transport": "stop_position"}}, {"type": "node", "id": 13112252427, "lat": 12.8384847, "lon": 77.6586476, "tags": {"bus": "yes", "name": "Wipro Gate", "name:en": "Wipro Gate", "network": "BMTC", "operator": "BMTC", "public_transport": "stop_position"}}, {"type": "node", "id": 13189936708, "lat": 12.810607, "lon": 77.7109456, "tags": {"railway": "switch"}}, {"type": "node", "id": 13189936713, "lat": 12.8182538, "lon": 77.7117406, "tags": {"railway": "switch"}}, {"type": "node", "id": 13202821636, "lat": 13.0414867, "lon": 77.5979256}, {"type": "node", "id": 13202821637, "lat": 13.0415143, "lon": 77.5970901}, {"type": "node", "id": 13202821638, "lat": 13.0415165, "lon": 77.5955467}, {"type": "node", "id": 13202821639, "lat": 13.0415265, "lon": 77.5944862}, {"type": "node", "id": 13202821640, "lat": 13.0416607, "lon": 77.5936398}, {"type": "node", "id": 13202821641, "lat": 13.0421304, "lon": 77.5917467}, {"type": "node", "id": 13202821642, "lat": 13.042152, "lon": 77.5912793}, {"type": "node", "id": 13202821643, "lat": 13.042115, "lon": 77.5906275}, {"type": "node", "id": 13202821644, "lat": 13.0420503, "lon": 77.5902486}, {"type": "node", "id": 13202821645, "lat": 13.0417917, "lon": 77.5897817}, {"type": "node", "id": 13202821646, "lat": 13.0415545, "lon": 77.5895899}, {"type": "node", "id": 13202821647, "lat": 13.0412565, "lon": 77.5894433}, {"type": "node", "id": 13202821648, "lat": 13.0402061, "lon": 77.5892161}, {"type": "node", "id": 13202821649, "lat": 13.0391415, "lon": 77.5890702}, {"type": "node", "id": 13202821650, "lat": 13.0369759, "lon": 77.5888641}, {"type": "node", "id": 13202821651, "lat": 13.0338008, "lon": 77.5880641}, {"type": "node", "id": 13202821652, "lat": 13.0318609, "lon": 77.5873421}, {"type": "node", "id": 13202821653, "lat": 13.0308906, "lon": 77.5868712}, {"type": "node", "id": 13202821654, "lat": 13.0298589, "lon": 77.5864657}, {"type": "node", "id": 13202821655, "lat": 13.0288696, "lon": 77.5860126}, {"type": "node", "id": 13202821656, "lat": 13.0277819, "lon": 77.5855874}, {"type": "node", "id": 13202821657, "lat": 13.0267046, "lon": 77.585273}, {"type": "node", "id": 13202821658, "lat": 13.0256794, "lon": 77.5850643}, {"type": "node", "id": 13202821659, "lat": 13.0236745, "lon": 77.5845109}, {"type": "node", "id": 13202821660, "lat": 13.0221093, "lon": 77.5842884}, {"type": "node", "id": 13202821661, "lat": 13.0202603, "lon": 77.5838875}, {"type": "node", "id": 13202821662, "lat": 13.019506, "lon": 77.5837792}, {"type": "node", "id": 13202821663, "lat": 13.0187655, "lon": 77.5837218}, {"type": "node", "id": 13202821664, "lat": 13.0184067, "lon": 77.5837074}, {"type": "node", "id": 13202821665, "lat": 13.0177255, "lon": 77.5837293}, {"type": "node", "id": 13202821666, "lat": 13.0173992, "lon": 77.5837975}, {"type": "node", "id": 13202821667, "lat": 13.0165227, "lon": 77.5839576}, {"type": "node", "id": 13202821668, "lat": 13.0161161, "lon": 77.5840919}, {"type": "node", "id": 13202821669, "lat": 13.0157043, "lon": 77.5841974}, {"type": "node", "id": 13202821670, "lat": 13.0148806, "lon": 77.5842834}, {"type": "node", "id": 13202821671, "lat": 13.0139635, "lon": 77.5843299}, {"type": "node", "id": 13202821672, "lat": 13.0117827, "lon": 77.5842873}, {"type": "node", "id": 13202821673, "lat": 13.009897, "lon": 77.5842455}, {"type": "node", "id": 13202821674, "lat": 13.0039061, "lon": 77.5843695}, {"type": "node", "id": 13202821675, "lat": 13.0020194, "lon": 77.584419}, {"type": "node", "id": 13202821676, "lat": 12.9998886, "lon": 77.5844918}, {"type": "node", "id": 13202821677, "lat": 12.9977621, "lon": 77.5846903}, {"type": "node", "id": 13202821678, "lat": 12.9973557, "lon": 77.5846968}, {"type": "node", "id": 13202821679, "lat": 12.9966913, "lon": 77.5846132}, {"type": "node", "id": 13202821680, "lat": 12.9961942, "lon": 77.5845747}, {"type": "node", "id": 13202821681, "lat": 12.9955568, "lon": 77.5846104}, {"type": "node", "id": 13202821682, "lat": 12.9939067, "lon": 77.5848509}, {"type": "node", "id": 13202821683, "lat": 12.992429, "lon": 77.5850798}, {"type": "node", "id": 13202821684, "lat": 12.9910534, "lon": 77.5853183}, {"type": "node", "id": 13202821685, "lat": 12.9887723, "lon": 77.5857461}, {"type": "node", "id": 13202821686, "lat": 12.9869072, "lon": 77.5861902}, {"type": "node", "id": 13202821687, "lat": 12.9849952, "lon": 77.5865652}, {"type": "node", "id": 13202821688, "lat": 12.98415, "lon": 77.5866826}, {"type": "node", "id": 13202821689, "lat": 12.9832434, "lon": 77.586712}, {"type": "node", "id": 13202821690, "lat": 12.9814661, "lon": 77.5866905}, {"type": "node", "id": 13202821691, "lat": 12.9785597, "lon": 77.5865832}, {"type": "node", "id": 13202821692, "lat": 12.974349, "lon": 77.5866396}, {"type": "node", "id": 13202821693, "lat": 12.9710871, "lon": 77.5866181}, {"type": "node", "id": 13202821694, "lat": 12.9664598, "lon": 77.5864988}, {"type": "node", "id": 13202821695, "lat": 12.9652512, "lon": 77.5869695}, {"type": "node", "id": 13202821696, "lat": 12.9645878, "lon": 77.5876345}, {"type": "node", "id": 13202821697, "lat": 12.9638601, "lon": 77.5884985}, {"type": "node", "id": 13202821698, "lat": 12.9632368, "lon": 77.5890506}, {"type": "node", "id": 13202821699, "lat": 12.9626691, "lon": 77.5896561}, {"type": "node", "id": 13202821700, "lat": 12.9622547, "lon": 77.590601}, {"type": "node", "id": 13202839101, "lat": 12.9620596, "lon": 77.5912205}, {"type": "node", "id": 13202839102, "lat": 12.961903, "lon": 77.5919506}, {"type": "node", "id": 13202839103, "lat": 12.9615295, "lon": 77.592618}, {"type": "node", "id": 13202839104, "lat": 12.9610227, "lon": 77.5929128}, {"type": "node", "id": 13202839105, "lat": 12.9601044, "lon": 77.5929569}, {"type": "node", "id": 13202839106, "lat": 12.9590576, "lon": 77.5927318}, {"type": "node", "id": 13202839107, "lat": 12.9580294, "lon": 77.5924844}, {"type": "node", "id": 13202839108, "lat": 12.9564772, "lon": 77.5919334}, {"type": "node", "id": 13202839109, "lat": 12.9547449, "lon": 77.5915122}, {"type": "node", "id": 13202839110, "lat": 12.9528025, "lon": 77.5909811}, {"type": "node", "id": 13202839111, "lat": 12.9523651, "lon": 77.5909172}, {"type": "node", "id": 13202839112, "lat": 12.9519908, "lon": 77.5909236}, {"type": "node", "id": 13202839113, "lat": 12.9516919, "lon": 77.5910686}, {"type": "node", "id": 13202839114, "lat": 12.9514203, "lon": 77.5913013}, {"type": "node", "id": 13202839115, "lat": 12.9511539, "lon": 77.5917492}, {"type": "node", "id": 13202839116, "lat": 12.950448, "lon": 77.5925328}, {"type": "node", "id": 13202839117, "lat": 12.9500087, "lon": 77.5928999}, {"type": "node", "id": 13202839118, "lat": 12.9491722, "lon": 77.5934256}, {"type": "node", "id": 13202839119, "lat": 12.9481894, "lon": 77.5939084}, {"type": "node", "id": 13202839120, "lat": 12.9473566, "lon": 77.5942862}, {"type": "node", "id": 13202839121, "lat": 12.9468058, "lon": 77.5946571}, {"type": "node", "id": 13202839122, "lat": 12.9462655, "lon": 77.5951958}, {"type": "node", "id": 13202839123, "lat": 12.9455544, "lon": 77.5963009}, {"type": "node", "id": 13202839124, "lat": 12.9452406, "lon": 77.5967469}, {"type": "node", "id": 13202839125, "lat": 12.9450131, "lon": 77.5969365}, {"type": "node", "id": 13202839126, "lat": 12.9447702, "lon": 77.597056}, {"type": "node", "id": 13202839127, "lat": 12.9442389, "lon": 77.5971995}, {"type": "node", "id": 13202839128, "lat": 12.9437306, "lon": 77.5972494}, {"type": "node", "id": 13202839129, "lat": 12.9426851, "lon": 77.5974918}, {"type": "node", "id": 13202839130, "lat": 12.9404727, "lon": 77.5976849}, {"type": "node", "id": 13202839131, "lat": 12.9397686, "lon": 77.5978891}, {"type": "node", "id": 13202839132, "lat": 12.9391674, "lon": 77.5981411}, {"type": "node", "id": 13202839133, "lat": 12.9386356, "lon": 77.5984111}, {"type": "node", "id": 13202839134, "lat": 12.9382246, "lon": 77.5988222}, {"type": "node", "id": 13202839135, "lat": 12.9378168, "lon": 77.5993372}, {"type": "node", "id": 13202839136, "lat": 12.9374299, "lon": 77.6004637}, {"type": "node", "id": 13202839137, "lat": 12.9371894, "lon": 77.6023412}, {"type": "node", "id": 13202839138, "lat": 12.9367711, "lon": 77.6043475}, {"type": "node", "id": 13202839139, "lat": 12.936562, "lon": 77.6062465}, {"type": "node", "id": 13202839140, "lat": 12.9358928, "lon": 77.6079953}, {"type": "node", "id": 13202839141, "lat": 12.9352026, "lon": 77.6091755}, {"type": "node", "id": 13202839142, "lat": 12.9340861, "lon": 77.6107317}, {"type": "node", "id": 13202839143, "lat": 12.9335819, "lon": 77.6113856}, {"type": "node", "id": 13202839144, "lat": 12.9324345, "lon": 77.6127087}, {"type": "node", "id": 13202839145, "lat": 12.9319919, "lon": 77.6131716}, {"type": "node", "id": 13202839146, "lat": 12.9314659, "lon": 77.6136667}, {"type": "node", "id": 13202839147, "lat": 12.9306015, "lon": 77.6142423}, {"type": "node", "id": 13202839148, "lat": 12.9301479, "lon": 77.614562}, {"type": "node", "id": 13202839149, "lat": 12.9297469, "lon": 77.61496}, {"type": "node", "id": 13202839150, "lat": 12.9292003, "lon": 77.6157229}, {"type": "node", "id": 13202839151, "lat": 12.9288547, "lon": 77.6165687}, {"type": "node", "id": 13202839152, "lat": 12.9283033, "lon": 77.6184074}, {"type": "node", "id": 13202839153, "lat": 12.9274124, "lon": 77.621224}, {"type": "node", "id": 13202839154, "lat": 12.9261941, "lon": 77.6241208}, {"type": "node", "id": 13202839155, "lat": 12.925551, "lon": 77.6257408}, {"type": "node", "id": 13202839156, "lat": 12.9250648, "lon": 77.6268727}, {"type": "node", "id": 13202839157, "lat": 12.9246197, "lon": 77.6278634}, {"type": "node", "id": 13202839158, "lat": 12.924406, "lon": 77.628423}, {"type": "node", "id": 13202839159, "lat": 12.9241864, "lon": 77.629115}, {"type": "node", "id": 13202839160, "lat": 12.9241916, "lon": 77.6297856}, {"type": "node", "id": 13202839161, "lat": 12.9242596, "lon": 77.6302684}, {"type": "node", "id": 13202839162, "lat": 12.9247634, "lon": 77.6332839}, {"type": "node", "id": 13202839163, "lat": 12.9248587, "lon": 77.6337903}, {"type": "node", "id": 13202839164, "lat": 12.9249707, "lon": 77.6345921}, {"type": "node", "id": 13202839165, "lat": 12.9252582, "lon": 77.6363624}, {"type": "node", "id": 13202839166, "lat": 12.9252948, "lon": 77.6367272}, {"type": "node", "id": 13202839167, "lat": 12.9252636, "lon": 77.6369716}, {"type": "node", "id": 13202839168, "lat": 12.9251849, "lon": 77.6372183}, {"type": "node", "id": 13202839169, "lat": 12.9251023, "lon": 77.6374204}, {"type": "node", "id": 13202839170, "lat": 12.9250163, "lon": 77.6376181}, {"type": "node", "id": 13202839171, "lat": 12.9248117, "lon": 77.6379767}, {"type": "node", "id": 13202839172, "lat": 12.9246156, "lon": 77.6382361}, {"type": "node", "id": 13202839173, "lat": 12.9244459, "lon": 77.6384992}, {"type": "node", "id": 13202839174, "lat": 12.9242076, "lon": 77.6390336}, {"type": "node", "id": 13202839175, "lat": 12.9239891, "lon": 77.6395595}, {"type": "node", "id": 13202839176, "lat": 12.9237106, "lon": 77.6402569}, {"type": "node", "id": 13202839177, "lat": 12.9233858, "lon": 77.641146}, {"type": "node", "id": 13202839178, "lat": 12.9233629, "lon": 77.6412632}, {"type": "node", "id": 13202839179, "lat": 12.9233602, "lon": 77.6413687}, {"type": "node", "id": 13202839180, "lat": 12.9233835, "lon": 77.6415187}, {"type": "node", "id": 13202839181, "lat": 12.9234335, "lon": 77.6416571}, {"type": "node", "id": 13202839182, "lat": 12.9237943, "lon": 77.6429767}, {"type": "node", "id": 13202839183, "lat": 12.9239982, "lon": 77.6436794}, {"type": "node", "id": 13202839184, "lat": 12.9243694, "lon": 77.6446933}, {"type": "node", "id": 13202839185, "lat": 12.9245001, "lon": 77.6453102}, {"type": "node", "id": 13202839186, "lat": 12.9245419, "lon": 77.6472039}, {"type": "node", "id": 13202839187, "lat": 12.9246308, "lon": 77.6478208}, {"type": "node", "id": 13202839188, "lat": 12.9246517, "lon": 77.6486093}, {"type": "node", "id": 13202839189, "lat": 12.9246813, "lon": 77.6493734}, {"type": "node", "id": 13202839190, "lat": 12.9245577, "lon": 77.6507046}, {"type": "node", "id": 13202839191, "lat": 12.9243867, "lon": 77.6517432}, {"type": "node", "id": 13202839192, "lat": 12.9241027, "lon": 77.6531155}, {"type": "node", "id": 13202839193, "lat": 12.9238779, "lon": 77.6543117}, {"type": "node", "id": 13202839194, "lat": 12.9237158, "lon": 77.6551003}, {"type": "node", "id": 13202839195, "lat": 12.9235458, "lon": 77.6558346}, {"type": "node", "id": 13202839196, "lat": 12.9233071, "lon": 77.6566066}, {"type": "node", "id": 13202839197, "lat": 12.9230466, "lon": 77.6573641}, {"type": "node", "id": 13202839198, "lat": 12.9224714, "lon": 77.6588518}, {"type": "node", "id": 13202839199, "lat": 12.9222822, "lon": 77.6593744}, {"type": "node", "id": 13202839200, "lat": 12.9221531, "lon": 77.659578}, {"type": "node", "id": 13202839201, "lat": 12.9220104, "lon": 77.6597212}, {"type": "node", "id": 13202839202, "lat": 12.9218723, "lon": 77.6599062}, {"type": "node", "id": 13202839203, "lat": 12.9216452, "lon": 77.6603188}, {"type": "node", "id": 13202839204, "lat": 12.9215549, "lon": 77.6605212}, {"type": "node", "id": 13202839205, "lat": 12.9212984, "lon": 77.6616026}, {"type": "node", "id": 13202839206, "lat": 12.9211968, "lon": 77.6619409}, {"type": "node", "id": 13202839207, "lat": 12.9211238, "lon": 77.6621141}, {"type": "node", "id": 13202839208, "lat": 12.9210256, "lon": 77.6622544}, {"type": "node", "id": 13202839209, "lat": 12.9206929, "lon": 77.6635039}, {"type": "node", "id": 13202839210, "lat": 12.9206801, "lon": 77.6637759}, {"type": "node", "id": 13202839211, "lat": 12.9206107, "lon": 77.6640709}, {"type": "node", "id": 13202839212, "lat": 12.920318, "lon": 77.6651742}, {"type": "node", "id": 13202839213, "lat": 12.9202205, "lon": 77.66548}, {"type": "node", "id": 13202839214, "lat": 12.9201273, "lon": 77.6657478}, {"type": "node", "id": 13202839215, "lat": 12.9199413, "lon": 77.6663922}, {"type": "node", "id": 13202839216, "lat": 12.9199142, "lon": 77.6666502}, {"type": "node", "id": 13202839217, "lat": 12.9198552, "lon": 77.6668821}, {"type": "node", "id": 13202839218, "lat": 12.9194624, "lon": 77.6677094}, {"type": "node", "id": 13202839219, "lat": 12.9188768, "lon": 77.6687608}, {"type": "node", "id": 13202839220, "lat": 12.9183883, "lon": 77.6703603}, {"type": "node", "id": 13202839221, "lat": 12.9180962, "lon": 77.6710738}, {"type": "node", "id": 13202839222, "lat": 12.9177659, "lon": 77.6717636}, {"type": "node", "id": 13202839223, "lat": 12.9172565, "lon": 77.6726975}, {"type": "node", "id": 13202839224, "lat": 12.9170698, "lon": 77.6731038}, {"type": "node", "id": 13202839225, "lat": 12.9169676, "lon": 77.6732884}, {"type": "node", "id": 13202839226, "lat": 12.9168401, "lon": 77.6734626}, {"type": "node", "id": 13202839227, "lat": 12.9167106, "lon": 77.6735578}, {"type": "node", "id": 13202839228, "lat": 12.9165639, "lon": 77.6736085}, {"type": "node", "id": 13202839229, "lat": 12.9162797, "lon": 77.6736781}, {"type": "node", "id": 13202839230, "lat": 12.9159909, "lon": 77.6738486}, {"type": "node", "id": 13202839231, "lat": 12.9156978, "lon": 77.6740823}, {"type": "node", "id": 13202839232, "lat": 12.9153762, "lon": 77.6744593}, {"type": "node", "id": 13202839233, "lat": 12.9151017, "lon": 77.6749084}, {"type": "node", "id": 13202839234, "lat": 12.9146576, "lon": 77.6756068}, {"type": "node", "id": 13202839235, "lat": 12.914508, "lon": 77.6758703}, {"type": "node", "id": 13202839236, "lat": 12.9143738, "lon": 77.6762147}, {"type": "node", "id": 13202839237, "lat": 12.9140615, "lon": 77.6773712}, {"type": "node", "id": 13202839238, "lat": 12.9132298, "lon": 77.6794145}, {"type": "node", "id": 13202839239, "lat": 12.9126364, "lon": 77.6805155}, {"type": "node", "id": 13202839240, "lat": 12.9120807, "lon": 77.6816201}, {"type": "node", "id": 13202839241, "lat": 12.9115771, "lon": 77.6826036}, {"type": "node", "id": 13202839242, "lat": 12.9112461, "lon": 77.6833331}, {"type": "node", "id": 13202839243, "lat": 12.9099775, "lon": 77.686517}, {"type": "node", "id": 13202839244, "lat": 12.9091409, "lon": 77.6885448}, {"type": "node", "id": 13202839245, "lat": 12.9087504, "lon": 77.6896891}, {"type": "node", "id": 13202839246, "lat": 12.90862, "lon": 77.6903027}, {"type": "node", "id": 13202839247, "lat": 12.9084611, "lon": 77.6908944}, {"type": "node", "id": 13202839248, "lat": 12.9075905, "lon": 77.6942012}, {"type": "node", "id": 13202839249, "lat": 12.9075047, "lon": 77.6946463}, {"type": "node", "id": 13202839250, "lat": 12.9073768, "lon": 77.6950842}, {"type": "node", "id": 13202839251, "lat": 12.9067684, "lon": 77.6971961}, {"type": "node", "id": 13202839252, "lat": 12.9064153, "lon": 77.6984144}, {"type": "node", "id": 13202839253, "lat": 12.9063086, "lon": 77.6987943}, {"type": "node", "id": 13202839254, "lat": 12.9061436, "lon": 77.6991634}, {"type": "node", "id": 13202839255, "lat": 12.9057035, "lon": 77.6999992}, {"type": "node", "id": 13202839256, "lat": 12.9048009, "lon": 77.7016125}, {"type": "node", "id": 13202839257, "lat": 12.9030106, "lon": 77.7048473}, {"type": "node", "id": 13202839258, "lat": 12.9027277, "lon": 77.7051971}, {"type": "node", "id": 13202839259, "lat": 12.90203, "lon": 77.7065015}, {"type": "node", "id": 13202839260, "lat": 12.9015463, "lon": 77.7074195}, {"type": "node", "id": 13202839261, "lat": 12.9014633, "lon": 77.7076032}, {"type": "node", "id": 13202839262, "lat": 12.9014092, "lon": 77.7077987}, {"type": "node", "id": 13202839263, "lat": 12.9013614, "lon": 77.7080165}, {"type": "node", "id": 13202839264, "lat": 12.901296, "lon": 77.7082281}, {"type": "node", "id": 13202839265, "lat": 12.9007851, "lon": 77.7094123}, {"type": "node", "id": 13202839266, "lat": 12.900428, "lon": 77.7106574}, {"type": "node", "id": 13202839267, "lat": 12.9002807, "lon": 77.711024}, {"type": "node", "id": 13202839268, "lat": 12.9000469, "lon": 77.7113522}, {"type": "node", "id": 13202839269, "lat": 12.8995787, "lon": 77.7119843}, {"type": "node", "id": 13202839270, "lat": 12.8994232, "lon": 77.7122745}, {"type": "node", "id": 13202839271, "lat": 12.8993051, "lon": 77.7126049}, {"type": "node", "id": 13202839272, "lat": 12.8980764, "lon": 77.7163539}, {"type": "node", "id": 13202839273, "lat": 12.8976267, "lon": 77.7178881}, {"type": "node", "id": 13202839274, "lat": 12.8970638, "lon": 77.7193406}, {"type": "node", "id": 13202839275, "lat": 12.8964142, "lon": 77.7207375}, {"type": "node", "id": 13202839276, "lat": 12.895169, "lon": 77.7232096}, {"type": "node", "id": 13202839277, "lat": 12.8935644, "lon": 77.726764}, {"type": "node", "id": 13202839278, "lat": 12.8932603, "lon": 77.7273125}, {"type": "node", "id": 13202839279, "lat": 12.892414, "lon": 77.7285045}, {"type": "node", "id": 13202839280, "lat": 12.8915659, "lon": 77.7295574}, {"type": "node", "id": 13202839281, "lat": 12.8897426, "lon": 77.7318328}, {"type": "node", "id": 13202839282, "lat": 12.8892912, "lon": 77.7324925}, {"type": "node", "id": 13202839283, "lat": 12.8888395, "lon": 77.7333045}, {"type": "node", "id": 13202839284, "lat": 12.8881956, "lon": 77.734499}, {"type": "node", "id": 13202839285, "lat": 12.8879547, "lon": 77.7350101}, {"type": "node", "id": 13202839286, "lat": 12.8877854, "lon": 77.7355371}, {"type": "node", "id": 13202839287, "lat": 12.8875929, "lon": 77.7370555}, {"type": "node", "id": 13202839288, "lat": 12.8874926, "lon": 77.7379121}, {"type": "node", "id": 13202839289, "lat": 12.8874013, "lon": 77.7386389}, {"type": "node", "id": 13202839290, "lat": 12.8871781, "lon": 77.7405698}, {"type": "node", "id": 13202839291, "lat": 12.8871408, "lon": 77.7409721}, {"type": "node", "id": 13202839292, "lat": 12.8870603, "lon": 77.7413749}, {"type": "node", "id": 13202839293, "lat": 12.8865496, "lon": 77.7427397}, {"type": "node", "id": 13202839294, "lat": 12.8860251, "lon": 77.7440855}, {"type": "node", "id": 13202839295, "lat": 12.8856812, "lon": 77.7450311}, {"type": "node", "id": 13202839296, "lat": 12.8853596, "lon": 77.7459839}, {"type": "node", "id": 13202839297, "lat": 12.8847419, "lon": 77.7479181}, {"type": "node", "id": 13202839298, "lat": 12.8844982, "lon": 77.7486946}, {"type": "node", "id": 13202839299, "lat": 12.8840265, "lon": 77.7501745}, {"type": "node", "id": 13202839300, "lat": 12.8838751, "lon": 77.7509223}, {"type": "node", "id": 13202839301, "lat": 12.8836481, "lon": 77.7516664}, {"type": "node", "id": 13202839302, "lat": 12.8835023, "lon": 77.752122}, {"type": "node", "id": 13202839303, "lat": 12.8833027, "lon": 77.7526596}, {"type": "node", "id": 13202839304, "lat": 12.88267, "lon": 77.7544274}, {"type": "node", "id": 13202839305, "lat": 12.8825394, "lon": 77.7547509}, {"type": "node", "id": 13202839306, "lat": 12.8824072, "lon": 77.755006}, {"type": "node", "id": 13202839307, "lat": 12.882332, "lon": 77.7551978}, {"type": "node", "id": 13202839308, "lat": 12.8818271, "lon": 77.7567463}, {"type": "node", "id": 13202839309, "lat": 12.881696, "lon": 77.7571905}, {"type": "node", "id": 13202839310, "lat": 12.8814997, "lon": 77.7576277}, {"type": "node", "id": 13202839311, "lat": 12.8803074, "lon": 77.7598271}, {"type": "node", "id": 13202839312, "lat": 12.8780021, "lon": 77.7641372}, {"type": "node", "id": 13202839313, "lat": 12.8776827, "lon": 77.7647407}, {"type": "node", "id": 13202839314, "lat": 12.8775824, "lon": 77.7649194}, {"type": "node", "id": 13202839315, "lat": 12.8774652, "lon": 77.7650661}, {"type": "node", "id": 13202839316, "lat": 12.8772739, "lon": 77.7652281}, {"type": "node", "id": 13202839317, "lat": 12.8770092, "lon": 77.7653287}, {"type": "node", "id": 13202839318, "lat": 12.8765345, "lon": 77.7654485}, {"type": "node", "id": 13202839319, "lat": 12.8760402, "lon": 77.7655563}, {"type": "node", "id": 13202839320, "lat": 12.8742265, "lon": 77.7659908}, {"type": "node", "id": 13202839321, "lat": 12.8725668, "lon": 77.7664056}, {"type": "node", "id": 13202839322, "lat": 12.8717331, "lon": 77.7665897}, {"type": "node", "id": 13202839323, "lat": 12.8709421, "lon": 77.7667044}, {"type": "node", "id": 13202839324, "lat": 12.8698586, "lon": 77.7667314}, {"type": "node", "id": 13202839325, "lat": 12.8691227, "lon": 77.7666222}, {"type": "node", "id": 13202839326, "lat": 12.8686892, "lon": 77.7666482}, {"type": "node", "id": 13202839327, "lat": 12.8681914, "lon": 77.7667784}, {"type": "node", "id": 13202839328, "lat": 12.8678463, "lon": 77.7670058}, {"type": "node", "id": 13202839329, "lat": 12.8675514, "lon": 77.7673071}, {"type": "node", "id": 13202839330, "lat": 12.865259, "lon": 77.7693051}, {"type": "node", "id": 13202839331, "lat": 12.864163, "lon": 77.770282}, {"type": "node", "id": 13202839332, "lat": 12.8629564, "lon": 77.7713062}, {"type": "node", "id": 13202839333, "lat": 12.8619961, "lon": 77.7721309}, {"type": "node", "id": 13202839334, "lat": 12.8618621, "lon": 77.7722982}, {"type": "node", "id": 13202839335, "lat": 12.8617652, "lon": 77.7725032}, {"type": "node", "id": 13202839336, "lat": 12.8616356, "lon": 77.7730891}, {"type": "node", "id": 13202839337, "lat": 12.8615233, "lon": 77.7737263}, {"type": "node", "id": 13202839338, "lat": 12.8614437, "lon": 77.7741558}, {"type": "node", "id": 13202839339, "lat": 12.8613511, "lon": 77.7745849}, {"type": "node", "id": 13202839340, "lat": 12.8611939, "lon": 77.7754407}, {"type": "node", "id": 13202839341, "lat": 12.861082, "lon": 77.7761257}, {"type": "node", "id": 13202839342, "lat": 12.8609596, "lon": 77.7771492}, {"type": "node", "id": 13202839343, "lat": 12.8608306, "lon": 77.7783793}, {"type": "node", "id": 13202839344, "lat": 12.8607369, "lon": 77.7789777}, {"type": "node", "id": 13202839345, "lat": 12.8607102, "lon": 77.7792843}, {"type": "node", "id": 13202839346, "lat": 12.8607003, "lon": 77.7795875}, {"type": "node", "id": 13202839347, "lat": 12.8607818, "lon": 77.7812654}, {"type": "node", "id": 13202839348, "lat": 12.8607952, "lon": 77.7831575}, {"type": "node", "id": 13202839349, "lat": 12.8607604, "lon": 77.7832846}, {"type": "node", "id": 13202839350, "lat": 12.8606773, "lon": 77.7834026}, {"type": "node", "id": 13202839351, "lat": 12.8606026, "lon": 77.7834535}, {"type": "node", "id": 13202839352, "lat": 12.86045, "lon": 77.7834782}, {"type": "node", "id": 13202839353, "lat": 12.8579932, "lon": 77.7830659}, {"type": "node", "id": 13321207274, "lat": 12.9348552, "lon": 77.7076735, "tags": {"railway": "switch"}}, {"type": "node", "id": 13321207286, "lat": 12.9410613, "lon": 77.7068281, "tags": {"railway": "switch"}}, {"type": "node", "id": 13328385860, "lat": 12.9384339, "lon": 77.7071906, "tags": {"alt_name": "Bellandur Road", "name": "Belandur Road", "name:kn": "\u0cac\u0cc6\u0cb3\u0c82\u0ca6\u0cc2\u0cb0\u0cc1 \u0cb0\u0cb8\u0ccd\u0ca4\u0cc6", "public_transport": "stop_position", "railway": "stop", "train": "yes"}}, {"type": "node", "id": 13340597231, "lat": 12.94066, "lon": 77.7068835}, {"type": "node", "id": 13342713062, "lat": 12.9073733, "lon": 77.7058833, "tags": {"name": "Carmelaram", "name:kn": "\u0c95\u0cb0\u0ccd\u0cae\u0cc7\u0cb2\u0cb0\u0cae\u0ccd", "public_transport": "stop_position", "railway": "stop", "train": "yes"}}, {"type": "node", "id": 13342713087, "lat": 12.9035614, "lon": 77.7039581, "tags": {"bus": "yes", "name": "Carmelaram Gate", "name:en": "Carmelaram Gate", "network": "BMTC", "operator": "BMTC", "public_transport": "stop_position"}}, {"type": "node", "id": 13342713113, "lat": 12.9086424, "lon": 77.7057608, "tags": {"railway": "level_crossing"}}, {"type": "node", "id": 13368711694, "lat": 12.8811618, "lon": 77.7582343}, {"type": "way", "id": 23515903, "nodes": [10135174206, 13321207286, 13340597231, 13328385860, 6017767460, 13321207274, 6017767458, 6017767459, 253514988, 253514989, 253514990, 253514991, 6017767457, 253514992, 253514993, 253514999, 10182390933, 253515009, 253515017, 253515022, 253515023, 253515024, 6017750760, 695068066, 13342713113, 13342713062, 6017750761, 6017750762, 2661138099, 2661138086, 5781414900, 4565334025, 293711129, 293711130, 11254559327, 11254559329, 293711131, 11254559330, 11254559331, 11254559328, 10003706927, 695078633, 293711132, 6017750751, 695079388, 293711133, 293711135, 11254559288, 293711136, 695117609, 11268852997, 293711137, 293711138, 293711139, 293711140, 293711568, 293711569, 293711570, 6017750750, 293711571, 13189936713, 6017750740, 293711572, 6017750738, 6017750739, 13189936708, 6017750749, 293711574, 293711575, 10107602329], "tags": {"electrified": "contact_line", "frequency": "50", "gauge": "1676", "maxspeed": "110", "name": "Bangalore-Salem railway", "name:kn": "\u0cac\u0cc6\u0c82\u0c97\u0cb3\u0cc2\u0cb0\u0cc1 - \u0cb8\u0cb2\u0cc7\u0c82 \u0cb0\u0cc8\u0cb2\u0cc1", "passenger_lines": "1", "railway": "rail", "railway:traffic_mode": "mixed", "usage": "main", "voltage": "25000"}}, {"type": "way", "id": 231334326, "nodes": [2397265625, 2397265640, 12485019545, 12485019548, 2397249178, 2397514888, 1923371996, 310396851, 2397265625], "tags": {"amenity": "bus_station", "bus": "yes", "name": "Shikaripalya", "name:kn": "\u0cb6\u0cbf\u0c95\u0cbe\u0cb0\u0cbf\u0caa\u0cbe\u0cb3\u0ccd\u0caf \u0cac\u0cb8\u0ccd \u0ca8\u0cbf\u0cb2\u0ccd\u0ca6\u0cbe\u0ca8", "public_transport": "station"}}, {"type": "way", "id": 513335365, "nodes": [5018216139, 11521368863, 11521368862, 11521368861, 11521368860, 11521368859, 11521368858, 11521368857, 11521368856, 11521368864, 11521368855, 11521368854, 11521368853, 11521368852, 11521368851, 11521368850, 11521368849, 11521368865, 11521368867, 11521368773, 5018216143, 11521368776, 11521368778, 5018216188, 13046007573, 11521368870, 5018250574, 11521367415, 5018250571, 13046007571, 5018250577, 11521368829, 5018250538, 5018250542, 11521368874, 5018250539, 5018250572, 5018250541, 5018250544, 1577982346, 13046007568, 5018250554, 5018250540, 5018250576, 5018250560, 5018250537, 5018250565, 5018250561, 5018250553, 5018250535, 1577982399, 13046007566, 5018250557, 11521368878, 5018285474, 5018285440, 13046007563, 5018285443, 11521368890, 5018285450, 5018285472, 5018285463, 5018285438, 4107837699, 13046007557, 5018285447, 11521368900, 5018285446, 5018285467, 11521367422, 5018285461, 5018285453, 5018285448, 5018285452, 5018285454, 13046007549, 5018285466, 5018285449, 5018285465, 11100305220, 5018285470, 11521368771, 5018285464, 5018285442, 11521367425, 11521367427, 11521368770, 5018285457, 13046007543, 5018285456, 5018285437, 11521368768, 5018285455, 11521368766, 5018285458, 11521368764, 11521368761, 5018285436, 5018285439, 1577982500, 13046007541, 5018285469, 11521368759, 5018297464, 5018297489, 5018297458, 5018297468, 5018297502, 11521367429, 5018297497, 13072789357, 13046007539], "tags": {"bridge": "viaduct", "frequency": "0", "gauge": "1435", "layer": "3", "maxspeed": "80", "name": "Yellow Line (RV Road - Bommasandra)", "network": "Namma Metro", "railway": "subway", "ref": "Line 5", "voltage": "750"}}, {"type": "way", "id": 607901273, "nodes": [13046007538, 5760197807, 11521367428, 5760197808, 11521368725, 11521368721, 5760197809, 5760197810, 5760197811, 5760197812, 11521368760, 5760197813, 13046007540, 5760197814, 5760197815, 5760197816, 11521368762, 11521368763, 5760197817, 11521368765, 5760197818, 11521368767, 5760197820, 5760198121, 13046007542, 5760198123, 11521368769, 11521367426, 11521367424, 5760198126, 5760198128, 11521368772, 5760198129, 5760198130, 5760198131, 5760198132, 13046007548, 5760198134, 5760198137, 5760198139, 5760198140, 5760198141, 11521367423, 5760198142, 5760198143, 11521368899, 5760198144, 13046007556, 5760198146, 5760198148, 5760198149, 5760198150, 11521368889, 5760198151, 11521368879, 13046007562, 5760198155, 11521368877, 5760198158, 11521368876, 13046007564, 13046007565, 5760198164, 5760198165, 5760198167, 5760198168, 5760198170, 5760198171, 5760198173, 5760198175, 5760198176, 11521368875, 13046007567, 5760198183, 5760198184, 5760198186, 13046007569, 5760198189, 11521368873, 5760198192, 5760198193, 11521368831, 11521368830, 5760198194, 13046007570, 5760198199, 11521367417, 11521367416, 11521367419, 5760198200, 11521368869, 11521368868, 13046007572, 11521368777, 11521368775, 5760198203, 11521368774, 11521368866, 11521368832, 11521368833, 11521368834, 11521368835, 11521368836, 11521368837, 11521368838, 11521368839, 11521368840, 11521368841, 11521368842, 11521368843, 11521368844, 11521368845, 11521368846, 11521368847, 11521368848, 5760198211], "tags": {"bridge": "viaduct", "frequency": "0", "gauge": "1435", "layer": "3", "maxspeed": "80", "name": "Yellow Line (RV Road - Bommasandra)", "network": "Namma Metro", "railway": "subway", "ref": "Line 5", "voltage": "750"}}, {"type": "way", "id": 1091003955, "nodes": [9992772709, 9992772710, 9992772711, 9992772712, 9992772713, 9992772714, 9992772709], "tags": {"amenity": "bus_station", "building": "yes", "bus": "yes", "public_transport": "station", "source": "microsoft/BuildingFootprints"}}, {"type": "way", "id": 1240101143, "nodes": [11521368719, 11521368704, 11521368703, 11521368702, 11521368701, 11521368700, 11521368699, 11521368698, 11521368697, 11521368696, 11521368705], "tags": {"bridge": "viaduct", "frequency": "0", "gauge": "1435", "layer": "3", "maxspeed": "80", "name": "Hebbagodi Depot", "network": "Namma Metro", "railway": "subway", "voltage": "750"}}, {"type": "way", "id": 1240101144, "nodes": [11521368723, 11521368721], "tags": {"bridge": "viaduct", "frequency": "0", "gauge": "1435", "layer": "3", "maxspeed": "80", "network": "Namma Metro", "railway": "subway", "voltage": "750"}}, {"type": "way", "id": 1240101145, "nodes": [11521368724, 11521368723, 11521368722, 11521368720, 11521368719, 11521368718, 11521368717, 11521368716, 11521368715, 11521368712, 11521368711, 11521368710, 11521368714, 11521368709, 11521368708, 11521368707, 11521368713], "tags": {"bridge": "viaduct", "frequency": "0", "gauge": "1435", "layer": "3", "maxspeed": "80", "name": "Hebbagodi Depot", "network": "Namma Metro", "railway": "subway", "voltage": "750"}}, {"type": "way", "id": 1240101146, "nodes": [11521368731, 11521368730, 11521368727, 11521368729, 11521368726, 11521368728, 11521368724, 11521368725], "tags": {"bridge": "viaduct", "frequency": "0", "gauge": "1435", "layer": "3", "maxspeed": "80", "network": "Namma Metro", "railway": "subway", "voltage": "750"}}, {"type": "way", "id": 1240101798, "nodes": [11521367419, 11521367418, 11521367417], "tags": {"bridge": "viaduct", "frequency": "0", "gauge": "1435", "layer": "3", "maxspeed": "80", "network": "Namma Metro", "railway": "subway", "voltage": "750"}}, {"type": "way", "id": 1240101799, "nodes": [11521367421, 11521367418, 11521367420], "tags": {"bridge": "viaduct", "frequency": "0", "gauge": "1435", "layer": "3", "maxspeed": "80", "network": "Namma Metro", "railway": "subway", "voltage": "750"}}, {"type": "way", "id": 1419688668, "nodes": [13046402706, 13046402705, 13046402704], "tags": {"electrified": "rail", "frequency": "0", "gauge": "1435", "maxspeed": "80", "network": "Namma Metro", "operator": "Bangalore Metro Rail Corporation Limited", "railway": "subway", "service": "yard", "subway": "yes", "voltage": "750"}}, {"type": "way", "id": 1419688669, "nodes": [13046402710, 13046402709, 13046402708, 13046402707], "tags": {"electrified": "rail", "frequency": "0", "gauge": "1435", "maxspeed": "80", "network": "Namma Metro", "operator": "Bangalore Metro Rail Corporation Limited", "railway": "subway", "service": "yard", "subway": "yes", "voltage": "750"}}, {"type": "way", "id": 1419688670, "nodes": [13046402716, 13046402715, 13046402714, 13046402707, 13046402713, 13046402704, 13046402712, 13046402711], "tags": {"electrified": "rail", "frequency": "0", "gauge": "1435", "maxspeed": "80", "network": "Namma Metro", "operator": "Bangalore Metro Rail Corporation Limited", "railway": "subway", "service": "yard", "subway": "yes", "voltage": "750"}}, {"type": "way", "id": 1419688671, "nodes": [13046402719, 13046402718, 13046402717, 13046402721], "tags": {"electrified": "rail", "frequency": "0", "gauge": "1435", "maxspeed": "80", "network": "Namma Metro", "operator": "Bangalore Metro Rail Corporation Limited", "railway": "subway", "service": "yard", "subway": "yes", "voltage": "750"}}, {"type": "way", "id": 1419688672, "nodes": [13046402723, 13046402722, 13046402721, 13046402720], "tags": {"electrified": "rail", "frequency": "0", "gauge": "1435", "maxspeed": "80", "network": "Namma Metro", "operator": "Bangalore Metro Rail Corporation Limited", "railway": "subway", "service": "yard", "subway": "yes", "voltage": "750"}}, {"type": "way", "id": 1419688673, "nodes": [13046402724, 13046402725], "tags": {"electrified": "rail", "frequency": "0", "gauge": "1435", "maxspeed": "80", "network": "Namma Metro", "operator": "Bangalore Metro Rail Corporation Limited", "railway": "subway", "service": "yard", "subway": "yes", "voltage": "750"}}, {"type": "way", "id": 1419688674, "nodes": [13046402727, 13046402726, 13046402725, 13046402728], "tags": {"electrified": "rail", "frequency": "0", "gauge": "1435", "maxspeed": "80", "network": "Namma Metro", "operator": "Bangalore Metro Rail Corporation Limited", "railway": "subway", "service": "yard", "subway": "yes", "voltage": "750"}}, {"type": "way", "id": 1419688675, "nodes": [13046402731, 13046402730, 13046402729, 13046402728, 13046402755], "tags": {"electrified": "rail", "frequency": "0", "gauge": "1435", "maxspeed": "80", "network": "Namma Metro", "operator": "Bangalore Metro Rail Corporation Limited", "railway": "subway", "service": "yard", "subway": "yes", "voltage": "750"}}, {"type": "way", "id": 1419688676, "nodes": [13046402734, 13046402733, 13046402732, 13046402735], "tags": {"electrified": "rail", "frequency": "0", "gauge": "1435", "maxspeed": "80", "network": "Namma Metro", "operator": "Bangalore Metro Rail Corporation Limited", "railway": "subway", "service": "yard", "subway": "yes", "voltage": "750"}}, {"type": "way", "id": 1419688677, "nodes": [13046402738, 13046402737, 13046402736, 13046402735, 13046402756], "tags": {"electrified": "rail", "frequency": "0", "gauge": "1435", "maxspeed": "80", "network": "Namma Metro", "operator": "Bangalore Metro Rail Corporation Limited", "railway": "subway", "service": "yard", "subway": "yes", "voltage": "750"}}, {"type": "way", "id": 1419688678, "nodes": [13046402745, 13046402744, 13046402743, 13046402742, 13046402711, 13046402720, 13046402741, 13046402740, 13046402739], "tags": {"electrified": "rail", "frequency": "0", "gauge": "1435", "maxspeed": "80", "network": "Namma Metro", "operator": "Bangalore Metro Rail Corporation Limited", "railway": "subway", "service": "yard", "subway": "yes", "voltage": "750"}}, {"type": "way", "id": 1419688679, "nodes": [13046402750, 13046402746, 11521368705], "tags": {"electrified": "rail", "frequency": "0", "gauge": "1435", "maxspeed": "80", "network": "Namma Metro", "operator": "Bangalore Metro Rail Corporation Limited", "railway": "subway", "service": "yard", "subway": "yes", "voltage": "750"}}, {"type": "way", "id": 1419688680, "nodes": [13046402748, 13046402747], "tags": {"electrified": "rail", "frequency": "0", "gauge": "1435", "maxspeed": "80", "network": "Namma Metro", "operator": "Bangalore Metro Rail Corporation Limited", "railway": "subway", "service": "yard", "subway": "yes", "voltage": "750"}}, {"type": "way", "id": 1419688681, "nodes": [13046402759, 13046402758, 13046402757, 13046402756, 13046402755, 13046402754, 13046402753, 13046402752, 13046402751, 13046402748, 13046402750, 13046402749], "tags": {"electrified": "rail", "frequency": "0", "gauge": "1435", "maxspeed": "80", "network": "Namma Metro", "operator": "Bangalore Metro Rail Corporation Limited", "railway": "subway", "service": "yard", "subway": "yes", "voltage": "750"}}, {"type": "way", "id": 1419688682, "nodes": [13046402762, 13046402761, 13046402760], "tags": {"electrified": "rail", "frequency": "0", "gauge": "1435", "maxspeed": "80", "network": "Namma Metro", "operator": "Bangalore Metro Rail Corporation Limited", "railway": "subway", "service": "yard", "subway": "yes", "voltage": "750"}}, {"type": "way", "id": 1419688683, "nodes": [13046402765, 13046402764, 13046402763, 13046402767], "tags": {"electrified": "rail", "frequency": "0", "gauge": "1435", "maxspeed": "80", "network": "Namma Metro", "operator": "Bangalore Metro Rail Corporation Limited", "railway": "subway", "service": "yard", "subway": "yes", "voltage": "750"}}, {"type": "way", "id": 1419688684, "nodes": [13046402769, 13046402768, 13046402767, 13046402766, 13046402770], "tags": {"electrified": "rail", "frequency": "0", "gauge": "1435", "maxspeed": "80", "network": "Namma Metro", "operator": "Bangalore Metro Rail Corporation Limited", "railway": "subway", "service": "yard", "subway": "yes", "voltage": "750"}}, {"type": "way", "id": 1419688685, "nodes": [13046402772, 13046402760, 13046402771, 13046402770, 13046402773], "tags": {"electrified": "rail", "frequency": "0", "gauge": "1435", "maxspeed": "80", "network": "Namma Metro", "operator": "Bangalore Metro Rail Corporation Limited", "railway": "subway", "service": "yard", "subway": "yes", "voltage": "750"}}, {"type": "way", "id": 1419688686, "nodes": [13046402775, 13046402774, 13046402773, 13046402778], "tags": {"electrified": "rail", "frequency": "0", "gauge": "1435", "maxspeed": "80", "network": "Namma Metro", "operator": "Bangalore Metro Rail Corporation Limited", "railway": "subway", "service": "yard", "subway": "yes", "voltage": "750"}}, {"type": "way", "id": 1419688687, "nodes": [13046402777, 13046402776, 13046402780], "tags": {"electrified": "rail", "frequency": "0", "gauge": "1435", "maxspeed": "80", "network": "Namma Metro", "operator": "Bangalore Metro Rail Corporation Limited", "railway": "subway", "service": "yard", "subway": "yes", "voltage": "750"}}, {"type": "way", "id": 1419688688, "nodes": [13046402781, 13046402780, 13046402779, 13046402778, 13046402793], "tags": {"electrified": "rail", "frequency": "0", "gauge": "1435", "maxspeed": "80", "network": "Namma Metro", "operator": "Bangalore Metro Rail Corporation Limited", "railway": "subway", "service": "yard", "subway": "yes", "voltage": "750"}}, {"type": "way", "id": 1419688689, "nodes": [13046402784, 13046402783, 13046402782], "tags": {"electrified": "rail", "frequency": "0", "gauge": "1435", "maxspeed": "80", "network": "Namma Metro", "operator": "Bangalore Metro Rail Corporation Limited", "railway": "subway", "service": "yard", "subway": "yes", "voltage": "750"}}, {"type": "way", "id": 1419688690, "nodes": [13046402785, 13046402795], "tags": {"electrified": "rail", "frequency": "0", "gauge": "1435", "maxspeed": "80", "network": "Namma Metro", "operator": "Bangalore Metro Rail Corporation Limited", "railway": "subway", "service": "yard", "subway": "yes", "voltage": "750"}}, {"type": "way", "id": 1419688691, "nodes": [13046402792, 13046402789, 13046402788, 13046402787, 13046402790, 13046402786, 13046402838], "tags": {"electrified": "rail", "frequency": "0", "gauge": "1435", "maxspeed": "80", "network": "Namma Metro", "operator": "Bangalore Metro Rail Corporation Limited", "railway": "subway", "service": "yard", "subway": "yes", "voltage": "750"}}, {"type": "way", "id": 1419688692, "nodes": [13046402797, 13046402796, 13046402795, 13046402782, 13046402794, 13046402793, 13046402792, 13046402791, 13046402747, 13046402749, 11521368713], "tags": {"electrified": "rail", "frequency": "0", "gauge": "1435", "maxspeed": "80", "network": "Namma Metro", "operator": "Bangalore Metro Rail Corporation Limited", "railway": "subway", "service": "yard", "subway": "yes", "voltage": "750"}}, {"type": "way", "id": 1419688693, "nodes": [13046402801, 13046402800, 13046402799, 13046402798], "tags": {"electrified": "rail", "frequency": "0", "gauge": "1435", "maxspeed": "80", "network": "Namma Metro", "operator": "Bangalore Metro Rail Corporation Limited", "railway": "subway", "service": "yard", "subway": "yes", "voltage": "750"}}, {"type": "way", "id": 1419688694, "nodes": [13046402805, 13046402804, 13046402803, 13046402802], "tags": {"electrified": "rail", "frequency": "0", "gauge": "1435", "maxspeed": "80", "network": "Namma Metro", "operator": "Bangalore Metro Rail Corporation Limited", "railway": "subway", "service": "yard", "subway": "yes", "voltage": "750"}}, {"type": "way", "id": 1419688695, "nodes": [13046402808, 13046402807, 13046402806, 13046402802, 13046402798, 13046402833], "tags": {"electrified": "rail", "frequency": "0", "gauge": "1435", "maxspeed": "80", "network": "Namma Metro", "operator": "Bangalore Metro Rail Corporation Limited", "railway": "subway", "service": "yard", "subway": "yes", "voltage": "750"}}, {"type": "way", "id": 1419688697, "nodes": [13046402825, 13046402824, 13046402823], "tags": {"electrified": "rail", "frequency": "0", "gauge": "1435", "maxspeed": "80", "network": "Namma Metro", "operator": "Bangalore Metro Rail Corporation Limited", "railway": "subway", "service": "yard", "subway": "yes", "voltage": "750"}}, {"type": "way", "id": 1419688698, "nodes": [13046402827, 13046402823, 13046402826, 13046402840], "tags": {"electrified": "rail", "frequency": "0", "gauge": "1435", "maxspeed": "80", "network": "Namma Metro", "operator": "Bangalore Metro Rail Corporation Limited", "railway": "subway", "service": "yard", "subway": "yes", "voltage": "750"}}, {"type": "way", "id": 1419688699, "nodes": [13046402828, 13046402841], "tags": {"electrified": "rail", "frequency": "0", "gauge": "1435", "maxspeed": "80", "network": "Namma Metro", "operator": "Bangalore Metro Rail Corporation Limited", "railway": "subway", "service": "yard", "subway": "yes", "voltage": "750"}}, {"type": "way", "id": 1419688700, "nodes": [13046402843, 13046402842, 13046402841, 13046402840, 13046402837, 13046402836, 13046402839, 13046402835, 13046402834, 13046402838, 13046402833, 13046402832, 13046402831, 13046402830, 13046402829], "tags": {"electrified": "rail", "frequency": "0", "gauge": "1435", "maxspeed": "80", "network": "Namma Metro", "operator": "Bangalore Metro Rail Corporation Limited", "railway": "subway", "service": "yard", "subway": "yes", "voltage": "750"}}, {"type": "way", "id": 1421372978, "nodes": [13046007539, 1577982449, 5018297461, 5018297452, 5018297479, 5018297477], "tags": {"bridge": "viaduct", "frequency": "0", "gauge": "1435", "layer": "3", "maxspeed": "80", "name": "Yellow Line (RV Road - Bommasandra)", "network": "Namma Metro", "railway": "subway", "ref": "Line 5", "voltage": "750"}}, {"type": "way", "id": 1421372979, "nodes": [5760198266, 5760197803, 5760197804, 5760197805, 13046007538], "tags": {"bridge": "viaduct", "frequency": "0", "gauge": "1435", "layer": "3", "maxspeed": "80", "name": "Yellow Line (RV Road - Bommasandra)", "network": "Namma Metro", "railway": "subway", "ref": "Line 5", "voltage": "750"}}, {"type": "way", "id": 1436454314, "nodes": [13202839353, 13202839352, 13202839351, 13202839350, 13202839349, 13202839348, 13202839347, 13202839346, 13202839345, 13202839344, 13202839343, 13202839342, 13202839341, 13202839340, 13202839339, 13202839338, 13202839337, 13202839336, 13202839335, 13202839334, 13202839333, 13202839332, 13202839331, 13202839330, 13202839329, 13202839328, 13202839327, 13202839326, 13202839325, 13202839324, 13202839323, 13202839322, 13202839321, 13202839320, 13202839319, 13202839318, 13202839317, 13202839316, 13202839315, 13202839314, 13202839313, 13202839312, 13202839311, 13368711694, 13202839310, 13202839309, 13202839308, 13202839307, 13202839306, 13202839305, 13202839304, 13202839303, 13202839302, 13202839301, 13202839300, 13202839299, 13202839298, 13202839297, 13202839296, 13202839295, 13202839294, 13202839293, 13202839292, 13202839291, 13202839290, 13202839289, 13202839288, 13202839287, 13202839286, 13202839285, 13202839284, 13202839283, 13202839282, 13202839281, 13202839280, 13202839279, 13202839278, 13202839277, 13202839276, 13202839275, 13202839274, 13202839273, 13202839272, 13202839271, 13202839270, 13202839269, 13202839268, 13202839267, 13202839266, 13202839265, 13202839264, 13202839263, 13202839262, 13202839261, 13202839260, 13202839259, 13202839258, 13202839257, 10219972658, 13202839256, 13202839255, 13202839254, 13202839253, 13202839252, 13202839251, 10219972657, 13202839250, 13202839249, 13202839248, 13202839247, 13202839246, 13202839245, 13202839244, 13202839243, 10219972656, 13202839242, 13202839241, 13202839240, 13202839239, 13202839238, 13202839237, 13202839236, 13202839235, 13202839234, 13202839233, 13202839232, 13202839231, 13202839230, 13202839229, 13202839228, 13202839227, 13202839226, 13202839225, 13202839224, 13202839223, 13202839222, 13202839221, 13202839220, 13202839219, 13202839218, 13202839217, 13202839216, 13202839215, 13202839214, 13202839213, 13202839212, 13202839211, 13202839210, 13202839209, 13202839208, 13202839207, 13202839206, 13202839205, 13202839204, 13202839203, 13202839202, 13202839201, 13202839200, 13202839199, 13202839198, 13202839197, 13202839196, 13202839195, 13202839194, 13202839193, 13202839192, 13202839191, 13202839190, 13202839189, 13202839188, 13202839187, 13202839186, 13202839185, 13202839184, 13202839183, 13202839182, 13202839181, 13202839180, 13202839179, 13202839178, 13202839177, 13202839176, 13202839175, 13202839174, 13202839173, 13202839172, 13202839171, 13202839170, 13202839169, 13202839168, 13202839167, 13202839166, 13202839165, 13202839164, 13202839163, 13202839162, 13202839161, 13202839160, 13202839159, 13202839158, 13202839157, 13202839156, 13202839155, 13202839154, 13202839153, 13202839152, 13202839151, 13202839150, 13202839149, 13202839148, 13202839147, 13202839146, 13202839145, 13202839144, 13202839143, 13202839142, 13202839141, 13202839140, 13202839139, 13202839138, 13202839137, 13202839136, 13202839135, 13202839134, 13202839133, 13202839132, 13202839131, 13202839130, 13202839129, 13202839128, 13202839127, 13202839126, 13202839125, 13202839124, 13202839123, 13202839122, 13202839121, 13202839120, 13202839119, 13202839118, 13202839117, 13202839116, 13202839115, 13202839114, 13202839113, 13202839112, 13202839111, 13202839110, 13202839109, 13202839108, 13202839107, 13202839106, 13202839105, 13202839104, 13202839103, 13202839102, 13202839101, 13202821700, 13202821699, 13202821698, 13202821697, 13202821696, 13202821695, 13202821694, 13202821693, 13202821692, 13202821691, 13202821690, 13202821689, 13202821688, 13202821687, 13202821686, 13202821685, 13202821684, 13202821683, 13202821682, 13202821681, 13202821680, 13202821679, 13202821678, 13202821677, 13202821676, 13202821675, 13202821674, 13202821673, 13202821672, 13202821671, 13202821670, 13202821669, 13202821668, 13202821667, 13202821666, 13202821665, 13202821664, 13202821663, 13202821662, 13202821661, 13202821660, 13202821659, 13202821658, 13202821657, 13202821656, 13202821655, 13202821654, 13202821653, 13202821652, 13202821651, 13202821650, 13202821649, 13202821648, 13202821647, 13202821646, 13202821645, 13202821644, 13202821643, 13202821642, 13202821641, 13202821640, 13202821639, 13202821638, 13202821637, 13202821636], "tags": {"fixme": "Approximate tracing", "name": "Sarjapura-Hebbal Line", "network": "Namma Metro", "railway": "proposed"}}, {"type": "relation", "id": 15782789, "members": [{"type": "node", "ref": 10855128096, "role": "stop"}, {"type": "node", "ref": 10855128097, "role": "platform"}], "tags": {"name": "SVR College", "name:en": "SVR College", "network": "BMTC", "operator": "BMTC", "public_transport": "stop_area", "type": "public_transport"}}, {"type": "relation", "id": 15782790, "members": [{"type": "node", "ref": 10855128098, "role": "stop"}, {"type": "node", "ref": 10855128099, "role": "platform"}], "tags": {"name": "Somasundarapalya", "name:en": "Somasundarapalya", "name:kn": "\u0cb8\u0ccb\u0cae\u0cb8\u0cc1\u0c82\u0ca6\u0cb0\u0caa\u0cbe\u0cb3\u0ccd\u0caf", "network": "BMTC", "operator": "BMTC", "public_transport": "stop_area", "type": "public_transport"}}, {"type": "relation", "id": 17174418, "members": [{"type": "node", "ref": 11598969427, "role": "stop"}, {"type": "node", "ref": 11598969428, "role": "platform"}], "tags": {"name": "Electronic City", "name:en": "Electronic City", "network": "BMTC", "operator": "BMTC", "public_transport": "stop_area", "type": "public_transport"}}, {"type": "relation", "id": 17174419, "members": [{"type": "node", "ref": 11598969429, "role": "stop"}, {"type": "node", "ref": 2647643923, "role": "platform"}], "tags": {"name": "Siemens", "name:en": "Siemens", "network": "BMTC", "operator": "BMTC", "public_transport": "stop_area", "type": "public_transport"}}, {"type": "relation", "id": 17174420, "members": [{"type": "node", "ref": 11598969430, "role": "stop"}, {"type": "node", "ref": 11598969431, "role": "platform"}], "tags": {"name": "BHEL", "name:en": "BHEL", "network": "BMTC", "operator": "BMTC", "public_transport": "stop_area", "type": "public_transport"}}, {"type": "relation", "id": 17174421, "members": [{"type": "node", "ref": 13072789389, "role": "stop"}, {"type": "node", "ref": 264191750, "role": "platform"}], "tags": {"alt_name": "Shikaripalya Cross", "name": "Wipro Gate", "name:en": "Wipro Gate", "network": "BMTC", "operator": "BMTC", "public_transport": "stop_area", "type": "public_transport"}}, {"type": "relation", "id": 17174422, "members": [{"type": "node", "ref": 11598969433, "role": "stop"}, {"type": "node", "ref": 2647643918, "role": "platform"}], "tags": {"name": "Concord Apartment Electronic City", "name:en": "Concord Apartment Electronic City", "network": "BMTC", "operator": "BMTC", "public_transport": "stop_area", "type": "public_transport"}}, {"type": "relation", "id": 17174423, "members": [{"type": "node", "ref": 2398152712, "role": "stop"}, {"type": "node", "ref": 11598969436, "role": "platform"}], "tags": {"name": "Neeladri Nagar", "name:en": "Neeladri Nagar", "network": "BMTC", "operator": "BMTC", "public_transport": "stop_area", "type": "public_transport"}}, {"type": "relation", "id": 17174424, "members": [{"type": "node", "ref": 1724216387, "role": "stop"}, {"type": "node", "ref": 11598969437, "role": "platform"}], "tags": {"name": "Thogur Cross", "name:en": "Thogur Cross", "network": "BMTC", "operator": "BMTC", "public_transport": "stop_area", "type": "public_transport"}}, {"type": "relation", "id": 17174425, "members": [{"type": "node", "ref": 11598969438, "role": "stop"}, {"type": "node", "ref": 11598969439, "role": "platform"}], "tags": {"name": "Vittasandra Cross", "name:en": "Vittasandra Cross", "network": "BMTC", "operator": "BMTC", "public_transport": "stop_area", "type": "public_transport"}}, {"type": "relation", "id": 17174426, "members": [{"type": "node", "ref": 11171649493, "role": "stop"}, {"type": "node", "ref": 11598969440, "role": "platform"}], "tags": {"name": "Bettadasanapura", "name:en": "Bettadasanapura", "network": "BMTC", "operator": "BMTC", "public_transport": "stop_area", "type": "public_transport"}}, {"type": "relation", "id": 17174427, "members": [{"type": "node", "ref": 11598969441, "role": "stop"}, {"type": "node", "ref": 11598969442, "role": "platform"}], "tags": {"name": "Jalli Machine", "name:en": "Jalli Machine", "network": "BMTC", "operator": "BMTC", "public_transport": "stop_area", "type": "public_transport"}}, {"type": "relation", "id": 17174428, "members": [{"type": "node", "ref": 11598969443, "role": "stop"}, {"type": "node", "ref": 11598969444, "role": "platform"}], "tags": {"name": "Mylasandra Road Junction", "name:en": "Mylasandra Road Junction", "network": "BMTC", "operator": "BMTC", "public_transport": "stop_area", "type": "public_transport"}}, {"type": "relation", "id": 17178281, "members": [{"type": "node", "ref": 11602243227, "role": "stop"}, {"type": "node", "ref": 11602243228, "role": "platform"}], "tags": {"name": "Mylasandra Road Junction", "name:en": "Mylasandra Road Junction", "network": "BMTC", "operator": "BMTC", "public_transport": "stop_area", "type": "public_transport"}}, {"type": "relation", "id": 17178282, "members": [{"type": "node", "ref": 11602243229, "role": "stop"}, {"type": "node", "ref": 11602243230, "role": "platform"}], "tags": {"name": "Jalli Machine", "name:en": "Jalli Machine", "network": "BMTC", "operator": "BMTC", "public_transport": "stop_area", "type": "public_transport"}}, {"type": "relation", "id": 17178283, "members": [{"type": "node", "ref": 11602243231, "role": "stop"}, {"type": "node", "ref": 11602243232, "role": "platform"}], "tags": {"name": "Bettadasanapura", "name:en": "Bettadasanapura", "network": "BMTC", "operator": "BMTC", "public_transport": "stop_area", "type": "public_transport"}}, {"type": "relation", "id": 17178284, "members": [{"type": "node", "ref": 11602243233, "role": "stop"}, {"type": "node", "ref": 11602243234, "role": "platform"}], "tags": {"name": "Vittasandra Cross", "name:en": "Vittasandra Cross", "network": "BMTC", "operator": "BMTC", "public_transport": "stop_area", "type": "public_transport"}}, {"type": "relation", "id": 17178285, "members": [{"type": "node", "ref": 11602243235, "role": "stop"}, {"type": "node", "ref": 11602243236, "role": "platform"}], "tags": {"name": "Thogur Cross", "name:en": "Thogur Cross", "network": "BMTC", "operator": "BMTC", "public_transport": "stop_area", "type": "public_transport"}}, {"type": "relation", "id": 17178286, "members": [{"type": "node", "ref": 11602243237, "role": "stop"}, {"type": "node", "ref": 11602243238, "role": "platform"}], "tags": {"name": "Ajmeer Apartment Neeladri Road", "name:en": "Ajmeer Apartment Neeladri Road", "network": "BMTC", "operator": "BMTC", "public_transport": "stop_area", "type": "public_transport"}}, {"type": "relation", "id": 17178287, "members": [{"type": "node", "ref": 11602243239, "role": "stop"}, {"type": "node", "ref": 11602243240, "role": "platform"}], "tags": {"name": "Neeladri Nagar", "name:en": "Neeladri Nagar", "network": "BMTC", "operator": "BMTC", "public_transport": "stop_area", "type": "public_transport"}}, {"type": "relation", "id": 17178288, "members": [{"type": "node", "ref": 1782809606, "role": "stop"}, {"type": "node", "ref": 11602243241, "role": "platform"}], "tags": {"name": "Concord Apartment Electronic City", "name:en": "Concord Apartment Electronic City", "network": "BMTC", "operator": "BMTC", "public_transport": "stop_area", "type": "public_transport"}}, {"type": "relation", "id": 17178289, "members": [{"type": "node", "ref": 10043936004, "role": "platform"}], "tags": {"name": "Wipro Gate", "name:en": "Wipro Gate", "network": "BMTC", "operator": "BMTC", "public_transport": "stop_area", "type": "public_transport"}}, {"type": "relation", "id": 17178290, "members": [{"type": "node", "ref": 11602243242, "role": "stop"}, {"type": "node", "ref": 10043936003, "role": "platform"}], "tags": {"name": "BHEL", "name:en": "BHEL", "network": "BMTC", "operator": "BMTC", "public_transport": "stop_area", "type": "public_transport"}}, {"type": "relation", "id": 17178291, "members": [{"type": "node", "ref": 11602243243, "role": "stop"}, {"type": "node", "ref": 11602243244, "role": "platform"}], "tags": {"name": "Siemens", "name:en": "Siemens", "network": "BMTC", "operator": "BMTC", "public_transport": "stop_area", "type": "public_transport"}}, {"type": "relation", "id": 17178292, "members": [{"type": "node", "ref": 11602243245, "role": "stop"}, {"type": "node", "ref": 11602243246, "role": "platform"}], "tags": {"name": "Electronic City", "name:en": "Electronic City", "network": "BMTC", "operator": "BMTC", "public_transport": "stop_area", "type": "public_transport"}}, {"type": "relation", "id": 17461245, "members": [{"type": "node", "ref": 11810954352, "role": "stop"}, {"type": "node", "ref": 1473298100, "role": "platform"}], "tags": {"name": "Garavebhavipalaya", "name:en": "Garavebhavipalaya", "network": "BMTC", "operator": "BMTC", "public_transport": "stop_area", "type": "public_transport"}}, {"type": "relation", "id": 17798474, "members": [{"type": "node", "ref": 12030513655, "role": "stop"}, {"type": "node", "ref": 12030513656, "role": "platform"}], "tags": {"name": "Crown Plaza", "name:en": "Crown Plaza", "network": "BMTC", "operator": "BMTC", "public_transport": "stop_area", "type": "public_transport"}}, {"type": "relation", "id": 17798475, "members": [{"type": "node", "ref": 12030513657, "role": "stop"}, {"type": "node", "ref": 12030513658, "role": "platform"}], "tags": {"name": "Konnappana Agrahara", "name:en": "Konnappana Agrahara", "network": "BMTC", "operator": "BMTC", "public_transport": "stop_area", "type": "public_transport"}}, {"type": "relation", "id": 17802163, "members": [{"type": "node", "ref": 1894649482, "role": "stop"}, {"type": "node", "ref": 7179096795, "role": "platform"}], "tags": {"name": "Crown Plaza", "name:en": "Crown Plaza", "network": "BMTC", "operator": "BMTC", "public_transport": "stop_area", "type": "public_transport"}}, {"type": "relation", "id": 18575413, "members": [{"type": "node", "ref": 12514041531, "role": "stop"}, {"type": "node", "ref": 12514041532, "role": "platform"}], "tags": {"name": "Electronic City", "name:en": "Electronic City", "network": "BMTC", "operator": "BMTC", "public_transport": "stop_area", "type": "public_transport"}}, {"type": "relation", "id": 18575414, "members": [{"type": "node", "ref": 12514041533, "role": "stop"}, {"type": "node", "ref": 1733896359, "role": "platform"}], "tags": {"name": "Hebbagodi", "name:en": "Hebbagodi", "network": "BMTC", "operator": "BMTC", "public_transport": "stop_area", "type": "public_transport"}}, {"type": "relation", "id": 18575415, "members": [{"type": "node", "ref": 12514041534, "role": "stop"}, {"type": "node", "ref": 2625813360, "role": "platform"}], "tags": {"name": "Bommasandra", "name:en": "Bommasandra", "network": "BMTC", "operator": "BMTC", "public_transport": "stop_area", "type": "public_transport"}}, {"type": "relation", "id": 18575417, "members": [{"type": "node", "ref": 12514041579, "role": "stop"}, {"type": "node", "ref": 12514041580, "role": "platform"}], "tags": {"name": "Bommasandra", "name:en": "Bommasandra", "network": "BMTC", "operator": "BMTC", "public_transport": "stop_area", "type": "public_transport"}}, {"type": "relation", "id": 18575418, "members": [{"type": "node", "ref": 12514041581, "role": "stop"}, {"type": "node", "ref": 1814895823, "role": "platform"}], "tags": {"name": "Hebbagodi", "name:en": "Hebbagodi", "network": "BMTC", "operator": "BMTC", "public_transport": "stop_area", "type": "public_transport"}}, {"type": "relation", "id": 18575419, "members": [{"type": "node", "ref": 12514041582, "role": "stop"}, {"type": "node", "ref": 6863181885, "role": "platform"}], "tags": {"name": "Electronic City", "name:en": "Electronic City", "network": "BMTC", "operator": "BMTC", "public_transport": "stop_area", "type": "public_transport"}}, {"type": "relation", "id": 19421928, "members": [{"type": "node", "ref": 5760197806, "role": ""}, {"type": "node", "ref": 13046007539, "role": "stop"}, {"type": "node", "ref": 13046007538, "role": "stop"}, {"type": "node", "ref": 13070299122, "role": ""}, {"type": "node", "ref": 13072789357, "role": ""}], "tags": {"code": "BMSD", "colour": "yellow", "name": "Delta Electronics Bommasandra", "name:en": "Delta Electronics Bommasandra", "name:kn": "\u0ca1\u0cc6\u0cb2\u0ccd\u0c9f\u0cbe \u0c8e\u0cb2\u0cc6\u0c95\u0ccd\u0c9f\u0ccd\u0cb0\u0cbe\u0ca8\u0cbf\u0c95\u0ccd\u0cb8\u0ccd \u0cac\u0cca\u0cae\u0ccd\u0cae\u0cb8\u0c82\u0ca6\u0ccd\u0cb0", "network": "Namma Metro", "operator": "BMRCL", "public_transport": "stop_area", "type": "public_transport"}}, {"type": "relation", "id": 19421929, "members": [{"type": "node", "ref": 11521199307, "role": ""}, {"type": "node", "ref": 13046007541, "role": "stop"}, {"type": "node", "ref": 13046007540, "role": "stop"}, {"type": "node", "ref": 13070290270, "role": ""}], "tags": {"code": "HBGI", "colour": "yellow", "name": "Biocon Hebbagodi", "name:en": "Biocon Hebbagodi", "name:kn": "\u0cac\u0caf\u0ccb\u0c95\u0cbe\u0ca8\u0ccd \u0cb9\u0cc6\u0cac\u0ccd\u0cac\u0c97\u0ccb\u0ca1\u0cbf", "network": "Namma Metro", "operator": "BMRCL", "public_transport": "stop_area", "type": "public_transport"}}, {"type": "relation", "id": 19421930, "members": [{"type": "node", "ref": 5760198133, "role": ""}, {"type": "node", "ref": 13046007549, "role": "stop"}, {"type": "node", "ref": 13046007548, "role": "stop"}, {"type": "node", "ref": 13046007550, "role": ""}, {"type": "node", "ref": 13046007553, "role": ""}, {"type": "node", "ref": 13070290262, "role": ""}], "tags": {"code": "ECTN", "colour": "yellow", "name": "Infosys Foundation Konappana Agrahara", "name:en": "Infosys Foundation Konappana Agrahara", "name:kn": "\u0c87\u0ca8\u0ccd\u0cab\u0ccb\u0cb8\u0cbf\u0cb8\u0ccd \u0cab\u0ccc\u0c82\u0ca1\u0cc7\u0cb6\u0ca8\u0ccd \u0c95\u0cca\u0ca8\u0caa\u0ccd\u0caa\u0ca8 \u0c85\u0c97\u0ccd\u0cb0\u0cb9\u0cbe\u0cb0", "network": "Namma Metro", "operator": "BMRCL", "public_transport": "stop_area", "type": "public_transport"}}, {"type": "relation", "id": 19421931, "members": [{"type": "node", "ref": 5760198122, "role": ""}, {"type": "node", "ref": 13046007543, "role": "stop"}, {"type": "node", "ref": 13046007542, "role": "stop"}, {"type": "node", "ref": 13070296275, "role": ""}, {"type": "node", "ref": 13070296276, "role": ""}], "tags": {"alt_name": "Veerasandra", "alt_name:kn": "\u0cb5\u0cc0\u0cb0\u0cb8\u0c82\u0ca6\u0ccd\u0cb0", "code": "HSKR", "colour": "yellow", "name": "Huskur Road", "name:en": "Huskur Road", "name:kn": "\u0cb9\u0cc1\u0cb8\u0ccd\u0c95\u0cc2\u0cb0\u0cc1 \u0cb0\u0cb8\u0ccd\u0ca4\u0cc6", "network": "Namma Metro", "operator": "BMRCL", "public_transport": "stop_area", "type": "public_transport"}}, {"type": "relation", "id": 19421932, "members": [{"type": "node", "ref": 5760198145, "role": ""}, {"type": "node", "ref": 13046007557, "role": "stop"}, {"type": "node", "ref": 13046007556, "role": "stop"}, {"type": "node", "ref": 13048471371, "role": ""}, {"type": "node", "ref": 13070438142, "role": ""}, {"type": "node", "ref": 13070438140, "role": ""}], "tags": {"code": "ETCT", "colour": "yellow", "name": "Electronic City", "name:en": "Electronic City", "name:kn": "\u0c8e\u0cb2\u0cc6\u0c95\u0ccd\u0c9f\u0ccd\u0cb0\u0cbe\u0ca8\u0cbf\u0c95\u0ccd \u0cb8\u0cbf\u0c9f\u0cbf", "network": "Namma Metro", "operator": "BMRCL", "public_transport": "stop_area", "type": "public_transport"}}, {"type": "relation", "id": 19421933, "members": [{"type": "node", "ref": 5760198153, "role": ""}, {"type": "node", "ref": 13046007563, "role": "stop"}, {"type": "node", "ref": 13046007562, "role": "stop"}, {"type": "node", "ref": 13070438114, "role": ""}, {"type": "node", "ref": 11521368822, "role": ""}], "tags": {"code": "HOSR", "colour": "yellow", "name": "Beratena Agrahara", "name:en": "Beratena Agrahara", "name:kn": "\u0cac\u0cc6\u0cb0\u0c9f\u0cc7\u0ca8 \u0c85\u0c97\u0ccd\u0cb0\u0cb9\u0cbe\u0cb0", "network": "Namma Metro", "operator": "BMRCL", "public_transport": "stop_area", "type": "public_transport"}}, {"type": "relation", "id": 19421934, "members": [{"type": "node", "ref": 5760198162, "role": ""}, {"type": "node", "ref": 13046007566, "role": "stop"}, {"type": "node", "ref": 13046007564, "role": "stop"}, {"type": "node", "ref": 13070438051, "role": ""}, {"type": "node", "ref": 11521368791, "role": ""}], "tags": {"alt_name": "Basapura Road", "code": "BSRD", "colour": "yellow", "name": "Hosa Road", "name:en": "Hosa Road", "name:kn": "\u0cb9\u0cca\u0cb8 \u0cb0\u0cb8\u0ccd\u0ca4\u0cc6", "network": "Namma Metro", "operator": "BMRCL", "public_transport": "stop_area", "type": "public_transport"}}, {"type": "relation", "id": 19421935, "members": [{"type": "node", "ref": 5760198182, "role": ""}, {"type": "node", "ref": 13046007568, "role": "stop"}, {"type": "node", "ref": 13046007567, "role": "stop"}, {"type": "node", "ref": 13070437909, "role": ""}, {"type": "node", "ref": 11521368786, "role": ""}], "tags": {"alt_name": "Chikkabegur", "code": "CKBR", "colour": "yellow", "name": "Singasandra", "name:en": "Singasandra", "name:kn": "\u0cb8\u0cbf\u0c82\u0c97\u0cb8\u0c82\u0ca6\u0ccd\u0cb0", "network": "Namma Metro", "operator": "BMRCL", "public_transport": "stop_area", "type": "public_transport"}}, {"type": "relation", "id": 19421936, "members": [{"type": "node", "ref": 5760198187, "role": ""}, {"type": "node", "ref": 13046007569, "role": "stop"}, {"type": "node", "ref": 5018250572, "role": "stop"}, {"type": "node", "ref": 13070432942, "role": ""}, {"type": "node", "ref": 13070432950, "role": ""}], "tags": {"alt_name": "Muneshwara Nagar", "code": "MSRN", "colour": "yellow", "name": "Kudlu Gate", "name:en": "Kudlu Gate", "name:kn": "\u0c95\u0cc1\u0ca1\u0ccd\u0cb2\u0cc1 \u0c97\u0cc7\u0c9f\u0ccd", "network": "Namma Metro", "operator": "BMRCL", "public_transport": "stop_area", "type": "public_transport"}}, {"type": "relation", "id": 19421937, "members": [{"type": "node", "ref": 5760198198, "role": ""}, {"type": "node", "ref": 13046007571, "role": "stop"}, {"type": "node", "ref": 13046007570, "role": "stop"}, {"type": "node", "ref": 13070432933, "role": ""}, {"type": "node", "ref": 11521368779, "role": ""}], "tags": {"alt_name": "Garvebhavi Palya", "alt_name:kn": "\u0c97\u0cbe\u0cb0\u0ccd\u0cb5\u0cc7\u0cac\u0cbe\u0cb5\u0cbf \u0caa\u0cb2\u0ccd\u0caf", "code": "OFDC", "colour": "yellow", "name": "Hongasandra", "name:en": "Hongasandra", "name:kn": "\u0cb9\u0cca\u0c82\u0c97\u0cb8\u0c82\u0ca6\u0ccd\u0cb0", "network": "Namma Metro", "operator": "BMRCL", "public_transport": "stop_area", "type": "public_transport"}}, {"type": "relation", "id": 19425465, "members": [{"type": "node", "ref": 13048329096, "role": "stop"}, {"type": "node", "ref": 13048329097, "role": "platform"}], "tags": {"name": "AECS Layout Singasandra", "name:en": "AECS Layout Singasandra", "network": "BMTC", "operator": "BMTC", "public_transport": "stop_area", "type": "public_transport"}}, {"type": "relation", "id": 19425466, "members": [{"type": "node", "ref": 13048329098, "role": "stop"}, {"type": "node", "ref": 13048329099, "role": "platform"}], "tags": {"name": "Kudlu Panchayath Office", "name:en": "Kudlu Panchayath Office", "network": "BMTC", "operator": "BMTC", "public_transport": "stop_area", "type": "public_transport"}}, {"type": "relation", "id": 19425467, "members": [{"type": "node", "ref": 13048329100, "role": "stop"}, {"type": "node", "ref": 13048335801, "role": "platform"}], "tags": {"name": "BTR Garden", "name:en": "BTR Garden", "network": "BMTC", "operator": "BMTC", "public_transport": "stop_area", "type": "public_transport"}}, {"type": "relation", "id": 19446548, "members": [{"type": "node", "ref": 13062011335, "role": "stop"}, {"type": "node", "ref": 13062011336, "role": "platform"}], "tags": {"name": "Kasavanahalli", "name:en": "Kasavanahalli", "network": "Bus", "operator": "BMTC", "public_transport": "stop_area", "type": "public_transport"}}, {"type": "relation", "id": 19446549, "members": [{"type": "node", "ref": 13062011337, "role": "stop"}, {"type": "node", "ref": 13062011338, "role": "platform"}], "tags": {"name": "Amrutha Engineering College", "name:en": "Amrutha Engineering College", "network": "Bus", "operator": "BMTC", "public_transport": "stop_area", "type": "public_transport"}}, {"type": "relation", "id": 19446550, "members": [{"type": "node", "ref": 13062011339, "role": "stop"}, {"type": "node", "ref": 13062011340, "role": "platform"}], "tags": {"name": "Choodasandra Circle", "name:en": "Choodasandra Circle", "network": "Bus", "operator": "BMTC", "public_transport": "stop_area", "type": "public_transport"}}, {"type": "relation", "id": 19446551, "members": [{"type": "node", "ref": 264845794, "role": "stop"}, {"type": "node", "ref": 13062011342, "role": "platform"}], "tags": {"name": "KSRP Training Centre", "name:en": "KSRP Training Centre", "network": "Bus", "operator": "BMTC", "public_transport": "stop_area", "type": "public_transport"}}, {"type": "relation", "id": 19446552, "members": [{"type": "node", "ref": 13062011341, "role": "stop"}, {"type": "node", "ref": 13062011343, "role": "platform"}], "tags": {"name": "Rayasandra", "name:en": "Rayasandra", "network": "Bus", "operator": "BMTC", "public_transport": "stop_area", "type": "public_transport"}}, {"type": "relation", "id": 19446553, "members": [{"type": "node", "ref": 13062011344, "role": "stop"}, {"type": "node", "ref": 13062011345, "role": "platform"}], "tags": {"name": "Rayasandra Circle", "name:en": "Rayasandra Circle", "network": "Bus", "operator": "BMTC", "public_transport": "stop_area", "type": "public_transport"}}, {"type": "relation", "id": 19446554, "members": [{"type": "node", "ref": 11404989651, "role": "stop"}, {"type": "node", "ref": 13062011346, "role": "platform"}], "tags": {"name": "Bengaluru Central Jail", "name:en": "Bengaluru Central Jail", "network": "Bus", "operator": "BMTC", "public_transport": "stop_area", "type": "public_transport"}}, {"type": "relation", "id": 19446555, "members": [{"type": "node", "ref": 13062011347, "role": "stop"}, {"type": "node", "ref": 13062011348, "role": "platform"}], "tags": {"name": "New MICO Gate", "name:en": "New MICO Gate", "network": "Bus", "operator": "BMTC", "public_transport": "stop_area", "type": "public_transport"}}, {"type": "relation", "id": 19446556, "members": [{"type": "node", "ref": 13062011349, "role": "stop"}, {"type": "node", "ref": 13062011350, "role": "platform"}], "tags": {"name": "Hosa Road", "name:en": "Hosa Road", "network": "Bus", "operator": "BMTC", "public_transport": "stop_area", "type": "public_transport"}}, {"type": "relation", "id": 19446557, "members": [{"type": "node", "ref": 13062011351, "role": "stop"}, {"type": "node", "ref": 13062011352, "role": "platform"}], "tags": {"name": "Electronic City PESIT College", "name:en": "Electronic City PESIT College", "network": "Bus", "operator": "BMTC", "public_transport": "stop_area", "type": "public_transport"}}, {"type": "relation", "id": 19446558, "members": [{"type": "node", "ref": 13062011353, "role": "stop"}, {"type": "node", "ref": 5279552026, "role": "platform"}], "tags": {"name": "Electronic City Wipro Main Gate", "name:en": "Electronic City Wipro Main Gate", "network": "Bus", "operator": "BMTC", "public_transport": "stop_area", "type": "public_transport"}}, {"type": "relation", "id": 19446653, "members": [{"type": "node", "ref": 13061996477, "role": "stop"}, {"type": "node", "ref": 13061996478, "role": "platform"}], "tags": {"name": "Huskur", "name:en": "Huskur", "network": "BMTC", "operator": "BMTC", "public_transport": "stop_area", "type": "public_transport"}}, {"type": "relation", "id": 19446654, "members": [{"type": "node", "ref": 13061996479, "role": "stop"}, {"type": "node", "ref": 13061996480, "role": "platform"}], "tags": {"name": "Chikka Nagamangala Gate", "name:en": "Chikka Nagamangala Gate", "network": "BMTC", "operator": "BMTC", "public_transport": "stop_area", "type": "public_transport"}}, {"type": "relation", "id": 19446655, "members": [{"type": "node", "ref": 13061996481, "role": "stop"}, {"type": "node", "ref": 13061996482, "role": "platform"}], "tags": {"name": "Sumuka Layout", "name:en": "Sumuka Layout", "network": "BMTC", "operator": "BMTC", "public_transport": "stop_area", "type": "public_transport"}}, {"type": "relation", "id": 19446656, "members": [{"type": "node", "ref": 13061996483, "role": "stop"}, {"type": "node", "ref": 13061996484, "role": "platform"}], "tags": {"name": "Depot 38 Gate", "name:en": "Depot 38 Gate", "network": "BMTC", "operator": "BMTC", "public_transport": "stop_area", "type": "public_transport"}}, {"type": "relation", "id": 19446657, "members": [{"type": "node", "ref": 10301943043, "role": "stop"}, {"type": "node", "ref": 13061996485, "role": "platform"}], "tags": {"name": "Doddamma Temple", "name:en": "Doddamma Temple", "network": "BMTC", "operator": "BMTC", "public_transport": "stop_area", "type": "public_transport"}}, {"type": "relation", "id": 19446658, "members": [{"type": "node", "ref": 13061996486, "role": "stop"}, {"type": "node", "ref": 13061996487, "role": "platform"}], "tags": {"name": "Singena Agrahara Fruit Market", "name:en": "Singena Agrahara Fruit Market", "network": "BMTC", "operator": "BMTC", "public_transport": "stop_area", "type": "public_transport"}}, {"type": "relation", "id": 19446659, "members": [{"type": "node", "ref": 13061996488, "role": "stop"}, {"type": "node", "ref": 2647774010, "role": "platform"}], "tags": {"name": "Huskur Gate", "name:en": "Huskur Gate", "network": "BMTC", "operator": "BMTC", "public_transport": "stop_area", "type": "public_transport"}}, {"type": "relation", "id": 19446660, "members": [{"type": "node", "ref": 13061996489, "role": "stop"}, {"type": "node", "ref": 13061996490, "role": "platform"}], "tags": {"name": "Veerasandra", "name:en": "Veerasandra", "network": "BMTC", "operator": "BMTC", "public_transport": "stop_area", "type": "public_transport"}}, {"type": "relation", "id": 19446661, "members": [{"type": "node", "ref": 13061996491, "role": "stop"}, {"type": "node", "ref": 7483988247, "role": "platform"}], "tags": {"name": "Velankani Drive", "name:en": "Velankani Drive", "network": "BMTC", "operator": "BMTC", "public_transport": "stop_area", "type": "public_transport"}}, {"type": "relation", "id": 19446662, "members": [{"type": "node", "ref": 13061996492, "role": "stop"}, {"type": "node", "ref": 13061996493, "role": "platform"}], "tags": {"name": "BHEL", "name:en": "BHEL", "network": "BMTC", "operator": "BMTC", "public_transport": "stop_area", "type": "public_transport"}}, {"type": "relation", "id": 19446686, "members": [{"type": "node", "ref": 13062022653, "role": "stop"}, {"type": "node", "ref": 13062022654, "role": "platform"}], "tags": {"name": "SFS High School Hebbagodi", "name:en": "SFS High School Hebbagodi", "network": "BMTC", "operator": "BMTC", "public_transport": "stop_area", "type": "public_transport"}}, {"type": "relation", "id": 19446687, "members": [{"type": "node", "ref": 13062022655, "role": "stop"}, {"type": "node", "ref": 13062022656, "role": "platform"}], "tags": {"name": "Smondo 3 Apartment", "name:en": "Smondo 3 Apartment", "network": "BMTC", "operator": "BMTC", "public_transport": "stop_area", "type": "public_transport"}}, {"type": "relation", "id": 19446688, "members": [{"type": "node", "ref": 13062022657, "role": "stop"}, {"type": "node", "ref": 13062022658, "role": "platform"}], "tags": {"name": "Atal Bihari Vajpayee Circle Thirupalya", "name:en": "Atal Bihari Vajpayee Circle Thirupalya", "network": "BMTC", "operator": "BMTC", "public_transport": "stop_area", "type": "public_transport"}}, {"type": "relation", "id": 19446694, "members": [{"type": "node", "ref": 13062091909, "role": "stop"}, {"type": "node", "ref": 13062091910, "role": "platform"}], "tags": {"name": "Veerasandra", "name:en": "Veerasandra", "network": "BMTC", "operator": "BMTC", "public_transport": "stop_area", "type": "public_transport"}}, {"type": "relation", "id": 19446695, "members": [{"type": "node", "ref": 13062091911, "role": "stop"}, {"type": "node", "ref": 13062091912, "role": "platform"}], "tags": {"name": "SFS High School Hebbagodi", "name:en": "SFS High School Hebbagodi", "network": "BMTC", "operator": "BMTC", "public_transport": "stop_area", "type": "public_transport"}}, {"type": "relation", "id": 19446696, "members": [{"type": "node", "ref": 13062091914, "role": "stop"}, {"type": "node", "ref": 13062091915, "role": "platform"}], "tags": {"name": "Konnappana Agrahara", "name:en": "Konnappana Agrahara", "network": "BMTC", "operator": "BMTC", "public_transport": "stop_area", "type": "public_transport"}}, {"type": "relation", "id": 19465544, "members": [{"type": "node", "ref": 13072789355, "role": "stop"}, {"type": "node", "ref": 13072789356, "role": "platform"}], "tags": {"name": "Bommasandra", "name:en": "Bommasandra", "network": "BMTC", "operator": "BMTC", "public_transport": "stop_area", "type": "public_transport"}}, {"type": "relation", "id": 19465545, "members": [{"type": "node", "ref": 13072789393, "role": "stop"}, {"type": "node", "ref": 13071979650, "role": "platform"}], "tags": {"network": "ELCITA", "operator": "ELCITA", "public_transport": "stop_area", "type": "public_transport"}}, {"type": "relation", "id": 19552567, "members": [{"type": "node", "ref": 13112252427, "role": "stop"}, {"type": "node", "ref": 1595181210, "role": "platform"}], "tags": {"name": "Wipro Gate", "name:en": "Wipro Gate", "network": "BMTC", "operator": "BMTC", "public_transport": "stop_area", "type": "public_transport"}}, {"type": "relation", "id": 19901627, "members": [{"type": "node", "ref": 13342713087, "role": "stop"}, {"type": "node", "ref": 5993281794, "role": "platform"}], "tags": {"name": "Carmelaram Gate", "name:en": "Carmelaram Gate", "network": "BMTC", "operator": "BMTC", "public_transport": "stop_area", "type": "public_transport"}}]}