{"version": 0.6, "generator": "Overpass API 0.7.62.8 e802775f", "osm3s": {"timestamp_osm_base": "2026-01-12T04:37:15Z", "copyright": "The data included in this document is from www.openstreetmap.org. The data is made available under ODbL."}, "elements": [{"type": "node", "id": 219659248, "lat": 40.6899034, "lon": -73.9771215}, {"type": "node", "id": 1258945404, "lat": 40.6912526, "lon": -73.9775311}, {"type": "node", "id": 1258945599, "lat": 40.6912645, "lon": -73.9774}, {"type": "node", "id": 2561457468, "lat": 40.6403512, "lon": -74.0007495}, {"type": "node", "id": 2561457628, "lat": 40.640782, "lon": -74.000299}, {"type": "node", "id": 2561721576, "lat": 40.6458696, "lon": -74.020465}, {"type": "node", "id": 2561721700, "lat": 40.6462967, "lon": -74.020019}, {"type": "node", "id": 2561721799, "lat": 40.6466571, "lon": -74.019984}, {"type": "node", "id": 2561721810, "lat": 40.6466894, "lon": -74.0200378}, {"type": "node", "id": 2561721824, "lat": 40.6467032, "lon": -74.0200607}, {"type": "node", "id": 2561721836, "lat": 40.6467544, "lon": -74.0200072}, {"type": "node", "id": 2561721859, "lat": 40.6468225, "lon": -74.0199573}, {"type": "node", "id": 2561721871, "lat": 40.6468967, "lon": -74.0200808}, {"type": "node", "id": 2561721878, "lat": 40.6469266, "lon": -74.0212653}, {"type": "node", "id": 2561721882, "lat": 40.6469355, "lon": -74.0210819}, {"type": "node", "id": 2561721891, "lat": 40.6469564, "lon": -74.021315}, {"type": "node", "id": 2561721915, "lat": 40.6470188, "lon": -74.0202839}, {"type": "node", "id": 2561721923, "lat": 40.6470605, "lon": -74.0224465}, {"type": "node", "id": 2561721941, "lat": 40.6472139, "lon": -74.0222863}, {"type": "node", "id": 2561721946, "lat": 40.6472814, "lon": -74.021306}, {"type": "node", "id": 2561721966, "lat": 40.6474266, "lon": -74.0209626}, {"type": "node", "id": 2568774006, "lat": 40.6682736, "lon": -73.9776724}, {"type": "node", "id": 2568774097, "lat": 40.6682922, "lon": -73.978884}, {"type": "node", "id": 2568774292, "lat": 40.6683868, "lon": -73.9783722}, {"type": "node", "id": 2568774294, "lat": 40.6683907, "lon": -73.9788022}, {"type": "node", "id": 2568774645, "lat": 40.6686596, "lon": -73.9785531}, {"type": "node", "id": 2826551870, "lat": 40.7128951, "lon": -73.9883998}, {"type": "node", "id": 2826551888, "lat": 40.7129176, "lon": -73.9881471}, {"type": "node", "id": 2826551899, "lat": 40.7129319, "lon": -73.9881493}, {"type": "node", "id": 2826552039, "lat": 40.7129972, "lon": -73.9874163}, {"type": "node", "id": 2826552062, "lat": 40.7130393, "lon": -73.9874224}, {"type": "node", "id": 2826552069, "lat": 40.7130575, "lon": -73.987203}, {"type": "node", "id": 2826552329, "lat": 40.7132058, "lon": -73.9881615}, {"type": "node", "id": 2826552340, "lat": 40.7132196, "lon": -73.9880282}, {"type": "node", "id": 2826552355, "lat": 40.7132406, "lon": -73.9880312}, {"type": "node", "id": 2826552359, "lat": 40.7132437, "lon": -73.9879945}, {"type": "node", "id": 2826552380, "lat": 40.7132874, "lon": -73.9874647}, {"type": "node", "id": 2826552386, "lat": 40.7132905, "lon": -73.9874651}, {"type": "node", "id": 2826552396, "lat": 40.7133061, "lon": -73.9872386}, {"type": "node", "id": 2826552605, "lat": 40.713319, "lon": -73.9882106}, {"type": "node", "id": 2826552607, "lat": 40.713322, "lon": -73.9881823}, {"type": "node", "id": 2826552623, "lat": 40.7133843, "lon": -73.988475}, {"type": "node", "id": 2826552625, "lat": 40.7133944, "lon": -73.9880161}, {"type": "node", "id": 2826552627, "lat": 40.7134029, "lon": -73.9882256}, {"type": "node", "id": 2826552629, "lat": 40.7134141, "lon": -73.9877783}, {"type": "node", "id": 2826552631, "lat": 40.713452, "lon": -73.9877837}, {"type": "node", "id": 2826552635, "lat": 40.7134762, "lon": -73.9874917}, {"type": "node", "id": 4079860806, "lat": 40.7164657, "lon": -74.0492557}, {"type": "node", "id": 4079860807, "lat": 40.7137345, "lon": -74.0506116}, {"type": "node", "id": 4079860808, "lat": 40.7136568, "lon": -74.0509776}, {"type": "node", "id": 4079860809, "lat": 40.7139381, "lon": -74.0518391}, {"type": "node", "id": 4079860810, "lat": 40.7151872, "lon": -74.0511808}, {"type": "node", "id": 4079860811, "lat": 40.7153264, "lon": -74.0525416}, {"type": "node", "id": 4079860812, "lat": 40.716844, "lon": -74.0522535}, {"type": "node", "id": 4136142772, "lat": 40.6470057, "lon": -74.0210092}, {"type": "node", "id": 4136142777, "lat": 40.6470653, "lon": -74.0209464}, {"type": "node", "id": 4772761728, "lat": 40.7136629, "lon": -74.0507665}, {"type": "node", "id": 4772761729, "lat": 40.7163827, "lon": -74.0491763}, {"type": "node", "id": 4773822592, "lat": 40.6681412, "lon": -73.9773954}, {"type": "node", "id": 4773822593, "lat": 40.6677821, "lon": -73.9777632}, {"type": "node", "id": 4954657429, "lat": 40.6390048, "lon": -73.9985429}, {"type": "node", "id": 5123642508, "lat": 40.6474978, "lon": -74.02108}, {"type": "node", "id": 5123642509, "lat": 40.6472453, "lon": -74.0212459}, {"type": "node", "id": 5123642511, "lat": 40.6471754, "lon": -74.0205445}, {"type": "node", "id": 5123642512, "lat": 40.6474614, "lon": -74.0210204}, {"type": "node", "id": 5415608197, "lat": 40.6400212, "lon": -73.9975134}, {"type": "node", "id": 5415608198, "lat": 40.6396063, "lon": -73.9968104}, {"type": "node", "id": 5415608199, "lat": 40.6393718, "lon": -73.9970364}, {"type": "node", "id": 5415608200, "lat": 40.6384688, "lon": -73.9991158}, {"type": "node", "id": 5415608201, "lat": 40.6381463, "lon": -73.9985977}, {"type": "node", "id": 5415608202, "lat": 40.6388787, "lon": -73.9970829}, {"type": "node", "id": 5415608203, "lat": 40.6384764, "lon": -73.9976929}, {"type": "node", "id": 5415608204, "lat": 40.6386554, "lon": -73.9979854}, {"type": "node", "id": 5415608205, "lat": 40.6390451, "lon": -73.9973572}, {"type": "node", "id": 5415608206, "lat": 40.6394689, "lon": -73.9980718}, {"type": "node", "id": 5419454946, "lat": 40.6683243, "lon": -73.9784241}, {"type": "node", "id": 5419454947, "lat": 40.6680527, "lon": -73.9778559}, {"type": "node", "id": 5419454948, "lat": 40.6670748, "lon": -73.9782692}, {"type": "node", "id": 5419454949, "lat": 40.6685996, "lon": -73.980018}, {"type": "node", "id": 5419454950, "lat": 40.668124, "lon": -73.9804143}, {"type": "node", "id": 5419454951, "lat": 40.6675513, "lon": -73.9778757}, {"type": "node", "id": 5420452688, "lat": 40.6899334, "lon": -73.9785121}, {"type": "node", "id": 5420452689, "lat": 40.6912002, "lon": -73.9775215}, {"type": "node", "id": 5420452690, "lat": 40.6911601, "lon": -73.9780251}, {"type": "node", "id": 5420452691, "lat": 40.6912197, "lon": -73.9780331}, {"type": "node", "id": 5420452692, "lat": 40.6911554, "lon": -73.9787138}, {"type": "node", "id": 5816711059, "lat": 40.6682472, "lon": -73.9789214}, {"type": "node", "id": 5816711062, "lat": 40.6686847, "lon": -73.9785323}, {"type": "node", "id": 5816711063, "lat": 40.6685452, "lon": -73.9782405}, {"type": "node", "id": 5832802763, "lat": 40.6684134, "lon": -73.9787833}, {"type": "node", "id": 5832802766, "lat": 40.6686039, "lon": -73.9785994}, {"type": "node", "id": 5833487656, "lat": 40.6684871, "lon": -73.9787221}, {"type": "node", "id": 5833487657, "lat": 40.6684783, "lon": -73.9787037}, {"type": "node", "id": 5833487658, "lat": 40.668654, "lon": -73.9785577}, {"type": "node", "id": 6781627064, "lat": 40.6469415, "lon": -74.0212902, "tags": {"addr:housenumber": "150", "addr:postcode": "11220", "addr:street": "55th Street", "entrance": "main"}}, {"type": "node", "id": 6781627065, "lat": 40.6461431, "lon": -74.0201793, "tags": {"emergency": "emergency_ward_entrance", "entrance": "yes"}}, {"type": "node", "id": 6781627066, "lat": 40.6470769, "lon": -74.0214321}, {"type": "node", "id": 6781627067, "lat": 40.6470217, "lon": -74.0214236}, {"type": "node", "id": 6781627068, "lat": 40.6465341, "lon": -74.0197936, "tags": {"access": "private", "addr:housenumber": "5434", "addr:postcode": "11220", "addr:street": "2nd Avenue", "barrier": "gate", "entrance": "yes"}}, {"type": "node", "id": 6781627069, "lat": 40.6471193, "lon": -74.0213877}, {"type": "node", "id": 6781627070, "lat": 40.6465394, "lon": -74.0197881}, {"type": "node", "id": 6781627071, "lat": 40.6474876, "lon": -74.0220006}, {"type": "node", "id": 6781627072, "lat": 40.6468623, "lon": -74.0211584}, {"type": "node", "id": 7477081378, "lat": 40.7108094, "lon": -74.0050856}, {"type": "node", "id": 7477081379, "lat": 40.7102045, "lon": -74.0044231}, {"type": "node", "id": 7477081380, "lat": 40.7101333, "lon": -74.004541}, {"type": "node", "id": 7477081381, "lat": 40.7101051, "lon": -74.0045142}, {"type": "node", "id": 7477081382, "lat": 40.7098035, "lon": -74.0048589}, {"type": "node", "id": 7477081383, "lat": 40.7104325, "lon": -74.0055085}, {"type": "node", "id": 7477081384, "lat": 40.7105909, "lon": -74.0052722}, {"type": "node", "id": 7477097785, "lat": 40.7107336, "lon": -74.0052148}, {"type": "node", "id": 8105845200, "lat": 40.718289, "lon": -73.9582489, "tags": {"addr:city": "Brooklyn", "addr:housenumber": "135", "addr:postcode": "11211", "addr:state": "NY", "addr:street": "North 7th Street", "amenity": "hospital", "healthcare": "hospital", "internet_access": "yes", "name": "Mount Sinai Doctors - Williamsburg"}}, {"type": "node", "id": 9338960524, "lat": 40.7104501, "lon": -74.0054787, "tags": {"camera:mount": "wall", "camera:type": "dome", "man_made": "surveillance", "surveillance": "outdoor", "surveillance:type": "camera"}}, {"type": "node", "id": 9338960529, "lat": 40.7103763, "lon": -74.0054502, "tags": {"camera:mount": "wall", "camera:type": "fixed", "man_made": "surveillance", "surveillance": "outdoor", "surveillance:type": "camera", "surveillance:zone": "entrance"}}, {"type": "node", "id": 9359044357, "lat": 40.7146492, "lon": -74.0501159}, {"type": "node", "id": 9664495671, "lat": 40.7140651, "lon": -74.0517722}, {"type": "node", "id": 9664495679, "lat": 40.7147531, "lon": -74.0514096}, {"type": "node", "id": 9773263753, "lat": 40.6465206, "lon": -74.0197853}, {"type": "node", "id": 9773263755, "lat": 40.6466522, "lon": -74.0199759}, {"type": "node", "id": 9773272026, "lat": 40.6465289, "lon": -74.0197991}, {"type": "node", "id": 9773272027, "lat": 40.6467622, "lon": -74.0200202}, {"type": "node", "id": 9773272028, "lat": 40.6464265, "lon": -74.0198835}, {"type": "node", "id": 9773272031, "lat": 40.6469606, "lon": -74.0201871}, {"type": "node", "id": 9773272033, "lat": 40.6469794, "lon": -74.0202185}, {"type": "node", "id": 9885158918, "lat": 40.6978843, "lon": -73.9942217, "tags": {"addr:city": "Brooklyn", "addr:housenumber": "41", "addr:postcode": "11201", "addr:state": "NY", "addr:street": "Clark Street", "amenity": "hospital", "email": "downtownphysicians@gmail.com", "healthcare": "hospital", "name": "Downtown Pain Physicians Of Brooklyn", "opening_hours": "Su-Fr 08:00-19:00", "phone": "+1-718-210-2225", "website": "https://www.downtownpainphysicians.com"}}, {"type": "node", "id": 11347850249, "lat": 40.7106573, "lon": -74.0048977}, {"type": "node", "id": 11347850250, "lat": 40.7106452, "lon": -74.0049193}, {"type": "node", "id": 11347850251, "lat": 40.7107221, "lon": -74.0049973}, {"type": "node", "id": 11347850252, "lat": 40.7106999, "lon": -74.0049748}, {"type": "node", "id": 11347850253, "lat": 40.7107304, "lon": -74.004985}, {"type": "node", "id": 11347850254, "lat": 40.7107084, "lon": -74.0049605}, {"type": "node", "id": 11347850255, "lat": 40.7106946, "lon": -74.0051726}, {"type": "node", "id": 11347850256, "lat": 40.7105794, "lon": -74.0052578}, {"type": "node", "id": 11347850258, "lat": 40.7098568, "lon": -74.004798}, {"type": "node", "id": 11347850261, "lat": 40.7100111, "lon": -74.0046236, "tags": {"access": "yes", "addr:city": "New York", "addr:housenumber": "83", "addr:postcode": "10038", "addr:state": "NY", "addr:street": "Gold Street", "door": "hinged", "entrance": "main", "ref": "Emergency"}}, {"type": "node", "id": 11347850299, "lat": 40.710488, "lon": -74.0054139}, {"type": "node", "id": 11347850332, "lat": 40.7106087, "lon": -74.0052551, "tags": {"entrance": "main"}}, {"type": "node", "id": 11347850352, "lat": 40.7105608, "lon": -74.0052897}, {"type": "node", "id": 12185033290, "lat": 40.6685259, "lon": -73.9786641}, {"type": "node", "id": 12185033294, "lat": 40.6681929, "lon": -73.978808}, {"type": "node", "id": 12185033295, "lat": 40.6682016, "lon": -73.9788007}, {"type": "node", "id": 12185033296, "lat": 40.6681125, "lon": -73.9786143}, {"type": "node", "id": 12185033297, "lat": 40.6681037, "lon": -73.9786216}, {"type": "node", "id": 12185033298, "lat": 40.6679667, "lon": -73.9783355}, {"type": "node", "id": 12185033299, "lat": 40.6679886, "lon": -73.9783173}, {"type": "node", "id": 12185033300, "lat": 40.6685146, "lon": -73.978266}, {"type": "node", "id": 12185051405, "lat": 40.6679053, "lon": -73.9781429}, {"type": "node", "id": 12185051409, "lat": 40.6684778, "lon": -73.9787299}, {"type": "node", "id": 12185051412, "lat": 40.6683051, "lon": -73.9788733}, {"type": "node", "id": 12185051413, "lat": 40.6677182, "lon": -73.9778164}, {"type": "node", "id": 12185051414, "lat": 40.6678833, "lon": -73.9781612}, {"type": "node", "id": 12185051417, "lat": 40.6682424, "lon": -73.9776072}, {"type": "node", "id": 12185051420, "lat": 40.6682391, "lon": -73.9777011}, {"type": "node", "id": 12185051422, "lat": 40.6680652, "lon": -73.977882}, {"type": "node", "id": 12185051425, "lat": 40.6677584, "lon": -73.9777135}, {"type": "node", "id": 12723835209, "lat": 40.7100546, "lon": -74.0058746, "tags": {"addr:housenumber": "156", "addr:postcode": "10038", "addr:street": "William Street", "amenity": "hospital", "healthcare": "hospital", "name": "Liberty Endoscopy Center"}}, {"type": "node", "id": 12766117165, "lat": 40.6555782, "lon": -74.011705, "tags": {"amenity": "hospital", "healthcare": "hospital", "name": "Hospital for Special Surgery"}}, {"type": "way", "id": 278254355, "nodes": [2826552380, 2826552396, 2826552069, 2826552062, 2826552039, 2826551899, 2826551888, 2826551870, 2826552623, 2826552627, 2826552605, 2826552607, 2826552329, 2826552340, 2826552355, 2826552359, 2826552625, 2826552629, 2826552631, 2826552635, 2826552386, 2826552380], "tags": {"addr:city": "New York", "addr:housenumber": "227", "addr:postcode": "10002", "addr:state": "NY", "addr:street": "Madison Street", "amenity": "hospital", "building": "hospital", "emergency": "no", "healthcare": "hospital", "height": "53.1", "name": "Gouverneur Health Medical Center", "nycdoitt:bin": "1003224", "phone": "+1-212-238-7897", "source": "http://www.nyc.gov/html/hhc/gouverneur/html/services/services.shtml", "wikidata": "Q131531112"}}, {"type": "way", "id": 362875270, "nodes": [5419454948, 5419454950, 5419454949, 5419454951, 5419454948], "tags": {"addr:city": "Brooklyn", "addr:housenumber": "506", "addr:postcode": "11216", "addr:street": "6th Street", "amenity": "hospital", "check_date": "2024-07-26", "emergency": "yes", "gnis:feature_id": "973561", "healthcare": "hospital", "name": "NewYork-Presbyterian Brooklyn Methodist Hospital", "old_name": "New York Methodist Hospital", "opening_hours": "24/7", "operator": "NewYork-Presbyterian Hospital", "phone": "+1-718-780-3000", "website": "https://www.nyp.org/brooklyn", "wheelchair": "yes", "wikidata": "Q14707083", "wikipedia": "en:NewYork-Presbyterian Brooklyn Methodist Hospital"}}, {"type": "way", "id": 405835399, "nodes": [4079860806, 4772761729, 9359044357, 4079860807, 4772761728, 4079860808, 4079860809, 9664495671, 9664495679, 4079860810, 4079860811, 4079860812, 4079860806], "tags": {"addr:city": "Jersey City", "addr:housenumber": "355", "addr:postcode": "07302", "addr:street": "Grand Street", "amenity": "hospital", "beds": "308", "emergency": "yes", "healthcare": "hospital", "name": "Jersey City Medical Center", "opening_hours": "24/7", "operator": "RWJBarnabas Health", "phone": "+1 201 915 2000", "website": "https://www.barnabashealth.org/Jersey-City-Medical-Center.aspx", "wikidata": "Q6184791", "wikipedia": "en:Jersey City Medical Center"}}, {"type": "way", "id": 484631988, "nodes": [12185033290, 5832802766, 5833487658, 2568774645, 5816711062, 5816711063, 12185033300, 2568774292, 5419454946, 12185051422, 5419454947, 12185051420, 2568774006, 12185051417, 4773822592, 12185051425, 4773822593, 12185051413, 12185051414, 12185051405, 12185033299, 12185033298, 12185033297, 12185033296, 12185033295, 12185033294, 5816711059, 2568774097, 12185051412, 2568774294, 5832802763, 12185051409, 5833487656, 5833487657, 12185033290], "tags": {"addr:housenumber": "515", "addr:postcode": "11215", "addr:street": "6th Street", "amenity": "hospital", "building": "yes", "healthcare": "hospital", "name": "NewYork-Presbyterian Brooklyn Center for Community Health", "nycdoitt:bin": "3414197", "official_name": "NewYork-Presbyterian Brooklyn Methodist Hospital Center for Community Health", "website": "https://www.nyp.org/brooklyn/locations/center-for-community-health"}}, {"type": "way", "id": 526963278, "nodes": [5415608205, 5415608202, 5415608203, 5415608204, 5415608201, 5415608200, 4954657429, 2561457468, 2561457628, 5415608206, 5415608197, 5415608198, 5415608199, 5415608205], "tags": {"addr:city": "Brooklyn", "addr:housenumber": "4802", "addr:postcode": "11219", "addr:state": "NY", "addr:street": "10th Avenue", "amenity": "hospital", "check_date": "2024-11-07", "emergency": "yes", "healthcare": "hospital", "name": "Maimonides Medical Center", "opening_hours": "24/7", "operator": "Maimonides Medical Center", "operator:type": "private", "phone": "+1 718 283 6000", "website": "https://www.maimonidesmed.org/", "wikidata": "Q6735870", "wikipedia": "en:Maimonides Medical Center"}}, {"type": "way", "id": 562256746, "nodes": [5420452692, 5420452691, 5420452690, 5420452689, 1258945404, 1258945599, 219659248, 5420452688, 5420452692], "tags": {"addr:city": "Brooklyn", "addr:housenumber": "121", "addr:postcode": "11201", "addr:street": "DeKalb Avenue", "amenity": "hospital", "beds": "464", "check_date": "2023-09-03", "emergency": "yes", "gnis:feature_id": "944847", "healthcare": "hospital", "name": "Brooklyn Hospital Center", "opening_hours": "24/7", "phone": "+1 718 250 8000", "website": "https://www.tbh.org/", "wikidata": "Q12053680", "wikipedia": "en:Brooklyn Hospital Center"}}, {"type": "way", "id": 723006150, "nodes": [2561721941, 6781627071, 6781627069, 6781627066, 6781627067, 2561721891, 6781627064, 2561721878, 6781627072, 2561721882, 4136142772, 4136142777, 5123642509, 2561721946, 5123642508, 5123642512, 2561721966, 5123642511, 2561721915, 9773272033, 9773272031, 2561721871, 2561721859, 9773272027, 2561721836, 2561721824, 2561721810, 2561721799, 9773263755, 6781627070, 6781627068, 9773272026, 9773263753, 9773272028, 2561721700, 6781627065, 2561721576, 2561721923, 2561721941], "tags": {"addr:city": "Brooklyn", "addr:housenumber": "150", "addr:postcode": "11220", "addr:state": "NY", "addr:street": "55th Street", "amenity": "hospital", "emergency": "yes", "healthcare": "hospital", "loc_name": "Lutheran Hospital", "name": "NYU Langone Hospital \u2013 Brooklyn", "old_name": "Lutheran Medical Center", "operator": "NYU Langone", "phone": "+1-718-630-7000", "website": "https://nyulangone.org/locations/nyu-langone-hospital-brooklyn", "wikidata": "Q6705728", "wikipedia": "en:NYU Langone Hospital \u2013 Brooklyn"}}, {"type": "way", "id": 799488173, "nodes": [7477081378, 11347850251, 11347850253, 11347850254, 11347850252, 11347850250, 11347850249, 7477081379, 7477081380, 7477081381, 11347850261, 11347850258, 7477081382, 9338960529, 7477081383, 9338960524, 11347850299, 11347850352, 11347850256, 7477081384, 11347850332, 11347850255, 7477097785, 7477081378], "tags": {"addr:city": "New York", "addr:housenumber": "170", "addr:postcode": "10038", "addr:state": "NY", "addr:street": "William Street", "amenity": "hospital", "beds": "132", "building": "yes", "building:colour": "beige", "building:levels": "8", "building:material": "brick", "emergency": "yes", "healthcare": "hospital", "name": "NewYork-Presbyterian Lower Manhattan Hospital", "start_date": "1853", "website": "https://www.nyp.org/lowermanhattan", "wikidata": "Q7013458", "wikipedia": "en:NewYork-Presbyterian Lower Manhattan Hospital"}}]}