{"version": 0.6, "generator": "Overpass API 0.7.62.8 e802775f", "osm3s": {"timestamp_osm_base": "2026-01-15T13:22:42Z", "copyright": "The data included in this document is from www.openstreetmap.org. The data is made available under ODbL."}, "elements": [{"type": "node", "id": 667630478, "lat": 52.0409334, "lon": 5.1756372}, {"type": "node", "id": 667630481, "lat": 52.0410932, "lon": 5.1754976}, {"type": "node", "id": 667630483, "lat": 52.0412241, "lon": 5.1756522}, {"type": "node", "id": 667630486, "lat": 52.0411356, "lon": 5.1755702}, {"type": "node", "id": 667630488, "lat": 52.0413391, "lon": 5.175797}, {"type": "node", "id": 667630489, "lat": 52.0412762, "lon": 5.1756068}, {"type": "node", "id": 2508203155, "lat": 52.0696706, "lon": 5.1942991, "tags": {"addr:city": "Bunnik", "addr:housenumber": "27d", "addr:postcode": "3981GD", "addr:street": "Camminghalaan", "amenity": "school", "check_date": "2025-06-10", "check_date:opening_hours": "2025-08-12", "email": "administratie@camminghaschool.nl", "facebook": "https://facebook.com/Camminghaschool/ol", "name": "Camminghaschool", "opening_hours": "Mo-Fr 08:30-14:00", "phone": "+31 30 656 3659", "source": "BAG", "source:date": "2014-05-07", "website": "https://www.camminghaschool.nl/", "wheelchair": "yes"}}, {"type": "node", "id": 2513220250, "lat": 52.0697233, "lon": 5.1947942, "tags": {"addr:city": "Bunnik", "addr:housenumber": "27b", "addr:postcode": "3981GD", "addr:street": "Camminghalaan", "amenity": "school", "check_date": "2024-09-11", "name": "Muziekschool \"De Kromme Rijn\"", "phone": "+31 30 656 1888", "source": "BAG", "source:date": "2014-05-07", "website": "https://www.muziekschoolbunnik.nl/", "wheelchair": "yes"}}, {"type": "node", "id": 2591229521, "lat": 52.0693919, "lon": 5.1946564, "tags": {"addr:city": "Bunnik", "addr:housenumber": "27e", "addr:postcode": "3981GD", "addr:street": "Camminghalaan", "amenity": "school", "check_date": "2024-09-11", "check_date:opening_hours": "2020-10-26", "name": "Anne Frank School", "opening_hours": "Mo,Tu,Th,Fr 08:30-14:30; We 08:30-12:30", "phone": "+31 30 656 1557", "source": "BAG", "source:date": "2014-05-07", "website": "https://annefrankschool.wereldkidz.nl/", "wheelchair": "yes"}}, {"type": "node", "id": 2627753673, "lat": 52.0625108, "lon": 5.1415903, "tags": {"addr:city": "Utrecht", "addr:housenumber": "211", "addr:postcode": "3524SG", "addr:street": "Zwarte Woud", "amenity": "school", "denomination": "evangelical", "email": "utrecht@passie.net", "isced:level": "2;3", "name": "De Passie", "operator": "De Passiescholen", "operator:website": "https://www.depassiescholen.nl/utrecht/", "operator:wikidata": "Q2495415", "phone": "+31 88 337 2800", "religion": "christian", "school": "secondary", "source": "BAG", "source:date": "2013-11-26", "toilets:wheelchair": "yes", "website": "https://www.depassiescholen.nl/utrecht", "wheelchair": "yes", "wheelchair:description": "Lift 1,1 x 1,4 m. Toilet 2,2 x 2,2 m.", "wikidata": "Q130614139"}}, {"type": "node", "id": 2830404667, "lat": 52.0410029, "lon": 5.17557}, {"type": "node", "id": 2830404668, "lat": 52.0410044, "lon": 5.1755751}, {"type": "node", "id": 2830404669, "lat": 52.0410916, "lon": 5.1754929}, {"type": "node", "id": 2830404670, "lat": 52.0411077, "lon": 5.1754856}, {"type": "node", "id": 2830404673, "lat": 52.0411576, "lon": 5.1755512}, {"type": "node", "id": 2830404674, "lat": 52.0411966, "lon": 5.1755694}, {"type": "node", "id": 4706257002, "lat": 52.0408366, "lon": 5.1757209}, {"type": "node", "id": 4706257003, "lat": 52.0414435, "lon": 5.1761118}, {"type": "node", "id": 4706257005, "lat": 52.0410094, "lon": 5.1762183}, {"type": "node", "id": 5125503390, "lat": 52.0408579, "lon": 5.162087}, {"type": "node", "id": 5125503391, "lat": 52.0408583, "lon": 5.162327}, {"type": "node", "id": 5125503392, "lat": 52.0409691, "lon": 5.1623264}, {"type": "node", "id": 5125503393, "lat": 52.0409689, "lon": 5.1622206}, {"type": "node", "id": 5125503394, "lat": 52.0410231, "lon": 5.1622204}, {"type": "node", "id": 5125503395, "lat": 52.0410229, "lon": 5.1620862}, {"type": "node", "id": 9796708448, "lat": 52.0410369, "lon": 5.1763809}, {"type": "node", "id": 9796708449, "lat": 52.0412846, "lon": 5.1762634}, {"type": "node", "id": 9796708450, "lat": 52.0413455, "lon": 5.1763337}, {"type": "node", "id": 9796708454, "lat": 52.0409994, "lon": 5.1761897, "tags": {"barrier": "cycle_barrier", "cycle_barrier": "double", "cycle_barrier:installation": "fixed"}}, {"type": "node", "id": 9796708455, "lat": 52.0408492, "lon": 5.17571, "tags": {"barrier": "gate"}}, {"type": "node", "id": 9796708460, "lat": 52.0413538, "lon": 5.1763149, "tags": {"barrier": "gate"}}, {"type": "node", "id": 10032244582, "lat": 52.0409689, "lon": 5.1622375}, {"type": "node", "id": 11135140821, "lat": 52.0413589, "lon": 5.1763032}, {"type": "node", "id": 11135140822, "lat": 52.041101, "lon": 5.1754911}, {"type": "node", "id": 11135140845, "lat": 52.0409858, "lon": 5.1761505}, {"type": "node", "id": 11135140861, "lat": 52.0408585, "lon": 5.175702}, {"type": "way", "id": 477239067, "nodes": [2830404670, 667630486, 2830404673, 2830404674, 667630483, 667630489, 667630488, 4706257003, 11135140821, 9796708460, 9796708450, 9796708449, 9796708448, 4706257005, 9796708454, 11135140845, 4706257002, 9796708455, 11135140861, 667630478, 2830404668, 2830404667, 2830404669, 667630481, 11135140822, 2830404670], "tags": {"addr:city": "Houten", "addr:housenumber": "2", "addr:postcode": "3993GA", "addr:street": "Jukveld", "amenity": "school", "denomination": "dutch_reformed", "email": "detriangelhouten@levwn.nl", "isced:level": "0;1", "name": "De Triangel", "official_name": "Christelijke basisschool De Triangel", "operator": "LEV Scholengroep West-Nederland", "operator:website": "https://levwn.nl/", "operator:wikidata": "Q121865557", "phone": "+31 30 635 2308", "religion": "christian", "school": "primary", "website": "https://detriangelhouten-levwn.nl/"}}, {"type": "way", "id": 527161803, "nodes": [5125503390, 5125503395, 5125503394, 5125503393, 10032244582, 5125503392, 5125503391, 5125503390], "tags": {"amenity": "school", "building": "yes", "name": "Yuverta", "ref:bag": "0321100000029116", "source": "BAG", "source:date": "2019-09-15", "start_date": "2017"}}]}