{"version": 0.6, "generator": "Overpass API 0.7.62.8 e802775f", "osm3s": {"timestamp_osm_base": "2026-01-11T09:34:14Z", "copyright": "The data included in this document is from www.openstreetmap.org. The data is made available under ODbL."}, "elements": [{"type": "node", "id": 1474540727, "lat": 9.9859833, "lon": 76.2814393, "tags": {"addr:district": "Ernakulam", "addr:full": "Madhava Pharmacy Jn, Kacherippady, Kochi", "addr:postcode": "682018", "addr:state": "Kerala", "amenity": "hospital", "name": "PNVM Hospital and Research Centre", "source": "OpenGovernmentData"}}, {"type": "node", "id": 1474863244, "lat": 9.9787245, "lon": 76.2867126, "tags": {"amenity": "hospital", "healthcare": "hospital", "name": "Al Shifa Hospital"}}, {"type": "node", "id": 1907097861, "lat": 9.9665691, "lon": 76.2838359}, {"type": "node", "id": 1907858547, "lat": 9.9849328, "lon": 76.2832964, "tags": {"addr:district": "Ernakulam", "addr:full": "Kacheripady, Chittoor Road", "addr:postcode": "682018", "addr:state": "Kerala", "amenity": "hospital", "name": "Sree Sudheendra Medical Mission Hospital", "source": "OpenGovernmentData", "website": "https://ssmmhospital.com/"}}, {"type": "node", "id": 2391284478, "lat": 9.9574864, "lon": 76.2506303}, {"type": "node", "id": 2391284479, "lat": 9.9572515, "lon": 76.2506256}, {"type": "node", "id": 2391284482, "lat": 9.9572441, "lon": 76.2510065}, {"type": "node", "id": 2391284485, "lat": 9.9574789, "lon": 76.2510112}, {"type": "node", "id": 2391343055, "lat": 9.9468667, "lon": 76.2560419, "tags": {"addr:district": "Ernakulam", "addr:full": "P.B. No. 868, Panayapilly", "addr:postcode": "682008", "addr:state": "Kerala", "addr:street": "Mons. Mathew Kothakathu Road", "amenity": "hospital", "name": "Gautham Hospital", "source": "OpenGovernmentData"}}, {"type": "node", "id": 2391343056, "lat": 9.9478979, "lon": 76.2558553, "tags": {"addr:street": "Mons. Mathew Kothakathu Road", "amenity": "hospital", "name": "Laxmi Hospital", "opening_hours": "24/7"}}, {"type": "node", "id": 2780741054, "lat": 10.0075837, "lon": 76.2779734}, {"type": "node", "id": 2780741055, "lat": 10.0072273, "lon": 76.2769631}, {"type": "node", "id": 2780741056, "lat": 10.0071912, "lon": 76.2767405}, {"type": "node", "id": 2780747510, "lat": 9.9874521, "lon": 76.2890045}, {"type": "node", "id": 2780747511, "lat": 9.9872233, "lon": 76.2876012}, {"type": "node", "id": 2780747512, "lat": 9.9885077, "lon": 76.287328}, {"type": "node", "id": 3328239503, "lat": 9.9812391, "lon": 76.2834857, "tags": {"addr:city": "Ernakulam", "addr:district": "Ernakulam", "addr:full": "Mahatma Gandhi Rd, opp. Padma Theatre, Padma Junction, Shenoys, Ernakulam", "addr:postcode": "682035", "addr:state": "Kerala", "addr:street": "Mahatma Gandhi Road", "amenity": "hospital", "name": "City Hospital", "source": "OpenGovernmentData"}}, {"type": "node", "id": 3496248703, "lat": 9.9930573, "lon": 76.2908843}, {"type": "node", "id": 3496248704, "lat": 9.9931521, "lon": 76.2914274}, {"type": "node", "id": 3496248705, "lat": 9.9932706, "lon": 76.2918556}, {"type": "node", "id": 3496248706, "lat": 9.9934309, "lon": 76.2918238}, {"type": "node", "id": 3496248707, "lat": 9.9934243, "lon": 76.2917478}, {"type": "node", "id": 3496248708, "lat": 9.9934569, "lon": 76.2916901}, {"type": "node", "id": 3496248709, "lat": 9.9939582, "lon": 76.2915202}, {"type": "node", "id": 3496248710, "lat": 9.9938039, "lon": 76.2911195}, {"type": "node", "id": 3496248711, "lat": 9.9934244, "lon": 76.2911617}, {"type": "node", "id": 3496248714, "lat": 9.9933541, "lon": 76.2908196}, {"type": "node", "id": 4099660149, "lat": 9.9592647, "lon": 76.2598632}, {"type": "node", "id": 4099660152, "lat": 9.9593624, "lon": 76.2600904}, {"type": "node", "id": 4099660153, "lat": 9.9593633, "lon": 76.2598194}, {"type": "node", "id": 4099660161, "lat": 9.9594611, "lon": 76.2600466}, {"type": "node", "id": 4102041077, "lat": 9.9605158, "lon": 76.2695304}, {"type": "node", "id": 4102041088, "lat": 9.9606066, "lon": 76.2697979}, {"type": "node", "id": 4102041305, "lat": 9.9609043, "lon": 76.2693945}, {"type": "node", "id": 4102041311, "lat": 9.9609951, "lon": 76.2696621}, {"type": "node", "id": 4104131238, "lat": 9.9979359, "lon": 76.2217711}, {"type": "node", "id": 4104131239, "lat": 9.9979753, "lon": 76.22184}, {"type": "node", "id": 4104131241, "lat": 9.9980784, "lon": 76.2216872}, {"type": "node", "id": 4104131245, "lat": 9.9981664, "lon": 76.2218397}, {"type": "node", "id": 4290205590, "lat": 9.9573722, "lon": 76.2397554}, {"type": "node", "id": 4649711590, "lat": 9.9879592, "lon": 76.2942771, "tags": {"amenity": "hospital", "name:ar": "\u0628\u0648\u0646\u0627\u0631\u0646\u0627\u0641\u0627", "name:en": "Punarnava Ayurveda Hospital"}}, {"type": "node", "id": 5138971690, "lat": 9.9880943, "lon": 76.2827224, "tags": {"addr:district": "Ernakulam", "addr:full": "Kacheripady, Chittoor Road, Near Vimalalayam", "addr:postcode": "682018", "addr:state": "Kerala", "addr:street": "Chittoor Road", "amenity": "hospital", "healthcare": "hospital", "healthcare:speciality": "ophthalmology", "name": "Westend Eye Hospitals", "phone": "+91 9288605411", "source": "OpenGovernmentData"}}, {"type": "node", "id": 5843610231, "lat": 9.9719404, "lon": 76.2841034}, {"type": "node", "id": 5843610232, "lat": 9.9717646, "lon": 76.2841391}, {"type": "node", "id": 5843610233, "lat": 9.9717436, "lon": 76.2840334}, {"type": "node", "id": 5843610234, "lat": 9.9719195, "lon": 76.2839978}, {"type": "node", "id": 5898506283, "lat": 9.9472791, "lon": 76.2818248}, {"type": "node", "id": 5898506284, "lat": 9.9477098, "lon": 76.2827137}, {"type": "node", "id": 5898506585, "lat": 9.9467919, "lon": 76.2832036}, {"type": "node", "id": 5898506586, "lat": 9.9463471, "lon": 76.2823123}, {"type": "node", "id": 6100393971, "lat": 10.0067873, "lon": 76.276756}, {"type": "node", "id": 6100393972, "lat": 10.0063354, "lon": 76.2782735}, {"type": "node", "id": 6100393973, "lat": 10.0067263, "lon": 76.2765703}, {"type": "node", "id": 6100393974, "lat": 10.0074378, "lon": 76.2780297}, {"type": "node", "id": 6100393975, "lat": 10.0057782, "lon": 76.2766698}, {"type": "node", "id": 6778954757, "lat": 9.9575439, "lon": 76.2404475}, {"type": "node", "id": 6778954758, "lat": 9.9571001, "lon": 76.2404689}, {"type": "node", "id": 6778954759, "lat": 9.9569468, "lon": 76.2399459}, {"type": "node", "id": 6950860223, "lat": 9.9428842, "lon": 76.2606941, "tags": {"addr:district": "Ernakulam", "addr:full": "Opposite Government Hospital, Karuvelipady, Cochin", "addr:postcode": "682005", "addr:state": "Kerala", "amenity": "hospital", "name": "Jesus Hospital", "source": "OpenGovernmentData"}}, {"type": "node", "id": 6951097426, "lat": 9.9244655, "lon": 76.2558179, "tags": {"addr:district": "Ernakulam", "addr:full": "Mundamveli Road, Mundamveli, Kochi", "addr:postcode": "682507", "addr:state": "Kerala", "amenity": "hospital", "healthcare": "hospital", "name": "Jishy Hospital", "source": "OpenGovernmentData"}}, {"type": "node", "id": 6952059082, "lat": 9.9883115, "lon": 76.2957781, "tags": {"addr:district": "Ernakulam", "addr:full": "Vattekkattu Road, Kaloor, Cochin", "addr:postcode": "682017", "addr:state": "Kerala", "amenity": "hospital", "name": "Paul's Hospital", "source": "OpenGovernmentData"}}, {"type": "node", "id": 6953306602, "lat": 9.9942959, "lon": 76.2954314, "tags": {"addr:district": "Ernakulam", "addr:full": "Azad Road, Kaloor", "addr:postcode": "682017", "addr:state": "Kerala", "amenity": "hospital", "healthcare": "hospital", "name": "Focus Eye Hospital", "source": "OpenGovernmentData"}}, {"type": "node", "id": 6954410394, "lat": 9.9905344, "lon": 76.2860182, "tags": {"addr:district": "Ernakulam", "addr:full": "Opp. North Railway Station, Ernakulam North, Kochi", "addr:postcode": "682018", "addr:state": "Kerala", "amenity": "hospital", "name": "Specialists' Hospital", "source": "OpenGovernmentData", "website": "https://www.specialistshospital.com/"}}, {"type": "node", "id": 6956828007, "lat": 9.9646901, "lon": 76.287332}, {"type": "node", "id": 6956828008, "lat": 9.9649875, "lon": 76.2875255}, {"type": "node", "id": 6956828009, "lat": 9.9648004, "lon": 76.2875483}, {"type": "node", "id": 6956828010, "lat": 9.9646554, "lon": 76.2872638}, {"type": "node", "id": 6956828011, "lat": 9.9647903, "lon": 76.287178}, {"type": "node", "id": 6957345194, "lat": 9.9599096, "lon": 76.2903858, "tags": {"addr:district": "Ernakulam", "addr:full": "Ernakulam", "addr:postcode": "682011", "addr:state": "Kerala", "amenity": "hospital", "healthcare": "hospital", "name": "Chaitanya Eye Hospital", "source": "OpenGovernmentData"}}, {"type": "node", "id": 6958181260, "lat": 10.0032624, "lon": 76.2953791, "tags": {"addr:district": "Ernakulam", "addr:full": "Opposite BSNL Microwave Station, Deshabhimani Road, Kaloor", "addr:postcode": "682017", "addr:state": "Kerala", "amenity": "hospital", "name": "Alpha ENT Head and Neck Hospital", "source": "OpenGovernmentData"}}, {"type": "node", "id": 6966025187, "lat": 9.95474, "lon": 76.2926848}, {"type": "node", "id": 6966025188, "lat": 9.9546448, "lon": 76.2926942}, {"type": "node", "id": 6966025189, "lat": 9.9546784, "lon": 76.2930477}, {"type": "node", "id": 6966025190, "lat": 9.9547736, "lon": 76.2930384}, {"type": "node", "id": 6966128878, "lat": 9.9665063, "lon": 76.2969381}, {"type": "node", "id": 6966128879, "lat": 9.9664532, "lon": 76.2968276}, {"type": "node", "id": 6966128880, "lat": 9.9664541, "lon": 76.2968331}, {"type": "node", "id": 6966128881, "lat": 9.9663813, "lon": 76.2968453}, {"type": "node", "id": 6966128882, "lat": 9.9663869, "lon": 76.2968796}, {"type": "node", "id": 6966128883, "lat": 9.9664875, "lon": 76.2968219}, {"type": "node", "id": 6966128884, "lat": 9.9663289, "lon": 76.2968893}, {"type": "node", "id": 6966156285, "lat": 9.9663413, "lon": 76.2969657}, {"type": "node", "id": 7057737605, "lat": 9.9717556, "lon": 76.2821267}, {"type": "node", "id": 7057737606, "lat": 9.972077, "lon": 76.2820386}, {"type": "node", "id": 7057737608, "lat": 9.9725399, "lon": 76.281931}, {"type": "node", "id": 7057737609, "lat": 9.972573, "lon": 76.2818597}, {"type": "node", "id": 7057737610, "lat": 9.9725028, "lon": 76.2815638}, {"type": "node", "id": 7057737611, "lat": 9.9724594, "lon": 76.2814496}, {"type": "node", "id": 7057737612, "lat": 9.9725173, "lon": 76.2813517}, {"type": "node", "id": 7057737613, "lat": 9.9726298, "lon": 76.2813076}, {"type": "node", "id": 7057737614, "lat": 9.9725237, "lon": 76.2809226}, {"type": "node", "id": 7057737615, "lat": 9.9725124, "lon": 76.2806958}, {"type": "node", "id": 7057737616, "lat": 9.9722264, "lon": 76.2799468}, {"type": "node", "id": 7057737617, "lat": 9.9713956, "lon": 76.2802161}, {"type": "node", "id": 7057737618, "lat": 9.9716473, "lon": 76.2815522, "tags": {"emergency:exit": "yes"}}, {"type": "node", "id": 7057737619, "lat": 9.9724985, "lon": 76.2813833, "tags": {"entrance": "yes"}}, {"type": "node", "id": 7057737620, "lat": 9.9715556, "lon": 76.2810656, "tags": {"entrance": "main"}}, {"type": "node", "id": 7057737621, "lat": 9.971843, "lon": 76.2800711, "tags": {"entrance": "secondary"}}, {"type": "node", "id": 7069620383, "lat": 9.993386, "lon": 76.2853917}, {"type": "node", "id": 7069620384, "lat": 9.9935158, "lon": 76.2855255}, {"type": "node", "id": 7069624692, "lat": 10.0067125, "lon": 76.2781901, "tags": {"entrance": "main"}}, {"type": "node", "id": 7069624693, "lat": 10.0065794, "lon": 76.2782195, "tags": {"entrance": "main"}}, {"type": "node", "id": 7069641985, "lat": 9.9937177, "lon": 76.2857326}, {"type": "node", "id": 7069641986, "lat": 9.9939278, "lon": 76.2859167}, {"type": "node", "id": 7069641987, "lat": 9.994072, "lon": 76.2858937}, {"type": "node", "id": 7069641988, "lat": 9.9943605, "lon": 76.2857787}, {"type": "node", "id": 7069641989, "lat": 9.9947581, "lon": 76.2856071}, {"type": "node", "id": 7069641990, "lat": 9.9943296, "lon": 76.2849231}, {"type": "node", "id": 7069641991, "lat": 9.9942513, "lon": 76.2848436}, {"type": "node", "id": 7069641992, "lat": 9.9939917, "lon": 76.2848812}, {"type": "node", "id": 7069641993, "lat": 9.993833, "lon": 76.2850318}, {"type": "node", "id": 7069641994, "lat": 9.9937918, "lon": 76.2851218}, {"type": "node", "id": 7069641995, "lat": 9.9936765, "lon": 76.285195}, {"type": "node", "id": 7069641996, "lat": 9.9935899, "lon": 76.2852243}, {"type": "node", "id": 7069641997, "lat": 9.9934107, "lon": 76.2853561}, {"type": "node", "id": 7069641998, "lat": 9.9936838, "lon": 76.2856979, "tags": {"entrance": "yes"}}, {"type": "node", "id": 7074263950, "lat": 9.9612307, "lon": 76.2879375}, {"type": "node", "id": 7074263951, "lat": 9.9614355, "lon": 76.2879015}, {"type": "node", "id": 7074263952, "lat": 9.9616237, "lon": 76.2878622}, {"type": "node", "id": 7074263953, "lat": 9.9616801, "lon": 76.2880982}, {"type": "node", "id": 7074263954, "lat": 9.9619546, "lon": 76.2879993}, {"type": "node", "id": 7074263955, "lat": 9.9617067, "lon": 76.2874981}, {"type": "node", "id": 7074263956, "lat": 9.9614676, "lon": 76.2875554}, {"type": "node", "id": 7074263957, "lat": 9.9613447, "lon": 76.287579}, {"type": "node", "id": 7074263958, "lat": 9.9613436, "lon": 76.287679}, {"type": "node", "id": 7074263959, "lat": 9.9610868, "lon": 76.2877127}, {"type": "node", "id": 7074263969, "lat": 9.9611684, "lon": 76.2878401, "tags": {"entrance": "main"}}, {"type": "node", "id": 7074268954, "lat": 9.9665078, "lon": 76.2834519}, {"type": "node", "id": 7074268955, "lat": 9.9662321, "lon": 76.2835182}, {"type": "node", "id": 7074268956, "lat": 9.9662609, "lon": 76.2839318}, {"type": "node", "id": 7074268957, "lat": 9.9666196, "lon": 76.2838216}, {"type": "node", "id": 7074268969, "lat": 9.9665286, "lon": 76.2835209, "tags": {"entrance": "yes"}}, {"type": "node", "id": 7074268970, "lat": 9.9664704, "lon": 76.2838675, "tags": {"entrance": "yes"}}, {"type": "node", "id": 7078135007, "lat": 9.9751063, "lon": 76.2850061}, {"type": "node", "id": 7078135008, "lat": 9.9752529, "lon": 76.2849699}, {"type": "node", "id": 7078135009, "lat": 9.9753176, "lon": 76.2853561}, {"type": "node", "id": 7078135010, "lat": 9.9748435, "lon": 76.2854755}, {"type": "node", "id": 7078135011, "lat": 9.9747972, "lon": 76.2851871}, {"type": "node", "id": 7078135012, "lat": 9.9749663, "lon": 76.285167}, {"type": "node", "id": 7078135013, "lat": 9.9749478, "lon": 76.2849819}, {"type": "node", "id": 7078135014, "lat": 9.975105, "lon": 76.2849712}, {"type": "node", "id": 7078135015, "lat": 9.9750129, "lon": 76.2854328, "tags": {"entrance": "main"}}, {"type": "node", "id": 7141103288, "lat": 9.9875403, "lon": 76.2889917}, {"type": "node", "id": 7141103290, "lat": 9.988855, "lon": 76.2886151}, {"type": "node", "id": 7141103291, "lat": 9.9888517, "lon": 76.2880884}, {"type": "node", "id": 7141103292, "lat": 9.988605, "lon": 76.2875408}, {"type": "node", "id": 7141103293, "lat": 9.9887374, "lon": 76.2877535}, {"type": "node", "id": 7141103294, "lat": 9.9886631, "lon": 76.2875967}, {"type": "node", "id": 7141103295, "lat": 9.9889325, "lon": 76.2885127}, {"type": "node", "id": 7141103296, "lat": 9.9888944, "lon": 76.2882338}, {"type": "node", "id": 7141103379, "lat": 9.9888676, "lon": 76.2885931, "tags": {"barrier": "gate"}}, {"type": "node", "id": 7141103380, "lat": 9.9881203, "lon": 76.2887888}, {"type": "node", "id": 7141103381, "lat": 9.9884795, "lon": 76.288687}, {"type": "node", "id": 7141103382, "lat": 9.9876317, "lon": 76.2889597, "tags": {"entrance": "yes"}}, {"type": "node", "id": 7141128025, "lat": 9.9937591, "lon": 76.2910225}, {"type": "node", "id": 7354172505, "lat": 9.9649159, "lon": 76.2874025}, {"type": "node", "id": 7354172506, "lat": 9.9649581, "lon": 76.2874012}, {"type": "node", "id": 7425834791, "lat": 10.0070664, "lon": 76.2781118}, {"type": "node", "id": 7425834795, "lat": 10.0067526, "lon": 76.2781812}, {"type": "node", "id": 7490100161, "lat": 10.0062884, "lon": 76.2781382}, {"type": "node", "id": 7726212075, "lat": 9.9420738, "lon": 76.2603195}, {"type": "node", "id": 7726212076, "lat": 9.9418149, "lon": 76.260357}, {"type": "node", "id": 7726212077, "lat": 9.9417944, "lon": 76.2602113}, {"type": "node", "id": 7726212078, "lat": 9.9420533, "lon": 76.2601738}, {"type": "node", "id": 7726235636, "lat": 9.986819, "lon": 76.285434, "tags": {"addr:district": "Ernakulam", "addr:full": "North Kaloor, Kacheripady, Ernakulam", "addr:postcode": "682018", "addr:state": "Kerala", "amenity": "hospital", "name": "Vathakat Orthopaedic Hospital", "source": "Local Knowledge"}}, {"type": "node", "id": 7726235640, "lat": 9.965001, "lon": 76.241904, "tags": {"addr:district": "Ernakulam", "addr:full": "Fort Kochi", "addr:postcode": "682001", "addr:state": "Kerala", "amenity": "hospital", "healthcare": "hospital", "name": "Dr. Elzas Ayurveda Hospital", "source": "Local Knowledge"}}, {"type": "node", "id": 7726235659, "lat": 9.9997548, "lon": 76.2350221, "tags": {"addr:city": "Ernakulam", "addr:district": "Ernakulam", "addr:full": "Pallipuram Road, Ochanthuruth", "addr:postcode": "682508", "addr:state": "Kerala", "addr:street": "Vypin - Pallippuram Road", "amenity": "hospital", "healthcare": "hospital", "name": "Vypeen Hospital", "source": "Local Knowledge"}}, {"type": "node", "id": 7726235660, "lat": 9.978757, "lon": 76.286691, "tags": {"addr:district": "Ernakulam", "addr:full": "Rajaji Road, Shenoys", "addr:postcode": "682035", "addr:state": "Kerala", "amenity": "hospital", "healthcare": "hospital", "name": "Dr. Hassan Ayurveda Brain and Spine Super Speciality Hospital", "source": "Local Knowledge"}}, {"type": "node", "id": 7726235674, "lat": 9.9689594, "lon": 76.2932547, "tags": {"addr:district": "Ernakulam", "addr:full": "Ernakulam South, Kochi", "addr:postcode": "682016", "addr:state": "Kerala", "amenity": "hospital", "healthcare": "hospital", "name": "Focus Eye Hospital", "source": "Local Knowledge"}}, {"type": "node", "id": 7726235679, "lat": 9.9730963, "lon": 76.2860427, "tags": {"addr:district": "Ernakulam", "addr:full": "Iyyattil Junction, Karikkamuri, Ernakulam, Kochi", "addr:postcode": "682018", "addr:state": "Kerala", "amenity": "hospital", "name": "Santhigiri Ayurveda & Siddha Hospital", "source": "Local Knowledge"}}, {"type": "node", "id": 7726235685, "lat": 9.9413298, "lon": 76.2557025, "tags": {"addr:district": "Ernakulam", "addr:full": "Sambrikkal Road, Panayappilly, Thoppumpady", "addr:postcode": "682005", "addr:state": "Kerala", "amenity": "hospital", "healthcare": "hospital", "source": "Local Knowledge"}}, {"type": "node", "id": 7911808508, "lat": 9.998042, "lon": 76.2217086}, {"type": "node", "id": 7911808509, "lat": 9.9980192, "lon": 76.2216634}, {"type": "node", "id": 7911808510, "lat": 9.9979484, "lon": 76.2217009}, {"type": "node", "id": 7911808511, "lat": 9.9979687, "lon": 76.2217518}, {"type": "node", "id": 7911811059, "lat": 9.9979917, "lon": 76.2218661}, {"type": "node", "id": 7911811060, "lat": 9.9980741, "lon": 76.2218211}, {"type": "node", "id": 7911811061, "lat": 9.9981005, "lon": 76.2218737}, {"type": "node", "id": 8658727186, "lat": 9.9434443, "lon": 76.2601423}, {"type": "node", "id": 8658727187, "lat": 9.9432879, "lon": 76.2601446}, {"type": "node", "id": 8658727188, "lat": 9.9430464, "lon": 76.260196}, {"type": "node", "id": 8658727189, "lat": 9.9429095, "lon": 76.2603212}, {"type": "node", "id": 8658727190, "lat": 9.9428739, "lon": 76.2603804}, {"type": "node", "id": 8658727191, "lat": 9.9429544, "lon": 76.2605929}, {"type": "node", "id": 8658727192, "lat": 9.9430464, "lon": 76.2608545}, {"type": "node", "id": 8658727193, "lat": 9.9431545, "lon": 76.2610039}, {"type": "node", "id": 8658727194, "lat": 9.9435639, "lon": 76.2609712}, {"type": "node", "id": 8658727195, "lat": 9.9436053, "lon": 76.2608568}, {"type": "node", "id": 8658727196, "lat": 9.9436398, "lon": 76.2607564}, {"type": "node", "id": 8658727197, "lat": 9.943666, "lon": 76.260573}, {"type": "node", "id": 8658727198, "lat": 9.9436555, "lon": 76.2604739}, {"type": "node", "id": 8658727199, "lat": 9.9435388, "lon": 76.2604296}, {"type": "node", "id": 8658727200, "lat": 9.9434873, "lon": 76.260404}, {"type": "node", "id": 8658727201, "lat": 9.9435422, "lon": 76.2601288}, {"type": "node", "id": 8658727202, "lat": 9.9435549, "lon": 76.2601965}, {"type": "node", "id": 8658727203, "lat": 9.9435412, "lon": 76.2602268}, {"type": "node", "id": 8658727204, "lat": 9.9434515, "lon": 76.2602472}, {"type": "node", "id": 8658807675, "lat": 9.9654028, "lon": 76.2455063}, {"type": "node", "id": 8658807677, "lat": 9.9654574, "lon": 76.2458943}, {"type": "node", "id": 8658807678, "lat": 9.9659271, "lon": 76.245875}, {"type": "node", "id": 8658807682, "lat": 9.965923, "lon": 76.245499}, {"type": "node", "id": 8897145783, "lat": 10.0061874, "lon": 76.2849195, "tags": {"amenity": "hospital", "healthcare": "hospital", "name": "Government Dispensary High Court Ernakulam", "ref": "1475", "type": "8"}}, {"type": "node", "id": 8932641706, "lat": 10.0124503, "lon": 76.2602645}, {"type": "node", "id": 8932641707, "lat": 10.012478, "lon": 76.2605616}, {"type": "node", "id": 8932641708, "lat": 10.012303, "lon": 76.2605911}, {"type": "node", "id": 8932641709, "lat": 10.0117041, "lon": 76.2606823}, {"type": "node", "id": 8932641710, "lat": 10.0116863, "lon": 76.2603751}, {"type": "node", "id": 8932641711, "lat": 10.0118897, "lon": 76.2603409}, {"type": "node", "id": 8932641712, "lat": 10.0121089, "lon": 76.2603061}, {"type": "node", "id": 8932641713, "lat": 10.0122595, "lon": 76.2602725}, {"type": "node", "id": 8932641714, "lat": 10.012311, "lon": 76.2602779}, {"type": "node", "id": 8932641715, "lat": 10.0124173, "lon": 76.2602625}, {"type": "node", "id": 8938340549, "lat": 9.9642981, "lon": 76.288373, "tags": {"amenity": "hospital", "healthcare": "hospital", "name": "East Block, Medical Trust Hospital"}}, {"type": "node", "id": 9001039925, "lat": 9.9364863, "lon": 76.2555454, "tags": {"amenity": "hospital", "healthcare": "hospital", "name": "Jacobs Hospital", "operator": "Department ofHealth and Family Welfare", "operator:type": "private"}}, {"type": "node", "id": 9081387967, "lat": 9.9597832, "lon": 76.2598371, "tags": {"amenity": "hospital", "healthcare": "hospital", "name": "Mattancherry Government Hospital", "name:ml": "\u0d2e\u0d1f\u0d4d\u0d1f\u0d3e\u0d1e\u0d4d\u0d1a\u0d47\u0d30\u0d3f \u0d17\u0d35\u0d7a\u0d2e\u0d46\u0d7b\u0d4d\u0d31\u0d4d \u0d39\u0d4b\u0d38\u0d4d\u0d2a\u0d3f\u0d31\u0d4d\u0d31\u0d7d"}}, {"type": "node", "id": 9259597848, "lat": 9.9935425, "lon": 76.2883583, "tags": {"amenity": "hospital", "healthcare": "hospital", "name": "Urban Primary Health Centre, Kaloor", "operator": "National Urban Health Mission", "operator:type": "government"}}, {"type": "node", "id": 9259649772, "lat": 9.9509907, "lon": 76.2494468, "tags": {"amenity": "hospital", "healthcare": "hospital", "name": "Urban Primary Health Cenre, Pandikudy", "operator": "National Urban Health Centre", "operator:type": "government"}}, {"type": "node", "id": 9259711761, "lat": 9.9360022, "lon": 76.2549759, "tags": {"amenity": "hospital", "healthcare": "hospital", "name": "Urban Primary Health Centre, Moolamkuzhi", "operator": "National Urban Health Mission", "operator:type": "government"}}, {"type": "node", "id": 9259884962, "lat": 9.9538492, "lon": 76.2547957, "tags": {"amenity": "hospital", "healthcare": "hospital", "name": "Urban Primary Health Centre, Mangattumukku", "operator": "National Urban Primary Health Mission", "operator:type": "government"}}, {"type": "node", "id": 10075107843, "lat": 10.0009723, "lon": 76.2447972, "tags": {"amenity": "hospital", "healthcare": "hospital", "name": "Govt homeo dispensary", "panchayath": "mulavukad", "ward": "15"}}, {"type": "node", "id": 10075114319, "lat": 10.0007893, "lon": 76.245324, "tags": {"amenity": "hospital", "healthcare": "hospital", "name": "Primary health centre vallarpadam", "panchayath": "mulavukad", "ward": "15"}}, {"type": "node", "id": 10734223232, "lat": 9.9294302, "lon": 76.2702904, "tags": {"amenity": "hospital", "healthcare": "hospital", "name": "AMJ Hospital"}}, {"type": "node", "id": 11290331207, "lat": 9.9349205, "lon": 76.2608481}, {"type": "node", "id": 11290332238, "lat": 9.9350096, "lon": 76.2608233}, {"type": "node", "id": 11290332498, "lat": 9.9349761, "lon": 76.2606992}, {"type": "node", "id": 11290333219, "lat": 9.934887, "lon": 76.260724}, {"type": "node", "id": 12123784077, "lat": 9.9728453, "lon": 76.2822684}, {"type": "node", "id": 12123784081, "lat": 9.9724906, "lon": 76.2823394}, {"type": "node", "id": 12123784085, "lat": 9.9725759, "lon": 76.2828031}, {"type": "node", "id": 12123784087, "lat": 9.9729414, "lon": 76.2827544}, {"type": "node", "id": 12123784096, "lat": 9.9726894, "lon": 76.2827971}, {"type": "node", "id": 12180041418, "lat": 9.9643974, "lon": 76.2885344, "tags": {"amenity": "hospital", "healthcare": "hospital", "name": "Oncology, Renal & Ophthalmology Block, Medical Trust Hospital"}}, {"type": "node", "id": 12336708502, "lat": 9.9617762, "lon": 76.2886282}, {"type": "node", "id": 12336708505, "lat": 9.9615355, "lon": 76.2892861}, {"type": "node", "id": 12336708508, "lat": 9.9619687, "lon": 76.2892208}, {"type": "node", "id": 12336708509, "lat": 9.9614713, "lon": 76.2888932}, {"type": "node", "id": 12336708510, "lat": 9.9615734, "lon": 76.2886674}, {"type": "node", "id": 12336708512, "lat": 9.9618803, "lon": 76.2887681}, {"type": "node", "id": 12336708514, "lat": 9.9617996, "lon": 76.2887791}, {"type": "node", "id": 12336708516, "lat": 9.9616088, "lon": 76.2888697}, {"type": "node", "id": 13371208044, "lat": 9.9891832, "lon": 76.2886971, "tags": {"addr:city": "Kochi", "addr:housenumber": "1561-A", "addr:postcode": "682018", "amenity": "hospital", "healthcare": "hospital", "healthcare:speciality": "oncology", "name": "Lisie Cancer Centre", "opening_hours": "Mo-Sa 07:00-17:00", "operator": "Lisie Hospital", "operator:type": "private"}}, {"type": "way", "id": 230636056, "nodes": [2391284478, 2391284479, 2391284482, 2391284485, 2391284478], "tags": {"amenity": "hospital", "building": "yes", "name": "Sangeetha Nursing Home"}}, {"type": "way", "id": 273199376, "nodes": [6100393972, 7069624693, 7069624692, 7425834795, 7425834791, 6100393974, 2780741054, 2780741055, 2780741056, 6100393971, 6100393973, 6100393975, 7490100161, 6100393972], "tags": {"CovidVaccineCenterId": "631986", "addr:city": "Ernakulam", "addr:district": "Ernakulam", "addr:full": "Lourde Hospital Road", "addr:postcode": "682012", "addr:state": "Kerala", "addr:street": "Lourdes Hospital Road", "addr:subdistrict": "Kochi", "amenity": "hospital", "email": "lourdeshospital@vsnl.com", "emergency": "yes", "health_facility:type": "Laboratory EEG EMG NCV TMT", "healthcare": "hospital", "healthcare:speciality": "Anesthesiology Cardiology Cardiothoracic Surgery Dentistry Dermatology ENT Gastroenterology General Medicine General Surgery Gynaecology Neonatology Nephrology Neuro Surgery Neurology Ophthalmology Orthopedics Pediatrics Radiology", "name": "Lourdes Hospital", "name:ml": "\u0d32\u0d42\u0d7c\u0d26\u0d4d \u0d39\u0d4b\u0d38\u0d4d\u0d2a\u0d3f\u0d31\u0d4d\u0d31\u0d7d", "operator:type": "private", "source": "OpenGovernmentData", "website": "https://www.lourdeshospital.in/", "wheelchair": "yes", "wikidata": "Q6689771"}}, {"type": "way", "id": 273199780, "nodes": [7141103290, 7141103381, 7141103380, 7141103382, 7141103288, 2780747510, 2780747511, 2780747512, 7141103292, 7141103294, 7141103293, 7141103291, 7141103296, 7141103295, 7141103379, 7141103290], "tags": {"addr:city": "Ernakulam", "addr:place": "Kacheripady", "addr:postcode": "682018", "addr:street": "Lisie Hospital road", "alt_name": "Mar Augustine Kandathil Memorial Lisie Hospital", "amenity": "hospital", "emergency": "yes", "healthcare": "hospital", "name": "Lisie Hospital", "name:ml": "\u0d32\u0d3f\u0d38\u0d3f \u0d39\u0d4b\u0d38\u0d4d\u0d2a\u0d3f\u0d31\u0d4d\u0d31\u0d7d", "website": "https://www.lourdeshospital.in/", "wheelchair": "yes", "wikidata": "Q6754374", "wikipedia": "en:Lisie Hospital, Kochi"}}, {"type": "way", "id": 342660736, "nodes": [3496248703, 3496248704, 3496248705, 3496248706, 3496248707, 3496248708, 3496248709, 3496248710, 7141128025, 3496248711, 3496248714, 3496248703], "tags": {"CovidVaccineCenterId": "569820", "addr:city": "Kochi", "addr:district": "Ernakulam", "addr:full": "Kaloor, Near Railway Station", "addr:postcode": "682017", "addr:state": "Kerala", "addr:street": "Banerji Road", "alt_name": "PVS Memorial Hospital Ekm", "amenity": "hospital", "emergency": "yes", "healthcare": "hospital", "name": "P V S Memorial Hospital Ltd", "source": "OpenGovernmentData", "wikidata": "Q30280479"}}, {"type": "way", "id": 407943794, "nodes": [4099660153, 4099660161, 4099660152, 4099660149, 4099660153], "tags": {"amenity": "hospital", "healthcare": "hospital", "name": "Women and Children Hospital, Mattancherry", "operator": "Department of Health and Family Welfare", "operator:type": "government", "ref": "1503"}}, {"type": "way", "id": 408242710, "nodes": [4102041305, 4102041311, 4102041088, 4102041077, 4102041305], "tags": {"amenity": "hospital", "healthcare": "hospital", "name": "Kochi Port Trust Hospital"}}, {"type": "way", "id": 618221594, "nodes": [5843610234, 5843610231, 5843610232, 5843610233, 5843610234], "tags": {"addr:city": "Kochi", "addr:street": "Hospital Road", "addr:suburb": "Ernakulam", "amenity": "hospital", "building": "hospital", "healthcare": "hospital", "name": "KPM Eye Hospital", "nohousenumber": "yes"}}, {"type": "way", "id": 624637349, "nodes": [5898506283, 5898506284, 5898506585, 5898506586, 5898506283], "tags": {"amenity": "hospital", "healthcare": "hospital", "name": "INHS Sanjivani Hospital"}}, {"type": "way", "id": 722671045, "nodes": [6778954759, 6778954758, 6778954757, 4290205590, 6778954759], "tags": {"amenity": "hospital", "name": "ESI Dispensary , Fort Kochi"}}, {"type": "way", "id": 743214904, "nodes": [6956828011, 7354172505, 7354172506, 6956828008, 6956828009, 6956828007, 6956828010, 6956828011], "tags": {"addr:district": "Ernakulam", "addr:full": "M G Road, Kochi", "addr:housename": "Cochin Hospital", "addr:postcode": "682016", "addr:state": "Kerala", "addr:street": "Mahatma Gandhi Road", "amenity": "hospital", "branch": "North Block", "building": "hospital", "healthcare": "hospital", "name": "Medical Trust Hospital", "source": "OpenGovernmentData", "wheelchair": "yes"}}, {"type": "way", "id": 744287179, "nodes": [6966025187, 6966025190, 6966025189, 6966025188, 6966025187], "tags": {"addr:district": "Ernakulam", "addr:full": "27/3215, Opp: Shipyard M G Road, Kochi", "addr:postcode": "682015", "addr:state": "Kerala", "amenity": "hospital", "building": "office", "building:use": "medical", "healthcare": "hospital", "name": "Vasan Eye Care Hospital", "source": "OpenGovernmentData"}}, {"type": "way", "id": 744300359, "nodes": [6966128878, 6966156285, 6966128884, 6966128882, 6966128881, 6966128880, 6966128879, 6966128883, 6966128878], "tags": {"addr:district": "Ernakulam", "addr:full": "38/685A, Sahodharan Ayyappan Road, Kadavanthra", "addr:postcode": "682016", "addr:state": "Kerala", "amenity": "hospital", "building": "commercial", "building:levels": "6", "healthcare": "hospital", "name": "Chaithanya ENT Hospital", "nohousenumber": "yes", "roof:shape": "flat", "source": "OpenGovernmentData"}}, {"type": "way", "id": 755600802, "nodes": [7057737605, 7057737606, 7057737608, 7057737609, 7057737610, 7057737611, 7057737619, 7057737612, 7057737613, 7057737614, 7057737615, 7057737616, 7057737621, 7057737617, 7057737620, 7057737618, 7057737605], "tags": {"CovidVaccineCenterId": "155287", "addr:district": "Ernakulam", "addr:postcode": "682011", "addr:state": "Kerala", "alt_name": "Ernakulam General Hospital", "amenity": "hospital", "emergency": "yes", "healthcare": "hospital", "name": "General Hospital Ernakulam", "operator": "Department of Health Services", "operator:type": "government", "ref": "1473", "source": "OpenGovernmentData", "wheelchair": "yes", "wikidata": "Q5531947", "wikipedia": "en:General Hospital, Ernakulam"}}, {"type": "way", "id": 756929577, "nodes": [7069620383, 7069620384, 7069641998, 7069641985, 7069641986, 7069641987, 7069641988, 7069641989, 7069641990, 7069641991, 7069641992, 7069641993, 7069641994, 7069641995, 7069641996, 7069641997, 7069620383], "tags": {"amenity": "hospital", "healthcare": "hospital", "name": "ESI Hospital", "operator": "Employees' State Insurance", "operator:short": "ESI", "operator:wikidata": "Q3595726"}}, {"type": "way", "id": 757509940, "nodes": [7074263950, 7074263951, 7074263952, 7074263953, 7074263954, 7074263955, 7074263956, 7074263957, 7074263958, 7074263959, 7074263969, 7074263950], "tags": {"addr:city": "Ernakulam", "addr:district": "Ernakulam", "addr:full": "39 /4603, Sreekandath Road, Ravipuram", "addr:postcode": "682016", "addr:state": "Kerala", "addr:street": "Sreekandath Road", "amenity": "hospital", "email": "vgsarafhospital@gmail.com", "emergency": "yes", "healthcare": "hospital", "healthcare:speciality": "orthopaedics;surgery;general;gynaecology;plastic;paediatrics;dentistry;ENT;Urology;Laparoscopic;Plastic_Surgery;ophthalmology;Anesthesiology;Maxillo-facial_surgery", "name": "Saraf Hospital", "operator": "private", "operator:type": "private", "phone": "+91-484 238 0452", "source": "OpenGovernmentData", "website": "http://vgsarafhospital.com/", "wikidata": "Q16916004", "wikipedia": "en:Saraf Hospital"}}, {"type": "way", "id": 757513032, "nodes": [7074268954, 7074268955, 7074268956, 7074268970, 1907097861, 7074268957, 7074268969, 7074268954], "tags": {"CovidVaccineCenterId": "579218", "addr:city": "Kochi", "addr:postcode": "682016", "addr:state": "KL", "addr:street": "Diwans Road", "alt_name": "Lakshmi Hospital Ernakulam", "amenity": "hospital", "emergency": "yes", "healthcare": "hospital", "healthcare:speciality": "cardiology;general;gynaecology", "name": "Lakshmi Hospital", "name:ml": "\u0d32\u0d15\u0d4d\u0d37\u0d4d\u0d2e\u0d3f \u0d39\u0d4b\u0d38\u0d4d\u0d2a\u0d3f\u0d31\u0d4d\u0d31\u0d7d", "phone": "+91 484 238 2111", "wheelchair": "yes"}}, {"type": "way", "id": 757897600, "nodes": [7078135007, 7078135008, 7078135009, 7078135015, 7078135010, 7078135011, 7078135012, 7078135013, 7078135014, 7078135007], "tags": {"addr:city": "Ernakulam", "addr:postcode": "682011", "addr:street": "Chittoor Road", "amenity": "hospital", "healthcare": "hospital", "name": "Krishna Hospital", "name:ml": "\u0d15\u0d43\u0d37\u0d4d\u0d23 \u0d39\u0d4b\u0d38\u0d4d\u0d2a\u0d3f\u0d31\u0d4d\u0d31\u0d7d", "phone": "+91-484 409 5888"}}, {"type": "way", "id": 827587548, "nodes": [7726212078, 7726212075, 7726212076, 7726212077, 7726212078], "tags": {"amenity": "hospital", "healthcare": "hospital", "name": "District TB Centre Karuvelipady", "operator": "Department of Health and Family Welfare", "operator:type": "government", "ref": "1518", "type": "19"}}, {"type": "way", "id": 847858732, "nodes": [4104131245, 4104131241, 7911808508, 7911808509, 7911808510, 7911808511, 4104131238, 4104131239, 7911811059, 7911811060, 7911811061, 4104131245], "tags": {"CovidVaccineCenterId": "155257", "addr:city": "Kochi", "addr:postcode": "652508", "addr:street": "Puthuvype, Puthuvyupe PO", "alt_name": "Puthuvyppu PHC", "amenity": "hospital", "healthcare": "hospital", "name": "Govt Primary Health Centre, Puthuvype"}}, {"type": "way", "id": 934242652, "nodes": [8658727186, 8658727187, 8658727188, 8658727189, 8658727190, 8658727191, 8658727192, 8658727193, 8658727194, 8658727195, 8658727196, 8658727197, 8658727198, 8658727199, 8658727200, 8658727204, 8658727203, 8658727202, 8658727201, 8658727186], "tags": {"CovidVaccineCenterId": "569943", "alt_name": "GMTH Karuvelipadi Hospital", "amenity": "hospital", "healthcare": "hospital", "name": "Taluk Headquarters Maharajas Hospital Karuvelippad", "operator": "Department of Health and Family Welfare", "operator:type": "government", "ref": "1517"}}, {"type": "way", "id": 934249735, "nodes": [8658807675, 8658807677, 8658807678, 8658807682, 8658807675], "tags": {"CovidVaccineCenterId": "155363", "alt_name": "Fortkochi THQH", "amenity": "hospital", "healthcare": "hospital", "name": "Taluk Head Quarters Hospital Fort Kochi", "operator": "Department of Health and Family Welfare", "operator:type": "government", "ref": "1489"}}, {"type": "way", "id": 965584250, "nodes": [8932641706, 8932641707, 8932641708, 8932641709, 8932641710, 8932641711, 8932641712, 8932641713, 8932641714, 8932641715, 8932641706], "tags": {"CovidVaccineCenterId": "155247", "amenity": "hospital", "healthcare": "hospital", "name": "Family Health Centre, Mulavukad", "operator": "Department of Health and Family Welfare", "operator:type": "government", "ref": "1465", "type": "11"}}, {"type": "way", "id": 1218453349, "nodes": [11290331207, 11290332238, 11290332498, 11290333219, 11290331207], "tags": {"amenity": "hospital", "healthcare": "hospital", "name": "Neethi Lab", "source": "microsoft/BuildingFootprints"}}, {"type": "way", "id": 1309235653, "nodes": [12123784085, 12123784096, 12123784087, 12123784077, 12123784081, 12123784085], "tags": {"addr:city": "Kochi", "addr:district": "Ernakulam", "addr:state": "KL", "addr:street": "TD Road", "addr:suburb": "Ernakulam South", "amenity": "hospital", "healthcare": "hospital", "name": "Kunhalu's Nursing Home", "wheelchair": "yes"}}, {"type": "way", "id": 1333433765, "nodes": [12336708502, 12336708510, 12336708516, 12336708509, 12336708505, 12336708508, 12336708512, 12336708514, 12336708502], "tags": {"amenity": "hospital", "healthcare": "hospital", "name": "Medical Trust Hospital", "wheelchair": "yes"}}]}