{"version": 0.6, "generator": "Overpass API 0.7.62.8 e802775f", "osm3s": {"timestamp_osm_base": "2026-01-12T06:28:36Z", "copyright": "The data included in this document is from www.openstreetmap.org. The data is made available under ODbL."}, "elements": [{"type": "node", "id": 2214530298, "lat": 13.0523474, "lon": 80.280994}, {"type": "node", "id": 2214530299, "lat": 13.0525176, "lon": 80.2802174}, {"type": "node", "id": 2214530300, "lat": 13.0529424, "lon": 80.2810606}, {"type": "node", "id": 2214530301, "lat": 13.05316, "lon": 80.2805003}, {"type": "node", "id": 3602114947, "lat": 13.0523986, "lon": 80.2807473}, {"type": "node", "id": 6926437416, "lat": 13.0477722, "lon": 80.2744473, "tags": {"addr:block": "Chennai Zone Ix", "addr:district": "Chennai", "addr:full": "New No: 119, Old No: 56, Ice House Police Station, Triplicane, Dr. Natesan St;Sudandira Nagar", "addr:postcode": "600005;600014", "addr:state": "Tamil Nadu", "amenity": "hospital", "healthcare": "hospital", "name": "Fousiya Hospital", "source": "OpenGovernmentData;Local Knowledge"}}, {"type": "node", "id": 6934146446, "lat": 13.0350623, "lon": 80.2778479, "tags": {"addr:district": "Chennai", "addr:full": "35 A, Santhome High Road, Marina Beach", "addr:postcode": "600004", "addr:state": "Tamil Nadu", "amenity": "hospital", "healthcare": "hospital", "name": "Sinus And Nose Hospital - Mylapore, Chennai", "source": "OpenGovernmentData"}}, {"type": "node", "id": 7823415059, "lat": 13.0490602, "lon": 80.2747953, "tags": {"addr:district": "Chennai", "addr:postcode": "600014", "addr:state": "Tamil Nadu", "amenity": "hospital", "healthcare": "hospital", "name": "Vasantha Hospital", "source": "Local Knowledge"}}, {"type": "node", "id": 7823415087, "lat": 13.0546321, "lon": 80.2774772, "tags": {"addr:district": "Chennai", "addr:full": "Narayana Krishnaraja Puram", "addr:postcode": "600005", "addr:state": "Tamil Nadu", "amenity": "hospital", "healthcare": "hospital", "name": "Syma Hospital", "source": "Local Knowledge"}}, {"type": "node", "id": 7823415088, "lat": 13.0547617, "lon": 80.2756509, "tags": {"addr:district": "Chennai", "addr:full": "Narayana Krishnaraja Puram, Triplicane", "addr:postcode": "600005", "addr:state": "Tamil Nadu", "amenity": "hospital", "healthcare": "hospital", "name": "Sri Parthasarathy Hospital", "source": "Local Knowledge"}}, {"type": "way", "id": 211436948, "nodes": [2214530298, 3602114947, 2214530299, 2214530301, 2214530300, 2214530298], "tags": {"amenity": "hospital", "healthcare": "hospital"}}]}