{"version": 0.6, "generator": "Overpass API 0.7.62.8 e802775f", "osm3s": {"timestamp_osm_base": "2026-01-12T14:19:15Z", "copyright": "The data included in this document is from www.openstreetmap.org. The data is made available under ODbL."}, "elements": [{"type": "node", "id": 293713787, "lat": 13.0090918, "lon": 77.6634946}, {"type": "node", "id": 308217272, "lat": 13.0573252, "lon": 77.6353626}, {"type": "node", "id": 308217273, "lat": 13.0569061, "lon": 77.6357907}, {"type": "node", "id": 308217274, "lat": 13.0564656, "lon": 77.6361763}, {"type": "node", "id": 308217275, "lat": 13.0560805, "lon": 77.6364762}, {"type": "node", "id": 308217276, "lat": 13.0556461, "lon": 77.6367691}, {"type": "node", "id": 308217277, "lat": 13.047774, "lon": 77.6416373}, {"type": "node", "id": 308217280, "lat": 13.0430972, "lon": 77.6448077}, {"type": "node", "id": 308217281, "lat": 13.0382422, "lon": 77.6487463}, {"type": "node", "id": 308217282, "lat": 13.0358513, "lon": 77.6506453}, {"type": "node", "id": 308217283, "lat": 13.0309261, "lon": 77.6546793}, {"type": "node", "id": 308217284, "lat": 13.0264022, "lon": 77.6583786}, {"type": "node", "id": 308217285, "lat": 13.0233819, "lon": 77.6608527}, {"type": "node", "id": 308217286, "lat": 13.0222827, "lon": 77.6616429}, {"type": "node", "id": 308217287, "lat": 13.0216989, "lon": 77.6619637}, {"type": "node", "id": 308217288, "lat": 13.0204795, "lon": 77.6624652}, {"type": "node", "id": 308217289, "lat": 13.0199935, "lon": 77.6626015}, {"type": "node", "id": 308217290, "lat": 13.0195859, "lon": 77.6626824}, {"type": "node", "id": 308217291, "lat": 13.0190496, "lon": 77.6627693}, {"type": "node", "id": 308218377, "lat": 13.1013059, "lon": 77.6364044, "tags": {"highway": "bus_stop", "loc_name": "BELAHALLI", "name": "Bellahalli Cross", "name:kn": "\u0cac\u0cc6\u0cb2\u0ccd\u0cb2\u0cb9\u0cb3\u0ccd\u0cb3\u0cbf \u0c95\u0ccd\u0cb0\u0cbe\u0cb8\u0ccd"}}, {"type": "node", "id": 308218384, "lat": 13.0992922, "lon": 77.6417679, "tags": {"highway": "bus_stop", "loc_name": "BELAHALLI", "name": "Bella Halli", "name:kn": "\u0cac\u0cc6\u0cb2\u0ccd\u0cb2\u0cb9\u0cb3\u0ccd\u0cb3\u0cbf"}}, {"type": "node", "id": 333823323, "lat": 13.0448535, "lon": 77.6434496}, {"type": "node", "id": 333823338, "lat": 13.0446097, "lon": 77.6436258}, {"type": "node", "id": 335654108, "lat": 13.0390351, "lon": 77.6439026, "tags": {"bus": "yes", "name": "Hennur", "name:en": "Hennur", "name:kn": "\u0cb9\u0cc6\u0ca3\u0ccd\u0ca3\u0cc2\u0cb0\u0cc1", "network": "BMTC", "operator": "BMTC", "public_transport": "stop_position"}}, {"type": "node", "id": 335654343, "lat": 13.0386319, "lon": 77.646528, "tags": {"alt_name": "Kaveri Nagar", "highway": "bus_stop", "name": "Vaddarapalya", "name:en": "Vaddarapalya", "name:kn": "\u0c95\u0cbe\u0cb5\u0cc7\u0cb0\u0cbf \u0ca8\u0c97\u0cb0", "network": "BMTC", "operator": "BMTC", "public_transport": "platform"}}, {"type": "node", "id": 355840242, "lat": 13.0564988, "lon": 77.6517137, "tags": {"highway": "bus_stop", "loc_name": "BYRATHI", "name": "Byrathi", "name:kn": "\u0cad\u0cc8\u0cb0\u0ca4\u0cbf"}}, {"type": "node", "id": 355848134, "lat": 13.0709002, "lon": 77.6739661, "tags": {"highway": "bus_stop", "loc_name": "DODDAGUBBI", "name": "Dodda Gubbi", "name:kn": "\u0ca6\u0cca\u0ca1\u0ccd\u0ca1 \u0c97\u0cc1\u0cac\u0ccd\u0cac\u0cbf"}}, {"type": "node", "id": 410861147, "lat": 13.0803244, "lon": 77.6340291, "tags": {"highway": "bus_stop", "name": "Noor Nagara", "name:en": "Noor Nagara", "network": "BMTC", "operator": "BMTC", "public_transport": "platform"}}, {"type": "node", "id": 410861178, "lat": 13.0802242, "lon": 77.6341451, "tags": {"highway": "bus_stop", "name": "Noor Nagara", "name:kn": "\u0ca8\u0cc2\u0cb0\u0ccd \u0ca8\u0c97\u0cb0"}}, {"type": "node", "id": 420080578, "lat": 13.0684965, "lon": 77.6824191, "tags": {"highway": "bus_stop", "loc_name": "ANGALAPURA", "name": "Anagalipura", "name:kn": "\u0c85\u0ca3\u0c97\u0cb2\u0cbf\u0caa\u0cc1\u0cb0"}}, {"type": "node", "id": 440670284, "lat": 13.0554156, "lon": 77.7058727, "tags": {"alt_name": "Adur", "highway": "bus_stop", "name": "Aduru", "name:en": "Aduru", "name:kn": "\u0c86\u0ca6\u0cc2\u0cb0\u0cc1", "network": "BMTC", "operator": "BMTC", "public_transport": "platform"}}, {"type": "node", "id": 440670318, "lat": 13.0497448, "lon": 77.72014, "tags": {"bench": "no", "bin": "no", "highway": "bus_stop", "lit": "yes", "loc_name": "AVALAHALLI", "name": "East Point College", "shelter": "yes"}}, {"type": "node", "id": 440673929, "lat": 13.0603575, "lon": 77.7163583, "tags": {"highway": "bus_stop", "loc_name": "BIDRAHALLI", "name": "Bidrahalli", "name:kn": "\u0cac\u0cc0\u0ca6\u0cb0\u0cb9\u0cb3\u0ccd\u0cb3\u0cbf"}}, {"type": "node", "id": 440673949, "lat": 13.0720108, "lon": 77.7210069, "tags": {"bus": "yes", "highway": "bus_stop", "loc_name": "BYAPANAHALLI", "name": "Byappana Halli", "name:kn": "\u0cac\u0cc8\u0caa\u0ca8\u0cb9\u0cb3\u0ccd\u0cb3\u0cbf", "public_transport": "platform"}}, {"type": "node", "id": 440673975, "lat": 13.0873705, "lon": 77.7146571, "tags": {"highway": "bus_stop", "loc_name": "GUNDURU", "name": "Gunduru", "name:kn": "\u0c97\u0cc1\u0c82\u0ca1\u0cc2\u0cb0\u0cc1"}}, {"type": "node", "id": 440678720, "lat": 13.0402048, "lon": 77.6794539, "tags": {"highway": "bus_stop", "loc_name": "K.CHANNASANDRA", "name": "K Channsandra", "name:en": "K Channsandra", "network": "BMTC", "operator": "BMTC", "public_transport": "platform"}}, {"type": "node", "id": 440678727, "lat": 13.0391332, "lon": 77.6776432, "tags": {"bus": "yes", "name": "Pooja Garden", "name:en": "Pooja Garden", "network": "BMTC", "operator": "BMTC", "public_transport": "stop_position"}}, {"type": "node", "id": 440678729, "lat": 13.0391741, "lon": 77.6775047, "tags": {"highway": "bus_stop", "loc_name": "VAISHNAVI LAYOUT", "name": "Pooja Garden", "name:en": "Pooja Garden", "network": "BMTC", "operator": "BMTC", "public_transport": "platform"}}, {"type": "node", "id": 440690478, "lat": 13.0366459, "lon": 77.6548087, "tags": {"highway": "bus_stop", "loc_name": "HORAMAVU AGARA", "name": "Horamavu Agara", "name:en": "Horamavu Agara", "name:kn": "\u0cb9\u0cca\u0cb0\u0cae\u0cbe\u0cb5\u0cc1 \u0c85\u0c97\u0cb0", "network": "BMTC", "operator": "BMTC", "public_transport": "platform"}}, {"type": "node", "id": 440704155, "lat": 13.0376489, "lon": 77.6922232, "tags": {"highway": "bus_stop", "name": "Maragondanahalli", "name:kn": "\u0cae\u0cbe\u0cb0\u0c97\u0cca\u0c82\u0ca1\u0ca8\u0cb9\u0cb3\u0ccd\u0cb3\u0cbf"}}, {"type": "node", "id": 440709566, "lat": 13.0382854, "lon": 77.6652622, "tags": {"bus": "yes", "highway": "bus_stop", "loc_name": "BANJARA LAYOUT", "name": "Banjara Layout", "name:kn": "\u0cac\u0c82\u0c9c\u0cbe\u0cb0 \u0cac\u0ca1\u0cbe\u0cb5\u0ca3\u0cc6", "network": "BMTC", "network:wikidata": "Q3345039", "operator": "BMTC", "public_transport": "platform"}}, {"type": "node", "id": 442438117, "lat": 13.0034906, "lon": 77.6638667}, {"type": "node", "id": 536301751, "lat": 13.0853455, "lon": 77.6871407, "tags": {"highway": "bus_stop", "loc_name": "YERAPANAHALLI", "name": "Yarappanahalli", "name:kn": "\u0caf\u0cb0\u0caa\u0ccd\u0caa\u0ca8\u0cb9\u0cb3\u0ccd\u0cb3\u0cbf"}}, {"type": "node", "id": 543322642, "lat": 13.0836729, "lon": 77.6756214, "tags": {"highway": "bus_stop", "loc_name": "N.G GOLLAHALLI", "name": "Gollarahalli", "name:kn": "\u0c97\u0cca\u0cb2\u0ccd\u0cb2\u0cb0\u0cb9\u0cb3\u0ccd\u0cb3\u0cbf"}}, {"type": "node", "id": 543331009, "lat": 13.1180544, "lon": 77.688751, "tags": {"highway": "bus_stop", "loc_name": "DASA NAYAKANA HALLI", "name": "Dasanayakanahalli"}}, {"type": "node", "id": 544379901, "lat": 13.0805504, "lon": 77.6663499, "tags": {"highway": "bus_stop", "loc_name": "CHICKKGUBBI", "name": "Chikka Gubbi", "name:kn": "\u0c9a\u0cbf\u0c95\u0ccd\u0c95\u0c97\u0cc1\u0cac\u0ccd\u0cac\u0cbf"}}, {"type": "node", "id": 544381444, "lat": 13.0988737, "lon": 77.6640397, "tags": {"highway": "bus_stop", "name": "Kada Sonappana Halli", "name:kn": "\u0c95\u0cbe\u0ca1\u0cc1 \u0cb8\u0cca\u0ca8\u0ccd\u0ca8\u0caa\u0ccd\u0caa\u0ca8\u0cb9\u0cb3\u0ccd\u0cb3\u0cbf"}}, {"type": "node", "id": 555700287, "lat": 13.1008901, "lon": 77.6437751, "tags": {"highway": "bus_stop", "loc_name": "H Tippunagar", "name": "H Tippunagar"}}, {"type": "node", "id": 595302080, "lat": 13.0321508, "lon": 77.6537077, "tags": {"name": "Agara level crossing", "railway": "level_crossing"}}, {"type": "node", "id": 2124745473, "lat": 13.1236378, "lon": 77.6394921, "tags": {"highway": "bus_stop", "loc_name": "BALAJI NAGARA", "name": "Delhi Public School", "name:kn": "\u0ca6\u0cc6\u0cb9\u0cb2\u0cbf \u0cb8\u0cbe\u0cb0\u0ccd\u0cb5\u0c9c\u0ca8\u0cbf\u0c95 \u0cb6\u0cbe\u0cb2\u0cc6"}}, {"type": "node", "id": 2124789518, "lat": 13.0993802, "lon": 77.6418078, "tags": {"bus": "yes", "highway": "bus_stop", "loc_name": "BELAHALLI", "name": "Bellahalli", "name:kn": "\u0cac\u0cc6\u0cb2\u0ccd\u0cb2\u0cb9\u0cb3\u0ccd\u0cb3\u0cbf", "network": "BMTC", "network:wikidata": "Q3345039", "operator": "BMTC", "public_transport": "platform"}}, {"type": "node", "id": 2124789543, "lat": 13.1014103, "lon": 77.6362394, "tags": {"highway": "bus_stop", "loc_name": "BELAHALLI", "name": "Bellahalli Cross", "name:kn": "\u0cac\u0cc6\u0cb2\u0ccd\u0cb2\u0cb9\u0cb3\u0ccd\u0cb3\u0cbf \u0c95\u0ccd\u0cb0\u0cbe\u0cb8\u0ccd"}}, {"type": "node", "id": 2125916063, "lat": 13.0367255, "lon": 77.6405042, "tags": {"highway": "bus_stop", "loc_name": "Hennur Bande", "name": "Hennur Bande", "name:en": "Hennur Bande", "name:kn": "\u0cb9\u0cc6\u0ca3\u0ccd\u0ca3\u0cc2\u0cb0\u0cc1 \u0cac\u0c82\u0ca1\u0cc6", "network": "BMTC", "operator": "BMTC", "public_transport": "platform"}}, {"type": "node", "id": 2125916101, "lat": 13.0434244, "lon": 77.6424087, "tags": {"bus": "yes", "name": "Janaki Rama Layout", "name:en": "Janaki Rama Layout", "name:kn": "\u0c9c\u0cbe\u0ca8\u0c95\u0cbf\u0cb0\u0cbe\u0cae \u0cac\u0ca1\u0cbe\u0cb5\u0ca3\u0cc6", "network": "BMTC", "operator": "BMTC", "public_transport": "stop_position"}}, {"type": "node", "id": 2125917387, "lat": 13.0756644, "lon": 77.651634, "tags": {"bus": "yes", "name": "Poornaprajna School", "name:en": "Poornaprajna School", "name:kn": "\u0caa\u0cc2\u0cb0\u0ccd\u0ca3\u0caa\u0ccd\u0cb0\u0c9c\u0ccd\u0c9e \u0cb6\u0cbe\u0cb2\u0cc6", "network": "BMTC", "operator": "BMTC", "public_transport": "stop_position"}}, {"type": "node", "id": 2451403806, "lat": 13.0932824, "lon": 77.6543491, "tags": {"bus": "yes", "highway": "bus_stop", "loc_name": "KANNUR", "name": "Kannuru", "name:en": "Kannuru", "name:kn": "\u0c95\u0ca3\u0ccd\u0ca3\u0cc2\u0cb0\u0cc1", "network": "BMTC", "network:wikidata": "Q3345039", "operator": "BMTC", "public_transport": "platform"}}, {"type": "node", "id": 2451415320, "lat": 13.0780135, "lon": 77.653306, "tags": {"bus": "yes", "highway": "bus_stop", "loc_name": "Chikkagubbi Cross", "name": "Byrathi Bande", "name:en": "Byrathi Bande", "name:kn": "\u0cac\u0cc8\u0cb0\u0ca4\u0cbf \u0cac\u0c82\u0ca1\u0cc6", "network": "BMTC", "network:wikidata": "Q3345039", "operator": "BMTC", "public_transport": "platform"}}, {"type": "node", "id": 2451415326, "lat": 13.0780448, "lon": 77.6535517, "tags": {"highway": "bus_stop", "loc_name": "BYRATHI BANDE", "name": "Chikkagubbi Cross", "name:kn": "\u0c9a\u0cbf\u0c95\u0ccd\u0c95\u0c97\u0cc1\u0cac\u0ccd\u0cac\u0cbf \u0c95\u0ccd\u0cb0\u0cbe\u0cb8\u0ccd"}}, {"type": "node", "id": 2451425619, "lat": 13.0563629, "lon": 77.6586481, "tags": {"highway": "bus_stop", "loc_name": "KYALASANAHALLI", "name": "Kyalasanahalli", "name:kn": "\u0c95\u0ccd\u0caf\u0cbe\u0cb2\u0cb8\u0ca8\u0cb9\u0cb3\u0ccd\u0cb3\u0cbf"}}, {"type": "node", "id": 2451430524, "lat": 13.0544797, "lon": 77.6710295, "tags": {"highway": "bus_stop", "loc_name": "BILESHIVALE", "name": "Bileshivale", "name:kn": "\u0cac\u0cbf\u0cb3\u0cbf\u0cb6\u0cbf\u0cb5\u0cbe\u0cb2\u0cc6"}}, {"type": "node", "id": 2451436793, "lat": 13.0520794, "lon": 77.6811267, "tags": {"highway": "bus_stop", "loc_name": "K.CHANNASANDRA", "name": "Jn of Channasandra"}}, {"type": "node", "id": 2451437189, "lat": 13.0516355, "lon": 77.6908858, "tags": {"highway": "bus_stop", "loc_name": "RAMPURA", "name": "Rampura", "name:kn": "\u0cac\u0cc0\u0ca6\u0cb0\u0cb9\u0cb3\u0ccd\u0cb3\u0cbf"}}, {"type": "node", "id": 2451439952, "lat": 13.0568947, "lon": 77.7149969, "tags": {"highway": "bus_stop", "loc_name": "BIDRAHALLI", "name": "Bidrahalli Cross"}}, {"type": "node", "id": 2451441548, "lat": 13.0454466, "lon": 77.7235974, "tags": {"highway": "bus_stop", "loc_name": "HIRANDAHALLI", "name": "Hirandahalli", "name:kn": "\u0cb9\u0cbf\u0cb0\u0c82\u0ca1\u0cb9\u0cb3\u0ccd\u0cb3\u0cbf"}}, {"type": "node", "id": 2451701582, "lat": 13.1061519, "lon": 77.660751, "tags": {"highway": "bus_stop", "name": "Hosuru Bande", "name:en": "Hosuru Bande", "network": "BMTC", "operator": "BMTC", "public_transport": "platform"}}, {"type": "node", "id": 2451703341, "lat": 13.1095022, "lon": 77.6436835, "tags": {"highway": "bus_stop", "name": "Mitaganahalli", "name:kn": "\u0cae\u0cbf\u0c9f\u0c97\u0cbe\u0ca8\u0cb9\u0cb3\u0ccd\u0cb3\u0cbf"}}, {"type": "node", "id": 2451740572, "lat": 13.0891136, "lon": 77.6658879, "tags": {"highway": "bus_stop", "name": "Oasis School"}}, {"type": "node", "id": 2451741394, "lat": 13.0946973, "lon": 77.6833256, "tags": {"highway": "bus_stop", "loc_name": "YERAPANAHALLI", "name": "Yarappana Bande"}}, {"type": "node", "id": 2451743037, "lat": 13.0951323, "lon": 77.6936376, "tags": {"highway": "bus_stop", "name": "D Group Layout"}}, {"type": "node", "id": 2460236928, "lat": 13.0675374, "lon": 77.6338612, "tags": {"highway": "bus_stop", "name": "K Narayanapura Cross"}}, {"type": "node", "id": 2460237956, "lat": 13.0663927, "lon": 77.640586, "tags": {"bus": "yes", "name": "K Narayanapura Main Bus Stand", "network": "BMTC", "operator": "BMTC", "public_transport": "stop_position"}}, {"type": "node", "id": 2461407111, "lat": 13.1234777, "lon": 77.6394543, "tags": {"highway": "bus_stop", "loc_name": "BALAJI NAGARA", "name": "Delhi Public School", "name:kn": "\u0ca6\u0cc6\u0cb9\u0cb2\u0cbf \u0cb8\u0cbe\u0cb0\u0ccd\u0cb5\u0c9c\u0ca8\u0cbf\u0c95 \u0cb6\u0cbe\u0cb2\u0cc6"}}, {"type": "node", "id": 2461826945, "lat": 13.1195669, "lon": 77.6787169, "tags": {"bus": "yes", "highway": "bus_stop", "loc_name": "MARENAHALLI", "name": "Marenahalli", "name:kn": "\u0cae\u0cbe\u0cb0\u0cc7\u0ca8\u0cb9\u0cb3\u0ccd\u0cb3\u0cbf", "public_transport": "platform"}}, {"type": "node", "id": 2461833644, "lat": 13.1134906, "lon": 77.6877066, "tags": {"highway": "bus_stop", "loc_name": "CHOKKANAHALLI", "name": "Chokkanahalli", "name:kn": "\u0c9a\u0cca\u0c95\u0ccd\u0c95\u0ca8\u0cb9\u0cb3\u0ccd\u0cb3\u0cbf"}}, {"type": "node", "id": 2462858866, "lat": 13.0996654, "lon": 77.7152139, "tags": {"highway": "bus_stop", "loc_name": "MARASANDRA", "name": "Marasandra Circle", "name:kn": "\u0cae\u0cbe\u0cb0\u0cb8\u0c82\u0ca6\u0ccd\u0cb0 \u0cb5\u0cc3\u0ca4\u0ccd\u0ca4"}}, {"type": "node", "id": 2463039585, "lat": 13.0845587, "lon": 77.6346605, "tags": {"bus": "yes", "highway": "bus_stop", "name": "Chokkanahalli Gate", "name:en": "Chokkanahalli Gate", "name:kn": "\u0c9a\u0cca\u0c95\u0ccd\u0c95\u0ca8\u0cb9\u0cb3\u0ccd\u0cb3\u0cbf", "network": "BMTC", "network:wikidata": "Q3345039", "operator": "BMTC", "public_transport": "platform"}}, {"type": "node", "id": 2463039586, "lat": 13.0847884, "lon": 77.6348605, "tags": {"highway": "bus_stop", "name": "Chokkanahalli", "name:kn": "\u0c9a\u0cca\u0c95\u0ccd\u0c95\u0ca8\u0cb9\u0cb3\u0ccd\u0cb3\u0cbf"}}, {"type": "node", "id": 2463040641, "lat": 13.0887483, "lon": 77.6354773, "tags": {"highway": "bus_stop", "name": "KNS College"}}, {"type": "node", "id": 2463040642, "lat": 13.0887175, "lon": 77.635316, "tags": {"bus": "yes", "highway": "bus_stop", "name": "Thirumenahalli Cross (KNS College)", "name:en": "Thirumenahalli Cross (KNS College)", "network": "BMTC", "network:wikidata": "Q3345039", "operator": "BMTC", "public_transport": "platform"}}, {"type": "node", "id": 2463073990, "lat": 13.1224071, "lon": 77.6682109, "tags": {"alt_name": "Chagalatti", "highway": "bus_stop", "name": "Chakkalatti", "name:en": "Chakkalatti", "name:kn": "\u0c9a\u0cbe\u0c97\u0cb2\u0cc6\u0c9f\u0ccd\u0c9f\u0cbf", "network": "BMTC", "operator": "BMTC", "public_transport": "platform"}}, {"type": "node", "id": 2463098135, "lat": 13.1172617, "lon": 77.6339854, "tags": {"highway": "bus_stop", "name": "Reva College", "name:en": "Reva College", "name:kn": "\u0cb0\u0cc7\u0cb5\u0cbe \u0c95\u0cbe\u0cb2\u0cc7\u0c9c\u0cc1", "network": "BMTC", "operator": "BMTC", "public_transport": "platform"}}, {"type": "node", "id": 2463098150, "lat": 13.1171431, "lon": 77.6341551, "tags": {"bench": "yes", "bin": "yes", "highway": "bus_stop", "name": "Reva College", "name:kn": "\u0cb0\u0cc7\u0cb5\u0cbe \u0c95\u0cbe\u0cb2\u0cc7\u0c9c\u0cc1", "shelter": "yes"}}, {"type": "node", "id": 2468853945, "lat": 13.0367624, "lon": 77.6409616, "tags": {"bench": "yes", "bin": "no", "covered": "yes", "highway": "bus_stop", "name": "Hennur Bande", "name:en": "Hennur Bande", "name:kn": "\u0cb9\u0cc6\u0ca3\u0ccd\u0ca3\u0cc2\u0cb0\u0cc1 \u0cac\u0c82\u0ca1\u0cc6", "network": "BMTC", "operator": "BMTC", "public_transport": "platform", "shelter": "yes"}}, {"type": "node", "id": 2468952721, "lat": 13.0810966, "lon": 77.6826061, "tags": {"highway": "bus_stop", "name": "Bande Bommasandra Cross"}}, {"type": "node", "id": 2468954093, "lat": 13.0806006, "lon": 77.6916643, "tags": {"highway": "bus_stop", "loc_name": "KADA AGRAHARA", "name": "Kada Agrahara", "name:kn": "\u0c95\u0cbe\u0ca1\u0c85\u0c97\u0ccd\u0cb0\u0cb9\u0cbe\u0cb0"}}, {"type": "node", "id": 2470684786, "lat": 13.037817, "lon": 77.6504617, "tags": {"highway": "bus_stop", "loc_name": "HORAMAVU AGARA", "name": "Shilpa Bakery", "name:en": "Shilpa Bakery", "network": "BMTC", "operator": "BMTC", "public_transport": "platform"}}, {"type": "node", "id": 2474986112, "lat": 13.0618479, "lon": 77.6867831, "tags": {"highway": "bus_stop", "name": "Annagalpura Cross"}}, {"type": "node", "id": 2477436172, "lat": 13.0373116, "lon": 77.7104943, "tags": {"highway": "bus_stop", "loc_name": "KITHAGANURU", "name": "Kittaganuru"}}, {"type": "node", "id": 4526401066, "lat": 13.0594013, "lon": 77.6329788}, {"type": "node", "id": 4973098307, "lat": 13.0632906, "lon": 77.6422736, "tags": {"bench": "yes", "bus": "yes", "covered": "yes", "highway": "bus_stop", "name": "K Narayanapura", "network": "BMTC", "operator": "BMTC", "public_transport": "platform", "shelter": "yes"}}, {"type": "node", "id": 5073663765, "lat": 13.0061911, "lon": 77.6637416}, {"type": "node", "id": 5073663768, "lat": 13.0142089, "lon": 77.6631676}, {"type": "node", "id": 5073663769, "lat": 13.0190487, "lon": 77.6628216}, {"type": "node", "id": 5073663770, "lat": 13.0195923, "lon": 77.6627411}, {"type": "node", "id": 5073663771, "lat": 13.0199895, "lon": 77.6626446}, {"type": "node", "id": 5073663772, "lat": 13.0204939, "lon": 77.6625104}, {"type": "node", "id": 5073663773, "lat": 13.0210308, "lon": 77.662273}, {"type": "node", "id": 5073663774, "lat": 13.0210479, "lon": 77.6623173}, {"type": "node", "id": 5073663775, "lat": 13.0217221, "lon": 77.6620223}, {"type": "node", "id": 5073663776, "lat": 13.0223153, "lon": 77.6616843}, {"type": "node", "id": 5073663777, "lat": 13.0228627, "lon": 77.6612538}, {"type": "node", "id": 5073663778, "lat": 13.0228928, "lon": 77.6613008}, {"type": "node", "id": 5073663779, "lat": 13.0234141, "lon": 77.6608984}, {"type": "node", "id": 5073663781, "lat": 13.032207, "lon": 77.6537214, "tags": {"railway": "level_crossing"}}, {"type": "node", "id": 5073663782, "lat": 13.0382724, "lon": 77.6488003}, {"type": "node", "id": 5073663783, "lat": 13.0428844, "lon": 77.6450586}, {"type": "node", "id": 5073663784, "lat": 13.0431457, "lon": 77.6448494}, {"type": "node", "id": 5073663785, "lat": 13.0446691, "lon": 77.6436612}, {"type": "node", "id": 5073663786, "lat": 13.0449019, "lon": 77.6434944}, {"type": "node", "id": 5073663787, "lat": 13.0477406, "lon": 77.6417247}, {"type": "node", "id": 5073663788, "lat": 13.0556891, "lon": 77.6368135}, {"type": "node", "id": 5073663789, "lat": 13.0561203, "lon": 77.6365212}, {"type": "node", "id": 5073663790, "lat": 13.0565044, "lon": 77.6362288}, {"type": "node", "id": 5073663791, "lat": 13.0569459, "lon": 77.6358318}, {"type": "node", "id": 5073663792, "lat": 13.0573849, "lon": 77.6353759}, {"type": "node", "id": 5073663793, "lat": 13.0594595, "lon": 77.6329967}, {"type": "node", "id": 5678967721, "lat": 13.0648862, "lon": 77.6561681, "tags": {"highway": "bus_stop"}}, {"type": "node", "id": 5966255504, "lat": 13.0571263, "lon": 77.648508, "tags": {"name": "Byrathi Cross", "name:kn": "\u0cac\u0cc8\u0cb0\u0ca4\u0cbf \u0c95\u0ccd\u0cb0\u0cbe\u0cb8\u0ccd", "public_transport": "platform"}}, {"type": "node", "id": 5966255505, "lat": 13.0571707, "lon": 77.6482304, "tags": {"highway": "bus_stop", "name": "Byrathi Cross", "name:en": "Byrathi Cross", "name:kn": "\u0cac\u0cc8\u0cb0\u0ca4\u0cbf \u0c95\u0ccd\u0cb0\u0cbe\u0cb8\u0ccd", "network": "BMTC", "operator": "BMTC", "public_transport": "platform"}}, {"type": "node", "id": 5966255506, "lat": 13.0525889, "lon": 77.6459505, "tags": {"highway": "bus_stop", "name": "K Narayanapura Cross", "name:en": "K Narayanapura Cross", "network": "BMTC", "operator": "BMTC", "public_transport": "platform"}}, {"type": "node", "id": 5966255507, "lat": 13.0527262, "lon": 77.6461878, "tags": {"name": "K Narayanapura Cross", "public_transport": "platform"}}, {"type": "node", "id": 5966255508, "lat": 13.0483573, "lon": 77.6452772, "tags": {"highway": "bus_stop", "name": "Geddalahalli", "name:en": "Geddalahalli", "name:kn": "\u0c97\u0cc6\u0ca6\u0ccd\u0ca6\u0cb2\u0cb9\u0cb3\u0ccd\u0cb3\u0cbf", "network": "BMTC", "operator": "BMTC", "public_transport": "platform"}}, {"type": "node", "id": 5966255509, "lat": 13.048292, "lon": 77.645461, "tags": {"bench": "yes", "name": "Geddalahalli", "name:kn": "\u0c97\u0cc6\u0ca6\u0ccd\u0ca6\u0cb2\u0cb9\u0cb3\u0ccd\u0cb3\u0cbf", "public_transport": "platform", "shelter": "yes"}}, {"type": "node", "id": 6069075634, "lat": 13.011213, "lon": 77.6633362}, {"type": "node", "id": 6069075638, "lat": 13.003488, "lon": 77.6639265}, {"type": "node", "id": 6069075639, "lat": 13.0187274, "lon": 77.6628016}, {"type": "node", "id": 6069075640, "lat": 13.0187093, "lon": 77.6628535}, {"type": "node", "id": 6069075641, "lat": 13.0099024, "lon": 77.6634892}, {"type": "node", "id": 6069075642, "lat": 13.0099154, "lon": 77.6634337}, {"type": "node", "id": 6069075643, "lat": 13.0055768, "lon": 77.6637535}, {"type": "node", "id": 6069075644, "lat": 13.0055902, "lon": 77.6637832}, {"type": "node", "id": 6069075647, "lat": 13.0059237, "lon": 77.6637279, "tags": {"railway": "switch"}}, {"type": "node", "id": 6069075648, "lat": 13.0054682, "lon": 77.6637915, "tags": {"railway": "switch"}}, {"type": "node", "id": 6069075649, "lat": 13.0060044, "lon": 77.663722, "tags": {"railway": "switch"}}, {"type": "node", "id": 6069075652, "lat": 13.0058066, "lon": 77.6637682, "tags": {"railway": "switch"}}, {"type": "node", "id": 6069075660, "lat": 13.0149265, "lon": 77.663072, "tags": {"railway": "switch"}}, {"type": "node", "id": 6069075661, "lat": 13.0144781, "lon": 77.6631488, "tags": {"railway": "switch"}}, {"type": "node", "id": 6069075663, "lat": 13.01543, "lon": 77.6630362, "tags": {"railway": "switch"}}, {"type": "node", "id": 6069075664, "lat": 13.0145523, "lon": 77.6631436, "tags": {"railway": "switch"}}, {"type": "node", "id": 6069075665, "lat": 13.0164377, "lon": 77.663012, "tags": {"railway": "switch"}}, {"type": "node", "id": 6069075666, "lat": 13.0155555, "lon": 77.6630272, "tags": {"railway": "switch"}}, {"type": "node", "id": 6069075674, "lat": 13.0151842, "lon": 77.6630995, "tags": {"railway": "switch"}}, {"type": "node", "id": 6535450002, "lat": 13.0649211, "lon": 77.6517642, "tags": {"bus": "yes", "name": "Gubbi Cross (Towards Byrathi Bande)", "network": "BMTC", "operator": "BMTC", "public_transport": "stop_position"}}, {"type": "node", "id": 6535450003, "lat": 13.0649229, "lon": 77.6517266, "tags": {"bus": "yes", "highway": "bus_stop", "name": "Gubbi Cross (Towards Byrathi Bande)", "network": "BMTC", "operator": "BMTC", "public_transport": "platform"}}, {"type": "node", "id": 6535450004, "lat": 13.0632341, "lon": 77.6422364, "tags": {"bus": "yes", "name": "K Narayanapura", "network": "BMTC", "operator": "BMTC", "public_transport": "stop_position"}}, {"type": "node", "id": 6535450005, "lat": 13.070251, "lon": 77.642619, "tags": {"bus": "yes", "name": "Nagareshwara Nagenahalli", "name:kn": "\u0ca8\u0c97\u0cb0\u0cc7\u0cb6\u0ccd\u0cb5\u0cb0 \u0ca8\u0cbe\u0c97\u0cc7\u0ca8\u0cb9\u0cb3\u0ccd\u0cb3\u0cbf", "network": "BMTC", "operator": "BMTC", "public_transport": "stop_position"}}, {"type": "node", "id": 6535450006, "lat": 13.0702817, "lon": 77.6425172, "tags": {"bus": "yes", "highway": "bus_stop", "loc_name": "N.NAGENAHALLI", "name": "Nagareshwara Nagenahalli", "name:kn": "\u0ca8\u0c97\u0cb0\u0cc7\u0cb6\u0ccd\u0cb5\u0cb0 \u0ca8\u0cbe\u0c97\u0cc7\u0ca8\u0cb9\u0cb3\u0ccd\u0cb3\u0cbf", "network": "BMTC", "operator": "BMTC", "public_transport": "platform"}}, {"type": "node", "id": 6535450007, "lat": 13.0664318, "lon": 77.6407094, "tags": {"bus": "yes", "highway": "bus_stop", "loc_name": "K.NARAYANAPURA", "name": "K Narayanapura Main Bus Stand", "network": "BMTC", "operator": "BMTC", "public_transport": "platform"}}, {"type": "node", "id": 6535450008, "lat": 13.0656837, "lon": 77.6433213, "tags": {"bus": "yes", "name": "BDS Nagara", "network": "BMTC", "operator": "BMTC", "public_transport": "stop_position"}}, {"type": "node", "id": 6535450009, "lat": 13.0657851, "lon": 77.6433286, "tags": {"bus": "yes", "highway": "bus_stop", "loc_name": "K.NARAYANAPURA", "name": "BDS Nagara", "network": "BMTC", "operator": "BMTC", "public_transport": "platform"}}, {"type": "node", "id": 6535450010, "lat": 13.061939, "lon": 77.6489587, "tags": {"bus": "yes", "name": "Kothanuru", "name:kn": "\u0c95\u0cca\u0ca4\u0ca8\u0cc2\u0cb0\u0cc1", "network": "BMTC", "operator": "BMTC", "public_transport": "stop_position"}}, {"type": "node", "id": 6535450011, "lat": 13.0620593, "lon": 77.648917, "tags": {"bench": "yes", "bus": "yes", "covered": "yes", "highway": "bus_stop", "loc_name": "Bagalur Road", "name": "Kothanuru", "name:kn": "\u0c95\u0cca\u0ca4\u0ca8\u0cc2\u0cb0\u0cc1", "network": "BMTC", "operator": "BMTC", "public_transport": "platform", "shelter": "yes"}}, {"type": "node", "id": 6535450012, "lat": 13.0590677, "lon": 77.6428852, "tags": {"bus": "yes", "name": "Kristu Jayanti College", "network": "BMTC", "operator": "BMTC", "public_transport": "stop_position"}}, {"type": "node", "id": 6535450013, "lat": 13.0590376, "lon": 77.642862, "tags": {"bench": "yes", "bus": "yes", "covered": "yes", "highway": "bus_stop", "name": "Kristu Jayanti College", "network": "BMTC", "operator": "BMTC", "public_transport": "platform", "shelter": "yes"}}, {"type": "node", "id": 6842561201, "lat": 13.122406, "lon": 77.6682444, "tags": {"bus": "yes", "name": "Chakkalatti", "name:en": "Chakkalatti", "name:kn": "\u0c9a\u0cbe\u0c97\u0cb2\u0cc6\u0c9f\u0ccd\u0c9f\u0cbf", "network": "BMTC", "operator": "BMTC", "public_transport": "stop_position"}}, {"type": "node", "id": 6842561203, "lat": 13.1076826, "lon": 77.6656478, "tags": {"bus": "yes", "name": "Hamsa Farm", "name:en": "Hamsa Farm", "network": "BMTC", "operator": "BMTC", "public_transport": "stop_position"}}, {"type": "node", "id": 6842561204, "lat": 13.1076969, "lon": 77.6655883, "tags": {"highway": "bus_stop", "name": "Hamsa Farm", "name:en": "Hamsa Farm", "network": "BMTC", "operator": "BMTC", "public_transport": "platform"}}, {"type": "node", "id": 6842561205, "lat": 13.1060606, "lon": 77.6607318, "tags": {"bus": "yes", "name": "Hosuru Bande", "name:en": "Hosuru Bande", "network": "BMTC", "operator": "BMTC", "public_transport": "stop_position"}}, {"type": "node", "id": 6842561206, "lat": 13.1019047, "lon": 77.6583841, "tags": {"bus": "yes", "name": "Kadasonnappanahalli Gate", "name:en": "Kadasonnappanahalli Gate", "network": "BMTC", "operator": "BMTC", "public_transport": "stop_position"}}, {"type": "node", "id": 6842561207, "lat": 13.1019184, "lon": 77.658357, "tags": {"highway": "bus_stop", "name": "Kadasonnappanahalli Gate", "name:en": "Kadasonnappanahalli Gate", "network": "BMTC", "operator": "BMTC", "public_transport": "platform"}}, {"type": "node", "id": 6842561208, "lat": 13.0932874, "lon": 77.6542749, "tags": {"bus": "yes", "name": "Kannuru", "name:en": "Kannuru", "network": "BMTC", "operator": "BMTC", "public_transport": "stop_position"}}, {"type": "node", "id": 6842561209, "lat": 13.084351, "lon": 77.6542008, "tags": {"bus": "yes", "name": "Chikka Gubbi Cross", "name:en": "Chikka Gubbi Cross", "network": "BMTC", "operator": "BMTC", "public_transport": "stop_position"}}, {"type": "node", "id": 6842561210, "lat": 13.0843481, "lon": 77.6541567, "tags": {"highway": "bus_stop", "name": "Chikka Gubbi Cross", "name:en": "Chikka Gubbi Cross", "name:kn": "\u0c9a\u0cbf\u0c95\u0ccd\u0c95\u0c97\u0cc1\u0cac\u0ccd\u0cac\u0cbf \u0c95\u0ccd\u0cb0\u0cbe\u0cb8\u0ccd", "network": "BMTC", "operator": "BMTC", "public_transport": "platform"}}, {"type": "node", "id": 6842561213, "lat": 13.0815132, "lon": 77.6532806, "tags": {"bus": "yes", "name": "Nagenahalli", "name:en": "Nagenahalli", "name:kn": "\u0ca8\u0cbe\u0c97\u0cc7\u0ca8\u0cb9\u0cb3\u0ccd\u0cb3\u0cbf", "network": "BMTC", "operator": "BMTC", "public_transport": "stop_position"}}, {"type": "node", "id": 6842561214, "lat": 13.081456, "lon": 77.6532018, "tags": {"highway": "bus_stop", "name": "Nagenahalli", "name:en": "Nagenahalli", "name:kn": "\u0ca8\u0cbe\u0c97\u0cc7\u0ca8\u0cb9\u0cb3\u0ccd\u0cb3\u0cbf", "network": "BMTC", "operator": "BMTC", "public_transport": "platform"}}, {"type": "node", "id": 6842561215, "lat": 13.0779553, "lon": 77.653364, "tags": {"bus": "yes", "local_ref": "Chikkagubbi Cross", "name": "Byrathi Bande", "name:en": "Byrathi Bande", "name:kn": "\u0cac\u0cc8\u0cb0\u0ca4\u0cbf \u0cac\u0c82\u0ca1\u0cc6", "network": "BMTC", "operator": "BMTC", "public_transport": "stop_position"}}, {"type": "node", "id": 6842561216, "lat": 13.0755933, "lon": 77.6515281, "tags": {"highway": "bus_stop", "name": "Poornaprajna School", "name:en": "Poornaprajna School", "name:kn": "\u0caa\u0cc2\u0cb0\u0ccd\u0ca3\u0caa\u0ccd\u0cb0\u0c9c\u0ccd\u0c9e \u0cb6\u0cbe\u0cb2\u0cc6", "network": "BMTC", "operator": "BMTC", "public_transport": "platform"}}, {"type": "node", "id": 6842561217, "lat": 13.0712475, "lon": 77.651463, "tags": {"bus": "yes", "name": "Bible College Byrathi", "name:en": "Bible College Byrathi", "network": "BMTC", "operator": "BMTC", "public_transport": "stop_position"}}, {"type": "node", "id": 6842561218, "lat": 13.0712458, "lon": 77.6514302, "tags": {"highway": "bus_stop", "name": "Bible College Byrathi", "name:en": "Bible College Byrathi", "network": "BMTC", "operator": "BMTC", "public_transport": "platform"}}, {"type": "node", "id": 6842561219, "lat": 13.0571504, "lon": 77.6483369, "tags": {"bus": "yes", "name": "Byrathi Cross", "name:en": "Byrathi Cross", "network": "BMTC", "operator": "BMTC", "public_transport": "stop_position"}}, {"type": "node", "id": 7106084428, "lat": 13.1172639, "lon": 77.6340286, "tags": {"bus": "yes", "name": "Reva College", "name:en": "Reva College", "name:kn": "\u0cb0\u0cc7\u0cb5\u0cbe \u0c95\u0cbe\u0cb2\u0cc7\u0c9c\u0cc1", "network": "BMTC", "operator": "BMTC", "public_transport": "stop_position"}}, {"type": "node", "id": 7106084429, "lat": 13.1011193, "lon": 77.6349963, "tags": {"bus": "yes", "name": "Bellahalli Cross", "name:en": "Bellahalli Cross", "name:kn": "\u0cac\u0cc6\u0cb2\u0ccd\u0cb2\u0cb9\u0cb3\u0ccd\u0cb3\u0cbf \u0c95\u0ccd\u0cb0\u0cbe\u0cb8\u0ccd", "network": "BMTC", "operator": "BMTC", "public_transport": "stop_position"}}, {"type": "node", "id": 7106084430, "lat": 13.1011046, "lon": 77.6349413, "tags": {"highway": "bus_stop", "name": "Bellahalli Cross", "name:en": "Bellahalli Cross", "name:kn": "\u0cac\u0cc6\u0cb2\u0ccd\u0cb2\u0cb9\u0cb3\u0ccd\u0cb3\u0cbf \u0c95\u0ccd\u0cb0\u0cbe\u0cb8\u0ccd", "network": "BMTC", "operator": "BMTC", "public_transport": "platform"}}, {"type": "node", "id": 7106084431, "lat": 13.0887084, "lon": 77.6353788, "tags": {"bus": "yes", "name": "Thirumenahalli Cross (KNS College)", "name:en": "Thirumenahalli Cross (KNS College)", "network": "BMTC", "operator": "BMTC", "public_transport": "stop_position"}}, {"type": "node", "id": 7106084432, "lat": 13.084548, "lon": 77.6347166, "tags": {"bus": "yes", "name": "Chokkanahalli Gate", "name:en": "Chokkanahalli Gate", "network": "BMTC", "operator": "BMTC", "public_transport": "stop_position"}}, {"type": "node", "id": 7106084433, "lat": 13.0803199, "lon": 77.6340481, "tags": {"bus": "yes", "name": "Noor Nagara", "name:en": "Noor Nagara", "name:kn": "\u0ca8\u0cc2\u0cb0\u0ccd \u0ca8\u0c97\u0cb0", "network": "BMTC", "operator": "BMTC", "public_transport": "stop_position"}}, {"type": "node", "id": 7106320877, "lat": 13.0366933, "lon": 77.6405238, "tags": {"bus": "yes", "name": "Hennur Bande", "name:en": "Hennur Bande", "name:kn": "\u0cb9\u0cc6\u0ca3\u0ccd\u0ca3\u0cc2\u0cb0\u0cc1 \u0cac\u0c82\u0ca1\u0cc6", "network": "BMTC", "operator": "BMTC", "public_transport": "stop_position"}}, {"type": "node", "id": 7106320878, "lat": 13.0434593, "lon": 77.6423053, "tags": {"bench": "no", "covered": "no", "highway": "bus_stop", "name": "Janaki Rama Layout", "name:en": "Janaki Rama Layout", "name:kn": "\u0c9c\u0cbe\u0ca8\u0c95\u0cbf\u0cb0\u0cbe\u0cae \u0cac\u0ca1\u0cbe\u0cb5\u0ca3\u0cc6", "network": "BMTC", "operator": "BMTC", "public_transport": "platform", "shelter": "no"}}, {"type": "node", "id": 7106320879, "lat": 13.0483355, "lon": 77.6453177, "tags": {"bus": "yes", "name": "Geddalahalli", "name:en": "Geddalahalli", "name:kn": "\u0c97\u0cc6\u0ca6\u0ccd\u0ca6\u0cb2\u0cb9\u0cb3\u0ccd\u0cb3\u0cbf", "network": "BMTC", "operator": "BMTC", "public_transport": "stop_position"}}, {"type": "node", "id": 7106320880, "lat": 13.0526558, "lon": 77.6460104, "tags": {"bus": "yes", "name": "K Narayanapura Cross", "name:en": "K Narayanapura Cross", "network": "BMTC", "operator": "BMTC", "public_transport": "stop_position"}}, {"type": "node", "id": 7108468304, "lat": 13.0367124, "lon": 77.6547535, "tags": {"bus": "yes", "name": "Horamavu Agara", "name:en": "Horamavu Agara", "name:kn": "\u0cb9\u0cca\u0cb0\u0cae\u0cbe\u0cb5\u0cc1 \u0c85\u0c97\u0cb0", "network": "BMTC", "operator": "BMTC", "public_transport": "stop_position"}}, {"type": "node", "id": 7140581376, "lat": 13.0398404, "lon": 77.6414434, "tags": {"bus": "yes", "name": "Hennur", "name:en": "Hennur", "name:kn": "\u0cb9\u0cc6\u0ca3\u0ccd\u0ca3\u0cc2\u0cb0\u0cc1", "network": "BMTC", "operator": "BMTC", "public_transport": "stop_position"}}, {"type": "node", "id": 7140581377, "lat": 13.0398416, "lon": 77.6413592, "tags": {"bench": "no", "highway": "bus_stop", "name": "Hennur", "name:en": "Hennur", "name:kn": "\u0cb9\u0cc6\u0ca3\u0ccd\u0ca3\u0cc2\u0cb0\u0cc1", "network": "BMTC", "operator": "BMTC", "public_transport": "platform", "shelter": "no"}}, {"type": "node", "id": 7140581380, "lat": 13.0666595, "lon": 77.6408465, "tags": {"bus": "yes", "name": "K Narayanapura Main Bus Stand", "name:en": "K Narayanapura Main Bus Stand", "network": "BMTC", "operator": "BMTC", "public_transport": "stop_position"}}, {"type": "node", "id": 7140581381, "lat": 13.0664906, "lon": 77.640751, "tags": {"bus": "yes", "highway": "bus_stop", "loc_name": "K.NARAYANAPURA", "name": "K Narayanapura Main Bus Stand", "name:en": "K Narayanapura Main Bus Stand", "network": "BMTC", "operator": "BMTC", "public_transport": "platform"}}, {"type": "node", "id": 7141016441, "lat": 13.0657644, "lon": 77.6430215, "tags": {"bus": "yes", "name": "BDS Nagara", "name:en": "BDS Nagara", "network": "BMTC", "operator": "BMTC", "public_transport": "stop_position"}}, {"type": "node", "id": 7141016442, "lat": 13.0657342, "lon": 77.6429906, "tags": {"bus": "yes", "highway": "bus_stop", "loc_name": "K.NARAYANAPURA", "name": "BDS Nagara", "name:en": "BDS Nagara", "network": "BMTC", "operator": "BMTC", "public_transport": "platform"}}, {"type": "node", "id": 7141286367, "lat": 13.0367175, "lon": 77.6549656, "tags": {"bus": "yes", "name": "Horamavu Agara", "name:en": "Horamavu Agara", "name:kn": "\u0cb9\u0cca\u0cb0\u0cae\u0cbe\u0cb5\u0cc1 \u0c85\u0c97\u0cb0", "network": "BMTC", "operator": "BMTC", "public_transport": "stop_position"}}, {"type": "node", "id": 7141286368, "lat": 13.0367725, "lon": 77.6549479, "tags": {"highway": "bus_stop", "loc_name": "HORAMAVU AGARA", "name": "Horamavu Agara", "name:en": "Horamavu Agara", "name:kn": "\u0cb9\u0cca\u0cb0\u0cae\u0cbe\u0cb5\u0cc1 \u0c85\u0c97\u0cb0", "network": "BMTC", "operator": "BMTC", "public_transport": "platform"}}, {"type": "node", "id": 7141286369, "lat": 13.0377788, "lon": 77.6504602, "tags": {"bus": "yes", "name": "Shilpa Bakery", "name:en": "Shilpa Bakery", "name:kn": "\u0cb6\u0cbf\u0cb2\u0ccd\u0caa \u0cac\u0cc7\u0c95\u0cb0\u0cbf", "network": "BMTC", "operator": "BMTC", "public_transport": "stop_position"}}, {"type": "node", "id": 7141286370, "lat": 13.0386081, "lon": 77.6465206, "tags": {"bus": "yes", "name": "Vaddarapalya", "name:en": "Vaddarapalya", "name:kn": "\u0cb5\u0ca1\u0ccd\u0ca1\u0cb0\u0caa\u0cbe\u0cb3\u0ccd\u0caf", "network": "BMTC", "operator": "BMTC", "public_transport": "stop_position"}}, {"type": "node", "id": 7141286371, "lat": 13.0390694, "lon": 77.6439857, "tags": {"bus": "yes", "highway": "bus_stop", "name": "Hennur", "name:en": "Hennur", "name:kn": "\u0cb9\u0cc6\u0ca3\u0ccd\u0ca3\u0cc2\u0cb0\u0cc1", "network": "BMTC", "operator": "BMTC", "public_transport": "platform"}}, {"type": "node", "id": 7256979623, "lat": 13.0368297, "lon": 77.6409185, "tags": {"bus": "yes", "name": "Hennuru Bande", "name:en": "Hennur Bande", "name:kn": "\u0cb9\u0cc6\u0ca3\u0ccd\u0ca3\u0cc2\u0cb0\u0cc1 \u0cac\u0c82\u0ca1\u0cc6", "network": "BMTC", "operator": "BMTC", "public_transport": "stop_position"}}, {"type": "node", "id": 7256979676, "lat": 13.0437112, "lon": 77.6427715, "tags": {"bus": "yes", "name": "Janaki Rama Layout", "name:en": "Janaki Rama Layout", "name:kn": "\u0c9c\u0cbe\u0ca8\u0c95\u0cbf\u0cb0\u0cbe\u0cae \u0cac\u0ca1\u0cbe\u0cb5\u0ca3\u0cc6", "network": "BMTC", "operator": "BMTC", "public_transport": "stop_position"}}, {"type": "node", "id": 7256979677, "lat": 13.0436506, "lon": 77.6427881, "tags": {"bench": "no", "bus": "yes", "covered": "no", "highway": "bus_stop", "name": "Janaki Rama Layout", "name:en": "Janaki Rama Layout", "name:kn": "\u0c9c\u0cbe\u0ca8\u0c95\u0cbf\u0cb0\u0cbe\u0cae \u0cac\u0ca1\u0cbe\u0cb5\u0ca3\u0cc6", "network": "BMTC", "network:wikidata": "Q3345039", "operator": "BMTC", "public_transport": "platform", "shelter": "no"}}, {"type": "node", "id": 9363060449, "lat": 13.0400484, "lon": 77.6794318, "tags": {"bus": "yes", "highway": "bus_stop", "loc_name": "K.CHANNASANDRA", "name": "K Channasandra", "name:en": "K Channasandra", "network": "BMTC", "operator": "BMTC", "public_transport": "platform"}}, {"type": "node", "id": 10731130863, "lat": 13.0624591, "lon": 77.642194, "tags": {"bench": "yes", "bus": "yes", "covered": "yes", "highway": "bus_stop", "name": "K Narayanapura", "name:kn": "\u0c95\u0cc6 \u0ca8\u0cbe\u0cb0\u0cbe\u0caf\u0ca3\u0caa\u0cc1\u0cb0", "network": "BMTC", "operator": "BMTC", "public_transport": "platform", "shelter": "yes"}}, {"type": "node", "id": 11598213071, "lat": 13.0554373, "lon": 77.7058824, "tags": {"alt_name": "Adur", "bus": "yes", "name": "Aduru", "name:en": "Aduru", "network": "BMTC", "operator": "BMTC", "public_transport": "stop_position"}}, {"type": "node", "id": 11752046672, "lat": 13.0396395, "lon": 77.668144, "tags": {"bus": "yes", "highway": "bus_stop", "name": "Kanakagiri", "name:kn": "\u0c95\u0ca8\u0c95\u0c97\u0cbf\u0cb0\u0cbf", "network": "BMTC", "network:wikidata": "Q3345039", "operator": "BMTC", "public_transport": "platform"}}, {"type": "node", "id": 11872033077, "lat": 13.0872763, "lon": 77.6547621, "tags": {"bus": "yes", "name": "Kanakshree Layout Chikka Gubbi", "name:en": "Kanakshree Layout Chikka Gubbi", "network": "BMTC", "operator": "BMTC", "public_transport": "stop_position"}}, {"type": "node", "id": 11872033078, "lat": 13.0872951, "lon": 77.6546904, "tags": {"highway": "bus_stop", "name": "Kanakshree Layout Chikka Gubbi", "name:en": "Kanakshree Layout Chikka Gubbi", "network": "BMTC", "operator": "BMTC", "public_transport": "platform"}}, {"type": "node", "id": 12001070312, "lat": 13.0391348, "lon": 77.677677, "tags": {"highway": "bus_stop", "loc_name": "VAISHNAVI LAYOUT", "name": "Pooja Garden", "name:en": "Pooja Garden", "network": "BMTC", "operator": "BMTC", "public_transport": "platform"}}, {"type": "node", "id": 12001070313, "lat": 13.0400901, "lon": 77.6794292, "tags": {"bus": "yes", "name": "K Channasandra", "name:en": "K Channasandra", "network": "BMTC", "operator": "BMTC", "public_transport": "stop_position"}}, {"type": "node", "id": 12001070320, "lat": 13.0401523, "lon": 77.6794578, "tags": {"bus": "yes", "name": "K Channsandra", "name:en": "K Channsandra", "network": "BMTC", "operator": "BMTC", "public_transport": "stop_position"}}, {"type": "node", "id": 12001070322, "lat": 13.0391705, "lon": 77.6775803, "tags": {"bus": "yes", "name": "Pooja Garden", "name:en": "Pooja Garden", "network": "BMTC", "operator": "BMTC", "public_transport": "stop_position"}}, {"type": "node", "id": 12478368827, "lat": 12.9968748, "lon": 77.66293}, {"type": "node", "id": 12478368828, "lat": 12.9968438, "lon": 77.6629123}, {"type": "node", "id": 12478368829, "lat": 12.9967755, "lon": 77.6628956}, {"type": "node", "id": 12478368830, "lat": 12.9967406, "lon": 77.6628971}, {"type": "node", "id": 12478368831, "lat": 12.9967065, "lon": 77.662905}, {"type": "node", "id": 12478368832, "lat": 12.9968102, "lon": 77.6629007}, {"type": "node", "id": 12478368833, "lat": 13.1729571, "lon": 77.5653705}, {"type": "node", "id": 12478368834, "lat": 13.1726895, "lon": 77.5653487}, {"type": "node", "id": 12478368835, "lat": 13.1723707, "lon": 77.5653281}, {"type": "node", "id": 12478368836, "lat": 13.1720016, "lon": 77.5653128}, {"type": "node", "id": 12478368837, "lat": 13.1717236, "lon": 77.5653201}, {"type": "node", "id": 12478368838, "lat": 13.1713923, "lon": 77.5653353}, {"type": "node", "id": 12478368839, "lat": 13.1709908, "lon": 77.5653573}, {"type": "node", "id": 12478368840, "lat": 13.1705606, "lon": 77.5654144}, {"type": "node", "id": 12478368841, "lat": 13.1701438, "lon": 77.565479}, {"type": "node", "id": 12478368842, "lat": 13.168717, "lon": 77.5657867}, {"type": "node", "id": 12478368843, "lat": 13.1681945, "lon": 77.5659018}, {"type": "node", "id": 12478368844, "lat": 13.1587258, "lon": 77.567903}, {"type": "node", "id": 12478368845, "lat": 13.1473932, "lon": 77.5703287}, {"type": "node", "id": 12478368846, "lat": 13.1377872, "lon": 77.5723557}, {"type": "node", "id": 12478368847, "lat": 13.1373635, "lon": 77.5724591}, {"type": "node", "id": 12478368848, "lat": 13.1369442, "lon": 77.5725779}, {"type": "node", "id": 12478368849, "lat": 13.1365101, "lon": 77.5727367}, {"type": "node", "id": 12478368850, "lat": 13.136057, "lon": 77.5729341}, {"type": "node", "id": 12478368851, "lat": 13.1357265, "lon": 77.5730987}, {"type": "node", "id": 12478368852, "lat": 13.1352997, "lon": 77.573333}, {"type": "node", "id": 12478368853, "lat": 13.1312931, "lon": 77.5758135}, {"type": "node", "id": 12478368854, "lat": 13.1274881, "lon": 77.5782069}, {"type": "node", "id": 12478368855, "lat": 13.1192546, "lon": 77.5834457}, {"type": "node", "id": 12478368856, "lat": 13.1148416, "lon": 77.5862283}, {"type": "node", "id": 12478368857, "lat": 13.1146914, "lon": 77.5863217}, {"type": "node", "id": 12478368858, "lat": 13.1125771, "lon": 77.5876487}, {"type": "node", "id": 12478368859, "lat": 13.1121648, "lon": 77.5879139}, {"type": "node", "id": 12478368860, "lat": 13.1118836, "lon": 77.5881352}, {"type": "node", "id": 12478368861, "lat": 13.1117386, "lon": 77.5882358}, {"type": "node", "id": 12478368862, "lat": 13.1111888, "lon": 77.5885939}, {"type": "node", "id": 12478368863, "lat": 13.1108805, "lon": 77.5887789}, {"type": "node", "id": 12478368864, "lat": 13.1104938, "lon": 77.5890069}, {"type": "node", "id": 12478368865, "lat": 13.1101516, "lon": 77.5891973}, {"type": "node", "id": 12478368866, "lat": 13.1098172, "lon": 77.589361}, {"type": "node", "id": 12478368867, "lat": 13.1095064, "lon": 77.5894978}, {"type": "node", "id": 12478368868, "lat": 13.1089917, "lon": 77.5897351}, {"type": "node", "id": 12478368869, "lat": 13.1065701, "lon": 77.5908308}, {"type": "node", "id": 12478368870, "lat": 13.1012135, "lon": 77.5932877}, {"type": "node", "id": 12478368871, "lat": 13.1000271, "lon": 77.5938191}, {"type": "node", "id": 12478368872, "lat": 13.0996324, "lon": 77.5940092}, {"type": "node", "id": 12478368873, "lat": 13.09925, "lon": 77.594176}, {"type": "node", "id": 12478368874, "lat": 13.0987432, "lon": 77.5944146}, {"type": "node", "id": 12478368875, "lat": 13.0965755, "lon": 77.5953681}, {"type": "node", "id": 12478368876, "lat": 13.096287, "lon": 77.5955}, {"type": "node", "id": 12478368877, "lat": 13.0936314, "lon": 77.5967144}, {"type": "node", "id": 12478368878, "lat": 13.093118, "lon": 77.5969517}, {"type": "node", "id": 12478368879, "lat": 13.0923108, "lon": 77.5973337}, {"type": "node", "id": 12478368880, "lat": 13.0916617, "lon": 77.5976263}, {"type": "node", "id": 12478368881, "lat": 13.0912368, "lon": 77.5978316}, {"type": "node", "id": 12478368882, "lat": 13.0908325, "lon": 77.5980517}, {"type": "node", "id": 12478368883, "lat": 13.0904699, "lon": 77.5982616}, {"type": "node", "id": 12478368884, "lat": 13.0901611, "lon": 77.5984617}, {"type": "node", "id": 12478368885, "lat": 13.0898564, "lon": 77.5986832}, {"type": "node", "id": 12478368886, "lat": 13.0894825, "lon": 77.5989881}, {"type": "node", "id": 12478368887, "lat": 13.0891526, "lon": 77.5993047}, {"type": "node", "id": 12478368888, "lat": 13.0887466, "lon": 77.599729}, {"type": "node", "id": 12478368889, "lat": 13.0795046, "lon": 77.6099154}, {"type": "node", "id": 12478368890, "lat": 13.0792747, "lon": 77.610167}, {"type": "node", "id": 12478368891, "lat": 13.0790148, "lon": 77.6104574}, {"type": "node", "id": 12478368892, "lat": 13.0770667, "lon": 77.6126156}, {"type": "node", "id": 12478368893, "lat": 13.0770121, "lon": 77.6126771}, {"type": "node", "id": 12478368894, "lat": 13.0714546, "lon": 77.6192156}, {"type": "node", "id": 12478368895, "lat": 13.0705233, "lon": 77.6203132}, {"type": "node", "id": 12478368896, "lat": 13.0681286, "lon": 77.6230285}, {"type": "node", "id": 12478368897, "lat": 13.065668, "lon": 77.6258381}, {"type": "node", "id": 12478368898, "lat": 13.0645262, "lon": 77.6271533}, {"type": "node", "id": 12478368899, "lat": 13.0631806, "lon": 77.6286723}, {"type": "node", "id": 12478368900, "lat": 13.0608133, "lon": 77.6313723}, {"type": "node", "id": 12478378501, "lat": 13.0595982, "lon": 77.6327737}, {"type": "node", "id": 12478378502, "lat": 13.0593965, "lon": 77.6330228}, {"type": "node", "id": 12478378503, "lat": 13.0573204, "lon": 77.6354066}, {"type": "node", "id": 12478378504, "lat": 13.0569013, "lon": 77.6358347}, {"type": "node", "id": 12478378505, "lat": 13.0564608, "lon": 77.6362203}, {"type": "node", "id": 12478378506, "lat": 13.0560757, "lon": 77.6365202}, {"type": "node", "id": 12478378507, "lat": 13.0556413, "lon": 77.6368131}, {"type": "node", "id": 12478378508, "lat": 13.0477692, "lon": 77.6416813}, {"type": "node", "id": 12478378509, "lat": 13.0448487, "lon": 77.6434936}, {"type": "node", "id": 12478378510, "lat": 13.0446049, "lon": 77.6436698}, {"type": "node", "id": 12478378511, "lat": 13.0430924, "lon": 77.6448517}, {"type": "node", "id": 12478378512, "lat": 13.0382374, "lon": 77.6487903}, {"type": "node", "id": 12478378513, "lat": 13.0358465, "lon": 77.6506893}, {"type": "node", "id": 12478378514, "lat": 13.032146, "lon": 77.6537517}, {"type": "node", "id": 12478378515, "lat": 13.0309213, "lon": 77.6547233}, {"type": "node", "id": 12478378516, "lat": 13.0263974, "lon": 77.6584226}, {"type": "node", "id": 12478378517, "lat": 13.0233771, "lon": 77.6608967}, {"type": "node", "id": 12478378518, "lat": 13.0228579, "lon": 77.6612978}, {"type": "node", "id": 12478378519, "lat": 13.0222779, "lon": 77.6616869}, {"type": "node", "id": 12478378520, "lat": 13.0216941, "lon": 77.6620077}, {"type": "node", "id": 12478378521, "lat": 13.021026, "lon": 77.662317}, {"type": "node", "id": 12478378522, "lat": 13.0204747, "lon": 77.6625092}, {"type": "node", "id": 12478378523, "lat": 13.0199887, "lon": 77.6626455}, {"type": "node", "id": 12478378524, "lat": 13.0195811, "lon": 77.6627264}, {"type": "node", "id": 12478378525, "lat": 13.0190448, "lon": 77.6628133}, {"type": "node", "id": 12478378526, "lat": 13.0187226, "lon": 77.6628456}, {"type": "node", "id": 12478378527, "lat": 13.0155507, "lon": 77.6630712}, {"type": "node", "id": 12478378528, "lat": 13.0154252, "lon": 77.6630802}, {"type": "node", "id": 12478378529, "lat": 13.0149217, "lon": 77.663116}, {"type": "node", "id": 12478378530, "lat": 13.0112082, "lon": 77.6633802}, {"type": "node", "id": 12478378531, "lat": 13.0099106, "lon": 77.6634777}, {"type": "node", "id": 12478378532, "lat": 13.009087, "lon": 77.6635386}, {"type": "node", "id": 12478378533, "lat": 13.0059996, "lon": 77.663766}, {"type": "node", "id": 12478378534, "lat": 13.0059189, "lon": 77.6637719}, {"type": "node", "id": 12478378535, "lat": 13.005572, "lon": 77.6637975}, {"type": "node", "id": 12478378536, "lat": 13.0034858, "lon": 77.6639107}, {"type": "node", "id": 12478378537, "lat": 13.0033376, "lon": 77.663919}, {"type": "node", "id": 12478378538, "lat": 13.0016099, "lon": 77.6640159}, {"type": "node", "id": 12478378539, "lat": 13.000816, "lon": 77.6640737}, {"type": "node", "id": 12478378540, "lat": 12.9998823, "lon": 77.6641645}, {"type": "node", "id": 12478378541, "lat": 12.9991212, "lon": 77.6642337}, {"type": "node", "id": 12478378542, "lat": 12.9989519, "lon": 77.6642378}, {"type": "node", "id": 12478378543, "lat": 12.9988044, "lon": 77.6642292}, {"type": "node", "id": 12478378544, "lat": 12.9986427, "lon": 77.6642161}, {"type": "node", "id": 12478378545, "lat": 12.9984794, "lon": 77.6641838}, {"type": "node", "id": 12478378546, "lat": 12.9983562, "lon": 77.6641525}, {"type": "node", "id": 12478378547, "lat": 12.9982205, "lon": 77.66411}, {"type": "node", "id": 12478378548, "lat": 12.998105, "lon": 77.6640653}, {"type": "node", "id": 12478378549, "lat": 12.9979708, "lon": 77.6640047}, {"type": "node", "id": 12478378550, "lat": 12.9976722, "lon": 77.6638188}, {"type": "node", "id": 12478378551, "lat": 12.9975083, "lon": 77.6636962}, {"type": "node", "id": 12478378552, "lat": 12.9973548, "lon": 77.6635576}, {"type": "node", "id": 12478378553, "lat": 12.9971631, "lon": 77.6633358}, {"type": "node", "id": 12478378554, "lat": 12.9969021, "lon": 77.6629532}, {"type": "node", "id": 12478378555, "lat": 12.8077116, "lon": 77.7106593}, {"type": "node", "id": 12478378556, "lat": 12.807761, "lon": 77.7106653}, {"type": "node", "id": 12478378557, "lat": 12.8097493, "lon": 77.7108941}, {"type": "node", "id": 12478378558, "lat": 12.8098791, "lon": 77.7109178}, {"type": "node", "id": 12478378559, "lat": 12.8112928, "lon": 77.7110582}, {"type": "node", "id": 12478378560, "lat": 12.8131833, "lon": 77.7112551}, {"type": "node", "id": 12478378561, "lat": 12.8153064, "lon": 77.7114658}, {"type": "node", "id": 12478378562, "lat": 12.8176528, "lon": 77.7117208}, {"type": "node", "id": 12478378563, "lat": 12.8200304, "lon": 77.7119751}, {"type": "node", "id": 12478378564, "lat": 12.823537, "lon": 77.7123439}, {"type": "node", "id": 12478378565, "lat": 12.8272063, "lon": 77.7127202}, {"type": "node", "id": 12478378566, "lat": 12.8286421, "lon": 77.7128626}, {"type": "node", "id": 12478378567, "lat": 12.829956, "lon": 77.7130171}, {"type": "node", "id": 12478378568, "lat": 12.8310021, "lon": 77.71306}, {"type": "node", "id": 12478378569, "lat": 12.8319477, "lon": 77.7130514}, {"type": "node", "id": 12478378570, "lat": 12.832793, "lon": 77.7129827}, {"type": "node", "id": 12478378571, "lat": 12.8340483, "lon": 77.7128797}, {"type": "node", "id": 12478378572, "lat": 12.8361816, "lon": 77.712684}, {"type": "node", "id": 12478378573, "lat": 12.8393174, "lon": 77.7123973}, {"type": "node", "id": 12478378574, "lat": 12.8414544, "lon": 77.7122017}, {"type": "node", "id": 12478378575, "lat": 12.8456187, "lon": 77.7118232}, {"type": "node", "id": 12478378576, "lat": 12.8473982, "lon": 77.7116615}, {"type": "node", "id": 12478378577, "lat": 12.8527159, "lon": 77.711159}, {"type": "node", "id": 12478378578, "lat": 12.8569952, "lon": 77.7107066}, {"type": "node", "id": 12478378579, "lat": 12.8601238, "lon": 77.7104547}, {"type": "node", "id": 12478378580, "lat": 12.8632998, "lon": 77.7101499}, {"type": "node", "id": 12478378581, "lat": 12.8668359, "lon": 77.7098095}, {"type": "node", "id": 12478378582, "lat": 12.8668436, "lon": 77.7098088}, {"type": "node", "id": 12478378583, "lat": 12.8686557, "lon": 77.7096411}, {"type": "node", "id": 12478378584, "lat": 12.8700261, "lon": 77.7095142}, {"type": "node", "id": 12478378585, "lat": 12.8706864, "lon": 77.7094531}, {"type": "node", "id": 12478378586, "lat": 12.8708222, "lon": 77.7094405}, {"type": "node", "id": 12478378587, "lat": 12.871508, "lon": 77.7093745}, {"type": "node", "id": 12478378588, "lat": 12.877093, "lon": 77.708837}, {"type": "node", "id": 12478378589, "lat": 12.884138, "lon": 77.708159}, {"type": "node", "id": 12478378590, "lat": 12.8922036, "lon": 77.7073866}, {"type": "node", "id": 12478378591, "lat": 12.8930624, "lon": 77.7073022}, {"type": "node", "id": 12478378592, "lat": 12.9019151, "lon": 77.7064522}, {"type": "node", "id": 12478378593, "lat": 12.9021249, "lon": 77.706432}, {"type": "node", "id": 12478378594, "lat": 12.9022813, "lon": 77.706417}, {"type": "node", "id": 12478378595, "lat": 12.9033632, "lon": 77.7063129}, {"type": "node", "id": 12478378596, "lat": 12.9068136, "lon": 77.7059809}, {"type": "node", "id": 12478378597, "lat": 12.9087686, "lon": 77.7057921}, {"type": "node", "id": 12478378598, "lat": 12.9115558, "lon": 77.7055389}, {"type": "node", "id": 12478378599, "lat": 12.9158055, "lon": 77.7051638}, {"type": "node", "id": 12478378600, "lat": 12.9165394, "lon": 77.7050928}, {"type": "node", "id": 12478378601, "lat": 12.9173679, "lon": 77.7050691}, {"type": "node", "id": 12478378602, "lat": 12.9180071, "lon": 77.7051402}, {"type": "node", "id": 12478378603, "lat": 12.9186227, "lon": 77.7052112}, {"type": "node", "id": 12478378604, "lat": 12.919194, "lon": 77.7053459}, {"type": "node", "id": 12478378605, "lat": 12.9211321, "lon": 77.705803}, {"type": "node", "id": 12478378606, "lat": 12.9231317, "lon": 77.7062743}, {"type": "node", "id": 12478378607, "lat": 12.9261669, "lon": 77.7069801}, {"type": "node", "id": 12478378608, "lat": 12.9296509, "lon": 77.7077906}, {"type": "node", "id": 12478378609, "lat": 12.9305782, "lon": 77.7079735}, {"type": "node", "id": 12478378610, "lat": 12.9311753, "lon": 77.7080499}, {"type": "node", "id": 12478378611, "lat": 12.9317459, "lon": 77.7080767}, {"type": "node", "id": 12478378612, "lat": 12.9323721, "lon": 77.708029}, {"type": "node", "id": 12478378613, "lat": 12.9334642, "lon": 77.7078959}, {"type": "node", "id": 12478378614, "lat": 12.934674, "lon": 77.7077411}, {"type": "node", "id": 12478378615, "lat": 12.9373132, "lon": 77.7073886}, {"type": "node", "id": 12478378616, "lat": 12.9417426, "lon": 77.7067519}, {"type": "node", "id": 12478378617, "lat": 12.9421875, "lon": 77.706688}, {"type": "node", "id": 12478378618, "lat": 12.9424148, "lon": 77.7066553}, {"type": "node", "id": 12478378619, "lat": 12.9470312, "lon": 77.7060398}, {"type": "node", "id": 12478378620, "lat": 12.9482853, "lon": 77.7058396}, {"type": "node", "id": 12478378621, "lat": 12.9522144, "lon": 77.7053141}, {"type": "node", "id": 12478378622, "lat": 12.9542164, "lon": 77.7050231}, {"type": "node", "id": 12478378623, "lat": 12.9575424, "lon": 77.7045957}, {"type": "node", "id": 12478378624, "lat": 12.9638528, "lon": 77.7037262}, {"type": "node", "id": 12478378625, "lat": 12.96614, "lon": 77.7034024}, {"type": "node", "id": 12478378626, "lat": 12.9674983, "lon": 77.7031893}, {"type": "node", "id": 12478378627, "lat": 12.9681649, "lon": 77.7030143}, {"type": "node", "id": 12478378628, "lat": 12.9688465, "lon": 77.7027579}, {"type": "node", "id": 12478378629, "lat": 12.9695415, "lon": 77.7023954}, {"type": "node", "id": 12478378630, "lat": 12.9704919, "lon": 77.7018258}, {"type": "node", "id": 12478378631, "lat": 12.9706955, "lon": 77.7016576}, {"type": "node", "id": 12478378632, "lat": 12.9710364, "lon": 77.701376}, {"type": "node", "id": 12478378633, "lat": 12.9716756, "lon": 77.7007368}, {"type": "node", "id": 12478378634, "lat": 12.9721798, "lon": 77.7000727}, {"type": "node", "id": 12478378635, "lat": 12.9728244, "lon": 77.6990229}, {"type": "node", "id": 12478378636, "lat": 12.9731045, "lon": 77.6985151}, {"type": "node", "id": 12478378637, "lat": 12.9734631, "lon": 77.6978777}, {"type": "node", "id": 12478378638, "lat": 12.9743777, "lon": 77.6962522}, {"type": "node", "id": 12478378639, "lat": 12.9756143, "lon": 77.6940696}, {"type": "node", "id": 12478378640, "lat": 12.9760308, "lon": 77.6933588}, {"type": "node", "id": 12478378641, "lat": 12.9761208, "lon": 77.6932052}, {"type": "node", "id": 12478378642, "lat": 12.9774211, "lon": 77.690886}, {"type": "node", "id": 12478378643, "lat": 12.9787736, "lon": 77.6885347}, {"type": "node", "id": 12478378644, "lat": 12.9801308, "lon": 77.6861304}, {"type": "node", "id": 12478378645, "lat": 12.9814358, "lon": 77.6838334}, {"type": "node", "id": 12478378646, "lat": 12.9824189, "lon": 77.682093}, {"type": "node", "id": 12478378647, "lat": 12.9833769, "lon": 77.6803661}, {"type": "node", "id": 12478378648, "lat": 12.9836991, "lon": 77.679851}, {"type": "node", "id": 12478378649, "lat": 12.9841417, "lon": 77.6790393}, {"type": "node", "id": 12478378650, "lat": 12.9865415, "lon": 77.6747665}, {"type": "node", "id": 12478378651, "lat": 12.987588, "lon": 77.6729668}, {"type": "node", "id": 12478378652, "lat": 12.9879154, "lon": 77.6724036}, {"type": "node", "id": 12478378653, "lat": 12.9883267, "lon": 77.6716794}, {"type": "node", "id": 12478378654, "lat": 12.9889104, "lon": 77.6706516}, {"type": "node", "id": 12478378655, "lat": 12.9898047, "lon": 77.6690769}, {"type": "node", "id": 12478378656, "lat": 12.9905601, "lon": 77.6677766}, {"type": "node", "id": 12478378657, "lat": 12.990841, "lon": 77.6673068}, {"type": "node", "id": 12478378658, "lat": 12.99108, "lon": 77.6669657}, {"type": "node", "id": 12478378659, "lat": 12.9913544, "lon": 77.6666299}, {"type": "node", "id": 12478378660, "lat": 12.9916498, "lon": 77.6662887}, {"type": "node", "id": 12478378661, "lat": 12.9919603, "lon": 77.6659794}, {"type": "node", "id": 12478378662, "lat": 12.9922708, "lon": 77.6657131}, {"type": "node", "id": 12478378663, "lat": 12.9924732, "lon": 77.6655357}, {"type": "node", "id": 12478378664, "lat": 12.9926756, "lon": 77.6653582}, {"type": "node", "id": 12478378665, "lat": 12.9929445, "lon": 77.6651749}, {"type": "node", "id": 12478378666, "lat": 12.9944673, "lon": 77.6642356}, {"type": "node", "id": 12478378667, "lat": 12.9945779, "lon": 77.6641616}, {"type": "node", "id": 12478378668, "lat": 12.9950556, "lon": 77.663881}, {"type": "node", "id": 12478378669, "lat": 12.9966744, "lon": 77.662919}, {"type": "node", "id": 13328330066, "lat": 13.0118414, "lon": 77.6632915, "tags": {"name": "Channasandra", "name:kn": "\u0c9a\u0ca8\u0ccd\u0ca8\u0cb8\u0c82\u0ca6\u0ccd\u0cb0", "public_transport": "stop_position", "railway": "stop", "train": "yes"}}, {"type": "way", "id": 26777460, "nodes": [442438117, 6069075643, 6069075647, 6069075649, 293713787, 6069075642, 6069075634, 13328330066, 6069075660, 6069075663, 6069075666, 6069075639, 308217291, 308217290, 308217289, 308217288, 5073663773, 308217287, 308217286, 5073663777, 308217285, 308217284, 308217283, 595302080, 308217282, 308217281, 308217280, 333823338], "tags": {"electrified": "contact_line", "frequency": "50", "gauge": "1676", "passenger_lines": "2", "railway": "rail", "usage": "main", "voltage": "25000"}}, {"type": "way", "id": 30288224, "nodes": [333823338, 333823323], "tags": {"bridge": "yes", "electrified": "contact_line", "frequency": "50", "gauge": "1676", "layer": "1", "passenger_lines": "2", "railway": "rail", "usage": "main", "voltage": "25000"}}, {"type": "way", "id": 520581574, "nodes": [6069075638, 6069075648, 6069075644, 6069075652, 5073663765, 6069075641, 5073663768, 6069075661, 6069075664, 6069075674, 6069075665, 6069075640, 5073663769, 5073663770, 5073663771, 5073663772, 5073663774, 5073663775, 5073663776, 5073663778, 5073663779, 5073663781, 5073663782, 5073663783, 5073663784, 5073663785], "tags": {"electrified": "contact_line", "frequency": "50", "gauge": "1676", "passenger_lines": "2", "railway": "rail", "usage": "main", "voltage": "25000"}}, {"type": "way", "id": 520581576, "nodes": [5073663785, 5073663786], "tags": {"bridge": "yes", "electrified": "contact_line", "frequency": "50", "gauge": "1676", "layer": "1", "passenger_lines": "2", "railway": "rail", "usage": "main", "voltage": "25000"}}, {"type": "way", "id": 611279644, "nodes": [333823323, 308217277, 308217276, 308217275, 308217274, 308217273, 308217272, 4526401066], "tags": {"electrified": "contact_line", "frequency": "50", "gauge": "1676", "passenger_lines": "2", "railway": "rail", "usage": "main", "voltage": "25000"}}, {"type": "way", "id": 611279646, "nodes": [5073663786, 5073663787, 5073663788, 5073663789, 5073663790, 5073663791, 5073663792, 5073663793], "tags": {"electrified": "contact_line", "frequency": "50", "gauge": "1676", "passenger_lines": "2", "railway": "rail", "usage": "main", "voltage": "25000"}}, {"type": "way", "id": 1348981604, "nodes": [12478368833, 12478368834, 12478368835, 12478368836, 12478368837, 12478368838, 12478368839, 12478368840, 12478368841, 12478368842, 12478368843, 12478368844, 12478368845, 12478368846, 12478368847, 12478368848, 12478368849, 12478368850, 12478368851, 12478368852, 12478368853, 12478368854, 12478368855, 12478368856, 12478368857, 12478368858, 12478368859, 12478368860, 12478368861, 12478368862, 12478368863, 12478368864, 12478368865, 12478368866, 12478368867, 12478368868, 12478368869, 12478368870, 12478368871, 12478368872, 12478368873, 12478368874, 12478368875, 12478368876, 12478368877, 12478368878, 12478368879, 12478368880, 12478368881, 12478368882, 12478368883, 12478368884, 12478368885, 12478368886, 12478368887, 12478368888, 12478368889, 12478368890, 12478368891, 12478368892, 12478368893, 12478368894, 12478368895, 12478368896, 12478368897, 12478368898, 12478368899, 12478368900, 12478378501, 12478378502, 12478378503, 12478378504, 12478378505, 12478378506, 12478378507, 12478378508, 12478378509, 12478378510, 12478378511, 12478378512, 12478378513, 12478378514, 12478378515, 12478378516, 12478378517, 12478378518, 12478378519, 12478378520, 12478378521, 12478378522, 12478378523, 12478378524, 12478378525, 12478378526, 12478378527, 12478378528, 12478378529, 12478378530, 12478378531, 12478378532, 12478378533, 12478378534, 12478378535, 12478378536, 12478378537, 12478378538, 12478378539, 12478378540, 12478378541, 12478378542, 12478378543, 12478378544, 12478378545, 12478378546, 12478378547, 12478378548, 12478378549, 12478378550, 12478378551, 12478378552, 12478378553, 12478378554, 12478368827, 12478368828, 12478368832, 12478368829, 12478368830, 12478368831, 12478378669, 12478378668, 12478378667, 12478378666, 12478378665, 12478378664, 12478378663, 12478378662, 12478378661, 12478378660, 12478378659, 12478378658, 12478378657, 12478378656, 12478378655, 12478378654, 12478378653, 12478378652, 12478378651, 12478378650, 12478378649, 12478378648, 12478378647, 12478378646, 12478378645, 12478378644, 12478378643, 12478378642, 12478378641, 12478378640, 12478378639, 12478378638, 12478378637, 12478378636, 12478378635, 12478378634, 12478378633, 12478378632, 12478378631, 12478378630, 12478378629, 12478378628, 12478378627, 12478378626, 12478378625, 12478378624, 12478378623, 12478378622, 12478378621, 12478378620, 12478378619, 12478378618, 12478378617, 12478378616, 12478378615, 12478378614, 12478378613, 12478378612, 12478378611, 12478378610, 12478378609, 12478378608, 12478378607, 12478378606, 12478378605, 12478378604, 12478378603, 12478378602, 12478378601, 12478378600, 12478378599, 12478378598, 12478378597, 12478378596, 12478378595, 12478378594, 12478378593, 12478378592, 12478378591, 12478378590, 12478378589, 12478378588, 12478378587, 12478378586, 12478378585, 12478378584, 12478378583, 12478378582, 12478378581, 12478378580, 12478378579, 12478378578, 12478378577, 12478378576, 12478378575, 12478378574, 12478378573, 12478378572, 12478378571, 12478378570, 12478378569, 12478378568, 12478378567, 12478378566, 12478378565, 12478378564, 12478378563, 12478378562, 12478378561, 12478378560, 12478378559, 12478378558, 12478378557, 12478378556, 12478378555], "tags": {"electrified": "yes", "fixme": "Approximate alignment", "name": "Kanaka Line", "network": "Bengaluru Suburban Railway", "railway": "proposed"}}, {"type": "relation", "id": 9673076, "members": [{"type": "node", "ref": 6535450002, "role": "stop"}, {"type": "node", "ref": 6535450003, "role": "platform"}], "tags": {"name": "Gubbi Cross (Towards Byrathi Bande)", "network": "BMTC", "operator": "BMTC", "public_transport": "stop_area", "type": "public_transport"}}, {"type": "relation", "id": 9673077, "members": [{"type": "node", "ref": 6535450004, "role": "stop"}, {"type": "node", "ref": 4973098307, "role": "platform"}, {"type": "node", "ref": 10731130863, "role": "platform"}], "tags": {"name": "K Narayanapura", "name:kn": "\u0c95\u0cc6 \u0ca8\u0cbe\u0cb0\u0cbe\u0caf\u0ca3\u0caa\u0cc1\u0cb0", "network": "BMTC", "operator": "BMTC", "public_transport": "stop_area", "type": "public_transport"}}, {"type": "relation", "id": 9673078, "members": [{"type": "node", "ref": 6535450005, "role": "stop"}, {"type": "node", "ref": 6535450006, "role": "platform"}], "tags": {"name": "Nagaraesh Nagenahalli", "network": "BMTC", "operator": "BMTC", "public_transport": "stop_area", "type": "public_transport"}}, {"type": "relation", "id": 9673079, "members": [{"type": "node", "ref": 2460237956, "role": "stop"}, {"type": "node", "ref": 6535450007, "role": "platform"}], "tags": {"name": "K Narayanapura Main Bus Stand", "network": "BMTC", "operator": "BMTC", "public_transport": "stop_area", "type": "public_transport"}}, {"type": "relation", "id": 9673080, "members": [{"type": "node", "ref": 6535450008, "role": "stop"}, {"type": "node", "ref": 6535450009, "role": "platform"}], "tags": {"name": "BDS Nagara", "network": "BMTC", "operator": "BMTC", "public_transport": "stop_area", "type": "public_transport"}}, {"type": "relation", "id": 9673081, "members": [{"type": "node", "ref": 6535450010, "role": "stop"}, {"type": "node", "ref": 6535450011, "role": "platform"}], "tags": {"name": "Kothanuru", "name:kn": "\u0c95\u0cca\u0ca4\u0ca8\u0cc2\u0cb0\u0cc1", "network": "BMTC", "operator": "BMTC", "public_transport": "stop_area", "type": "public_transport"}}, {"type": "relation", "id": 9673082, "members": [{"type": "node", "ref": 6535450012, "role": "stop"}, {"type": "node", "ref": 6535450013, "role": "platform"}], "tags": {"name": "Kristu Jayanti College", "name:kn": "\u0c95\u0ccd\u0cb0\u0cbf\u0cb8\u0ccd\u0ca4\u0cc1 \u0c9c\u0caf\u0c82\u0ca4\u0cbf \u0c95\u0cbe\u0cb2\u0cc7\u0c9c\u0cc1", "network": "BMTC", "operator": "BMTC", "public_transport": "stop_area", "type": "public_transport"}}, {"type": "relation", "id": 10104382, "members": [{"type": "node", "ref": 6842561201, "role": "stop"}, {"type": "node", "ref": 2463073990, "role": "platform"}], "tags": {"name": "Chakkalatti", "name:en": "Chakkalatti", "name:kn": "\u0c9a\u0cbe\u0c97\u0cb2\u0cc6\u0c9f\u0ccd\u0c9f\u0cbf", "network": "BMTC", "operator": "BMTC", "public_transport": "stop_area", "type": "public_transport"}}, {"type": "relation", "id": 10104383, "members": [{"type": "node", "ref": 6842561203, "role": "stop"}, {"type": "node", "ref": 6842561204, "role": "platform"}], "tags": {"name": "Hamsa Farm", "name:en": "Hamsa Farm", "network": "BMTC", "operator": "BMTC", "public_transport": "stop_area", "type": "public_transport"}}, {"type": "relation", "id": 10104384, "members": [{"type": "node", "ref": 6842561205, "role": "stop"}, {"type": "node", "ref": 2451701582, "role": "platform"}], "tags": {"name": "Hosuru Bande", "name:en": "Hosuru Bande", "name:kn": "\u0cb9\u0cca\u0cb8\u0cc2\u0cb0\u0cc1 \u0cac\u0c82\u0ca6\u0cc6", "network": "BMTC", "operator": "BMTC", "public_transport": "stop_area", "type": "public_transport"}}, {"type": "relation", "id": 10104385, "members": [{"type": "node", "ref": 6842561206, "role": "stop"}, {"type": "node", "ref": 6842561207, "role": "platform"}], "tags": {"name": "Kadasonnappanahalli Gate", "name:en": "Kadasonnappanahalli Gate", "network": "BMTC", "operator": "BMTC", "public_transport": "stop_area", "type": "public_transport"}}, {"type": "relation", "id": 10104386, "members": [{"type": "node", "ref": 6842561208, "role": "stop"}, {"type": "node", "ref": 2451403806, "role": "platform"}], "tags": {"name": "Kannuru", "name:en": "Kannuru", "name:kn": "\u0c95\u0ca3\u0ccd\u0ca3\u0cc2\u0cb0\u0cc1", "network": "BMTC", "operator": "BMTC", "public_transport": "stop_area", "type": "public_transport"}}, {"type": "relation", "id": 10104387, "members": [{"type": "node", "ref": 6842561209, "role": "stop"}, {"type": "node", "ref": 6842561210, "role": "platform"}], "tags": {"name": "Chikka Gubbi Cross", "name:en": "Chikka Gubbi Cross", "network": "BMTC", "operator": "BMTC", "public_transport": "stop_area", "type": "public_transport"}}, {"type": "relation", "id": 10104388, "members": [{"type": "node", "ref": 6842561213, "role": "stop"}, {"type": "node", "ref": 6842561214, "role": "platform"}], "tags": {"name": "Nagenahalli", "name:en": "Nagenahalli", "name:kn": "\u0ca8\u0cbe\u0c97\u0cc7\u0ca8\u0cb9\u0cb3\u0ccd\u0cb3\u0cbf", "network": "BMTC", "operator": "BMTC", "public_transport": "stop_area", "type": "public_transport"}}, {"type": "relation", "id": 10104389, "members": [{"type": "node", "ref": 6842561215, "role": "stop"}, {"type": "node", "ref": 2451415320, "role": "platform"}], "tags": {"local_ref": "Chikkagubbi Cross", "name": "Byrathi Bande", "name:en": "Byrathi Bande", "name:kn": "\u0cac\u0cc8\u0cb0\u0ca4\u0cbf \u0cac\u0c82\u0ca6\u0cc6", "network": "BMTC", "operator": "BMTC", "public_transport": "stop_area", "type": "public_transport"}}, {"type": "relation", "id": 10104390, "members": [{"type": "node", "ref": 2125917387, "role": "stop"}, {"type": "node", "ref": 6842561216, "role": "platform"}], "tags": {"name": "Poornaprajna School", "name:en": "Poornaprajna School", "name:kn": "\u0caa\u0cc2\u0cb0\u0ccd\u0ca3\u0caa\u0ccd\u0cb0\u0c9c\u0ccd\u0c9e \u0cb6\u0cbe\u0cb2\u0cc6", "network": "BMTC", "operator": "BMTC", "public_transport": "stop_area", "type": "public_transport"}}, {"type": "relation", "id": 10104391, "members": [{"type": "node", "ref": 6842561217, "role": "stop"}, {"type": "node", "ref": 6842561218, "role": "platform"}], "tags": {"name": "Bible College Byrathi", "name:en": "Bible College Byrathi", "network": "BMTC", "operator": "BMTC", "public_transport": "stop_area", "type": "public_transport"}}, {"type": "relation", "id": 10104392, "members": [{"type": "node", "ref": 6842561219, "role": "stop"}, {"type": "node", "ref": 5966255505, "role": "platform"}], "tags": {"name": "Byrathi Cross", "name:en": "Byrathi Cross", "name:kn": "\u0cac\u0cc8\u0cb0\u0ca4\u0cbf \u0c95\u0ccd\u0cb0\u0cbe\u0cb8\u0ccd", "network": "BMTC", "operator": "BMTC", "public_transport": "stop_area", "type": "public_transport"}}, {"type": "relation", "id": 10535887, "members": [{"type": "node", "ref": 7106084428, "role": "stop"}, {"type": "node", "ref": 2463098135, "role": "platform"}], "tags": {"name": "Reva College", "name:en": "Reva College", "name:kn": "\u0cb0\u0cc7\u0cb5\u0cbe \u0c95\u0cbe\u0cb2\u0cc7\u0c9c\u0cc1", "network": "BMTC", "operator": "BMTC", "public_transport": "stop_area", "type": "public_transport"}}, {"type": "relation", "id": 10535888, "members": [{"type": "node", "ref": 7106084429, "role": "stop"}, {"type": "node", "ref": 7106084430, "role": "platform"}], "tags": {"name": "Bellahalli Cross", "name:en": "Bellahalli Cross", "name:kn": "\u0cac\u0cc6\u0cb2\u0ccd\u0cb2\u0cb9\u0cb3\u0ccd\u0cb3\u0cbf \u0c95\u0ccd\u0cb0\u0cbe\u0cb8\u0ccd", "network": "BMTC", "operator": "BMTC", "public_transport": "stop_area", "type": "public_transport"}}, {"type": "relation", "id": 10535889, "members": [{"type": "node", "ref": 7106084431, "role": "stop"}, {"type": "node", "ref": 2463040642, "role": "platform"}], "tags": {"name": "Thirumenahalli Cross (KNS College)", "name:en": "Thirumenahalli Cross (KNS College)", "network": "BMTC", "operator": "BMTC", "public_transport": "stop_area", "type": "public_transport"}}, {"type": "relation", "id": 10535890, "members": [{"type": "node", "ref": 7106084432, "role": "stop"}, {"type": "node", "ref": 2463039585, "role": "platform"}], "tags": {"name": "Chokkanahalli Gate", "name:en": "Chokkanahalli Gate", "network": "BMTC", "operator": "BMTC", "public_transport": "stop_area", "type": "public_transport"}}, {"type": "relation", "id": 10535891, "members": [{"type": "node", "ref": 7106084433, "role": "stop"}, {"type": "node", "ref": 410861147, "role": "platform"}], "tags": {"name": "Noor Nagara", "name:en": "Noor Nagara", "name:kn": "\u0ca8\u0cc2\u0cb0\u0ccd \u0ca8\u0c97\u0cb0", "network": "BMTC", "operator": "BMTC", "public_transport": "stop_area", "type": "public_transport"}}, {"type": "relation", "id": 10537082, "members": [{"type": "node", "ref": 7106320877, "role": "stop"}, {"type": "node", "ref": 2125916063, "role": "platform"}], "tags": {"name": "Hennuru Bande", "name:en": "Hennuru Bande", "name:kn": "\u0cb9\u0cc6\u0ca3\u0ccd\u0ca3\u0cc2\u0cb0\u0cc1 \u0cac\u0c82\u0ca1\u0cc6", "network": "BMTC", "operator": "BMTC", "public_transport": "stop_area", "type": "public_transport"}}, {"type": "relation", "id": 10537083, "members": [{"type": "node", "ref": 2125916101, "role": "stop"}, {"type": "node", "ref": 7106320878, "role": "platform"}], "tags": {"name": "Janaki Rama Layout", "name:en": "Janaki Rama Layout", "name:kn": "\u0c9c\u0cbe\u0ca8\u0c95\u0cbf \u0cb0\u0cbe\u0cae \u0cb2\u0cc7\u0c94\u0c9f\u0ccd", "network": "BMTC", "operator": "BMTC", "public_transport": "stop_area", "type": "public_transport"}}, {"type": "relation", "id": 10537084, "members": [{"type": "node", "ref": 7106320879, "role": "stop"}, {"type": "node", "ref": 5966255508, "role": "platform"}], "tags": {"name": "Geddalahalli", "name:en": "Geddalahalli", "name:kn": "\u0c97\u0cc6\u0ca6\u0ccd\u0ca6\u0cb2\u0cb9\u0cb3\u0ccd\u0cb3\u0cbf", "network": "BMTC", "operator": "BMTC", "public_transport": "stop_area", "type": "public_transport"}}, {"type": "relation", "id": 10537085, "members": [{"type": "node", "ref": 7106320880, "role": "stop"}, {"type": "node", "ref": 5966255506, "role": "platform"}], "tags": {"name": "K Narayanapura Cross", "name:en": "K Narayanapura Cross", "network": "BMTC", "operator": "BMTC", "public_transport": "stop_area", "type": "public_transport"}}, {"type": "relation", "id": 10543022, "members": [{"type": "node", "ref": 7108468304, "role": "stop"}, {"type": "node", "ref": 440690478, "role": "platform"}], "tags": {"name": "Horamavu Agara", "name:en": "Horamavu Agara", "name:kn": "\u0cb9\u0cca\u0cb0\u0cae\u0cbe\u0cb5\u0cc1 \u0c85\u0c97\u0cb0", "network": "BMTC", "operator": "BMTC", "public_transport": "stop_area", "type": "public_transport"}}, {"type": "relation", "id": 10601159, "members": [{"type": "node", "ref": 7140581376, "role": "stop"}, {"type": "node", "ref": 7140581377, "role": "platform"}], "tags": {"name": "Hennur", "name:en": "Hennur", "name:kn": "\u0cb9\u0cc6\u0ca3\u0ccd\u0ca3\u0cc2\u0cb0\u0cc1", "network": "BMTC", "operator": "BMTC", "public_transport": "stop_area", "type": "public_transport"}}, {"type": "relation", "id": 10601163, "members": [{"type": "node", "ref": 7140581380, "role": "stop"}, {"type": "node", "ref": 7140581381, "role": "platform"}], "tags": {"name": "K Narayanapura Main Bus Stand", "name:en": "K Narayanapura Main Bus Stand", "network": "BMTC", "operator": "BMTC", "public_transport": "stop_area", "type": "public_transport"}}, {"type": "relation", "id": 10601699, "members": [{"type": "node", "ref": 7141016441, "role": "stop"}, {"type": "node", "ref": 7141016442, "role": "platform"}], "tags": {"name": "BDS Nagara", "name:en": "BDS Nagara", "network": "BMTC", "operator": "BMTC", "public_transport": "stop_area", "type": "public_transport"}}, {"type": "relation", "id": 10602140, "members": [{"type": "node", "ref": 7141286367, "role": "stop"}, {"type": "node", "ref": 7141286368, "role": "platform"}], "tags": {"name": "Horamavu Agara", "name:en": "Horamavu Agara", "name:kn": "\u0cb9\u0cca\u0cb0\u0cae\u0cbe\u0cb5\u0cc1 \u0c85\u0c97\u0cb0", "network": "BMTC", "operator": "BMTC", "public_transport": "stop_area", "type": "public_transport"}}, {"type": "relation", "id": 10602141, "members": [{"type": "node", "ref": 7141286369, "role": "stop"}, {"type": "node", "ref": 2470684786, "role": "platform"}], "tags": {"name": "Shilpa Bakery", "name:en": "Shilpa Bakery", "network": "BMTC", "operator": "BMTC", "public_transport": "stop_area", "type": "public_transport"}}, {"type": "relation", "id": 10602142, "members": [{"type": "node", "ref": 7141286370, "role": "stop"}, {"type": "node", "ref": 335654343, "role": "platform"}], "tags": {"name": "Vaddarapalya", "name:en": "Vaddarapalya", "name:kn": "\u0cb5\u0ca1\u0ccd\u0ca1\u0cb0\u0caa\u0cbe\u0cb3\u0ccd\u0caf", "network": "BMTC", "operator": "BMTC", "public_transport": "stop_area", "type": "public_transport"}}, {"type": "relation", "id": 10602143, "members": [{"type": "node", "ref": 335654108, "role": "stop"}, {"type": "node", "ref": 7141286371, "role": "platform"}], "tags": {"name": "Hennur", "name:en": "Hennur", "name:kn": "\u0cb9\u0cc6\u0ca3\u0ccd\u0ca3\u0cc2\u0cb0\u0cc1", "network": "BMTC", "operator": "BMTC", "public_transport": "stop_area", "type": "public_transport"}}, {"type": "relation", "id": 10775351, "members": [{"type": "node", "ref": 7256979623, "role": "stop"}, {"type": "node", "ref": 2468853945, "role": "platform"}], "tags": {"name": "Hennur Bande", "name:en": "Hennur Bande", "name:kn": "\u0cb9\u0cc6\u0ca3\u0ccd\u0ca3\u0cc2\u0cb0\u0cc1 \u0cac\u0c82\u0ca1\u0cc6", "network": "BMTC", "operator": "BMTC", "public_transport": "stop_area", "type": "public_transport"}}, {"type": "relation", "id": 10775352, "members": [{"type": "node", "ref": 7256979676, "role": "stop"}, {"type": "node", "ref": 7256979677, "role": "platform"}], "tags": {"name": "Janaki Rama Layout", "name:en": "Janaki Rama Layout", "name:kn": "\u0c9c\u0cbe\u0ca8\u0c95\u0cbf \u0cb0\u0cbe\u0cae \u0cac\u0ca1\u0cbe\u0cb5\u0ca3\u0cc6", "network": "BMTC", "operator": "BMTC", "public_transport": "stop_area", "type": "public_transport"}}, {"type": "relation", "id": 17173076, "members": [{"type": "node", "ref": 11598213071, "role": "stop"}, {"type": "node", "ref": 440670284, "role": "platform"}], "tags": {"alt_name": "Adur", "name": "Aduru", "name:en": "Aduru", "network": "BMTC", "operator": "BMTC", "public_transport": "stop_area", "type": "public_transport"}}, {"type": "relation", "id": 17545797, "members": [{"type": "node", "ref": 11872033077, "role": "stop"}, {"type": "node", "ref": 11872033078, "role": "platform"}], "tags": {"name": "Kanakshree Layout Chikka Gubbi", "name:en": "Kanakshree Layout Chikka Gubbi", "network": "BMTC", "operator": "BMTC", "public_transport": "stop_area", "type": "public_transport"}}, {"type": "relation", "id": 17750703, "members": [{"type": "node", "ref": 440678727, "role": "stop"}, {"type": "node", "ref": 12001070312, "role": "platform"}], "tags": {"name": "Pooja Garden", "name:en": "Pooja Garden", "network": "BMTC", "operator": "BMTC", "public_transport": "stop_area", "type": "public_transport"}}, {"type": "relation", "id": 17750704, "members": [{"type": "node", "ref": 12001070313, "role": "stop"}, {"type": "node", "ref": 9363060449, "role": "platform"}], "tags": {"name": "K Channasandra", "name:en": "K Channasandra", "network": "BMTC", "operator": "BMTC", "public_transport": "stop_area", "type": "public_transport"}}, {"type": "relation", "id": 17750708, "members": [{"type": "node", "ref": 12001070320, "role": "stop"}, {"type": "node", "ref": 440678720, "role": "platform"}], "tags": {"name": "K Channsandra", "name:en": "K Channsandra", "network": "BMTC", "operator": "BMTC", "public_transport": "stop_area", "type": "public_transport"}}, {"type": "relation", "id": 17750709, "members": [{"type": "node", "ref": 12001070322, "role": "stop"}, {"type": "node", "ref": 440678729, "role": "platform"}], "tags": {"name": "Pooja Garden", "name:en": "Pooja Garden", "network": "BMTC", "operator": "BMTC", "public_transport": "stop_area", "type": "public_transport"}}]}