{"version": 0.6, "generator": "Overpass API 0.7.62.8 e802775f", "osm3s": {"timestamp_osm_base": "2026-01-13T17:43:43Z", "copyright": "The data included in this document is from www.openstreetmap.org. The data is made available under ODbL."}, "elements": [{"type": "node", "id": 540654209, "lat": 12.2978617, "lon": 76.6431092, "tags": {"alt_name": "Laxmipuram Government School", "amenity": "school", "int_name": "Laxmipuram Government School", "name": "Government School;Raman IT", "name:kn": "\u0cb2\u0c95\u0ccd\u0cb7\u0ccd\u0cae\u0cc0\u0caa\u0cc1\u0cb0\u0c82 \u0cb8\u0cb0\u0ccd\u0c95\u0cbe\u0cb0\u0cbf \u0cb6\u0cbe\u0cb2\u0cc6", "old_name": "Government School"}}, {"type": "node", "id": 540916260, "lat": 12.3030906, "lon": 76.6380888}, {"type": "node", "id": 540916261, "lat": 12.3029198, "lon": 76.6393532}, {"type": "node", "id": 540916264, "lat": 12.3020658, "lon": 76.6392353}, {"type": "node", "id": 540916265, "lat": 12.3019689, "lon": 76.6391966}, {"type": "node", "id": 540916266, "lat": 12.3018348, "lon": 76.639188}, {"type": "node", "id": 540916267, "lat": 12.3018012, "lon": 76.6390679}, {"type": "node", "id": 540916270, "lat": 12.3014742, "lon": 76.6390507}, {"type": "node", "id": 540916275, "lat": 12.3014239, "lon": 76.6389305}, {"type": "node", "id": 540916277, "lat": 12.3013819, "lon": 76.6388018}, {"type": "node", "id": 540916280, "lat": 12.3013819, "lon": 76.6384928}, {"type": "node", "id": 540916283, "lat": 12.301449, "lon": 76.6382525}, {"type": "node", "id": 540916288, "lat": 12.3016084, "lon": 76.6381066}, {"type": "node", "id": 540932620, "lat": 12.2929656, "lon": 76.6388951}, {"type": "node", "id": 540932622, "lat": 12.2929424, "lon": 76.6391352}, {"type": "node", "id": 540932623, "lat": 12.2927115, "lon": 76.6391119}, {"type": "node", "id": 540932624, "lat": 12.2927347, "lon": 76.6388718}, {"type": "node", "id": 1636799287, "lat": 12.2914909, "lon": 76.6435489, "tags": {"addr:postcode": "570001", "addr:street": "Sharada Vilas Road", "alt_name": "Sharada Vilas", "amenity": "school", "int_name": "Sharada Vilas", "name": "Sharada Vilas School and College", "old_name": "Sharada Vilas"}}, {"type": "node", "id": 1637364494, "lat": 12.3131217, "lon": 76.6433369, "tags": {"alt_name": "Ideal Jawa Rotary High School", "amenity": "school", "int_name": "Ideal Jawa Rotary High School", "name": "Ideal Jawa Rotary High School", "old_name": "Ideal Jawa Rotary High School"}}, {"type": "node", "id": 1638996823, "lat": 12.2867825, "lon": 76.6523363, "tags": {"addr:city": "Mysuru", "addr:postcode": "570004", "addr:street": "Ramanuja Road", "alt_name": "St. Mary's Girl's High Schrool", "amenity": "school", "int_name": "St. Mary's", "name": "St. Mary's School", "old_name": "St. Mary's", "phone": "+918212442108"}}, {"type": "node", "id": 1645739595, "lat": 12.2903852, "lon": 76.6419285, "tags": {"alt_name": "Ashoka Puram Government School", "amenity": "school", "int_name": "Ashoka Puram Government School", "name": "Ashokapuram Government School", "name:kn": "\u0c85\u0cb6\u0ccb\u0c95\u0caa\u0cc1\u0cb0\u0c82 \u0cb8\u0cb0\u0ccd\u0c95\u0cbe\u0cb0\u0cbf \u0cb6\u0cbe\u0cb2\u0cc6", "old_name": "Ashoka Puram Government School"}}, {"type": "node", "id": 1681443539, "lat": 12.2888911, "lon": 76.6271507, "tags": {"amenity": "school", "name": "Dasthi Institute of Nursing"}}, {"type": "node", "id": 1681443547, "lat": 12.2865429, "lon": 76.6277193, "tags": {"amenity": "school", "name": "Queen's Fashion Institute"}}, {"type": "node", "id": 1681443548, "lat": 12.2887417, "lon": 76.6308216, "tags": {"amenity": "school", "name": "NIIT"}}, {"type": "node", "id": 1681456781, "lat": 12.2844462, "lon": 76.6260429, "tags": {"amenity": "school", "name": "Net Focus Browsing Center"}}, {"type": "node", "id": 1700610529, "lat": 12.271917, "lon": 76.6455028}, {"type": "node", "id": 1700610530, "lat": 12.2726655, "lon": 76.6455953}, {"type": "node", "id": 1700610531, "lat": 12.2727335, "lon": 76.6448257}, {"type": "node", "id": 1700610532, "lat": 12.2720022, "lon": 76.6447406}, {"type": "node", "id": 1798919456, "lat": 12.2599381, "lon": 76.6422756}, {"type": "node", "id": 1798919458, "lat": 12.261069, "lon": 76.6424215}, {"type": "node", "id": 1798919461, "lat": 12.2597295, "lon": 76.6439921}, {"type": "node", "id": 1798919463, "lat": 12.2608908, "lon": 76.644112}, {"type": "node", "id": 2039611906, "lat": 12.3188267, "lon": 76.6229601}, {"type": "node", "id": 2039611916, "lat": 12.3190023, "lon": 76.6225819}, {"type": "node", "id": 2039611925, "lat": 12.3199614, "lon": 76.6235609}, {"type": "node", "id": 2039611952, "lat": 12.3185824, "lon": 76.6249727}, {"type": "node", "id": 2039611959, "lat": 12.3181474, "lon": 76.6245006}, {"type": "node", "id": 2361756938, "lat": 12.2869471, "lon": 76.6520888}, {"type": "node", "id": 2361756956, "lat": 12.2865146, "lon": 76.6520564}, {"type": "node", "id": 2361756974, "lat": 12.2866431, "lon": 76.6517185}, {"type": "node", "id": 2361756988, "lat": 12.2869392, "lon": 76.6517373}, {"type": "node", "id": 2415646400, "lat": 12.2744308, "lon": 76.6107083}, {"type": "node", "id": 2415646401, "lat": 12.2737676, "lon": 76.6107674}, {"type": "node", "id": 2415646402, "lat": 12.2744644, "lon": 76.6110602}, {"type": "node", "id": 2415646403, "lat": 12.2737936, "lon": 76.6111275}, {"type": "node", "id": 2699746048, "lat": 12.3125903, "lon": 76.6852793, "tags": {"addr:city": "Mysore", "addr:postcode": "570011", "addr:street": "GITB Press Campus", "amenity": "school", "brand": "Kendriya Vidyalaya", "brand:wikidata": "Q1156653", "name": "Kendriya Vidyalaya", "name:kn": "\u0c95\u0cc7\u0c82\u0ca6\u0ccd\u0cb0\u0cbf\u0caf \u0cb5\u0cbf\u0ca6\u0ccd\u0caf\u0cbe\u0cb2\u0caf", "operator": "Kendriya Vidyalaya Sangathan", "operator:type": "government_non_profit"}}, {"type": "node", "id": 3150163468, "lat": 12.3018439, "lon": 76.6379412}, {"type": "node", "id": 3184039710, "lat": 12.3011525, "lon": 76.6431214}, {"type": "node", "id": 3184039711, "lat": 12.3010446, "lon": 76.6439431}, {"type": "node", "id": 3184039712, "lat": 12.2996981, "lon": 76.6437355}, {"type": "node", "id": 3184039713, "lat": 12.2998213, "lon": 76.6428933}, {"type": "node", "id": 3201086169, "lat": 12.2909753, "lon": 76.6108417, "tags": {"addr:city": "I Block, Ramakrishna Nagar", "addr:housename": "Orchid School", "addr:postcode": "570026", "addr:street": "Vivekananda Road", "amenity": "school", "name": "Orchids School"}}, {"type": "node", "id": 3214000649, "lat": 12.286281, "lon": 76.6282071}, {"type": "node", "id": 3214000650, "lat": 12.2862029, "lon": 76.6289532}, {"type": "node", "id": 3214000651, "lat": 12.2852764, "lon": 76.6288389}, {"type": "node", "id": 3214000652, "lat": 12.2853561, "lon": 76.6281168}, {"type": "node", "id": 3214318101, "lat": 12.2997079, "lon": 76.6268372}, {"type": "node", "id": 3214318102, "lat": 12.2996094, "lon": 76.6276123}, {"type": "node", "id": 3214318103, "lat": 12.2995167, "lon": 76.6280769}, {"type": "node", "id": 3214318104, "lat": 12.2994066, "lon": 76.6280729}, {"type": "node", "id": 3214318105, "lat": 12.2995225, "lon": 76.6268115}, {"type": "node", "id": 3216836958, "lat": 12.3037636, "lon": 76.6824534}, {"type": "node", "id": 3216836959, "lat": 12.3037355, "lon": 76.6836573}, {"type": "node", "id": 3216836960, "lat": 12.3031873, "lon": 76.6837942}, {"type": "node", "id": 3216837061, "lat": 12.3032175, "lon": 76.6825086}, {"type": "node", "id": 3274240472, "lat": 12.2868071, "lon": 76.6517455}, {"type": "node", "id": 3279674178, "lat": 12.307278, "lon": 76.646035}, {"type": "node", "id": 3279674179, "lat": 12.3070658, "lon": 76.6473842}, {"type": "node", "id": 3279674180, "lat": 12.305938, "lon": 76.6472144}, {"type": "node", "id": 3279674181, "lat": 12.3061538, "lon": 76.645858}, {"type": "node", "id": 3279678151, "lat": 12.3073187, "lon": 76.6486077}, {"type": "node", "id": 3279678152, "lat": 12.3066411, "lon": 76.6485115}, {"type": "node", "id": 3279678153, "lat": 12.3065699, "lon": 76.6490374}, {"type": "node", "id": 3279678154, "lat": 12.3071027, "lon": 76.6491131}, {"type": "node", "id": 3279678155, "lat": 12.3070535, "lon": 76.6494757}, {"type": "node", "id": 3279678156, "lat": 12.3073195, "lon": 76.6495134}, {"type": "node", "id": 3279678157, "lat": 12.3073453, "lon": 76.649323}, {"type": "node", "id": 3279678158, "lat": 12.3072241, "lon": 76.6493057}, {"type": "node", "id": 3315667571, "lat": 12.3018948, "lon": 76.6379434}, {"type": "node", "id": 3339409205, "lat": 12.28081, "lon": 76.6429689}, {"type": "node", "id": 3339409206, "lat": 12.2807984, "lon": 76.6436056}, {"type": "node", "id": 3339409207, "lat": 12.2799638, "lon": 76.6434949}, {"type": "node", "id": 3339409208, "lat": 12.2801493, "lon": 76.6426526}, {"type": "node", "id": 3371353489, "lat": 12.2858831, "lon": 76.6081705}, {"type": "node", "id": 3371353490, "lat": 12.2857039, "lon": 76.6077606}, {"type": "node", "id": 3371353492, "lat": 12.2849895, "lon": 76.6080703}, {"type": "node", "id": 3371353793, "lat": 12.2854477, "lon": 76.6084596}, {"type": "node", "id": 3630983735, "lat": 12.3054532, "lon": 76.6906922, "tags": {"amenity": "school", "name": "Teresian School"}}, {"type": "node", "id": 3648128658, "lat": 12.3129988, "lon": 76.6153063}, {"type": "node", "id": 3648128659, "lat": 12.3119786, "lon": 76.6153903}, {"type": "node", "id": 3648128660, "lat": 12.3120302, "lon": 76.6160961}, {"type": "node", "id": 3648128661, "lat": 12.3130364, "lon": 76.6159904}, {"type": "node", "id": 3653682184, "lat": 12.2738686, "lon": 76.6108645}, {"type": "node", "id": 3653682185, "lat": 12.2738928, "lon": 76.6111176}, {"type": "node", "id": 3653682186, "lat": 12.2743262, "lon": 76.6108186}, {"type": "node", "id": 3653682187, "lat": 12.2743504, "lon": 76.6110717}, {"type": "node", "id": 3731304607, "lat": 12.3050292, "lon": 76.6298267}, {"type": "node", "id": 3731304608, "lat": 12.3050338, "lon": 76.6299959}, {"type": "node", "id": 3731304609, "lat": 12.3049229, "lon": 76.6300996}, {"type": "node", "id": 3731304610, "lat": 12.3047587, "lon": 76.6300897}, {"type": "node", "id": 3731304611, "lat": 12.3046853, "lon": 76.6299829}, {"type": "node", "id": 3731304612, "lat": 12.3046834, "lon": 76.6298248}, {"type": "node", "id": 3731304613, "lat": 12.3047606, "lon": 76.6297338}, {"type": "node", "id": 3731304614, "lat": 12.3049403, "lon": 76.6297259}, {"type": "node", "id": 4256988863, "lat": 12.2846843, "lon": 76.6462288}, {"type": "node", "id": 4256988864, "lat": 12.2847418, "lon": 76.6457237}, {"type": "node", "id": 4256988865, "lat": 12.2854767, "lon": 76.6463466}, {"type": "node", "id": 4256988866, "lat": 12.2854899, "lon": 76.6458233}, {"type": "node", "id": 4444115027, "lat": 12.2920469, "lon": 76.615012, "tags": {"addr:city": "Mysuru", "addr:housenumber": "P-1,E", "addr:postcode": "570022", "addr:street": "Ramakrishna Nagara Main Road", "amenity": "school", "name": "Vishwamanava High School", "name:kn": "\u0cb5\u0cbf\u0cb6\u0ccd\u0cb5\u0cae\u0cbe\u0ca8\u0cb5 \u0caa\u0ccd\u0cb0\u0ccc\u0ca1\u0cb6\u0cbe\u0cb2\u0cc6", "phone": "91-821-2463002"}}, {"type": "node", "id": 4444155799, "lat": 12.3037064, "lon": 76.6463657, "tags": {"addr:city": "Mysore", "addr:postcode": "570001", "addr:street": "Narayana Shastri Road", "amenity": "school", "name": "Dalvoy A S School Committee", "name:kn": "\u0ca1\u0cb2\u0ccd\u0cb5\u0ccb\u0caf\u0ccd \u0c8e \u0c8e\u0cb8\u0ccd \u0cb6\u0cbe\u0cb2\u0cc6  \u0cb8\u0cae\u0cbf\u0ca4\u0cbf", "phone": "91-821-2447597"}}, {"type": "node", "id": 4444160621, "lat": 12.3048276, "lon": 76.6297812, "tags": {"addr:city": "Mysuru", "addr:postcode": "570009", "addr:street": "Sarasvatipuram 11th Main", "amenity": "school", "name": "Mahabodhi School", "name:kn": "\u0cae\u0cb9\u0cbe\u0cac\u0ccb\u0ca7\u0cbf \u0cb6\u0cbe\u0cb2\u0cc6", "phone": "91-821-2341603"}}, {"type": "node", "id": 4444174743, "lat": 12.2944423, "lon": 76.6339185, "tags": {"addr:city": "Mysuru", "addr:housenumber": "Site B", "addr:postcode": "570014", "addr:street": "Jayanagar 4th Main", "amenity": "school", "name": "Balodyana English School", "phone": "91-821-2567513"}}, {"type": "node", "id": 4444183207, "lat": 12.2761642, "lon": 76.6392317, "tags": {"addr:city": "Mysore", "addr:housenumber": "7", "addr:postcode": "570008", "addr:street": "C Block,J P Nagar", "amenity": "school", "name": "Vani Vidya Peeta School", "phone": "91-821-2372527"}}, {"type": "node", "id": 4444201744, "lat": 12.3032389, "lon": 76.6456274, "tags": {"addr:city": "Mysore", "addr:postcode": "570007", "addr:street": "Link Road,N R Mohalla,Mesco Iti Building", "amenity": "school", "name": "Mesco Higher Primary School", "phone": "91-821-2498947"}}, {"type": "node", "id": 4444273764, "lat": 12.3019587, "lon": 76.6270872, "tags": {"addr:city": "Mysore", "addr:postcode": "570009", "addr:street": "4th Cross,16th Main,Saraswathipuram", "amenity": "school", "name": "Muktharunnisa Begam Royal English School", "phone": "91-821-2544836"}}, {"type": "node", "id": 4444299025, "lat": 12.3036388, "lon": 76.6455729, "tags": {"addr:city": "Mysore", "addr:housenumber": "897/1", "addr:postcode": "570004", "addr:street": "Chamundeswari Main Road", "amenity": "school", "name": "Dinkeys Higher Primary School", "phone": "91-821-2332049"}}, {"type": "node", "id": 4444331874, "lat": 12.3093394, "lon": 76.6665085, "tags": {"addr:city": "Mysuru", "addr:postcode": "570010", "addr:street": "Vanivilas Ursu Road,", "amenity": "school", "name": "Vanivilas Ursu Girls School", "phone": "91-821-2520054"}}, {"type": "node", "id": 4444387818, "lat": 12.3033173, "lon": 76.6063018, "tags": {"addr:city": "Mysore", "addr:housenumber": "114", "addr:postcode": "570026", "addr:street": "Bogadi Road", "amenity": "school", "name": "Amrita Vidyalayam", "name:kn": "\u0c85\u0cae\u0cc3\u0ca4 \u0cb5\u0cbf\u0ca6\u0ccd\u0caf\u0cbe\u0cb2\u0caf\u0c82", "phone": "0821 542959"}}, {"type": "node", "id": 4444395085, "lat": 12.2903932, "lon": 76.5936797, "tags": {"addr:city": "Mysore", "addr:postcode": "570026", "addr:street": "BEML Layout, Bogadi P.O", "amenity": "school", "name": "Christ Public School", "name:kn": "\u0c95\u0ccd\u0cb0\u0cbf\u0cb8\u0ccd\u0ca4 \u0cb8\u0cbe\u0cb0\u0ccd\u0cb5\u0c9c\u0ca8\u0cbf\u0c95 \u0cb6\u0cbe\u0cb2\u0cc6", "phone": "8216554546"}}, {"type": "node", "id": 4444417600, "lat": 12.3209389, "lon": 76.671052}, {"type": "node", "id": 4444450491, "lat": 12.2958834, "lon": 76.639374, "tags": {"addr:city": "mysore", "addr:postcode": "570008", "addr:street": "H.D.Kote Road,Lakshmipuram", "amenity": "school", "name": "Mysore Public School", "name:kn": "\u0cae\u0cc8\u0cb8\u0cc2\u0cb0\u0cc1 \u0caa\u0cac\u0ccd\u0cb2\u0cbf\u0c95\u0ccd \u0cb6\u0cbe\u0cb2\u0cc6", "phone": "8212597917"}}, {"type": "node", "id": 4444458835, "lat": 12.3103951, "lon": 76.6138423, "tags": {"addr:city": "Mysuru", "addr:postcode": "570006", "addr:street": "Sjce Campus Road", "amenity": "school", "name": "DMS Primary School", "phone": "9945888928"}}, {"type": "node", "id": 4590871392, "lat": 12.2851704, "lon": 76.6078062}, {"type": "node", "id": 4590871393, "lat": 12.2849951, "lon": 76.6079923}, {"type": "node", "id": 4692154545, "lat": 12.2815908, "lon": 76.6293487}, {"type": "node", "id": 4692154546, "lat": 12.2813304, "lon": 76.6293239}, {"type": "node", "id": 4692154547, "lat": 12.2812604, "lon": 76.6301175}, {"type": "node", "id": 4692154548, "lat": 12.2815093, "lon": 76.630136}, {"type": "node", "id": 4692161426, "lat": 12.2818578, "lon": 76.6295432}, {"type": "node", "id": 4692161427, "lat": 12.281713, "lon": 76.6295154}, {"type": "node", "id": 4692161428, "lat": 12.2816587, "lon": 76.6300619}, {"type": "node", "id": 4692161429, "lat": 12.2818035, "lon": 76.6300712}, {"type": "node", "id": 4693236293, "lat": 12.2919506, "lon": 76.6315539}, {"type": "node", "id": 4693236294, "lat": 12.2914542, "lon": 76.6314904}, {"type": "node", "id": 4693236295, "lat": 12.2914316, "lon": 76.6319927}, {"type": "node", "id": 4693236296, "lat": 12.2919224, "lon": 76.6320504}, {"type": "node", "id": 4693243253, "lat": 12.2708396, "lon": 76.60553}, {"type": "node", "id": 4693243254, "lat": 12.270284, "lon": 76.6053422}, {"type": "node", "id": 4693243255, "lat": 12.2702507, "lon": 76.6059544}, {"type": "node", "id": 4693243256, "lat": 12.2705618, "lon": 76.6060825}, {"type": "node", "id": 4693243260, "lat": 12.2706507, "lon": 76.6059057}, {"type": "node", "id": 4727370540, "lat": 12.2933602, "lon": 76.6427451}, {"type": "node", "id": 4727370541, "lat": 12.2932643, "lon": 76.6435493}, {"type": "node", "id": 4727370542, "lat": 12.2926456, "lon": 76.6434874}, {"type": "node", "id": 4727370543, "lat": 12.2927345, "lon": 76.6426578}, {"type": "node", "id": 4750810421, "lat": 12.293627, "lon": 76.6483102, "tags": {"addr:housenumber": "897/1", "addr:postcode": "570004", "addr:street": "Narayana Shastri Road", "amenity": "school", "name": "Mysore Mandala Yogashala", "name:en": "Mysore Mandala Yogashala", "opening_hours": "Mo-Sa 06:00-19:00", "website": "https://ashtanga.org/"}}, {"type": "node", "id": 5309448219, "lat": 12.2992939, "lon": 76.5953791}, {"type": "node", "id": 5309448220, "lat": 12.2993651, "lon": 76.5960408}, {"type": "node", "id": 5309448221, "lat": 12.2987528, "lon": 76.5961166}, {"type": "node", "id": 5309448222, "lat": 12.2983712, "lon": 76.5954607}, {"type": "node", "id": 5504660421, "lat": 12.3021996, "lon": 76.6498447, "tags": {"amenity": "school", "name": "Krishnamachaar Yoga Shala"}}, {"type": "node", "id": 7151051785, "lat": 12.284174, "lon": 76.6506231, "tags": {"addr:housenumber": "7", "addr:postcode": "570024", "addr:street": "Narayana Shastri Road", "amenity": "school", "name": "Sadvidya educational institutions"}}, {"type": "node", "id": 9294859572, "lat": 12.2930393, "lon": 76.6274155}, {"type": "node", "id": 9294859573, "lat": 12.2928977, "lon": 76.6279887}, {"type": "node", "id": 9294859574, "lat": 12.2918173, "lon": 76.6276988}, {"type": "node", "id": 9294859575, "lat": 12.2919558, "lon": 76.6271289}, {"type": "node", "id": 11067289640, "lat": 12.3201082, "lon": 76.6730422}, {"type": "node", "id": 11067289641, "lat": 12.3196837, "lon": 76.6735089}, {"type": "node", "id": 11067289642, "lat": 12.319571, "lon": 76.6734713}, {"type": "node", "id": 11067289643, "lat": 12.3187351, "lon": 76.6734365}, {"type": "node", "id": 11067289644, "lat": 12.3187665, "lon": 76.6717789}, {"type": "node", "id": 11067289645, "lat": 12.3175323, "lon": 76.671744}, {"type": "node", "id": 11067289646, "lat": 12.3175769, "lon": 76.6721436}, {"type": "node", "id": 11067289647, "lat": 12.3174642, "lon": 76.6723126}, {"type": "node", "id": 11067289648, "lat": 12.3167881, "lon": 76.6722992}, {"type": "node", "id": 11067289649, "lat": 12.3163819, "lon": 76.6723421}, {"type": "node", "id": 11067289650, "lat": 12.3163741, "lon": 76.6720524}, {"type": "node", "id": 11067289651, "lat": 12.3164055, "lon": 76.6715616}, {"type": "node", "id": 11067289652, "lat": 12.3162326, "lon": 76.6708079}, {"type": "node", "id": 11067289653, "lat": 12.3165654, "lon": 76.6706738}, {"type": "node", "id": 11067289654, "lat": 12.3166702, "lon": 76.6704136}, {"type": "node", "id": 11067289655, "lat": 12.3173567, "lon": 76.6705719}, {"type": "node", "id": 11067289656, "lat": 12.3188294, "lon": 76.670478}, {"type": "node", "id": 11067289657, "lat": 12.3188583, "lon": 76.6710225}, {"type": "node", "id": 11067289658, "lat": 12.3205851, "lon": 76.670875}, {"type": "node", "id": 11067289659, "lat": 12.3206533, "lon": 76.6711003}, {"type": "node", "id": 11067289660, "lat": 12.3217224, "lon": 76.672495}, {"type": "node", "id": 11758358661, "lat": 12.2434177, "lon": 76.6140577}, {"type": "node", "id": 11758358662, "lat": 12.2436458, "lon": 76.6144279}, {"type": "node", "id": 11758358663, "lat": 12.2426707, "lon": 76.6151655}, {"type": "node", "id": 11758358664, "lat": 12.2425789, "lon": 76.6145647}, {"type": "node", "id": 11758358665, "lat": 12.2417428, "lon": 76.613068}, {"type": "node", "id": 11758358666, "lat": 12.2417297, "lon": 76.6125771}, {"type": "node", "id": 11758358667, "lat": 12.2417401, "lon": 76.6120246}, {"type": "node", "id": 11758358668, "lat": 12.2421936, "lon": 76.6118905}, {"type": "node", "id": 11758358669, "lat": 12.2428306, "lon": 76.613009}, {"type": "node", "id": 11758358670, "lat": 12.243499, "lon": 76.612604}, {"type": "node", "id": 11758358671, "lat": 12.2438659, "lon": 76.6131565}, {"type": "node", "id": 11758358672, "lat": 12.2440887, "lon": 76.6135615}, {"type": "node", "id": 12056348912, "lat": 12.2913646, "lon": 76.5932819}, {"type": "node", "id": 12056348913, "lat": 12.2913025, "lon": 76.5941031}, {"type": "node", "id": 12056348914, "lat": 12.2892299, "lon": 76.5944789}, {"type": "node", "id": 12056348915, "lat": 12.2892418, "lon": 76.594185}, {"type": "node", "id": 12056348916, "lat": 12.2893395, "lon": 76.5939092}, {"type": "node", "id": 12056348917, "lat": 12.2894165, "lon": 76.5935516}, {"type": "node", "id": 12056348918, "lat": 12.2895823, "lon": 76.5933547}, {"type": "node", "id": 12056348919, "lat": 12.2897629, "lon": 76.5931698}, {"type": "node", "id": 13041195623, "lat": 12.2660261, "lon": 76.5997079}, {"type": "node", "id": 13041195624, "lat": 12.265998, "lon": 76.6003194}, {"type": "node", "id": 13041195625, "lat": 12.2653615, "lon": 76.6002092}, {"type": "node", "id": 13041195626, "lat": 12.2654005, "lon": 76.5998436}, {"type": "node", "id": 13059554761, "lat": 12.3152263, "lon": 76.6040745}, {"type": "node", "id": 13059554762, "lat": 12.3152656, "lon": 76.60364}, {"type": "node", "id": 13059554763, "lat": 12.315014, "lon": 76.6036051}, {"type": "node", "id": 13059554764, "lat": 12.3150298, "lon": 76.6033208}, {"type": "node", "id": 13059554765, "lat": 12.3150664, "lon": 76.602315}, {"type": "node", "id": 13059554766, "lat": 12.3144873, "lon": 76.6023204}, {"type": "node", "id": 13059554767, "lat": 12.314351, "lon": 76.6033423}, {"type": "way", "id": 43172621, "nodes": [540916260, 540916261, 540916264, 540916265, 540916266, 540916267, 540916270, 540916275, 540916277, 540916280, 540916283, 540916288, 3150163468, 3315667571, 540916260], "tags": {"amenity": "school", "name": "Arasu Boarding School"}}, {"type": "way", "id": 43173899, "nodes": [540932620, 540932622, 540932623, 540932624, 540932620], "tags": {"amenity": "school", "name": "Government Primary School", "name:kn": "\u0cb8\u0cb0\u0ccd\u0c95\u0cbe\u0cb0\u0cbf \u0caa\u0ccd\u0cb0\u0cbe\u0ca5\u0cae\u0cbf\u0c95 \u0cb6\u0cbe\u0cb2\u0cc6"}}, {"type": "way", "id": 157808942, "nodes": [1700610529, 1700610530, 1700610531, 1700610532, 1700610529], "tags": {"amenity": "school", "name": "Maharshi Educational Institutions"}}, {"type": "way", "id": 168666435, "nodes": [1798919458, 1798919456, 1798919461, 1798919463, 1798919458], "tags": {"amenity": "school", "name": "JSS Public school"}}, {"type": "way", "id": 193442321, "nodes": [2039611925, 2039611916, 2039611906, 2039611959, 2039611952, 2039611925], "tags": {"addr:city": "Mysuru", "addr:postcode": "570012", "amenity": "school", "name": "St Joseph's Educational Institutions"}}, {"type": "way", "id": 227504218, "nodes": [2361756974, 2361756956, 2361756938, 2361756988, 3274240472, 2361756974], "tags": {"amenity": "school", "name": "St Mary's School", "name:kn": "\u0cb8\u0cc7\u0c82\u0c9f\u0ccd \u0cae\u0cc7\u0cb0\u0cbf\u0cb8\u0ccd \u0cb6\u0cbe\u0cb2\u0cc6"}}, {"type": "way", "id": 233206186, "nodes": [2415646400, 2415646402, 3653682187, 3653682186, 3653682184, 3653682185, 2415646403, 2415646401, 2415646400], "tags": {"addr:street": "Srirampura", "amenity": "school", "name": "Kautilya Vidyalaya", "name:kn": "\u0c95\u0ccc\u0c9f\u0cbf\u0cb2\u0ccd\u0caf \u0cb5\u0cbf\u0ca6\u0ccd\u0caf\u0cbe\u0cb2\u0caf"}}, {"type": "way", "id": 312533340, "nodes": [3184039710, 3184039711, 3184039712, 3184039713, 3184039710], "tags": {"amenity": "school", "name": "Hardwick High School", "name:kn": "\u0cb9\u0cbe\u0cb0\u0ccd\u0ca1\u0ccd\u0cb5\u0cbf\u0c95 \u0caa\u0ccd\u0cb0\u0ccc\u0ca1\u0cb6\u0cbe\u0cb2\u0cc6", "wikidata": "Q27962993", "wikipedia": "en:Hardwick High School and College"}}, {"type": "way", "id": 315289484, "nodes": [3214000649, 3214000650, 3214000651, 3214000652, 3214000649], "tags": {"amenity": "school"}}, {"type": "way", "id": 315320725, "nodes": [3214318101, 3214318102, 3214318103, 3214318104, 3214318105, 3214318101], "tags": {"amenity": "school"}}, {"type": "way", "id": 315559051, "nodes": [3216836958, 3216836959, 3216836960, 3216837061, 3216836958], "tags": {"amenity": "school"}}, {"type": "way", "id": 321235899, "nodes": [3279674178, 3279674179, 3279674180, 3279674181, 3279674178], "tags": {"addr:city": "Mysuru", "addr:street": "Ramavilas Road", "amenity": "school", "name": "Marimallapa's Educational Institutions", "name:kn": "\u0cae\u0cb0\u0cbf\u0cae\u0cb2\u0ccd\u0cb2\u0caa\u0ccd\u0caa \u0cb6\u0cbe\u0cb2\u0cc6"}}, {"type": "way", "id": 321236120, "nodes": [3279678151, 3279678152, 3279678153, 3279678154, 3279678155, 3279678156, 3279678157, 3279678158, 3279678151], "tags": {"addr:city": "Mysuru", "addr:street": "Krishnavilas Road", "amenity": "school", "name": "Avila Convent", "name:kn": "\u0c85\u0cb5\u0cbf\u0cb2 \u0c95\u0cbe\u0ca8\u0ccd\u0cb5\u0cc6\u0c82\u0c9f\u0ccd"}}, {"type": "way", "id": 327210903, "nodes": [3339409205, 3339409206, 3339409207, 3339409208, 3339409205], "tags": {"addr:city": "Mysuru", "amenity": "school", "name": "St. Thomas School", "name:kn": "\u0cb8\u0cc7\u0c82\u0c9f\u0ccd \u0ca4\u0ccb\u0cae\u0cb8\u0ccd \u0cb6\u0cbe\u0cb2\u0cc6"}}, {"type": "way", "id": 330184298, "nodes": [3371353489, 3371353490, 4590871392, 4590871393, 3371353492, 3371353793, 3371353489], "tags": {"amenity": "school", "name": "S.V. Prajna Prinary, High School and College", "name:kn": "\u0c8e\u0cb8\u0ccd. \u0cb5\u0cbf. \u0caa\u0ccd\u0cb0\u0c9c\u0ccd\u0c9e \u0cb6\u0cbe\u0cb2\u0cc6, \u0c95\u0cbe\u0cb2\u0cc7\u0c9c\u0cc1"}}, {"type": "way", "id": 360213153, "nodes": [3648128658, 3648128659, 3648128660, 3648128661, 3648128658], "tags": {"amenity": "school"}}, {"type": "way", "id": 369331157, "nodes": [3731304607, 3731304608, 3731304609, 3731304610, 3731304611, 3731304612, 3731304613, 3731304614, 3731304607], "tags": {"addr:city": "Mysuru", "addr:postcode": "570009", "addr:street": "Sarasvatipuram 11th Main", "amenity": "school", "building": "school", "name": "Mahabodhi School", "name:kn": "\u0cae\u0cb9\u0cbe\u0cac\u0ccb\u0ca7\u0cbf \u0cb6\u0cbe\u0cb2\u0cc6", "phone": "91-821-2341603"}}, {"type": "way", "id": 426391245, "nodes": [4256988866, 4256988865, 4256988863, 4256988864, 4256988866], "tags": {"amenity": "school", "name": "Sarvajanika High School", "name:kn": "\u0cb8\u0cbe\u0cb0\u0ccd\u0cb5\u0c9c\u0ca8\u0cbf\u0c95 \u0caa\u0ccd\u0cb0\u0ccc\u0ca1\u0cb6\u0cbe\u0cb2\u0cc6"}}, {"type": "way", "id": 475476825, "nodes": [4692161426, 4692161427, 4692161428, 4692161429, 4692161426], "tags": {"amenity": "school", "name": "Kaginele Kalidasa school", "name:kn": "\u0c95\u0cbe\u0c97\u0cbf\u0ca8\u0cc6\u0cb2\u0cc6 \u0c95\u0cbe\u0cb3\u0cbf\u0ca6\u0cbe\u0cb8 \u0cb6\u0cbe\u0cb2\u0cc6"}}, {"type": "way", "id": 475476936, "nodes": [4692154545, 4692154546, 4692154547, 4692154548, 4692154545], "tags": {"amenity": "school", "name": "Sri Gokula School", "name:kn": "\u0cb6\u0ccd\u0cb0\u0cc0 \u0c97\u0ccb\u0c95\u0cc1\u0cb2 \u0cb6\u0cbe\u0cb2\u0cc6"}}, {"type": "way", "id": 475589184, "nodes": [4693236293, 4693236294, 4693236295, 4693236296, 4693236293], "tags": {"amenity": "school", "name": "Kaveri School", "name:kn": "\u0c95\u0cbe\u0cb5\u0cc7\u0cb0\u0cbf \u0cb6\u0cbe\u0cb2\u0cc6"}}, {"type": "way", "id": 475589842, "nodes": [4693243253, 4693243254, 4693243255, 4693243256, 4693243260, 4693243253], "tags": {"amenity": "school", "name": "Arivu Vidya Samsthe", "name:kn": "\u0c85\u0cb0\u0cbf\u0cb5\u0cc1 \u0cb5\u0cbf\u0ca6\u0ccd\u0caf\u0cbe \u0cb8\u0c82\u0cb8\u0ccd\u0ca5\u0cc6"}}, {"type": "way", "id": 479680540, "nodes": [4727370540, 4727370541, 4727370542, 4727370543, 4727370540], "tags": {"amenity": "school"}}, {"type": "way", "id": 549650505, "nodes": [5309448219, 5309448220, 5309448221, 5309448222, 5309448219], "tags": {"amenity": "school", "name": "Hari Vidyalaya", "name:kn": "\u0cb9\u0cb0\u0cbf \u0cb5\u0cbf\u0ca6\u0ccd\u0caf\u0cbe\u0cb2\u0caf"}}, {"type": "way", "id": 1007505513, "nodes": [9294859572, 9294859573, 9294859574, 9294859575, 9294859572], "tags": {"amenity": "school", "name": "Gnanaganga Vidyapeeta", "name:kn": "\u0c9c\u0ccd\u0c9e\u0cbe\u0ca8\u0c97\u0c82\u0c97\u0cbe \u0cb5\u0cbf\u0ca6\u0ccd\u0caf\u0cbe\u0caa\u0cc0\u0ca0"}}, {"type": "way", "id": 1192131928, "nodes": [11067289660, 4444417600, 11067289659, 11067289658, 11067289657, 11067289656, 11067289655, 11067289654, 11067289653, 11067289652, 11067289651, 11067289650, 11067289649, 11067289648, 11067289647, 11067289646, 11067289645, 11067289644, 11067289643, 11067289642, 11067289641, 11067289640, 11067289660], "tags": {"addr:city": "MYSORE", "addr:postcode": "570019", "addr:street": "MAHADEVAPURA MAIN ROAD", "amenity": "school", "name": "Police Public School", "phone": "8212459900"}}, {"type": "way", "id": 1265819005, "nodes": [11758358672, 11758358671, 11758358670, 11758358669, 11758358668, 11758358667, 11758358666, 11758358665, 11758358664, 11758358663, 11758358662, 11758358661, 11758358672], "tags": {"amenity": "school", "name": "Mysore Public School", "name:kn": "\u0cae\u0cc8\u0cb8\u0cc2\u0cb0\u0cc1 \u0caa\u0cac\u0ccd\u0cb2\u0cbf\u0c95\u0ccd \u0cb6\u0cbe\u0cb2\u0cc6"}}, {"type": "way", "id": 1301646179, "nodes": [12056348912, 12056348913, 12056348914, 12056348915, 12056348916, 12056348917, 12056348918, 12056348919, 12056348912], "tags": {"amenity": "school", "name": "Christ Public School"}}, {"type": "way", "id": 1419149985, "nodes": [13041195623, 13041195624, 13041195625, 13041195626, 13041195623], "tags": {"amenity": "school"}}, {"type": "way", "id": 1421132733, "nodes": [13059554767, 13059554766, 13059554765, 13059554764, 13059554763, 13059554762, 13059554761, 13059554767], "tags": {"amenity": "school"}}]}