{"version": 0.6, "generator": "Overpass API 0.7.62.8 e802775f", "osm3s": {"timestamp_osm_base": "2026-01-13T06:13:16Z", "copyright": "The data included in this document is from www.openstreetmap.org. The data is made available under ODbL."}, "elements": [{"type": "node", "id": 1702266641, "lat": 17.4696017, "lon": 78.3660584, "tags": {"amenity": "hospital", "healthcare": "hospital", "name": "haritha hospitals"}}, {"type": "node", "id": 2708665930, "lat": 17.497295, "lon": 78.3059988}, {"type": "node", "id": 2708665931, "lat": 17.4963628, "lon": 78.3060238}, {"type": "node", "id": 2708665932, "lat": 17.4963199, "lon": 78.3045584}, {"type": "node", "id": 2708665934, "lat": 17.4972641, "lon": 78.3045304}, {"type": "node", "id": 3484092116, "lat": 17.5070224, "lon": 78.2831164}, {"type": "node", "id": 3484092117, "lat": 17.5057838, "lon": 78.2831263}, {"type": "node", "id": 3484092118, "lat": 17.5057977, "lon": 78.2835375}, {"type": "node", "id": 3484092158, "lat": 17.5057976, "lon": 78.2835401}, {"type": "node", "id": 3484092160, "lat": 17.5058226, "lon": 78.2847529}, {"type": "node", "id": 3484092162, "lat": 17.5069071, "lon": 78.2847111}, {"type": "node", "id": 3484092163, "lat": 17.5070418, "lon": 78.2839056}, {"type": "node", "id": 3484150311, "lat": 17.5069749, "lon": 78.2843081}, {"type": "node", "id": 3617008119, "lat": 17.4953558, "lon": 78.319802}, {"type": "node", "id": 3617008123, "lat": 17.4953694, "lon": 78.3196877}, {"type": "node", "id": 3617008124, "lat": 17.4954253, "lon": 78.3198111}, {"type": "node", "id": 3617008125, "lat": 17.4954388, "lon": 78.3196967}, {"type": "node", "id": 4226395189, "lat": 17.4708232, "lon": 78.3098931}, {"type": "node", "id": 4226395190, "lat": 17.4708404, "lon": 78.3110992}, {"type": "node", "id": 4226395191, "lat": 17.4713115, "lon": 78.3110918}, {"type": "node", "id": 4226395192, "lat": 17.4713188, "lon": 78.3116012}, {"type": "node", "id": 4226395193, "lat": 17.4704397, "lon": 78.311615}, {"type": "node", "id": 4226395194, "lat": 17.4701604, "lon": 78.3113653}, {"type": "node", "id": 4226395197, "lat": 17.4701493, "lon": 78.3105839}, {"type": "node", "id": 4226395198, "lat": 17.4706805, "lon": 78.3105756}, {"type": "node", "id": 4226395199, "lat": 17.4706708, "lon": 78.3098955}, {"type": "node", "id": 4665371689, "lat": 17.4955259, "lon": 78.332226, "tags": {"addr:district": "Hyderabad", "addr:full": "86, Near R.S. Brothers, Chandanagar, Serilingampally", "addr:postcode": "500050", "addr:state": "Telangana", "amenity": "hospital", "health_facility:type": "Separate Divisions for Each Speciality; State Of The Art Operation Theatres; Post Op Lounge with Beds; Advanced Eye Care Equipment; Complete Range of Optical Frames and Lenses; Exclusive Childrens Eye Care; 24 7 Pharmacy; Ambulance Services", "healthcare": "hospital", "healthcare:speciality": "Cataract Services; Refractive Surgery; Cornea Services; Glaucoma Services; Retina Services; Paediatric Ophthalmology and Squint Services; Oculoplasty Services; UVEITIS; Neuro Ophthalmology; Vision Rehabilitation Services; Computer Vision Syndrome Clinic", "medical_system": "Allopathic", "name": "Vasan Eye Care Hospital", "name:en": "Vasan Eye Care Hospital", "opening_hours": "Mo-Sa 09:00-20:00; Su 09:00-13:00", "operator:type": "private", "phone": "040 30124500", "source": "OpenGovernmentData", "website": "https://vasaneye.com/"}}, {"type": "node", "id": 4693614990, "lat": 17.4928587, "lon": 78.327984, "tags": {"amenity": "hospital", "healthcare": "hospital", "name": "Happy Children's Hospital", "name:en": "Happy Children's Hospital"}}, {"type": "node", "id": 4695632089, "lat": 17.4921861, "lon": 78.3275773, "tags": {"amenity": "hospital", "healthcare": "hospital", "name": "Vanaja Hospital", "name:en": "Vanaja Hospital"}}, {"type": "node", "id": 4716995091, "lat": 17.4959755, "lon": 78.337417, "tags": {"addr:city": "Hyderabad", "addr:full": "1-56/AH, National Highway 9, Beside Reliance Fresh, Madinaguda, Durga Estates, Miyapur", "addr:postcode": "500049", "addr:state": "Telangana", "amenity": "hospital", "contact:phone": "040 71071000", "healthcare": "hospital", "name": "Archana Hospital", "name:en": "Archana Hospital", "operator:type": "private", "source": "OpenGovernmentData", "website": "https://archanahospitals.com/"}}, {"type": "node", "id": 5539102501, "lat": 17.5087613, "lon": 78.300147, "tags": {"addr:city": "Hyderabad", "addr:full": "H.No: 25-35/12/ 1, Opp: BEERAMGUDA KAMAN, RAMACHANDRAPURAM, MEDAK", "addr:postcode": "502032", "addr:state": "Telangana", "amenity": "hospital", "healthcare": "hospital", "name": "PANACEA MERIDIAN HOSPITAL", "opening_hours": "Mo-Su 09:00-21:00", "operator:type": "private", "source": "OpenGovernmentData"}}, {"type": "node", "id": 5682059254, "lat": 17.4788093, "lon": 78.3202299}, {"type": "node", "id": 5682059255, "lat": 17.4788008, "lon": 78.3203676}, {"type": "node", "id": 5682059256, "lat": 17.4786931, "lon": 78.3203696}, {"type": "node", "id": 5682059257, "lat": 17.4786997, "lon": 78.320219}, {"type": "node", "id": 5783995954, "lat": 17.4943337, "lon": 78.3448275, "tags": {"addr:city": "Hyderabad", "addr:housename": "Plot No 204, Mythri Nagar", "addr:housenumber": "Madina Nagar", "addr:postcode": "500049", "addr:street": "Main Road, Miyapur", "amenity": "hospital", "name": "Raja Hospital"}}, {"type": "node", "id": 6482139039, "lat": 17.4966133, "lon": 78.3398798, "tags": {"addr:district": "Hyderabad", "addr:full": "Plot Number 40/41, Mythri Nagar, Madinaguda", "addr:postcode": "500050", "addr:state": "Telangana", "amenity": "hospital", "contact:mobile": "7732038844", "health_facility:type": "Outpatient Clinic;Operating Theaters;Radiology Services;Pharmacy;Pathological Labs;Pre and Post Operating Recovery;Health Check ups", "healthcare:speciality": "Gynaecology and Obstetrics;Paediatrics;Paediatrics Surgery;General Medicine;General Surgery;Laparoscopic Surgery;Chest Physician;ENT;Urology;Neurology;NeuroSurgery;Ophthalmology;Orthopaedics;Dermatology;Physiotherapy;Dietician;Psychology", "medical_system": "Allopathic", "name": "Pranaam Hospitals", "operator:type": "private", "phone": "040 23042777", "source": "OpenGovernmentData", "website": "https://pranaamhospitals.in/"}}, {"type": "node", "id": 6485054528, "lat": 17.4956729, "lon": 78.3250616, "tags": {"addr:district": "Hyderabad", "addr:full": "2-58/8, Near Telephone Exchange, SBI Building, Chandanagar", "addr:postcode": "500050", "addr:state": "Telangana", "amenity": "hospital", "healthcare": "hospital", "name": "Vijaya Nursing Home", "phone": "040-2303-4173 ; 040-2303-6966", "source": "OpenGovernmentData", "website": "https://www.vijayanursinghome.in/"}}, {"type": "node", "id": 6485786103, "lat": 17.4932209, "lon": 78.327158, "tags": {"addr:district": "Hyderabad", "addr:full": "HUDA Colony, Opp. Kidzonia International Preschool, Chanda Nagar", "addr:postcode": "500050", "addr:state": "Telangana", "amenity": "hospital", "healthcare": "hospital", "name": "Sandhya Nursing Home", "source": "OpenGovernmentData"}}, {"type": "node", "id": 6487305068, "lat": 17.4941988, "lon": 78.3240189, "tags": {"addr:district": "Hyderabad", "addr:full": "Opp. Venkateswara Swamy Temple, Chandanagar, Gangaram", "addr:postcode": "500050", "addr:state": "Telangana", "amenity": "hospital", "email": "saisivahospital@gmail.com", "fax": "40175720", "healthcare": "hospital", "name": "Sai Siva Children\u2019s Hospital", "phone": "040- 23037879", "source": "OpenGovernmentData", "website": "https://www.saisivahospital.com/"}}, {"type": "node", "id": 6487508103, "lat": 17.4939308, "lon": 78.3267166, "tags": {"addr:district": "Hyderabad", "addr:full": "6-94/6/C, Manjeera Road, Opposite Hotel Swagath Residency, Chandanagar", "addr:postcode": "500050", "addr:state": "Telangana", "amenity": "hospital", "contact:email": "kadiminursinghome@gmail.com", "contact:mobile": "8374805630", "emergency_telephone_code": "8374805630", "fax": "040 23036926; 040 23031454", "healthcare": "hospital", "healthcare:speciality": "Laparoscopic Surgery and General Surgery;Obstetrics and Gynaecology;Infertility;Diabetes Care;Orthopadics and Trauma;Physician Care;Skin and Cosmetology;Eye;ENT;Urology;Dietician;Physiotherapy", "medical_system": "Allopathic", "name": "Kadimi Nursing Home", "operator:type": "private", "phone": "040 23033599;040 23036926;", "source": "OpenGovernmentData", "website": "https://www.kadiminursinghome.com/"}}, {"type": "node", "id": 6487609803, "lat": 17.4957541, "lon": 78.3410724, "tags": {"addr:district": "Hyderabad", "addr:full": "7-10, Opp. Pearls Inn Hotel, Madinaguda, Miyapur", "addr:postcode": "500050", "addr:state": "Telangana", "amenity": "hospital", "name": "Ragi Hospital", "source": "OpenGovernmentData"}}, {"type": "node", "id": 6487886439, "lat": 17.5044701, "lon": 78.3564663, "tags": {"addr:district": "Hyderabad", "addr:full": "Plot No's. 33,34,35, Alluri Sita Ram Raju Colony, Near DK enclave", "addr:postcode": "500050", "addr:state": "Telangana", "amenity": "hospital", "healthcare": "hospital", "name": "Mirra Multi Specialty Hospital", "source": "OpenGovernmentData"}}, {"type": "node", "id": 6489964063, "lat": 17.4954209, "lon": 78.3226825, "tags": {"addr:district": "Hyderabad", "addr:full": "2-30/A/3, Near SBI Bank and Chanda Nagar Bus Stop, Chandanagar", "addr:postcode": "500050", "addr:state": "Telangana", "amenity": "hospital", "healthcare": "hospital", "name": "RR Orthopedic Hospital", "source": "OpenGovernmentData"}}, {"type": "node", "id": 6494788582, "lat": 17.494784, "lon": 78.3404388, "tags": {"addr:district": "Hyderabad", "addr:full": "NH 65 , Madinaguda Bus Stop", "addr:postcode": "500049", "addr:state": "Telangana", "amenity": "hospital", "name": "Sarada Nursing Home", "source": "OpenGovernmentData"}}, {"type": "node", "id": 6495246032, "lat": 17.4954561, "lon": 78.3208955, "tags": {"addr:district": "Hyderabad", "addr:full": "NH 9, Opposite Bharat Petrol Pump, Chandanagar", "addr:postcode": "500050", "addr:state": "Telangana", "amenity": "hospital", "fax": "040 23030345", "healthcare": "hospital", "name": "Vishnu Hospital", "source": "OpenGovernmentData"}}, {"type": "node", "id": 6496965130, "lat": 17.4947378, "lon": 78.3225725, "tags": {"addr:district": "Hyderabad", "addr:full": "Opposite State Bank Of India, Near Chandanagar Bus Stop, Chandanagar", "addr:postcode": "500050", "addr:state": "Telangana", "amenity": "hospital", "fax": "23020564", "healthcare": "hospital", "name": "Kiran Swetha Children Clinic", "source": "OpenGovernmentData"}}, {"type": "node", "id": 6497026146, "lat": 17.4982349, "lon": 78.3144481, "tags": {"addr:district": "Hyderabad", "addr:full": "Plot No: 5-4/12-16, Opposite Gandamma Temple, Chanda Nagar Main Road", "addr:state": "Telangana", "amenity": "hospital", "emergency_telephone_code": "9848030128", "fax": "040 40212000; 040 23030381", "health_facility:type": "Cardiology;Cardio Vascular and Thoracic Surgery;Trauma and Critical Care", "healthcare": "hospital", "healthcare:speciality": "Casuality;Opthalmology;Dermatology;General Surgery;Physiotherapy;Neurology;Pediatrics;Cardiology", "medical_system": "Allopathic", "name": "Mythri Multi Speciality Hospital", "operator:type": "private", "phone": "040 64633357;040 64633358;040 64633359", "source": "OpenGovernmentData"}}, {"type": "node", "id": 6503086685, "lat": 17.4946701, "lon": 78.3268218, "tags": {"addr:district": "Hyderabad", "addr:full": "Opp.Swagath Hotel, Above RKS Electronics, Chandanagar", "addr:postcode": "500050", "addr:state": "Telangana", "amenity": "hospital", "healthcare": "hospital", "name": "Sai Anurag Hosptial", "source": "OpenGovernmentData"}}, {"type": "node", "id": 6503755850, "lat": 17.4943913, "lon": 78.3232471, "tags": {"addr:district": "Hyderabad", "addr:full": "4-122/A, Opposite Vijaya Bank, Chanda Nagar", "addr:postcode": "500050", "addr:state": "Telangana", "amenity": "hospital", "fax": "040 23039092", "healthcare": "hospital", "name": "Anitha Nursing Home", "source": "OpenGovernmentData"}}, {"type": "node", "id": 6505170700, "lat": 17.4947648, "lon": 78.3600202, "tags": {"addr:district": "Hyderabad", "addr:full": "Plot No. 12 & 13, Madhava Nagar, Behind Sai Ranga Theatre, Miyapur", "addr:postcode": "500049", "addr:state": "Telangana", "amenity": "hospital", "contact:phone": "040 23040450; 040 23048625", "fax": "040 23042800", "name": "Shilpa Nursing Home", "source": "OpenGovernmentData"}}, {"type": "node", "id": 6532106149, "lat": 17.5046076, "lon": 78.3088705, "tags": {"addr:city": "Hyderabad", "addr:district": "Hyderabad", "addr:full": "Near Ashok Nagar Bus Stop, Ramachandra Puram", "addr:postcode": "502032", "addr:state": "Telangana", "addr:street": "Surekha Lane, Ashok Nagar", "amenity": "hospital", "healthcare": "doctor", "healthcare:speciality": "general", "name": "Sri Pallavi Hospital", "name:te": "\u0c36\u0c4d\u0c30\u0c40 \u0c2a\u0c32\u0c4d\u0c32\u0c35\u0c3f \u0c39\u0c3e\u0c38\u0c4d\u0c2a\u0c3f\u0c1f\u0c32\u0c4d", "source": "OpenGovernmentData;local knowledge"}}, {"type": "node", "id": 6532278196, "lat": 17.5022005, "lon": 78.3129877, "tags": {"addr:district": "Hyderabad", "addr:full": "23-15, Vinayaknagar, Ramachandrapuram", "addr:postcode": "502032", "addr:state": "Telangana", "amenity": "hospital", "healthcare": "hospital", "name": "Sidhartha Nursing Home", "source": "OpenGovernmentData"}}, {"type": "node", "id": 6536715096, "lat": 17.4707013, "lon": 78.3109143, "tags": {"addr:district": "Hyderabad", "addr:full": "1-100/1/CCH, Near Aparna Sarovar, Nallagandla, Serilingampally", "addr:postcode": "500019", "addr:state": "Telangana", "amenity": "hospital", "contact:phone": "18002082000", "emergency": "yes", "healthcare": "hospital", "name": "American Oncology Institute", "source": "OpenGovernmentData", "website": "https://www.americanoncology.com"}}, {"type": "node", "id": 6536715097, "lat": 17.4707742, "lon": 78.3113113, "tags": {"addr:district": "Hyderabad", "addr:full": "Near Aparna Sarovar, Nallagandla, Serilingampally", "addr:postcode": "500019", "addr:state": "Telangana", "aeroway": "no", "amenity": "hospital", "contact:email": "info@citizenshospitals.com", "emergency": "yes", "health_facility:type": "Outpatient and Inpatient Services;x ray and ultrasound;ECG;2D Echo Digital;lab services through our partner;AmPath", "healthcare": "hospital", "healthcare:speciality": "Anesthesiology;Bariatric Surgery;Cardiology;Critical Care;Dentistry;Dermatology;Diabetology;ENT;Gastroenterology;General Surgery;Internal Medicine;Nephrology;Neurology;Gynaecology;Orthopedics;Pediatrics;Surgical Oncology;Urology", "medical_system": "Allopathic", "name": "Citizens Specialty Hospital", "operator:type": "private", "phone": "040 67191919", "source": "OpenGovernmentData", "website": "https://www.citizenshospitals.com/", "wheelchair": "yes"}}, {"type": "node", "id": 6536841915, "lat": 17.5057043, "lon": 78.3072115, "tags": {"addr:district": "Hyderabad", "addr:full": "24-60/1, Road No.1, Kakathiya Nagar, BHEL, Ashok Nagar, R.C. Puram", "addr:postcode": "500032", "addr:state": "Telangana", "amenity": "hospital", "healthcare": "hospital", "name": "Maruthi Hospital", "source": "OpenGovernmentData"}}, {"type": "node", "id": 6549141640, "lat": 17.4944322, "lon": 78.3415653, "tags": {"addr:city": "Hyderabad", "addr:full": "Plot No:26-27-29, NEAR VIJETHA SUPER MARKET, BEHIND BHARAT PETROL PUMP, MADINAGUDA", "addr:postcode": "500049", "addr:state": "Telangana", "amenity": "hospital", "contact:phone": "040 23043693", "name": "NAIDU EYE HOSPITAL", "operator:type": "private", "source": "OpenGovernmentData"}}, {"type": "node", "id": 6549150740, "lat": 17.494321, "lon": 78.3461505, "tags": {"addr:city": "Hyderabad", "addr:district": "Rangareddy", "addr:full": "Plot No:. 204, Mythri Nagar, Near Madinaguda, Miyapur", "addr:postcode": "500049", "addr:state": "Telangana", "amenity": "hospital", "contact:phone": "04023044155; 42007070", "fax": "23044133", "name": "HEALIX HOSPITAL", "operator:type": "private", "source": "OpenGovernmentData"}}, {"type": "node", "id": 6549190771, "lat": 17.4921363, "lon": 78.348083, "tags": {"addr:full": "#222&223, MYTHRINAGAR, PHASE-II, Opp FORTURE HEIGHTS, MIYAPUR", "addr:postcode": "500049", "addr:state": "Telangana", "amenity": "hospital", "contact:phone": "04047470000", "name": "SRIKARA HOSPITALS", "operator:type": "private", "source": "OpenGovernmentData", "website": "https://www.srikarahospitals.com/"}}, {"type": "node", "id": 6549287021, "lat": 17.4954081, "lon": 78.3213112, "tags": {"addr:district": "Hyderabad", "addr:full": "2 - 24/1, Rajalaxmi Complex, SBI Building, Main Road, Chandanagar", "addr:postcode": "500050", "addr:state": "Telangana", "amenity": "hospital", "contact:phone": "4040065444", "healthcare": "hospital", "name": "VIJAYA SREE HOSPITAL", "operator:type": "private", "source": "OpenGovernmentData"}}, {"type": "node", "id": 6549349841, "lat": 17.4947571, "lon": 78.3432363, "tags": {"addr:city": "Hyderabad", "addr:full": "Plot No: 83 & 103, Miyapur Main Road", "addr:postcode": "500049", "addr:state": "Telangana", "amenity": "hospital", "contact:phone": "4023031113", "name": "HAPPY HOSPITAL", "operator:type": "private", "source": "OpenGovernmentData"}}, {"type": "node", "id": 6549437828, "lat": 17.496072, "lon": 78.3452386, "tags": {"addr:city": "Hyderabad", "addr:full": "Plot No:38/225, Near St. Ann's School, Madinaguda, Miyapur", "addr:postcode": "500049", "addr:state": "Telangana", "amenity": "hospital", "contact:phone": "4023048399", "name": "MOTHERHOOD FERTILITY CENTRE", "operator:type": "private", "source": "OpenGovernmentData"}}, {"type": "node", "id": 6562261140, "lat": 17.4953327, "lon": 78.3461183, "tags": {"addr:district": "Hyderabad", "addr:full": "1-58/7/3, 3rd Floor, Near St Ann's School & Bajaj Electronics, Madinaguda", "addr:postcode": "500049", "addr:state": "Telangana", "amenity": "hospital", "name": "Vijaya Hospital", "source": "OpenGovernmentData"}}, {"type": "node", "id": 6811749059, "lat": 17.5101637, "lon": 78.2998532, "tags": {"addr:district": "Sanga Reddy", "addr:full": "Mallikarjuna Nagar,near Beerumguda Kaman, BesideKrishna Reddy Sweet Lane,Beerumguda, RC Puram", "addr:postcode": "502032", "addr:state": "Telangana", "amenity": "hospital", "contact:mobile": "7095685678", "healthcare": "hospital", "name": "RM Hospital", "source": "OpenGovernmentData"}}, {"type": "node", "id": 6811749132, "lat": 17.509869, "lon": 78.299367, "tags": {"addr:district": "Sanga Reddy", "addr:full": "Mallikarjun Nagar,Beeramguda, NH 9, Near Vijetha Supermarket", "addr:postcode": "502032", "addr:state": "Telangana", "amenity": "hospital", "contact:mobile": "9652286688", "healthcare": "hospital", "name": "Eureka Hospital", "source": "OpenGovernmentData"}}, {"type": "node", "id": 6811749146, "lat": 17.4795083, "lon": 78.3202454, "tags": {"addr:district": "Hyderabad", "addr:full": "ADARSH NAGAR, OPPOOSITE TO GULMOHAR PARK, Serilingampally", "addr:state": "Telangana", "amenity": "hospital", "healthcare": "hospital", "name": "Shreya Hospitals", "operator:type": "private", "source": "OpenGovernmentData"}}, {"type": "node", "id": 6811749176, "lat": 17.5064717, "lon": 78.284726}, {"type": "node", "id": 6811749180, "lat": 17.4934982, "lon": 78.3209211, "tags": {"addr:district": "Medchal Malkajgiri", "addr:full": "H.No. 5-126/1, Opp. Taruni Auto Works, Chandanagar", "addr:postcode": "500050", "addr:state": "Telangana", "amenity": "hospital", "healthcare": "hospital", "name": "Archana Multi Speciality Hospital", "source": "OpenGovernmentData"}}, {"type": "node", "id": 6830806688, "lat": 17.4944955, "lon": 78.3296853, "tags": {"addr:district": "Hyderabad", "addr:full": "NH-65, Gangaram, Chandanagar", "addr:postcode": "500050", "addr:state": "Telangana", "amenity": "hospital", "healthcare": "hospital", "name": "Gangaram Community Hall Health Sub Center", "source": "OpenGovernmentData"}}, {"type": "node", "id": 7007970916, "lat": 17.4948228, "lon": 78.3401789, "tags": {"amenity": "hospital", "healthcare": "hospital", "healthcare:speciality": "ophthalmology", "name": "Titan eye plus"}}, {"type": "node", "id": 7174077374, "lat": 17.5133146, "lon": 78.3022088, "tags": {"addr:city": "beeramguda", "addr:postcode": "502032", "addr:street": "Sai Colony", "amenity": "hospital", "ele": "3", "healthcare": "hospital", "healthcare:speciality": "general", "name": "Tirumala Hospital", "operator": "Tirumala Roa", "operator:type": "private_for_profit"}}, {"type": "node", "id": 7243959583, "lat": 17.4947296, "lon": 78.341244, "tags": {"amenity": "hospital", "healthcare": "hospital", "name": "Ankura Children hospital"}}, {"type": "node", "id": 7244398147, "lat": 17.493937, "lon": 78.351628, "tags": {"amenity": "hospital", "healthcare": "hospital", "name": "Dr.agarwals"}}, {"type": "node", "id": 8007022925, "lat": 17.4998816, "lon": 78.3574735, "tags": {"addr:city": "Hyderabad", "addr:postcode": "500049", "addr:street": "Pragathi Enclave Colony, Miyapur", "amenity": "hospital", "emergency": "no", "healthcare": "hospital", "healthcare:speciality": "general;gynaecology", "name": "Tirumala Nursing home", "operator": "Individual", "operator:type": "private"}}, {"type": "node", "id": 8386241852, "lat": 17.4907039, "lon": 78.3373612}, {"type": "node", "id": 8386241853, "lat": 17.490675, "lon": 78.3374915}, {"type": "node", "id": 8386241854, "lat": 17.4904668, "lon": 78.3374466}, {"type": "node", "id": 8386241855, "lat": 17.4904948, "lon": 78.3373154}, {"type": "node", "id": 8733731577, "lat": 17.498279, "lon": 78.3146178, "tags": {"addr:district": "Sangareddy", "addr:full": "Door No 22, Kalyani Towers, opposite Gandemma Temple", "addr:postcode": "500020", "addr:state": "Telangana", "amenity": "hospital", "healthcare": "hospital", "name": "Medicover Hospital ,Chandanagar", "source": "Local Knowledge"}}, {"type": "node", "id": 8733734629, "lat": 17.4943209, "lon": 78.3168615, "tags": {"addr:district": "Sangareddy", "addr:full": "BHEL X Roads, 2-82/1/2, BHEL Road, Near Lingampally Bus Stop, Kanukunta, Tara Nagar, Chanda Nagar", "addr:postcode": "502032", "addr:state": "Telangana", "amenity": "hospital", "healthcare": "hospital", "name": "Preeti Urology & Kidney Hospital ,BHEL, Lingampally", "source": "Local Knowledge"}}, {"type": "node", "id": 8747920907, "lat": 17.4940216, "lon": 78.3227858, "tags": {"addr:district": "Rangareddy", "addr:full": "Manjeera Road, Indira Nagar, Chanda Nagar", "addr:postcode": "500050", "addr:state": "Telangana", "amenity": "hospital", "healthcare": "hospital", "name": "Archana Hospital", "source": "Local Knowledge"}}, {"type": "node", "id": 8748479530, "lat": 17.4940229, "lon": 78.3470745, "tags": {"addr:district": "Rangareddy", "addr:full": "Mythri Nagar, Madinaguda Beside South India Shopping Mall, Hafeezpet", "addr:postcode": "500050", "addr:state": "Telangana", "amenity": "hospital", "name": "Pace Hospitals ,Madinaguda", "source": "Local Knowledge"}}, {"type": "node", "id": 8760595032, "lat": 17.5385472, "lon": 78.3574721, "tags": {"addr:district": "Medchal", "addr:full": "Bollaram Industrial Area, Hyderabad", "addr:postcode": "500090", "addr:state": "Telangana", "amenity": "hospital", "name": "Mamata Academy of Medical Sciences Hospital", "source": "Local Knowledge"}}, {"type": "node", "id": 8763260113, "lat": 17.5380971, "lon": 78.3638048, "tags": {"addr:district": "Medchal", "addr:full": "chowrastha, Bachupally, Hyderabad", "addr:postcode": "500090", "addr:state": "Telangana", "amenity": "hospital", "name": "Sri Swastik Multispeciality Hospital", "source": "Local Knowledge"}}, {"type": "node", "id": 8763316074, "lat": 17.4951229, "lon": 78.3574077, "tags": {"addr:district": "Medchal", "addr:full": "Jagdish Complex,Miyapur Main Road, Ambedkar Nagar, Miyapur", "addr:postcode": "500049", "addr:state": "Telangana", "amenity": "hospital", "name": "Udbhava Hospital ,Miyapur", "source": "Local Knowledge"}}, {"type": "node", "id": 8763591483, "lat": 17.5281685, "lon": 78.3625871, "tags": {"addr:district": "Medchal", "addr:full": "SLG Circle, Krishnaja Hills, Nizampet, Hyderabad", "addr:postcode": "500090", "addr:state": "Telangana", "amenity": "hospital", "name": "SLG Hospitals", "source": "Local Knowledge"}}, {"type": "node", "id": 9605389618, "lat": 17.4940583, "lon": 78.3212245, "tags": {"amenity": "hospital", "healthcare": "hospital", "name": "Chenna reddy hospital"}}, {"type": "node", "id": 11230719677, "lat": 17.4707752, "lon": 78.3116097}, {"type": "node", "id": 11489967865, "lat": 17.5458731, "lon": 78.3359459, "tags": {"amenity": "hospital", "healthcare": "hospital"}}, {"type": "way", "id": 265204509, "nodes": [2708665930, 2708665931, 2708665932, 2708665934, 2708665930], "tags": {"addr:city": "hyderabad", "addr:district": "Medak", "addr:full": "Ramachandrapuram, Patancheru", "addr:postcode": "502032", "addr:state": "Telangana", "addr:street": "BHEL", "amenity": "hospital", "healthcare": "hospital", "name": "BHEL Hospital", "source": "OpenGovernmentData"}}, {"type": "way", "id": 356240039, "nodes": [3617008125, 3617008124, 3617008119, 3617008123, 3617008125], "tags": {"addr:city": "Hyderabad", "addr:housenumber": "1-76", "addr:postcode": "500050", "addr:street": "Chandanagar - RC Puram BHEL Rd Mumbai Highway", "amenity": "hospital", "description": "Your healing is our priority... A group of like-minded doctors with various specialties trying to deliver standard medical services with an attitude to progress from time to time and motto to provide quality services as per the needs of people.", "email": "vhealmultispecialitycenter@gmail.com", "healthcare": "hospital", "healthcare:speciality": "general;orthopaedics;dermatology;gynaecology;otorhy;otolorhynology;ENT", "image": "https://business.google.com/u/2/photos/l/18440308866862923974", "internet_access": "wlan", "name": "VHeal ENT, ORTHO and Multispeciality Center", "name:te": "\u0c35\u0c3f \u0c39\u0c40\u0c32\u0c4d \u0c07 \u0c0e\u0c28\u0c4d \u0c1f\u0c3f & \u0c0e\u0c2e\u0c41\u0c15\u0c32\u0c42 \u0c2e\u0c30\u0c3f\u0c2f\u0c41 \u0c2e\u0c32\u0c4d\u0c1f\u0c40\u0c38\u0c4d\u0c2a\u0c46\u0c37\u0c3e\u0c32\u0c3f\u0c1f\u0c40 \u0c38\u0c46\u0c02\u0c1f\u0c30\u0c4d", "operator": "Dr.Mohammad Yawar, Dr.P.Srinivas", "operator:type": "private", "phone": "+91 77940 47396", "start_date": "2020-07-18", "website": "https://vhealu.github.io", "wheelchair": "yes"}}, {"type": "way", "id": 422917298, "nodes": [4226395189, 4226395190, 4226395191, 4226395192, 11230719677, 4226395193, 4226395194, 4226395197, 4226395198, 4226395199, 4226395189], "tags": {"amenity": "hospital", "healthcare": "hospital"}}, {"type": "way", "id": 596480014, "nodes": [5682059254, 5682059255, 5682059256, 5682059257, 5682059254], "tags": {"amenity": "hospital", "healthcare": "hospital"}}, {"type": "way", "id": 879108467, "nodes": [3484092158, 3484092160, 6811749176, 3484092162, 3484150311, 3484092163, 3484092116, 3484092117, 3484092118, 3484092158], "tags": {"addr:district": "Sanga Reddy", "addr:full": "Ramachandra Puram", "addr:postcode": "502032", "addr:state": "Telangana", "amenity": "hospital", "healthcare": "hospital", "name": "ESI Hospital", "operator": "Employees' State Insurance", "operator:short": "ESI", "operator:type": "public", "operator:wikidata": "Q3595726", "source": "OpenGovernmentData"}}, {"type": "way", "id": 902925307, "nodes": [8386241852, 8386241853, 8386241854, 8386241855, 8386241852], "tags": {"addr:city": "hyderabad", "addr:postcode": "500049", "addr:street": "Manjira Pipeline Road", "amenity": "hospital", "emergency": "yes", "healthcare": "hospital", "name": "Lakshmi hospital"}}]}