{"version": 0.6, "generator": "Overpass API 0.7.62.8 e802775f", "osm3s": {"timestamp_osm_base": "2026-01-12T12:56:14Z", "copyright": "The data included in this document is from www.openstreetmap.org. The data is made available under ODbL."}, "elements": [{"type": "node", "id": 267214379, "lat": 12.9134182, "lon": 77.6774852, "tags": {"amenity": "hospital", "healthcare": "hospital", "name": "Clinic"}}, {"type": "node", "id": 307401529, "lat": 12.9263714, "lon": 77.6765455, "tags": {"addr:city": "Belandur, Bangalore", "addr:full": "74/1, Bellandur, Ring Road, Varthur", "addr:housenumber": "74/1", "addr:postcode": "560037", "addr:state": "Karnataka", "addr:street": "Outer Ring Road", "amenity": "hospital", "email": "whitefield@theapolloclinic.com", "healthcare": "hospital", "name": "Apollo Hospital", "name:kn": "\u0c85\u0caa\u0cca\u0cb2\u0ccb \u0c86\u0cb8\u0ccd\u0caa\u0ca4\u0ccd\u0cb0\u0cc6", "phone": "+91-80-40222555", "website": "http://www.apolloclinicbangalore.com/", "wheelchair": "yes"}}, {"type": "node", "id": 308866071, "lat": 12.9155759, "lon": 77.6349897, "tags": {"addr:street": "Outer Ring Road", "amenity": "hospital", "name": "Narayana Hrudayalaya Dental Clinic", "name:kn": "\u0ca8\u0cbe\u0cb0\u0cbe\u0caf\u0ca3 \u0cb9\u0cc3\u0ca6\u0caf\u0cbe\u0cb2\u0caf \u0ca6\u0c82\u0ca4 \u0c86\u0cb8\u0ccd\u0caa\u0ca4\u0ccd\u0cb0\u0cc6"}}, {"type": "node", "id": 310393723, "lat": 12.9129006, "lon": 77.6419101, "tags": {"amenity": "hospital", "healthcare": "hospital", "name": "Dr Ganesh Medical and Diabetic Clinic", "name:kn": "\u0ca1\u0cbe \u0c97\u0ca3\u0cc7\u0cb6\u0ccd \u0cae\u0cc6\u0ca1\u0cbf\u0c95\u0cb2\u0ccd \u0cae\u0ca4\u0ccd\u0ca4\u0cc1 \u0cae\u0ca7\u0cc1\u0cae\u0cc7\u0cb9 \u0c86\u0cb8\u0ccd\u0caa\u0ca4\u0ccd\u0cb0\u0cc6"}}, {"type": "node", "id": 456013713, "lat": 12.920362, "lon": 77.665088}, {"type": "node", "id": 671185206, "lat": 12.960765, "lon": 77.7137961, "tags": {"amenity": "hospital", "name": "Hema Poly Clinic"}}, {"type": "node", "id": 975680681, "lat": 12.9559302, "lon": 77.7112689, "tags": {"addr:city": "Bangalore", "addr:street": "Varthur Road", "amenity": "hospital", "emergency": "yes", "healthcare": "hospital", "name": "Yashomathi Hospitals"}}, {"type": "node", "id": 1091417875, "lat": 12.9585862, "lon": 77.648591}, {"type": "node", "id": 1091417882, "lat": 12.958313, "lon": 77.6484841}, {"type": "node", "id": 1091417892, "lat": 12.9584826, "lon": 77.6476282}, {"type": "node", "id": 1150839598, "lat": 12.9568527, "lon": 77.6990468, "tags": {"addr:district": "Bengaluru Urban", "addr:full": "93/1, 565, Srinivasa Complex Ring Road Attached To Main Road", "addr:postcode": "560037", "addr:state": "Karnataka", "addr:street": "Varthur Road", "amenity": "hospital", "level": "0", "name": "New Akshay Mallya Hospital", "source": "OpenGovernmentData"}}, {"type": "node", "id": 1365797741, "lat": 12.9586563, "lon": 77.7134009}, {"type": "node", "id": 1365797746, "lat": 12.9562964, "lon": 77.7141388}, {"type": "node", "id": 1365797761, "lat": 12.9585004, "lon": 77.7128362}, {"type": "node", "id": 1365797762, "lat": 12.9561646, "lon": 77.713565}, {"type": "node", "id": 1381347333, "lat": 12.9561727, "lon": 77.7128895}, {"type": "node", "id": 1381347338, "lat": 12.9574888, "lon": 77.7122282}, {"type": "node", "id": 1381347348, "lat": 12.9579489, "lon": 77.712078}, {"type": "node", "id": 1381347351, "lat": 12.9576543, "lon": 77.7121582}, {"type": "node", "id": 1381347386, "lat": 12.9577816, "lon": 77.7121102}, {"type": "node", "id": 1381347388, "lat": 12.9573197, "lon": 77.7123299}, {"type": "node", "id": 1381347390, "lat": 12.9581227, "lon": 77.7129523}, {"type": "node", "id": 1381347423, "lat": 12.9571229, "lon": 77.7124374}, {"type": "node", "id": 1381347431, "lat": 12.9566471, "lon": 77.7127325}, {"type": "node", "id": 1428600902, "lat": 12.9573067, "lon": 77.7087044, "tags": {"addr:city": "Marathahalli, Bangalore", "addr:housenumber": "S1,S2", "addr:street": "Spice Garden Compound Road", "amenity": "hospital", "check_date": "2024-08-25", "emergency": "no", "name": "Tenet diagnostics"}}, {"type": "node", "id": 1434179292, "lat": 12.9596344, "lon": 77.6490229}, {"type": "node", "id": 1437213383, "lat": 12.9111263, "lon": 77.7073377, "tags": {"amenity": "hospital", "name": "Karunalayam Hospital"}}, {"type": "node", "id": 1464138157, "lat": 12.9585405, "lon": 77.6485994}, {"type": "node", "id": 1464138158, "lat": 12.957821, "lon": 77.6473166}, {"type": "node", "id": 1464138159, "lat": 12.9582823, "lon": 77.6491764}, {"type": "node", "id": 1464138160, "lat": 12.9590181, "lon": 77.6494162}, {"type": "node", "id": 1464138164, "lat": 12.9589467, "lon": 77.6494599}, {"type": "node", "id": 1464138170, "lat": 12.9578852, "lon": 77.6481906}, {"type": "node", "id": 1464138171, "lat": 12.9587679, "lon": 77.648704}, {"type": "node", "id": 1464138179, "lat": 12.9581936, "lon": 77.6474152}, {"type": "node", "id": 1464138181, "lat": 12.9575211, "lon": 77.6479828}, {"type": "node", "id": 1464138185, "lat": 12.9589148, "lon": 77.6487905}, {"type": "node", "id": 1464138190, "lat": 12.9584098, "lon": 77.6486665}, {"type": "node", "id": 1464138196, "lat": 12.9584412, "lon": 77.6486289}, {"type": "node", "id": 1464138198, "lat": 12.9587679, "lon": 77.6487711}, {"type": "node", "id": 1464138199, "lat": 12.9582817, "lon": 77.6492311}, {"type": "node", "id": 1464138200, "lat": 12.9591365, "lon": 77.6488918}, {"type": "node", "id": 1464138203, "lat": 12.9582373, "lon": 77.6490634}, {"type": "node", "id": 1464138206, "lat": 12.9586636, "lon": 77.6493923}, {"type": "node", "id": 1464138207, "lat": 12.9591735, "lon": 77.6489904}, {"type": "node", "id": 1464138212, "lat": 12.9588647, "lon": 77.6488167}, {"type": "node", "id": 1464138219, "lat": 12.9582661, "lon": 77.6491519}, {"type": "node", "id": 1464138222, "lat": 12.9584909, "lon": 77.6486021}, {"type": "node", "id": 1464138230, "lat": 12.9586791, "lon": 77.6493531}, {"type": "node", "id": 1468908282, "lat": 12.9158901, "lon": 77.6506948, "tags": {"addr:street": "13th cross", "amenity": "hospital", "healthcare": "hospital", "name": "Asha Clinic"}}, {"type": "node", "id": 1468908300, "lat": 12.9075992, "lon": 77.6488507, "tags": {"amenity": "hospital", "name": "health nest"}}, {"type": "node", "id": 1472878021, "lat": 12.9162576, "lon": 77.6374069, "tags": {"amenity": "hospital", "check_date": "2023-08-29", "name": "Devi Eye Hospital", "name:en": "Devi Eye Hospital", "wheelchair": "limited"}}, {"type": "node", "id": 1485636649, "lat": 12.9580486, "lon": 77.6493383}, {"type": "node", "id": 1485636653, "lat": 12.9584173, "lon": 77.6485249}, {"type": "node", "id": 1485636664, "lat": 12.9595613, "lon": 77.649742}, {"type": "node", "id": 1693120843, "lat": 12.9267954, "lon": 77.6699091, "tags": {"amenity": "hospital", "designation": "Hospital", "emergency": "yes", "healthcare": "hospital", "level": "2", "name": "Sunny Medicals Hospital Clinic", "source": "Survey", "wheelchair": "limited", "wheelchair:description": "Steps at entrace to building, lift to hospital"}}, {"type": "node", "id": 1835512586, "lat": 12.9074968, "lon": 77.6492213, "tags": {"amenity": "hospital", "name": "Cure & Care Dental Clinic Dr. Moumita Mukherjee"}}, {"type": "node", "id": 2387173532, "lat": 12.9191813, "lon": 77.6381379, "tags": {"addr:city": "Bengaluru", "addr:district": "Bengaluru", "addr:postcode": "560102", "addr:street": "14th Main Rd, opposite Agara Lake, Sector 5, 1st Sector, HSR Layout", "amenity": "hospital", "emergency": "yes", "healthcare": "hospital", "name": "Greenview Medical Center"}}, {"type": "node", "id": 2413039443, "lat": 12.9196968, "lon": 77.6649185}, {"type": "node", "id": 2413417389, "lat": 12.9325891, "lon": 77.6859257}, {"type": "node", "id": 2413417397, "lat": 12.9326863, "lon": 77.6847259}, {"type": "node", "id": 2414612953, "lat": 12.9121004, "lon": 77.6485848, "tags": {"amenity": "hospital", "emergency": "no", "healthcare": "hospital", "name": "Vaidyaratnam Oushadhasala", "website": "https://www.vaidyaratnammooss.com/"}}, {"type": "node", "id": 2449294308, "lat": 12.8791713, "lon": 77.6454925, "tags": {"amenity": "hospital", "emergency": "yes", "name": "Live100"}}, {"type": "node", "id": 2623332318, "lat": 12.9231571, "lon": 77.6728066, "tags": {"amenity": "hospital", "healthcare": "hospital", "name": "Narayana Hrudayalaya Dental Clinic", "name:kn": "\u0ca8\u0cbe\u0cb0\u0cbe\u0caf\u0ca3 \u0cb9\u0cc3\u0ca6\u0caf\u0cbe\u0cb2\u0caf \u0ca6\u0c82\u0ca4 \u0c86\u0cb8\u0ccd\u0caa\u0ca4\u0ccd\u0cb0\u0cc6"}}, {"type": "node", "id": 2678582670, "lat": 12.9555896, "lon": 77.7053584}, {"type": "node", "id": 2678582671, "lat": 12.9555889, "lon": 77.705257}, {"type": "node", "id": 2678582672, "lat": 12.955419, "lon": 77.7052582}, {"type": "node", "id": 2678582673, "lat": 12.9554197, "lon": 77.7053597}, {"type": "node", "id": 2937449060, "lat": 12.9607845, "lon": 77.6669509}, {"type": "node", "id": 2937449064, "lat": 12.9617786, "lon": 77.6651962}, {"type": "node", "id": 2937449065, "lat": 12.9608786, "lon": 77.6676965}, {"type": "node", "id": 2937449066, "lat": 12.9608637, "lon": 77.6662637}, {"type": "node", "id": 2937449069, "lat": 12.9608219, "lon": 77.6673634}, {"type": "node", "id": 2937449070, "lat": 12.9625209, "lon": 77.6672454}, {"type": "node", "id": 2937449071, "lat": 12.9615851, "lon": 77.665341}, {"type": "node", "id": 2937449072, "lat": 12.9610773, "lon": 77.6657975}, {"type": "node", "id": 2937449076, "lat": 12.9619103, "lon": 77.6652831}, {"type": "node", "id": 2937449077, "lat": 12.9639525, "lon": 77.6653415}, {"type": "node", "id": 2937449078, "lat": 12.96378, "lon": 77.6655829}, {"type": "node", "id": 2937449080, "lat": 12.9630324, "lon": 77.664553}, {"type": "node", "id": 2937449081, "lat": 12.9610153, "lon": 77.6681225}, {"type": "node", "id": 2937449084, "lat": 12.9620988, "lon": 77.665157}, {"type": "node", "id": 2937449085, "lat": 12.9617263, "lon": 77.6682539}, {"type": "node", "id": 2937449088, "lat": 12.960801, "lon": 77.6665641}, {"type": "node", "id": 3298366366, "lat": 12.9632004, "lon": 77.6647822}, {"type": "node", "id": 3299149245, "lat": 12.9575576, "lon": 77.649134}, {"type": "node", "id": 3299149250, "lat": 12.9585405, "lon": 77.6465399}, {"type": "node", "id": 3299149253, "lat": 12.9584405, "lon": 77.6478809}, {"type": "node", "id": 3421728215, "lat": 12.9193427, "lon": 77.6380084}, {"type": "node", "id": 3421728216, "lat": 12.9193342, "lon": 77.6382471}, {"type": "node", "id": 3421728217, "lat": 12.9190429, "lon": 77.6382363}, {"type": "node", "id": 3421728218, "lat": 12.9190513, "lon": 77.6379975}, {"type": "node", "id": 3477797688, "lat": 12.9241818, "lon": 77.6737518, "tags": {"addr:district": "Bengaluru Urban", "addr:full": "446/21 Above Vijaya Bank, Opposite To Amba Bajaja Showroom", "addr:postcode": "560103", "addr:state": "Karnataka", "amenity": "hospital", "healthcare": "hospital", "name": "Nelivigi Eye Hospital", "operator:type": "private", "source": "OpenGovernmentData", "website": "https://www.nelivigieyehospital.com/"}}, {"type": "node", "id": 3530490171, "lat": 12.9584692, "lon": 77.6493062}, {"type": "node", "id": 3530490172, "lat": 12.958894, "lon": 77.6487922}, {"type": "node", "id": 3530490173, "lat": 12.9589902, "lon": 77.6494456}, {"type": "node", "id": 3530490174, "lat": 12.9591193, "lon": 77.6492153}, {"type": "node", "id": 3530490175, "lat": 12.959134, "lon": 77.6492201}, {"type": "node", "id": 3530490176, "lat": 12.9591467, "lon": 77.6490803}, {"type": "node", "id": 3530490177, "lat": 12.9591483, "lon": 77.6489231}, {"type": "node", "id": 3530490178, "lat": 12.9591558, "lon": 77.6489201}, {"type": "node", "id": 3530490179, "lat": 12.959172, "lon": 77.6490983}, {"type": "node", "id": 3530490180, "lat": 12.9591776, "lon": 77.6489772}, {"type": "node", "id": 3532358821, "lat": 12.9599032, "lon": 77.7125839}, {"type": "node", "id": 3532358831, "lat": 12.9599161, "lon": 77.7126902}, {"type": "node", "id": 3532358875, "lat": 12.9600078, "lon": 77.7125706}, {"type": "node", "id": 3532358887, "lat": 12.9600206, "lon": 77.7126768}, {"type": "node", "id": 3541798347, "lat": 12.9517397, "lon": 77.6994832, "tags": {"amenity": "hospital", "healthcare": "hospital", "level": "1", "name": "Sanghi Medical Centre (P) Ltd"}}, {"type": "node", "id": 3725710400, "lat": 12.962951, "lon": 77.6418711, "tags": {"amenity": "hospital", "name": "Gift IVF center"}}, {"type": "node", "id": 3761101701, "lat": 12.9593123, "lon": 77.6464111}, {"type": "node", "id": 3761101702, "lat": 12.9592285, "lon": 77.6465953}, {"type": "node", "id": 3761101703, "lat": 12.9589964, "lon": 77.6464842}, {"type": "node", "id": 3761101704, "lat": 12.9590802, "lon": 77.6463}, {"type": "node", "id": 4127795879, "lat": 12.958754, "lon": 77.6466131}, {"type": "node", "id": 4325331196, "lat": 12.9599306, "lon": 77.7160447, "tags": {"amenity": "hospital", "healthcare": "hospital", "name": "SRL Diagnostics"}}, {"type": "node", "id": 4440829279, "lat": 12.911533, "lon": 77.6764094, "tags": {"addr:city": "Bangalore", "addr:postcode": "560035", "addr:street": "Kasvanahalli Road, Behind State Bank of Mysore, Sarjapur Road, Kaikondrahalli", "amenity": "hospital", "emergency": "yes", "healthcare": "hospital", "name": "Stanford Speciality Hospital", "phone": "080 6566 6689"}}, {"type": "node", "id": 4440931106, "lat": 12.9124371, "lon": 77.6813917, "tags": {"addr:city": "Bangalore", "addr:housenumber": "No.7/1", "addr:postcode": "560035", "addr:street": "Sarjapur Road", "amenity": "hospital", "emergency": "yes", "name": "Dr Mohan Nursing Home", "phone": "+91-80-42119084"}}, {"type": "node", "id": 4440939217, "lat": 12.9072384, "lon": 77.6755805, "tags": {"addr:city": "Bengaluru", "addr:housenumber": "4/21", "addr:postcode": "560035", "addr:street": "Kasavanahalli Road", "amenity": "hospital", "healthcare": "hospital", "name": "Sparsh Clinic", "phone": "+91-99000 19567"}}, {"type": "node", "id": 4440946384, "lat": 12.9041502, "lon": 77.6741043, "tags": {"addr:city": "Bangalore", "addr:housenumber": "9 IAS layout", "addr:postcode": "560035", "addr:street": "Lake Shore HomesRoad, Amrita college road, off sarjapur road, Kasavanahalli", "amenity": "hospital", "healthcare": "hospital", "name": "Raksha Orthopaedic And Multi Speciality Centre", "phone": "+91-74115 27777"}}, {"type": "node", "id": 4441670838, "lat": 12.9121008, "lon": 77.6820003, "tags": {"addr:city": "Bangalore", "addr:housenumber": "No. 65/1, 1st Floor", "addr:postcode": "560035", "addr:street": "Doddakannelli,\u00a0Sarjapur Road", "amenity": "hospital", "healthcare:speciality": "general;dermatology;clinic", "name": "Naadi Ayurveda Center", "operator": "Kotakkal Arya Vaidyashala", "phone": "+91-9980016089"}}, {"type": "node", "id": 4441681632, "lat": 12.9217604, "lon": 77.6618321, "tags": {"addr:city": "Bengaluru", "addr:postcode": "560103", "addr:street": "Service Rd, Agara, Iblur Village, Bellandur", "amenity": "hospital", "healthcare": "hospital", "name": "Kottakkal Arya Vaidya Sala", "phone": "+91-80 6450 4434", "website": "https://aryavaidyasala.com/"}}, {"type": "node", "id": 4441938603, "lat": 12.9122002, "lon": 77.6818637, "tags": {"addr:city": "bangaluru", "addr:housenumber": "65", "addr:postcode": "560035", "addr:street": "Sarjapur Main Rd, Kaikondrahalli", "amenity": "hospital", "name": "The Family Doctor & The Family Pharma", "phone": "+91-80 2574 6204", "website": "https://www.thefamilydoctor.co.in/"}}, {"type": "node", "id": 4445167354, "lat": 12.9179831, "lon": 77.6691258, "tags": {"addr:city": "Bangalore", "addr:postcode": "560034", "addr:street": "Sarjapur Main Rd, Bellandur", "amenity": "hospital", "healthcare": "hospital", "name": "Dr Rachna - Homeopathy", "phone": "+9195909 10963"}}, {"type": "node", "id": 4445213681, "lat": 12.9240063, "lon": 77.6545058, "tags": {"addr:city": "Bangalore", "addr:housenumber": "65/8", "addr:postcode": "560102", "addr:street": "Third Floor, H.S.R Agara Circle, Sarjapura, Outer Ring Rd, Agara Village, HSR Layout,", "amenity": "hospital", "healthcare": "hospital", "name": "Welnext", "phone": "+9196960 00222", "website": "https://welnext.com/"}}, {"type": "node", "id": 4446329807, "lat": 12.9552696, "lon": 77.6428508, "tags": {"addr:city": "Bengaluru", "addr:district": "Bengaluru Urban", "addr:full": "230, Amarjyothi Layout, Off.Intermediate Ring Road, Domlur Extension", "addr:housenumber": "230", "addr:postcode": "560071", "addr:state": "Karnataka", "addr:street": "Amarjyothi Layout, Off Intermediate Ring Road, Near Dell India/Millennium Motors, Domlur Extension, Amarjyoti Layout, Domlur, Karnataka", "amenity": "hospital", "email": "info@ayurvaid.com", "name": "Ayurvaid Hospital", "operator:type": "private", "phone": "080 4092 5555", "source": "OpenGovernmentData", "website": "https://ayurvaid.com/"}}, {"type": "node", "id": 4446826362, "lat": 12.9165359, "lon": 77.6361865, "tags": {"addr:city": "Bengaluru", "addr:housenumber": "149", "addr:postcode": "560034", "addr:street": "HSR Ring Road, 5th Sector , HSR Layout, Karnataka", "amenity": "hospital", "name": "Healing Earth Multispeciality Ayurveda Hospital", "phone": "080674 75757", "website": "https://www.healingearth.co.in/"}}, {"type": "node", "id": 4446833350, "lat": 12.9165795, "lon": 77.6362187, "tags": {"addr:city": "Bengaluru", "addr:housenumber": "149", "addr:postcode": "560034", "addr:street": "HSR Ring Road, 5th Sector , HSR Layout, Jakkasandra, 1st Block Koramangala, HSR Layout, Karnataka", "amenity": "hospital", "name": "Global Ayurveda Multispeciality Hospital", "phone": "080674 75757", "website": "https://www.healingearth.co.in/"}}, {"type": "node", "id": 4448133411, "lat": 12.9242869, "lon": 77.6532853, "tags": {"addr:city": "Bangalore", "addr:housenumber": "65/8, Third Floor", "addr:postcode": "560102", "addr:street": "H.S.R Agara Circle, Sarjapura, Outer Ring Rd, Agara Village, HSR Layout", "amenity": "hospital", "emergency": "yes", "healthcare": "hospital", "name": "Welnext", "phone": "+9196960 00222", "source": "http://www.justdial.com/Bangalore/", "website": "https://welnext.com/"}}, {"type": "node", "id": 4474487215, "lat": 12.9157501, "lon": 77.6756114}, {"type": "node", "id": 4474487222, "lat": 12.9156378, "lon": 77.6754751}, {"type": "node", "id": 4558992274, "lat": 12.9585868, "lon": 77.6472385}, {"type": "node", "id": 5106809421, "lat": 12.9597752, "lon": 77.6569127, "tags": {"addr:district": "Bengaluru Urban", "addr:full": "#115,Kodihalli,Old Airport Road", "addr:postcode": "560001", "addr:state": "Karnataka", "amenity": "hospital", "healthcare": "hospital", "name": "Cloudnine Hospital Pvt. Ltd.", "name:en": "cloud nine", "source": "OpenGovernmentData"}}, {"type": "node", "id": 5774292416, "lat": 12.9202127, "lon": 77.6655913}, {"type": "node", "id": 5780885021, "lat": 12.919575, "lon": 77.6654218}, {"type": "node", "id": 5781340796, "lat": 12.9181937, "lon": 77.6722846}, {"type": "node", "id": 5781340797, "lat": 12.9181002, "lon": 77.6724716}, {"type": "node", "id": 5781340798, "lat": 12.9176332, "lon": 77.6722259}, {"type": "node", "id": 5781340799, "lat": 12.9177267, "lon": 77.6720389}, {"type": "node", "id": 5804557878, "lat": 12.9138425, "lon": 77.6794486}, {"type": "node", "id": 5804557879, "lat": 12.9137262, "lon": 77.6798147}, {"type": "node", "id": 5804557880, "lat": 12.9133171, "lon": 77.6797302}, {"type": "node", "id": 5804557881, "lat": 12.9132765, "lon": 77.6797141}, {"type": "node", "id": 5804557882, "lat": 12.9133733, "lon": 77.6792957}, {"type": "node", "id": 5915906204, "lat": 12.9256013, "lon": 77.6359638, "tags": {"addr:district": "Bengaluru Urban", "addr:full": "No. 8, 1st Main Road 1st Block, Koramangala", "addr:postcode": "560034", "addr:state": "Karnataka", "amenity": "hospital", "check_date": "2023-12-31", "healthcare": "hospital", "name": "Sankeerthana Hospital and Fertility Center", "source": "OpenGovernmentData"}}, {"type": "node", "id": 5964111211, "lat": 12.9317501, "lon": 77.6858251}, {"type": "node", "id": 5964111212, "lat": 12.9318559, "lon": 77.6851639}, {"type": "node", "id": 5964111213, "lat": 12.9318533, "lon": 77.684731}, {"type": "node", "id": 6018675583, "lat": 12.956216, "lon": 77.713336, "tags": {"access": "private", "barrier": "gate"}}, {"type": "node", "id": 6137643281, "lat": 12.8967728, "lon": 77.6947943}, {"type": "node", "id": 6137643282, "lat": 12.8963179, "lon": 77.6954783}, {"type": "node", "id": 6137643283, "lat": 12.8960538, "lon": 77.6953013}, {"type": "node", "id": 6137643284, "lat": 12.8965009, "lon": 77.6946495}, {"type": "node", "id": 6348894929, "lat": 12.8981781, "lon": 77.6336107}, {"type": "node", "id": 6348894930, "lat": 12.8982668, "lon": 77.6339791}, {"type": "node", "id": 6348894931, "lat": 12.8980181, "lon": 77.6340422}, {"type": "node", "id": 6348894932, "lat": 12.8979294, "lon": 77.6336737}, {"type": "node", "id": 6938889541, "lat": 12.9551501, "lon": 77.7051643, "tags": {"addr:district": "Bengaluru Urban", "addr:full": "#103, Munnekolal, Verthur Road, Marthahalli Post", "addr:postcode": "560037", "addr:state": "Karnataka", "amenity": "hospital", "name": "Lions Airport City Hospital", "source": "OpenGovernmentData"}}, {"type": "node", "id": 6944290475, "lat": 12.9568547, "lon": 77.7002262, "tags": {"addr:district": "Bengaluru Urban", "addr:full": "96,Varthur Main Road, Marathahalli", "addr:postcode": "560037", "addr:state": "Karnataka", "amenity": "hospital", "check_date": "2024-12-29", "healthcare": "hospital", "name": "MGA Hospital", "source": "OpenGovernmentData"}}, {"type": "node", "id": 6947247040, "lat": 12.8980516, "lon": 77.6339279, "tags": {"addr:district": "Bengaluru Rural", "addr:full": "Sri Murthy Complex, No.43, Garvey Bhav Palya Hongasandra Village Begur, Hosur Main Road Bommanahalli, Hobli", "addr:postcode": "560068", "addr:state": "Karnataka", "amenity": "hospital", "name": "Vasan Eye Care Hospital", "source": "OpenGovernmentData"}}, {"type": "node", "id": 6947707789, "lat": 12.9084997, "lon": 77.6434431}, {"type": "node", "id": 7572526690, "lat": 12.957269, "lon": 77.653945, "tags": {"addr:district": "Bengaluru Urban", "addr:full": "Kaveri Nagar, Murgesh Pallya, Bengaluru", "addr:postcode": "560017", "addr:state": "Karnataka", "amenity": "hospital", "name": "OJUS Multi Speciality Hospital", "source": "Local Knowledge", "wheelchair": "limited"}}, {"type": "node", "id": 7572526699, "lat": 12.9635299, "lon": 77.6662889, "tags": {"addr:district": "Bengaluru Urban", "addr:full": "Jyothi Nagar, Bengaluru", "addr:postcode": "560017", "addr:state": "Karnataka", "amenity": "hospital", "name": "Jhon's Medical Hospital", "source": "Local Knowledge"}}, {"type": "node", "id": 7572526717, "lat": 12.9555948, "lon": 77.6418006, "tags": {"addr:district": "Bengaluru Urban", "addr:full": "Amarjyoti Layout, Domlur, Bengaluru", "addr:postcode": "560071", "addr:state": "Karnataka", "amenity": "hospital", "name": "Shree Sai Speciality Hospital", "source": "Local Knowledge"}}, {"type": "node", "id": 7572526747, "lat": 12.9589495, "lon": 77.6603768, "tags": {"addr:district": "Bengaluru Urban", "addr:floor": "G", "addr:full": "Near Rajeshwari Theatre, Murgesh Pallya, Bengaluru", "addr:postcode": "560017", "addr:state": "Karnataka", "amenity": "hospital", "check_date": "2025-10-19", "healthcare": "hospital", "level": "0", "name": "Magdum Hospital", "source": "Local Knowledge"}}, {"type": "node", "id": 7572526782, "lat": 12.963951, "lon": 77.64308, "tags": {"addr:district": "Bengaluru Urban", "addr:full": "Kodihalli, Bengaluru", "addr:postcode": "560008", "addr:state": "Karnataka", "amenity": "hospital", "name": "Lohitha Hospital", "source": "Local Knowledge"}}, {"type": "node", "id": 7572526798, "lat": 12.9583212, "lon": 77.659636, "tags": {"addr:district": "Bengaluru Urban", "addr:full": "Konena Agrahara, Murgesh Pallya, Bengaluru", "addr:postcode": "560017", "addr:state": "Karnataka", "amenity": "hospital", "healthcare": "hospital", "name": "Dr. Hemant Agrawal", "source": "Local Knowledge"}}, {"type": "node", "id": 7572526801, "lat": 12.9544981, "lon": 77.6401572, "tags": {"addr:district": "Bengaluru Urban", "addr:full": "Amarjyoti Layout, Domlur, Bengaluru", "addr:postcode": "560071", "addr:state": "Karnataka", "amenity": "hospital", "name": "Swasthya Hospitals", "source": "Local Knowledge"}}, {"type": "node", "id": 7572526802, "lat": 12.958861, "lon": 77.654322, "tags": {"addr:district": "Bengaluru Urban", "addr:full": "Kaveri Nagar, Murgesh Pallya, Bengaluru", "addr:postcode": "560017", "addr:state": "Karnataka", "amenity": "hospital", "name": "Miracle Hopital", "source": "Local Knowledge", "wheelchair": "limited"}}, {"type": "node", "id": 7572669027, "lat": 12.8859649, "lon": 77.6489078, "tags": {"addr:district": "Bengaluru Urban", "addr:full": "AECS Layout, Kudlu", "addr:postcode": "560068", "addr:state": "Karnataka", "amenity": "hospital", "name": "Hospitec Multispeciality Hospital", "source": "Local Knowledge"}}, {"type": "node", "id": 9828540924, "lat": 12.9246383, "lon": 77.6723232}, {"type": "node", "id": 9828540925, "lat": 12.9242012, "lon": 77.6722551}, {"type": "node", "id": 9828540926, "lat": 12.924427, "lon": 77.672739}, {"type": "node", "id": 9828540927, "lat": 12.9245522, "lon": 77.6726953}, {"type": "node", "id": 9830781726, "lat": 12.9365283, "lon": 77.7046741, "tags": {"amenity": "hospital", "name": "Maya Hospital"}}, {"type": "node", "id": 9830902289, "lat": 12.9125713, "lon": 77.6764777}, {"type": "node", "id": 9830902290, "lat": 12.9124101, "lon": 77.6764687}, {"type": "node", "id": 9830902291, "lat": 12.9124013, "lon": 77.6766369}, {"type": "node", "id": 9830902292, "lat": 12.9125624, "lon": 77.6766458}, {"type": "node", "id": 9841433907, "lat": 12.9556074, "lon": 77.7216631, "tags": {"amenity": "hospital", "check_date": "2025-06-28", "healthcare": "hospital", "healthcare:speciality": "ophthalmology", "name": "Devi Eye Hospital"}}, {"type": "node", "id": 9970369520, "lat": 12.9107968, "lon": 77.7077392}, {"type": "node", "id": 9970369521, "lat": 12.9111027, "lon": 77.7077928}, {"type": "node", "id": 9970369522, "lat": 12.9110034, "lon": 77.708281}, {"type": "node", "id": 9970369523, "lat": 12.9112596, "lon": 77.7083749}, {"type": "node", "id": 9970369524, "lat": 12.9117354, "lon": 77.7073476}, {"type": "node", "id": 9970369525, "lat": 12.9108125, "lon": 77.7075863}, {"type": "node", "id": 9970369526, "lat": 12.9109615, "lon": 77.7067924}, {"type": "node", "id": 9983607348, "lat": 12.9166964, "lon": 77.6449292}, {"type": "node", "id": 9983607349, "lat": 12.9166878, "lon": 77.6451801}, {"type": "node", "id": 9983607350, "lat": 12.9165238, "lon": 77.6451742}, {"type": "node", "id": 9983607351, "lat": 12.9165324, "lon": 77.6449233}, {"type": "node", "id": 10049386131, "lat": 12.9118088, "lon": 77.6494731}, {"type": "node", "id": 10049386132, "lat": 12.9115865, "lon": 77.6494764}, {"type": "node", "id": 10049386133, "lat": 12.9115885, "lon": 77.649615}, {"type": "node", "id": 10049386134, "lat": 12.9118108, "lon": 77.6496117}, {"type": "node", "id": 10066958277, "lat": 12.9084942, "lon": 77.6436044}, {"type": "node", "id": 10066958278, "lat": 12.9079176, "lon": 77.6435837}, {"type": "node", "id": 10066958279, "lat": 12.9079231, "lon": 77.6434223}, {"type": "node", "id": 10137293053, "lat": 12.9263862, "lon": 77.6766068, "tags": {"amenity": "hospital", "healthcare": "hospital", "name": "Apollo Pharmacy"}}, {"type": "node", "id": 10948384364, "lat": 12.9019638, "lon": 77.7164575}, {"type": "node", "id": 10948384379, "lat": 12.9021273, "lon": 77.714729}, {"type": "node", "id": 10948384383, "lat": 12.9020907, "lon": 77.7160674}, {"type": "node", "id": 10948384384, "lat": 12.9021038, "lon": 77.7164912}, {"type": "node", "id": 10948384385, "lat": 12.901058, "lon": 77.7162391}, {"type": "node", "id": 10948384386, "lat": 12.9015182, "lon": 77.714552}, {"type": "node", "id": 10963251389, "lat": 12.9094156, "lon": 77.663997, "tags": {"addr:city": "Bengaluru", "addr:postcode": "560102", "addr:street": "HARLUR MAIN ROAD ,OPP.OZONE EVERGREEN SOCIETY GATE 1", "amenity": "hospital", "emergency": "yes", "healthcare": "hospital", "healthcare:speciality": "dentist", "name": "The Local Dentist", "operator": "DENTAL CLINIC", "operator:type": "business"}}, {"type": "node", "id": 11051170248, "lat": 12.956203, "lon": 77.7136546}, {"type": "node", "id": 11075395440, "lat": 12.9153904, "lon": 77.675278}, {"type": "node", "id": 11075395441, "lat": 12.91564, "lon": 77.6747945}, {"type": "node", "id": 11075395442, "lat": 12.9159951, "lon": 77.6749527}, {"type": "node", "id": 11085582504, "lat": 12.9144825, "lon": 77.6491563, "tags": {"addr:city": "bangalore", "addr:postcode": "560103", "addr:street": "24th Main Rd, Vanganahalli, 1st Sector, HSR Layout 5th Sector, Bengaluru,", "amenity": "hospital", "healthcare": "hospital", "name": "Lotus Hospital"}}, {"type": "node", "id": 11700164026, "lat": 12.8804891, "lon": 77.6552588, "tags": {"addr:city": "Electronic city post", "addr:housenumber": "13-14/1", "addr:postcode": "560100", "addr:street": "Haralur Road", "amenity": "hospital", "healthcare": "dentist", "healthcare:speciality": "dentist", "name": "Smile Smart Dental & Implant Centre", "operator": "Smile Smart Dental", "operator:type": "private"}}, {"type": "node", "id": 11753319908, "lat": 12.9154066, "lon": 77.6752466}, {"type": "node", "id": 11782289126, "lat": 12.8933895, "lon": 77.6368614, "tags": {"amenity": "hospital", "check_date": "2024-04-03", "healthcare": "hospital", "name": "Sai Sparsh Hospital", "source": "survey"}}, {"type": "node", "id": 11903094814, "lat": 12.9240012, "lon": 77.6481809, "tags": {"amenity": "hospital", "name": "Sai Thunga Hospitals"}}, {"type": "node", "id": 11962404414, "lat": 12.9198055, "lon": 77.6672841}, {"type": "node", "id": 11962404415, "lat": 12.9207377, "lon": 77.6675136}, {"type": "node", "id": 11962404416, "lat": 12.9207097, "lon": 77.6676637}, {"type": "node", "id": 11962404417, "lat": 12.9199349, "lon": 77.6674794}, {"type": "node", "id": 11962404418, "lat": 12.9197342, "lon": 77.6674205}, {"type": "node", "id": 12080128815, "lat": 12.9578157, "lon": 77.6473284}, {"type": "node", "id": 12080142516, "lat": 12.9585438, "lon": 77.6473993}, {"type": "node", "id": 12080142517, "lat": 12.9582358, "lon": 77.6473087}, {"type": "node", "id": 12080978672, "lat": 12.958722, "lon": 77.6495339}, {"type": "node", "id": 12183790887, "lat": 12.9202322, "lon": 77.665534}, {"type": "node", "id": 12183790888, "lat": 12.9203478, "lon": 77.6651395}, {"type": "node", "id": 12270754755, "lat": 12.8841477, "lon": 77.6492549, "tags": {"amenity": "hospital", "check_date": "2024-10-20", "healthcare": "hospital"}}, {"type": "node", "id": 12270754757, "lat": 12.8892622, "lon": 77.6505317, "tags": {"amenity": "hospital", "check_date": "2024-10-20", "healthcare": "hospital", "name": "Raksha Hospital"}}, {"type": "node", "id": 12466456674, "lat": 12.9570192, "lon": 77.7118744}, {"type": "node", "id": 12466456675, "lat": 12.9571946, "lon": 77.7123982}, {"type": "node", "id": 12466456676, "lat": 12.9562203, "lon": 77.7120465}, {"type": "node", "id": 12615547386, "lat": 12.9090814, "lon": 77.6638713}, {"type": "node", "id": 12615547387, "lat": 12.9090108, "lon": 77.6638578}, {"type": "node", "id": 12615547388, "lat": 12.9090004, "lon": 77.6639115}, {"type": "node", "id": 12615547389, "lat": 12.9090788, "lon": 77.6639222}, {"type": "node", "id": 12765777977, "lat": 12.9160037, "lon": 77.6523087, "tags": {"amenity": "hospital", "healthcare": "hospital", "healthcare:speciality": "gastroenterology;oncology", "name": "Bangalore Gastro Centre", "phone": "080 46 888 888", "website": "https://www.bangaloregastrocentre.com/"}}, {"type": "node", "id": 13065353808, "lat": 12.9023198, "lon": 77.715214}, {"type": "node", "id": 13065353809, "lat": 12.9023985, "lon": 77.7150923}, {"type": "node", "id": 13173681435, "lat": 12.9007868, "lon": 77.6756594}, {"type": "node", "id": 13173681436, "lat": 12.9007563, "lon": 77.6759596}, {"type": "node", "id": 13173681437, "lat": 12.9003444, "lon": 77.6759112}, {"type": "node", "id": 13173681438, "lat": 12.9003764, "lon": 77.6756139}, {"type": "way", "id": 122157597, "nodes": [1365797762, 11051170248, 1365797746, 1365797741, 1365797761, 1381347390, 1365797762], "tags": {"amenity": "hospital", "healthcare": "hospital", "name": "Karunashraya", "name:kn": "\u0c95\u0cb0\u0cc1\u0ca3\u0cbe\u0cb6\u0ccd\u0cb0\u0caf", "website": "https://www.karunashraya.org/"}}, {"type": "way", "id": 124013168, "nodes": [6018675583, 1365797762, 1381347390, 1381347348, 1381347386, 1381347351, 1381347338, 1381347388, 12466456675, 1381347423, 1381347431, 1381347333, 6018675583], "tags": {"addr:city": "Bengaluru", "addr:district": "Bengaluru Urban", "addr:full": "Varthur Main Road, Kundalahalli Gate, Marahahalli-White Field Road", "addr:postcode": "560037", "addr:state": "Karnataka", "addr:street": "Varthur Road", "amenity": "hospital", "boundary": "wall", "check_date": "2025-09-03", "email": "bangalore@sankaraeye.com", "healthcare": "hospital", "healthcare:speciality": "ophthalmology", "name": "Sankara Eye Hospital", "name:kn": "\u0cb6\u0c82\u0c95\u0cb0 \u0ca8\u0cc7\u0ca4\u0ccd\u0cb0\u0cbe\u0cb2\u0caf", "website": "https://www.sankaraeye.com"}}, {"type": "way", "id": 133061664, "nodes": [1464138200, 1464138185, 3530490172, 1464138212, 1464138198, 1464138171, 1464138157, 1464138222, 1464138196, 1464138190, 1464138203, 1464138219, 1464138159, 1464138199, 3530490171, 1464138206, 1464138230, 1464138164, 3530490173, 1464138160, 3530490174, 3530490175, 3530490179, 3530490176, 1464138207, 3530490180, 3530490178, 3530490177, 1464138200], "tags": {"addr:district": "Bengaluru Urban", "addr:full": "No. 98, Rusthom Bhag, Airport Road", "addr:postcode": "560017", "addr:state": "Karnataka", "amenity": "hospital", "building": "hospital", "emergency": "yes", "healthcare": "hospital", "name": "Manipal Hospital, Bengaluru Urban", "name:kn": "\u0cae\u0ca3\u0cbf\u0caa\u0cbe\u0cb2 \u0c86\u0cb8\u0ccd\u0caa\u0ca4\u0ccd\u0cb0\u0cc6 \u0cac\u0cc6\u0c82\u0c97\u0cb3\u0cc2\u0cb0\u0cc1", "source": "OpenGovernmentData", "wheelchair": "yes"}}, {"type": "way", "id": 135262255, "nodes": [1485636649, 3299149245, 1464138170, 1464138181, 12080128815, 1464138158, 1464138179, 12080142517, 3299149250, 4127795879, 4558992274, 12080142516, 1091417892, 3299149253, 1091417882, 1485636653, 1091417875, 1434179292, 1485636664, 12080978672, 1485636649], "tags": {"amenity": "hospital", "healthcare": "hospital", "name": "Manipal Hospital", "name:kn": "\u0cae\u0ca3\u0cbf\u0caa\u0cbe\u0cb2 \u0c86\u0cb8\u0ccd\u0caa\u0ca4\u0ccd\u0cb0\u0cc6", "start_date": "1991", "wheelchair": "yes"}}, {"type": "way", "id": 262198741, "nodes": [2678582670, 2678582671, 2678582672, 2678582673, 2678582670], "tags": {"amenity": "hospital", "building": "yes", "healthcare": "hospital", "name": "Lions Seva Hospital"}}, {"type": "way", "id": 290187542, "nodes": [2937449072, 2937449066, 2937449088, 2937449060, 2937449069, 2937449065, 2937449081, 2937449085, 2937449070, 2937449078, 2937449077, 3298366366, 2937449080, 2937449084, 2937449076, 2937449064, 2937449071, 2937449072], "tags": {"alt_name": "Hindustan Aeronautics Limited Hospital", "amenity": "hospital", "emergency": "yes", "name": "HAL Hospital", "name:kn": "\u0c8e\u0c9a\u0ccd\u0c8e\u0c8e\u0cb2\u0ccd \u0c86\u0cb8\u0ccd\u0caa\u0ca4\u0ccd\u0cb0\u0cc6", "wheelchair": "yes"}}, {"type": "way", "id": 335043199, "nodes": [3421728215, 3421728216, 3421728217, 3421728218, 3421728215], "tags": {"amenity": "hospital", "healthcare": "hospital", "name": "Greenview Hospital", "wheelchair": "yes"}}, {"type": "way", "id": 346714039, "nodes": [3532358875, 3532358887, 3532358831, 3532358821, 3532358875], "tags": {"addr:city": "Bangalore", "addr:district": "Bengaluru Urban", "addr:housenumber": "15", "addr:postcode": "560037", "addr:street": "3rd Cross Road, Vaikuntam Layout", "amenity": "hospital", "building:levels": "1", "description": "Speech Therapy Center", "healthcare": "hospital", "name": "Ways2Guide Speech Therapy Center"}}, {"type": "way", "id": 372545827, "nodes": [3761101701, 3761101702, 3761101703, 3761101704, 3761101701], "tags": {"amenity": "hospital", "name": "BBMP Primary Health Center", "name:kn": "\u0caa\u0ccd\u0cb0\u0cbe\u0ca5\u0cae\u0cbf\u0c95 \u0c86\u0cb0\u0ccb\u0c97\u0ccd\u0caf \u0c95\u0cc7\u0c82\u0ca6\u0ccd\u0cb0"}}, {"type": "way", "id": 610471335, "nodes": [5781340796, 5781340797, 5781340798, 5781340799, 5781340796], "tags": {"amenity": "hospital", "healthcare": "hospital", "healthcare:speciality": "gynaecology", "name": "Motherhood"}}, {"type": "way", "id": 611385979, "nodes": [456013713, 2413039443, 5780885021, 5774292416, 12183790887, 12183790888, 456013713], "tags": {"amenity": "hospital", "check_date": "2025-02-12", "emergency": "yes", "healthcare": "hospital", "name": "Manipal Hospitals", "name:kn": "\u0cae\u0ca3\u0cbf\u0caa\u0cbe\u0cb2 \u0c86\u0cb8\u0ccd\u0caa\u0ca4\u0ccd\u0cb0\u0cc6", "payment:cash": "yes", "payment:mastercard": "yes", "payment:visa": "yes", "source": "survey", "wheelchair": "yes"}}, {"type": "way", "id": 613474107, "nodes": [5804557878, 5804557879, 5804557880, 5804557881, 5804557882, 5804557878], "tags": {"addr:city": "Bengaluru", "addr:housenumber": "66", "addr:postcode": "560034", "addr:street": "Kaikondrahalli, Sarjapur Road", "amenity": "hospital", "emergency": "yes", "healthcare": "hospital", "name": "Suvarnamukhi", "name:kn": "\u0cb8\u0cc1\u0cb5\u0cb0\u0ccd\u0ca3\u0cae\u0cc1\u0c96\u0cbf \u0c86\u0cb8\u0ccd\u0caa\u0ca4\u0ccd\u0cb0\u0cc6", "phone": "+91 98451 26869"}}, {"type": "way", "id": 631580848, "nodes": [2413417397, 2413417389, 5964111211, 5964111212, 5964111213, 2413417397], "tags": {"addr:housenumber": "52/2, 52/3", "addr:street": "Kariammana Agrahara Road", "amenity": "hospital", "check_date": "2025-09-03", "contact:phone": "080 4962 4962", "contact:website": "https://www.sakraworldhospital.com/", "emergency": "yes", "healthcare": "hospital", "healthcare:speciality": "dermatology;otolaryngology;urology;blood_check;cardiology;intensive;diabetology;orthopaedics;cardiothoracic_surgery;gynaecology;paediatrics;emergency;general;dentistry;dental_oral_maxillo_facial_surgery;rheumatology;anaesthetics;plastic_surgery;dialysis", "name": "Sakra World", "opening_hours": "24/7", "operator:type": "private", "payment:cash": "yes", "payment:credit_cards": "yes", "payment:debit_cards": "yes", "payment:qr_code": "yes", "payment:upi": "yes", "wheelchair": "yes", "wikidata": "Q134999916"}}, {"type": "way", "id": 655045245, "nodes": [6137643281, 6137643282, 6137643283, 6137643284, 6137643281], "tags": {"addr:district": "Bengaluru Urban", "addr:full": "14/2,Chikkanayakanahalli Village, Off Sarjapur Road", "addr:postcode": "560035", "addr:state": "Karnataka", "amenity": "hospital", "healthcare": "hospital", "healthcare:speciality": "ayurveda", "name": "Punarjani Ayurvedic Multispeciality Hospital", "source": "OpenGovernmentData"}}, {"type": "way", "id": 678066777, "nodes": [6348894929, 6348894930, 6348894931, 6348894932, 6348894929], "tags": {"amenity": "hospital", "healthcare": "hospital"}}, {"type": "way", "id": 1071044455, "nodes": [9828540924, 9828540925, 9828540926, 9828540927, 9828540924], "tags": {"amenity": "hospital", "check_date": "2025-02-12", "healthcare": "hospital", "healthcare:speciality": "maternity", "name": "Cloudnine", "payment:cash": "yes", "payment:mastercard": "yes", "payment:visa": "yes", "source": "survey"}}, {"type": "way", "id": 1071257248, "nodes": [9830902289, 9830902290, 9830902291, 9830902292, 9830902289], "tags": {"amenity": "hospital", "healthcare": "hospital", "name": "BN Specialty Hospital"}}, {"type": "way", "id": 1088209015, "nodes": [9970369526, 9970369524, 9970369523, 9970369522, 9970369521, 9970369520, 9970369525, 9970369526], "tags": {"amenity": "hospital", "name": "Karunalayam Hospital", "name:kn": "\u0c95\u0cb0\u0cc1\u0ca3\u0cbe\u0cb2\u0caf\u0c82 \u0c86\u0cb8\u0ccd\u0caa\u0ca4\u0ccd\u0cb0\u0cc6"}}, {"type": "way", "id": 1089884368, "nodes": [9983607348, 9983607349, 9983607350, 9983607351, 9983607348], "tags": {"amenity": "hospital", "emergency": "yes", "healthcare": "hospital", "name": "Phoenix Hospital"}}, {"type": "way", "id": 1097519307, "nodes": [10049386131, 10049386132, 10049386133, 10049386134, 10049386131], "tags": {"amenity": "hospital", "healthcare": "hospital", "name": "Bhoomi Diagnostics"}}, {"type": "way", "id": 1099665412, "nodes": [6947707789, 10066958277, 10066958278, 10066958279, 6947707789], "tags": {"addr:district": "Bengaluru Urban", "addr:full": "Ca Site No 1, Basant Health Centre Building, 18th Main, Opposite Hsr Club", "addr:postcode": "560102", "addr:state": "Karnataka", "amenity": "hospital", "healthcare": "hospital", "name": "Narayana Multispeciality Hospital", "name:kn": "\u0ca8\u0cbe\u0cb0\u0cbe\u0caf\u0ca3 \u0c86\u0cb8\u0ccd\u0caa\u0ca4\u0ccd\u0cb0\u0cc6", "operator:type": "private", "source": "OpenGovernmentData", "website": "https://www.narayanahealth.org/patients/locations/Bengaluru"}}, {"type": "way", "id": 1178505994, "nodes": [10948384383, 13065353808, 13065353809, 10948384379, 10948384386, 10948384385, 10948384364, 10948384384, 10948384383], "tags": {"amenity": "hospital", "healthcare": "clinic", "name": "Snehadaan Hospital"}}, {"type": "way", "id": 1193177992, "nodes": [4474487215, 4474487222, 11075395440, 11753319908, 11075395441, 11075395442, 4474487215], "tags": {"amenity": "hospital", "emergency": "yes", "healthcare": "hospital", "name": "Cloud Nine", "note": "Emergency ward and lab open 24x7", "opening_hours": "Mo-Sa 08:00-20:00, Su 10:00-12:00, 16:00-18:00", "operator": "Cloud Nine Care", "operator:type": "private", "phone": "+91 99728 99728", "website": "https://www.cloudninecare.com/centre/sarjapur-road"}}, {"type": "way", "id": 1290198690, "nodes": [11962404414, 11962404415, 11962404416, 11962404417, 11962404418, 11962404414], "tags": {"addr:city": "Bengaluru", "addr:housenumber": "3/4", "addr:postcode": "560103", "addr:street": "Sarjapura Road", "amenity": "hospital", "email": "queries@rainbowhospitals.in", "emergency": "yes", "healthcare": "hospital", "healthcare:speciality": "gynaecology;child_psychiatry;paediatrics;otolaryngology;fertility;neonatology;vascular_surgery;physiatry", "name": "Rainbow Childrens Hospital", "phone": "+91 08062261218", "website": "https://www.rainbowhospitals.in/"}}, {"type": "way", "id": 1347724899, "nodes": [12466456674, 12466456675, 1381347423, 1381347431, 1381347333, 12466456676, 12466456674], "tags": {"amenity": "hospital", "emergency": "yes", "healthcare": "hospital", "name": "Sri Vishveshathirtha Memorial Hospital", "short_name": "SVM Hospital"}}, {"type": "way", "id": 1362578786, "nodes": [12615547386, 12615547387, 12615547388, 12615547389, 12615547386], "tags": {"addr:city": "Bengaluru", "addr:district": "Karnataka", "addr:housenumber": "Plumeria 2nd Floor", "addr:postcode": "560102", "addr:street": "Haralur Main Road", "amenity": "hospital", "email": "urwelcome@klinikgluhen.com", "emergency": "yes", "healthcare": "hospital", "healthcare:speciality": "dentist;dental_oral_maxillo_facial_surgery;dentistry;implantology;orthodontics;pedodontics;maxillofacial_surgery;craniofacial;plastic_surgery;psychiatry", "image": "https://lh3.googleusercontent.com/p/AF1QipN-H9esnouOf6f9LhnY3IkGoS4dyHJiYGpHHac5=s680-w680-h510", "mobile": "+916366800859", "name": "Klinik Guhen - Dental Clinic", "opening_hours": "All Days 10:00-19:30 (Tue Holiday)", "operator": "Dental Clinic", "operator:type": "business", "payment:cash": "yes", "payment:credit_cards": "yes", "payment:debit_cards": "yes", "payment:google_pay": "yes", "phone": "+916366800859", "source": "streetlevel imagery;local knowledge;survey;gps", "start_date": "2021-10-01", "website": "https://klinikgluhen.com/", "wheelchair": "yes"}}, {"type": "way", "id": 1433363981, "nodes": [13173681435, 13173681436, 13173681437, 13173681438, 13173681435], "tags": {"amenity": "hospital", "healthcare": "hospital", "name": "Aarogya Hastha Hospital"}}]}