{"version": 0.6, "generator": "Overpass API 0.7.62.8 e802775f", "osm3s": {"timestamp_osm_base": "2026-01-12T05:32:10Z", "copyright": "The data included in this document is from www.openstreetmap.org. The data is made available under ODbL."}, "elements": [{"type": "node", "id": 297103096, "lat": 40.7420129, "lon": -74.034241}, {"type": "node", "id": 297103105, "lat": 40.7407153, "lon": -74.0337727}, {"type": "node", "id": 297103107, "lat": 40.7408195, "lon": -74.0345654}, {"type": "node", "id": 357620244, "lat": 40.7377778, "lon": -74.0008333, "tags": {"addr:city": "New York", "addr:housenumber": "30", "addr:postcode": "10011", "addr:street": "7th Avenue", "amenity": "hospital", "check_date": "2024-01-11", "emergency": "yes", "gnis:feature_id": "2082882", "healthcare": "hospital", "name": "Lenox Health Greenwich Village", "opening_hours": "24/7", "operator": "Northwell Health", "operator:type": "private", "operator:wikidata": "Q7056650", "operator:wikipedia": "en:Northwell Health", "phone": "+1 646 665 6000", "website": "https://www.northwell.edu/lenox-health-greenwich-village"}}, {"type": "node", "id": 357719779, "lat": 40.7346982, "lon": -74.048764}, {"type": "node", "id": 4079860806, "lat": 40.7164657, "lon": -74.0492557}, {"type": "node", "id": 4079860807, "lat": 40.7137345, "lon": -74.0506116}, {"type": "node", "id": 4079860808, "lat": 40.7136568, "lon": -74.0509776}, {"type": "node", "id": 4079860809, "lat": 40.7139381, "lon": -74.0518391}, {"type": "node", "id": 4079860810, "lat": 40.7151872, "lon": -74.0511808}, {"type": "node", "id": 4079860811, "lat": 40.7153264, "lon": -74.0525416}, {"type": "node", "id": 4079860812, "lat": 40.716844, "lon": -74.0522535}, {"type": "node", "id": 4772023099, "lat": 40.7419103, "lon": -74.0335612}, {"type": "node", "id": 4772050935, "lat": 40.7351449, "lon": -74.0498772}, {"type": "node", "id": 4772050936, "lat": 40.7347888, "lon": -74.0486978}, {"type": "node", "id": 4772050937, "lat": 40.7340196, "lon": -74.0492025}, {"type": "node", "id": 4772050938, "lat": 40.7338033, "lon": -74.0494276}, {"type": "node", "id": 4772050939, "lat": 40.733624, "lon": -74.0496085}, {"type": "node", "id": 4772050940, "lat": 40.7327713, "lon": -74.0505761}, {"type": "node", "id": 4772050941, "lat": 40.7330737, "lon": -74.0511979}, {"type": "node", "id": 4772761728, "lat": 40.7136629, "lon": -74.0507665}, {"type": "node", "id": 4772761729, "lat": 40.7163827, "lon": -74.0491763}, {"type": "node", "id": 4987027910, "lat": 40.7349975, "lon": -74.0492683}, {"type": "node", "id": 4987027911, "lat": 40.7349342, "lon": -74.0490953}, {"type": "node", "id": 4987027912, "lat": 40.7350808, "lon": -74.049468}, {"type": "node", "id": 4987474967, "lat": 40.7352673, "lon": -74.0497987}, {"type": "node", "id": 4987474968, "lat": 40.7351304, "lon": -74.0494292}, {"type": "node", "id": 6788524467, "lat": 40.741979, "lon": -74.0339469}, {"type": "node", "id": 6788531904, "lat": 40.741008, "lon": -74.0336822}, {"type": "node", "id": 6788531947, "lat": 40.7411838, "lon": -74.0336274}, {"type": "node", "id": 6788531948, "lat": 40.7411198, "lon": -74.0336468}, {"type": "node", "id": 6788531949, "lat": 40.7412909, "lon": -74.0335958}, {"type": "node", "id": 6788531950, "lat": 40.7416741, "lon": -74.0334802}, {"type": "node", "id": 6788531951, "lat": 40.7416842, "lon": -74.0334802}, {"type": "node", "id": 6788531952, "lat": 40.7416924, "lon": -74.0334839}, {"type": "node", "id": 6788531953, "lat": 40.7417005, "lon": -74.0334906}, {"type": "node", "id": 6788531954, "lat": 40.7417104, "lon": -74.0334973}, {"type": "node", "id": 6788531955, "lat": 40.7417176, "lon": -74.0334978}, {"type": "node", "id": 6788531956, "lat": 40.7417241, "lon": -74.0334966}, {"type": "node", "id": 6788531957, "lat": 40.7417834, "lon": -74.0334792}, {"type": "node", "id": 6788531958, "lat": 40.7417886, "lon": -74.0334757}, {"type": "node", "id": 6788531959, "lat": 40.7417936, "lon": -74.0334656}, {"type": "node", "id": 6788531960, "lat": 40.7417994, "lon": -74.0334534}, {"type": "node", "id": 6788531961, "lat": 40.741808, "lon": -74.0334422}, {"type": "node", "id": 6788531962, "lat": 40.7418194, "lon": -74.0334374}, {"type": "node", "id": 6788531963, "lat": 40.7418637, "lon": -74.0334239}, {"type": "node", "id": 6788531964, "lat": 40.7418715, "lon": -74.0334247}, {"type": "node", "id": 6788531965, "lat": 40.7418785, "lon": -74.0334287}, {"type": "node", "id": 6788531966, "lat": 40.7418854, "lon": -74.0334346}, {"type": "node", "id": 6788531967, "lat": 40.7418892, "lon": -74.033443}, {"type": "node", "id": 6788531968, "lat": 40.741934, "lon": -74.033634}, {"type": "node", "id": 6788531970, "lat": 40.7419369, "lon": -74.0336395}, {"type": "node", "id": 6788531971, "lat": 40.7419389, "lon": -74.0336489}, {"type": "node", "id": 6788531972, "lat": 40.7419809, "lon": -74.0338882}, {"type": "node", "id": 6788531973, "lat": 40.742023, "lon": -74.0341985}, {"type": "node", "id": 6788531974, "lat": 40.7420241, "lon": -74.0342137}, {"type": "node", "id": 6788531975, "lat": 40.7420233, "lon": -74.0342244}, {"type": "node", "id": 6788531976, "lat": 40.7420205, "lon": -74.0342313}, {"type": "node", "id": 6788531977, "lat": 40.7420156, "lon": -74.034239}, {"type": "node", "id": 6788531978, "lat": 40.7408493, "lon": -74.034596}, {"type": "node", "id": 6788531979, "lat": 40.7408423, "lon": -74.0345958}, {"type": "node", "id": 6788531980, "lat": 40.7408381, "lon": -74.0345938}, {"type": "node", "id": 6788531981, "lat": 40.7408325, "lon": -74.0345895}, {"type": "node", "id": 6788531982, "lat": 40.7408288, "lon": -74.034586}, {"type": "node", "id": 6788531983, "lat": 40.7408253, "lon": -74.0345808}, {"type": "node", "id": 6788531984, "lat": 40.7408223, "lon": -74.0345747}, {"type": "node", "id": 6788532085, "lat": 40.7406885, "lon": -74.0338243}, {"type": "node", "id": 6788532086, "lat": 40.7406871, "lon": -74.0338135}, {"type": "node", "id": 6788532087, "lat": 40.740687, "lon": -74.033807}, {"type": "node", "id": 6788532088, "lat": 40.7406882, "lon": -74.0338008}, {"type": "node", "id": 6788532089, "lat": 40.7406892, "lon": -74.033795}, {"type": "node", "id": 6788532090, "lat": 40.7406927, "lon": -74.0337856}, {"type": "node", "id": 6788532091, "lat": 40.7406965, "lon": -74.0337803}, {"type": "node", "id": 6788532092, "lat": 40.7407025, "lon": -74.0337767}, {"type": "node", "id": 6788532099, "lat": 40.7419359, "lon": -74.0336365}, {"type": "node", "id": 7477081378, "lat": 40.7108094, "lon": -74.0050856}, {"type": "node", "id": 7477081379, "lat": 40.7102045, "lon": -74.0044231}, {"type": "node", "id": 7477081380, "lat": 40.7101333, "lon": -74.004541}, {"type": "node", "id": 7477081381, "lat": 40.7101051, "lon": -74.0045142}, {"type": "node", "id": 7477081382, "lat": 40.7098035, "lon": -74.0048589}, {"type": "node", "id": 7477081383, "lat": 40.7104325, "lon": -74.0055085}, {"type": "node", "id": 7477081384, "lat": 40.7105909, "lon": -74.0052722}, {"type": "node", "id": 7477097785, "lat": 40.7107336, "lon": -74.0052148}, {"type": "node", "id": 9338960524, "lat": 40.7104501, "lon": -74.0054787, "tags": {"camera:mount": "wall", "camera:type": "dome", "man_made": "surveillance", "surveillance": "outdoor", "surveillance:type": "camera"}}, {"type": "node", "id": 9338960529, "lat": 40.7103763, "lon": -74.0054502, "tags": {"camera:mount": "wall", "camera:type": "fixed", "man_made": "surveillance", "surveillance": "outdoor", "surveillance:type": "camera", "surveillance:zone": "entrance"}}, {"type": "node", "id": 9359044357, "lat": 40.7146492, "lon": -74.0501159}, {"type": "node", "id": 9664495671, "lat": 40.7140651, "lon": -74.0517722}, {"type": "node", "id": 9664495679, "lat": 40.7147531, "lon": -74.0514096}, {"type": "node", "id": 9885158918, "lat": 40.6978843, "lon": -73.9942217, "tags": {"addr:city": "Brooklyn", "addr:housenumber": "41", "addr:postcode": "11201", "addr:state": "NY", "addr:street": "Clark Street", "amenity": "hospital", "email": "downtownphysicians@gmail.com", "healthcare": "hospital", "name": "Downtown Pain Physicians Of Brooklyn", "opening_hours": "Su-Fr 08:00-19:00", "phone": "+1-718-210-2225", "website": "https://www.downtownpainphysicians.com"}}, {"type": "node", "id": 11347850249, "lat": 40.7106573, "lon": -74.0048977}, {"type": "node", "id": 11347850250, "lat": 40.7106452, "lon": -74.0049193}, {"type": "node", "id": 11347850251, "lat": 40.7107221, "lon": -74.0049973}, {"type": "node", "id": 11347850252, "lat": 40.7106999, "lon": -74.0049748}, {"type": "node", "id": 11347850253, "lat": 40.7107304, "lon": -74.004985}, {"type": "node", "id": 11347850254, "lat": 40.7107084, "lon": -74.0049605}, {"type": "node", "id": 11347850255, "lat": 40.7106946, "lon": -74.0051726}, {"type": "node", "id": 11347850256, "lat": 40.7105794, "lon": -74.0052578}, {"type": "node", "id": 11347850258, "lat": 40.7098568, "lon": -74.004798}, {"type": "node", "id": 11347850261, "lat": 40.7100111, "lon": -74.0046236, "tags": {"access": "yes", "addr:city": "New York", "addr:housenumber": "83", "addr:postcode": "10038", "addr:state": "NY", "addr:street": "Gold Street", "door": "hinged", "entrance": "main", "ref": "Emergency"}}, {"type": "node", "id": 11347850299, "lat": 40.710488, "lon": -74.0054139}, {"type": "node", "id": 11347850332, "lat": 40.7106087, "lon": -74.0052551, "tags": {"entrance": "main"}}, {"type": "node", "id": 11347850352, "lat": 40.7105608, "lon": -74.0052897}, {"type": "node", "id": 12723835209, "lat": 40.7100546, "lon": -74.0058746, "tags": {"addr:housenumber": "156", "addr:postcode": "10038", "addr:street": "William Street", "amenity": "hospital", "healthcare": "hospital", "name": "Liberty Endoscopy Center"}}, {"type": "way", "id": 27080832, "nodes": [297103096, 6788531977, 6788531976, 6788531975, 6788531974, 6788531973, 6788524467, 6788531972, 6788531971, 6788531970, 6788532099, 6788531968, 4772023099, 6788531967, 6788531966, 6788531965, 6788531964, 6788531963, 6788531962, 6788531961, 6788531960, 6788531959, 6788531958, 6788531957, 6788531956, 6788531955, 6788531954, 6788531953, 6788531952, 6788531951, 6788531950, 6788531949, 6788531947, 6788531948, 6788531904, 297103105, 6788532092, 6788532091, 6788532090, 6788532089, 6788532088, 6788532087, 6788532086, 6788532085, 297103107, 6788531984, 6788531983, 6788531982, 6788531981, 6788531980, 6788531979, 6788531978, 297103096], "tags": {"addr:city": "Hoboken", "addr:housenumber": "308", "addr:postcode": "07030", "addr:street": "Willow Avenue", "amenity": "hospital", "emergency": "yes", "healthcare": "hospital", "name": "Hoboken University Medical Center", "opening_hours": "24/7", "operator": "CarePoint Health", "phone": "+1 201 418 1000", "website": "https://www.carepointhealth.org/hoboken-university-medical-center", "wikidata": "Q5875170", "wikipedia": "en:Hoboken University Medical Center"}}, {"type": "way", "id": 405835399, "nodes": [4079860806, 4772761729, 9359044357, 4079860807, 4772761728, 4079860808, 4079860809, 9664495671, 9664495679, 4079860810, 4079860811, 4079860812, 4079860806], "tags": {"addr:city": "Jersey City", "addr:housenumber": "355", "addr:postcode": "07302", "addr:street": "Grand Street", "amenity": "hospital", "beds": "308", "emergency": "yes", "healthcare": "hospital", "name": "Jersey City Medical Center", "opening_hours": "24/7", "operator": "RWJBarnabas Health", "phone": "+1 201 915 2000", "website": "https://www.barnabashealth.org/Jersey-City-Medical-Center.aspx", "wikidata": "Q6184791", "wikipedia": "en:Jersey City Medical Center"}}, {"type": "way", "id": 484453822, "nodes": [4772050941, 4772050940, 4772050939, 4772050938, 4772050937, 357719779, 4772050936, 4987027911, 4987027910, 4987027912, 4987474968, 4987474967, 4772050935, 4772050941], "tags": {"addr:city": "Jersey City", "addr:housenumber": "176", "addr:postcode": "07306", "addr:street": "Palisade Avenue", "amenity": "hospital", "beds": "376", "emergency": "yes", "gnis:feature_id": "875426", "healthcare": "hospital", "name": "Christ Hospital", "opening_hours": "24/7", "operator": "CarePoint Health", "phone": "+1 201 795 8200", "website": "https://www.carepointhealth.org/christ-hospital", "wikidata": "Q5108912", "wikipedia": "en:Christ Hospital (Jersey City, New Jersey)"}}, {"type": "way", "id": 799488173, "nodes": [7477081378, 11347850251, 11347850253, 11347850254, 11347850252, 11347850250, 11347850249, 7477081379, 7477081380, 7477081381, 11347850261, 11347850258, 7477081382, 9338960529, 7477081383, 9338960524, 11347850299, 11347850352, 11347850256, 7477081384, 11347850332, 11347850255, 7477097785, 7477081378], "tags": {"addr:city": "New York", "addr:housenumber": "170", "addr:postcode": "10038", "addr:state": "NY", "addr:street": "William Street", "amenity": "hospital", "beds": "132", "building": "yes", "building:colour": "beige", "building:levels": "8", "building:material": "brick", "emergency": "yes", "healthcare": "hospital", "name": "NewYork-Presbyterian Lower Manhattan Hospital", "start_date": "1853", "website": "https://www.nyp.org/lowermanhattan", "wikidata": "Q7013458", "wikipedia": "en:NewYork-Presbyterian Lower Manhattan Hospital"}}]}