{"version": 0.6, "generator": "Overpass API 0.7.62.8 e802775f", "osm3s": {"timestamp_osm_base": "2026-01-12T15:14:29Z", "copyright": "The data included in this document is from www.openstreetmap.org. The data is made available under ODbL."}, "elements": [{"type": "node", "id": 458105013, "lat": 12.9412769, "lon": 77.5219293}, {"type": "node", "id": 1228960966, "lat": 12.90306, "lon": 77.4974982, "tags": {"addr:district": "Bengaluru Urban", "addr:full": "67, Uttarahalli Road, Kengeri", "addr:postcode": "560060", "addr:state": "Karnataka", "amenity": "hospital", "email": "web.enquiries@globalhospitalsindia.com", "healthcare": "hospital", "healthcare:speciality": "multi speciality", "name": "BGS Gleneagles Hospitals", "name:kn": "\u0cac\u0cbf\u0c9c\u0cbf\u0c8e\u0cb8\u0ccd \u0c86\u0cb8\u0ccd\u0caa\u0ca4\u0ccd\u0cb0\u0cc6", "operator:type": "private", "source": "OpenGovernmentData", "website": "https://bgsgleneaglesglobalhospitalbengaluru.com/"}}, {"type": "node", "id": 1462175435, "lat": 12.908504, "lon": 77.5139924}, {"type": "node", "id": 1462175436, "lat": 12.9084491, "lon": 77.5138596}, {"type": "node", "id": 1462175438, "lat": 12.9095733, "lon": 77.5134841}, {"type": "node", "id": 1462175439, "lat": 12.909345, "lon": 77.5142567}, {"type": "node", "id": 1462175441, "lat": 12.9090664, "lon": 77.5132532}, {"type": "node", "id": 1462175447, "lat": 12.9084727, "lon": 77.5130697}, {"type": "node", "id": 1462175448, "lat": 12.9081947, "lon": 77.5137658}, {"type": "node", "id": 1463555571, "lat": 12.930936, "lon": 77.5153776, "tags": {"addr:district": "Bengaluru Urban", "addr:full": "No. 484/A, Ideal Homes Township, 18th Main Road, Rajarajeshwarinagar", "addr:postcode": "560098", "addr:state": "Karnataka", "amenity": "hospital", "name": "Rc Hospital", "source": "OpenGovernmentData"}}, {"type": "node", "id": 1463563608, "lat": 12.9263226, "lon": 77.5156579, "tags": {"amenity": "hospital", "name": "Veturi Child Health Centre"}}, {"type": "node", "id": 1464035837, "lat": 12.9246977, "lon": 77.5004222}, {"type": "node", "id": 1464035839, "lat": 12.9244782, "lon": 77.5006593}, {"type": "node", "id": 1468296636, "lat": 12.9410014, "lon": 77.5454222}, {"type": "node", "id": 1468296638, "lat": 12.9408975, "lon": 77.5456958}, {"type": "node", "id": 1468296641, "lat": 12.9409341, "lon": 77.5454222}, {"type": "node", "id": 1468296642, "lat": 12.9410197, "lon": 77.545551}, {"type": "node", "id": 1468296644, "lat": 12.9410249, "lon": 77.5457012}, {"type": "node", "id": 1468296645, "lat": 12.9409184, "lon": 77.5455644}, {"type": "node", "id": 1551996910, "lat": 12.9307467, "lon": 77.5415644}, {"type": "node", "id": 1551996911, "lat": 12.9311353, "lon": 77.5410146}, {"type": "node", "id": 1551996916, "lat": 12.9308423, "lon": 77.5408805}, {"type": "node", "id": 1551996934, "lat": 12.93049, "lon": 77.5414278}, {"type": "node", "id": 1778854020, "lat": 12.9593144, "lon": 77.5265054, "tags": {"addr:district": "Bengaluru Urban", "addr:full": "No. 1558, Opposite Chandra Layout Bus Stand, Chandra Layout, Vijaynagar", "addr:postcode": "560048", "addr:state": "Karnataka", "amenity": "hospital", "designation": "Gurushree Multi speciality Hospital", "emergency": "yes", "name": "Gurushree Hitech Multispeciality Hospital", "source": "OpenGovernmentData"}}, {"type": "node", "id": 1794111895, "lat": 12.9309944, "lon": 77.4929837, "tags": {"addr:district": "Bengaluru Urban", "addr:full": "3 P (2), 60 Ft Road, Jnanabharathi Layout, 1st Block, (Valgerhalli), Near To Srikki Apartment", "addr:postcode": "560059", "addr:state": "Karnataka", "amenity": "hospital", "emergency": "yes", "name": "MEDSOL Hospital", "source": "OpenGovernmentData"}}, {"type": "node", "id": 1835530203, "lat": 12.9089008, "lon": 77.5129805}, {"type": "node", "id": 2212459207, "lat": 12.9613237, "lon": 77.511726, "tags": {"addr:district": "Bengaluru Urban", "addr:full": "# 611 /612, Nagarabhavi Main Road", "addr:postcode": "560072", "addr:state": "Karnataka", "addr:subdistrict": "Nagarbhavi", "amenity": "hospital", "name": "Panacea Hospital, Nagarabhavi", "operator:type": "private", "source": "OpenGovernmentData", "website": "http://www.panaceahospital.com/"}}, {"type": "node", "id": 2484900084, "lat": 12.9436624, "lon": 77.5419997, "tags": {"addr:city": "Bangalore", "addr:housename": "Near BDA Park", "addr:housenumber": "63", "addr:postcode": "560085", "addr:street": "6th Main Road", "amenity": "hospital", "name": "Shalini Nursing & MAternity Home"}}, {"type": "node", "id": 2514705828, "lat": 12.9612829, "lon": 77.5271683, "tags": {"addr:city": "Bangalore", "addr:housename": "Below Food World, Chandra Layout", "addr:street": "4th Main Road", "amenity": "hospital", "emergency": "no", "healthcare": "hospital", "name": "Anurag Medical Center"}}, {"type": "node", "id": 2593549009, "lat": 12.8949651, "lon": 77.4621569}, {"type": "node", "id": 2593549011, "lat": 12.8947771, "lon": 77.4621765}, {"type": "node", "id": 2593549012, "lat": 12.894974, "lon": 77.4620067}, {"type": "node", "id": 2593549017, "lat": 12.8954773, "lon": 77.4621388}, {"type": "node", "id": 2593549019, "lat": 12.8951226, "lon": 77.462333}, {"type": "node", "id": 2593549020, "lat": 12.8951424, "lon": 77.4622091}, {"type": "node", "id": 2593549031, "lat": 12.8954774, "lon": 77.4618605}, {"type": "node", "id": 2593549034, "lat": 12.8947299, "lon": 77.4621733}, {"type": "node", "id": 2593549036, "lat": 12.8954853, "lon": 77.4620341}, {"type": "node", "id": 2593549042, "lat": 12.8948833, "lon": 77.461539}, {"type": "node", "id": 2593549059, "lat": 12.8954621, "lon": 77.4619732}, {"type": "node", "id": 2593549072, "lat": 12.894943, "lon": 77.4624369}, {"type": "node", "id": 2593549081, "lat": 12.8949987, "lon": 77.4622}, {"type": "node", "id": 2593549085, "lat": 12.8953348, "lon": 77.4620216}, {"type": "node", "id": 2593549089, "lat": 12.8951068, "lon": 77.4616567}, {"type": "node", "id": 2593549098, "lat": 12.89512, "lon": 77.4623725}, {"type": "node", "id": 2593549106, "lat": 12.8953126, "lon": 77.4616725}, {"type": "node", "id": 2593549110, "lat": 12.894948, "lon": 77.4623605}, {"type": "node", "id": 2593549123, "lat": 12.8947884, "lon": 77.4620067}, {"type": "node", "id": 2593549131, "lat": 12.8955742, "lon": 77.4621406}, {"type": "node", "id": 2593549135, "lat": 12.895554, "lon": 77.4623598}, {"type": "node", "id": 2593549152, "lat": 12.8948521, "lon": 77.4620111}, {"type": "node", "id": 2593549168, "lat": 12.8950445, "lon": 77.46201}, {"type": "node", "id": 2593549169, "lat": 12.8953979, "lon": 77.4619736}, {"type": "node", "id": 2593549178, "lat": 12.8951136, "lon": 77.461555}, {"type": "node", "id": 2593549183, "lat": 12.8951611, "lon": 77.4621503}, {"type": "node", "id": 2593549192, "lat": 12.8947136, "lon": 77.462421}, {"type": "node", "id": 2914260121, "lat": 12.9623406, "lon": 77.5342853, "tags": {"addr:district": "Bengaluru Urban", "addr:full": "No.1133/F,30 Ft.Service Road, R.P.C. Layout,Vijaynagar", "addr:postcode": "560040", "addr:state": "Karnataka", "amenity": "hospital", "healthcare": "hospital", "name": "Sharavathi Hospitals (P) Ltd.", "source": "OpenGovernmentData"}}, {"type": "node", "id": 3004275434, "lat": 12.931334, "lon": 77.5154779, "tags": {"addr:district": "Bengaluru Urban", "addr:full": "#483, 16 Th Cross, 8 Th Main", "addr:postcode": "560098", "addr:state": "Karnataka", "addr:subdistrict": "Rajarajeswarinagar", "amenity": "hospital", "healthcare": "doctor", "healthcare:speciality": "ophthalmology", "name": "Vasan Eye Care Hospital, Rajarajeswari Nagar", "operator:type": "private", "source": "OpenGovernmentData", "website": "http://www.vasaneye.in/"}}, {"type": "node", "id": 3120590213, "lat": 12.896052, "lon": 77.4618775, "tags": {"amenity": "hospital", "name": "Rajarajeshwari Hospital and Medical College", "name:kn": "\u0cb0\u0cbe\u0c9c\u0cb0\u0cbe\u0c9c\u0cc7\u0cb6\u0ccd\u0cb5\u0cb0\u0cbf \u0cb5\u0cc8\u0ca6\u0ccd\u0caf\u0c95\u0cc0\u0caf \u0c95\u0cbe\u0cb2\u0cc7\u0c9c\u0cc1 \u0cae\u0ca4\u0ccd\u0ca4\u0cc1 \u0c86\u0cb8\u0ccd\u0caa\u0ca4\u0ccd\u0cb0\u0cc6"}}, {"type": "node", "id": 3388805879, "lat": 12.9413723, "lon": 77.5220207}, {"type": "node", "id": 3714890157, "lat": 12.8947676, "lon": 77.4567285}, {"type": "node", "id": 3714890158, "lat": 12.8942643, "lon": 77.4574548}, {"type": "node", "id": 3714890160, "lat": 12.8930364, "lon": 77.4570857}, {"type": "node", "id": 3714890161, "lat": 12.8930846, "lon": 77.4565131}, {"type": "node", "id": 3714890162, "lat": 12.8934642, "lon": 77.4562233}, {"type": "node", "id": 3714890163, "lat": 12.8940015, "lon": 77.4562794}, {"type": "node", "id": 3714890164, "lat": 12.8942602, "lon": 77.4563866}, {"type": "node", "id": 4042272818, "lat": 12.8937796, "lon": 77.4580785}, {"type": "node", "id": 4042272819, "lat": 12.894019, "lon": 77.4573773}, {"type": "node", "id": 4446907712, "lat": 12.9389007, "lon": 77.5438808, "tags": {"addr:city": "bangalore", "addr:housenumber": "5/8/1", "addr:postcode": "560085", "addr:street": "20th Main Road, Muneshwara Block, Girinagar, 1st phase Girinagar, Kadavanthra, Banashankari", "amenity": "hospital", "name": "Pulse Multispecialty Hospital", "phone": "080 2672 4466", "source": "just dial"}}, {"type": "node", "id": 4446909294, "lat": 12.9316792, "lon": 77.5450887, "tags": {"addr:city": "bangalore", "addr:housenumber": "103,994", "addr:postcode": "560085", "addr:street": ",2nd Main,1st Block,4th Phase,Kathriguppe,BSK 3rd Stage, Water Tank Road, Banashankari", "amenity": "hospital", "name": "Surya Galaxy Hospital", "phone": "080 2642 1051", "source": "just dial"}}, {"type": "node", "id": 4447013195, "lat": 12.9575029, "lon": 77.5276466, "tags": {"addr:city": "Bangalore", "addr:district": "Bengaluru Urban", "addr:full": "#1222, 80, Feet Road, Chandra Layout", "addr:housenumber": "1222", "addr:postcode": "560040", "addr:state": "Karnataka", "addr:street": "14th Main Road", "amenity": "hospital", "healthcare": "hospital", "name": "Sri Vinayaka Hospital", "phone": "080 2339 8062", "source": "OpenGovernmentData"}}, {"type": "node", "id": 4447015118, "lat": 12.9573897, "lon": 77.5276882, "tags": {"addr:city": "Bangalore", "addr:postcode": "560040", "addr:street": "14th Main Road", "amenity": "hospital", "healthcare": "hospital", "name": "Shathayu Ayurveda Wellness Centre", "phone": "+91 8040999110"}}, {"type": "node", "id": 4447072265, "lat": 12.9594984, "lon": 77.5275515, "tags": {"addr:city": "Bangalore", "addr:housenumber": "1133/f", "addr:postcode": "560040", "addr:street": "30 Service Road Rpc Layout Vijaynagar, Chandra Layout", "amenity": "hospital", "name": "Hospital Sharavathi", "phone": "+918023300222"}}, {"type": "node", "id": 4447075424, "lat": 12.9644231, "lon": 77.5333324, "tags": {"addr:city": "Bangalore", "addr:housenumber": "3437", "addr:postcode": "560040", "addr:street": "7 Subbanna Garden Vijaynagar, Attiguppe", "amenity": "hospital", "healthcare": "hospital", "name": "Venkat Charmalaya", "phone": "+918023392788"}}, {"type": "node", "id": 4447083784, "lat": 12.9621516, "lon": 77.533401, "tags": {"addr:city": "Bangalore", "addr:postcode": "560040", "addr:street": "Chord Road", "amenity": "hospital", "healthcare": "hospital", "name": "Shreya Hearing Clinic", "phone": "\" 080 2318 0012\""}}, {"type": "node", "id": 4447088630, "lat": 12.9603312, "lon": 77.5300796, "tags": {"addr:city": "Bangalore", "addr:housenumber": "NO.105", "addr:postcode": "560040", "addr:street": "Widia Layout, Chandra Layout Main Road, Govindaraja Nagar Ward, Widia Layout, Vijayanagar", "amenity": "hospital", "name": "Prasad Nethralaya", "phone": "080 2339 2807"}}, {"type": "node", "id": 4447105332, "lat": 12.958321, "lon": 77.5350434, "tags": {"addr:city": "Bangalore", "addr:housenumber": "30", "addr:postcode": "560040", "addr:street": "1108/30 10Th Main 4Th Cross, Rpc Layout, Vijayanagar", "amenity": "hospital", "name": "Padmashree Nursing Home and Maternity Home", "phone": "080 2311 8372"}}, {"type": "node", "id": 4447119911, "lat": 12.9639998, "lon": 77.5302683, "tags": {"addr:city": "Bangalore", "addr:housenumber": "17", "addr:postcode": "560040p", "addr:street": "1st Main Rd, Kaveri Layout, Govindaraja Nagar Ward, Anubhav Nagar, Vijayanagar", "amenity": "hospital", "healthcare": "hospital", "phone": "080 2335 2200"}}, {"type": "node", "id": 4447155158, "lat": 12.957572, "lon": 77.5184436, "tags": {"addr:city": "Bangalore", "addr:district": "Bengaluru Urban", "addr:full": "No3 Ist Cross Janabharathi Road Nagarabhvi Circle", "addr:postcode": "560072", "addr:state": "Karnataka", "addr:street": "Nagarabhavi Road", "amenity": "hospital", "name": "S K Hospital, Bengaluru Urban", "phone": "080 2321 3699", "source": "OpenGovernmentData"}}, {"type": "node", "id": 4547191103, "lat": 12.9056092, "lon": 77.5426964, "tags": {"addr:postcode": "560061", "addr:street": "Dr. Vishnuvardhan Road", "amenity": "hospital", "healthcare": "hospital", "name": "Nagarathna Hospital", "name:kn": "\u0ca8\u0cbe\u0c97\u0cb0\u0ca4\u0ccd\u0ca8"}}, {"type": "node", "id": 5277512112, "lat": 12.9138086, "lon": 77.5273633, "tags": {"amenity": "hospital", "name": "Usha Vikranth Diagnostic Center and Hospital"}}, {"type": "node", "id": 6531332483, "lat": 12.9248001, "lon": 77.500522}, {"type": "node", "id": 6531332484, "lat": 12.9246684, "lon": 77.5006643}, {"type": "node", "id": 6531332485, "lat": 12.9247366, "lon": 77.5007308}, {"type": "node", "id": 6531332486, "lat": 12.9246489, "lon": 77.5008256}, {"type": "node", "id": 6809801083, "lat": 12.9156896, "lon": 77.4808065, "tags": {"addr:district": "Bangalore", "addr:full": "NEAR COLLAGE, RAILWAY STATION", "addr:postcode": "560060", "addr:state": "Karnataka", "addr:subdistrict": "Bangalore South", "amenity": "hospital", "healthcare": "hospital", "name": "Kengeri Upanagara Government Hospital", "name:kn": "\u0c95\u0cc6\u0c82\u0c97\u0cc7\u0cb0\u0cbf \u0c89\u0caa\u0ca8\u0c97\u0cb0 \u0cb8\u0cb0\u0ccd\u0c95\u0cbe\u0cb0\u0cbf \u0c86\u0cb8\u0ccd\u0caa\u0ca4\u0ccd\u0cb0\u0cc6", "source": "OpenGovernmentData"}}, {"type": "node", "id": 6937844482, "lat": 12.9517481, "lon": 77.4939886, "tags": {"addr:district": "Bengaluru Urban", "addr:full": "#43/2, 3Road Cross, OppositeSaroja Memorial School, Jnanajyothi Nagar, Ullal Main Road", "addr:postcode": "560056", "addr:state": "Karnataka", "amenity": "hospital", "name": "Abhay Hospital", "name:kn": "\u0c85\u0cad\u0caf \u0c86\u0cb8\u0ccd\u0caa\u0ca4\u0ccd\u0cb0\u0cc6", "source": "OpenGovernmentData"}}, {"type": "node", "id": 6938695149, "lat": 12.9579894, "lon": 77.5114394, "tags": {"addr:district": "Bengaluru Urban", "addr:full": "54, 4th cross,4th main, NGEF Layout, Nrupathunganagar, Nagarabhavi, Bengaluru, Karnataka 560072", "addr:postcode": "560072", "addr:state": "Karnataka", "amenity": "hospital", "name": "Chandana Hospital", "source": "OpenGovernmentData"}}, {"type": "node", "id": 6939582677, "lat": 12.9275311, "lon": 77.5457901, "tags": {"addr:district": "Bengaluru Urban", "addr:full": "30, 2nd Cross Anjaneya Nagar, 3Road Stage Banashankari", "addr:postcode": "560085", "addr:state": "Karnataka", "amenity": "hospital", "name": "Sg Hospital", "source": "OpenGovernmentData"}}, {"type": "node", "id": 6944095844, "lat": 12.9215104, "lon": 77.4832503, "tags": {"addr:district": "Bengaluru Rural", "addr:full": "No 73, 3Road Main Road, Kengeri Satellite Town, Kengeri", "addr:postcode": "560060", "addr:state": "Karnataka", "amenity": "hospital", "name": "Shreya Hospital, Bengaluru Rural", "source": "OpenGovernmentData"}}, {"type": "node", "id": 6944096856, "lat": 12.9255704, "lon": 77.4857756, "tags": {"addr:district": "Bengaluru Rural", "addr:full": "80 Ft. Road", "addr:postcode": "560060", "addr:state": "Karnataka", "amenity": "hospital", "name": "Sri Annapoorneshwari Hospital", "source": "OpenGovernmentData"}}, {"type": "node", "id": 6944231472, "lat": 12.9110975, "lon": 77.4806057, "tags": {"addr:district": "Bengaluru Rural", "addr:full": "No-304, Kuvempu Street, Bazar Street , Kenegeri", "addr:postcode": "560060", "addr:state": "Karnataka", "amenity": "hospital", "name": "Mathru Hospital - Bangalore", "name:kn": "\u0cae\u0cbe\u0ca4\u0cc3 \u0c86\u0cb8\u0ccd\u0caa\u0ca4\u0ccd\u0cb0\u0cc6", "source": "OpenGovernmentData"}}, {"type": "node", "id": 6944309977, "lat": 12.9645006, "lon": 77.5427189, "tags": {"addr:district": "Bengaluru Urban", "addr:full": "No. 1869, 5Th Main, 13Th Cross, R.P.C. Lay Out, Vijayanagar", "addr:postcode": "560040", "addr:state": "Karnataka", "amenity": "hospital", "healthcare": "hospital", "name": "Susheel Hospital", "source": "OpenGovernmentData"}}, {"type": "node", "id": 6944400794, "lat": 12.9110766, "lon": 77.4800451, "tags": {"addr:district": "Bengaluru Rural", "addr:full": "#709, 1st Cross, Ring Road, Kengeri Upanagar,Behind Vijaya Bank", "addr:postcode": "560060", "addr:state": "Karnataka", "amenity": "hospital", "name": "Belaku Eye Hospital", "source": "OpenGovernmentData"}}, {"type": "node", "id": 6944578226, "lat": 12.910823, "lon": 77.5207892, "tags": {"addr:district": "Bengaluru Urban", "addr:full": "No.886, Beml Layout,Near Police Station Main Road,Rajarajeshwari Nagar", "addr:postcode": "560098", "addr:state": "Karnataka", "amenity": "hospital", "name": "Unity Hospital, Bengaluru Urban", "source": "OpenGovernmentData"}}, {"type": "node", "id": 6944616329, "lat": 12.9085981, "lon": 77.4784157, "tags": {"addr:district": "Bengaluru Urban", "addr:full": "106/2&135 - Mysore Road Kengeri", "addr:postcode": "560054", "addr:state": "Karnataka", "amenity": "hospital", "name": "HK Hospital", "source": "OpenGovernmentData"}}, {"type": "node", "id": 6945309984, "lat": 12.9601022, "lon": 77.5315556, "tags": {"addr:district": "Bengaluru Urban", "addr:full": "No.20/1, 2nd Cross, Widia Layout, Chandra Layout Main Road,Vijayanagar", "addr:postcode": "560040", "addr:state": "Karnataka", "amenity": "hospital", "healthcare": "hospital", "name": "A.M. Hospital", "source": "OpenGovernmentData"}}, {"type": "node", "id": 6945348721, "lat": 12.9586907, "lon": 77.5352668, "tags": {"addr:district": "Bengaluru Urban", "addr:full": "#966/ 22, Service Road, RPC Layout, Vijayanagar, Opposite Syndicate Bank", "addr:postcode": "560104", "addr:state": "Karnataka", "amenity": "hospital", "healthcare": "hospital", "healthcare:speciality": "Cataract Treatment; Cornea Clinic; Retina Clinic; Glaucoma Clinic", "name": "Divya Drishti Eye Hospital, Vijayanagar", "operator:type": "private", "source": "OpenGovernmentData", "website": "http://divyadrishtieyehospital.com/"}}, {"type": "node", "id": 6945398483, "lat": 12.9617045, "lon": 77.5217172, "tags": {"addr:district": "Bengaluru Urban", "addr:full": "No-14, Maruthi Nagar, Nagarabhavi Main Road", "addr:postcode": "560072", "addr:state": "Karnataka", "amenity": "hospital", "name": "Shridevi Hospital, Bengaluru Urban", "source": "OpenGovernmentData"}}, {"type": "node", "id": 6947707903, "lat": 12.9418827, "lon": 77.48376, "tags": {"addr:district": "Bengaluru Urban", "addr:full": "4,Kirloskar Colony, Basaveshwaranagar", "addr:postcode": "560079", "addr:state": "Karnataka", "amenity": "hospital", "name": "Vijaya Hospital, Bengaluru Urban", "source": "OpenGovernmentData"}}, {"type": "node", "id": 6948187839, "lat": 12.95119, "lon": 77.4918039, "tags": {"addr:district": "Mysuru", "addr:full": "34/1, Ta.Ra.Su. Circla Yadavagiri", "addr:postcode": "570020", "addr:state": "Karnataka", "amenity": "hospital", "name": "Sankalpa Hospital", "name:kn": "\u0cb8\u0c82\u0c95\u0cb2\u0ccd\u0caa \u0c86\u0cb8\u0ccd\u0caa\u0ca4\u0ccd\u0cb0\u0cc6", "source": "OpenGovernmentData"}}, {"type": "node", "id": 6952164952, "lat": 12.9408227, "lon": 77.5227942}, {"type": "node", "id": 6952164953, "lat": 12.9415717, "lon": 77.523348}, {"type": "node", "id": 6952164960, "lat": 12.9420357, "lon": 77.5225983}, {"type": "node", "id": 7202935821, "lat": 12.9629127, "lon": 77.4751834, "tags": {"addr:district": "Bangalore", "addr:full": "Sir M Vishweshwaraiah Layout 6th Block, Ullal Uppanagar", "addr:postcode": "560056", "addr:state": "Karnataka", "addr:subdistrict": "Bangalore North", "amenity": "hospital", "name": "Ullalu Government Hospital", "source": "OpenGovernmentData"}}, {"type": "node", "id": 7213514086, "lat": 12.9358669, "lon": 77.4927128, "tags": {"addr:district": "Bengaluru Rural", "addr:full": "Mutharayana Nagar, Gnana Bharathi, Bengaluru", "addr:postcode": "560056", "addr:state": "Karnataka", "amenity": "hospital", "name": "Sree Ranga Hospital", "source": "OpenGovernmentData"}}, {"type": "node", "id": 7229958802, "lat": 12.9427937, "lon": 77.5256266}, {"type": "node", "id": 7229958803, "lat": 12.9428107, "lon": 77.5254495}, {"type": "node", "id": 7229958804, "lat": 12.9426696, "lon": 77.5254013}, {"type": "node", "id": 7229958805, "lat": 12.9426291, "lon": 77.5255233}, {"type": "node", "id": 7258378647, "lat": 12.931298, "lon": 77.5412566, "tags": {"amenity": "hospital", "healthcare": "hospital", "healthcare:speciality": "optometry;optometrist", "name": "Vittal Eye HOspital"}}, {"type": "node", "id": 7572526718, "lat": 12.9615606, "lon": 77.5222312, "tags": {"addr:district": "Bengaluru Urban", "addr:full": "Maruthi Nagar, Attiguppe, Bengaluru", "addr:postcode": "560040", "addr:state": "Karnataka", "amenity": "hospital", "name": "Shree Dhanvantari Ayurveda Hospital", "source": "Local Knowledge"}}, {"type": "node", "id": 7572526728, "lat": 12.961509, "lon": 77.523151, "tags": {"addr:district": "Bengaluru Urban", "addr:full": "Netravati Road, Maruthi Nagar, Bengaluru", "addr:postcode": "560072", "addr:state": "Karnataka", "amenity": "hospital", "name": "Srinivasam Cancer Care Multi Speciality Hospital", "source": "Local Knowledge"}}, {"type": "node", "id": 7572526764, "lat": 12.963967, "lon": 77.4973049, "tags": {"addr:district": "Bengaluru Urban", "addr:full": "Vishweshwaraiah Layout, Annapurneshwari Nagar, Bengaluru", "addr:postcode": "560056", "addr:state": "Karnataka", "amenity": "hospital", "name": "Abivrud Cancer Care & Research Centre", "source": "Local Knowledge"}}, {"type": "node", "id": 7572526783, "lat": 12.9639829, "lon": 77.5188899, "tags": {"addr:district": "Bengaluru Urban", "addr:full": "Govindrajanagar, Anubhav Nagar, Mudalapalya, Vijayanagar, Bengaluru", "addr:postcode": "560072", "addr:state": "Karnataka", "amenity": "hospital", "name": "Government Hospital", "name:kn": "\u0cb8\u0cb0\u0ccd\u0c95\u0cbe\u0cb0\u0cbf \u0c86\u0cb8\u0ccd\u0caa\u0ca4\u0ccd\u0cb0\u0cc6", "source": "Local Knowledge"}}, {"type": "node", "id": 7572526787, "lat": 12.9637162, "lon": 77.5188263, "tags": {"addr:district": "Bengaluru Urban", "addr:full": "Govindaraja Nagar Ward, Garden Villas, Vijayanagar, Bengaluru", "addr:postcode": "560072", "addr:state": "Karnataka", "amenity": "hospital", "name": "Shanthakumari Hospital", "source": "Local Knowledge"}}, {"type": "node", "id": 7579924725, "lat": 12.9055752, "lon": 77.5425258, "tags": {"addr:district": "Bengaluru Urban", "addr:full": "Uttarahalli, Bengaluru", "addr:postcode": "560011", "addr:state": "Karnataka", "amenity": "hospital", "name": "Perfetual Help Hospital", "source": "Local Knowledge"}}, {"type": "node", "id": 7579924783, "lat": 12.906113, "lon": 77.542548, "tags": {"addr:district": "Bengaluru Urban", "addr:full": "Simhadri layout, Uttarahalli Hobli, Bengaluru", "addr:postcode": "560061", "addr:state": "Karnataka", "amenity": "hospital", "name": "St. Martha's Hospital", "source": "Local Knowledge"}}, {"type": "node", "id": 9192967331, "lat": 12.9208444, "lon": 77.4847891, "tags": {"amenity": "hospital", "name": "Adarsh Hospital", "name:kn": "\u0c86\u0ca6\u0cb0\u0ccd\u0cb6 \u0c86\u0cb8\u0ccd\u0caa\u0ca4\u0ccd\u0cb0\u0cc6"}}, {"type": "node", "id": 9934012104, "lat": 12.9429852, "lon": 77.5460604, "tags": {"amenity": "hospital", "healthcare": "hospital", "healthcare:speciality": "dentist", "name": "My Dentist", "operator": "Dr Katta R Venkatesh", "operator:type": "public"}}, {"type": "node", "id": 10245038162, "lat": 12.9093485, "lon": 77.5133836}, {"type": "node", "id": 10979388706, "lat": 12.926271, "lon": 77.5210091}, {"type": "node", "id": 10979388707, "lat": 12.9258632, "lon": 77.5221571}, {"type": "node", "id": 10979388708, "lat": 12.9266631, "lon": 77.5223475}, {"type": "node", "id": 10979388709, "lat": 12.9269742, "lon": 77.5211835}, {"type": "node", "id": 11299121541, "lat": 12.8784742, "lon": 77.5450234, "tags": {"amenity": "hospital", "healthcare": "hospital", "name": "Zymus Hospitals"}}, {"type": "node", "id": 11385217932, "lat": 12.9596032, "lon": 77.5112481, "tags": {"addr:district": "Bengaluru Urban", "addr:full": "No 23, 80 Feet Road, Gurukrupa Layout", "addr:postcode": "560072", "addr:state": "Karnataka", "addr:subdistrict": "Nagarbhavi", "amenity": "hospital", "healthcare": "hospital", "healthcare:speciality": "multi speciality", "name": "Fortis Hospital, Nagarbhavi", "name:kn": "\u0cab\u0ccb\u0cb0\u0ccd\u0c9f\u0cbf\u0cb8\u0ccd \u0c86\u0cb8\u0ccd\u0caa\u0ca4\u0ccd\u0cb0\u0cc6", "operator:type": "private", "source": "OpenGovernmentData", "website": "https://www.fortishealthcare.com/"}}, {"type": "node", "id": 11669547614, "lat": 12.8929529, "lon": 77.4570197}, {"type": "node", "id": 11669547615, "lat": 12.8936821, "lon": 77.458245}, {"type": "node", "id": 11669547616, "lat": 12.8930941, "lon": 77.4576272}, {"type": "node", "id": 11669547617, "lat": 12.8931248, "lon": 77.4571036}, {"type": "node", "id": 11757261198, "lat": 12.9411586, "lon": 77.5230597}, {"type": "node", "id": 11757261199, "lat": 12.9418461, "lon": 77.522475}, {"type": "node", "id": 12155267775, "lat": 12.924584, "lon": 77.500545}, {"type": "node", "id": 12595807877, "lat": 12.9508188, "lon": 77.4804609}, {"type": "node", "id": 12595807878, "lat": 12.9506724, "lon": 77.4811569}, {"type": "node", "id": 12595807879, "lat": 12.9506397, "lon": 77.4814305}, {"type": "node", "id": 12595807880, "lat": 12.9506985, "lon": 77.4814291}, {"type": "node", "id": 12595807881, "lat": 12.9506881, "lon": 77.4816585}, {"type": "node", "id": 12595807882, "lat": 12.9514448, "lon": 77.4816558}, {"type": "node", "id": 12595807883, "lat": 12.9514919, "lon": 77.480548}, {"type": "node", "id": 12651764011, "lat": 12.9519863, "lon": 77.4989075, "tags": {"addr:city": "Bengaluru", "addr:postcode": "560056", "addr:street": "Ullal Main Road", "amenity": "hospital", "healthcare": "hospital", "healthcare:speciality": "gynaecology", "mobile": "09980816643", "name": "Shri Mokambika Women's Clinic, Child care and Nethralaya", "note": "Plus Code: XF2X+QJ Bengaluru, Karnataka"}}, {"type": "node", "id": 12651764012, "lat": 12.9519538, "lon": 77.4990341, "tags": {"addr:city": "Bengaluru", "addr:postcode": "560056", "addr:street": "Ullal Main Road", "amenity": "hospital", "healthcare": "hospital", "healthcare:speciality": "diagnostic_centre;blood_check;scanning;x-ray;ecg;laboratory", "mobile": "9972629415", "name": "Suraksha Diagnostic Centre", "opening_hours": "Mo-Sa 07:00-21:00,Su 07:00-14:00"}}, {"type": "node", "id": 13257391201, "lat": 12.9070989, "lon": 77.5460762, "tags": {"addr:postcode": "560061", "addr:street": "Dr. Vishnuvardhan Road", "amenity": "hospital", "name": "Nano Hospitals"}}, {"type": "way", "id": 132913842, "nodes": [1462175438, 1462175439, 1462175435, 1462175436, 1462175448, 1462175447, 1835530203, 1462175441, 10245038162, 1462175438], "tags": {"alt_name": "Jayadev Memorial Rashtrotthana Hospital and Research Centre", "amenity": "hospital", "healthcare": "hospital", "name": "Manipal Speciality Hospital", "website": "https://www.rashtrotthanahospital.com/"}}, {"type": "way", "id": 133379520, "nodes": [1468296644, 1468296642, 1468296636, 1468296641, 1468296645, 1468296638, 1468296644], "tags": {"addr:city": "bangalore", "addr:district": "Bengaluru Urban", "addr:full": "3/4, Sunrise Tower, J.P. Road, Girinagar", "addr:housenumber": "3-4", "addr:postcode": "560085", "addr:state": "Karnataka", "addr:street": "Sunrise Towers, 30th crs JP Rd. Girinagar.,opp Canara Bank", "amenity": "hospital", "emergency": "yes", "name": "Radhakrishna Multispeciality Hospital", "name:kn": "\u0cb0\u0cbe\u0ca7\u0cbe\u0c95\u0cc3\u0cb7\u0ccd\u0ca3 \u0c86\u0cb8\u0ccd\u0caa\u0ca4\u0ccd\u0cb0\u0cc6", "phone": "080 2642 2977", "source": "OpenGovernmentData"}}, {"type": "way", "id": 141791769, "nodes": [1551996916, 1551996934, 1551996910, 1551996911, 1551996916], "tags": {"addr:district": "Bengaluru Urban", "addr:full": "#1,2nd Cross, 2nd Main,7Th Block, Banashankari 3Road Stage, Hosakerehalli", "addr:postcode": "560085", "addr:state": "Karnataka", "amenity": "hospital", "emergency": "yes", "name": "Vittala International Institute Of Ophthalmology, Hosakerehalli", "source": "OpenGovernmentData"}}, {"type": "way", "id": 253432456, "nodes": [2593549183, 2593549168, 2593549012, 2593549009, 2593549081, 2593549020, 2593549183]}, {"type": "way", "id": 253432472, "nodes": [2593549089, 2593549178, 2593549042, 2593549152, 2593549123, 2593549011, 2593549034, 2593549192, 2593549072, 2593549110, 2593549098, 2593549019, 2593549135, 2593549131, 2593549017, 2593549036, 2593549085, 2593549169, 2593549059, 2593549031, 2593549106, 2593549089]}, {"type": "way", "id": 367578285, "nodes": [3714890158, 4042272819, 4042272818, 11669547615, 11669547616, 11669547617, 3714890160, 11669547614, 3714890161, 3714890162, 3714890163, 3714890164, 3714890157, 3714890158], "tags": {"amenity": "hospital", "check_date": "2022-11-25", "name": "SDM Institute of Ayurveda & Hospital"}}, {"type": "way", "id": 695545711, "nodes": [1464035837, 12155267775, 1464035839, 6531332486, 6531332485, 6531332484, 6531332483, 1464035837], "tags": {"amenity": "hospital", "healthcare": "hospital", "name": "Medical Centre"}}, {"type": "way", "id": 742634558, "nodes": [6952164953, 11757261198, 6952164952, 458105013, 3388805879, 11757261199, 6952164960, 6952164953], "tags": {"amenity": "hospital", "name": "Puneeth Rajkumar Multispeciality Hospital", "name:etymology:wikidata": "Q3351697", "operator": "BBMP"}}, {"type": "way", "id": 774947265, "nodes": [7229958805, 7229958804, 7229958803, 7229958802, 7229958805], "tags": {"amenity": "hospital", "name": "Natus Woman and Children Hospital"}}, {"type": "way", "id": 1182315656, "nodes": [10979388709, 10979388708, 10979388707, 10979388706, 10979388709], "tags": {"amenity": "hospital", "name": "SS Sparsh Hospital"}}, {"type": "way", "id": 1360644157, "nodes": [12595807883, 12595807882, 12595807881, 12595807880, 12595807879, 12595807878, 12595807877, 12595807883], "tags": {"amenity": "hospital", "name": "Government Multi-Speciality Hospital"}}, {"type": "relation", "id": 3397490, "members": [{"type": "way", "ref": 253432472, "role": "outer"}, {"type": "way", "ref": 253432456, "role": "inner"}], "tags": {"amenity": "hospital", "building": "yes", "name": "Rajarajeshwari Medical College and Hospital", "name:kn": "\u0cb0\u0cbe\u0c9c\u0cb0\u0cbe\u0c9c\u0cc7\u0cb6\u0ccd\u0cb5\u0cb0\u0cbf \u0cb5\u0cc8\u0ca6\u0ccd\u0caf\u0c95\u0cc0\u0caf \u0c95\u0cbe\u0cb2\u0cc7\u0c9c\u0cc1 \u0cae\u0ca4\u0ccd\u0ca4\u0cc1 \u0c86\u0cb8\u0ccd\u0caa\u0ca4\u0ccd\u0cb0\u0cc6", "type": "multipolygon"}}]}