{"version": 0.6, "generator": "Overpass API 0.7.62.8 e802775f", "osm3s": {"timestamp_osm_base": "2026-01-15T04:23:41Z", "copyright": "The data included in this document is from www.openstreetmap.org. The data is made available under ODbL."}, "elements": [{"type": "node", "id": 60221580, "lat": 48.1358458, "lon": 11.5990346}, {"type": "node", "id": 60221581, "lat": 48.1363679, "lon": 11.5989971}, {"type": "node", "id": 60221584, "lat": 48.139341, "lon": 11.5994733}, {"type": "node", "id": 60221585, "lat": 48.1399157, "lon": 11.5997492}, {"type": "node", "id": 60221586, "lat": 48.1397205, "lon": 11.6004638}, {"type": "node", "id": 60221587, "lat": 48.1393266, "lon": 11.6002757}, {"type": "node", "id": 60221588, "lat": 48.1391206, "lon": 11.6015376}, {"type": "node", "id": 60221589, "lat": 48.1359704, "lon": 11.6032786}, {"type": "node", "id": 60223102, "lat": 48.1386846, "lon": 11.6016626}, {"type": "node", "id": 60223103, "lat": 48.1384606, "lon": 11.6020554}, {"type": "node", "id": 60223104, "lat": 48.1378034, "lon": 11.6045825}, {"type": "node", "id": 60223105, "lat": 48.1374187, "lon": 11.6044663}, {"type": "node", "id": 60223106, "lat": 48.1372885, "lon": 11.6038601}, {"type": "node", "id": 60223107, "lat": 48.1364709, "lon": 11.6036077}, {"type": "node", "id": 60223108, "lat": 48.1362079, "lon": 11.6032765}, {"type": "node", "id": 60223697, "lat": 48.1372997, "lon": 11.5985172}, {"type": "node", "id": 60223704, "lat": 48.137874, "lon": 11.5987685}, {"type": "node", "id": 60234227, "lat": 48.1326573, "lon": 11.5586706}, {"type": "node", "id": 60234228, "lat": 48.1331284, "lon": 11.5621093}, {"type": "node", "id": 60234229, "lat": 48.1317681, "lon": 11.5628338}, {"type": "node", "id": 60234230, "lat": 48.1299408, "lon": 11.5589332}, {"type": "node", "id": 60239032, "lat": 48.1297901, "lon": 11.5642122}, {"type": "node", "id": 60239033, "lat": 48.1295269, "lon": 11.5651809}, {"type": "node", "id": 60239034, "lat": 48.1281771, "lon": 11.5642057}, {"type": "node", "id": 256478776, "lat": 48.1359679, "lon": 11.6028469}, {"type": "node", "id": 291898706, "lat": 48.1515148, "lon": 11.5960485, "tags": {"addr:city": "M\u00fcnchen", "addr:country": "DE", "addr:housenumber": "6", "addr:postcode": "80538", "addr:street": "Hirschauer Stra\u00dfe", "amenity": "hospital", "beds": "82", "emergency": "no", "healthcare": "hospital", "healthcare:speciality": "gynaecology", "name": "Frauenklinik Dr. Geisenhofer", "name:en": "Dr. Geisenhofer Women's Clinic", "opening_hours:visitors": "09:00-17:00", "operator": "Frauenklinik Dr. Geisenhofer GmbH", "operator:type": "private", "phone": "+49 89 38310", "website": "https://geisenhoferklinik.de/", "wheelchair": "no"}}, {"type": "node", "id": 332617267, "lat": 48.1347002, "lon": 11.5650239, "tags": {"addr:city": "M\u00fcnchen", "addr:country": "DE", "addr:housenumber": "24", "addr:postcode": "80331", "addr:street": "Sonnenstra\u00dfe", "amenity": "hospital", "email": "info@isarklinikum.de", "emergency": "yes", "fax": "+49 89 149903-1990", "healthcare": "hospital", "name": "ISAR Klinikum", "operator": "Isar Kliniken GmbH", "phone": "+49 89 149903-0", "website": "https://www.isarklinikum.de", "wheelchair": "yes", "wikidata": "Q22674589"}}, {"type": "node", "id": 614877701, "lat": 48.1317425, "lon": 11.5627837}, {"type": "node", "id": 614881495, "lat": 48.1315182, "lon": 11.5623164}, {"type": "node", "id": 890028363, "lat": 48.1393607, "lon": 11.6002919}, {"type": "node", "id": 890028670, "lat": 48.1368948, "lon": 11.5987312}, {"type": "node", "id": 890028912, "lat": 48.13706, "lon": 11.5988209}, {"type": "node", "id": 973745936, "lat": 48.1452807, "lon": 11.581651}, {"type": "node", "id": 973746000, "lat": 48.1453878, "lon": 11.5816866}, {"type": "node", "id": 973746015, "lat": 48.1457331, "lon": 11.5813589}, {"type": "node", "id": 973746055, "lat": 48.1454888, "lon": 11.5817173}, {"type": "node", "id": 973746104, "lat": 48.1453225, "lon": 11.5813001}, {"type": "node", "id": 973746138, "lat": 48.1456823, "lon": 11.5817709}, {"type": "node", "id": 1098025404, "lat": 48.1313833, "lon": 11.5620186}, {"type": "node", "id": 1098025405, "lat": 48.1314889, "lon": 11.5622528}, {"type": "node", "id": 1143597272, "lat": 48.1301342, "lon": 11.5586295}, {"type": "node", "id": 1250148922, "lat": 48.1308481, "lon": 11.5608707, "tags": {"access": "private", "barrier": "gate"}}, {"type": "node", "id": 1319694768, "lat": 48.137009, "lon": 11.5987932, "tags": {"entrance": "main", "note": "Haupteingang Klink"}}, {"type": "node", "id": 1319734502, "lat": 48.1396549, "lon": 11.6004313}, {"type": "node", "id": 1337649763, "lat": 48.1358394, "lon": 11.6002723}, {"type": "node", "id": 1349035369, "lat": 48.12848, "lon": 11.5633875}, {"type": "node", "id": 1349035385, "lat": 48.1288781, "lon": 11.5636088}, {"type": "node", "id": 1349035409, "lat": 48.1294408, "lon": 11.5639966}, {"type": "node", "id": 1349035411, "lat": 48.1294873, "lon": 11.5640269}, {"type": "node", "id": 1349035414, "lat": 48.1295735, "lon": 11.5650137}, {"type": "node", "id": 1354346494, "lat": 48.1382089, "lon": 11.6029254}, {"type": "node", "id": 1354346495, "lat": 48.1384601, "lon": 11.6023056}, {"type": "node", "id": 1354346496, "lat": 48.13868, "lon": 11.6020511}, {"type": "node", "id": 1354346503, "lat": 48.1381944, "lon": 11.6023141}, {"type": "node", "id": 1410703525, "lat": 48.1435718, "lon": 11.6060023}, {"type": "node", "id": 1410703527, "lat": 48.1442412, "lon": 11.6060792}, {"type": "node", "id": 1410703529, "lat": 48.1434125, "lon": 11.6065164}, {"type": "node", "id": 1410703531, "lat": 48.14357, "lon": 11.606208}, {"type": "node", "id": 1410703539, "lat": 48.1434125, "lon": 11.606208}, {"type": "node", "id": 1410703540, "lat": 48.1442518, "lon": 11.6065164}, {"type": "node", "id": 1412416014, "lat": 48.1291783, "lon": 11.5649298}, {"type": "node", "id": 1419327414, "lat": 48.1288108, "lon": 11.564669}, {"type": "node", "id": 1419327416, "lat": 48.128803, "lon": 11.5644976}, {"type": "node", "id": 1419327418, "lat": 48.1285959, "lon": 11.5643562}, {"type": "node", "id": 1419327420, "lat": 48.1284615, "lon": 11.5644192}, {"type": "node", "id": 1430426220, "lat": 48.1328645, "lon": 11.5596921}, {"type": "node", "id": 2249170307, "lat": 48.1361443, "lon": 11.5990217}, {"type": "node", "id": 2450493132, "lat": 48.128702, "lon": 11.5644286, "tags": {"access": "customers", "addr:city": "M\u00fcnchen", "addr:country": "DE", "addr:housenumber": "48", "addr:postcode": "80337", "addr:street": "Thalkirchner Stra\u00dfe", "door": "sliding", "entrance": "main", "wheelchair": "no", "wheelchair:description": "3 Treppenstufen, barrierefreier Zugang \u00fcber Hofeinfahrt"}}, {"type": "node", "id": 2453469193, "lat": 48.128736, "lon": 11.5635279, "tags": {"addr:city": "M\u00fcnchen", "addr:country": "DE", "addr:housenumber": "11", "addr:postcode": "80337", "addr:street": "Frauenlobstra\u00dfe"}}, {"type": "node", "id": 2453469198, "lat": 48.128939, "lon": 11.5636425, "tags": {"addr:city": "M\u00fcnchen", "addr:country": "DE", "addr:housenumber": "9", "addr:postcode": "80337", "addr:street": "Frauenlobstra\u00dfe"}}, {"type": "node", "id": 2470460888, "lat": 48.132026, "lon": 11.5586718, "tags": {"addr:city": "M\u00fcnchen", "addr:country": "DE", "addr:housenumber": "55", "addr:postcode": "80336", "addr:street": "Goethestra\u00dfe"}}, {"type": "node", "id": 2470460889, "lat": 48.131442, "lon": 11.5586474, "tags": {"addr:city": "M\u00fcnchen", "addr:country": "DE", "addr:housenumber": "69", "addr:postcode": "80336", "addr:street": "Goethestra\u00dfe"}}, {"type": "node", "id": 2526303997, "lat": 48.1396856, "lon": 11.6004459, "tags": {"barrier": "gate", "bicycle": "private", "foot": "private"}}, {"type": "node", "id": 2580966481, "lat": 48.1457051, "lon": 11.5810754}, {"type": "node", "id": 2580966490, "lat": 48.14566, "lon": 11.5810629}, {"type": "node", "id": 2580966491, "lat": 48.1456432, "lon": 11.5810583}, {"type": "node", "id": 2580966498, "lat": 48.145566, "lon": 11.5810369}, {"type": "node", "id": 2580966501, "lat": 48.1454437, "lon": 11.5810031}, {"type": "node", "id": 2580966503, "lat": 48.145324, "lon": 11.5813288}, {"type": "node", "id": 2580966506, "lat": 48.1453029, "lon": 11.581481}, {"type": "node", "id": 2638178520, "lat": 48.139068, "lon": 11.6011479}, {"type": "node", "id": 2938148174, "lat": 48.13604, "lon": 11.5990332}, {"type": "node", "id": 3049670436, "lat": 48.1300289, "lon": 11.5586298}, {"type": "node", "id": 4261040832, "lat": 48.1283662, "lon": 11.5633309}, {"type": "node", "id": 4463349410, "lat": 48.1327829, "lon": 11.5588848}, {"type": "node", "id": 4463349411, "lat": 48.1329172, "lon": 11.5601714, "tags": {"barrier": "gate", "maxheight": "3.4"}}, {"type": "node", "id": 4463349412, "lat": 48.1329344, "lon": 11.5603225}, {"type": "node", "id": 4463750735, "lat": 48.1313936, "lon": 11.5586456}, {"type": "node", "id": 4463750736, "lat": 48.1306853, "lon": 11.5586239}, {"type": "node", "id": 4463750738, "lat": 48.1299901, "lon": 11.5590386}, {"type": "node", "id": 4464657469, "lat": 48.1313769, "lon": 11.5620053}, {"type": "node", "id": 4464657472, "lat": 48.131295, "lon": 11.5618288}, {"type": "node", "id": 4464657478, "lat": 48.1307578, "lon": 11.5606811}, {"type": "node", "id": 4464657483, "lat": 48.1306974, "lon": 11.5605518}, {"type": "node", "id": 4464657484, "lat": 48.1305726, "lon": 11.5602848}, {"type": "node", "id": 4464657485, "lat": 48.130518, "lon": 11.5601681}, {"type": "node", "id": 4464657486, "lat": 48.1302982, "lon": 11.5596977}, {"type": "node", "id": 4464657488, "lat": 48.1301005, "lon": 11.5592749}, {"type": "node", "id": 4464657589, "lat": 48.1301639, "lon": 11.5594099}, {"type": "node", "id": 4467806341, "lat": 48.1328355, "lon": 11.5594132}, {"type": "node", "id": 4467806342, "lat": 48.1317846, "lon": 11.5586617}, {"type": "node", "id": 4467806343, "lat": 48.1304859, "lon": 11.5586259}, {"type": "node", "id": 7809455246, "lat": 48.1398565, "lon": 11.599955}, {"type": "node", "id": 7809455247, "lat": 48.1399076, "lon": 11.599777}, {"type": "node", "id": 7905893717, "lat": 48.1369879, "lon": 11.5987814}, {"type": "node", "id": 8461244474, "lat": 48.1371198, "lon": 11.598838}, {"type": "node", "id": 8461244475, "lat": 48.1371488, "lon": 11.598836}, {"type": "node", "id": 8461244476, "lat": 48.1371784, "lon": 11.5988273}, {"type": "node", "id": 8461244477, "lat": 48.1372101, "lon": 11.5988059}, {"type": "node", "id": 8461244478, "lat": 48.1372383, "lon": 11.598767}, {"type": "node", "id": 8461244479, "lat": 48.1364839, "lon": 11.5985034}, {"type": "node", "id": 10925216178, "lat": 48.1457217, "lon": 11.5814508}, {"type": "node", "id": 11073649062, "lat": 48.1358887, "lon": 11.6008665}, {"type": "node", "id": 11073649063, "lat": 48.1358672, "lon": 11.6008061}, {"type": "node", "id": 11073649064, "lat": 48.1359728, "lon": 11.6022411}, {"type": "node", "id": 11073649069, "lat": 48.1358117, "lon": 11.5995066}, {"type": "node", "id": 11073649070, "lat": 48.1358439, "lon": 11.5995052}, {"type": "node", "id": 11073649071, "lat": 48.1358171, "lon": 11.6001704}, {"type": "node", "id": 11143446846, "lat": 48.1302067, "lon": 11.5544165}, {"type": "node", "id": 11143446847, "lat": 48.1304177, "lon": 11.5544443}, {"type": "node", "id": 11143446848, "lat": 48.1304927, "lon": 11.5547697}, {"type": "node", "id": 11143446849, "lat": 48.1304345, "lon": 11.5552366}, {"type": "node", "id": 11143446850, "lat": 48.1301423, "lon": 11.5551969}, {"type": "node", "id": 13084905848, "lat": 48.145765, "lon": 11.5810912}, {"type": "node", "id": 13084905851, "lat": 48.1457481, "lon": 11.5810873}, {"type": "node", "id": 13084905855, "lat": 48.1453202, "lon": 11.5813145}, {"type": "node", "id": 13084905856, "lat": 48.1453257, "lon": 11.5813163}, {"type": "node", "id": 13084905857, "lat": 48.145375, "lon": 11.580985}, {"type": "node", "id": 13084905878, "lat": 48.1453352, "lon": 11.5812234}, {"type": "way", "id": 8056138, "nodes": [60234227, 4463349410, 4467806341, 1430426220, 4463349411, 4463349412, 60234228, 60234229, 614877701, 614881495, 1098025405, 1098025404, 4464657469, 4464657472, 1250148922, 4464657478, 4464657483, 4464657484, 4464657485, 4464657486, 4464657589, 4464657488, 4463750738, 60234230, 3049670436, 1143597272, 4467806343, 4463750736, 4463750735, 2470460889, 4467806342, 2470460888, 60234227], "tags": {"addr:city": "M\u00fcnchen", "addr:housenumber": "1", "addr:postcode": "80336", "addr:street": "Ziemssenstra\u00dfe", "alt_name": "Portalklinik", "amenity": "hospital", "emergency": "yes", "healthcare": "hospital", "name": "LMU Klinikum Campus Innenstadt", "operator": "Ludwig-Maximilians-Universit\u00e4t", "operator:short": "LMU", "operator:type": "university", "operator:wikidata": "Q55044", "operator:wikipedia": "de:Ludwig-Maximilians-Universit\u00e4t M\u00fcnchen", "phone": "+49 89 44000"}}, {"type": "way", "id": 8056619, "nodes": [4261040832, 1349035369, 2453469193, 1349035385, 2453469198, 1349035409, 1349035411, 60239032, 1349035414, 60239033, 1412416014, 1419327414, 1419327416, 2450493132, 1419327418, 1419327420, 60239034, 4261040832], "tags": {"addr:city": "M\u00fcnchen", "addr:country": "DE", "addr:housenumber": "48", "addr:postcode": "80337", "addr:street": "Thalkirchner Stra\u00dfe", "amenity": "hospital", "barrier": "wall", "emergency": "no", "fax": "+49 89 51476403", "healthcare": "hospital", "healthcare:speciality": "dermatology;allergology", "name": "M\u00fcnchen Klinik Thalkirchner Stra\u00dfe", "operator": "St\u00e4dtisches Klinikum M\u00fcnchen GmbH", "phone": "+49 89 1476011", "website": "https://www.muenchen-klinik.de/krankenhaus/thalkirchner-strasse/", "wheelchair": "limited", "wikidata": "Q1687174"}}, {"type": "way", "id": 23684048, "nodes": [60221586, 2526303997, 1319734502, 890028363, 60221587, 2638178520, 60221588, 60223102, 1354346496, 60223103, 1354346495, 1354346503, 1354346494, 60223104, 60223105, 60223106, 60223107, 60223108, 60221589, 256478776, 11073649064, 11073649062, 11073649063, 1337649763, 11073649071, 11073649069, 11073649070, 60221580, 2938148174, 2249170307, 60221581, 8461244479, 890028670, 7905893717, 1319694768, 890028912, 8461244474, 8461244475, 8461244476, 8461244477, 8461244478, 60223697, 60223704, 60221584, 60221585, 7809455247, 7809455246, 60221586], "tags": {"addr:city": "M\u00fcnchen", "addr:country": "DE", "addr:housenumber": "22", "addr:street": "Ismaninger Stra\u00dfe", "amenity": "hospital", "beds": "1161", "emergency": "yes", "healthcare": "hospital", "name": "Klinikum rechts der Isar", "name:en": "Rechts der Isar Hospital", "name:zh": "\u8bae\u4f1a\u5927\u53a6", "operator": "Technische Universit\u00e4t M\u00fcnchen", "phone": "+49 89 4140-0", "start_date": "1834", "toilets:wheelchair": "yes", "website": "https://www.mri.tum.de/", "wheelchair": "yes", "wikidata": "Q883813", "wikipedia": "de:Klinikum rechts der Isar"}}, {"type": "way", "id": 127460320, "nodes": [1410703527, 1410703540, 1410703529, 1410703539, 1410703531, 1410703525, 1410703527], "tags": {"amenity": "hospital", "beds": "20", "check_date": "2025-08-14", "check_date:opening_hours": "2024-06-30", "emergency": "no", "fax": "+49 89 998902-24", "healthcare": "hospital", "healthcare:speciality": "otolaryngology", "name": "HNO-Klinik Bogenhausen Dr. Gaertner", "name:en": "Otorhinolaryngology clinic Bogenhausen Dr. Gaertner", "opening_hours:signed": "no", "operator:type": "private", "phone": "+49 89 998902-0", "website": "https://gaertnerklinik.de/", "wikidata": "Q23930105"}}, {"type": "way", "id": 1201919908, "nodes": [11143446846, 11143446847, 11143446848, 11143446849, 11143446850, 11143446846], "tags": {"addr:city": "M\u00fcnchen", "addr:country": "DE", "addr:housenumber": "14a-16", "addr:postcode": "80336", "addr:street": "Mozartstra\u00dfe", "amenity": "hospital", "contact:email": "info-muc@artemed.de", "contact:fax": "+49 89 51409167", "contact:phone": "+49 89 514090", "contact:website": "https://www.artemedmuenchen.de/", "healthcare": "hospital", "healthcare:speciality": "phlebology", "name": "Artemed Fachklinik M\u00fcnchen", "operator": "Artemed-Fachklinik M\u00fcnchen GmbH & Co. KG"}}, {"type": "way", "id": 1423630775, "nodes": [13084905848, 13084905851, 2580966481, 2580966490, 2580966491, 2580966498, 2580966501, 13084905857, 13084905878, 973746104, 13084905855, 13084905856, 2580966503, 2580966506, 973745936, 973746000, 973746055, 973746138, 10925216178, 973746015, 13084905848], "tags": {"amenity": "hospital", "beds": "70", "email": "info@josephinum.de", "healthcare": "hospital", "healthcare:speciality": "surgery;orthopaedics;internal;otolaryngology;anaesthetics", "name": "Josephinum", "opening_hours:visitors": "14:00-18:00", "operator": "Klinik Josephinum gemeinn\u00fctzige AG", "operator:type": "private_non_profit", "phone": "+49 89 23688-0", "website": "https://www.josephinum.de", "wikidata": "Q18018035"}}]}