{"version": 0.6, "generator": "Overpass API 0.7.62.8 e802775f", "osm3s": {"timestamp_osm_base": "2026-01-12T09:58:51Z", "copyright": "The data included in this document is from www.openstreetmap.org. The data is made available under ODbL."}, "elements": [{"type": "node", "id": 266167438, "lat": 40.3432853, "lon": -3.6870181}, {"type": "node", "id": 266167520, "lat": 40.3410551, "lon": -3.6856456}, {"type": "node", "id": 266167529, "lat": 40.3702948, "lon": -3.6898999}, {"type": "node", "id": 266167566, "lat": 40.3549461, "lon": -3.6918802, "tags": {"addr:housenumber": "79", "addr:postcode": "28041", "addr:street": "Calle del S\u00e1hara", "amenity": "school", "education": "school", "email": "cc.liceooroquieta.madrid@educa.madrid.org", "isced:level": "0;1", "name": "Centro Privado de Educaci\u00f3n Infantil y Primaria Liceo Oroquieta", "operator:type": "private", "phone": "+34917961495", "ref:ES:educamadrid": "28008600", "short_name": "CPEIP Liceo Oroquieta", "website": "http://www.educa.madrid.org/cc.liceooroquieta.madrid"}}, {"type": "node", "id": 266167582, "lat": 40.3648781, "lon": -3.7022002}, {"type": "node", "id": 266167596, "lat": 40.3653097, "lon": -3.7032148}, {"type": "node", "id": 266167619, "lat": 40.3748065, "lon": -3.6212198}, {"type": "node", "id": 266167724, "lat": 40.362476, "lon": -3.6964963}, {"type": "node", "id": 266167804, "lat": 40.3596648, "lon": -3.6940268, "tags": {"addr:housenumber": "12", "addr:postcode": "28041", "addr:street": "Paseo de Gigantes y Cabezudos", "amenity": "school", "education": "school", "email": "cc.nsgracia.madrid@educa.madrid.org", "fax": "+34913182886", "isced:level": "2", "name": "Centro Privado de Educaci\u00f3n Secundaria Nuestra Se\u00f1ora de Gracia", "operator:type": "private", "phone": "+34913173225", "ref:ES:educamadrid": "28013140", "short_name": "CPES Nuestra Se\u00f1ora de Gracia", "website": "http://www.educa.madrid.org/cc.nsgracia.madrid"}}, {"type": "node", "id": 266167827, "lat": 40.3510801, "lon": -3.6890396, "tags": {"addr:housenumber": "53", "addr:postcode": "28021", "addr:street": "Calle de Jos\u00e9 del Pino", "amenity": "school", "education": "school", "email": "cc.sanpedro.madrid@educa.madrid.org", "isced:level": "0;1;2", "name": "Centro Privado de Educaci\u00f3n Infantil, Primaria y Secundaria San Pedro", "operator:type": "private", "phone": "+34917979551;+34692811513", "ref:ES:educamadrid": "28014235", "school:language": "es;en", "short_name": "CPEIPS San Pedro", "website": "https://www.csanpedro.org/"}}, {"type": "node", "id": 266167835, "lat": 40.3727453, "lon": -3.6921875, "tags": {"addr:city": "Madrid", "addr:housenumber": "17", "addr:postcode": "28041", "addr:street": "Calle de la Estafeta", "addr:unit": "local", "amenity": "school", "bus_routes": "23, 78, 123", "canteen": "yes", "education": "school", "email": "cc.sanfermin.madrid@educa.madrid.org", "extended_hours": "yes", "fax": "+34914750587", "internet_access": "yes", "name": "Centro Privado de Educaci\u00f3n Infantil y Primaria San Ferm\u00edn", "operator:type": "private", "phone": "+34917920535", "ref:ES:educamadrid": "28013966", "school:type": "concerted k12", "short_name": "CPEIP San Ferm\u00edn", "start_date": "1952"}}, {"type": "node", "id": 266167843, "lat": 40.3570121, "lon": -3.694003, "tags": {"addr:housenumber": "45", "addr:postcode": "28041", "addr:street": "Calle de Pan y Toros", "amenity": "school", "education": "school", "email": "cc.sgdoscorazones.madrid@educa.madrid.org", "fax": "+34913172526", "isced:level": "0;1", "name": "Centro Privado de Educaci\u00f3n Infantil y Primaria Sagrados Corazones", "operator:type": "private", "phone": "+34913172526", "ref:ES:educamadrid": "28013826", "short_name": "CPEIP Sagrados Corazones", "website": "https://sagrados-corazones.es/"}}, {"type": "node", "id": 266167963, "lat": 40.3427155, "lon": -3.6901746}, {"type": "node", "id": 266168007, "lat": 40.3678822, "lon": -3.6899905, "tags": {"addr:housenumber": "4", "addr:postcode": "28041", "addr:street": "Calle de Torrox", "amenity": "school", "education": "school", "email": "cc.lanatividad.madrid@educa.madrid.org", "fax": "+34917924502", "isced:level": "0;1;2", "name": "Centro Privado de Educaci\u00f3n Infantil, Primaria y Secundaria La Natividad", "operator:type": "private", "phone": "+34917924502;+34914751318", "ref:ES:educamadrid": "28021999", "short_name": "CPEIPS La Natividad", "website": "http://www.educa.madrid.org/cc.lanatividad.madrid"}}, {"type": "node", "id": 266168740, "lat": 40.3481158, "lon": -3.7073252, "tags": {"addr:housenumber": "6", "addr:postcode": "28021", "addr:street": "Calle de la Plata", "amenity": "school", "education": "school", "email": "cc.hease.madrid@educa.madrid.org", "fax": "+34917975594", "isced:level": "5", "name": "Centro Privado de Formaci\u00f3n Profesional Espec\u00edfica Hease", "operator:type": "private", "phone": "+34917977610", "ref:ES:educamadrid": "28032110", "short_name": "CPFPE Hease", "website": "http://www.educa.madrid.org/cc.hease.madrid"}}, {"type": "node", "id": 266168912, "lat": 40.3678875, "lon": -3.7027826, "tags": {"addr:housenumber": "2", "addr:postcode": "28026", "addr:street": "Calle de Fernando Ortiz", "amenity": "school", "education": "school", "email": "cepa.daoizyvelarde.madrid@educa.madrid.org", "fax": "+34915697036", "isced:level": "2;3", "name": "Centro P\u00fablico de Educaci\u00f3n para Personas Adultas Daoiz y Velarde", "operator": "Comunidad de Madrid", "operator:type": "government", "operator:wikidata": "Q578788", "phone": "+34915651055", "ref:ES:educamadrid": "28038689", "short_name": "CEPA Daoiz y Velarde", "website": "http://www.educa.madrid.org/cepa.daoizyvelarde.madrid"}}, {"type": "node", "id": 266168937, "lat": 40.3438685, "lon": -3.7057673, "tags": {"addr:housenumber": "1", "addr:postcode": "28021", "addr:street": "Calle del Bismuto", "amenity": "school", "education": "school", "email": "cp.luz.madrid@educa.madrid.org", "fax": "+34917975020", "isced:level": "0;1", "name": "Colegio de Educaci\u00f3n Infantil y Primaria Nuestra Se\u00f1ora de la Luz", "operator": "Comunidad de Madrid", "operator:type": "public", "operator:wikidata": "Q578788", "phone": "+34917950766", "ref:ES:educamadrid": "28039372", "short_name": "CEIP Nuestra Se\u00f1ora de la Luz", "website": "http://www.educa.madrid.org/cp.luz.madrid"}}, {"type": "node", "id": 266168975, "lat": 40.3475234, "lon": -3.708723, "tags": {"addr:housenumber": "15", "addr:postcode": "28021", "addr:street": "Calle Vieja de Pinto", "amenity": "school", "education": "school", "email": "cc.addis.madrid@educa.madrid.org", "isced:level": "0;1;2", "name": "Centro Privado de Educaci\u00f3n Infantil, Primaria y Secundaria Colegio Addis", "old_name": "Institucion Docente Gyrsa", "operator:type": "private", "phone": "+34917970422;+34917977567", "ref:ES:educamadrid": "28037983", "short_name": "CPEIPS Colegio Addis", "website": "http://www.colegioaddis.es"}}, {"type": "node", "id": 266169212, "lat": 40.3733742, "lon": -3.6928051, "tags": {"addr:housenumber": "14", "addr:postcode": "28041", "addr:street": "Calle de la Estafeta", "amenity": "school", "education": "school", "email": "eei.sanfermin.madrid@educa.madrid.org", "fax": "+34917920502", "isced:level": "0", "name": "Escuela Infantil San Ferm\u00edn", "operator": "Comunidad de Madrid", "operator:type": "government", "operator:wikidata": "Q578788", "phone": "+34917920502", "ref:ES:educamadrid": "28043661", "short_name": "EEI San Ferm\u00edn", "website": "http://www.educa.madrid.org/eei.sanfermin.madrid"}}, {"type": "node", "id": 266169240, "lat": 40.3681492, "lon": -3.701622, "tags": {"addr:housenumber": "1", "addr:postcode": "28041", "addr:street": "Calle de Albaic\u00edn", "amenity": "school", "education": "school", "email": "eei.albaicin.madrid@educa.madrid.org", "fax": "+34913171194", "isced:level": "0", "name": "Escuela Infantil Albaic\u00edn", "operator": "Comunidad de Madrid", "operator:type": "government", "operator:wikidata": "Q578788", "phone": "+34913171194;+34630142953", "ref:ES:educamadrid": "28043405", "short_name": "EEI Albaic\u00edn", "website": "http://www.educa.madrid.org/eei.albaicin.madrid"}}, {"type": "node", "id": 266169372, "lat": 40.3496042, "lon": -3.688835, "tags": {"addr:housenumber": "9", "addr:postcode": "28021", "addr:street": "Calle de Ignacio Santos Vi\u00f1uelas", "amenity": "school", "education": "school", "email": "cc.liceorosales.madrid@educa.madrid.org", "fax": "+34917976602", "isced:level": "0;1", "name": "Centro Privado de Educaci\u00f3n Infantil y Primaria Liceo Rosales", "operator:type": "private", "phone": "+34917982959", "ref:ES:educamadrid": "28044872", "short_name": "CPEIP Liceo Rosales", "website": "http://www.colegioliceorosales.com"}}, {"type": "node", "id": 266169417, "lat": 40.3716401, "lon": -3.692058, "tags": {"addr:city": "Madrid", "addr:housenumber": "33", "addr:postcode": "28041", "addr:street": "Calle de la Estafeta", "amenity": "school", "education": "school", "email": "cepa.escadusera.madrid@educa.madrid.org", "isced:level": "2;3", "name": "Escuela Municipal de Educaci\u00f3n de Personas Adultas Escuela Municipal de Adultos Usera", "operator:type": "public", "phone": "+34917920111", "ref:ES:educamadrid": "28044525", "website": "http://www.educa.madrid.org/cepa.escadusera.madrid"}}, {"type": "node", "id": 266169555, "lat": 40.3252619, "lon": -3.6583552}, {"type": "node", "id": 266169882, "lat": 40.3674529, "lon": -3.6990356}, {"type": "node", "id": 266169907, "lat": 40.3442835, "lon": -3.7088484, "tags": {"addr:housenumber": "19", "addr:postcode": "28021", "addr:street": "Calle de Gregorio Ortiz", "amenity": "school", "education": "school", "fax": "+34917960693", "isced:level": "5", "name": "Academia Triunfo IV", "operator:type": "private", "phone": "+34917960693", "ref:ES:educamadrid": "28056497"}}, {"type": "node", "id": 266170060, "lat": 40.3659466, "lon": -3.6980419, "tags": {"addr:housenumber": "13", "addr:postcode": "28041", "addr:street": "Calle de Albu\u00f1uelas", "amenity": "school", "education": "school", "email": "cc.fundaciontomillo.madrid@educa.madrid.org", "isced:level": "5", "name": "Centro Privado de Formaci\u00f3n Profesional Espec\u00edfica Fundaci\u00f3n Tomillo", "operator:type": "private", "phone": "+34917239353;+34913698128", "ref:ES:educamadrid": "28049614", "short_name": "CPFPE Fundaci\u00f3n Tomillo", "website": "http://www.educa.madrid.org/cc.fundaciontomillo.madrid"}}, {"type": "node", "id": 266171670, "lat": 40.3675429, "lon": -3.663353}, {"type": "node", "id": 266171924, "lat": 40.3596196, "lon": -3.6865216, "tags": {"addr:housenumber": "10", "addr:postcode": "28041", "addr:street": "Calle del Consenso", "amenity": "school", "education": "school", "email": "eoep.at.villaverde@educa.madrid.org", "fax": "+34913188734", "name": "Equipo de Orientaci\u00f3n Educativa y Psicopedag\u00f3gica Atenci\u00f3n Temprana Villaverde", "operator": "Comunidad de Madrid", "operator:type": "public", "operator:wikidata": "Q578788", "phone": "+34913176966", "ref:ES:educamadrid": "28700593", "short_name": "EOEP Equipo Atenci\u00f3n Temprana Villaverde", "website": "http://www.educa.madrid.org/eoep.at.villaverde"}}, {"type": "node", "id": 266172097, "lat": 40.3674674, "lon": -3.7027923, "tags": {"addr:postcode": "28041", "addr:street": "Calle de Fernando Ortiz", "amenity": "school", "education": "school", "email": "eoep.villaverde.madrid@educa.madrid.org", "fax": "+34917237321", "name": "Equipo de Orientaci\u00f3n Educativa y Psicopedag\u00f3gica General Villaverde-Usera", "operator": "Comunidad de Madrid", "operator:type": "public", "operator:wikidata": "Q578788", "phone": "+34913173334;+34913171750", "ref:ES:educamadrid": "28700234", "short_name": "EOEP Equipo General Villaverde-Usera", "website": "http://www.educa.madrid.org/eoep.villaverde.madrid"}}, {"type": "node", "id": 313492178, "lat": 40.3242921, "lon": -3.6582779}, {"type": "node", "id": 313492258, "lat": 40.3242788, "lon": -3.6602135}, {"type": "node", "id": 313492259, "lat": 40.3247801, "lon": -3.6592783}, {"type": "node", "id": 313492262, "lat": 40.3237932, "lon": -3.6589261}, {"type": "node", "id": 313492263, "lat": 40.3239731, "lon": -3.6594488}, {"type": "node", "id": 313492277, "lat": 40.324459, "lon": -3.6586104}, {"type": "node", "id": 313492278, "lat": 40.3245187, "lon": -3.6581336}, {"type": "node", "id": 313492279, "lat": 40.3240957, "lon": -3.6579294}, {"type": "node", "id": 313492280, "lat": 40.3237192, "lon": -3.6581752}, {"type": "node", "id": 313492295, "lat": 40.3247992, "lon": -3.657926}, {"type": "node", "id": 313493834, "lat": 40.3432945, "lon": -3.690197}, {"type": "node", "id": 313493835, "lat": 40.3433067, "lon": -3.689197}, {"type": "node", "id": 313493836, "lat": 40.3426358, "lon": -3.6891812}, {"type": "node", "id": 313493837, "lat": 40.3426184, "lon": -3.6901692}, {"type": "node", "id": 313493910, "lat": 40.3444642, "lon": -3.6865283}, {"type": "node", "id": 313493913, "lat": 40.3456956, "lon": -3.6865797}, {"type": "node", "id": 313493915, "lat": 40.3457262, "lon": -3.6854068}, {"type": "node", "id": 313493918, "lat": 40.34521, "lon": -3.6845569}, {"type": "node", "id": 313493920, "lat": 40.3443485, "lon": -3.6846805}, {"type": "node", "id": 313493923, "lat": 40.3443169, "lon": -3.6865218}, {"type": "node", "id": 313493958, "lat": 40.3415793, "lon": -3.6854735}, {"type": "node", "id": 313493959, "lat": 40.3417042, "lon": -3.6849008}, {"type": "node", "id": 313493960, "lat": 40.3410682, "lon": -3.6848796}, {"type": "node", "id": 313498120, "lat": 40.352064, "lon": -3.6778426}, {"type": "node", "id": 313498121, "lat": 40.3526185, "lon": -3.6770596}, {"type": "node", "id": 313498122, "lat": 40.3518528, "lon": -3.6764379}, {"type": "node", "id": 313498123, "lat": 40.3515619, "lon": -3.6770518}, {"type": "node", "id": 313498124, "lat": 40.3517373, "lon": -3.6778475}, {"type": "node", "id": 315888973, "lat": 40.3703332, "lon": -3.6892057}, {"type": "node", "id": 315888974, "lat": 40.3696119, "lon": -3.6890167}, {"type": "node", "id": 315888975, "lat": 40.3694684, "lon": -3.6899748}, {"type": "node", "id": 315889611, "lat": 40.3676457, "lon": -3.6905672}, {"type": "node", "id": 315889613, "lat": 40.3679095, "lon": -3.6905916}, {"type": "node", "id": 315889614, "lat": 40.3679597, "lon": -3.6896893}, {"type": "node", "id": 315890018, "lat": 40.3707011, "lon": -3.6960069}, {"type": "node", "id": 315890019, "lat": 40.3706519, "lon": -3.6948627}, {"type": "node", "id": 315890020, "lat": 40.3690309, "lon": -3.6947083}, {"type": "node", "id": 315890021, "lat": 40.3695238, "lon": -3.6960912}, {"type": "node", "id": 315890022, "lat": 40.3695796, "lon": -3.6961291}, {"type": "node", "id": 315894444, "lat": 40.3654479, "lon": -3.7041902}, {"type": "node", "id": 315894446, "lat": 40.3646842, "lon": -3.7034796}, {"type": "node", "id": 315894447, "lat": 40.3648156, "lon": -3.7043446}, {"type": "node", "id": 315894471, "lat": 40.3648176, "lon": -3.7021747}, {"type": "node", "id": 315894472, "lat": 40.3643822, "lon": -3.7022789}, {"type": "node", "id": 315894473, "lat": 40.3643107, "lon": -3.7038718}, {"type": "node", "id": 315894474, "lat": 40.3647284, "lon": -3.7037795}, {"type": "node", "id": 315894475, "lat": 40.3647012, "lon": -3.7027128}, {"type": "node", "id": 315895285, "lat": 40.3671613, "lon": -3.7019049}, {"type": "node", "id": 315895286, "lat": 40.3676096, "lon": -3.7017901}, {"type": "node", "id": 315895288, "lat": 40.3675796, "lon": -3.701583}, {"type": "node", "id": 315895289, "lat": 40.3671252, "lon": -3.7016925}, {"type": "node", "id": 316020776, "lat": 40.3503711, "lon": -3.7061729}, {"type": "node", "id": 316020777, "lat": 40.3508677, "lon": -3.7061522}, {"type": "node", "id": 316020778, "lat": 40.351445, "lon": -3.7060282}, {"type": "node", "id": 316020779, "lat": 40.3501184, "lon": -3.7056607}, {"type": "node", "id": 316020998, "lat": 40.3461229, "lon": -3.7054874}, {"type": "node", "id": 316020999, "lat": 40.346152, "lon": -3.7059942}, {"type": "node", "id": 316021000, "lat": 40.3464862, "lon": -3.7060063}, {"type": "node", "id": 316021001, "lat": 40.3464767, "lon": -3.7058036}, {"type": "node", "id": 316021002, "lat": 40.3463987, "lon": -3.7054659}, {"type": "node", "id": 316022305, "lat": 40.3464725, "lon": -3.7057658}, {"type": "node", "id": 316022484, "lat": 40.3440862, "lon": -3.7058362}, {"type": "node", "id": 316023679, "lat": 40.3517726, "lon": -3.6864952}, {"type": "node", "id": 316023680, "lat": 40.3522537, "lon": -3.6864999}, {"type": "node", "id": 316023681, "lat": 40.3524057, "lon": -3.6859975}, {"type": "node", "id": 316023682, "lat": 40.3518854, "lon": -3.6859229}, {"type": "node", "id": 316025625, "lat": 40.3432956, "lon": -3.6864578}, {"type": "node", "id": 316025626, "lat": 40.3426604, "lon": -3.6864377}, {"type": "node", "id": 316025627, "lat": 40.3426501, "lon": -3.686998}, {"type": "node", "id": 316026755, "lat": 40.3396746, "lon": -3.6895529}, {"type": "node", "id": 316212615, "lat": 40.3710675, "lon": -3.6980248}, {"type": "node", "id": 316212618, "lat": 40.3710007, "lon": -3.6963715}, {"type": "node", "id": 316212888, "lat": 40.3720592, "lon": -3.7015044}, {"type": "node", "id": 316212890, "lat": 40.3731481, "lon": -3.7010188}, {"type": "node", "id": 316212892, "lat": 40.3731794, "lon": -3.6998319}, {"type": "node", "id": 316212894, "lat": 40.3719737, "lon": -3.6999431}, {"type": "node", "id": 316212899, "lat": 40.3717548, "lon": -3.7011025}, {"type": "node", "id": 316212913, "lat": 40.3732092, "lon": -3.6989956}, {"type": "node", "id": 316212916, "lat": 40.3717861, "lon": -3.6990234}, {"type": "node", "id": 316212917, "lat": 40.3715311, "lon": -3.7008088}, {"type": "node", "id": 316212918, "lat": 40.3719579, "lon": -3.7005994}, {"type": "node", "id": 316212936, "lat": 40.3730352, "lon": -3.698907}, {"type": "node", "id": 316212937, "lat": 40.3728598, "lon": -3.6960946}, {"type": "node", "id": 316212939, "lat": 40.3718803, "lon": -3.6990145}, {"type": "node", "id": 316408294, "lat": 40.3553873, "lon": -3.7007787}, {"type": "node", "id": 316408295, "lat": 40.3562911, "lon": -3.7003717}, {"type": "node", "id": 316408296, "lat": 40.3559412, "lon": -3.6990579}, {"type": "node", "id": 316408297, "lat": 40.3550435, "lon": -3.6994636}, {"type": "node", "id": 316772775, "lat": 40.3746272, "lon": -3.6255674}, {"type": "node", "id": 316772776, "lat": 40.375356, "lon": -3.6249258}, {"type": "node", "id": 316772777, "lat": 40.375019, "lon": -3.6238218}, {"type": "node", "id": 316772787, "lat": 40.3740152, "lon": -3.6248177}, {"type": "node", "id": 316772789, "lat": 40.3742287, "lon": -3.623313}, {"type": "node", "id": 316772790, "lat": 40.3735323, "lon": -3.6242243}, {"type": "node", "id": 316774543, "lat": 40.3736277, "lon": -3.6178407}, {"type": "node", "id": 316774544, "lat": 40.3737667, "lon": -3.6175564}, {"type": "node", "id": 316774545, "lat": 40.3720359, "lon": -3.6161107}, {"type": "node", "id": 316774546, "lat": 40.3722096, "lon": -3.6171261}, {"type": "node", "id": 316804679, "lat": 40.3740156, "lon": -3.6675656}, {"type": "node", "id": 316804680, "lat": 40.3744531, "lon": -3.6668687}, {"type": "node", "id": 316804681, "lat": 40.3736888, "lon": -3.6660519}, {"type": "node", "id": 316804682, "lat": 40.3735123, "lon": -3.6662664}, {"type": "node", "id": 316804683, "lat": 40.3736201, "lon": -3.667124}, {"type": "node", "id": 316804735, "lat": 40.3748099, "lon": -3.6662741}, {"type": "node", "id": 316804736, "lat": 40.3732409, "lon": -3.6646019}, {"type": "node", "id": 316804737, "lat": 40.3731684, "lon": -3.6647308}, {"type": "node", "id": 317597242, "lat": 40.3711946, "lon": -3.6580741}, {"type": "node", "id": 317597243, "lat": 40.37103, "lon": -3.657493}, {"type": "node", "id": 317597279, "lat": 40.3700847, "lon": -3.6580002}, {"type": "node", "id": 317597281, "lat": 40.3702667, "lon": -3.65859}, {"type": "node", "id": 318942407, "lat": 40.3622666, "lon": -3.6894418}, {"type": "node", "id": 318942409, "lat": 40.3623473, "lon": -3.6870898}, {"type": "node", "id": 318942411, "lat": 40.3616185, "lon": -3.6870487}, {"type": "node", "id": 318942413, "lat": 40.3615404, "lon": -3.6893989}, {"type": "node", "id": 318943173, "lat": 40.3568846, "lon": -3.6875498}, {"type": "node", "id": 318943175, "lat": 40.357032, "lon": -3.6864897}, {"type": "node", "id": 318943176, "lat": 40.3570509, "lon": -3.6860487}, {"type": "node", "id": 318945254, "lat": 40.3620354, "lon": -3.6917208}, {"type": "node", "id": 318945255, "lat": 40.3620975, "lon": -3.6900363}, {"type": "node", "id": 318945256, "lat": 40.3615078, "lon": -3.689998}, {"type": "node", "id": 318945257, "lat": 40.3614451, "lon": -3.6916841}, {"type": "node", "id": 318950967, "lat": 40.3581602, "lon": -3.6971024}, {"type": "node", "id": 318950969, "lat": 40.3588071, "lon": -3.6971517}, {"type": "node", "id": 318950970, "lat": 40.3588453, "lon": -3.6962814}, {"type": "node", "id": 318950971, "lat": 40.3581943, "lon": -3.696222}, {"type": "node", "id": 338693732, "lat": 40.3493547, "lon": -3.6990517}, {"type": "node", "id": 338693737, "lat": 40.3489903, "lon": -3.6975158}, {"type": "node", "id": 338693739, "lat": 40.3489115, "lon": -3.6975732}, {"type": "node", "id": 338693741, "lat": 40.3490605, "lon": -3.6989266}, {"type": "node", "id": 371074887, "lat": 40.3450889, "lon": -3.673494}, {"type": "node", "id": 384848256, "lat": 40.3499982, "lon": -3.7088523}, {"type": "node", "id": 385343253, "lat": 40.35588, "lon": -3.6968709}, {"type": "node", "id": 385343257, "lat": 40.35564, "lon": -3.6958749}, {"type": "node", "id": 385343261, "lat": 40.3554246, "lon": -3.6958516}, {"type": "node", "id": 385343265, "lat": 40.3551342, "lon": -3.6970231}, {"type": "node", "id": 385343268, "lat": 40.3554328, "lon": -3.6970781}, {"type": "node", "id": 387220533, "lat": 40.3674865, "lon": -3.6627263}, {"type": "node", "id": 387220534, "lat": 40.3668838, "lon": -3.6622474}, {"type": "node", "id": 387220535, "lat": 40.3659157, "lon": -3.6624495}, {"type": "node", "id": 388091959, "lat": 40.355413, "lon": -3.6960282}, {"type": "node", "id": 388091961, "lat": 40.3549969, "lon": -3.6959867}, {"type": "node", "id": 388091962, "lat": 40.3549621, "lon": -3.6965331}, {"type": "node", "id": 388091963, "lat": 40.3553904, "lon": -3.6969133}, {"type": "node", "id": 404086107, "lat": 40.3505236, "lon": -3.6804589}, {"type": "node", "id": 404086116, "lat": 40.3513069, "lon": -3.6804046}, {"type": "node", "id": 404086120, "lat": 40.3506817, "lon": -3.6799794}, {"type": "node", "id": 410172606, "lat": 40.3532665, "lon": -3.6961581}, {"type": "node", "id": 410172607, "lat": 40.3535014, "lon": -3.6961856}, {"type": "node", "id": 410172608, "lat": 40.3534526, "lon": -3.6964339}, {"type": "node", "id": 410172609, "lat": 40.3536511, "lon": -3.696449}, {"type": "node", "id": 410172610, "lat": 40.353629, "lon": -3.6967933}, {"type": "node", "id": 410172611, "lat": 40.3531675, "lon": -3.6967737}, {"type": "node", "id": 410172612, "lat": 40.3531689, "lon": -3.6970499}, {"type": "node", "id": 410172613, "lat": 40.3527999, "lon": -3.6970246}, {"type": "node", "id": 410172636, "lat": 40.3528298, "lon": -3.6956608}, {"type": "node", "id": 410172637, "lat": 40.3532512, "lon": -3.6958228}, {"type": "node", "id": 938335280, "lat": 40.326214, "lon": -3.6624369}, {"type": "node", "id": 1043794516, "lat": 40.3207545, "lon": -3.666896}, {"type": "node", "id": 1043794706, "lat": 40.3203559, "lon": -3.6668884}, {"type": "node", "id": 1043795304, "lat": 40.3207199, "lon": -3.666968}, {"type": "node", "id": 1043795376, "lat": 40.3200792, "lon": -3.6650497}, {"type": "node", "id": 1043795598, "lat": 40.3206569, "lon": -3.6669867}, {"type": "node", "id": 1043795787, "lat": 40.3211328, "lon": -3.665425}, {"type": "node", "id": 1251048089, "lat": 40.3707933, "lon": -3.6582736}, {"type": "node", "id": 1251048732, "lat": 40.3708136, "lon": -3.6583359}, {"type": "node", "id": 1354800722, "lat": 40.3714982, "lon": -3.7010275}, {"type": "node", "id": 1354800723, "lat": 40.3717099, "lon": -3.6962223}, {"type": "node", "id": 1354800724, "lat": 40.3718235, "lon": -3.6980048}, {"type": "node", "id": 1354800725, "lat": 40.3718415, "lon": -3.6981663}, {"type": "node", "id": 1354800726, "lat": 40.3718597, "lon": -3.6986298}, {"type": "node", "id": 1354800727, "lat": 40.3718855, "lon": -3.6981862}, {"type": "node", "id": 1354800728, "lat": 40.3719052, "lon": -3.698411}, {"type": "node", "id": 1367876822, "lat": 40.3438601, "lon": -3.704855}, {"type": "node", "id": 1367876877, "lat": 40.3415779, "lon": -3.6855722}, {"type": "node", "id": 1367876969, "lat": 40.3416925, "lon": -3.6854737}, {"type": "node", "id": 1523271692, "lat": 40.3604081, "lon": -3.597935}, {"type": "node", "id": 1523271703, "lat": 40.3600075, "lon": -3.5992976}, {"type": "node", "id": 1523271786, "lat": 40.3595469, "lon": -3.5985293}, {"type": "node", "id": 1523271788, "lat": 40.360227, "lon": -3.5978777}, {"type": "node", "id": 1523271792, "lat": 40.3606094, "lon": -3.599968}, {"type": "node", "id": 1523271803, "lat": 40.3611555, "lon": -3.5994471}, {"type": "node", "id": 1523271831, "lat": 40.3595613, "lon": -3.5984273}, {"type": "node", "id": 1523271852, "lat": 40.3605342, "lon": -3.5999703}, {"type": "node", "id": 1523271862, "lat": 40.3611433, "lon": -3.5995356}, {"type": "node", "id": 1526730271, "lat": 40.3671185, "lon": -3.6019885}, {"type": "node", "id": 1526730301, "lat": 40.3665708, "lon": -3.6023587}, {"type": "node", "id": 1526730303, "lat": 40.366346, "lon": -3.6002853}, {"type": "node", "id": 1526730304, "lat": 40.3662704, "lon": -3.6002585}, {"type": "node", "id": 1526730321, "lat": 40.3657819, "lon": -3.6006662}, {"type": "node", "id": 1526730341, "lat": 40.3671348, "lon": -3.6018893}, {"type": "node", "id": 1526730359, "lat": 40.365771, "lon": -3.6007456}, {"type": "node", "id": 1534300862, "lat": 40.352392, "lon": -3.7010472, "tags": {"addr:city": "Madrid", "addr:housenumber": "49", "addr:postcode": "28041", "addr:street": "Calle de la Hermandad de Donantes de Sangre", "amenity": "school", "education": "school", "name": "CEPA (1)"}}, {"type": "node", "id": 1534416086, "lat": 40.3729406, "lon": -3.6043981}, {"type": "node", "id": 1534416088, "lat": 40.3732834, "lon": -3.6053235}, {"type": "node", "id": 1534416094, "lat": 40.3732222, "lon": -3.6053771}, {"type": "node", "id": 1534416096, "lat": 40.3731711, "lon": -3.6054629}, {"type": "node", "id": 1534416100, "lat": 40.3731445, "lon": -3.6055649}, {"type": "node", "id": 1534416102, "lat": 40.3731318, "lon": -3.6056754}, {"type": "node", "id": 1534416103, "lat": 40.3719636, "lon": -3.6066614}, {"type": "node", "id": 1534416104, "lat": 40.3714362, "lon": -3.6056743}, {"type": "node", "id": 1538868129, "lat": 40.3689287, "lon": -3.620336}, {"type": "node", "id": 1538868133, "lat": 40.3688387, "lon": -3.6201375}, {"type": "node", "id": 1538868142, "lat": 40.3686097, "lon": -3.6197666}, {"type": "node", "id": 1538868144, "lat": 40.3685951, "lon": -3.6195284}, {"type": "node", "id": 1538868151, "lat": 40.3680327, "lon": -3.6221545}, {"type": "node", "id": 1538868232, "lat": 40.3689287, "lon": -3.62069}, {"type": "node", "id": 1538868288, "lat": 40.3674074, "lon": -3.6209072}, {"type": "node", "id": 1538868322, "lat": 40.368712, "lon": -3.6200302}, {"type": "node", "id": 1538868394, "lat": 40.3687623, "lon": -3.6217602}, {"type": "node", "id": 1538868427, "lat": 40.3686441, "lon": -3.6198816}, {"type": "node", "id": 1539715402, "lat": 40.3524537, "lon": -3.7010225, "tags": {"addr:housenumber": "49", "addr:postcode": "28041", "addr:street": "Hermandad de Donantes de Sangre", "amenity": "school", "education": "school", "name": "CEPA (2)"}}, {"type": "node", "id": 1558408187, "lat": 40.367399, "lon": -3.6120912}, {"type": "node", "id": 1558408203, "lat": 40.3677928, "lon": -3.6128965}, {"type": "node", "id": 1558408330, "lat": 40.3662857, "lon": -3.6130323}, {"type": "node", "id": 1558408340, "lat": 40.3677817, "lon": -3.6129912}, {"type": "node", "id": 1558408342, "lat": 40.3669607, "lon": -3.6136799}, {"type": "node", "id": 1558408343, "lat": 40.3667126, "lon": -3.6133916}, {"type": "node", "id": 1696013257, "lat": 40.354448, "lon": -3.6905031}, {"type": "node", "id": 1696013270, "lat": 40.3538961, "lon": -3.6895894}, {"type": "node", "id": 1696013274, "lat": 40.3534459, "lon": -3.6901376}, {"type": "node", "id": 1696013278, "lat": 40.354027, "lon": -3.6895283}, {"type": "node", "id": 1696013298, "lat": 40.3545167, "lon": -3.6895678}, {"type": "node", "id": 1696013304, "lat": 40.3537649, "lon": -3.6896396}, {"type": "node", "id": 1696013313, "lat": 40.3544758, "lon": -3.6904732}, {"type": "node", "id": 1738611351, "lat": 40.3624868, "lon": -3.696928}, {"type": "node", "id": 1738611370, "lat": 40.3625133, "lon": -3.6965013}, {"type": "node", "id": 1738611393, "lat": 40.3625336, "lon": -3.6956035}, {"type": "node", "id": 1738611464, "lat": 40.3627337, "lon": -3.6975919}, {"type": "node", "id": 1738611478, "lat": 40.3628193, "lon": -3.6962539}, {"type": "node", "id": 1738611482, "lat": 40.3628292, "lon": -3.6964906}, {"type": "node", "id": 1738611484, "lat": 40.3628347, "lon": -3.695688}, {"type": "node", "id": 1738611488, "lat": 40.3628411, "lon": -3.6962577}, {"type": "node", "id": 1738611511, "lat": 40.3628646, "lon": -3.6970963}, {"type": "node", "id": 1738611523, "lat": 40.3629007, "lon": -3.6964998}, {"type": "node", "id": 1738611607, "lat": 40.3631615, "lon": -3.6971262}, {"type": "node", "id": 1738611618, "lat": 40.3631742, "lon": -3.6973217}, {"type": "node", "id": 1739083420, "lat": 40.3583532, "lon": -3.6962384}, {"type": "node", "id": 1739083428, "lat": 40.3585048, "lon": -3.6962497}, {"type": "node", "id": 1740271475, "lat": 40.3550922, "lon": -3.6959956}, {"type": "node", "id": 1740271559, "lat": 40.3557494, "lon": -3.6961239}, {"type": "node", "id": 1740271566, "lat": 40.3559256, "lon": -3.6961511}, {"type": "node", "id": 1843793504, "lat": 40.3534335, "lon": -3.6904242}, {"type": "node", "id": 1843793506, "lat": 40.3534411, "lon": -3.6901792}, {"type": "node", "id": 1843793524, "lat": 40.3537625, "lon": -3.6904417}, {"type": "node", "id": 1843793563, "lat": 40.353924, "lon": -3.6904655}, {"type": "node", "id": 1843793566, "lat": 40.3539355, "lon": -3.6896427}, {"type": "node", "id": 1843793567, "lat": 40.3539575, "lon": -3.6896195}, {"type": "node", "id": 1843793632, "lat": 40.3541181, "lon": -3.6904752}, {"type": "node", "id": 1843793679, "lat": 40.3544966, "lon": -3.6900348}, {"type": "node", "id": 1843794111, "lat": 40.3569202, "lon": -3.6867515}, {"type": "node", "id": 1843794136, "lat": 40.3570539, "lon": -3.6859794}, {"type": "node", "id": 1843794219, "lat": 40.3575859, "lon": -3.687591}, {"type": "node", "id": 1843794224, "lat": 40.3576401, "lon": -3.6860141}, {"type": "node", "id": 1879913733, "lat": 40.3658919, "lon": -3.66338}, {"type": "node", "id": 1879913736, "lat": 40.3659476, "lon": -3.6638681}, {"type": "node", "id": 1879913740, "lat": 40.3660242, "lon": -3.6633471}, {"type": "node", "id": 1879913827, "lat": 40.3669616, "lon": -3.6628334}, {"type": "node", "id": 1879913831, "lat": 40.3673349, "lon": -3.6635519}, {"type": "node", "id": 1879913836, "lat": 40.3674589, "lon": -3.6635116}, {"type": "node", "id": 1879913838, "lat": 40.3675132, "lon": -3.6634422}, {"type": "node", "id": 1879913840, "lat": 40.3675745, "lon": -3.6632173}, {"type": "node", "id": 2499259439, "lat": 40.3630535, "lon": -3.6026127}, {"type": "node", "id": 2499259442, "lat": 40.3635235, "lon": -3.6022158}, {"type": "node", "id": 2499259444, "lat": 40.3635358, "lon": -3.6020977}, {"type": "node", "id": 2499259446, "lat": 40.3627551, "lon": -3.6005045}, {"type": "node", "id": 2499259448, "lat": 40.3626774, "lon": -3.6004938}, {"type": "node", "id": 2499259450, "lat": 40.3624935, "lon": -3.6007084}, {"type": "node", "id": 2499259452, "lat": 40.3623586, "lon": -3.6009605}, {"type": "node", "id": 2499259454, "lat": 40.3623831, "lon": -3.6010785}, {"type": "node", "id": 2499259457, "lat": 40.3623872, "lon": -3.6012073}, {"type": "node", "id": 2499259458, "lat": 40.3623709, "lon": -3.6013467}, {"type": "node", "id": 2499259461, "lat": 40.3629922, "lon": -3.602602}, {"type": "node", "id": 2568714078, "lat": 40.3459328, "lon": -3.7089918}, {"type": "node", "id": 2568714081, "lat": 40.3459429, "lon": -3.7087454}, {"type": "node", "id": 2568714085, "lat": 40.3459403, "lon": -3.7089965}, {"type": "node", "id": 2568714088, "lat": 40.3459899, "lon": -3.7086135}, {"type": "node", "id": 2568714095, "lat": 40.3462585, "lon": -3.7088794}, {"type": "node", "id": 2568714098, "lat": 40.3462885, "lon": -3.7087877}, {"type": "node", "id": 2568735855, "lat": 40.3446128, "lon": -3.7065804}, {"type": "node", "id": 2568735857, "lat": 40.3446437, "lon": -3.7067806}, {"type": "node", "id": 2568735866, "lat": 40.3448163, "lon": -3.7062667}, {"type": "node", "id": 2568735869, "lat": 40.3448462, "lon": -3.7064718}, {"type": "node", "id": 2568735875, "lat": 40.3453104, "lon": -3.7053752}, {"type": "node", "id": 2568735878, "lat": 40.3453386, "lon": -3.7064582}, {"type": "node", "id": 2587384480, "lat": 40.3448007, "lon": -3.7058482}, {"type": "node", "id": 2587384484, "lat": 40.3448372, "lon": -3.7062626}, {"type": "node", "id": 2587384488, "lat": 40.3449787, "lon": -3.705689}, {"type": "node", "id": 2587384489, "lat": 40.3450446, "lon": -3.7055563}, {"type": "node", "id": 2587384491, "lat": 40.3450664, "lon": -3.7053974}, {"type": "node", "id": 2587384493, "lat": 40.3453582, "lon": -3.7064211}, {"type": "node", "id": 2587384498, "lat": 40.3461283, "lon": -3.7055877}, {"type": "node", "id": 2587384502, "lat": 40.3461362, "lon": -3.7057369}, {"type": "node", "id": 2613329966, "lat": 40.3520178, "lon": -3.6777814}, {"type": "node", "id": 2613329967, "lat": 40.3521394, "lon": -3.6779371}, {"type": "node", "id": 2799017159, "lat": 40.3623684, "lon": -3.5938483, "tags": {"amenity": "school", "education": "school", "name": "M\u00e1s Formados"}}, {"type": "node", "id": 2883421603, "lat": 40.3513055, "lon": -3.6809957}, {"type": "node", "id": 2887032840, "lat": 40.3443466, "lon": -3.6847895}, {"type": "node", "id": 2887032841, "lat": 40.3443478, "lon": -3.684724}, {"type": "node", "id": 2887032844, "lat": 40.3443927, "lon": -3.6865251}, {"type": "node", "id": 2908973172, "lat": 40.3396561, "lon": -3.6908064}, {"type": "node", "id": 2908973281, "lat": 40.3399829, "lon": -3.6908436}, {"type": "node", "id": 2908973282, "lat": 40.3399814, "lon": -3.6908149}, {"type": "node", "id": 2908973525, "lat": 40.3400883, "lon": -3.6908487}, {"type": "node", "id": 2908973526, "lat": 40.3400911, "lon": -3.6907303}, {"type": "node", "id": 2908973702, "lat": 40.3402995, "lon": -3.6895684}, {"type": "node", "id": 2908973722, "lat": 40.3403413, "lon": -3.6895691}, {"type": "node", "id": 2908973736, "lat": 40.3403823, "lon": -3.6907349}, {"type": "node", "id": 2908973744, "lat": 40.3403939, "lon": -3.6897549}, {"type": "node", "id": 2908973748, "lat": 40.3404134, "lon": -3.6897549}, {"type": "node", "id": 2908973749, "lat": 40.3404142, "lon": -3.6896709}, {"type": "node", "id": 2958482849, "lat": 40.3496312, "lon": -3.7087671}, {"type": "node", "id": 2958482850, "lat": 40.3496005, "lon": -3.708715, "tags": {"barrier": "gate"}}, {"type": "node", "id": 2958482851, "lat": 40.3496114, "lon": -3.7084741}, {"type": "node", "id": 2958482857, "lat": 40.3497058, "lon": -3.7084822}, {"type": "node", "id": 2958482858, "lat": 40.3497089, "lon": -3.7084132}, {"type": "node", "id": 2958482875, "lat": 40.3500207, "lon": -3.7084475}, {"type": "node", "id": 2958560366, "lat": 40.35013, "lon": -3.7059564}, {"type": "node", "id": 2958560367, "lat": 40.3501845, "lon": -3.7057684, "tags": {"barrier": "gate"}}, {"type": "node", "id": 2958560368, "lat": 40.3501905, "lon": -3.705615}, {"type": "node", "id": 2958560369, "lat": 40.3502096, "lon": -3.7058092}, {"type": "node", "id": 2958560373, "lat": 40.3504435, "lon": -3.7061425, "tags": {"addr:city": "Madrid", "addr:housenumber": "109", "addr:postcode": "28041", "addr:street": "Carretera de Carabanchel a Villaverde", "barrier": "gate"}}, {"type": "node", "id": 2958560374, "lat": 40.3504664, "lon": -3.7061329}, {"type": "node", "id": 2958560378, "lat": 40.3504925, "lon": -3.7062383, "tags": {"barrier": "gate"}}, {"type": "node", "id": 2958560379, "lat": 40.3505001, "lon": -3.7062763}, {"type": "node", "id": 2958560399, "lat": 40.3508062, "lon": -3.7054635}, {"type": "node", "id": 2958560411, "lat": 40.3509794, "lon": -3.7055909}, {"type": "node", "id": 2958560412, "lat": 40.3509906, "lon": -3.7056558}, {"type": "node", "id": 2958560417, "lat": 40.3512245, "lon": -3.7064639}, {"type": "node", "id": 2967025613, "lat": 40.3509629, "lon": -3.6891862}, {"type": "node", "id": 2967025614, "lat": 40.3510019, "lon": -3.68887}, {"type": "node", "id": 2967025615, "lat": 40.3511756, "lon": -3.6892307}, {"type": "node", "id": 2967025616, "lat": 40.3512137, "lon": -3.6889126}, {"type": "node", "id": 2967025619, "lat": 40.3627751, "lon": -3.6956299}, {"type": "node", "id": 2967025629, "lat": 40.3680641, "lon": -3.7042376}, {"type": "node", "id": 2967025630, "lat": 40.3680631, "lon": -3.7051666}, {"type": "node", "id": 2967025733, "lat": 40.3690695, "lon": -3.7040242}, {"type": "node", "id": 2967025734, "lat": 40.3690695, "lon": -3.7051562}, {"type": "node", "id": 2986411101, "lat": 40.3447563, "lon": -3.7067305}, {"type": "node", "id": 2986411104, "lat": 40.3448305, "lon": -3.7063907}, {"type": "node", "id": 2986411111, "lat": 40.3452181, "lon": -3.7053821}, {"type": "node", "id": 2986411114, "lat": 40.3453264, "lon": -3.7056912}, {"type": "node", "id": 2986411115, "lat": 40.3453301, "lon": -3.7057516}, {"type": "node", "id": 3048869626, "lat": 40.3468766, "lon": -3.7029687}, {"type": "node", "id": 3048869627, "lat": 40.3469431, "lon": -3.7029771}, {"type": "node", "id": 3048869628, "lat": 40.3472166, "lon": -3.7034522}, {"type": "node", "id": 3048869629, "lat": 40.3472474, "lon": -3.7031869}, {"type": "node", "id": 3094981295, "lat": 40.3474276, "lon": -3.7087165}, {"type": "node", "id": 3094981296, "lat": 40.3474463, "lon": -3.7085873}, {"type": "node", "id": 3094981297, "lat": 40.347459, "lon": -3.7085964}, {"type": "node", "id": 3094981298, "lat": 40.3475026, "lon": -3.708454}, {"type": "node", "id": 3094981299, "lat": 40.3475688, "lon": -3.7087571}, {"type": "node", "id": 3094981300, "lat": 40.3476552, "lon": -3.7085609}, {"type": "node", "id": 3094981302, "lat": 40.3745052, "lon": -3.6214388}, {"type": "node", "id": 3094981304, "lat": 40.3746087, "lon": -3.6215779}, {"type": "node", "id": 3094981305, "lat": 40.3746348, "lon": -3.6211346}, {"type": "node", "id": 3094981306, "lat": 40.3746895, "lon": -3.6216864}, {"type": "node", "id": 3094981308, "lat": 40.3749282, "lon": -3.6213817}, {"type": "node", "id": 3256159511, "lat": 40.3447611, "lon": -3.6749155}, {"type": "node", "id": 3256159512, "lat": 40.3450623, "lon": -3.6736954}, {"type": "node", "id": 3256159513, "lat": 40.3452495, "lon": -3.6751303}, {"type": "node", "id": 3256159514, "lat": 40.3460887, "lon": -3.6753375}, {"type": "node", "id": 3256159515, "lat": 40.3462436, "lon": -3.6742364}, {"type": "node", "id": 3256159527, "lat": 40.3678587, "lon": -3.6896763}, {"type": "node", "id": 3258173472, "lat": 40.3743874, "lon": -3.6621922}, {"type": "node", "id": 3258173473, "lat": 40.3746027, "lon": -3.6638868}, {"type": "node", "id": 3258173474, "lat": 40.3750239, "lon": -3.6628779}, {"type": "node", "id": 3258173475, "lat": 40.3750931, "lon": -3.6615249}, {"type": "node", "id": 3258173476, "lat": 40.3751085, "lon": -3.6628828}, {"type": "node", "id": 3258173477, "lat": 40.3751284, "lon": -3.6630682}, {"type": "node", "id": 3258173481, "lat": 40.3752184, "lon": -3.6645541}, {"type": "node", "id": 3258173482, "lat": 40.3756137, "lon": -3.6620803}, {"type": "node", "id": 3258173484, "lat": 40.3757421, "lon": -3.6637258}, {"type": "node", "id": 3258998985, "lat": 40.3646088, "lon": -3.7056274}, {"type": "node", "id": 3258998986, "lat": 40.3646436, "lon": -3.7075202}, {"type": "node", "id": 3258999007, "lat": 40.3659011, "lon": -3.7056115}, {"type": "node", "id": 3258999008, "lat": 40.3659098, "lon": -3.707508}, {"type": "node", "id": 3294597433, "lat": 40.3628228, "lon": -3.6959261}, {"type": "node", "id": 3294597436, "lat": 40.3628378, "lon": -3.6959269}, {"type": "node", "id": 3320651842, "lat": 40.3581649, "lon": -3.6970099}, {"type": "node", "id": 3323361215, "lat": 40.358503, "lon": -3.6962914}, {"type": "node", "id": 3323361219, "lat": 40.3585374, "lon": -3.696294, "tags": {"addr:housenumber": "14", "addr:street": "Avenida de La Verbena de la Paloma", "entrance": "yes"}}, {"type": "node", "id": 3323361220, "lat": 40.3585701, "lon": -3.6962964}, {"type": "node", "id": 3323361221, "lat": 40.3585716, "lon": -3.6962609}, {"type": "node", "id": 3330643635, "lat": 40.3581916, "lon": -3.6962939}, {"type": "node", "id": 3370756628, "lat": 40.3561774, "lon": -3.6999445}, {"type": "node", "id": 3370756629, "lat": 40.3561976, "lon": -3.700021}, {"type": "node", "id": 3370756633, "lat": 40.3562421, "lon": -3.7001875}, {"type": "node", "id": 3370756634, "lat": 40.356256, "lon": -3.7002397}, {"type": "node", "id": 3371812309, "lat": 40.3551588, "lon": -3.6999047, "tags": {"entrance": "yes"}}, {"type": "node", "id": 3371812310, "lat": 40.3552584, "lon": -3.7002856, "tags": {"entrance": "yes"}}, {"type": "node", "id": 3371812332, "lat": 40.3558574, "lon": -3.6990958, "tags": {"entrance": "yes"}}, {"type": "node", "id": 3374152212, "lat": 40.3494682, "lon": -3.6978903}, {"type": "node", "id": 3374152214, "lat": 40.3496897, "lon": -3.6979789}, {"type": "node", "id": 3374152225, "lat": 40.3675864, "lon": -3.6990043}, {"type": "node", "id": 3374152226, "lat": 40.3676341, "lon": -3.6993384}, {"type": "node", "id": 3383582984, "lat": 40.3690673, "lon": -3.6946776}, {"type": "node", "id": 3383582989, "lat": 40.3695983, "lon": -3.6947347}, {"type": "node", "id": 3383586394, "lat": 40.3700226, "lon": -3.6947519}, {"type": "node", "id": 3383586411, "lat": 40.3711213, "lon": -3.6962636}, {"type": "node", "id": 3413823265, "lat": 40.352316, "lon": -3.6865645}, {"type": "node", "id": 3413823266, "lat": 40.3524822, "lon": -3.6860227}, {"type": "node", "id": 3413823278, "lat": 40.3528658, "lon": -3.6861758}, {"type": "node", "id": 3413823282, "lat": 40.3530174, "lon": -3.6874984}, {"type": "node", "id": 3413823318, "lat": 40.3543211, "lon": -3.6817825}, {"type": "node", "id": 3413823319, "lat": 40.3543217, "lon": -3.6815921}, {"type": "node", "id": 3413823321, "lat": 40.3543302, "lon": -3.6815934}, {"type": "node", "id": 3413823322, "lat": 40.3543389, "lon": -3.6812533}, {"type": "node", "id": 3413823325, "lat": 40.3543904, "lon": -3.6811646}, {"type": "node", "id": 3413823332, "lat": 40.3544803, "lon": -3.6817969}, {"type": "node", "id": 3413823335, "lat": 40.3546498, "lon": -3.6814313}, {"type": "node", "id": 3424567361, "lat": 40.3719378, "lon": -3.6163387}, {"type": "node", "id": 3424567362, "lat": 40.3722913, "lon": -3.6165398}, {"type": "node", "id": 3424567363, "lat": 40.3724609, "lon": -3.6165506}, {"type": "node", "id": 3424567364, "lat": 40.3734111, "lon": -3.6173257}, {"type": "node", "id": 3424567365, "lat": 40.3728471, "lon": -3.6168778}, {"type": "node", "id": 3454565051, "lat": 40.3495819, "lon": -3.6889037}, {"type": "node", "id": 3454565052, "lat": 40.3495912, "lon": -3.6887252}, {"type": "node", "id": 3454565053, "lat": 40.3497205, "lon": -3.6887352}, {"type": "node", "id": 3454565054, "lat": 40.3497265, "lon": -3.6886281}, {"type": "node", "id": 3454565055, "lat": 40.3497622, "lon": -3.6889238}, {"type": "node", "id": 3454565056, "lat": 40.3497784, "lon": -3.688634}, {"type": "node", "id": 3481305159, "lat": 40.3557546, "lon": -3.6960367}, {"type": "node", "id": 3494954662, "lat": 40.3558827, "lon": -3.6961464}, {"type": "node", "id": 3494954663, "lat": 40.3559207, "lon": -3.6962281}, {"type": "node", "id": 3496820838, "lat": 40.3528119, "lon": -3.6963531, "tags": {"barrier": "gate", "foot": "yes"}}, {"type": "node", "id": 3496820839, "lat": 40.3528226, "lon": -3.6959435, "tags": {"barrier": "gate", "bicycle": "no", "foot": "yes"}}, {"type": "node", "id": 3496820841, "lat": 40.3528269, "lon": -3.695779, "tags": {"barrier": "gate", "bicycle": "no", "foot": "yes"}}, {"type": "node", "id": 3499192250, "lat": 40.3530603, "lon": -3.6957478}, {"type": "node", "id": 3499192652, "lat": 40.354992, "lon": -3.6960651}, {"type": "node", "id": 3499192662, "lat": 40.3550561, "lon": -3.6959931}, {"type": "node", "id": 3499192801, "lat": 40.3557151, "lon": -3.695981, "tags": {"barrier": "gate", "bicycle": "no", "foot": "yes"}}, {"type": "node", "id": 3499192809, "lat": 40.355889, "lon": -3.6967282, "tags": {"entrance": "yes"}}, {"type": "node", "id": 3512394724, "lat": 40.348947, "lon": -3.6975604}, {"type": "node", "id": 3512394904, "lat": 40.3494212, "lon": -3.6978281}, {"type": "node", "id": 3512394918, "lat": 40.3494773, "lon": -3.6978682}, {"type": "node", "id": 3512394947, "lat": 40.3495613, "lon": -3.6979573}, {"type": "node", "id": 3512394973, "lat": 40.3496925, "lon": -3.6980173}, {"type": "node", "id": 3517275059, "lat": 40.3494839, "lon": -3.6979016, "tags": {"addr:housenumber": "2", "addr:postcode": "28041", "addr:street": "Calle de Saced\u00f3n", "entrance": "yes"}}, {"type": "node", "id": 3517278350, "lat": 40.3494956, "lon": -3.69791}, {"type": "node", "id": 3517278359, "lat": 40.3495107, "lon": -3.6979209}, {"type": "node", "id": 3517278447, "lat": 40.3497859, "lon": -3.6979889}, {"type": "node", "id": 3517278450, "lat": 40.3497917, "lon": -3.6980109}, {"type": "node", "id": 3629657908, "lat": 40.3575897, "lon": -3.6874826, "tags": {"access": "destination", "barrier": "gate", "maxwidth": "2"}}, {"type": "node", "id": 3629657909, "lat": 40.3576359, "lon": -3.6861376, "tags": {"access": "private", "barrier": "gate", "bicycle": "yes", "foot": "yes", "motorcar": "yes"}}, {"type": "node", "id": 3844816575, "lat": 40.3167306, "lon": -3.7075672}, {"type": "node", "id": 3844816576, "lat": 40.3167331, "lon": -3.7064371}, {"type": "node", "id": 3844816577, "lat": 40.3162093, "lon": -3.7064344}, {"type": "node", "id": 3844816578, "lat": 40.3149999, "lon": -3.7064257}, {"type": "node", "id": 3898493589, "lat": 40.3562136, "lon": -3.7004066, "tags": {"access": "private", "barrier": "gate", "bicycle": "no", "foot": "yes"}}, {"type": "node", "id": 3961543663, "lat": 40.3660685, "lon": -3.600427, "tags": {"addr:city": "Madrid", "addr:housenumber": "10", "addr:postcode": "28051", "addr:street": "Calle de Rafael de Le\u00f3n", "entrance": "main"}}, {"type": "node", "id": 4184374676, "lat": 40.3475676, "lon": -3.7084995}, {"type": "node", "id": 4184374678, "lat": 40.3474544, "lon": -3.708568}, {"type": "node", "id": 4214697676, "lat": 40.371892, "lon": -3.6066417}, {"type": "node", "id": 4214697677, "lat": 40.3731442, "lon": -3.6056467}, {"type": "node", "id": 4214697678, "lat": 40.3733668, "lon": -3.6052906}, {"type": "node", "id": 4334543170, "lat": 40.3472215, "lon": -3.7034119}, {"type": "node", "id": 4334543171, "lat": 40.3471839, "lon": -3.703454}, {"type": "node", "id": 4334543182, "lat": 40.346986, "lon": -3.703465}, {"type": "node", "id": 4422552110, "lat": 40.3462002, "lon": -3.7088997}, {"type": "node", "id": 4425456636, "lat": 40.3510757, "lon": -3.6892098}, {"type": "node", "id": 4425456639, "lat": 40.3510939, "lon": -3.6888887}, {"type": "node", "id": 4425456644, "lat": 40.351057, "lon": -3.6892059}, {"type": "node", "id": 4425456659, "lat": 40.3512021, "lon": -3.6890081}, {"type": "node", "id": 4425456686, "lat": 40.351006, "lon": -3.6888708}, {"type": "node", "id": 4440626148, "lat": 40.3446388, "lon": -3.7065677}, {"type": "node", "id": 4440626155, "lat": 40.344728, "lon": -3.706527}, {"type": "node", "id": 4440626163, "lat": 40.3448146, "lon": -3.7059932}, {"type": "node", "id": 4444031983, "lat": 40.3440729, "lon": -3.7057602}, {"type": "node", "id": 4444032292, "lat": 40.3436011, "lon": -3.7057842}, {"type": "node", "id": 4444032293, "lat": 40.3436028, "lon": -3.7058646}, {"type": "node", "id": 4444032294, "lat": 40.343763, "lon": -3.7058533}, {"type": "node", "id": 4444032297, "lat": 40.3439232, "lon": -3.7058448}, {"type": "node", "id": 4446360590, "lat": 40.3496833, "lon": -3.688915}, {"type": "node", "id": 4446360591, "lat": 40.3496935, "lon": -3.6887331}, {"type": "node", "id": 4446360592, "lat": 40.3496845, "lon": -3.6887324}, {"type": "node", "id": 4493287849, "lat": 40.3748683, "lon": -3.6213021}, {"type": "node", "id": 4493287854, "lat": 40.3746492, "lon": -3.6216323}, {"type": "node", "id": 4493287868, "lat": 40.3747189, "lon": -3.6211763}, {"type": "node", "id": 4541994289, "lat": 40.3731272, "lon": -3.6170946}, {"type": "node", "id": 4541994290, "lat": 40.3730435, "lon": -3.6170345}, {"type": "node", "id": 4570883742, "lat": 40.366896, "lon": -3.6965847}, {"type": "node", "id": 4570883743, "lat": 40.3668748, "lon": -3.6965989}, {"type": "node", "id": 4570883744, "lat": 40.3661259, "lon": -3.6969283}, {"type": "node", "id": 4570883745, "lat": 40.3661648, "lon": -3.6969276}, {"type": "node", "id": 4570883746, "lat": 40.3661623, "lon": -3.6970274}, {"type": "node", "id": 4570883747, "lat": 40.3661207, "lon": -3.6970636}, {"type": "node", "id": 4570883748, "lat": 40.3661709, "lon": -3.6971676}, {"type": "node", "id": 4570883749, "lat": 40.3668877, "lon": -3.6966311}, {"type": "node", "id": 4570883750, "lat": 40.3668999, "lon": -3.6963248}, {"type": "node", "id": 4570883751, "lat": 40.3661434, "lon": -3.6962784}, {"type": "node", "id": 4587977852, "lat": 40.3702873, "lon": -3.6900985}, {"type": "node", "id": 4591164540, "lat": 40.3702906, "lon": -3.6899977}, {"type": "node", "id": 4593139092, "lat": 40.3664976, "lon": -3.6131897}, {"type": "node", "id": 4866243838, "lat": 40.3749211, "lon": -3.6634155}, {"type": "node", "id": 4866243839, "lat": 40.3750035, "lon": -3.6632752}, {"type": "node", "id": 4895484409, "lat": 40.3736154, "lon": -3.6660538}, {"type": "node", "id": 4895484410, "lat": 40.3735643, "lon": -3.6660792}, {"type": "node", "id": 4895484415, "lat": 40.3739924, "lon": -3.6675397}, {"type": "node", "id": 4895484416, "lat": 40.3739031, "lon": -3.66744}, {"type": "node", "id": 4895484934, "lat": 40.3738006, "lon": -3.6673256}, {"type": "node", "id": 4895484941, "lat": 40.3736184, "lon": -3.6671102}, {"type": "node", "id": 4899641597, "lat": 40.3513057, "lon": -3.6804589, "tags": {"access": "private", "barrier": "gate", "bicycle": "yes", "foot": "yes"}}, {"type": "node", "id": 4899641598, "lat": 40.3512929, "lon": -3.6807445, "tags": {"access": "private", "barrier": "gate", "bicycle": "yes", "foot": "yes"}}, {"type": "node", "id": 4899641601, "lat": 40.3512974, "lon": -3.6808517, "tags": {"access": "private", "barrier": "gate", "bicycle": "yes", "foot": "yes", "motorcar": "yes"}}, {"type": "node", "id": 4899641615, "lat": 40.3512093, "lon": -3.6803397}, {"type": "node", "id": 4899641616, "lat": 40.3511628, "lon": -3.6803087}, {"type": "node", "id": 4899641635, "lat": 40.3511287, "lon": -3.6802854}, {"type": "node", "id": 4899641636, "lat": 40.3509852, "lon": -3.6801857}, {"type": "node", "id": 4899641817, "lat": 40.3522714, "lon": -3.6776952, "tags": {"access": "private", "barrier": "gate", "bicycle": "yes", "foot": "yes"}}, {"type": "node", "id": 4907070497, "lat": 40.3523952, "lon": -3.6863062, "tags": {"entrance": "main"}}, {"type": "node", "id": 4918983079, "lat": 40.3614856, "lon": -3.6906045, "tags": {"access": "private", "barrier": "gate", "bicycle": "no", "foot": "yes"}}, {"type": "node", "id": 4918983093, "lat": 40.361476, "lon": -3.6908683}, {"type": "node", "id": 4918983094, "lat": 40.3614578, "lon": -3.6913305}, {"type": "node", "id": 4918983095, "lat": 40.361466, "lon": -3.6911218, "tags": {"access": "private", "barrier": "gate", "bicycle": "no", "foot": "yes"}}, {"type": "node", "id": 4918983110, "lat": 40.3614575, "lon": -3.6913511, "tags": {"access": "private", "barrier": "gate", "bicycle": "no", "foot": "yes"}}, {"type": "node", "id": 4918983143, "lat": 40.3614462, "lon": -3.6916567, "tags": {"access": "private", "barrier": "gate", "bicycle": "no", "foot": "no", "motorcar": "yes"}}, {"type": "node", "id": 4918983144, "lat": 40.3620364, "lon": -3.6916939, "tags": {"access": "private", "barrier": "gate", "bicycle": "no", "foot": "no", "motorcar": "yes"}}, {"type": "node", "id": 4918983212, "lat": 40.3614922, "lon": -3.6916871}, {"type": "node", "id": 4918983213, "lat": 40.3619908, "lon": -3.6917181}, {"type": "node", "id": 4939075474, "lat": 40.3620782, "lon": -3.6905599, "tags": {"access": "private", "barrier": "gate", "bicycle": "no", "foot": "yes", "motorcar": "yes"}}, {"type": "node", "id": 4950932258, "lat": 40.3678889, "lon": -3.6905896}, {"type": "node", "id": 4950932268, "lat": 40.3679109, "lon": -3.6905663, "tags": {"access": "private", "barrier": "gate", "bicycle": "yes", "foot": "yes", "motorcar": "yes"}}, {"type": "node", "id": 4950932276, "lat": 40.3679232, "lon": -3.6903482, "tags": {"access": "private", "barrier": "gate", "bicycle": "no", "foot": "yes", "motorcar": "yes"}}, {"type": "node", "id": 4950932277, "lat": 40.3679578, "lon": -3.6897244, "tags": {"access": "private", "barrier": "gate", "bicycle": "no", "foot": "no", "motorcar": "yes"}}, {"type": "node", "id": 4950932375, "lat": 40.3678863, "lon": -3.689679}, {"type": "node", "id": 4950932380, "lat": 40.3677275, "lon": -3.69023}, {"type": "node", "id": 4950932385, "lat": 40.3679468, "lon": -3.689927}, {"type": "node", "id": 4950932391, "lat": 40.3677099, "lon": -3.6905734}, {"type": "node", "id": 4950932392, "lat": 40.3678364, "lon": -3.6905846}, {"type": "node", "id": 4957167424, "lat": 40.3568717, "lon": -3.6969848, "tags": {"amenity": "school", "education": "school", "name": "Little Bubbles", "name:es": "Little Bubbles"}}, {"type": "node", "id": 4977328014, "lat": 40.3699761, "lon": -3.6901027}, {"type": "node", "id": 4977334126, "lat": 40.3700179, "lon": -3.6900578}, {"type": "node", "id": 5014295246, "lat": 40.3528018, "lon": -3.6969216, "tags": {"access": "destination", "barrier": "gate", "bicycle": "no", "foot": "yes"}}, {"type": "node", "id": 5046289675, "lat": 40.3569382, "lon": -3.6875527}, {"type": "node", "id": 5072262577, "lat": 40.3669994, "lon": -3.6199586}, {"type": "node", "id": 5072262578, "lat": 40.3669858, "lon": -3.6200514}, {"type": "node", "id": 5075307134, "lat": 40.3543324, "lon": -3.6812983}, {"type": "node", "id": 5075307136, "lat": 40.3543341, "lon": -3.6812507}, {"type": "node", "id": 5075307155, "lat": 40.3545699, "lon": -3.6815672}, {"type": "node", "id": 5075307160, "lat": 40.354556, "lon": -3.6815901}, {"type": "node", "id": 5075307161, "lat": 40.3545976, "lon": -3.6815172}, {"type": "node", "id": 5075307162, "lat": 40.3544837, "lon": -3.6817087}, {"type": "node", "id": 5085927740, "lat": 40.3545006, "lon": -3.6899244}, {"type": "node", "id": 5085927741, "lat": 40.3544996, "lon": -3.6899473}, {"type": "node", "id": 5085927744, "lat": 40.3539886, "lon": -3.6895787}, {"type": "node", "id": 5100785744, "lat": 40.3537967, "lon": -3.6904431, "tags": {"access": "private", "addr:city": "Madrid", "addr:housenumber": "9", "addr:postcode": "28041", "addr:street": "Calle de Villarosa", "entrance": "yes"}}, {"type": "node", "id": 5100785751, "lat": 40.3544604, "lon": -3.6904897, "tags": {"addr:city": "Madrid", "addr:housenumber": "7", "addr:postcode": "28041", "addr:street": "Calle de Villarosa", "entrance": "main"}}, {"type": "node", "id": 5100785753, "lat": 40.3539157, "lon": -3.690448}, {"type": "node", "id": 5100785754, "lat": 40.3534395, "lon": -3.6902314}, {"type": "node", "id": 5100785756, "lat": 40.3536777, "lon": -3.6904372}, {"type": "node", "id": 5107428280, "lat": 40.3539694, "lon": -3.6896039, "tags": {"access": "private", "entrance": "service"}}, {"type": "node", "id": 5107428281, "lat": 40.353922, "lon": -3.6896244, "tags": {"access": "private", "barrier": "gate", "bicycle": "yes", "foot": "yes"}}, {"type": "node", "id": 5107428282, "lat": 40.354362, "lon": -3.6895553}, {"type": "node", "id": 5107428320, "lat": 40.3545158, "lon": -3.6895878, "tags": {"access": "private", "addr:city": "Madrid", "addr:housenumber": "15", "addr:postcode": "28041", "addr:street": "Calle de Villafuerte", "barrier": "gate", "bicycle": "yes", "entrance": "yes", "foot": "yes"}}, {"type": "node", "id": 5178242553, "lat": 40.3571869, "lon": -3.6859882}, {"type": "node", "id": 5178242584, "lat": 40.3576119, "lon": -3.686837, "tags": {"addr:city": "Madrid", "addr:housenumber": "22", "addr:postcode": "28041", "addr:street": "Calle de la Alianza", "entrance": "main"}}, {"type": "node", "id": 5178242585, "lat": 40.3576135, "lon": -3.6867907}, {"type": "node", "id": 5178242586, "lat": 40.3576102, "lon": -3.6868867}, {"type": "node", "id": 5178242606, "lat": 40.357638, "lon": -3.6860767}, {"type": "node", "id": 5178242620, "lat": 40.3571619, "lon": -3.6859868}, {"type": "node", "id": 5178242721, "lat": 40.357531, "lon": -3.6860077}, {"type": "node", "id": 5178242733, "lat": 40.3576332, "lon": -3.6862163}, {"type": "node", "id": 5178242746, "lat": 40.3575913, "lon": -3.6874359}, {"type": "node", "id": 5178242750, "lat": 40.357588, "lon": -3.6875311}, {"type": "node", "id": 5178242751, "lat": 40.3570533, "lon": -3.685993}, {"type": "node", "id": 5178242788, "lat": 40.3570711, "lon": -3.6875606}, {"type": "node", "id": 5178242789, "lat": 40.3570956, "lon": -3.687562}, {"type": "node", "id": 5178242792, "lat": 40.3573828, "lon": -3.687579}, {"type": "node", "id": 5178242793, "lat": 40.3574094, "lon": -3.6875806}, {"type": "node", "id": 5245829144, "lat": 40.3440854, "lon": -3.705809}, {"type": "node", "id": 5247237151, "lat": 40.3436526, "lon": -3.7055996, "tags": {"access": "destination", "barrier": "gate", "bicycle": "yes", "foot": "yes"}}, {"type": "node", "id": 5247237156, "lat": 40.3436308, "lon": -3.7056778, "tags": {"access": "private", "addr:city": "Madrid", "addr:housenumber": "9", "addr:postcode": "28021", "addr:street": "Calle de la Magnesia", "barrier": "gate", "bicycle": "yes", "foot": "yes"}}, {"type": "node", "id": 5252603762, "lat": 40.3446247, "lon": -3.7066408}, {"type": "node", "id": 5252603764, "lat": 40.3446911, "lon": -3.706761}, {"type": "node", "id": 5252603765, "lat": 40.344704, "lon": -3.706538}, {"type": "node", "id": 5252603766, "lat": 40.3448576, "lon": -3.7058191}, {"type": "node", "id": 5252603774, "lat": 40.3450705, "lon": -3.7065836}, {"type": "node", "id": 5252603777, "lat": 40.3453208, "lon": -3.7055776}, {"type": "node", "id": 5252603788, "lat": 40.3450181, "lon": -3.705622}, {"type": "node", "id": 5256564974, "lat": 40.3470613, "lon": -3.7034608}, {"type": "node", "id": 5256565003, "lat": 40.3472356, "lon": -3.7032911}, {"type": "node", "id": 5256565004, "lat": 40.3468413, "lon": -3.7034731}, {"type": "node", "id": 5262001877, "lat": 40.3448104, "lon": -3.7059499}, {"type": "node", "id": 5262001918, "lat": 40.3453229, "lon": -3.7056208}, {"type": "node", "id": 5262002045, "lat": 40.3451916, "lon": -3.7053841}, {"type": "node", "id": 5265800070, "lat": 40.3462845, "lon": -3.705999}, {"type": "node", "id": 5265800071, "lat": 40.3463116, "lon": -3.706}, {"type": "node", "id": 5265800074, "lat": 40.3463351, "lon": -3.7060008}, {"type": "node", "id": 5265800075, "lat": 40.3463515, "lon": -3.7060014}, {"type": "node", "id": 5265800235, "lat": 40.3464848, "lon": -3.7059774, "tags": {"access": "destination", "barrier": "gate", "motorcar": "yes"}}, {"type": "node", "id": 5265800236, "lat": 40.3464798, "lon": -3.7058706, "tags": {"access": "destination", "barrier": "gate", "foot": "yes"}}, {"type": "node", "id": 5265800259, "lat": 40.3462609, "lon": -3.7054766, "tags": {"access": "yes", "entrance": "main"}}, {"type": "node", "id": 5266443356, "lat": 40.345348, "lon": -3.7064403, "tags": {"access": "private", "entrance": "main", "wheelchair": "yes"}}, {"type": "node", "id": 5266443357, "lat": 40.3453282, "lon": -3.7057205, "tags": {"access": "private", "entrance": "service", "wheelchair": "yes"}}, {"type": "node", "id": 5270132223, "lat": 40.3451898, "lon": -3.705398}, {"type": "node", "id": 5270132333, "lat": 40.344943, "lon": -3.705736}, {"type": "node", "id": 5270132334, "lat": 40.3448847, "lon": -3.7057936}, {"type": "node", "id": 5270132355, "lat": 40.3448265, "lon": -3.7061351}, {"type": "node", "id": 5279710788, "lat": 40.3468581, "lon": -3.7032352, "tags": {"access": "yes", "addr:city": "Madrid", "addr:housenumber": "43", "addr:postcode": "28021", "addr:street": "Calle del Ox\u00edgeno", "entrance": "main", "wheelchair": "yes"}}, {"type": "node", "id": 5286002541, "lat": 40.3470477, "lon": -3.7030492, "tags": {"access": "destination", "barrier": "gate"}}, {"type": "node", "id": 5297622251, "lat": 40.3496595, "lon": -3.7088229}, {"type": "node", "id": 5297622254, "lat": 40.3495982, "lon": -3.7087643}, {"type": "node", "id": 5297622255, "lat": 40.3496287, "lon": -3.7088203}, {"type": "node", "id": 5298159058, "lat": 40.3496013, "lon": -3.708697}, {"type": "node", "id": 5298159083, "lat": 40.3499374, "lon": -3.708847}, {"type": "node", "id": 5339086972, "lat": 40.350887, "lon": -3.7061691}, {"type": "node", "id": 5340884996, "lat": 40.351094, "lon": -3.7057406}, {"type": "node", "id": 5340885024, "lat": 40.3510109, "lon": -3.7062773}, {"type": "node", "id": 5347117345, "lat": 40.3508263, "lon": -3.7061662}, {"type": "node", "id": 5347117347, "lat": 40.3512098, "lon": -3.706451}, {"type": "node", "id": 5347117362, "lat": 40.3501268, "lon": -3.7056745}, {"type": "node", "id": 5366042034, "lat": 40.3475222, "lon": -3.7084652}, {"type": "node", "id": 5366042045, "lat": 40.3475758, "lon": -3.7085062}, {"type": "node", "id": 5368129351, "lat": 40.3474763, "lon": -3.7087305, "tags": {"access": "private", "addr:city": "Madrid", "addr:housenumber": "15", "addr:postcode": "28021", "addr:street": "Calle Vieja de Pinto", "entrance": "main", "wheelchair": "no"}}, {"type": "node", "id": 5412041439, "lat": 40.3461343, "lon": -3.7089245}, {"type": "node", "id": 5412041440, "lat": 40.3459469, "lon": -3.7088353}, {"type": "node", "id": 5412041445, "lat": 40.3459544, "lon": -3.7087524}, {"type": "node", "id": 5412041446, "lat": 40.3460787, "lon": -3.7089451, "tags": {"access": "destination", "barrier": "gate", "foot": "yes"}}, {"type": "node", "id": 5414443646, "lat": 40.3462333, "lon": -3.7088882, "tags": {"access": "yes", "addr:city": "Madrid", "addr:housenumber": "1", "addr:postcode": "28021", "addr:street": "Avenida de la Espinela", "entrance": "yes"}}, {"type": "node", "id": 5488395042, "lat": 40.3447153, "lon": -3.7067466, "tags": {"amenity": "school", "education": "school", "isced:level": "1;2;3", "min_age": "3", "name": "Nuestra Se\u00f1ora del Carmen", "opening_hours": "Mo-Fr 08:00-16:30,13:30-18:30;Sa 09:00-17:00;PH closed", "operator:type": "religious"}}, {"type": "node", "id": 5488852223, "lat": 40.3653954, "lon": -3.7056192}, {"type": "node", "id": 5488852227, "lat": 40.3646095, "lon": -3.7059078}, {"type": "node", "id": 5488852230, "lat": 40.365332, "lon": -3.7056201}, {"type": "node", "id": 5488852231, "lat": 40.3649223, "lon": -3.7056263}, {"type": "node", "id": 5488852232, "lat": 40.3648619, "lon": -3.7056272}, {"type": "node", "id": 5488852233, "lat": 40.3646088, "lon": -3.7058769}, {"type": "node", "id": 5492013498, "lat": 40.319989, "lon": -3.6655777}, {"type": "node", "id": 5492013499, "lat": 40.3205831, "lon": -3.6660626}, {"type": "node", "id": 5492013500, "lat": 40.3200761, "lon": -3.6658864}, {"type": "node", "id": 5593384396, "lat": 40.3682802, "lon": -3.6188852}, {"type": "node", "id": 5624551918, "lat": 40.3674995, "lon": -3.6993695}, {"type": "node", "id": 5853558900, "lat": 40.3426618, "lon": -3.6739663}, {"type": "node", "id": 5856533383, "lat": 40.3509137, "lon": -3.6807388}, {"type": "node", "id": 5856533605, "lat": 40.3513165, "lon": -3.6809718}, {"type": "node", "id": 5856533606, "lat": 40.3513026, "lon": -3.6809288}, {"type": "node", "id": 6539488577, "lat": 40.3245664, "lon": -3.6580948, "tags": {"barrier": "gate"}}, {"type": "node", "id": 6539488582, "lat": 40.324454, "lon": -3.658172, "tags": {"barrier": "gate"}}, {"type": "node", "id": 6539488583, "lat": 40.3238006, "lon": -3.6590033, "tags": {"barrier": "gate"}}, {"type": "node", "id": 6539500001, "lat": 40.324962, "lon": -3.6589275}, {"type": "node", "id": 6539500002, "lat": 40.324932, "lon": -3.6589848}, {"type": "node", "id": 6539500067, "lat": 40.3246107, "lon": -3.6583375}, {"type": "node", "id": 6539500068, "lat": 40.3238442, "lon": -3.6594579}, {"type": "node", "id": 6553087404, "lat": 40.3244365, "lon": -3.6585602}, {"type": "node", "id": 6553087405, "lat": 40.324536, "lon": -3.6584744}, {"type": "node", "id": 6553087406, "lat": 40.3261161, "lon": -3.6616394, "tags": {"barrier": "gate"}}, {"type": "node", "id": 6553087407, "lat": 40.3259163, "lon": -3.6618434}, {"type": "node", "id": 6553087408, "lat": 40.3261748, "lon": -3.6615825}, {"type": "node", "id": 6553087411, "lat": 40.3263765, "lon": -3.6607276}, {"type": "node", "id": 6553087412, "lat": 40.3265521, "lon": -3.6605328}, {"type": "node", "id": 6553087413, "lat": 40.3265427, "lon": -3.6604005}, {"type": "node", "id": 6553087427, "lat": 40.325946, "lon": -3.6619599}, {"type": "node", "id": 6553087445, "lat": 40.3267911, "lon": -3.6617944}, {"type": "node", "id": 6553087448, "lat": 40.3265435, "lon": -3.6620932}, {"type": "node", "id": 6553087449, "lat": 40.3265804, "lon": -3.6620501}, {"type": "node", "id": 6553087450, "lat": 40.3267199, "lon": -3.6602652}, {"type": "node", "id": 6553087451, "lat": 40.3269349, "lon": -3.6607655}, {"type": "node", "id": 6553087472, "lat": 40.3269787, "lon": -3.6608711}, {"type": "node", "id": 6553087473, "lat": 40.3272442, "lon": -3.6613325}, {"type": "node", "id": 6553087474, "lat": 40.32713, "lon": -3.661127}, {"type": "node", "id": 6553087521, "lat": 40.3268995, "lon": -3.6616915}, {"type": "node", "id": 6555196190, "lat": 40.3250368, "lon": -3.6587848}, {"type": "node", "id": 6555196281, "lat": 40.3269697, "lon": -3.6608494, "tags": {"barrier": "gate"}}, {"type": "node", "id": 6555196282, "lat": 40.3259763, "lon": -3.6619296}, {"type": "node", "id": 6560451575, "lat": 40.3204332, "lon": -3.6669137, "tags": {"barrier": "gate", "foot": "yes"}}, {"type": "node", "id": 6560451585, "lat": 40.3209229, "lon": -3.6653258, "tags": {"barrier": "gate"}}, {"type": "node", "id": 6560451605, "lat": 40.3209008, "lon": -3.6663696}, {"type": "node", "id": 6560451610, "lat": 40.3209651, "lon": -3.6661384}, {"type": "node", "id": 6560451611, "lat": 40.3209767, "lon": -3.6660967, "tags": {"barrier": "gate"}}, {"type": "node", "id": 6560451666, "lat": 40.3211439, "lon": -3.6654635}, {"type": "node", "id": 6560451667, "lat": 40.3211205, "lon": -3.6654024}, {"type": "node", "id": 6560451668, "lat": 40.3211091, "lon": -3.6653867}, {"type": "node", "id": 6560451669, "lat": 40.3211417, "lon": -3.665502}, {"type": "node", "id": 6560451670, "lat": 40.3201353, "lon": -3.6656291}, {"type": "node", "id": 6593174191, "lat": 40.3527292, "lon": -3.6871147}, {"type": "node", "id": 6593174313, "lat": 40.3518372, "lon": -3.686163, "tags": {"access": "destination", "barrier": "gate", "foot": "yes"}}, {"type": "node", "id": 6593174314, "lat": 40.3523315, "lon": -3.6862429, "tags": {"access": "destination", "barrier": "gate", "foot": "yes"}}, {"type": "node", "id": 6593174321, "lat": 40.3522293, "lon": -3.6859589}, {"type": "node", "id": 6651208996, "lat": 40.3440408, "lon": -3.6734946}, {"type": "node", "id": 6651208998, "lat": 40.3442218, "lon": -3.6735263}, {"type": "node", "id": 6651209003, "lat": 40.3427705, "lon": -3.6735696}, {"type": "node", "id": 6651209011, "lat": 40.3440818, "lon": -3.6740568}, {"type": "node", "id": 6651209012, "lat": 40.3427085, "lon": -3.6737532}, {"type": "node", "id": 6651209016, "lat": 40.3439587, "lon": -3.6745581}, {"type": "node", "id": 6794859961, "lat": 40.3644896, "lon": -3.7038321}, {"type": "node", "id": 6794859964, "lat": 40.3646128, "lon": -3.7038041}, {"type": "node", "id": 7233614890, "lat": 40.3666423, "lon": -3.6023855}, {"type": "node", "id": 7593179405, "lat": 40.3426202, "lon": -3.690066}, {"type": "node", "id": 7711201278, "lat": 40.3149904, "lon": -3.707349}, {"type": "node", "id": 7878599592, "lat": 40.3497652, "lon": -3.6888647}, {"type": "node", "id": 7878599594, "lat": 40.3497712, "lon": -3.6887656}, {"type": "node", "id": 8318924826, "lat": 40.3331693, "lon": -3.6991489}, {"type": "node", "id": 8318924827, "lat": 40.33319, "lon": -3.6976638}, {"type": "node", "id": 8318924828, "lat": 40.3325094, "lon": -3.6976716}, {"type": "node", "id": 8318924829, "lat": 40.3324746, "lon": -3.6991346}, {"type": "node", "id": 8807122982, "lat": 40.3435692, "lon": -3.6734651}, {"type": "node", "id": 8807122983, "lat": 40.3441044, "lon": -3.6739714}, {"type": "node", "id": 8807122984, "lat": 40.3445817, "lon": -3.6735264}, {"type": "node", "id": 9385854559, "lat": 40.3680694, "lon": -3.7047274}, {"type": "node", "id": 9393160205, "lat": 40.3703232, "lon": -3.6893866, "tags": {"addr:housenumber": "34", "addr:street": "Avenida de los Fueros", "entrance": "yes"}}, {"type": "node", "id": 10793513131, "lat": 40.3534431, "lon": -3.6901615}, {"type": "node", "id": 10924648852, "lat": 40.3739176, "lon": -3.6246978, "tags": {"entrance": "yes"}}, {"type": "node", "id": 10924648872, "lat": 40.3738051, "lon": -3.6245595}, {"type": "node", "id": 11189349004, "lat": 40.3167578, "lon": -3.6962417, "tags": {"amenity": "school", "education": "school", "name": "DigiKids"}}, {"type": "node", "id": 11409614700, "lat": 40.3666685, "lon": -3.6637107}, {"type": "node", "id": 11617000996, "lat": 40.3647823, "lon": -3.7033136}, {"type": "node", "id": 11617000999, "lat": 40.3649237, "lon": -3.7022043}, {"type": "node", "id": 11617001000, "lat": 40.3650249, "lon": -3.7021972}, {"type": "node", "id": 11617001001, "lat": 40.3649608, "lon": -3.7022073}, {"type": "node", "id": 11617001002, "lat": 40.365157, "lon": -3.7021728}, {"type": "node", "id": 11617001003, "lat": 40.3652188, "lon": -3.7025977}, {"type": "node", "id": 11617001004, "lat": 40.3648014, "lon": -3.7034496}, {"type": "node", "id": 11773352834, "lat": 40.3519073, "lon": -3.6859252}, {"type": "node", "id": 11831003864, "lat": 40.3426925, "lon": -3.6901733}, {"type": "node", "id": 11831003872, "lat": 40.3428126, "lon": -3.6891854}, {"type": "node", "id": 11922343686, "lat": 40.316373, "lon": -3.7075251}, {"type": "node", "id": 12037775541, "lat": 40.3685932, "lon": -3.6196339}, {"type": "node", "id": 12192418893, "lat": 40.3671765, "lon": -3.663588}, {"type": "node", "id": 12305216954, "lat": 40.3668991, "lon": -3.6636512}, {"type": "node", "id": 12772085238, "lat": 40.3591128, "lon": -3.5955486, "tags": {"amenity": "school", "education": "school", "name": "Escuela infantil Jos\u00e9 G\u00f3mez Gil", "operator": "Comunidad de Madrid", "operator:type": "government", "operator:wikidata": "Q578788", "short_name": "EEI Jos\u00e9 G\u00f3mez Gil"}}, {"type": "node", "id": 12794171571, "lat": 40.372589, "lon": -3.6173173, "tags": {"entrance": "main"}}, {"type": "node", "id": 12813743337, "lat": 40.3725525, "lon": -3.6061643, "tags": {"addr:housenumber": "9", "addr:street": "Calle de Pe\u00f1aranda de Bracamonte", "entrance": "yes"}}, {"type": "node", "id": 12818762220, "lat": 40.3626318, "lon": -3.6018738, "tags": {"entrance": "yes"}}, {"type": "node", "id": 13062249864, "lat": 40.3686511, "lon": -3.7040897}, {"type": "node", "id": 13236088807, "lat": 40.374242, "lon": -3.6672049, "tags": {"entrance": "yes"}}, {"type": "node", "id": 13248631015, "lat": 40.315199, "lon": -3.7064271}, {"type": "node", "id": 13248631016, "lat": 40.3151905, "lon": -3.7073745}, {"type": "node", "id": 13301189133, "lat": 40.3151743, "lon": -3.7064269}, {"type": "node", "id": 13301189134, "lat": 40.315076, "lon": -3.7064262}, {"type": "node", "id": 13386005875, "lat": 40.3396617, "lon": -3.6904294}, {"type": "node", "id": 13386005877, "lat": 40.3399435, "lon": -3.6908139}, {"type": "way", "id": 28538629, "nodes": [313492277, 6553087404, 6553087405, 6539500067, 313492278, 6539488582, 313492178, 313492279, 313492280, 313492262, 6539488583, 6539500068, 313492263, 313492258, 313492259, 313492277], "tags": {"addr:postcode": "28909", "addr:street": "Calle Campos de Castilla", "amenity": "school", "education": "school", "email": "cp.julianbesteiro.getafe@educa.madrid.org", "fax": "+34916096652", "isced:level": "0;1", "name": "Colegio de Educaci\u00f3n Infantil y Primaria Juli\u00e1n Besteiro", "operator": "Comunidad de Madrid", "operator:type": "public", "operator:wikidata": "Q578788", "phone": "+34916847034", "ref:ES:educamadrid": "28039086", "school:language": "es;en", "short_name": "CEIP Juli\u00e1n Besteiro", "website": "http://www.educa.madrid.org/cp.julianbesteiro.getafe"}}, {"type": "way", "id": 28538633, "nodes": [313492259, 6539500002, 6539500001, 6555196190, 266169555, 313492295, 6539488577, 313492278, 6539500067, 6553087405, 6553087404, 313492277, 313492259], "tags": {"addr:postcode": "28909", "addr:street": "Calle Saeta", "amenity": "school", "education": "school", "email": "ies.ignacioaldecoa.getafe@educa.madrid.org", "fax": "+34916847831", "isced:level": "2", "name": "Instituto de Educaci\u00f3n Secundaria Ignacio Aldecoa", "nohousenumber": "yes", "old_name": "Seccion del IES \u00cdcaro en Perales del R\u00edo", "operator": "Comunidad de Madrid", "operator:type": "public", "operator:wikidata": "Q578788", "phone": "+34916847958", "ref:ES:educamadrid": "28046261", "school:language": "es;en", "short_name": "IES Ignacio Aldecoa", "website": "http://www.educa.madrid.org/ies.ignacioaldecoa.getafe"}}, {"type": "way", "id": 28538755, "nodes": [266167963, 313493834, 313493835, 11831003872, 313493836, 7593179405, 313493837, 11831003864, 266167963], "tags": {"addr:housenumber": "7", "addr:postcode": "28021", "addr:street": "Plaza de los Pinazo", "amenity": "school", "education": "school", "email": "ies.sancristobal.madrid@educa.madrid.org", "fax": "+34915053607", "isced:level": "2", "name": "Instituto de Educaci\u00f3n Secundaria San Crist\u00f3bal de los \u00c1ngeles", "operator": "Comunidad de Madrid", "operator:type": "public", "operator:wikidata": "Q578788", "phone": "+34917972584", "ref:ES:educamadrid": "28018472", "school:language": "es;en", "short_name": "IES San Crist\u00f3bal de los \u00c1ngeles", "website": "http://www.educa.madrid.org/ies.sancristobal.madrid"}}, {"type": "way", "id": 28538763, "nodes": [313493910, 313493913, 313493915, 313493918, 313493920, 2887032841, 2887032840, 313493923, 2887032844, 313493910], "tags": {"addr:city": "Madrid", "addr:housenumber": "109", "addr:postcode": "28021", "addr:street": "Calle de Benimamet", "alt_name": "Colegio P\u00fablico Navas de Tolosa", "amenity": "school", "education": "school", "email": "cp.navasdetolosa.madrid@educa.madrid.org", "fax": "+34917976083", "isced:level": "0;1", "name": "Colegio de Educaci\u00f3n Infantil y Primaria Navas de Tolosa", "operator": "Comunidad de Madrid", "operator:type": "public", "operator:wikidata": "Q578788", "phone": "+34 917 97 60 83", "ref:ES:educamadrid": "28005911", "short_name": "CEIP Navas de Tolosa", "website": "http://www.educa.madrid.org/cp.navasdetolosa.madrid"}}, {"type": "way", "id": 28538770, "nodes": [313493958, 1367876969, 313493959, 313493960, 266167520, 1367876877, 313493958], "tags": {"addr:housenumber": "14", "addr:postcode": "28021", "addr:street": "Calle de Paterna", "amenity": "school", "education": "school", "email": "cp.sagunto.madrid@educa.madrid.org", "fax": "+34917976726", "isced:level": "0;1", "name": "Colegio de Educaci\u00f3n Infantil y Primaria Sagunto", "operator": "Comunidad de Madrid", "operator:type": "public", "operator:wikidata": "Q578788", "phone": "+34917976726", "ref:ES:educamadrid": "28006251", "short_name": "CEIP Sagunto", "website": "http://www.educa.madrid.org/cp.sagunto.madrid"}}, {"type": "way", "id": 28730609, "nodes": [4587977852, 4591164540, 266167529, 9393160205, 315888973, 315888974, 315888975, 4977328014, 4977334126, 4587977852], "tags": {"addr:housenumber": "34", "addr:postcode": "28041", "addr:street": "Avenida de los Fueros", "amenity": "school", "education": "school", "email": "cp.brasil.madrid@educa.madrid.org", "fax": "+34917920822", "isced:level": "0;1", "name": "Colegio de Educaci\u00f3n Infantil y Primaria Rep\u00fablica del Brasil", "operator": "Comunidad de Madrid", "operator:type": "public", "operator:wikidata": "Q578788", "phone": "+34917923478", "ref:ES:educamadrid": "28006159", "school:language": "es;en", "short_name": "CEIP Rep\u00fablica del Brasil", "website": "http://www.educa.madrid.org/cp.brasil.madrid"}}, {"type": "way", "id": 28730689, "nodes": [315889611, 4950932391, 4950932392, 4950932258, 315889613, 4950932268, 4950932276, 4950932385, 4950932277, 315889614, 4950932375, 3256159527, 4950932380, 315889611], "tags": {"amenity": "school", "education": "school"}}, {"type": "way", "id": 28730738, "nodes": [315890018, 315890019, 3383586394, 3383582989, 3383582984, 315890020, 315890021, 315890022, 315890018], "tags": {"addr:street": "Avenida de Andaluc\u00eda", "amenity": "school", "education": "school", "name": "Instituto de Educaci\u00f3n Secundaria Enrique Tierno Galv\u00e1n", "operator": "Comunidad de Madrid", "operator:type": "public", "operator:wikidata": "Q578788", "short_name": "IES Tierno Galv\u00e1n", "website": "http://www.tiernogalvan.es/"}}, {"type": "way", "id": 28731154, "nodes": [315894444, 266167596, 11617000996, 11617001004, 315894446, 315894474, 315894447, 315894444], "tags": {"addr:housenumber": "3", "addr:postcode": "28041", "addr:street": "Calle de Trev\u00e9lez", "amenity": "school", "education": "school", "email": "cc.obrasonsmontserrat.madrid@educa.madrid.org", "fax": "+34913172496", "isced:level": "0;1;2", "name": "Centro Privado de Educaci\u00f3n Infantil, Primaria y Secundaria Obra Social Nuestra Se\u00f1ora de Montserrat-San Sim\u00f3n y San Judas", "operator:type": "private", "phone": "+34913175643", "ref:ES:educamadrid": "28008387", "short_name": "CPEIPS Obra So.n.s.montserrat-s.Sim\u00f3n y S.judas", "website": "http://www.colegiomontserrat.eu"}}, {"type": "way", "id": 28731161, "nodes": [315894471, 315894472, 315894473, 6794859961, 6794859964, 315894474, 315894446, 11617001004, 11617000996, 315894475, 11617001003, 11617001002, 11617001000, 11617001001, 11617000999, 266167582, 315894471], "tags": {"addr:housenumber": "42", "addr:postcode": "28041", "addr:street": "Avenida de Orcasur", "amenity": "school", "education": "school", "email": "cc.mariareina-usera.madrid@educa.madrid.org", "fax": "+34913177644", "isced:level": "0;1;2", "name": "Centro Privado de Educaci\u00f3n Infantil, Primaria y Secundaria Mar\u00eda Reina", "operator:type": "private", "phone": "+34913170237", "ref:ES:educamadrid": "28007954", "school:language": "es;en", "short_name": "CPEIPS Mar\u00eda Reina", "website": "http://www.educa.madrid.org/cc.mariareina-usera.madrid"}}, {"type": "way", "id": 28731278, "nodes": [315895285, 315895286, 315895288, 315895289, 315895285], "tags": {"addr:postcode": "28041", "addr:street": "Calle de Fernando Ortiz", "amenity": "school", "building": "yes", "education": "school", "email": "eoi.villaverde.madrid@educa.madrid.org", "fax": "+34917558126", "name": "Escuela Oficial de Idiomas de Madrid-villaverde", "network": "Escuelas Oficiales de Idiomas", "network:short": "EOI", "operator": "Comunidad de Madrid", "operator:type": "government", "operator:wikidata": "Q578788", "phone": "+34913175000", "ref:ES:educamadrid": "28042723", "short_name": "EOI de Madrid-villaverde", "website": "http://www.educa.madrid.org/eoi.villaverde.madrid"}}, {"type": "way", "id": 28741456, "nodes": [2958560417, 5347117347, 5340885024, 5339086972, 316020777, 5347117345, 2958560379], "tags": {"barrier": "fence"}}, {"type": "way", "id": 28741494, "nodes": [316020998, 2587384498, 2587384502, 316020999, 5265800070, 5265800071, 5265800074, 5265800075, 316021000, 5265800235, 5265800236, 316021001, 316022305, 316021002, 5265800259, 316020998], "tags": {"addr:housenumber": "27", "addr:postcode": "28021", "addr:street": "Calle \u00c1gata", "amenity": "school", "education": "school", "email": "cp.manueldefalla.madrid@educa.madrid.org", "fax": "+34915052511", "isced:level": "0;1", "name": "Colegio de Educaci\u00f3n Infantil y Primaria Manuel de Falla", "operator": "Comunidad de Madrid", "operator:type": "government", "operator:wikidata": "Q578788", "phone": "+34917971448;+34669265974", "ref:ES:educamadrid": "28005763", "short_name": "CEIP Manuel de Falla", "website": "http://www.educa.madrid.org/cp.manueldefalla.madrid"}}, {"type": "way", "id": 28741712, "nodes": [316022484, 5245829144, 4444031983, 1367876822, 5247237151, 5247237156, 4444032292, 4444032293, 4444032294, 4444032297, 316022484], "tags": {"amenity": "school", "education": "school", "name": "Nuestra se\u00f1ora de la Luz"}}, {"type": "way", "id": 28741925, "nodes": [316023679, 316023680, 6593174314, 316023681, 6593174321, 11773352834, 316023682, 6593174313, 316023679], "tags": {"addr:housenumber": "77", "addr:postcode": "28021", "addr:street": "Calle de Juan Jos\u00e9 Mart\u00ednez Seco", "amenity": "school", "education": "school", "email": "cp.antoniodenebrija.madrid@educa.madrid.org", "fax": "+34915051317", "isced:level": "0;1", "name": "Colegio de Educaci\u00f3n Infantil y Primaria Antonio de Nebrija", "operator": "Comunidad de Madrid", "operator:type": "government", "operator:wikidata": "Q578788", "phone": "+34917963500", "ref:ES:educamadrid": "28021215", "short_name": "CEIP Antonio de Nebrija", "website": "http://www.educa.madrid.org/cp.antoniodenebrija.madrid"}}, {"type": "way", "id": 28742213, "nodes": [316025625, 316025626, 316025627, 266167438, 316025625], "tags": {"addr:housenumber": "57", "addr:postcode": "28021", "addr:street": "Calle de Godella", "amenity": "school", "education": "school", "email": "cp.azorin.madrid@educa.madrid.org", "fax": "+34917231639", "isced:level": "0;1", "name": "Colegio de Educaci\u00f3n Infantil y Primaria Azorin", "operator": "Comunidad de Madrid", "operator:type": "public", "operator:wikidata": "Q578788", "phone": "+34917975733", "ref:ES:educamadrid": "28005091", "short_name": "CEIP Azorin", "website": "http://www.educa.madrid.org/cp.azorin.madrid"}}, {"type": "way", "id": 28742331, "nodes": [2908973736, 2908973744, 2908973748, 2908973749, 2908973722, 2908973702, 316026755, 13386005875, 2908973172, 13386005877, 2908973282, 2908973281, 2908973525, 2908973526, 2908973736], "tags": {"addr:housenumber": "170", "addr:postcode": "28021", "addr:street": "Calle de Godella", "amenity": "school", "education": "school", "email": "cp.gomezdelaserna.madrid@educa.madrid.org", "fax": "+34915053446", "isced:level": "0;1", "name": "Colegio de Educaci\u00f3n Infantil y Primaria Ram\u00f3n G\u00f3mez de la Serna", "operator": "Comunidad de Madrid", "operator:type": "government", "operator:wikidata": "Q578788", "phone": "+34917972522", "ref:ES:educamadrid": "28010941", "school:language": "es;en", "short_name": "CEIP Ram\u00f3n G\u00f3mez de la Serna", "website": "http://www.educa.madrid.org/cp.gomezdelaserna.madrid"}}, {"type": "way", "id": 28759953, "nodes": [1354800724, 1354800723, 3383586411, 316212618, 316212615, 1354800724], "tags": {"addr:housenumber": "183", "addr:street": "Avenida de los Poblados", "amenity": "school", "education": "school", "name": "Colegio P\u00fablico de Educaci\u00f3n Especial Joan Mir\u00f3", "operator": "Comunidad de Madrid", "operator:type": "public", "operator:wikidata": "Q578788", "short_name": "CPEE Joan Mir\u00f3", "website": "http://www.educa.madrid.org/web/cpee.joanmiro.madrid/index.html"}}, {"type": "way", "id": 28759975, "nodes": [1354800723, 1354800724, 1354800725, 1354800727, 1354800728, 1354800726, 316212939, 316212936, 316212937, 1354800723], "tags": {"addr:housenumber": "6", "addr:street": "Calle de Eduardo Barreiros", "amenity": "school", "education": "school", "name": "Centro Educativo Ponce de Le\u00f3n", "website": "http://www.ponceleon.org/"}}, {"type": "way", "id": 28774870, "nodes": [316408294, 3898493589, 316408295, 3370756634, 3370756633, 3370756629, 3370756628, 316408296, 3371812332, 316408297, 3371812309, 3371812310, 316408294], "tags": {"addr:housenumber": "55", "addr:postcode": "28041", "addr:street": "Calle de La Canci\u00f3n del Olvido", "amenity": "school", "education": "school", "email": "cc.nsdelosangeles.madrid@educa.madrid.org", "fax": "+34913699397", "isced:level": "0;1;2", "name": "Centro Privado de Educaci\u00f3n Infantil, Primaria y Secundaria Nuestra Se\u00f1ora de los \u00c1ngeles", "operator:type": "private", "phone": "+34913176203;+34913176204", "ref:ES:educamadrid": "28012949", "short_name": "CPEIPS Nuestra Se\u00f1ora de los \u00c1ngeles", "website": "http://www.educa.madrid.org/cc.nsdelosangeles.madrid"}}, {"type": "way", "id": 28812091, "nodes": [316772775, 316772776, 316772777, 316772787, 316772775], "tags": {"addr:city": "Madrid", "addr:housenumber": "14", "addr:postcode": "28031", "addr:street": "Calle de Villarino de los Aires", "amenity": "school", "education": "school", "name": "Instituto de Educaci\u00f3n Secundaria Villa de Vallecas", "short_name": "IES Villa de Vallecas"}}, {"type": "way", "id": 28812092, "nodes": [10924648872, 10924648852, 316772787, 316772777, 316772789]}, {"type": "way", "id": 28812331, "nodes": [316774543, 316774544, 3424567364, 4541994289, 4541994290, 3424567365, 3424567363, 316774545, 3424567361, 3424567362, 316774546, 12794171571, 316774543], "tags": {"addr:city": "Madrid", "addr:housenumber": "31", "addr:postcode": "28031", "addr:street": "Calle de Muela de San Juan", "amenity": "school", "check_date": "2024-09-20", "education": "school", "name": "Colegio P\u00fablico Juan Gris"}}, {"type": "way", "id": 28815252, "nodes": [316804679, 13236088807, 316804680, 316804681, 4895484409, 4895484410, 316804682, 4895484941, 316804683, 4895484934, 4895484416, 4895484415, 316804679], "tags": {"addr:housenumber": "4", "addr:postcode": "28053", "addr:street": "Calle de Villuercas", "amenity": "school", "education": "school", "email": "cc.sangelguarda.madrid@educa.madrid.org", "fax": "+34915074266", "name": "Centro Privado de Educaci\u00f3n Infantil, Primaria y Secundaria Santo \u00c1ngel de la Guarda", "operator:type": "private", "phone": "+34917855661", "ref:ES:educamadrid": "28009801", "short_name": "CPEIPS Santo \u00c1ngel de la Guarda"}}, {"type": "way", "id": 28815256, "nodes": [316804680, 316804735, 316804736, 316804737, 316804682, 4895484410, 4895484409, 316804681, 316804680], "tags": {"addr:housenumber": "229", "addr:postcode": "28053", "addr:street": "Ronda Sur", "alt_name": "Colegio P\u00fablico Garc\u00eda Morente", "amenity": "school", "education": "school", "email": "cp.garciamorente.madrid@educa.madrid.org", "fax": "+34917856013", "name": "Colegio de Educaci\u00f3n Infantil y Primaria Garc\u00eda Morente", "operator": "Comunidad de Madrid", "operator:type": "government", "operator:wikidata": "Q578788", "phone": "+34917852016;+34626207893", "ref:ES:educamadrid": "28010655", "short_name": "CEIP Garc\u00eda Morente", "website": "http://www.educa.madrid.org/cp.garciamorente.madrid"}}, {"type": "way", "id": 28893105, "nodes": [317597242, 317597243, 317597279, 317597281, 1251048732, 1251048089, 317597242], "tags": {"addr:housenumber": "103", "addr:postcode": "28053", "addr:street": "Calle de la Reguera de Tomateros", "amenity": "school", "education": "school", "email": "cc.trabenco.madrid@educa.madrid.org", "isced:level": "0;1;2", "name": "Colegio Trabenco-Pozo", "operator:type": "private", "phone": "+34917856368", "ref:ES:educamadrid": "28022335", "website": "https://trabenco-pozo.es/"}}, {"type": "way", "id": 29003644, "nodes": [318942407, 318942409, 318942411, 318942413, 318942407], "tags": {"addr:housenumber": "15", "addr:postcode": "28041", "addr:street": "Calle de la Unanimidad", "amenity": "school", "education": "school", "email": "ies.elespinillo.madrid@educa.madrid.org", "fax": "+34917239151", "isced:level": "2", "name": "Instituto de Educaci\u00f3n Secundaria El Espinillo", "operator": "Comunidad de Madrid", "operator:type": "public", "operator:wikidata": "Q578788", "phone": "+34917239150", "ref:ES:educamadrid": "28013899", "short_name": "IES El Espinillo", "website": "http://www.educa.madrid.org/ies.elespinillo.madrid"}}, {"type": "way", "id": 29003935, "nodes": [318945254, 4918983144, 4939075474, 318945255, 318945256, 4918983079, 4918983093, 4918983095, 4918983094, 4918983110, 4918983143, 318945257, 4918983212, 4918983213, 318945254], "tags": {"addr:housenumber": "1", "addr:postcode": "28041", "addr:street": "Calle de la Unanimidad", "amenity": "school", "barrier": "fence", "education": "school", "email": "cp.elespinillo.madrid@educa.madrid.org", "fax": "+34913180790", "fence_type": "metal", "height": "2", "isced:level": "0;1", "name": "Colegio de Educaci\u00f3n Infantil y Primaria El Espinillo", "operator": "Comunidad de Madrid", "operator:type": "public", "operator:wikidata": "Q578788", "phone": "+34917237434;+34913182512", "ref:ES:educamadrid": "28044434", "short_name": "CEIP El Espinillo", "website": "http://www.educa.madrid.org/cp.elespinillo.madrid", "wheelchair": "yes"}}, {"type": "way", "id": 29004576, "nodes": [318950967, 318950969, 318950970, 3323361221, 3323361220, 3323361219, 3323361215, 1739083428, 1739083420, 318950971, 3330643635, 3320651842, 318950967], "tags": {"addr:housenumber": "14", "addr:postcode": "28041", "addr:street": "Avenida de La Verbena de la Paloma", "amenity": "school", "education": "school", "email": "cp.barcelona.madrid@educa.madrid.org", "fax": "+34913179568", "isced:level": "0;1", "name": "Colegio de Educaci\u00f3n Infantil y Primaria Barcelona", "operator": "Comunidad de Madrid", "operator:type": "public", "operator:wikidata": "Q578788", "phone": "+34913603078;+34686755592", "ref:ES:educamadrid": "28005106", "short_name": "CEIP Barcelona", "website": "http://www.educa.madrid.org/cp.barcelona.madrid"}}, {"type": "way", "id": 30623508, "nodes": [3512394904, 338693737, 3512394724, 338693739, 338693741, 338693732, 3517278450, 3517278447, 3374152214, 3512394973, 3512394947, 3517278359, 3517278350, 3517275059, 3374152212, 3512394918, 3512394904], "tags": {"addr:housenumber": "2", "addr:postcode": "28021", "addr:street": "Calle de Saced\u00f3n", "amenity": "school", "barrier": "fence", "education": "school", "email": "cp.elsalvador.madrid@educa.madrid.org", "fax": "+34917987815", "isced:level": "0;1", "name": "Colegio de Educaci\u00f3n Infantil y Primaria Rep\u00fablica de el Salvador", "operator": "Comunidad de Madrid", "operator:type": "public", "operator:wikidata": "Q578788", "phone": "+34917964041;+34606552326", "ref:ES:educamadrid": "28010989", "short_name": "CEIP Rep\u00fablica de el Salvador", "website": "http://www.educa.madrid.org/cp.elsalvador.madrid"}}, {"type": "way", "id": 33705722, "nodes": [385343253, 3499192809, 3494954663, 1740271566, 3494954662, 1740271559, 3481305159, 3499192801, 385343257, 385343261, 388091959, 1740271475, 3499192662, 388091961, 3499192652, 388091962, 385343265, 388091963, 385343268, 385343253], "tags": {"addr:housenumber": "6", "addr:postcode": "28041", "addr:street": "Calle de La Alegr\u00eda de la Huerta", "amenity": "school", "education": "school", "email": "cp.ciudaddelosangeles.madrid@educa.madrid.org", "fax": "+34915050434", "isced:level": "0;1", "name": "Colegio de Educaci\u00f3n Infantil y Primaria Ciudad de los \u00c1ngeles", "operator": "Comunidad de Madrid", "operator:type": "public", "operator:wikidata": "Q578788", "phone": "+34917954993", "ref:ES:educamadrid": "28005234", "short_name": "CEIP Ciudad de los \u00c1ngeles", "website": "http://www.educa.madrid.org/cp.ciudaddelosangeles.madrid"}}, {"type": "way", "id": 33807160, "nodes": [266171670, 1879913840, 387220533, 1879913827, 387220534, 387220535, 1879913740, 1879913733, 1879913736, 11409614700, 12305216954, 12192418893, 1879913831, 1879913836, 1879913838, 266171670], "tags": {"addr:postcode": "28053", "addr:street": "Carretera de Villaverde a Vallecas", "amenity": "school", "education": "school", "email": "cifp.profesorraulvazquez.madrid@educa.madrid.org", "fax": "+34917868441", "isced:level": "5", "name": "Centro P\u00fablico Integrado de Formaci\u00f3n Profesional Profesor Ra\u00fal V\u00e1zquez", "operator": "Comunidad de Madrid", "operator:type": "public", "operator:wikidata": "Q578788", "phone": "+34915072082", "ref:ES:educamadrid": "28067653", "website": "http://www.educa.madrid.org/cifp.profesorraulvazquez.madrid"}}, {"type": "way", "id": 34705435, "nodes": [404086107, 5856533383, 2883421603, 5856533605, 5856533606, 4899641601, 4899641598, 4899641597, 404086116, 4899641615, 4899641616, 4899641635, 4899641636, 404086120, 404086107], "tags": {"addr:housenumber": "12", "addr:postcode": "28021", "addr:street": "Calle de Miguel Solas", "amenity": "school", "education": "school", "email": "cc.aeeuropa.madrid@educa.madrid.org", "fax": "+34917968513", "isced:level": "0;1;2", "name": "Centro Privado de Educaci\u00f3n Infantil, Primaria y Secundaria Agrupaci\u00f3n Escolar Europa", "operator:type": "private", "phone": "+34917955158;+34917968513", "ref:ES:educamadrid": "28015392", "school:language": "es;en", "short_name": "CPEIPS Agrupaci\u00f3n Escolar Europa", "website": "http://www.educa.madrid.org/cc.aeeuropa.madrid"}}, {"type": "way", "id": 34951584, "nodes": [410172636, 3499192250, 410172637, 410172606, 410172607, 410172608, 410172609, 410172610, 410172611, 410172612, 410172613, 5014295246, 3496820838, 3496820839, 3496820841, 410172636], "tags": {"addr:housenumber": "16", "addr:postcode": "28041", "addr:street": "Calle de Anoeta", "amenity": "school", "barrier": "fence", "education": "school", "email": "ies.ciudaddelosangeles.madrid@educa.madrid.org", "fax": "+34915053762", "fence_type": "metal", "isced:level": "2", "name": "Instituto de Educaci\u00f3n Secundaria Ciudad de los \u00c1ngeles", "operator": "Comunidad de Madrid", "operator:type": "public", "operator:wikidata": "Q578788", "phone": "+34917962228;+34917985361", "ref:ES:educamadrid": "28037016", "short_name": "IES Ciudad de los \u00c1ngeles", "website": "http://www.educa.madrid.org/ies.ciudaddelosangeles.madrid"}}, {"type": "way", "id": 80408830, "nodes": [6553087427, 938335280, 6553087448, 6553087449, 6553087445, 6553087521, 6553087473, 6553087474, 6553087472, 6555196281, 6553087451, 6553087450, 6553087413, 6553087412, 6553087411, 6553087408, 6553087406, 6553087407, 6555196282, 6553087427], "tags": {"addr:housenumber": "1", "addr:postcode": "28909", "addr:street": "Calle Dolores Valle", "amenity": "school", "education": "school", "email": "cc.santateresa.getafe@educa.madrid.org", "fax": "+34916847552", "isced:level": "0;1;2", "name": "Centro Privado de Educaci\u00f3n Infantil, Primaria y Secundaria Santa Teresa", "operator:type": "private", "phone": "+34916847051", "ref:ES:educamadrid": "28003092", "short_name": "CPEIPS Santa Teresa", "website": "http://www.educa.madrid.org/cc.santateresa.getafe"}}, {"type": "way", "id": 90056238, "nodes": [1043795787, 6560451667, 6560451668, 6560451585, 1043795376, 5492013498, 6560451670, 5492013500, 5492013499, 1043794706, 6560451575, 1043795598, 1043795304, 1043794516, 6560451605, 6560451610, 6560451611, 6560451669, 6560451666, 1043795787], "tags": {"addr:street": "Calle de Jos\u00e9 Echegaray", "amenity": "school", "barrier": "fence", "education": "school", "name": "Colegio P\u00fablico Dao\u00edz y Velarde"}}, {"type": "way", "id": 120939237, "nodes": [316212892, 316212890, 316212888, 316212899, 1354800722, 316212917, 316212918, 316212894, 316212892], "tags": {"amenity": "school", "education": "school", "name": "Colegio P\u00fablico Ciudad de Ja\u00e9n"}}, {"type": "way", "id": 138952349, "nodes": [1523271803, 1523271862, 1523271792, 1523271852, 1523271703, 1523271786, 1523271831, 1523271788, 1523271692, 1523271803], "tags": {"addr:street": "Calle del Embalse de Navacerrada", "amenity": "school", "education": "school", "email": "cp.loyoladepalacio.madrid@educa.madrid.org", "isced:level": "0;1", "name": "Colegio de Educaci\u00f3n Infantil y Primaria Loyola de Palacio", "name:etymology:wikidata": "Q255657", "operator": "Comunidad de Madrid", "operator:type": "government", "operator:wikidata": "Q578788", "phone": "+34913851330", "ref:ES:educamadrid": "28069169", "school:language": "es;en", "short_name": "CEIP Loyola de Palacio", "website": "http://www.educa.madrid.org/cp.loyoladepalacio.madrid"}}, {"type": "way", "id": 139268891, "nodes": [7233614890, 1526730301, 1526730359, 1526730321, 3961543663, 1526730304, 1526730303, 1526730341, 1526730271, 7233614890], "tags": {"addr:city": "Madrid", "addr:housenumber": "10", "addr:postcode": "28051", "addr:street": "Calle de Rafael de Le\u00f3n", "amenity": "school", "education": "school", "email": "cc.gsdlassuertes.madrid@educa.madrid.org", "fax": "+34913853404", "isced:level": "0;1;2", "name": "Centro Privado de Educaci\u00f3n Infantil, Primaria y Secundaria Gsd las Suertes", "operator:type": "private", "phone": "+34913853505;+34917861347", "ref:ES:educamadrid": "28067331", "school:language": "es;en", "short_name": "CPEIPS Gsd las Suertes", "website": "http://www.gsdeducacion.com/"}}, {"type": "way", "id": 140462870, "nodes": [1538868427, 1538868288, 1538868151]}, {"type": "way", "id": 142406102, "nodes": [1558408340, 1558408342, 1558408343, 4593139092, 1558408330, 1558408187, 1558408203, 1558408340], "tags": {"addr:city": "Madrid", "addr:housenumber": "14", "addr:postcode": "28051", "addr:street": "Calle de Puentedey", "amenity": "school", "education": "school", "name": "Colegio P\u00fablico Jos\u00e9 de Echegaray", "name:etymology:wikidata": "Q127349", "operator": "Comunidad de Madrid", "operator:type": "government", "operator:wikidata": "Q578788", "website": "https://www.educa2.madrid.org/web/centro.cp.josedeechegaray.madrid"}}, {"type": "way", "id": 157377173, "nodes": [1843793524, 5100785756, 1843793504, 5100785754, 1843793506, 10793513131, 1696013274, 1696013304, 1696013270, 5107428281, 1843793566, 1843793567, 5107428280, 5085927744, 1696013278, 5107428282, 1696013298, 5107428320, 5085927740, 5085927741, 1843793679, 1696013313, 5100785751, 1696013257, 1843793632, 1843793563, 5100785753, 5100785744, 1843793524], "tags": {"addr:city": "Madrid", "addr:housenumber": "7", "addr:postcode": "28041", "addr:street": "Calle Villarrosa", "amenity": "school", "education": "school", "email": "cp.juandelacierva.madrid@educa.madrid.org", "fax": "+34917965560", "isced:level": "0;1", "name": "Colegio de Educaci\u00f3n Infantil y Primaria Juan de la Cierva", "operator": "Comunidad de Madrid", "operator:type": "public", "operator:wikidata": "Q578788", "phone": "+34917230235;+34917965560", "ref:ES:educamadrid": "28005696", "short_name": "CEIP Juan de la Cierva", "website": "http://www.educa.madrid.org/cp.juandelacierva.madrid"}}, {"type": "way", "id": 161910637, "nodes": [1738611370, 266167724, 1738611393, 2967025619, 1738611484, 3294597433, 3294597436, 1738611478, 1738611488, 1738611482, 1738611523, 1738611511, 1738611607, 1738611618, 1738611464, 1738611351, 1738611370], "tags": {"addr:housenumber": "1", "addr:postcode": "28041", "addr:street": "Calle de Lillo", "amenity": "school", "education": "school", "email": "cp.ciudaddecordoba.madrid@educa.madrid.org", "fax": "+34913179827", "isced:level": "0;1", "name": "Colegio de Educaci\u00f3n Infantil y Primaria Ciudad de C\u00f3rdoba", "operator": "Comunidad de Madrid", "operator:type": "public", "operator:wikidata": "Q578788", "phone": "+34913172417;+34618898934", "ref:ES:educamadrid": "28011684", "school:language": "es;en", "short_name": "CEIP Ciudad de C\u00f3rdoba", "website": "http://www.educa.madrid.org/cp.ciudaddecordoba.madrid"}}, {"type": "way", "id": 173593525, "nodes": [1843794219, 5178242793, 5178242792, 5178242789, 5178242788, 5046289675, 318943173, 1843794111, 318943175, 318943176, 5178242751, 1843794136, 5178242620, 5178242553, 5178242721, 1843794224, 5178242606, 3629657909, 5178242733, 5178242585, 5178242584, 5178242586, 5178242746, 3629657908, 5178242750, 1843794219], "tags": {"addr:housenumber": "20", "addr:postcode": "28041", "addr:street": "Calle de la Alianza", "amenity": "school", "barrier": "fence", "education": "school", "email": "ies.villaverde.madrid@educa.madrid.org", "fax": "+34913182904", "fence_type": "chain_link", "isced:level": "2", "name": "Instituto de Educaci\u00f3n Secundaria Villaverde", "operator": "Comunidad de Madrid", "operator:type": "public", "operator:wikidata": "Q578788", "phone": "+34917239181", "ref:ES:educamadrid": "28062126", "short_name": "IES Villaverde", "website": "http://www.educa.madrid.org/ies.villaverde.madrid"}}, {"type": "way", "id": 242463617, "nodes": [2499259439, 2499259442, 2499259444, 2499259446, 2499259448, 2499259450, 2499259452, 2499259454, 2499259457, 2499259458, 12818762220, 2499259461, 2499259439], "tags": {"amenity": "school", "education": "school", "name": "Colegio Torrevilano"}}, {"type": "way", "id": 250427705, "nodes": [2568714098, 2568714088, 2568714081, 5412041445, 5412041440, 2568714078, 2568714085, 5412041446, 5412041439, 4422552110, 5414443646, 2568714095, 2568714098], "tags": {"addr:housenumber": "1", "addr:postcode": "28021", "addr:street": "Avenida de la Espinela", "amenity": "school", "education": "school", "email": "cp.damasoalonso.madrid@educa.madrid.org", "fax": "+34917970620", "isced:level": "0;1", "name": "Colegio de Educaci\u00f3n Infantil y Primaria D\u00e1maso Alonso", "operator": "Comunidad de Madrid", "operator:type": "public", "operator:wikidata": "Q578788", "phone": "+34917970620", "ref:ES:educamadrid": "28004266", "school:language": "es;en", "short_name": "CEIP D\u00e1maso Alonso", "website": "http://www.educa.madrid.org/cp.damasoalonso.madrid"}}, {"type": "way", "id": 250429224, "nodes": [2568735878, 5266443356, 2587384493, 2986411115, 5266443357, 2986411114, 5262001918, 5252603777, 2568735875, 2986411111, 5262002045, 5270132223, 2587384491, 2587384489, 5252603788, 2587384488, 5270132333, 5270132334, 5252603766, 2587384480, 5262001877, 4440626163, 5270132355, 2587384484, 2568735866, 2986411104, 2568735869, 4440626155, 5252603765, 4440626148, 2568735855, 5252603762, 2568735857, 5252603764, 2986411101, 5252603774, 2568735878], "tags": {"addr:housenumber": "41", "addr:postcode": "28021", "addr:street": "Avenida Real de Pinto", "amenity": "school", "education": "school", "email": "cc.nscarmen.madrid@educa.madrid.org", "isced:level": "0;1", "name": "Centro Privado de Educaci\u00f3n Infantil, Primaria y Secundaria Nuestra Se\u00f1ora del Carmen", "operator:type": "private", "phone": "+34917970146", "ref:ES:educamadrid": "28013036", "short_name": "CPEIPS Nuestra Se\u00f1ora del Carmen", "website": "https://nscarmen.corazonistas.org/"}}, {"type": "way", "id": 255661785, "nodes": [313498124, 2613329966, 313498120, 2613329967, 4899641817, 313498121, 313498122, 313498123, 313498124], "tags": {"addr:housenumber": "131", "addr:postcode": "28021", "addr:street": "Avenida de los Rosales", "amenity": "school", "education": "school", "email": "cp.losrosales.madrid@educa.madrid.org", "fax": "+34917988116", "isced:level": "0;1", "name": "Colegio de Educaci\u00f3n Infantil y Primaria Los Rosales", "operator": "Comunidad de Madrid", "operator:type": "government", "operator:wikidata": "Q578788", "phone": "+34917956756", "ref:ES:educamadrid": "28006214", "short_name": "CEIP Los Rosales", "website": "http://www.educa.madrid.org/cp.losrosales.madrid"}}, {"type": "way", "id": 292300627, "nodes": [2958482875, 384848256], "tags": {"barrier": "fence"}}, {"type": "way", "id": 292300631, "nodes": [2958482875, 2958482858, 2958482857, 2958482851, 5298159058, 2958482850, 5297622254, 2958482849, 5297622255, 5297622251, 5298159083, 384848256], "tags": {"barrier": "fence"}}, {"type": "way", "id": 292310773, "nodes": [2958560379, 2958560378, 2958560374, 2958560373, 316020776, 2958560366, 2958560369, 2958560367, 5347117362, 316020779, 2958560368, 2958560399, 2958560411, 2958560412, 5340884996, 316020778], "tags": {"barrier": "fence"}}, {"type": "way", "id": 292310774, "nodes": [316020778, 2958560417], "tags": {"barrier": "fence"}}, {"type": "way", "id": 293132985, "nodes": [2967025613, 4425456644, 4425456636, 2967025615, 4425456659, 2967025616, 4425456639, 4425456686, 2967025614, 2967025613], "tags": {"amenity": "school", "education": "school"}}, {"type": "way", "id": 293132986, "nodes": [2967025734, 2967025733, 13062249864, 2967025629, 9385854559, 2967025630, 2967025734], "tags": {"addr:housenumber": "3", "addr:postcode": "28041", "addr:street": "Calle del Censo", "amenity": "school", "education": "school", "email": "cp.gloriafuertes.madrid@educa.madrid.org", "fax": "+34913410018", "isced:level": "0;1", "name": "Colegio de Educaci\u00f3n Infantil y Primaria Gloria Fuertes", "operator": "Comunidad de Madrid", "operator:type": "government", "operator:wikidata": "Q578788", "phone": "+34 913 41 21 80; +34 913 41 44 48", "ref:ES:educamadrid": "28035536", "short_name": "CEIP Gloria Fuertes", "website": "http://www.educa.madrid.org/cp.gloriafuertes.madrid"}}, {"type": "way", "id": 300799594, "nodes": [5256565004, 5279710788, 3048869626, 3048869627, 5286002541, 3048869629, 5256565003, 4334543170, 3048869628, 4334543171, 5256564974, 4334543182, 5256565004], "tags": {"addr:housenumber": "43", "addr:postcode": "28021", "addr:street": "Calle del Ox\u00edgeno", "amenity": "school", "education": "school", "email": "cp.sanroque.madrid@educa.madrid.org", "fax": "+34917100003", "name": "Colegio de Educaci\u00f3n Infantil y Primaria San Roque", "operator": "Comunidad de Madrid", "operator:type": "public", "operator:wikidata": "Q578788", "phone": "+34917962774;+34638035601", "ref:ES:educamadrid": "28014272", "short_name": "CEIP San Roque", "website": "http://www.educa.madrid.org/cp.sanroque.madrid"}}, {"type": "way", "id": 304929223, "nodes": [3094981306, 3094981308, 4493287849, 266167619, 4493287868, 3094981305, 3094981302, 3094981304, 4493287854, 3094981306], "tags": {"addr:housenumber": "17", "addr:postcode": "28031", "addr:street": "Calle de la Revoltosa", "amenity": "school", "denomination": "roman_catholic", "education": "school", "email": "cc.saneulogio.madrid@educa.madrid.org", "fax": "+34917958608", "isced:level": "1;2", "name": "Centro Privado de Educaci\u00f3n Infantil, Primaria y Secundaria San Eulogio", "operator:type": "private", "phone": "+34913322848", "ref:ES:educamadrid": "28009082", "religion": "christian", "short_name": "CPEIPS San Eulogio", "website": "https://colegiosaneulogio.com/"}}, {"type": "way", "id": 304929225, "nodes": [3094981295, 3094981297, 3094981296, 4184374678, 3094981298, 5366042034, 4184374676, 5366042045, 3094981300, 3094981299, 5368129351, 3094981295], "tags": {"amenity": "school", "education": "school", "name": "Addis"}}, {"type": "way", "id": 315098277, "nodes": [316212894, 316212892, 316212913, 316212936, 316212939, 316212916, 316212917, 316212918, 316212894], "tags": {"amenity": "school", "education": "school", "name": "Instituto de Educaci\u00f3n Secundaria Ciudad de Ja\u00e9n", "operator": "Comunidad de Madrid", "operator:type": "government", "operator:wikidata": "Q578788", "short_name": "IES Ciudad de Ja\u00e9n"}}, {"type": "way", "id": 319199873, "nodes": [3256159513, 3256159511, 3256159512, 3256159515, 3256159514, 3256159513], "tags": {"addr:housenumber": "7", "addr:postcode": "28021", "addr:street": "Calle Estefanita", "amenity": "school", "education": "school", "email": "cp.elgreco.madrid@educa.madrid.org", "fax": "+34917983281", "isced:level": "0;1", "name": "Colegio de Educaci\u00f3n Infantil y Primaria El Greco", "operator": "Comunidad de Madrid", "operator:type": "public", "operator:wikidata": "Q578788", "phone": "+34917100008;+34917973463", "ref:ES:educamadrid": "28060221", "short_name": "CEIP El Greco", "website": "http://www.educa.madrid.org/cp.elgreco.madrid"}}, {"type": "way", "id": 319406624, "nodes": [3258173477, 3258173484, 3258173481, 3258173473, 4866243838, 4866243839, 3258173477], "tags": {"amenity": "school", "education": "school", "name": "Colegio de Educaci\u00f3n Infantil y Primaria Manuel N\u00fa\u00f1ez de Arenas II", "old_name": "Colegio Nacional Pozo del T\u00edo Raimundo", "short_name": "CEIP Manuel N\u00fa\u00f1ez de Arenas II"}}, {"type": "way", "id": 319406637, "nodes": [3258173475, 3258173472, 3258173474, 3258173476, 3258173482, 3258173475], "tags": {"addr:housenumber": "120", "addr:postcode": "28053", "addr:street": "Calle Martos", "amenity": "school", "education": "school", "email": "cp.nunezdearenas.madrid@educa.madrid.org", "isced:level": "0;1", "name": "Colegio de Educaci\u00f3n Infantil y Primaria Manuel N\u00fa\u00f1ez de Arenas", "old_name": "Colegio Nacional Ministro Jes\u00fas Rubio", "operator": "Comunidad de Madrid", "operator:type": "government", "operator:wikidata": "Q578788", "phone": "+34917855972;+34680470648", "ref:ES:educamadrid": "28010862", "short_name": "CEIP Manuel N\u00fa\u00f1ez de Arenas", "website": "http://www.educa.madrid.org/cp.nunezdearenas.madrid"}}, {"type": "way", "id": 319485191, "nodes": [3258999008, 3258998986, 5488852227, 5488852233, 3258998985, 5488852232, 5488852231, 5488852230, 5488852223, 3258999007, 3258999008], "tags": {"amenity": "school", "education": "school", "name": "Colegio Edith Stein"}}, {"type": "way", "id": 330451582, "nodes": [266169882, 3374152225, 3374152226, 5624551918, 266169882], "tags": {"addr:postcode": "28041", "addr:street": "Calle de Salvador Mart\u00ednez", "amenity": "school", "building": "yes", "education": "school", "email": "ufil.virgendeafrica.madrid@educa.madrid.org", "fax": "+34913698546", "name": "Unidad de Formaci\u00f3n e Inserci\u00f3n Laboral Virgen de \u00c1frica", "operator": "Comunidad de Madrid", "operator:type": "government", "operator:wikidata": "Q578788", "phone": "+34912760413", "ref:ES:educamadrid": "28056047", "website": "http://www.educa.madrid.org/ufil.virgendeafrica.madrid"}}, {"type": "way", "id": 334270345, "nodes": [3413823266, 3413823278, 3413823282, 6593174191, 3413823265, 4907070497, 3413823266], "tags": {"amenity": "school", "barrier": "wall", "education": "school"}}, {"type": "way", "id": 334270347, "nodes": [3413823332, 3413823318, 3413823321, 3413823319, 5075307134, 5075307136, 3413823322, 3413823325, 3413823335, 5075307161, 5075307155, 5075307160, 5075307162, 3413823332], "tags": {"addr:housenumber": "17", "addr:postcode": "28021", "addr:street": "Calle Concepci\u00f3n de la Oliva", "amenity": "school", "education": "school", "email": "cepa.losrosales.madrid@educa.madrid.org", "fax": "+34917971397", "isced:level": "2;3", "name": "Centro P\u00fablico de Educaci\u00f3n de Personas Adultas Los Rosales", "operator": "Comunidad de Madrid", "operator:type": "government", "operator:wikidata": "Q578788", "phone": "+34915052034", "ref:ES:educamadrid": "28045311", "short_name": "CEPA Los Rosales", "website": "http://www.educa.madrid.org/cepa.losrosales.madrid"}}, {"type": "way", "id": 338379446, "nodes": [3454565055, 4446360590, 3454565051, 3454565052, 4446360592, 4446360591, 3454565053, 3454565054, 3454565056, 7878599594, 7878599592, 3454565055], "tags": {"amenity": "school", "education": "school"}}, {"type": "way", "id": 421714259, "nodes": [1534416086, 4214697678, 1534416088, 1534416094, 1534416096, 1534416100, 4214697677, 1534416102, 12813743337, 1534416103, 4214697676, 1534416104, 1534416086], "tags": {"amenity": "school", "denomination": "roman_catholic", "education": "school", "name": "Colegio Stella Maris - La Gavia", "religion": "christian", "website": "https://www.stellamariscolegio.com/"}}, {"type": "way", "id": 461617535, "nodes": [4570883751, 4570883750, 4570883742, 4570883743, 4570883749, 4570883748, 4570883747, 4570883746, 4570883745, 4570883744, 4570883751], "tags": {"addr:housenumber": "1", "addr:street": "Calle del Ginebro", "amenity": "school", "education": "school", "name": "Centro de Formaci\u00f3n de Oficios de Usera", "operator": "Agencia para el Empleo del Ayuntamiento de Madrid", "operator:type": "government"}}, {"type": "way", "id": 520402518, "nodes": [1538868288, 5072262578, 5072262577, 5593384396, 1538868144, 12037775541, 1538868142, 1538868427, 1538868288], "tags": {"alt_name": "Instituto de Educaci\u00f3n Secundaria Mar\u00eda Rodrigo", "amenity": "school", "education": "school", "name": "Instituo de Educaci\u00f3n Secundaria Mar\u00eda Rodrigo", "name:etymology:wikidata": "Q6004507", "operator": "Comunidad de Madrid", "operator:type": "government", "operator:wikidata": "Q578788", "religion": "none", "short_name": "IES Mar\u00eda Rodrigo", "website": "https://site.educa.madrid.org/ies.mariarodrigo.madrid/"}}, {"type": "way", "id": 707843507, "nodes": [371074887, 8807122984, 6651208998, 8807122983, 6651209016, 3256159511, 371074887], "tags": {"amenity": "school", "education": "school", "name": "Colegio de Educaci\u00f3n Infantil y Primaria Ausias March", "operator": "Consejer\u00eda de Educaci\u00f3n, Ciencia y Universidades de la Comunidad de Madrid", "operator:type": "public", "short_name": "Ausias March", "website": "https://www.educa2.madrid.org/web/centro.cp.ausiasmarch.madrid#ad-image-0"}}, {"type": "way", "id": 707843508, "nodes": [6651209011, 6651209016, 5853558900, 6651209012, 6651209003, 8807122982, 6651208996, 6651208998, 8807122983, 6651209011], "tags": {"amenity": "school", "education": "school", "name": "Instituto de Educaci\u00f3n Secundaria Juan Ram\u00f3n Jim\u00e9nez", "operator": "Consejer\u00eda de Educaci\u00f3n, Ciencia y Universidades de la Comunidad de Madrid", "short_name": "IES Juan Ram\u00f3n Jim\u00e9nez", "website": "https://site.educa.madrid.org/ies.juanramonjimenez.madrid/"}}, {"type": "way", "id": 894959724, "nodes": [8318924826, 8318924827, 8318924828, 8318924829, 8318924826], "tags": {"addr:city": "Madrid", "addr:housenumber": "17", "addr:postcode": "28021", "addr:street": "Calle Transversal Sexta", "amenity": "school", "check_date": "2024-10-23", "education": "school", "grades": "0-18", "name": "Colegio Villamadrid", "operator": "Colegio Villamadrid SCM", "operator:type": "private", "religion": "none", "website": "https://www.colegiovillamadrid.com/"}}, {"type": "way", "id": 1057100468, "nodes": [1538868394, 1538868232, 1538868129, 1538868133, 1538868322, 1538868427]}, {"type": "way", "id": 1057100470, "nodes": [1538868151, 1538868394], "tags": {"barrier": "fence"}}, {"type": "way", "id": 1175692802, "nodes": [316772789, 316772790]}, {"type": "way", "id": 1175692803, "nodes": [316772790, 10924648872]}, {"type": "way", "id": 1285200033, "nodes": [3844816576, 3844816577, 13248631015, 13301189133, 13301189134, 3844816578], "tags": {"barrier": "fence"}}, {"type": "way", "id": 1285200035, "nodes": [7711201278, 3844816578]}, {"type": "way", "id": 1285200036, "nodes": [7711201278, 13248631016, 11922343686, 3844816575, 3844816576], "tags": {"barrier": "fence"}}, {"type": "relation", "id": 3883399, "members": [{"type": "way", "ref": 292300627, "role": "outer"}, {"type": "way", "ref": 292300631, "role": "outer"}], "tags": {"addr:housenumber": "10", "addr:postcode": "28021", "addr:street": "Calle de Villalonso", "amenity": "school", "education": "school", "email": "cepa.villaverde.madrid@educa.madrid.org", "fax": "+34917962820", "isced:level": "2;3", "name": "Centro P\u00fablico de Educaci\u00f3n de Personas Adultas Villaverde", "operator": "Comunidad de Madrid", "operator:type": "public", "operator:wikidata": "Q578788", "phone": "+34917962820", "ref:ES:educamadrid": "28043235", "short_name": "CEPA Villaverde", "type": "multipolygon", "website": "http://www.educa.madrid.org/cepa.villaverde.madrid"}}, {"type": "relation", "id": 3883553, "members": [{"type": "way", "ref": 292310773, "role": "outer"}, {"type": "way", "ref": 28741456, "role": "outer"}, {"type": "way", "ref": 292310774, "role": "outer"}], "tags": {"addr:housenumber": "109", "addr:postcode": "28041", "addr:street": "Carretera de Carabanchel a Villaverde", "amenity": "school", "education": "school", "email": "cp.cristobalcolon.madrid@educa.madrid.org", "fax": "+34917973312", "isced:level": "0;1", "name": "Colegio de Educaci\u00f3n Infantil y Primaria Crist\u00f3bal Col\u00f3n", "operator": "Comunidad de Madrid", "operator:type": "government", "operator:wikidata": "Q578788", "phone": "+34917973312;+34917988950", "ref:ES:educamadrid": "28005271", "short_name": "CEIP Crist\u00f3bal Col\u00f3n", "type": "multipolygon", "website": "http://www.educa.madrid.org/cp.cristobalcolon.madrid"}}, {"type": "relation", "id": 14103974, "members": [{"type": "way", "ref": 140462870, "role": "outer"}, {"type": "way", "ref": 1057100470, "role": "outer"}, {"type": "way", "ref": 1057100468, "role": "outer"}], "tags": {"addr:city": "Madrid", "addr:housenumber": "17", "addr:postcode": "28051", "addr:street": "Calle de La Granja de San Ildefonso", "amenity": "school", "education": "school", "name": "Colegio P\u00fablico Agust\u00edn Rodr\u00edguez Sahag\u00fan", "name:etymology:wikidata": "Q2827364", "type": "multipolygon"}}, {"type": "relation", "id": 15901219, "members": [{"type": "way", "ref": 28812092, "role": "outer"}, {"type": "way", "ref": 1175692802, "role": "outer"}, {"type": "way", "ref": 1175692803, "role": "outer"}], "tags": {"addr:city": "Madrid", "addr:housenumber": "4", "addr:postcode": "28031", "addr:street": "Calle de Fuentidue\u00f1a", "amenity": "school", "education": "school", "name": "Colegio de Educaci\u00f3n Infantil y Primaria El Quijote", "short_name": "CEIP El Quijote", "type": "multipolygon"}}, {"type": "relation", "id": 17619256, "members": [{"type": "way", "ref": 1285200036, "role": "outer"}, {"type": "way", "ref": 1285200033, "role": "outer"}, {"type": "way", "ref": 1285200035, "role": "outer"}], "tags": {"amenity": "school", "education": "school", "name": "Colegio Miguel de Cervantes", "operator:type": "public", "religion": "none", "short_name": "CEIPSO Miguel de Cervantes", "type": "multipolygon", "website": "https://www.educa2.madrid.org/web/centro.cp.migueldecervantes.getafe"}}]}