{"version": 0.6, "generator": "Overpass API 0.7.62.8 e802775f", "osm3s": {"timestamp_osm_base": "2026-01-12T06:03:59Z", "copyright": "The data included in this document is from www.openstreetmap.org. The data is made available under ODbL."}, "elements": [{"type": "node", "id": 268791446, "lat": 13.0066617, "lon": 80.2404107}, {"type": "node", "id": 268791520, "lat": 13.0049544, "lon": 80.2400846}, {"type": "node", "id": 308811614, "lat": 12.9787682, "lon": 80.1846471, "tags": {"addr:block": "Tambaram Mpty", "addr:city": "Chennai", "addr:district": "Kanchipuram", "addr:full": "Near By Ranga Theatre, Chennai, 100 Feet Road, Hinducolony, Nanagnanllur", "addr:postcode": "603209", "addr:state": "Tamil Nadu", "amenity": "hospital", "healthcare": "hospital", "name": "Hindu Mission Health Services, Kanchipuram", "source": "OpenGovernmentData"}}, {"type": "node", "id": 310909754, "lat": 12.9847145, "lon": 80.1905906, "tags": {"addr:district": "Chennai", "addr:full": "24 and 26, 'Swathi', 29 Th Street", "addr:postcode": "600061", "addr:state": "Tamil Nadu", "addr:subdistrict": "Nanganallur", "amenity": "hospital", "email": "info@hariharanhospitals.com", "healthcare": "hospital", "name": "Hariharan Hospital", "operator:type": "private", "source": "OpenGovernmentData", "website": "http://hariharanhospitals.com/"}}, {"type": "node", "id": 310910945, "lat": 12.9887616, "lon": 80.1904116, "tags": {"addr:street": "5th Main Road", "amenity": "hospital", "healthcare": "hospital", "name": "BM Hospital", "phone": "044-22670277", "website": "https://bmhospitals.com/", "wheelchair": "limited"}}, {"type": "node", "id": 311429396, "lat": 12.973463, "lon": 80.1841397, "tags": {"addr:district": "Kanchipuram", "addr:full": "5, Sarwamangala Nagar, Nanganallur", "addr:postcode": "600061", "addr:state": "Tamil Nadu", "amenity": "hospital", "healthcare": "hospital", "name": "K.F. Hospital", "source": "OpenGovernmentData"}}, {"type": "node", "id": 312000326, "lat": 13.0061338, "lon": 80.239884, "tags": {"amenity": "hospital", "healthcare": "hospital", "name": "Cancer Institute"}}, {"type": "node", "id": 312012051, "lat": 13.0040368, "lon": 80.2397078}, {"type": "node", "id": 312012168, "lat": 13.0043431, "lon": 80.2389762}, {"type": "node", "id": 312012177, "lat": 13.0067952, "lon": 80.2396983}, {"type": "node", "id": 312012302, "lat": 13.005289, "lon": 80.2392002}, {"type": "node", "id": 367795605, "lat": 13.0122733, "lon": 80.196428, "tags": {"addr:district": "Kanchipuram", "addr:full": "No. 5, 105, Defence Colony 1st Ave, Seven Wells, St.Thomas Mount", "addr:postcode": "600016", "addr:state": "Tamil Nadu", "amenity": "hospital", "healthcare": "hospital", "name": "St. Thomas Hospital", "source": "OpenGovernmentData"}}, {"type": "node", "id": 370495279, "lat": 13.0093121, "lon": 80.1948437}, {"type": "node", "id": 370495280, "lat": 13.0094878, "lon": 80.1948437}, {"type": "node", "id": 370495281, "lat": 13.0095212, "lon": 80.1946205}, {"type": "node", "id": 370495282, "lat": 13.009839, "lon": 80.1946291}, {"type": "node", "id": 370495283, "lat": 13.0098094, "lon": 80.1954082}, {"type": "node", "id": 370495284, "lat": 13.0093707, "lon": 80.195399}, {"type": "node", "id": 370967673, "lat": 13.009781, "lon": 80.1949734, "tags": {"amenity": "hospital", "healthcare": "hospital"}}, {"type": "node", "id": 442508332, "lat": 12.9653846, "lon": 80.2067733, "tags": {"amenity": "hospital", "healthcare": "hospital", "name": "Sarswathi Hospital", "wheelchair": "yes"}}, {"type": "node", "id": 1275650594, "lat": 12.9632493, "lon": 80.2463534}, {"type": "node", "id": 1453588718, "lat": 12.9626644, "lon": 80.2460453}, {"type": "node", "id": 1453588719, "lat": 12.9628992, "lon": 80.2451264}, {"type": "node", "id": 1453588722, "lat": 12.9634505, "lon": 80.2452832}, {"type": "node", "id": 1789987574, "lat": 12.9799192, "lon": 80.2044922, "tags": {"addr:street": "44, Shakti Nagar Main Road, Adambakkam, Balaji Nagar, Adambakkam, Chennai, Tamil Nadu 600088", "amenity": "hospital", "healthcare": "hospital", "name": "Prime Care Nursing Home"}}, {"type": "node", "id": 1919927002, "lat": 13.0134825, "lon": 80.2394549}, {"type": "node", "id": 1919927014, "lat": 13.0135188, "lon": 80.239154}, {"type": "node", "id": 1919927040, "lat": 13.0136446, "lon": 80.2393509}, {"type": "node", "id": 1919927049, "lat": 13.0136645, "lon": 80.2392948}, {"type": "node", "id": 1919927051, "lat": 13.0136676, "lon": 80.2392689}, {"type": "node", "id": 1919927053, "lat": 13.0136883, "lon": 80.2392715}, {"type": "node", "id": 1919927056, "lat": 13.0136997, "lon": 80.239177}, {"type": "node", "id": 1919927062, "lat": 13.0137076, "lon": 80.2393589}, {"type": "node", "id": 1919927070, "lat": 13.0137146, "lon": 80.2393012}, {"type": "node", "id": 1919927083, "lat": 13.0137784, "lon": 80.2394925}, {"type": "node", "id": 1919927085, "lat": 13.0137869, "lon": 80.2394222}, {"type": "node", "id": 1993266486, "lat": 12.9800456, "lon": 80.2286587, "tags": {"amenity": "hospital", "healthcare": "hospital", "name": "Ortho clinic"}}, {"type": "node", "id": 2086712439, "lat": 12.9559409, "lon": 80.1855637, "tags": {"amenity": "hospital", "healthcare": "hospital"}}, {"type": "node", "id": 2120763195, "lat": 12.9933638, "lon": 80.2009134, "tags": {"addr:district": "Kanchipuram", "addr:full": "No 11, Vellalar 1st Street, Adambakkam", "addr:postcode": "600088", "addr:state": "Tamil Nadu", "amenity": "hospital", "emergency": "yes", "healthcare": "hospital", "name": "SP Hospital", "source": "OpenGovernmentData"}}, {"type": "node", "id": 2124734395, "lat": 12.9321684, "lon": 80.2337388, "tags": {"amenity": "hospital", "name": "Fourtts India Laboratories"}}, {"type": "node", "id": 2126461371, "lat": 12.9837958, "lon": 80.1932105, "tags": {"addr:district": "Chennai", "addr:full": "No. 13, 7Th Street,Nanganallur", "addr:postcode": "600001", "addr:state": "Tamil Nadu", "amenity": "hospital", "healthcare": "hospital", "name": "Rotary Central Margaret Sidney Hospital", "source": "OpenGovernmentData"}}, {"type": "node", "id": 2145405955, "lat": 12.9786524, "lon": 80.1850278, "tags": {"addr:city": "Chennai", "amenity": "hospital", "healthcare": "hospital", "name": "Sri Chakra Hospital"}}, {"type": "node", "id": 2253361647, "lat": 12.9842586, "lon": 80.1886083, "tags": {"amenity": "hospital", "healthcare": "hospital", "name": "Dr. Janardhanan Multispeciality Dental Clinic"}}, {"type": "node", "id": 2299085689, "lat": 12.9772356, "lon": 80.1884063}, {"type": "node", "id": 2299085690, "lat": 12.9775289, "lon": 80.1884332}, {"type": "node", "id": 2299085691, "lat": 12.9775414, "lon": 80.1882459}, {"type": "node", "id": 2299085692, "lat": 12.9772853, "lon": 80.1882325}, {"type": "node", "id": 2517035814, "lat": 12.9658002, "lon": 80.191882, "tags": {"addr:district": "Kanchipuram", "addr:full": "No: 683/5, Mahalingam Street ( Near Sbi ) Madipakkam", "addr:postcode": "600091", "addr:state": "Tamil Nadu", "amenity": "hospital", "healthcare": "hospital", "name": "Vasan Eye care", "source": "OpenGovernmentData"}}, {"type": "node", "id": 2669702938, "lat": 12.9710287, "lon": 80.2082964, "tags": {"addr:city": "Chennai", "addr:housename": "Sukrthi Nursing Home", "addr:housenumber": "21", "addr:postcode": "600091", "addr:street": "Mullai Street", "amenity": "hospital", "emergency": "yes", "healthcare": "hospital", "name": "Sukrthi Nursing Home"}}, {"type": "node", "id": 3372786283, "lat": 12.9862735, "lon": 80.2298924, "tags": {"addr:postcode": "600042", "amenity": "hospital", "healthcare": "hospital", "is_in": "Velachery;Chennai;TN;Tamilnadu", "name": "Velachery SABA Hospital"}}, {"type": "node", "id": 3602354635, "lat": 13.0073187, "lon": 80.2059344}, {"type": "node", "id": 3602354636, "lat": 13.0073406, "lon": 80.2062443}, {"type": "node", "id": 3602354643, "lat": 13.0074229, "lon": 80.2059262}, {"type": "node", "id": 3602354648, "lat": 13.0074851, "lon": 80.2062398}, {"type": "node", "id": 3604843264, "lat": 12.9856116, "lon": 80.2289334}, {"type": "node", "id": 3604843266, "lat": 12.9856165, "lon": 80.2288831}, {"type": "node", "id": 3604843284, "lat": 12.9857044, "lon": 80.2289429}, {"type": "node", "id": 3604843287, "lat": 12.9857093, "lon": 80.2288927}, {"type": "node", "id": 3606874346, "lat": 12.9855188, "lon": 80.2183753}, {"type": "node", "id": 3606874348, "lat": 12.9855221, "lon": 80.2184829}, {"type": "node", "id": 3606874517, "lat": 12.9856513, "lon": 80.2182846}, {"type": "node", "id": 3606874518, "lat": 12.985654, "lon": 80.2183709}, {"type": "node", "id": 3606874531, "lat": 12.9857021, "lon": 80.2182829}, {"type": "node", "id": 3606874533, "lat": 12.985708, "lon": 80.2184769}, {"type": "node", "id": 3683910119, "lat": 12.9808674, "lon": 80.1871242}, {"type": "node", "id": 3683910120, "lat": 12.9808749, "lon": 80.1871549}, {"type": "node", "id": 3683910121, "lat": 12.9809103, "lon": 80.1870668}, {"type": "node", "id": 3683910122, "lat": 12.9810196, "lon": 80.1871618}, {"type": "node", "id": 3683910123, "lat": 12.9810232, "lon": 80.1870716}, {"type": "node", "id": 3687685030, "lat": 12.9764429, "lon": 80.2221405}, {"type": "node", "id": 3687685031, "lat": 12.976479, "lon": 80.2221924}, {"type": "node", "id": 3687685032, "lat": 12.976426, "lon": 80.2222414}, {"type": "node", "id": 3687685033, "lat": 12.9763889, "lon": 80.222185}, {"type": "node", "id": 3687685034, "lat": 12.9764202, "lon": 80.2221583}, {"type": "node", "id": 3687711447, "lat": 12.9767775, "lon": 80.2223505, "tags": {"amenity": "hospital", "healthcare": "hospital", "name": "Kaya Skin clinic"}}, {"type": "node", "id": 3755137037, "lat": 12.9496755, "lon": 80.2085052}, {"type": "node", "id": 3755137038, "lat": 12.9494353, "lon": 80.2099965}, {"type": "node", "id": 3755137039, "lat": 12.9487987, "lon": 80.2097161}, {"type": "node", "id": 3755137040, "lat": 12.9489098, "lon": 80.2083204}, {"type": "node", "id": 3876121221, "lat": 12.9493365, "lon": 80.209953}, {"type": "node", "id": 4329387869, "lat": 12.9733792, "lon": 80.187599, "tags": {"addr:city": "nanganallur", "addr:district": "Kanchipuram", "addr:full": "11/77, Voltas Colony,6Th Street Nanganallur- 61", "addr:housenumber": "11/77", "addr:postcode": "600061", "addr:state": "Tamil Nadu", "addr:street": "6th street,voltas colony", "amenity": "hospital", "emergency": "yes", "healthcare": "hospital", "name": "Srinivasan Rajalakshmi Memorial Hospital", "operator": "Dr. S.Krishnan , MD.RT, Dr. Mrs. P. Radha [MD]", "operator:type": "private", "phone": "+91 98401 17136, +91 44 4504 6010", "source": "OpenGovernmentData", "wheelchair": "yes"}}, {"type": "node", "id": 4644225942, "lat": 13.0074492, "lon": 80.2059613}, {"type": "node", "id": 4644225943, "lat": 13.0074515, "lon": 80.2060549}, {"type": "node", "id": 4644225944, "lat": 13.007469, "lon": 80.206071}, {"type": "node", "id": 4644225945, "lat": 13.0074809, "lon": 80.2061687}, {"type": "node", "id": 4644225946, "lat": 13.0074635, "lon": 80.2061644}, {"type": "node", "id": 4644225947, "lat": 13.0074607, "lon": 80.2061424}, {"type": "node", "id": 4644225948, "lat": 13.0074764, "lon": 80.2061364}, {"type": "node", "id": 4764302980, "lat": 13.0135999, "lon": 80.2395364, "tags": {"amenity": "hospital", "name": "HEALTH"}}, {"type": "node", "id": 5570522545, "lat": 12.9856999, "lon": 80.2293536, "tags": {"addr:street": "Gandhi Road", "amenity": "hospital", "healthcare": "hospital", "is_in": "Velachery;Chennai;Tamilnadu;TN;India;IN", "name": "ARK Hospital"}}, {"type": "node", "id": 5792664046, "lat": 12.9794, "lon": 80.2043658, "tags": {"addr:street": "68, 18th St, Balaji Nagar Extn-II, Vanuvampet, Madipakkam, Chennai, Tamil Nadu 600088", "amenity": "hospital", "healthcare": "hospital", "name": "Qure Ortho Clinic, Physiotherapy, X Ray & Pharmacy", "opening_hours": "Mo-Su 08:00-22:00", "phone": "095000 06644"}}, {"type": "node", "id": 5988132878, "lat": 12.9488105, "lon": 80.2095679}, {"type": "node", "id": 6914880539, "lat": 12.9789449, "lon": 80.2246302, "tags": {"addr:district": "Chennai", "addr:full": "No 6 12Th Cross Steet Dhandeeswaram Nagar Velachery", "addr:postcode": "600042", "addr:state": "Tamil Nadu", "amenity": "hospital", "healthcare": "hospital", "name": "Chennai Eye Care Hospital", "source": "OpenGovernmentData"}}, {"type": "node", "id": 6915201226, "lat": 12.9855882, "lon": 80.2189144, "tags": {"addr:district": "Chennai", "addr:full": "No.39, Rajalakhsmi Nagar", "addr:postcode": "600042", "addr:state": "Tamil Nadu", "amenity": "hospital", "healthcare": "hospital", "name": "Helios Hospital Pvt Ltd", "source": "OpenGovernmentData"}}, {"type": "node", "id": 6916036803, "lat": 12.9644392, "lon": 80.187601, "tags": {"addr:district": "Kanchipuram", "addr:full": "No. 20, Medavakkam Main Road, Madipakkam", "addr:postcode": "600091", "addr:state": "Tamil Nadu", "addr:street": "Mount - Medavakkam Road", "amenity": "hospital", "healthcare": "hospital", "name": "Divya Hospital", "source": "OpenGovernmentData", "website": "http://chennaipregnancycare.blogspot.com/"}}, {"type": "node", "id": 6926049961, "lat": 12.9779713, "lon": 80.1883923, "tags": {"addr:district": "Kanchipuram", "addr:full": "18, 6Th Street Lakshmi Nagar, Nanganallur Chennai", "addr:postcode": "600061", "addr:state": "Tamil Nadu", "amenity": "hospital", "healthcare": "hospital", "name": "Gowri Nursing Home, Kanchipuram", "source": "OpenGovernmentData"}}, {"type": "node", "id": 6926173267, "lat": 13.0012687, "lon": 80.2001283, "tags": {"addr:district": "Kanchipuram", "addr:full": "Ii Gst Road, St. Thomas Mount", "addr:postcode": "600016", "addr:state": "Tamil Nadu", "amenity": "hospital", "healthcare": "hospital", "name": "Cu Shah Sankara Netralaya", "source": "OpenGovernmentData"}}, {"type": "node", "id": 6926437476, "lat": 12.9569773, "lon": 80.1867561, "tags": {"addr:district": "Kanchipuram", "addr:full": "No.56 Medavaakkam Main Raod Keelkattalai", "addr:postcode": "600045", "addr:state": "Tamil Nadu", "amenity": "hospital", "healthcare": "hospital", "name": "Grace Multipeciality Hospital", "source": "OpenGovernmentData"}}, {"type": "node", "id": 6926494055, "lat": 12.9952982, "lon": 80.2068955, "tags": {"addr:district": "Chennai", "addr:full": "#12/6, City Link Road, Near NGO Colony Bus Stand", "addr:postcode": "600088", "addr:state": "Tamil Nadu", "addr:subdistrict": "Adambakkam", "amenity": "hospital", "email": "grhospital@gmail.com", "healthcare": "hospital", "name": "G. R. Hospital & Fertility Centre", "operator:type": "private", "source": "OpenGovernmentData", "website": "http://www.grfertilitycentre.com/"}}, {"type": "node", "id": 6926953024, "lat": 12.9911179, "lon": 80.1986745, "tags": {"addr:district": "Kanchipuram", "addr:full": "No 3, Near Jayalakshmi Cinema Hall & St Thomas Mount Railway Station, Medavakkam Main Road, Adambakkam, Chennai - 600088", "addr:postcode": "600088", "addr:state": "Tamil Nadu", "amenity": "hospital", "healthcare": "hospital", "name": "K P Childrens Hospital And Neuro Centre", "source": "OpenGovernmentData"}}, {"type": "node", "id": 6928094720, "lat": 12.9762711, "lon": 80.2222002, "tags": {"addr:district": "Chennai", "addr:full": "No.-4, 100 Feet Road, Tansi Nagar, Velachery", "addr:postcode": "600042", "addr:state": "Tamil Nadu", "amenity": "hospital", "healthcare": "hospital", "name": "Athipathi Hospital and Research Centre", "source": "OpenGovernmentData"}}, {"type": "node", "id": 6928936148, "lat": 12.9832366, "lon": 80.217509, "tags": {"addr:district": "Chennai", "addr:full": "27, 100 Feet Road, Taramani Link Road, Velacherry", "addr:postcode": "600042", "addr:state": "Tamil Nadu", "amenity": "hospital", "healthcare": "hospital", "name": "Dr.Agarwals Eye Hospital - Velacherry", "operator": "Dr. Agarwal's Eye Hospital", "operator:type": "private", "operator:wikidata": "Q17052044", "source": "OpenGovernmentData"}}, {"type": "node", "id": 6928936149, "lat": 12.9827844, "lon": 80.1891661, "tags": {"addr:city": "Chennai", "addr:district": "Kanchipuram", "addr:full": "Ophthalmology Department, Margaret Sydney Hospital, 13,2nd Street, Nanganallur", "addr:postcode": "600061", "addr:state": "Tamil Nadu", "amenity": "hospital", "healthcare": "hospital", "name": "Dr.Agarwal's Eye Hospital Ltd, Nanganallur", "source": "OpenGovernmentData"}}, {"type": "node", "id": 6929266356, "lat": 12.9326457, "lon": 80.2320063, "tags": {"addr:district": "Kanchipuram", "addr:full": "168, Chandrasekaran Avenue, O.M.R, Thoraipakkam , Opposite To P.T.C Bus Stop", "addr:postcode": "600096", "addr:state": "Tamil Nadu", "amenity": "hospital", "healthcare": "hospital", "name": "Nanthini Hospital", "source": "OpenGovernmentData"}}, {"type": "node", "id": 6929372896, "lat": 12.9823277, "lon": 80.1937835, "tags": {"addr:district": "Chennai", "addr:full": "72, I Main Road,Naganallur", "addr:housenumber": "72", "addr:postcode": "600061", "addr:state": "Tamil Nadu", "addr:street": "Nanganallur 1st Main Road", "amenity": "hospital", "healthcare": "hospital", "name": "Bharath Hospital", "opening_hours": "24/7", "phone": "+91 44 2224 6481;+91 44 2224 6789;+91 98419 72378", "source": "OpenGovernmentData", "website": "http://www.bharathhospital.in"}}, {"type": "node", "id": 6934031649, "lat": 12.9652266, "lon": 80.1927643, "tags": {"addr:district": "Kanchipuram", "addr:full": "#.39, Sabari Salai,Madipakkam", "addr:postcode": "600091", "addr:state": "Tamil Nadu", "amenity": "hospital", "healthcare": "hospital", "name": "Sri G.M. Hospital", "source": "OpenGovernmentData"}}, {"type": "node", "id": 6934061609, "lat": 12.97853, "lon": 80.1851381, "tags": {"addr:district": "Kancheepuram", "addr:full": "Chennai, No 1 Civil Aviation Colony, 100 Feet Road, Nanganallur", "addr:postcode": "600061", "addr:state": "Tamil Nadu", "addr:subdistrict": "Tambaram", "amenity": "hospital", "healthcare": "hospital", "name": "Srichakara Multispeciality Hospital", "source": "OpenGovernmentData"}}, {"type": "node", "id": 6934163318, "lat": 12.9697917, "lon": 80.1904562, "tags": {"addr:district": "Kanchipuram", "addr:full": "Plot No. 5, Medavakkam Main Road, , Madipakkam,Near Madipakkam Koot Oad", "addr:postcode": "600091", "addr:state": "Tamil Nadu", "amenity": "hospital", "healthcare": "hospital", "name": "Sibi Hospital", "source": "OpenGovernmentData"}}, {"type": "node", "id": 6934186203, "lat": 12.9857914, "lon": 80.185987, "tags": {"addr:district": "Chennai", "addr:full": "No.1, 47th Street, 5th Main Road", "addr:postcode": "600 061", "addr:state": "Tamil Nadu", "addr:subdistrict": "Nanganallur", "amenity": "hospital", "email": "info@cmhospital.in", "healthcare": "hospital", "name": "Sri Venkateshwara`s C.M. Hospital", "operator:type": "private", "source": "OpenGovernmentData", "website": "https://cmhospital.in/"}}, {"type": "node", "id": 6934270989, "lat": 12.9637407, "lon": 80.1880047, "tags": {"addr:city": "Chennai", "addr:district": "Kanchipuram", "addr:full": "#23, Medavakkam Main Road ,Near K.K.Mahal ,Madipakkam", "addr:housenumber": "23", "addr:postcode": "600091", "addr:state": "Tamil Nadu", "addr:street": "Mount - Medavakkam Road", "amenity": "hospital", "email": "anjakha@yahoo.co.in", "healthcare": "hospital", "healthcare:speciality": "multi_speciality", "name": "Anjakha Hospital", "name:ta": "\u0b85\u0b9e\u0bcd\u0b9a\u0b95\u0bbe \u0bae\u0bb0\u0bc1\u0ba4\u0bcd\u0ba4\u0bc1\u0bb5\u0bae\u0ba9\u0bc8", "phone": "+91 44 2247 0405;+91 44 2247 0406", "source": "OpenGovernmentData", "website": "https://anjakhahospitals.com/"}}, {"type": "node", "id": 6934340601, "lat": 12.9784706, "lon": 80.2247932, "tags": {"addr:district": "Chennai", "addr:full": "40B, Tansi Nagar Vii St, Velachery", "addr:postcode": "600042", "addr:state": "Tamil Nadu", "amenity": "hospital", "healthcare": "hospital", "name": "Nandhini Hospital", "source": "OpenGovernmentData"}}, {"type": "node", "id": 6934340781, "lat": 13.0122123, "lon": 80.2235084, "tags": {"addr:district": "Dindigul", "addr:full": "4/12A, Anna Nagar,Palani", "addr:postcode": "624601", "addr:state": "Tamil Nadu", "amenity": "hospital", "name": "Palani Balaji Fertility Centre", "source": "OpenGovernmentData"}}, {"type": "node", "id": 6934340789, "lat": 12.9801472, "lon": 80.1835965, "tags": {"addr:district": "Kanchipuram", "addr:full": "C3, Hindu Colony, Nanganallur", "addr:postcode": "600061", "addr:state": "Tamil Nadu", "amenity": "hospital", "healthcare": "hospital", "name": "Pankajam Memorial Hospital", "source": "OpenGovernmentData"}}, {"type": "node", "id": 6935159758, "lat": 12.9673347, "lon": 80.1867983, "tags": {"addr:district": "Kanchipuram", "addr:full": "2/93, 2nd Main Rod, Ragavanagar, Madipakkam", "addr:postcode": "600091", "addr:state": "Tamil Nadu", "amenity": "hospital", "healthcare": "hospital", "name": "Thirimoorthys Heart Care Hospital", "source": "OpenGovernmentData"}}, {"type": "node", "id": 6936134766, "lat": 12.9498348, "lon": 80.1690781, "tags": {"addr:full": "No: 2, Iii Main Road, New Colony, Chrompet,Chennai", "amenity": "hospital", "healthcare": "hospital"}}, {"type": "node", "id": 6936271569, "lat": 12.9640779, "lon": 80.2461429, "tags": {"addr:district": "Kanchipuram", "addr:full": "5/91, Church Road, Perungudi, Near Andrew Yulex Colony, Chengalpattu", "addr:postcode": "600096", "addr:state": "Tamil Nadu", "amenity": "hospital", "name": "Sri Lakshmi Multi Speciality Hospital Pvt Ltd", "source": "OpenGovernmentData"}}, {"type": "node", "id": 6936663153, "lat": 12.9763914, "lon": 80.2114016, "tags": {"addr:district": "Chennai", "addr:full": "No.14, 10Th Cross Street , A.G.S.Colony, Velachery", "addr:postcode": "600042", "addr:state": "Tamil Nadu", "amenity": "hospital", "healthcare": "hospital", "name": "Velachery K S Hospital", "source": "OpenGovernmentData"}}, {"type": "node", "id": 6936684328, "lat": 12.9925116, "lon": 80.2061465, "tags": {"addr:district": "Kanchipuram", "addr:full": "#1, Kakkan Nagar 1st Main Road, Adambakkam", "addr:postcode": "600088", "addr:state": "Tamil Nadu", "amenity": "hospital", "name": "Ponmalligai Hospital Pvt Ltd", "source": "OpenGovernmentData"}}, {"type": "node", "id": 6936695177, "lat": 12.9833895, "lon": 80.2181782, "tags": {"addr:district": "Chennai", "addr:full": "7/14, 7Th Cross Street, Rajalakshmi Nagar, Velachery", "addr:postcode": "600042", "addr:state": "Tamil Nadu", "amenity": "hospital", "healthcare": "hospital", "name": "Xcellent Care Superspeciality Hospital", "source": "OpenGovernmentData"}}, {"type": "node", "id": 6937055902, "lat": 12.9758647, "lon": 80.2205016, "tags": {"addr:district": "Chennai", "addr:full": "Plot No. 191, 100 Feet By-Pass Road, Velacherry", "addr:postcode": "600042", "addr:state": "Tamil Nadu", "amenity": "hospital", "healthcare": "hospital", "name": "Appasamy Krishna Hospital and Medical Research Centre", "source": "OpenGovernmentData"}}, {"type": "node", "id": 7213394742, "lat": 12.9609724, "lon": 80.2421492, "tags": {"addr:district": "Chennai", "addr:full": "12/8, Phase-1, Thirumalai Nagar, Tirumalai Nagar, Perungudi", "addr:postcode": "600096", "addr:state": "Tamil Nadu", "amenity": "hospital", "name": "London Harley Street Women And Fertility Centre", "source": "OpenGovernmentData"}}, {"type": "node", "id": 7257421555, "lat": 12.9408644, "lon": 80.1828683, "tags": {"addr:block": "Chennai Zone I", "addr:district": "Chennai", "addr:full": "Near Kvb Bank, Medavakkam Main Rd, Rose Nagar, Kovilambakkam", "addr:postcode": "600117", "addr:state": "Tamil Nadu", "amenity": "hospital", "healthcare": "hospital", "name": "Arun Hospital", "source": "OpenGovernmentData"}}, {"type": "node", "id": 7257421582, "lat": 12.95866, "lon": 80.187198, "tags": {"addr:block": "Tambaram Mpty", "addr:district": "Kanchipuram", "addr:full": "No. 70, Medavakkam Main Road, Next To Subiksha Super Market, Keelkattalai, Chennai", "addr:postcode": "600117", "addr:state": "Tamil Nadu", "addr:subdistrict": "Tambaram", "amenity": "hospital", "healthcare": "hospital", "name": "Vijayam Hospital & Fertility Centre", "source": "OpenGovernmentData"}}, {"type": "node", "id": 7257421613, "lat": 13.0048164, "lon": 80.2025432, "tags": {"addr:block": "Chennai Zone Xii", "addr:district": "Chennai", "addr:full": "Near Rto Office, Alandhur, Sowri Street", "addr:postcode": "600016", "addr:state": "Tamil Nadu", "amenity": "hospital", "healthcare": "hospital", "name": "Government Hospital Alandur", "source": "OpenGovernmentData"}}, {"type": "node", "id": 7257421619, "lat": 12.9342227, "lon": 80.1807557, "tags": {"addr:block": "Tambaram Mpty", "addr:district": "Kancheepuram", "addr:full": "Vijayaraja Kalyana Mandapam, Kovilambakkam, Dhinakaran Street", "addr:postcode": "600117", "addr:state": "Tamil Nadu", "addr:subdistrict": "Tambaram", "amenity": "hospital", "healthcare": "hospital", "name": "T.K.R. Hospital", "source": "OpenGovernmentData"}}, {"type": "node", "id": 7652449746, "lat": 12.9645886, "lon": 80.1958518, "tags": {"amenity": "hospital", "description": "Child and General Physician", "emergency": "no", "healthcare": "hospital", "healthcare:speciality": "general", "name": "Malar Clinic", "operator": "Dr. Arun", "operator:type": "public"}}, {"type": "node", "id": 7822260009, "lat": 12.9319677, "lon": 80.2326252, "tags": {"addr:district": "Chengalpattu", "addr:full": "Bhagat Singh Nagar", "addr:postcode": "600097", "addr:state": "Tamil Nadu", "amenity": "hospital", "healthcare": "hospital", "name": "SV Hospital", "source": "Local Knowledge"}}, {"type": "node", "id": 7822260021, "lat": 12.9498749, "lon": 80.2381651, "tags": {"addr:district": "Chengalpattu", "addr:full": "Thoraipakkam", "addr:postcode": "600097", "addr:state": "Tamil Nadu", "amenity": "hospital", "name": "Jayam Hospital", "source": "Local Knowledge"}}, {"type": "node", "id": 7822260033, "lat": 12.9402236, "lon": 80.2412342, "tags": {"addr:district": "Chengalpattu", "addr:full": "Oggiyamduraipakkam", "addr:postcode": "600097", "addr:state": "Tamil Nadu", "amenity": "hospital", "name": "Dhanvantri Multi Speciality", "source": "Local Knowledge"}}, {"type": "node", "id": 7822543395, "lat": 12.9383762, "lon": 80.1725401, "tags": {"addr:district": "Chengalpattu", "addr:full": "Nanmangalam", "addr:postcode": "600117", "addr:state": "Tamil Nadu", "amenity": "hospital", "name": "Avinash Ortho Hospital", "source": "Local Knowledge"}}, {"type": "node", "id": 7822543424, "lat": 12.9296419, "lon": 80.2029589, "tags": {"addr:district": "Chengalpattu", "addr:full": "Pallikaranai", "addr:postcode": "600100", "addr:state": "Tamil Nadu", "amenity": "hospital", "healthcare": "hospital", "name": "Dr. Velmurugan Hospital", "source": "Local Knowledge"}}, {"type": "node", "id": 7822543430, "lat": 12.9344546, "lon": 80.1819961, "tags": {"addr:district": "Chengalpattu", "addr:full": "Medavakkam, Nanmangalam", "addr:postcode": "600117", "addr:state": "Tamil Nadu", "amenity": "hospital", "healthcare": "hospital", "name": "AM Hospital", "source": "Local Knowledge"}}, {"type": "node", "id": 7822543438, "lat": 12.9339688, "lon": 80.2041509, "tags": {"addr:district": "Chengalpattu", "addr:full": "Selvam Nagar, Pallikaranai", "addr:postcode": "600100", "addr:state": "Tamil Nadu", "amenity": "hospital", "healthcare": "hospital", "name": "Inbam Hospital", "source": "Local Knowledge"}}, {"type": "node", "id": 7822543444, "lat": 12.9393514, "lon": 80.1806898, "tags": {"addr:district": "Chengalpattu", "addr:full": "Nanmangalam", "addr:postcode": "600117", "addr:state": "Tamil Nadu", "amenity": "hospital", "healthcare": "hospital", "name": "Hindusthan Hospital", "source": "Local Knowledge"}}, {"type": "node", "id": 7822543452, "lat": 12.9379829, "lon": 80.1799993, "tags": {"addr:district": "Chengalpattu", "addr:full": "Vaithiyalingam Nagar, Nanmangalam", "addr:postcode": "600117", "addr:state": "Tamil Nadu", "amenity": "hospital", "healthcare": "hospital", "name": "RKP Hospital", "source": "Local Knowledge"}}, {"type": "node", "id": 7822543455, "lat": 12.928263, "lon": 80.200805, "tags": {"addr:district": "Chengalpattu", "addr:full": "Devi Karumariamman Nagar, Pallikaranai", "addr:postcode": "600100", "addr:state": "Tamil Nadu", "amenity": "hospital", "healthcare": "hospital", "name": "Muthu Multi Speciality Hospital and Pharmacy", "source": "Local Knowledge"}}, {"type": "node", "id": 7822543471, "lat": 12.935221, "lon": 80.181802, "tags": {"addr:district": "Chengalpattu", "addr:full": "Nehru Nagar, Nanmangalam", "addr:postcode": "600117", "addr:state": "Tamil Nadu", "amenity": "hospital", "healthcare": "hospital", "name": "Raj Joty Eye Hospital", "source": "Local Knowledge"}}, {"type": "node", "id": 7822543501, "lat": 12.9280452, "lon": 80.199546, "tags": {"addr:district": "Chengalpattu", "addr:full": "Pallikaranai", "addr:postcode": "600100", "addr:state": "Tamil Nadu", "amenity": "hospital", "healthcare": "hospital", "name": "V Cure Hospital", "source": "Local Knowledge"}}, {"type": "node", "id": 7822543505, "lat": 12.933726, "lon": 80.1811973, "tags": {"addr:district": "Chengalpattu", "addr:full": "Vellakkal", "addr:postcode": "600117", "addr:state": "Tamil Nadu", "amenity": "hospital", "healthcare": "hospital", "name": "V.S. Hospital", "source": "Local Knowledge"}}, {"type": "node", "id": 7823212573, "lat": 13.0087475, "lon": 80.1937172, "tags": {"addr:district": "Chengalpattu", "addr:postcode": "600016", "addr:state": "Tamil Nadu", "amenity": "hospital", "healthcare": "hospital", "name": "Rathna Hospital", "source": "Local Knowledge"}}, {"type": "node", "id": 7823212576, "lat": 13.0036449, "lon": 80.2030844, "tags": {"addr:district": "Chengalpattu", "addr:full": "Alandur", "addr:postcode": "600016", "addr:state": "Tamil Nadu", "amenity": "hospital", "healthcare": "hospital", "name": "S.S. Hospital", "source": "Local Knowledge"}}, {"type": "node", "id": 7823212579, "lat": 13.0017797, "lon": 80.2033269, "tags": {"addr:district": "Chengalpattu", "addr:full": "Alandu", "addr:postcode": "600016", "addr:state": "Tamil Nadu", "amenity": "hospital", "healthcare": "hospital", "name": "Dhanraj Hospital", "source": "Local Knowledge"}}, {"type": "node", "id": 7823212623, "lat": 13.0027883, "lon": 80.207025, "tags": {"addr:district": "Chengalpattu", "addr:full": "Alandur", "addr:postcode": "600016", "addr:state": "Tamil Nadu", "amenity": "hospital", "name": "Jaya Sri Hospital", "source": "Local Knowledge"}}, {"type": "node", "id": 7823212631, "lat": 13.003406, "lon": 80.2063632, "tags": {"addr:district": "Chengalpattu", "addr:full": "Alandur", "addr:postcode": "600016", "addr:state": "Tamil Nadu", "amenity": "hospital", "name": "Kaanthi Makapperu Hospital", "source": "Local Knowledge"}}, {"type": "node", "id": 8105683179, "lat": 13.0117736, "lon": 80.1941708, "tags": {"addr:street": "Mount Poonamalle High Rd, Seven Wells, St.Thomas Mount, Tamil Nadu 600016", "amenity": "hospital", "healthcare": "hospital", "name": "Military Hospital", "opening_hours": "24/7"}}, {"type": "node", "id": 8639896900, "lat": 12.9784544, "lon": 80.2214698, "tags": {"addr:city": "Chennai", "addr:housenumber": "36", "addr:postcode": "600042", "addr:street": "Velachery Main Road", "amenity": "hospital", "email": "info@prashanthhospitals.org", "healthcare": "hospital", "name": "Prashanth Hospitals", "phone": "+91 44 2243 9494;+91 44 4680 5544;+91 82962 63415", "website": "https://prashanthhospitals.org"}}, {"type": "node", "id": 8714264559, "lat": 12.969558, "lon": 80.1850882}, {"type": "node", "id": 8714264560, "lat": 12.9694349, "lon": 80.185025}, {"type": "node", "id": 8714264561, "lat": 12.9693465, "lon": 80.1849803}, {"type": "node", "id": 8714264562, "lat": 12.9693174, "lon": 80.1851514}, {"type": "node", "id": 8714264563, "lat": 12.9693084, "lon": 80.1851938}, {"type": "node", "id": 8714264564, "lat": 12.9694998, "lon": 80.1852306}, {"type": "node", "id": 9808422677, "lat": 13.0136382, "lon": 80.2394032}, {"type": "node", "id": 11030701311, "lat": 12.9633686, "lon": 80.2457187}, {"type": "node", "id": 11782793599, "lat": 12.9622155, "lon": 80.159938, "tags": {"amenity": "hospital", "healthcare": "hospital", "name": "Sugam Hospital"}}, {"type": "node", "id": 12378706312, "lat": 12.9831959, "lon": 80.2013573, "tags": {"addr:city": "chennai", "addr:district": "chennai", "addr:housenumber": "14", "addr:postcode": "600088", "addr:street": "Vanalar Street", "amenity": "hospital", "healthcare": "hospital", "healthcare:speciality": "dermatovenereology", "name": "Dr Bala's Skin clinic", "operator": "Dr Balakumatan", "operator:type": "private"}}, {"type": "node", "id": 12534252943, "lat": 12.9492208, "lon": 80.2083955}, {"type": "node", "id": 12560767886, "lat": 12.9809491, "lon": 80.1871116, "tags": {"amenity": "hospital", "healthcare": "hospital"}}, {"type": "node", "id": 13155026101, "lat": 12.9810842, "lon": 80.2343492, "tags": {"addr:street": "Taramani Link Road", "amenity": "hospital", "name": "Good Shepard hospital", "opening_hours": "24/7"}}, {"type": "way", "id": 28404807, "nodes": [312012051, 312012168, 312012302, 312012177, 268791446, 268791520, 312012051], "tags": {"amenity": "hospital", "healthcare": "hospital"}}, {"type": "way", "id": 32896904, "nodes": [370495279, 370495280, 370495281, 370495282, 370495283, 370495284, 370495279], "tags": {"amenity": "hospital", "healthcare": "hospital", "name": "Cantonment General Hospital"}}, {"type": "way", "id": 132073184, "nodes": [1453588719, 1453588722, 11030701311, 1275650594, 1453588718, 1453588719], "tags": {"amenity": "hospital", "emergency": "yes", "name": "Apollo Hospital"}}, {"type": "way", "id": 181579506, "nodes": [1919927014, 1919927002, 1919927083, 1919927085, 9808422677, 1919927040, 1919927062, 1919927070, 1919927049, 1919927051, 1919927053, 1919927056, 1919927014], "tags": {"amenity": "hospital", "building": "yes", "healthcare": "hospital", "name": "Health Centre"}}, {"type": "way", "id": 220821765, "nodes": [2299085691, 2299085690, 2299085689, 2299085692, 2299085691], "tags": {"addr:city": "Chennai", "addr:street": "100ft Road", "amenity": "hospital", "healthcare": "hospital", "name": "Gowri Nursing Home"}}, {"type": "way", "id": 354540004, "nodes": [3602354643, 4644225942, 4644225943, 4644225944, 4644225948, 4644225947, 4644225946, 4644225945, 3602354648, 3602354636, 3602354635, 3602354643], "tags": {"addr:district": "Chennai", "addr:full": "No. 1, Lawyer Jaganathan Street, Guindy", "addr:postcode": "600032", "addr:state": "Tamil Nadu", "addr:street": "Anna Salai (Mount Road)", "amenity": "hospital", "building": "yes", "name": "Balaji Hospital (P) Ltd", "source": "OpenGovernmentData", "website": "https://sribalajihospital.com/"}}, {"type": "way", "id": 354810486, "nodes": [3604843284, 3604843264, 3604843266, 3604843287, 3604843284], "tags": {"amenity": "hospital", "building": "yes", "comment": "Private Nursing home", "healthcare": "hospital"}}, {"type": "way", "id": 355074781, "nodes": [3606874531, 3606874533, 3606874348, 3606874346, 3606874518, 3606874517, 3606874531], "tags": {"addr:street": "7th Cross Street, Rajalaksmi nagar", "amenity": "hospital", "building": "yes", "emergency": "yes", "name": "Xcellent Care Hospital", "operator": "Xcellent Care Super Speciality Hospital ( P ) Ltd.", "website": "http://xcellentcarehospital.com"}}, {"type": "way", "id": 364356223, "nodes": [3683910123, 3683910122, 3683910120, 3683910119, 3683910121, 3683910123], "tags": {"addr:city": "Chennai", "addr:district": "Chennai", "addr:housenumber": "No 6", "addr:postcode": "600061", "addr:street": "Nanganallur 6th Main Road", "amenity": "hospital", "description": "Diha Clinic is the best multispeciality hospital in Nanganallur, Chennai, offering expert care across specialties at an affordable price and with low waiting times.", "emergency": "yes", "healthcare": "hospital", "healthcare:speciality": "general;paediatrics;emergency;dermatology;otolaryngology;blood_check;orthopaedics;diabetology;gynaecology", "mobile": "+91 80565 80565", "name": "Diha Clinic", "operator": "Diha Trust", "operator:type": "private", "phone": "044 46878787", "website": "https://dihaclinic.org/"}}, {"type": "way", "id": 364721502, "nodes": [3687685030, 3687685031, 3687685032, 3687685033, 3687685034, 3687685030], "tags": {"amenity": "hospital", "healthcare": "hospital", "name": "Athipathy Hospitals"}}, {"type": "way", "id": 371970672, "nodes": [3755137037, 3755137038, 3876121221, 3755137039, 5988132878, 3755137040, 12534252943, 3755137037], "tags": {"addr:district": "Kancheepuram", "addr:full": "1,Radial Road , Pallikaranai Chennai-100", "addr:postcode": "600100", "addr:state": "Tamil Nadu", "addr:subdistrict": "Sholinganallur", "amenity": "hospital", "emergency": "yes", "healthcare": "hospital", "name": "Dr.Kamakshi Memorial Hospital", "source": "OpenGovernmentData"}}, {"type": "way", "id": 940932459, "nodes": [8714264559, 8714264560, 8714264561, 8714264562, 8714264563, 8714264564, 8714264559], "tags": {"amenity": "hospital", "healthcare": "hospital"}}]}