{"version": 0.6, "generator": "Overpass API 0.7.62.8 e802775f", "osm3s": {"timestamp_osm_base": "2026-01-16T01:45:26Z", "copyright": "The data included in this document is from www.openstreetmap.org. The data is made available under ODbL."}, "elements": [{"type": "node", "id": 265614584, "lat": 46.5031104, "lon": 6.6829669}, {"type": "node", "id": 431055445, "lat": 46.5027095, "lon": 6.6823678}, {"type": "node", "id": 431055446, "lat": 46.5031052, "lon": 6.6827424}, {"type": "node", "id": 431055447, "lat": 46.5030516, "lon": 6.6828654}, {"type": "node", "id": 431055449, "lat": 46.5024989, "lon": 6.6823569}, {"type": "node", "id": 431055450, "lat": 46.5025781, "lon": 6.6821751}, {"type": "node", "id": 431055451, "lat": 46.502732, "lon": 6.6823159}, {"type": "node", "id": 431055456, "lat": 46.5028227, "lon": 6.6817973}, {"type": "node", "id": 431055458, "lat": 46.5028903, "lon": 6.6822231}, {"type": "node", "id": 431055459, "lat": 46.5028199, "lon": 6.6821579}, {"type": "node", "id": 431055462, "lat": 46.5029941, "lon": 6.6819865}, {"type": "node", "id": 432512811, "lat": 46.5024565, "lon": 6.6823744}, {"type": "node", "id": 446014702, "lat": 46.5030228, "lon": 6.6826638}, {"type": "node", "id": 1033416513, "lat": 46.5034266, "lon": 6.6822359}, {"type": "node", "id": 1033416584, "lat": 46.5027709, "lon": 6.6816608}, {"type": "node", "id": 1036362621, "lat": 46.5026874, "lon": 6.6821035}, {"type": "node", "id": 4190694840, "lat": 46.5027986, "lon": 6.6822072}, {"type": "node", "id": 4190694842, "lat": 46.5029237, "lon": 6.6819214}, {"type": "node", "id": 4190694843, "lat": 46.5029345, "lon": 6.6818954}, {"type": "node", "id": 4190694845, "lat": 46.5028346, "lon": 6.6818088}, {"type": "node", "id": 7240967813, "lat": 46.5026348, "lon": 6.6822273}, {"type": "node", "id": 7240967814, "lat": 46.5027638, "lon": 6.6821748}, {"type": "node", "id": 7240967815, "lat": 46.5026788, "lon": 6.6822674}, {"type": "node", "id": 7240967816, "lat": 46.5026395, "lon": 6.6822316}, {"type": "node", "id": 7240967817, "lat": 46.5027234, "lon": 6.6821371}, {"type": "node", "id": 8221616302, "lat": 46.5059, "lon": 6.6737347, "tags": {"addr:city": "Paudex", "addr:postcode": "1094", "addr:street": "Route de la Bordinette", "amenity": "school", "grades": "1-4", "name": "Coll\u00e8ge de Paudex", "opening_hours": "Mo-Fr 08:25-15:20", "operator": "Commune de Paudex", "operator:type": "public", "website": "https://www.ep-ppb.ch/batiment/paudex/"}}, {"type": "node", "id": 9758829925, "lat": 46.5032854, "lon": 6.682112}, {"type": "way", "id": 24927807, "nodes": [265614584, 432512811, 1033416584, 9758829925, 1033416513, 265614584], "tags": {"amenity": "school", "check_date": "2024-10-14", "name": "Coll\u00e8ge du Grand Pont"}}, {"type": "way", "id": 37064249, "nodes": [431055445, 446014702, 431055446, 431055447, 431055449, 431055450, 7240967813, 7240967816, 7240967815, 431055451, 431055445], "tags": {"addr:city": "Lutry", "addr:country": "CH", "addr:housenumber": "27", "addr:postcode": "1095", "addr:street": "Route du Grand Pont", "amenity": "school", "building": "yes", "source": "OrthoPhoto PULLY swisstopo Level 2"}}, {"type": "way", "id": 37064250, "nodes": [4190694840, 7240967814, 7240967817, 1036362621, 431055456, 4190694845, 4190694843, 4190694840], "tags": {"addr:city": "Lutry", "addr:country": "CH", "amenity": "school", "building": "yes", "layer": "1"}}, {"type": "way", "id": 37064251, "nodes": [431055458, 431055459, 4190694842, 431055462, 431055458], "tags": {"addr:city": "Lutry", "addr:country": "CH", "amenity": "school", "building": "yes", "layer": "1"}}]}