{"version": 0.6, "generator": "Overpass API 0.7.62.8 e802775f", "osm3s": {"timestamp_osm_base": "2026-01-12T19:34:19Z", "copyright": "The data included in this document is from www.openstreetmap.org. The data is made available under ODbL."}, "elements": [{"type": "node", "id": 521157737, "lat": 13.0489776, "lon": 77.5507923}, {"type": "node", "id": 521157739, "lat": 13.0489776, "lon": 77.5502073}, {"type": "node", "id": 521157742, "lat": 13.0494033, "lon": 77.5516365}, {"type": "node", "id": 521157744, "lat": 13.0490281, "lon": 77.5511922}, {"type": "node", "id": 521157746, "lat": 13.0500886, "lon": 77.5506812}, {"type": "node", "id": 521157748, "lat": 13.0501823, "lon": 77.5510737}, {"type": "node", "id": 529453448, "lat": 13.0498518, "lon": 77.5561492}, {"type": "node", "id": 529453449, "lat": 13.0498678, "lon": 77.5573932}, {"type": "node", "id": 529453453, "lat": 13.0508256, "lon": 77.5573802}, {"type": "node", "id": 529453454, "lat": 13.0508096, "lon": 77.5561362}, {"type": "node", "id": 1462232206, "lat": 13.0806193, "lon": 77.5482263, "tags": {"amenity": "hospital", "name": "London Hospital"}}, {"type": "node", "id": 1463452754, "lat": 13.0829889, "lon": 77.5489026, "tags": {"addr:district": "Bengaluru Urban", "addr:full": "M S Palya, Bharath Nagar,Hesaraghatta Main Road,Vidyaranyapura Post", "addr:postcode": "560097", "addr:state": "Karnataka", "amenity": "hospital", "name": "Nagappa Hadli Hospital", "name:kn": "\u0ca8\u0cbe\u0c97\u0caa\u0ccd\u0caa \u0cb9\u0ca6\u0ccd\u0cb2\u0cbf", "source": "OpenGovernmentData"}}, {"type": "node", "id": 1463656830, "lat": 13.0686568, "lon": 77.5582571, "tags": {"addr:district": "Bengaluru Urban", "addr:full": "# 50/2, Vidyaranyapura, Nanjappa Main Road", "addr:postcode": "560097", "addr:state": "Karnataka", "amenity": "hospital", "check_date": "2025-08-09", "name": "Ketham's Hospital Pvt. Ltd", "source": "OpenGovernmentData"}}, {"type": "node", "id": 1464742684, "lat": 13.0425433, "lon": 77.5155377, "tags": {"amenity": "hospital", "name": "Ragavendra Hospital", "name:kn": "\u0cb0\u0cbe\u0c98\u0cb5\u0cc7\u0c82\u0ca6\u0ccd\u0cb0 \u0c86\u0cb8\u0ccd\u0caa\u0ca4\u0ccd\u0cb0\u0cc6"}}, {"type": "node", "id": 1871539757, "lat": 13.0372438, "lon": 77.5648754, "tags": {"addr:district": "Bengaluru Urban", "addr:full": "No 519 2nd Nain Netravathystreet, Devasandra, New Bel Road", "addr:postcode": "560054", "addr:state": "Karnataka", "amenity": "hospital", "emergency": "yes", "name": "Shirdi Sai Hospital", "name:kn": "\u0cb6\u0cbf\u0cb0\u0ca1\u0cbf \u0cb8\u0cbe\u0caf\u0cbf \u0c86\u0cb8\u0ccd\u0caa\u0ca4\u0ccd\u0cb0\u0cc6", "operator:type": "private", "source": "OpenGovernmentData", "website": "http://shirdisaihospital.in/"}}, {"type": "node", "id": 2343099977, "lat": 13.0774744, "lon": 77.5587548, "tags": {"addr:district": "Bengaluru Urban", "addr:full": "17, Nti Layout, Vidyaranyapura", "addr:postcode": "560097", "addr:state": "Karnataka", "amenity": "hospital", "healthcare": "hospital", "name": "Soukya Hospital", "source": "OpenGovernmentData"}}, {"type": "node", "id": 3371482289, "lat": 13.1252201, "lon": 77.5458002}, {"type": "node", "id": 3371482291, "lat": 13.1264609, "lon": 77.5459021}, {"type": "node", "id": 3371482292, "lat": 13.1263798, "lon": 77.5478601}, {"type": "node", "id": 3371493794, "lat": 13.1247708, "lon": 77.547667}, {"type": "node", "id": 3462836043, "lat": 13.0385872, "lon": 77.5273397}, {"type": "node", "id": 3462836044, "lat": 13.0388933, "lon": 77.5275031}, {"type": "node", "id": 3462836045, "lat": 13.0388203, "lon": 77.5276472}, {"type": "node", "id": 3462836053, "lat": 13.0386396, "lon": 77.5277282}, {"type": "node", "id": 3462836054, "lat": 13.0385605, "lon": 77.5278845}, {"type": "node", "id": 3462836055, "lat": 13.0384211, "lon": 77.5278102}, {"type": "node", "id": 3462836056, "lat": 13.038191, "lon": 77.5282644}, {"type": "node", "id": 3462836057, "lat": 13.0380418, "lon": 77.5281848}, {"type": "node", "id": 3462836058, "lat": 13.0383495, "lon": 77.5275774}, {"type": "node", "id": 3462836059, "lat": 13.0385573, "lon": 77.5275069}, {"type": "node", "id": 3462836060, "lat": 13.0384418, "lon": 77.5276267}, {"type": "node", "id": 3462836061, "lat": 13.0384866, "lon": 77.5276465}, {"type": "node", "id": 3462850452, "lat": 13.0386215, "lon": 77.527358, "tags": {"entrance": "yes"}}, {"type": "node", "id": 3670144843, "lat": 13.0701645, "lon": 77.5022256}, {"type": "node", "id": 3670144844, "lat": 13.0701971, "lon": 77.5027371}, {"type": "node", "id": 3670144845, "lat": 13.0702546, "lon": 77.5021479}, {"type": "node", "id": 3670144846, "lat": 13.0702591, "lon": 77.5022193}, {"type": "node", "id": 3670144847, "lat": 13.0704132, "lon": 77.5020941}, {"type": "node", "id": 3670144848, "lat": 13.0704159, "lon": 77.502137}, {"type": "node", "id": 3670144849, "lat": 13.0704721, "lon": 77.5020619}, {"type": "node", "id": 3670144850, "lat": 13.0704739, "lon": 77.50209}, {"type": "node", "id": 3670144851, "lat": 13.0705369, "lon": 77.5020272}, {"type": "node", "id": 3670144852, "lat": 13.0705386, "lon": 77.5020575}, {"type": "node", "id": 3670144853, "lat": 13.0705837, "lon": 77.5020965}, {"type": "node", "id": 3670144854, "lat": 13.0705895, "lon": 77.5021871}, {"type": "node", "id": 3670144855, "lat": 13.0705973, "lon": 77.502406}, {"type": "node", "id": 3670144856, "lat": 13.0705997, "lon": 77.5024426}, {"type": "node", "id": 3670144857, "lat": 13.0706155, "lon": 77.5026786}, {"type": "node", "id": 3670144858, "lat": 13.0706175, "lon": 77.5027089}, {"type": "node", "id": 3670144859, "lat": 13.0707326, "lon": 77.5023349}, {"type": "node", "id": 3670144860, "lat": 13.0707365, "lon": 77.5023966}, {"type": "node", "id": 3670144861, "lat": 13.0708575, "lon": 77.5020796}, {"type": "node", "id": 3670144862, "lat": 13.0708605, "lon": 77.5021299}, {"type": "node", "id": 3670144863, "lat": 13.0708875, "lon": 77.5019716}, {"type": "node", "id": 3670144864, "lat": 13.0708893, "lon": 77.5020053}, {"type": "node", "id": 3670144865, "lat": 13.070894, "lon": 77.5021278}, {"type": "node", "id": 3670144866, "lat": 13.070896, "lon": 77.5021665}, {"type": "node", "id": 3670144867, "lat": 13.0709042, "lon": 77.5023233}, {"type": "node", "id": 3670144868, "lat": 13.0709094, "lon": 77.5024227}, {"type": "node", "id": 3670144869, "lat": 13.0709235, "lon": 77.5026588}, {"type": "node", "id": 3670144870, "lat": 13.0709246, "lon": 77.5026789}, {"type": "node", "id": 3670144871, "lat": 13.070952, "lon": 77.501968}, {"type": "node", "id": 3670144872, "lat": 13.0709891, "lon": 77.5026753}, {"type": "node", "id": 3834145549, "lat": 13.0485382, "lon": 77.4806507}, {"type": "node", "id": 3834145560, "lat": 13.0487739, "lon": 77.4804445}, {"type": "node", "id": 3834145562, "lat": 13.0489207, "lon": 77.4801629}, {"type": "node", "id": 3834145563, "lat": 13.0489941, "lon": 77.4801352}, {"type": "node", "id": 3834145564, "lat": 13.0491447, "lon": 77.4801946}, {"type": "node", "id": 3834145577, "lat": 13.0499019, "lon": 77.4803652}, {"type": "node", "id": 3834145585, "lat": 13.0501897, "lon": 77.4805357}, {"type": "node", "id": 3834145590, "lat": 13.0504698, "lon": 77.4808153}, {"type": "node", "id": 3834145596, "lat": 13.0506745, "lon": 77.4810809}, {"type": "node", "id": 3834145608, "lat": 13.0509874, "lon": 77.4817967}, {"type": "node", "id": 3834145618, "lat": 13.0515553, "lon": 77.4819078}, {"type": "node", "id": 3834145620, "lat": 13.051621, "lon": 77.4818602}, {"type": "node", "id": 3834145622, "lat": 13.0516983, "lon": 77.4818721}, {"type": "node", "id": 3834145624, "lat": 13.0517601, "lon": 77.4819276}, {"type": "node", "id": 3834145641, "lat": 13.0525906, "lon": 77.4819514}, {"type": "node", "id": 5689372192, "lat": 13.0538314, "lon": 77.4822429}, {"type": "node", "id": 5689372193, "lat": 13.0526539, "lon": 77.4819059}, {"type": "node", "id": 6807793492, "lat": 13.0727251, "lon": 77.5032965}, {"type": "node", "id": 6807793493, "lat": 13.0727811, "lon": 77.5038082}, {"type": "node", "id": 6807793494, "lat": 13.0722993, "lon": 77.5038785}, {"type": "node", "id": 6807793495, "lat": 13.0722674, "lon": 77.5034994}, {"type": "node", "id": 6808389338, "lat": 13.0571444, "lon": 77.5086082}, {"type": "node", "id": 6808389339, "lat": 13.0571535, "lon": 77.5084004}, {"type": "node", "id": 6808389340, "lat": 13.0569784, "lon": 77.508399}, {"type": "node", "id": 6808389341, "lat": 13.056985, "lon": 77.508623}, {"type": "node", "id": 6808989940, "lat": 13.0483861, "lon": 77.5079625}, {"type": "node", "id": 6808989941, "lat": 13.0483561, "lon": 77.5080788}, {"type": "node", "id": 6808989942, "lat": 13.0483283, "lon": 77.5080757}, {"type": "node", "id": 6808989943, "lat": 13.0483201, "lon": 77.5081096}, {"type": "node", "id": 6808989944, "lat": 13.0483103, "lon": 77.5080911}, {"type": "node", "id": 6808989945, "lat": 13.0482976, "lon": 77.5080942}, {"type": "node", "id": 6808989946, "lat": 13.0482998, "lon": 77.5081081}, {"type": "node", "id": 6808989947, "lat": 13.0482811, "lon": 77.5081034}, {"type": "node", "id": 6808989948, "lat": 13.0482893, "lon": 77.5080564}, {"type": "node", "id": 6808989949, "lat": 13.0482518, "lon": 77.5080503}, {"type": "node", "id": 6808989950, "lat": 13.0482751, "lon": 77.508011}, {"type": "node", "id": 6808989951, "lat": 13.0482713, "lon": 77.5079925}, {"type": "node", "id": 6808989952, "lat": 13.0482608, "lon": 77.5079856}, {"type": "node", "id": 6808989953, "lat": 13.0482585, "lon": 77.5079648}, {"type": "node", "id": 6938864290, "lat": 13.0842019, "lon": 77.5308891, "tags": {"addr:district": "Bengaluru Urban", "addr:full": "#21/1, Lakshmipura Main Road,Vidyaranyapura,Opposite Lakshmipura Lake", "addr:postcode": "560097", "addr:state": "Karnataka", "amenity": "hospital", "name": "Rajalakshmi Hospital", "source": "OpenGovernmentData"}}, {"type": "node", "id": 6945050485, "lat": 13.0423919, "lon": 77.5136653, "tags": {"addr:district": "Bengaluru Urban", "addr:full": "No. 15, Drls Plaza, 1st Floor, Nh-4, Above Andhra Bank, T. Dasarahalli", "addr:postcode": "560057", "addr:state": "Karnataka", "amenity": "hospital", "name": "Sri Venkateshwara Eye Hospital", "source": "OpenGovernmentData"}}, {"type": "node", "id": 7202935849, "lat": 13.049152, "lon": 77.510442, "tags": {"addr:district": "Bangalore", "addr:full": "Nelamaheshwarinagar T DASARAHALLI", "addr:postcode": "560057", "addr:state": "Karnataka", "addr:subdistrict": "Bangalore North", "amenity": "hospital", "name": "NELAMAHESHWARI Government Hospital", "source": "OpenGovernmentData"}}, {"type": "node", "id": 7339722928, "lat": 13.0484436, "lon": 77.4825704}, {"type": "node", "id": 7339722929, "lat": 13.0476649, "lon": 77.4852365}, {"type": "node", "id": 7339722930, "lat": 13.0501185, "lon": 77.4857408}, {"type": "node", "id": 7339722931, "lat": 13.0503641, "lon": 77.4849442}, {"type": "node", "id": 7339722932, "lat": 13.0506019, "lon": 77.4850032}, {"type": "node", "id": 7339722933, "lat": 13.0510304, "lon": 77.4850085}, {"type": "node", "id": 7339722934, "lat": 13.0510931, "lon": 77.4856496}, {"type": "node", "id": 7339722935, "lat": 13.0514458, "lon": 77.4856603}, {"type": "node", "id": 7339722936, "lat": 13.0513936, "lon": 77.4861753}, {"type": "node", "id": 7339722937, "lat": 13.0523682, "lon": 77.4864301}, {"type": "node", "id": 7489451098, "lat": 13.0468499, "lon": 77.5063696}, {"type": "node", "id": 7489626471, "lat": 13.0413777, "lon": 77.5050224, "tags": {"amenity": "hospital", "healthcare": "hospital", "name": "naveen clinc"}}, {"type": "node", "id": 7577248184, "lat": 13.081777, "lon": 77.54091, "tags": {"addr:district": "Bengaluru Urban", "addr:full": "Varadharaja Nagar, Varadarajaswamy Layout, Singapura, Bengaluru", "addr:postcode": "560097", "addr:state": "Karnataka", "amenity": "hospital", "name": "Aveksha Hospital", "source": "Local Knowledge"}}, {"type": "node", "id": 7577248239, "lat": 13.0866852, "lon": 77.5535728, "tags": {"addr:district": "Bengaluru Urban", "addr:full": "Abbasia Colony, Adityanagar, Vidyaranyapura, Bengaluru", "addr:postcode": "560097", "addr:state": "Karnataka", "amenity": "hospital", "name": "Santhamma Hospital", "source": "Local Knowledge"}}, {"type": "node", "id": 7577248262, "lat": 13.0885791, "lon": 77.5455057, "tags": {"addr:district": "Bengaluru Urban", "addr:full": "Vinayak Nagar, Vidyaranyapura, Bengaluru", "addr:postcode": "560097", "addr:state": "Karnataka", "amenity": "hospital", "name": "Shree Sai Hospital", "source": "Local Knowledge"}}, {"type": "node", "id": 8188038448, "lat": 13.0903942, "lon": 77.4966765, "tags": {"addr:full": "Dwarka Road, Dwaraka Nagar Layout, Kempe Gowda Nagar, Bengaluru, Karnataka", "addr:state": "Karnataka", "amenity": "hospital", "name": "Government Hospital", "name:kn": "\u0cb8\u0cb0\u0ccd\u0c95\u0cbe\u0cb0\u0cbf \u0c86\u0cb8\u0ccd\u0caa\u0ca4\u0ccd\u0cb0\u0cc6"}}, {"type": "node", "id": 8188038457, "lat": 13.0803204, "lon": 77.5535057, "tags": {"addr:full": "Jamia Masjid Rd, Mohammed Sab Palya, Vidyaranyapura, Bengaluru, Karnataka", "addr:state": "Karnataka", "amenity": "hospital", "name": "Government Hospital", "name:kn": "\u0cb8\u0cb0\u0ccd\u0c95\u0cbe\u0cb0\u0cbf \u0c86\u0cb8\u0ccd\u0caa\u0ca4\u0ccd\u0cb0\u0cc6"}}, {"type": "node", "id": 8188038463, "lat": 13.0770012, "lon": 77.5581038, "tags": {"addr:full": "OPP HDFC BANK,VIDYARANYAPURA Main Road, Opposite HDFC Bank, Vidyaranyapura Main Road Near NTI Ground, NTI Layout, Vidyaranyapura, Bengaluru, Karnataka", "addr:state": "Karnataka", "amenity": "hospital", "name": "Bangalore Healthcare Center Pranav Ayurveda Hospital"}}, {"type": "node", "id": 8188038473, "lat": 13.070554, "lon": 77.5388968, "tags": {"addr:full": "KVP Nagar, Jalahalli, Bengaluru, Karnataka", "addr:state": "Karnataka", "amenity": "hospital", "name": "Government Hospital", "name:kn": "\u0cb8\u0cb0\u0ccd\u0c95\u0cbe\u0cb0\u0cbf \u0c86\u0cb8\u0ccd\u0caa\u0ca4\u0ccd\u0cb0\u0cc6"}}, {"type": "node", "id": 8188038495, "lat": 13.0650144, "lon": 77.5041964, "tags": {"addr:full": "Bus Stop, Bus Stop, Bonemill, Hesarghatta Main Rd, Soundarya Layout, Bengaluru, Karnataka", "addr:state": "Karnataka", "amenity": "hospital", "healthcare": "hospital", "name": "Kruthika Hospital"}}, {"type": "node", "id": 8188038499, "lat": 13.0621628, "lon": 77.5177637, "tags": {"addr:full": "342, 6th Cross, Brindavan Layout, Shetty Halli, Jalahalli West, Bengaluru, Karnataka", "addr:state": "Karnataka", "amenity": "hospital", "name": "Dr Saju George Kottakkal"}}, {"type": "node", "id": 8188038523, "lat": 13.0559513, "lon": 77.5329456, "tags": {"addr:full": "144, Kammagondana Halli Main Rd, Kammagondahalli, Jalahalli, Bengaluru, Karnataka", "addr:state": "Karnataka", "amenity": "hospital", "name": "Fathima Hospital"}}, {"type": "node", "id": 8188038553, "lat": 13.0439933, "lon": 77.5065494, "tags": {"addr:full": "Vidya Nagar, Peenya, Bengaluru, Karnataka", "addr:state": "Karnataka", "amenity": "hospital", "name": "Esi Dispensary"}}, {"type": "node", "id": 8911141972, "lat": 13.1112066, "lon": 77.5543597}, {"type": "node", "id": 8911141973, "lat": 13.1109323, "lon": 77.5554755}, {"type": "node", "id": 8911141974, "lat": 13.1116219, "lon": 77.5557625}, {"type": "node", "id": 8911141975, "lat": 13.1119615, "lon": 77.5546065}, {"type": "node", "id": 9844348521, "lat": 13.0467086, "lon": 77.5069261}, {"type": "node", "id": 9844348522, "lat": 13.0458243, "lon": 77.5066895}, {"type": "node", "id": 9844348523, "lat": 13.0459656, "lon": 77.506133}, {"type": "node", "id": 10980119323, "lat": 13.0489776, "lon": 77.550451, "tags": {"barrier": "gate"}}, {"type": "node", "id": 11554414414, "lat": 13.1255736, "lon": 77.5477633}, {"type": "node", "id": 12113992514, "lat": 13.0495421, "lon": 77.5515362}, {"type": "node", "id": 12177765801, "lat": 13.1255995, "lon": 77.5458347}, {"type": "node", "id": 12820381031, "lat": 13.0477867, "lon": 77.4848194}, {"type": "node", "id": 12820381032, "lat": 13.0485317, "lon": 77.4807817}, {"type": "way", "id": 42014454, "nodes": [521157742, 521157744, 521157737, 10980119323, 521157739, 521157746, 521157748, 12113992514, 521157742], "tags": {"amenity": "hospital", "name": "HMT Hospital", "name:kn": "\u0c8e\u0c9a\u0ccd\u0c8e\u0c82\u0c9f\u0cbf \u0c86\u0cb8\u0ccd\u0caa\u0ca4\u0ccd\u0cb0\u0cc6", "wheelchair": "limited"}}, {"type": "way", "id": 42407828, "nodes": [529453448, 529453449, 529453453, 529453454, 529453448], "tags": {"addr:district": "Bengaluru Urban", "addr:full": "Jalahalli Post", "addr:postcode": "560013", "addr:state": "Karnataka", "amenity": "hospital", "name": "BEL Hospital", "name:etymology:wikidata": "Q3630918", "name:kn": "\u0cac\u0cc0 \u0c88 \u0c8e\u0cb2\u0ccd \u0c86\u0cb8\u0ccd\u0caa\u0ca4\u0ccd\u0cb0\u0cc6", "source": "OpenGovernmentData", "wheelchair": "limited"}}, {"type": "way", "id": 330196978, "nodes": [3371482289, 12177765801, 3371482291, 3371482292, 11554414414, 3371493794, 3371482289], "tags": {"amenity": "hospital", "healthcare": "hospital", "name": "Institute of Ayurveda and Integrative Medicine (I-AIM)", "note": "Only first aid Available here", "website": "http://iaimhealthcare.com/"}}, {"type": "way", "id": 339095607, "nodes": [3462836060, 3462836043, 3462850452, 3462836044, 3462836045, 3462836059, 3462836061, 3462836053, 3462836054, 3462836055, 3462836056, 3462836057, 3462836058, 3462836060], "tags": {"addr:district": "Bengaluru Urban", "addr:full": "19, 2nd Main Road, 1st Phase Peenya Industrial Area", "addr:postcode": "560058", "addr:state": "Karnataka", "amenity": "hospital", "building": "hospital", "emergency": "yes", "healthcare": "hospital", "name": "Ravi Kirloskar Memorial Hospital", "name:kn": "\u0cb0\u0cb5\u0cbf \u0c95\u0cbf\u0cb0\u0ccd\u0cb2\u0cca\u0cb8\u0ccd\u0c95\u0cb0\u0ccd \u0c86\u0cb8\u0ccd\u0caa\u0ca4\u0ccd\u0cb0\u0cc6", "source": "OpenGovernmentData"}}, {"type": "way", "id": 362755622, "nodes": [3670144857, 3670144858, 3670144844, 3670144843, 3670144846, 3670144845, 3670144848, 3670144847, 3670144850, 3670144849, 3670144852, 3670144851, 3670144864, 3670144863, 3670144871, 3670144872, 3670144870, 3670144869, 3670144857]}, {"type": "way", "id": 362755626, "nodes": [3670144866, 3670144865, 3670144862, 3670144861, 3670144853, 3670144854, 3670144866]}, {"type": "way", "id": 362755627, "nodes": [3670144868, 3670144867, 3670144859, 3670144860, 3670144855, 3670144856, 3670144868]}, {"type": "way", "id": 726119799, "nodes": [6807793492, 6807793493, 6807793494, 6807793495, 6807793492], "tags": {"addr:district": "Bengaluru Rural", "addr:full": "No.3 & 3A, Hesarghatta Main Road,Chikkasandra,Next To Janapriya Apartment,Near Chikkabanavara Railway Station", "addr:postcode": "560090", "addr:state": "Karnataka", "amenity": "hospital", "healthcare": "hospital", "name": "Nrr Hospital", "source": "OpenGovernmentData"}}, {"type": "way", "id": 726190880, "nodes": [6808389338, 6808389339, 6808389340, 6808389341, 6808389338], "tags": {"addr:district": "Bengaluru Urban", "addr:full": "#18-23, Maliasandra Main Road,4Th & 5Th Cross, Bagalagunte,Hesaraghatta Road", "addr:postcode": "560057", "addr:state": "Karnataka", "amenity": "hospital", "building": "commercial", "name": "Arunodaya Hospitals", "name:kn": "\u0c85\u0cb0\u0cc1\u0ca3\u0ccb\u0ca6\u0caf \u0c86\u0cb8\u0ccd\u0caa\u0ca4\u0ccd\u0cb0\u0cc6", "source": "OpenGovernmentData"}}, {"type": "way", "id": 726342145, "nodes": [6808989940, 6808989941, 6808989942, 6808989943, 6808989944, 6808989945, 6808989946, 6808989947, 6808989948, 6808989949, 6808989950, 6808989951, 6808989952, 6808989953, 6808989940], "tags": {"addr:district": "Bengaluru Urban", "addr:full": "No.30 Hesaraghatta Road , T Dasarahalli", "addr:postcode": "560057", "addr:state": "Karnataka", "amenity": "hospital", "building": "commercial", "name": "Dr Ramachandra Hospital", "name:kn": "\u0cb0\u0cbe\u0cae\u0c9a\u0c82\u0ca6\u0ccd\u0cb0 \u0c86\u0cb8\u0ccd\u0caa\u0ca4\u0ccd\u0cb0\u0cc6", "source": "OpenGovernmentData"}}, {"type": "way", "id": 785273431, "nodes": [5689372192, 7339722937, 7339722936, 7339722935, 7339722934, 7339722933, 7339722932, 7339722931, 7339722930, 7339722929, 12820381031, 7339722928, 12820381032, 3834145549, 3834145560, 3834145562, 3834145563, 3834145564, 3834145577, 3834145585, 3834145590, 3834145596, 3834145608, 3834145618, 3834145620, 3834145622, 3834145624, 3834145641, 5689372193, 5689372192], "tags": {"addr:district": "Bengaluru Urban", "addr:full": "Jindal Nagar Tumkur Road", "addr:postcode": "560073", "addr:state": "Karnataka", "amenity": "hospital", "fixme": "Boundaries and Size of polygon", "name": "Jindal Naturecure Institute hospital", "source": "OpenGovernmentData"}}, {"type": "way", "id": 963357010, "nodes": [8911141975, 8911141974, 8911141973, 8911141972, 8911141975], "tags": {"amenity": "hospital", "name": "NIKISA Dementia Village", "website": "https://carefordementia.in/"}}, {"type": "way", "id": 1073073120, "nodes": [7489451098, 9844348521, 9844348522, 9844348523, 7489451098], "tags": {"amenity": "hospital", "healthcare": "hospital", "name": "Prakriya Hospital", "wheelchair": "yes"}}, {"type": "relation", "id": 5397008, "members": [{"type": "way", "ref": 362755627, "role": "inner"}, {"type": "way", "ref": 362755626, "role": "inner"}, {"type": "way", "ref": 362755622, "role": "outer"}], "tags": {"addr:district": "Bengaluru Rural", "addr:full": "#15, Chikkasandra, Hesaraghatta Main Road", "addr:postcode": "560090", "addr:state": "Karnataka", "amenity": "hospital", "building": "hospital", "healthcare": "hospital", "name": "Sapthagiri Hospital", "name:kn": "\u0cb8\u0caa\u0ccd\u0ca4\u0c97\u0cbf\u0cb0\u0cbf \u0c86\u0cb8\u0ccd\u0caa\u0ca4\u0ccd\u0cb0\u0cc6", "source": "OpenGovernmentData", "type": "multipolygon"}}]}