{"version": 0.6, "generator": "Overpass API 0.7.62.8 e802775f", "osm3s": {"timestamp_osm_base": "2026-01-16T09:40:46Z", "copyright": "The data included in this document is from www.openstreetmap.org. The data is made available under ODbL."}, "elements": [{"type": "node", "id": 571499467, "lat": 58.9868893, "lon": 5.7525073, "tags": {"amenity": "ferry_terminal", "ferry": "yes", "name": "Steins\u00f8y ferjekai", "public_transport": "stop_position", "ref:nsrq": "104596"}}, {"type": "node", "id": 589519944, "lat": 58.978999, "lon": 5.745783, "tags": {"highway": "bus_stop", "name": "S\u00f8lyst (A)", "ref": "A", "ref:nsrq": "47559", "shelter": "yes", "wheelchair": "yes"}}, {"type": "node", "id": 1042093977, "lat": 58.969574, "lon": 5.749403, "tags": {"highway": "bus_stop", "name": "Kjelvene (B)", "ref": "B", "ref:nsrq": "47520", "shelter": "yes"}}, {"type": "node", "id": 1042094177, "lat": 58.971015, "lon": 5.744256, "tags": {"highway": "bus_stop", "name": "Bekhuskaien (A)", "ref": "A", "ref:nsrq": "48605", "shelter": "yes"}}, {"type": "node", "id": 1042094320, "lat": 58.9712135, "lon": 5.7443145, "tags": {"bench": "yes", "bin": "yes", "bus": "yes", "highway": "bus_stop", "lit": "yes", "name": "Bekhuskaien (B)", "public_transport": "platform", "ref": "B", "ref:nsrq": "48606", "shelter": "yes"}}, {"type": "node", "id": 1229461341, "lat": 58.962927, "lon": 5.759346, "tags": {"bench": "no", "bin": "no", "highway": "bus_stop", "name": "Sandnesgata (A)", "ref": "A", "ref:nsrq": "45147", "shelter": "yes"}}, {"type": "node", "id": 1229461348, "lat": 58.962173, "lon": 5.763273, "tags": {"highway": "bus_stop", "name": "Rosenli", "ref:nsrq": "44844", "shelter": "yes"}}, {"type": "node", "id": 1229461364, "lat": 58.963052, "lon": 5.759448, "tags": {"bench": "yes", "bin": "yes", "highway": "bus_stop", "name": "Sandnesgata (B)", "ref": "B", "ref:nsrq": "45146", "shelter": "yes"}}, {"type": "node", "id": 1796761788, "lat": 58.993206, "lon": 5.74759, "tags": {"bench": "yes", "highway": "bus_stop", "name": "Austb\u00f8 \u00f8st (A)", "ref": "A", "ref:nsrq": "48517", "shelter": "yes", "tactile_paving": "yes"}}, {"type": "node", "id": 1796761806, "lat": 58.993345, "lon": 5.747437, "tags": {"bench": "yes", "highway": "bus_stop", "name": "Austb\u00f8 \u00f8st (B)", "ref": "B", "ref:nsrq": "48518", "shelter": "yes", "tactile_paving": "yes"}}, {"type": "node", "id": 1798124407, "lat": 58.9895083, "lon": 5.7658147, "tags": {"highway": "bus_stop", "name": "Orm\u00f8y", "ref:nsrq": "48038", "shelter": "yes"}}, {"type": "node", "id": 1895078388, "lat": 58.9920869, "lon": 5.8071647, "tags": {"amenity": "ferry_terminal", "ferry": "yes", "name": "Lind\u00f8y ferjekai", "public_transport": "stop_position", "ref:nsrq": "104594"}}, {"type": "node", "id": 2163186921, "lat": 58.991581, "lon": 5.76437, "tags": {"highway": "bus_stop", "name": "Austrevig\u00e5 (A)", "ref": "A", "ref:nsrq": "48577", "shelter": "no"}}, {"type": "node", "id": 2163186922, "lat": 58.991677, "lon": 5.764212, "tags": {"highway": "bus_stop", "name": "Austrevig\u00e5 (B)", "ref": "B", "ref:nsrq": "48578", "shelter": "no"}}, {"type": "node", "id": 2163186955, "lat": 58.96401, "lon": 5.756611, "tags": {"highway": "bus_stop", "name": "Emmausveien (A)", "ref": "A", "ref:nsrq": "48275"}}, {"type": "node", "id": 2163187048, "lat": 58.969097, "lon": 5.750256, "tags": {"highway": "bus_stop", "name": "Kjelvene (A)", "ref": "A", "ref:nsrq": "47518"}}, {"type": "node", "id": 2163187066, "lat": 58.959575, "lon": 5.752679, "tags": {"highway": "bus_stop", "name": "Midjord", "ref:nsrq": "46436"}}, {"type": "node", "id": 2163187072, "lat": 58.961972, "lon": 5.754725, "tags": {"highway": "bus_stop", "name": "Nymansveien (A)", "ref": "A", "ref:nsrq": "47674"}}, {"type": "node", "id": 2163187077, "lat": 58.990801, "lon": 5.765998, "tags": {"highway": "bus_stop", "name": "Orm\u00f8ysundet (A)", "ref": "A", "ref:nsrq": "48045", "shelter": "no"}}, {"type": "node", "id": 2163187078, "lat": 58.990883, "lon": 5.765805, "tags": {"highway": "bus_stop", "name": "Orm\u00f8ysundet (B)", "ref": "B", "ref:nsrq": "48044", "shelter": "no"}}, {"type": "node", "id": 2163187090, "lat": 58.992107, "lon": 5.761514, "tags": {"highway": "bus_stop", "name": "Roalds\u00f8y (B)", "ref": "B", "ref:nsrq": "44823", "shelter": "yes"}}, {"type": "node", "id": 2163187091, "lat": 58.991995, "lon": 5.761511, "tags": {"highway": "bus_stop", "name": "Roalds\u00f8y (A)", "ref": "A", "ref:nsrq": "44824", "shelter": "no"}}, {"type": "node", "id": 2163187135, "lat": 58.978786, "lon": 5.745512, "tags": {"highway": "bus_stop", "name": "S\u00f8lyst (B)", "ref": "B", "ref:nsrq": "47560", "shelter": "yes"}}, {"type": "node", "id": 6373613728, "lat": 58.96396, "lon": 5.756782, "tags": {"highway": "bus_stop", "name": "Emmausveien (B)", "ref": "B", "ref:nsrq": "48277"}}, {"type": "node", "id": 6373614259, "lat": 58.962042, "lon": 5.754851, "tags": {"highway": "bus_stop", "name": "Nymansveien (B)", "ref": "B", "ref:nsrq": "47675"}}, {"type": "node", "id": 8057321566, "lat": 58.9711865, "lon": 5.744514}, {"type": "node", "id": 8910859677, "lat": 58.965221, "lon": 5.759341, "tags": {"highway": "bus_stop", "name": "S\u00f8ilands gate (B)", "ref": "B", "ref:nsrq": "47722"}}, {"type": "node", "id": 8910859678, "lat": 58.965242, "lon": 5.759199, "tags": {"highway": "bus_stop", "name": "S\u00f8ilands gate (A)", "ref": "A", "ref:nsrq": "47720"}}, {"type": "node", "id": 9064005342, "lat": 58.963366, "lon": 5.744444, "tags": {"highway": "bus_stop", "name": "Admiral Cruys gate (A)", "ref": "A", "ref:nsrq": "48263"}}, {"type": "node", "id": 9064005343, "lat": 58.961483, "lon": 5.746171, "tags": {"highway": "bus_stop", "name": "Frue terrasse (A)", "ref": "A", "ref:nsrq": "48888"}}, {"type": "node", "id": 9064005344, "lat": 58.958477, "lon": 5.74652, "tags": {"highway": "bus_stop", "name": "Godalsveien (A)", "ref": "A", "ref:nsrq": "49192"}}, {"type": "node", "id": 9064005346, "lat": 58.960421, "lon": 5.747582, "tags": {"bench": "no", "bin": "no", "highway": "bus_stop", "lit": "yes", "name": "Paradis", "ref:nsrq": "48188", "shelter": "no", "tactile_paving": "no"}}, {"type": "node", "id": 9669549663, "lat": 58.95984, "lon": 5.751974, "tags": {"highway": "bus_stop", "name": "Varden kirke (A)", "ref": "A", "ref:nsrq": "45334"}}, {"type": "node", "id": 9669549664, "lat": 58.959883, "lon": 5.750291, "tags": {"bench": "no", "bin": "no", "highway": "bus_stop", "name": "Varden kirke (B)", "ref": "B", "ref:nsrq": "45333", "shelter": "no"}}, {"type": "node", "id": 9669549677, "lat": 58.963327, "lon": 5.744632, "tags": {"highway": "bus_stop", "name": "Admiral Cruys gate (B)", "ref": "B", "ref:nsrq": "48264"}}, {"type": "node", "id": 9669549680, "lat": 58.961228, "lon": 5.746627, "tags": {"highway": "bus_stop", "name": "Frue terrasse (B)", "ref": "B", "ref:nsrq": "48887"}}, {"type": "node", "id": 9669549681, "lat": 58.959186, "lon": 5.747303, "tags": {"highway": "bus_stop", "name": "Godalsveien (B)", "ref": "B", "ref:nsrq": "105921"}}, {"type": "node", "id": 11113187435, "lat": 58.967149, "lon": 5.75855, "tags": {"highway": "bus_stop", "name": "Lervigsveien (A)", "ref": "A", "ref:nsrq": "46750"}}, {"type": "node", "id": 11113187436, "lat": 58.967347, "lon": 5.758443, "tags": {"highway": "bus_stop", "name": "Lervigsveien (B)", "ref": "B", "ref:nsrq": "46748"}}, {"type": "node", "id": 11660107407, "lat": 58.9712272, "lon": 5.7442135}, {"type": "node", "id": 11975533478, "lat": 58.968694, "lon": 5.755063, "tags": {"highway": "bus_stop", "name": "Lervigtunet (B)", "ref": "B", "ref:nsrq": "46752"}}, {"type": "node", "id": 11975533479, "lat": 58.968272, "lon": 5.756026, "tags": {"highway": "bus_stop", "name": "Lervigtunet (A)", "ref": "A", "ref:nsrq": "46754"}}, {"type": "node", "id": 13296144215, "lat": 58.9711979, "lon": 5.7444301}, {"type": "way", "id": 1254367980, "nodes": [11660107407, 1042094320, 13296144215, 8057321566], "tags": {"bus": "yes", "highway": "platform", "public_transport": "platform"}}]}