{"version": 0.6, "generator": "Overpass API 0.7.62.8 e802775f", "osm3s": {"timestamp_osm_base": "2026-01-13T06:51:15Z", "copyright": "The data included in this document is from www.openstreetmap.org. The data is made available under ODbL."}, "elements": [{"type": "node", "id": 347168743, "lat": 19.0560779, "lon": 72.8267648}, {"type": "node", "id": 347168744, "lat": 19.0554778, "lon": 72.8267854}, {"type": "node", "id": 347168745, "lat": 19.0554818, "lon": 72.8271174}, {"type": "node", "id": 347168746, "lat": 19.0549057, "lon": 72.8271253}, {"type": "node", "id": 347168747, "lat": 19.0549122, "lon": 72.8275145}, {"type": "node", "id": 347168748, "lat": 19.0560954, "lon": 72.8274859}, {"type": "node", "id": 2449734759, "lat": 19.0549066, "lon": 72.827198, "tags": {"access": "private", "barrier": "gate", "name": "Gate 2"}}, {"type": "node", "id": 2449734760, "lat": 19.0549103, "lon": 72.8274255, "tags": {"access": "private", "barrier": "gate", "name": "Gate 1"}}, {"type": "node", "id": 2449734777, "lat": 19.055701, "lon": 72.8267823, "tags": {"access": "private", "barrier": "gate", "name": "Gate 3"}}, {"type": "node", "id": 5090930970, "lat": 19.0066529, "lon": 72.8179411, "tags": {"amenity": "hospital", "name": "Peoples Mobile Hospitals"}}, {"type": "node", "id": 7051070010, "lat": 19.0050283, "lon": 72.8225555, "tags": {"addr:district": "Mumbai", "addr:full": "3Road Floor, Sadhana House Behind Mahindra Towers, Pandurang Budhkar Marg, Worli Mumbai", "addr:postcode": "400018", "addr:state": "Maharashtra", "amenity": "hospital", "name": "Reliance Life Sciences Pvt. Ltd", "source": "OpenGovernmentData"}}, {"type": "node", "id": 7055759633, "lat": 18.9925482, "lon": 72.8243351, "tags": {"addr:district": "Mumbai", "addr:full": "Mumbai", "addr:postcode": "400008", "addr:state": "Maharashtra", "amenity": "hospital", "healthcare": "hospital", "name": "Ipc Heart Care", "source": "OpenGovernmentData"}}, {"type": "node", "id": 7064364272, "lat": 19.0128124, "lon": 72.8225863, "tags": {"addr:district": "Mumbai", "addr:full": "Pupala Sadan", "addr:postcode": "400030", "addr:state": "Maharashtra", "amenity": "hospital", "name": "Worli Hospital For Women", "source": "OpenGovernmentData"}}, {"type": "node", "id": 7066374709, "lat": 19.053611, "lon": 72.8246194, "tags": {"addr:district": "Mumbai", "addr:full": "13, Hill Road, Bandra (W)", "addr:postcode": "400050", "addr:state": "Maharashtra", "amenity": "hospital", "name": "Sushama Patkar Maternity ( and Surgical) Home - Bandra", "source": "OpenGovernmentData"}}, {"type": "node", "id": 7081965757, "lat": 19.0520436, "lon": 72.8238114, "tags": {"addr:district": "Mumbai", "addr:full": "Opp Mehboob Sutdio, Hill Road , Bandra West", "addr:postcode": "400050", "addr:state": "Maharashtra", "amenity": "hospital", "name": "Vision Laser Surgery Centre", "source": "OpenGovernmentData"}}, {"type": "node", "id": 7086409761, "lat": 18.9755408, "lon": 72.8237459}, {"type": "node", "id": 7225067153, "lat": 19.0017314, "lon": 72.816903, "tags": {"addr:district": "Mumbai", "addr:full": "BDD Chawls Worli, behind Poddar Hospital", "addr:postcode": "400018", "addr:state": "Maharashtra", "amenity": "hospital", "name": "ESIS Hospital WORLI", "source": "OpenGovernmentData"}}, {"type": "node", "id": 7225067192, "lat": 19.0022803, "lon": 72.8162624, "tags": {"addr:district": "Mumbai", "addr:full": "Dr Annie Besant Road, B Wing, BDD Chawls Worli", "addr:postcode": "400018", "addr:state": "Maharashtra", "amenity": "hospital", "name": "Poddar Hospital", "source": "OpenGovernmentData"}}, {"type": "node", "id": 7607886540, "lat": 18.9785849, "lon": 72.8128747, "tags": {"addr:district": "Mumbai", "addr:full": "Haji Ali, Keshavrao Khadye Marg", "addr:postcode": "400034", "addr:state": "Maharashtra", "amenity": "hospital", "name": "All India Institute of Physical Medicine and Rehabilitation", "source": "Local Knowledge"}}, {"type": "node", "id": 7664032196, "lat": 18.9887771, "lon": 72.8230369, "tags": {"addr:district": "Mumbai City", "addr:full": "20, Dr E Moses Road, Gandhi Nagar, Upper Worli, Lower Parel, Mumbai", "addr:postcode": "400013", "addr:state": "Maharastra", "amenity": "hospital", "name": "Anand Niketan Hospital", "opening_hours": "24/7", "source": "Local Knowledge"}}, {"type": "node", "id": 7664032219, "lat": 19.015443, "lon": 72.8261774, "tags": {"addr:district": "Mumbai City", "addr:full": "Old Prabhadevi Road, G-South Ward, Dadar West, Prabhadevi, Mumbai", "addr:postcode": "400025", "addr:state": "Maharastra", "amenity": "hospital", "healthcare": "hospital", "healthcare:speciality": "general", "name": "BMC Hospital", "source": "Local Knowledge"}}, {"type": "node", "id": 8797109108, "lat": 18.9789397, "lon": 72.812933}, {"type": "node", "id": 8817020641, "lat": 18.9752297, "lon": 72.8237596, "tags": {"addr:city": "Mumbai", "addr:housenumber": "1877", "addr:postcode": "400011", "addr:street": "Doctor Anandrao Nair Marg, Near Agripada Police Station Mumbai Central East, Agripada", "amenity": "hospital", "healthcare": "hospital", "healthcare:speciality": "Arthroplasty;Arthroscopy;Hip_Replacement;Knee_Replacement;Trauma", "name": "Dr Mudit Khanna", "website": "https://www.drmuditkhanna.com/"}}, {"type": "node", "id": 9441680530, "lat": 19.0554479, "lon": 72.8271482, "tags": {"amenity": "hospital", "healthcare": "hospital"}}, {"type": "node", "id": 10242737058, "lat": 19.0559475, "lon": 72.8267709, "tags": {"barrier": "gate", "name": "Gate 4"}}, {"type": "node", "id": 10616180012, "lat": 18.9783359, "lon": 72.8271144, "tags": {"amenity": "hospital", "healthcare": "hospital"}}, {"type": "node", "id": 11017453070, "lat": 18.9784348, "lon": 72.812977, "tags": {"access": "private", "barrier": "gate"}}, {"type": "node", "id": 11953366500, "lat": 18.9753404, "lon": 72.8243547}, {"type": "node", "id": 11953366501, "lat": 18.9750793, "lon": 72.823576}, {"type": "node", "id": 11953366502, "lat": 18.9748789, "lon": 72.8241849}, {"type": "node", "id": 11953432846, "lat": 18.9784451, "lon": 72.813051}, {"type": "node", "id": 11953432847, "lat": 18.9794952, "lon": 72.8133407}, {"type": "node", "id": 11953432848, "lat": 18.9798325, "lon": 72.8128794}, {"type": "node", "id": 11953432849, "lat": 18.979064, "lon": 72.8122544}, {"type": "node", "id": 11953432850, "lat": 18.9787444, "lon": 72.8125146}, {"type": "node", "id": 11953432851, "lat": 18.9783589, "lon": 72.8126112}, {"type": "node", "id": 12972287923, "lat": 18.9888128, "lon": 72.8228181}, {"type": "node", "id": 12972287924, "lat": 18.9890428, "lon": 72.8229443}, {"type": "node", "id": 12972287925, "lat": 18.9891972, "lon": 72.8230391}, {"type": "node", "id": 12972287926, "lat": 18.9889097, "lon": 72.8234646}, {"type": "node", "id": 12972287927, "lat": 18.9888744, "lon": 72.8234773}, {"type": "node", "id": 12972287928, "lat": 18.9888329, "lon": 72.8234866}, {"type": "node", "id": 12972287929, "lat": 18.9887889, "lon": 72.823577}, {"type": "node", "id": 12972287930, "lat": 18.9880801, "lon": 72.8231836}, {"type": "node", "id": 12972287931, "lat": 18.9883528, "lon": 72.8230613}, {"type": "node", "id": 12972287932, "lat": 18.9889018, "lon": 72.8233038}, {"type": "node", "id": 12972287933, "lat": 18.9891035, "lon": 72.8231794}, {"type": "node", "id": 12972287934, "lat": 18.9889788, "lon": 72.8232496}, {"type": "way", "id": 31213763, "nodes": [347168743, 10242737058, 2449734777, 347168744, 347168745, 347168746, 2449734759, 2449734760, 347168747, 347168748, 347168743], "tags": {"addr:district": "Mumbai", "addr:full": "St.Andrew's Road,Bandra West,Bandra", "addr:postcode": "400050", "addr:state": "Maharashtra", "addr:street": "St. Andrew Road", "amenity": "hospital", "healthcare": "hospital", "name": "Holy Family Hospital, Mumbai", "opening_hours": "Mo-Fr 08:00-17:00", "phone": "(022 30610555 )", "source": "OpenGovernmentData", "wikidata": "Q5885495", "wikipedia": "en:Holy Family Hospital, Mumbai"}}, {"type": "way", "id": 1289063015, "nodes": [11953366502, 11953366500, 7086409761, 11953366501, 11953366502], "tags": {"addr:district": "Thane", "addr:full": "Police Station, 1877 Doctor Anandrao Nair Marg Near Agripada, Mumbai Central", "addr:postcode": "400011", "addr:state": "Maharashtra", "amenity": "hospital", "name": "Wockhardt Hospitals, South Mumbai", "source": "OpenGovernmentData"}}, {"type": "way", "id": 1289073489, "nodes": [11953432851, 11953432850, 11953432849, 11953432848, 11953432847, 8797109108, 11953432846, 11017453070, 11953432851], "tags": {"addr:district": "Mumbai", "addr:full": "1-1A, Keshavrao Khadye Marg, Haji Ali, Mumbai", "addr:postcode": "400034", "addr:state": "Maharashtra", "amenity": "hospital", "name": "NH SRCC Children's Hospital", "source": "Local Knowledge"}}, {"type": "way", "id": 1411712168, "nodes": [12972287923, 12972287924, 12972287925, 12972287933, 12972287934, 12972287932, 12972287926, 12972287927, 12972287928, 12972287929, 12972287930, 12972287931, 12972287923], "tags": {"amenity": "hospital", "healthcare": "hospital", "name": "King George V Infimary"}}]}