{"version": 0.6, "generator": "Overpass API 0.7.62.8 e802775f", "osm3s": {"timestamp_osm_base": "2026-01-12T15:33:56Z", "copyright": "The data included in this document is from www.openstreetmap.org. The data is made available under ODbL."}, "elements": [{"type": "node", "id": 426410508, "lat": 13.0299324, "lon": 77.5357131}, {"type": "node", "id": 519549595, "lat": 12.9981215, "lon": 77.5404836, "tags": {"addr:city": "Basaveshwara Nagar, Bangalore", "addr:district": "Bengaluru Urban", "addr:full": "#100/101, Lic Colony West Of Chord, Basaveshwaranagar", "addr:housenumber": "100", "addr:postcode": "560079", "addr:state": "Karnataka", "addr:street": "West of Chord Road (LIC Colony)", "amenity": "hospital", "email": "chordroadhospital100@yahoo.co.in", "healthcare:speciality": "multi speciality", "name": "Chord Road Hospital Pvt Ltd", "name:kn": "\u0c95\u0cca\u0cb0\u0ccd\u0ca1\u0ccd \u0cb0\u0cb8\u0ccd\u0ca4\u0cc6 \u0c86\u0cb8\u0ccd\u0caa\u0ca4\u0ccd\u0cb0\u0cc6", "operator:type": "private", "phone": "+91-80-23225858;+91-80-23225868;+91-80-23225878", "source": "OpenGovernmentData", "website": "http://www.chordroadhospitalent.com/", "wheelchair": "yes"}}, {"type": "node", "id": 530353033, "lat": 12.9978931, "lon": 77.5436127, "tags": {"addr:city": "Basaveshwara Nagar, Bangalore", "addr:housenumber": "877", "addr:postcode": "560079", "addr:street": "Modi Hospital Road (West of Chord Road)", "amenity": "hospital", "email": "pristinehospitals@pristinehospitals.com", "fax": "+91-80-41354455", "healthcare": "hospital", "name": "Pristline Hospital", "name:kn": "\u0caa\u0ccd\u0cb0\u0cbf\u0cb8\u0ccd\u0c9f\u0cc0\u0ca8\u0ccd \u0c86\u0cb8\u0ccd\u0caa\u0ca4\u0ccd\u0cb0\u0cc6", "phone": "+91-80-41354444;+91-80-51270776", "website": "http://www.pristinehospitals.com/"}}, {"type": "node", "id": 599195220, "lat": 13.0300328, "lon": 77.5355304}, {"type": "node", "id": 1464742684, "lat": 13.0425433, "lon": 77.5155377, "tags": {"amenity": "hospital", "name": "Ragavendra Hospital", "name:kn": "\u0cb0\u0cbe\u0c98\u0cb5\u0cc7\u0c82\u0ca6\u0ccd\u0cb0 \u0c86\u0cb8\u0ccd\u0caa\u0ca4\u0ccd\u0cb0\u0cc6"}}, {"type": "node", "id": 1472808792, "lat": 13.0047859, "lon": 77.543073, "tags": {"amenity": "hospital", "name": "Namratha Hospital", "name:kn": "\u0ca8\u0cae\u0ccd\u0cb0\u0ca4 \u0c86\u0cb8\u0ccd\u0caa\u0ca4\u0ccd\u0cb0\u0cc6"}}, {"type": "node", "id": 1473023593, "lat": 13.0275337, "lon": 77.5397051, "tags": {"addr:district": "Bengaluru Urban", "addr:full": "No. 35/6, Industrial Suburb, Goragunte Palya, Yashwantpur", "addr:postcode": "560022", "addr:state": "Karnataka", "amenity": "hospital", "name": "Mysore Hospital", "name:kn": "\u0cae\u0cc8\u0cb8\u0cc2\u0cb0\u0cc1 \u0c86\u0cb8\u0ccd\u0caa\u0ca4\u0ccd\u0cb0\u0cc6", "source": "OpenGovernmentData"}}, {"type": "node", "id": 1474001855, "lat": 13.0011459, "lon": 77.5359798, "tags": {"amenity": "hospital", "emergency": "yes", "healthcare": "hospital", "name": "Punya Hospital"}}, {"type": "node", "id": 1794166166, "lat": 13.003447, "lon": 77.504284, "tags": {"addr:district": "Bangalore", "addr:full": "Hegganahalli", "addr:postcode": "560091", "addr:state": "Karnataka", "addr:subdistrict": "Bangalore North", "amenity": "hospital", "emergency": "no", "healthcare": "centre", "name": "Government Primary Health Centre", "name:kn": "\u0cb8\u0cb0\u0ccd\u0c95\u0cbe\u0cb0\u0cbf \u0caa\u0ccd\u0cb0\u0cbe\u0ca5\u0cae\u0cbf\u0c95 \u0c86\u0cb0\u0ccb\u0c97\u0ccd\u0caf \u0c95\u0cc7\u0c82\u0ca6\u0ccd\u0cb0", "source": "OpenGovernmentData"}}, {"type": "node", "id": 2296630617, "lat": 12.998445, "lon": 77.5463468}, {"type": "node", "id": 2296638505, "lat": 13.000431, "lon": 77.5411664, "tags": {"amenity": "hospital", "emergency": "no", "healthcare": "hospital", "name": "Krupa Medical center"}}, {"type": "node", "id": 3391834193, "lat": 13.0116947, "lon": 77.5437623}, {"type": "node", "id": 3391834194, "lat": 13.0118449, "lon": 77.543884}, {"type": "node", "id": 3391834195, "lat": 13.0117815, "lon": 77.5439493}, {"type": "node", "id": 3391834196, "lat": 13.0117236, "lon": 77.5439225}, {"type": "node", "id": 3391834197, "lat": 13.0117024, "lon": 77.5439502}, {"type": "node", "id": 3391834198, "lat": 13.0116773, "lon": 77.5439284}, {"type": "node", "id": 3391834199, "lat": 13.0116195, "lon": 77.5439838}, {"type": "node", "id": 3391834200, "lat": 13.0115386, "lon": 77.5439225}, {"type": "node", "id": 3462836043, "lat": 13.0385872, "lon": 77.5273397}, {"type": "node", "id": 3462836044, "lat": 13.0388933, "lon": 77.5275031}, {"type": "node", "id": 3462836045, "lat": 13.0388203, "lon": 77.5276472}, {"type": "node", "id": 3462836053, "lat": 13.0386396, "lon": 77.5277282}, {"type": "node", "id": 3462836054, "lat": 13.0385605, "lon": 77.5278845}, {"type": "node", "id": 3462836055, "lat": 13.0384211, "lon": 77.5278102}, {"type": "node", "id": 3462836056, "lat": 13.038191, "lon": 77.5282644}, {"type": "node", "id": 3462836057, "lat": 13.0380418, "lon": 77.5281848}, {"type": "node", "id": 3462836058, "lat": 13.0383495, "lon": 77.5275774}, {"type": "node", "id": 3462836059, "lat": 13.0385573, "lon": 77.5275069}, {"type": "node", "id": 3462836060, "lat": 13.0384418, "lon": 77.5276267}, {"type": "node", "id": 3462836061, "lat": 13.0384866, "lon": 77.5276465}, {"type": "node", "id": 3462850452, "lat": 13.0386215, "lon": 77.527358, "tags": {"entrance": "yes"}}, {"type": "node", "id": 3602104364, "lat": 12.9954824, "lon": 77.535466}, {"type": "node", "id": 3602104369, "lat": 12.9954992, "lon": 77.5353546}, {"type": "node", "id": 3602104516, "lat": 12.995634, "lon": 77.5354901}, {"type": "node", "id": 3602104521, "lat": 12.9956509, "lon": 77.5353788}, {"type": "node", "id": 3670144843, "lat": 13.0701645, "lon": 77.5022256}, {"type": "node", "id": 3670144844, "lat": 13.0701971, "lon": 77.5027371}, {"type": "node", "id": 3670144845, "lat": 13.0702546, "lon": 77.5021479}, {"type": "node", "id": 3670144846, "lat": 13.0702591, "lon": 77.5022193}, {"type": "node", "id": 3670144847, "lat": 13.0704132, "lon": 77.5020941}, {"type": "node", "id": 3670144848, "lat": 13.0704159, "lon": 77.502137}, {"type": "node", "id": 3670144849, "lat": 13.0704721, "lon": 77.5020619}, {"type": "node", "id": 3670144850, "lat": 13.0704739, "lon": 77.50209}, {"type": "node", "id": 3670144851, "lat": 13.0705369, "lon": 77.5020272}, {"type": "node", "id": 3670144852, "lat": 13.0705386, "lon": 77.5020575}, {"type": "node", "id": 3670144853, "lat": 13.0705837, "lon": 77.5020965}, {"type": "node", "id": 3670144854, "lat": 13.0705895, "lon": 77.5021871}, {"type": "node", "id": 3670144855, "lat": 13.0705973, "lon": 77.502406}, {"type": "node", "id": 3670144856, "lat": 13.0705997, "lon": 77.5024426}, {"type": "node", "id": 3670144857, "lat": 13.0706155, "lon": 77.5026786}, {"type": "node", "id": 3670144858, "lat": 13.0706175, "lon": 77.5027089}, {"type": "node", "id": 3670144859, "lat": 13.0707326, "lon": 77.5023349}, {"type": "node", "id": 3670144860, "lat": 13.0707365, "lon": 77.5023966}, {"type": "node", "id": 3670144861, "lat": 13.0708575, "lon": 77.5020796}, {"type": "node", "id": 3670144862, "lat": 13.0708605, "lon": 77.5021299}, {"type": "node", "id": 3670144863, "lat": 13.0708875, "lon": 77.5019716}, {"type": "node", "id": 3670144864, "lat": 13.0708893, "lon": 77.5020053}, {"type": "node", "id": 3670144865, "lat": 13.070894, "lon": 77.5021278}, {"type": "node", "id": 3670144866, "lat": 13.070896, "lon": 77.5021665}, {"type": "node", "id": 3670144867, "lat": 13.0709042, "lon": 77.5023233}, {"type": "node", "id": 3670144868, "lat": 13.0709094, "lon": 77.5024227}, {"type": "node", "id": 3670144869, "lat": 13.0709235, "lon": 77.5026588}, {"type": "node", "id": 3670144870, "lat": 13.0709246, "lon": 77.5026789}, {"type": "node", "id": 3670144871, "lat": 13.070952, "lon": 77.501968}, {"type": "node", "id": 3670144872, "lat": 13.0709891, "lon": 77.5026753}, {"type": "node", "id": 3834145549, "lat": 13.0485382, "lon": 77.4806507}, {"type": "node", "id": 3834145560, "lat": 13.0487739, "lon": 77.4804445}, {"type": "node", "id": 3834145562, "lat": 13.0489207, "lon": 77.4801629}, {"type": "node", "id": 3834145563, "lat": 13.0489941, "lon": 77.4801352}, {"type": "node", "id": 3834145564, "lat": 13.0491447, "lon": 77.4801946}, {"type": "node", "id": 3834145577, "lat": 13.0499019, "lon": 77.4803652}, {"type": "node", "id": 3834145585, "lat": 13.0501897, "lon": 77.4805357}, {"type": "node", "id": 3834145590, "lat": 13.0504698, "lon": 77.4808153}, {"type": "node", "id": 3834145596, "lat": 13.0506745, "lon": 77.4810809}, {"type": "node", "id": 3834145608, "lat": 13.0509874, "lon": 77.4817967}, {"type": "node", "id": 3834145618, "lat": 13.0515553, "lon": 77.4819078}, {"type": "node", "id": 3834145620, "lat": 13.051621, "lon": 77.4818602}, {"type": "node", "id": 3834145622, "lat": 13.0516983, "lon": 77.4818721}, {"type": "node", "id": 3834145624, "lat": 13.0517601, "lon": 77.4819276}, {"type": "node", "id": 3834145641, "lat": 13.0525906, "lon": 77.4819514}, {"type": "node", "id": 4057005815, "lat": 13.0289969, "lon": 77.5393264}, {"type": "node", "id": 4447009524, "lat": 12.9984229, "lon": 77.5403887, "tags": {"addr:city": "Bangalore", "addr:housenumber": "877", "addr:postcode": "560010", "addr:street": "Dr. Modi Hospital Road, 2nd stage extension", "amenity": "hospital", "name": "Pristine Hospital", "name:kn": "\u0caa\u0ccd\u0cb0\u0cbf\u0cb8\u0ccd\u0c9f\u0cc0\u0ca8\u0ccd \u0c86\u0cb8\u0ccd\u0caa\u0ca4\u0ccd\u0cb0\u0cc6", "phone": "+9180 4135 4444", "source": "www.justdial.com", "website": "pristinehospitals.com"}}, {"type": "node", "id": 4447020601, "lat": 13.0226079, "lon": 77.4748015, "tags": {"addr:city": "bangalore", "addr:housenumber": "138", "addr:postcode": "560050", "addr:street": "NICE Peripheral Ring Road", "amenity": "hospital", "name": "Shri Vishnu Ent Speciality Center", "phone": "+91 80 2672 4211", "source": "www.justdial.com"}}, {"type": "node", "id": 4509817152, "lat": 12.995573, "lon": 77.5354215, "tags": {"amenity": "hospital", "healthcare": "hospital", "name": "ChanRe Rheumatology and Immunology Center and Research", "name_1": "Chan re hospital", "name_2": "Chanre hospital"}}, {"type": "node", "id": 5689372192, "lat": 13.0538314, "lon": 77.4822429}, {"type": "node", "id": 5689372193, "lat": 13.0526539, "lon": 77.4819059}, {"type": "node", "id": 6226479719, "lat": 13.02817, "lon": 77.542883}, {"type": "node", "id": 6226479726, "lat": 13.0276535, "lon": 77.5425773}, {"type": "node", "id": 6226479728, "lat": 13.0278734, "lon": 77.5434075}, {"type": "node", "id": 6315531910, "lat": 13.0273318, "lon": 77.5431326}, {"type": "node", "id": 6546893768, "lat": 12.9975999, "lon": 77.5456096}, {"type": "node", "id": 6546893769, "lat": 12.9983899, "lon": 77.5454543}, {"type": "node", "id": 6807542967, "lat": 13.0182102, "lon": 77.540004, "tags": {"amenity": "hospital", "healthcare": "hospital", "name": "Lourdes High School"}}, {"type": "node", "id": 6807544239, "lat": 13.0178339, "lon": 77.5416911}, {"type": "node", "id": 6807544240, "lat": 13.0177215, "lon": 77.5416428}, {"type": "node", "id": 6807544241, "lat": 13.0177006, "lon": 77.5417153}, {"type": "node", "id": 6807544242, "lat": 13.0178156, "lon": 77.5417689}, {"type": "node", "id": 6807551928, "lat": 13.016705, "lon": 77.539386, "tags": {"amenity": "hospital", "healthcare": "hospital", "name": "Boregowda Lingamma Hospital", "name:kn": "\u0cac\u0ccb\u0cb0\u0cc6\u0c97\u0ccc\u0ca1 \u0cb2\u0cbf\u0c82\u0c97\u0cae\u0ccd\u0cae \u0c86\u0cb8\u0ccd\u0caa\u0ca4\u0ccd\u0cb0\u0cc6"}}, {"type": "node", "id": 6807551937, "lat": 13.0175606, "lon": 77.5394308, "tags": {"amenity": "hospital", "healthcare": "hospital", "name": "Kanva Hospital"}}, {"type": "node", "id": 6807793492, "lat": 13.0727251, "lon": 77.5032965}, {"type": "node", "id": 6807793493, "lat": 13.0727811, "lon": 77.5038082}, {"type": "node", "id": 6807793494, "lat": 13.0722993, "lon": 77.5038785}, {"type": "node", "id": 6807793495, "lat": 13.0722674, "lon": 77.5034994}, {"type": "node", "id": 6808389338, "lat": 13.0571444, "lon": 77.5086082}, {"type": "node", "id": 6808389339, "lat": 13.0571535, "lon": 77.5084004}, {"type": "node", "id": 6808389340, "lat": 13.0569784, "lon": 77.508399}, {"type": "node", "id": 6808389341, "lat": 13.056985, "lon": 77.508623}, {"type": "node", "id": 6808989940, "lat": 13.0483861, "lon": 77.5079625}, {"type": "node", "id": 6808989941, "lat": 13.0483561, "lon": 77.5080788}, {"type": "node", "id": 6808989942, "lat": 13.0483283, "lon": 77.5080757}, {"type": "node", "id": 6808989943, "lat": 13.0483201, "lon": 77.5081096}, {"type": "node", "id": 6808989944, "lat": 13.0483103, "lon": 77.5080911}, {"type": "node", "id": 6808989945, "lat": 13.0482976, "lon": 77.5080942}, {"type": "node", "id": 6808989946, "lat": 13.0482998, "lon": 77.5081081}, {"type": "node", "id": 6808989947, "lat": 13.0482811, "lon": 77.5081034}, {"type": "node", "id": 6808989948, "lat": 13.0482893, "lon": 77.5080564}, {"type": "node", "id": 6808989949, "lat": 13.0482518, "lon": 77.5080503}, {"type": "node", "id": 6808989950, "lat": 13.0482751, "lon": 77.508011}, {"type": "node", "id": 6808989951, "lat": 13.0482713, "lon": 77.5079925}, {"type": "node", "id": 6808989952, "lat": 13.0482608, "lon": 77.5079856}, {"type": "node", "id": 6808989953, "lat": 13.0482585, "lon": 77.5079648}, {"type": "node", "id": 6938690629, "lat": 13.0089953, "lon": 77.5406188, "tags": {"addr:district": "Bengaluru Urban", "addr:full": "41-42/5 7Th Cross, Saraswathipuram, Nandini Layout, Main Road", "addr:postcode": "560096", "addr:state": "Karnataka", "amenity": "hospital", "name": "Shankara Nethralaya Eye Hospital", "source": "OpenGovernmentData"}}, {"type": "node", "id": 6938777962, "lat": 12.9957177, "lon": 77.5031644, "tags": {"addr:district": "Bengaluru Rural", "addr:full": "# 1/3, Heggenanalli Main Road, Opposite Ganesh Temple, Near Peenya 2nd Stage, , Last Bus Stop", "addr:postcode": "560091", "addr:state": "Karnataka", "amenity": "hospital", "name": "Panchamukhi Specialityu Hospital", "source": "OpenGovernmentData"}}, {"type": "node", "id": 6938864290, "lat": 13.0842019, "lon": 77.5308891, "tags": {"addr:district": "Bengaluru Urban", "addr:full": "#21/1, Lakshmipura Main Road,Vidyaranyapura,Opposite Lakshmipura Lake", "addr:postcode": "560097", "addr:state": "Karnataka", "amenity": "hospital", "name": "Rajalakshmi Hospital", "source": "OpenGovernmentData"}}, {"type": "node", "id": 6944256035, "lat": 13.0045747, "lon": 77.5432728, "tags": {"addr:district": "Bengaluru Urban", "addr:full": "158, 6Th Main Road 4Th Stage, Ii Phase West Of Chord Road", "addr:postcode": "560086", "addr:state": "Karnataka", "amenity": "hospital", "name": "Namratha Nursing And Maternity Home", "source": "OpenGovernmentData"}}, {"type": "node", "id": 6944437383, "lat": 13.0195733, "lon": 77.5419559, "tags": {"addr:district": "Bengaluru Urban", "addr:full": "# 141/142, 1st Main, Krishnandanagar, Khb Colony", "addr:postcode": "560096", "addr:state": "Karnataka", "addr:subdistrict": "Nandini Layout", "amenity": "hospital", "email": "info@rakshahospital.in", "name": "Raksha Multispeciality Hospital", "operator:type": "private", "source": "OpenGovernmentData", "website": "http://www.rakshahospital.in/"}}, {"type": "node", "id": 6944449930, "lat": 13.0195955, "lon": 77.5419813, "tags": {"addr:district": "Bengaluru Urban", "addr:full": "18/17,Cambridge Road,Ulsoor", "addr:postcode": "560038", "addr:state": "Karnataka", "amenity": "hospital", "name": "Cambridge Hospital", "source": "OpenGovernmentData"}}, {"type": "node", "id": 6944543261, "lat": 13.0098352, "lon": 77.5384723, "tags": {"addr:district": "Bengaluru Urban", "addr:full": "#4,Sfhs,Next To Nandini Layout", "addr:postcode": "560096", "addr:state": "Karnataka", "amenity": "hospital", "healthcare": "hospital", "healthcare:speciality": "blood_check;general", "name": "J.P.Nursing Home", "opening_hours": "24/7", "operator": "Jyothi Prakash", "operator:type": "public", "source": "OpenGovernmentData"}}, {"type": "node", "id": 6945050485, "lat": 13.0423919, "lon": 77.5136653, "tags": {"addr:district": "Bengaluru Urban", "addr:full": "No. 15, Drls Plaza, 1st Floor, Nh-4, Above Andhra Bank, T. Dasarahalli", "addr:postcode": "560057", "addr:state": "Karnataka", "amenity": "hospital", "name": "Sri Venkateshwara Eye Hospital", "source": "OpenGovernmentData"}}, {"type": "node", "id": 6947033494, "lat": 12.9980009, "lon": 77.5432779, "tags": {"addr:district": "Bengaluru Urban", "addr:full": "No.877, Modi Hospital Road, West of Chord Road, II Stage Extension", "addr:postcode": "560086", "addr:state": "Karnataka", "amenity": "hospital", "healthcare": "hospital", "name": "Pristine Hospital", "name:kn": "\u0caa\u0ccd\u0cb0\u0cbf\u0cb8\u0ccd\u0c9f\u0cc0\u0ca8\u0ccd \u0c86\u0cb8\u0ccd\u0caa\u0ca4\u0ccd\u0cb0\u0cc6", "operator:type": "private", "source": "OpenGovernmentData", "website": "http://pristinehospitals.com/"}}, {"type": "node", "id": 6947226705, "lat": 13.0004769, "lon": 77.5054027, "tags": {"addr:district": "Bengaluru Rural", "addr:full": "Ktg Educational Campus, Sy No. 93, Srigandadakaval, Sunkadakatte Road, Vishwaneedam Post", "addr:postcode": "560091", "addr:state": "Karnataka", "amenity": "hospital", "name": "K.T.G. Hospital", "source": "OpenGovernmentData"}}, {"type": "node", "id": 6947682046, "lat": 13.0068811, "lon": 77.5055636, "tags": {"addr:district": "Bengaluru Rural", "addr:full": "208, 210, Hegganahalli Main Road, Near Peenya 2nd Stage, Hegganahalli", "addr:postcode": "560091", "addr:state": "Karnataka", "amenity": "hospital", "name": "Jai Maruthi Hospital", "source": "OpenGovernmentData"}}, {"type": "node", "id": 6948030294, "lat": 12.9986239, "lon": 77.542782, "tags": {"addr:district": "Bengaluru Urban", "addr:full": "1078 11Th Main 9Th Cross Above Punjab National Bank Mahalakshmipura", "addr:postcode": "560086", "addr:state": "Karnataka", "amenity": "hospital", "healthcare": "hospital", "name": "Sri Ranga Arogyadhama", "source": "OpenGovernmentData"}}, {"type": "node", "id": 6948604083, "lat": 13.0001802, "lon": 77.5461146, "tags": {"addr:district": "Bengaluru Urban", "addr:full": "No - 30,1st Cross, Opp Geleyara Balaga Bus Stop,Mahalakshmipuram,Banglore", "addr:postcode": "560086", "addr:state": "Karnataka", "amenity": "hospital", "name": "Gurukripa Hospital and Health Care Centre", "source": "OpenGovernmentData"}}, {"type": "node", "id": 6950185719, "lat": 13.0093599, "lon": 77.5222108, "tags": {"addr:district": "Bengaluru Urban", "addr:full": "No.12, Laggere Main Road, Laggere, Bengaluru", "addr:postcode": "560058", "addr:state": "Karnataka", "amenity": "hospital", "name": "Sai Baba Hospital", "name:kn": "\u0cb8\u0cbe\u0caf\u0cbf\u0cac\u0cbe\u0cac \u0c86\u0cb8\u0ccd\u0caa\u0ca4\u0ccd\u0cb0\u0cc6", "source": "OpenGovernmentData"}}, {"type": "node", "id": 7202935749, "lat": 13.031132, "lon": 77.483923, "tags": {"addr:district": "Bangalore", "addr:full": "Thippenahalli", "addr:postcode": "560073", "addr:state": "Karnataka", "addr:subdistrict": "Bangalore North", "amenity": "hospital", "name": "Thippenalli Government Hospital", "source": "OpenGovernmentData"}}, {"type": "node", "id": 7202935803, "lat": 13.009817, "lon": 77.5231852, "tags": {"addr:district": "Bangalore", "addr:full": "Peenya Post, Muneshwara Badavane", "addr:postcode": "560058", "addr:state": "Karnataka", "addr:subdistrict": "Bangalore North", "amenity": "hospital", "name": "Laggere Government Hospital", "name:kn": "\u0cb2\u0c97\u0ccd\u0c97\u0cc6\u0cb0\u0cc6 \u0cb8\u0cb0\u0ccd\u0c95\u0cbe\u0cb0\u0cbf \u0c86\u0cb8\u0ccd\u0caa\u0ca4\u0ccd\u0cb0\u0cc6", "source": "OpenGovernmentData"}}, {"type": "node", "id": 7202935849, "lat": 13.049152, "lon": 77.510442, "tags": {"addr:district": "Bangalore", "addr:full": "Nelamaheshwarinagar T DASARAHALLI", "addr:postcode": "560057", "addr:state": "Karnataka", "addr:subdistrict": "Bangalore North", "amenity": "hospital", "name": "NELAMAHESHWARI Government Hospital", "source": "OpenGovernmentData"}}, {"type": "node", "id": 7339722928, "lat": 13.0484436, "lon": 77.4825704}, {"type": "node", "id": 7339722929, "lat": 13.0476649, "lon": 77.4852365}, {"type": "node", "id": 7339722930, "lat": 13.0501185, "lon": 77.4857408}, {"type": "node", "id": 7339722931, "lat": 13.0503641, "lon": 77.4849442}, {"type": "node", "id": 7339722932, "lat": 13.0506019, "lon": 77.4850032}, {"type": "node", "id": 7339722933, "lat": 13.0510304, "lon": 77.4850085}, {"type": "node", "id": 7339722934, "lat": 13.0510931, "lon": 77.4856496}, {"type": "node", "id": 7339722935, "lat": 13.0514458, "lon": 77.4856603}, {"type": "node", "id": 7339722936, "lat": 13.0513936, "lon": 77.4861753}, {"type": "node", "id": 7339722937, "lat": 13.0523682, "lon": 77.4864301}, {"type": "node", "id": 7413376528, "lat": 12.9984165, "lon": 77.5458615}, {"type": "node", "id": 7413376529, "lat": 12.9980263, "lon": 77.5463388}, {"type": "node", "id": 7413376530, "lat": 12.9980298, "lon": 77.5462056}, {"type": "node", "id": 7413376531, "lat": 12.9975687, "lon": 77.546189}, {"type": "node", "id": 7489451098, "lat": 13.0468499, "lon": 77.5063696}, {"type": "node", "id": 7489626471, "lat": 13.0413777, "lon": 77.5050224, "tags": {"amenity": "hospital", "healthcare": "hospital", "name": "naveen clinc"}}, {"type": "node", "id": 7577248184, "lat": 13.081777, "lon": 77.54091, "tags": {"addr:district": "Bengaluru Urban", "addr:full": "Varadharaja Nagar, Varadarajaswamy Layout, Singapura, Bengaluru", "addr:postcode": "560097", "addr:state": "Karnataka", "amenity": "hospital", "name": "Aveksha Hospital", "source": "Local Knowledge"}}, {"type": "node", "id": 8188038473, "lat": 13.070554, "lon": 77.5388968, "tags": {"addr:full": "KVP Nagar, Jalahalli, Bengaluru, Karnataka", "addr:state": "Karnataka", "amenity": "hospital", "name": "Government Hospital", "name:kn": "\u0cb8\u0cb0\u0ccd\u0c95\u0cbe\u0cb0\u0cbf \u0c86\u0cb8\u0ccd\u0caa\u0ca4\u0ccd\u0cb0\u0cc6"}}, {"type": "node", "id": 8188038495, "lat": 13.0650144, "lon": 77.5041964, "tags": {"addr:full": "Bus Stop, Bus Stop, Bonemill, Hesarghatta Main Rd, Soundarya Layout, Bengaluru, Karnataka", "addr:state": "Karnataka", "amenity": "hospital", "healthcare": "hospital", "name": "Kruthika Hospital"}}, {"type": "node", "id": 8188038499, "lat": 13.0621628, "lon": 77.5177637, "tags": {"addr:full": "342, 6th Cross, Brindavan Layout, Shetty Halli, Jalahalli West, Bengaluru, Karnataka", "addr:state": "Karnataka", "amenity": "hospital", "name": "Dr Saju George Kottakkal"}}, {"type": "node", "id": 8188038523, "lat": 13.0559513, "lon": 77.5329456, "tags": {"addr:full": "144, Kammagondana Halli Main Rd, Kammagondahalli, Jalahalli, Bengaluru, Karnataka", "addr:state": "Karnataka", "amenity": "hospital", "name": "Fathima Hospital"}}, {"type": "node", "id": 8188038553, "lat": 13.0439933, "lon": 77.5065494, "tags": {"addr:full": "Vidya Nagar, Peenya, Bengaluru, Karnataka", "addr:state": "Karnataka", "amenity": "hospital", "name": "Esi Dispensary"}}, {"type": "node", "id": 8188038578, "lat": 13.0313399, "lon": 77.5055985, "tags": {"addr:full": "Bengaluru, Nalagadderanahalli, Peenya, Bengaluru, Karnataka", "addr:state": "Karnataka", "amenity": "hospital", "name": "Ashwini Hospital", "name:kn": "\u0c85\u0cb6\u0ccd\u0cb5\u0cbf\u0ca8\u0cbf \u0c86\u0cb8\u0ccd\u0caa\u0ca4\u0ccd\u0cb0\u0cc6"}}, {"type": "node", "id": 8188038584, "lat": 13.0280728, "lon": 77.5231858, "tags": {"addr:full": "KIADB Housing Complex, Peenya, Yeshwanthpur Suburb II Stage, KIADB Housing Complex, Peenya, Bengaluru, Karnataka", "addr:state": "Karnataka", "amenity": "hospital", "name": "Esi Hospital Peenya 1st Stage"}}, {"type": "node", "id": 8240881787, "lat": 12.9980688, "lon": 77.5463413, "tags": {"access": "private", "barrier": "gate"}}, {"type": "node", "id": 9828605108, "lat": 13.0307421, "lon": 77.5361831}, {"type": "node", "id": 9844348521, "lat": 13.0467086, "lon": 77.5069261}, {"type": "node", "id": 9844348522, "lat": 13.0458243, "lon": 77.5066895}, {"type": "node", "id": 9844348523, "lat": 13.0459656, "lon": 77.506133}, {"type": "node", "id": 9912087539, "lat": 13.0288068, "lon": 77.5396669}, {"type": "node", "id": 9912087540, "lat": 13.0275805, "lon": 77.5389827}, {"type": "node", "id": 9912087541, "lat": 13.0277795, "lon": 77.5386259}, {"type": "node", "id": 9912087544, "lat": 13.0283815, "lon": 77.5389775}, {"type": "node", "id": 10105851151, "lat": 13.0281077, "lon": 77.5429966}, {"type": "node", "id": 10989104210, "lat": 13.0310683, "lon": 77.5356447, "tags": {"access": "private", "barrier": "gate"}}, {"type": "node", "id": 11359481140, "lat": 13.0310833, "lon": 77.5356185}, {"type": "node", "id": 11361245455, "lat": 13.0302527, "lon": 77.5351509}, {"type": "node", "id": 11885825007, "lat": 13.030834, "lon": 77.536061, "tags": {"access": "private", "barrier": "gate"}}, {"type": "node", "id": 11887013628, "lat": 13.0242754, "lon": 77.5300549}, {"type": "node", "id": 11887013629, "lat": 13.0239616, "lon": 77.5308877}, {"type": "node", "id": 11887013630, "lat": 13.0253074, "lon": 77.5318171}, {"type": "node", "id": 11887013631, "lat": 13.0260112, "lon": 77.5308311}, {"type": "node", "id": 11969109757, "lat": 13.0281925, "lon": 77.5393241}, {"type": "node", "id": 12526729545, "lat": 13.0302607, "lon": 77.5359102}, {"type": "node", "id": 12820381031, "lat": 13.0477867, "lon": 77.4848194}, {"type": "node", "id": 12820381032, "lat": 13.0485317, "lon": 77.4807817}, {"type": "way", "id": 36676436, "nodes": [11361245455, 11359481140, 10989104210, 11885825007, 9828605108, 12526729545, 426410508, 599195220, 11361245455], "tags": {"amenity": "hospital", "name": "KLE Dental College"}}, {"type": "way", "id": 332071569, "nodes": [3391834193, 3391834194, 3391834195, 3391834196, 3391834197, 3391834198, 3391834199, 3391834200, 3391834193], "tags": {"addr:district": "Bengaluru Urban", "addr:full": "#761, 7th Main, Last Bus Stop, Near Swimming pool, Mahalakshmi Layout", "addr:postcode": "560086", "addr:state": "Karnataka", "amenity": "hospital", "building": "yes", "healthcare": "hospital", "name": "Sanjeevani Hospital", "name:kn": "\u0cb8\u0c82\u0c9c\u0cc0\u0cb5\u0ca8\u0cbf \u0c86\u0cb8\u0ccd\u0caa\u0ca4\u0ccd\u0cb0\u0cc6", "operator:type": "private", "source": "OpenGovernmentData", "website": "https://www.sanjeevinihospital.com/"}}, {"type": "way", "id": 339095607, "nodes": [3462836060, 3462836043, 3462850452, 3462836044, 3462836045, 3462836059, 3462836061, 3462836053, 3462836054, 3462836055, 3462836056, 3462836057, 3462836058, 3462836060], "tags": {"addr:district": "Bengaluru Urban", "addr:full": "19, 2nd Main Road, 1st Phase Peenya Industrial Area", "addr:postcode": "560058", "addr:state": "Karnataka", "amenity": "hospital", "building": "hospital", "emergency": "yes", "healthcare": "hospital", "name": "Ravi Kirloskar Memorial Hospital", "name:kn": "\u0cb0\u0cb5\u0cbf \u0c95\u0cbf\u0cb0\u0ccd\u0cb2\u0cca\u0cb8\u0ccd\u0c95\u0cb0\u0ccd \u0c86\u0cb8\u0ccd\u0caa\u0ca4\u0ccd\u0cb0\u0cc6", "source": "OpenGovernmentData"}}, {"type": "way", "id": 354497944, "nodes": [3602104521, 3602104516, 3602104364, 3602104369, 3602104521], "tags": {"amenity": "hospital", "healthcare": "hospital", "name": "ChanRe Rheumatology And Immunology Center And Research"}}, {"type": "way", "id": 362755622, "nodes": [3670144857, 3670144858, 3670144844, 3670144843, 3670144846, 3670144845, 3670144848, 3670144847, 3670144850, 3670144849, 3670144852, 3670144851, 3670144864, 3670144863, 3670144871, 3670144872, 3670144870, 3670144869, 3670144857]}, {"type": "way", "id": 362755626, "nodes": [3670144866, 3670144865, 3670144862, 3670144861, 3670144853, 3670144854, 3670144866]}, {"type": "way", "id": 362755627, "nodes": [3670144868, 3670144867, 3670144859, 3670144860, 3670144855, 3670144856, 3670144868]}, {"type": "way", "id": 674362377, "nodes": [6226479726, 6315531910, 6226479728, 10105851151, 6226479719, 6226479726], "tags": {"addr:city": "Bengaluru", "addr:postcode": "560022", "addr:street": "Tumkur Road", "amenity": "hospital", "name": "Sparsh Hospital", "name:kn": "\u0cb8\u0ccd\u0caa\u0cb0\u0ccd\u0cb6\u0ccd \u0c86\u0cb8\u0ccd\u0caa\u0ca4\u0ccd\u0cb0\u0cc6", "phone": "00919019108108", "website": "https://www.sparshhospital.com/"}}, {"type": "way", "id": 697081723, "nodes": [6546893769, 6546893768, 7413376531, 7413376530, 7413376529, 8240881787, 2296630617, 7413376528, 6546893769], "tags": {"addr:district": "Bengaluru Urban", "addr:full": "Modi Hospital Road, Mahalakshmipuram", "addr:postcode": "560086", "addr:state": "Karnataka", "amenity": "hospital", "email": "modihospital@hotmail.com", "healthcare": "hospital", "name": "M C Modi Eye Hospital", "name:etymology:wikidata": "Q1880759", "name:kn": "\u0cae\u0ccb\u0ca6\u0cbf \u0c95\u0ca3\u0ccd\u0ca3\u0cbf\u0ca8 \u0c86\u0cb8\u0ccd\u0caa\u0ca4\u0ccd\u0cb0\u0cc6", "operator:type": "private", "source": "OpenGovernmentData", "website": "http://www.modieyehospital.com/", "wheelchair": "yes"}}, {"type": "way", "id": 726095464, "nodes": [6807544239, 6807544240, 6807544241, 6807544242, 6807544239], "tags": {"amenity": "hospital", "healthcare": "hospital"}}, {"type": "way", "id": 726119799, "nodes": [6807793492, 6807793493, 6807793494, 6807793495, 6807793492], "tags": {"addr:district": "Bengaluru Rural", "addr:full": "No.3 & 3A, Hesarghatta Main Road,Chikkasandra,Next To Janapriya Apartment,Near Chikkabanavara Railway Station", "addr:postcode": "560090", "addr:state": "Karnataka", "amenity": "hospital", "healthcare": "hospital", "name": "Nrr Hospital", "source": "OpenGovernmentData"}}, {"type": "way", "id": 726190880, "nodes": [6808389338, 6808389339, 6808389340, 6808389341, 6808389338], "tags": {"addr:district": "Bengaluru Urban", "addr:full": "#18-23, Maliasandra Main Road,4Th & 5Th Cross, Bagalagunte,Hesaraghatta Road", "addr:postcode": "560057", "addr:state": "Karnataka", "amenity": "hospital", "building": "commercial", "name": "Arunodaya Hospitals", "name:kn": "\u0c85\u0cb0\u0cc1\u0ca3\u0ccb\u0ca6\u0caf \u0c86\u0cb8\u0ccd\u0caa\u0ca4\u0ccd\u0cb0\u0cc6", "source": "OpenGovernmentData"}}, {"type": "way", "id": 726342145, "nodes": [6808989940, 6808989941, 6808989942, 6808989943, 6808989944, 6808989945, 6808989946, 6808989947, 6808989948, 6808989949, 6808989950, 6808989951, 6808989952, 6808989953, 6808989940], "tags": {"addr:district": "Bengaluru Urban", "addr:full": "No.30 Hesaraghatta Road , T Dasarahalli", "addr:postcode": "560057", "addr:state": "Karnataka", "amenity": "hospital", "building": "commercial", "name": "Dr Ramachandra Hospital", "name:kn": "\u0cb0\u0cbe\u0cae\u0c9a\u0c82\u0ca6\u0ccd\u0cb0 \u0c86\u0cb8\u0ccd\u0caa\u0ca4\u0ccd\u0cb0\u0cc6", "source": "OpenGovernmentData"}}, {"type": "way", "id": 785273431, "nodes": [5689372192, 7339722937, 7339722936, 7339722935, 7339722934, 7339722933, 7339722932, 7339722931, 7339722930, 7339722929, 12820381031, 7339722928, 12820381032, 3834145549, 3834145560, 3834145562, 3834145563, 3834145564, 3834145577, 3834145585, 3834145590, 3834145596, 3834145608, 3834145618, 3834145620, 3834145622, 3834145624, 3834145641, 5689372193, 5689372192], "tags": {"addr:district": "Bengaluru Urban", "addr:full": "Jindal Nagar Tumkur Road", "addr:postcode": "560073", "addr:state": "Karnataka", "amenity": "hospital", "fixme": "Boundaries and Size of polygon", "name": "Jindal Naturecure Institute hospital", "source": "OpenGovernmentData"}}, {"type": "way", "id": 1073073120, "nodes": [7489451098, 9844348521, 9844348522, 9844348523, 7489451098], "tags": {"amenity": "hospital", "healthcare": "hospital", "name": "Prakriya Hospital", "wheelchair": "yes"}}, {"type": "way", "id": 1081463156, "nodes": [9912087539, 11969109757, 9912087540, 9912087541, 9912087544, 4057005815, 9912087539], "tags": {"addr:city": "bangalore", "addr:district": "Bengaluru Urban", "addr:full": "# 2, Tumkur Road, Goreguntepalya", "addr:housenumber": "2", "addr:postcode": "560022", "addr:state": "Karnataka", "addr:street": "Tumkur Road, Opp. Taj Vivanta, Goraguntepalya", "amenity": "hospital", "email": "appointments@peopletreehospitals.com", "name": "People Tree Hospitals", "operator:type": "private", "phone": "+9180 4959 9999", "source": "OpenGovernmentData", "website": "https://www.peopletreehospitals.com/"}}, {"type": "way", "id": 1280619026, "nodes": [11887013631, 11887013630, 11887013629, 11887013628, 11887013631], "tags": {"amenity": "hospital", "healthcare": "hospital", "name": "ESI Hospital Peenya", "operator": "Employees' State Insurance", "operator:short": "ESI", "operator:wikidata": "Q3595726"}}, {"type": "relation", "id": 5397008, "members": [{"type": "way", "ref": 362755627, "role": "inner"}, {"type": "way", "ref": 362755626, "role": "inner"}, {"type": "way", "ref": 362755622, "role": "outer"}], "tags": {"addr:district": "Bengaluru Rural", "addr:full": "#15, Chikkasandra, Hesaraghatta Main Road", "addr:postcode": "560090", "addr:state": "Karnataka", "amenity": "hospital", "building": "hospital", "healthcare": "hospital", "name": "Sapthagiri Hospital", "name:kn": "\u0cb8\u0caa\u0ccd\u0ca4\u0c97\u0cbf\u0cb0\u0cbf \u0c86\u0cb8\u0ccd\u0caa\u0ca4\u0ccd\u0cb0\u0cc6", "source": "OpenGovernmentData", "type": "multipolygon"}}]}