{"version": 0.6, "generator": "Overpass API 0.7.62.8 e802775f", "osm3s": {"timestamp_osm_base": "2026-01-15T11:41:45Z", "copyright": "The data included in this document is from www.openstreetmap.org. The data is made available under ODbL."}, "elements": [{"type": "node", "id": 2592760455, "lat": 51.9818034, "lon": 4.4618729, "tags": {"addr:city": "Berkel en Rodenrijs", "addr:housenumber": "18", "addr:postcode": "2651XK", "addr:street": "Chrysantenhof", "amenity": "school", "denomination": "protestant", "email": "info.pwa@spectrum-spco.nl", "isced:level": "0;1", "name": "Prins Willem-Alexanderschool", "name:etymology:wikidata": "Q154952", "official_name": "Christelijke Basisschool Prins Willem-Alexander", "operator": "Spectrum", "operator:website": "https://spectrum-spco.nl/", "operator:wikidata": "Q121863478", "phone": "+31 10 511 2043", "religion": "christian", "school": "primary", "source": "BAG", "source:date": "2025-01-11", "website": "https://pwabasisschool.nl/", "wikidata": "Q22803074"}}, {"type": "node", "id": 2592760831, "lat": 51.982261, "lon": 4.4617392, "tags": {"addr:city": "Berkel en Rodenrijs", "addr:housenumber": "20", "addr:postcode": "2651XK", "addr:street": "Chrysantenhof", "amenity": "school", "denomination": "roman_catholic", "email": "kwakel@laurentiusstichting.nl", "isced:level": "0;1", "name": "De Kwakel", "official_name": "Jenaplanschool De Kwakel", "operator": "Laurentius Stichting", "operator:website": "https://www.laurentiusstichting.nl/", "operator:wikidata": "Q1972201", "operator:wikipedia": "nl:Laurentius Stichting", "pedagogy": "jenaplan", "phone": "+31 10 519 9555", "religion": "christian", "school": "primary", "source": "BAG", "source:date": "2025-01-11", "website": "https://www.dekwakelschool.nl/", "wikidata": "Q22796071"}}, {"type": "node", "id": 5600970858, "lat": 51.9844206, "lon": 4.4512616}, {"type": "node", "id": 5600970859, "lat": 51.9845585, "lon": 4.4522346}, {"type": "node", "id": 5600970860, "lat": 51.9848, "lon": 4.4521428}, {"type": "node", "id": 5600970861, "lat": 51.9847577, "lon": 4.4511408}, {"type": "node", "id": 5970513827, "lat": 51.9575043, "lon": 4.466451}, {"type": "node", "id": 5970513828, "lat": 51.9572579, "lon": 4.4671866}, {"type": "node", "id": 5970513829, "lat": 51.9572811, "lon": 4.4674912}, {"type": "node", "id": 5970513830, "lat": 51.9575801, "lon": 4.4678832}, {"type": "node", "id": 5970513831, "lat": 51.9577025, "lon": 4.4673314}, {"type": "node", "id": 5970516922, "lat": 51.9578889, "lon": 4.4692436}, {"type": "node", "id": 5970516923, "lat": 51.9576383, "lon": 4.4698073}, {"type": "node", "id": 5970516924, "lat": 51.9573227, "lon": 4.4693878}, {"type": "node", "id": 5970516925, "lat": 51.9577404, "lon": 4.4685099}, {"type": "node", "id": 5970516926, "lat": 51.9579605, "lon": 4.4684604}, {"type": "node", "id": 5970516927, "lat": 51.9580308, "lon": 4.4687143}, {"type": "node", "id": 5970516928, "lat": 51.9580255, "lon": 4.4688714}, {"type": "node", "id": 5970516929, "lat": 51.9579897, "lon": 4.4690177}, {"type": "node", "id": 6089966574, "lat": 51.9645858, "lon": 4.4719401}, {"type": "node", "id": 6089966575, "lat": 51.9649382, "lon": 4.4723998}, {"type": "node", "id": 6089966576, "lat": 51.9646363, "lon": 4.4729986}, {"type": "node", "id": 6089966577, "lat": 51.9642871, "lon": 4.4725442}, {"type": "node", "id": 6565060401, "lat": 51.9848862, "lon": 4.4520301}, {"type": "node", "id": 6565060403, "lat": 51.9847868, "lon": 4.4513424}, {"type": "node", "id": 6565060404, "lat": 51.9848775, "lon": 4.4519701}, {"type": "node", "id": 6585420214, "lat": 51.9828293, "lon": 4.4483286}, {"type": "node", "id": 6585420215, "lat": 51.9820522, "lon": 4.4488206}, {"type": "node", "id": 6585420216, "lat": 51.9820201, "lon": 4.4490739}, {"type": "node", "id": 6585420217, "lat": 51.9821799, "lon": 4.449713}, {"type": "node", "id": 6585420218, "lat": 51.9823383, "lon": 4.4498587}, {"type": "node", "id": 6585420219, "lat": 51.9828531, "lon": 4.4495375}, {"type": "node", "id": 6585420220, "lat": 51.983018, "lon": 4.4493486}, {"type": "node", "id": 6585420221, "lat": 51.983019, "lon": 4.4491266}, {"type": "node", "id": 8099082212, "lat": 51.954175, "lon": 4.4559159}, {"type": "node", "id": 8099082213, "lat": 51.9544238, "lon": 4.4556612}, {"type": "node", "id": 8935801178, "lat": 51.9538402, "lon": 4.4541808}, {"type": "node", "id": 8935801179, "lat": 51.9533128, "lon": 4.4556555}, {"type": "node", "id": 8935801180, "lat": 51.9535094, "lon": 4.4548696}, {"type": "node", "id": 8935801181, "lat": 51.9534187, "lon": 4.4546155}, {"type": "node", "id": 9344152591, "lat": 51.9610551, "lon": 4.4724302, "tags": {"addr:city": "Rotterdam", "addr:housenumber": "190", "addr:postcode": "3053LG", "addr:street": "Larikslaan", "amenity": "school", "denomination": "roman_catholic", "email": "directie@fatimarvko.nl", "isced:level": "0;1", "name": "Fatimaschool", "phone": "+31 10 4188005", "religion": "christian", "school": "primary", "source": "BAG", "source:date": "2021-12-16", "website": "https://fatimaschool.nl"}}, {"type": "node", "id": 12871042204, "lat": 51.9572207, "lon": 4.4666108}, {"type": "node", "id": 12871042205, "lat": 51.9573424, "lon": 4.4671643}, {"type": "node", "id": 12871042206, "lat": 51.9573067, "lon": 4.4674323}, {"type": "node", "id": 12871042207, "lat": 51.9576067, "lon": 4.4678782}, {"type": "node", "id": 12871042208, "lat": 51.957663, "lon": 4.4678494}, {"type": "node", "id": 12871042209, "lat": 51.9578159, "lon": 4.4676776}, {"type": "node", "id": 12871042210, "lat": 51.9576474, "lon": 4.4677804}, {"type": "node", "id": 12871042211, "lat": 51.9577382, "lon": 4.4673159}, {"type": "node", "id": 13290784754, "lat": 51.9818621, "lon": 4.4614951}, {"type": "node", "id": 13290784755, "lat": 51.9823394, "lon": 4.4614901}, {"type": "node", "id": 13290784756, "lat": 51.982567, "lon": 4.4621819}, {"type": "node", "id": 13290784757, "lat": 51.982224, "lon": 4.4625363}, {"type": "node", "id": 13290784758, "lat": 51.9821742, "lon": 4.4626997}, {"type": "node", "id": 13290784759, "lat": 51.9819132, "lon": 4.4625415}, {"type": "node", "id": 13290784760, "lat": 51.9814068, "lon": 4.4616883}, {"type": "node", "id": 13290784761, "lat": 51.981889, "lon": 4.4615934}, {"type": "node", "id": 13290784762, "lat": 51.9816977, "lon": 4.4615426}, {"type": "node", "id": 13290784763, "lat": 51.9816841, "lon": 4.4614409}, {"type": "node", "id": 13290784764, "lat": 51.9814771, "lon": 4.4615287}, {"type": "way", "id": 586136395, "nodes": [5600970861, 6565060403, 6565060404, 6565060401, 5600970860, 5600970859, 5600970858, 5600970861], "tags": {"addr:city": "Berkel en Rodenrijs", "addr:housenumber": "30", "addr:postcode": "2652LC", "addr:street": "Theo d'Orsingel", "amenity": "school", "denomination": "roman_catholic", "email": "info@degoudengriffel.nl", "isced:level": "0;1", "name": "De Gouden Griffel", "name:etymology:wikidata": "Q1535416", "official_name": "Intergraal Kindcentrum Gouden Griffel", "operator": "Laurentius Stichting", "operator:website": "https://www.laurentiusstichting.nl/", "operator:wikidata": "Q1972201", "operator:wikipedia": "nl:Laurentius Stichting", "phone": "+31 10 511 0097", "religion": "christian", "school": "primary", "website": "https://www.degoudengriffel.nl/", "wikidata": "Q22796276"}}, {"type": "way", "id": 632320201, "nodes": [5970513827, 12871042204, 12871042205, 5970513828, 12871042206, 5970513829, 5970513830, 12871042207, 12871042208, 12871042210, 12871042209, 12871042211, 5970513831, 5970513827], "tags": {"amenity": "school", "capacity": "220", "denomination": "protestant", "isced": "1", "max_age": "12", "min_age": "4", "name": "Goede Herderschool", "operator": "Stichting PCOHS", "religion": "christian", "website": "https://www.goede-herderschool.nl/"}}, {"type": "way", "id": 632320363, "nodes": [5970516922, 5970516923, 5970516924, 5970516925, 5970516926, 5970516927, 5970516928, 5970516929, 5970516922], "tags": {"amenity": "school", "capacity": "220", "isced": "1", "max_age": "12", "min_age": "4", "name": "Isra", "operator": "Stichting Islamitische Primair Onderwijs Rijnmond (SIPOR)", "religion": "muslim", "website": "https://basisschoolisra.nl/"}}, {"type": "way", "id": 648733097, "nodes": [6089966574, 6089966575, 6089966576, 6089966577, 6089966574], "tags": {"amenity": "school", "capacity": "150", "isced": "2", "max_age": "16", "min_age": "12", "name": "Schreuder College De Villeneuvestraat", "operator": "iHUB", "pedagogy": "Voortgezet speciaal onderwijs (VSO)", "website": "https://www.altrahorizononderwijs.nl/horizon-scholen/schreuder-college-de-villeneuvestraat/introductie"}}, {"type": "way", "id": 701206196, "nodes": [6585420214, 6585420215, 6585420216, 6585420217, 6585420218, 6585420219, 6585420220, 6585420221, 6585420214], "tags": {"addr:city": "Berkel en Rodenrijs", "addr:housenumber": "50", "addr:postcode": "2652LA", "addr:street": "Myra Wardsingel", "amenity": "school", "name": "Melanchthon Berkroden"}}, {"type": "way", "id": 965921279, "nodes": [8935801178, 8099082213, 8099082212, 8935801179, 8935801180, 8935801181, 8935801178], "tags": {"amenity": "school"}}, {"type": "way", "id": 1448623035, "nodes": [13290784754, 13290784761, 13290784755, 13290784756, 13290784757, 13290784758, 13290784759, 13290784760, 13290784764, 13290784763, 13290784762, 13290784754], "tags": {"amenity": "school", "education": "school"}}]}