{"version": 0.6, "generator": "Overpass API 0.7.62.8 e802775f", "osm3s": {"timestamp_osm_base": "2026-01-12T01:42:33Z", "copyright": "The data included in this document is from www.openstreetmap.org. The data is made available under ODbL."}, "elements": [{"type": "node", "id": 634123608, "lat": 17.4054551, "lon": 78.5122245, "tags": {"amenity": "school", "name": "S.V.E.S High School"}}, {"type": "node", "id": 634123799, "lat": 17.4075707, "lon": 78.5135035, "tags": {"amenity": "school", "name": "Jyothi Bala Mandir High School"}}, {"type": "node", "id": 677300258, "lat": 17.3957311, "lon": 78.4884345, "tags": {"amenity": "school", "name": "Jingle Bell School"}}, {"type": "node", "id": 726146076, "lat": 17.4004331, "lon": 78.4883969, "tags": {"amenity": "school", "name": "Narayana Junior College, AIEEE"}}, {"type": "node", "id": 726243304, "lat": 17.404402, "lon": 78.4578133, "tags": {"amenity": "school", "name": "Holy Mary Girls High School"}}, {"type": "node", "id": 726274913, "lat": 17.3937581, "lon": 78.4524941, "tags": {"amenity": "school", "name": "St.Josephs High School"}}, {"type": "node", "id": 727180831, "lat": 17.4015388, "lon": 78.484836, "tags": {"amenity": "school", "name": "Goutham Model School"}}, {"type": "node", "id": 728911854, "lat": 17.3947951, "lon": 78.4730227, "tags": {"amenity": "school", "name": "Sujatha High School"}}, {"type": "node", "id": 728912657, "lat": 17.393638, "lon": 78.474754, "tags": {"amenity": "school", "name": "Little Flower High School"}}, {"type": "node", "id": 728915591, "lat": 17.3925192, "lon": 78.4740505, "tags": {"amenity": "school", "name": "Little Flower Primary School"}}, {"type": "node", "id": 739161413, "lat": 17.4113728, "lon": 78.4588295, "tags": {"amenity": "school", "name": "Nasr School"}}, {"type": "node", "id": 890303727, "lat": 17.4135412, "lon": 78.4445973, "tags": {"amenity": "school", "name": "Springfields School"}}, {"type": "node", "id": 1309311188, "lat": 17.4074556, "lon": 78.4695185}, {"type": "node", "id": 1309311190, "lat": 17.4065401, "lon": 78.4705863}, {"type": "node", "id": 1309311192, "lat": 17.4073299, "lon": 78.4705407}, {"type": "node", "id": 1309311193, "lat": 17.4064609, "lon": 78.4696733}, {"type": "node", "id": 1447172299, "lat": 17.3942194, "lon": 78.4842629, "tags": {"amenity": "school"}}, {"type": "node", "id": 1553576940, "lat": 17.396378, "lon": 78.4773556, "tags": {"amenity": "school", "name": "St. Joseph's Girls High School"}}, {"type": "node", "id": 1693979525, "lat": 17.4095337, "lon": 78.4880547, "tags": {"amenity": "school", "name": "St. Peter High School"}}, {"type": "node", "id": 1693981322, "lat": 17.409656, "lon": 78.4871622, "tags": {"amenity": "school", "name": "Rockwoods High School"}}, {"type": "node", "id": 1693981323, "lat": 17.4100043, "lon": 78.4849523, "tags": {"amenity": "school", "name": "Rockwoods High School"}}, {"type": "node", "id": 1891052141, "lat": 17.3395118, "lon": 78.5019168, "tags": {"amenity": "school", "name": "Kendriya Vidyalaya, DRDO, Kanchanbagh"}}, {"type": "node", "id": 1932900009, "lat": 17.4015736, "lon": 78.4810119}, {"type": "node", "id": 1932900010, "lat": 17.4014098, "lon": 78.4814947}, {"type": "node", "id": 1932900011, "lat": 17.4018296, "lon": 78.4817361}, {"type": "node", "id": 1932900012, "lat": 17.4006215, "lon": 78.4812157}, {"type": "node", "id": 1932900013, "lat": 17.4008518, "lon": 78.4820419}, {"type": "node", "id": 1932900014, "lat": 17.400579, "lon": 78.4815433}, {"type": "node", "id": 1932900015, "lat": 17.4013289, "lon": 78.4811785}, {"type": "node", "id": 1932900016, "lat": 17.4014047, "lon": 78.4817736}, {"type": "node", "id": 1932900017, "lat": 17.401374, "lon": 78.4809797}, {"type": "node", "id": 1932900018, "lat": 17.40185, "lon": 78.4815644}, {"type": "node", "id": 1932900019, "lat": 17.4008774, "lon": 78.4815162}, {"type": "node", "id": 1932900020, "lat": 17.4014774, "lon": 78.4814842}, {"type": "node", "id": 1932900021, "lat": 17.4005447, "lon": 78.4820204}, {"type": "node", "id": 2208158646, "lat": 17.3618384, "lon": 78.4819749, "tags": {"amenity": "school", "name": "Dharmavant High School", "name:te": "\u0c27\u0c30\u0c4d\u0c2e\u0c35\u0c02\u0c24\u0c4d \u0c39\u0c48 \u0c38\u0c4d\u0c15\u0c42\u0c32\u0c4d"}}, {"type": "node", "id": 2461282031, "lat": 17.4007046, "lon": 78.5097374}, {"type": "node", "id": 2461282033, "lat": 17.4012434, "lon": 78.5102421}, {"type": "node", "id": 2461282034, "lat": 17.4012639, "lon": 78.5088075}, {"type": "node", "id": 2461282038, "lat": 17.4019024, "lon": 78.5094836}, {"type": "node", "id": 2579727496, "lat": 17.4073661, "lon": 78.4699182}, {"type": "node", "id": 2580556896, "lat": 17.4069188, "lon": 78.4693872}, {"type": "node", "id": 2580556898, "lat": 17.4076139, "lon": 78.4699218}, {"type": "node", "id": 2580556906, "lat": 17.4076113, "lon": 78.4700157}, {"type": "node", "id": 2580556908, "lat": 17.4073328, "lon": 78.4700174}, {"type": "node", "id": 2702443456, "lat": 17.4086181, "lon": 78.4898943, "tags": {"amenity": "school", "name": "narayana school,iit"}}, {"type": "node", "id": 2712626758, "lat": 17.4089994, "lon": 78.4892653, "tags": {"amenity": "school", "name": "eurokids ashok nagar"}}, {"type": "node", "id": 2712702154, "lat": 17.4135294, "lon": 78.4946359, "tags": {"amenity": "school", "name": "little gems play school/sri sai ram tutorial"}}, {"type": "node", "id": 2847575321, "lat": 17.4090369, "lon": 78.4786139}, {"type": "node", "id": 2847575322, "lat": 17.4090428, "lon": 78.4787694}, {"type": "node", "id": 2847575329, "lat": 17.409238, "lon": 78.4786055}, {"type": "node", "id": 2847575331, "lat": 17.4092439, "lon": 78.4787611}, {"type": "node", "id": 3249987903, "lat": 17.4105314, "lon": 78.4649434}, {"type": "node", "id": 3249987904, "lat": 17.4105864, "lon": 78.4649882}, {"type": "node", "id": 3249987905, "lat": 17.4106129, "lon": 78.4644285}, {"type": "node", "id": 3249987906, "lat": 17.4106883, "lon": 78.4649882}, {"type": "node", "id": 3249987907, "lat": 17.4108412, "lon": 78.4649412}, {"type": "node", "id": 3249987908, "lat": 17.4109594, "lon": 78.4645289}, {"type": "node", "id": 3312367255, "lat": 17.3956586, "lon": 78.4777441}, {"type": "node", "id": 3312367256, "lat": 17.3952142, "lon": 78.4777604}, {"type": "node", "id": 3312367257, "lat": 17.3951583, "lon": 78.4781805}, {"type": "node", "id": 3312367258, "lat": 17.3952049, "lon": 78.4785518}, {"type": "node", "id": 3312367259, "lat": 17.3956555, "lon": 78.4785355}, {"type": "node", "id": 3312367260, "lat": 17.39564, "lon": 78.4783499}, {"type": "node", "id": 3312368661, "lat": 17.3956617, "lon": 78.4782229}, {"type": "node", "id": 3312368662, "lat": 17.395699, "lon": 78.4781708}, {"type": "node", "id": 3619598670, "lat": 17.3936166, "lon": 78.4559896}, {"type": "node", "id": 3619598681, "lat": 17.393693, "lon": 78.455929}, {"type": "node", "id": 3619598690, "lat": 17.3937273, "lon": 78.456143}, {"type": "node", "id": 3619598804, "lat": 17.3938037, "lon": 78.4560825}, {"type": "node", "id": 3619599332, "lat": 17.3948966, "lon": 78.4545076}, {"type": "node", "id": 3619599338, "lat": 17.394918, "lon": 78.454636}, {"type": "node", "id": 3619599361, "lat": 17.3951054, "lon": 78.4544694}, {"type": "node", "id": 3619599363, "lat": 17.3951268, "lon": 78.4545978}, {"type": "node", "id": 3664113899, "lat": 17.3828927, "lon": 78.4544736}, {"type": "node", "id": 3664113900, "lat": 17.3828959, "lon": 78.4543561}, {"type": "node", "id": 3664113942, "lat": 17.3832519, "lon": 78.4544844}, {"type": "node", "id": 3664113943, "lat": 17.3832551, "lon": 78.4543668}, {"type": "node", "id": 3818681071, "lat": 17.4064549, "lon": 78.4697112}, {"type": "node", "id": 3818681074, "lat": 17.40652, "lon": 78.4703551}, {"type": "node", "id": 4150777289, "lat": 17.4101542, "lon": 78.484186}, {"type": "node", "id": 4150777290, "lat": 17.4101779, "lon": 78.484116}, {"type": "node", "id": 4150777294, "lat": 17.4102675, "lon": 78.4842283}, {"type": "node", "id": 4150777297, "lat": 17.4102913, "lon": 78.4841583}, {"type": "node", "id": 4407845290, "lat": 17.4020587, "lon": 78.4985239, "tags": {"addr:housenumber": "1-8-270", "addr:postcode": "500053", "amenity": "school", "email": "info@nobleschool.net.in", "name": "baghlingampally", "name:en": "baghlingampally", "operator": "school principal", "phone": "9133409023", "website": "http://nobleschool.net.in"}}, {"type": "node", "id": 4416373791, "lat": 17.4031097, "lon": 78.4886592, "tags": {"amenity": "school", "name": "St Anthony high school", "name:en": "St Anthony high school"}}, {"type": "node", "id": 4416373794, "lat": 17.4014253, "lon": 78.4890028, "tags": {"amenity": "school", "name": "Sri chaitanya high school", "name:en": "Sri chaitanya high school"}}, {"type": "node", "id": 4416393290, "lat": 17.4018367, "lon": 78.4871071, "tags": {"amenity": "school", "name": "Howard school", "name:en": "Howard school"}}, {"type": "node", "id": 4418622009, "lat": 17.4003618, "lon": 78.4905945, "tags": {"amenity": "school", "name": "Avanthi degree&pg college", "name:en": "Avanthi degree&pg college"}}, {"type": "node", "id": 4419078503, "lat": 17.4017724, "lon": 78.4861487, "tags": {"amenity": "school", "name": "Smiles indian school", "name:en": "Smiles indian school", "name:te": "\u0c38\u0c4d\u0c2e\u0c48\u0c32\u0c4d\u0c38\u0c4d \u0c07\u0c02\u0c21\u0c3f\u0c2f\u0c28\u0c4d \u0c38\u0c4d\u0c15\u0c42\u0c32\u0c4d"}}, {"type": "node", "id": 4431245790, "lat": 17.4019162, "lon": 78.4885635, "tags": {"amenity": "school", "name": "St Anthony high school", "name:en": "St Anthony high school"}}, {"type": "node", "id": 4431245791, "lat": 17.4031177, "lon": 78.4885756, "tags": {"amenity": "school", "name": "St Anthony high school", "name:en": "St Anthony high school"}}, {"type": "node", "id": 4431247889, "lat": 17.4040476, "lon": 78.4888685, "tags": {"amenity": "school", "name": "People's High school", "name:en": "People's High school"}}, {"type": "node", "id": 4431897994, "lat": 17.4026174, "lon": 78.4871893, "tags": {"amenity": "school", "name": "St Paul degree and pg college, St Joseph Jr college", "name:en": "St Paul degree and pg college, St Joseph Jr college"}}, {"type": "node", "id": 4431984890, "lat": 17.4030771, "lon": 78.4885458, "tags": {"amenity": "school", "name": "St Anthony high school", "name:en": "St Anthony high school"}}, {"type": "node", "id": 4432355392, "lat": 17.3967553, "lon": 78.5156444, "tags": {"amenity": "school", "name": "Divyanjali High School.", "name:en": "Divyanjali High School."}}, {"type": "node", "id": 4539335628, "lat": 17.3978823, "lon": 78.4540839, "tags": {"amenity": "school", "name": "ST Anns School"}}, {"type": "node", "id": 4739312650, "lat": 17.3680742, "lon": 78.5156883, "tags": {"addr:city": "hyderabad", "addr:housenumber": "Asmangadh palace", "addr:postcode": "500036", "amenity": "school", "name": "St joseph's public school", "operator": "School", "website": "http://sjpsmalakpet.com/"}}, {"type": "node", "id": 4739316297, "lat": 17.368494, "lon": 78.5146455}, {"type": "node", "id": 4739316298, "lat": 17.3683775, "lon": 78.5152932}, {"type": "node", "id": 4739316299, "lat": 17.368337, "lon": 78.5158789}, {"type": "node", "id": 4739316300, "lat": 17.3683386, "lon": 78.5160223}, {"type": "node", "id": 4739316301, "lat": 17.3675049, "lon": 78.5160285}, {"type": "node", "id": 4739316302, "lat": 17.3674848, "lon": 78.5155095}, {"type": "node", "id": 4739316303, "lat": 17.3677719, "lon": 78.5154912}, {"type": "node", "id": 4739316304, "lat": 17.3677816, "lon": 78.5151477}, {"type": "node", "id": 4739316305, "lat": 17.3681464, "lon": 78.5152025}, {"type": "node", "id": 4739316306, "lat": 17.3682744, "lon": 78.514607}, {"type": "node", "id": 4796530721, "lat": 17.3593826, "lon": 78.5045484, "tags": {"amenity": "school", "name": "Sri Vidya vardhini high school", "name:en": "Sri Vidya vardhini high school"}}, {"type": "node", "id": 4972953421, "lat": 17.3621596, "lon": 78.5020934, "tags": {"amenity": "school", "name": "Kare school", "name:en": "Kare school"}}, {"type": "node", "id": 5389639230, "lat": 17.3940612, "lon": 78.4514384, "tags": {"amenity": "school", "name": "St Joseph high school (kindergarten block)"}}, {"type": "node", "id": 5565535476, "lat": 17.3944606, "lon": 78.4382545, "tags": {"amenity": "school", "name": "Sri chaitanya school", "name:en": "Sri Chaitanya School Mehdipatnam"}}, {"type": "node", "id": 5625674125, "lat": 17.3918238, "lon": 78.4373826, "tags": {"amenity": "school", "name": "Tiny tots school"}}, {"type": "node", "id": 5965544927, "lat": 17.4008499, "lon": 78.5092105}, {"type": "node", "id": 6208287186, "lat": 17.3834054, "lon": 78.4793975, "tags": {"amenity": "school", "name": "Viveka Vardhani School"}}, {"type": "node", "id": 6222430886, "lat": 17.3961077, "lon": 78.4538397, "tags": {"amenity": "school", "name": "Madarath Internation School"}}, {"type": "node", "id": 6222447485, "lat": 17.3984025, "lon": 78.4660613, "tags": {"amenity": "school", "name": "Goutham Model School"}}, {"type": "node", "id": 6308262627, "lat": 17.4116516, "lon": 78.4921981, "tags": {"amenity": "school", "name": "Surabhi high school"}}, {"type": "node", "id": 6856614294, "lat": 17.4004639, "lon": 78.4989184}, {"type": "node", "id": 6856614295, "lat": 17.3998611, "lon": 78.4998451}, {"type": "node", "id": 6856614296, "lat": 17.4009297, "lon": 78.5006632}, {"type": "node", "id": 6856614297, "lat": 17.4015363, "lon": 78.4997204}, {"type": "node", "id": 7088336248, "lat": 17.3529531, "lon": 78.507007, "tags": {"amenity": "school", "name": "Angel's Convent High School"}}, {"type": "node", "id": 7243895530, "lat": 17.3970103, "lon": 78.5037892, "tags": {"amenity": "school", "name": "Matrusi techno school"}}, {"type": "node", "id": 7243950725, "lat": 17.3964354, "lon": 78.5028158, "tags": {"amenity": "school", "name": "mother's high school"}}, {"type": "node", "id": 7243950726, "lat": 17.3968972, "lon": 78.5025045, "tags": {"amenity": "school", "name": "Arya bhatta high school"}}, {"type": "node", "id": 7244117129, "lat": 17.4052548, "lon": 78.5157027, "tags": {"amenity": "school"}}, {"type": "node", "id": 7244196872, "lat": 17.3979094, "lon": 78.5024885, "tags": {"amenity": "school", "name": "Arya bhatta primary school"}}, {"type": "node", "id": 7244238251, "lat": 17.4096832, "lon": 78.5086124, "tags": {"amenity": "school"}}, {"type": "node", "id": 7244480673, "lat": 17.3931364, "lon": 78.4365999, "tags": {"amenity": "school", "name": "G. Pulla Reddy High School"}}, {"type": "node", "id": 7244480674, "lat": 17.3941834, "lon": 78.4365354, "tags": {"amenity": "school", "name": "G. Pulla Reddy High School grounds"}}, {"type": "node", "id": 7246526405, "lat": 17.4095685, "lon": 78.5065485, "tags": {"amenity": "school"}}, {"type": "node", "id": 7246588699, "lat": 17.4139972, "lon": 78.5072511}, {"type": "node", "id": 7246588700, "lat": 17.4137228, "lon": 78.5071506}, {"type": "node", "id": 7246588701, "lat": 17.4137027, "lon": 78.507202}, {"type": "node", "id": 7246588702, "lat": 17.413696, "lon": 78.5072441}, {"type": "node", "id": 7246588703, "lat": 17.413821, "lon": 78.5072885}, {"type": "node", "id": 7246588704, "lat": 17.4139816, "lon": 78.507347}, {"type": "node", "id": 7246588705, "lat": 17.4138534, "lon": 78.5072533, "tags": {"amenity": "school"}}, {"type": "node", "id": 7246588706, "lat": 17.4136595, "lon": 78.5069595, "tags": {"amenity": "school"}}, {"type": "node", "id": 7246588707, "lat": 17.4137008, "lon": 78.5065722}, {"type": "node", "id": 7246588708, "lat": 17.413662, "lon": 78.506648}, {"type": "node", "id": 7246588709, "lat": 17.4134191, "lon": 78.506518}, {"type": "node", "id": 7246588710, "lat": 17.4133597, "lon": 78.5066318}, {"type": "node", "id": 7246588711, "lat": 17.4134165, "lon": 78.5066751}, {"type": "node", "id": 7246588712, "lat": 17.4133804, "lon": 78.506751}, {"type": "node", "id": 7246588713, "lat": 17.4133209, "lon": 78.5067212}, {"type": "node", "id": 7246588714, "lat": 17.4132356, "lon": 78.506862}, {"type": "node", "id": 7246588715, "lat": 17.4133338, "lon": 78.5069135}, {"type": "node", "id": 7246588716, "lat": 17.4133545, "lon": 78.5068918}, {"type": "node", "id": 7246588717, "lat": 17.4133829, "lon": 78.5069162}, {"type": "node", "id": 7246588718, "lat": 17.413538, "lon": 78.5070245}, {"type": "node", "id": 7246588719, "lat": 17.4134889, "lon": 78.5071058}, {"type": "node", "id": 7246588720, "lat": 17.4131219, "lon": 78.5069053}, {"type": "node", "id": 7246588721, "lat": 17.4133881, "lon": 78.5063691}, {"type": "node", "id": 7246588722, "lat": 17.4134656, "lon": 78.5063962}, {"type": "node", "id": 7246588723, "lat": 17.4134579, "lon": 78.5064476}, {"type": "node", "id": 7246588742, "lat": 17.4131508, "lon": 78.5077226, "tags": {"amenity": "school"}}, {"type": "node", "id": 7357914981, "lat": 17.4012737, "lon": 78.4275969, "tags": {"addr:city": "Hyderabad", "addr:postcode": "500008", "addr:street": "Golcanda", "amenity": "school", "brand": "Kendriya Vidyalaya", "brand:wikidata": "Q1156653", "name": "Kendriya Vidyalaya No 2, Golconda", "website": "https://no2golconda.kvs.ac.in"}}, {"type": "node", "id": 7375397983, "lat": 17.3898991, "lon": 78.5097805, "tags": {"amenity": "school", "name": "Bharati Vidya Bhavan High School"}}, {"type": "node", "id": 7379950133, "lat": 17.4028481, "lon": 78.4693012, "tags": {"addr:housenumber": "H.No. 10-1-1192, A.C. Guards, Saifabad, Hyderabad, Telangana 500004", "amenity": "school", "education": "school", "name": "Moulana Azad Memorial High School", "name:te": "\u0c2e\u0c4c\u0c32\u0c3e\u0c28\u0c3e \u0c06\u0c1c\u0c3e\u0c26\u0c4d \u0c2e\u0c46\u0c2e\u0c4b\u0c30\u0c3f\u0c2f\u0c32\u0c4d \u0c39\u0c48 \u0c38\u0c4d\u0c15\u0c42\u0c32\u0c4d"}}, {"type": "node", "id": 7527829347, "lat": 17.348503, "lon": 78.5097698, "tags": {"addr:street": "Durga Bhavani Nagar, Road No 1", "amenity": "school", "description": "Nursery to Class-1", "name": "Vidya Dayini Pre-Primary School", "phone": "04024531653, 04024530353"}}, {"type": "node", "id": 7716811637, "lat": 17.3414005, "lon": 78.4714209}, {"type": "node", "id": 8077237916, "lat": 17.357872, "lon": 78.5054576, "tags": {"addr:city": "Hyderbad", "addr:state": "Telangana", "addr:street": "Sayeedabad Road", "amenity": "school", "name": "\u0633\u06a9\u0633\u06cc\u0633 \u0627\u0633\u06a9\u0648\u0644", "name:en": "Success School"}}, {"type": "node", "id": 8233700556, "lat": 17.368147, "lon": 78.50494}, {"type": "node", "id": 8233700557, "lat": 17.3681351, "lon": 78.5051917}, {"type": "node", "id": 8233700558, "lat": 17.3683801, "lon": 78.5052515}, {"type": "node", "id": 8233700559, "lat": 17.3684444, "lon": 78.5049525}, {"type": "node", "id": 8233700560, "lat": 17.3683207, "lon": 78.5049325}, {"type": "node", "id": 8233700561, "lat": 17.3681482, "lon": 78.5049238}, {"type": "node", "id": 8233701014, "lat": 17.371567, "lon": 78.5037063, "tags": {"amenity": "school", "grades": "1-10", "name": "Petros high school"}}, {"type": "node", "id": 8259012752, "lat": 17.381063, "lon": 78.4393913, "tags": {"amenity": "school", "name": "newgen", "website": "https://www.newgenhighschool.com/"}}, {"type": "node", "id": 8387539872, "lat": 17.357889, "lon": 78.4615836, "tags": {"addr:city": "hyderabad", "addr:postcode": "500064", "addr:street": "doodhbowli", "amenity": "school", "grades": "1-3", "name": "kasturibhai girls high school"}}, {"type": "node", "id": 8866621215, "lat": 17.3723374, "lon": 78.5144147, "tags": {"addr:housenumber": "9GC7+QH Hyderabad, Telangana", "addr:street": "H No 16-11-310/8/c/d/1, Near Hegade Nursing Home Salem nagar, Moosarambagh Rd, Malakpet, Hyderabad, Telangana 500036", "amenity": "school", "name": "St.Domnics High School", "phone": "040 2454 8892"}}, {"type": "node", "id": 8911008864, "lat": 17.3892953, "lon": 78.5105136, "tags": {"amenity": "school", "name": "Twin Cities High School"}}, {"type": "node", "id": 9605498384, "lat": 17.3415518, "lon": 78.4716137}, {"type": "node", "id": 9605498385, "lat": 17.3417184, "lon": 78.472091}, {"type": "node", "id": 9605498386, "lat": 17.3417077, "lon": 78.472328}, {"type": "node", "id": 9605498387, "lat": 17.3415395, "lon": 78.4723568}, {"type": "node", "id": 9605498388, "lat": 17.3415243, "lon": 78.4726035}, {"type": "node", "id": 9605498389, "lat": 17.3413255, "lon": 78.4726019}, {"type": "node", "id": 9605498390, "lat": 17.3410335, "lon": 78.4725362}, {"type": "node", "id": 9605498391, "lat": 17.340951, "lon": 78.4723664}, {"type": "node", "id": 9605498392, "lat": 17.3409357, "lon": 78.4718459}, {"type": "node", "id": 9605498393, "lat": 17.3413958, "lon": 78.4713975}, {"type": "node", "id": 9708882625, "lat": 17.3485722, "lon": 78.5088044, "tags": {"amenity": "school", "name": "bhashyam high school"}}, {"type": "node", "id": 9885051455, "lat": 17.3758779, "lon": 78.4882815, "tags": {"amenity": "school"}}, {"type": "node", "id": 9885051475, "lat": 17.3773268, "lon": 78.4863801, "tags": {"amenity": "school", "name": "Arya Samaj School"}}, {"type": "node", "id": 9913821024, "lat": 17.3988385, "lon": 78.4480873, "tags": {"amenity": "school", "name": "Brilliant Grammar High School"}}, {"type": "node", "id": 9913821065, "lat": 17.3781457, "lon": 78.4369801, "tags": {"amenity": "school", "name": "Sri Gayatri School"}}, {"type": "node", "id": 9913821067, "lat": 17.3802769, "lon": 78.4394986, "tags": {"amenity": "school", "name": "Vivekananda School"}}, {"type": "node", "id": 10019985224, "lat": 17.3697332, "lon": 78.4231754, "tags": {"amenity": "school", "name": "Sri Chaitanya School, Hyderguda"}}, {"type": "node", "id": 10020074718, "lat": 17.3739106, "lon": 78.4518668, "tags": {"amenity": "school", "name": "Bharathi Vidya Nikethan School"}}, {"type": "node", "id": 10075681247, "lat": 17.3302879, "lon": 78.4868622, "tags": {"addr:housenumber": "8FJP+4P9, Hyderabad", "addr:street": "8FJP+4P9, DMRL Main Road, Hafiz Baba Nagar North, Kanchan Bagh, Hyderabad", "amenity": "school", "name": "Vikas High School", "opening_hours": "Mo-Sa 08:30-04:30"}}, {"type": "node", "id": 10279304203, "lat": 17.3626729, "lon": 78.4439258, "tags": {"amenity": "school", "name": "newton mission high school"}}, {"type": "node", "id": 10279305411, "lat": 17.3626937, "lon": 78.4440837}, {"type": "node", "id": 10279305412, "lat": 17.362518, "lon": 78.4438768}, {"type": "node", "id": 10279452107, "lat": 17.3598869, "lon": 78.4414484}, {"type": "node", "id": 10279452108, "lat": 17.3596022, "lon": 78.4412902}, {"type": "node", "id": 10279481509, "lat": 17.3595165, "lon": 78.4414594}, {"type": "node", "id": 10279481510, "lat": 17.3595319, "lon": 78.4414766}, {"type": "node", "id": 10279481511, "lat": 17.3595049, "lon": 78.4415299}, {"type": "node", "id": 10279481512, "lat": 17.3596368, "lon": 78.4416033}, {"type": "node", "id": 10279481513, "lat": 17.3596688, "lon": 78.44154}, {"type": "node", "id": 10279481514, "lat": 17.3595731, "lon": 78.4414868}, {"type": "node", "id": 10279481515, "lat": 17.3596163, "lon": 78.4414014}, {"type": "node", "id": 10279481516, "lat": 17.359846, "lon": 78.4415292}, {"type": "node", "id": 10279481517, "lat": 17.3597495, "lon": 78.4415722, "tags": {"amenity": "school", "name": "School Ground"}}, {"type": "node", "id": 10279481519, "lat": 17.3616764, "lon": 78.4419501, "tags": {"amenity": "school", "name": "Vidya Bharthi High School"}}, {"type": "node", "id": 10764939245, "lat": 17.3780079, "lon": 78.4480161}, {"type": "node", "id": 10764939246, "lat": 17.3780343, "lon": 78.4481634}, {"type": "node", "id": 10764939247, "lat": 17.3779853, "lon": 78.4481772}, {"type": "node", "id": 10764939248, "lat": 17.3779636, "lon": 78.4480586}, {"type": "node", "id": 10764939249, "lat": 17.3779145, "lon": 78.4480636}, {"type": "node", "id": 10764939250, "lat": 17.3779089, "lon": 78.4480141}, {"type": "node", "id": 10764939251, "lat": 17.3779768, "lon": 78.4480082}, {"type": "node", "id": 10764939252, "lat": 17.378017, "lon": 78.4480669}, {"type": "node", "id": 10764939253, "lat": 17.3779976, "lon": 78.4480818, "tags": {"addr:city": "Natraj Nagar Jirra,", "addr:postcode": "500006", "amenity": "school", "name": "New Eden school"}}, {"type": "node", "id": 10764939262, "lat": 17.3749679, "lon": 78.4488247}, {"type": "node", "id": 10764939263, "lat": 17.3749607, "lon": 78.4489658}, {"type": "node", "id": 10764939264, "lat": 17.3748116, "lon": 78.4489677}, {"type": "node", "id": 10764939265, "lat": 17.3748152, "lon": 78.4488153}, {"type": "node", "id": 10764939266, "lat": 17.3748745, "lon": 78.4489018, "tags": {"addr:city": "Ambedkar nagar, Tappa chabhudra", "addr:postcode": "500006", "amenity": "school", "name": "Jasmin Techno School"}}, {"type": "node", "id": 10836262027, "lat": 17.3780049, "lon": 78.438844, "tags": {"amenity": "school", "name": "Governament School"}}, {"type": "node", "id": 10836262034, "lat": 17.3803567, "lon": 78.4397296, "tags": {"amenity": "school", "name": "Newgen High School"}}, {"type": "node", "id": 11365536232, "lat": 17.3403461, "lon": 78.4696002, "tags": {"amenity": "school", "name": "Sri Chaitanya School"}}, {"type": "node", "id": 11365536250, "lat": 17.339785, "lon": 78.4702743}, {"type": "node", "id": 11365536251, "lat": 17.3393487, "lon": 78.4702908}, {"type": "node", "id": 11365536252, "lat": 17.3393629, "lon": 78.470703}, {"type": "node", "id": 11365536253, "lat": 17.3397993, "lon": 78.4706865}, {"type": "node", "id": 11365536254, "lat": 17.3397843, "lon": 78.4702513}, {"type": "node", "id": 11365536259, "lat": 17.3400659, "lon": 78.4731667, "tags": {"amenity": "school", "name": "Thakshashila HIgh School"}}, {"type": "node", "id": 11365562311, "lat": 17.3425036, "lon": 78.4748167}, {"type": "node", "id": 11365562312, "lat": 17.3423284, "lon": 78.4747908}, {"type": "node", "id": 11365562313, "lat": 17.3424913, "lon": 78.4749078}, {"type": "node", "id": 11365628296, "lat": 17.3371624, "lon": 78.4737816, "tags": {"amenity": "school", "name": "Govt Girls High School  And College"}}, {"type": "node", "id": 11365804003, "lat": 17.3399877, "lon": 78.4735935, "tags": {"amenity": "school", "name": "Saraswati vidhya mandir"}}, {"type": "node", "id": 11462470507, "lat": 17.3423161, "lon": 78.4748818}, {"type": "node", "id": 12245832501, "lat": 17.3934767, "lon": 78.455121, "tags": {"amenity": "school", "name": "Government High School, Vijayanagar Colony"}}, {"type": "node", "id": 12245832601, "lat": 17.3799762, "lon": 78.483112, "tags": {"amenity": "school", "name": "Vivek Vardhini Kanyashala School"}}, {"type": "node", "id": 12787727915, "lat": 17.3627828, "lon": 78.4440006}, {"type": "node", "id": 12787727916, "lat": 17.3626072, "lon": 78.4437937}, {"type": "way", "id": 116017014, "nodes": [1309311188, 2579727496, 2580556898, 2580556906, 2580556908, 1309311192, 1309311190, 3818681074, 3818681071, 1309311193, 2580556896, 1309311188], "tags": {"amenity": "school", "name": "Vidyaranya High School", "name:te": "\u0c35\u0c3f\u0c26\u0c4d\u0c2f\u0c3e\u0c30\u0c23\u0c4d\u0c2f \u0c39\u0c48 \u0c38\u0c4d\u0c15\u0c42\u0c32\u0c41", "wikidata": "Q7928211", "wikipedia": "en:Vidyaranya High School"}}, {"type": "way", "id": 182935269, "nodes": [1932900017, 1932900015, 1932900012, 1932900014, 1932900021, 1932900013, 1932900019, 1932900010, 1932900016, 1932900011, 1932900018, 1932900020, 1932900009, 1932900017], "tags": {"amenity": "school", "name": "St. Paul's high School"}}, {"type": "way", "id": 238282938, "nodes": [2461282034, 2461282038, 2461282033, 2461282031, 5965544927, 2461282034], "tags": {"amenity": "school", "landuse": "school", "name": "Hindi Maha Vidyalaya"}}, {"type": "way", "id": 280689851, "nodes": [2847575329, 2847575331, 2847575322, 2847575321, 2847575329], "tags": {"amenity": "school", "name": "Dwaraka High School"}}, {"type": "way", "id": 318606403, "nodes": [3249987907, 3249987908, 3249987905, 3249987903, 3249987904, 3249987906, 3249987907], "tags": {"amenity": "school"}}, {"type": "way", "id": 324532000, "nodes": [3312367255, 3312367256, 3312367257, 3312367258, 3312367259, 3312367260, 3312368661, 3312368662, 3312367255], "tags": {"amenity": "school"}}, {"type": "way", "id": 356555597, "nodes": [3619598681, 3619598804, 3619598690, 3619598670, 3619598681], "tags": {"amenity": "school", "building": "yes", "name": "Loyola School"}}, {"type": "way", "id": 356555685, "nodes": [3619599361, 3619599363, 3619599338, 3619599332, 3619599361], "tags": {"amenity": "school", "building": "yes", "name": "Loyola School"}}, {"type": "way", "id": 362018570, "nodes": [3664113900, 3664113943, 3664113942, 3664113899, 3664113900], "tags": {"amenity": "school", "building": "yes", "name": "Goodwill Model School"}}, {"type": "way", "id": 413840712, "nodes": [4150777290, 4150777297, 4150777294, 4150777289, 4150777290], "tags": {"amenity": "school", "building": "yes"}}, {"type": "way", "id": 480983272, "nodes": [4739316297, 4739316298, 4739316299, 4739316300, 4739316301, 4739316302, 4739316303, 4739316304, 4739316305, 4739316306, 4739316297], "tags": {"amenity": "school", "name": "St Jospeph High School"}}, {"type": "way", "id": 732247772, "nodes": [6856614297, 6856614296, 6856614295, 6856614294, 6856614297], "tags": {"amenity": "school", "name": "ambedkar college"}}, {"type": "way", "id": 776657905, "nodes": [7246588699, 7246588700, 7246588701, 7246588702, 7246588703, 7246588704, 7246588699], "tags": {"amenity": "school"}}, {"type": "way", "id": 776657906, "nodes": [7246588707, 7246588708, 7246588709, 7246588710, 7246588711, 7246588712, 7246588713, 7246588714, 7246588715, 7246588716, 7246588717, 7246588718, 7246588719, 7246588720, 7246588721, 7246588722, 7246588723, 7246588707], "tags": {"amenity": "school"}}, {"type": "way", "id": 885449286, "nodes": [8233700556, 8233700557, 8233700558, 8233700559, 8233700560, 8233700561, 8233700556], "tags": {"amenity": "school", "name": "MDA vidhyalaya"}}, {"type": "way", "id": 1043717438, "nodes": [9605498384, 9605498385, 9605498386, 9605498387, 9605498388, 9605498389, 9605498390, 9605498391, 9605498392, 9605498393, 7716811637, 9605498384], "tags": {"amenity": "school", "name": "sharadha school"}}, {"type": "way", "id": 1124048925, "nodes": [12787727915, 10279305411, 10279305412, 12787727916, 12787727915], "tags": {"amenity": "school", "building": "yes"}}, {"type": "way", "id": 1124063177, "nodes": [10279452107, 10279452108, 10279481509, 10279481510, 10279481511, 10279481512, 10279481513, 10279481514, 10279481515, 10279481516, 10279452107], "tags": {"amenity": "school", "building": "yes", "name": "Govt High School"}}, {"type": "way", "id": 1157549417, "nodes": [10764939245, 10764939252, 10764939246, 10764939247, 10764939248, 10764939249, 10764939250, 10764939251, 10764939245], "tags": {"amenity": "school"}}, {"type": "way", "id": 1157549420, "nodes": [10764939262, 10764939263, 10764939264, 10764939265, 10764939262], "tags": {"addr:city": "Ambedkar nagar colony, Tappa chabhudra", "addr:postcode": "500006", "amenity": "school"}}, {"type": "way", "id": 1225570321, "nodes": [11365536250, 11365536251, 11365536252, 11365536253, 11365536254, 11365536250], "tags": {"amenity": "school"}}, {"type": "way", "id": 1225572881, "nodes": [11365562311, 11365562312, 11462470507, 11365562313, 11365562311], "tags": {"amenity": "school", "name": "Emily The School"}}]}