{"version": 0.6, "generator": "Overpass API 0.7.62.8 e802775f", "osm3s": {"timestamp_osm_base": "2026-01-16T10:11:29Z", "copyright": "The data included in this document is from www.openstreetmap.org. The data is made available under ODbL."}, "elements": [{"type": "node", "id": 1289132978, "lat": 59.646687, "lon": 10.211398, "tags": {"highway": "bus_stop", "name": "Klevjerhagen", "ref:nsrq": "32286"}}, {"type": "node", "id": 1289132983, "lat": 59.658863, "lon": 10.21187, "tags": {"highway": "bus_stop", "name": "Fl\u00e5tan", "ref:nsrq": "33350"}}, {"type": "node", "id": 1289133028, "lat": 59.636824, "lon": 10.21206, "tags": {"highway": "bus_stop", "name": "Bj\u00f8rge", "ref:nsrq": "33826"}}, {"type": "node", "id": 1289133034, "lat": 59.655572, "lon": 10.209524, "tags": {"highway": "bus_stop", "name": "Grytebakke", "ref:nsrq": "30745"}}, {"type": "node", "id": 1289133056, "lat": 59.647557, "lon": 10.211479, "tags": {"highway": "bus_stop", "name": "Klevjerhagen nord", "ref:nsrq": "32292"}}, {"type": "node", "id": 1289133069, "lat": 59.633963, "lon": 10.212648, "tags": {"highway": "bus_stop", "name": "Salong\u00e5sen", "ref:nsrq": "30872"}}, {"type": "node", "id": 1289133070, "lat": 59.624051, "lon": 10.215601, "tags": {"highway": "bus_stop", "name": "Sauehaugen", "ref:nsrq": "31038"}}, {"type": "node", "id": 1289133092, "lat": 59.640925, "lon": 10.209574, "tags": {"highway": "bus_stop", "name": "G\u00e5serud", "ref:nsrq": "31010"}}, {"type": "node", "id": 1289133104, "lat": 59.627182, "lon": 10.214603, "tags": {"highway": "bus_stop", "name": "Galleberg skole", "ref:nsrq": "33660"}}, {"type": "node", "id": 1289133114, "lat": 59.652032, "lon": 10.2078, "tags": {"highway": "bus_stop", "name": "\u00d8vre Klevjervei", "ref:nsrq": "31964"}}, {"type": "node", "id": 1289133117, "lat": 59.630809, "lon": 10.213175, "tags": {"highway": "bus_stop", "name": "B\u00f8lum", "ref:nsrq": "33154"}}, {"type": "node", "id": 6373441151, "lat": 59.651161, "lon": 10.20878, "tags": {"highway": "bus_stop", "name": "\u00d8vre Klevjervei", "ref:nsrq": "31965"}}, {"type": "node", "id": 6373442716, "lat": 59.640976, "lon": 10.209704, "tags": {"highway": "bus_stop", "name": "G\u00e5serud", "ref:nsrq": "31011"}}, {"type": "node", "id": 6373442828, "lat": 59.655705, "lon": 10.209706, "tags": {"highway": "bus_stop", "name": "Grytebakke", "ref:nsrq": "30746"}}, {"type": "node", "id": 6373443022, "lat": 59.630979, "lon": 10.213139, "tags": {"highway": "bus_stop", "name": "B\u00f8lum", "ref:nsrq": "33155"}}, {"type": "node", "id": 6373444123, "lat": 59.624376, "lon": 10.215958, "tags": {"highway": "bus_stop", "name": "Sauehaugen", "ref:nsrq": "31039"}}, {"type": "node", "id": 6373444151, "lat": 59.633932, "lon": 10.212794, "tags": {"highway": "bus_stop", "name": "Salong\u00e5sen", "ref:nsrq": "30871"}}, {"type": "node", "id": 6373445170, "lat": 59.636501, "lon": 10.212013, "tags": {"highway": "bus_stop", "name": "Bj\u00f8rge", "ref:nsrq": "33825"}}, {"type": "node", "id": 6373445266, "lat": 59.627093, "lon": 10.214458, "tags": {"highway": "bus_stop", "name": "Galleberg skole", "ref:nsrq": "33659"}}, {"type": "node", "id": 6373445394, "lat": 59.658984, "lon": 10.211953, "tags": {"highway": "bus_stop", "name": "Fl\u00e5tan", "ref:nsrq": "33349"}}, {"type": "node", "id": 6373446040, "lat": 59.647725, "lon": 10.211229, "tags": {"highway": "bus_stop", "name": "Klevjerhagen nord", "ref:nsrq": "32293"}}, {"type": "node", "id": 6373446041, "lat": 59.646568, "lon": 10.211548, "tags": {"highway": "bus_stop", "name": "Klevjerhagen", "ref:nsrq": "32287"}}]}