{"version": 0.6, "generator": "Overpass API 0.7.62.8 e802775f", "osm3s": {"timestamp_osm_base": "2026-01-16T10:19:36Z", "copyright": "The data included in this document is from www.openstreetmap.org. The data is made available under ODbL."}, "elements": [{"type": "node", "id": 1289132978, "lat": 59.646687, "lon": 10.211398, "tags": {"highway": "bus_stop", "name": "Klevjerhagen", "ref:nsrq": "32286"}}, {"type": "node", "id": 1289132983, "lat": 59.658863, "lon": 10.21187, "tags": {"highway": "bus_stop", "name": "Fl\u00e5tan", "ref:nsrq": "33350"}}, {"type": "node", "id": 1289133034, "lat": 59.655572, "lon": 10.209524, "tags": {"highway": "bus_stop", "name": "Grytebakke", "ref:nsrq": "30745"}}, {"type": "node", "id": 1289133056, "lat": 59.647557, "lon": 10.211479, "tags": {"highway": "bus_stop", "name": "Klevjerhagen nord", "ref:nsrq": "32292"}}, {"type": "node", "id": 1289133097, "lat": 59.664538, "lon": 10.21409, "tags": {"highway": "bus_stop", "name": "Fabrikkdammen", "ref:nsrq": "33930"}}, {"type": "node", "id": 1289133114, "lat": 59.652032, "lon": 10.2078, "tags": {"highway": "bus_stop", "name": "\u00d8vre Klevjervei", "ref:nsrq": "31964"}}, {"type": "node", "id": 6373441151, "lat": 59.651161, "lon": 10.20878, "tags": {"highway": "bus_stop", "name": "\u00d8vre Klevjervei", "ref:nsrq": "31965"}}, {"type": "node", "id": 6373442828, "lat": 59.655705, "lon": 10.209706, "tags": {"highway": "bus_stop", "name": "Grytebakke", "ref:nsrq": "30746"}}, {"type": "node", "id": 6373442948, "lat": 59.664447, "lon": 10.214193, "tags": {"highway": "bus_stop", "name": "Fabrikkdammen", "ref:nsrq": "33929"}}, {"type": "node", "id": 6373445394, "lat": 59.658984, "lon": 10.211953, "tags": {"highway": "bus_stop", "name": "Fl\u00e5tan", "ref:nsrq": "33349"}}, {"type": "node", "id": 6373446040, "lat": 59.647725, "lon": 10.211229, "tags": {"highway": "bus_stop", "name": "Klevjerhagen nord", "ref:nsrq": "32293"}}, {"type": "node", "id": 6373446041, "lat": 59.646568, "lon": 10.211548, "tags": {"highway": "bus_stop", "name": "Klevjerhagen", "ref:nsrq": "32287"}}]}