{"version": 0.6, "generator": "Overpass API 0.7.62.8 e802775f", "osm3s": {"timestamp_osm_base": "2026-01-13T06:45:05Z", "copyright": "The data included in this document is from www.openstreetmap.org. The data is made available under ODbL."}, "elements": [{"type": "node", "id": 349267517, "lat": 17.4406857, "lon": 78.3916647, "tags": {"addr:district": "Hyderabad", "addr:full": "1-98/90/26, Near IOC Petrol Bunk, Hi-Tech City Main Road, Madhapur", "addr:postcode": "500033", "addr:state": "Telangana", "amenity": "hospital", "healthcare": "hospital", "name": "Vikram Hospitals", "source": "OpenGovernmentData"}}, {"type": "node", "id": 349270023, "lat": 17.4444337, "lon": 78.3860746, "tags": {"addr:district": "Hyderabad", "addr:full": "Plot No 8 & 9, Arunodaya Cooperative Housing Society, Vittal Rao nagar, Madhapur", "addr:postcode": "500081", "addr:state": "Telangana", "amenity": "hospital", "healthcare": "hospital", "name": "Image Hospitals", "name:te": "\u0c07\u0c2e\u0c47\u0c1c\u0c4d \u0c39\u0c3e\u0c38\u0c4d\u0c2a\u0c3f\u0c1f\u0c32\u0c4d\u0c38\u0c4d", "source": "OpenGovernmentData"}}, {"type": "node", "id": 352754325, "lat": 17.4479266, "lon": 78.4381936}, {"type": "node", "id": 353039223, "lat": 17.4394206, "lon": 78.4422655}, {"type": "node", "id": 353039228, "lat": 17.4394355, "lon": 78.4424709}, {"type": "node", "id": 353039232, "lat": 17.4392358, "lon": 78.4424868}, {"type": "node", "id": 353039234, "lat": 17.4392209, "lon": 78.4422814}, {"type": "node", "id": 538425761, "lat": 17.4415414, "lon": 78.4461255, "tags": {"amenity": "hospital", "emergency": "no", "name": "Sree Priya Multi Speciality Hospital", "name:te": "\u0c36\u0c4d\u0c30\u0c40 \u0c2a\u0c4d\u0c30\u0c3f\u0c2f \u0c2e\u0c32\u0c4d\u0c1f\u0c40 \u0c38\u0c4d\u0c2a\u0c46\u0c37\u0c3e\u0c32\u0c3f\u0c1f\u0c40 \u0c39\u0c3e\u0c38\u0c4d\u0c2a\u0c3f\u0c1f\u0c32\u0c4d"}}, {"type": "node", "id": 827576106, "lat": 17.4301742, "lon": 78.3937323, "tags": {"amenity": "hospital", "healthcare": "hospital", "name": "Arogyasree Health care trust"}}, {"type": "node", "id": 893195080, "lat": 17.3990359, "lon": 78.4447966, "tags": {"amenity": "hospital", "name": "Surojini Devi Eye Hospital"}}, {"type": "node", "id": 894082495, "lat": 17.4156911, "lon": 78.4454609, "tags": {"addr:district": "Hyderabad", "addr:full": "8-2-596/5, Road No 10, Banjara Hills", "addr:postcode": "500034", "addr:state": "Telangana", "amenity": "hospital", "email": "info@starhospitals.in", "fax": "040-2335 6188", "name": "Star Hospital", "phone": "040-44 777 777", "source": "OpenGovernmentData", "website": "https://www.starhospitals.in/"}}, {"type": "node", "id": 1215214084, "lat": 17.4629614, "lon": 78.3673949, "tags": {"addr:city": "Hyderabad", "addr:full": "Plot No: 3 & 4, Jayalaxmi Apartments, Beside Bajaj Electronics, Near Kondapur X Roads", "addr:postcode": "500084", "addr:state": "Telangana", "amenity": "hospital", "contact:phone": "04023119469; 40188229", "healthcare": "hospital", "name": "LEAF HOSPITAL", "operator:type": "private", "source": "OpenGovernmentData"}}, {"type": "node", "id": 1224523179, "lat": 17.4535178, "lon": 78.364084, "tags": {"amenity": "hospital", "emergency": "no", "healthcare": "hospital", "name": "Ambicare Hospital"}}, {"type": "node", "id": 1702266641, "lat": 17.4696017, "lon": 78.3660584, "tags": {"amenity": "hospital", "healthcare": "hospital", "name": "haritha hospitals"}}, {"type": "node", "id": 1930607012, "lat": 17.3937118, "lon": 78.4269709}, {"type": "node", "id": 1930607014, "lat": 17.3935093, "lon": 78.4269808}, {"type": "node", "id": 1930607015, "lat": 17.3935375, "lon": 78.4276131}, {"type": "node", "id": 1930607016, "lat": 17.3937399, "lon": 78.4276032}, {"type": "node", "id": 2101693334, "lat": 17.4627567, "lon": 78.3524066, "tags": {"emergency": "yes"}}, {"type": "node", "id": 2101693335, "lat": 17.4626319, "lon": 78.3535372}, {"type": "node", "id": 2101693336, "lat": 17.4636422, "lon": 78.3524786}, {"type": "node", "id": 2101693337, "lat": 17.4635118, "lon": 78.3536231}, {"type": "node", "id": 2354679489, "lat": 17.4068493, "lon": 78.3922011, "tags": {"amenity": "hospital", "emergency": "no", "name": "Matpathy Clinic"}}, {"type": "node", "id": 2570465562, "lat": 17.4156793, "lon": 78.4123796}, {"type": "node", "id": 2570465566, "lat": 17.4156102, "lon": 78.4125285}, {"type": "node", "id": 2835226156, "lat": 17.4511937, "lon": 78.4208721, "tags": {"addr:district": "Hyderabad", "addr:full": "Plot No: 170, Kalyan Nagar(Venture III), Mothi Nagar 'X' Roads", "addr:postcode": "500018", "addr:state": "Telangana", "amenity": "hospital", "healthcare": "hospital", "name": "Sri Bhargavi Hospital", "source": "OpenGovernmentData"}}, {"type": "node", "id": 2835658220, "lat": 17.4510973, "lon": 78.4224934, "tags": {"addr:city": "hyderabad", "addr:district": "Hyderabad", "addr:full": "Plot No. 128A, Phase III , Kalyan Nagar, Moti Nagar", "addr:postcode": "500018", "addr:state": "Telangana", "addr:street": "sriram nagar road", "amenity": "hospital", "healthcare": "hospital", "name": "Jaiswal Multi Speciality Hospitals", "source": "OpenGovernmentData"}}, {"type": "node", "id": 2835659213, "lat": 17.4480669, "lon": 78.4337319, "tags": {"amenity": "hospital", "name": "Government Ayurvedic Hospital", "opening_hours": "Mo-Su 09:00-12:00", "phone": "040-24512927"}}, {"type": "node", "id": 3159027236, "lat": 17.4388238, "lon": 78.4420946, "tags": {"addr:district": "Hyderabad", "addr:full": "D.Number 8-3-214/18, Srinivasa Colony West, Ameerpet", "addr:postcode": "500038", "addr:state": "Telangana", "amenity": "hospital", "fax": "040 23732617", "healthcare": "hospital", "medical_system": "Allopathic", "name": "Raghava Multi Speciality Hospital", "operator:type": "private", "phone": "040 23732617; 040 23732453; 040 55108329", "source": "OpenGovernmentData", "wheelchair": "yes"}}, {"type": "node", "id": 3159027238, "lat": 17.4385124, "lon": 78.4425646, "tags": {"addr:district": "Hyderabad", "addr:full": "8-3-214/2, Maruthy Mansion, Srinivasa Colony (West), Ameerpet, Opposite S.R Nagar ICICI Bank", "addr:postcode": "500038", "addr:state": "Telangana", "amenity": "hospital", "contact:mobile": "9246800810", "emergency_telephone_code": "040 66771566", "health_facility:type": "24 Hours Ambulance Services; Diagnostic Center; Pharmacy", "healthcare": "hospital", "healthcare:speciality": "Cardiology; Dermatology; Diabetology; Orthopedics; Gynecology; Nephrology; Pulmonology; Oncology; General Surgery; ENT; Neurology; Paediatrics Urology; Physiotherapy", "medical_system": "Allopathic", "name": "VCARE Hospitals", "operator:type": "private", "phone": "040 66771566", "source": "OpenGovernmentData", "website": "https://www.vcarehospitals.in/"}}, {"type": "node", "id": 3166260336, "lat": 17.4390074, "lon": 78.4406383, "tags": {"amenity": "hospital", "healthcare": "hospital", "name": "Deepthi Diagnostics"}}, {"type": "node", "id": 3541446144, "lat": 17.4160221, "lon": 78.3916108, "tags": {"amenity": "hospital", "name": "Saraswathi Nursing Home"}}, {"type": "node", "id": 3616700283, "lat": 17.4465602, "lon": 78.3839619}, {"type": "node", "id": 3616700284, "lat": 17.4467102, "lon": 78.3838326}, {"type": "node", "id": 3616700286, "lat": 17.4468102, "lon": 78.3842808}, {"type": "node", "id": 3616700287, "lat": 17.4469603, "lon": 78.3841515}, {"type": "node", "id": 3617123325, "lat": 17.4162842, "lon": 78.4175265}, {"type": "node", "id": 3617123350, "lat": 17.416392, "lon": 78.4176991}, {"type": "node", "id": 3617123367, "lat": 17.4164454, "lon": 78.417416}, {"type": "node", "id": 3617123384, "lat": 17.4165542, "lon": 78.4175879}, {"type": "node", "id": 3617125834, "lat": 17.4307005, "lon": 78.4172041}, {"type": "node", "id": 3617125854, "lat": 17.4307943, "lon": 78.4171111}, {"type": "node", "id": 3617125855, "lat": 17.4307945, "lon": 78.4173082}, {"type": "node", "id": 3617125872, "lat": 17.4308883, "lon": 78.4172153}, {"type": "node", "id": 3617211327, "lat": 17.4171772, "lon": 78.4311555}, {"type": "node", "id": 3617211331, "lat": 17.4173225, "lon": 78.4315137}, {"type": "node", "id": 3617211332, "lat": 17.4173443, "lon": 78.431167}, {"type": "node", "id": 3617313401, "lat": 17.4306351, "lon": 78.424363}, {"type": "node", "id": 3617313409, "lat": 17.4307088, "lon": 78.4241574}, {"type": "node", "id": 3617313413, "lat": 17.4307341, "lon": 78.4244019}, {"type": "node", "id": 3617313422, "lat": 17.4308078, "lon": 78.4241963}, {"type": "node", "id": 3617362236, "lat": 17.4133834, "lon": 78.4241087}, {"type": "node", "id": 3617362252, "lat": 17.4134153, "lon": 78.4238723}, {"type": "node", "id": 3619076683, "lat": 17.4429753, "lon": 78.4438837}, {"type": "node", "id": 3619076696, "lat": 17.4429894, "lon": 78.4437527}, {"type": "node", "id": 3619076751, "lat": 17.4430675, "lon": 78.4438946}, {"type": "node", "id": 3619076761, "lat": 17.4430817, "lon": 78.4437636}, {"type": "node", "id": 3619348034, "lat": 17.4599321, "lon": 78.3660837, "tags": {"amenity": "hospital", "healthcare": "hospital", "name": "Apoolo Clinic"}}, {"type": "node", "id": 3943909643, "lat": 17.3985187, "lon": 78.4458137, "tags": {"amenity": "hospital", "name": "The crescent hospital"}}, {"type": "node", "id": 4178240735, "lat": 17.4450041, "lon": 78.4346568}, {"type": "node", "id": 4178240736, "lat": 17.4450234, "lon": 78.4349593}, {"type": "node", "id": 4178240737, "lat": 17.4450475, "lon": 78.43485}, {"type": "node", "id": 4178240738, "lat": 17.4450607, "lon": 78.4351253}, {"type": "node", "id": 4178240739, "lat": 17.445061, "lon": 78.4349223}, {"type": "node", "id": 4178240740, "lat": 17.4450669, "lon": 78.4349486}, {"type": "node", "id": 4178240741, "lat": 17.4450751, "lon": 78.4345552}, {"type": "node", "id": 4178240742, "lat": 17.445093, "lon": 78.4346348}, {"type": "node", "id": 4178240743, "lat": 17.445094, "lon": 78.4349142}, {"type": "node", "id": 4178240744, "lat": 17.4451017, "lon": 78.4349482}, {"type": "node", "id": 4178240745, "lat": 17.4451037, "lon": 78.4351146}, {"type": "node", "id": 4178240746, "lat": 17.4451117, "lon": 78.4351501}, {"type": "node", "id": 4178240747, "lat": 17.4451225, "lon": 78.4349072}, {"type": "node", "id": 4178240749, "lat": 17.4451553, "lon": 78.4348233}, {"type": "node", "id": 4178240750, "lat": 17.4451584, "lon": 78.4348373}, {"type": "node", "id": 4178240752, "lat": 17.4452344, "lon": 78.4348516}, {"type": "node", "id": 4178240753, "lat": 17.4452404, "lon": 78.434878}, {"type": "node", "id": 4178240754, "lat": 17.4452617, "lon": 78.4348118}, {"type": "node", "id": 4178240755, "lat": 17.4452687, "lon": 78.4348431}, {"type": "node", "id": 4178240756, "lat": 17.445295, "lon": 78.4348032}, {"type": "node", "id": 4178240757, "lat": 17.4453004, "lon": 78.4348274}, {"type": "node", "id": 4178240759, "lat": 17.4453113, "lon": 78.4351008}, {"type": "node", "id": 4178240760, "lat": 17.4453264, "lon": 78.434821}, {"type": "node", "id": 4178240762, "lat": 17.4453297, "lon": 78.4351824}, {"type": "node", "id": 4178240763, "lat": 17.445332, "lon": 78.4348457}, {"type": "node", "id": 4178240764, "lat": 17.4453443, "lon": 78.4344887}, {"type": "node", "id": 4178240765, "lat": 17.4453622, "lon": 78.4345684}, {"type": "node", "id": 4178240766, "lat": 17.4453902, "lon": 78.4350813}, {"type": "node", "id": 4178240767, "lat": 17.4453916, "lon": 78.434757}, {"type": "node", "id": 4178240768, "lat": 17.4453964, "lon": 78.4347781}, {"type": "node", "id": 4178240769, "lat": 17.4454085, "lon": 78.4351629}, {"type": "node", "id": 4178240772, "lat": 17.4454565, "lon": 78.4345451}, {"type": "node", "id": 4178240775, "lat": 17.4454982, "lon": 78.4347307}, {"type": "node", "id": 4178240779, "lat": 17.4455643, "lon": 78.4350096}, {"type": "node", "id": 4178240781, "lat": 17.4455704, "lon": 78.4350368}, {"type": "node", "id": 4178240782, "lat": 17.4455707, "lon": 78.4347868}, {"type": "node", "id": 4178240783, "lat": 17.4456178, "lon": 78.4349963}, {"type": "node", "id": 4413453793, "lat": 17.3983822, "lon": 78.4161649, "tags": {"addr:city": "TOLICHOWKI", "addr:postcode": "500008", "addr:street": "BADDAM BALREDDY NAGAR", "amenity": "hospital", "description": "RELIEF HOSPITAL", "emergency": "no", "healthcare": "hospital", "name": "RELIEF HOSPITAL"}}, {"type": "node", "id": 4419091498, "lat": 17.4072675, "lon": 78.4442572, "tags": {"amenity": "hospital", "name": "Century hospital", "name:en": "Century hospital"}}, {"type": "node", "id": 4422254585, "lat": 17.4249205, "lon": 78.4139937, "tags": {"amenity": "hospital", "healthcare": "hospital", "name": "Blood Bank"}}, {"type": "node", "id": 4432377490, "lat": 17.4072495, "lon": 78.4447338, "tags": {"addr:district": "Hyderabad", "addr:full": "8-2-703, ROAD NO 12, BANJARA HILLS", "addr:postcode": "500034", "addr:state": "Telangana", "amenity": "hospital", "contact:email": "info@centuryhospital.in", "contact:phone": "33133333", "name": "CENTURY SUPER SPECIALITY HOSPITAL", "name:en": "Century hospital", "operator:type": "private", "source": "OpenGovernmentData", "website": "http://www.centuryhospital.in"}}, {"type": "node", "id": 4452950392, "lat": 17.4309578, "lon": 78.3720084}, {"type": "node", "id": 4679716389, "lat": 17.466147, "lon": 78.3677443, "tags": {"addr:full": "# 1-112 / 86, Survey No 5 / EE, Beside Andhra Bank, Near RTA Office,Kondapur, Serilingampally Mandal", "addr:postcode": "500084", "addr:state": "Telangana", "amenity": "hospital", "contact:phone": "040-67505050", "healthcare": "hospital", "name": "KIMS HOSPITAL", "name:en": "KIMS Hospitals", "operator:type": "private", "source": "OpenGovernmentData", "website": "www.kimshospitals.in"}}, {"type": "node", "id": 5324874933, "lat": 17.4297764, "lon": 78.4340161, "tags": {"addr:district": "Hyderabad", "addr:full": "# 8-3-833, Plot No:100, Phase 1, Kamalapuri Colony, Sri Nagar Colony", "addr:postcode": "500073", "addr:state": "Telangana", "amenity": "hospital", "contact:email": "hospitaltanvir@gmail.com", "healthcare": "hospital", "name": "Tanvir Hospital", "phone": "+91 9951911155", "source": "OpenGovernmentData", "website": "https://tanvirhospital.com/", "wikidata": "Q52843710"}}, {"type": "node", "id": 5405055776, "lat": 17.4422328, "lon": 78.3587144, "tags": {"addr:district": "Hyderabad", "addr:full": "Plot Number 4, 5, 23 and 24, Gachibowli Stadium Main Road", "addr:postcode": "500032", "addr:state": "Telangana", "amenity": "hospital", "email": "info@himagirihospitals.com", "emergency_telephone_code": "040 23001111", "fax": "040 2300 4204", "healthcare": "hospital", "healthcare:speciality": "multi specialty", "medical_system": "Allopathic", "name": "Himagiri Hospital", "opening_hours": "Su 09:00-21:00", "operator:type": "private", "phone": "040 23004206;040 23004207;040 23004208;040 23004209", "source": "OpenGovernmentData", "website": "https://www.himagirihospitals.com/"}}, {"type": "node", "id": 5430551026, "lat": 17.4169813, "lon": 78.4294418}, {"type": "node", "id": 5430551027, "lat": 17.4175091, "lon": 78.4304077}, {"type": "node", "id": 5430551028, "lat": 17.4171842, "lon": 78.4317933}, {"type": "node", "id": 5430551029, "lat": 17.4166601, "lon": 78.4317178}, {"type": "node", "id": 5430551030, "lat": 17.4168073, "lon": 78.4302987}, {"type": "node", "id": 5430551031, "lat": 17.4178782, "lon": 78.4303421}, {"type": "node", "id": 5430551033, "lat": 17.4180087, "lon": 78.4293844}, {"type": "node", "id": 5430551034, "lat": 17.4173555, "lon": 78.4306402}, {"type": "node", "id": 5430551035, "lat": 17.4170523, "lon": 78.4317819, "tags": {"access": "private", "barrier": "gate"}}, {"type": "node", "id": 5482634949, "lat": 17.4260213, "lon": 78.4316931}, {"type": "node", "id": 5513214876, "lat": 17.4160447, "lon": 78.4151613, "tags": {"access": "private", "barrier": "gate", "bicycle": "yes", "foot": "yes", "horse": "no", "motor_vehicle": "yes"}}, {"type": "node", "id": 5513214877, "lat": 17.4160557, "lon": 78.4150789, "tags": {"access": "private", "barrier": "gate", "bicycle": "yes", "foot": "yes", "horse": "no", "motor_vehicle": "yes"}}, {"type": "node", "id": 5956425355, "lat": 17.4305631, "lon": 78.3717128}, {"type": "node", "id": 5956425356, "lat": 17.4301131, "lon": 78.3723728}, {"type": "node", "id": 5956425357, "lat": 17.4305078, "lon": 78.3726684}, {"type": "node", "id": 5957428793, "lat": 17.4467184, "lon": 78.4389697}, {"type": "node", "id": 5957428794, "lat": 17.4464459, "lon": 78.4400544}, {"type": "node", "id": 5957428795, "lat": 17.4468523, "lon": 78.440132}, {"type": "node", "id": 5957428796, "lat": 17.4467105, "lon": 78.441405}, {"type": "node", "id": 5957428797, "lat": 17.4473453, "lon": 78.44158}, {"type": "node", "id": 5957428798, "lat": 17.4487519, "lon": 78.4414859}, {"type": "node", "id": 5957428799, "lat": 17.448985, "lon": 78.440345}, {"type": "node", "id": 5957428800, "lat": 17.4486795, "lon": 78.4378155}, {"type": "node", "id": 5957428802, "lat": 17.4472996, "lon": 78.4385916}, {"type": "node", "id": 6046241877, "lat": 17.4469413, "lon": 78.3796635}, {"type": "node", "id": 6046241878, "lat": 17.4466598, "lon": 78.3795938}, {"type": "node", "id": 6046241879, "lat": 17.4466419, "lon": 78.3796581}, {"type": "node", "id": 6046241880, "lat": 17.4469276, "lon": 78.3797438}, {"type": "node", "id": 6078227506, "lat": 17.4564341, "lon": 78.4388653, "tags": {"addr:district": "Hyderabad", "addr:full": "7-2-1735, Opp. Voltas Company Private Ltd, Czech Colony, Sanath Nagar", "addr:postcode": "500018", "addr:state": "Telangana", "addr:street": "Czech colony", "amenity": "hospital", "health_facility:type": "Ambulance Service;Home Visit;Availability of Specialist Doctors;24 hours On Call", "healthcare": "hospital", "healthcare:speciality": "Gynaecologist and Obstetrician;Anethesia's and Critical Care;Neurology;Paediatric;Orthopaedics;Gastroenterology;Cardiology;ENT;Urology;Plastic Surgery;Physiotheraphy", "medical_system": "Allopathic", "name": "Neelima - Sanath Nagar", "operator:type": "private", "phone": "040 64617475;040 21111100", "source": "OpenGovernmentData", "website": "http://www.neelimahospital.com"}}, {"type": "node", "id": 6078236947, "lat": 17.456281, "lon": 78.4369269, "tags": {"addr:district": "Hyderabad", "addr:full": "7-2-1799/4A/2, Street Number 2, Czech Colony, Sanath Nagar", "addr:postcode": "500018", "addr:state": "Telangana", "addr:street": "Strret No. 2, Czech colony", "amenity": "hospital", "emergency": "no", "fax": "040 23718583", "healthcare": "hospital", "name": "Poojitha Hospital", "source": "OpenGovernmentData"}}, {"type": "node", "id": 6151537449, "lat": 17.4503845, "lon": 78.3825608, "tags": {"amenity": "hospital", "healthcare": "hospital", "healthcare:speciality": "dental_oral_maxillo_facial_surgery;orthodontics", "level": "3", "name": "Apollo Dental Clinic, Hitech City", "operator": "Apollo Hospitals", "operator:type": "private", "operator:wikidata": "Q4780321"}}, {"type": "node", "id": 6186448328, "lat": 17.4254893, "lon": 78.4270947}, {"type": "node", "id": 6186448329, "lat": 17.4255039, "lon": 78.4279038}, {"type": "node", "id": 6186448330, "lat": 17.4240177, "lon": 78.4280445}, {"type": "node", "id": 6186448331, "lat": 17.4238469, "lon": 78.427289}, {"type": "node", "id": 6217853185, "lat": 17.4257981, "lon": 78.4207625, "tags": {"amenity": "hospital", "healthcare": "hospital", "name": "Red Cross Nature Cure Centre", "name:en": "Red Cross Instuite of Nature Cure and Yoga", "opening_hours": "Mo-Sa 00:00-24:00"}}, {"type": "node", "id": 6248961986, "lat": 17.4729982, "lon": 78.3872074, "tags": {"addr:district": "Hyderabad", "addr:full": "JNTU Hitech City Road, 7th Phase, KPHB Colony, Near Hitech City Railway Station", "addr:postcode": "500072", "addr:state": "Telangana", "amenity": "hospital", "contact:mobile": "091609 20006", "email": "kukatpally@ankurahospital.com", "health_facility:type": "Pediatric Facilities;Obstetrics and Gynaecology Services;24 Hour Laboratory Service;Pharmacy;Emergency Ambulance Service with Transport Ventilator and Incubator;In House Canteen Services", "healthcare": "hospital", "healthcare:speciality": "Neonatology;Pediatric Critical Care;Paediatric Emergency;Paediatric Surgery;Pediatric Dentistry;Paediatric Neurology;Paediatric Cardiology;Microbiology;Endocrinology;Physiotherapy;Psychiatry;Dermatology;Dental Health;Diet and Nutrition", "medical_system": "Allopathic", "name": "Ankura Hospital for Women & Children", "operator:type": "private", "phone": "040 49599999", "source": "OpenGovernmentData", "website": "https://www.ankurahospital.com/"}}, {"type": "node", "id": 6261444586, "lat": 17.4731914, "lon": 78.3872633, "tags": {"amenity": "hospital", "healthcare": "hospital", "name": "Ankura Multispeciality clinic"}}, {"type": "node", "id": 6471857480, "lat": 17.4210563, "lon": 78.434392}, {"type": "node", "id": 6471857481, "lat": 17.4210046, "lon": 78.4345742}, {"type": "node", "id": 6471857482, "lat": 17.4212703, "lon": 78.4346571}, {"type": "node", "id": 6471857483, "lat": 17.421322, "lon": 78.4344749}, {"type": "node", "id": 6471883031, "lat": 17.4248083, "lon": 78.4225617, "tags": {"addr:district": "Hyderabad", "addr:full": "Ashoka Capitol Building, Road No 2, Banjara Hills", "addr:postcode": "500034", "addr:state": "Telangana", "amenity": "hospital", "contact:email": "cfshyd.appointment@centreforsight.net", "contact:mobile": "08500652020;08500552020;08500152020;08500252020", "healthcare": "hospital", "healthcare:speciality": "ophthalmology", "medical_system": "Allopathic", "name": "Centre For Sight Superspecialty Eye Hospital", "operator:type": "private", "phone": "040 40045500;040 40042115;040 40042116;040 40042117;040 40042118;040 40042119", "source": "OpenGovernmentData", "website": "https://www.centreforsight.net/"}}, {"type": "node", "id": 6479961202, "lat": 17.3913878, "lon": 78.4369875, "tags": {"addr:district": "Hyderabad", "addr:full": "#12-2-823/A/46, Near Santosh Nagar Park, Lane Opposite Pillar 19, Santosh Nagar Colony, Mehdipatnam", "addr:postcode": "500028", "addr:state": "Telangana", "amenity": "hospital", "contact:email": "arjun.e@apoorvahospital.com", "health_facility:type": "Lounge; Reception; PICU; State of Art Equipments; 24 hours Pediatric Emergencies; Surgical Facilities", "medical_system": "Allopathic", "name": "Apoorva Hospital", "operator:type": "private", "phone": "040 65503232; 040 23521139", "source": "OpenGovernmentData", "website": "http://www.apoorvahospital.com"}}, {"type": "node", "id": 6480048646, "lat": 17.4033637, "lon": 78.4172847, "tags": {"addr:district": "Hyderabad", "addr:full": "Beside Limra Cafe, Hakeempet X Road, Toli Chowki", "addr:postcode": "500028", "addr:state": "Telangana", "amenity": "hospital", "name": "Al-Noor Hospital", "source": "OpenGovernmentData"}}, {"type": "node", "id": 6481978987, "lat": 17.3918945, "lon": 78.4378043, "tags": {"addr:district": "Hyderabad", "addr:full": "12-2-824, P.V. Narasimha Rao Express Way, Near St.Anns Women's College, Mehdipatnam", "addr:postcode": "500028", "addr:state": "Telangana", "amenity": "hospital", "name": "Arvind Eye Hospital", "phone": "040 2351 2233", "source": "OpenGovernmentData", "website": "www.aravindeyecarehospitals.com"}}, {"type": "node", "id": 6482049740, "lat": 17.4311263, "lon": 78.4266108, "tags": {"addr:district": "Hyderabad", "addr:full": "8-3-231/A/516,517,A-Block, Sri Krishna Nagar, Yousufguda", "addr:postcode": "500045", "addr:state": "Telangana", "amenity": "hospital", "healthcare": "hospital", "name": "Anvitha Hospital", "source": "OpenGovernmentData"}}, {"type": "node", "id": 6484721973, "lat": 17.3942929, "lon": 78.4419228, "tags": {"addr:district": "Hyderabad", "addr:full": "10-3-5/E/106, Sakina Complex, Mehdipatnam", "addr:postcode": "500028", "addr:state": "Telangana", "amenity": "hospital", "fax": "040-23513839;040-55578888", "name": "Sai Preethi Life Line Hospital", "source": "OpenGovernmentData"}}, {"type": "node", "id": 6484730153, "lat": 17.4372474, "lon": 78.3942747, "tags": {"addr:district": "Hyderabad", "addr:full": "1-66/4/194, Block-B, Kavurihills, Durgam Cheruvu Road, Madhava Nagar, Beside Shivaramalayam, Madhapur", "addr:postcode": "500033", "addr:state": "Telangana", "amenity": "hospital", "healthcare": "hospital", "name": "Praanadah Hospital", "source": "OpenGovernmentData"}}, {"type": "node", "id": 6485092243, "lat": 17.4390949, "lon": 78.4406662, "tags": {"addr:district": "Hyderabad", "addr:full": "8-3-214/46, Srinivas Colony West, Ameerpet", "addr:postcode": "500038", "addr:state": "Telangana", "amenity": "hospital", "healthcare": "hospital", "name": "Sainath Hospital", "source": "OpenGovernmentData"}}, {"type": "node", "id": 6485134606, "lat": 17.4406252, "lon": 78.4242403, "tags": {"addr:district": "Hyderabad", "addr:full": "Rahamath Nagar, Yousufguda", "addr:postcode": "500045", "addr:state": "Telangana", "amenity": "hospital", "name": "Sadanand Nursing Home", "source": "OpenGovernmentData"}}, {"type": "node", "id": 6485325429, "lat": 17.4240881, "lon": 78.4317076, "tags": {"addr:district": "Hyderabad", "addr:full": "8-2-120/86/1, Road No. 3, Banjara Hills", "addr:postcode": "500034", "addr:state": "Telangana", "amenity": "hospital", "healthcare": "hospital", "name": "Maternal Health and Research Trust", "source": "OpenGovernmentData"}}, {"type": "node", "id": 6485824573, "lat": 17.3915772, "lon": 78.4268716, "tags": {"addr:district": "Hyderabad", "addr:full": "12-2-718, Khader Bagh Road, Toli Chowki, Padmanabha Nagar, Mehdipatnam", "addr:postcode": "500028", "addr:state": "Telangana", "amenity": "hospital", "check_date": "2025-03-25", "contact:mobile": "+91 7702001163", "contact:phone": "040-2351 5100", "name": "Premier Hospital", "source": "OpenGovernmentData", "website": "https://www.premierhospital.in"}}, {"type": "node", "id": 6485848266, "lat": 17.4391256, "lon": 78.3958378, "tags": {"addr:district": "Hyderabad", "addr:full": "1-88/5/A, Plot No. 274, Opp. Madhapur Police Station, Kavuri Hills", "addr:postcode": "500081", "addr:state": "Telangana", "amenity": "hospital", "healthcare": "hospital", "name": "L.V. Prasad Eye Institute", "source": "OpenGovernmentData"}}, {"type": "node", "id": 6485852123, "lat": 17.3979236, "lon": 78.4175335, "tags": {"addr:district": "Hyderabad", "addr:full": "9-4-87/5/2, Lane Beside Andhra Bank, Tolichowki", "addr:postcode": "500008", "addr:state": "Telangana", "amenity": "hospital", "healthcare": "hospital", "name": "Shamshad Children's Hospital", "source": "OpenGovernmentData"}}, {"type": "node", "id": 6485880627, "lat": 17.4525697, "lon": 78.4444669, "tags": {"addr:district": "Hyderabad", "addr:full": "SRT 641-642, Opposite Vinayaka Ground, Sanathnagar", "addr:postcode": "500018", "addr:state": "Telangana", "amenity": "hospital", "name": "Vijaya Krishna Nursing Home", "source": "OpenGovernmentData"}}, {"type": "node", "id": 6487116810, "lat": 17.4343967, "lon": 78.4173229, "tags": {"addr:district": "Hyderabad", "addr:full": "Plot No. 225/A, Road No 17, Jubilee Hills Check Post", "addr:postcode": "500033", "addr:state": "Telangana", "amenity": "hospital", "healthcare": "hospital", "name": "Srivision Super Speciality Eye Hospital", "source": "OpenGovernmentData"}}, {"type": "node", "id": 6487127620, "lat": 17.4352974, "lon": 78.4365799, "tags": {"addr:district": "Hyderabad", "addr:full": "8-3-667/1, Near K.K. Towers, Lane Opposite Allahabad Bank, Engineer's Colony, Yousufguda Road", "addr:postcode": "500073", "addr:state": "Telangana", "amenity": "hospital", "healthcare": "hospital", "name": "Susheela Hospital", "phone": "040 23730020", "source": "OpenGovernmentData"}}, {"type": "node", "id": 6487137845, "lat": 17.394618, "lon": 78.4386519, "tags": {"addr:district": "Hyderabad", "addr:full": "#12-2-823/A/10, Opposite Jaya Bhushan Bus Stop & ICICI Bank, Santosh Nagar Colony, Mehdipatnam", "addr:postcode": "500028", "addr:state": "Telangana", "amenity": "hospital", "contact:email": "anishkolly@theendocrinologist.com", "contact:phone": "040-66563334", "healthcare": "hospital", "name": "Jaya Bhushan Hospitals Pvt. Ltd", "source": "OpenGovernmentData"}}, {"type": "node", "id": 6487200705, "lat": 17.3913379, "lon": 78.4348029, "tags": {"addr:district": "Hyderabad", "addr:full": "12-2-790/74, Ayodhya Nagar Colony Mehdipatnam", "addr:postcode": "500028", "addr:state": "Telangana", "amenity": "hospital", "name": "Ayodhya Nursing Home", "source": "OpenGovernmentData"}}, {"type": "node", "id": 6487866891, "lat": 17.437122, "lon": 78.4272954, "tags": {"addr:district": "Hyderabad", "addr:full": "8-3-229/37, Tahir Villa, Near Dena Bank, Opposite St Mary\u2019s Junior College, Yousufguda Check Post", "addr:postcode": "500045", "addr:state": "Telangana", "amenity": "hospital", "contact:email": "drsmguro@gmail.com", "contact:phone": "040-23608179", "healthcare": "hospital", "name": "Fehmi Care Hospital", "source": "OpenGovernmentData", "website": "https://fehmicarehospital.com"}}, {"type": "node", "id": 6489576234, "lat": 17.4418419, "lon": 78.4452461, "tags": {"addr:district": "Hyderabad", "addr:full": "43/3 RT, Near Community Hall, S.R. Nagar", "addr:postcode": "500038", "addr:state": "Telangana", "amenity": "hospital", "fax": "23801021", "name": "GSN Hospital", "source": "OpenGovernmentData"}}, {"type": "node", "id": 6489591500, "lat": 17.4281872, "lon": 78.432519, "tags": {"addr:district": "Hyderabad", "addr:full": "Lane Beside Harley Davidson Showroom, Sagar Soceity Main Road, Road Number 2, Banjara Hills", "addr:postcode": "500034", "addr:state": "Telangana", "amenity": "hospital", "contact:mobile": "9849204178; 040-40137750", "email": "challaeyecare@gmail.com", "healthcare": "hospital", "name": "Challa Eye Care Centre", "operator:type": "private", "phone": "040-40137750; 040-40171180", "source": "OpenGovernmentData", "website": "https://challaeyecare.com"}}, {"type": "node", "id": 6489843355, "lat": 17.4554163, "lon": 78.4238099, "tags": {"addr:district": "Hyderabad", "addr:full": "Plot No: 112/C, 112/D, Moti Nagar, Erragadda", "addr:postcode": "500018", "addr:state": "Telangana", "amenity": "hospital", "name": "Leela Hospital", "source": "OpenGovernmentData"}}, {"type": "node", "id": 6489894585, "lat": 17.3879656, "lon": 78.4397234, "tags": {"addr:district": "Hyderabad", "addr:full": "Gudimalkapur, Opp LIC Office, Mehdipatnam", "addr:postcode": "500028", "addr:state": "Telangana", "amenity": "hospital", "name": "Anusha Hospital", "source": "OpenGovernmentData"}}, {"type": "node", "id": 6493336766, "lat": 17.3926842, "lon": 78.4455183, "tags": {"addr:district": "Hyderabad", "addr:full": "10-2-524 & 531, Near Canara Bank, Upstair Mirza Street, M.C.H Colony, Asif Nagar", "addr:postcode": "500028", "addr:state": "Telangana", "amenity": "hospital", "name": "Aries Maternity Hospital", "source": "OpenGovernmentData"}}, {"type": "node", "id": 6494384142, "lat": 17.4078913, "lon": 78.4426578, "tags": {"addr:district": "Hyderabad", "addr:full": "2-681, 1st Floor, Vishal Vaibhav Complex, Road No. 12, Banjara Hills", "addr:postcode": "500034", "addr:state": "Telangana", "amenity": "hospital", "name": "Eva Care The Every Woman's Clinic", "source": "OpenGovernmentData"}}, {"type": "node", "id": 6496590575, "lat": 17.4301078, "lon": 78.4061931, "tags": {"addr:district": "Hyderabad", "addr:full": "Plot No. 1110, Road No. 55, Opposite Peddamma Temple, Jubilee Hills", "addr:postcode": "500033", "addr:state": "Telangana", "amenity": "hospital", "contact:email": "info@stopiles.com", "healthcare": "hospital", "name": "Stopiles", "phone": "040 39565230; 7799790251", "source": "OpenGovernmentData", "website": "https://www.stopiles.com"}}, {"type": "node", "id": 6496870134, "lat": 17.4137962, "lon": 78.4239289}, {"type": "node", "id": 6496870135, "lat": 17.4137642, "lon": 78.4241653}, {"type": "node", "id": 6497362076, "lat": 17.4373484, "lon": 78.4462573, "tags": {"addr:district": "Hyderabad", "addr:full": "Plot No 4, Satyam Theatre Road, Beside Blue Fox Hotel, Mythrivanam, Ameerpet", "addr:postcode": "500038", "addr:state": "Telangana", "amenity": "hospital", "fax": "040 23755152", "health_facility:type": "Consultative;Diagnostic and Surgical Services", "healthcare": "hospital", "healthcare:speciality": "Anesthesiology;Cardiology;Diabetology;Dermatology;ENT Head and Neck Surgery;General Internal Medicine;General and Laparoscopic Surgery;Gynaecology and Obstetrics;Gastroenterology and Hematology;Neonatology and Paediatrics;Neurology and Neuro Surgery", "medical_system": "Allopathic", "name": "ASTER PRIME HOSPITALS (SRI SAINATHA MULTISPECIALITY HOSPITAL PVT.LTD.)", "operator:type": "private", "phone": "040 4959 4959", "source": "OpenGovernmentData", "website": "https://www.asterprime.com"}}, {"type": "node", "id": 6497614668, "lat": 17.3910723, "lon": 78.4267851, "tags": {"addr:district": "Hyderabad", "addr:full": "13-6-437/1L/1, Opp Nalanda Public School, Nanal Nagar 'X' Road, Khaderbagh, Mehdipatnam", "addr:postcode": "500008", "addr:state": "Telangana", "amenity": "hospital", "fax": "040 23511855", "name": "Dr. Sreedhar's Kidney & Infertility Hospital", "source": "OpenGovernmentData"}}, {"type": "node", "id": 6503155785, "lat": 17.4517957, "lon": 78.4377721, "tags": {"addr:district": "Hyderabad", "addr:full": "Opposite Erragadda Rythu Bazar, Sanath Nagar", "addr:postcode": "500018", "addr:state": "Telangana", "amenity": "hospital", "contact:email": "theresa.admin@gmail.com", "contact:phone": "040 23701013", "name": "St.Theresa's Hospitals", "source": "OpenGovernmentData", "website": "https://www.sttheresashospital.com", "wikidata": "Q7586669", "wikipedia": "en:St. Theresa's Hospital"}}, {"type": "node", "id": 6503203211, "lat": 17.3935545, "lon": 78.4435281, "tags": {"addr:district": "Hyderabad", "addr:full": "12-2-831/87, Sai Suchi Towers, Opposite Syndicate Bank, Mehdipatnam", "addr:postcode": "500028", "addr:state": "Telangana", "amenity": "hospital", "email": "info@drakbareyehospitals.com", "health_facility:type": "Ocular Photography;Ultrasound and Intraocular Lens Calculation;Specialized Ophthalmic Testing;Non Contact Tonometry", "healthcare:speciality": "Primary Eye Care;LASIK Services;Cataract Services;Cornea and Refractive Surgery Services;Glaucoma Services;Retina and Diabetic Retinopathy;Retina and Hypertensive Retinopathy;Contact Lens Services;Pediatric Service", "medical_system": "Allopathic", "name": "Dr. Akbar Eye Hospital", "operator:type": "private", "phone": "040 66362660", "source": "OpenGovernmentData", "website": "https://www.drakbareyehospitals.com/"}}, {"type": "node", "id": 6503288232, "lat": 17.4490629, "lon": 78.4317237, "tags": {"addr:district": "Hyderabad", "addr:full": "8-3-167/A/7 & 8, Vikaspuri Colony, Near A.G.Colony, Road Opposite ESI Hospital, Erragadda", "addr:postcode": "500038", "addr:state": "Telangana", "alt_name": "Dr. Sudha's Test Tube Baby Centre", "amenity": "hospital", "contact:email": "sunrichhospitals2009@gmail.com", "contact:phone": "040 23705588; 9393542950", "name": "Sunrich Hospital", "source": "OpenGovernmentData", "website": "www.drsudhaivf.com"}}, {"type": "node", "id": 6503370083, "lat": 17.4448064, "lon": 78.4324291, "tags": {"addr:district": "Hyderabad", "addr:full": "Plot Number 57, Kalyan Nagar Phase 1, Behind TB Hospital", "addr:postcode": "500038", "addr:state": "Telangana", "amenity": "hospital", "medical_system": "Allopathic", "name": "J.J. Hospital", "operator:type": "private", "phone": "040 2370 4778; 040 23712106", "source": "OpenGovernmentData"}}, {"type": "node", "id": 6503655627, "lat": 17.4116829, "lon": 78.4324009, "tags": {"addr:district": "Hyderabad", "addr:full": "H.No. 8-2-686/B/1/A, Road No.12, Near Jaganedha Temple, Banjara Hills", "addr:postcode": "500034", "addr:state": "Telangana", "amenity": "hospital", "name": "Avis Ankura Hospital for Women & Children", "source": "OpenGovernmentData"}}, {"type": "node", "id": 6504097065, "lat": 17.4514829, "lon": 78.424402, "tags": {"addr:district": "Hyderabad", "addr:full": "Rajeev Nagar`X` Roads, Mothinagar", "addr:postcode": "500018", "addr:state": "Telangana", "amenity": "hospital", "contact:email": "manaseyehosp@gmail.com", "contact:mobile": "+91 9849726209", "name": "Manas Eye Hospital", "source": "OpenGovernmentData", "website": "https://manaseyehospital.com/"}}, {"type": "node", "id": 6505507940, "lat": 17.4299337, "lon": 78.4271117, "tags": {"addr:district": "Hyderabad", "addr:full": "Jubilee Hills Road, Krishna Nagar", "addr:postcode": "500045", "addr:state": "Telangana", "amenity": "hospital", "healthcare": "hospital", "name": "Seethal Nursing Home", "source": "OpenGovernmentData"}}, {"type": "node", "id": 6510356260, "lat": 17.4306004, "lon": 78.4388973, "tags": {"addr:district": "Hyderabad", "addr:full": "8-3-978/1, Shree Nursing Home, Srinagar Colony", "addr:postcode": "500073", "addr:state": "Telangana", "amenity": "hospital", "email": "shreenursinghome@gmail.com", "fax": "040-23757737", "name": "Shree Hospital", "phone": "040-66756493; 040-23734898", "source": "OpenGovernmentData", "website": "http://www.shreenursinghome.com"}}, {"type": "node", "id": 6511672655, "lat": 17.447338, "lon": 78.437815, "tags": {"addr:district": "Hyderabad", "addr:full": "House No.: 8-3-168/P/1, ESI Cross Roads, S.R. Nagar", "addr:postcode": "500038", "addr:state": "Telangana", "amenity": "hospital", "name": "Sowmya Hospital", "source": "OpenGovernmentData"}}, {"type": "node", "id": 6513323438, "lat": 17.4314653, "lon": 78.4466797, "tags": {"addr:district": "Hyderabad", "addr:full": "8-3-903/F/12&13, Image House, Behind Chermas, Ameerpet", "addr:postcode": "500073", "addr:state": "Telangana", "amenity": "hospital", "fax": "2375555; 23746616", "name": "Image Hospital", "source": "OpenGovernmentData"}}, {"type": "node", "id": 6513396181, "lat": 17.4016591, "lon": 78.3848655, "tags": {"addr:district": "Hyderabad", "addr:full": "Near Bus Stop Manikonda,Puppalaguda Manikonda Main Road", "addr:postcode": "500089", "addr:state": "Telangana", "amenity": "hospital", "name": "Sri Balaji Hospital", "source": "OpenGovernmentData"}}, {"type": "node", "id": 6530792770, "lat": 17.4383029, "lon": 78.3994983, "tags": {"addr:district": "Hyderabad", "addr:full": "Plot No. 729, Road 36, Jubilee Hills", "addr:postcode": "500033", "addr:state": "Telangana", "amenity": "hospital", "email": "life@livlifehospitals.com", "health_facility:type": "24 Hour Patient Care; Day Care Unit; Diagnostic and Pathology Services; Pharmacy", "healthcare": "hospital", "healthcare:speciality": "Dermatology; Advanced Laparoscopy", "medical_system": "Allopathic", "name": "Live Life Hospital", "operator:type": "private", "phone": "040 30888888", "source": "OpenGovernmentData", "website": "https://www.livlifehospitals.com/"}}, {"type": "node", "id": 6531378729, "lat": 17.4293887, "lon": 78.4178258, "tags": {"addr:district": "Hyderabad", "addr:full": "Plot No. 99, Road No. 1, Near Chiranjeevi Blood Bank, Jubilee Hills Check Post", "addr:postcode": "500033", "addr:state": "Telangana", "amenity": "hospital", "contact:email": "info@avishospitals.com ; contact@avishospitals.com", "contact:phone": "+91 9949034085 ; +91 9989527715", "healthcare": "hospital", "name": "Avis Hospitals", "old_name": "Beams Hospital", "source": "OpenGovernmentData", "website": "http://www.avishospitals.com"}}, {"type": "node", "id": 6537360032, "lat": 17.4506967, "lon": 78.3640308, "tags": {"addr:district": "Hyderabad", "addr:full": "Opp. Jayabheri Enclave, Anjaiah Nagar, Near Botanical Garden, Gachibowli", "addr:postcode": "500032", "addr:state": "Telangana", "amenity": "hospital", "healthcare": "hospital", "name": "Rajitha Hospital", "source": "OpenGovernmentData"}}, {"type": "node", "id": 6538865408, "lat": 17.4451301, "lon": 78.4349412}, {"type": "node", "id": 6546851783, "lat": 17.3852587, "lon": 78.4026083, "tags": {"addr:district": "Hyderabad", "addr:full": "9-11-178, Fort Road Golconda, Near Golconda Fort", "addr:postcode": "500008", "addr:state": "Telangana", "addr:street": "Golconda", "addr:subdistrict": "Golconda", "amenity": "hospital", "contact:phone": "4023513776", "name": "Area Hospital, Golconda", "source": "OpenGovernmentData"}}, {"type": "node", "id": 6548782136, "lat": 17.4464363, "lon": 78.3786482, "tags": {"addr:city": "Hyderabad", "addr:district": "Rangareddy", "addr:full": "Plot No:. 7, Sy. No. 64, Behind Cyber Towers, Patrika Nagar, Hitech City, Near IBIS Hotel Lane, Madhapur", "addr:postcode": "500081", "addr:state": "Telangana", "amenity": "hospital", "contact:phone": "4067076700", "email": "info@maxcuresuyosha.com", "healthcare": "hospital", "name": "MAXCURE SUYOSHA WOMAN & CHILD HOSPITAL", "operator:type": "private", "source": "OpenGovernmentData", "website": "https://www.maxcuresuyosha.com/"}}, {"type": "node", "id": 6548807629, "lat": 17.4391832, "lon": 78.4425692, "tags": {"addr:district": "Hyderabad", "addr:full": "8-3-215, Srinivas Nagar Colony West. Adjacent to Siva Reddy Sweets Opposite ICICI Bank Ameerpet", "addr:postcode": "500038", "addr:state": "Telangana", "amenity": "hospital", "contact:phone": "040 \u2013 66312345", "email": "nethrahyd@yahoo.com", "healthcare": "hospital", "name": "NETHRA EYE INSTITUE", "operator:type": "private", "source": "OpenGovernmentData", "website": "http://www.nethraeyeinstitute.com"}}, {"type": "node", "id": 6548854401, "lat": 17.4497269, "lon": 78.3672388, "tags": {"addr:district": "Hyderabad", "addr:full": "ANJAIAH NAGAR COMMUNITY HALL ROAD, GACHIBOWLI", "addr:postcode": "500032", "addr:state": "Telangana", "amenity": "hospital", "contact:phone": "4031000697", "healthcare": "hospital", "name": "Kakatiya Hospital", "operator:type": "private", "source": "OpenGovernmentData"}}, {"type": "node", "id": 6548903087, "lat": 17.3985564, "lon": 78.4143068, "tags": {"addr:city": "Hyderabad", "addr:district": "Rangareddy", "addr:full": "Tolichowki \u2018X\u2019 Road, Seven Tombs Road, Tolichowki", "addr:postcode": "500008", "addr:state": "Telangana", "amenity": "hospital", "contact:phone": "040-23564200 ; 040- 23564300", "email": "info@applehospitals.org", "healthcare": "hospital", "name": "Apple Multi Speciality Hospital", "operator:type": "private", "source": "OpenGovernmentData"}}, {"type": "node", "id": 6549145506, "lat": 17.4205712, "lon": 78.4416855, "tags": {"addr:district": "Hyderabad", "addr:full": "8-2-413/B, ROAD NO. 4, BANJARA HILLS", "addr:postcode": "500034", "addr:state": "Telangana", "amenity": "hospital", "contact:phone": "4023351144", "healthcare": "hospital", "name": "Times Hospital", "operator:type": "private", "source": "OpenGovernmentData"}}, {"type": "node", "id": 6549159475, "lat": 17.4366563, "lon": 78.4399192, "tags": {"addr:district": "Adilabad", "addr:full": "8-3-318/2/A/28, Opp State Home, Yousufguda Main Road, Ameerpet", "addr:postcode": "500073", "addr:state": "Telangana", "amenity": "hospital", "contact:phone": "4066025588", "healthcare": "hospital", "name": "RAJA HOSPITAL", "operator:type": "private", "source": "OpenGovernmentData"}}, {"type": "node", "id": 6549162107, "lat": 17.4246755, "lon": 78.433091, "tags": {"addr:city": "Hyderabad", "addr:full": "H.No: 8-2-277/A/1, ROAD NO.2, BANJARA HILLS", "addr:postcode": "500034", "addr:state": "Telangana", "amenity": "hospital", "contact:phone": "4067139999", "healthcare": "hospital", "name": "THE BIRTHPLACE", "operator:type": "private", "source": "OpenGovernmentData"}}, {"type": "node", "id": 6549184413, "lat": 17.4448396, "lon": 78.3855052, "tags": {"addr:district": "Hyderabad", "addr:full": "#1-120/3, Plot No.3, Behind Karachi Bakery, Survey No.64, Madhapur", "addr:postcode": "500081", "addr:state": "Telangana", "amenity": "hospital", "contact:phone": "040 67108108", "healthcare": "hospital", "name": "Oakridge Hospitals", "operator:type": "private", "source": "OpenGovernmentData", "website": "http://oakridgehospitals.com/"}}, {"type": "node", "id": 6549189965, "lat": 17.3893119, "lon": 78.4422313, "tags": {"addr:city": "Hyderabad", "addr:district": "Rangareddy", "addr:full": "Hill Colony Road, Alapathi Nagar", "addr:postcode": "500028", "addr:state": "Telangana", "amenity": "hospital", "contact:phone": "4023533234", "name": "Sri Vijaya Hospitals", "operator:type": "private", "source": "OpenGovernmentData"}}, {"type": "node", "id": 6549198596, "lat": 17.4620023, "lon": 78.3669068, "tags": {"addr:city": "Hyderabad", "addr:full": "H.No: 2-41/11/3 & 4, QZ PLAZA, KOTHAGUDA CROSS ROADS, KONDAPUR, KOTHAGUDA (K.V.Rangareddy), SERILINGAMPALLY", "addr:postcode": "500084", "addr:state": "Telangana", "amenity": "hospital", "contact:phone": "23005789", "healthcare": "hospital", "name": "REFRACTO EYE HOSPITAL (A GROUP OF CREDIBLE HEALTH CARE PVT LTD )", "operator:type": "private", "source": "OpenGovernmentData"}}, {"type": "node", "id": 6549219226, "lat": 17.4288986, "lon": 78.4398817, "tags": {"addr:city": "Hyderabad", "addr:full": "Plot No. 143, Sagar Society, Venkateshwara Colony, Srinagar Colony, Near Ratnadeep Super Market,", "addr:postcode": "500073", "addr:state": "Telangana", "amenity": "hospital", "contact:phone": "48563344", "healthcare": "hospital", "name": "SMART VISION EYE SPECIALITIES PRIVATE LIMITED", "operator:type": "private", "source": "OpenGovernmentData"}}, {"type": "node", "id": 6549290634, "lat": 17.3942641, "lon": 78.4307253, "tags": {"addr:city": "Hyderabad", "addr:full": "12-2-727/1/A, INNER RING ROAD, Opp: PILLAR NO. 46, RETHI BOWLI, MEHDIPATNAM", "addr:postcode": "500028", "addr:state": "Telangana", "amenity": "hospital", "contact:phone": "040-23512970; 040-23521946 ; 08106891947", "name": "ORIENT EYE HOSPITAL", "operator:type": "private", "source": "OpenGovernmentData"}}, {"type": "node", "id": 6549331502, "lat": 17.4161502, "lon": 78.4338641, "tags": {"addr:district": "Hyderabad", "addr:full": "Door No:8-2-603/1/3/B, 2nd Floor, Vintage Plaza, Road No:10, Banjara Hills", "addr:postcode": "500034", "addr:state": "Telangana", "amenity": "hospital", "contact:phone": "040 42408039 ; 040 23552212", "name": "NEPHROPLUS KIDNEY CARE HOSPITALS", "operator:type": "private", "source": "OpenGovernmentData"}}, {"type": "node", "id": 6549366073, "lat": 17.4137266, "lon": 78.4244857, "tags": {"addr:city": "Hyderabad", "addr:full": "H.No: 8-2-293/82/1/4A, 5A & 6A, MLA COLONY, ROAD NO 12, BANJARA HILLS", "addr:postcode": "500034", "addr:state": "Telangana", "amenity": "hospital", "contact:phone": "040 46289999", "name": "CITI NEURO CENTER", "operator:type": "private", "source": "OpenGovernmentData", "website": "https://www.citineurocentre.com/"}}, {"type": "node", "id": 6549400717, "lat": 17.4194759, "lon": 78.3715081, "tags": {"addr:city": "Hyderabad", "addr:full": "Plot No. 1276, Road No. 63A, Jubilee Hills", "addr:postcode": "500033", "addr:state": "Telangana", "amenity": "hospital", "contact:phone": "040 6534448 ;040 23558855 ;040 23552999", "healthcare": "hospital", "name": "PACIFIC CLINICS (A Unit of Pacific Hospitals Pvt Ltd.)", "operator:type": "private", "source": "OpenGovernmentData"}}, {"type": "node", "id": 6549420102, "lat": 17.4070512, "lon": 78.4412871, "tags": {"addr:district": "Hyderabad", "addr:full": "8-2 698, ROAD NO 12, BANJARA HILLS", "addr:postcode": "500034", "addr:state": "Telangana", "amenity": "hospital", "contact:phone": "47807300", "name": "STORK HOME FERNANDEZ HOSPITAL", "operator:type": "private", "source": "OpenGovernmentData"}}, {"type": "node", "id": 6549425557, "lat": 17.4438231, "lon": 78.3666245}, {"type": "node", "id": 6559309139, "lat": 17.3918869, "lon": 78.4406219, "tags": {"addr:district": "Hyderabad", "addr:full": "Near Bus Depot, Mehdipatnam", "addr:postcode": "500028", "addr:state": "Telangana", "amenity": "hospital", "fixme": "Please verify the accurate position of the hospital as I have mapped the facility based on the address provided in Open Government data", "name": "Amrutha Hospital For Health and Fitness", "source": "OpenGovernmentData"}}, {"type": "node", "id": 6559338844, "lat": 17.4401185, "lon": 78.4236932, "tags": {"addr:district": "Hyderabad", "addr:full": "Near PJR Statue, Rahamath Nagar 'X' Road, Yousufguda", "addr:postcode": "500045", "addr:state": "Telangana", "amenity": "hospital", "name": "Pavithra Nursing Home", "source": "OpenGovernmentData"}}, {"type": "node", "id": 6560815058, "lat": 17.4562216, "lon": 78.4256515, "tags": {"addr:district": "Hyderabad", "addr:full": "Beside Pandu Ranga Nagar Bus Stop, Moti Nagar", "addr:postcode": "500018", "addr:state": "Telangana", "amenity": "hospital", "health_facility:type": "Ambulance Service;Home Visit;Availability of Specialist Doctors;24 hours On Call", "healthcare:speciality": "Gynaecologist and Obstetrician;Anethesia's and Critical Care;Neurology;Paediatric;Orthopaedics;Gastroenterology;Cardiology;ENT;Urology;Plastic Surgery;Physiotheraphy", "medical_system": "Allopathic", "name": "Neelima Hospital", "operator:type": "private", "phone": "040 65264448;040 23710069", "source": "OpenGovernmentData", "website": "http://www.neelimahospital.com"}}, {"type": "node", "id": 6561161964, "lat": 17.43034, "lon": 78.4370834, "tags": {"addr:district": "Hyderabad", "addr:full": "8-3-982, Srinagar Colony Main Road, Near Satya Sai Kalyana Mandapam", "addr:postcode": "500073", "addr:state": "Telangana", "amenity": "hospital", "name": "Nikhil Hospital", "source": "OpenGovernmentData"}}, {"type": "node", "id": 6562677269, "lat": 17.4300284, "lon": 78.3742265, "tags": {"addr:district": "Hyderabad", "addr:full": "3rd Floor, Millennium Square, Near Commissionerate of Police, Gachibowli", "addr:postcode": "500032", "addr:state": "Telangana", "amenity": "hospital", "contact:mobile": "040-69000370", "healthcare": "hospital", "healthcare:speciality": "Maternity;Gynaecology;Pediatrics;Fertility;Intensive Care;Fetal Care;Cosmetology", "medical_system": "Allopathic", "name": "Motherhood Clinic", "operator:type": "private", "source": "OpenGovernmentData"}}, {"type": "node", "id": 6563250152, "lat": 17.4074076, "lon": 78.4428254, "tags": {"addr:district": "Hyderabad", "addr:full": "4th Floor, Anushka Pride, Opposite Ratnadeep Supermarket, Road Number 12, Banjara Hills", "addr:postcode": "500034", "addr:state": "Telangana", "amenity": "hospital", "fax": "040 6736 9900", "health_facility:type": "Intensive Care Unit ICU ;Acute Medical Care unit AMC ;Neonatal Intensive Care Unit NICU ;Pediatric Intensive Care Unit PICU ;Post Operative Ward P O W ;Suite Rooms;Deluxe Rooms;A C and Non A C Cubicle;General Ward for Male and Female", "healthcare:speciality": "multi specialty", "medical_system": "Allopathic", "name": "Omni Hospital - Banjara Hills", "operator:type": "private", "phone": "040 67369999", "source": "OpenGovernmentData", "website": "https://www.omnihospitals.in/"}}, {"type": "node", "id": 6811748990, "lat": 17.442029, "lon": 78.440725, "tags": {"addr:district": "Hyderabad", "addr:full": "No:, H 11/C,Vengal Rao Nagar, beside tempteys, Sanjeeva Reddy Nagar", "addr:postcode": "500038", "addr:state": "Telangana", "amenity": "hospital", "name": "Shiva Homoeo Stores and clinic", "source": "OpenGovernmentData"}}, {"type": "node", "id": 6811749040, "lat": 17.4003659, "lon": 78.3894309, "tags": {"addr:district": "Hyderabad", "addr:full": "Near Lalamama Gardens, Puppalguda, Manikonda", "addr:postcode": "500089", "addr:state": "Telangana", "amenity": "hospital", "healthcare": "hospital", "name": "Prolife Hospital", "source": "OpenGovernmentData"}}, {"type": "node", "id": 6811749045, "lat": 17.4012253, "lon": 78.4124091, "tags": {"addr:district": "Hyderabad", "addr:full": "Opp. Majestic Garden, Daulat Gulshan Colony, Toli Chowki", "addr:postcode": "500008", "addr:state": "Telangana", "amenity": "hospital", "name": "Hayatt Hospital", "opening_hours": "24/7", "source": "OpenGovernmentData"}}, {"type": "node", "id": 6811749047, "lat": 17.4329564, "lon": 78.4461388, "tags": {"addr:district": "Hyderabad", "addr:full": "Shop No.2, Yaseen Complex, Opposite Chennai Shopping Mall, Ameerpet", "addr:state": "Telangana", "amenity": "hospital", "name": "Gutta Eye Clinic", "source": "OpenGovernmentData"}}, {"type": "node", "id": 6811749066, "lat": 17.4694418, "lon": 78.4256774, "tags": {"addr:city": "Hyderabad", "addr:district": "Medchal Malkajgiri", "addr:full": "Near Panchaseela School, Patel Nagar, Moosapet", "addr:postcode": "500018", "addr:state": "Telangana", "amenity": "hospital", "name": "Chaitanya Hospital", "operator:type": "Private", "source": "OpenGovernmentData"}}, {"type": "node", "id": 6811749093, "lat": 17.4092386, "lon": 78.4007023, "tags": {"addr:district": "Hyderabad", "addr:full": "8-1-299/A/104, Lane Beside Ice Cream Parlour, Madura Hills Colony, Near Bharat Gas, Shaikpet", "addr:postcode": "500008", "addr:state": "Telangana", "amenity": "hospital", "contact:mobile": "9666611110", "name": "JBI Hospital", "source": "OpenGovernmentData"}}, {"type": "node", "id": 6811749133, "lat": 17.473479, "lon": 78.421673, "tags": {"addr:district": "Medchal Malkajgiri", "addr:full": "Lane Beside Cake Walk Bakery, Pragathi Nagar, Moosapet, Hyderabad", "addr:postcode": "500072", "addr:state": "Telangana", "amenity": "hospital", "name": "Vasundhara Hospital", "opening_hours": "24/7", "source": "OpenGovernmentData"}}, {"type": "node", "id": 6811749134, "lat": 17.3921804, "lon": 78.4264492, "tags": {"addr:district": "Hyderabad", "addr:full": "13-6-148, Near Quba Masjid, Rock Hill Colony, Toli Chowki, Mehdipatnam", "addr:postcode": "500028", "addr:state": "Telangana", "amenity": "hospital", "name": "Salamah Hospital", "source": "OpenGovernmentData"}}, {"type": "node", "id": 6811749139, "lat": 17.4691677, "lon": 78.4275318, "tags": {"addr:city": "Hyderabad", "addr:district": "Medchal Malkajgiri", "addr:full": "Opp. Andhra Bank, Beside Sangeetha Mobiles, Moosapet 'X' Road", "addr:postcode": "500018", "addr:state": "Telangana", "amenity": "hospital", "contact:mobile": "9390113366", "name": "Aradhya Multi Speciality Hospital", "operator:type": "Private", "source": "OpenGovernmentData"}}, {"type": "node", "id": 6811749142, "lat": 17.443615, "lon": 78.434617, "tags": {"addr:district": "Hyderabad", "addr:full": "231A, Ground Floor, Simhapuri Mansion, Beside ICICI Bank, Vengalrao nagar, Kalyan Nagar Phase I", "addr:postcode": "500038", "addr:state": "Telangana", "amenity": "hospital", "name": "Skorts Multi Speciality Clinics", "source": "OpenGovernmentData"}}, {"type": "node", "id": 6811749143, "lat": 17.3957352, "lon": 78.4175241, "tags": {"addr:district": "Hyderabad", "addr:full": "9-4-87/8/10, MD Lines, Moti Darwaza Road, Minar Colony, Tolichowki", "addr:postcode": "500008", "addr:state": "Telangana", "amenity": "hospital", "contact:mobile": "8106000511", "healthcare": "hospital", "name": "IBM Hospital", "source": "OpenGovernmentData"}}, {"type": "node", "id": 6811749150, "lat": 17.4003589, "lon": 78.382573, "tags": {"addr:district": "Hyderabad", "addr:full": "Opp. Indian Bank, Puppalaguda, Manikonda", "addr:postcode": "500089", "addr:state": "Telangana", "amenity": "hospital", "name": "Shobha Hospital", "source": "OpenGovernmentData"}}, {"type": "node", "id": 6846152948, "lat": 17.4509475, "lon": 78.4235564, "tags": {"addr:district": "Hyderabad", "addr:full": "8-3-168 / M/ 12 KALYAN NAGAR, RAJEEV NAGAR X ROAD", "addr:state": "Telangana", "amenity": "hospital", "name": "SHREYA HOSPITAL", "operator:type": "Private", "source": "OpenGovernmentData"}}, {"type": "node", "id": 6846423887, "lat": 17.4546149, "lon": 78.4200095, "tags": {"addr:district": "Hyderabad", "addr:full": "Plot No: 3-1-171 SNEHAPURI COLONY, MOTI NAGAR", "addr:state": "Telangana", "amenity": "hospital", "name": "DR NAVEEN REDDYS GENERAL HOSPITAL", "operator:type": "Private", "source": "OpenGovernmentData"}}, {"type": "node", "id": 6855228385, "lat": 17.4659669, "lon": 78.3678073, "tags": {"addr:street": "Gachibowli - Miyapur Highway", "amenity": "hospital", "healthcare": "hospital", "name": "KIMS Cruddle", "opening_hours": "24/7"}}, {"type": "node", "id": 6937779552, "lat": 17.4594547, "lon": 78.3659801, "tags": {"amenity": "hospital", "healthcare": "hospital", "name": "Apollo"}}, {"type": "node", "id": 7025820758, "lat": 17.4406949, "lon": 78.3943588, "tags": {"amenity": "hospital", "healthcare": "hospital", "name": "Srinivasa Hospital"}}, {"type": "node", "id": 7025820786, "lat": 17.44582, "lon": 78.3924173, "tags": {"addr:city": "hyderabad", "addr:district": "rangareddy", "addr:housenumber": "APIIC Colony Beside State Bank of India , Shapur Nagar Jeedimetla Hyderabad", "addr:postcode": "500055", "addr:street": "Near SBI Bank", "amenity": "hospital", "emergency": "yes", "healthcare": "hospital", "healthcare:speciality": "gynaecology", "name": "lifespan hospitals"}}, {"type": "node", "id": 7025820915, "lat": 17.4413783, "lon": 78.3880897, "tags": {"amenity": "hospital", "healthcare": "hospital", "name": "Samanta Homeopathy"}}, {"type": "node", "id": 7113646686, "lat": 17.4366221, "lon": 78.4457432, "tags": {"amenity": "hospital", "healthcare": "hospital", "name": "Shresta hospital", "name:en": "Sreshta hospital"}}, {"type": "node", "id": 7244480650, "lat": 17.394532, "lon": 78.4352772, "tags": {"amenity": "hospital", "healthcare": "hospital", "name": "Dr. Moinuddin clinic"}}, {"type": "node", "id": 7244480682, "lat": 17.3946369, "lon": 78.4384775, "tags": {"amenity": "hospital", "healthcare": "hospital", "name": "Vijaya Diagnostic Centre"}}, {"type": "node", "id": 7357915007, "lat": 17.397386, "lon": 78.4294337, "tags": {"amenity": "hospital", "healthcare": "hospital", "name": "Govt Hospital"}}, {"type": "node", "id": 7966132148, "lat": 17.4172168, "lon": 78.4315064}, {"type": "node", "id": 7966159196, "lat": 17.4176665, "lon": 78.4302941}, {"type": "node", "id": 7966159197, "lat": 17.4176281, "lon": 78.4304295}, {"type": "node", "id": 7966160231, "lat": 17.4175066, "lon": 78.4295551}, {"type": "node", "id": 7966160232, "lat": 17.4175603, "lon": 78.4292883}, {"type": "node", "id": 7966160233, "lat": 17.4176748, "lon": 78.4293094, "tags": {"access": "private", "barrier": "gate"}}, {"type": "node", "id": 8013052988, "lat": 17.4423249, "lon": 78.3665192}, {"type": "node", "id": 8013052989, "lat": 17.442449, "lon": 78.3663992}, {"type": "node", "id": 8013052990, "lat": 17.4425453, "lon": 78.3663408}, {"type": "node", "id": 8013052991, "lat": 17.4426444, "lon": 78.3660974}, {"type": "node", "id": 8013052992, "lat": 17.4427228, "lon": 78.3659137}, {"type": "node", "id": 8013052993, "lat": 17.4428834, "lon": 78.3655456}, {"type": "node", "id": 8013052994, "lat": 17.4430817, "lon": 78.3652975}, {"type": "node", "id": 8013052995, "lat": 17.4423601, "lon": 78.3664213}, {"type": "node", "id": 8013052996, "lat": 17.4423857, "lon": 78.3665554}, {"type": "node", "id": 8013052997, "lat": 17.4430535, "lon": 78.3667338}, {"type": "node", "id": 8013052998, "lat": 17.4430446, "lon": 78.3668183}, {"type": "node", "id": 8013052999, "lat": 17.4437124, "lon": 78.3668666}, {"type": "node", "id": 8013053000, "lat": 17.4437758, "lon": 78.3672729}, {"type": "node", "id": 8013053001, "lat": 17.4438186, "lon": 78.3674151}, {"type": "node", "id": 8013053002, "lat": 17.4440918, "lon": 78.3670744}, {"type": "node", "id": 8013053003, "lat": 17.4440214, "lon": 78.3669195}, {"type": "node", "id": 8013053004, "lat": 17.4440016, "lon": 78.3668961}, {"type": "node", "id": 8013053005, "lat": 17.4439798, "lon": 78.3668867}, {"type": "node", "id": 8013053006, "lat": 17.4439517, "lon": 78.3668907}, {"type": "node", "id": 8013053007, "lat": 17.4439191, "lon": 78.3668961}, {"type": "node", "id": 8013053008, "lat": 17.4438756, "lon": 78.3668947}, {"type": "node", "id": 8013053009, "lat": 17.4438583, "lon": 78.3668813}, {"type": "node", "id": 8013053010, "lat": 17.4437137, "lon": 78.3658011}, {"type": "node", "id": 8013053011, "lat": 17.4436043, "lon": 78.3651473}, {"type": "node", "id": 8013053012, "lat": 17.4434911, "lon": 78.3651553}, {"type": "node", "id": 8013053013, "lat": 17.4434322, "lon": 78.3649756}, {"type": "node", "id": 8013053014, "lat": 17.443344, "lon": 78.3649857}, {"type": "node", "id": 8013053015, "lat": 17.4432762, "lon": 78.3650775}, {"type": "node", "id": 8013184453, "lat": 17.4478347, "lon": 78.4368011}, {"type": "node", "id": 8013184454, "lat": 17.4484898, "lon": 78.4350121}, {"type": "node", "id": 8013184455, "lat": 17.4481162, "lon": 78.4367958}, {"type": "node", "id": 8013184456, "lat": 17.4473089, "lon": 78.4372075}, {"type": "node", "id": 8013184457, "lat": 17.4466679, "lon": 78.437925}, {"type": "node", "id": 8013184458, "lat": 17.4468598, "lon": 78.4383514}, {"type": "node", "id": 8013184459, "lat": 17.4456495, "lon": 78.4390783}, {"type": "node", "id": 8013184460, "lat": 17.4453987, "lon": 78.4391025}, {"type": "node", "id": 8013184461, "lat": 17.445171, "lon": 78.4385365}, {"type": "node", "id": 8013184462, "lat": 17.4442805, "lon": 78.4385151}, {"type": "node", "id": 8013184463, "lat": 17.4443266, "lon": 78.4382629}, {"type": "node", "id": 8013184464, "lat": 17.4442063, "lon": 78.4382173}, {"type": "node", "id": 8013184465, "lat": 17.4445057, "lon": 78.4371176}, {"type": "node", "id": 8013184466, "lat": 17.4445082, "lon": 78.4366026}, {"type": "node", "id": 8013184467, "lat": 17.4435947, "lon": 78.4362942}, {"type": "node", "id": 8013184468, "lat": 17.4438557, "lon": 78.4353206}, {"type": "node", "id": 8013184469, "lat": 17.444205, "lon": 78.4338628}, {"type": "node", "id": 8013184470, "lat": 17.4444814, "lon": 78.4327295}, {"type": "node", "id": 8013184471, "lat": 17.4445863, "lon": 78.432637}, {"type": "node", "id": 8013184472, "lat": 17.4467587, "lon": 78.4328127}, {"type": "node", "id": 8013184473, "lat": 17.448129, "lon": 78.4329548}, {"type": "node", "id": 8013184474, "lat": 17.4488838, "lon": 78.4330729}, {"type": "node", "id": 8018447766, "lat": 17.4136331, "lon": 78.4158316}, {"type": "node", "id": 8018447767, "lat": 17.4136984, "lon": 78.4159175}, {"type": "node", "id": 8018447768, "lat": 17.4161207, "lon": 78.4158209}, {"type": "node", "id": 8018447769, "lat": 17.4160772, "lon": 78.4156144}, {"type": "node", "id": 8018447775, "lat": 17.4158187, "lon": 78.4122147}, {"type": "node", "id": 8018447776, "lat": 17.4162538, "lon": 78.4119987}, {"type": "node", "id": 8018447777, "lat": 17.416671, "lon": 78.4118673}, {"type": "node", "id": 8018447778, "lat": 17.4155871, "lon": 78.4126653}, {"type": "node", "id": 8018447779, "lat": 17.4155974, "lon": 78.4128571, "tags": {"access": "private"}}, {"type": "node", "id": 8018447780, "lat": 17.4157676, "lon": 78.4128879}, {"type": "node", "id": 8018447781, "lat": 17.4159058, "lon": 78.412955}, {"type": "node", "id": 8018447782, "lat": 17.4159736, "lon": 78.4130341}, {"type": "node", "id": 8018447783, "lat": 17.4162058, "lon": 78.4132386}, {"type": "node", "id": 8018447784, "lat": 17.4164336, "lon": 78.4134284}, {"type": "node", "id": 8018472585, "lat": 17.4165078, "lon": 78.4135786}, {"type": "node", "id": 8018472586, "lat": 17.4165097, "lon": 78.4137496}, {"type": "node", "id": 8018472587, "lat": 17.4164957, "lon": 78.4140553}, {"type": "node", "id": 8018472588, "lat": 17.4164074, "lon": 78.414349}, {"type": "node", "id": 8018472589, "lat": 17.41625, "lon": 78.4146213}, {"type": "node", "id": 8018472590, "lat": 17.4160779, "lon": 78.4150136}, {"type": "node", "id": 8018472591, "lat": 17.4160465, "lon": 78.4160891}, {"type": "node", "id": 8018472592, "lat": 17.4155065, "lon": 78.416014}, {"type": "node", "id": 8018472593, "lat": 17.41544, "lon": 78.4156412}, {"type": "node", "id": 8018472594, "lat": 17.4150893, "lon": 78.4150189}, {"type": "node", "id": 8018472595, "lat": 17.4142678, "lon": 78.4156787}, {"type": "node", "id": 8018472596, "lat": 17.4137176, "lon": 78.4145817}, {"type": "node", "id": 8018472597, "lat": 17.4136638, "lon": 78.4153984}, {"type": "node", "id": 8018472598, "lat": 17.4138686, "lon": 78.4137475}, {"type": "node", "id": 8018472599, "lat": 17.4135922, "lon": 78.4128544}, {"type": "node", "id": 8018472600, "lat": 17.4134796, "lon": 78.4124038}, {"type": "node", "id": 8018472601, "lat": 17.413367, "lon": 78.4122321}, {"type": "node", "id": 8018472602, "lat": 17.4138942, "lon": 78.4157941}, {"type": "node", "id": 8018472603, "lat": 17.4137867, "lon": 78.4134203}, {"type": "node", "id": 8018472604, "lat": 17.4133081, "lon": 78.4117681}, {"type": "node", "id": 8018472605, "lat": 17.4144726, "lon": 78.411524}, {"type": "node", "id": 8018472606, "lat": 17.4143574, "lon": 78.4116608}, {"type": "node", "id": 8018472607, "lat": 17.4140938, "lon": 78.4117895}, {"type": "node", "id": 8018472608, "lat": 17.4141731, "lon": 78.4117708}, {"type": "node", "id": 8018472609, "lat": 17.4147822, "lon": 78.4112129}, {"type": "node", "id": 8018472610, "lat": 17.4145826, "lon": 78.4113657}, {"type": "node", "id": 8018472619, "lat": 17.4159441, "lon": 78.4113738}, {"type": "node", "id": 8018472620, "lat": 17.4157266, "lon": 78.4112155}, {"type": "node", "id": 8018472623, "lat": 17.4153383, "lon": 78.4112191}, {"type": "node", "id": 8020057909, "lat": 17.4153933, "lon": 78.4159939}, {"type": "node", "id": 8020647753, "lat": 17.4248765, "lon": 78.4321541}, {"type": "node", "id": 8020647754, "lat": 17.4260648, "lon": 78.4320209}, {"type": "node", "id": 8020647755, "lat": 17.4248417, "lon": 78.4318347}, {"type": "node", "id": 8739430485, "lat": 17.3988443, "lon": 78.3652937, "tags": {"addr:city": "Hyderabad", "addr:housenumber": "Hallmark Empyrean Commercial Complex", "addr:postcode": "500089", "addr:street": "Puppalaguda - Narsingi Road", "amenity": "hospital", "description": "Gynecologist, Fertility specialist, Laparoscopy surgeon, Cosmetic Gynecologist", "healthcare": "hospital", "healthcare:speciality": "gynaecology;maternity;cosmetic;fertility;surgery", "name": "AMVI Hospital", "phone": "+91 9100009669", "website": "https://www.amvihospitals.com/"}}, {"type": "node", "id": 8739449727, "lat": 17.3987165, "lon": 78.3653, "tags": {"addr:city": "Hyderabad", "addr:housenumber": "AMVI Hospital", "addr:postcode": "500089", "addr:street": "Puppalaguda - Narsingi Road", "amenity": "hospital", "description": "Gynecologist, Fertility Specialist, Laparoscopy surgeon, Cosmetic Gynecologist", "email": "amvihospitals@gmail.com", "healthcare": "hospital", "healthcare:speciality": "gynaecology;fertility;surgery;cosmetic", "name": "Dr Shaivalini - Gynecologist", "operator": "Dr Shaivalini", "operator:type": "private", "phone": "9100009669", "website": "https://www.amvihospitals.com/", "wheelchair": "yes"}}, {"type": "node", "id": 8747950688, "lat": 17.4446234, "lon": 78.384659, "tags": {"addr:district": "Rangareddy", "addr:full": "Vittal Rao Nagar, HITEC City, Madhapur", "addr:postcode": "500081", "addr:state": "Telangana", "amenity": "hospital", "healthcare": "hospital", "name": "Hegde Hospital", "source": "Local Knowledge"}}, {"type": "node", "id": 8748429666, "lat": 17.4554623, "lon": 78.3720097, "tags": {"addr:district": "Rangareddy", "addr:full": "Survey No.9, White Field Road, HITEC City", "addr:postcode": "500081", "addr:state": "Telangana", "amenity": "hospital", "healthcare": "hospital", "name": "Rainbow Children Hospital", "source": "Local Knowledge"}}, {"type": "node", "id": 8751713608, "lat": 17.4121129, "lon": 78.4229918, "tags": {"addr:district": "Rangareddy", "addr:full": "8-2-293/82/L, 350-A, Road Number 12, Banjara Hills", "addr:postcode": "500034", "addr:state": "Telangana", "amenity": "hospital", "name": "Uchvaas Hospital", "source": "Local Knowledge"}}, {"type": "node", "id": 8751771666, "lat": 17.4644176, "lon": 78.3682452, "tags": {"addr:district": "Rangareddy", "addr:full": "Door no 1-111/4/46 & 48/E beside NISUM, Khanamet Road, Kondapur, HITEC City", "addr:postcode": "500084", "addr:state": "Telangana", "amenity": "hospital", "healthcare": "hospital", "name": "Health Valley Hospital", "source": "Local Knowledge"}}, {"type": "node", "id": 8759239032, "lat": 17.4109164, "lon": 78.432519, "tags": {"addr:district": "Hyderabad", "addr:full": "H. No 8-2-686/7/10 ,Banjara Hills", "addr:postcode": "500034", "addr:state": "Telangana", "amenity": "hospital", "name": "Brinnova rehabilation centre", "source": "Local Knowledge"}}, {"type": "node", "id": 8759319675, "lat": 17.4263881, "lon": 78.4204343, "tags": {"addr:district": "Hyderabad", "addr:full": "No. 8-2-269/3/1/4, Road No. 2, near NATCO Pharma, Park View Enclave, Banjara Hills, Hyderabad", "addr:postcode": "500034", "addr:state": "Telangana", "amenity": "hospital", "healthcare": "hospital", "healthcare:speciality": "fertility", "name": "Oasis Fertility Centre", "source": "Local Knowledge"}}, {"type": "node", "id": 8759381105, "lat": 17.4507108, "lon": 78.3631503, "tags": {"addr:district": "Hyderabad", "addr:full": "Plot NO.21, Level, 2, Jayabheri Enclave, Gachibowli, Hyderabad", "addr:postcode": "500032", "addr:state": "Telangana", "amenity": "hospital", "healthcare": "hospital", "name": "Praba's VCare Health Clinic (P) Ltd, Gachibowli", "source": "Local Knowledge"}}, {"type": "node", "id": 8759630720, "lat": 17.4535446, "lon": 78.4206489, "tags": {"addr:district": "Hyderabad", "addr:full": "Door no 8-3-167/K/28, Moti Nagar", "addr:postcode": "500018", "addr:state": "Telangana", "amenity": "hospital", "name": "Dr Naveen Reddy Hospital", "source": "Local Knowledge"}}, {"type": "node", "id": 8760246825, "lat": 17.4272659, "lon": 78.4143269, "tags": {"addr:district": "Hyderabad", "addr:full": "Rd Number 45, Jubilee Hills, Hyderabad", "addr:postcode": "500033", "addr:state": "Telangana", "amenity": "hospital", "healthcare": "hospital", "name": "MAA E.N.T. Hospitals", "source": "Local Knowledge"}}, {"type": "node", "id": 8891813172, "lat": 17.4274056, "lon": 78.4321671, "tags": {"amenity": "hospital", "healthcare": "hospital", "name": "Ferticare IVF Asist"}}, {"type": "node", "id": 8909248529, "lat": 17.4452155, "lon": 78.4324096, "tags": {"amenity": "hospital", "healthcare": "hospital", "name": "DTC TB Unit Erragadda"}}, {"type": "node", "id": 8909248538, "lat": 17.4472339, "lon": 78.4326449, "tags": {"amenity": "hospital", "healthcare": "hospital", "name": "Dr.Vivek's Multispeciality Dental care"}}, {"type": "node", "id": 10139228459, "lat": 17.3932979, "lon": 78.4261156, "tags": {"addr:city": "Hyderabad", "addr:housenumber": "House No 9-4-84/16", "addr:postcode": "500028", "addr:street": "1st Floor, Janaa Heights Nanal Nagar Cross Roads , Toli Chowki, Mehdipatnam,", "amenity": "hospital", "email": "vinayakanethralayaeyehospital@gmail.com", "healthcare": "hospital", "healthcare:speciality": "ophthalmology", "name": "Vinayaka Nethralaya Eye Hospital", "phone": "+919677920539", "website": "https://vinayakanethralayaeyehospital.com/"}}, {"type": "node", "id": 10150942414, "lat": 17.4605484, "lon": 78.3547514, "tags": {"amenity": "hospital", "healthcare": "hospital"}}, {"type": "node", "id": 10262032093, "lat": 17.4545551, "lon": 78.421903}, {"type": "node", "id": 10262032094, "lat": 17.4545733, "lon": 78.4220719}, {"type": "node", "id": 10262032095, "lat": 17.4543666, "lon": 78.4221133}, {"type": "node", "id": 10262032096, "lat": 17.4543651, "lon": 78.4219428}, {"type": "node", "id": 10262032097, "lat": 17.4545577, "lon": 78.4219275}, {"type": "node", "id": 10790318146, "lat": 17.4310175, "lon": 78.3716983, "tags": {"amenity": "hospital", "brand": "Dr Agarwals", "healthcare": "hospital", "name": "Dr Agarwals Eye Hospital", "operator": "Dr. Agarwal's Eye Hospital", "operator:type": "private", "operator:wikidata": "Q17052044"}}, {"type": "node", "id": 11005951281, "lat": 17.4448127, "lon": 78.4219109, "tags": {"addr:district": "Hyderabad", "addr:place": "Taj Enclave", "addr:state": "Telangana", "addr:street": "6-1-968", "addr:subdistrict": "Khairatabad", "amenity": "hospital", "healthcare": "hospital", "name": "CHC KHAIRATABAD", "operational_status": "operational", "operator:type": "government", "source": "OpenDataTelangana"}}, {"type": "node", "id": 11005968513, "lat": 17.4485486, "lon": 78.4248854, "tags": {"addr:district": "Hyderabad", "addr:place": "Opp. Old Police Station", "addr:state": "Telangana", "addr:street": "BALKAMPET ROAD", "addr:subdistrict": "Ameerpet", "amenity": "hospital", "healthcare": "hospital", "name": "Community Health Centre, AMEERPET", "operational_status": "operational", "operator:type": "government"}}, {"type": "node", "id": 11027534552, "lat": 17.4317717, "lon": 78.4455728, "tags": {"amenity": "hospital", "healthcare": "hospital", "name": "Shishira hospitals"}}, {"type": "node", "id": 11082456129, "lat": 17.4566753, "lon": 78.4115501, "tags": {"amenity": "hospital", "healthcare": "hospital", "name": "Maholla Clinic"}}, {"type": "node", "id": 11082456132, "lat": 17.4564341, "lon": 78.4103806, "tags": {"amenity": "hospital", "healthcare": "hospital", "healthcare:speciality": "general;diabetology", "name": "Mohammadi Clinic"}}, {"type": "node", "id": 11770988839, "lat": 17.4364246, "lon": 78.3675806, "tags": {"amenity": "hospital", "check_date": "2024-03-29", "healthcare": "hospital", "name": "Omega Hospitals"}}, {"type": "node", "id": 11770993380, "lat": 17.4622687, "lon": 78.384176, "tags": {"amenity": "hospital", "check_date": "2024-03-29", "healthcare": "hospital", "name": "Yashoda Hospitals"}}, {"type": "node", "id": 11821271825, "lat": 17.4538625, "lon": 78.421752, "tags": {"addr:city": "HYDERABAD", "addr:district": "Hyderabad", "addr:housenumber": "K/21, 8-3-167, Kalyan Nagar Phase 3 Rd, phase-3, Pramila Enclave", "addr:postcode": "500018", "addr:street": "Kalyan Nagar", "amenity": "hospital", "emergency": "yes", "healthcare": "hospital", "healthcare:speciality": "general;orthopaedics;urology;paediatrics;radiology;emergency;cardiology;blood_check", "name": "Sunridge Multi-Speciality Hospital", "operator": "http://sunridgehospital.com/", "operator:type": "private"}}, {"type": "node", "id": 11934311883, "lat": 17.4487092, "lon": 78.4338427, "tags": {"addr:district": "Hyderabad", "addr:place": "Ag Colony Rd, Vikaspuri, Erragadda,Hyderabad", "addr:state": "Telangana", "addr:street": "AG COLONY ROAD", "addr:subdistrict": "Ameerpet", "amenity": "hospital", "healthcare": "hospital", "name": "Government Ayurvedic Hospital, Erragadda, Hyderabad", "operational_status": "operational", "operator:type": "government", "source": "OpenDataTelangana"}}, {"type": "node", "id": 11936638169, "lat": 17.3975018, "lon": 78.4293977, "tags": {"addr:district": "Hyderabad", "addr:place": "Fort Road Golconda", "addr:state": "Telangana", "addr:street": "Golconda", "addr:subdistrict": "Golconda", "amenity": "hospital", "healthcare": "hospital", "name": "Area Hospital, Golconda", "operational_status": "operational", "operator:type": "government", "source": "OpenDataTelangana"}}, {"type": "node", "id": 11936671649, "lat": 17.4454284, "lon": 78.434959, "tags": {"addr:district": "Hyderabad", "addr:place": "Erragadda, Hyderabad", "addr:state": "Telangana", "addr:street": "Erragadda", "addr:subdistrict": "Khairatabad", "amenity": "hospital", "healthcare": "hospital", "name": "Government Chest Hospital", "operational_status": "operational", "operator:type": "government", "source": "OpenDataTelangana"}}, {"type": "node", "id": 11940092750, "lat": 17.4506724, "lon": 78.4361121, "tags": {"addr:district": "Hyderabad", "addr:place": "Main Road, Erragadda, Hyderabad", "addr:state": "Telangana", "addr:street": "Main Road, Erragadda,", "addr:subdistrict": "Khairatabad", "amenity": "hospital", "healthcare": "hospital", "name": "Institute of Mental Health", "operational_status": "operational", "operator:type": "government", "source": "OpenDataTelangana"}}, {"type": "node", "id": 12951255501, "lat": 17.4635854, "lon": 78.3530355}, {"type": "node", "id": 13020731415, "lat": 17.4731157, "lon": 78.3872398, "tags": {"addr:city": "Hyderabad", "addr:district": "Hyderabad", "addr:housenumber": "4th Floor", "addr:postcode": "500072", "addr:street": "MMTS Station Rd, beside Jehovah House of Worship, near Hitech City, K P H B Phase 7, Kukatpally, Hyderabad,", "amenity": "hospital", "healthcare": "hospital", "healthcare:speciality": "skin_care;hair_care;aesthetic_clinic;dermatologist_clinic", "name": "Reborn Skin and Hair Clinic", "operator": "https://rebornclinics.in/", "operator:type": "private"}}, {"type": "node", "id": 13169104952, "lat": 17.473193, "lon": 78.3871998, "tags": {"addr:city": "Hyderabad", "addr:district": "Hyderabad", "addr:housenumber": "Plot No 59", "addr:postcode": "500085", "addr:street": "Hitech - Kukatpally Main Road", "amenity": "hospital", "contact:facebook": "https://www.facebook.com/saiayushayurveda", "email": "info@saiayushayurveda.com", "healthcare": "hospital", "healthcare:speciality": "ayurveda;naturopathy;physiotherapy", "internet_access:ssid": "saiayush", "mobile": "+918142328080", "name": "Sai Ayush Ayurveda Hospital - wellness Hyderabad", "opening_hours": "Mo-Su 07:00-22:00", "payment:app": "yes", "payment:cards": "yes", "payment:cash": "yes", "payment:contactless": "yes", "payment:credit_cards": "yes", "payment:debit_cards": "yes", "payment:mastercard": "yes", "payment:visa": "yes", "start_date": "2025-02-02", "website": "https://saiayushayurveda.com/", "wheelchair": "yes"}}, {"type": "node", "id": 13285248846, "lat": 17.4482414, "lon": 78.3605759, "tags": {"amenity": "hospital", "check_date": "2025-11-06", "healthcare": "hospital", "name": "Pi Health Hospital"}}, {"type": "node", "id": 13334012866, "lat": 17.4090636, "lon": 78.3999909, "tags": {"addr:city": "Hyderabad", "addr:district": "Hyderabad", "addr:housenumber": "A/1, Survey No:335, Toli Chowki 8-1, 296,", "addr:postcode": "500008", "addr:street": "Old Bombay Highway", "amenity": "hospital", "contact:facebook": "https://www.facebook.com/profile.php?id=61573383270142", "healthcare": "hospital", "healthcare:speciality": "dentist;dermatology;physiotherapy;paediatrics;gynaecology", "mobile": "+919100162144", "name": "Oneders Clinics", "operator": "Healedge", "operator:type": "private", "website": "https://www.onedersclinics.com/"}}, {"type": "node", "id": 13423743515, "lat": 17.4276743, "lon": 78.3749073, "tags": {"amenity": "hospital", "emergency": "yes", "healthcare": "hospital", "name": "Arete Hospitals"}}, {"type": "way", "id": 31549640, "nodes": [353039223, 353039228, 353039232, 353039234, 353039223], "tags": {"addr:district": "Hyderabad", "addr:full": "8-3-215, Srinivasa Nagar Colony(West), Opp. ICICI Bank, S R Nagar", "addr:postcode": "500038", "addr:state": "Telangana", "amenity": "hospital", "emergency": "yes", "healthcare": "hospital", "name": "Axon Hospital", "operator": "Axon", "source": "OpenGovernmentData", "wheelchair": "yes"}}, {"type": "way", "id": 182703660, "nodes": [1930607012, 1930607014, 1930607015, 1930607016, 1930607012], "tags": {"addr:district": "Hyderabad", "addr:full": "12-2-718/3,4,5, Nanalnagar 'X' Road, Mehdipatnam", "addr:state": "Telangana", "amenity": "hospital", "check_date": "2025-03-25", "emergency": "yes", "health_facility:type": "Onsite Pharmacy;Dietitian Designed Catering;Modern Delivery Room and Birthing Suites;Physiotherapy;Blood Transfusion Services;Patient Escort Services", "healthcare:speciality": "multi specialty", "medical_system": "Allopathic", "name": "Olive Hospital", "operator:type": "private", "phone": "040 30499500", "source": "OpenGovernmentData", "website": "http://www.olivehospital.com"}}, {"type": "way", "id": 200173462, "nodes": [2101693336, 12951255501, 2101693337, 2101693335, 2101693334, 2101693336], "tags": {"addr:district": "Hyderabad", "addr:full": "1-55/3, Near Chirec International School, Kondapur", "addr:postcode": "500084", "addr:state": "Telangana", "addr:street": "Sri Ram Nagar", "addr:subdistrict": "Serilingampally", "amenity": "hospital", "emergency": "yes", "healthcare": "hospital", "landuse": "hospital Grounds", "name": "Government Area Hospital, Kondapur", "source": "OpenGovernmentData"}}, {"type": "way", "id": 356159628, "nodes": [3616700284, 3616700287, 3616700286, 3616700283, 3616700284], "tags": {"addr:district": "Hyderabad", "addr:full": "Plot No:23, Huda Techno Enclave, Patrika Nagar, Beside Avasa Hotel, Pillar No. 18, MADHAPUR", "addr:postcode": "500081", "addr:state": "Telangana", "amenity": "hospital", "building": "yes", "building:levels": "5", "contact:phone": "040 48486868", "healthcare": "hospital", "name": "Pace Hospitals", "operator:type": "private", "source": "OpenGovernmentData"}}, {"type": "way", "id": 356234454, "nodes": [3617125872, 3617125855, 3617125834, 3617125854, 3617125872], "tags": {"amenity": "hospital", "healthcare": "hospital", "name": "DR SHARATH CHANDRA"}}, {"type": "way", "id": 356234494, "nodes": [3617123384, 3617123350, 3617123325, 3617123367, 3617123384], "tags": {"amenity": "hospital", "building": "yes", "healthcare": "hospital", "name": "Appolo Cradle Hospital"}}, {"type": "way", "id": 356261664, "nodes": [3617313422, 3617313413, 3617313401, 3617313409, 3617313422], "tags": {"addr:city": "Hyderabad", "addr:housenumber": "49", "addr:postcode": "500045", "addr:street": "Road no 2, Jubilee Hills", "amenity": "hospital", "healthcare": "hospital", "name": "Lakshmi Narayana Speciality Clinics", "website": "https://www.facebook.com/lnsclinics"}}, {"type": "way", "id": 356271386, "nodes": [6496870134, 6496870135, 3617362236, 3617362252, 6496870134], "tags": {"addr:district": "Hyderabad", "addr:full": "Plot No: 8-2-293/82/L/276A, MLA Colony Main Raod, Road No 12, Banjara Hills", "addr:postcode": "500034", "addr:state": "Telangana", "amenity": "hospital", "building": "yes", "contact:mobile": "+91 9160900045; 040-23551034", "email": "info@omegahospitals.com", "fax": "040 23550327", "healthcare:speciality": "Cancer Subspecialities;General Health Institute;Womens Wellcare Institute;ENT Institute;Orthopaedic Outreach Institute;Omega Cosmetic Surgery Center", "medical_system": "Allopathic", "name": "Omega Hospital", "operator:type": "private", "source": "OpenGovernmentData", "website": "https://www.omegahospitals.com/"}}, {"type": "way", "id": 356464777, "nodes": [3619076761, 3619076751, 3619076683, 3619076696, 3619076761], "tags": {"addr:district": "Hyderabad", "addr:full": "Lane Number 23, Behind Axis Bank, Sanjeev Reddy Nagar", "addr:state": "Telangana", "amenity": "hospital", "emergency": "yes", "fax": "040 40101361", "health_facility:type": "Neonatal Intensive Care Unit, Pediatric Intensive Care, Pediatric Surgery, Pediatric Specialities", "healthcare": "hospital", "healthcare:speciality": "Pediatrics", "medical_system": "Allopathic", "name": "Sowmya Children's Hospital", "operator:type": "private", "phone": "040 44253545", "source": "OpenGovernmentData", "website": "http://www.sowmyachildrenshospital.com"}}, {"type": "way", "id": 417241491, "nodes": [4178240772, 4178240775, 4178240767, 4178240768, 4178240756, 4178240757, 4178240760, 4178240763, 4178240782, 4178240783, 4178240779, 4178240781, 4178240766, 4178240769, 4178240762, 4178240759, 4178240746, 4178240745, 4178240738, 4178240736, 4178240740, 4178240739, 4178240743, 4178240744, 6538865408, 4178240747, 4178240753, 4178240752, 4178240755, 4178240754, 4178240750, 4178240749, 4178240737, 4178240735, 4178240742, 4178240741, 4178240764, 4178240765, 4178240772], "tags": {"addr:district": "Hyderabad", "addr:full": "Opposite ESI Hospital", "addr:postcode": "500038", "addr:state": "Telangana", "addr:street": "Erragadda", "addr:subdistrict": "Khairatabad", "amenity": "hospital", "building": "yes", "contact:phone": "040 23814421; 040 23814422", "name": "Government General and Chest Hospital", "source": "OpenGovernmentData"}}, {"type": "way", "id": 563524286, "nodes": [5430551029, 5430551035, 5430551028, 7966132148, 3617211331, 3617211332, 3617211327, 5430551034, 5430551027, 7966159197, 7966159196, 5430551031, 5430551033, 7966160233, 7966160232, 7966160231, 5430551026, 5430551030, 5430551029], "tags": {"addr:district": "Hyderabad", "addr:full": "Road No 10, Banjara Hills", "addr:postcode": "500034", "addr:state": "Telangana", "amenity": "hospital", "email": "info@induscancer.com", "fax": "040-2354 2120", "healthcare": "hospital", "healthcare:speciality": "Anesthesiology;Critical Care;ENT;Gastroenterology;General Medicine;Gynaecology;Medical Oncology;Micro Biology;Nuclear Medicine;Oncology;Pathology;Radiation Oncology;Surgical Oncology;", "landuse": "Hospital Grounds", "medical_system": "Allopathic", "name": "Basavatarakam Indo American Cancer Institute And Research Centre", "operator:type": "private", "parking": "yes", "phone": "040-23551235;040-23556655", "source": "OpenGovernmentData", "website": "https://induscancer.com", "wheelchair": "yes"}}, {"type": "way", "id": 630869585, "nodes": [5956425355, 5956425356, 5956425357, 4452950392, 5956425355], "tags": {"addr:street": "Hi Tech City Main Road", "amenity": "hospital", "check_date": "2024-03-29", "healthcare": "hospital", "internet_access": "wlan", "name": "Care Hospitals", "name:en": "Care Hospitals", "opening_hours": "24/7", "phone": "040-33623500", "website": "https://www.carehospitals.com/hitechcity/"}}, {"type": "way", "id": 630961248, "nodes": [5957428793, 5957428794, 5957428795, 5957428796, 5957428797, 5957428798, 5957428799, 5957428800, 352754325, 5957428802, 5957428793], "tags": {"amenity": "hospital", "healthcare": "hospital", "name": "ESI Hospital"}}, {"type": "way", "id": 642171981, "nodes": [6046241877, 6046241878, 6046241879, 6046241880, 6046241877], "tags": {"amenity": "hospital", "building": "yes", "healthcare": "hospital"}}, {"type": "way", "id": 660771331, "nodes": [6186448328, 6186448329, 6186448330, 6186448331, 6186448328], "tags": {"addr:district": "Hyderabad", "addr:full": "Kallam Anji Reddy Campus, L V Prasad Marg, Opp. PVR Cinemas, Banjara Hills", "addr:postcode": "500034", "addr:state": "Telangana", "amenity": "hospital", "email": "communications@lvpei.org", "emergency_telephone_code": "040 30612100;09347573377", "healthcare": "hospital", "healthcare:speciality": "ophthalmology", "medical_system": "Allopathic", "name": "L V Prasad Eye Institute", "name:etymology:wikidata": "Q6456668", "operator:type": "private", "phone": "040 30612345;040 39892020", "source": "OpenGovernmentData", "website": "https://www.lvpei.org/", "wikidata": "Q6456669", "wikimedia_commons": "Category:L. V. Prasad Eye Institute", "wikipedia": "en:L. V. Prasad Eye Institute"}}, {"type": "way", "id": 689847043, "nodes": [6471857483, 6471857482, 6471857481, 6471857480, 6471857483], "tags": {"addr:district": "Hyderabad", "addr:full": "Plot Number 298, Road Number 14, Resham Bagh, Banjara Hills", "addr:state": "Telangana", "amenity": "hospital", "building": "yes", "health_facility:type": "In Patient Admission Facility;Alcohol and Drug Detoxification;Electro Convulsive Therapy ECT ;Repetitive Transcranial Magnetic Stimulation;Repetitive Transcranial Magnetic Stimulation;Psychotherapy;Child and Adolescent Behavioral Issues;Pharmacy Services", "healthcare": "hospital", "healthcare:speciality": "Asha Alcohol and Drug De Addiction Centre;Asha Schizophrenia Clinic;Asha Jyoti Rehabilitation Centre AJRC", "medical_system": "Allopathic", "name": "Asha Hospital", "operator:type": "private", "phone": "040 66752222;040 23546728", "source": "OpenGovernmentData", "website": "https://www.ashahospital.org/", "wikidata": "Q52856510"}}, {"type": "way", "id": 859663303, "nodes": [8013052999, 8013052998, 8013052997, 8013052996, 8013052988, 8013052995, 8013052989, 8013052990, 8013052991, 8013052992, 8013052993, 8013052994, 8013053015, 8013053014, 8013053013, 8013053012, 8013053011, 8013053010, 6549425557, 8013053009], "tags": {"barrier": "wall", "source": "OpenGovernmentData"}}, {"type": "way", "id": 859679417, "nodes": [8013184474, 8013184473, 8013184472, 8013184471, 8013184470, 8013184469, 8013184468, 8013184467, 8013184466, 8013184465, 8013184464, 8013184463, 8013184462, 8013184461, 8013184460, 8013184459, 8013184458, 8013184457, 8013184456, 8013184453, 8013184455, 8013184454, 8013184474], "tags": {"amenity": "hospital", "operator": "Telangana Goverment"}}, {"type": "way", "id": 860344899, "nodes": [2570465566, 2570465562, 8018447775, 8018447776, 8018447777, 8018472619, 8018472620, 8018472623, 8018472609, 8018472610, 8018472605, 8018472606, 8018472608, 8018472607, 8018472604, 8018472601, 8018472600, 8018472599, 8018472603, 8018472598, 8018472596, 8018472597, 8018447766, 8018447767, 8018472602, 8018472595, 8018472594, 8018472593, 8020057909, 8018472592, 8018472591, 8018447768, 8018447769, 5513214876, 5513214877, 8018472590, 8018472589, 8018472588, 8018472587, 8018472586, 8018472585, 8018447784, 8018447783, 8018447782, 8018447781, 8018447780, 8018447779, 8018447778, 2570465566], "tags": {"addr:district": "Hyderabad", "addr:full": "Apollo Hospitals, Jubilee Hills", "addr:postcode": "500033", "addr:state": "Telangana", "amenity": "hospital", "barrier": "wall", "contact:email": "apollohealthcityhyd@apollohospitals.com", "contact:tollfree": "18605001066", "email": "apollohealthcity@apollohospitals.com", "emergency": "yes", "fax": "040 23608050", "health_facility:type": "Inpatient;Accommodation;Food and Beverage Services;International Patient Services;24 hours pharmacy services;Blood Bank;Ambulance Service;Cafeteria", "healthcare": "hospital", "healthcare:speciality": "multi speciality", "landuse": "hospital", "medical_system": "Allopathic", "name": "Apollo Hospitals", "operator": "Apollo Hospitals", "operator:type": "private", "operator:wikidata": "Q4780321", "phone": "040 23607777;040 23605555;040 23602000", "source": "OpenGovernmentData", "website": "https://www.apollohospitals.com", "wheelchair": "yes"}}, {"type": "way", "id": 860550549, "nodes": [8020647755, 5482634949, 8020647754, 8020647753, 8020647755], "tags": {"addr:district": "Hyderabad", "addr:full": "Road No. 2, Banjara Hills, Near LV Prasad Eye Hospital, Next to Hotel Park Hyatt", "addr:postcode": "500034", "addr:state": "Telangana", "amenity": "hospital", "contact:email": "info@rainbowhospitals.in", "emergency_telephone_code": "040 22334455;040 23319191", "healthcare": "hospital", "healthcare:speciality": "General Pediatrics;Neonatology;Pediatric Neurology;Pediatric Intensive Care Unit;Anasthesia and Pain Management;Pediatric Gastroenterology;Pediatric Nephrology;Hematology and Oncology;ENT;Psychiatry;Pediatric Cardiology;Speech and Language Therapy", "medical_system": "Allopathic", "name": "Rainbow Children\u2019s Hospital", "name:te": "\u0c30\u0c46\u0c2f\u0c3f\u0c28\u0c4d\u0c2c\u0c4b \u0c2a\u0c3f\u0c32\u0c4d\u0c32\u0c32 \u0c39\u0c3e\u0c38\u0c4d\u0c2a\u0c3f\u0c1f\u0c32\u0c4d", "operator:type": "private", "phone": "04023319191;04044665555", "source": "OpenGovernmentData", "website": "https://www.rainbowhospitals.in/"}}, {"type": "way", "id": 872949694, "nodes": [8013053009, 8013053008, 8013053007, 8013053006, 8013053005, 8013053004, 8013053003, 8013053002, 8013053001, 8013053000, 8013052999], "tags": {"source": "OpenGovernmentData"}}, {"type": "way", "id": 1122005587, "nodes": [10262032093, 10262032097, 10262032094, 10262032095, 10262032096, 10262032093], "tags": {"addr:city": "HYDERABAD", "addr:street": "Moti nagar", "amenity": "hospital", "healthcare": "hospital", "name": "Maxwell Hospital"}}, {"type": "relation", "id": 11902466, "members": [{"type": "way", "ref": 872949694, "role": "outer"}, {"type": "way", "ref": 859663303, "role": "outer"}], "tags": {"addr:city": "Hyderabad", "addr:district": "Rangareddy", "addr:full": "Plot No 2/3/4/5, Survey No. 136/1, Mindspace Road, Gachibowli", "addr:postcode": "500032", "addr:state": "Telangana", "amenity": "hospital", "contact:email": "info@aighospitals.com", "contact:phone": "040 42444222", "description": "A UNIT OF ASIAN INSTITUTE OF GASTROENTEROLOGY PVT LTD", "healthcare": "hospital", "name": "AIG HOSPITALS", "operator:type": "private", "type": "multipolygon", "website": "https://aighospitals.com"}}]}