{"version": 0.6, "generator": "Overpass API 0.7.62.8 e802775f", "osm3s": {"timestamp_osm_base": "2026-01-12T16:29:15Z", "copyright": "The data included in this document is from www.openstreetmap.org. The data is made available under ODbL."}, "elements": [{"type": "node", "id": 412118172, "lat": 12.9784387, "lon": 77.6458029}, {"type": "node", "id": 412118174, "lat": 12.9773938, "lon": 77.645857}, {"type": "node", "id": 412118175, "lat": 12.9774333, "lon": 77.6465741}, {"type": "node", "id": 412118177, "lat": 12.9784737, "lon": 77.6465242}, {"type": "node", "id": 443612463, "lat": 13.0371728, "lon": 77.6409543, "tags": {"amenity": "hospital", "name": "Sri Vijayalakshmi Pragathi Hospital", "name:kn": "\u0cb6\u0ccd\u0cb0\u0cc0 \u0cb5\u0cbf\u0c9c\u0caf\u0cb2\u0c95\u0ccd\u0cb7\u0ccd\u0cae\u0cc0 \u0caa\u0ccd\u0cb0\u0c97\u0ca4\u0cbf \u0c86\u0cb8\u0ccd\u0caa\u0ca4\u0ccd\u0cb0\u0cc6"}}, {"type": "node", "id": 454142398, "lat": 13.0185503, "lon": 77.6364728, "tags": {"amenity": "hospital", "name": "Sathya Hospital", "name:kn": "\u0cb8\u0ca4\u0ccd\u0caf \u0c86\u0cb8\u0ccd\u0caa\u0ca4\u0ccd\u0cb0\u0cc6"}}, {"type": "node", "id": 491504267, "lat": 12.9880598, "lon": 77.5943063}, {"type": "node", "id": 573420981, "lat": 12.9925629, "lon": 77.5949902}, {"type": "node", "id": 573420982, "lat": 12.9919307, "lon": 77.5944482}, {"type": "node", "id": 573420983, "lat": 12.9904139, "lon": 77.5954506}, {"type": "node", "id": 573420984, "lat": 12.9906983, "lon": 77.5961504}, {"type": "node", "id": 578143351, "lat": 12.9838504, "lon": 77.6060501}, {"type": "node", "id": 578143354, "lat": 12.9840783, "lon": 77.6045075}, {"type": "node", "id": 578143356, "lat": 12.9839399, "lon": 77.603692}, {"type": "node", "id": 578143360, "lat": 12.9829684, "lon": 77.6033731}, {"type": "node", "id": 578143367, "lat": 12.9822078, "lon": 77.6035776}, {"type": "node", "id": 663596614, "lat": 12.9842446, "lon": 77.599777}, {"type": "node", "id": 663596615, "lat": 12.9831904, "lon": 77.6002669}, {"type": "node", "id": 1005544881, "lat": 12.9815051, "lon": 77.6011944, "tags": {"addr:city": "Bangalore", "addr:housenumber": "55", "addr:postcode": "560001", "addr:street": "Infantry Road", "amenity": "hospital", "email": "bengaluru@medinovaindia.com", "fax": "+918022867244", "name": "Mallya Audikesh Diagnostics Center", "phone": "+918022868423", "website": "http://www.medinovaindia.com"}}, {"type": "node", "id": 1067181192, "lat": 13.0038999, "lon": 77.6039313, "tags": {"addr:district": "Bengaluru Urban", "addr:full": "110,6Th Main Iti Layout Benson Town Post", "addr:postcode": "560046", "addr:state": "Karnataka", "amenity": "hospital", "name": "Devine Hospital", "name:kn": "\u0ca1\u0cbf\u0cb5\u0cc8\u0ca8\u0ccd \u0c86\u0cb8\u0ccd\u0caa\u0ca4\u0ccd\u0cb0\u0cc6", "source": "OpenGovernmentData"}}, {"type": "node", "id": 1307598703, "lat": 12.9833885, "lon": 77.5950608}, {"type": "node", "id": 1387523802, "lat": 12.9829748, "lon": 77.5949195}, {"type": "node", "id": 1387523809, "lat": 12.9832706, "lon": 77.5940109}, {"type": "node", "id": 1387523823, "lat": 12.9836942, "lon": 77.5941561}, {"type": "node", "id": 1436177631, "lat": 12.995242, "lon": 77.6523255, "tags": {"amenity": "hospital", "name": "ESI Hospital", "name:kn": "\u0c87\u0c8e\u0cb8\u0ccd\u0c90 \u0c86\u0cb8\u0ccd\u0caa\u0ca4\u0ccd\u0cb0\u0cc6"}}, {"type": "node", "id": 1469181813, "lat": 12.995625, "lon": 77.6113272, "tags": {"addr:city": "Bengaluru", "addr:country": "IN", "addr:hamlet": "Frazer Town", "addr:postcode": "560005", "addr:street": "Saunders Road", "amenity": "hospital", "name": "Seventh Day Adventist Hospital", "name:kn": "\u0cb8\u0cc6\u0cb5\u0cc6\u0c82\u0ca4\u0ccd \u0ca1\u0cc7 \u0c85\u0ca1\u0ccd\u0cb5\u0cc6\u0ca8\u0ccd\u0c9f\u0cbf\u0cb8\u0ccd\u0c9f\u0ccd \u0c86\u0cb8\u0ccd\u0caa\u0ca4\u0ccd\u0cb0\u0cc6"}}, {"type": "node", "id": 1469314053, "lat": 12.9965077, "lon": 77.6220456, "tags": {"amenity": "hospital", "name": "Srinivasa Nursing Home"}}, {"type": "node", "id": 1474875685, "lat": 13.0248621, "lon": 77.6139585, "tags": {"amenity": "hospital", "emergency": "yes", "name": "Dr. Ambedkar Medical College Hospital", "name:kn": "\u0c85\u0c82\u0cac\u0cc7\u0ca1\u0ccd\u0c95\u0cb0\u0ccd \u0cb5\u0cc8\u0ca6\u0ccd\u0caf\u0c95\u0cc0\u0caf \u0c95\u0cbe\u0cb2\u0cc7\u0c9c\u0cc1 \u0c86\u0cb8\u0ccd\u0caa\u0ca4\u0ccd\u0cb0\u0cc6"}}, {"type": "node", "id": 1485676585, "lat": 12.9822064, "lon": 77.6440655}, {"type": "node", "id": 1485676590, "lat": 12.9824052, "lon": 77.6456581}, {"type": "node", "id": 1485676597, "lat": 12.9826807, "lon": 77.6438936}, {"type": "node", "id": 1485676611, "lat": 12.9829217, "lon": 77.6419867}, {"type": "node", "id": 1485676614, "lat": 12.9833981, "lon": 77.6437362}, {"type": "node", "id": 1485676618, "lat": 12.9836412, "lon": 77.6454092}, {"type": "node", "id": 1485676630, "lat": 12.9842602, "lon": 77.641998}, {"type": "node", "id": 1485676644, "lat": 12.9846356, "lon": 77.6442614}, {"type": "node", "id": 1485730724, "lat": 12.9869846, "lon": 77.6447288}, {"type": "node", "id": 1485730732, "lat": 12.9853784, "lon": 77.6433274}, {"type": "node", "id": 1485730740, "lat": 12.9874525, "lon": 77.6429799}, {"type": "node", "id": 1485730758, "lat": 12.986594, "lon": 77.6427884}, {"type": "node", "id": 1517317433, "lat": 12.9825652, "lon": 77.603472}, {"type": "node", "id": 1517317453, "lat": 12.9823736, "lon": 77.6035481}, {"type": "node", "id": 1611862023, "lat": 13.0512768, "lon": 77.5943195}, {"type": "node", "id": 1611862035, "lat": 13.0506624, "lon": 77.5934113}, {"type": "node", "id": 1611862042, "lat": 13.0514034, "lon": 77.593583}, {"type": "node", "id": 1611862066, "lat": 13.0505027, "lon": 77.5941371}, {"type": "node", "id": 1707859921, "lat": 12.9918553, "lon": 77.5955229}, {"type": "node", "id": 1707859950, "lat": 12.9923661, "lon": 77.5951738}, {"type": "node", "id": 1722802205, "lat": 13.0307899, "lon": 77.653594, "tags": {"amenity": "hospital", "emergency": "no", "name": "Karunya Homoeopathy Centre"}}, {"type": "node", "id": 1724416882, "lat": 13.0148188, "lon": 77.6653699, "tags": {"amenity": "hospital", "name": "Ayur Seva Hospital", "name:en": "Ayur Vaid Hospital"}}, {"type": "node", "id": 1757078875, "lat": 12.9839061, "lon": 77.6419962}, {"type": "node", "id": 1757090496, "lat": 12.9850552, "lon": 77.6425174}, {"type": "node", "id": 1757090498, "lat": 12.9865587, "lon": 77.6433883}, {"type": "node", "id": 1761866934, "lat": 13.0207033, "lon": 77.6760593, "tags": {"amenity": "hospital", "name": "Koshys Hospital"}}, {"type": "node", "id": 1808798844, "lat": 12.9858063, "lon": 77.6443455}, {"type": "node", "id": 1808798847, "lat": 12.9858301, "lon": 77.6443497}, {"type": "node", "id": 1837634259, "lat": 12.9840698, "lon": 77.6038967}, {"type": "node", "id": 1838375769, "lat": 12.9903223, "lon": 77.5943339}, {"type": "node", "id": 1958294905, "lat": 13.0100409, "lon": 77.6674667, "tags": {"amenity": "hospital", "name": "Charan Homeopathy, Ramamurthy Nagar"}}, {"type": "node", "id": 2247460571, "lat": 12.9948082, "lon": 77.5935079}, {"type": "node", "id": 2272455276, "lat": 13.0124345, "lon": 77.6580271, "tags": {"addr:district": "Bengaluru Urban", "addr:full": "No. 699, 3Road Main Road,Bhuvanagiri Layout,(O.M.B.R),Doddabanasawadi", "addr:postcode": "560043", "addr:state": "Karnataka", "amenity": "hospital", "name": "Srivijaya Speciality Hospital", "source": "OpenGovernmentData"}}, {"type": "node", "id": 2533566686, "lat": 13.0007683, "lon": 77.6132902, "tags": {"amenity": "hospital", "name": "United Medical lab", "name:kn": "\u0caf\u0cc1\u0ca8\u0cc8\u0c9f\u0cc6\u0ca1\u0ccd \u0cae\u0cc6\u0ca1\u0cbf\u0c95\u0cb2\u0ccd \u0cb2\u0ccd\u0caf\u0cbe\u0cac\u0ccd"}}, {"type": "node", "id": 2625606671, "lat": 13.0224052, "lon": 77.6579566}, {"type": "node", "id": 2625606675, "lat": 13.0224263, "lon": 77.6581236}, {"type": "node", "id": 2625606677, "lat": 13.0223411, "lon": 77.658075}, {"type": "node", "id": 3320950153, "lat": 12.9889265, "lon": 77.5947264}, {"type": "node", "id": 3320950154, "lat": 12.9887431, "lon": 77.5949331}, {"type": "node", "id": 3320950160, "lat": 12.9882621, "lon": 77.5941516}, {"type": "node", "id": 3334054156, "lat": 13.0099493, "lon": 77.5935768}, {"type": "node", "id": 3334054158, "lat": 13.0100512, "lon": 77.5947007}, {"type": "node", "id": 3334054177, "lat": 13.0102759, "lon": 77.5940703}, {"type": "node", "id": 3355835858, "lat": 12.9951285, "lon": 77.6531788}, {"type": "node", "id": 3355835859, "lat": 12.9951949, "lon": 77.6522346}, {"type": "node", "id": 3355835860, "lat": 12.9953179, "lon": 77.6531929}, {"type": "node", "id": 3355835861, "lat": 12.9953843, "lon": 77.6522486}, {"type": "node", "id": 3369905596, "lat": 12.9783793, "lon": 77.6458059, "tags": {"access": "private", "barrier": "gate"}}, {"type": "node", "id": 3370028968, "lat": 12.9784409, "lon": 77.6375845, "tags": {"addr:district": "Bengaluru Urban", "addr:full": "No. 324, Cmh Road Indiranagar 1st Stage Next To Vijaya Bank Building", "addr:postcode": "560038", "addr:state": "Karnataka", "amenity": "hospital", "healthcare": "hospital", "name": "Motherhood Hospital(Unit Of Rhea Healthcare Pvt Ltd)", "name:kn": "\u0cae\u0ca6\u0cb0\u0ccd\u200c\u0cb9\u0cc1\u0ca1\u0ccd", "source": "OpenGovernmentData"}}, {"type": "node", "id": 3370244392, "lat": 12.9762645, "lon": 77.6376528, "tags": {"amenity": "hospital", "healthcare": "hospital", "name": "Respiratory and womens health clinic."}}, {"type": "node", "id": 3370279044, "lat": 12.9766951, "lon": 77.6362278, "tags": {"addr:street": "Indiranagar Double Road (Paramahansa Yogananda road)", "amenity": "hospital", "healthcare": "hospital", "name": "Rashmi Hospital", "name:kn": "\u0cb0\u0cb6\u0ccd\u0cae\u0cbf \u0c86\u0cb8\u0ccd\u0caa\u0ca4\u0ccd\u0cb0\u0cc6"}}, {"type": "node", "id": 3384244312, "lat": 12.9787478, "lon": 77.6380105}, {"type": "node", "id": 3384244314, "lat": 12.9787483, "lon": 77.6381597}, {"type": "node", "id": 3384244323, "lat": 12.9788549, "lon": 77.6381593}, {"type": "node", "id": 3387829037, "lat": 12.982237, "lon": 77.64431}, {"type": "node", "id": 3387829040, "lat": 12.9822852, "lon": 77.6446957}, {"type": "node", "id": 3387829045, "lat": 12.9826425, "lon": 77.6441762}, {"type": "node", "id": 3525674088, "lat": 12.9998316, "lon": 77.614639}, {"type": "node", "id": 3525674091, "lat": 12.9998648, "lon": 77.6143285}, {"type": "node", "id": 3525674205, "lat": 13.0000958, "lon": 77.6146687}, {"type": "node", "id": 3525674209, "lat": 13.000129, "lon": 77.6143583}, {"type": "node", "id": 3529770822, "lat": 12.9839735, "lon": 77.6420013}, {"type": "node", "id": 3529770859, "lat": 12.9842543, "lon": 77.6419704}, {"type": "node", "id": 3530356274, "lat": 13.0145298, "lon": 77.6465043}, {"type": "node", "id": 3530356277, "lat": 13.0145451, "lon": 77.6463883}, {"type": "node", "id": 3530356413, "lat": 13.0146737, "lon": 77.6465243}, {"type": "node", "id": 3530356415, "lat": 13.014689, "lon": 77.6464084}, {"type": "node", "id": 3535296231, "lat": 12.9806426, "lon": 77.6459745}, {"type": "node", "id": 3535296238, "lat": 12.9806472, "lon": 77.6460631}, {"type": "node", "id": 3535296279, "lat": 12.9807729, "lon": 77.6459589}, {"type": "node", "id": 3535296282, "lat": 12.9807786, "lon": 77.6460518}, {"type": "node", "id": 3556103531, "lat": 12.9826672, "lon": 77.6381036, "tags": {"amenity": "hospital", "name": "ALDOS Medical Service Pvt LTD"}}, {"type": "node", "id": 3565016646, "lat": 13.0170766, "lon": 77.6431868}, {"type": "node", "id": 3565016647, "lat": 13.017072, "lon": 77.6434018}, {"type": "node", "id": 3565016652, "lat": 13.0171877, "lon": 77.6431868}, {"type": "node", "id": 3565016653, "lat": 13.0171847, "lon": 77.6434021}, {"type": "node", "id": 3679885227, "lat": 13.0152169, "lon": 77.6467618}, {"type": "node", "id": 3679885229, "lat": 13.0152231, "lon": 77.646654}, {"type": "node", "id": 3679885235, "lat": 13.015304, "lon": 77.646767}, {"type": "node", "id": 3679885236, "lat": 13.0153101, "lon": 77.6466592}, {"type": "node", "id": 3714125744, "lat": 12.9900105, "lon": 77.5988107, "tags": {"addr:district": "Bengaluru Urban", "addr:full": "Queens Road", "addr:state": "Karnataka", "addr:street": "Queen's Road", "amenity": "hospital", "name": "Shifa Hospital, Bengaluru Urban", "name:kn": "\u0cb6\u0cbf\u0cab\u0cbe \u0c86\u0cb8\u0ccd\u0caa\u0ca4\u0ccd\u0cb0\u0cc6", "operator:type": "private", "source": "OpenGovernmentData", "website": "http://dpal.kar.nic.in/Kanunu%20padakosha%20PDF%20Files/Recognised%20Hospitals.pdf"}}, {"type": "node", "id": 3726120789, "lat": 12.9843933, "lon": 77.6419615}, {"type": "node", "id": 3726120790, "lat": 12.9847486, "lon": 77.6428867}, {"type": "node", "id": 3942993142, "lat": 12.9819805, "lon": 77.6043112}, {"type": "node", "id": 3942993148, "lat": 12.9827887, "lon": 77.603376}, {"type": "node", "id": 4030269686, "lat": 12.9821131, "lon": 77.6056163}, {"type": "node", "id": 4030269688, "lat": 12.982526, "lon": 77.6056}, {"type": "node", "id": 4030279575, "lat": 12.9906194, "lon": 77.6019441}, {"type": "node", "id": 4030279576, "lat": 12.9906494, "lon": 77.6009547}, {"type": "node", "id": 4030279577, "lat": 12.9906768, "lon": 77.6008526}, {"type": "node", "id": 4030279578, "lat": 12.990971, "lon": 77.6006119}, {"type": "node", "id": 4030279580, "lat": 12.9917597, "lon": 77.6019527}, {"type": "node", "id": 4030279582, "lat": 12.9918111, "lon": 77.6015374}, {"type": "node", "id": 4030279585, "lat": 12.9919243, "lon": 77.600918}, {"type": "node", "id": 4189843307, "lat": 13.0206063, "lon": 77.6445361, "tags": {"addr:city": "Bangalore", "addr:postcode": "560043", "addr:street": "4th B cross, 7th C Main", "amenity": "hospital", "emergency": "no", "name": "Rajbal Skin Clinic", "operator": "Skin Specialist"}}, {"type": "node", "id": 4263313808, "lat": 13.0147612, "lon": 77.6335463, "tags": {"amenity": "hospital", "name": "Dianova Diabetes Center and Hospital"}}, {"type": "node", "id": 4286285517, "lat": 12.9777082, "lon": 77.6323407, "tags": {"addr:housenumber": "111(3/1)", "addr:street": "18th Cross Road", "amenity": "hospital", "description": "hospital", "healthcare": "hospital", "name": "Ameena Medical centre"}}, {"type": "node", "id": 4349443891, "lat": 13.0169826, "lon": 77.6432959, "tags": {"addr:district": "Bengaluru Urban", "addr:full": "Kalyan Nagar, Bengaluru", "addr:postcode": "560043", "addr:state": "Karnataka", "amenity": "hospital", "name": "Trilife Hospital", "source": "Local Knowledge"}}, {"type": "node", "id": 4386507095, "lat": 13.0267226, "lon": 77.6041132, "tags": {"amenity": "hospital", "name": "Vignesh Lab and Diagnostics"}}, {"type": "node", "id": 4445578787, "lat": 12.975403, "lon": 77.6470594, "tags": {"addr:city": "bangalore", "addr:postcode": "560075", "addr:street": "Indiranagar 80ft Road, New Thippasandra, Hal 3rd Stage, Via Indira Nagar 80ft Road", "amenity": "hospital", "healthcare": "hospital", "name": "Dr. Bhargavi Reddy Women & Children Hospital", "phone": "080 2525 6666", "website": "https://drbhargavireddyhospital.com"}}, {"type": "node", "id": 4445886952, "lat": 13.0316481, "lon": 77.6023154, "tags": {"addr:city": "Bangalore", "addr:postcode": "560032", "addr:street": "Sultanpalya Main Road, Near-Bus Stand, R T Nagar", "amenity": "hospital", "name": "Sanjeevini Children & Women Clinic", "phone": "080 2292 4422"}}, {"type": "node", "id": 4445955282, "lat": 13.0203944, "lon": 77.6512682, "tags": {"addr:city": "BANGALORE", "addr:housenumber": "914, 5th A Cross Road", "addr:postcode": "560043", "addr:street": "Outer Ring Road", "amenity": "hospital", "emergency": "yes", "name": "Procare Hospital", "phone": "080 4162 0620", "website": "080 4162 0620"}}, {"type": "node", "id": 4446285519, "lat": 12.9876871, "lon": 77.6093097, "tags": {"addr:city": "bangalore", "addr:district": "Bengaluru Urban", "addr:full": "17-1, Sepings Road Cross,Arunachala Mudaliar Road, Shivajinagar,Cole's Park- Taj Hotel", "addr:postcode": "560001", "addr:state": "Karnataka", "addr:street": "AM Road, Bharati Nagar, Shivaji Nagar", "amenity": "hospital", "name": "Medic Star Hospital", "phone": "080 2554 1337", "source": "OpenGovernmentData"}}, {"type": "node", "id": 4446289881, "lat": 12.9856985, "lon": 77.6058578, "tags": {"addr:city": "bangalore", "addr:postcode": "560051", "addr:street": "Tasker Town, Near-KSPCB Limited, Shivaji Nagar, Sulthangunta, Shivaji Nagar", "amenity": "hospital", "name": "Hsis Gosha Hospital", "phone": "\"080 2286 6529"}}, {"type": "node", "id": 4446300155, "lat": 12.9959413, "lon": 77.6082575, "tags": {"addr:city": "bangalore", "addr:district": "Bengaluru Urban", "addr:full": "No. 6 / 1, Promenade Road, Behind Coles Park, Near Goodwill School", "addr:housenumber": "6/1", "addr:postcode": "560005", "addr:state": "Karnataka", "addr:street": "Promenade Road, Near Coles Park, Frazer Town", "amenity": "hospital", "check_date": "2024-12-29", "name": "Santosh Hospital", "name:kn": "\u0cb8\u0c82\u0ca4\u0ccb\u0cb7 \u0c86\u0cb8\u0ccd\u0caa\u0ca4\u0ccd\u0cb0\u0cc6", "phone": "080 2536 7706", "source": "OpenGovernmentData", "website": "https://santoshhealthcare.com/"}}, {"type": "node", "id": 4446312027, "lat": 12.9914123, "lon": 77.6117329, "tags": {"addr:city": "bangalore", "addr:postcode": "560001", "addr:street": "St Johns Church Rd, Bharati Nagar, Shivaji Nagar", "amenity": "hospital", "name": "Hospital", "phone": "+9193411 44150", "website": "https://www.mirlayeyecare.com/"}}, {"type": "node", "id": 4446341278, "lat": 12.9891941, "lon": 77.6037864, "tags": {"addr:city": "bangalore", "addr:postcode": "560051", "addr:street": "Sultan Gunta,, Cock Burn Rd, Sulthangunta, Shivaji Nagar", "amenity": "hospital", "name": "H B S Hospital", "phone": "080 2554 1321"}}, {"type": "node", "id": 4446876066, "lat": 13.0204424, "lon": 77.6440607, "tags": {"addr:city": "Bangalore", "addr:housenumber": "714", "addr:postcode": "560043", "addr:street": "4th B Cross, 7th A Main, 1st Block, HRBR Layout, Kalyan Nagar", "amenity": "hospital", "name": "Herbocare Hospital Pvt", "phone": "+9174064 30003", "website": "herbocare.info"}}, {"type": "node", "id": 4447003711, "lat": 12.9946163, "lon": 77.6023871, "tags": {"addr:city": "bangalore", "addr:housenumber": "62", "addr:street": "Millers Rd, Cantonment Railway Quarters", "amenity": "hospital", "name": "Ayushman Ayurvedic therapy centre", "phone": "+91 95356 68668", "source": "www.justdial.com", "website": "ayushmanayurvedic.com"}}, {"type": "node", "id": 4506781918, "lat": 12.9828025, "lon": 77.6434148}, {"type": "node", "id": 4577045761, "lat": 12.9983402, "lon": 77.6200927, "tags": {"amenity": "hospital", "name": "Government Maternity Home", "name:kn": "\u0cb8\u0cb0\u0ccd\u0c95\u0cbe\u0cb0\u0cbf \u0cae\u0cbe\u0ca4\u0cc3\u0ca4\u0ccd\u0cb5 \u0cae\u0ca8\u0cc6"}}, {"type": "node", "id": 4637262006, "lat": 12.984705, "lon": 77.645179}, {"type": "node", "id": 4637262012, "lat": 12.9845925, "lon": 77.6446461}, {"type": "node", "id": 4637262020, "lat": 12.9847004, "lon": 77.6445972}, {"type": "node", "id": 4637262033, "lat": 12.9851716, "lon": 77.6441519}, {"type": "node", "id": 4676566777, "lat": 12.9842193, "lon": 77.5999264}, {"type": "node", "id": 4690537789, "lat": 12.9817167, "lon": 77.6800412, "tags": {"addr:district": "Bengaluru Urban", "addr:full": "SRR Arcade, C.V. Raman Nagar, Kaggadasapura, Bengaluru", "addr:postcode": "560093", "addr:state": "Karnataka", "amenity": "hospital", "name": "Comfort Multispeciality Hospital", "name:en": "Comfort multispeciality hospital", "source": "Local Knowledge"}}, {"type": "node", "id": 4782423379, "lat": 12.9876335, "lon": 77.6851595, "tags": {"addr:city": "Bengaluru", "addr:housenumber": "#33", "addr:postcode": "560048", "addr:street": "DRDO Phase 2 Main Road", "amenity": "hospital", "emergency": "yes", "name": "Dr. Roshni's Tooth Planet Dental Clinic", "operator": "Dr. Roshni Maurya"}}, {"type": "node", "id": 4844865057, "lat": 13.014746, "lon": 77.6357881, "tags": {"amenity": "hospital", "name": "Doctor's diagnostics Centre", "name:en": "Doctor's diagnostics Centre"}}, {"type": "node", "id": 5012445073, "lat": 12.9894437, "lon": 77.5942259}, {"type": "node", "id": 5012445074, "lat": 12.9898005, "lon": 77.5938637}, {"type": "node", "id": 5012445075, "lat": 12.9899223, "lon": 77.5946566}, {"type": "node", "id": 5012445076, "lat": 12.9895972, "lon": 77.594369}, {"type": "node", "id": 5112187604, "lat": 13.0090912, "lon": 77.656317, "tags": {"amenity": "hospital", "name": "Subramanium Medicine Store"}}, {"type": "node", "id": 5112191947, "lat": 13.0104342, "lon": 77.6583242, "tags": {"addr:district": "Bengaluru Urban", "addr:full": "6C - 335, 4Th C Main Road, 6Th Cross Ombr Layout Bhuvanagiri", "addr:postcode": "560041", "addr:state": "Karnataka", "amenity": "hospital", "name": "Chaya Super Speciality Hospital", "source": "OpenGovernmentData"}}, {"type": "node", "id": 5112227907, "lat": 13.0171877, "lon": 77.6432248}, {"type": "node", "id": 5174903787, "lat": 12.9918415, "lon": 77.5968531, "tags": {"amenity": "hospital", "healthcare": "hospital", "name": "Bangalore Diabetes Hospital"}}, {"type": "node", "id": 5190893408, "lat": 12.9755515, "lon": 77.6469648}, {"type": "node", "id": 5190893409, "lat": 12.9755582, "lon": 77.6471625}, {"type": "node", "id": 5190893410, "lat": 12.9756839, "lon": 77.647158}, {"type": "node", "id": 5190893411, "lat": 12.9756772, "lon": 77.6469603}, {"type": "node", "id": 5519076232, "lat": 12.985892, "lon": 77.6443183}, {"type": "node", "id": 5519076233, "lat": 12.9860123, "lon": 77.6445436}, {"type": "node", "id": 5519077349, "lat": 12.9856768, "lon": 77.6440375}, {"type": "node", "id": 5519077417, "lat": 12.9863124, "lon": 77.6446008}, {"type": "node", "id": 5519077420, "lat": 12.9868174, "lon": 77.6446969}, {"type": "node", "id": 5520252375, "lat": 13.0552027, "lon": 77.6028234, "tags": {"addr:district": "Bengaluru Urban", "addr:full": "Bhuvaneswari Nagar, Hebbal Kempapura, Bengaluru", "addr:postcode": "560024", "addr:state": "Karnataka", "amenity": "hospital", "healthcare": "yes", "name": "Care Health", "source": "Local Knowledge"}}, {"type": "node", "id": 5862574185, "lat": 12.9878631, "lon": 77.6177434, "tags": {"amenity": "hospital", "name": "Lakeside Medical Centre and Hospital"}}, {"type": "node", "id": 6393830707, "lat": 12.9781293, "lon": 77.6372391, "tags": {"amenity": "hospital", "healthcare": "hospital", "name": "Sujatha Hospital"}}, {"type": "node", "id": 6937890455, "lat": 13.0237316, "lon": 77.5941463, "tags": {"addr:district": "Bengaluru Urban", "addr:full": "No 80, P&T Colony R T Nagar", "addr:postcode": "560032", "addr:state": "Karnataka", "amenity": "hospital", "name": "Chaitanya Hospital", "name:kn": "\u0c9a\u0cc8\u0ca4\u0ca8\u0ccd\u0caf \u0c86\u0cb8\u0ccd\u0caa\u0ca4\u0ccd\u0cb0\u0cc6", "source": "OpenGovernmentData"}}, {"type": "node", "id": 6938005237, "lat": 13.0370143, "lon": 77.6238732, "tags": {"addr:district": "Bengaluru Urban", "addr:full": "#978, 18Th Cross,14Th Main, 5Th Block, 1st Stage,H.B.R.Layout", "addr:postcode": "560043", "addr:state": "Karnataka", "amenity": "hospital", "name": "Sri Sai Hospital, Bengaluru Urban", "source": "OpenGovernmentData"}}, {"type": "node", "id": 6938547661, "lat": 13.0289685, "lon": 77.6045479, "tags": {"addr:district": "Bengaluru Urban", "addr:full": "# 125 1st Cross Bhuwaneshwarinagar Sultanpalya Main Road R T Nagar Post", "addr:postcode": "560032", "addr:state": "Karnataka", "amenity": "hospital", "name": "Ashirwad Hospital", "source": "OpenGovernmentData"}}, {"type": "node", "id": 6938695174, "lat": 13.0398217, "lon": 77.6230843, "tags": {"addr:district": "Bengaluru Urban", "addr:full": "Nagarwara", "addr:postcode": "560045", "addr:state": "Karnataka", "amenity": "hospital", "name": "J M J Hospital, Bengaluru Urban", "source": "OpenGovernmentData"}}, {"type": "node", "id": 6938781514, "lat": 13.0090828, "lon": 77.6235594, "tags": {"addr:district": "Bengaluru Urban", "addr:full": "Hennur Main Road Opposite Srirama Temple", "addr:postcode": "560043", "addr:state": "Karnataka", "amenity": "hospital", "healthcare": "hospital", "name": "K C Raju Multi Speciality Hospital", "source": "OpenGovernmentData"}}, {"type": "node", "id": 6938949273, "lat": 13.0186045, "lon": 77.6479433, "tags": {"addr:district": "Bengaluru Urban", "addr:full": "No. 3Ac 902, 3Road A Cross, 1st Block,9Th A Main, Kalyannagar", "addr:postcode": "560043", "addr:state": "Karnataka", "amenity": "hospital", "name": "Lokhande S Hospital", "source": "OpenGovernmentData"}}, {"type": "node", "id": 6939074293, "lat": 13.0218188, "lon": 77.613084, "tags": {"addr:district": "Bengaluru Urban", "addr:full": "Kadugondanahalli", "addr:postcode": "560045", "addr:state": "Karnataka", "amenity": "hospital", "email": "drbramc@rediffmail.com", "healthcare:speciality": "multi speciality", "name": "Dr Ambedkar Medical College Hospital", "operator:type": "private", "source": "OpenGovernmentData", "website": "http://www.bramc.org/"}}, {"type": "node", "id": 6939076687, "lat": 13.0212406, "lon": 77.6070739, "tags": {"addr:district": "Bengaluru Urban", "addr:full": "91, Kavalbhyrasandra Dr Amc Road, Rt Nagar Post R T Nagar", "addr:postcode": "560032", "addr:state": "Karnataka", "amenity": "hospital", "name": "Manju Sree Hospital", "name:kn": "\u0cae\u0c82\u0c9c\u0cc1\u0cb6\u0ccd\u0cb0\u0cc0 \u0c86\u0cb8\u0ccd\u0caa\u0ca4\u0ccd\u0cb0\u0cc6", "source": "OpenGovernmentData"}}, {"type": "node", "id": 6939311791, "lat": 13.0373572, "lon": 77.6409059, "tags": {"addr:district": "Bengaluru Urban", "addr:full": "#3/666, Hennur Bande,Hennur Main Road, Kalayan Nagar Post,International Link Road", "addr:postcode": "560043", "addr:state": "Karnataka", "amenity": "hospital", "name": "Shree Vijayalakshmi Hospital and Trauma Centre", "source": "OpenGovernmentData"}}, {"type": "node", "id": 6944095845, "lat": 13.0241341, "lon": 77.6335546, "tags": {"addr:district": "Bengaluru Urban", "addr:full": "#205-4c, 4th Cross, 3 Road Block", "addr:postcode": "560043", "addr:state": "Karnataka", "addr:subdistrict": "Banaswadi", "amenity": "hospital", "name": "Vasan Eye Care Hospital, Banaswadi", "operator:type": "private", "source": "OpenGovernmentData", "website": "http://www.vasaneye.in/"}}, {"type": "node", "id": 6944143695, "lat": 12.9825937, "lon": 77.6814736, "tags": {"addr:district": "Bengaluru Urban", "addr:full": "21st Cross Kaggadasapura Main Road C V Raman Nagar", "addr:postcode": "560093", "addr:state": "Karnataka", "amenity": "hospital", "name": "Sree Lakshmi Hospital", "source": "OpenGovernmentData"}}, {"type": "node", "id": 6944231454, "lat": 12.9994472, "lon": 77.6162584, "tags": {"addr:district": "Bengaluru Urban", "addr:full": "Pillana Garden", "addr:postcode": "560045", "addr:state": "Karnataka", "amenity": "hospital", "name": "Mediscope Hospital Private Limited", "operator:type": "private", "source": "OpenGovernmentData", "website": "http://dpal.kar.nic.in/Kanunu%20padakosha%20PDF%20Files/Recognised%20Hospitals.pdf"}}, {"type": "node", "id": 6944231456, "lat": 13.0555559, "lon": 77.6517145, "tags": {"addr:district": "Bengaluru Urban", "addr:full": "85 Byrathi, Hennur Main Road,Near Kothnur Police Station", "addr:postcode": "560077", "addr:state": "Karnataka", "amenity": "hospital", "name": "Medi Derma Hospital", "source": "OpenGovernmentData"}}, {"type": "node", "id": 6944239588, "lat": 12.9825845, "lon": 77.6124926, "tags": {"addr:district": "Bengaluru Urban", "addr:full": "22/70, St. John`S Road, (Opposite R B A N M S Ground)", "addr:postcode": "560042", "addr:state": "Karnataka", "amenity": "hospital", "name": "Manjushree Speciality Hospital", "source": "OpenGovernmentData"}}, {"type": "node", "id": 6944274074, "lat": 13.0139247, "lon": 77.6640775, "tags": {"addr:district": "Bengaluru Urban", "addr:full": "No. 16, Hoysala Nagar, Maruti Complex, Ramamurthy Nagar Extension", "addr:postcode": "560016", "addr:state": "Karnataka", "amenity": "hospital", "name": "Ayurseva Hospital", "source": "OpenGovernmentData"}}, {"type": "node", "id": 6944392375, "lat": 13.0205082, "lon": 77.6509675, "tags": {"addr:district": "Bengaluru Urban", "addr:full": "904, 1st Block, Hrbr Layout (Near Overhead Water Tank, Outer Ring Road) Bansawadi", "addr:postcode": "560043", "addr:state": "Karnataka", "amenity": "hospital", "name": "Banasawadi Hospital", "name:kn": "\u0cac\u0cbe\u0ca8\u0cb8\u0cb5\u0cbe\u0ca1\u0cbf \u0c86\u0cb8\u0ccd\u0caa\u0ca4\u0ccd\u0cb0\u0cc6", "source": "OpenGovernmentData"}}, {"type": "node", "id": 6944392376, "lat": 13.0221036, "lon": 77.6387729, "tags": {"addr:district": "Bengaluru Urban", "addr:full": "#4 Ac-426,4Thcross,2nd Block, Oop.Kalyana Nagar,Telephone Exchange", "addr:postcode": "560043", "addr:state": "Karnataka", "amenity": "hospital", "name": "Bangalore Eye Hospital And Retina Centre", "source": "OpenGovernmentData"}}, {"type": "node", "id": 6944418996, "lat": 12.975802, "lon": 77.6184806, "tags": {"addr:district": "Bengaluru Urban", "addr:full": "No.1 Haudin Road, Off Ulsoor Road", "addr:postcode": "560042", "addr:state": "Karnataka", "amenity": "hospital", "name": "Nikad Ortho Centre", "source": "OpenGovernmentData"}}, {"type": "node", "id": 6944525274, "lat": 13.0138123, "lon": 77.6354731, "tags": {"addr:district": "Bengaluru Urban", "addr:full": "No. 31, Kammanahalli Main Road Near Venkateswara Ent", "addr:postcode": "560084", "addr:state": "Karnataka", "amenity": "hospital", "name": "R K Hospital, Bengaluru Urban", "source": "OpenGovernmentData"}}, {"type": "node", "id": 6944707745, "lat": 12.9777106, "lon": 77.6459773, "tags": {"addr:district": "Bengaluru Urban", "addr:full": "C.M.H.Road, Indiranagar, 2nd Stage", "addr:postcode": "560038", "addr:state": "Karnataka", "addr:subdistrict": "Indiranagar", "amenity": "hospital", "check_date": "2026-01-07", "email": "info.cnh@nhhospitals.org", "healthcare:speciality": "multi speciality", "name": "Chinmaya Narayana Super Specialty Centre", "operator:type": "private", "source": "OpenGovernmentData", "website": "https://www.narayanahealth.org/"}}, {"type": "node", "id": 6945031202, "lat": 13.0080166, "lon": 77.6221479, "tags": {"addr:district": "Bengaluru Urban", "addr:full": "1 & 2, Hennur Road Cross, Lingarajpuram,Below Railway Flyover", "addr:postcode": "560084", "addr:state": "Karnataka", "amenity": "hospital", "name": "Sundar Hospital", "source": "OpenGovernmentData"}}, {"type": "node", "id": 6945075435, "lat": 13.015884, "lon": 77.5973475, "tags": {"addr:district": "Bengaluru Urban", "addr:full": "No 29, 9Th Cross Adi Kabir Ashram Road,H.D Devegowda Road", "addr:postcode": "560037", "addr:state": "Karnataka", "amenity": "hospital", "name": "V Care Hospital", "source": "OpenGovernmentData"}}, {"type": "node", "id": 6945434031, "lat": 13.0147224, "lon": 77.6515616, "tags": {"addr:district": "Bengaluru Urban", "addr:full": "No.60, Near Banaswadi Bus Stop, Banaswadi Main Road", "addr:postcode": "560043", "addr:state": "Karnataka", "amenity": "hospital", "name": "Srinivasa Eye Hospital", "source": "OpenGovernmentData"}}, {"type": "node", "id": 6945724749, "lat": 13.0112166, "lon": 77.6743939, "tags": {"addr:district": "Bengaluru Urban", "addr:full": "Ramamurthynagar", "addr:postcode": "560016", "addr:state": "Karnataka", "amenity": "hospital", "name": "Spandana Hospital And Medical Centre", "source": "OpenGovernmentData", "wheelchair": "yes"}}, {"type": "node", "id": 6947106775, "lat": 13.0021978, "lon": 77.6329015, "tags": {"addr:district": "Bengaluru Urban", "addr:full": "7Th B Cross, 1st Floor Banaswadi Road Jai Bharath Nagar", "addr:postcode": "560033", "addr:state": "Karnataka", "amenity": "hospital", "healthcare": "hospital", "name": "Dr Zamindar's Micro Surgical Eye Centre", "source": "OpenGovernmentData"}}, {"type": "node", "id": 6947430278, "lat": 13.0263344, "lon": 77.595128, "tags": {"addr:district": "Bengaluru Urban", "addr:full": "#200/A, Hmt Layout, Karthik Complex, Dinnur Main Road, R.T. Nagar", "addr:postcode": "560032", "addr:state": "Karnataka", "amenity": "hospital", "name": "Poornima Hospital", "source": "OpenGovernmentData"}}, {"type": "node", "id": 6947499707, "lat": 13.0178594, "lon": 77.6547577, "tags": {"addr:district": "Bengaluru Urban", "addr:full": "No.1013, 1st Block, 3 Road Cross, Hrbr Layout, Kalyan Nagar", "addr:postcode": "560043", "addr:state": "Karnataka", "amenity": "hospital", "name": "Dr.Zamindar Microsurgical Eye Centre", "operator:type": "private", "source": "OpenGovernmentData", "website": "https://drzamindarseyecentre.com/"}}, {"type": "node", "id": 6947499708, "lat": 13.0328036, "lon": 77.633289, "tags": {"addr:district": "Bengaluru Urban", "addr:full": "#1,9 Cross 9 Main Hennur Cross, Kalyan Nagar Post", "addr:postcode": "560043", "addr:state": "Karnataka", "amenity": "hospital", "name": "Good Shepherd Hospital", "source": "OpenGovernmentData"}}, {"type": "node", "id": 6947499711, "lat": 12.9960196, "lon": 77.6128413, "tags": {"addr:district": "Bengaluru Urban", "addr:full": "No.33, Coles Road,Frazer Town", "addr:postcode": "560005", "addr:state": "Karnataka", "amenity": "hospital", "name": "Dr.Agarwal Eye Hospital, Frazer Town, Bangalore", "source": "OpenGovernmentData"}}, {"type": "node", "id": 6947662480, "lat": 13.011968, "lon": 77.6659168, "tags": {"addr:district": "Bengaluru Urban", "addr:full": "#311, 4B Cross, R.M. Nagar Main Road, Kasthuri Nagar", "addr:postcode": "560016", "addr:state": "Karnataka", "amenity": "hospital", "name": "Sri Sai Eye Hospital", "source": "OpenGovernmentData"}}, {"type": "node", "id": 6947678585, "lat": 13.0149675, "lon": 77.6354957, "tags": {"addr:district": "Bengaluru Urban", "addr:full": "No.1, 1 Cross Rananurthy Road", "addr:postcode": "560084", "addr:state": "Karnataka", "amenity": "hospital", "email": "info@zionhospitals.com", "name": "Zion Hospital And Research Centre Pvt.Ltd.", "operator:type": "private", "source": "OpenGovernmentData", "website": "http://zionhospitals.com/"}}, {"type": "node", "id": 6947716900, "lat": 13.0276736, "lon": 77.6614188, "tags": {"addr:district": "Bengaluru Urban", "addr:full": "No.21,22,1st Floor,Horamavu Main Road", "addr:postcode": "560043", "addr:state": "Karnataka", "amenity": "hospital", "name": "Dr. Sailaja's Super Speciality Eye Hospital", "source": "OpenGovernmentData"}}, {"type": "node", "id": 6948590938, "lat": 13.0241863, "lon": 77.5960574, "tags": {"addr:district": "Bengaluru Urban", "addr:full": "No.2, Ex-Servicemen Colony, 5Th Cross, Dinnur Main Road, R.T.Nagar", "addr:postcode": "560032", "addr:state": "Karnataka", "amenity": "hospital", "name": "Premier Hospital", "source": "OpenGovernmentData"}}, {"type": "node", "id": 6948659616, "lat": 13.0269276, "lon": 77.6227882, "tags": {"addr:district": "Bengaluru Urban", "addr:full": "Lmc 1210 &1211 ,1st Main, 1st Stage, 3Road Block Hbr Layout", "addr:postcode": "560001", "addr:state": "Karnataka", "amenity": "hospital", "name": "Avian Medicare and Research Centre", "source": "OpenGovernmentData", "wheelchair": "yes"}}, {"type": "node", "id": 6950124287, "lat": 13.0113204, "lon": 77.6771966, "tags": {"addr:district": "Bengaluru Urban", "addr:full": "No. 101, Tc Palya Road,Raghavendra Nagar,Ram Murthy Nagar Extension", "addr:postcode": "560016", "addr:state": "Karnataka", "addr:street": "Opposite to bus stop", "amenity": "hospital", "name": "Little Flower Hospital", "source": "OpenGovernmentData"}}, {"type": "node", "id": 6950412307, "lat": 13.0236062, "lon": 77.6196139, "tags": {"addr:district": "Bengaluru Urban", "addr:full": "5, Arabic College Main Road, Banglore", "addr:postcode": "560045", "addr:state": "Karnataka", "amenity": "hospital", "name": "Al- Habeeb Hospital", "source": "OpenGovernmentData"}}, {"type": "node", "id": 7208904020, "lat": 13.0282954, "lon": 77.6325646}, {"type": "node", "id": 7208904021, "lat": 13.0283567, "lon": 77.6324109}, {"type": "node", "id": 7208904022, "lat": 13.0286825, "lon": 77.6325478}, {"type": "node", "id": 7208904023, "lat": 13.0286212, "lon": 77.6327015}, {"type": "node", "id": 7213565705, "lat": 13.0324318, "lon": 77.6085263, "tags": {"addr:district": "Bengaluru Urban", "addr:full": "48/1, KHB Colony Main Rd, Sultanpalya, Hebbal, Bengaluru", "addr:postcode": "560032", "addr:state": "Karnataka", "amenity": "hospital", "healthcare": "hospital", "name": "Cure Hospital", "source": "OpenGovernmentData"}}, {"type": "node", "id": 7389425948, "lat": 12.9862526, "lon": 77.6445894}, {"type": "node", "id": 7389425963, "lat": 12.9873903, "lon": 77.6432251}, {"type": "node", "id": 7448002905, "lat": 13.0054446, "lon": 77.682416}, {"type": "node", "id": 7448002906, "lat": 13.0043115, "lon": 77.6831194}, {"type": "node", "id": 7448002907, "lat": 13.0038271, "lon": 77.6822973}, {"type": "node", "id": 7448002910, "lat": 13.0049601, "lon": 77.6815939}, {"type": "node", "id": 7448009622, "lat": 13.0098978, "lon": 77.5935437}, {"type": "node", "id": 7448009623, "lat": 13.0095859, "lon": 77.5945352}, {"type": "node", "id": 7572131814, "lat": 12.9807257, "lon": 77.6823734, "tags": {"addr:district": "Bengaluru Urban", "addr:full": "Nagappareddy Layout, Kaggadasapura, Bengaluru", "addr:postcode": "560093", "addr:state": "Karnataka", "amenity": "hospital", "name": "Little Flower Hospital", "source": "Local Knowledge"}}, {"type": "node", "id": 7572131819, "lat": 12.9901305, "lon": 77.6713322, "tags": {"addr:district": "Bengaluru Urban", "addr:full": "Udayanagar Extension, Mahadevapura, Bengaluru", "addr:postcode": "560013", "addr:state": "Karnataka", "amenity": "hospital", "name": "Jeevan Hospital", "source": "Local Knowledge"}}, {"type": "node", "id": 7572131824, "lat": 12.9946786, "lon": 77.6709989, "tags": {"addr:district": "Bengaluru Urban", "addr:full": "Udaya Nagar, Mahadevapura, Bengaluru", "addr:postcode": "560016", "addr:state": "Karnataka", "amenity": "hospital", "name": "Vedam Ayurveda Multi Speciality Hospital", "source": "Local Knowledge"}}, {"type": "node", "id": 7572131833, "lat": 13.0239995, "lon": 77.6585299, "tags": {"addr:district": "Bengaluru Urban", "addr:full": "Horamavu, Near Banaswadi, Bengaluru", "addr:postcode": "560043", "addr:state": "Karnataka", "amenity": "hospital", "name": "Stroke Treatment Paralysis", "source": "Local Knowledge"}}, {"type": "node", "id": 7572131835, "lat": 13.0283977, "lon": 77.6599575, "tags": {"addr:district": "Bengaluru Urban", "addr:full": "Banaswadi, Bengaluru", "addr:postcode": "560043", "addr:state": "Karnataka", "amenity": "hospital", "name": "Geriatric Hospitals", "source": "Local Knowledge"}}, {"type": "node", "id": 7572131844, "lat": 12.9966313, "lon": 77.671863, "tags": {"addr:district": "Bengaluru Urban", "addr:full": "Udaya Nagar, Bengaluru", "addr:postcode": "560016", "addr:state": "Karnataka", "amenity": "hospital", "name": "Pragathi Piles Hospital", "source": "Local Knowledge"}}, {"type": "node", "id": 7572131866, "lat": 12.9895049, "lon": 77.6741439, "tags": {"addr:district": "Bengaluru Urban", "addr:full": "Udaya Nagar, Mahadevapura, Bengaluru", "addr:postcode": "560016", "addr:state": "Karnataka", "amenity": "hospital", "name": "Mahaveer Hospitals", "source": "Local Knowledge"}}, {"type": "node", "id": 7572131884, "lat": 13.033219, "lon": 77.6747693, "tags": {"addr:district": "Bengaluru Urban", "addr:full": "Punyabhoomi Layout, Kalkere, Bengaluru", "addr:postcode": "560016", "addr:state": "Karnataka", "amenity": "hospital", "name": "Eshawar HospItal", "source": "Local Knowledge"}}, {"type": "node", "id": 7572131894, "lat": 12.989869, "lon": 77.676589, "tags": {"addr:district": "Bengaluru Urban", "addr:full": "Udaya Nagar, Mahadevapura, Bengaluru", "addr:postcode": "560016", "addr:state": "Karnataka", "amenity": "hospital", "name": "Cure N Care Hospital", "source": "Local Knowledge"}}, {"type": "node", "id": 7572131923, "lat": 12.991561, "lon": 77.6757833, "tags": {"addr:district": "Bengaluru Urban", "addr:full": "Udaya Nagar, Bengaluru", "addr:postcode": "560016", "addr:state": "Karnataka", "amenity": "hospital", "name": "Prakruti Hospital", "source": "Local Knowledge"}}, {"type": "node", "id": 7577248186, "lat": 13.0193799, "lon": 77.6535352, "tags": {"addr:district": "Bengaluru Urban", "addr:full": "HRBR Layout, Banaswadi, Bengaluru", "addr:postcode": "560043", "addr:state": "Karnataka", "amenity": "hospital", "name": "Shishuka Children's Speciality Hospital", "source": "Local Knowledge"}}, {"type": "node", "id": 7577248193, "lat": 13.0091103, "lon": 77.6579493, "tags": {"addr:district": "Bengaluru Urban", "addr:full": "Lal Bahadur Nagar, Kasturi Nagar, Bengaluru", "addr:postcode": "560043", "addr:state": "Karnataka", "amenity": "hospital", "name": "Skin Remediez", "source": "Local Knowledge"}}, {"type": "node", "id": 7577248218, "lat": 13.0524836, "lon": 77.6120857, "tags": {"addr:district": "Bengaluru Urban", "addr:full": "Mariyannapalya, Thanisandra, Bengaluru", "addr:postcode": "560024", "addr:state": "Karnataka", "amenity": "hospital", "check_date": "2024-07-05", "name": "Navya Hospital", "source": "Local Knowledge"}}, {"type": "node", "id": 7577248221, "lat": 13.0201491, "lon": 77.6516628, "tags": {"addr:district": "Bengaluru Urban", "addr:full": "HRBR Layout, Kalyan Nagar, Bengaluru", "addr:postcode": "560043", "addr:state": "Karnataka", "amenity": "hospital", "name": "Ovum Birthing Centre", "source": "Local Knowledge"}}, {"type": "node", "id": 7577248224, "lat": 13.0528211, "lon": 77.6041042, "tags": {"addr:district": "Bengaluru Urban", "addr:full": "Hebbal Kempapura, Bengaluru", "addr:postcode": "560024", "addr:state": "Karnataka", "amenity": "hospital", "check_date": "2024-07-08", "name": "Icon Hospital", "source": "Local Knowledge"}}, {"type": "node", "id": 7577248227, "lat": 13.0283463, "lon": 77.6298629, "tags": {"addr:district": "Bengaluru Urban", "addr:full": "HBR Layout, Bengaluru", "addr:postcode": "560043", "addr:state": "Karnataka", "amenity": "hospital", "name": "Medicure Hospital", "source": "Local Knowledge"}}, {"type": "node", "id": 7577248235, "lat": 13.0102697, "lon": 77.6525909, "tags": {"addr:district": "Bengaluru Urban", "addr:full": "OMBR Layout, Banaswadi, Bengaluru", "addr:postcode": "560043", "addr:state": "Karnataka", "amenity": "hospital", "name": "Motherhood Women & Children Hospital", "source": "Local Knowledge"}}, {"type": "node", "id": 7577248246, "lat": 13.0263661, "lon": 77.6302142, "tags": {"addr:district": "Bengaluru Urban", "addr:full": "HBR Layout, Kalyan Nagar, Bengaluru", "addr:postcode": "560043", "addr:state": "Karnataka", "amenity": "hospital", "name": "Feran Hospital", "source": "Local Knowledge"}}, {"type": "node", "id": 7577248254, "lat": 13.0166883, "lon": 77.6604049, "tags": {"addr:district": "Bengaluru Urban", "addr:full": "Ramamurthy Nagar, Kuvempu Nagar, Bellandur, Bengaluru", "addr:postcode": "560043", "addr:state": "Karnataka", "amenity": "hospital", "name": "Super Specialty Eye Hospital", "source": "Local Knowledge"}}, {"type": "node", "id": 7577248260, "lat": 13.013761, "lon": 77.648529, "tags": {"addr:district": "Bengaluru Urban", "addr:full": "Balaji Layout, Subbaiahnapalya, Banaswadi, Bengaluru", "addr:postcode": "560043", "addr:state": "Karnataka", "amenity": "hospital", "name": "Endocrine Speciality Centre", "source": "Local Knowledge"}}, {"type": "node", "id": 7577248266, "lat": 13.0188119, "lon": 77.647187, "tags": {"addr:district": "Bengaluru Urban", "addr:full": "HRBR Layout, Banaswadi, Bengaluru", "addr:postcode": "560043", "addr:state": "Karnataka", "amenity": "hospital", "check_date": "2024-08-17", "name": "Anjani Women's Day Care Hospital", "source": "Local Knowledge"}}, {"type": "node", "id": 7577248275, "lat": 13.026989, "lon": 77.6281742, "tags": {"addr:district": "Bengaluru Urban", "addr:full": "HBR Layout, Bengaluru", "addr:postcode": "560043", "addr:state": "Karnataka", "amenity": "hospital", "name": "CDEC Hospital", "source": "Local Knowledge"}}, {"type": "node", "id": 7577248277, "lat": 13.029101, "lon": 77.620568, "tags": {"addr:district": "Bengaluru Urban", "addr:full": "Kadugondanahalli, Bengaluru", "addr:postcode": "560045", "addr:state": "Karnataka", "amenity": "hospital", "name": "Pranam Dental Hospital", "source": "Local Knowledge"}}, {"type": "node", "id": 7577248278, "lat": 13.0109537, "lon": 77.6476418, "tags": {"addr:district": "Bengaluru Urban", "addr:full": "Chikka Banaswadi, Banaswadi, Bengaluru", "addr:postcode": "560043", "addr:state": "Karnataka", "amenity": "hospital", "name": "Milaan Hospital", "source": "Local Knowledge"}}, {"type": "node", "id": 7577248279, "lat": 13.020084, "lon": 77.654053, "tags": {"addr:district": "Bengaluru Urban", "addr:full": "Nanjappa Garden, Horamavu, Bengaluru", "addr:postcode": "560043", "addr:state": "Karnataka", "amenity": "hospital", "name": "Cloudnine Hospital", "source": "Local Knowledge"}}, {"type": "node", "id": 7976310624, "lat": 12.9778121, "lon": 77.6459447, "tags": {"amenity": "hospital", "description": "Cardiac speciality", "name": "Chinmaya Hrudayalaya", "name:kn": "\u0c9a\u0cbf\u0ca8\u0ccd\u0cae\u0caf \u0cb9\u0cc3\u0ca6\u0caf\u0cb2\u0caf"}}, {"type": "node", "id": 8188038706, "lat": 12.9981064, "lon": 77.6008126, "tags": {"addr:full": "79/10, Nandi Durga Rd, Byadarahalli, Benson Town, Bengaluru, Karnataka", "addr:state": "Karnataka", "amenity": "hospital", "name": "Appllo Diagnostic"}}, {"type": "node", "id": 9527967835, "lat": 13.0544507, "lon": 77.6316369, "tags": {"amenity": "hospital", "name": "Shree Manyata Hospitals"}}, {"type": "node", "id": 9573432733, "lat": 12.9903488, "lon": 77.5987889}, {"type": "node", "id": 9573432734, "lat": 12.9902785, "lon": 77.5990326}, {"type": "node", "id": 9573432735, "lat": 12.9898133, "lon": 77.5985954}, {"type": "node", "id": 9573432736, "lat": 12.9896448, "lon": 77.5991001}, {"type": "node", "id": 9573432737, "lat": 12.9903642, "lon": 77.5990625}, {"type": "node", "id": 9573432738, "lat": 12.9902995, "lon": 77.5993397}, {"type": "node", "id": 9573432800, "lat": 12.9906665, "lon": 77.5960736, "tags": {"access": "private", "barrier": "gate"}}, {"type": "node", "id": 9739831278, "lat": 13.0344639, "lon": 77.6291947, "tags": {"amenity": "hospital", "name": "Altius Hospital"}}, {"type": "node", "id": 9810747962, "lat": 12.9829976, "lon": 77.642648}, {"type": "node", "id": 9810747963, "lat": 12.9828156, "lon": 77.6420066}, {"type": "node", "id": 9810747976, "lat": 12.9839127, "lon": 77.6419639}, {"type": "node", "id": 9810747977, "lat": 12.9831269, "lon": 77.641829}, {"type": "node", "id": 9930000936, "lat": 12.9912446, "lon": 77.6019512}, {"type": "node", "id": 9930000946, "lat": 12.991437, "lon": 77.60031}, {"type": "node", "id": 9930000947, "lat": 12.9919906, "lon": 77.6006729}, {"type": "node", "id": 9930000981, "lat": 12.9893367, "lon": 77.6021245}, {"type": "node", "id": 9930000982, "lat": 12.9895824, "lon": 77.6023713}, {"type": "node", "id": 9930000983, "lat": 12.9895903, "lon": 77.6027387}, {"type": "node", "id": 9930000984, "lat": 12.9899405, "lon": 77.6027763}, {"type": "node", "id": 9930000985, "lat": 12.9898051, "lon": 77.6017436}, {"type": "node", "id": 10293175809, "lat": 12.9842688, "lon": 77.6452734, "tags": {"artwork_type": "mural", "name": "Freedom Wall", "support": "wall", "tourism": "artwork", "website": "https://freedomwall.in"}}, {"type": "node", "id": 10688570445, "lat": 13.0398699, "lon": 77.6405164}, {"type": "node", "id": 10688570446, "lat": 13.0398782, "lon": 77.6408677}, {"type": "node", "id": 10688570448, "lat": 13.0404638, "lon": 77.6405016}, {"type": "node", "id": 10731125349, "lat": 13.048083, "lon": 77.628791, "tags": {"amenity": "hospital", "name": "Suraksha Hospital"}}, {"type": "node", "id": 10761493357, "lat": 12.983533, "lon": 77.5992254}, {"type": "node", "id": 10761493358, "lat": 12.9841666, "lon": 77.5993902}, {"type": "node", "id": 10792855174, "lat": 12.9823029, "lon": 77.6058903}, {"type": "node", "id": 10991475068, "lat": 12.9851468, "lon": 77.6440742, "tags": {"access": "private", "barrier": "gate"}}, {"type": "node", "id": 10996542240, "lat": 12.9837528, "lon": 77.603725, "tags": {"access": "destination", "barrier": "gate"}}, {"type": "node", "id": 10996542241, "lat": 12.9826988, "lon": 77.603454, "tags": {"access": "destination", "barrier": "gate"}}, {"type": "node", "id": 11010175807, "lat": 12.9914487, "lon": 77.5948223, "tags": {"access": "private", "barrier": "gate"}}, {"type": "node", "id": 11096882147, "lat": 12.9952928, "lon": 77.5940646}, {"type": "node", "id": 11096882148, "lat": 12.9946841, "lon": 77.5937641}, {"type": "node", "id": 11096882149, "lat": 12.9952768, "lon": 77.5937207}, {"type": "node", "id": 11272209797, "lat": 12.9782618, "lon": 77.6435889, "tags": {"amenity": "hospital", "check_date": "2023-10-18", "healthcare": "hospital", "healthcare:speciality": "gynaecology", "name": "Ayaans Hospital", "wheelchair": "yes"}}, {"type": "node", "id": 11282630686, "lat": 12.9918951, "lon": 77.6010779, "tags": {"access": "private", "barrier": "gate"}}, {"type": "node", "id": 11684501144, "lat": 12.9774449, "lon": 77.6271297, "tags": {"amenity": "hospital", "check_date": "2024-03-02", "healthcare": "hospital", "name": "Span Health Center"}}, {"type": "node", "id": 11710491602, "lat": 12.9778346, "lon": 77.6282837, "tags": {"amenity": "hospital", "check_date": "2024-03-10", "description": "Multi-speciality hospital", "healthcare": "hospital", "name": "Uvin Care Hospital"}}, {"type": "node", "id": 11853321328, "lat": 12.9971683, "lon": 77.6145878, "tags": {"amenity": "hospital", "check_date": "2024-04-27", "healthcare": "hospital", "name": "Aspire Hospital"}}, {"type": "node", "id": 12067529023, "lat": 12.9820285, "lon": 77.6047429}, {"type": "node", "id": 12067529024, "lat": 12.9819447, "lon": 77.6050474}, {"type": "node", "id": 12067529025, "lat": 12.9820807, "lon": 77.6050937}, {"type": "node", "id": 12067529026, "lat": 12.981955, "lon": 77.6055304}, {"type": "node", "id": 12067529031, "lat": 12.9824951, "lon": 77.6057117}, {"type": "node", "id": 12067529032, "lat": 12.9823675, "lon": 77.6056758}, {"type": "node", "id": 12112489582, "lat": 12.9841004, "lon": 77.599398}, {"type": "node", "id": 12122658686, "lat": 12.9907036, "lon": 77.5953034}, {"type": "node", "id": 12136946782, "lat": 12.982774, "lon": 77.6455771}, {"type": "node", "id": 12136946783, "lat": 12.9833761, "lon": 77.6454557}, {"type": "node", "id": 12136946786, "lat": 12.9835195, "lon": 77.6454337}, {"type": "node", "id": 12136946790, "lat": 12.9826492, "lon": 77.645609}, {"type": "node", "id": 12328206024, "lat": 12.9788544, "lon": 77.6380101}, {"type": "node", "id": 12455537849, "lat": 13.0224904, "lon": 77.6580052}, {"type": "node", "id": 12460939644, "lat": 12.9962739, "lon": 77.6075693, "tags": {"amenity": "hospital", "check_date": "2024-12-29", "healthcare": "hospital", "name": "Gawai Hospital", "wheelchair": "yes"}}, {"type": "node", "id": 12498576269, "lat": 12.9826309, "lon": 77.6034871}, {"type": "node", "id": 12498576270, "lat": 12.982755, "lon": 77.6034267}, {"type": "node", "id": 12498576271, "lat": 12.9837207, "lon": 77.60362}, {"type": "node", "id": 12498576272, "lat": 12.9837175, "lon": 77.6036742}, {"type": "node", "id": 12498576273, "lat": 12.9837907, "lon": 77.6037794}, {"type": "node", "id": 12498576274, "lat": 12.9838266, "lon": 77.6037969}, {"type": "node", "id": 12498576310, "lat": 12.9840546, "lon": 77.6038183}, {"type": "node", "id": 12498576311, "lat": 12.9840109, "lon": 77.6053016}, {"type": "node", "id": 12498576312, "lat": 12.9821434, "lon": 77.6043621}, {"type": "node", "id": 12629746512, "lat": 12.9840951, "lon": 77.6002539}, {"type": "node", "id": 12629746513, "lat": 12.9839828, "lon": 77.6001491}, {"type": "node", "id": 12629746514, "lat": 12.9835548, "lon": 77.6000109}, {"type": "node", "id": 12629746515, "lat": 12.9834433, "lon": 77.6003587}, {"type": "node", "id": 12691255838, "lat": 12.9898389, "lon": 77.6017623}, {"type": "node", "id": 12691255839, "lat": 12.9898901, "lon": 77.6018019}, {"type": "node", "id": 12691255840, "lat": 12.9899037, "lon": 77.6018344}, {"type": "node", "id": 12848276816, "lat": 13.0404721, "lon": 77.6408529}, {"type": "node", "id": 12959840781, "lat": 13.0170153, "lon": 77.6429262, "tags": {"amenity": "hospital", "check_date": "2025-06-29", "healthcare": "hospital", "name": "Trilife Hospital", "name:en": "Trilife Hospital", "operator:type": "private"}}, {"type": "node", "id": 13014786037, "lat": 12.9887325, "lon": 77.5949463}, {"type": "node", "id": 13014786038, "lat": 12.9887147, "lon": 77.5949291}, {"type": "node", "id": 13014786039, "lat": 12.9887296, "lon": 77.5949119}, {"type": "node", "id": 13014786040, "lat": 12.9886266, "lon": 77.5948203}, {"type": "node", "id": 13014786041, "lat": 12.988631, "lon": 77.5948153}, {"type": "node", "id": 13014786042, "lat": 12.988471, "lon": 77.5946741}, {"type": "node", "id": 13014786043, "lat": 12.9884672, "lon": 77.5946788}, {"type": "node", "id": 13014786044, "lat": 12.9883688, "lon": 77.5945907}, {"type": "node", "id": 13014786045, "lat": 12.9883723, "lon": 77.5945864}, {"type": "node", "id": 13065064242, "lat": 13.0202419, "lon": 77.6516186, "tags": {"amenity": "hospital", "healthcare": "hospital", "name": "Motherhood"}}, {"type": "node", "id": 13072628554, "lat": 13.0058328, "lon": 77.6597392, "tags": {"amenity": "hospital", "check_date": "2025-08-15", "healthcare": "hospital", "name": "NASA Hospitals"}}, {"type": "node", "id": 13121609123, "lat": 12.9827879, "lon": 77.6455745}, {"type": "node", "id": 13164592436, "lat": 13.0219385, "lon": 77.6385853, "tags": {"addr:city": "Bangalore", "addr:district": "Bengaluru Urban", "addr:housenumber": "426", "addr:postcode": "560043", "addr:street": "CMR Main Rd, 3rd Cross,2nd Block HRBR Layout, Kalyan nagar", "amenity": "hospital", "healthcare": "hospital", "name": "Bangalore Orthopeadic And Surgical Hospital", "operator": "Novosalus Technology", "operator:type": "private"}}, {"type": "node", "id": 13245257135, "lat": 12.9851186, "lon": 77.6439901}, {"type": "node", "id": 13361644709, "lat": 12.9900245, "lon": 77.5986505}, {"type": "way", "id": 35133587, "nodes": [412118172, 3369905596, 412118174, 412118175, 412118177, 412118172], "tags": {"amenity": "hospital", "emergency": "yes", "healthcare": "hospital", "name": "Chinmaya Mission Hospital", "name:kn": "\u0c9a\u0cbf\u0ca8\u0ccd\u0cae\u0caf \u0cae\u0cbf\u0cb7\u0ca8\u0ccd \u0c86\u0cb8\u0ccd\u0caa\u0ca4\u0ccd\u0cb0\u0cc6", "phone": "+91 80 2502 6100", "website": "https://www.chinmayamission.com/what-we-do/institutes/chinmaya-mission-hospital-chinmaya-mission-of-nursing/", "wheelchair": "yes"}}, {"type": "way", "id": 45185764, "nodes": [573420981, 573420982, 11010175807, 12122658686, 573420983, 9573432800, 573420984, 1707859921, 1707859950, 573420981], "tags": {"amenity": "hospital", "emergency": "yes", "healthcare": "hospital", "name": "Bhagwan Mahaveer Jain Hospital", "name:etymology:wikidata": "Q9422", "name:kn": "\u0cad\u0c97\u0cb5\u0cbe\u0ca8\u0ccd \u0cae\u0cb9\u0cbe\u0cb5\u0cc0\u0cb0 \u0c9c\u0cc8\u0ca8 \u0c86\u0cb8\u0ccd\u0caa\u0ca4\u0ccd\u0cb0\u0cc6", "toilets:wheelchair": "yes", "wheelchair": "yes"}}, {"type": "way", "id": 45444044, "nodes": [12498576271, 578143360, 3942993148, 12498576270, 10996542241, 12498576269, 1517317433, 1517317453, 578143367, 3942993142, 12498576312, 12067529023, 12067529024, 12067529025, 12067529026, 4030269686, 10792855174, 12067529032, 12067529031, 4030269688, 578143351, 12498576311, 578143354, 1837634259, 12498576310, 578143356, 12498576274, 12498576273, 10996542240, 12498576272, 12498576271], "tags": {"addr:city": "Shivaji Nagar, Bangalore", "addr:district": "Bengaluru Urban", "addr:full": "Lady Curzon Road, Shivaji Nagar", "addr:postcode": "560001", "addr:state": "Karnataka", "addr:street": "Lady Curzon Road", "amenity": "hospital", "fax": "+91-80-25591325", "healthcare": "hospital", "healthcare:speciality": "Bio-Chemistry; Cardiology; Cardiothoracic Surgery; Dermatology; ENT; General Medicine; General Surgery; Micro-Biology; Neurology; Ophthalmology; Orthopedics Pathology; Pediatric Surgery; Plastic Surgery; Psychiatry; Pulmonology; Radio-Diagnosis;", "name": "Bowring and Lady Curzon Hospitals", "name:kn": "\u0cac\u0ccc\u0cb0\u0cbf\u0c82\u0c97\u0ccd \u0c86\u0cb8\u0ccd\u0caa\u0ca4\u0ccd\u0cb0\u0cc6", "official_name": "Shri Atal Bihari Vajpayee Medical College and Research Institution", "operator:type": "government", "phone": "+91-80-25591325", "source": "OpenGovernmentData", "website": "https://sabvmcri.karnataka.gov.in/"}}, {"type": "way", "id": 52063534, "nodes": [12629746512, 4676566777, 663596614, 10761493358, 12112489582, 10761493357, 663596615, 12629746515, 12629746514, 12629746513, 12629746512], "tags": {"addr:city": "Shivaji Nagar, Bangalore", "addr:street": "Venkataswamy Naidu Road", "amenity": "hospital", "healthcare": "hospital", "heritage": "2", "heritage:operator": "nmma", "heritage:website": "https://nmma.nic.in/nmma/exploreBuiltState.do?state=29", "name": "Sir Haji Ismail Gosha Sait Hospital", "name:etymology:wikidata": "Q6084847", "name:kn": "\u0cb8\u0cb0\u0ccd \u0cb9\u0cbe\u0c9c\u0cbf \u0c87\u0cb8\u0ccd\u0cae\u0cc8\u0cb2\u0ccd \u0c97\u0cca\u0cb6 \u0cb8\u0cc8\u0c9f\u0ccd \u0c86\u0cb8\u0ccd\u0caa\u0ca4\u0ccd\u0cb0\u0cc6", "ref:nmma": "KR20010684"}}, {"type": "way", "id": 124760551, "nodes": [1387523823, 1387523809, 1387523802, 1307598703, 1387523823], "tags": {"addr:city": "Bangalore", "addr:district": "Bengaluru Urban", "addr:full": "# 146, Infantry Road, Prestige Opal Building, Opp Police Commissioners Office", "addr:postcode": "560001", "addr:state": "Karnataka", "addr:street": "Infantry Road", "amenity": "hospital", "name": "Sparsh Hospital For Advanced Surgeries, Bengaluru Urban", "name:kn": "\u0cb8\u0ccd\u0caa\u0cb0\u0ccd\u0cb6\u0ccd \u0c86\u0cb8\u0ccd\u0caa\u0ca4\u0ccd\u0cb0\u0cc6", "source": "OpenGovernmentData", "website": "https://www.sparshhospital.com/", "wheelchair": "yes"}}, {"type": "way", "id": 135266042, "nodes": [1485676585, 3387829045, 1485676597, 1485676614, 1485676618, 12136946786, 12136946783, 13121609123, 12136946782, 12136946790, 1485676590, 3387829040, 3387829037, 1485676585], "tags": {"amenity": "hospital", "healthcare": "hospital", "name": "Indiranagar Government Hospital", "name:kn": "\u0c87\u0c82\u0ca6\u0cbf\u0cb0\u0cbe\u0ca8\u0c97\u0cb0 \u0cb8\u0cb0\u0ccd\u0c95\u0cbe\u0cb0\u0cbf \u0c86\u0cb8\u0ccd\u0caa\u0ca4\u0ccd\u0cb0\u0cc6"}}, {"type": "way", "id": 135266057, "nodes": [1485676630, 3529770859, 3529770822, 1757078875, 9810747976, 9810747977, 1485676611, 9810747963, 9810747962, 4506781918, 1485676597, 1485676614, 1485676618, 10293175809, 4637262006, 4637262012, 4637262020, 1485676644, 4637262033, 10991475068, 13245257135, 3726120790, 3726120789, 1485676630], "tags": {"amenity": "hospital", "healthcare": "hospital", "name": "Isolation Hospital", "name:kn": "\u0c90\u0cb8\u0cca\u0cb2\u0cc7\u0cb6\u0ca8\u0ccd \u0c86\u0cb8\u0ccd\u0caa\u0ca4\u0ccd\u0cb0\u0cc6"}}, {"type": "way", "id": 135270813, "nodes": [1808798847, 5519076232, 5519076233, 7389425948, 5519077417, 5519077420, 1485730724, 7389425963, 1485730740, 1485730758, 1757090498, 1485730732, 5519077349, 1808798844, 1808798847], "tags": {"addr:district": "Bengaluru Urban", "addr:full": "Old Madras Road", "addr:postcode": "560002", "addr:state": "Karnataka", "amenity": "hospital", "name": "Epidemic Disesase Hospital", "source": "OpenGovernmentData"}}, {"type": "way", "id": 160906231, "nodes": [1611862042, 1611862023, 1611862066, 1611862035, 1611862042], "tags": {"addr:district": "Bengaluru Urban", "addr:full": "Kirloskar Business Park, Bellary Road Hebbal", "addr:postcode": "560024", "addr:state": "Karnataka", "alt_name": "Columbia Asia Hospital", "amenity": "hospital", "emergency": "yes", "healthcare": "hospital", "name": "Manipal Hospital", "name:kn": "\u0c95\u0cca\u0cb2\u0c82\u0cac\u0cbf\u0caf \u0c8f\u0cb7\u0ccd\u0caf\u0cbe \u0c86\u0cb8\u0ccd\u0caa\u0ca4\u0ccd\u0cb0\u0cc6", "source": "OpenGovernmentData"}}, {"type": "way", "id": 164048206, "nodes": [1485730758, 1757090498, 1485730732, 1757090496, 1485730758], "tags": {"amenity": "hospital", "check_date": "2025-12-10", "emergency": "no", "name": "Isolation Hospital", "name:kn": "\u0c90\u0cb8\u0cca\u0cb2\u0cc7\u0cb6\u0ca8\u0ccd \u0c86\u0cb8\u0ccd\u0caa\u0ca4\u0ccd\u0cb0\u0cc6"}}, {"type": "way", "id": 256940540, "nodes": [12455537849, 2625606675, 2625606677, 2625606671, 12455537849], "tags": {"addr:district": "Bengaluru Urban", "addr:full": "No. 66, 9Th Main , Horamavu Post Horamavu Main Road Banaswadi", "addr:postcode": "560043", "addr:state": "Karnataka", "amenity": "hospital", "building": "yes", "emergency": "yes", "name": "Nmpc Hospital", "source": "OpenGovernmentData"}}, {"type": "way", "id": 325436710, "nodes": [3320950154, 3320950153, 3320950160, 491504267, 13014786045, 13014786044, 13014786043, 13014786042, 13014786041, 13014786040, 13014786039, 13014786038, 13014786037, 3320950154], "tags": {"addr:city": "Bengaluru", "addr:district": "Bengaluru Urban", "addr:full": "14, Cunningham Road", "addr:postcode": "560052", "addr:state": "Karnataka", "addr:street": "Cunningham Road", "amenity": "hospital", "emergency": "yes", "healthcare": "hospital", "name": "Fortis Hospitals Limited, Bengaluru Urban", "name:kn": "\u0cab\u0ccb\u0cb0\u0ccd\u0c9f\u0cbf\u0cb8\u0ccd \u0c86\u0cb8\u0ccd\u0caa\u0ca4\u0ccd\u0cb0\u0cc6", "operator": "Fortis", "operator:type": "private", "source": "OpenGovernmentData", "website": "https://www.fortishealthcare.com/"}}, {"type": "way", "id": 328758432, "nodes": [3355835859, 3355835861, 3355835860, 3355835858, 3355835859], "tags": {"amenity": "hospital", "name": "ESI Hospital", "name:kn": "\u0c87\u0c8e\u0cb8\u0ccd\u0c90 \u0c86\u0cb8\u0ccd\u0caa\u0ca4\u0ccd\u0cb0\u0cc6"}}, {"type": "way", "id": 331365081, "nodes": [12328206024, 3384244323, 3384244314, 3384244312, 12328206024], "tags": {"addr:housenumber": "4", "addr:street": "12th Cross", "amenity": "hospital", "building": "yes", "healthcare": "hospital", "name": "Milann Fertility Center"}}, {"type": "way", "id": 345954862, "nodes": [3525674091, 3525674209, 3525674205, 3525674088, 3525674091], "tags": {"addr:district": "Bengaluru Urban", "addr:full": "No 1 Moore Market Square, Bourdillon Road, Fraser Town", "addr:postcode": "560005", "addr:state": "Karnataka", "amenity": "hospital", "building": "yes", "name": "Annasawmy Mudaliar General Hospital", "name:kn": "\u0c85\u0ca3\u0ccd\u0ca3\u0cb8\u0ccd\u0cb5\u0cbe\u0cae\u0cbf \u0cae\u0cca\u0ca6\u0cb2\u0cbf\u0caf\u0cbe\u0cb0\u0ccd", "source": "OpenGovernmentData"}}, {"type": "way", "id": 346521829, "nodes": [3530356415, 3530356413, 3530356274, 3530356277, 3530356415], "tags": {"addr:postcode": "560043", "addr:street": "2nd Cross Road", "amenity": "hospital", "building:levels": "2", "healthcare": "hospital", "name": "Indicus"}}, {"type": "way", "id": 347120731, "nodes": [3535296279, 3535296282, 3535296238, 3535296231, 3535296279], "tags": {"amenity": "hospital", "building": "yes", "healthcare": "hospital", "name": "MS Diabetes Speciality Center"}}, {"type": "way", "id": 350750824, "nodes": [3565016652, 5112227907, 3565016653, 3565016647, 3565016646, 3565016652], "tags": {"addr:postcode": "560043,", "addr:street": "8th Main Road (west)", "amenity": "hospital", "check_date": "2024-09-18", "name": "Ovum Hospitals"}}, {"type": "way", "id": 363870191, "nodes": [3679885236, 3679885235, 3679885227, 3679885229, 3679885236], "tags": {"addr:postcode": "560043", "addr:street": "8th E Main Road", "amenity": "hospital", "healthcare": "hospital", "healthcare:speciality": "general", "name": "Sharada Medicals"}}, {"type": "way", "id": 400480962, "nodes": [9930000946, 4030279578, 4030279577, 4030279576, 4030279575, 9930000936, 4030279580, 4030279582, 11282630686, 4030279585, 9930000947, 9930000946], "tags": {"addr:district": "Bengaluru Urban", "addr:full": "Post Bag No.4, No.2, Hazarat Kambal Posh Road", "addr:postcode": "560051", "addr:state": "Karnataka", "amenity": "hospital", "contact:email": "info@csihospitalblr.org", "contact:phone": "080 22861103", "healthcare": "hospital", "name": "CSI Hospital", "name:kn": "\u0cb8\u0cbf \u0c8e\u0cb8\u0ccd \u0c90 \u0c86\u0cb8\u0ccd\u0caa\u0ca4\u0ccd\u0cb0\u0cc6", "source": "OpenGovernmentData", "website": "http://csihospitalblr.org"}}, {"type": "way", "id": 512626192, "nodes": [5012445075, 1838375769, 5012445074, 5012445073, 5012445076, 5012445075], "tags": {"addr:district": "Bengaluru Urban", "addr:full": "Cunnigham Road, 2nd Cross No:3", "addr:postcode": "560001", "addr:state": "Karnataka", "amenity": "hospital", "name": "Al-Ameen Hospital", "name:kn": "\u0c86\u0cb2\u0ccd-\u0c86\u0cae\u0cc0\u0ca8\u0ccd \u0c86\u0cb8\u0ccd\u0caa\u0ca4\u0ccd\u0cb0\u0cc6", "source": "OpenGovernmentData"}}, {"type": "way", "id": 535587224, "nodes": [5190893411, 5190893410, 5190893409, 5190893408, 5190893411], "tags": {"amenity": "hospital", "building": "yes", "building:levels": "6", "healthcare": "hospital", "name": "Life Hospital"}}, {"type": "way", "id": 772203209, "nodes": [7208904023, 7208904022, 7208904021, 7208904020, 7208904023], "tags": {"addr:city": "Bangalore", "addr:country": "IN", "addr:hamlet": "Grace Town", "addr:housenumber": "1", "addr:postcode": "560043", "addr:street": "Hennur Main Road", "addr:suburb": "Kalyan Nagar", "alt_name": "People Tree Hospitals@chris", "amenity": "hospital", "building": "hospital", "email": "info@chrishospital.com", "healthcare": "hospital", "name": "HOSMAT Hospital, Kalyan Nagar", "old_name": "Hosmat Hospital", "website": "https://hosmathospitals.com", "wheelchair": "yes"}}, {"type": "way", "id": 796370470, "nodes": [7448002910, 7448002905, 7448002906, 7448002907, 7448002910], "tags": {"amenity": "hospital", "name": "ITI General Hospital"}}, {"type": "way", "id": 796374051, "nodes": [7448009623, 7448009622, 3334054156, 3334054177, 3334054158, 7448009623], "tags": {"addr:district": "Bengaluru", "addr:full": "Munireddypalya, J.C.Nagar, Bengaluru", "addr:postcode": "560006", "addr:state": "Karnataka", "amenity": "hospital", "name": "JC Nagar Municipal Hospital", "source": "OpenGovernmentData"}}, {"type": "way", "id": 1039668732, "nodes": [9573432736, 9573432738, 9573432737, 9573432734, 9573432733, 13361644709, 9573432735, 9573432736], "tags": {"addr:district": "Bengaluru Urban", "addr:full": "Queens Road", "addr:state": "Karnataka", "addr:street": "Queen's Road", "amenity": "hospital", "name": "Shifa Hospital, Bengaluru Urban", "name:kn": "\u0cb6\u0cbf\u0cab\u0cbe \u0c86\u0cb8\u0ccd\u0caa\u0ca4\u0ccd\u0cb0\u0cc6", "operator:type": "private", "source": "OpenGovernmentData", "website": "http://dpal.kar.nic.in/Kanunu%20padakosha%20PDF%20Files/Recognised%20Hospitals.pdf"}}, {"type": "way", "id": 1083566607, "nodes": [9930000985, 12691255838, 12691255839, 12691255840, 9930000984, 9930000983, 9930000982, 9930000981, 9930000985], "tags": {"amenity": "hospital", "healthcare": "hospital", "name": "Charaka Super Speciality Hospital", "official_name": "Sri Atal Bihari Vajpayee Medical College and Research Institute", "official_name:etymology:wikidata": "Q233289"}}, {"type": "way", "id": 1148876100, "nodes": [12848276816, 10688570446, 10688570445, 10688570448, 12848276816], "tags": {"amenity": "hospital", "building": "hospital", "building:levels": "7", "building:levels:underground": "3", "height": "29.85", "name": "Sparsh Hospital, Hennur", "operator": "Sparsh Hospital"}}, {"type": "way", "id": 1195581196, "nodes": [11096882149, 2247460571, 11096882148, 11096882147, 11096882149], "tags": {"amenity": "hospital", "name": "BBMP Hospital", "name:kn": "\u0cac\u0cc3. \u0cac\u0cc6\u0c82. \u0cae. \u0caa\u0cbe. \u0c86\u0cb8\u0ccd\u0caa\u0ca4\u0ccd\u0cb0\u0cc6"}}]}