{"version": 0.6, "generator": "Overpass API 0.7.62.8 e802775f", "osm3s": {"timestamp_osm_base": "2026-01-12T06:19:26Z", "copyright": "The data included in this document is from www.openstreetmap.org. The data is made available under ODbL."}, "elements": [{"type": "node", "id": 6935224405, "lat": 13.1652175, "lon": 80.3032967, "tags": {"addr:district": "Tiruvallur", "addr:full": "#349, ,Thiruvottiyur High Road,Thiruvottiyur", "addr:postcode": "600019", "addr:state": "Tamil Nadu", "amenity": "hospital", "healthcare": "hospital", "name": "Sugam Hospital, Tiruvallur", "source": "OpenGovernmentData"}}, {"type": "node", "id": 6936294078, "lat": 13.1665521, "lon": 80.3043053, "tags": {"addr:district": "Tiruvallur", "addr:full": "No 727 To 730, T H Road, T S R Nagar,Thiruvottiyur Chennai", "addr:postcode": "600019", "addr:state": "Tamil Nadu", "amenity": "hospital", "healthcare": "hospital", "name": "Karthik Hospital", "source": "OpenGovernmentData"}}, {"type": "node", "id": 6937109075, "lat": 13.1694824, "lon": 80.304324, "tags": {"addr:district": "Tiruvallur", "addr:full": "T H Road", "addr:postcode": "600019", "addr:state": "Tamil Nadu", "amenity": "hospital", "healthcare": "hospital", "healthcare:speciality": "multi speciality", "name": "Aakash Hospital, Tiruvallur", "source": "OpenGovernmentData"}}, {"type": "node", "id": 7181795816, "lat": 13.1738112, "lon": 80.294082, "tags": {"addr:district": "Tiruvallur", "addr:full": "No-04, Annai Gangammal Nagar, Satiamurhu Nagar, Thiruvattiyur", "addr:postcode": "600019", "addr:state": "Tamil Nadu", "amenity": "hospital", "healthcare": "hospital", "name": "Vasantha Hospital", "source": "OpenGovernmentData"}}, {"type": "node", "id": 7252256194, "lat": 13.1685958, "lon": 80.3042862, "tags": {"addr:district": "Thiruvallur", "addr:full": "Thiruvotriyur Market, Chennai, No.349,Thiruvotriyur High Road, Thiruvotriyur, Chennai- 600 019", "addr:postcode": "600019", "addr:state": "Tamil Nadu", "amenity": "hospital", "healthcare": "hospital", "name": "Sugam Hospital", "source": "OpenGovernmentData"}}, {"type": "node", "id": 7818702393, "lat": 13.165259, "lon": 80.25871, "tags": {"addr:district": "Tiruvallur", "addr:full": "Vimlapuram, Chinnasekkadu, Manali", "addr:postcode": "600068", "addr:state": "Tamil Nadu", "amenity": "hospital", "healthcare": "hospital", "name": "Sankara Eye Hospital", "source": "Local Knowledge"}}]}