{"version": 0.6, "generator": "Overpass API 0.7.62.8 e802775f", "osm3s": {"timestamp_osm_base": "2026-01-16T02:11:55Z", "copyright": "The data included in this document is from www.openstreetmap.org. The data is made available under ODbL."}, "elements": [{"type": "node", "id": 310281276, "lat": 46.5522759, "lon": 6.6687815, "tags": {"bus": "yes", "ele": "795", "name": "Biolleyre", "operator": "TL", "public_transport": "stop_position", "uic_name": "Epalinges, Biolleyre", "uic_ref": "8591963"}}, {"type": "node", "id": 395603225, "lat": 46.5530405, "lon": 6.6937329, "tags": {"bench": "no", "bin": "no", "bus": "yes", "ele": "832", "highway": "bus_stop", "name": "Molliettes", "network": "Mobilis", "network:wikidata": "Q2394222", "operator": "TL", "public_transport": "platform", "shelter": "no", "tactile_paving": "no", "uic_name": "Lausanne, Molliettes", "uic_ref": "8592073"}}, {"type": "node", "id": 395603227, "lat": 46.5530339, "lon": 6.6935461, "tags": {"bus": "yes", "ele": "832", "highway": "bus_stop", "name": "Molliettes", "network": "Mobilis", "network:wikidata": "Q2394222", "operator": "TL", "public_transport": "platform", "uic_name": "Lausanne, Molliettes", "uic_ref": "8592073"}}, {"type": "node", "id": 395603229, "lat": 46.5546291, "lon": 6.6947152, "tags": {"bench": "yes", "bin": "yes", "bus": "yes", "ele": "839", "highway": "bus_stop", "lit": "yes", "name": "Vers-chez-les-Blanc", "network": "Mobilis", "network:wikidata": "Q2394222", "operator": "TL", "public_transport": "platform", "shelter": "yes", "tactile_paving": "no", "uic_name": "Lausanne, Vers-chez-les-Blanc", "uic_ref": "8587548"}}, {"type": "node", "id": 395603236, "lat": 46.5586885, "lon": 6.6967357, "tags": {"bench": "no", "bin": "no", "bus": "yes", "ele": "866", "highway": "bus_stop", "lit": "no", "name": "Chevreuils", "network": "Mobilis", "network:wikidata": "Q2394222", "operator": "TL", "public_transport": "platform", "shelter": "no", "tactile_paving": "no", "uic_name": "Lausanne, Chevreuils", "uic_ref": "8592015"}}, {"type": "node", "id": 395603239, "lat": 46.5585474, "lon": 6.6966986, "tags": {"bench": "no", "bin": "yes", "bus": "yes", "ele": "866", "highway": "bus_stop", "lit": "yes", "name": "Chevreuils", "network": "Mobilis", "network:wikidata": "Q2394222", "operator": "TL", "public_transport": "platform", "shelter": "yes", "tactile_paving": "no", "uic_name": "Lausanne, Chevreuils", "uic_ref": "8592015"}}, {"type": "node", "id": 395603240, "lat": 46.5603204, "lon": 6.6965016, "tags": {"bench": "yes", "bin": "yes", "bus": "yes", "ele": "873", "highway": "bus_stop", "name": "Praz-Collet", "network": "Mobilis", "network:short": "CTV", "network:wikidata": "Q2394222", "operator": "TL", "public_transport": "platform", "shelter": "yes", "uic_name": "Lausanne, Praz-Collet", "uic_ref": "8592100"}}, {"type": "node", "id": 395603241, "lat": 46.5600593, "lon": 6.6963043, "tags": {"bus": "yes", "ele": "873", "highway": "bus_stop", "name": "Praz-Collet", "network": "Mobilis", "network:short": "CTV", "network:wikidata": "Q2394222", "operator": "TL", "public_transport": "platform", "shelter": "yes", "uic_name": "Lausanne, Praz-Collet", "uic_ref": "8592100"}}, {"type": "node", "id": 395603244, "lat": 46.5648641, "lon": 6.6934112, "tags": {"bench": "yes", "bin": "yes", "bus": "yes", "ele": "861", "highway": "bus_stop", "name": "Chalet-\u00e0-Gobet/Jorat", "network": "Mobilis", "network:short": "CTV", "network:wikidata": "Q2394222", "operator": "TL", "public_transport": "platform", "shelter": "yes", "tactile_paving": "no", "uic_name": "Lausanne, Chalet-\u00e0-Gobet/Jorat", "uic_ref": "8509491"}}, {"type": "node", "id": 395603246, "lat": 46.5648877, "lon": 6.6935599, "tags": {"bench": "no", "bin": "no", "bus": "yes", "ele": "861", "highway": "bus_stop", "lit": "no", "name": "Chalet-\u00e0-Gobet/Jorat", "network": "Mobilis", "network:short": "CTV", "network:wikidata": "Q2394222", "operator": "TL", "public_transport": "platform", "shelter": "no", "tactile_paving": "no", "uic_name": "Lausanne, Chalet-\u00e0-Gobet/Jorat", "uic_ref": "8509491"}}, {"type": "node", "id": 395603370, "lat": 46.564586, "lon": 6.6888533, "tags": {"bench": "no", "bin": "no", "ele": "858", "highway": "bus_stop", "name": "Mauvernay", "operator": "TL", "public_transport": "platform", "shelter": "no", "tactile_paving": "no", "uic_name": "Lausanne, Mauvernay", "uic_ref": "8592070"}}, {"type": "node", "id": 395603372, "lat": 46.5645143, "lon": 6.6889632, "tags": {"bench": "yes", "bin": "yes", "ele": "858", "highway": "bus_stop", "name": "Mauvernay", "operator": "TL", "public_transport": "platform", "shelter": "yes", "tactile_paving": "no", "uic_name": "Lausanne, Mauvernay", "uic_ref": "8592070"}}, {"type": "node", "id": 418016505, "lat": 46.5520052, "lon": 6.6812112, "tags": {"ele": "785", "highway": "bus_stop", "name": "Lion d'Or", "operator": "TL", "public_transport": "platform", "uic_name": "Epalinges, Lion d'Or", "uic_ref": "8587546"}}, {"type": "node", "id": 418016507, "lat": 46.5610583, "lon": 6.6855385, "tags": {"bench": "no", "bus": "yes", "ele": "854", "highway": "bus_stop", "name": "Vert-Bois/EHL", "operator": "TL", "public_transport": "platform", "shelter": "no", "uic_name": "Lausanne, Vert-Bois/EHL", "uic_ref": "8592130"}}, {"type": "node", "id": 418016587, "lat": 46.5511406, "lon": 6.6912821, "tags": {"bus": "yes", "ele": "809", "highway": "bus_stop", "name": "Chalet \u00e0 Matthey", "network": "Mobilis", "network:wikidata": "Q2394222", "operator": "TL", "public_transport": "platform", "shelter": "yes", "uic_name": "Lausanne, Chalet \u00e0 Matthey", "uic_ref": "8587547"}}, {"type": "node", "id": 425709280, "lat": 46.5544622, "lon": 6.6840473, "tags": {"bus": "yes", "ele": "826", "name": "Grand Chemin", "network": "Mobilis", "network:short": "CTV", "network:wikidata": "Q2394222", "operator": "TL", "public_transport": "stop_position", "uic_name": "Epalinges, Grand Chemin", "uic_ref": "8591968"}}, {"type": "node", "id": 697294931, "lat": 46.5646389, "lon": 6.691738, "tags": {"bench": "yes", "bin": "yes", "ele": "861", "highway": "bus_stop", "name": "Chalet-\u00e0-Gobet", "operator": "TL", "public_transport": "platform", "shelter": "yes", "tactile_paving": "no", "uic_name": "Lausanne, Chalet-\u00e0-Gobet", "uic_ref": "8587929"}}, {"type": "node", "id": 698598069, "lat": 46.5508251, "lon": 6.6913313, "tags": {"bench": "no", "bin": "no", "bus": "yes", "ele": "809", "highway": "bus_stop", "name": "Chalet \u00e0 Matthey", "network": "Mobilis", "network:wikidata": "Q2394222", "operator": "TL", "public_transport": "platform", "shelter": "no", "tactile_paving": "no", "uic_name": "Lausanne, Chalet \u00e0 Matthey", "uic_ref": "8587547"}}, {"type": "node", "id": 983813135, "lat": 46.5548776, "lon": 6.6698546, "tags": {"bench": "yes", "bus": "yes", "ele": "812", "highway": "bus_stop", "lit": "yes", "name": "Ball\u00e8gue", "network": "Mobilis", "operator": "TL", "public_transport": "platform", "shelter": "yes", "tactile_paving": "no", "uic_name": "Epalinges, Ball\u00e8gue", "uic_ref": "8591962"}}, {"type": "node", "id": 983813144, "lat": 46.5527289, "lon": 6.6680246, "tags": {"bus": "yes", "ele": "795", "highway": "bus_stop", "name": "Biolleyre", "operator": "TL", "public_transport": "platform", "uic_name": "Epalinges, Biolleyre", "uic_ref": "8591963"}}, {"type": "node", "id": 983813149, "lat": 46.554426, "lon": 6.6841112, "tags": {"bench": "no", "bus": "yes", "ele": "826", "highway": "bus_stop", "name": "Grand Chemin", "network": "Mobilis", "network:short": "CTV", "network:wikidata": "Q2394222", "operator": "TL", "public_transport": "platform", "shelter": "no", "source": "Bundesamt f\u00fcr Verkehr (BAV), DIDOK 2009", "tactile_paving": "no", "uic_name": "Epalinges, Grand Chemin", "uic_ref": "8591968"}}, {"type": "node", "id": 983813158, "lat": 46.554026, "lon": 6.6655373, "tags": {"bench": "no", "bin": "no", "bus": "yes", "ele": "797", "highway": "bus_stop", "lit": "yes", "name": "Polny", "operator": "TL", "public_transport": "platform", "shelter": "no", "source": "Bundesamt f\u00fcr Verkehr (BAV), DIDOK 2009", "tactile_paving": "no", "uic_name": "Epalinges, Polny", "uic_ref": "8591969"}}, {"type": "node", "id": 983813173, "lat": 46.5507266, "lon": 6.6716106, "tags": {"bus": "yes", "ele": "790", "highway": "bus_stop", "name": "En Praz Bin", "operator": "TL", "public_transport": "platform", "uic_name": "Epalinges, En Praz Bin", "uic_ref": "8591967"}}, {"type": "node", "id": 983813210, "lat": 46.5621129, "lon": 6.6828749, "tags": {"bench": "yes", "bin": "yes", "ele": "850", "highway": "bus_stop", "lit": "no", "name": "Cojonnex/EHL", "operator": "TL", "public_transport": "platform", "shelter": "yes", "tactile_paving": "no", "uic_name": "Lausanne, Cojonnex/EHL", "uic_ref": "8592037"}}, {"type": "node", "id": 983813321, "lat": 46.5546005, "lon": 6.6948494, "tags": {"bench": "yes", "bus": "yes", "ele": "837", "highway": "bus_stop", "name": "Vers-chez-les-Blanc", "network": "Mobilis", "network:wikidata": "Q2394222", "operator": "TL", "public_transport": "platform", "shelter": "yes", "source": "Bundesamt f\u00fcr Verkehr (BAV), DIDOK 2009", "uic_name": "Lausanne, Vers-chez-les-Blanc", "uic_ref": "8587548"}}, {"type": "node", "id": 983813495, "lat": 46.5511615, "lon": 6.6620964, "tags": {"bus": "yes", "ele": "768", "highway": "bus_stop", "name": "Mont\u00e9clard", "network": "Mobilis", "network:wikidata": "Q2394222", "operator": "TL", "public_transport": "platform", "uic_name": "Epalinges, Mont\u00e9clard", "uic_ref": "8593822"}}, {"type": "node", "id": 983813496, "lat": 46.558411, "lon": 6.662646, "tags": {"bus": "yes", "ele": "791", "highway": "bus_stop", "name": "Epalinges, Bois de Ban", "operator": "TL", "public_transport": "platform", "source": "Bundesamt f\u00fcr Verkehr (BAV), DIDOK 2009", "uic_name": "Epalinges, Bois de Ban", "uic_ref": "8593819"}}, {"type": "node", "id": 983813506, "lat": 46.56142, "lon": 6.667207, "tags": {"ele": "809", "highway": "bus_stop", "name": "Epalinges, Pr\u00e8s-les-bois", "operator": "TL", "source": "Bundesamt f\u00fcr Verkehr (BAV), DIDOK 2009", "uic_name": "Epalinges, Pr\u00e8s-les-bois", "uic_ref": "8593825"}}, {"type": "node", "id": 983813512, "lat": 46.552669, "lon": 6.663563, "tags": {"bus": "yes", "ele": "776", "highway": "bus_stop", "name": "Epalinges, Pierraz", "network": "Mobilis", "network:wikidata": "Q2394222", "operator": "TL", "public_transport": "platform", "source": "Bundesamt f\u00fcr Verkehr (BAV), DIDOK 2009", "uic_name": "Epalinges, Pierraz", "uic_ref": "8593823"}}, {"type": "node", "id": 983813518, "lat": 46.556945, "lon": 6.674652, "tags": {"bus": "yes", "ele": "834", "highway": "bus_stop", "name": "Epalinges, Praz-Buchilly", "network": "Mobilis", "network:short": "CTV", "network:wikidata": "Q2394222", "operator": "TL", "public_transport": "platform", "source": "Bundesamt f\u00fcr Verkehr (BAV), DIDOK 2009", "uic_name": "Epalinges, Praz-Buchilly", "uic_ref": "8593824"}}, {"type": "node", "id": 983813601, "lat": 46.553389, "lon": 6.67688, "tags": {"ele": "835", "highway": "bus_stop", "name": "Epalinges, Vuilletaz", "operator": "TL", "source": "Bundesamt f\u00fcr Verkehr (BAV), DIDOK 2009", "uic_name": "Epalinges, Vuilletaz", "uic_ref": "8593828"}}, {"type": "node", "id": 983813646, "lat": 46.5583203, "lon": 6.6812206, "tags": {"bench": "yes", "bus": "yes", "highway": "bus_stop", "lit": "yes", "name": "Vulliette", "network": "Mobilis", "network:short": "CTV", "network:wikidata": "Q2394222", "operator": "TL", "public_transport": "platform", "shelter": "yes", "tactile_paving": "no", "uic_name": "Lausanne, Vulliette", "uic_ref": "8587549"}}, {"type": "node", "id": 1678435053, "lat": 46.553048, "lon": 6.6936467, "tags": {"bus": "yes", "ele": "832", "name": "Molliettes", "network": "Mobilis", "network:wikidata": "Q2394222", "operator": "TL", "public_transport": "stop_position", "uic_name": "Lausanne, Molliettes", "uic_ref": "8592073"}}, {"type": "node", "id": 1942809317, "lat": 46.5649315, "lon": 6.6914901, "tags": {"bench": "yes", "bin": "yes", "ele": "861", "highway": "bus_stop", "name": "Chalet-\u00e0-Gobet", "operator": "TL", "public_transport": "platform", "shelter": "yes", "tactile_paving": "no", "uic_name": "Lausanne, Chalet-\u00e0-Gobet", "uic_ref": "8587929"}}, {"type": "node", "id": 1942809318, "lat": 46.5614243, "lon": 6.6821495, "tags": {"bench": "yes", "highway": "bus_stop", "lit": "yes", "name": "Cojonnex/EHL", "operator": "TL", "public_transport": "platform", "shelter": "yes", "tactile_paving": "no", "uic_name": "Lausanne, Cojonnex/EHL", "uic_ref": "8592037"}}, {"type": "node", "id": 1942809321, "lat": 46.5517952, "lon": 6.6803009, "tags": {"bench": "yes", "covered": "yes", "ele": "785", "highway": "bus_stop", "name": "Lion d'Or", "operator": "TL", "public_transport": "platform", "shelter": "yes", "uic_name": "Epalinges, Lion d'Or", "uic_ref": "8587546"}}, {"type": "node", "id": 1942809322, "lat": 46.5525079, "lon": 6.6828168, "tags": {"bench": "no", "covered": "no", "highway": "bus_stop", "lit": "yes", "name": "Lion d'Or", "operator": "TL", "public_transport": "platform", "shelter": "no", "tactile_paving": "no", "uic_name": "Epalinges, Lion d'Or", "uic_ref": "8587546"}}, {"type": "node", "id": 1942809325, "lat": 46.5576347, "lon": 6.6818775, "tags": {"bus": "yes", "highway": "bus_stop", "name": "Vulliette", "network": "Mobilis", "network:short": "CTV", "network:wikidata": "Q2394222", "operator": "TL", "public_transport": "platform", "uic_name": "Lausanne, Vulliette", "uic_ref": "8587549"}}, {"type": "node", "id": 1946006219, "lat": 46.5522493, "lon": 6.6687526, "tags": {"bus": "yes", "ele": "795", "highway": "bus_stop", "name": "Biolleyre", "operator": "TL", "public_transport": "platform", "uic_name": "Epalinges, Biolleyre", "uic_ref": "8591963"}}, {"type": "node", "id": 1946006220, "lat": 46.5506583, "lon": 6.6714941, "tags": {"bus": "yes", "ele": "790", "highway": "bus_stop", "name": "En Praz Bin", "operator": "TL", "public_transport": "platform", "uic_name": "Epalinges, En Praz Bin", "uic_ref": "8591967"}}, {"type": "node", "id": 3220470936, "lat": 46.567674, "lon": 6.6997832, "tags": {"ele": "871", "highway": "bus_stop", "name": "Lausanne, Chalet-Fontaine", "operator": "TL", "public_transport": "platform", "source": "Bundesamt f\u00fcr Verkehr (BAV), DIDOK 2009", "uic_name": "Lausanne, Chalet-Fontaine", "uic_ref": "8592006"}}, {"type": "node", "id": 3220470937, "lat": 46.5678539, "lon": 6.699622, "tags": {"ele": "871", "highway": "bus_stop", "name": "Lausanne, Chalet-Fontaine", "operator": "TL", "public_transport": "platform", "source": "Bundesamt f\u00fcr Verkehr (BAV), DIDOK 2009", "uic_name": "Lausanne, Chalet-Fontaine", "uic_ref": "8592006"}}, {"type": "node", "id": 6595079718, "lat": 46.5569682, "lon": 6.6840153, "tags": {"ele": "833", "highway": "bus_stop", "name": "En Marin", "operator": "TL", "public_transport": "platform", "shelter": "yes", "uic_name": "Lausanne, En Marin", "uic_ref": "8504171"}}, {"type": "node", "id": 7716265970, "lat": 46.5601444, "lon": 6.6846764, "tags": {"bus": "yes", "ele": "854", "highway": "bus_stop", "name": "Vert-Bois/EHL", "operator": "TL", "public_transport": "platform", "shelter": "yes", "uic_name": "Lausanne, Vert-Bois/EHL", "uic_ref": "8592130"}}, {"type": "node", "id": 8507554175, "lat": 46.5574927, "lon": 6.6843849, "tags": {"ele": "833", "highway": "bus_stop", "level": "-1", "name": "En Marin", "operator": "TL", "public_transport": "platform", "shelter": "yes", "uic_name": "Lausanne, En Marin", "uic_ref": "8504171"}}, {"type": "node", "id": 9270502878, "lat": 46.5645509, "lon": 6.6889389, "tags": {"bus": "yes", "ele": "858", "name": "Mauvernay", "operator": "TL", "public_transport": "stop_position", "uic_name": "Lausanne, Mauvernay", "uic_ref": "8592070"}}, {"type": "node", "id": 10763795396, "lat": 46.5601297, "lon": 6.6848305, "tags": {"bus": "yes", "ele": "854", "name": "Vert-Bois/EHL", "operator": "TL", "public_transport": "stop_position", "uic_name": "Lausanne, Vert-Bois/EHL", "uic_ref": "8592130"}}, {"type": "node", "id": 10763827016, "lat": 46.561111, "lon": 6.6854011, "tags": {"bus": "yes", "ele": "854", "name": "Vert-Bois/EHL", "operator": "TL", "public_transport": "stop_position", "uic_name": "Lausanne, Vert-Bois/EHL", "uic_ref": "8592130"}}, {"type": "node", "id": 12131046304, "lat": 46.5548473, "lon": 6.6698923, "tags": {"bus": "yes", "name": "Ball\u00e8gue", "network": "Mobilis", "operator": "TL", "public_transport": "stop_position", "uic_name": "Epalinges, Ball\u00e8gue", "uic_ref": "8591962"}}, {"type": "node", "id": 12131046307, "lat": 46.5547427, "lon": 6.6654288, "tags": {"bus": "yes", "highway": "bus_stop", "name": "Bois-de-Ban", "network": "Mobilis", "operator": "TL", "public_transport": "platform", "uic_name": "Epalinges, Bois-de-Ban", "uic_ref": "8593819"}}, {"type": "node", "id": 13394896437, "lat": 46.5738973, "lon": 6.6698149, "tags": {"bus": "yes", "highway": "bus_stop", "name": "Chalet des Enfants", "operator": "TL", "public_transport": "platform", "uic_name": "Lausanne, Chalet des Enfants", "uic_ref": "8511583"}}, {"type": "node", "id": 13394896438, "lat": 46.5740374, "lon": 6.6702731, "tags": {"bus": "yes", "highway": "bus_stop", "name": "Chalet des Enfants", "operator": "TL", "public_transport": "platform", "uic_name": "Lausanne, Chalet des Enfants", "uic_ref": "8511583"}}, {"type": "node", "id": 13408637851, "lat": 46.550851, "lon": 6.6912356, "tags": {"bus": "yes", "ele": "809", "name": "Chalet \u00e0 Matthey", "network": "Mobilis", "network:wikidata": "Q2394222", "operator": "TL", "public_transport": "stop_position", "uic_name": "Lausanne, Chalet \u00e0 Matthey", "uic_ref": "8587547"}}, {"type": "node", "id": 13408637852, "lat": 46.5511395, "lon": 6.6913953, "tags": {"bus": "yes", "ele": "809", "name": "Chalet \u00e0 Matthey", "network": "Mobilis", "network:wikidata": "Q2394222", "operator": "TL", "public_transport": "stop_position", "uic_name": "Lausanne, Chalet \u00e0 Matthey", "uic_ref": "8587547"}}, {"type": "node", "id": 13408637853, "lat": 46.5546191, "lon": 6.6947886, "tags": {"bus": "yes", "ele": "839", "name": "Vers-chez-les-Blanc", "network": "Mobilis", "network:wikidata": "Q2394222", "operator": "TL", "public_transport": "stop_position", "uic_name": "Lausanne, Vers-chez-les-Blanc", "uic_ref": "8587548"}}, {"type": "node", "id": 13408637854, "lat": 46.5585923, "lon": 6.6967559, "tags": {"bus": "yes", "ele": "866", "name": "Chevreuils", "network": "Mobilis", "network:wikidata": "Q2394222", "operator": "TL", "public_transport": "stop_position", "uic_name": "Lausanne, Chevreuils", "uic_ref": "8592015"}}, {"type": "node", "id": 13408637855, "lat": 46.5586784, "lon": 6.6966793, "tags": {"bus": "yes", "ele": "866", "name": "Chevreuils", "network": "Mobilis", "network:wikidata": "Q2394222", "operator": "TL", "public_transport": "stop_position", "uic_name": "Lausanne, Chevreuils", "uic_ref": "8592015"}}, {"type": "node", "id": 13408637856, "lat": 46.5600513, "lon": 6.6963665, "tags": {"bus": "yes", "ele": "873", "name": "Praz-Collet", "network": "Mobilis", "network:short": "CTV", "network:wikidata": "Q2394222", "operator": "TL", "public_transport": "stop_position", "uic_name": "Lausanne, Praz-Collet", "uic_ref": "8592100"}}, {"type": "node", "id": 13408637857, "lat": 46.5603269, "lon": 6.696456, "tags": {"bus": "yes", "ele": "873", "name": "Praz-Collet", "network": "Mobilis", "network:short": "CTV", "network:wikidata": "Q2394222", "operator": "TL", "public_transport": "stop_position", "uic_name": "Lausanne, Praz-Collet", "uic_ref": "8592100"}}, {"type": "node", "id": 13408637858, "lat": 46.5648623, "lon": 6.6934974, "tags": {"bus": "yes", "ele": "861", "name": "Chalet-\u00e0-Gobet/Jorat", "network": "Mobilis", "network:short": "CTV", "network:wikidata": "Q2394222", "operator": "TL", "public_transport": "stop_position", "uic_name": "Lausanne, Chalet-\u00e0-Gobet/Jorat", "uic_ref": "8509491"}}, {"type": "node", "id": 13408637859, "lat": 46.5647158, "lon": 6.691677, "tags": {"bus": "yes", "ele": "861", "name": "Chalet-\u00e0-Gobet", "operator": "TL", "public_transport": "stop_position", "uic_name": "Lausanne, Chalet-\u00e0-Gobet", "uic_ref": "8587929"}}, {"type": "node", "id": 13408637861, "lat": 46.5620742, "lon": 6.6829263, "tags": {"bus": "yes", "name": "Cojonnex/EHL", "operator": "TL", "public_transport": "stop_position", "uic_name": "Lausanne, Cojonnex/EHL", "uic_ref": "8592037"}}, {"type": "node", "id": 13408637862, "lat": 46.5614594, "lon": 6.6820661, "tags": {"bus": "yes", "name": "Cojonnex/EHL", "operator": "TL", "public_transport": "stop_position", "uic_name": "Lausanne, Cojonnex/EHL", "uic_ref": "8592037"}}, {"type": "node", "id": 13408637863, "lat": 46.5740754, "lon": 6.670202, "tags": {"bus": "yes", "name": "Chalet des Enfants", "operator": "TL", "public_transport": "stop_position", "uic_name": "Lausanne, Chalet des Enfants", "uic_ref": "8511583"}}, {"type": "node", "id": 13408637864, "lat": 46.5738614, "lon": 6.6698736, "tags": {"bus": "yes", "name": "Chalet des Enfants", "operator": "TL", "public_transport": "stop_position", "uic_name": "Lausanne, Chalet des Enfants", "uic_ref": "8511583"}}, {"type": "node", "id": 13408637865, "lat": 46.552097, "lon": 6.6811081, "tags": {"bus": "yes", "ele": "785", "name": "Lion d'Or", "operator": "TL", "public_transport": "stop_position", "uic_name": "Epalinges, Lion d'Or", "uic_ref": "8587546"}}, {"type": "node", "id": 13408637866, "lat": 46.5582963, "lon": 6.6811548, "tags": {"bus": "yes", "name": "Vulliette", "network": "Mobilis", "network:short": "CTV", "network:wikidata": "Q2394222", "operator": "TL", "public_transport": "stop_position", "uic_name": "Lausanne, Vulliette", "uic_ref": "8587549"}}, {"type": "node", "id": 13408637867, "lat": 46.5576609, "lon": 6.6819283, "tags": {"bus": "yes", "name": "Vulliette", "network": "Mobilis", "network:short": "CTV", "network:wikidata": "Q2394222", "operator": "TL", "public_transport": "stop_position", "uic_name": "Lausanne, Vulliette", "uic_ref": "8587549"}}, {"type": "node", "id": 13408637868, "lat": 46.5575009, "lon": 6.6842486, "tags": {"bus": "yes", "ele": "833", "name": "En Marin", "operator": "TL", "public_transport": "stop_position", "uic_name": "Lausanne, En Marin", "uic_ref": "8504171"}}, {"type": "node", "id": 13408637869, "lat": 46.5569597, "lon": 6.6841238, "tags": {"bus": "yes", "ele": "833", "name": "En Marin", "operator": "TL", "public_transport": "stop_position", "uic_name": "Lausanne, En Marin", "uic_ref": "8504171"}}, {"type": "node", "id": 13408637870, "lat": 46.5525473, "lon": 6.6827627, "tags": {"bus": "yes", "ele": "785", "name": "Lion d'Or", "operator": "TL", "public_transport": "stop_position", "uic_name": "Epalinges, Lion d'Or", "uic_ref": "8587546"}}, {"type": "node", "id": 13408637871, "lat": 46.5517132, "lon": 6.6803734, "tags": {"bus": "yes", "ele": "785", "name": "Lion d'Or", "operator": "TL", "public_transport": "stop_position", "uic_name": "Epalinges, Lion d'Or", "uic_ref": "8587546"}}, {"type": "node", "id": 13408637872, "lat": 46.5506886, "lon": 6.6715475, "tags": {"bus": "yes", "ele": "790", "name": "En Praz Bin", "operator": "TL", "public_transport": "stop_position", "uic_name": "Epalinges, En Praz Bin", "uic_ref": "8591967"}}, {"type": "node", "id": 13408637877, "lat": 46.5539898, "lon": 6.6655193, "tags": {"bus": "yes", "ele": "797", "name": "Polny", "operator": "TL", "public_transport": "stop_position", "uic_name": "Epalinges, Polny", "uic_ref": "8591969"}}, {"type": "node", "id": 13408637878, "lat": 46.5527004, "lon": 6.6680093, "tags": {"bus": "yes", "ele": "795", "name": "Biolleyre", "operator": "TL", "public_transport": "stop_position", "uic_name": "Epalinges, Biolleyre", "uic_ref": "8591963"}}, {"type": "node", "id": 13408637879, "lat": 46.5547466, "lon": 6.6653868, "tags": {"bus": "yes", "name": "Bois-de-Ban", "operator": "TL", "public_transport": "stop_position", "uic_name": "Epalinges, Bois-de-Ban", "uic_ref": "8593819"}}, {"type": "node", "id": 13408637880, "lat": 46.5512303, "lon": 6.6620926, "tags": {"bus": "yes", "ele": "768", "name": "Mont\u00e9clard", "operator": "TL", "public_transport": "stop_position", "uic_name": "Epalinges, Mont\u00e9clard", "uic_ref": "8593822"}}, {"type": "node", "id": 13408637881, "lat": 46.551263, "lon": 6.6620529, "tags": {"bus": "yes", "ele": "768", "highway": "bus_stop", "name": "Mont\u00e9clard", "operator": "TL", "public_transport": "platform", "uic_name": "Epalinges, Mont\u00e9clard", "uic_ref": "8593822"}}, {"type": "node", "id": 13426290285, "lat": 46.5648877, "lon": 6.691601, "tags": {"bus": "yes", "ele": "861", "name": "Chalet-\u00e0-Gobet", "operator": "TL", "public_transport": "stop_position", "uic_name": "Lausanne, Chalet-\u00e0-Gobet", "uic_ref": "8587929"}}]}