{"version": 0.6, "generator": "Overpass API 0.7.62.8 e802775f", "osm3s": {"timestamp_osm_base": "2026-01-15T16:24:34Z", "copyright": "The data included in this document is from www.openstreetmap.org. The data is made available under ODbL."}, "elements": [{"type": "node", "id": 178658782, "lat": 51.4649701, "lon": 5.5007036}, {"type": "node", "id": 567574286, "lat": 51.4839322, "lon": 5.5016977}, {"type": "node", "id": 567574297, "lat": 51.483737, "lon": 5.5023972}, {"type": "node", "id": 567574304, "lat": 51.4843987, "lon": 5.5018366}, {"type": "node", "id": 567574322, "lat": 51.48426, "lon": 5.5024978}, {"type": "node", "id": 972328494, "lat": 51.4771631, "lon": 5.5029485}, {"type": "node", "id": 972346992, "lat": 51.4771258, "lon": 5.5029544}, {"type": "node", "id": 972386691, "lat": 51.4841751, "lon": 5.4967979}, {"type": "node", "id": 995787350, "lat": 51.4656541, "lon": 5.4981795}, {"type": "node", "id": 995804465, "lat": 51.4661642, "lon": 5.4987255}, {"type": "node", "id": 1358049074, "lat": 51.4757888, "lon": 5.5411466}, {"type": "node", "id": 1708522245, "lat": 51.4821547, "lon": 5.4955922}, {"type": "node", "id": 1708522246, "lat": 51.482721, "lon": 5.4951354}, {"type": "node", "id": 1708522247, "lat": 51.4820872, "lon": 5.4965869}, {"type": "node", "id": 1708522249, "lat": 51.482695, "lon": 5.4966953}, {"type": "node", "id": 1708522251, "lat": 51.4821931, "lon": 5.4951165}, {"type": "node", "id": 2764632641, "lat": 51.4649483, "lon": 5.5001857}, {"type": "node", "id": 2764632648, "lat": 51.4649543, "lon": 5.50034}, {"type": "node", "id": 2764632678, "lat": 51.4649511, "lon": 5.5000306}, {"type": "node", "id": 2764632695, "lat": 51.4649592, "lon": 5.4999156}, {"type": "node", "id": 2764632778, "lat": 51.4649869, "lon": 5.4998057}, {"type": "node", "id": 2764632839, "lat": 51.4650162, "lon": 5.5010086}, {"type": "node", "id": 2764632917, "lat": 51.4650423, "lon": 5.4996384}, {"type": "node", "id": 2764633066, "lat": 51.4651075, "lon": 5.4994893}, {"type": "node", "id": 2764633077, "lat": 51.4651123, "lon": 5.5012663}, {"type": "node", "id": 2764633287, "lat": 51.465185, "lon": 5.5013893}, {"type": "node", "id": 2764634566, "lat": 51.4656032, "lon": 5.5014785}, {"type": "node", "id": 2764634840, "lat": 51.4657557, "lon": 5.5012676}, {"type": "node", "id": 2764635127, "lat": 51.4659791, "lon": 5.5012989}, {"type": "node", "id": 2764635177, "lat": 51.4659928, "lon": 5.5010188}, {"type": "node", "id": 3355854632, "lat": 51.4661253, "lon": 5.4993012}, {"type": "node", "id": 3355854634, "lat": 51.4665548, "lon": 5.4993209}, {"type": "node", "id": 3355854635, "lat": 51.4669439, "lon": 5.4994401}, {"type": "node", "id": 3355854636, "lat": 51.467131, "lon": 5.5012174}, {"type": "node", "id": 3355854637, "lat": 51.4665938, "lon": 5.5011286}, {"type": "node", "id": 3355854645, "lat": 51.4668449, "lon": 5.5011706}, {"type": "node", "id": 3355854646, "lat": 51.4660168, "lon": 5.5010232}, {"type": "node", "id": 4579530155, "lat": 51.4833081, "lon": 5.4966508}, {"type": "node", "id": 4579530156, "lat": 51.483235, "lon": 5.4976091}, {"type": "node", "id": 4579530157, "lat": 51.4829716, "lon": 5.4975631}, {"type": "node", "id": 4579530158, "lat": 51.4829231, "lon": 5.4981524}, {"type": "node", "id": 4579530159, "lat": 51.4840781, "lon": 5.4983487}, {"type": "node", "id": 4579530160, "lat": 51.4841928, "lon": 5.4968005}, {"type": "node", "id": 5605971367, "lat": 51.4712502, "lon": 5.5524551}, {"type": "node", "id": 5605971368, "lat": 51.470782, "lon": 5.5523253}, {"type": "node", "id": 5605971369, "lat": 51.4703997, "lon": 5.5522125}, {"type": "node", "id": 6774216098, "lat": 51.4843758, "lon": 5.5021708}, {"type": "node", "id": 6774216099, "lat": 51.4843278, "lon": 5.5021618}, {"type": "node", "id": 6774216100, "lat": 51.4843127, "lon": 5.5023738}, {"type": "node", "id": 6774216101, "lat": 51.4842695, "lon": 5.5023658}, {"type": "node", "id": 7055153033, "lat": 51.4711516, "lon": 5.551688}, {"type": "node", "id": 7055153034, "lat": 51.4705079, "lon": 5.5511083}, {"type": "node", "id": 7331697602, "lat": 51.4749178, "lon": 5.5413621}, {"type": "node", "id": 7331697603, "lat": 51.4750204, "lon": 5.5419215}, {"type": "node", "id": 7331705789, "lat": 51.4754563, "lon": 5.5405081}, {"type": "node", "id": 7331705790, "lat": 51.4755844, "lon": 5.5407184}, {"type": "node", "id": 7331705791, "lat": 51.4756143, "lon": 5.5406759}, {"type": "node", "id": 10045546797, "lat": 51.4822806, "lon": 5.4951196}, {"type": "node", "id": 10967980339, "lat": 51.4713351, "lon": 5.5517519}, {"type": "node", "id": 10967980340, "lat": 51.4711972, "lon": 5.5512657}, {"type": "node", "id": 11136470734, "lat": 51.4929149, "lon": 5.5213101}, {"type": "node", "id": 11136470735, "lat": 51.4929213, "lon": 5.521426}, {"type": "node", "id": 11136470736, "lat": 51.4928895, "lon": 5.5219217}, {"type": "node", "id": 11136470737, "lat": 51.4925791, "lon": 5.5218973}, {"type": "node", "id": 11136470738, "lat": 51.4923584, "lon": 5.5218311}, {"type": "node", "id": 11136470739, "lat": 51.4924002, "lon": 5.5212994}, {"type": "node", "id": 11142384113, "lat": 51.4837757, "lon": 5.5017552}, {"type": "node", "id": 11142404545, "lat": 51.4774358, "lon": 5.5027605}, {"type": "node", "id": 11142404546, "lat": 51.4771942, "lon": 5.5020529}, {"type": "node", "id": 11142404547, "lat": 51.4769122, "lon": 5.5022986}, {"type": "node", "id": 11398980920, "lat": 51.4749133, "lon": 5.5005592}, {"type": "node", "id": 11398980921, "lat": 51.4748303, "lon": 5.5017578}, {"type": "node", "id": 11398980922, "lat": 51.4748073, "lon": 5.5018351}, {"type": "node", "id": 11398980923, "lat": 51.47458, "lon": 5.5019158}, {"type": "node", "id": 11398980924, "lat": 51.4743132, "lon": 5.5015332}, {"type": "node", "id": 11398980925, "lat": 51.4743449, "lon": 5.5011155}, {"type": "node", "id": 11398980926, "lat": 51.4742979, "lon": 5.501105}, {"type": "node", "id": 11398980927, "lat": 51.4743449, "lon": 5.5004574}, {"type": "way", "id": 44744706, "nodes": [567574304, 6774216098, 6774216099, 6774216100, 6774216101, 567574322, 567574297, 11142384113, 567574286, 567574304], "tags": {"addr:city": "Eindhoven", "addr:housenumber": "3", "addr:postcode": "5632TR", "addr:street": "Veronapad", "amenity": "school", "denomination": "mixed", "email": "handreiking@skpo.nl", "isced:level": "0;1", "name": "De Handreiking", "official_name": "Bassischool De Handreiking", "operator": "SKPO", "operator:website": "https://www.skpo.nl/", "operator:wikidata": "Q121792961", "phone": "+31 40 241 1881", "religion": "christian", "school": "primary", "website": "https://skpo-handreiking.nl/", "wikidata": "Q22754199"}}, {"type": "way", "id": 158696828, "nodes": [1708522246, 10045546797, 1708522251, 1708522245, 1708522247, 1708522249, 1708522246], "tags": {"addr:city": "Eindhoven", "addr:housenumber": "96", "addr:postcode": "5632PD", "addr:street": "Mirabelweg", "amenity": "school", "email": "info.degroenevlinder@salto-eindhoven.nl", "isced:level": "0;1", "name": "De Groene Vlinder", "official_name": "Saltobasisschool De Groene Vlinder", "operator": "SALTO", "operator:website": "https://www.salto-eindhoven.nl/", "operator:wikidata": "Q121792966", "phone": "+31 40 241 0313", "school": "primary", "website": "https://www.bs-degroenevlinder.nl/", "wikidata": "Q22754421"}}, {"type": "way", "id": 271498878, "nodes": [995787350, 2764633066, 2764632917, 2764632778, 2764632695, 2764632678, 2764632641, 2764632648, 178658782, 2764632839, 2764633077, 2764633287, 2764634566, 2764634840, 2764635127, 2764635177, 3355854646, 3355854637, 3355854645, 3355854636, 3355854635, 3355854634, 3355854632, 995804465, 995787350], "tags": {"addr:city": "Eindhoven", "addr:housenumber": "3", "addr:postcode": "5631KC", "addr:street": "Damocleslaan", "amenity": "school", "isced:level": "2;3", "name": "Eckartcollege", "operator": "Ons Middelbaar Onderwijs", "operator:website": "https://www.omo.nl/", "operator:wikidata": "Q4693918", "operator:wikipedia": "nl:Ons Middelbaar Onderwijs", "phone": "+31 40 297 2222", "school": "secondary", "website": "https://www.eckartcollege.nl/", "wikidata": "Q3251677", "wikipedia": "nl:Eckartcollege"}}, {"type": "way", "id": 462574590, "nodes": [972386691, 4579530160, 4579530159, 4579530158, 4579530157, 4579530156, 4579530155, 972386691], "tags": {"amenity": "school", "capacity": "90", "denomination": "catholic", "isced": "24", "max_age": "18", "min_age": "12", "name": "MBS Eindhoven", "operator": "Stichting Speciaal Onderwijs & Expertisecentra (SSOE)", "pedagogy": "Voortgezet speciaal onderwijs (VSO)", "religion": "christian", "website": "https://www.mbseindhoven.nl/"}}, {"type": "way", "id": 755266221, "nodes": [5605971369, 5605971368, 5605971367, 10967980339, 7055153033, 10967980340, 7055153034, 5605971369], "tags": {"addr:city": "Nuenen", "addr:housenumber": "8", "addr:postcode": "5671GR", "addr:street": "Sportlaan", "amenity": "school", "email": "info@nuenenscollege.nl", "isced:level": "2", "name": "Nuenens College", "operator": "Ons Middelbaar Onderwijs", "operator:website": "https://www.omo.nl/", "operator:wikidata": "Q4693918", "operator:wikipedia": "nl:Ons Middelbaar Onderwijs", "phone": "+31 40 283 1569", "school": "secondary", "website": "https://www.nuenenscollege.nl"}}, {"type": "way", "id": 784779960, "nodes": [7331705791, 1358049074, 7331697603, 7331697602, 7331705789, 7331705790, 7331705791], "tags": {"addr:city": "Nuenen", "addr:housenumber": "1-3", "addr:postcode": "5671VP", "addr:street": "Jacob Catsstraat", "amenity": "school", "email": "dedassenburcht@eenbes.nl", "isced:level": "0;1", "name": "De Dassenburcht", "official_name": "Brainport School De Dassenburg", "operator": "Eenbes", "operator:website": "https://www.eenbes.nl/", "operator:wikidata": "Q121761226", "phone": "+31 40 283 1583", "school": "primary", "website": "https://www.dedassenburcht.nl/", "wikidata": "Q22754267"}}, {"type": "way", "id": 1201123818, "nodes": [11136470739, 11136470738, 11136470737, 11136470736, 11136470735, 11136470734, 11136470739], "tags": {"addr:city": "Nuenen", "addr:housenumber": "1", "addr:postcode": "5674NW", "addr:street": "De Koppel", "amenity": "school", "email": "jozefnederwetten@eenbes.nl", "isced:level": "0;1", "name": "Sint Jozef", "official_name": "Eenbes Basisschool Sint Jozef", "operator": "Eenbes", "operator:website": "https://www.eenbes.nl/", "operator:wikidata": "Q121761226", "phone": "+31 40 283 1207", "school": "primary", "website": "https://www.sintjozefnederwetten.nl/", "wikidata": "Q22754262"}}, {"type": "way", "id": 1201802391, "nodes": [11142404547, 11142404546, 11142404545, 972328494, 972346992, 11142404547], "tags": {"addr:city": "Eindhoven", "addr:housenumber": "2A", "addr:postcode": "5632XJ", "addr:street": "Turfveldenstraat", "amenity": "school", "description": "Groep 6 t/m 8", "email": "tweelingen@skpo.nl", "isced:level": "1", "name": "Tweelingen", "name:etymology:wikidata": "Q8923", "official_name": "Basisschool Tweelingen", "operator": "SKPO", "operator:website": "https://www.skpo.nl/", "operator:wikidata": "Q121792961", "phone": "+31 40 242 8959", "school": "primary", "website": "https://bstweelingen.nl/", "wikidata": "Q22754184"}}, {"type": "way", "id": 1229167348, "nodes": [11398980920, 11398980921, 11398980922, 11398980923, 11398980924, 11398980925, 11398980926, 11398980927, 11398980920], "tags": {"amenity": "school", "name": "Basisschool de Kimme"}}]}