{"version": 0.6, "generator": "Overpass API 0.7.62.8 e802775f", "osm3s": {"timestamp_osm_base": "2026-01-13T04:08:45Z", "copyright": "The data included in this document is from www.openstreetmap.org. The data is made available under ODbL."}, "elements": [{"type": "node", "id": 2533171513, "lat": 17.3142166, "lon": 78.4046423}, {"type": "node", "id": 2533171514, "lat": 17.3140207, "lon": 78.4045019}, {"type": "node", "id": 2533171515, "lat": 17.3139889, "lon": 78.4045506}, {"type": "node", "id": 2533171516, "lat": 17.3138691, "lon": 78.4044647}, {"type": "node", "id": 2533171517, "lat": 17.3138088, "lon": 78.404557}, {"type": "node", "id": 2533171518, "lat": 17.3139244, "lon": 78.4046398}, {"type": "node", "id": 2533171519, "lat": 17.31391, "lon": 78.4046618}, {"type": "node", "id": 2533171520, "lat": 17.3139375, "lon": 78.4046815}, {"type": "node", "id": 2533171521, "lat": 17.3139756, "lon": 78.4046232}, {"type": "node", "id": 2533171522, "lat": 17.3140718, "lon": 78.4046921}, {"type": "node", "id": 2533171523, "lat": 17.3140583, "lon": 78.4047128}, {"type": "node", "id": 2533171524, "lat": 17.3141018, "lon": 78.4047439}, {"type": "node", "id": 2533171525, "lat": 17.3141494, "lon": 78.4047452}, {"type": "node", "id": 2533171526, "lat": 17.3141164, "lon": 78.4047215}, {"type": "node", "id": 4972310519, "lat": 17.3448605, "lon": 78.4599543, "tags": {"addr:city": "Hyderabad", "addr:housenumber": "19-2-24/11/A/B", "addr:locality": "Ali Bagh", "addr:postcode": "500053", "amenity": "hospital", "name": "Health Care Clinic", "operator": "Dr.Rehan Siddiqui"}}, {"type": "node", "id": 5679345122, "lat": 17.3497123, "lon": 78.4707124, "tags": {"amenity": "hospital", "name": "Sitara medical center"}}, {"type": "node", "id": 5876735151, "lat": 17.3140538, "lon": 78.4045957, "tags": {"amenity": "hospital", "emergency": "yes", "name": "NIRD heatlth centre"}}, {"type": "node", "id": 6485594351, "lat": 17.3313005, "lon": 78.4879965, "tags": {"addr:district": "Hyderabad", "addr:full": "Fatima Nagar, DLRL Road, Chandrayangutta", "addr:postcode": "500005", "addr:state": "Telangana", "amenity": "hospital", "name": "Niyar Nursing Home", "source": "OpenGovernmentData"}}, {"type": "node", "id": 6486039380, "lat": 17.3503388, "lon": 78.4916899, "tags": {"addr:district": "Hyderabad", "addr:full": "H. No. 18-8- 589/54, Kumarwadi Colony, Edi Bazar", "addr:postcode": "500023", "addr:state": "Telangana", "amenity": "hospital", "name": "Sravani Hospital", "source": "OpenGovernmentData"}}, {"type": "node", "id": 6487263499, "lat": 17.3178961, "lon": 78.4453909, "tags": {"addr:district": "Hyderabad", "addr:full": "8-1-206/A,Opposite Shivalayam Temple, Raghavendra Hills, Mailardevpally, Nawab Saheb Kunta", "addr:postcode": "500005", "addr:state": "Telangana", "amenity": "hospital", "name": "Sree Raghavendra Hospital", "source": "OpenGovernmentData"}}, {"type": "node", "id": 6487365747, "lat": 17.3292521, "lon": 78.4787576, "tags": {"addr:district": "Hyderabad", "addr:full": "Ghazi Maillat Colony, Chandrayan Gutta", "addr:postcode": "500053", "addr:state": "Telangana", "amenity": "hospital", "name": "Marvel Maternity and Nursing Home", "source": "OpenGovernmentData"}}, {"type": "node", "id": 6505322583, "lat": 17.3452876, "lon": 78.4567943, "tags": {"addr:district": "Hyderabad", "addr:full": "D/O 19-2-23/M/H/9, Makka Colony , Kalepathar, New Tadbun Road", "addr:postcode": "500064", "addr:state": "Telangana", "amenity": "hospital", "name": "Care Well Hospital", "source": "OpenGovernmentData"}}, {"type": "node", "id": 6543812599, "lat": 17.3342065, "lon": 78.4698338, "tags": {"addr:district": "Hyderabad", "addr:place": "Jangammet", "addr:state": "Telangana", "addr:street": "Near Govt. Jr.College", "addr:subdistrict": "Charminar", "amenity": "hospital", "healthcare": "hospital", "name": "Community Health Centre, Jangammet", "operational_status": "operational", "operator:type": "government", "source": "OpenDataTelangana"}}, {"type": "node", "id": 6549133126, "lat": 17.3448357, "lon": 78.4590373, "tags": {"addr:district": "Hyderabad", "addr:full": "9-2-24/20/7/6, NEW IDGAH ROAD, JAHANNUMA NAWAB SAHEB KUNTA", "addr:postcode": "500053", "addr:state": "Telangana", "amenity": "hospital", "name": "FATIMA HOSPITAL", "operator:type": "private", "source": "OpenGovernmentData"}}, {"type": "node", "id": 6549197557, "lat": 17.3529175, "lon": 78.4180733, "tags": {"addr:city": "Hyderabad", "addr:full": "Opp. PILLAR NO. 190, FORT VIEW COLONY, PVNR EXPRESS FLYOVER, UPPARPALLY, RAJENDERA NAGAR", "addr:postcode": "500048", "addr:state": "Telangana", "amenity": "hospital", "contact:phone": "65645555", "healthcare": "hospital", "name": "Human Touch Hospital", "operator:type": "private", "source": "OpenGovernmentData"}}, {"type": "node", "id": 6811749113, "lat": 17.322434, "lon": 78.4801, "tags": {"addr:district": "Hyderabad", "addr:full": "CRPF Colony, Chandrayangutta", "addr:postcode": "500005", "addr:state": "Telangana", "amenity": "hospital", "contact:mobile": "9849251570", "name": "Bakoban Hospital", "source": "OpenGovernmentData", "website": "http://www.bakobanhospital.com"}}, {"type": "node", "id": 6811749120, "lat": 17.3222518, "lon": 78.4307242, "tags": {"addr:district": "Ranga Reddy", "addr:full": "Near Pillar No.318, Aramghar X Road, Sivarampalli, Hyderabad", "addr:postcode": "500052", "addr:state": "Telangana", "amenity": "hospital", "contact:mobile": "9848812008", "name": "Sri Lakshmi Hospital", "source": "OpenGovernmentData"}}, {"type": "node", "id": 6811749130, "lat": 17.3223098, "lon": 78.4305647, "tags": {"addr:district": "Ranga Reddy", "addr:full": "P V N R Expressway Pillar No.316, Aramghar X Road, Rajendra Nagar, Hyderabad", "addr:postcode": "500052", "addr:state": "Telangana", "amenity": "hospital", "name": "Sujatha Hospital", "source": "OpenGovernmentData"}}, {"type": "node", "id": 6811749144, "lat": 17.3058624, "lon": 78.4683878, "tags": {"addr:district": "Ranga Reddy", "addr:full": "Ismail Nagar, Chandrayangutta, Hyderabad", "addr:postcode": "500005", "addr:state": "Telangana", "amenity": "hospital", "name": "Al Madina General Hospital", "source": "OpenGovernmentData"}}, {"type": "node", "id": 7088862151, "lat": 17.3290827, "lon": 78.4276336, "tags": {"amenity": "hospital", "healthcare": "hospital"}}, {"type": "node", "id": 8233804190, "lat": 17.3088672, "lon": 78.4942526, "tags": {"amenity": "hospital", "healthcare": "hospital"}}, {"type": "node", "id": 8759435760, "lat": 17.3535608, "lon": 78.4745425, "tags": {"addr:district": "Hyderabad", "addr:full": "23-6-983, Rajpal Nagar, Shalibanda", "addr:postcode": "500065", "addr:state": "Telangana", "amenity": "hospital", "name": "Government Hospital, Suraj Bhan", "source": "Local Knowledge"}}, {"type": "node", "id": 9605465495, "lat": 17.2975367, "lon": 78.4460149, "tags": {"amenity": "hospital", "healthcare": "hospital"}}, {"type": "node", "id": 11365536200, "lat": 17.3377414, "lon": 78.4732451}, {"type": "node", "id": 11365536201, "lat": 17.3377358, "lon": 78.4734357}, {"type": "node", "id": 11365536202, "lat": 17.3376099, "lon": 78.4734317}, {"type": "node", "id": 11365536203, "lat": 17.3376154, "lon": 78.4732411}, {"type": "node", "id": 11365536218, "lat": 17.337349, "lon": 78.4680874, "tags": {"amenity": "hospital", "healthcare": "hospital"}}, {"type": "node", "id": 11936156147, "lat": 17.3144808, "lon": 78.4831721, "tags": {"addr:district": "Hyderabad", "addr:place": "Barkas", "addr:state": "Telangana", "addr:street": "OPP:CRPF play ground", "addr:subdistrict": "Bandlaguda", "amenity": "hospital", "healthcare": "hospital", "name": "Community Health Centre, BARKAS", "operational_status": "operational", "operator:type": "government", "source": "OpenDataTelangana"}}, {"type": "node", "id": 12565848764, "lat": 17.3535776, "lon": 78.4745244, "tags": {"amenity": "hospital", "healthcare": "hospital"}}, {"type": "way", "id": 246257880, "nodes": [2533171513, 2533171514, 2533171515, 2533171516, 2533171517, 2533171518, 2533171519, 2533171520, 2533171521, 2533171522, 2533171523, 2533171524, 2533171526, 2533171525, 2533171513], "tags": {"amenity": "hospital", "building": "yes", "name": "NIRD Health Centre"}}, {"type": "way", "id": 1225570310, "nodes": [11365536200, 11365536201, 11365536202, 11365536203, 11365536200], "tags": {"amenity": "hospital", "building": "yes", "healthcare": "hospital", "name": "Gemini Health Care"}}]}