{"version": 0.6, "generator": "Overpass API 0.7.62.8 e802775f", "osm3s": {"timestamp_osm_base": "2026-01-15T08:06:46Z", "copyright": "The data included in this document is from www.openstreetmap.org. The data is made available under ODbL."}, "elements": [{"type": "node", "id": 1956261737, "lat": 39.4693399, "lon": -0.3499373}, {"type": "node", "id": 1956261765, "lat": 39.4695093, "lon": -0.3511133}, {"type": "node", "id": 1956261797, "lat": 39.4691943, "lon": -0.3500058}, {"type": "node", "id": 4738384313, "lat": 39.4651856, "lon": -0.350731, "tags": {"addr:street": "Avinguda del Port", "amenity": "hospital", "healthcare": "hospital", "name": "Clinica Dental Nord"}}, {"type": "node", "id": 5971574752, "lat": 39.460095, "lon": -0.335667, "tags": {"amenity": "hospital", "healthcare": "centre", "name": "Centro de Especialidades El Grao", "opening_hours": "Mo, We-Fr 08:00-15:00, 08:00-18:30", "phone": "+34 963469560", "website": "http://clinicomalvarrosa.san.gva.es/centro-de-especialidades-el-grao"}}, {"type": "node", "id": 7297685201, "lat": 39.4609426, "lon": -0.336377, "tags": {"addr:housenumber": "300", "addr:postcode": "46024", "addr:street": "Avinguda del Port", "entrance": "yes"}}, {"type": "node", "id": 7297685234, "lat": 39.4605198, "lon": -0.3366557}, {"type": "node", "id": 7297685243, "lat": 39.4609148, "lon": -0.3362834}, {"type": "node", "id": 7297685259, "lat": 39.4609735, "lon": -0.3364807}, {"type": "node", "id": 7297685272, "lat": 39.4609878, "lon": -0.336529}, {"type": "node", "id": 7297685274, "lat": 39.4604732, "lon": -0.3362807}, {"type": "node", "id": 7297742185, "lat": 39.4608999, "lon": -0.3362331}, {"type": "node", "id": 7530006502, "lat": 39.4533846, "lon": -0.3370242}, {"type": "node", "id": 7530006503, "lat": 39.4534472, "lon": -0.3365075}, {"type": "node", "id": 7530006508, "lat": 39.4535816, "lon": -0.3365361}, {"type": "node", "id": 7530006509, "lat": 39.4535181, "lon": -0.3370523}, {"type": "node", "id": 7704791464, "lat": 39.4695975, "lon": -0.3514287, "tags": {"barrier": "gate"}}, {"type": "node", "id": 7704791465, "lat": 39.4703846, "lon": -0.3511014, "tags": {"barrier": "gate"}}, {"type": "node", "id": 7704791466, "lat": 39.4702386, "lon": -0.3506097, "tags": {"barrier": "gate"}}, {"type": "node", "id": 7704791467, "lat": 39.470033, "lon": -0.3499174, "tags": {"barrier": "gate"}}, {"type": "node", "id": 7704791468, "lat": 39.4692727, "lon": -0.349969, "tags": {"addr:housenumber": "41", "addr:postcode": "46021", "addr:street": "Carrer del Doctor Manuel Candela", "barrier": "gate"}}, {"type": "node", "id": 7704791472, "lat": 39.4696061, "lon": -0.351458}, {"type": "node", "id": 7704791473, "lat": 39.4699644, "lon": -0.3496866}, {"type": "node", "id": 7704791474, "lat": 39.4703874, "lon": -0.3511108}, {"type": "node", "id": 9558480454, "lat": 39.4463584, "lon": -0.3714106}, {"type": "node", "id": 9558480455, "lat": 39.4467414, "lon": -0.3705028}, {"type": "node", "id": 9558480456, "lat": 39.4461148, "lon": -0.3700609}, {"type": "node", "id": 9558480457, "lat": 39.4457284, "lon": -0.3709746}, {"type": "node", "id": 10806992989, "lat": 39.4466738, "lon": -0.3706662}, {"type": "node", "id": 10806992990, "lat": 39.4466337, "lon": -0.370638}, {"type": "node", "id": 10806992991, "lat": 39.4466759, "lon": -0.3705376}, {"type": "node", "id": 10806992992, "lat": 39.4467159, "lon": -0.3705658}, {"type": "node", "id": 11046671317, "lat": 39.4693113, "lon": -0.3504171, "tags": {"barrier": "lift_gate"}}, {"type": "node", "id": 11766545659, "lat": 39.4533912, "lon": -0.3369692, "tags": {"amenity": "parking_entrance", "parking": "surface"}}, {"type": "node", "id": 11766545662, "lat": 39.4534448, "lon": -0.3365273, "tags": {"addr:city": "Val\u00e8ncia", "addr:housenumber": "11", "addr:postcode": "46024", "addr:street": "Carrer de Su\u00efssa", "entrance": "main", "wheelchair": "yes"}}, {"type": "node", "id": 11805207535, "lat": 39.4687393, "lon": -0.3706641, "tags": {"addr:city": "Val\u00e8ncia", "addr:city:ca": "Val\u00e8ncia", "addr:housenumber": "12", "addr:postcode": "46004", "addr:street": "Carrer d'Isabel la Cat\u00f2lica", "amenity": "hospital", "emergency": "yes", "healthcare": "hospital", "name": "Hospital IMED Col\u00f3n", "operator": "IMED", "operator:type": "private", "phone": "+34 963 00 30 02", "website": "https://www.imedhospitales.com/es/valencia-colon/"}}, {"type": "way", "id": 185044740, "nodes": [7704791472, 7704791474, 7704791465, 7704791466, 7704791467, 7704791473, 1956261737, 7704791468, 1956261797, 11046671317, 1956261765, 7704791464, 7704791472], "tags": {"amenity": "hospital", "healthcare": "hospital", "name": "Hospital Casa de la Salud", "name:ca": "Hospital Casa de la Salud", "wikidata": "Q30280018"}}, {"type": "way", "id": 205935284, "nodes": [7297685259, 7297685201, 7297685243, 7297742185, 7297685274, 7297685234, 7297685272, 7297685259], "tags": {"amenity": "hospital", "building": "yes", "healthcare": "hospital", "name": "Instituto Social de la Marina - Casa del Mar"}}, {"type": "way", "id": 805114543, "nodes": [7530006509, 7530006508, 7530006503, 11766545662, 11766545659, 7530006502, 7530006509], "tags": {"addr:city": "Val\u00e8ncia", "addr:housenumber": "11", "addr:postcode": "46024", "addr:street": "Carrer de Su\u00efssa", "amenity": "hospital", "building": "hospital", "healthcare": "hospital", "healthcare:speciality": "trauma;physiatry;rheumatology", "name": "Hospital ISMKE", "operator": "Ribera Salud", "operator:type": "private", "phone": "+34 963 69 00 00", "rooms": "18", "website": "https://www.imske.com"}}, {"type": "way", "id": 1037727888, "nodes": [9558480454, 10806992989, 10806992990, 10806992991, 10806992992, 9558480455, 9558480456, 9558480457, 9558480454], "tags": {"amenity": "hospital", "healthcare": "hospital", "name": "Hospital Vithas Val\u00e8ncia T\u00faria", "operator": "Vithas", "operator:type": "private"}}]}