{"version": 0.6, "generator": "Overpass API 0.7.62.8 e802775f", "osm3s": {"timestamp_osm_base": "2026-01-15T13:24:48Z", "copyright": "The data included in this document is from www.openstreetmap.org. The data is made available under ODbL."}, "elements": [{"type": "node", "id": 26418572, "lat": 52.0857233, "lon": 5.0863095}, {"type": "node", "id": 26418573, "lat": 52.085962, "lon": 5.0870538}, {"type": "node", "id": 26418574, "lat": 52.0862738, "lon": 5.0858633}, {"type": "node", "id": 26446041, "lat": 52.0863857, "lon": 5.0862555}, {"type": "node", "id": 30089807, "lat": 52.0942594, "lon": 5.1032387, "tags": {"amenity": "school", "name": "Haarstylisten college"}}, {"type": "node", "id": 30354449, "lat": 52.094302, "lon": 5.0886708, "tags": {"amenity": "school", "name": "Kinderdagverblyf Aspelin"}}, {"type": "node", "id": 89078129, "lat": 52.0826736, "lon": 5.1249635, "tags": {"addr:city": "Utrecht", "addr:housename": "Agatha Snellen", "addr:housenumber": "3", "addr:postcode": "3512XG", "addr:street": "Nicolaasdwarsstraat", "amenity": "school", "check_date": "2025-03-07", "name": "Agatha Snellen School", "source": "BAG", "source:date": "2014-02-11"}}, {"type": "node", "id": 240755740, "lat": 52.0669353, "lon": 5.0952373}, {"type": "node", "id": 240755745, "lat": 52.0670854, "lon": 5.0944892}, {"type": "node", "id": 240755747, "lat": 52.0673013, "lon": 5.0942712}, {"type": "node", "id": 240755749, "lat": 52.0672948, "lon": 5.0941902}, {"type": "node", "id": 240755752, "lat": 52.0671277, "lon": 5.093725}, {"type": "node", "id": 240755754, "lat": 52.0665824, "lon": 5.0942172}, {"type": "node", "id": 245962830, "lat": 52.0697061, "lon": 5.096614}, {"type": "node", "id": 245962831, "lat": 52.0693102, "lon": 5.0954557}, {"type": "node", "id": 245962833, "lat": 52.0697804, "lon": 5.0949986}, {"type": "node", "id": 245962834, "lat": 52.0701886, "lon": 5.0961688}, {"type": "node", "id": 246285455, "lat": 52.0673397, "lon": 5.1002543}, {"type": "node", "id": 246285458, "lat": 52.0672989, "lon": 5.1018291}, {"type": "node", "id": 246285476, "lat": 52.0676632, "lon": 5.1011778}, {"type": "node", "id": 246285481, "lat": 52.0668896, "lon": 5.1006878}, {"type": "node", "id": 246659750, "lat": 52.0703576, "lon": 5.0935774}, {"type": "node", "id": 246659751, "lat": 52.0707576, "lon": 5.0932059}, {"type": "node", "id": 246659752, "lat": 52.0710845, "lon": 5.0941357}, {"type": "node", "id": 246659753, "lat": 52.0706886, "lon": 5.0945143}, {"type": "node", "id": 257649708, "lat": 52.0796171, "lon": 5.0965655}, {"type": "node", "id": 257649709, "lat": 52.0799943, "lon": 5.0961941}, {"type": "node", "id": 257649710, "lat": 52.0800764, "lon": 5.0964611}, {"type": "node", "id": 257649712, "lat": 52.0801074, "lon": 5.0964367}, {"type": "node", "id": 257649713, "lat": 52.0805597, "lon": 5.0977524}, {"type": "node", "id": 257649714, "lat": 52.0801721, "lon": 5.0981178}, {"type": "node", "id": 257649715, "lat": 52.0771508, "lon": 5.0988321}, {"type": "node", "id": 257649717, "lat": 52.0774273, "lon": 5.0996955}, {"type": "node", "id": 257649718, "lat": 52.0777467, "lon": 5.099649}, {"type": "node", "id": 257649720, "lat": 52.0778887, "lon": 5.0996411}, {"type": "node", "id": 257649721, "lat": 52.0776934, "lon": 5.0990954}, {"type": "node", "id": 257649722, "lat": 52.0781147, "lon": 5.0987007}, {"type": "node", "id": 257649724, "lat": 52.0779023, "lon": 5.0981145}, {"type": "node", "id": 262903819, "lat": 52.0885313, "lon": 5.0988116}, {"type": "node", "id": 262903820, "lat": 52.0875341, "lon": 5.0997337}, {"type": "node", "id": 262903821, "lat": 52.0884456, "lon": 5.1002409}, {"type": "node", "id": 262903822, "lat": 52.0886194, "lon": 5.1000931}, {"type": "node", "id": 262903823, "lat": 52.0883939, "lon": 5.0993695}, {"type": "node", "id": 262903824, "lat": 52.0886353, "lon": 5.0991802}, {"type": "node", "id": 313793964, "lat": 52.0767166, "lon": 5.0916759, "tags": {"addr:city": "Utrecht", "addr:housenumber": "60B", "addr:postcode": "3527BR", "addr:street": "Trumanlaan", "amenity": "school", "denomination": "roman_catholic", "name": "De Zeven Gavenschool", "operator": "Katholieke Scholenstichting Utrecht", "phone": "+31 30 293 6476", "religion": "christian", "source": "BAG", "source:date": "2014-02-11", "website": "https://www.ksu-dezevengaven.nl/"}}, {"type": "node", "id": 413925760, "lat": 52.0907447, "lon": 5.1266171, "tags": {"addr:city": "Utrecht", "addr:housenumber": "3", "addr:postcode": "3512KV", "addr:street": "Hieronymusplantsoen", "amenity": "school", "name": "Vrije School Utrecht", "source": "BAG", "source:date": "2014-02-11", "website": "https://www.vrijeschoolutrecht.nl"}}, {"type": "node", "id": 612250967, "lat": 52.0684461, "lon": 5.1279698}, {"type": "node", "id": 612250972, "lat": 52.0688739, "lon": 5.1281807}, {"type": "node", "id": 613379033, "lat": 52.0688044, "lon": 5.121419}, {"type": "node", "id": 613379034, "lat": 52.0690468, "lon": 5.1215351}, {"type": "node", "id": 660846080, "lat": 52.0865151, "lon": 5.0866683}, {"type": "node", "id": 694711892, "lat": 52.0944594, "lon": 5.0981347}, {"type": "node", "id": 694712107, "lat": 52.0943648, "lon": 5.098414}, {"type": "node", "id": 694716622, "lat": 52.0877336, "lon": 5.1135304}, {"type": "node", "id": 694718407, "lat": 52.0944232, "lon": 5.0981608}, {"type": "node", "id": 694723569, "lat": 52.0945338, "lon": 5.099101}, {"type": "node", "id": 694723967, "lat": 52.0943874, "lon": 5.0984854}, {"type": "node", "id": 694729138, "lat": 52.0945905, "lon": 5.0982128}, {"type": "node", "id": 694729568, "lat": 52.0943999, "lon": 5.0981908}, {"type": "node", "id": 694737646, "lat": 52.0749302, "lon": 5.111412}, {"type": "node", "id": 694738576, "lat": 52.0903694, "lon": 5.0850316}, {"type": "node", "id": 694742009, "lat": 52.0874545, "lon": 5.1126312}, {"type": "node", "id": 694742240, "lat": 52.0944055, "lon": 5.0985168}, {"type": "node", "id": 694745619, "lat": 52.0738606, "lon": 5.1213055}, {"type": "node", "id": 694750249, "lat": 52.0689136, "lon": 5.1210454}, {"type": "node", "id": 694755128, "lat": 52.0944006, "lon": 5.0985095}, {"type": "node", "id": 694775102, "lat": 52.094376, "lon": 5.0982421}, {"type": "node", "id": 694783476, "lat": 52.0686369, "lon": 5.1209306}, {"type": "node", "id": 694800152, "lat": 52.0902951, "lon": 5.0849795}, {"type": "node", "id": 694803198, "lat": 52.0945079, "lon": 5.098195}, {"type": "node", "id": 694803865, "lat": 52.0943604, "lon": 5.0983182}, {"type": "node", "id": 694808576, "lat": 52.0875124, "lon": 5.1128337}, {"type": "node", "id": 694818814, "lat": 52.0874877, "lon": 5.1127401}, {"type": "node", "id": 697043758, "lat": 52.073883, "lon": 5.1210547}, {"type": "node", "id": 697043855, "lat": 52.0738289, "lon": 5.1216414}, {"type": "node", "id": 701119721, "lat": 52.0683049, "lon": 5.1272311}, {"type": "node", "id": 701120093, "lat": 52.0692704, "lon": 5.1276781}, {"type": "node", "id": 849605599, "lat": 52.0803743, "lon": 5.0959598}, {"type": "node", "id": 849606445, "lat": 52.0871947, "lon": 5.1132145}, {"type": "node", "id": 849607248, "lat": 52.0737052, "lon": 5.1216167}, {"type": "node", "id": 849608645, "lat": 52.0806375, "lon": 5.0963655}, {"type": "node", "id": 849616540, "lat": 52.0803084, "lon": 5.0959174}, {"type": "node", "id": 849625005, "lat": 52.080398, "lon": 5.0971675}, {"type": "node", "id": 849632346, "lat": 52.080516, "lon": 5.0962015}, {"type": "node", "id": 849637768, "lat": 52.0808739, "lon": 5.0965926}, {"type": "node", "id": 849643481, "lat": 52.0681998, "lon": 5.127664}, {"type": "node", "id": 849653153, "lat": 52.0736767, "lon": 5.1221138}, {"type": "node", "id": 849664805, "lat": 52.0692366, "lon": 5.1278639}, {"type": "node", "id": 849669585, "lat": 52.0807114, "lon": 5.0964476}, {"type": "node", "id": 849680304, "lat": 52.0871314, "lon": 5.1130233}, {"type": "node", "id": 849684355, "lat": 52.0691548, "lon": 5.1281224}, {"type": "node", "id": 849691146, "lat": 52.0803416, "lon": 5.0958857}, {"type": "node", "id": 849695945, "lat": 52.0810323, "lon": 5.0967014}, {"type": "node", "id": 849704533, "lat": 52.0870936, "lon": 5.1129049}, {"type": "node", "id": 849721847, "lat": 52.0804318, "lon": 5.0960664}, {"type": "node", "id": 849724242, "lat": 52.0874156, "lon": 5.1138804}, {"type": "node", "id": 849735652, "lat": 52.0682711, "lon": 5.1272662}, {"type": "node", "id": 849739394, "lat": 52.0736276, "lon": 5.1221044}, {"type": "node", "id": 854999526, "lat": 52.0899893, "lon": 5.0847754}, {"type": "node", "id": 855023181, "lat": 52.0904379, "lon": 5.0849915}, {"type": "node", "id": 855033959, "lat": 52.0904899, "lon": 5.0848001}, {"type": "node", "id": 855042932, "lat": 52.0906319, "lon": 5.0843021}, {"type": "node", "id": 874056581, "lat": 52.0930809, "lon": 5.1206385, "tags": {"addr:city": "Utrecht", "addr:housenumber": "3", "addr:postcode": "3512BK", "addr:street": "Janskerkhof", "amenity": "school", "name": "Faculteit Recht, economie, bestuur en organisatie", "operator": "Universiteit Utrecht", "school": "public", "source": "BAG", "source:date": "2014-02-11", "wheelchair": "limited"}}, {"type": "node", "id": 1239226243, "lat": 52.0747395, "lon": 5.1114424}, {"type": "node", "id": 1569560919, "lat": 52.0644425, "lon": 5.1202812, "tags": {"addr:city": "Utrecht", "addr:housenumber": "18", "addr:street": "Duurstedelaan", "amenity": "school", "check_date": "2025-08-15", "name": "Ari\u00ebnsschool", "toilets:wheelchair": "yes", "wheelchair": "yes", "wheelchair:description": "Zware deurdrangers. Lift 1,1 x 2,1 m."}}, {"type": "node", "id": 1569560921, "lat": 52.064384, "lon": 5.1207459, "tags": {"addr:city": "Utrecht", "addr:housenumber": "14", "addr:postcode": "3525AR", "addr:street": "Duurstedelaan", "amenity": "school", "check_date": "2025-08-15", "name": "Da Costaschool", "source": "BAG", "source:date": "2014-01-22", "toilets:wheelchair": "yes", "wheelchair": "yes", "wheelchair:description": "Zware deurdrangers. Lift 1,1 x 2,1 m."}}, {"type": "node", "id": 1569560922, "lat": 52.0647684, "lon": 5.1204136, "tags": {"addr:city": "Utrecht", "addr:housenumber": "22", "addr:street": "Duurstedelaan", "amenity": "school", "check_date": "2025-08-15", "name": "o.b.s. De Hoge Raven", "toilets:wheelchair": "yes", "wheelchair": "yes", "wheelchair:description": "Zware deurdrangers. Lift 1,1 x 2,1 m."}}, {"type": "node", "id": 1569560976, "lat": 52.06484, "lon": 5.1211057}, {"type": "node", "id": 1569560977, "lat": 52.0649868, "lon": 5.1202862}, {"type": "node", "id": 1569561016, "lat": 52.0683327, "lon": 5.1218}, {"type": "node", "id": 1569561022, "lat": 52.0685093, "lon": 5.1209086}, {"type": "node", "id": 1569561063, "lat": 52.069117, "lon": 5.1211419}, {"type": "node", "id": 1765606395, "lat": 52.0925645, "lon": 5.1258264, "tags": {"addr:city": "Utrecht", "addr:housenumber": "9", "addr:postcode": "3512EW", "addr:street": "Nobeldwarsstraat", "alt_name": "Waldorf Utrecht", "amenity": "school", "name": "St. Gregorius college", "note": "Closes by the end of June 2024", "phone": "+31 30 23 26 795", "source": "BAG;survey", "source:date": "2014-02-11", "website": "https://gregorius.nl/"}}, {"type": "node", "id": 1914494157, "lat": 52.0944714, "lon": 5.0990406}, {"type": "node", "id": 1914494158, "lat": 52.0943937, "lon": 5.0984979}, {"type": "node", "id": 1914494160, "lat": 52.0943642, "lon": 5.0990173}, {"type": "node", "id": 1940582721, "lat": 52.0874363, "lon": 5.1254453, "tags": {"addr:city": "Utrecht", "addr:housenumber": "69A", "addr:postcode": "3512LG", "addr:street": "Nieuwegracht", "amenity": "school", "check_date": "2025-08-21", "name": "Winford", "source": "BAG", "source:date": "2014-02-11", "website": "https://www.winford.nl/voortgezet-onderwijs/Locaties/winford-utrecht/"}}, {"type": "node", "id": 2008452774, "lat": 52.0638615, "lon": 5.1206425}, {"type": "node", "id": 2008452776, "lat": 52.0640045, "lon": 5.1198259}, {"type": "node", "id": 2262718517, "lat": 52.0800554, "lon": 5.0961482}, {"type": "node", "id": 2262718520, "lat": 52.0803696, "lon": 5.097192}, {"type": "node", "id": 2268141757, "lat": 52.0874292, "lon": 5.1126229}, {"type": "node", "id": 2268141761, "lat": 52.0877555, "lon": 5.1135992}, {"type": "node", "id": 2268141763, "lat": 52.0873254, "lon": 5.1127141}, {"type": "node", "id": 2268141764, "lat": 52.0872162, "lon": 5.1128112}, {"type": "node", "id": 2303451204, "lat": 52.0733835, "lon": 5.1209807}, {"type": "node", "id": 2442985792, "lat": 52.0855164, "lon": 5.0874353}, {"type": "node", "id": 2442985796, "lat": 52.0852362, "lon": 5.0876553}, {"type": "node", "id": 2442985798, "lat": 52.084989, "lon": 5.0868452}, {"type": "node", "id": 2442985799, "lat": 52.0852626, "lon": 5.0866145}, {"type": "node", "id": 2443979447, "lat": 52.0796908, "lon": 5.1111963, "tags": {"amenity": "school", "name": "De kleine Dichter"}}, {"type": "node", "id": 2449322964, "lat": 52.0730255, "lon": 5.1220685}, {"type": "node", "id": 2449322965, "lat": 52.0730309, "lon": 5.1219507}, {"type": "node", "id": 2449322966, "lat": 52.0730488, "lon": 5.1214105}, {"type": "node", "id": 2449322968, "lat": 52.0730687, "lon": 5.1209016}, {"type": "node", "id": 2449322976, "lat": 52.0731316, "lon": 5.1209174}, {"type": "node", "id": 2587586762, "lat": 52.090335, "lon": 5.0840903}, {"type": "node", "id": 2587586763, "lat": 52.090213, "lon": 5.0840072}, {"type": "node", "id": 2587586764, "lat": 52.0901784, "lon": 5.0840152}, {"type": "node", "id": 2587586765, "lat": 52.0901455, "lon": 5.0840662}, {"type": "node", "id": 2587586766, "lat": 52.0899938, "lon": 5.0846348}, {"type": "node", "id": 2587586767, "lat": 52.0899642, "lon": 5.0847609}, {"type": "node", "id": 2630576434, "lat": 52.0614182, "lon": 5.1339926, "tags": {"addr:city": "Utrecht", "addr:housenumber": "14", "addr:postcode": "3524HH", "addr:street": "Eifel", "amenity": "school", "email": "info@bsopavontuur.nl", "name": "OBS Op Avontuur", "phone": "+31 30 288 87 89", "source": "BAG", "source:date": "2013-11-26", "website": "https://bsopavontuur.nl/"}}, {"type": "node", "id": 2630576540, "lat": 52.0608163, "lon": 5.1340876, "tags": {"addr:city": "Utrecht", "addr:housenumber": "26", "addr:postcode": "3524HH", "addr:street": "Eifel", "amenity": "school", "name": "OBS de Klim", "phone": "+31 30 288 8788", "source": "BAG", "source:date": "2013-11-26", "website": "https://obsdeklim.nl"}}, {"type": "node", "id": 2630576816, "lat": 52.0614443, "lon": 5.1346028, "tags": {"addr:city": "Utrecht", "addr:housenumber": "8", "addr:postcode": "3524HH", "addr:street": "Eifel", "amenity": "school", "name": "Basisschool De Spits", "source": "BAG", "source:date": "2013-11-26", "toilets:wheelchair": "yes", "wheelchair": "yes", "wheelchair:description": "Plateaulift 1,1 x 1,3 m. Toilet 2,1 x 2,3 m."}}, {"type": "node", "id": 2637466963, "lat": 52.0651492, "lon": 5.1174853, "tags": {"addr:city": "Utrecht", "addr:housenumber": "150B", "addr:postcode": "3525BL", "addr:street": "Verlengde Hoogravenseweg", "amenity": "school", "name": "Agora Hub030", "source": "BAG", "source:date": "2014-01-22", "website": "https://www.agorahub030.nl/"}}, {"type": "node", "id": 2656833205, "lat": 52.0788261, "lon": 5.1335757, "tags": {"addr:city": "Utrecht", "addr:housenumber": "20", "addr:postcode": "3582GR", "addr:street": "Kranenburgerweg", "amenity": "school", "check_date": "2025-03-26", "email": "info@krommerijncollege.nl", "max_age": "17", "min_age": "11", "name": "Kromme Rijn College", "phone": "+31 30 850 5600", "source": "BAG", "source:date": "2014-02-05", "website": "https://www.krommerijncollege.nl"}}, {"type": "node", "id": 2656833282, "lat": 52.0785034, "lon": 5.1369713, "tags": {"addr:city": "Utrecht", "addr:housenumber": "4", "addr:postcode": "3582HN", "addr:street": "Mesdaglaan", "amenity": "school", "name": "Kromme Rijn College", "operator": "Vastgoed Gemeente Utrecht", "phone": "+31 30 850 5600", "source": "BAG", "source:date": "2014-02-05", "toilets:wheelchair": "no", "wheelchair": "limited", "wheelchair:description": "Drempel buitendeur ca 6 cm. Drempel portaaldeur ca 5 cm."}}, {"type": "node", "id": 2667571048, "lat": 52.0832863, "lon": 5.1354963, "tags": {"addr:city": "Utrecht", "addr:housenumber": "400", "addr:postcode": "3582CN", "addr:street": "Notebomenlaan", "amenity": "school", "check_date": "2025-11-28", "email": "secretariaat@mensuracollege.nl", "min_age": "11", "name": "Mensuracollege", "school:type": "vmbo-tl;havo;vwo", "source": "BAG", "source:date": "2014-02-11", "toilets:wheelchair": "yes", "website": "https://www.mensuracollegeutrecht.nl", "wheelchair": "limited", "wheelchair:description": "Drempel ca 4 cm. Ontbreekt beugel op toiletdeur."}}, {"type": "node", "id": 2667573156, "lat": 52.0822401, "lon": 5.133155, "tags": {"addr:city": "Utrecht", "addr:housenumber": "7", "addr:postcode": "3582VA", "addr:street": "Ina Boudier-Bakkerlaan", "amenity": "school", "name": "Utrechts Stedelijk Gymnasium", "source": "BAG", "source:date": "2014-02-11"}}, {"type": "node", "id": 2667576353, "lat": 52.0824858, "lon": 5.135484}, {"type": "node", "id": 2672286260, "lat": 52.0932182, "lon": 5.1347369, "tags": {"addr:city": "Utrecht", "addr:housenumber": "56", "addr:postcode": "3581CT", "addr:street": "Maliebaan", "amenity": "school", "name": "De Vrije School Utrecht", "source": "BAG", "source:date": "2014-02-11", "toilets:wheelchair": "yes", "wheelchair": "limited", "wheelchair:description": "Drempel ca 7 cm. Verdieping niet bereikbaar."}}, {"type": "node", "id": 2672286475, "lat": 52.093849, "lon": 5.1318268, "tags": {"addr:city": "Utrecht", "addr:housenumber": "6", "addr:postcode": "3581GL", "addr:street": "Kruisdwarsstraat", "amenity": "school", "description": "Buitenschoolse opvang", "name": "Partou Kinderopvang;Nieuwe Regentesseschool", "phone": "+31 30 231 7488", "source": "BAG", "source:date": "2014-02-11", "toilets:wheelchair": "yes", "wheelchair": "yes"}}, {"type": "node", "id": 2683724067, "lat": 52.0824266, "lon": 5.1220828, "tags": {"addr:city": "Utrecht", "addr:housenumber": "1", "addr:postcode": "3511XX", "addr:street": "Diaconessenstraat", "amenity": "school", "check_date": "2025-10-27", "name": "Luzac", "phone": "+31 30 232 2797", "source": "BAG", "source:date": "2014-02-11", "website": "https://www.luzac.nl/", "wheelchair": "no"}}, {"type": "node", "id": 2684308498, "lat": 52.090898, "lon": 5.1258779}, {"type": "node", "id": 2684308508, "lat": 52.0908993, "lon": 5.1258797}, {"type": "node", "id": 2684308559, "lat": 52.0909265, "lon": 5.1258046}, {"type": "node", "id": 2684308638, "lat": 52.0909402, "lon": 5.1258179}, {"type": "node", "id": 2684308712, "lat": 52.0909689, "lon": 5.1256901}, {"type": "node", "id": 2684308734, "lat": 52.0909833, "lon": 5.1257041}, {"type": "node", "id": 2684308850, "lat": 52.0910495, "lon": 5.1254723}, {"type": "node", "id": 2684308952, "lat": 52.0910893, "lon": 5.1253644}, {"type": "node", "id": 2684309047, "lat": 52.0911271, "lon": 5.1251959}, {"type": "node", "id": 2684309104, "lat": 52.0911823, "lon": 5.1251897}, {"type": "node", "id": 2684309168, "lat": 52.0912336, "lon": 5.1260723}, {"type": "node", "id": 2684309180, "lat": 52.0912346, "lon": 5.126073}, {"type": "node", "id": 2684309183, "lat": 52.0912369, "lon": 5.1259409}, {"type": "node", "id": 2684309235, "lat": 52.0912616, "lon": 5.1251857}, {"type": "node", "id": 2684309263, "lat": 52.0912815, "lon": 5.1251394}, {"type": "node", "id": 2684309270, "lat": 52.091287, "lon": 5.1251856}, {"type": "node", "id": 2684309277, "lat": 52.0912997, "lon": 5.1251282}, {"type": "node", "id": 2684309304, "lat": 52.0913183, "lon": 5.1251164}, {"type": "node", "id": 2684309306, "lat": 52.0913183, "lon": 5.1251175}, {"type": "node", "id": 2684309316, "lat": 52.0913212, "lon": 5.1251146}, {"type": "node", "id": 2684309368, "lat": 52.0913458, "lon": 5.1251015}, {"type": "node", "id": 2684309369, "lat": 52.0913461, "lon": 5.1251027}, {"type": "node", "id": 2684309390, "lat": 52.0913648, "lon": 5.1256661}, {"type": "node", "id": 2684309506, "lat": 52.0914008, "lon": 5.1253395}, {"type": "node", "id": 2684309648, "lat": 52.0914617, "lon": 5.1256041}, {"type": "node", "id": 2714048615, "lat": 52.0876411, "lon": 5.1135046, "tags": {"addr:city": "Utrecht", "addr:housenumber": "2a", "addr:postcode": "3511ER", "addr:street": "Laan van Puntenburg", "amenity": "school", "name": "Openbare Dalton Basisschool Puntenburg", "source": "BAG", "source:date": "2014-02-11", "toilets:wheelchair": "yes", "wheelchair": "yes", "wheelchair:description": "Toilet 2,7 x 2,7 m."}}, {"type": "node", "id": 2717424125, "lat": 52.094359, "lon": 5.0983504}, {"type": "node", "id": 2717424128, "lat": 52.0943593, "lon": 5.0983343}, {"type": "node", "id": 2717424130, "lat": 52.0943594, "lon": 5.0983665}, {"type": "node", "id": 2717424135, "lat": 52.0943605, "lon": 5.0983826}, {"type": "node", "id": 2717424146, "lat": 52.0943621, "lon": 5.0983023}, {"type": "node", "id": 2717424148, "lat": 52.0943623, "lon": 5.0983984}, {"type": "node", "id": 2717424158, "lat": 52.0943646, "lon": 5.0982867}, {"type": "node", "id": 2717424172, "lat": 52.0943677, "lon": 5.0982714}, {"type": "node", "id": 2717424175, "lat": 52.0943681, "lon": 5.0984293}, {"type": "node", "id": 2717424190, "lat": 52.0943715, "lon": 5.0982565}, {"type": "node", "id": 2717424192, "lat": 52.0943719, "lon": 5.0984441}, {"type": "node", "id": 2717424212, "lat": 52.0943765, "lon": 5.0984585}, {"type": "node", "id": 2717424239, "lat": 52.0943811, "lon": 5.0982282}, {"type": "node", "id": 2717424247, "lat": 52.0943816, "lon": 5.0984723}, {"type": "node", "id": 2717424265, "lat": 52.0943868, "lon": 5.098215}, {"type": "node", "id": 2717424357, "lat": 52.0943931, "lon": 5.0982025}, {"type": "node", "id": 2717424513, "lat": 52.0944072, "lon": 5.0981799}, {"type": "node", "id": 2717424626, "lat": 52.094415, "lon": 5.0981699}, {"type": "node", "id": 2717424911, "lat": 52.0944318, "lon": 5.0981527}, {"type": "node", "id": 2717425075, "lat": 52.0944407, "lon": 5.0981456}, {"type": "node", "id": 2717425290, "lat": 52.09445, "lon": 5.0981396}, {"type": "node", "id": 2717425600, "lat": 52.0944675, "lon": 5.0990562}, {"type": "node", "id": 2721306540, "lat": 52.0899531, "lon": 5.098753, "tags": {"addr:city": "Utrecht", "addr:housenumber": "40", "addr:postcode": "3531EJ", "addr:street": "Van Riebeeckstraat", "amenity": "school", "isced:level": "1", "name": "Parkschool", "source": "BAG", "source:date": "2014-02-11", "website": "https://www.kindercampusmolenpark.nl/"}}, {"type": "node", "id": 2721307664, "lat": 52.0903047, "lon": 5.0935804, "tags": {"addr:city": "Utrecht", "addr:housenumber": "45", "addr:postcode": "3531TH", "addr:street": "Billitonkade", "amenity": "school", "grades": "1-2", "name": "Jenaplanschool De Brug", "source": "BAG", "source:date": "2014-02-11", "website": "https://www.jenaplandebrug.nl/"}}, {"type": "node", "id": 2721315875, "lat": 52.0914933, "lon": 5.0953807, "tags": {"addr:city": "Utrecht", "addr:housenumber": "1A", "addr:postcode": "3531HR", "addr:street": "Maetsuykerstraat", "amenity": "school", "name": "Jan Nieuwenhuyzenschool", "source": "BAG", "source:date": "2014-02-11"}}, {"type": "node", "id": 2721340018, "lat": 52.0901995, "lon": 5.0935535}, {"type": "node", "id": 2721340081, "lat": 52.0902071, "lon": 5.0936799}, {"type": "node", "id": 2721340161, "lat": 52.0902161, "lon": 5.0938073}, {"type": "node", "id": 2721340172, "lat": 52.0902193, "lon": 5.0938573}, {"type": "node", "id": 2721340177, "lat": 52.0902218, "lon": 5.0935499}, {"type": "node", "id": 2721340457, "lat": 52.0902291, "lon": 5.094013}, {"type": "node", "id": 2721340473, "lat": 52.0902321, "lon": 5.0940655}, {"type": "node", "id": 2721340608, "lat": 52.0902477, "lon": 5.0943249}, {"type": "node", "id": 2721340727, "lat": 52.0902664, "lon": 5.0943202}, {"type": "node", "id": 2721341886, "lat": 52.0902866, "lon": 5.0943151}, {"type": "node", "id": 2721342266, "lat": 52.0903278, "lon": 5.0943077}, {"type": "node", "id": 2721343642, "lat": 52.0903485, "lon": 5.0943021}, {"type": "node", "id": 2721343680, "lat": 52.0903511, "lon": 5.0942821}, {"type": "node", "id": 2721343927, "lat": 52.0903647, "lon": 5.0935263}, {"type": "node", "id": 2721344133, "lat": 52.0903839, "lon": 5.0935237}, {"type": "node", "id": 2721344161, "lat": 52.0903864, "lon": 5.0935234}, {"type": "node", "id": 2721346471, "lat": 52.090456, "lon": 5.0942549}, {"type": "node", "id": 2726124114, "lat": 52.0790859, "lon": 5.0973543, "tags": {"addr:city": "Utrecht", "addr:housenumber": "25", "addr:postcode": "3527VX", "addr:street": "Grebbeberglaan", "amenity": "school", "name": "Internationale school", "source": "BAG", "source:date": "2014-02-11", "toilets:wheelchair": "yes", "wheelchair": "yes", "wheelchair:description": "Lift 1,1 x 1,4 m."}}, {"type": "node", "id": 2726131056, "lat": 52.0768807, "lon": 5.0909909, "tags": {"addr:city": "Utrecht", "addr:housenumber": "60A", "addr:postcode": "3527BR", "addr:street": "Trumanlaan", "alt_name": "Openbare Basisschool De Panda", "amenity": "school", "grades": "1-8", "name": "Obs De Panda", "source": "BAG", "source:date": "2014-02-11", "website": "https://www.depanda.nl/"}}, {"type": "node", "id": 2726147566, "lat": 52.0771975, "lon": 5.0989686}, {"type": "node", "id": 2726148190, "lat": 52.077323, "lon": 5.0993254}, {"type": "node", "id": 2726148665, "lat": 52.0773973, "lon": 5.0995353}, {"type": "node", "id": 3023162693, "lat": 52.0673479, "lon": 5.095666, "tags": {"addr:city": "Utrecht", "addr:housenumber": "1", "addr:postcode": "3526RA", "addr:street": "Bontekoelaan", "amenity": "school", "check_date": "2025-04-03", "fax": "+31 30 511 2020", "min_age": "11", "name": "Globecollege", "phone": "+31 30 511 2000", "source": "BAG", "source:date": "2014-08-17", "website": "https://www.globecollege.nl"}}, {"type": "node", "id": 3023169324, "lat": 52.0660423, "lon": 5.0993645, "tags": {"addr:city": "Utrecht", "addr:housenumber": "485", "addr:postcode": "3526GH", "addr:street": "Marco Pololaan", "amenity": "school", "check_date": "2025-10-07", "name": "Luc Stevensschool", "source": "BAG", "source:date": "2018-09-01", "website": "https://www.sbolucstevensschool.nl"}}, {"type": "node", "id": 3024584122, "lat": 52.0723558, "lon": 5.1143688, "tags": {"addr:city": "Utrecht", "addr:housenumber": "1", "addr:postcode": "3522BV", "addr:street": "Maasplein", "amenity": "school", "check_date": "2025-05-10", "name": "Maaspleinschool", "source": "BAG", "source:date": "2014-08-18", "toilets:wheelchair": "yes", "wheelchair": "yes"}}, {"type": "node", "id": 3024597971, "lat": 52.0716337, "lon": 5.1175474, "tags": {"amenity": "school", "name": "De Wereldwijzer", "source": "survey and yahoo aerial imaging"}}, {"type": "node", "id": 3024597972, "lat": 52.074934, "lon": 5.1109092, "tags": {"amenity": "school", "check_date": "2025-05-02", "name": "W.G. van de Hulstschool De Waal", "source": "Bing"}}, {"type": "node", "id": 3024617596, "lat": 52.0746847, "lon": 5.1108847}, {"type": "node", "id": 3024617605, "lat": 52.0746895, "lon": 5.1108833}, {"type": "node", "id": 3024617606, "lat": 52.07469, "lon": 5.1108879}, {"type": "node", "id": 3024617610, "lat": 52.0746936, "lon": 5.1109879}, {"type": "node", "id": 3024617614, "lat": 52.0746945, "lon": 5.1109876}, {"type": "node", "id": 3024617650, "lat": 52.0747134, "lon": 5.1108805}, {"type": "node", "id": 3024617651, "lat": 52.0747135, "lon": 5.1108819}, {"type": "node", "id": 3024617654, "lat": 52.0747154, "lon": 5.1108799}, {"type": "node", "id": 3024617655, "lat": 52.0747155, "lon": 5.1108814}, {"type": "node", "id": 3024617715, "lat": 52.0747393, "lon": 5.1108739}, {"type": "node", "id": 3024617716, "lat": 52.0747394, "lon": 5.1108753}, {"type": "node", "id": 3024617720, "lat": 52.0747412, "lon": 5.1108734}, {"type": "node", "id": 3024617721, "lat": 52.0747414, "lon": 5.1108748}, {"type": "node", "id": 3024617813, "lat": 52.0747912, "lon": 5.1108607}, {"type": "node", "id": 3024617814, "lat": 52.0747913, "lon": 5.1108621}, {"type": "node", "id": 3024617818, "lat": 52.0747931, "lon": 5.1108602}, {"type": "node", "id": 3024617819, "lat": 52.0747933, "lon": 5.1108616}, {"type": "node", "id": 3024617875, "lat": 52.0747652, "lon": 5.1108673}, {"type": "node", "id": 3024617876, "lat": 52.0747653, "lon": 5.1108687}, {"type": "node", "id": 3024617883, "lat": 52.0747672, "lon": 5.1108668}, {"type": "node", "id": 3024617884, "lat": 52.0747674, "lon": 5.1108682}, {"type": "node", "id": 3024618055, "lat": 52.074818, "lon": 5.1108539}, {"type": "node", "id": 3024618056, "lat": 52.0748181, "lon": 5.1108553}, {"type": "node", "id": 3024618060, "lat": 52.07482, "lon": 5.1108534}, {"type": "node", "id": 3024618061, "lat": 52.0748201, "lon": 5.1108548}, {"type": "node", "id": 3024618112, "lat": 52.0748422, "lon": 5.1108443}, {"type": "node", "id": 3024618114, "lat": 52.0748427, "lon": 5.1108491}, {"type": "node", "id": 3024618125, "lat": 52.0748468, "lon": 5.110843}, {"type": "node", "id": 3024618127, "lat": 52.0748474, "lon": 5.1108492}, {"type": "node", "id": 3024618270, "lat": 52.0749118, "lon": 5.1108096}, {"type": "node", "id": 3024618277, "lat": 52.074914, "lon": 5.1108322}, {"type": "node", "id": 3024618439, "lat": 52.0749907, "lon": 5.1113961}, {"type": "node", "id": 3024618441, "lat": 52.0749911, "lon": 5.1113997}, {"type": "node", "id": 3024618445, "lat": 52.0749937, "lon": 5.1107891}, {"type": "node", "id": 3024618478, "lat": 52.0750121, "lon": 5.110977}, {"type": "node", "id": 3024618506, "lat": 52.0750259, "lon": 5.1113909}, {"type": "node", "id": 3024618526, "lat": 52.0750317, "lon": 5.1111777}, {"type": "node", "id": 3024618569, "lat": 52.0750509, "lon": 5.1113738}, {"type": "node", "id": 3035937708, "lat": 52.0686307, "lon": 5.1277062, "tags": {"amenity": "school", "check_date": "2025-09-09", "name": "Blauwe Aventurijn", "note": "Basisonderwijs", "website": "https://www.blauwe-aventurijn.nl"}}, {"type": "node", "id": 3200354042, "lat": 52.0646064, "lon": 5.1070313}, {"type": "node", "id": 3200354043, "lat": 52.0654474, "lon": 5.1072578}, {"type": "node", "id": 3200354044, "lat": 52.0655991, "lon": 5.1059534}, {"type": "node", "id": 3200354045, "lat": 52.0647427, "lon": 5.105685}, {"type": "node", "id": 3300146413, "lat": 52.0781751, "lon": 5.1178997}, {"type": "node", "id": 3300146414, "lat": 52.0785394, "lon": 5.1175407}, {"type": "node", "id": 3401564488, "lat": 52.0881335, "lon": 5.0990618}, {"type": "node", "id": 3401564489, "lat": 52.0877984, "lon": 5.099327}, {"type": "node", "id": 3401564490, "lat": 52.0875056, "lon": 5.0995548}, {"type": "node", "id": 3401564491, "lat": 52.0874605, "lon": 5.0996926}, {"type": "node", "id": 3401569535, "lat": 52.0749052, "lon": 5.1114165, "tags": {"barrier": "gate"}}, {"type": "node", "id": 3401569537, "lat": 52.0747089, "lon": 5.111127}, {"type": "node", "id": 3401569539, "lat": 52.0746989, "lon": 5.1110425}, {"type": "node", "id": 3401920167, "lat": 52.0824887, "lon": 5.131664}, {"type": "node", "id": 3401920169, "lat": 52.0819414, "lon": 5.1334637}, {"type": "node", "id": 3401920170, "lat": 52.0827837, "lon": 5.1332836}, {"type": "node", "id": 3401931353, "lat": 52.0828384, "lon": 5.1360016}, {"type": "node", "id": 3401931354, "lat": 52.0821311, "lon": 5.1359234}, {"type": "node", "id": 3401931355, "lat": 52.082104, "lon": 5.1364756}, {"type": "node", "id": 3401931356, "lat": 52.08212, "lon": 5.1367357}, {"type": "node", "id": 3401931357, "lat": 52.0827293, "lon": 5.1367375}, {"type": "node", "id": 3401931358, "lat": 52.0839422, "lon": 5.1375875}, {"type": "node", "id": 3401931359, "lat": 52.0840139, "lon": 5.1372593}, {"type": "node", "id": 3401931360, "lat": 52.0836834, "lon": 5.1369805}, {"type": "node", "id": 3401931361, "lat": 52.0837326, "lon": 5.1358869}, {"type": "node", "id": 3401931362, "lat": 52.0831194, "lon": 5.1358343}, {"type": "node", "id": 3401931363, "lat": 52.0830307, "lon": 5.1365046}, {"type": "node", "id": 3401931364, "lat": 52.082925, "lon": 5.136465}, {"type": "node", "id": 3401931365, "lat": 52.0828861, "lon": 5.136813}, {"type": "node", "id": 3401931366, "lat": 52.0830975, "lon": 5.1368743}, {"type": "node", "id": 3417753145, "lat": 52.0857395, "lon": 5.1359115}, {"type": "node", "id": 3417753146, "lat": 52.0856691, "lon": 5.1368382}, {"type": "node", "id": 3417753147, "lat": 52.0859827, "lon": 5.1368706}, {"type": "node", "id": 3417753148, "lat": 52.0866281, "lon": 5.1369243}, {"type": "node", "id": 3417753149, "lat": 52.0864339, "lon": 5.1367077}, {"type": "node", "id": 3417753150, "lat": 52.0865957, "lon": 5.1363269}, {"type": "node", "id": 3417753151, "lat": 52.0864614, "lon": 5.1361706}, {"type": "node", "id": 3417753152, "lat": 52.0865726, "lon": 5.1359263}, {"type": "node", "id": 3417753153, "lat": 52.0861231, "lon": 5.1353741}, {"type": "node", "id": 3417753154, "lat": 52.0859709, "lon": 5.1354012}, {"type": "node", "id": 3417753155, "lat": 52.0858056, "lon": 5.1357454}, {"type": "node", "id": 3417753156, "lat": 52.0858166, "lon": 5.1359994}, {"type": "node", "id": 3417753157, "lat": 52.0859076, "lon": 5.136242}, {"type": "node", "id": 3417806394, "lat": 52.0946479, "lon": 5.0982373}, {"type": "node", "id": 3417806395, "lat": 52.0946915, "lon": 5.0983116}, {"type": "node", "id": 3417806396, "lat": 52.0946491, "lon": 5.0991035}, {"type": "node", "id": 3417806397, "lat": 52.094583, "lon": 5.0991526}, {"type": "node", "id": 3417806399, "lat": 52.0942706, "lon": 5.0989639}, {"type": "node", "id": 3417806400, "lat": 52.0943028, "lon": 5.0985607}, {"type": "node", "id": 3837326747, "lat": 52.0906261, "lon": 5.0910922}, {"type": "node", "id": 3837326748, "lat": 52.0904753, "lon": 5.0917775}, {"type": "node", "id": 3837326749, "lat": 52.090135, "lon": 5.091229}, {"type": "node", "id": 3837326750, "lat": 52.0903187, "lon": 5.0908696}, {"type": "node", "id": 3837326751, "lat": 52.0904605, "lon": 5.090891}, {"type": "node", "id": 3837326752, "lat": 52.090486, "lon": 5.0910117}, {"type": "node", "id": 4058379826, "lat": 52.0683599, "lon": 5.1216709}, {"type": "node", "id": 4664328293, "lat": 52.0860574, "lon": 5.1355097}, {"type": "node", "id": 4694342951, "lat": 52.0874724, "lon": 5.081242}, {"type": "node", "id": 4694342952, "lat": 52.0877625, "lon": 5.0802335}, {"type": "node", "id": 4694342953, "lat": 52.0878021, "lon": 5.0807487}, {"type": "node", "id": 4694342954, "lat": 52.0876576, "lon": 5.0812347}, {"type": "node", "id": 4694342955, "lat": 52.0874436, "lon": 5.0812435, "tags": {"amenity": "waste_basket", "ref:source": "1234412.0", "source": "utrecht.dataplatform.nl"}}, {"type": "node", "id": 4694342957, "lat": 52.0872679, "lon": 5.0812671}, {"type": "node", "id": 4694342958, "lat": 52.0876323, "lon": 5.0802604}, {"type": "node", "id": 4694342959, "lat": 52.0876508, "lon": 5.080963}, {"type": "node", "id": 4772290505, "lat": 52.0872038, "lon": 5.0803295}, {"type": "node", "id": 5002094576, "lat": 52.0822048, "lon": 5.131767}, {"type": "node", "id": 5002094577, "lat": 52.0819173, "lon": 5.1318714}, {"type": "node", "id": 5170873921, "lat": 52.0884674, "lon": 5.0899568, "tags": {"addr:housenumber": "1D", "addr:street": "Everard Meijsterlaan", "amenity": "school", "check_date": "2025-11-14", "name": "Sint Dominicus", "name:en": "Saint Dominicus", "opening_hours": "Mo-Fr 08:45-15:30", "website": "https://www.ksu-stdominicus.nl"}}, {"type": "node", "id": 5412386773, "lat": 52.0788147, "lon": 5.1183199}, {"type": "node", "id": 5412386775, "lat": 52.0786914, "lon": 5.1186161}, {"type": "node", "id": 5420430564, "lat": 52.0687016, "lon": 5.1220101}, {"type": "node", "id": 5505497123, "lat": 52.0722436, "lon": 5.118187, "tags": {"addr:city": "Utrecht", "addr:housenumber": "128", "addr:postcode": "3522HK", "addr:street": "Jutfaseweg", "amenity": "school", "check_date": "2025-03-05", "name": "Bella Hendriks Modevakschool", "toilets:wheelchair": "no", "wheelchair": "yes"}}, {"type": "node", "id": 5505777122, "lat": 52.079968, "lon": 5.0998922, "tags": {"addr:city": "Utrecht", "addr:housenumber": "11", "addr:postcode": "3527VX", "addr:street": "Grebbeberglaan", "amenity": "school", "name": "MBO Utrecht", "toilets:wheelchair": "yes", "wheelchair": "yes", "wheelchair:description": "Lift 1,1 x 2,1 m. Toilet 1,9 x 1,9 m."}}, {"type": "node", "id": 5551282459, "lat": 52.0647553, "lon": 5.1319478}, {"type": "node", "id": 5551282460, "lat": 52.0646799, "lon": 5.1321424}, {"type": "node", "id": 5551282461, "lat": 52.0646674, "lon": 5.1326346}, {"type": "node", "id": 5551282462, "lat": 52.0649382, "lon": 5.1326566}, {"type": "node", "id": 5551282463, "lat": 52.0651683, "lon": 5.1327398}, {"type": "node", "id": 5551282464, "lat": 52.0652411, "lon": 5.1323946}, {"type": "node", "id": 6339510705, "lat": 52.0829901, "lon": 5.1346233}, {"type": "node", "id": 6339510706, "lat": 52.082428, "lon": 5.1347339}, {"type": "node", "id": 6339510707, "lat": 52.0824663, "lon": 5.1354879}, {"type": "node", "id": 6339510708, "lat": 52.0824827, "lon": 5.1357145}, {"type": "node", "id": 6339510709, "lat": 52.0828622, "lon": 5.1357269}, {"type": "node", "id": 7014770023, "lat": 52.0749822, "lon": 5.110792, "tags": {"defibrillator:location": "Aan de muur", "emergency": "defibrillator", "indoor": "no"}}, {"type": "node", "id": 7179687830, "lat": 52.0819196, "lon": 5.1320222, "tags": {"access": "private", "barrier": "sliding_gate", "bicycle": "destination", "foot": "private", "height": "2", "material": "steel", "motor_vehicle": "private", "opening_hours": "Mo-Fr 08:00-18:00", "wheelchair": "yes"}}, {"type": "node", "id": 8508398433, "lat": 52.0944, "lon": 5.0985833}, {"type": "node", "id": 8508398436, "lat": 52.0943671, "lon": 5.0989821}, {"type": "node", "id": 9581818231, "lat": 52.0649567, "lon": 5.1326576}, {"type": "node", "id": 9581818232, "lat": 52.0650083, "lon": 5.1326606}, {"type": "node", "id": 9646645041, "lat": 52.064837, "lon": 5.1048526}, {"type": "node", "id": 9646645042, "lat": 52.0657163, "lon": 5.1051296}, {"type": "node", "id": 9646645043, "lat": 52.064731, "lon": 5.1070681}, {"type": "node", "id": 9646645044, "lat": 52.0650468, "lon": 5.107166}, {"type": "node", "id": 9646645045, "lat": 52.0654013, "lon": 5.1072525}, {"type": "node", "id": 9646645046, "lat": 52.0653238, "lon": 5.1072465}, {"type": "node", "id": 9646645047, "lat": 52.0648848, "lon": 5.1071124}, {"type": "node", "id": 9646703632, "lat": 52.0865116, "lon": 5.0867014}, {"type": "node", "id": 9646703633, "lat": 52.0863022, "lon": 5.0867987}, {"type": "node", "id": 9646703634, "lat": 52.0858799, "lon": 5.0867611}, {"type": "node", "id": 9646703635, "lat": 52.0858535, "lon": 5.086749}, {"type": "node", "id": 9889968966, "lat": 52.0909278, "lon": 5.1259087, "tags": {"barrier": "gate"}}, {"type": "node", "id": 9889968978, "lat": 52.0912338, "lon": 5.1261627}, {"type": "node", "id": 9889968979, "lat": 52.0912842, "lon": 5.1257312}, {"type": "node", "id": 9889968980, "lat": 52.0912413, "lon": 5.125742}, {"type": "node", "id": 9889968986, "lat": 52.0914158, "lon": 5.1254067}, {"type": "node", "id": 9895281689, "lat": 52.0822583, "lon": 5.136709}, {"type": "node", "id": 9895281690, "lat": 52.0827493, "lon": 5.136708}, {"type": "node", "id": 9895281691, "lat": 52.0826542, "lon": 5.1367203}, {"type": "node", "id": 9895281692, "lat": 52.0825499, "lon": 5.1367061}, {"type": "node", "id": 9895281693, "lat": 52.0823946, "lon": 5.1367014}, {"type": "node", "id": 10002248916, "lat": 52.0803805, "lon": 5.0971181}, {"type": "node", "id": 10002260225, "lat": 52.0800673, "lon": 5.0961373}, {"type": "node", "id": 10002260226, "lat": 52.0800841, "lon": 5.096122, "tags": {"barrier": "gate"}}, {"type": "node", "id": 10002260227, "lat": 52.0800966, "lon": 5.0961106}, {"type": "node", "id": 10002260228, "lat": 52.0801891, "lon": 5.0960262}, {"type": "node", "id": 10002260229, "lat": 52.0801999, "lon": 5.0960164, "tags": {"barrier": "gate"}}, {"type": "node", "id": 10002260230, "lat": 52.0802209, "lon": 5.0959972}, {"type": "node", "id": 10002260374, "lat": 52.0806535, "lon": 5.0963833}, {"type": "node", "id": 10002260401, "lat": 52.0802504, "lon": 5.0967518}, {"type": "node", "id": 10002260402, "lat": 52.0802658, "lon": 5.0967391}, {"type": "node", "id": 10002260403, "lat": 52.0805734, "lon": 5.0976602}, {"type": "node", "id": 10002260404, "lat": 52.0808794, "lon": 5.0973677}, {"type": "node", "id": 10002260405, "lat": 52.0809506, "lon": 5.0966471}, {"type": "node", "id": 10002260406, "lat": 52.0808034, "lon": 5.0965377}, {"type": "node", "id": 10111917749, "lat": 52.0684584, "lon": 5.1218974}, {"type": "node", "id": 10111917750, "lat": 52.068465, "lon": 5.121863}, {"type": "node", "id": 10118536940, "lat": 52.0689005, "lon": 5.1282137}, {"type": "node", "id": 10118537119, "lat": 52.0690867, "lon": 5.127593, "tags": {"barrier": "gate"}}, {"type": "node", "id": 10118537124, "lat": 52.0690691, "lon": 5.1275849}, {"type": "node", "id": 10118537125, "lat": 52.0691038, "lon": 5.127601}, {"type": "node", "id": 10118537126, "lat": 52.0683433, "lon": 5.1272489}, {"type": "node", "id": 10118537153, "lat": 52.0682957, "lon": 5.1272733}, {"type": "node", "id": 10118537154, "lat": 52.0685483, "lon": 5.1278275}, {"type": "node", "id": 10118537155, "lat": 52.068648, "lon": 5.1278784}, {"type": "node", "id": 10118537156, "lat": 52.0686758, "lon": 5.1279492}, {"type": "node", "id": 10118537157, "lat": 52.0687437, "lon": 5.1280086}, {"type": "node", "id": 10118537159, "lat": 52.0691006, "lon": 5.1282952}, {"type": "node", "id": 10118537168, "lat": 52.0692438, "lon": 5.1278265}, {"type": "node", "id": 10118537189, "lat": 52.0690973, "lon": 5.1283057}, {"type": "node", "id": 10152369924, "lat": 52.0677127, "lon": 5.1013727}, {"type": "node", "id": 10152369925, "lat": 52.0676936, "lon": 5.1014349}, {"type": "node", "id": 10152369926, "lat": 52.0675724, "lon": 5.101583}, {"type": "node", "id": 10154442523, "lat": 52.0705731, "lon": 5.0941907, "tags": {"barrier": "gate"}}, {"type": "node", "id": 10154442524, "lat": 52.0704896, "lon": 5.0939508, "tags": {"barrier": "gate"}}, {"type": "node", "id": 10154442626, "lat": 52.0704993, "lon": 5.0939783}, {"type": "node", "id": 10154442645, "lat": 52.0704795, "lon": 5.0939225}, {"type": "node", "id": 10154442646, "lat": 52.0707203, "lon": 5.0932406}, {"type": "node", "id": 10158164620, "lat": 52.0697717, "lon": 5.0965528}, {"type": "node", "id": 10158164732, "lat": 52.0698302, "lon": 5.0964984}, {"type": "node", "id": 10158164753, "lat": 52.0694858, "lon": 5.0952672}, {"type": "node", "id": 10158164754, "lat": 52.0694936, "lon": 5.0952888}, {"type": "node", "id": 10225424363, "lat": 52.0730508, "lon": 5.1213587}, {"type": "node", "id": 10246954614, "lat": 52.0831131, "lon": 5.1358816}, {"type": "node", "id": 10246954616, "lat": 52.0829393, "lon": 5.1364704}, {"type": "node", "id": 10804105261, "lat": 52.069978, "lon": 5.0960829, "tags": {"amenity": "school", "capacity": "160", "isced": "1", "max_age": "12", "min_age": "10", "name": "Al Hambra basisschool", "operator": "stichting Noor", "website": "https://ibsalhambra.nl/"}}, {"type": "node", "id": 11183652418, "lat": 52.0696235, "lon": 5.0963792}, {"type": "node", "id": 11895752930, "lat": 52.093493, "lon": 5.1341945}, {"type": "node", "id": 11895753019, "lat": 52.0929824, "lon": 5.1346491}, {"type": "node", "id": 11895753020, "lat": 52.0927405, "lon": 5.1350137}, {"type": "node", "id": 11895753021, "lat": 52.0927549, "lon": 5.1350389}, {"type": "node", "id": 11895753022, "lat": 52.0928447, "lon": 5.1348833}, {"type": "node", "id": 11895753023, "lat": 52.0928479, "lon": 5.1348882}, {"type": "node", "id": 11895753024, "lat": 52.0929791, "lon": 5.1346875}, {"type": "node", "id": 11895753025, "lat": 52.0931771, "lon": 5.1349835}, {"type": "node", "id": 11895753026, "lat": 52.0931793, "lon": 5.1349805}, {"type": "node", "id": 11895753027, "lat": 52.0931995, "lon": 5.1350167}, {"type": "node", "id": 11895753028, "lat": 52.093225, "lon": 5.1349742}, {"type": "node", "id": 11895753029, "lat": 52.0935444, "lon": 5.1344947}, {"type": "node", "id": 11895753030, "lat": 52.0934363, "lon": 5.1343103}, {"type": "node", "id": 11895753031, "lat": 52.0935008, "lon": 5.1342077}, {"type": "node", "id": 11895753032, "lat": 52.0934884, "lon": 5.1341863}, {"type": "node", "id": 11895753033, "lat": 52.0934206, "lon": 5.1342942}, {"type": "node", "id": 11895753034, "lat": 52.0933739, "lon": 5.1342171}, {"type": "node", "id": 11895753035, "lat": 52.0933813, "lon": 5.1342055}, {"type": "node", "id": 11895753036, "lat": 52.0933092, "lon": 5.134082}, {"type": "node", "id": 11895753037, "lat": 52.0929566, "lon": 5.1346037}, {"type": "node", "id": 11895753132, "lat": 52.0932263, "lon": 5.1349768}, {"type": "node", "id": 11949657995, "lat": 52.0684624, "lon": 5.1218763, "tags": {"barrier": "gate"}}, {"type": "node", "id": 12083597014, "lat": 52.0646086, "lon": 5.1070095}, {"type": "node", "id": 12083597029, "lat": 52.0654574, "lon": 5.107172}, {"type": "node", "id": 12136127595, "lat": 52.0798119, "lon": 5.0995049, "tags": {"addr:city": "Utrecht", "addr:housenumber": "7", "addr:postcode": "3527VX", "addr:street": "Grebbeberglaan", "amenity": "school", "name": "gregorius Descart"}}, {"type": "node", "id": 12196239715, "lat": 52.0903534, "lon": 5.0943011}, {"type": "node", "id": 12337130288, "lat": 52.0872386, "lon": 5.080839}, {"type": "node", "id": 12339853491, "lat": 52.0912338, "lon": 5.1261689}, {"type": "node", "id": 12339853492, "lat": 52.0909553, "lon": 5.1259443}, {"type": "node", "id": 12339853493, "lat": 52.0912156, "lon": 5.126163}, {"type": "node", "id": 12339853494, "lat": 52.0909015, "lon": 5.1258748}, {"type": "node", "id": 12339853495, "lat": 52.0909014, "lon": 5.1258747}, {"type": "node", "id": 12339853496, "lat": 52.0910937, "lon": 5.1261083}, {"type": "node", "id": 12739136947, "lat": 52.0672496, "lon": 5.0949574}, {"type": "node", "id": 12822894734, "lat": 52.0946388, "lon": 5.0991552}, {"type": "node", "id": 12905646472, "lat": 52.0726934, "lon": 5.1050674}, {"type": "node", "id": 12905646473, "lat": 52.0725697, "lon": 5.1039512}, {"type": "node", "id": 12905646474, "lat": 52.0734112, "lon": 5.1036412}, {"type": "node", "id": 12905646475, "lat": 52.0735648, "lon": 5.1047545}, {"type": "way", "id": 4339880, "nodes": [26418573, 9646703634, 9646703635, 26418572, 26418574, 26446041, 660846080, 9646703632, 9646703633, 26418573], "tags": {"amenity": "school", "email": "info.stdominicus@ksu-utrecht.nl", "name": "St Dominicusschool", "phone": "+31 30 293 3592", "website": "https://www.ksu-stdominicus.nl/"}}, {"type": "way", "id": 22392749, "nodes": [12739136947, 240755745, 240755747, 240755749, 240755752, 240755754, 240755740, 12739136947], "tags": {"amenity": "school", "name": "Gymzaal van het Globecollege", "source": "survey"}}, {"type": "way", "id": 22878409, "nodes": [245962830, 11183652418, 245962831, 10158164754, 10158164753, 245962833, 245962834, 10158164732, 10158164620, 245962830], "tags": {"addr:city": "Utrecht", "addr:housenumber": "28a", "addr:postcode": "3526VN", "addr:street": "Afrikalaan", "amenity": "school", "capacity": "180", "denomination": "protestant", "isced": "1", "max_age": "12", "min_age": "4", "name": "Basisschool De Olijfboom", "operator": "Stichting PCOU Willibrord Utrecht", "religion": "christian", "toilets:wheelchair": "yes", "website": "https://bsdeolijfboom.nl/", "wheelchair": "yes", "wheelchair:description": "Plateaulift 1,1 x 2,1 m."}}, {"type": "way", "id": 22892137, "nodes": [246285481, 246285455, 246285476, 10152369924, 10152369925, 10152369926, 246285458, 246285481], "tags": {"amenity": "school", "check_date": "2025-05-12", "email": "Info.hetschateiland@ksu-utrecht.nl", "name": "Het Schateiland", "phone": "+31 30 288 3515", "source": "survey", "website": "https://www.ksu-hetschateiland.nl/"}}, {"type": "way", "id": 22910632, "nodes": [246659750, 10154442646, 246659751, 246659752, 246659753, 10154442523, 10154442626, 10154442524, 10154442645, 246659750], "tags": {"amenity": "school", "name": "de Kaleidoscoop", "source": "survey"}}, {"type": "way", "id": 23778199, "nodes": [257649708, 257649709, 257649710, 257649712, 2262718520, 257649713, 257649714, 257649708], "tags": {"addr:city": "Utrecht", "addr:housenumber": "25", "addr:postcode": "3527VX", "addr:street": "Grebbeberglaan", "amenity": "school", "name": "IS Utrecht", "source": "survey and yahoo aerial imaging", "toilets:wheelchair": "yes", "wheelchair": "limited", "wheelchair:description": "Drempel ca 5 cm, lift 1,1 x 1,5 m."}}, {"type": "way", "id": 23778200, "nodes": [257649715, 2726147566, 2726148190, 2726148665, 257649717, 257649718, 257649720, 257649721, 257649722, 257649724, 257649715], "tags": {"amenity": "school", "name": "Anne Frankschool", "source": "survey and yahoo aerial imaging", "website": "https://www.anne-frankschool.nl/"}}, {"type": "way", "id": 24281420, "nodes": [262903819, 3401564488, 3401564489, 3401564490, 3401564491, 262903820, 262903821, 262903822, 262903823, 262903824, 262903819], "tags": {"amenity": "school", "name": "Christelijk Gymnasium Utrecht", "source": "survey and yahoo aerial imaging", "wikidata": "Q2706974", "wikimedia_commons": "Category:Christelijk Gymnasium Utrecht", "wikipedia": "en:Christelijk Gymnasium Utrecht"}}, {"type": "way", "id": 55814185, "nodes": [701120093, 10118537168, 849664805, 849684355, 10118537159, 10118537189, 10118536940, 612250972, 10118537157, 10118537156, 10118537155, 10118537154, 612250967, 849643481, 849735652, 10118537153, 701119721, 10118537126, 10118537124, 10118537119, 10118537125, 701120093], "tags": {"amenity": "school", "check_date": "2025-04-13", "name": "Basisschool de Blauwe Aventurijn"}}, {"type": "way", "id": 143441428, "nodes": [2008452776, 1569560977, 1569560976, 2008452774, 2008452776], "tags": {"amenity": "school", "name": "Brede School Hoograven"}}, {"type": "way", "id": 143441429, "nodes": [1569561063, 613379034, 613379033, 5420430564, 10111917749, 11949657995, 10111917750, 1569561016, 4058379826, 1569561022, 694783476, 694750249, 1569561063], "tags": {"amenity": "school", "check_date": "2025-06-22", "name": "St. Jan de doper"}}, {"type": "way", "id": 216953397, "nodes": [2262718517, 10002260402, 10002260401, 10002248916, 849625005, 10002260403, 10002260404, 849695945, 10002260405, 849637768, 10002260406, 849669585, 10002260374, 849608645, 849632346, 849721847, 849605599, 849691146, 849616540, 10002260230, 10002260229, 10002260228, 10002260227, 10002260226, 10002260225, 2262718517], "tags": {"amenity": "school", "name": "Unic", "website": "https://www.unic-utrecht.nl/"}}, {"type": "way", "id": 217531813, "nodes": [2268141761, 849724242, 849606445, 849680304, 849704533, 2268141764, 2268141763, 2268141757, 694742009, 694818814, 694808576, 694716622, 2268141761], "tags": {"amenity": "school", "name": "Partou Kinderopvang"}}, {"type": "way", "id": 236247402, "nodes": [2442985792, 2442985796, 2442985798, 2442985799, 2442985792], "tags": {"amenity": "school", "check_date": "2025-08-19", "name": "OBS Johan de Witt"}}, {"type": "way", "id": 236979278, "nodes": [2449322968, 2449322976, 2303451204, 697043758, 694745619, 697043855, 849607248, 849653153, 849739394, 2449322964, 2449322965, 2449322966, 10225424363, 2449322968], "tags": {"amenity": "school", "capacity": "180", "isced": "1", "max_age": "13", "min_age": "4", "name": "Het Rotsoord", "note": "Speciaal onderwijs, ambulante dienstverlening", "operator": "Auris groep", "operator:wikidata": "Q2421087", "pedagogy": "voor slechthorende", "website": "http://www.rotsoord.nl/"}}, {"type": "way", "id": 252720896, "nodes": [854999526, 694800152, 694738576, 855023181, 855033959, 855042932, 2587586762, 2587586763, 2587586764, 2587586765, 2587586766, 2587586767, 854999526], "tags": {"amenity": "school", "check_date": "2025-09-06", "name": "2e Marnixschool"}}, {"type": "way", "id": 313996272, "nodes": [3200354042, 9646645043, 9646645047, 9646645044, 9646645046, 9646645045, 3200354043, 12083597029, 3200354044, 3200354045, 12083597014, 3200354042], "tags": {"addr:city": "Utrecht", "addr:housenumber": "89", "addr:postcode": "3526KP", "addr:street": "Europalaan", "amenity": "school", "name": "Stip", "website": "https://www.stipvso.nl/"}}, {"type": "way", "id": 333042555, "nodes": [3024618445, 3024618478, 3024618526, 3024618569, 3024618506, 3024618441, 3024618439, 694737646, 3401569535, 1239226243, 3401569537, 3401569539, 3024617610, 3024617614, 3024617596, 3024617605, 3024617606, 3024617651, 3024617650, 3024617654, 3024617655, 3024617716, 3024617715, 3024617720, 3024617721, 3024617876, 3024617875, 3024617883, 3024617884, 3024617814, 3024617813, 3024617818, 3024617819, 3024618056, 3024618055, 3024618060, 3024618061, 3024618114, 3024618112, 3024618125, 3024618127, 3024618277, 3024618270, 7014770023, 3024618445], "tags": {"amenity": "school"}}, {"type": "way", "id": 333077838, "nodes": [3401920167, 5002094576, 5002094577, 7179687830, 3401920169, 3401920170, 3401920167], "tags": {"amenity": "school", "toilets:wheelchair": "yes", "wheelchair": "yes", "wikidata": "Q2359976", "wikimedia_commons": "Category:Utrechts Stedelijk Gymnasium", "wikipedia": "nl:Utrechts Stedelijk Gymnasium"}}, {"type": "way", "id": 333079820, "nodes": [3401931353, 3401931354, 3401931355, 3401931356, 9895281689, 9895281693, 9895281692, 9895281691, 3401931357, 9895281690, 3401931353], "tags": {"amenity": "school", "check_date": "2024-12-02", "name": "St. Bonifatiuscollege", "wheelchair": "yes"}}, {"type": "way", "id": 333079821, "nodes": [3401931358, 3401931359, 3401931360, 3401931361, 3401931362, 10246954614, 3401931363, 10246954616, 3401931364, 3401931365, 3401931366, 3401931358], "tags": {"addr:city": "Utrecht", "addr:housenumber": "7-9", "addr:postcode": "3582KA", "addr:street": "Burgemeester Fockema Andreaelaan", "alt_name": "Boni", "amenity": "school", "check_date": "2025-11-28", "education": "school", "email": "boni@boni.nl", "name": "St. Bonifatiuscollege", "phone": "+31 30 251 2315", "school:type": "havo", "website": "https://boni.nl", "wheelchair": "limited"}}, {"type": "way", "id": 334713470, "nodes": [3417753145, 3417753156, 3417753157, 3417753146, 3417753147, 3417753148, 3417753149, 3417753150, 3417753151, 3417753152, 3417753153, 4664328293, 3417753154, 3417753155, 3417753145], "tags": {"addr:city": "Utrecht", "addr:housenumber": "40", "addr:postcode": "3581MJ", "addr:street": "Homeruslaan", "amenity": "school", "check_date": "2025-11-28", "education": "school", "email": "info@deodyssee.net", "name": "Basisschool de Odyssee", "phone": "+31 30 231 8839", "website": "https://www.deodyssee.net"}}, {"type": "way", "id": 334717107, "nodes": [2717425290, 694711892, 694803198, 694729138, 3417806394, 3417806395, 3417806396, 12822894734, 3417806397, 694723569, 2717425600, 1914494157, 1914494160, 8508398436, 3417806399, 3417806400, 8508398433, 694742240, 694755128, 1914494158, 694723967, 2717424247, 2717424212, 2717424192, 2717424175, 694712107, 2717424148, 2717424135, 2717424130, 2717424125, 2717424128, 694803865, 2717424146, 2717424158, 2717424172, 2717424190, 694775102, 2717424239, 2717424265, 2717424357, 694729568, 2717424513, 2717424626, 694718407, 2717424911, 2717425075, 2717425290], "tags": {"addr:city": "Utrecht", "addr:housenumber": "1", "addr:postcode": "3532VM", "addr:street": "Staringstraat", "amenity": "school", "denomination": "catholic", "name": "KSU de Catharijnepoort", "religion": "christian", "toilets:wheelchair": "no", "website": "https://www.ksu-decatharijnepoort.nl/"}}, {"type": "way", "id": 380396140, "nodes": [3837326747, 3837326748, 3837326749, 3837326750, 3837326751, 3837326752, 3837326747], "tags": {"amenity": "school", "check_date": "2025-09-10", "grades": "3-8", "name": "Jenaplanschool De Brug", "toilets:wheelchair": "yes", "website": "https://www.jenaplandebrug.nl/", "wheelchair": "no", "wheelchair:description": "Voor de entree is een bordes met een hoogte van ca 12 cm. De toegangsdeur heeft een drempel van 4 cm. Toilet 2,1 x 2,5 m."}}, {"type": "way", "id": 475709927, "nodes": [4694342952, 4694342953, 4694342959, 4694342954, 4694342951, 4694342955, 4694342957, 12337130288, 4772290505, 4694342958, 4694342952], "tags": {"amenity": "school"}}, {"type": "way", "id": 561274554, "nodes": [3300146414, 5412386773, 5412386775, 3300146413, 3300146414], "tags": {"amenity": "school"}}, {"type": "way", "id": 579705048, "nodes": [5551282459, 5551282460, 5551282461, 5551282462, 9581818231, 9581818232, 5551282463, 5551282464, 5551282459], "tags": {"access": "private", "amenity": "school", "check_date": "2025-01-03", "name": "BLOS Kinderopvang - Locatie Karwanken", "operator": "Kinderdagverblijf Jolie", "surface": "grass"}}, {"type": "way", "id": 677011299, "nodes": [6339510705, 6339510706, 2667576353, 6339510707, 6339510708, 6339510709, 6339510705], "tags": {"amenity": "school", "denomination": "catholic", "email": "info.steppingstones@ksu-utrecht.nl", "name": "KSU Stepping Stones", "operator": "Katholieke Scholenstichting Utrecht", "phone": "+31 30 677 6712", "religion": "christian", "website": "https://www.ksu-steppingstones.nl"}}, {"type": "way", "id": 1049702268, "nodes": [3200354044, 9646645042, 9646645041, 3200354045, 3200354044], "tags": {"amenity": "school", "capacity": "160", "check_date": "2025-05-20", "isced": "1", "max_age": "10", "min_age": "4", "name": "Al Hambra basisschool", "operator": "stichting Noor", "religion": "muslim", "toilets:wheelchair": "yes", "website": "https://ibsalhambra.nl/", "wheelchair": "yes"}}, {"type": "way", "id": 1281828994, "nodes": [11895753037, 11895753036, 11895753035, 11895753034, 11895753033, 11895753032, 11895752930, 11895753031, 11895753030, 11895753029, 11895753028, 11895753132, 11895753027, 11895753026, 11895753025, 11895753024, 11895753023, 11895753022, 11895753021, 11895753020, 11895753019, 11895753037], "tags": {"amenity": "school", "check_date": "2026-01-10", "email": "info@vrijeschoolutrecht.nl", "name": "De Vrije School Utrecht", "phone": "+31 30 737 00 33", "website": "https://vrijeschoolutrecht.nl/maliebaan/"}}, {"type": "way", "id": 1317803002, "nodes": [2721344161, 2721346471, 2721343680, 12196239715, 2721343642, 2721342266, 2721341886, 2721340727, 2721340608, 2721340473, 2721340457, 2721340172, 2721340161, 2721340081, 2721340018, 2721340177, 2721343927, 2721344133, 2721344161], "tags": {"amenity": "school"}}, {"type": "way", "id": 1333781521, "nodes": [12339853494, 9889968966, 12339853492, 12339853496, 12339853493, 12339853491, 9889968978, 2684309180, 2684309168, 2684309183, 9889968980, 9889968979, 2684309390, 2684309648, 9889968986, 2684309506, 2684309369, 2684309368, 2684309316, 2684309304, 2684309306, 2684309277, 2684309263, 2684309270, 2684309235, 2684309104, 2684309047, 2684308952, 2684308850, 2684308712, 2684308734, 2684308638, 2684308559, 2684308498, 2684308508, 12339853495, 12339853494], "tags": {"addr:city": "Utrecht", "addr:housenumber": "10", "addr:postcode": "3512JR", "addr:street": "Pieterskerkhof", "amenity": "school", "name": "ODBS Pieterskerkhof", "toilets:wheelchair": "no", "website": "https://pieterskerkhof.com/", "wheelchair": "limited", "wheelchair:description": "Hoogteverschil entree ca 27 cm. Losse helling beschikbaar."}}, {"type": "way", "id": 1463399445, "nodes": [12905646475, 12905646474, 12905646473, 12905646472, 12905646475], "tags": {"amenity": "school", "name": "Rafael"}}]}