{"version": 0.6, "generator": "Overpass API 0.7.62.8 e802775f", "osm3s": {"timestamp_osm_base": "2026-01-13T02:40:51Z", "copyright": "The data included in this document is from www.openstreetmap.org. The data is made available under ODbL."}, "elements": [{"type": "node", "id": 3200948976, "lat": 17.3348812, "lon": 78.5372101, "tags": {"amenity": "hospital", "healthcare": "hospital"}}, {"type": "node", "id": 4711614465, "lat": 17.3289104, "lon": 78.563899, "tags": {"addr:block": "Hayatnagar", "addr:district": "Hyderabad", "addr:full": "Near Red Tank, Vanasthalipuram", "addr:postcode": "500070", "addr:state": "Telangana", "addr:street": "NGO's Colony", "addr:subdistrict": "Hayathnagar", "amenity": "hospital", "name": "Area Hospital, Vanasthalipuram", "source": "OpenGovernmentData"}}, {"type": "node", "id": 5636923030, "lat": 17.3136981, "lon": 78.5087313, "tags": {"amenity": "hospital", "name": "OM Sai Hospital"}}, {"type": "node", "id": 6485594351, "lat": 17.3313005, "lon": 78.4879965, "tags": {"addr:district": "Hyderabad", "addr:full": "Fatima Nagar, DLRL Road, Chandrayangutta", "addr:postcode": "500005", "addr:state": "Telangana", "amenity": "hospital", "name": "Niyar Nursing Home", "source": "OpenGovernmentData"}}, {"type": "node", "id": 6528554861, "lat": 17.3210258, "lon": 78.5201099, "tags": {"addr:district": "Ranga Reddy", "addr:full": "H No: 6-156 ,Slns Colony, Balapur Cross Roads, Near Sairaghavendra Bakers", "addr:postcode": "500079", "addr:state": "Telangana", "amenity": "hospital", "fax": "0841 5240393", "name": "SV Multispeciality Hospital", "source": "OpenGovernmentData"}}, {"type": "node", "id": 6528602779, "lat": 17.3320827, "lon": 78.5732733, "tags": {"addr:district": "Hyderabad", "addr:full": "C-84, Near SBI, Vanasthalipuram", "addr:postcode": "500070", "addr:state": "Telangana", "amenity": "hospital", "healthcare": "hospital", "name": "Lakshmi Health Care Hospital", "source": "OpenGovernmentData"}}, {"type": "node", "id": 6531656648, "lat": 17.3208562, "lon": 78.5613281, "tags": {"addr:district": "Hyderabad", "addr:full": "Near B.N. Reddy Nagar Bus Stand", "addr:postcode": "500070", "addr:state": "Telangana", "amenity": "hospital", "name": "Jaya Hospital", "source": "OpenGovernmentData"}}, {"type": "node", "id": 6532261279, "lat": 17.3295126, "lon": 78.5261227, "tags": {"addr:district": "Hyderabad", "addr:full": "H No:2-165/1, Jillelguda Main Road, Saroornagar (M), R.R", "addr:postcode": "500097", "addr:state": "Telangana", "amenity": "hospital", "healthcare:speciality": "Maternity; Medical; Surgical", "name": "Aruna Hospital", "source": "OpenGovernmentData"}}, {"type": "node", "id": 6532342640, "lat": 17.3334758, "lon": 78.531298, "tags": {"addr:district": "Ranga Reddy", "addr:full": "Gayatrinagar X Roads ,Kamanghat", "addr:postcode": "500079", "addr:state": "Telangana", "amenity": "hospital", "healthcare": "hospital", "name": "Krishna Hospital", "source": "OpenGovernmentData"}}, {"type": "node", "id": 6532378061, "lat": 17.3286133, "lon": 78.5685231, "tags": {"addr:district": "Hyderabad", "addr:full": "Plot No. C - 708, Opposite E-Seva, Beside, Red Water Tank, Vanasthalipuram", "addr:postcode": "500070", "addr:state": "Telangana", "amenity": "hospital", "fax": "040 24025966", "name": "Sri Ramadevi Orthopaedic Hospital", "source": "OpenGovernmentData"}}, {"type": "node", "id": 6537176722, "lat": 17.2738453, "lon": 78.5391707, "tags": {"addr:district": "Ranga Reddy", "addr:full": "Near Nadergul Bus Stop", "addr:postcode": "501510", "addr:state": "Telangana", "amenity": "hospital", "name": "Sri Raghavendra Hospital", "source": "OpenGovernmentData"}}, {"type": "node", "id": 6537308259, "lat": 17.3314886, "lon": 78.5721809, "tags": {"addr:district": "Hyderabad", "addr:full": "Plot no. 25 & 26, Ganesh Temple - SBI Complex Road, Opposite HUDA Open Auditorium, Vanasthalipuram", "addr:postcode": "500070", "addr:state": "Telangana", "amenity": "hospital", "contact:mobile": "+91 8801002678; +91 8099915566", "fax": "24023322", "name": "Jeevan Sai Hospitals", "source": "OpenGovernmentData"}}, {"type": "node", "id": 6548797464, "lat": 17.3253704, "lon": 78.5576025, "tags": {"addr:district": "Hyderabad", "addr:full": "H.No: 8-6-772/N/206/A/1/NR, NAGAGRJUNA COLONY, BESIDE SBH, HASTHINAPURAM", "addr:postcode": "500070", "addr:state": "Telangana", "amenity": "hospital", "name": "DELTA HOSPITALS", "operator:type": "private", "source": "OpenGovernmentData"}}, {"type": "node", "id": 6549158450, "lat": 17.3203965, "lon": 78.5173801, "tags": {"addr:district": "Hyderabad", "addr:full": "6-208/3/1, Triveninagar, Balapur 'X' Road, Meerpet, Saroornagar", "addr:postcode": "500005", "addr:state": "Telangana", "amenity": "hospital", "contact:phone": "04029805557", "name": "SRI RADHIKA MULTI SPECIALITY HOSPITAL", "operator:type": "Private", "source": "OpenGovernmentData"}}, {"type": "node", "id": 6549206565, "lat": 17.3230275, "lon": 78.557235, "tags": {"addr:city": "Hyderabad", "addr:full": "Plot No: 52, Panchayat Raj, Teacher Colony, B.N.Reddy Nagar", "addr:postcode": "500079", "addr:state": "Telangana", "amenity": "hospital", "contact:phone": "4024094108", "name": "SHYAM HOSPITAL", "operator:type": "private", "source": "OpenGovernmentData"}}, {"type": "node", "id": 6549356692, "lat": 17.3198217, "lon": 78.519841, "tags": {"addr:district": "Hyderabad", "addr:full": "BALAPUR X ROAD, BALAPUR CENTRAL", "addr:postcode": "500097", "addr:state": "Telangana", "amenity": "hospital", "contact:phone": "09502455566", "name": "HIRANYAA MULTI SPECIALITY & CHILDREN'S HOSPITAL", "operator:type": "Private", "source": "OpenGovernmentData"}}, {"type": "node", "id": 6561351099, "lat": 17.3316717, "lon": 78.5336658, "tags": {"addr:district": "Ranga Reddy", "addr:full": "Plot No. 128, Street Number17, New Gayatri Nagar, Ranga Reddy", "addr:postcode": "500079", "addr:state": "Telangana", "amenity": "hospital", "healthcare": "hospital", "name": "Vijaya Hospital - Ranga Reddy", "source": "OpenGovernmentData"}}, {"type": "node", "id": 6811749075, "lat": 17.321219, "lon": 78.568712, "tags": {"addr:city": "Hyderabad", "addr:district": "Ranga Reddy", "addr:full": "Vydehi Nagar, Opp. Sri Indu PG College,Vanasthalipuram", "addr:postcode": "500070", "addr:state": "Telangana", "amenity": "hospital", "contact:mobile": "8885011321", "name": "Nadipathy Hospital", "source": "OpenGovernmentData", "website": "http://www.nadipathy.in/"}}, {"type": "node", "id": 6811749160, "lat": 17.324086, "lon": 78.556886, "tags": {"addr:district": "Ranga Reddy", "addr:full": "Plot No. 91, Panchayat Raj Teachers Colony, Hastinapuram, Hyderabad", "addr:postcode": "500079", "addr:state": "Telangana", "amenity": "hospital", "contact:mobile": "7075747574", "name": "Sri Nitya Hospital", "source": "OpenGovernmentData"}}, {"type": "node", "id": 6811749178, "lat": 17.3293045, "lon": 78.5645447, "tags": {"addr:city": "Hyderabad", "addr:district": "Ranga Reddy", "addr:full": "MIG -235, Government Hospital Rod, Phase 4, TV Colony, Vanasthalipuram", "addr:postcode": "500079", "addr:state": "Telangana", "amenity": "hospital", "contact:mobile": "9246209171", "name": "Sakhi Hospital", "source": "OpenGovernmentData"}}, {"type": "node", "id": 8233804190, "lat": 17.3088672, "lon": 78.4942526, "tags": {"amenity": "hospital", "healthcare": "hospital"}}, {"type": "node", "id": 8747916250, "lat": 17.3347442, "lon": 78.5530454, "tags": {"addr:district": "Rangareddy", "addr:full": "Nagarjuna Sagar Road, Brindavan Colony, Lingojiguda", "addr:postcode": "500035", "addr:state": "Telangana", "amenity": "hospital", "name": "Aware Global Hospitals", "source": "Local Knowledge"}}, {"type": "node", "id": 8751748313, "lat": 17.3137197, "lon": 78.560974, "tags": {"addr:district": "Rangareddy", "addr:full": "5-8-50/93, Nagarjuna Sagar Road, Sripuram Colony, Highway, B N Reddy Nagar", "addr:postcode": "844118", "addr:state": "Telangana", "amenity": "hospital", "name": "Bhrungi Hospitals", "source": "Local Knowledge"}}, {"type": "node", "id": 8751762404, "lat": 17.3138528, "lon": 78.5084604, "tags": {"addr:district": "Rangareddy", "addr:full": "8-7/20, RCI Road,Sai Nagar Colony Balapur", "addr:postcode": "500005", "addr:state": "Telangana", "amenity": "hospital", "name": "Chavan Hospitals", "source": "Local Knowledge"}}, {"type": "node", "id": 10993267945, "lat": 17.3314694, "lon": 78.5652052, "tags": {"addr:district": "Rangareddy", "addr:place": "Vanasthalipuram", "addr:state": "Telangana", "addr:street": "NGO's Colony", "addr:subdistrict": "Hayathnagar", "amenity": "hospital", "healthcare": "hospital", "name": "Area Hospital", "operational_status": "operational", "operator:type": "government", "source": "OpenDataTelangana"}}, {"type": "node", "id": 11936156147, "lat": 17.3144808, "lon": 78.4831721, "tags": {"addr:district": "Hyderabad", "addr:place": "Barkas", "addr:state": "Telangana", "addr:street": "OPP:CRPF play ground", "addr:subdistrict": "Bandlaguda", "amenity": "hospital", "healthcare": "hospital", "name": "Community Health Centre, BARKAS", "operational_status": "operational", "operator:type": "government", "source": "OpenDataTelangana"}}]}