{"version": 0.6, "generator": "Overpass API 0.7.62.8 e802775f", "osm3s": {"timestamp_osm_base": "2026-01-11T17:48:59Z", "copyright": "The data included in this document is from www.openstreetmap.org. The data is made available under ODbL."}, "elements": [{"type": "node", "id": 268376845, "lat": 34.101069, "lon": -118.105328}, {"type": "node", "id": 268535282, "lat": 34.1010739, "lon": -118.1050912}, {"type": "node", "id": 282579823, "lat": 34.0996162, "lon": -118.1056724}, {"type": "node", "id": 358804261, "lat": 34.015922, "lon": -118.100545}, {"type": "node", "id": 358826154, "lat": 34.0490535, "lon": -118.1380719}, {"type": "node", "id": 358828394, "lat": 34.0903966, "lon": -118.1434855}, {"type": "node", "id": 738595567, "lat": 34.1023341, "lon": -118.1049958}, {"type": "node", "id": 738595577, "lat": 34.1008898, "lon": -118.1064343}, {"type": "node", "id": 738595598, "lat": 34.1019671, "lon": -118.1049912}, {"type": "node", "id": 738595603, "lat": 34.1011694, "lon": -118.1050787}, {"type": "node", "id": 738595616, "lat": 34.1018239, "lon": -118.1062}, {"type": "node", "id": 738595620, "lat": 34.102324, "lon": -118.1060131}, {"type": "node", "id": 738595627, "lat": 34.0998244, "lon": -118.1068411}, {"type": "node", "id": 738595646, "lat": 34.101682, "lon": -118.1049942}, {"type": "node", "id": 738595652, "lat": 34.1012932, "lon": -118.1049979}, {"type": "node", "id": 738595709, "lat": 34.1017583, "lon": -118.1062145}, {"type": "node", "id": 3263858566, "lat": 34.0141064, "lon": -118.0998308}, {"type": "node", "id": 3263858567, "lat": 34.0145983, "lon": -118.1021735}, {"type": "node", "id": 3263858568, "lat": 34.0146106, "lon": -118.1021844}, {"type": "node", "id": 3263858569, "lat": 34.0148212, "lon": -118.0996319}, {"type": "node", "id": 3263858570, "lat": 34.014913, "lon": -118.1000134}, {"type": "node", "id": 3263858571, "lat": 34.0157524, "lon": -118.0997413}, {"type": "node", "id": 3263858572, "lat": 34.0161646, "lon": -118.1016946}, {"type": "node", "id": 4657759276, "lat": 34.0971649, "lon": -118.1220771}, {"type": "node", "id": 4657759540, "lat": 34.0969133, "lon": -118.1219018}, {"type": "node", "id": 4657759699, "lat": 34.0971874, "lon": -118.1213335}, {"type": "node", "id": 4657759769, "lat": 34.097439, "lon": -118.1215088}, {"type": "node", "id": 4657795625, "lat": 34.1010705, "lon": -118.1052574}, {"type": "node", "id": 4657796668, "lat": 34.1003854, "lon": -118.105486}, {"type": "node", "id": 5496394678, "lat": 34.0899415, "lon": -118.1434475}, {"type": "node", "id": 5496394679, "lat": 34.0899818, "lon": -118.1435038}, {"type": "node", "id": 5496394680, "lat": 34.0908089, "lon": -118.1449181}, {"type": "node", "id": 5496394681, "lat": 34.0895002, "lon": -118.1449166}, {"type": "node", "id": 5496394682, "lat": 34.0895216, "lon": -118.1434551}, {"type": "node", "id": 5496394683, "lat": 34.0908278, "lon": -118.1434825}, {"type": "node", "id": 5496618329, "lat": 34.0693179, "lon": -118.1230646}, {"type": "node", "id": 5496618330, "lat": 34.0693048, "lon": -118.1235251}, {"type": "node", "id": 5496618331, "lat": 34.0696928, "lon": -118.1235198}, {"type": "node", "id": 5496618332, "lat": 34.0696972, "lon": -118.124412}, {"type": "node", "id": 5496618333, "lat": 34.067369, "lon": -118.1244199}, {"type": "node", "id": 5496618334, "lat": 34.0673712, "lon": -118.1230383}, {"type": "node", "id": 5496718952, "lat": 34.0487048, "lon": -118.1392008}, {"type": "node", "id": 5496718953, "lat": 34.049095, "lon": -118.1389871}, {"type": "node", "id": 5496718954, "lat": 34.050595, "lon": -118.1380752}, {"type": "node", "id": 5496718955, "lat": 34.0512066, "lon": -118.1377278}, {"type": "node", "id": 5496718956, "lat": 34.0512508, "lon": -118.1376811}, {"type": "node", "id": 5496718957, "lat": 34.0512536, "lon": -118.137641}, {"type": "node", "id": 5496718958, "lat": 34.0512342, "lon": -118.1376143}, {"type": "node", "id": 5496718959, "lat": 34.0506558, "lon": -118.1372135}, {"type": "node", "id": 5496718960, "lat": 34.050595, "lon": -118.1371868}, {"type": "node", "id": 5496718961, "lat": 34.0505147, "lon": -118.1371834}, {"type": "node", "id": 5496718962, "lat": 34.0488432, "lon": -118.1381888}, {"type": "node", "id": 5496718963, "lat": 34.0487933, "lon": -118.1382489}, {"type": "node", "id": 5496718964, "lat": 34.0487601, "lon": -118.1383291}, {"type": "node", "id": 5496718965, "lat": 34.0486854, "lon": -118.1387265}, {"type": "node", "id": 5496718966, "lat": 34.048619, "lon": -118.139094}, {"type": "node", "id": 5496718967, "lat": 34.0486273, "lon": -118.1391708}, {"type": "node", "id": 5496718968, "lat": 34.0486633, "lon": -118.1392242}, {"type": "node", "id": 8519665340, "lat": 34.102044, "lon": -118.1046952, "tags": {"addr:city": "San Gabriel", "addr:housenumber": "416", "addr:postcode": "91776", "addr:state": "CA", "addr:street": "West Las Tunas Drive", "addr:unit": "203", "amenity": "hospital", "check_date": "2025-10-12", "contact:yelp": "https://www.yelp.com/biz/endocare-center-san-gabriel", "email": "info@endocarecenter.com", "healthcare": "dentist", "healthcare:speciality": "dentist;endodontics", "name": "EndoCare Center, Endodontic Office of Dr. John Yu", "operator": "Dr. John Yu", "operator:type": "business", "phone": "+1 626-678-0167", "website": "https://www.endocarecenter.com/"}}, {"type": "node", "id": 10760971306, "lat": 34.0895094, "lon": -118.1442859}, {"type": "node", "id": 10760971313, "lat": 34.0902686, "lon": -118.1434906}, {"type": "node", "id": 10866448571, "lat": 34.0695661, "lon": -118.1056885, "tags": {"addr:city": "Rosemead", "addr:housenumber": "7500", "addr:postcode": "91770-2216", "addr:street": "Hellman Avenue", "amenity": "hospital", "beds": "118", "healthcare": "hospital", "healthcare:speciality": "psychiatry", "name": "L.A. Downtown Medical Center - Ingleside Campus", "phone": "+1 626 288 1160", "website": "https://ladowntownmc.com"}}, {"type": "node", "id": 10866464472, "lat": 34.0884364, "lon": -118.0740196, "tags": {"addr:city": "Rosemead", "addr:housenumber": "4619", "addr:postcode": "91770-1478", "addr:street": "Rosemead Boulevard", "amenity": "hospital", "beds": "97", "healthcare": "hospital", "healthcare:speciality": "psychiatry", "name": "BHC Alhambra Hospital", "phone": "+1 626 286 1191", "website": "https://www.bhcalhambra.com"}}, {"type": "way", "id": 59546380, "nodes": [738595620, 738595567, 738595598, 738595646, 738595652, 738595603, 268535282, 4657795625, 268376845, 4657796668, 282579823, 738595627, 738595577, 738595709, 738595616, 738595620], "tags": {"addr:city": "San Gabriel", "addr:housenumber": "438", "addr:postcode": "91776", "addr:state": "CA", "addr:street": "West Las Tunas Drive", "amenity": "hospital", "beds": "273", "check_date": "2025-10-27", "contact:yelp": "https://www.yelp.com/biz/san-gabriel-valley-medical-center-san-gabriel", "emergency": "yes", "healthcare": "hospital", "name": "San Gabriel Valley Medical Center", "name:zh": "\u5723\u76d6\u535a", "opening_hours": "24/7", "operator": "AHMC Healthcare", "phone": "+1 626-289-5454", "source": "usgs_imagery;survey;image", "source_ref": "AM909_DSCU3306", "website": "https://www.ahmchealth.com/sgvmc/"}}, {"type": "way", "id": 319902860, "nodes": [3263858571, 3263858570, 3263858569, 3263858566, 3263858567, 3263858568, 3263858572, 358804261, 3263858571], "tags": {"addr:city": "Montebello", "addr:country": "US", "addr:housenumber": "309", "addr:postcode": "90640", "addr:state": "CA", "addr:street": "West Beverly Boulevard", "amenity": "hospital", "beds": "224", "emergency": "yes", "gnis:feature_id": "1656437", "healthcare": "hospital", "name": "Beverly Hospital", "opening_hours": "24/7", "phone": "+1 323 726 1222", "source": "Bing", "website": "https://www.beverly.org/"}}, {"type": "way", "id": 471613246, "nodes": [4657759540, 4657759276, 4657759769, 4657759699, 4657759540], "tags": {"addr:city": "Alhambra", "addr:housenumber": "500", "addr:postcode": "91801", "addr:state": "CA", "addr:street": "East Main Street", "amenity": "hospital", "building": "hospital", "check_date": "2025-08-11", "ele": "168.1", "height": "28.6", "lacounty:ain": "5345016807", "lacounty:bld_id": "524828857770", "name": "AHMC Healthcare", "operator": "AHMC Healthcare", "operator:wikidata": "Q4651769", "phone": "+1 626-457-7400", "website": "https://www.ahmchealth.com/"}}, {"type": "way", "id": 572047613, "nodes": [5496394683, 358828394, 10760971313, 5496394679, 5496394678, 5496394682, 10760971306, 5496394681, 5496394680, 5496394683], "tags": {"addr:city": "Alhambra", "addr:housenumber": "100", "addr:postcode": "91801", "addr:state": "CA", "addr:street": "South Raymond Avenue", "amenity": "hospital", "beds": "144", "check_date": "2025-10-28", "contact:facebook": "https://www.facebook.com/Alhambra-Hospital-Medical-Center-113474088687300/", "contact:yelp": "https://www.yelp.com/biz/alhambra-hospital-medical-center-alhambra", "email": "info@alhambrahospital.com", "emergency": "yes", "gnis:feature_id": "1762982", "healthcare": "hospital", "name": "Alhambra Hospital Medical Center", "opening_hours": "24/7", "phone": "+1 626-570-1606", "website": "https://www.alhambrahospital.com/"}}, {"type": "way", "id": 572072002, "nodes": [5496618334, 5496618333, 5496618332, 5496618331, 5496618330, 5496618329, 5496618334], "tags": {"addr:city": "Monterey Park", "addr:housenumber": "525", "addr:postcode": "91754", "addr:street": "North Garfield Avenue", "amenity": "hospital", "beds": "210", "emergency": "yes", "healthcare": "hospital", "name": "Garfield Medical Center", "opening_hours": "24/7", "operator": "AHMC Healthcare", "phone": "+1 626 573 2222", "website": "https://www.garfieldmedicalcenter.com/", "wikidata": "Q5523084", "wikipedia": "en:Garfield Medical Center"}}, {"type": "way", "id": 572083309, "nodes": [5496718968, 5496718967, 5496718966, 5496718965, 5496718964, 5496718963, 5496718962, 358826154, 5496718961, 5496718960, 5496718959, 5496718958, 5496718957, 5496718956, 5496718955, 5496718954, 5496718953, 5496718952, 5496718968], "tags": {"addr:city": "Monterey Park", "addr:housenumber": "900", "addr:postcode": "91754", "addr:state": "CA", "addr:street": "South Atlantic Boulevard", "amenity": "hospital", "beds": "101", "check_date": "2026-01-11", "contact:yelp": "https://www.yelp.com/biz/monterey-park-hospital-monterey-park", "emergency": "yes", "gnis:feature_id": "1732541", "healthcare": "hospital", "name": "Monterey Park Hospital", "opening_hours": "24/7", "operator": "AHMC Healthcare", "phone": "+1 626-570-9000", "website": "https://www.ahmchealth.com/mph/"}}]}