{"version": 0.6, "generator": "Overpass API 0.7.62.8 e802775f", "osm3s": {"timestamp_osm_base": "2026-01-13T14:26:42Z", "copyright": "The data included in this document is from www.openstreetmap.org. The data is made available under ODbL."}, "elements": [{"type": "node", "id": 265688213, "lat": 37.7591681, "lon": -122.4065789}, {"type": "node", "id": 265688214, "lat": 37.754388, "lon": -122.4062997}, {"type": "node", "id": 265688215, "lat": 37.7545474, "lon": -122.4036798}, {"type": "node", "id": 265688216, "lat": 37.7565574, "lon": -122.4038814}, {"type": "node", "id": 265688217, "lat": 37.7569071, "lon": -122.4040099}, {"type": "node", "id": 265688218, "lat": 37.7568625, "lon": -122.4048507}, {"type": "node", "id": 265688219, "lat": 37.757847, "lon": -122.4049455}, {"type": "node", "id": 1274907119, "lat": 37.7690835, "lon": -122.4337126}, {"type": "node", "id": 1274907137, "lat": 37.7674304, "lon": -122.4355298}, {"type": "node", "id": 1274907139, "lat": 37.7675497, "lon": -122.4335637}, {"type": "node", "id": 1274907164, "lat": 37.7689642, "lon": -122.4356788}, {"type": "node", "id": 1727334480, "lat": 37.7567582, "lon": -122.4065285}, {"type": "node", "id": 1727334483, "lat": 37.7569424, "lon": -122.4065412}, {"type": "node", "id": 1727334485, "lat": 37.7570407, "lon": -122.4048678}, {"type": "node", "id": 1727334488, "lat": 37.7573766, "lon": -122.4065863}, {"type": "node", "id": 1727334490, "lat": 37.7583203, "lon": -122.4066772}, {"type": "node", "id": 1727334492, "lat": 37.7591559, "lon": -122.4067546}, {"type": "node", "id": 1727449113, "lat": 37.7903397, "lon": -122.4308975}, {"type": "node", "id": 1727449126, "lat": 37.7907099, "lon": -122.4335918}, {"type": "node", "id": 1727449136, "lat": 37.790855, "lon": -122.4324517}, {"type": "node", "id": 1727449148, "lat": 37.7913706, "lon": -122.432553}, {"type": "node", "id": 1727449151, "lat": 37.7915073, "lon": -122.4314395}, {"type": "node", "id": 1727449153, "lat": 37.7916183, "lon": -122.4314606}, {"type": "node", "id": 1727449154, "lat": 37.7916547, "lon": -122.4311634}, {"type": "node", "id": 1727459943, "lat": 37.790492, "lon": -122.4324272}, {"type": "node", "id": 1727459945, "lat": 37.7901148, "lon": -122.432351}, {"type": "node", "id": 1727484908, "lat": 37.746514, "lon": -122.4215676}, {"type": "node", "id": 1727484909, "lat": 37.7465857, "lon": -122.4204508}, {"type": "node", "id": 1727484910, "lat": 37.7466118, "lon": -122.4203853}, {"type": "node", "id": 1727484911, "lat": 37.7466386, "lon": -122.4203527}, {"type": "node", "id": 1727484912, "lat": 37.7466676, "lon": -122.4203219}, {"type": "node", "id": 1727484915, "lat": 37.7473057, "lon": -122.4212931}, {"type": "node", "id": 1727484917, "lat": 37.7479456, "lon": -122.4218959}, {"type": "node", "id": 1727484922, "lat": 37.7479613, "lon": -122.4212572}, {"type": "node", "id": 1727484930, "lat": 37.7479715, "lon": -122.4208685}, {"type": "node", "id": 1727484931, "lat": 37.7479809, "lon": -122.4204432}, {"type": "node", "id": 1727493164, "lat": 37.7891549, "lon": -122.4176408}, {"type": "node", "id": 1727493166, "lat": 37.7893576, "lon": -122.4160215}, {"type": "node", "id": 1727493167, "lat": 37.7895085, "lon": -122.4177117}, {"type": "node", "id": 1727493168, "lat": 37.7895982, "lon": -122.4169948}, {"type": "node", "id": 1727493170, "lat": 37.7896891, "lon": -122.4162476}, {"type": "node", "id": 1727493172, "lat": 37.7897086, "lon": -122.4160919}, {"type": "node", "id": 1727493174, "lat": 37.7899682, "lon": -122.4170689}, {"type": "node", "id": 1727493176, "lat": 37.7900616, "lon": -122.4163222}, {"type": "node", "id": 1728484159, "lat": 37.7819524, "lon": -122.4438287}, {"type": "node", "id": 1728484162, "lat": 37.7820726, "lon": -122.4425402}, {"type": "node", "id": 1728484164, "lat": 37.7822262, "lon": -122.4419638}, {"type": "node", "id": 1728484166, "lat": 37.7823533, "lon": -122.440905}, {"type": "node", "id": 1728484167, "lat": 37.7823605, "lon": -122.4413201}, {"type": "node", "id": 1728484168, "lat": 37.7823774, "lon": -122.4415161}, {"type": "node", "id": 1728484169, "lat": 37.7824036, "lon": -122.4416961}, {"type": "node", "id": 1728484171, "lat": 37.7825188, "lon": -122.4394792}, {"type": "node", "id": 1728484173, "lat": 37.7825301, "lon": -122.4442491}, {"type": "node", "id": 1728484175, "lat": 37.782537, "lon": -122.4442294}, {"type": "node", "id": 1728484177, "lat": 37.7826542, "lon": -122.4434929}, {"type": "node", "id": 1728484179, "lat": 37.7827559, "lon": -122.442515}, {"type": "node", "id": 1728484181, "lat": 37.7829679, "lon": -122.4410208}, {"type": "node", "id": 1728484188, "lat": 37.7830641, "lon": -122.4400414}, {"type": "node", "id": 1728484189, "lat": 37.7831145, "lon": -122.4396026}, {"type": "node", "id": 1728484190, "lat": 37.7834862, "lon": -122.4394061}, {"type": "node", "id": 1728484191, "lat": 37.7835397, "lon": -122.4390543}, {"type": "node", "id": 1728484192, "lat": 37.7835795, "lon": -122.4389236}, {"type": "node", "id": 1728484193, "lat": 37.7836388, "lon": -122.4411649}, {"type": "node", "id": 1728484194, "lat": 37.7836258, "lon": -122.4387946}, {"type": "node", "id": 1728484195, "lat": 37.7836894, "lon": -122.4386623}, {"type": "node", "id": 1728484197, "lat": 37.7837358, "lon": -122.4406643}, {"type": "node", "id": 1728484198, "lat": 37.7837651, "lon": -122.4401897}, {"type": "node", "id": 1728484207, "lat": 37.7837609, "lon": -122.4385198}, {"type": "node", "id": 1728484209, "lat": 37.783831, "lon": -122.4383272}, {"type": "node", "id": 1728484211, "lat": 37.7838628, "lon": -122.4381915}, {"type": "node", "id": 1728484213, "lat": 37.7838774, "lon": -122.4394855}, {"type": "node", "id": 1728484214, "lat": 37.7838894, "lon": -122.4379834}, {"type": "node", "id": 1728484223, "lat": 37.7841388, "lon": -122.4407452}, {"type": "node", "id": 1728484229, "lat": 37.784167, "lon": -122.4405171}, {"type": "node", "id": 1728484252, "lat": 37.7846354, "lon": -122.4381362}, {"type": "node", "id": 1728484253, "lat": 37.7846396, "lon": -122.4409679}, {"type": "node", "id": 1728484257, "lat": 37.78468, "lon": -122.4406141}, {"type": "node", "id": 1728484263, "lat": 37.7849873, "lon": -122.4382212}, {"type": "node", "id": 1728484264, "lat": 37.7850142, "lon": -122.4410385}, {"type": "node", "id": 1728484265, "lat": 37.785048, "lon": -122.4377219}, {"type": "node", "id": 1728484266, "lat": 37.7850573, "lon": -122.4406953}, {"type": "node", "id": 1728484267, "lat": 37.7851762, "lon": -122.4382603}, {"type": "node", "id": 1728484268, "lat": 37.7852418, "lon": -122.4377591}, {"type": "node", "id": 1728484269, "lat": 37.7854321, "lon": -122.4400224}, {"type": "node", "id": 1728484270, "lat": 37.7855073, "lon": -122.4394794}, {"type": "node", "id": 1728484271, "lat": 37.7856113, "lon": -122.4408065}, {"type": "node", "id": 1728484272, "lat": 37.7857065, "lon": -122.4400795}, {"type": "node", "id": 1728484283, "lat": 37.7859805, "lon": -122.4388198}, {"type": "node", "id": 1728484285, "lat": 37.7860271, "lon": -122.4384259}, {"type": "node", "id": 1728484288, "lat": 37.7861579, "lon": -122.4396086}, {"type": "node", "id": 1728484289, "lat": 37.7862491, "lon": -122.4388789}, {"type": "node", "id": 2623911640, "lat": 37.7953181, "lon": -122.4092454}, {"type": "node", "id": 2623911663, "lat": 37.7956223, "lon": -122.4093063}, {"type": "node", "id": 2623911665, "lat": 37.7956467, "lon": -122.4091089}, {"type": "node", "id": 2639482704, "lat": 37.7952651, "lon": -122.4092347}, {"type": "node", "id": 2668926176, "lat": 37.7894703, "lon": -122.4177128}, {"type": "node", "id": 2684108535, "lat": 37.7902843, "lon": -122.431334}, {"type": "node", "id": 2684108536, "lat": 37.7902911, "lon": -122.4312807}, {"type": "node", "id": 2684108538, "lat": 37.790306, "lon": -122.4311634}, {"type": "node", "id": 2684108540, "lat": 37.7903109, "lon": -122.4311249}, {"type": "node", "id": 2684108542, "lat": 37.7903162, "lon": -122.4310826}, {"type": "node", "id": 2760713347, "lat": 37.7467067, "lon": -122.4202877}, {"type": "node", "id": 2760713427, "lat": 37.7479619, "lon": -122.4203943}, {"type": "node", "id": 2920899574, "lat": 37.7855978, "lon": -122.4229459}, {"type": "node", "id": 2920899585, "lat": 37.7857679, "lon": -122.4216358}, {"type": "node", "id": 2920899617, "lat": 37.7861861, "lon": -122.4230682, "tags": {"emergency": "emergency_ward_entrance", "entrance": "yes"}}, {"type": "node", "id": 2920899623, "lat": 37.7863355, "lon": -122.4230993}, {"type": "node", "id": 4012270789, "lat": 37.7838071, "lon": -122.4400709}, {"type": "node", "id": 4055466275, "lat": 37.795332, "lon": -122.4087007}, {"type": "node", "id": 4055466276, "lat": 37.7952897, "lon": -122.4090369}, {"type": "node", "id": 4055466280, "lat": 37.7956891, "lon": -122.4087727}, {"type": "node", "id": 4087582687, "lat": 37.7472736, "lon": -122.4218219}, {"type": "node", "id": 4087582688, "lat": 37.7479831, "lon": -122.4213164}, {"type": "node", "id": 4484370255, "lat": 37.7674677, "lon": -122.4349151}, {"type": "node", "id": 4561825894, "lat": 37.7650218, "lon": -122.3905358}, {"type": "node", "id": 4668344950, "lat": 37.7650324, "lon": -122.3922296}, {"type": "node", "id": 4668344951, "lat": 37.7651151, "lon": -122.3908415}, {"type": "node", "id": 4668344953, "lat": 37.7655498, "lon": -122.3922817}, {"type": "node", "id": 5433307348, "lat": 37.7835435, "lon": -122.4390419}, {"type": "node", "id": 5433307356, "lat": 37.783787, "lon": -122.4401402}, {"type": "node", "id": 5555408498, "lat": 37.7647716, "lon": -122.3896641, "tags": {"addr:city": "San Francisco", "addr:housenumber": "1975", "addr:postcode": "94158", "addr:street": "4th Street", "amenity": "hospital", "emergency": "yes", "healthcare": "hospital", "healthcare:speciality": "paediatrics", "name": "UCSF Benioff Children's Hospital San Francisco", "opening_hours": "24/7", "phone": "+1 415 353 1664", "website": "https://www.ucsfbenioffchildrens.org/", "wikidata": "Q17031376"}}, {"type": "node", "id": 5555408499, "lat": 37.7645807, "lon": -122.3907208}, {"type": "node", "id": 5555408500, "lat": 37.7648034, "lon": -122.3906511}, {"type": "node", "id": 5555408501, "lat": 37.7663279, "lon": -122.3923516}, {"type": "node", "id": 5555408502, "lat": 37.7665527, "lon": -122.392424}, {"type": "node", "id": 5555408503, "lat": 37.7665908, "lon": -122.392408}, {"type": "node", "id": 5555408504, "lat": 37.7666036, "lon": -122.3923597}, {"type": "node", "id": 5555408505, "lat": 37.7667159, "lon": -122.3905465}, {"type": "node", "id": 5555408506, "lat": 37.7667901, "lon": -122.3893234}, {"type": "node", "id": 5555408507, "lat": 37.7667689, "lon": -122.3892993}, {"type": "node", "id": 5555408508, "lat": 37.7645786, "lon": -122.3890793}, {"type": "node", "id": 5555408509, "lat": 37.7645256, "lon": -122.3890954}, {"type": "node", "id": 5555408510, "lat": 37.7644917, "lon": -122.3891223}, {"type": "node", "id": 5555408511, "lat": 37.7643645, "lon": -122.3906699}, {"type": "node", "id": 5555408512, "lat": 37.7643772, "lon": -122.3907074}, {"type": "node", "id": 5612907115, "lat": 37.7856396, "lon": -122.4405903}, {"type": "node", "id": 6273113452, "lat": 37.7545148, "lon": -122.404216}, {"type": "node", "id": 6329857139, "lat": 37.766337, "lon": -122.3892586, "tags": {"crossing": "unmarked", "crossing:markings": "no", "highway": "crossing"}}, {"type": "node", "id": 8421830159, "lat": 37.7825157, "lon": -122.444277}, {"type": "node", "id": 8431757302, "lat": 37.7588208, "lon": -122.4061495}, {"type": "node", "id": 8602603647, "lat": 37.7856882, "lon": -122.4222496, "tags": {"amenity": "parking_entrance"}}, {"type": "node", "id": 8602603651, "lat": 37.785678, "lon": -122.4223279, "tags": {"amenity": "parking_entrance"}}, {"type": "node", "id": 8602603654, "lat": 37.7864295, "lon": -122.4223759, "tags": {"amenity": "parking_entrance"}}, {"type": "node", "id": 9698423827, "lat": 37.7865057, "lon": -122.4217892}, {"type": "node", "id": 10720141186, "lat": 37.7903522, "lon": -122.4335177}, {"type": "node", "id": 10733809874, "lat": 37.7897186, "lon": -122.4313663}, {"type": "node", "id": 10733809878, "lat": 37.7901816, "lon": -122.4318353}, {"type": "node", "id": 10733809879, "lat": 37.7902662, "lon": -122.431477}, {"type": "node", "id": 10733809889, "lat": 37.789672, "lon": -122.4317298}, {"type": "node", "id": 10744771172, "lat": 37.79163, "lon": -122.431158}, {"type": "node", "id": 10744771178, "lat": 37.7912709, "lon": -122.4310854}, {"type": "node", "id": 10744771187, "lat": 37.7916458, "lon": -122.4312361}, {"type": "node", "id": 10799673238, "lat": 37.7913547, "lon": -122.4311023}, {"type": "node", "id": 10935261536, "lat": 37.7858931, "lon": -122.4216618, "tags": {"access": "yes", "addr:city": "San Francisco", "addr:housenumber": "1101", "addr:postcode": "94109", "addr:state": "CA", "addr:street": "Van Ness Avenue", "automatic_door": "motion", "door": "sliding", "entrance": "main", "wheelchair": "yes"}}, {"type": "node", "id": 10982250132, "lat": 37.7568688, "lon": -122.4047319}, {"type": "node", "id": 12092036107, "lat": 37.7590075, "lon": -122.416707, "tags": {"addr:city": "San Francisco", "addr:housenumber": "3380", "addr:postcode": "94110", "addr:state": "CA", "addr:street": "20th Street", "addr:unit": "#102", "amenity": "hospital", "description": "Double Happiness Health is a San Francisco acupuncture clinic with a focus on fertility, pain, mood, fatigue, infertility, digestive issues, immunity issues, menstrual disorders and other conditions using TCM (Traditional Chinese Medicine). We take a holi", "healthcare": "hospital", "healthcare:speciality": "acupuncture;fertility", "name": "Double Happiness Health - Acupuncture San Francisco", "phone": "+1 415-255-2252", "website": "https://www.doublehappinesshealth.com/"}}, {"type": "node", "id": 12182642979, "lat": 37.7901561, "lon": -122.4320325}, {"type": "node", "id": 12352261706, "lat": 37.7904105, "lon": -122.4324107}, {"type": "node", "id": 12395905193, "lat": 37.7864231, "lon": -122.4224251, "tags": {"amenity": "parking_entrance"}}, {"type": "node", "id": 12436648983, "lat": 37.7860612, "lon": -122.4230422}, {"type": "node", "id": 12436648985, "lat": 37.786348, "lon": -122.4230033}, {"type": "way", "id": 24446045, "nodes": [265688213, 1727334492, 1727334490, 1727334488, 1727334483, 1727334480, 265688214, 6273113452, 265688215, 265688216, 265688217, 10982250132, 265688218, 1727334485, 265688219, 8431757302, 265688213], "tags": {"addr:city": "San Francisco", "addr:country": "US", "addr:housenumber": "1001", "addr:postcode": "94158", "addr:state": "CA", "addr:street": "Potrero Avenue", "amenity": "hospital", "beds": "397", "emergency": "yes", "healthcare": "hospital", "name": "San Francisco General Hospital", "official_name": "Zuckerberg San Francisco General Hospital", "opening_hours": "24/7", "phone": "+1 415 206 8000", "website": "https://zuckerbergsanfranciscogeneral.org/", "wikidata": "Q7414040", "wikipedia": "en:San Francisco General Hospital"}}, {"type": "way", "id": 112073351, "nodes": [1274907119, 1274907139, 4484370255, 1274907137, 1274907164, 1274907119], "tags": {"addr:city": "San Francisco", "addr:country": "US", "addr:housenumber": "45", "addr:postcode": "94114", "addr:state": "CA", "addr:street": "Castro Street", "amenity": "hospital", "check_date": "2025-10-14", "emergency": "yes", "gnis:feature_id": "1656833", "healthcare": "hospital", "name": "CPMC Davies Campus", "opening_hours": "24/7", "operator": "California Pacific Medical Center", "phone": "+1 415 600 6000", "website": "http://www.cpmc.org/", "wheelchair": "yes"}}, {"type": "way", "id": 160703804, "nodes": [4055466275, 4055466276, 2639482704, 2623911640, 2623911663, 2623911665, 4055466280, 4055466275], "tags": {"addr:city": "San Francisco", "addr:country": "US", "addr:housenumber": "845", "addr:postcode": "94133", "addr:state": "CA", "addr:street": "Jackson Street", "amenity": "hospital", "beds": "65", "emergency": "yes", "fax": "+1 415 217 4188", "gnis:feature_id": "1655354", "healthcare": "hospital", "name": "Chinese Hospital", "opening_hours": "24/7", "phone": "+1 415 982 2400", "url": "http://www.chinesehospital-sf.org/", "website": "http://www.chinesehospital-sf.org/", "wikidata": "Q7413971"}}, {"type": "way", "id": 160705973, "nodes": [1727449113, 2684108542, 2684108540, 2684108538, 2684108536, 2684108535, 10733809879, 10733809874, 10733809889, 10733809878, 12182642979, 1727459945, 12352261706, 1727459943, 10720141186, 1727449126, 1727449136, 1727449148, 1727449151, 1727449153, 10744771187, 1727449154, 10744771172, 10799673238, 10744771178, 1727449113], "tags": {"addr:city": "San Francisco", "addr:country": "US", "addr:housenumber": "2333", "addr:postcode": "94115", "addr:state": "CA", "addr:street": "Buchanan Street", "amenity": "hospital", "emergency": "yes", "healthcare": "hospital", "name": "California Pacific Medical Center", "opening_hours": "24/7", "operator": "Sutter Health", "operator:website": "https://www.sutterhealth.org/", "operator:wikidata": "Q7650154", "operator:wikipedia": "en:Sutter Health", "phone": "+1 415 600 6000", "website": "http://www.cpmc.org/", "wikidata": "Q5020739", "wikipedia": "en:California Pacific Medical Center"}}, {"type": "way", "id": 160709337, "nodes": [2760713347, 2760713427, 1727484931, 1727484930, 1727484922, 4087582688, 1727484917, 4087582687, 1727484915, 1727484908, 1727484909, 1727484910, 1727484911, 1727484912, 2760713347], "tags": {"addr:city": "San Francisco", "addr:country": "US", "addr:housenumber": "3555", "addr:postcode": "94110", "addr:state": "CA", "addr:street": "Cesar Chavez Street", "amenity": "hospital", "beds": "120", "emergency": "yes", "gnis:feature_id": "1656867", "healthcare": "hospital", "name": "CPMC Saint Luke's Campus", "opening_hours": "24/7", "operator": "California Pacific Medical Center", "phone": "+1 415 647 8600", "website": "http://www.cpmc.org/about/stluke.html"}}, {"type": "way", "id": 160710807, "nodes": [1727493166, 1727493164, 2668926176, 1727493167, 1727493168, 1727493174, 1727493176, 1727493170, 1727493172, 1727493166], "tags": {"addr:city": "San Francisco", "addr:country": "US", "addr:housenumber": "900", "addr:postcode": "94109", "addr:state": "CA", "addr:street": "Hyde Street", "amenity": "hospital", "beds": "211", "emergency": "yes", "gnis:feature_id": "1656855", "healthcare": "hospital", "name": "Saint Francis Memorial Hospital", "opening_hours": "24/7", "operator": "Dignity Health", "operator:type": "private", "operator:wikidata": "Q5276334", "operator:wikipedia": "en:Dignity Health", "phone": "+1 415 353 6000", "website": "https://www.dignityhealth.org/bayarea/locations/saintfrancis", "wikidata": "Q7401259", "wikipedia": "en:Saint Francis Memorial Hospital"}}, {"type": "way", "id": 160833245, "nodes": [8421830159, 1728484173, 1728484175, 1728484177, 1728484179, 1728484181, 1728484193, 1728484198, 1728484188, 1728484189, 1728484171, 1728484166, 1728484167, 1728484168, 1728484169, 1728484164, 1728484162, 1728484159, 8421830159], "tags": {"addr:city": "San Francisco", "addr:country": "US", "addr:housenumber": "2425", "addr:postcode": "94115", "addr:state": "CA", "addr:street": "Geary Boulevard", "amenity": "hospital", "beds": "239", "emergency": "yes", "gnis:feature_id": "1655671", "healthcare": "hospital", "healthcare:speciality": "emergency;anesthesiology;labor_and_delivery;nuclear;radiology", "name": "Kaiser Permanente Medical Center Geary Campus", "opening_hours": "24/7", "operator": "Kaiser Permanente", "operator:short": "KP", "operator:type": "private_non_profit", "operator:website": "https://healthy.kaiserpermanente.org/", "operator:wikidata": "Q1721601", "operator:wikipedia": "en:Kaiser Permanente", "phone": "+1 415 833 2000", "website": "https://thrive.kaiserpermanente.org/care-near-you/northern-california/sanfrancisco/locations/hospital-2/", "wheelchair": "yes"}}, {"type": "way", "id": 160833250, "nodes": [1728484214, 1728484211, 1728484209, 1728484207, 1728484195, 1728484194, 1728484192, 5433307348, 1728484191, 1728484190, 1728484213, 4012270789, 5433307356, 1728484197, 1728484223, 1728484229, 1728484257, 1728484253, 1728484264, 1728484266, 1728484271, 5612907115, 1728484272, 1728484269, 1728484270, 1728484288, 1728484289, 1728484283, 1728484285, 1728484267, 1728484268, 1728484265, 1728484263, 1728484252, 1728484214], "tags": {"addr:city": "San Francisco", "addr:housenumber": "1600", "addr:postcode": "94115", "addr:street": "Divisadero Street", "alt_name": "UCSF Medical Center at Mount Zion", "amenity": "hospital", "check_date": "2025-09-05", "emergency": "no", "healthcare": "hospital", "name": "UCSF Mount Zion Campus", "operator": "University of California, San Francisco", "phone": "+1 415 567 6600", "website": "https://mountzion.ucsfmedicalcenter.org/", "wheelchair": "yes"}}, {"type": "way", "id": 288533921, "nodes": [2920899585, 8602603647, 8602603651, 2920899574, 12436648983, 2920899617, 2920899623, 12436648985, 12395905193, 8602603654, 9698423827, 10935261536, 2920899585], "tags": {"addr:city": "San Francisco", "addr:housenumber": "1101", "addr:postcode": "94109", "addr:state": "CA", "addr:street": "Van Ness Avenue", "amenity": "hospital", "building": "yes", "check_date": "2022-06-06", "contact:facebook": "SutterHealth", "contact:instagram": "sutterhealth", "contact:twitter": "SutterHealth", "emergency": "yes", "healthcare": "hospital", "name": "CPMC Van Ness Campus", "opening_hours": "24/7", "operator": "Sutter Health", "operator:type": "private", "operator:website": "https://www.sutterhealth.org/", "operator:wikidata": "Q7650154", "operator:wikipedia": "en:Sutter Health", "phone": "+1 415 6006000", "website": "https://www.sutterhealth.org/find-location/facility/cpmc-van-ness-campus", "wheelchair": "yes"}}, {"type": "way", "id": 580277612, "nodes": [5555408512, 5555408511, 5555408510, 5555408509, 5555408508, 6329857139, 5555408507, 5555408506, 5555408505, 5555408504, 5555408503, 5555408502, 5555408501, 4668344953, 4668344950, 4668344951, 4561825894, 5555408500, 5555408499, 5555408512], "tags": {"addr:city": "San Francisco", "addr:housenumber": "1975", "addr:postcode": "94158", "addr:street": "4th Street", "amenity": "hospital", "emergency": "no", "healthcare": "hospital", "name": "UCSF Medical Center at Mission Bay", "operator": "University of California San Francisco", "website": "https://www.ucsfhealth.org/"}}]}