{"version": 0.6, "generator": "Overpass API 0.7.62.8 e802775f", "osm3s": {"timestamp_osm_base": "2026-01-15T07:24:55Z", "copyright": "The data included in this document is from www.openstreetmap.org. The data is made available under ODbL."}, "elements": [{"type": "node", "id": 1123220571, "lat": 38.0907979, "lon": 13.3750627, "tags": {"bench": "yes", "bus": "yes", "highway": "bus_stop", "public_transport": "platform", "shelter": "yes"}}, {"type": "node", "id": 5067296721, "lat": 38.0910604, "lon": 13.3431394, "tags": {"bench": "yes", "bus": "yes", "highway": "bus_stop", "public_transport": "platform", "shelter": "yes"}}, {"type": "node", "id": 5133126145, "lat": 38.0896258, "lon": 13.3597212, "tags": {"bus": "yes", "highway": "bus_stop", "name": "Troina", "network": "AMAT", "network:wikidata": "Q3601014", "operator": "AMAT", "public_transport": "platform", "ref": "2070", "shelter": "yes"}}, {"type": "node", "id": 5133126146, "lat": 38.0896871, "lon": 13.3598469, "tags": {"bus": "yes", "highway": "bus_stop", "name": "Troina", "network": "AMAT", "network:wikidata": "Q3601014", "operator": "AMAT", "public_transport": "platform", "ref": "2071", "shelter": "yes"}}, {"type": "node", "id": 5133126149, "lat": 38.0885089, "lon": 13.359744, "tags": {"bus": "yes", "highway": "bus_stop", "network": "AMAT", "network:wikidata": "Q3601014", "operator": "AMAT", "public_transport": "platform", "shelter": "yes"}}, {"type": "node", "id": 5133141460, "lat": 38.0878456, "lon": 13.3584246, "tags": {"bus": "yes", "highway": "bus_stop", "name": "Regione Siciliana - Cinciallegra", "network": "AMAT", "network:wikidata": "Q3601014", "operator": "AMAT", "public_transport": "platform", "ref": "1647", "shelter": "yes"}}, {"type": "node", "id": 5133141461, "lat": 38.0883649, "lon": 13.3598327, "tags": {"bus": "yes", "highway": "bus_stop", "name": "Regione Siciliana - Cinciallegra", "network": "AMAT", "network:wikidata": "Q3601014", "operator": "AMAT", "public_transport": "platform", "ref": "1646", "shelter": "yes"}}, {"type": "node", "id": 5133141462, "lat": 38.0871214, "lon": 13.3562188, "tags": {"bench": "yes", "bin": "yes", "bus": "yes", "check_date:shelter": "2023-09-21", "highway": "bus_stop", "name": "Regione Siciliana - Del Cigno", "network": "AMAT", "network:wikidata": "Q3601014", "operator": "AMAT", "public_transport": "platform", "ref": "1652", "shelter": "yes"}}, {"type": "node", "id": 5133175587, "lat": 38.0866493, "lon": 13.3533882, "tags": {"bus": "yes", "highway": "bus_stop", "public_transport": "platform"}}, {"type": "node", "id": 5133175588, "lat": 38.0870654, "lon": 13.3495676, "tags": {"bench": "yes", "bus": "yes", "check_date:shelter": "2023-09-21", "highway": "bus_stop", "name": "Regione Siciliana - Villagrazia", "public_transport": "platform", "shelter": "yes"}}, {"type": "node", "id": 5917947476, "lat": 38.0911525, "lon": 13.3432398, "tags": {"bench": "no", "bus": "yes", "highway": "bus_stop", "name": "Regione Siciliana - P. Corleone", "public_transport": "platform", "shelter": "no"}}, {"type": "node", "id": 5919931180, "lat": 38.0900902, "lon": 13.3732798, "tags": {"bus": "yes", "highway": "bus_stop", "public_transport": "platform", "shelter": "yes"}}, {"type": "node", "id": 5919943374, "lat": 38.0893756, "lon": 13.3700638, "tags": {"bench": "no", "bus": "yes", "highway": "bus_stop", "public_transport": "platform", "shelter": "no"}}, {"type": "node", "id": 5919943376, "lat": 38.0889833, "lon": 13.3681531, "tags": {"bench": "no", "bus": "yes", "check_date:shelter": "2023-09-21", "highway": "bus_stop", "name": "Regione Siciliana - Chiavelli", "public_transport": "platform", "shelter": "yes"}}, {"type": "node", "id": 5919943377, "lat": 38.0898254, "lon": 13.3662152, "tags": {"bus": "yes", "highway": "bus_stop", "public_transport": "platform", "shelter": "yes"}}, {"type": "node", "id": 5919943381, "lat": 38.0901738, "lon": 13.3647206, "tags": {"bus": "yes", "highway": "bus_stop", "name": "Regione Siciliana - Levriere 1", "public_transport": "platform", "shelter": "yes"}}, {"type": "node", "id": 5920419937, "lat": 38.0871135, "lon": 13.3653002, "tags": {"bench": "no", "bus": "yes", "highway": "bus_stop", "name": "Ermellino - Levriere", "public_transport": "platform", "ref": "763", "shelter": "yes"}}, {"type": "node", "id": 5920424412, "lat": 38.088669, "lon": 13.369236, "tags": {"bench": "yes", "bus": "yes", "highway": "bus_stop", "name": "Regione Siciliana - Chiavelli", "public_transport": "platform", "shelter": "yes"}}, {"type": "node", "id": 6330517038, "lat": 38.0914977, "lon": 13.3418229, "tags": {"bus": "yes", "bus_lines": "100,234,N11", "highway": "bus_stop", "name": "Regione Siciliana - Ponte Corleone", "network": "AMAT", "network:wikidata": "Q3601014", "operator": "AMAT", "public_transport": "platform", "ref": "1683", "shelter": "no"}}, {"type": "node", "id": 6330517042, "lat": 38.0755935, "lon": 13.3498581, "tags": {"bus": "yes", "highway": "bus_stop", "public_transport": "platform"}}, {"type": "node", "id": 6333413236, "lat": 38.0836506, "lon": 13.3612987, "tags": {"bench": "no", "bus": "yes", "highway": "bus_stop", "network": "AMAT", "network:wikidata": "Q3601014", "operator": "AMAT", "public_transport": "platform", "shelter": "yes"}}, {"type": "node", "id": 6361848283, "lat": 38.0863145, "lon": 13.3501053, "tags": {"bench": "no", "bin": "no", "bus": "yes", "check_date:shelter": "2023-09-21", "departures_board": "yes", "highway": "bus_stop", "name": "Regione Siciliana Aloi", "network": "AMAT", "network:wikidata": "Q3601014", "operator": "AMAT", "public_transport": "platform", "shelter": "yes", "tactile_paving": "no"}}, {"type": "node", "id": 6389145078, "lat": 38.0942467, "lon": 13.3354998, "tags": {"bus": "yes", "departures_board": "yes", "highway": "bus_stop", "name": "Altofonte - Regione Siciliana", "network": "AMAT", "network:wikidata": "Q3601014", "operator": "AMAT", "public_transport": "platform", "ref": "74", "shelter": "yes"}}, {"type": "node", "id": 6391400056, "lat": 38.0869324, "lon": 13.3422594, "tags": {"bus": "yes", "highway": "bus_stop", "name": "Villagrazia - Girgenti", "network": "AMAT", "network:wikidata": "Q3601014", "operator": "AMAT", "public_transport": "platform", "ref": "2148", "shelter": "no"}}, {"type": "node", "id": 6391400057, "lat": 38.08657, "lon": 13.3389305, "tags": {"bus": "yes", "highway": "bus_stop", "name": "Villagrazia - Etna", "network": "AMAT", "network:wikidata": "Q3601014", "operator": "AMAT", "public_transport": "platform", "ref": "2144"}}, {"type": "node", "id": 6391400058, "lat": 38.0845264, "lon": 13.3371597, "tags": {"bus": "yes", "highway": "bus_stop", "name": "Villagrazia - Marchese", "network": "AMAT", "network:wikidata": "Q3601014", "operator": "AMAT", "public_transport": "platform", "ref": "2152", "shelter": "no"}}, {"type": "node", "id": 6391400059, "lat": 38.0832515, "lon": 13.3365339, "tags": {"bus": "yes", "highway": "bus_stop", "name": "Villagrazia - Cilio", "network": "AMAT", "network:wikidata": "Q3601014", "operator": "AMAT", "public_transport": "platform", "ref": "2138", "shelter": "no"}}, {"type": "node", "id": 6391400060, "lat": 38.0815989, "lon": 13.3355004, "tags": {"bus": "yes", "highway": "bus_stop", "name": "Villagrazia 10", "network": "AMAT", "network:wikidata": "Q3601014", "operator": "AMAT", "public_transport": "platform", "ref": "2165", "shelter": "no"}}, {"type": "node", "id": 6395852622, "lat": 38.0896584, "lon": 13.3355717, "tags": {"bus": "yes", "bus_lines": "380", "highway": "bus_stop", "name": "Bachelet 3", "network": "AMAT", "network:wikidata": "Q3601014", "operator": "AMAT", "public_transport": "platform", "ref": "2305", "shelter": "no"}}, {"type": "node", "id": 6395852623, "lat": 38.0876888, "lon": 13.3351989, "tags": {"bus": "yes", "bus_lines": "380", "highway": "bus_stop", "name": "Bachelet 2", "network": "AMAT", "network:wikidata": "Q3601014", "operator": "AMAT", "public_transport": "platform", "ref": "152", "shelter": "no"}}, {"type": "node", "id": 6396088770, "lat": 38.0860536, "lon": 13.3481009, "tags": {"bus": "yes", "highway": "bus_stop", "network": "AMAT", "network:wikidata": "Q3601014", "operator": "AMAT", "public_transport": "platform", "shelter": "no"}}, {"type": "node", "id": 6396088771, "lat": 38.0862527, "lon": 13.346607, "tags": {"bus": "yes", "highway": "bus_stop", "network": "AMAT", "network:wikidata": "Q3601014", "operator": "AMAT", "public_transport": "platform", "shelter": "no"}}, {"type": "node", "id": 6396088772, "lat": 38.0866302, "lon": 13.3452604, "tags": {"bus": "yes", "highway": "bus_stop", "network": "AMAT", "network:wikidata": "Q3601014", "operator": "AMAT", "public_transport": "platform", "shelter": "no"}}, {"type": "node", "id": 6396448852, "lat": 38.0941494, "lon": 13.3671963, "tags": {"bus": "yes", "bus_lines": "100,209,230,234,243,N11", "highway": "bus_stop", "name": "Orsa Minore", "network": "AMAT", "network:wikidata": "Q3601014", "operator": "AMAT", "public_transport": "platform", "ref": "1323", "shelter": "no"}}, {"type": "node", "id": 6396448853, "lat": 38.0937447, "lon": 13.3651344, "tags": {"bus": "yes", "bus_lines": "230,243", "highway": "bus_stop", "name": "Orsa Maggiore - Orsa Minore", "network": "AMAT", "network:wikidata": "Q3601014", "operator": "AMAT", "public_transport": "platform", "ref": "1312", "shelter": "no"}}, {"type": "node", "id": 6396448854, "lat": 38.0936819, "lon": 13.3630751, "tags": {"bus": "yes", "bus_lines": "230,243", "highway": "bus_stop", "name": "Orsa Maggiore - Capricorno", "network": "AMAT", "network:wikidata": "Q3601014", "operator": "AMAT", "public_transport": "platform", "ref": "1310", "shelter": "no"}}, {"type": "node", "id": 6396448855, "lat": 38.0948228, "lon": 13.36243, "tags": {"bench": "no", "bin": "no", "bus": "yes", "bus_lines": "241", "highway": "bus_stop", "name": "Villagrazia - Capricorno", "network": "AMAT", "network:wikidata": "Q3601014", "operator": "AMAT", "public_transport": "platform", "ref": "2170", "shelter": "no", "tactile_paving": "no"}}, {"type": "node", "id": 6396448857, "lat": 38.0930475, "lon": 13.3608381, "tags": {"bench": "yes", "bus": "yes", "bus_lines": "230,241,243,N11", "highway": "bus_stop", "name": "S. Filippo - Orsa Maggiore", "network": "AMAT", "network:wikidata": "Q3601014", "operator": "AMAT", "public_transport": "platform", "ref": "1789", "shelter": "yes"}}, {"type": "node", "id": 6396448858, "lat": 38.0930106, "lon": 13.3603017, "tags": {"bench": "yes", "bus": "yes", "bus_lines": "241,243", "highway": "bus_stop", "name": "S. Filippo - Costellazione", "network": "AMAT", "network:wikidata": "Q3601014", "operator": "AMAT", "public_transport": "platform", "ref": "1788", "shelter": "yes"}}, {"type": "node", "id": 6396448859, "lat": 38.092981, "lon": 13.3594286, "tags": {"bus": "yes", "bus_lines": "230", "highway": "bus_stop", "name": "Villagrazia - S. Filippo", "network": "AMAT", "network:wikidata": "Q3601014", "operator": "AMAT", "public_transport": "platform", "ref": "2158", "shelter": "no"}}, {"type": "node", "id": 6396448862, "lat": 38.0919235, "lon": 13.3576852, "tags": {"bus": "yes", "bus_lines": "230", "highway": "bus_stop", "name": "Villagrazia - Eraclea Minoa", "network": "AMAT", "network:wikidata": "Q3601014", "operator": "AMAT", "public_transport": "platform", "ref": "2151", "shelter": "no"}}, {"type": "node", "id": 6396448863, "lat": 38.0911128, "lon": 13.3556963, "tags": {"bus": "yes", "bus_lines": "230", "highway": "bus_stop", "name": "Villagrazia - Folaga", "network": "AMAT", "network:wikidata": "Q3601014", "operator": "AMAT", "public_transport": "platform", "ref": "2145", "shelter": "no"}}, {"type": "node", "id": 6396448864, "lat": 38.0897059, "lon": 13.3531335, "tags": {"bench": "yes", "bus": "yes", "bus_lines": "230", "highway": "bus_stop", "name": "Villagrazia - Dell'Usignolo", "network": "AMAT", "network:wikidata": "Q3601014", "operator": "AMAT", "public_transport": "platform", "ref": "2142", "shelter": "yes"}}, {"type": "node", "id": 6396448865, "lat": 38.0888142, "lon": 13.3510759, "tags": {"bus": "yes", "bus_lines": "230", "highway": "bus_stop", "name": "Emily Balch 3", "network": "AMAT", "network:wikidata": "Q3601014", "operator": "AMAT", "public_transport": "platform", "ref": "756", "shelter": "no"}}, {"type": "node", "id": 6409122264, "lat": 38.0874592, "lon": 13.3544451, "tags": {"bus": "yes", "highway": "bus_stop", "name": "Allodola 2", "network": "AMAT", "network:wikidata": "Q3601014", "operator": "AMAT", "public_transport": "platform", "ref": "45"}}, {"type": "node", "id": 6409122265, "lat": 38.0878846, "lon": 13.3546443, "tags": {"bus": "yes", "highway": "bus_stop", "name": "Allodola 1", "network": "AMAT", "network:wikidata": "Q3601014", "operator": "AMAT", "public_transport": "platform", "ref": "45"}}, {"type": "node", "id": 6409122266, "lat": 38.0886651, "lon": 13.3550084, "tags": {"bus": "yes", "highway": "bus_stop", "name": "Airone - Usignolo", "network": "AMAT", "network:wikidata": "Q3601014", "operator": "AMAT", "public_transport": "platform", "ref": "37"}}, {"type": "node", "id": 6409122267, "lat": 38.089452, "lon": 13.3567075, "tags": {"bus": "yes", "highway": "bus_stop", "name": "Airone - Folaga", "network": "AMAT", "network:wikidata": "Q3601014", "operator": "AMAT", "public_transport": "platform", "ref": "31"}}, {"type": "node", "id": 6409122268, "lat": 38.0902906, "lon": 13.358734, "tags": {"bus": "yes", "highway": "bus_stop", "name": "Airone - Troina", "network": "AMAT", "network:wikidata": "Q3601014", "operator": "AMAT", "public_transport": "platform", "ref": "36"}}, {"type": "node", "id": 6409122269, "lat": 38.0903719, "lon": 13.3586079, "tags": {"bus": "yes", "highway": "bus_stop", "name": "Airone - Troina", "network": "AMAT", "network:wikidata": "Q3601014", "operator": "AMAT", "public_transport": "platform", "ref": "35"}}, {"type": "node", "id": 6409122270, "lat": 38.0917493, "lon": 13.3600201, "tags": {"bus": "yes", "highway": "bus_stop", "name": "Airone - S. Filippo", "network": "AMAT", "network:wikidata": "Q3601014", "operator": "AMAT", "public_transport": "platform", "ref": "33"}}, {"type": "node", "id": 6409122271, "lat": 38.0918258, "lon": 13.3602078, "tags": {"bus": "yes", "highway": "bus_stop", "name": "Airone - S. Filippo", "network": "AMAT", "network:wikidata": "Q3601014", "operator": "AMAT", "public_transport": "platform", "ref": "34"}}, {"type": "node", "id": 6409122272, "lat": 38.0938349, "lon": 13.3633085, "tags": {"bus": "yes", "highway": "bus_stop", "name": "Orsa Maggiore - Capricorno", "network": "AMAT", "network:wikidata": "Q3601014", "operator": "AMAT", "public_transport": "platform", "ref": "1309"}}, {"type": "node", "id": 6409122273, "lat": 38.0939447, "lon": 13.365127, "tags": {"bus": "yes", "highway": "bus_stop", "name": "Orsa Maggiore - Orsa Minore", "network": "AMAT", "network:wikidata": "Q3601014", "operator": "AMAT", "public_transport": "platform", "ref": "1311"}}, {"type": "node", "id": 6409122274, "lat": 38.0941705, "lon": 13.3668476, "tags": {"bus": "yes", "highway": "bus_stop", "name": "Orsa Minore", "network": "AMAT", "network:wikidata": "Q3601014", "operator": "AMAT", "public_transport": "platform", "ref": "1324"}}, {"type": "node", "id": 6409122275, "lat": 38.0948724, "lon": 13.3680117, "tags": {"bus": "yes", "highway": "bus_stop", "name": "Orsa Minore - Chiavelli", "network": "AMAT", "network:wikidata": "Q3601014", "operator": "AMAT", "public_transport": "platform", "ref": "1316"}}, {"type": "node", "id": 6409312764, "lat": 38.0863086, "lon": 13.360867, "tags": {"bus": "yes", "highway": "bus_stop", "name": "Ermellino - Troina", "network": "AMAT", "network:wikidata": "Q3601014", "operator": "AMAT", "public_transport": "platform", "ref": "769"}}, {"type": "node", "id": 6409312765, "lat": 38.0864627, "lon": 13.3607825, "tags": {"bus": "yes", "highway": "bus_stop", "name": "Ermellino - Troina", "network": "AMAT", "network:wikidata": "Q3601014", "operator": "AMAT", "public_transport": "platform", "ref": "768"}}, {"type": "node", "id": 6409312766, "lat": 38.085622, "lon": 13.3588976, "tags": {"bus": "yes", "highway": "bus_stop", "name": "Ermellino - Lontra", "network": "AMAT", "network:wikidata": "Q3601014", "operator": "AMAT", "public_transport": "platform", "ref": "765"}}, {"type": "node", "id": 6409312767, "lat": 38.0856813, "lon": 13.3585097, "tags": {"bus": "yes", "highway": "bus_stop", "name": "Ermellino - Lontra", "network": "AMAT", "network:wikidata": "Q3601014", "operator": "AMAT", "public_transport": "platform", "ref": "764"}}, {"type": "node", "id": 6409312768, "lat": 38.084957, "lon": 13.3571367, "tags": {"bus": "yes", "highway": "bus_stop", "name": "Ermellino - Camoscio", "network": "AMAT", "network:wikidata": "Q3601014", "operator": "AMAT", "public_transport": "platform", "ref": "761"}}, {"type": "node", "id": 6409312769, "lat": 38.0849348, "lon": 13.3565801, "tags": {"bus": "yes", "highway": "bus_stop", "name": "Ermellino - Antilope", "network": "AMAT", "network:wikidata": "Q3601014", "operator": "AMAT", "public_transport": "platform", "ref": "760"}}, {"type": "node", "id": 6409312770, "lat": 38.0841209, "lon": 13.3562556, "tags": {"bus": "yes", "highway": "bus_stop", "name": "Antilope - Ermellino", "network": "AMAT", "network:wikidata": "Q3601014", "operator": "AMAT", "public_transport": "platform", "ref": "98"}}, {"type": "node", "id": 6409312771, "lat": 38.0822399, "lon": 13.3572601, "tags": {"bus": "yes", "highway": "bus_stop", "name": "Antilope - Guido Rossa", "operator": "AMAT", "public_transport": "platform", "ref": "99"}}, {"type": "node", "id": 6409312772, "lat": 38.0802162, "lon": 13.3590491, "tags": {"bus": "yes", "highway": "bus_stop", "name": "Levriere - Antilope", "operator": "AMAT", "public_transport": "platform", "ref": "1008"}}, {"type": "node", "id": 6409312773, "lat": 38.0810396, "lon": 13.3614349, "tags": {"bus": "yes", "highway": "bus_stop", "name": "Levriere - Rumore", "operator": "AMAT", "public_transport": "platform", "ref": "1012"}}, {"type": "node", "id": 6409312774, "lat": 38.0827465, "lon": 13.364561, "tags": {"bus": "yes", "highway": "bus_stop", "name": "Levriere - Musacchia", "network": "AMAT", "network:wikidata": "Q3601014", "operator": "AMAT", "public_transport": "platform", "ref": "1011"}}, {"type": "node", "id": 6409312775, "lat": 38.0844862, "lon": 13.3655025, "tags": {"bus": "yes", "highway": "bus_stop", "name": "Levriere - Bassotto", "network": "AMAT", "network:wikidata": "Q3601014", "operator": "AMAT", "public_transport": "platform", "ref": "1009"}}, {"type": "node", "id": 6409312776, "lat": 38.0861424, "lon": 13.3660564, "tags": {"bus": "yes", "highway": "bus_stop", "name": "Levriere - Ermellino", "network": "AMAT", "network:wikidata": "Q3601014", "operator": "AMAT", "public_transport": "platform", "ref": "1010"}}, {"type": "node", "id": 6409312777, "lat": 38.0866464, "lon": 13.3626446, "tags": {"bus": "yes", "highway": "bus_stop", "name": "Ermellino - Papa Giovanni XXIII", "network": "AMAT", "network:wikidata": "Q3601014", "operator": "AMAT", "public_transport": "platform", "ref": "767"}}, {"type": "node", "id": 6410968896, "lat": 38.0817432, "lon": 13.3355278, "tags": {"bus": "yes", "highway": "bus_stop", "name": "Villagrazia 3", "network": "AMAT", "network:wikidata": "Q3601014", "operator": "AMAT", "public_transport": "platform", "ref": "2167"}}, {"type": "node", "id": 6410968897, "lat": 38.0866628, "lon": 13.3389004, "tags": {"bus": "yes", "highway": "bus_stop", "name": "Villagrazia - Etna", "network": "AMAT", "network:wikidata": "Q3601014", "operator": "AMAT", "public_transport": "platform", "ref": "2143"}}, {"type": "node", "id": 6410968898, "lat": 38.0870143, "lon": 13.3422022, "tags": {"bus": "yes", "highway": "bus_stop", "name": "Villagrazia - Girgenti", "network": "AMAT", "network:wikidata": "Q3601014", "operator": "AMAT", "public_transport": "platform", "ref": "2147"}}, {"type": "node", "id": 6410968899, "lat": 38.0868638, "lon": 13.3435634, "tags": {"bus": "yes", "highway": "bus_stop", "name": "Villagrazia - Della Visitazione", "network": "AMAT", "network:wikidata": "Q3601014", "operator": "AMAT", "public_transport": "platform", "ref": "2140"}}, {"type": "node", "id": 6410968900, "lat": 38.0869256, "lon": 13.3435929, "tags": {"bus": "yes", "highway": "bus_stop", "name": "Villagrazia - Della Visitazione", "network": "AMAT", "network:wikidata": "Q3601014", "operator": "AMAT", "public_transport": "platform", "ref": "2139"}}, {"type": "node", "id": 6410968901, "lat": 38.0875531, "lon": 13.345166, "tags": {"bus": "yes", "highway": "bus_stop", "name": "Emily Balch - Villagrazia", "network": "AMAT", "network:wikidata": "Q3601014", "operator": "AMAT", "public_transport": "platform", "ref": "752"}}, {"type": "node", "id": 6410968902, "lat": 38.0878386, "lon": 13.3458448, "tags": {"bus": "yes", "highway": "bus_stop", "name": "Emily Balch - Villagrazia", "network": "AMAT", "network:wikidata": "Q3601014", "operator": "AMAT", "public_transport": "platform", "ref": "753"}}, {"type": "node", "id": 6410968903, "lat": 38.0889476, "lon": 13.3486919, "tags": {"bus": "yes", "highway": "bus_stop", "name": "Emily Balch 1", "network": "AMAT", "network:wikidata": "Q3601014", "operator": "AMAT", "public_transport": "platform", "ref": "754"}}, {"type": "node", "id": 6411632009, "lat": 38.0895671, "lon": 13.3526447, "tags": {"bus": "yes", "highway": "bus_stop", "name": "Villagrazia - Dell'Usignolo", "network": "AMAT", "network:wikidata": "Q3601014", "operator": "AMAT", "public_transport": "platform", "ref": "2141"}}, {"type": "node", "id": 6411632010, "lat": 38.0910384, "lon": 13.3549245, "tags": {"bus": "yes", "highway": "bus_stop", "name": "Villagrazia 2", "network": "AMAT", "network:wikidata": "Q3601014", "operator": "AMAT", "public_transport": "platform", "ref": "2166"}}, {"type": "node", "id": 6411632011, "lat": 38.0918306, "lon": 13.356619, "tags": {"bus": "yes", "highway": "bus_stop", "name": "Villagrazia - Ponte Rotto", "network": "AMAT", "network:wikidata": "Q3601014", "operator": "AMAT", "public_transport": "platform", "ref": "2157"}}, {"type": "node", "id": 6411632012, "lat": 38.0929128, "lon": 13.3588163, "tags": {"bus": "yes", "highway": "bus_stop", "name": "Villagrazia 1", "network": "AMAT", "network:wikidata": "Q3601014", "operator": "AMAT", "public_transport": "platform", "ref": "2164"}}, {"type": "node", "id": 8507676882, "lat": 38.0798117, "lon": 13.3681816, "tags": {"bus": "yes", "highway": "bus_stop", "public_transport": "platform"}}, {"type": "node", "id": 8520091480, "lat": 38.0860423, "lon": 13.3614915, "tags": {"bus": "yes", "highway": "bus_stop", "network": "AMAT", "network:wikidata": "Q3601014", "operator": "AMAT", "public_transport": "platform"}}, {"type": "node", "id": 8520091492, "lat": 38.0853173, "lon": 13.3530375, "tags": {"bus": "yes", "highway": "bus_stop", "name": "V.F. 21 - Aloi", "network": "AMAT", "network:wikidata": "Q3601014", "operator": "AMAT", "public_transport": "platform"}}, {"type": "node", "id": 8520118934, "lat": 38.0863854, "lon": 13.3501074, "tags": {"bus": "yes", "highway": "bus_stop", "network": "AMAT", "network:wikidata": "Q3601014", "operator": "AMAT", "public_transport": "platform"}}, {"type": "node", "id": 8520118936, "lat": 38.0845998, "lon": 13.3451148, "tags": {"bus": "yes", "highway": "bus_stop", "network": "AMAT", "network:wikidata": "Q3601014", "operator": "AMAT", "public_transport": "platform"}}, {"type": "node", "id": 8554737179, "lat": 38.0871203, "lon": 13.3645769, "tags": {"bus": "yes", "highway": "bus_stop", "network": "AMAT", "network:wikidata": "Q3601014", "operator": "AMAT", "public_transport": "platform"}}, {"type": "node", "id": 8554737180, "lat": 38.0867363, "lon": 13.362408, "tags": {"bus": "yes", "highway": "bus_stop", "network": "AMAT", "network:wikidata": "Q3601014", "operator": "AMAT", "public_transport": "platform"}}, {"type": "node", "id": 8556884304, "lat": 38.0826534, "lon": 13.3608043, "tags": {"bus": "yes", "highway": "bus_stop", "name": "Papa Giovanni - Guido Rossa", "operator": "AMAT", "public_transport": "platform"}}, {"type": "node", "id": 8634706764, "lat": 38.0897148, "lon": 13.3740359, "tags": {"bus": "yes", "highway": "bus_stop", "network": "AMAT", "network:wikidata": "Q3601014", "operator": "AMAT", "public_transport": "platform"}}, {"type": "node", "id": 8658484841, "lat": 38.0851713, "lon": 13.3619483, "tags": {"bus": "yes", "highway": "bus_stop", "network": "AMAT", "network:wikidata": "Q3601014", "operator": "AMAT", "public_transport": "platform"}}, {"type": "node", "id": 11210400453, "lat": 38.0940572, "lon": 13.3755502, "tags": {"bus": "yes", "highway": "bus_stop", "name": "Oreto - Sirillo", "public_transport": "platform"}}, {"type": "node", "id": 11210400454, "lat": 38.0941022, "lon": 13.3753632, "tags": {"bus": "yes", "highway": "bus_stop", "name": "Oreto - Sirillo", "public_transport": "platform"}}, {"type": "node", "id": 11210664838, "lat": 38.0940373, "lon": 13.3754751, "tags": {"bus": "yes", "name": "Oreto - Sirillo", "public_transport": "stop_position"}}, {"type": "node", "id": 11210664839, "lat": 38.0941206, "lon": 13.3754215, "tags": {"bus": "yes", "name": "Oreto - Sirillo", "public_transport": "stop_position"}}, {"type": "node", "id": 12284557586, "lat": 38.0877309, "lon": 13.3808795}, {"type": "node", "id": 12284557587, "lat": 38.08765, "lon": 13.3796132}, {"type": "node", "id": 12284557588, "lat": 38.0876396, "lon": 13.3792862}, {"type": "node", "id": 12284557589, "lat": 38.087782, "lon": 13.3789236}, {"type": "node", "id": 12284557590, "lat": 38.0879513, "lon": 13.3787883}, {"type": "node", "id": 12284557591, "lat": 38.0883882, "lon": 13.3785453}, {"type": "node", "id": 12284557592, "lat": 38.0895265, "lon": 13.37802}, {"type": "node", "id": 12284557593, "lat": 38.0898431, "lon": 13.3779708}, {"type": "node", "id": 12284557594, "lat": 38.0902177, "lon": 13.3779027}, {"type": "node", "id": 12284557595, "lat": 38.090845, "lon": 13.3775871}, {"type": "node", "id": 12284557596, "lat": 38.0909897, "lon": 13.3774993}, {"type": "node", "id": 12284557597, "lat": 38.0912335, "lon": 13.3773494}, {"type": "node", "id": 12284557598, "lat": 38.0917946, "lon": 13.3769842}, {"type": "node", "id": 12284557599, "lat": 38.0938878, "lon": 13.3756579}, {"type": "node", "id": 12284557600, "lat": 38.0960914, "lon": 13.3742333}, {"type": "node", "id": 12284617601, "lat": 38.0971559, "lon": 13.3735385}, {"type": "node", "id": 12284617602, "lat": 38.0972773, "lon": 13.3734438}, {"type": "node", "id": 12284617603, "lat": 38.0975343, "lon": 13.3731968}, {"type": "node", "id": 12284617604, "lat": 38.0980676, "lon": 13.3726462}, {"type": "node", "id": 12284617605, "lat": 38.1005728, "lon": 13.3700432}, {"type": "node", "id": 12284617606, "lat": 38.1009592, "lon": 13.3697723}, {"type": "node", "id": 12284617607, "lat": 38.1012963, "lon": 13.3695598}, {"type": "node", "id": 12284617608, "lat": 38.1019865, "lon": 13.3691255}, {"type": "node", "id": 12284617609, "lat": 38.1027149, "lon": 13.3686785}, {"type": "node", "id": 12284617610, "lat": 38.1028736, "lon": 13.3685833}, {"type": "node", "id": 12284617611, "lat": 38.1032183, "lon": 13.3684791}, {"type": "node", "id": 12284617612, "lat": 38.1036638, "lon": 13.3682196}, {"type": "node", "id": 12284617613, "lat": 38.1047344, "lon": 13.3675171}, {"type": "node", "id": 12284617614, "lat": 38.1051084, "lon": 13.3672776}, {"type": "node", "id": 12284617615, "lat": 38.1053849, "lon": 13.3671935}, {"type": "node", "id": 12284617616, "lat": 38.1060849, "lon": 13.367077}, {"type": "node", "id": 12284617617, "lat": 38.1094568, "lon": 13.3666012}, {"type": "node", "id": 12284617618, "lat": 38.1096282, "lon": 13.3665756}, {"type": "node", "id": 12284617619, "lat": 38.1100341, "lon": 13.3665212}, {"type": "node", "id": 12284617620, "lat": 38.1108744, "lon": 13.3665077}, {"type": "node", "id": 12284617621, "lat": 38.1114198, "lon": 13.3665191}, {"type": "node", "id": 12284617622, "lat": 38.1118353, "lon": 13.3665129}, {"type": "node", "id": 12284617623, "lat": 38.1123393, "lon": 13.3664029}, {"type": "node", "id": 12284617624, "lat": 38.1156921, "lon": 13.3652077}, {"type": "node", "id": 12284617625, "lat": 38.115856, "lon": 13.3651316}, {"type": "node", "id": 12284617626, "lat": 38.1165241, "lon": 13.3647228}, {"type": "node", "id": 12284617627, "lat": 38.1175891, "lon": 13.3640467}, {"type": "node", "id": 12284617628, "lat": 38.1177621, "lon": 13.3639147}, {"type": "node", "id": 12284617629, "lat": 38.117889, "lon": 13.3637974}, {"type": "node", "id": 12284617630, "lat": 38.1180696, "lon": 13.363592}, {"type": "node", "id": 12284617631, "lat": 38.1182594, "lon": 13.3633252}, {"type": "node", "id": 12284617632, "lat": 38.1185083, "lon": 13.3627826}, {"type": "node", "id": 12284617633, "lat": 38.1187996, "lon": 13.3619899}, {"type": "node", "id": 12284617634, "lat": 38.1196963, "lon": 13.3594971}, {"type": "node", "id": 12284617635, "lat": 38.1199014, "lon": 13.359008}, {"type": "node", "id": 12284617637, "lat": 38.1202407, "lon": 13.3584627}, {"type": "node", "id": 12284617638, "lat": 38.1203737, "lon": 13.3583597}, {"type": "node", "id": 12284617639, "lat": 38.1205327, "lon": 13.3582594}, {"type": "node", "id": 12284617640, "lat": 38.1208587, "lon": 13.358052}, {"type": "node", "id": 12284617641, "lat": 38.1211711, "lon": 13.357877}, {"type": "node", "id": 12284617642, "lat": 38.1215151, "lon": 13.3577533}, {"type": "node", "id": 12284617643, "lat": 38.1217071, "lon": 13.3576704}, {"type": "node", "id": 12284617644, "lat": 38.1219184, "lon": 13.3575669}, {"type": "node", "id": 12284617645, "lat": 38.1224115, "lon": 13.3572501}, {"type": "node", "id": 12284617646, "lat": 38.1225417, "lon": 13.3571693}, {"type": "node", "id": 12284617647, "lat": 38.1227821, "lon": 13.3570121}, {"type": "node", "id": 12284617648, "lat": 38.1242747, "lon": 13.3560321}, {"type": "node", "id": 12284617649, "lat": 38.1254856, "lon": 13.3552275}, {"type": "node", "id": 12284617650, "lat": 38.1277771, "lon": 13.3537273}, {"type": "node", "id": 12284617653, "lat": 38.129728, "lon": 13.3523176}, {"type": "node", "id": 12284617654, "lat": 38.1297858, "lon": 13.3522791}, {"type": "node", "id": 12284617655, "lat": 38.1299567, "lon": 13.3521343}, {"type": "node", "id": 12284617656, "lat": 38.1301166, "lon": 13.351952}, {"type": "node", "id": 12284617657, "lat": 38.1302903, "lon": 13.3516531}, {"type": "node", "id": 12284617659, "lat": 38.1305891, "lon": 13.3506689}, {"type": "node", "id": 12284617660, "lat": 38.1306309, "lon": 13.349938}, {"type": "node", "id": 12284617662, "lat": 38.1306154, "lon": 13.3504022}, {"type": "node", "id": 12284617663, "lat": 38.1307841, "lon": 13.3441698}, {"type": "node", "id": 12284617664, "lat": 38.1308835, "lon": 13.3436977}, {"type": "node", "id": 12284617665, "lat": 38.1310291, "lon": 13.3432678}, {"type": "node", "id": 12284617666, "lat": 38.1311978, "lon": 13.3429785}, {"type": "node", "id": 12284617667, "lat": 38.131327, "lon": 13.3428276}, {"type": "node", "id": 12284617668, "lat": 38.1314964, "lon": 13.3427047}, {"type": "node", "id": 12284617669, "lat": 38.1317637, "lon": 13.342566}, {"type": "node", "id": 12284617670, "lat": 38.1308271, "lon": 13.3439453}, {"type": "node", "id": 12284617671, "lat": 38.1307086, "lon": 13.3453628}, {"type": "node", "id": 12284617673, "lat": 38.1326731, "lon": 13.3421839}, {"type": "node", "id": 12284617674, "lat": 38.1346127, "lon": 13.3416021}, {"type": "node", "id": 12284617676, "lat": 38.1362067, "lon": 13.3408436}, {"type": "node", "id": 12284617677, "lat": 38.1366119, "lon": 13.3406674}, {"type": "node", "id": 12284617678, "lat": 38.1370284, "lon": 13.340426, "tags": {"railway": "buffer_stop"}}, {"type": "node", "id": 12284617679, "lat": 38.1301722, "lon": 13.3518726}, {"type": "node", "id": 12284617680, "lat": 38.0977001, "lon": 13.3730266}, {"type": "node", "id": 12284703144, "lat": 38.1199742, "lon": 13.3588547}, {"type": "node", "id": 12284703145, "lat": 38.1186601, "lon": 13.3623805}, {"type": "node", "id": 12284703146, "lat": 38.1051932, "lon": 13.3672425}, {"type": "node", "id": 12284703147, "lat": 38.1023271, "lon": 13.3689177}, {"type": "node", "id": 12284703148, "lat": 38.103029, "lon": 13.368515}, {"type": "node", "id": 12284703149, "lat": 38.1032735, "lon": 13.3684563}, {"type": "node", "id": 12284703150, "lat": 38.0973978, "lon": 13.3733307}, {"type": "node", "id": 12284703151, "lat": 38.0913992, "lon": 13.377242}, {"type": "node", "id": 12284703152, "lat": 38.0911111, "lon": 13.3774249}, {"type": "node", "id": 12284703153, "lat": 38.0893045, "lon": 13.3780699}, {"type": "node", "id": 12284703154, "lat": 38.0878544, "lon": 13.378852}, {"type": "node", "id": 12284703155, "lat": 38.0877216, "lon": 13.3790173}, {"type": "node", "id": 12284703156, "lat": 38.0876362, "lon": 13.3794297}, {"type": "node", "id": 12284703157, "lat": 38.0881245, "lon": 13.3786903}, {"type": "node", "id": 12284703158, "lat": 38.0896975, "lon": 13.3779927}, {"type": "node", "id": 12284703159, "lat": 38.0979221, "lon": 13.3727998}, {"type": "node", "id": 12284703160, "lat": 38.1093, "lon": 13.3666229}, {"type": "node", "id": 12284703161, "lat": 38.1110753, "lon": 13.36651}, {"type": "node", "id": 12284703162, "lat": 38.1200306, "lon": 13.3587464}, {"type": "node", "id": 12284703163, "lat": 38.1200942, "lon": 13.3586432}, {"type": "node", "id": 12284703164, "lat": 38.1201401, "lon": 13.3585771}, {"type": "node", "id": 12284703165, "lat": 38.1201923, "lon": 13.3585126}, {"type": "node", "id": 12284703166, "lat": 38.1203059, "lon": 13.3584052}, {"type": "node", "id": 12284703167, "lat": 38.1213765, "lon": 13.3578046}, {"type": "node", "id": 12284703168, "lat": 38.1222631, "lon": 13.3573462}, {"type": "node", "id": 12289836294, "lat": 38.0906468, "lon": 13.3777007}, {"type": "node", "id": 12289836295, "lat": 38.0905464, "lon": 13.3777577}, {"type": "node", "id": 12289836296, "lat": 38.0904694, "lon": 13.3777977}, {"type": "node", "id": 12289836297, "lat": 38.090381, "lon": 13.3778449}, {"type": "node", "id": 12289836298, "lat": 38.0901016, "lon": 13.3779235}, {"type": "node", "id": 12289836299, "lat": 38.089183, "lon": 13.3781136}, {"type": "node", "id": 12289836300, "lat": 38.0890395, "lon": 13.3781824}, {"type": "node", "id": 12289857501, "lat": 38.0876745, "lon": 13.379139}, {"type": "node", "id": 12289857502, "lat": 38.0903081, "lon": 13.3778734}, {"type": "node", "id": 12289857503, "lat": 38.0876965, "lon": 13.3808819}, {"type": "node", "id": 12289857504, "lat": 38.0876038, "lon": 13.3794347}, {"type": "node", "id": 12289857505, "lat": 38.0876073, "lon": 13.3792919}, {"type": "node", "id": 12289857506, "lat": 38.0876258, "lon": 13.37918}, {"type": "node", "id": 12289857507, "lat": 38.0876582, "lon": 13.3790917}, {"type": "node", "id": 12289857508, "lat": 38.0876965, "lon": 13.378999}, {"type": "node", "id": 12289857509, "lat": 38.0877498, "lon": 13.3789062}, {"type": "node", "id": 12289857510, "lat": 38.0878205, "lon": 13.3788297}, {"type": "node", "id": 12289857511, "lat": 38.0879097, "lon": 13.3787664}, {"type": "node", "id": 12289857512, "lat": 38.0880441, "lon": 13.3786869}, {"type": "node", "id": 12289857513, "lat": 38.0884205, "lon": 13.3784789}, {"type": "node", "id": 12289857514, "lat": 38.089015, "lon": 13.3781472}, {"type": "node", "id": 12289857515, "lat": 38.0891565, "lon": 13.3780787}, {"type": "node", "id": 12289857516, "lat": 38.0893081, "lon": 13.3780231}, {"type": "node", "id": 12289857517, "lat": 38.0894394, "lon": 13.3779932}, {"type": "node", "id": 12289857518, "lat": 38.0895725, "lon": 13.3779681}, {"type": "node", "id": 12289857519, "lat": 38.0898401, "lon": 13.3779255}, {"type": "node", "id": 12289857520, "lat": 38.0900208, "lon": 13.3778919}, {"type": "node", "id": 12289857521, "lat": 38.0901971, "lon": 13.3778583}, {"type": "node", "id": 12289857522, "lat": 38.0903425, "lon": 13.3778079}, {"type": "node", "id": 12289857523, "lat": 38.0904769, "lon": 13.3777464}, {"type": "node", "id": 12289857524, "lat": 38.0906224, "lon": 13.3776652}, {"type": "node", "id": 12289857525, "lat": 38.0908471, "lon": 13.3775308}, {"type": "node", "id": 12289857526, "lat": 38.0912438, "lon": 13.3772928}, {"type": "node", "id": 12289857527, "lat": 38.0914134, "lon": 13.3771836}, {"type": "node", "id": 12289857528, "lat": 38.0915656, "lon": 13.377085}, {"type": "node", "id": 12289857529, "lat": 38.0918579, "lon": 13.3768963}, {"type": "node", "id": 12289857530, "lat": 38.0920551, "lon": 13.3767762}, {"type": "node", "id": 12289857531, "lat": 38.092097, "lon": 13.3767449}, {"type": "node", "id": 12289857532, "lat": 38.0921421, "lon": 13.3767029}, {"type": "node", "id": 12289857533, "lat": 38.0921753, "lon": 13.3766701}, {"type": "node", "id": 12289857534, "lat": 38.0922093, "lon": 13.3766391}, {"type": "node", "id": 12289857535, "lat": 38.0922966, "lon": 13.376572}, {"type": "node", "id": 12289857536, "lat": 38.0924605, "lon": 13.3764656}, {"type": "node", "id": 12289857537, "lat": 38.0922503, "lon": 13.3766046}, {"type": "node", "id": 12289857538, "lat": 38.0935023, "lon": 13.375792}, {"type": "node", "id": 12289857539, "lat": 38.0945779, "lon": 13.3750768}, {"type": "node", "id": 12289857540, "lat": 38.0954106, "lon": 13.3745478}, {"type": "node", "id": 12289857541, "lat": 38.0967143, "lon": 13.3736932}, {"type": "node", "id": 12289857542, "lat": 38.096893, "lon": 13.3735502}, {"type": "node", "id": 12289857543, "lat": 38.0969893, "lon": 13.3734521}, {"type": "node", "id": 12289857544, "lat": 38.0971236, "lon": 13.3733048}, {"type": "node", "id": 12289857545, "lat": 38.098948, "lon": 13.3713559}, {"type": "node", "id": 12289857546, "lat": 38.0967988, "lon": 13.3736321}, {"type": "node", "id": 12289857547, "lat": 38.1000164, "lon": 13.3702545}, {"type": "node", "id": 12289857548, "lat": 38.1007477, "lon": 13.3699056}, {"type": "node", "id": 12289857549, "lat": 38.1034667, "lon": 13.3683482}, {"type": "node", "id": 12289857550, "lat": 38.1030748, "lon": 13.368505}, {"type": "node", "id": 12289857551, "lat": 38.1033654, "lon": 13.3684088}, {"type": "node", "id": 12289857552, "lat": 38.1004524, "lon": 13.3698154}, {"type": "node", "id": 12289857553, "lat": 38.1006181, "lon": 13.3696637}, {"type": "node", "id": 12289857554, "lat": 38.100796, "lon": 13.369512}, {"type": "node", "id": 12289857555, "lat": 38.10103, "lon": 13.3693447}, {"type": "node", "id": 12289857556, "lat": 38.1012931, "lon": 13.3691682}, {"type": "node", "id": 12289857557, "lat": 38.1015831, "lon": 13.3689917}, {"type": "node", "id": 12289857558, "lat": 38.1018439, "lon": 13.3688493}, {"type": "node", "id": 12289857559, "lat": 38.1022313, "lon": 13.3686418}, {"type": "node", "id": 12289857560, "lat": 38.1028012, "lon": 13.3683618}, {"type": "node", "id": 12289857561, "lat": 38.103319, "lon": 13.3680805}, {"type": "node", "id": 12289857562, "lat": 38.1035398, "lon": 13.3679368}, {"type": "node", "id": 12289857563, "lat": 38.1036773, "lon": 13.3678444}, {"type": "node", "id": 12289857564, "lat": 38.1046392, "lon": 13.3672054}, {"type": "node", "id": 12289857565, "lat": 38.1048642, "lon": 13.3670625}, {"type": "node", "id": 12289857566, "lat": 38.1050463, "lon": 13.3669727}, {"type": "node", "id": 12289857567, "lat": 38.1055149, "lon": 13.3668738}, {"type": "node", "id": 12289857568, "lat": 38.1059601, "lon": 13.3668123}, {"type": "node", "id": 12289857569, "lat": 38.1062464, "lon": 13.3667714}, {"type": "node", "id": 12289857570, "lat": 38.1067404, "lon": 13.366698}, {"type": "node", "id": 12289857571, "lat": 38.1052594, "lon": 13.3669235}, {"type": "node", "id": 12289857572, "lat": 38.1049756, "lon": 13.3670007}, {"type": "node", "id": 12289857573, "lat": 38.1029812, "lon": 13.3685305}, {"type": "node", "id": 12289857574, "lat": 38.1031552, "lon": 13.3684934}, {"type": "node", "id": 12289857575, "lat": 38.1029278, "lon": 13.3685533}, {"type": "node", "id": 12289857577, "lat": 38.1031839, "lon": 13.3684885}, {"type": "node", "id": 12289857578, "lat": 38.1033133, "lon": 13.3684382}, {"type": "node", "id": 12289857579, "lat": 38.1030113, "lon": 13.3682589}, {"type": "node", "id": 12289857580, "lat": 38.100473, "lon": 13.3701435}, {"type": "node", "id": 12289857581, "lat": 38.1006763, "lon": 13.3699555}, {"type": "node", "id": 12289857582, "lat": 38.1049265, "lon": 13.3673909}, {"type": "node", "id": 12289857583, "lat": 38.1067541, "lon": 13.3669746}, {"type": "node", "id": 12289857584, "lat": 38.1050293, "lon": 13.3673238}, {"type": "node", "id": 12289857585, "lat": 38.1052815, "lon": 13.3672141}, {"type": "node", "id": 12289857586, "lat": 38.1072659, "lon": 13.3666252}, {"type": "node", "id": 12289857587, "lat": 38.1086607, "lon": 13.3664389}, {"type": "node", "id": 12289857588, "lat": 38.10909, "lon": 13.3663771}, {"type": "node", "id": 12289857589, "lat": 38.1094387, "lon": 13.3663648}, {"type": "node", "id": 12289857590, "lat": 38.1096574, "lon": 13.366367}, {"type": "node", "id": 12289857591, "lat": 38.109809, "lon": 13.3663832}, {"type": "node", "id": 12289857592, "lat": 38.1099586, "lon": 13.366404}, {"type": "node", "id": 12289857593, "lat": 38.1100812, "lon": 13.366415}, {"type": "node", "id": 12289857594, "lat": 38.1103287, "lon": 13.3664278}, {"type": "node", "id": 12289857595, "lat": 38.1105646, "lon": 13.3664307}, {"type": "node", "id": 12289857596, "lat": 38.1107703, "lon": 13.3664307}, {"type": "node", "id": 12289857597, "lat": 38.1109091, "lon": 13.3664215}, {"type": "node", "id": 12289857598, "lat": 38.1110226, "lon": 13.3664032}, {"type": "node", "id": 12289857599, "lat": 38.1111578, "lon": 13.3663643}, {"type": "node", "id": 12289857600, "lat": 38.1117914, "lon": 13.3661766}, {"type": "node", "id": 12289857601, "lat": 38.1127558, "lon": 13.3658655}, {"type": "node", "id": 12289857602, "lat": 38.1031576, "lon": 13.3681791}, {"type": "node", "id": 12289857604, "lat": 38.1049043, "lon": 13.3670384}, {"type": "node", "id": 12289857605, "lat": 38.1099327, "lon": 13.3665321}, {"type": "node", "id": 12289857606, "lat": 38.1102149, "lon": 13.3665147}, {"type": "node", "id": 12289857607, "lat": 38.1121555, "lon": 13.3664619}, {"type": "node", "id": 12289857608, "lat": 38.1119496, "lon": 13.3665071}, {"type": "node", "id": 12289857609, "lat": 38.112036, "lon": 13.366494}, {"type": "node", "id": 12289857610, "lat": 38.1133146, "lon": 13.3656867}, {"type": "node", "id": 12289857611, "lat": 38.1120964, "lon": 13.3664795}, {"type": "node", "id": 12289857612, "lat": 38.1154261, "lon": 13.365118}, {"type": "node", "id": 12289857613, "lat": 38.1157248, "lon": 13.3650354}, {"type": "node", "id": 12289857614, "lat": 38.1158612, "lon": 13.3649777}, {"type": "node", "id": 12289857615, "lat": 38.1159525, "lon": 13.3649274}, {"type": "node", "id": 12289857616, "lat": 38.1161107, "lon": 13.3648326}, {"type": "node", "id": 12289857617, "lat": 38.1165079, "lon": 13.3645908}, {"type": "node", "id": 12289857618, "lat": 38.1168915, "lon": 13.3643399}, {"type": "node", "id": 12289857619, "lat": 38.1169742, "lon": 13.3642852}, {"type": "node", "id": 12289857620, "lat": 38.1170569, "lon": 13.3642292}, {"type": "node", "id": 12289857621, "lat": 38.117137, "lon": 13.3641728}, {"type": "node", "id": 12289857622, "lat": 38.1172731, "lon": 13.3640751}, {"type": "node", "id": 12289857623, "lat": 38.1173619, "lon": 13.3640067}, {"type": "node", "id": 12289857624, "lat": 38.1175621, "lon": 13.3638253}, {"type": "node", "id": 12289857625, "lat": 38.1176532, "lon": 13.363729}, {"type": "node", "id": 12289857626, "lat": 38.1177389, "lon": 13.3636168}, {"type": "node", "id": 12289857627, "lat": 38.1178051, "lon": 13.3635227}, {"type": "node", "id": 12289857628, "lat": 38.117444, "lon": 13.3639348}, {"type": "node", "id": 12289857629, "lat": 38.1183391, "lon": 13.3631779}, {"type": "node", "id": 12289857630, "lat": 38.1181444, "lon": 13.363496}, {"type": "node", "id": 12289857631, "lat": 38.1181203, "lon": 13.3629812}, {"type": "node", "id": 12289857632, "lat": 38.1183435, "lon": 13.3625106}, {"type": "node", "id": 12289857633, "lat": 38.1184791, "lon": 13.3621598}, {"type": "node", "id": 12289857634, "lat": 38.117984, "lon": 13.3632303}, {"type": "node", "id": 12289857635, "lat": 38.1184268, "lon": 13.3629896}, {"type": "node", "id": 12289857636, "lat": 38.118233, "lon": 13.3627548}, {"type": "node", "id": 12289857639, "lat": 38.119543, "lon": 13.3592551}, {"type": "node", "id": 12289857640, "lat": 38.1196567, "lon": 13.3590008}, {"type": "node", "id": 12289857641, "lat": 38.1197311, "lon": 13.3588702}, {"type": "node", "id": 12289857642, "lat": 38.1198252, "lon": 13.3587452}, {"type": "node", "id": 12289857643, "lat": 38.1199038, "lon": 13.3586635}, {"type": "node", "id": 12289857644, "lat": 38.1199896, "lon": 13.3585804}, {"type": "node", "id": 12289857645, "lat": 38.1201318, "lon": 13.3584615}, {"type": "node", "id": 12289857646, "lat": 38.1202093, "lon": 13.3584058}, {"type": "node", "id": 12289857647, "lat": 38.1203158, "lon": 13.358338}, {"type": "node", "id": 12289857648, "lat": 38.1205625, "lon": 13.358175}, {"type": "node", "id": 12289857649, "lat": 38.1210547, "lon": 13.3578642}, {"type": "node", "id": 12289857650, "lat": 38.1212131, "lon": 13.3577747}, {"type": "node", "id": 12289857651, "lat": 38.1213342, "lon": 13.3577125}, {"type": "node", "id": 12289857652, "lat": 38.12152, "lon": 13.3576179}, {"type": "node", "id": 12289857653, "lat": 38.1212153, "lon": 13.3578616}, {"type": "node", "id": 12289857654, "lat": 38.1210658, "lon": 13.3579264}, {"type": "node", "id": 12289857655, "lat": 38.1211182, "lon": 13.3578983}, {"type": "node", "id": 12289857656, "lat": 38.11969, "lon": 13.3589394}, {"type": "node", "id": 12289857657, "lat": 38.1197796, "lon": 13.3588022}, {"type": "node", "id": 12289857658, "lat": 38.1218197, "lon": 13.3576172}, {"type": "node", "id": 12289857659, "lat": 38.1218682, "lon": 13.3574404}, {"type": "node", "id": 12289857660, "lat": 38.1224545, "lon": 13.3571031}, {"type": "node", "id": 12289857661, "lat": 38.1225235, "lon": 13.3570613}, {"type": "node", "id": 12289857662, "lat": 38.122804, "lon": 13.3568797}, {"type": "node", "id": 12289857664, "lat": 38.1249084, "lon": 13.355504}, {"type": "node", "id": 12289857665, "lat": 38.12524, "lon": 13.3552786}, {"type": "node", "id": 12289857666, "lat": 38.1253303, "lon": 13.3552025}, {"type": "node", "id": 12289857667, "lat": 38.1254085, "lon": 13.3551269}, {"type": "node", "id": 12289857668, "lat": 38.1255516, "lon": 13.3549776}, {"type": "node", "id": 12289857669, "lat": 38.1256618, "lon": 13.3548796}, {"type": "node", "id": 12289857670, "lat": 38.1258233, "lon": 13.3547677}, {"type": "node", "id": 12289857671, "lat": 38.1260276, "lon": 13.3546355}, {"type": "node", "id": 12289857672, "lat": 38.1277122, "lon": 13.3535665}, {"type": "node", "id": 12289857673, "lat": 38.128862, "lon": 13.3528243}, {"type": "node", "id": 12289857676, "lat": 38.1282439, "lon": 13.3532799}, {"type": "node", "id": 12289857677, "lat": 38.1282104, "lon": 13.3533036}, {"type": "node", "id": 12289857678, "lat": 38.1280921, "lon": 13.35341}, {"type": "node", "id": 12289857679, "lat": 38.1279507, "lon": 13.3535653}, {"type": "node", "id": 12289857680, "lat": 38.127868, "lon": 13.353652}, {"type": "node", "id": 12289857681, "lat": 38.1297629, "lon": 13.352241}, {"type": "node", "id": 12289857682, "lat": 38.1298239, "lon": 13.352196}, {"type": "node", "id": 12289857683, "lat": 38.1298895, "lon": 13.3521326}, {"type": "node", "id": 12289857684, "lat": 38.1299569, "lon": 13.352043}, {"type": "node", "id": 12289857685, "lat": 38.1304122, "lon": 13.3506451}, {"type": "node", "id": 12289857687, "lat": 38.13043, "lon": 13.3503462}, {"type": "node", "id": 12289857688, "lat": 38.1304245, "lon": 13.3504883}, {"type": "node", "id": 12289857691, "lat": 38.1303453, "lon": 13.3510475}, {"type": "node", "id": 12289857692, "lat": 38.1303103, "lon": 13.3511889}, {"type": "node", "id": 12289857693, "lat": 38.130274, "lon": 13.3513194}, {"type": "node", "id": 12289857694, "lat": 38.1302255, "lon": 13.35147}, {"type": "node", "id": 12289857696, "lat": 38.1300402, "lon": 13.3519057}, {"type": "node", "id": 12289857697, "lat": 38.1300764, "lon": 13.351833}, {"type": "node", "id": 12289857698, "lat": 38.1301692, "lon": 13.3516186}, {"type": "node", "id": 12289857699, "lat": 38.1298802, "lon": 13.3522064}, {"type": "node", "id": 12289857701, "lat": 38.1305229, "lon": 13.3510223}, {"type": "node", "id": 12289857703, "lat": 38.1297938, "lon": 13.3522194}, {"type": "node", "id": 12289857705, "lat": 38.1299989, "lon": 13.3520915}, {"type": "node", "id": 12289857706, "lat": 38.1298506, "lon": 13.352231}, {"type": "node", "id": 12289857708, "lat": 38.1298588, "lon": 13.3521646}, {"type": "node", "id": 12289857710, "lat": 38.1301206, "lon": 13.3517371}, {"type": "node", "id": 12289857711, "lat": 38.1306232, "lon": 13.3502505}, {"type": "node", "id": 12289857714, "lat": 38.1305183, "lon": 13.3450542}, {"type": "node", "id": 12289857715, "lat": 38.1305315, "lon": 13.3446844}, {"type": "node", "id": 12289857716, "lat": 38.130552, "lon": 13.3444703}, {"type": "node", "id": 12289857717, "lat": 38.1305869, "lon": 13.344234}, {"type": "node", "id": 12289857718, "lat": 38.1306331, "lon": 13.3440096}, {"type": "node", "id": 12289857719, "lat": 38.1307272, "lon": 13.3436267}, {"type": "node", "id": 12289857720, "lat": 38.1308498, "lon": 13.3432783}, {"type": "node", "id": 12289857721, "lat": 38.1309025, "lon": 13.3431708}, {"type": "node", "id": 12289857722, "lat": 38.1309598, "lon": 13.3430756}, {"type": "node", "id": 12289857723, "lat": 38.1310822, "lon": 13.3429211}, {"type": "node", "id": 12289857724, "lat": 38.1311864, "lon": 13.3428192}, {"type": "node", "id": 12289857725, "lat": 38.1313428, "lon": 13.3426946}, {"type": "node", "id": 12289857726, "lat": 38.1315226, "lon": 13.3425918}, {"type": "node", "id": 12289857727, "lat": 38.1317397, "lon": 13.3424873}, {"type": "node", "id": 12289857728, "lat": 38.1318516, "lon": 13.3424392}, {"type": "node", "id": 12289857729, "lat": 38.1322161, "lon": 13.3422893}, {"type": "node", "id": 12289857730, "lat": 38.1326817, "lon": 13.3421027}, {"type": "node", "id": 12289857731, "lat": 38.1331168, "lon": 13.3419377}, {"type": "node", "id": 12289857732, "lat": 38.1329948, "lon": 13.3420575}, {"type": "node", "id": 12289857733, "lat": 38.1331625, "lon": 13.3420069}, {"type": "node", "id": 12289857734, "lat": 38.1333454, "lon": 13.3419704}, {"type": "node", "id": 12289857735, "lat": 38.1335405, "lon": 13.3419529}, {"type": "node", "id": 12289857736, "lat": 38.1337594, "lon": 13.3419487}, {"type": "node", "id": 12289857737, "lat": 38.1340074, "lon": 13.3418998}, {"type": "node", "id": 12289857738, "lat": 38.1341631, "lon": 13.3418457}, {"type": "node", "id": 12289857739, "lat": 38.1343289, "lon": 13.3417689}, {"type": "node", "id": 12289857740, "lat": 38.1344614, "lon": 13.3416954}, {"type": "node", "id": 12289857741, "lat": 38.1348833, "lon": 13.341426}, {"type": "node", "id": 12289857742, "lat": 38.134725, "lon": 13.3415291}, {"type": "node", "id": 12289857743, "lat": 38.1350771, "lon": 13.3413131}, {"type": "node", "id": 12289857744, "lat": 38.1342682, "lon": 13.3417998}, {"type": "node", "id": 12289857745, "lat": 38.1338168, "lon": 13.3419426}, {"type": "node", "id": 12289857746, "lat": 38.1336422, "lon": 13.3419519}, {"type": "node", "id": 12289857747, "lat": 38.1334342, "lon": 13.3419597}, {"type": "node", "id": 12289857748, "lat": 38.1339258, "lon": 13.3419218}, {"type": "node", "id": 12289857749, "lat": 38.1340872, "lon": 13.3418744}, {"type": "node", "id": 12289857750, "lat": 38.1333611, "lon": 13.3418646}, {"type": "node", "id": 12289857751, "lat": 38.1336048, "lon": 13.3417877}, {"type": "node", "id": 12289857752, "lat": 38.1340077, "lon": 13.3416368}, {"type": "node", "id": 12289857753, "lat": 38.134839, "lon": 13.3413124}, {"type": "node", "id": 12289857754, "lat": 38.135815, "lon": 13.3409206}, {"type": "node", "id": 12289857755, "lat": 38.1361071, "lon": 13.3408087}, {"type": "node", "id": 12289857756, "lat": 38.1363984, "lon": 13.3406886}, {"type": "node", "id": 12289857757, "lat": 38.135232, "lon": 13.3412419}, {"type": "node", "id": 12289857758, "lat": 38.1363158, "lon": 13.3407988}, {"type": "node", "id": 12289857759, "lat": 38.136515, "lon": 13.340715}, {"type": "node", "id": 12289857760, "lat": 38.1366297, "lon": 13.3405778}, {"type": "node", "id": 12289857761, "lat": 38.1367419, "lon": 13.3405127}, {"type": "node", "id": 12289857762, "lat": 38.1370049, "lon": 13.3403579, "tags": {"railway": "buffer_stop"}}, {"type": "node", "id": 12289857763, "lat": 38.1364121, "lon": 13.3407599}, {"type": "node", "id": 12289985573, "lat": 38.130563, "lon": 13.3508429}, {"type": "node", "id": 12289985574, "lat": 38.1281271, "lon": 13.353374}, {"type": "node", "id": 12289985575, "lat": 38.1279112, "lon": 13.3536087}, {"type": "node", "id": 12289985576, "lat": 38.1278265, "lon": 13.353689}, {"type": "node", "id": 12289985577, "lat": 38.125482, "lon": 13.3550502}, {"type": "node", "id": 12290052736, "lat": 38.122387, "lon": 13.3571428}, {"type": "node", "id": 12290052737, "lat": 38.1218724, "lon": 13.3575922}, {"type": "node", "id": 12290052739, "lat": 38.121582, "lon": 13.3577255}, {"type": "node", "id": 12290052740, "lat": 38.120061, "lon": 13.3585173}, {"type": "node", "id": 12290052741, "lat": 38.1198365, "lon": 13.3591534}, {"type": "node", "id": 12290052742, "lat": 38.1197809, "lon": 13.3592886}, {"type": "node", "id": 12290052743, "lat": 38.1195969, "lon": 13.3591284}, {"type": "node", "id": 12290052744, "lat": 38.1194742, "lon": 13.3594248}, {"type": "node", "id": 12290052745, "lat": 38.1196254, "lon": 13.3590658}, {"type": "node", "id": 12290054501, "lat": 38.1307294, "lon": 13.3446234}, {"type": "node", "id": 12290054502, "lat": 38.1307144, "lon": 13.3448949}, {"type": "node", "id": 12290054503, "lat": 38.1307501, "lon": 13.3443895}, {"type": "node", "id": 12572467612, "lat": 38.1099989, "lon": 13.3650514}, {"type": "node", "id": 12572467618, "lat": 38.1100967, "lon": 13.3675917, "tags": {"railway": "switch"}}, {"type": "node", "id": 12572467619, "lat": 38.1101907, "lon": 13.3675533}, {"type": "node", "id": 12572467620, "lat": 38.1107533, "lon": 13.3671323}, {"type": "node", "id": 12572467621, "lat": 38.1107974, "lon": 13.3666631}, {"type": "node", "id": 12572467622, "lat": 38.1103616, "lon": 13.3658869}, {"type": "node", "id": 12572467623, "lat": 38.110037, "lon": 13.3651553}, {"type": "node", "id": 12572467624, "lat": 38.1099824, "lon": 13.3649515, "tags": {"railway": "switch"}}, {"type": "node", "id": 12572467625, "lat": 38.1098525, "lon": 13.3639993}, {"type": "node", "id": 12572467626, "lat": 38.1097403, "lon": 13.3633384}, {"type": "node", "id": 12572467627, "lat": 38.1094898, "lon": 13.3626275}, {"type": "node", "id": 12572467628, "lat": 38.1092261, "lon": 13.3618516}, {"type": "node", "id": 12572467629, "lat": 38.1085159, "lon": 13.3580239}, {"type": "node", "id": 12572467630, "lat": 38.1081994, "lon": 13.3567807}, {"type": "node", "id": 12572467631, "lat": 38.1076869, "lon": 13.3550062}, {"type": "node", "id": 12572467632, "lat": 38.1068404, "lon": 13.3533124}, {"type": "node", "id": 12572467633, "lat": 38.1066091, "lon": 13.3529836}, {"type": "node", "id": 12572467634, "lat": 38.1042544, "lon": 13.3503021}, {"type": "node", "id": 12572467635, "lat": 38.1020377, "lon": 13.3483318}, {"type": "node", "id": 12572467636, "lat": 38.098176, "lon": 13.3461657}, {"type": "node", "id": 12572467637, "lat": 38.0977606, "lon": 13.3459232}, {"type": "node", "id": 12572467638, "lat": 38.0972479, "lon": 13.3454146}, {"type": "node", "id": 12572467639, "lat": 38.0949652, "lon": 13.3411848}, {"type": "node", "id": 12572467640, "lat": 38.0974789, "lon": 13.3457011}, {"type": "node", "id": 12572467641, "lat": 38.097355, "lon": 13.3455632}, {"type": "node", "id": 12572467642, "lat": 38.0976134, "lon": 13.3458256}, {"type": "node", "id": 12572467643, "lat": 38.101657, "lon": 13.3480536}, {"type": "node", "id": 12572467644, "lat": 38.1018622, "lon": 13.3481914}, {"type": "node", "id": 12572467645, "lat": 38.1041317, "lon": 13.3501779}, {"type": "node", "id": 12572467646, "lat": 38.1067217, "lon": 13.353129}, {"type": "node", "id": 12572467647, "lat": 38.1069596, "lon": 13.3535272}, {"type": "node", "id": 12572467649, "lat": 38.1078213, "lon": 13.3553239}, {"type": "node", "id": 12572467650, "lat": 38.1078888, "lon": 13.3555283}, {"type": "node", "id": 12572467651, "lat": 38.107744, "lon": 13.3551275}, {"type": "node", "id": 12572467652, "lat": 38.108556, "lon": 13.3582249}, {"type": "node", "id": 12572467653, "lat": 38.1091734, "lon": 13.361608, "tags": {"railway": "switch"}}, {"type": "node", "id": 12572467654, "lat": 38.1098133, "lon": 13.3637068}, {"type": "node", "id": 12572467655, "lat": 38.1097894, "lon": 13.3635375}, {"type": "node", "id": 12572467657, "lat": 38.1108477, "lon": 13.3669422}, {"type": "node", "id": 12572467658, "lat": 38.1108479, "lon": 13.3668236}, {"type": "node", "id": 12572467659, "lat": 38.1108325, "lon": 13.3667419}, {"type": "node", "id": 12572467660, "lat": 38.1108505, "lon": 13.3669021}, {"type": "node", "id": 12572467661, "lat": 38.1108179, "lon": 13.3670487}, {"type": "node", "id": 12572467662, "lat": 38.1108294, "lon": 13.367019}, {"type": "node", "id": 12572467663, "lat": 38.1107818, "lon": 13.3671022}, {"type": "node", "id": 12572467664, "lat": 38.110144, "lon": 13.3675718}, {"type": "node", "id": 12572467681, "lat": 38.1089422, "lon": 13.3602898, "tags": {"railway": "switch"}}, {"type": "node", "id": 12572467691, "lat": 38.0950119, "lon": 13.3411452}, {"type": "node", "id": 12572467699, "lat": 38.1017658, "lon": 13.3481146}, {"type": "node", "id": 12572467704, "lat": 38.106785, "lon": 13.3532207}, {"type": "node", "id": 12572467707, "lat": 38.1078533, "lon": 13.3554108}, {"type": "node", "id": 12572472981, "lat": 38.110206, "lon": 13.3655362, "tags": {"name": "Giulio Cesare", "public_transport": "stop_position", "railway": "tram_stop", "tram": "yes"}}, {"type": "node", "id": 12572472983, "lat": 38.1104075, "lon": 13.3673941, "tags": {"name": "Balsamo", "public_transport": "stop_position", "railway": "tram_stop", "tram": "yes"}}, {"type": "node", "id": 12572472985, "lat": 38.1090602, "lon": 13.3609463, "tags": {"name": "Porta Sant'Agata", "public_transport": "stop_position", "railway": "tram_stop", "tram": "yes"}}, {"type": "node", "id": 12572472987, "lat": 38.1079523, "lon": 13.3557711, "tags": {"name": "Orleans", "public_transport": "stop_position", "railway": "tram_stop", "tram": "yes"}}, {"type": "node", "id": 12572472989, "lat": 38.1056534, "lon": 13.3518953, "tags": {"name": "Universit\u00e0 Segreterie Agraria", "public_transport": "stop_position", "railway": "tram_stop", "tram": "yes"}}, {"type": "node", "id": 12572472991, "lat": 38.103152, "lon": 13.3493142, "tags": {"name": "Universit\u00e0 Polo didattico Ingegneria", "public_transport": "stop_position", "railway": "tram_stop", "tram": "yes"}}, {"type": "node", "id": 12572472993, "lat": 38.100974, "lon": 13.347679, "tags": {"name": "Universit\u00e0 Architettura Lettere", "public_transport": "stop_position", "railway": "tram_stop", "tram": "yes"}}, {"type": "node", "id": 12572472995, "lat": 38.0985684, "lon": 13.3463779, "tags": {"name": "Basile", "public_transport": "stop_position", "railway": "tram_stop", "tram": "yes"}}, {"type": "node", "id": 12572472997, "lat": 38.0959395, "lon": 13.3429901, "tags": {"name": "Parco Cassar\u00e0", "public_transport": "stop_position", "railway": "tram_stop", "tram": "yes"}}, {"type": "node", "id": 12572481729, "lat": 38.0943718, "lon": 13.3400338}, {"type": "node", "id": 12572481730, "lat": 38.0944206, "lon": 13.3400007}, {"type": "node", "id": 12572481731, "lat": 38.0952437, "lon": 13.3374025}, {"type": "node", "id": 12572481732, "lat": 38.0946093, "lon": 13.338277}, {"type": "node", "id": 12572481733, "lat": 38.0950296, "lon": 13.3371825}, {"type": "node", "id": 12572481734, "lat": 38.0944167, "lon": 13.338057}, {"type": "node", "id": 12572481735, "lat": 38.0944701, "lon": 13.3387083}, {"type": "node", "id": 12572481736, "lat": 38.0943517, "lon": 13.3395921}, {"type": "node", "id": 12572481737, "lat": 38.0945182, "lon": 13.3384699}, {"type": "node", "id": 12572481738, "lat": 38.0944915, "lon": 13.33858}, {"type": "node", "id": 12572481739, "lat": 38.0945575, "lon": 13.3383667}, {"type": "node", "id": 12572481740, "lat": 38.0943588, "lon": 13.3398146}, {"type": "node", "id": 12572481741, "lat": 38.0943873, "lon": 13.339919}, {"type": "node", "id": 12572481742, "lat": 38.0943471, "lon": 13.3397034}, {"type": "node", "id": 12572481743, "lat": 38.0943617, "lon": 13.3381668}, {"type": "node", "id": 12572481744, "lat": 38.0943294, "lon": 13.3393423}, {"type": "node", "id": 12572481745, "lat": 38.0942919, "lon": 13.3396062}, {"type": "node", "id": 12572481746, "lat": 38.0942874, "lon": 13.3397175}, {"type": "node", "id": 12572481747, "lat": 38.0942991, "lon": 13.3398287}, {"type": "node", "id": 12572481748, "lat": 38.0943275, "lon": 13.3399331}, {"type": "node", "id": 12572481749, "lat": 38.0943505, "lon": 13.3390934}, {"type": "node", "id": 12572481750, "lat": 38.094345, "lon": 13.3391995}, {"type": "node", "id": 12572481751, "lat": 38.0943036, "lon": 13.3384496}, {"type": "node", "id": 12572481752, "lat": 38.0943217, "lon": 13.3383075}, {"type": "node", "id": 12572481753, "lat": 38.094302, "lon": 13.3385613}, {"type": "node", "id": 12572481754, "lat": 38.0943465, "lon": 13.3389884}, {"type": "node", "id": 13084646314, "lat": 38.1309328, "lon": 13.343522}, {"type": "node", "id": 13084646315, "lat": 38.1307914, "lon": 13.3434286}, {"type": "node", "id": 13084646316, "lat": 38.1306771, "lon": 13.3438068}, {"type": "node", "id": 13084646317, "lat": 38.131024, "lon": 13.3429871}, {"type": "node", "id": 13084646318, "lat": 38.1312727, "lon": 13.3427474}, {"type": "node", "id": 13084646319, "lat": 38.1315616, "lon": 13.3426672}, {"type": "node", "id": 13084646320, "lat": 38.1314254, "lon": 13.3427487}, {"type": "node", "id": 13084646321, "lat": 38.1312702, "lon": 13.3428884}, {"type": "node", "id": 13084646322, "lat": 38.1311361, "lon": 13.3430654}, {"type": "node", "id": 13084646323, "lat": 38.1310879, "lon": 13.3431445}, {"type": "node", "id": 13084646324, "lat": 38.130987, "lon": 13.3433676}, {"type": "node", "id": 13084646325, "lat": 38.1313722, "lon": 13.3427878}, {"type": "node", "id": 13084646326, "lat": 38.1316639, "lon": 13.342613}, {"type": "node", "id": 13084646327, "lat": 38.1316404, "lon": 13.3425317}, {"type": "node", "id": 13084646328, "lat": 38.1330848, "lon": 13.3420284}, {"type": "node", "id": 13084646329, "lat": 38.1332733, "lon": 13.3419827}, {"type": "node", "id": 13084646330, "lat": 38.1334797, "lon": 13.3419559}, {"type": "node", "id": 13084646331, "lat": 38.1337006, "lon": 13.3419514}, {"type": "node", "id": 13084646332, "lat": 38.1338703, "lon": 13.341934}, {"type": "node", "id": 13084646333, "lat": 38.1342091, "lon": 13.3418274}, {"type": "node", "id": 13084646334, "lat": 38.1345339, "lon": 13.3416515}, {"type": "node", "id": 13084646335, "lat": 38.1343918, "lon": 13.3417349}, {"type": "node", "id": 13084646336, "lat": 38.13495, "lon": 13.3413848}, {"type": "node", "id": 13084646337, "lat": 38.1351469, "lon": 13.3412787}, {"type": "node", "id": 13084646338, "lat": 38.1350228, "lon": 13.3413431}, {"type": "node", "id": 13084646339, "lat": 38.1365162, "lon": 13.3406343}, {"type": "node", "id": 13084646340, "lat": 38.1362701, "lon": 13.3407423}, {"type": "node", "id": 13084646341, "lat": 38.1361436, "lon": 13.3408694}, {"type": "node", "id": 13084646342, "lat": 38.1366859, "lon": 13.3406262}, {"type": "node", "id": 13084646343, "lat": 38.1364581, "lon": 13.3406615}, {"type": "node", "id": 13084646344, "lat": 38.1364632, "lon": 13.3407389}, {"type": "node", "id": 13084646345, "lat": 38.1365596, "lon": 13.3406935}, {"type": "node", "id": 13084646346, "lat": 38.1365646, "lon": 13.3406113}, {"type": "node", "id": 13084646347, "lat": 38.1366892, "lon": 13.3405435}, {"type": "node", "id": 13084646348, "lat": 38.1328452, "lon": 13.3420394}, {"type": "node", "id": 13084646349, "lat": 38.1306577, "lon": 13.3482359}, {"type": "node", "id": 13084646350, "lat": 38.1304397, "lon": 13.349935}, {"type": "node", "id": 13084646351, "lat": 38.130479, "lon": 13.3511799}, {"type": "node", "id": 13084646352, "lat": 38.1306048, "lon": 13.3505466}, {"type": "node", "id": 13084646353, "lat": 38.1303746, "lon": 13.3509118}, {"type": "node", "id": 13084646354, "lat": 38.1303985, "lon": 13.3507551}, {"type": "node", "id": 13084646355, "lat": 38.1300645, "lon": 13.3520193}, {"type": "node", "id": 13084646356, "lat": 38.1302234, "lon": 13.3517845}, {"type": "node", "id": 13084646357, "lat": 38.1299205, "lon": 13.3520947}, {"type": "node", "id": 13084646358, "lat": 38.1300079, "lon": 13.351964}, {"type": "node", "id": 13084646359, "lat": 38.1304242, "lon": 13.3513404}, {"type": "node", "id": 13084646360, "lat": 38.1303589, "lon": 13.3515011}, {"type": "node", "id": 13084646361, "lat": 38.1299206, "lon": 13.3521695}, {"type": "node", "id": 13084646362, "lat": 38.1298122, "lon": 13.3522601}, {"type": "node", "id": 13084646363, "lat": 38.1281663, "lon": 13.3533389}, {"type": "node", "id": 13084646364, "lat": 38.1277291, "lon": 13.3537587}, {"type": "node", "id": 13084646365, "lat": 38.1251757, "lon": 13.3553256}, {"type": "node", "id": 13084646366, "lat": 38.1224716, "lon": 13.3572136}, {"type": "node", "id": 13084646367, "lat": 38.1218304, "lon": 13.3574609}, {"type": "node", "id": 13084646368, "lat": 38.1217797, "lon": 13.3574867}, {"type": "node", "id": 13084646369, "lat": 38.1211342, "lon": 13.3578183}, {"type": "node", "id": 13084646370, "lat": 38.1214641, "lon": 13.3577726}, {"type": "node", "id": 13084646371, "lat": 38.1195374, "lon": 13.3599137}, {"type": "node", "id": 13084646372, "lat": 38.1178909, "lon": 13.3633878}, {"type": "node", "id": 13084646373, "lat": 38.1179727, "lon": 13.3637058}, {"type": "node", "id": 13165358979, "lat": 38.1102357, "lon": 13.3675244}, {"type": "node", "id": 13165358980, "lat": 38.1102129, "lon": 13.3675404}, {"type": "node", "id": 13165358981, "lat": 38.1101679, "lon": 13.3675634}, {"type": "node", "id": 13165358982, "lat": 38.110126, "lon": 13.3675783}, {"type": "node", "id": 13165359000, "lat": 38.1108404, "lon": 13.3669824}, {"type": "node", "id": 13165360601, "lat": 38.1108171, "lon": 13.3667025}, {"type": "node", "id": 13165360603, "lat": 38.1108417, "lon": 13.366781}, {"type": "node", "id": 13165360608, "lat": 38.1108503, "lon": 13.3668547}, {"type": "node", "id": 13165360609, "lat": 38.1108013, "lon": 13.3670757}, {"type": "node", "id": 13165360611, "lat": 38.1104006, "lon": 13.3659646}, {"type": "node", "id": 13165360614, "lat": 38.1104379, "lon": 13.3660311}, {"type": "node", "id": 13165360615, "lat": 38.1100217, "lon": 13.3651155}, {"type": "node", "id": 13165360617, "lat": 38.1100474, "lon": 13.3651802}, {"type": "node", "id": 13165360620, "lat": 38.1097093, "lon": 13.3632436}, {"type": "node", "id": 13165360621, "lat": 38.109764, "lon": 13.3634157}, {"type": "node", "id": 13165360623, "lat": 38.1092448, "lon": 13.3619105}, {"type": "node", "id": 13165360624, "lat": 38.1092002, "lon": 13.3617499}, {"type": "node", "id": 13165360626, "lat": 38.1092139, "lon": 13.3618078}, {"type": "node", "id": 13165360636, "lat": 38.1088037, "lon": 13.3594998}, {"type": "node", "id": 13165360637, "lat": 38.1087561, "lon": 13.3592421}, {"type": "node", "id": 13165360640, "lat": 38.1079224, "lon": 13.3556562}, {"type": "node", "id": 13165360642, "lat": 38.1077889, "lon": 13.3552377}, {"type": "node", "id": 13167191217, "lat": 38.0924769, "lon": 13.3609403}, {"type": "node", "id": 13167191236, "lat": 38.0925105, "lon": 13.3610127}, {"type": "node", "id": 13167191242, "lat": 38.0953868, "lon": 13.359111}, {"type": "node", "id": 13167191243, "lat": 38.0954117, "lon": 13.3591687}, {"type": "node", "id": 13167191244, "lat": 38.0930351, "lon": 13.3606792, "tags": {"name": "Villagrazia", "public_transport": "stop_position", "railway": "tram_stop", "tram": "yes"}}, {"type": "node", "id": 13167191245, "lat": 38.0930064, "lon": 13.3606074, "tags": {"name": "Villagrazia", "public_transport": "stop_position", "railway": "tram_stop", "tram": "yes"}}, {"type": "node", "id": 13167191246, "lat": 38.0900174, "lon": 13.3625273}, {"type": "node", "id": 13167191247, "lat": 38.0900513, "lon": 13.3625884}, {"type": "node", "id": 13167191248, "lat": 38.0908686, "lon": 13.3619781, "tags": {"name": "Borgo Uliva", "public_transport": "stop_position", "railway": "tram_stop", "tram": "yes"}}, {"type": "node", "id": 13167191249, "lat": 38.0903955, "lon": 13.3623679, "tags": {"name": "Borgo Uliva", "public_transport": "stop_position", "railway": "tram_stop", "tram": "yes"}}, {"type": "node", "id": 13167191264, "lat": 38.0899806, "lon": 13.3625587}, {"type": "node", "id": 13167191265, "lat": 38.0899472, "lon": 13.3626026}, {"type": "node", "id": 13167191266, "lat": 38.0899193, "lon": 13.3626603}, {"type": "node", "id": 13167191267, "lat": 38.0899021, "lon": 13.362722}, {"type": "node", "id": 13167191268, "lat": 38.0898944, "lon": 13.362811}, {"type": "node", "id": 13167191269, "lat": 38.0898976, "lon": 13.3628711}, {"type": "node", "id": 13167191270, "lat": 38.0899105, "lon": 13.363004}, {"type": "node", "id": 13167191271, "lat": 38.0901129, "lon": 13.3654124}, {"type": "node", "id": 13167191272, "lat": 38.0901144, "lon": 13.3654523}, {"type": "node", "id": 13167191273, "lat": 38.0901106, "lon": 13.3654941}, {"type": "node", "id": 13167191274, "lat": 38.0900994, "lon": 13.3655292}, {"type": "node", "id": 13167191275, "lat": 38.0900837, "lon": 13.3655511}, {"type": "node", "id": 13167191276, "lat": 38.0900665, "lon": 13.3655606}, {"type": "node", "id": 13167191277, "lat": 38.0900433, "lon": 13.3655663}, {"type": "node", "id": 13167191278, "lat": 38.0899073, "lon": 13.3655834}, {"type": "node", "id": 13167191279, "lat": 38.0885409, "lon": 13.3657835}, {"type": "node", "id": 13167191280, "lat": 38.0881831, "lon": 13.3658326}, {"type": "node", "id": 13167191281, "lat": 38.0874191, "lon": 13.3659348}, {"type": "node", "id": 13167191282, "lat": 38.090018, "lon": 13.3626135}, {"type": "node", "id": 13167191283, "lat": 38.0899908, "lon": 13.3626469}, {"type": "node", "id": 13167191284, "lat": 38.0899697, "lon": 13.362691}, {"type": "node", "id": 13167191285, "lat": 38.0899541, "lon": 13.3627455}, {"type": "node", "id": 13167191286, "lat": 38.0899465, "lon": 13.3628087}, {"type": "node", "id": 13167191287, "lat": 38.0899473, "lon": 13.3628597}, {"type": "node", "id": 13167191288, "lat": 38.090151, "lon": 13.3653722}, {"type": "node", "id": 13167191289, "lat": 38.0901562, "lon": 13.3654386}, {"type": "node", "id": 13167191290, "lat": 38.0901563, "lon": 13.36548}, {"type": "node", "id": 13167191291, "lat": 38.0901522, "lon": 13.3655129}, {"type": "node", "id": 13167191292, "lat": 38.0901429, "lon": 13.3655443}, {"type": "node", "id": 13167191293, "lat": 38.0901289, "lon": 13.3655704}, {"type": "node", "id": 13167191294, "lat": 38.0901083, "lon": 13.3655925}, {"type": "node", "id": 13167191295, "lat": 38.0900844, "lon": 13.3656039}, {"type": "node", "id": 13167191296, "lat": 38.0900552, "lon": 13.3656103}, {"type": "node", "id": 13167191297, "lat": 38.0898827, "lon": 13.3656326}, {"type": "node", "id": 13167191298, "lat": 38.0885467, "lon": 13.3658304}, {"type": "node", "id": 13167191299, "lat": 38.0881923, "lon": 13.3658806}, {"type": "node", "id": 13167191300, "lat": 38.0874206, "lon": 13.3659835}, {"type": "node", "id": 13167191301, "lat": 38.0867653, "lon": 13.3660744}, {"type": "node", "id": 13167191302, "lat": 38.0861388, "lon": 13.3661715}, {"type": "node", "id": 13167191303, "lat": 38.0858089, "lon": 13.3662166}, {"type": "node", "id": 13167191304, "lat": 38.0855943, "lon": 13.366212}, {"type": "node", "id": 13167191305, "lat": 38.0854578, "lon": 13.3661918}, {"type": "node", "id": 13167191306, "lat": 38.0852804, "lon": 13.3661332}, {"type": "node", "id": 13167191307, "lat": 38.0851101, "lon": 13.3660453}, {"type": "node", "id": 13167191308, "lat": 38.0848973, "lon": 13.3659191}, {"type": "node", "id": 13167191309, "lat": 38.0823466, "lon": 13.3644638}, {"type": "node", "id": 13167191310, "lat": 38.0861354, "lon": 13.3661156}, {"type": "node", "id": 13167191311, "lat": 38.0858026, "lon": 13.3661569}, {"type": "node", "id": 13167191312, "lat": 38.0855997, "lon": 13.3661535}, {"type": "node", "id": 13167191313, "lat": 38.0854737, "lon": 13.3661377}, {"type": "node", "id": 13167191314, "lat": 38.0852875, "lon": 13.3660723}, {"type": "node", "id": 13167191315, "lat": 38.0851208, "lon": 13.3659867}, {"type": "node", "id": 13167191316, "lat": 38.085009, "lon": 13.3659169}, {"type": "node", "id": 13167191317, "lat": 38.0849753, "lon": 13.3658808}, {"type": "node", "id": 13167191318, "lat": 38.0849576, "lon": 13.365829}, {"type": "node", "id": 13167191319, "lat": 38.0849505, "lon": 13.3657816}, {"type": "node", "id": 13167191320, "lat": 38.0849523, "lon": 13.3657276}, {"type": "node", "id": 13167191321, "lat": 38.0851935, "lon": 13.3641231}, {"type": "node", "id": 13167191322, "lat": 38.0851229, "lon": 13.3645927, "tags": {"name": "Bassotto", "public_transport": "stop_position", "railway": "tram_stop", "tram": "yes"}}, {"type": "node", "id": 13167191323, "lat": 38.0852606, "lon": 13.3636629}, {"type": "node", "id": 13167191324, "lat": 38.0852657, "lon": 13.3635309}, {"type": "node", "id": 13167191325, "lat": 38.0852453, "lon": 13.3634075}, {"type": "node", "id": 13167191326, "lat": 38.0852163, "lon": 13.363282}, {"type": "node", "id": 13167191327, "lat": 38.0849029, "lon": 13.3620419}, {"type": "node", "id": 13167191328, "lat": 38.0848995, "lon": 13.3620138}, {"type": "node", "id": 13167191329, "lat": 38.0849008, "lon": 13.3619778}, {"type": "node", "id": 13167191330, "lat": 38.0849107, "lon": 13.3619452}, {"type": "node", "id": 13167191331, "lat": 38.0849291, "lon": 13.3619193}, {"type": "node", "id": 13167191332, "lat": 38.0849528, "lon": 13.3619025}, {"type": "node", "id": 13167191333, "lat": 38.0850088, "lon": 13.3618875}, {"type": "node", "id": 13167191334, "lat": 38.0864521, "lon": 13.3615164}, {"type": "node", "id": 13167191335, "lat": 38.0864804, "lon": 13.3615015}, {"type": "node", "id": 13167191336, "lat": 38.0864891, "lon": 13.361491}, {"type": "node", "id": 13167191337, "lat": 38.0864994, "lon": 13.361472}, {"type": "node", "id": 13167191338, "lat": 38.086507, "lon": 13.3614168}, {"type": "node", "id": 13167191339, "lat": 38.086486, "lon": 13.3612894}, {"type": "node", "id": 13167191340, "lat": 38.0865066, "lon": 13.3614362}, {"type": "node", "id": 13167191341, "lat": 38.086504, "lon": 13.3614552}, {"type": "node", "id": 13167191342, "lat": 38.086466, "lon": 13.3615119}, {"type": "node", "id": 13167191343, "lat": 38.0865035, "lon": 13.3613892}, {"type": "node", "id": 13167191344, "lat": 38.0860689, "lon": 13.3616149, "tags": {"name": "Papa Giovanni XXIII", "public_transport": "stop_position", "railway": "tram_stop", "tram": "yes"}}, {"type": "node", "id": 13167191345, "lat": 38.0863749, "lon": 13.3606664}, {"type": "node", "id": 13167191346, "lat": 38.0863557, "lon": 13.3605857}, {"type": "node", "id": 13167191347, "lat": 38.0862597, "lon": 13.3603005}, {"type": "node", "id": 13167191348, "lat": 38.0856955, "lon": 13.3587748}, {"type": "node", "id": 13167191349, "lat": 38.084985, "lon": 13.356825}, {"type": "node", "id": 13167191350, "lat": 38.0848878, "lon": 13.3565201}, {"type": "node", "id": 13167191351, "lat": 38.0847882, "lon": 13.3562084}, {"type": "node", "id": 13167191352, "lat": 38.0847376, "lon": 13.3560494}, {"type": "node", "id": 13167191353, "lat": 38.0847223, "lon": 13.3560056}, {"type": "node", "id": 13167191354, "lat": 38.0847031, "lon": 13.3559678}, {"type": "node", "id": 13167191355, "lat": 38.0846728, "lon": 13.3559329}, {"type": "node", "id": 13167191356, "lat": 38.0846308, "lon": 13.3559108}, {"type": "node", "id": 13167191357, "lat": 38.0845845, "lon": 13.355898}, {"type": "node", "id": 13167191358, "lat": 38.0845354, "lon": 13.3559035}, {"type": "node", "id": 13167191359, "lat": 38.0844905, "lon": 13.3559219}, {"type": "node", "id": 13167191360, "lat": 38.085516, "lon": 13.3582822, "tags": {"name": "Ermellino", "public_transport": "stop_position", "railway": "tram_stop", "tram": "yes"}}, {"type": "node", "id": 13167191361, "lat": 38.0840491, "lon": 13.3561545, "tags": {"name": "Antilope", "public_transport": "stop_position", "railway": "tram_stop", "tram": "yes"}}, {"type": "node", "id": 13167191362, "lat": 38.0801334, "lon": 13.3580898}, {"type": "node", "id": 13167191363, "lat": 38.0800617, "lon": 13.3581271}, {"type": "node", "id": 13167191364, "lat": 38.0799951, "lon": 13.3581692}, {"type": "node", "id": 13167191365, "lat": 38.0799717, "lon": 13.3582033}, {"type": "node", "id": 13167191366, "lat": 38.0799492, "lon": 13.3582495}, {"type": "node", "id": 13167191367, "lat": 38.0799371, "lon": 13.3583033}, {"type": "node", "id": 13167191368, "lat": 38.0799328, "lon": 13.3583638}, {"type": "node", "id": 13167191369, "lat": 38.0799414, "lon": 13.3584265}, {"type": "node", "id": 13167191370, "lat": 38.0800131, "lon": 13.3586415}, {"type": "node", "id": 13167191375, "lat": 38.0821683, "lon": 13.3570841, "tags": {"name": "Bonagia", "public_transport": "stop_position", "railway": "tram_stop", "tram": "yes"}}, {"type": "node", "id": 13167191380, "lat": 38.080904, "lon": 13.3613158}, {"type": "node", "id": 13167191381, "lat": 38.0809993, "lon": 13.3615641}, {"type": "node", "id": 13167191382, "lat": 38.0811719, "lon": 13.3619875}, {"type": "node", "id": 13167191383, "lat": 38.0819701, "lon": 13.3639802}, {"type": "node", "id": 13167191384, "lat": 38.0820307, "lon": 13.3641163}, {"type": "node", "id": 13167191385, "lat": 38.0820808, "lon": 13.3642096}, {"type": "node", "id": 13167191386, "lat": 38.0821565, "lon": 13.3643102}, {"type": "node", "id": 13167191387, "lat": 38.0822206, "lon": 13.3643798}, {"type": "node", "id": 13167191388, "lat": 38.0823068, "lon": 13.3644404}, {"type": "node", "id": 13167191389, "lat": 38.0801594, "lon": 13.3590806, "tags": {"name": "Levriere", "public_transport": "stop_position", "railway": "tram_stop", "tram": "yes"}}, {"type": "node", "id": 13167191390, "lat": 38.0813499, "lon": 13.3624317, "tags": {"name": "Segugio", "public_transport": "stop_position", "railway": "tram_stop", "tram": "yes"}}, {"type": "node", "id": 13167191391, "lat": 38.0836298, "lon": 13.3651959, "tags": {"name": "Spinone", "public_transport": "stop_position", "railway": "tram_stop", "tram": "yes"}}, {"type": "way", "id": 1327768760, "nodes": [12284557586, 12284557587, 12284703156, 12284557588, 12289857501, 12284703155, 12284557589, 12284703154, 12284557590, 12284703157, 12284557591, 12289836300, 12289836299, 12284703153, 12284557592, 12284703158, 12284557593, 12289836298, 12284557594, 12289857502, 12289836297, 12289836296, 12289836295, 12289836294, 12284557595, 12284557596, 12284703152, 12284557597, 12284703151, 12284557598, 12284557599, 12284557600, 12284617601, 12284617602, 12284703150, 12284617603, 12284617680, 12284703159, 12284617604, 12289857580, 12284617605, 12289857581, 12289857548, 12284617606, 12284617607, 12284617608, 12284703147, 12284617609, 12284617610, 12289857575, 12289857573, 12284703148, 12289857550, 12289857574, 12289857577, 12284617611, 12284703149, 12289857578, 12289857551, 12289857549, 12284617612, 12284617613, 12289857582, 12289857584, 12284617614, 12284703146, 12289857585, 12284617615, 12284617616, 12289857583, 12284703160, 12284617617, 12284617618, 12289857605, 12284617619, 12289857606, 12284617620, 12284703161, 12284617621, 12284617622, 12289857608, 12289857609, 12289857611, 12289857607, 12284617623, 12284617624, 12284617625, 12284617626, 12284617627, 12284617628, 12284617629, 13084646373, 12284617630, 12289857630, 12284617631, 12289857629, 12289857635, 12284617632, 12284703145, 12284617633, 13084646371, 12284617634, 12290052742, 12290052741, 12284617635, 12284703144, 12284703162, 12284703163, 12284703164, 12284703165, 12284617637, 12284703166, 12284617638, 12284617639, 12284617640, 12289857654, 12289857655, 12284617641, 12289857653, 12284703167, 13084646370, 12284617642, 12290052739, 12284617643, 12289857658, 12290052737, 12284617644, 12284703168, 12284617645, 13084646366, 12284617646, 12284617647, 12284617648, 12284617649, 13084646364, 12284617650, 12289985576, 12289857680, 12289985575, 12289857679, 12289857678, 12289985574, 13084646363, 12289857677, 12289857676, 12284617653, 12284617654, 13084646362, 12289857706, 12289857699, 13084646361, 12284617655, 12289857705, 13084646355, 12284617656, 12284617679, 13084646356, 12284617657, 13084646360, 13084646359, 13084646351, 12289857701, 12289985573, 12284617659, 13084646352, 12284617662, 12289857711, 12284617660, 13084646349, 12284617671, 12290054502, 12290054501, 12290054503, 12284617663, 12284617670, 12284617664, 13084646314, 13084646324, 12284617665, 13084646323, 13084646322, 12284617666, 13084646321, 12284617667, 13084646325, 13084646320, 12284617668, 13084646319, 13084646326, 12284617669, 12284617673, 12289857732, 13084646328, 12289857733, 13084646329, 12289857734, 12289857747, 13084646330, 12289857735, 12289857746, 13084646331, 12289857736, 12289857745, 13084646332, 12289857748, 12289857737, 12289857749, 12289857738, 13084646333, 12289857744, 12289857739, 13084646335, 12289857740, 13084646334, 12284617674, 12289857742, 12289857741, 13084646336, 13084646338, 12289857743, 13084646337, 12289857757, 13084646341, 12284617676, 12289857758, 12289857763, 13084646344, 12289857759, 13084646345, 12284617677, 13084646342, 12284617678], "tags": {"layer": "-2", "name": "MAL (1\u00ba stralcio)", "note": "Inserita nel PRG della citt\u00e0 di Palermo", "proposed:gauge": "1435", "proposed:railway": "subway", "railway": "proposed", "source": "https://www.comune.palermo.it/js/server/uploads/grandiopere/MPA1PPGPRINDI011.pdf", "tunnel": "yes"}}, {"type": "way", "id": 1328347439, "nodes": [12289857503, 12289857504, 12289857505, 12289857506, 12289857507, 12289857508, 12289857509, 12289857510, 12289857511, 12289857512, 12289857513, 12289857514, 12289857515, 12289857516, 12289857517, 12289857518, 12289857519, 12289857520, 12289857521, 12289857522, 12289857523, 12289857524, 12289857525, 12289857526, 12289857527, 12289857528, 12289857529, 12289857530, 12289857531, 12289857532, 12289857533, 12289857534, 12289857537, 12289857535, 12289857536, 12289857538, 12289857539, 12289857540, 12289857541, 12289857546, 12289857542, 12289857543, 12289857544, 12289857545, 12289857547, 12289857552, 12289857553, 12289857554, 12289857555, 12289857556, 12289857557, 12289857558, 12289857559, 12289857560, 12289857579, 12289857602, 12289857561, 12289857562, 12289857563, 12289857564, 12289857565, 12289857604, 12289857572, 12289857566, 12289857571, 12289857567, 12289857568, 12289857569, 12289857570, 12289857586, 12289857587, 12289857588, 12289857589, 12289857590, 12289857591, 12289857592, 12289857593, 12289857594, 12289857595, 12289857596, 12289857597, 12289857598, 12289857599, 12289857600, 12289857601, 12289857610, 12289857612, 12289857613, 12289857614, 12289857615, 12289857616, 12289857617, 12289857618, 12289857619, 12289857620, 12289857621, 12289857622, 12289857623, 12289857628, 12289857624, 12289857625, 12289857626, 12289857627, 13084646372, 12289857634, 12289857631, 12289857636, 12289857632, 12289857633, 12290052744, 12289857639, 12290052743, 12290052745, 12289857640, 12289857656, 12289857641, 12289857657, 12289857642, 12289857643, 12289857644, 12290052740, 12289857645, 12289857646, 12289857647, 12289857648, 12289857649, 13084646369, 12289857650, 12289857651, 12289857652, 13084646368, 13084646367, 12289857659, 12290052736, 12289857660, 12289857661, 12289857662, 12289857664, 13084646365, 12289857665, 12289857666, 12289857667, 12289985577, 12289857668, 12289857669, 12289857670, 12289857671, 12289857672, 12289857673, 12289857681, 12289857703, 12289857682, 12289857708, 12289857683, 13084646357, 12289857684, 13084646358, 12289857696, 12289857697, 12289857710, 12289857698, 12289857694, 12289857693, 12289857692, 12289857691, 13084646353, 13084646354, 12289857685, 12289857688, 12289857687, 13084646350, 12289857714, 12289857715, 12289857716, 12289857717, 12289857718, 13084646316, 12289857719, 13084646315, 12289857720, 12289857721, 12289857722, 13084646317, 12289857723, 12289857724, 13084646318, 12289857725, 12289857726, 13084646327, 12289857727, 12289857728, 12289857729, 12289857730, 13084646348, 12289857731, 12289857750, 12289857751, 12289857752, 12289857753, 12289857754, 12289857755, 13084646340, 12289857756, 13084646343, 13084646339, 13084646346, 12289857760, 13084646347, 12289857761, 12289857762], "tags": {"layer": "-2", "name": "MAL (1\u00ba stralcio)", "note": "Inserita nel PRG della citt\u00e0 di Palermo", "proposed:gauge": "1435", "proposed:railway": "subway", "railway": "proposed", "source": "https://www.comune.palermo.it/js/server/uploads/grandiopere/MPA1PPGPRINDI011.pdf", "tunnel": "yes"}}, {"type": "way", "id": 1358443735, "nodes": [12572467618, 13165358982, 12572467664, 13165358981, 12572467619, 13165358980, 13165358979, 12572472983, 12572467620, 12572467663, 13165360609, 12572467661, 12572467662, 13165359000, 12572467657, 12572467660, 13165360608, 12572467658, 13165360603, 12572467659, 13165360601, 12572467621, 13165360614, 13165360611, 12572467622, 12572472981, 13165360617, 12572467623, 13165360615, 12572467612, 12572467624, 12572467625, 12572467654, 12572467655, 13165360621, 12572467626, 13165360620, 12572467627, 13165360623, 12572467628, 13165360626, 13165360624, 12572467653, 12572472985, 12572467681, 13165360636, 13165360637, 12572467652, 12572467629, 12572467630, 12572472987, 13165360640, 12572467650, 12572467707, 12572467649, 13165360642, 12572467651, 12572467631, 12572467647, 12572467632, 12572467704, 12572467646, 12572467633, 12572472989, 12572467634, 12572467645, 12572472991, 12572467635, 12572467644, 12572467699, 12572467643, 12572472993, 12572472995, 12572467636, 12572467637, 12572467642, 12572467640, 12572467641, 12572467638, 12572472997, 12572467639], "tags": {"construction": "rail", "construction:railway": "tram", "electrified": "no", "gauge": "1435", "name": "Progetto esecutivo linea C", "railway": "construction"}}, {"type": "way", "id": 1358446204, "nodes": [12572467639, 12572481729], "tags": {"construction": "rail", "construction:railway": "tram", "cutting": "yes", "electrified": "no", "gauge": "1435", "name": "Progetto esecutivo linea C", "railway": "construction"}}, {"type": "way", "id": 1358446205, "nodes": [12572467691, 12572481730], "tags": {"construction": "rail", "construction:railway": "tram", "cutting": "yes", "electrified": "no", "gauge": "1435", "name": "Progetto esecutivo linea C", "railway": "construction"}}, {"type": "way", "id": 1358446206, "nodes": [12572481731, 12572481732], "tags": {"construction": "rail", "construction:railway": "tram", "cutting": "yes", "electrified": "no", "gauge": "1435", "name": "Progetto esecutivo linea C", "railway": "construction"}}, {"type": "way", "id": 1358446207, "nodes": [12572481733, 12572481734], "tags": {"construction": "rail", "construction:railway": "tram", "cutting": "yes", "electrified": "no", "gauge": "1435", "name": "Progetto esecutivo linea C", "railway": "construction"}}, {"type": "way", "id": 1358446208, "nodes": [12572481732, 12572481739, 12572481737, 12572481738, 12572481735, 12572481736, 12572481742, 12572481740, 12572481741, 12572481730], "tags": {"construction": "rail", "construction:railway": "tram", "electrified": "no", "gauge": "1435", "layer": "-1", "name": "Progetto esecutivo tratta C", "railway": "construction", "tunnel": "yes"}}, {"type": "way", "id": 1358446209, "nodes": [12572481734, 12572481743, 12572481752, 12572481751, 12572481753, 12572481754, 12572481749, 12572481750, 12572481744, 12572481745, 12572481746, 12572481747, 12572481748, 12572481729], "tags": {"construction": "rail", "construction:railway": "tram", "electrified": "no", "gauge": "1435", "layer": "-1", "name": "Progetto esecutivo tratta C", "railway": "construction", "tunnel": "yes"}}, {"type": "way", "id": 1432497850, "nodes": [13167191243, 13167191244, 13167191236, 13167191249, 13167191247, 13167191282, 13167191283, 13167191284, 13167191285, 13167191286, 13167191287, 13167191288, 13167191289, 13167191290, 13167191291, 13167191292, 13167191293, 13167191294, 13167191295, 13167191296, 13167191297, 13167191298], "tags": {"construction": "rail", "construction:railway": "tram", "electrified": "no", "gauge": "1435", "name": "Progetto Linea D", "railway": "construction"}}, {"type": "way", "id": 1432497851, "nodes": [13167191242, 13167191245, 13167191217, 13167191248, 13167191246, 13167191264, 13167191265, 13167191266, 13167191267, 13167191268, 13167191269, 13167191270, 13167191271, 13167191272, 13167191273, 13167191274, 13167191275, 13167191276, 13167191277, 13167191278, 13167191279], "tags": {"construction": "rail", "construction:railway": "tram", "electrified": "no", "gauge": "1435", "name": "Progetto Linea D", "railway": "construction"}}, {"type": "way", "id": 1432497855, "nodes": [13167191299, 13167191300, 13167191301, 13167191302, 13167191303, 13167191304, 13167191305, 13167191306, 13167191307, 13167191308, 13167191391, 13167191309], "tags": {"construction": "rail", "construction:railway": "tram", "electrified": "no", "gauge": "1435", "name": "Progetto Linea D", "railway": "construction"}}, {"type": "way", "id": 1432497856, "nodes": [13167191280, 13167191281, 13167191310, 13167191311, 13167191312, 13167191313, 13167191314, 13167191315, 13167191316, 13167191317, 13167191318, 13167191319, 13167191320, 13167191322, 13167191321, 13167191323, 13167191324, 13167191325, 13167191326, 13167191327, 13167191328, 13167191329, 13167191330, 13167191331, 13167191332, 13167191333, 13167191344, 13167191334, 13167191342, 13167191335, 13167191336, 13167191337, 13167191341, 13167191340, 13167191338, 13167191343, 13167191339, 13167191345, 13167191346, 13167191347, 13167191348, 13167191360, 13167191349, 13167191350, 13167191351, 13167191352, 13167191353, 13167191354, 13167191355, 13167191356, 13167191357, 13167191358, 13167191359, 13167191361, 13167191375, 13167191362, 13167191363, 13167191364, 13167191365, 13167191366, 13167191367, 13167191368, 13167191369, 13167191370, 13167191389, 13167191380, 13167191381, 13167191382, 13167191390, 13167191383, 13167191384, 13167191385, 13167191386, 13167191387, 13167191388, 13167191309], "tags": {"construction": "rail", "construction:railway": "tram", "electrified": "no", "gauge": "1435", "name": "Progetto Linea D", "railway": "construction"}}, {"type": "way", "id": 1432497857, "nodes": [13167191279, 13167191280], "tags": {"bridge": "yes", "construction": "rail", "construction:railway": "tram", "electrified": "no", "gauge": "1435", "layer": "1", "name": "Progetto Linea D", "railway": "construction"}}, {"type": "way", "id": 1432497858, "nodes": [13167191298, 13167191299], "tags": {"bridge": "yes", "construction": "rail", "construction:railway": "tram", "electrified": "no", "gauge": "1435", "layer": "1", "name": "Progetto Linea D", "railway": "construction"}}]}