{"version": 0.6, "generator": "Overpass API 0.7.62.8 e802775f", "osm3s": {"timestamp_osm_base": "2026-01-12T07:03:15Z", "copyright": "The data included in this document is from www.openstreetmap.org. The data is made available under ODbL."}, "elements": [{"type": "node", "id": 248420920, "lat": 13.0386493, "lon": 80.2052158, "tags": {"addr:postcode": "600078", "amenity": "hospital", "healthcare": "hospital", "healthcare:speciality": "fertility;infertility;ivf_treatment", "name": "Kalaignar Karunanidhi Nagar", "name:en": "KK Nagar", "name:etymology:wikidata": "Q470875", "name:ta": "\u0b95\u0bb2\u0bc8\u0b9e\u0bb0\u0bcd \u0b95\u0bb0\u0bc1\u0ba3\u0bbe\u0ba8\u0bbf\u0ba4\u0bbf \u0ba8\u0b95\u0bb0\u0bcd", "operator": "Hospital", "wikidata": "Q6323457", "wikipedia": "en:K. K. Nagar, Chennai"}}, {"type": "node", "id": 256346630, "lat": 13.105017, "lon": 80.2851878}, {"type": "node", "id": 258978416, "lat": 13.0922007, "lon": 80.2792912, "tags": {"addr:district": "Chennai", "addr:full": "New No.310, Mint Street, Sowcarpet", "addr:postcode": "600079", "addr:state": "Tamil Nadu", "amenity": "hospital", "healthcare": "hospital", "name": "Amrit Hospital", "name:en": "Amrit Hospital", "operator:type": "private", "source": "OpenGovernmentData", "website": "http://www.amrithospital.com/"}}, {"type": "node", "id": 258978417, "lat": 13.0985007, "lon": 80.2796178, "tags": {"amenity": "hospital", "healthcare": "hospital", "name": "Vikram Hospital", "name:en": "Apollo Hospital"}}, {"type": "node", "id": 258991861, "lat": 13.0710075, "lon": 80.274766, "tags": {"access": "private", "barrier": "gate", "name": "Assembly Gate"}}, {"type": "node", "id": 258991862, "lat": 13.0705121, "lon": 80.2741027}, {"type": "node", "id": 258991863, "lat": 13.069303, "lon": 80.2725196}, {"type": "node", "id": 258991864, "lat": 13.0682054, "lon": 80.2722771}, {"type": "node", "id": 258991865, "lat": 13.0678786, "lon": 80.2725931}, {"type": "node", "id": 258991886, "lat": 13.0713181, "lon": 80.2749874}, {"type": "node", "id": 262452334, "lat": 13.08438, "lon": 80.2160862, "tags": {"addr:district": "Chennai", "addr:full": "Old No AA-10, New No AA - 85, 2ND-Avenue, Near Roundtana Bus Stop", "addr:postcode": "600040", "addr:state": "Tamil Nadu", "addr:subdistrict": "Anna Nagar", "amenity": "hospital", "email": "info@citytowerhospitals.com", "healthcare": "hospital", "name": "City Tower Hospitals", "operator:type": "private", "source": "OpenGovernmentData", "website": "http://www.citytowerhospitals.net/contact.asp"}}, {"type": "node", "id": 264481347, "lat": 13.0635179, "lon": 80.2520975}, {"type": "node", "id": 264481348, "lat": 13.0637261, "lon": 80.2513536}, {"type": "node", "id": 295544111, "lat": 13.0844424, "lon": 80.2130723, "tags": {"addr:district": "Chennai", "addr:full": "AB-14/4907, Balasubramanian Building, Opposite Sri Ayyappa Temple, 6th Main Road", "addr:postcode": "600040", "addr:state": "Tamil Nadu", "addr:subdistrict": "Anna Nagar", "amenity": "hospital", "email": "khmhospital@gmail.com", "healthcare": "hospital", "name": "K.H.M.Hospital", "operator:type": "private", "source": "OpenGovernmentData", "website": "https://khmhospital.com/"}}, {"type": "node", "id": 295552091, "lat": 13.08217, "lon": 80.2069819, "tags": {"addr:district": "Chennai", "addr:full": "9-C, Shanthi Colony Iv Avenue, Anna Nagar", "addr:postcode": "600040", "addr:state": "Tamil Nadu", "amenity": "hospital", "healthcare": "hospital", "name": "Sundaram Medical Foundation", "source": "OpenGovernmentData"}}, {"type": "node", "id": 295552092, "lat": 13.0887983, "lon": 80.1994692, "tags": {"addr:district": "Chennai", "addr:full": "New No.4, Old No.1620-A, 16Th Main Road, Anna Nagar", "addr:postcode": "600040", "addr:state": "Tamil Nadu", "amenity": "hospital", "healthcare": "hospital", "name": "Sri Devi Speciality Hospial", "source": "OpenGovernmentData"}}, {"type": "node", "id": 303283976, "lat": 13.0799752, "lon": 80.2754546}, {"type": "node", "id": 303283980, "lat": 13.081213, "lon": 80.275328}, {"type": "node", "id": 303283984, "lat": 13.0814678, "lon": 80.2755452}, {"type": "node", "id": 303284025, "lat": 13.0799587, "lon": 80.2788347}, {"type": "node", "id": 303284026, "lat": 13.0797927, "lon": 80.2764642}, {"type": "node", "id": 303284028, "lat": 13.0820017, "lon": 80.2791442}, {"type": "node", "id": 303284031, "lat": 13.0800024, "lon": 80.2793287}, {"type": "node", "id": 303284095, "lat": 13.0798355, "lon": 80.2759068}, {"type": "node", "id": 303590777, "lat": 13.0336624, "lon": 80.2572467, "tags": {"amenity": "hospital", "healthcare": "hospital", "name": "Corporation Hospital"}}, {"type": "node", "id": 309061776, "lat": 13.0707474, "lon": 80.2743606}, {"type": "node", "id": 309061990, "lat": 13.0686019, "lon": 80.2722014}, {"type": "node", "id": 310504820, "lat": 13.0829605, "lon": 80.281264, "tags": {"amenity": "hospital", "healthcare": "hospital", "name": "Goverment dental hospital & collage", "name:ta": "\u0b85\u0bb0\u0b9a\u0bc1 \u0baa\u0bb2\u0bcd \u0bae\u0bb0\u0bc1\u0ba4\u0bcd\u0ba4\u0bc1\u0bb5\u0bae\u0ba9\u0bc8 \u0bae\u0bb1\u0bcd\u0bb1\u0bc1\u0bae\u0bcd \u0b95\u0bb2\u0bcd\u0bb2\u0bc2\u0bb0\u0bbf", "wikidata": "Q5588794", "wikimedia_commons": "Category:Government Dental Hospital and College, Chennai", "wikipedia": "en:Government Dental Hospital and College, Chennai"}}, {"type": "node", "id": 310732936, "lat": 13.0785984, "lon": 80.2433369, "tags": {"amenity": "hospital", "healthcare": "hospital", "name": "Kilpauk Medical College", "name:ta": "\u0b95\u0bc0\u0bb4\u0bcd\u0baa\u0bcd\u0baa\u0bbe\u0b95\u0bcd\u0b95\u0bae\u0bcd \u0bae\u0bb0\u0bc1\u0ba4\u0bcd\u0ba4\u0bc1\u0bb5\u0bae\u0ba9\u0bc8 \u0bae\u0bb1\u0bcd\u0bb1\u0bc1\u0bae\u0bcd \u0b95\u0bb2\u0bcd\u0bb2\u0bc2\u0bb0\u0bbf", "wikidata": "Q12977046", "wikimedia_commons": "Category:Kilpauk Medical College", "wikipedia": "en:Kilpauk Medical College"}}, {"type": "node", "id": 311311305, "lat": 13.1053702, "lon": 80.2826741}, {"type": "node", "id": 311311306, "lat": 13.1055975, "lon": 80.2815609}, {"type": "node", "id": 311311307, "lat": 13.10597, "lon": 80.2816001}, {"type": "node", "id": 311311308, "lat": 13.1062375, "lon": 80.2816419}, {"type": "node", "id": 311311309, "lat": 13.1078008, "lon": 80.2822081}, {"type": "node", "id": 311311310, "lat": 13.1077944, "lon": 80.2833499}, {"type": "node", "id": 311311311, "lat": 13.1077746, "lon": 80.2836353}, {"type": "node", "id": 311311312, "lat": 13.108232, "lon": 80.2836687}, {"type": "node", "id": 311311313, "lat": 13.107981, "lon": 80.2845106}, {"type": "node", "id": 311311314, "lat": 13.10728, "lon": 80.2861159}, {"type": "node", "id": 311311315, "lat": 13.1066006, "lon": 80.2861162}, {"type": "node", "id": 311311316, "lat": 13.1053681, "lon": 80.2864409}, {"type": "node", "id": 311311317, "lat": 13.1049083, "lon": 80.2866813}, {"type": "node", "id": 311311318, "lat": 13.1045421, "lon": 80.286696}, {"type": "node", "id": 311311603, "lat": 13.1051102, "lon": 80.2835535}, {"type": "node", "id": 311311604, "lat": 13.1050002, "lon": 80.2842077}, {"type": "node", "id": 311311605, "lat": 13.104007, "lon": 80.2840312}, {"type": "node", "id": 315888313, "lat": 13.0529957, "lon": 80.2639651}, {"type": "node", "id": 315888314, "lat": 13.052887, "lon": 80.2651409}, {"type": "node", "id": 315888315, "lat": 13.0536646, "lon": 80.2652268}, {"type": "node", "id": 315888316, "lat": 13.0537649, "lon": 80.2641367}, {"type": "node", "id": 315888317, "lat": 13.0533552, "lon": 80.2639994}, {"type": "node", "id": 315901212, "lat": 13.0539238, "lon": 80.2646088}, {"type": "node", "id": 315901213, "lat": 13.0542415, "lon": 80.2646345}, {"type": "node", "id": 315901215, "lat": 13.0554575, "lon": 80.264628}, {"type": "node", "id": 315901216, "lat": 13.0553786, "lon": 80.2658877}, {"type": "node", "id": 315901217, "lat": 13.054208, "lon": 80.2657074}, {"type": "node", "id": 315901219, "lat": 13.0538402, "lon": 80.2654671}, {"type": "node", "id": 315901284, "lat": 13.054201, "lon": 80.2654981}, {"type": "node", "id": 320275820, "lat": 13.0720996, "lon": 80.2589871, "tags": {"amenity": "hospital", "healthcare": "hospital", "name": "Govt Maternity Hospital"}}, {"type": "node", "id": 320275824, "lat": 13.0735496, "lon": 80.257025, "tags": {"amenity": "hospital", "healthcare": "hospital", "name": "Institute of Child Health"}}, {"type": "node", "id": 320275839, "lat": 13.0735431, "lon": 80.2591463, "tags": {"amenity": "hospital", "healthcare": "hospital", "name": "Institute of Obstetrics and Gynaecology dd"}}, {"type": "node", "id": 320284665, "lat": 13.0741386, "lon": 80.2599219}, {"type": "node", "id": 320284711, "lat": 13.0745967, "lon": 80.2597069}, {"type": "node", "id": 320286924, "lat": 13.0695663, "lon": 80.2609107}, {"type": "node", "id": 320286929, "lat": 13.0695043, "lon": 80.2595376}, {"type": "node", "id": 320286934, "lat": 13.0707796, "lon": 80.2601866}, {"type": "node", "id": 320286953, "lat": 13.0709426, "lon": 80.2603733}, {"type": "node", "id": 320286958, "lat": 13.0709312, "lon": 80.2610161}, {"type": "node", "id": 321840404, "lat": 13.0604232, "lon": 80.2794647}, {"type": "node", "id": 321840406, "lat": 13.0607312, "lon": 80.2777949}, {"type": "node", "id": 321842947, "lat": 13.0434718, "lon": 80.2734934}, {"type": "node", "id": 344406370, "lat": 13.0628424, "lon": 80.2522313}, {"type": "node", "id": 344420292, "lat": 13.0961311, "lon": 80.238318}, {"type": "node", "id": 344420293, "lat": 13.0943707, "lon": 80.2381461}, {"type": "node", "id": 344420294, "lat": 13.093984, "lon": 80.2410644}, {"type": "node", "id": 344420296, "lat": 13.0954832, "lon": 80.2413965}, {"type": "node", "id": 344420299, "lat": 13.0957421, "lon": 80.239328}, {"type": "node", "id": 344420300, "lat": 13.0960142, "lon": 80.2393393}, {"type": "node", "id": 366738197, "lat": 13.0337838, "lon": 80.2058285}, {"type": "node", "id": 370222369, "lat": 13.035569, "lon": 80.2060932}, {"type": "node", "id": 372180644, "lat": 13.0336651, "lon": 80.2066161}, {"type": "node", "id": 375668400, "lat": 13.0293624, "lon": 80.2440921, "tags": {"addr:district": "Chennai", "addr:full": "121-A(New No-36A), Chamiers Road, Nandanam", "addr:postcode": "600035", "addr:state": "Tamil Nadu", "amenity": "hospital", "healthcare": "hospital", "name": "Venkataeswara Hospitals", "source": "OpenGovernmentData"}}, {"type": "node", "id": 413916094, "lat": 13.0374124, "lon": 80.2620475}, {"type": "node", "id": 413916095, "lat": 13.0377526, "lon": 80.2620903}, {"type": "node", "id": 413916096, "lat": 13.0378214, "lon": 80.2615657}, {"type": "node", "id": 413916097, "lat": 13.0392332, "lon": 80.2616044}, {"type": "node", "id": 413916098, "lat": 13.0394894, "lon": 80.2624353}, {"type": "node", "id": 413916099, "lat": 13.039021, "lon": 80.2624309}, {"type": "node", "id": 413916100, "lat": 13.0389935, "lon": 80.2629292}, {"type": "node", "id": 413916101, "lat": 13.0383403, "lon": 80.2626774}, {"type": "node", "id": 413916102, "lat": 13.0383791, "lon": 80.2621884}, {"type": "node", "id": 413916103, "lat": 13.0374298, "lon": 80.2621481}, {"type": "node", "id": 413916390, "lat": 13.0378235, "lon": 80.2621827}, {"type": "node", "id": 459635161, "lat": 13.05244, "lon": 80.2041657, "tags": {"amenity": "hospital", "healthcare": "hospital", "name": "Apollo Clinic & Pharmacy"}}, {"type": "node", "id": 459648701, "lat": 13.0483819, "lon": 80.2070144, "tags": {"amenity": "hospital", "healthcare": "hospital", "name": "Vijaya Heart Centre"}}, {"type": "node", "id": 595706154, "lat": 13.0495316, "lon": 80.211027, "tags": {"addr:district": "Chennai", "addr:full": "D No 154/2, Aroot Road, Vadapalani", "addr:postcode": "600026", "addr:state": "Tamil Nadu", "amenity": "hospital", "healthcare": "hospital", "healthcare:speciality": "multi speciality", "name": "Vasan Eye Care Hospital, Vadapalani", "source": "OpenGovernmentData"}}, {"type": "node", "id": 597590621, "lat": 13.0571293, "lon": 80.1942138, "tags": {"amenity": "hospital", "healthcare": "hospital", "name": "JJ Hospital"}}, {"type": "node", "id": 603480861, "lat": 13.10623, "lon": 80.2815103}, {"type": "node", "id": 603499165, "lat": 13.1032632, "lon": 80.2833066}, {"type": "node", "id": 603499166, "lat": 13.1034394, "lon": 80.2833524}, {"type": "node", "id": 603499169, "lat": 13.1031681, "lon": 80.2839326}, {"type": "node", "id": 618609793, "lat": 13.0971518, "lon": 80.2441703}, {"type": "node", "id": 618609794, "lat": 13.0972284, "lon": 80.2472306}, {"type": "node", "id": 618609795, "lat": 13.0969214, "lon": 80.2462851}, {"type": "node", "id": 618609797, "lat": 13.0986867, "lon": 80.244508}, {"type": "node", "id": 618609798, "lat": 13.0985294, "lon": 80.2468404}, {"type": "node", "id": 618641795, "lat": 13.099355, "lon": 80.2131756}, {"type": "node", "id": 618641805, "lat": 13.1008133, "lon": 80.2138413}, {"type": "node", "id": 618641807, "lat": 13.0989693, "lon": 80.2140747}, {"type": "node", "id": 618641823, "lat": 13.1005152, "lon": 80.2145741}, {"type": "node", "id": 618736292, "lat": 13.0950952, "lon": 80.2187831}, {"type": "node", "id": 618736313, "lat": 13.0945646, "lon": 80.2205955}, {"type": "node", "id": 618736591, "lat": 13.0963249, "lon": 80.219226}, {"type": "node", "id": 618736596, "lat": 13.095839, "lon": 80.2206464}, {"type": "node", "id": 736221805, "lat": 13.0925942, "lon": 80.2408605}, {"type": "node", "id": 736221806, "lat": 13.0926882, "lon": 80.2396911}, {"type": "node", "id": 736221807, "lat": 13.0941376, "lon": 80.2399052}, {"type": "node", "id": 941471945, "lat": 13.0750445, "lon": 80.2151198, "tags": {"amenity": "hospital", "healthcare": "hospital", "name": "Appasamy Hospital", "operator": "Appasamy Hospital"}}, {"type": "node", "id": 941611681, "lat": 13.073239, "lon": 80.2148826, "tags": {"amenity": "hospital", "healthcare": "hospital", "name": "Appasamy Hospital"}}, {"type": "node", "id": 941621037, "lat": 13.0892073, "lon": 80.2178866, "tags": {"amenity": "hospital", "healthcare": "hospital", "name": "Appolo Clinic", "name:ta": "\u0b85\u0baa\u0bcd\u0baa\u0bb2\u0bcd\u0bb2\u0bcb \u0bae\u0bb0\u0bc1\u0ba4\u0bcd\u0ba4\u0bc1\u0bb5\u0bae\u0ba9\u0bc8"}}, {"type": "node", "id": 992583956, "lat": 13.0529181, "lon": 80.2039631, "tags": {"amenity": "hospital", "healthcare": "hospital", "name": "Om Medicals"}}, {"type": "node", "id": 1127285905, "lat": 13.0554597, "lon": 80.2118365, "tags": {"addr:block": "Chennai Zone X", "addr:district": "Chennai", "addr:full": "No:10, 100 Feet Road, Opp. Hotel Ambika Empire, Vadapalani", "addr:postcode": "600026", "addr:state": "Tamil Nadu", "amenity": "hospital", "healthcare": "hospital", "name": "Aakash Fertility Centre & Hospital", "source": "OpenGovernmentData"}}, {"type": "node", "id": 1152858038, "lat": 13.0508335, "lon": 80.2434416, "tags": {"addr:city": "Chennai", "addr:district": "Chennai", "addr:full": "5,Vidyodaya East Second Street, Behind Vidyodaya School", "addr:housenumber": "5", "addr:postcode": "600017", "addr:state": "Tamil Nadu", "addr:street": "Vidyodaya 2nd Cross Street", "amenity": "hospital", "email": "rajaneye@vsnl.com", "healthcare": "hospital", "healthcare:speciality": "ophthalmology", "name": "Rajan Eye Care Hospital", "phone": "2834 0500/0300", "source": "OpenGovernmentData", "website": "https://rajaneyecare.com/"}}, {"type": "node", "id": 1165550731, "lat": 13.0770471, "lon": 80.2195086}, {"type": "node", "id": 1165550799, "lat": 13.0749283, "lon": 80.219468}, {"type": "node", "id": 1165550845, "lat": 13.0755329, "lon": 80.2181854}, {"type": "node", "id": 1165550850, "lat": 13.0783067, "lon": 80.218068}, {"type": "node", "id": 1165550880, "lat": 13.076118, "lon": 80.2181839}, {"type": "node", "id": 1165550920, "lat": 13.0772279, "lon": 80.2194089}, {"type": "node", "id": 1165550962, "lat": 13.0775839, "lon": 80.2181804}, {"type": "node", "id": 1165550971, "lat": 13.077815, "lon": 80.2192788}, {"type": "node", "id": 1165550991, "lat": 13.0768317, "lon": 80.219666}, {"type": "node", "id": 1165550996, "lat": 13.0766971, "lon": 80.2182754}, {"type": "node", "id": 1315895438, "lat": 13.0583046, "lon": 80.211745, "tags": {"amenity": "hospital", "designation": "sree dhanalakshmi family clinic", "name": "sree dhanalakshmi family clinic"}}, {"type": "node", "id": 1391028839, "lat": 13.0324429, "lon": 80.2081334}, {"type": "node", "id": 1391028842, "lat": 13.0326935, "lon": 80.2064654}, {"type": "node", "id": 1391028854, "lat": 13.0333198, "lon": 80.2095996}, {"type": "node", "id": 1391028857, "lat": 13.0335347, "lon": 80.2083782}, {"type": "node", "id": 1391028858, "lat": 13.0350182, "lon": 80.2098525}, {"type": "node", "id": 1391574198, "lat": 13.0350754, "lon": 80.20602}, {"type": "node", "id": 1472969165, "lat": 13.0626045, "lon": 80.2305209, "tags": {"addr:city": "Chennai", "addr:housenumber": "1", "addr:postcode": "600094", "addr:street": "7th street, Choolaimedu high road", "amenity": "hospital", "emergency": "yes", "healthcare": "hospital", "name": "Amma Hospital"}}, {"type": "node", "id": 1473027569, "lat": 13.0694565, "lon": 80.2361903}, {"type": "node", "id": 1473027570, "lat": 13.0696916, "lon": 80.2364532}, {"type": "node", "id": 1473027571, "lat": 13.0694403, "lon": 80.2364532}, {"type": "node", "id": 1473027572, "lat": 13.0697068, "lon": 80.2362064}, {"type": "node", "id": 1474055555, "lat": 13.0787952, "lon": 80.2405731, "tags": {"addr:district": "Chennai", "addr:full": "1, Prof. Subramaniam Street (Behind Ega Theatre) , Kllpauk", "addr:postcode": "600010", "addr:state": "Tamil Nadu", "amenity": "hospital", "emergency": "yes", "healthcare": "hospital", "name": "Right Hospitals", "source": "OpenGovernmentData"}}, {"type": "node", "id": 1597151538, "lat": 13.0584072, "lon": 80.2011738, "tags": {"amenity": "hospital"}}, {"type": "node", "id": 1685049551, "lat": 13.0389642, "lon": 80.2571974}, {"type": "node", "id": 1685049552, "lat": 13.0389417, "lon": 80.2569596}, {"type": "node", "id": 1685049570, "lat": 13.0389904, "lon": 80.2572463}, {"type": "node", "id": 1685049581, "lat": 13.0391142, "lon": 80.2573123}, {"type": "node", "id": 1685049586, "lat": 13.0391297, "lon": 80.2572573}, {"type": "node", "id": 1685049590, "lat": 13.0392797, "lon": 80.2573596}, {"type": "node", "id": 1685049619, "lat": 13.0393452, "lon": 80.2572597}, {"type": "node", "id": 1685049623, "lat": 13.0393631, "lon": 80.2571559}, {"type": "node", "id": 1685049624, "lat": 13.0393786, "lon": 80.2570349}, {"type": "node", "id": 1685124281, "lat": 13.0445783, "lon": 80.2562825}, {"type": "node", "id": 1685124282, "lat": 13.0445308, "lon": 80.2560431}, {"type": "node", "id": 1685124285, "lat": 13.0446339, "lon": 80.256323}, {"type": "node", "id": 1685124292, "lat": 13.0448454, "lon": 80.256001}, {"type": "node", "id": 1685124293, "lat": 13.0448831, "lon": 80.2562825}, {"type": "node", "id": 1685124308, "lat": 13.0458546, "lon": 80.2558262}, {"type": "node", "id": 1685124309, "lat": 13.0459335, "lon": 80.2555097}, {"type": "node", "id": 1685124313, "lat": 13.046188, "lon": 80.2559311}, {"type": "node", "id": 1685124315, "lat": 13.0462866, "lon": 80.2556219}, {"type": "node", "id": 1948616260, "lat": 13.0677233, "lon": 80.2050055, "tags": {"amenity": "hospital", "name": "Apollo Free Emergency Clinic"}}, {"type": "node", "id": 1955943159, "lat": 13.0385656, "lon": 80.2165845, "tags": {"amenity": "hospital", "designation": "Opthalmologist", "healthcare": "hospital", "name": "Agarwal Hospital", "source": "local knowledge"}}, {"type": "node", "id": 1957903721, "lat": 13.0849671, "lon": 80.2004752, "tags": {"amenity": "hospital", "healthcare": "hospital", "name": "Senthil Nursing Home"}}, {"type": "node", "id": 1957904106, "lat": 13.0868667, "lon": 80.1991661, "tags": {"addr:district": "Chennai", "addr:full": "2/1911, J-Block, 15 Th Main Road, Anna Nagar", "addr:postcode": "600040", "addr:state": "Tamil Nadu", "amenity": "hospital", "healthcare": "hospital", "name": "I K Hospital", "source": "OpenGovernmentData"}}, {"type": "node", "id": 1990726958, "lat": 13.0359858, "lon": 80.2573828}, {"type": "node", "id": 1990726968, "lat": 13.0360146, "lon": 80.2571237}, {"type": "node", "id": 2196313615, "lat": 13.0374141, "lon": 80.2620816, "tags": {"access": "no", "barrier": "gate"}}, {"type": "node", "id": 2196313670, "lat": 13.0384268, "lon": 80.2576888}, {"type": "node", "id": 2196313671, "lat": 13.0384531, "lon": 80.2580462}, {"type": "node", "id": 2196313682, "lat": 13.0386696, "lon": 80.2580149}, {"type": "node", "id": 2196313691, "lat": 13.0386848, "lon": 80.2576888}, {"type": "node", "id": 2196313693, "lat": 13.038689, "lon": 80.2579921}, {"type": "node", "id": 2196313733, "lat": 13.0390082, "lon": 80.2627216}, {"type": "node", "id": 2196313744, "lat": 13.0394195, "lon": 80.2622032, "tags": {"access": "customers", "barrier": "gate"}}, {"type": "node", "id": 2197093192, "lat": 13.0385867, "lon": 80.262901}, {"type": "node", "id": 2197496934, "lat": 13.0657879, "lon": 80.2503969}, {"type": "node", "id": 2197496939, "lat": 13.0663823, "lon": 80.2480056}, {"type": "node", "id": 2197496953, "lat": 13.066419, "lon": 80.2505893}, {"type": "node", "id": 2197496969, "lat": 13.0668162, "lon": 80.2506884}, {"type": "node", "id": 2197496970, "lat": 13.0673865, "lon": 80.2507917}, {"type": "node", "id": 2197496991, "lat": 13.0676504, "lon": 80.248078}, {"type": "node", "id": 2197496996, "lat": 13.0677433, "lon": 80.2481437}, {"type": "node", "id": 2197496999, "lat": 13.0678042, "lon": 80.2482982}, {"type": "node", "id": 2212827683, "lat": 13.0625135, "lon": 80.2519299}, {"type": "node", "id": 2212827684, "lat": 13.0626884, "lon": 80.2515981}, {"type": "node", "id": 2212827686, "lat": 13.0629317, "lon": 80.2508058}, {"type": "node", "id": 2212976264, "lat": 13.0427725, "lon": 80.2733652}, {"type": "node", "id": 2212976269, "lat": 13.0430971, "lon": 80.2713099}, {"type": "node", "id": 2212976312, "lat": 13.0438889, "lon": 80.2714519}, {"type": "node", "id": 2214392243, "lat": 13.0420942, "lon": 80.2708754}, {"type": "node", "id": 2214392247, "lat": 13.0421441, "lon": 80.2704737}, {"type": "node", "id": 2214392255, "lat": 13.0423857, "lon": 80.2714065}, {"type": "node", "id": 2214392260, "lat": 13.0425538, "lon": 80.2704737}, {"type": "node", "id": 2214392265, "lat": 13.0426011, "lon": 80.2713876}, {"type": "node", "id": 2214392338, "lat": 13.0580793, "lon": 80.2787914}, {"type": "node", "id": 2214392351, "lat": 13.0582631, "lon": 80.2774649}, {"type": "node", "id": 2214392360, "lat": 13.0583367, "lon": 80.2773894}, {"type": "node", "id": 2214392368, "lat": 13.0584627, "lon": 80.2773894}, {"type": "node", "id": 2214392433, "lat": 13.0598547, "lon": 80.2790179}, {"type": "node", "id": 2214392449, "lat": 13.060007, "lon": 80.2790826}, {"type": "node", "id": 2214509435, "lat": 13.0683836, "lon": 80.2722156}, {"type": "node", "id": 2214509482, "lat": 13.0688647, "lon": 80.2724831}, {"type": "node", "id": 2214509753, "lat": 13.0799458, "lon": 80.2756832}, {"type": "node", "id": 2214509754, "lat": 13.0799558, "lon": 80.2755195}, {"type": "node", "id": 2214530298, "lat": 13.0523474, "lon": 80.280994}, {"type": "node", "id": 2214530299, "lat": 13.0525176, "lon": 80.2802174}, {"type": "node", "id": 2214530300, "lat": 13.0529424, "lon": 80.2810606}, {"type": "node", "id": 2214530301, "lat": 13.05316, "lon": 80.2805003}, {"type": "node", "id": 2250346308, "lat": 13.032777, "lon": 80.2082083}, {"type": "node", "id": 2250346454, "lat": 13.0352675, "lon": 80.2081602, "tags": {"access": "private", "barrier": "gate"}}, {"type": "node", "id": 2250346457, "lat": 13.0354242, "lon": 80.2070818}, {"type": "node", "id": 2269631507, "lat": 13.07981, "lon": 80.2761253}, {"type": "node", "id": 2269631515, "lat": 13.0799018, "lon": 80.2759178}, {"type": "node", "id": 2269631517, "lat": 13.0799127, "lon": 80.2758597}, {"type": "node", "id": 2269895032, "lat": 13.1046675, "lon": 80.2867352}, {"type": "node", "id": 2269895061, "lat": 13.1080689, "lon": 80.2841284}, {"type": "node", "id": 2271022794, "lat": 13.0714851, "lon": 80.2415269}, {"type": "node", "id": 2271022795, "lat": 13.0715631, "lon": 80.2402438}, {"type": "node", "id": 2271022796, "lat": 13.0715739, "lon": 80.2414828}, {"type": "node", "id": 2271022799, "lat": 13.0720469, "lon": 80.2402603}, {"type": "node", "id": 2271022802, "lat": 13.0724958, "lon": 80.2407322}, {"type": "node", "id": 2271510738, "lat": 13.0969749, "lon": 80.2753037}, {"type": "node", "id": 2271510740, "lat": 13.0969749, "lon": 80.2754923}, {"type": "node", "id": 2271510741, "lat": 13.0973527, "lon": 80.2755515}, {"type": "node", "id": 2271510743, "lat": 13.0973859, "lon": 80.2753145}, {"type": "node", "id": 2271836927, "lat": 13.1078828, "lon": 80.2836793}, {"type": "node", "id": 2272699940, "lat": 13.0686549, "lon": 80.2747669}, {"type": "node", "id": 2272699945, "lat": 13.0690566, "lon": 80.2749589}, {"type": "node", "id": 2272699946, "lat": 13.069272, "lon": 80.2746371}, {"type": "node", "id": 2272699949, "lat": 13.070942, "lon": 80.2746737}, {"type": "node", "id": 2274279925, "lat": 13.0271936, "lon": 80.2568375}, {"type": "node", "id": 2274279928, "lat": 13.0271948, "lon": 80.2566659}, {"type": "node", "id": 2274279932, "lat": 13.027507, "lon": 80.2568397}, {"type": "node", "id": 2274279934, "lat": 13.0275081, "lon": 80.256668}, {"type": "node", "id": 2296731456, "lat": 13.076782, "lon": 80.268345, "tags": {"amenity": "hospital", "healthcare": "hospital", "name": "Dr Venugopals' Sundaram Clini"}}, {"type": "node", "id": 2296731781, "lat": 13.0768734, "lon": 80.2678381, "tags": {"amenity": "hospital", "healthcare": "hospital", "name": "Dr Kabir's Clinic"}}, {"type": "node", "id": 2296732187, "lat": 13.0764345, "lon": 80.2672427, "tags": {"amenity": "hospital", "healthcare": "hospital", "name": "Dr Sridhars'Clinic"}}, {"type": "node", "id": 2394697635, "lat": 13.0921495, "lon": 80.218451}, {"type": "node", "id": 2394697636, "lat": 13.0921391, "lon": 80.2186817}, {"type": "node", "id": 2394697637, "lat": 13.0920241, "lon": 80.218675}, {"type": "node", "id": 2394697638, "lat": 13.0920293, "lon": 80.2184443}, {"type": "node", "id": 2480866163, "lat": 13.0551626, "lon": 80.264564, "tags": {"access": "private", "barrier": "gate"}}, {"type": "node", "id": 2482057592, "lat": 13.0737938, "lon": 80.2599197}, {"type": "node", "id": 2482057601, "lat": 13.0741702, "lon": 80.2594119}, {"type": "node", "id": 2482057608, "lat": 13.0744848, "lon": 80.2591166}, {"type": "node", "id": 2482057612, "lat": 13.0745735, "lon": 80.259928}, {"type": "node", "id": 2482057618, "lat": 13.0746543, "lon": 80.2590958}, {"type": "node", "id": 2482057633, "lat": 13.0750079, "lon": 80.2586684}, {"type": "node", "id": 2482057635, "lat": 13.0750155, "lon": 80.2591056}, {"type": "node", "id": 2482072924, "lat": 13.0815346, "lon": 80.276002}, {"type": "node", "id": 2482072927, "lat": 13.0816816, "lon": 80.2763168}, {"type": "node", "id": 2482072931, "lat": 13.0819126, "lon": 80.2781363}, {"type": "node", "id": 2482301375, "lat": 13.0570292, "lon": 80.245818}, {"type": "node", "id": 2482301383, "lat": 13.0576558, "lon": 80.2456957}, {"type": "node", "id": 2482301385, "lat": 13.0576539, "lon": 80.2460783}, {"type": "node", "id": 2485567524, "lat": 13.0921812, "lon": 80.2594411, "tags": {"amenity": "hospital", "healthcare": "hospital", "name": "Vepery Hospital"}}, {"type": "node", "id": 2485567706, "lat": 13.0917944, "lon": 80.2596464}, {"type": "node", "id": 2485567709, "lat": 13.0918838, "lon": 80.2588683}, {"type": "node", "id": 2485567719, "lat": 13.0922444, "lon": 80.2592115}, {"type": "node", "id": 2485567771, "lat": 13.092268, "lon": 80.2589035}, {"type": "node", "id": 2485567774, "lat": 13.0923128, "lon": 80.2597572}, {"type": "node", "id": 2485567782, "lat": 13.0927049, "lon": 80.2598031}, {"type": "node", "id": 2485567783, "lat": 13.0927812, "lon": 80.2592736}, {"type": "node", "id": 2487062532, "lat": 13.0724648, "lon": 80.2408611}, {"type": "node", "id": 2559180846, "lat": 13.0929667, "lon": 80.2236256, "tags": {"addr:city": "Chennai", "addr:housename": "Dr. A. Aniz", "addr:housenumber": "158", "addr:neighbourhood": "O Block", "addr:postcode": "600102", "addr:street": "30th Street", "addr:suburb": "Anna Nagar East", "amenity": "hospital", "emergency": "yes", "healthcare": "hospital", "name": "Jaws Dental Foundation"}}, {"type": "node", "id": 3118864398, "lat": 13.0381705, "lon": 80.2573008, "tags": {"addr:city": "Chennai", "addr:housenumber": "#199", "addr:postcode": "60004", "addr:street": "Luz Church Road", "amenity": "hospital", "emergency": "yes", "healthcare": "hospital", "name": "Kauvery Hospital", "note": "The building is shared by Lifestyle Home Center and the hospital", "phone": "+914440006000", "website": "https://www.kauveryhospital.com/", "wheelchair": "yes"}}, {"type": "node", "id": 3216126405, "lat": 13.0333843, "lon": 80.2449418}, {"type": "node", "id": 3216126406, "lat": 13.033873, "lon": 80.2450276}, {"type": "node", "id": 3216126407, "lat": 13.0338625, "lon": 80.2453951}, {"type": "node", "id": 3216126408, "lat": 13.0338024, "lon": 80.2449928}, {"type": "node", "id": 3216126409, "lat": 13.0338677, "lon": 80.245328}, {"type": "node", "id": 3216126410, "lat": 13.0338886, "lon": 80.2451269}, {"type": "node", "id": 3216126411, "lat": 13.0339252, "lon": 80.2452556}, {"type": "node", "id": 3216126412, "lat": 13.0339252, "lon": 80.2453066}, {"type": "node", "id": 3216126413, "lat": 13.0339383, "lon": 80.2451456}, {"type": "node", "id": 3216126414, "lat": 13.0338651, "lon": 80.2450786}, {"type": "node", "id": 3216126415, "lat": 13.0333556, "lon": 80.2453388}, {"type": "node", "id": 3216127208, "lat": 13.0340461, "lon": 80.2456217}, {"type": "node", "id": 3216127209, "lat": 13.0340644, "lon": 80.2455735}, {"type": "node", "id": 3216127210, "lat": 13.0338318, "lon": 80.2455359}, {"type": "node", "id": 3216127211, "lat": 13.034033, "lon": 80.2455627}, {"type": "node", "id": 3216127212, "lat": 13.0340644, "lon": 80.2456352}, {"type": "node", "id": 3216127213, "lat": 13.0340408, "lon": 80.2457961}, {"type": "node", "id": 3216127214, "lat": 13.0337926, "lon": 80.2457478}, {"type": "node", "id": 3216127292, "lat": 13.0337057, "lon": 80.2454796}, {"type": "node", "id": 3216127293, "lat": 13.0336953, "lon": 80.2457264}, {"type": "node", "id": 3216127294, "lat": 13.0336064, "lon": 80.2454474}, {"type": "node", "id": 3216127295, "lat": 13.0337214, "lon": 80.245721}, {"type": "node", "id": 3216127296, "lat": 13.0336038, "lon": 80.2454689}, {"type": "node", "id": 3216127297, "lat": 13.0335124, "lon": 80.2458149}, {"type": "node", "id": 3216127298, "lat": 13.0336901, "lon": 80.245831}, {"type": "node", "id": 3216127299, "lat": 13.0335307, "lon": 80.2454474}, {"type": "node", "id": 3396718585, "lat": 13.0357552, "lon": 80.2216604}, {"type": "node", "id": 3396718586, "lat": 13.0358858, "lon": 80.2220333}, {"type": "node", "id": 3396718587, "lat": 13.0361436, "lon": 80.2221462}, {"type": "node", "id": 3396718588, "lat": 13.0362421, "lon": 80.2217287}, {"type": "node", "id": 3396718589, "lat": 13.0361228, "lon": 80.2216986}, {"type": "node", "id": 3396718590, "lat": 13.0361038, "lon": 80.2216465}, {"type": "node", "id": 3396718591, "lat": 13.0360792, "lon": 80.2216581}, {"type": "node", "id": 3396718592, "lat": 13.0360413, "lon": 80.2215526}, {"type": "node", "id": 3396721106, "lat": 13.0362827, "lon": 80.2216769}, {"type": "node", "id": 3396721107, "lat": 13.0361734, "lon": 80.2221607}, {"type": "node", "id": 3396721108, "lat": 13.0362983, "lon": 80.2222001}, {"type": "node", "id": 3396721109, "lat": 13.0363452, "lon": 80.2219946}, {"type": "node", "id": 3396721110, "lat": 13.0365724, "lon": 80.2220252}, {"type": "node", "id": 3396721111, "lat": 13.0365951, "lon": 80.2219421}, {"type": "node", "id": 3396721112, "lat": 13.0363493, "lon": 80.221906}, {"type": "node", "id": 3396721113, "lat": 13.0363225, "lon": 80.2216798}, {"type": "node", "id": 3498455460, "lat": 13.0911316, "lon": 80.2815282}, {"type": "node", "id": 3562907944, "lat": 13.0418745, "lon": 80.2247788}, {"type": "node", "id": 3562907945, "lat": 13.0417207, "lon": 80.2247365}, {"type": "node", "id": 3562907946, "lat": 13.0417413, "lon": 80.22466}, {"type": "node", "id": 3562907947, "lat": 13.0417175, "lon": 80.224642}, {"type": "node", "id": 3562907948, "lat": 13.0417413, "lon": 80.2244857}, {"type": "node", "id": 3562907949, "lat": 13.0418333, "lon": 80.2245101}, {"type": "node", "id": 3562907950, "lat": 13.0418, "lon": 80.2246437}, {"type": "node", "id": 3562907951, "lat": 13.0419047, "lon": 80.224673}, {"type": "node", "id": 3599982605, "lat": 13.0770343, "lon": 80.2388204}, {"type": "node", "id": 3599982606, "lat": 13.0770361, "lon": 80.2386808}, {"type": "node", "id": 3599982617, "lat": 13.0774128, "lon": 80.2388256}, {"type": "node", "id": 3599982618, "lat": 13.0774147, "lon": 80.238686}, {"type": "node", "id": 3600327078, "lat": 13.0610959, "lon": 80.2466845}, {"type": "node", "id": 3600327079, "lat": 13.061097, "lon": 80.2466251}, {"type": "node", "id": 3600327084, "lat": 13.0611188, "lon": 80.2466255}, {"type": "node", "id": 3600327085, "lat": 13.0611202, "lon": 80.2465535}, {"type": "node", "id": 3600327088, "lat": 13.0612584, "lon": 80.2466877}, {"type": "node", "id": 3600327089, "lat": 13.0612608, "lon": 80.2465562}, {"type": "node", "id": 3602114947, "lat": 13.0523986, "lon": 80.2807473}, {"type": "node", "id": 3605005776, "lat": 13.0504569, "lon": 80.2299524}, {"type": "node", "id": 3605005782, "lat": 13.0504667, "lon": 80.2298022}, {"type": "node", "id": 3605005784, "lat": 13.0504748, "lon": 80.2298247}, {"type": "node", "id": 3605005788, "lat": 13.0504854, "lon": 80.2296688}, {"type": "node", "id": 3605005803, "lat": 13.0506034, "lon": 80.2297676}, {"type": "node", "id": 3605005806, "lat": 13.0506146, "lon": 80.2296879}, {"type": "node", "id": 3605005820, "lat": 13.0506526, "lon": 80.2298297}, {"type": "node", "id": 3605005821, "lat": 13.0506579, "lon": 80.2299822}, {"type": "node", "id": 3605005822, "lat": 13.0506602, "lon": 80.229776}, {"type": "node", "id": 3605005831, "lat": 13.0506759, "lon": 80.2298545}, {"type": "node", "id": 3605006126, "lat": 13.0518324, "lon": 80.2292896}, {"type": "node", "id": 3605006129, "lat": 13.0518474, "lon": 80.2292082}, {"type": "node", "id": 3605006158, "lat": 13.0519536, "lon": 80.2293132}, {"type": "node", "id": 3605006167, "lat": 13.0519686, "lon": 80.2292318}, {"type": "node", "id": 3606839514, "lat": 13.0652192, "lon": 80.2120584}, {"type": "node", "id": 3606839518, "lat": 13.065312, "lon": 80.211832}, {"type": "node", "id": 3606839526, "lat": 13.0654309, "lon": 80.2121498}, {"type": "node", "id": 3606839541, "lat": 13.0655237, "lon": 80.2119234}, {"type": "node", "id": 3612355990, "lat": 13.0792123, "lon": 80.198347}, {"type": "node", "id": 3612356095, "lat": 13.0792333, "lon": 80.1981856}, {"type": "node", "id": 3612356110, "lat": 13.0792588, "lon": 80.1984289}, {"type": "node", "id": 3612356115, "lat": 13.0792148, "lon": 80.1984182}, {"type": "node", "id": 3612356137, "lat": 13.0794812, "lon": 80.198435}, {"type": "node", "id": 3612356138, "lat": 13.0794936, "lon": 80.1983708}, {"type": "node", "id": 3612356139, "lat": 13.079538, "lon": 80.1983765}, {"type": "node", "id": 3612356140, "lat": 13.0796839, "lon": 80.1982423}, {"type": "node", "id": 3725687797, "lat": 13.0570733, "lon": 80.2460992}, {"type": "node", "id": 4221573903, "lat": 13.0642564, "lon": 80.2497746, "tags": {"addr:postcode": "600006", "addr:street": "Pycrofts Garden Road", "amenity": "hospital", "healthcare": "hospital", "name": "Shankara Netralaya Eye Hospital", "website": "https://sankaranethralaya.org/"}}, {"type": "node", "id": 4488082604, "lat": 13.0515961, "lon": 80.2114304, "tags": {"addr:block": "Chennai Zone X", "addr:district": "Chennai", "addr:full": "No.1, Next To Vadapalani Metro Station, Vadapalani, Jawaharlal Nehru Salai", "addr:housenumber": "No. 1", "addr:postcode": "600026", "addr:state": "Tamil Nadu", "addr:street": "Jawaharlal Nehru Road (100 Feet Road)", "amenity": "hospital", "description": "SIMS Hospital", "healthcare": "hospital", "name": "SRM Institutes For Medical Science", "name:en": "SRM Institutes For Medical Science", "opening_hours": "24/7", "phone": "+91 44 2000 2001", "source": "OpenGovernmentData", "website": "https://www.simshospitals.com/"}}, {"type": "node", "id": 5226880850, "lat": 13.0796727, "lon": 80.1983356}, {"type": "node", "id": 5226880851, "lat": 13.0796698, "lon": 80.198436}, {"type": "node", "id": 5226880852, "lat": 13.0795999, "lon": 80.1984711}, {"type": "node", "id": 5226880853, "lat": 13.0795179, "lon": 80.1984596}, {"type": "node", "id": 5226880854, "lat": 13.0792268, "lon": 80.1982698}, {"type": "node", "id": 5263563022, "lat": 13.1131363, "lon": 80.2429369, "tags": {"addr:district": "Chennai", "addr:full": "Siruvallur, Perambur, Chennai", "addr:postcode": "600011", "addr:state": "Tamil Nadu", "amenity": "hospital", "healthcare": "hospital", "name:en": "J.M Hoapital", "source": "Local Knowledge"}}, {"type": "node", "id": 5336542921, "lat": 13.0527235, "lon": 80.2727336, "tags": {"addr:block": "Chennai Zone Ix", "addr:district": "Chennai", "addr:full": "New No:91, Old No: 46, Royapettah, Dr. Besant Road", "addr:postcode": "600014", "addr:state": "Tamil Nadu", "amenity": "hospital", "healthcare": "hospital", "name": "The Cresent Hospital", "name:en": "The Crescent Hospital", "opening_hours": "Mo-Sa 08:00-13:00; Su 08:00-12:00", "source": "OpenGovernmentData"}}, {"type": "node", "id": 5367950021, "lat": 13.0590329, "lon": 80.2375326, "tags": {"addr:housenumber": "27", "addr:postcode": "600034", "addr:street": "Mahalingapuram Main Road", "amenity": "hospital", "healthcare": "hospital", "name": "Biocosmo Healthcare", "name:en": "Biocosmo Healthcare", "opening_hours": "Mo-Sa 10:30-19:30; Su 14:30-19:30", "phone": "7200080075"}}, {"type": "node", "id": 5500158687, "lat": 13.0497391, "lon": 80.2083222, "tags": {"addr:block": "Chennai Zone Ix", "addr:district": "Chennai", "addr:full": "Gopathi Narayanaswami Chetty Rd, Satyamurthy Nagar, T. Nagar", "addr:postcode": "600017", "addr:state": "Tamil Nadu", "addr:street": "New No:434, Old No:180, NSK Salai Rd, Vadapalani, Chennai, Tamil Nadu 600026", "amenity": "hospital", "healthcare": "hospital", "name": "Vijaya Group of Hospital", "opening_hours": "24/7", "phone": "044 6664 6600", "source": "OpenGovernmentData", "website": "https://vijayahospital.org/"}}, {"type": "node", "id": 5547728024, "lat": 13.0615207, "lon": 80.275747, "tags": {"addr:district": "Chennai", "addr:full": "Old No-25 New No:53, Big Street, Near Hindu Higher Secondary School", "addr:housenumber": "25,53", "addr:postcode": "600005", "addr:state": "Tamil Nadu", "addr:street": "Veeraraghava Street (Big St)", "amenity": "hospital", "healthcare": "hospital", "name": "\u0bb9\u0bbf\u0baa\u0bbe \u0b9a\u0bbf\u0bb1\u0baa\u0bcd\u0baa\u0bc1 \u0bae\u0bb0\u0bc1\u0ba4\u0bcd\u0ba4\u0bc1\u0bb5\u0bae\u0ba9\u0bc8", "name:en": "hiba specility hospital", "opening_hours": "24/7", "source": "OpenGovernmentData"}}, {"type": "node", "id": 5631872266, "lat": 13.031147, "lon": 80.2228983, "tags": {"addr:city": "Chennai", "addr:district": "Chennai", "addr:full": "# 27, Govindan Raod, West Mambalam, Near Srinivasa Theatre", "addr:postcode": "600033", "addr:state": "Tamil Nadu", "addr:street": "Govindan Road", "amenity": "hospital", "healthcare": "hospital", "healthcare:speciality": "general", "name": "Annamalai Hospital", "operator": "Annamalai", "source": "OpenGovernmentData"}}, {"type": "node", "id": 5631872277, "lat": 13.0319539, "lon": 80.2207913, "tags": {"addr:city": "Saidapet", "addr:postcode": "600015", "addr:street": "Govindan Road", "amenity": "hospital", "emergency": "yes", "healthcare": "hospital", "healthcare:speciality": "general;orthopaedics", "name": "Ezhil Hospital", "operator": "Durairaj"}}, {"type": "node", "id": 6161110003, "lat": 13.0754759, "lon": 80.2424782}, {"type": "node", "id": 6161110114, "lat": 13.0772996, "lon": 80.2413744}, {"type": "node", "id": 6161110125, "lat": 13.0757916, "lon": 80.2434644}, {"type": "node", "id": 6161110126, "lat": 13.075849, "lon": 80.2432686}, {"type": "node", "id": 6161110127, "lat": 13.0758856, "lon": 80.2425069}, {"type": "node", "id": 6161110129, "lat": 13.0755512, "lon": 80.2415332}, {"type": "node", "id": 6161110130, "lat": 13.0766355, "lon": 80.2417103}, {"type": "node", "id": 6161110131, "lat": 13.0766668, "lon": 80.2414313}, {"type": "node", "id": 6161110132, "lat": 13.0772153, "lon": 80.2413777}, {"type": "node", "id": 6185882385, "lat": 13.0289663, "lon": 80.2085951, "tags": {"amenity": "hospital", "healthcare": "hospital", "name": "Nivas Skin Clinic"}}, {"type": "node", "id": 6273945265, "lat": 13.0813463, "lon": 80.2753964}, {"type": "node", "id": 6274342347, "lat": 13.1052653, "lon": 80.2823377}, {"type": "node", "id": 6274342348, "lat": 13.1046015, "lon": 80.2821824}, {"type": "node", "id": 6274342349, "lat": 13.1044846, "lon": 80.2827057}, {"type": "node", "id": 6274342350, "lat": 13.1043144, "lon": 80.2826667}, {"type": "node", "id": 6274342351, "lat": 13.1042231, "lon": 80.2832772}, {"type": "node", "id": 6274342352, "lat": 13.1035087, "lon": 80.2831569}, {"type": "node", "id": 6588016969, "lat": 13.0628226, "lon": 80.2511611}, {"type": "node", "id": 6886285320, "lat": 13.0337515, "lon": 80.2451004, "tags": {"addr:city": "Chennai", "addr:district": "CHENNAI", "addr:full": "4th Floor, Geo Tower, Old No.319, New No.465, Anna Salai, Nandanam, Chennai", "addr:housenumber": "Nandanam, 320,", "addr:postcode": "600035", "addr:state": "Tamil Nadu", "addr:street": "Anna Salai, Teynampet,", "amenity": "hospital", "contact:phone": "04424347288;04424331741;04424336119", "email": "apollocancercentres.digital@gmail.com", "healthcare": "hospital", "healthcare:speciality": "oncology", "name": "Apollo Cancer Centres", "opening_hours": "24/7", "operator:type": "private", "source": "OpenGovernmentData", "website": "https://apollocancercentres.com/"}}, {"type": "node", "id": 6914280086, "lat": 13.0329888, "lon": 80.230346, "tags": {"addr:block": "Chennai Zone X", "addr:district": "Chennai", "addr:full": "No:43, Near Bus Terminus, T. Nagar, South Usman Road", "addr:postcode": "600017", "addr:state": "Tamil Nadu", "amenity": "hospital", "healthcare": "hospital", "name": "Raju Hospitals", "source": "OpenGovernmentData"}}, {"type": "node", "id": 6914768001, "lat": 13.1105649, "lon": 80.2418775, "tags": {"addr:district": "Chennai", "addr:full": "New No. 51, 18,Bunder Garden Street,Perambur,Opposite Lourdes Girls School", "addr:postcode": "600011", "addr:state": "Tamil Nadu", "amenity": "hospital", "healthcare": "hospital", "name": "Sen Hospital", "source": "OpenGovernmentData"}}, {"type": "node", "id": 6914768046, "lat": 13.0757435, "lon": 80.2272588, "tags": {"addr:district": "Chennai", "addr:full": "43, Lakshmi Talkies Road, Shenoy Nagar", "addr:postcode": "600030", "addr:state": "Tamil Nadu", "addr:subdistrict": "Shenoy Nagar", "amenity": "hospital", "email": "support@billroth.com", "healthcare": "hospital", "name": "Billroth Hospitals", "operator:type": "private", "source": "OpenGovernmentData", "website": "https://www.billrothhospitals.com/"}}, {"type": "node", "id": 6914768063, "lat": 13.1026603, "lon": 80.2112943, "tags": {"addr:district": "Tiruvallur", "addr:full": "No.36, Ponnankinaru Street, Villivakkam", "addr:postcode": "600049", "addr:state": "Tamil Nadu", "amenity": "hospital", "healthcare": "hospital", "name": "Cauvery Trust Hospital", "source": "OpenGovernmentData"}}, {"type": "node", "id": 6914768086, "lat": 13.0835957, "lon": 80.2156462, "tags": {"addr:district": "Chennai", "addr:full": "Aa 16, 3Road Main Road, Anna Nagar", "addr:postcode": "600040", "addr:state": "Tamil Nadu", "amenity": "hospital", "healthcare": "hospital", "name": "Soundarapandian Bone and Joint Hospital Research Institute Pvt. Ltd.", "source": "OpenGovernmentData"}}, {"type": "node", "id": 6914768088, "lat": 13.079494, "lon": 80.2572808, "tags": {"addr:district": "Chennai", "addr:full": "962, Poonamallee High Road, Near Egmore Over Bridge", "addr:postcode": "600084", "addr:state": "Tamil Nadu", "amenity": "hospital", "healthcare": "hospital", "name": "Dr. U. Mohan Rau Memorial Hospital - Chennai", "source": "OpenGovernmentData", "wheelchair": "yes"}}, {"type": "node", "id": 6914880538, "lat": 13.0762935, "lon": 80.234026, "tags": {"addr:district": "Chennai", "addr:full": "# 55,New Avadi Road,Kilpauk", "addr:postcode": "600010", "addr:state": "Tamil Nadu", "amenity": "hospital", "healthcare": "hospital", "name": "Chennai Cancer Care", "source": "OpenGovernmentData"}}, {"type": "node", "id": 6914880540, "lat": 13.0917939, "lon": 80.2410534, "tags": {"addr:district": "Chennai", "addr:full": "64, Medavakkam Tank Road, Kilpauk", "addr:postcode": "600010", "addr:state": "Tamil Nadu", "amenity": "hospital", "healthcare": "hospital", "name": "Chennai Heart Centre", "source": "OpenGovernmentData"}}, {"type": "node", "id": 6914880546, "lat": 13.0268492, "lon": 80.2558082, "tags": {"addr:district": "Chennai", "addr:full": "#52, Raja Annamalai Puram", "addr:postcode": "600028", "addr:state": "Tamil Nadu", "amenity": "hospital", "healthcare": "hospital", "name": "Chennai Kaliappa Hospital", "source": "OpenGovernmentData"}}, {"type": "node", "id": 6914880552, "lat": 13.0833606, "lon": 80.2341561, "tags": {"addr:district": "Chennai", "addr:full": "264/125, Kilpauk Garden Road, Kilpauk", "addr:postcode": "600010", "addr:state": "Tamil Nadu", "amenity": "hospital", "healthcare": "hospital", "name": "Mots Hospital", "source": "OpenGovernmentData"}}, {"type": "node", "id": 6914880584, "lat": 13.0723588, "lon": 80.2157642, "tags": {"addr:district": "Chennai", "addr:full": "Cp-50, Razack Garden Main Road, Arumbakkam", "addr:postcode": "600106", "addr:state": "Tamil Nadu", "amenity": "hospital", "healthcare": "hospital", "name": "Vasanthi Orthopaedic Hospital", "source": "OpenGovernmentData"}}, {"type": "node", "id": 6914896212, "lat": 13.0788127, "lon": 80.2481786, "tags": {"addr:district": "Chennai", "addr:full": "866, Poonamallee High Road, Kilpauk", "addr:postcode": "600010", "addr:state": "Tamil Nadu", "amenity": "hospital", "healthcare": "hospital", "name": "R.K. Gynaec And Maternity Hospital", "source": "OpenGovernmentData"}}, {"type": "node", "id": 6914896215, "lat": 13.0485912, "lon": 80.2311788, "tags": {"addr:district": "Chennai", "addr:full": "No. 14/20, Chari Street, T. Nagar", "addr:postcode": "600017", "addr:state": "Tamil Nadu", "amenity": "hospital", "healthcare": "hospital", "name": "R. K. Eye Centre", "source": "OpenGovernmentData"}}, {"type": "node", "id": 6914896269, "lat": 13.0714757, "lon": 80.2317998, "tags": {"addr:district": "Chennai", "addr:full": "49/2,Harrington Road,Chetput", "addr:postcode": "600031", "addr:state": "Tamil Nadu", "amenity": "hospital", "healthcare": "hospital", "name": "Psymed Hospiyal", "source": "OpenGovernmentData"}}, {"type": "node", "id": 6914911764, "lat": 13.0433091, "lon": 80.2187696, "tags": {"addr:district": "Chennai", "addr:full": "No.7, Varadappan Street,West Mambalam", "addr:postcode": "600033", "addr:state": "Tamil Nadu", "amenity": "hospital", "healthcare": "hospital", "name": "Vasanthram Hospital (P) Ltd.,", "source": "OpenGovernmentData"}}, {"type": "node", "id": 6914927162, "lat": 13.0516559, "lon": 80.2133146, "tags": {"addr:block": "Chennai Zone X", "addr:district": "Chennai", "addr:full": "Near Murugan Temple, Vadapalani, Palaniandavar Koil St", "addr:postcode": "600026", "addr:state": "Tamil Nadu", "amenity": "hospital", "healthcare": "hospital", "name": "Vadapalani Multispeciality Hospital", "source": "OpenGovernmentData"}}, {"type": "node", "id": 6915134068, "lat": 13.0838812, "lon": 80.2502386, "tags": {"addr:district": "Chennai", "addr:full": "(Old No.19), New No.37, Millers Road, Kilpauk", "addr:postcode": "600010", "addr:state": "Tamil Nadu", "amenity": "hospital", "healthcare": "hospital", "name": "Doctor Rexs Hospitals", "source": "OpenGovernmentData"}}, {"type": "node", "id": 6915218991, "lat": 13.0995855, "lon": 80.2605303, "tags": {"addr:district": "Chennai", "addr:full": "#105, Pulianthope High Road,Pulianthope", "addr:postcode": "600012", "addr:state": "Tamil Nadu", "amenity": "hospital", "healthcare": "hospital", "name": "Deepam Muthu Hospital", "source": "OpenGovernmentData"}}, {"type": "node", "id": 6915836812, "lat": 13.0282655, "lon": 80.235353, "tags": {"addr:district": "Chennai", "addr:full": "786 Anna Salai, CIT Nagar West", "addr:postcode": "600035", "addr:state": "Tamil Nadu", "addr:subdistrict": "Nandanam", "amenity": "hospital", "email": "admin@humahospital.com", "healthcare": "hospital", "name": "Huma Specialists Hospital and Research Centre Pvt Ltd", "operator:type": "private", "source": "OpenGovernmentData", "website": "https://humahospital.com/"}}, {"type": "node", "id": 6926045326, "lat": 13.0379843, "lon": 80.2163241, "tags": {"addr:block": "Chennai Zone X", "addr:district": "Chennai", "addr:full": "No.39, Ashok Nagar, 7Th Avenue", "addr:postcode": "600083", "addr:state": "Tamil Nadu", "amenity": "hospital", "healthcare": "hospital", "name": "Sri Sai Krs Hospital", "source": "OpenGovernmentData"}}, {"type": "node", "id": 6926055600, "lat": 13.0813959, "lon": 80.2469972, "tags": {"addr:district": "Chennai", "addr:full": "No. 15, Ormes Road, Kilpauk", "addr:postcode": "600010", "addr:state": "Tamil Nadu", "amenity": "hospital", "healthcare": "hospital", "name": "Satish Eye Hospital", "source": "OpenGovernmentData"}}, {"type": "node", "id": 6926055920, "lat": 13.0741442, "lon": 80.220515, "tags": {"addr:district": "Chennai", "addr:full": "P.H. Road,Jn Of P.H. Road And, Nelson Manickam Road, Aminjikarai", "addr:postcode": "600029", "addr:state": "Tamil Nadu", "amenity": "hospital", "healthcare": "hospital", "name": "A.K. Hospital, Chennai", "source": "OpenGovernmentData"}}, {"type": "node", "id": 6926055922, "lat": 13.0331935, "lon": 80.2159045, "tags": {"addr:district": "Chennai", "addr:full": "New No 80, 7Th Avenue Ashok Nagar", "addr:postcode": "600083", "addr:state": "Tamil Nadu", "addr:subdistrict": "Ashok Nagar", "amenity": "hospital", "email": "contact@ammayieyehospital.com", "healthcare": "hospital", "name": "Ammayi Eye Hospital", "operator:type": "private", "source": "OpenGovernmentData", "website": "http://www.ammayieyehospital.com/"}}, {"type": "node", "id": 6926055923, "lat": 13.0379671, "lon": 80.2013517, "tags": {"addr:district": "Chennai", "addr:full": "453 And 454, R.K. Shanmugam Salai , K.K. Nagar", "addr:postcode": "600001", "addr:state": "Tamil Nadu", "amenity": "hospital", "healthcare": "hospital", "name": "K.M. Speciality Hospital", "source": "OpenGovernmentData"}}, {"type": "node", "id": 6926107781, "lat": 13.0339283, "lon": 80.2394965, "tags": {"addr:district": "Chennai", "addr:full": "12, Hindi Prachara Sabha Street, T Nagar", "addr:postcode": "600017", "addr:state": "Tamil Nadu", "amenity": "hospital", "check_date": "2025-11-21", "healthcare": "hospital", "name": "Radhatri Nethralaya", "source": "OpenGovernmentData"}}, {"type": "node", "id": 6926118208, "lat": 13.0400969, "lon": 80.2044211, "tags": {"addr:district": "Chennai", "addr:full": "B-49B, Dr.Ramasamy Salai, Near Pillayar Koil Bus Stop, K.K Nagar", "addr:postcode": "600078", "addr:state": "Tamil Nadu", "amenity": "hospital", "healthcare": "hospital", "name": "S M Hospital, Chennai", "source": "OpenGovernmentData"}}, {"type": "node", "id": 6926280322, "lat": 13.0924039, "lon": 80.2090184, "tags": {"addr:district": "Chennai", "addr:full": "1201, 6th Avenue", "addr:postcode": "600040", "addr:state": "Tamil Nadu", "addr:subdistrict": "Anna Nagar", "amenity": "hospital", "email": "info@aashianachennai.com", "healthcare": "hospital", "healthcare:speciality": "multi speciality", "name": "Aashiana Hospital", "operator:type": "private", "source": "OpenGovernmentData", "website": "http://www.aashianachennai.com/p/home.html"}}, {"type": "node", "id": 6926411928, "lat": 13.0847009, "lon": 80.2498054, "tags": {"addr:district": "Chennai", "addr:full": "91-A Millers Road, Kilpauk", "addr:postcode": "600010", "addr:state": "Tamil Nadu", "amenity": "hospital", "healthcare": "hospital", "name": "Ayesha Hospital, Kilpauk", "source": "OpenGovernmentData"}}, {"type": "node", "id": 6926437405, "lat": 13.0323531, "lon": 80.2517212, "tags": {"addr:district": "Chennai", "addr:full": "123 T.T.K. Rood Alwarpet", "addr:postcode": "600018", "addr:state": "Tamil Nadu", "amenity": "hospital", "healthcare": "hospital", "name": "Frontline Eye Hospital", "source": "OpenGovernmentData"}}, {"type": "node", "id": 6926437416, "lat": 13.0477722, "lon": 80.2744473, "tags": {"addr:block": "Chennai Zone Ix", "addr:district": "Chennai", "addr:full": "New No: 119, Old No: 56, Ice House Police Station, Triplicane, Dr. Natesan St;Sudandira Nagar", "addr:postcode": "600005;600014", "addr:state": "Tamil Nadu", "amenity": "hospital", "healthcare": "hospital", "name": "Fousiya Hospital", "source": "OpenGovernmentData;Local Knowledge"}}, {"type": "node", "id": 6926437428, "lat": 13.0764653, "lon": 80.2274586, "tags": {"addr:district": "Chennai", "addr:full": "45, Lakshmi Talkies Road", "addr:postcode": "600030", "addr:state": "Tamil Nadu", "addr:subdistrict": "Shenoy Nagar", "amenity": "hospital", "email": "handehospital@yahoo.com", "healthcare": "hospital", "name": "Hande Hospital", "operator:type": "private", "source": "OpenGovernmentData", "website": "https://www.handehospital.org/"}}, {"type": "node", "id": 6926437454, "lat": 13.0374924, "lon": 80.2381137, "tags": {"addr:district": "Chennai", "addr:full": "N0-01, Crescent Park Street, T Nagar", "addr:postcode": "600017", "addr:state": "Tamil Nadu", "amenity": "hospital", "healthcare": "hospital", "name": "Dr Gurusekaran Hospital Pvt Ltd", "source": "OpenGovernmentData"}}, {"type": "node", "id": 6926494067, "lat": 13.0899919, "lon": 80.2585199, "tags": {"addr:district": "Chennai", "addr:full": "120/113, Perambur Barracks Road, Purasawalkam", "addr:postcode": "600004", "addr:state": "Tamil Nadu", "amenity": "hospital", "healthcare": "hospital", "name": "G K M Hospital Pvt Ltd", "source": "OpenGovernmentData"}}, {"type": "node", "id": 6926953017, "lat": 13.0274616, "lon": 80.2566481, "tags": {"addr:district": "Chennai", "addr:full": "No.43,Second Main Road,R A Puram", "addr:postcode": "600028", "addr:state": "Tamil Nadu", "amenity": "hospital", "healthcare": "hospital", "name": "Kaliappa Renal Center", "source": "OpenGovernmentData"}}, {"type": "node", "id": 6927267098, "lat": 13.0760812, "lon": 80.2107431, "tags": {"addr:district": "Chennai", "addr:full": "No 5, Panchaliamman Koil Street, Arumbakkam", "addr:postcode": "600106", "addr:state": "Tamil Nadu", "amenity": "hospital", "name": "Ayur Kshetra ( A Unit Of Institute Of Ayurvedic Research Pvt Ltd)", "source": "OpenGovernmentData"}}, {"type": "node", "id": 6927292449, "lat": 13.0343985, "lon": 80.2339764, "tags": {"addr:district": "Chennai", "addr:full": "No.39, Burkit Road, T. Nagar", "addr:postcode": "600017", "addr:state": "Tamil Nadu", "amenity": "hospital", "healthcare": "hospital", "name": "Krishna Eye And Ent Hospitals", "source": "OpenGovernmentData"}}, {"type": "node", "id": 6927308315, "lat": 13.0842894, "lon": 80.2230605, "tags": {"addr:district": "Chennai", "addr:full": "No C 46, Near Chintamani, 2nd Avenue, Anna Nagar East", "addr:postcode": "600102", "addr:state": "Tamil Nadu", "amenity": "hospital", "healthcare": "hospital", "name": "Vishnu Eye Clinic and Laser Foundation", "source": "OpenGovernmentData"}}, {"type": "node", "id": 6927380447, "lat": 13.0476871, "lon": 80.2646568, "tags": {"addr:district": "Chennai", "addr:full": "No.159 Lloyds Road , Siva .Ent Hospital Building", "addr:postcode": "600014", "addr:state": "Tamil Nadu", "amenity": "hospital", "healthcare": "hospital", "name": "Santhigiri Ayurveda and Siddha Hospital, Chennai", "source": "OpenGovernmentData"}}, {"type": "node", "id": 6927647007, "lat": 13.054729, "lon": 80.2110462, "tags": {"addr:district": "Chennai", "addr:full": "180, Nsk Salai, Vadapalani", "addr:postcode": "600026", "addr:state": "Tamil Nadu", "amenity": "hospital", "healthcare": "hospital", "name": "Vijaya Heart Foundation - Vijaya Hospital", "source": "OpenGovernmentData"}}, {"type": "node", "id": 6928042666, "lat": 13.0847414, "lon": 80.2219681, "tags": {"addr:district": "Chennai", "addr:full": "No.107, A Block, 3rd Avenue, Anna Nagar Roundana", "addr:postcode": "600102", "addr:state": "Tamil Nadu", "addr:subdistrict": "Anna Nagar", "amenity": "hospital", "email": "annanagar@dragarwal.com", "healthcare": "hospital", "name": "Dr.Agarwal's Eye Hospital Ltd., Anna Nagar", "operator": "Dr. Agarwal's Eye Hospital", "operator:type": "private", "operator:wikidata": "Q17052044", "source": "OpenGovernmentData", "website": "https://www.dragarwal.com/"}}, {"type": "node", "id": 6928167787, "lat": 13.0349787, "lon": 80.2519137, "tags": {"addr:district": "Chennai", "addr:full": "19, K.B Dasan Road (SIET College Road), Alwarpet", "addr:postcode": "600018", "addr:state": "Tamil Nadu", "addr:subdistrict": "Alwarpet", "amenity": "hospital", "email": "enquiry@girishwarihospital.com", "healthcare": "hospital", "name": "Girishwari Hospital Pvt Ltd", "operator:type": "private", "source": "OpenGovernmentData", "website": "https://girishwarihospital.com/"}}, {"type": "node", "id": 6928384708, "lat": 13.0407013, "lon": 80.2618016, "tags": {"addr:district": "Chennai", "addr:full": "No. 03 2nd Link Street. Cit Colony", "addr:postcode": "600004", "addr:state": "Tamil Nadu", "amenity": "hospital", "healthcare": "hospital", "name": "Dr. K Ravi Eye Care", "source": "OpenGovernmentData"}}, {"type": "node", "id": 6928727073, "lat": 13.0268688, "lon": 80.2541439, "tags": {"addr:district": "Chennai", "addr:full": "15, P.S.Sivasamy Salai, Off Dr.Radhakrishnan Raod) Mylapore", "addr:postcode": "600004", "addr:state": "Tamil Nadu", "amenity": "hospital", "healthcare": "hospital", "name": "Madras Ent Research Foundation", "source": "OpenGovernmentData"}}, {"type": "node", "id": 6928752799, "lat": 13.0541946, "lon": 80.257671, "tags": {"addr:district": "Chennai", "addr:full": "6B, Conran Smith Road, Gopalapuram", "addr:postcode": "600086", "addr:state": "Tamil Nadu", "amenity": "hospital", "healthcare": "hospital", "healthcare:speciality": "multi speciality", "name": "Dr. Mohans Mv Diabetes Specialities Centre - Chennai", "source": "OpenGovernmentData"}}, {"type": "node", "id": 6928878284, "lat": 13.0780204, "lon": 80.2336988, "tags": {"addr:district": "Chennai", "addr:full": "47/3, New Avadi Road,Near Kilpauk Post Office", "addr:postcode": "600010", "addr:state": "Tamil Nadu", "amenity": "hospital", "healthcare": "hospital", "name": "Lifeline Rigid Hospital", "source": "OpenGovernmentData"}}, {"type": "node", "id": 6928899364, "lat": 13.0748591, "lon": 80.2299839, "tags": {"addr:district": "Chennai", "addr:full": "#729, P.H. Road, ,Near Pachaiappa's College,Aminjikarai", "addr:postcode": "600029", "addr:state": "Tamil Nadu", "amenity": "hospital", "healthcare": "hospital", "name": "Dr. Seshiah Diabetes Research Institute and Dr. Balaji Diabetes Care Centre", "source": "OpenGovernmentData", "wikidata": "Q30269766"}}, {"type": "node", "id": 6928920473, "lat": 13.034051, "lon": 80.2279374, "tags": {"addr:district": "Chennai", "addr:full": "No.10/11, Madley Road, T.Nagar", "addr:postcode": "600017", "addr:state": "Tamil Nadu", "amenity": "hospital", "healthcare": "hospital", "name": "Dr.Duraiswami Eye Hospital", "source": "OpenGovernmentData"}}, {"type": "node", "id": 6928936160, "lat": 13.0465492, "lon": 80.2422899, "tags": {"addr:district": "Chennai", "addr:full": "56,(Old No.105), G.N. Chetty Road, First Floor, T.Nagar", "addr:postcode": "600017", "addr:state": "Tamil Nadu", "amenity": "hospital", "healthcare": "hospital", "name": "Dr. Udhaya Rajas Dental Centre", "source": "OpenGovernmentData"}}, {"type": "node", "id": 6929250392, "lat": 13.0973284, "lon": 80.1942193, "tags": {"addr:district": "Chennai", "addr:full": "W-27, Old No.18, North Main Road,Anna Nagar West Extn", "addr:postcode": "600101", "addr:state": "Tamil Nadu", "amenity": "hospital", "healthcare": "hospital", "name": "Dhanvantari Eye Care", "name:etymology:wikidata": "Q202011", "source": "OpenGovernmentData"}}, {"type": "node", "id": 6929259906, "lat": 13.0314888, "lon": 80.2218689, "tags": {"addr:block": "Chennai Zone X", "addr:district": "Chennai", "addr:full": "Near Srinivasa Theatre, West Mambalam, Govindan Road", "addr:postcode": "600033", "addr:state": "Tamil Nadu", "amenity": "hospital", "check_date": "2024-04-16", "healthcare": "hospital", "name": "Lakshmi Hospital", "source": "OpenGovernmentData"}}, {"type": "node", "id": 6929359057, "lat": 13.0480981, "lon": 80.245015, "tags": {"addr:block": "Chennai Zone Ix", "addr:district": "Chennai", "addr:full": "Gopathi Narayanaswami Chetty Rd, Satyamurthy Nagar, T. Nagar", "addr:postcode": "600017", "addr:state": "Tamil Nadu", "amenity": "hospital", "healthcare": "hospital", "name": "Bharathirajaa Hospital and Research centre", "source": "OpenGovernmentData"}}, {"type": "node", "id": 6929359073, "lat": 13.0699812, "lon": 80.2444142, "tags": {"addr:district": "Chennai", "addr:full": "72, Spur Tank Road,Chetpet", "addr:postcode": "600031", "addr:state": "Tamil Nadu", "amenity": "hospital", "healthcare": "hospital", "name": "Bethany Health Care Centre", "source": "OpenGovernmentData"}}, {"type": "node", "id": 6929398895, "lat": 13.0382607, "lon": 80.2582785, "tags": {"addr:block": "Chennai Zone Ix", "addr:district": "Chennai", "addr:full": "No:33, Near Alwarpet Signal, Mylapore, Desikan Road", "addr:postcode": "600004", "addr:state": "Tamil Nadu", "amenity": "hospital", "healthcare": "hospital", "name": "Trinity Acute Care Hospital - Chennai", "source": "OpenGovernmentData"}}, {"type": "node", "id": 6929592168, "lat": 13.0274436, "lon": 80.2269866, "tags": {"addr:district": "Chennai", "addr:full": "11, Sastri 1st Cross Street, Kaveri Nagar Saidapet", "addr:postcode": "600015", "addr:state": "Tamil Nadu", "amenity": "hospital", "healthcare": "hospital", "name": "Balakrishna Eye Hospital", "source": "OpenGovernmentData"}}, {"type": "node", "id": 6929625895, "lat": 13.026013, "lon": 80.2655232, "tags": {"addr:district": "Chennai", "addr:full": "200, Ramakrishnan Mutt Road, Mandaveli", "addr:postcode": "600028", "addr:state": "Tamil Nadu", "amenity": "hospital", "check_date": "2024-05-21", "emergency": "yes", "healthcare": "hospital", "internet_access": "no", "name": "B.S.S. Hospital", "name:en": "B.S.S. Hospital", "payment:cash": "yes", "payment:credit_cards": "yes", "payment:debit_cards": "yes", "source": "OpenGovernmentData", "wheelchair": "yes"}}, {"type": "node", "id": 6929625901, "lat": 13.0519442, "lon": 80.2454831, "tags": {"addr:block": "Chennai Zone Ix", "addr:district": "Chennai", "addr:full": "No: 28, Cathedral Gardens Road, Next Hotel Palm Grove, Nungambakkam", "addr:postcode": "600034", "addr:state": "Tamil Nadu", "amenity": "hospital", "healthcare": "hospital", "name": "B.R.S. Hospital Pvt. Ltd.", "source": "OpenGovernmentData"}}, {"type": "node", "id": 6929731466, "lat": 13.037303, "lon": 80.2558136, "tags": {"addr:district": "Chennai", "addr:full": "Old No 32, New No 12, Conran Smith Road, Gopalapuram", "addr:postcode": "600086", "addr:state": "Tamil Nadu", "amenity": "hospital", "healthcare": "hospital", "name": "Harvey Healthcare Limited", "source": "OpenGovernmentData"}}, {"type": "node", "id": 6929737121, "lat": 13.0518247, "lon": 80.2476483, "tags": {"addr:district": "Chennai", "addr:full": "No.30C, Cathedral Garden Road, Nungambakkam", "addr:postcode": "600034", "addr:state": "Tamil Nadu", "amenity": "hospital", "healthcare": "hospital", "name": "Chitra's Ent Laser Hospital", "source": "OpenGovernmentData"}}, {"type": "node", "id": 6929969774, "lat": 13.0395483, "lon": 80.2313016, "tags": {"addr:district": "Chennai", "addr:full": "Mangesh Street, T Nagar", "addr:postcode": "600017", "addr:state": "Tamil Nadu", "amenity": "hospital", "healthcare": "hospital", "name": "Kottakkal Arya Vaidya Sala", "source": "OpenGovernmentData"}}, {"type": "node", "id": 6930163091, "lat": 13.0405732, "lon": 80.2146873, "tags": {"addr:block": "Chennai Zone X", "addr:district": "Chennai", "addr:full": "Door No.1, 40Th Street, 1St Floor, Opposite To Jfa, Near Ashok Nagar", "addr:postcode": "600083", "addr:state": "Tamil Nadu", "amenity": "hospital", "healthcare": "hospital", "name": "Je Nesam Hospital", "source": "OpenGovernmentData"}}, {"type": "node", "id": 6930163175, "lat": 13.0376198, "lon": 80.2619625, "tags": {"addr:district": "Chennai", "addr:full": "148, Luz Church Road Mylapore", "addr:postcode": "600004", "addr:state": "Tamil Nadu", "amenity": "hospital", "healthcare": "hospital", "name": "Chennai Meenakshi Multispeciality Hospital Ltd", "source": "OpenGovernmentData"}}, {"type": "node", "id": 6930467954, "lat": 13.0743327, "lon": 80.228278, "tags": {"addr:district": "Chennai", "addr:full": "6,Kanniamman,Koil Street,Shenoy Nagar", "addr:postcode": "600032", "addr:state": "Tamil Nadu", "amenity": "hospital", "healthcare": "hospital", "name": "Dr.Mu.Va.Hospital", "source": "OpenGovernmentData"}}, {"type": "node", "id": 6931566251, "lat": 13.0641326, "lon": 80.2705644, "tags": {"addr:district": "Chennai", "addr:full": "19/10, Thayar Street, Mount Road", "addr:postcode": "600002", "addr:state": "Tamil Nadu", "amenity": "hospital", "healthcare": "hospital", "name": "Mysaan Hospital", "source": "OpenGovernmentData"}}, {"type": "node", "id": 6931658649, "lat": 13.0462892, "lon": 80.1979979, "tags": {"addr:district": "Kanchipuram", "addr:full": "No-4, Lal Bahadur Sastry Street Sathya Garden, Saligramam", "addr:postcode": "600043", "addr:state": "Tamil Nadu", "amenity": "hospital", "healthcare": "hospital", "name": "V H M Hospitals Pvt Ltd", "source": "OpenGovernmentData"}}, {"type": "node", "id": 6931772941, "lat": 13.0807741, "lon": 80.1989025, "tags": {"addr:district": "Chennai", "addr:full": "162/16 Mangalam Colony 7Th Avennue Anna Nagar", "addr:postcode": "600040", "addr:state": "Tamil Nadu", "amenity": "hospital", "healthcare": "hospital", "name": "Robin and Robin Health Care", "source": "OpenGovernmentData"}}, {"type": "node", "id": 6932068862, "lat": 13.0850496, "lon": 80.215956, "tags": {"addr:district": "Chennai", "addr:full": "W-98, Second Avenue Anna Nagar", "addr:postcode": "600040", "addr:state": "Tamil Nadu", "amenity": "hospital", "healthcare": "hospital", "name": "West Madras Medical Centre", "source": "OpenGovernmentData"}}, {"type": "node", "id": 6932103990, "lat": 13.0390564, "lon": 80.2568208, "tags": {"addr:district": "Chennai", "addr:full": "#81, Ttk Road,Alwarpet", "addr:postcode": "600018", "addr:state": "Tamil Nadu", "amenity": "hospital", "healthcare": "hospital", "name": "Kauvery Hospital, Chennai", "source": "OpenGovernmentData"}}, {"type": "node", "id": 6932138889, "lat": 13.0916495, "lon": 80.2179844, "tags": {"addr:district": "Chennai", "addr:full": "63, Old No. 102, Q Block, 3Road Avenue , Annanagar", "addr:postcode": "600040", "addr:state": "Tamil Nadu", "amenity": "hospital", "healthcare": "hospital", "name": "Rathi Med Speciality Hospital", "source": "OpenGovernmentData"}}, {"type": "node", "id": 6932740110, "lat": 13.08497, "lon": 80.2159721, "tags": {"addr:district": "Chennai", "addr:full": "W - 98, Second Avenue West Madras Medical Centre", "addr:postcode": "600040", "addr:state": "Tamil Nadu", "amenity": "hospital", "healthcare": "hospital", "name": "Sunder Eye Hospital", "source": "OpenGovernmentData"}}, {"type": "node", "id": 6932938089, "lat": 13.0435469, "lon": 80.2636349, "tags": {"addr:district": "Chennai", "addr:full": "No.15, P.S.Sivasamy Salai Road, P.S.Sivasamy Salai", "addr:postcode": "600004", "addr:state": "Tamil Nadu", "addr:subdistrict": "Mylapore", "amenity": "hospital", "email": "admin@lakshahospitals.com; stemcell@lakshahospitals.com", "healthcare": "hospital", "name": "Laksha Hospital", "operator:type": "private", "source": "OpenGovernmentData", "website": "http://www.lakshahospitals.com/"}}, {"type": "node", "id": 6932966221, "lat": 13.0893773, "lon": 80.2547595, "tags": {"addr:district": "Chennai", "addr:full": "No.18, Tana Street, Purasawalkam", "addr:postcode": "600007", "addr:state": "Tamil Nadu", "amenity": "hospital", "healthcare": "hospital", "name": "Narayanaa Hospital", "source": "OpenGovernmentData"}}, {"type": "node", "id": 6933010451, "lat": 13.0269457, "lon": 80.2623196, "tags": {"addr:block": "Chennai Zone Ix", "addr:district": "Chennai", "addr:full": "38/56, Near Bank Of Baroda, Venkata Krishna Road, Jeth Nagar, Mandaveli", "addr:postcode": "600028", "addr:state": "Tamil Nadu", "amenity": "hospital", "check_date": "2024-05-22", "name": "Janamma Hospital", "name:en": "Janamma Hospital", "source": "OpenGovernmentData"}}, {"type": "node", "id": 6933016136, "lat": 13.0821536, "lon": 80.253244, "tags": {"addr:district": "Chennai", "addr:full": "4 Adiappa Mudali Street,Purasaiwalkam Flowers Road", "addr:postcode": "600084", "addr:state": "Tamil Nadu", "amenity": "hospital", "healthcare": "hospital", "name": "Noble Hospital, Chennai", "source": "OpenGovernmentData"}}, {"type": "node", "id": 6933038567, "lat": 13.0766658, "lon": 80.2057502, "tags": {"addr:district": "Chennai", "addr:full": "No. 1051, P.H.Road, Arumbakkam", "addr:postcode": "600006", "addr:state": "Tamil Nadu", "amenity": "hospital", "name": "Indian Hospitals", "source": "OpenGovernmentData"}}, {"type": "node", "id": 6933370913, "lat": 13.0776912, "lon": 80.2459216, "tags": {"addr:district": "Chennai", "addr:full": "154, Poonta Nala High. Road,Kilpauk, Near , K.Mc. Hospital", "addr:postcode": "600010", "addr:state": "Tamil Nadu", "alt_name": "Apollo FirstMed", "amenity": "hospital", "healthcare": "hospital", "name": "Apollo First Medical Foundation", "source": "OpenGovernmentData"}}, {"type": "node", "id": 6933510851, "lat": 13.0739408, "lon": 80.2357346, "tags": {"addr:district": "Chennai", "addr:full": "10-A, Dr. Guruswamy Road, Chetpet", "addr:postcode": "600031", "addr:state": "Tamil Nadu", "amenity": "hospital", "healthcare": "hospital", "name": "Josephs Nursing Home", "source": "OpenGovernmentData"}}, {"type": "node", "id": 6933514287, "lat": 13.0778545, "lon": 80.2415295, "tags": {"addr:district": "Chennai", "addr:full": "No : 814, Poonamallee High Road ., Kilpauk", "addr:postcode": "600010", "addr:state": "Tamil Nadu", "amenity": "hospital", "healthcare": "hospital", "name": "Jayadev Polyclinic Hospital", "source": "OpenGovernmentData"}}, {"type": "node", "id": 6933522070, "lat": 13.0600349, "lon": 80.2302911, "tags": {"addr:district": "Chennai", "addr:full": "67/79, Choolaimedu High Road", "addr:postcode": "600094", "addr:state": "Tamil Nadu", "addr:subdistrict": "Choolaimedu", "amenity": "hospital", "email": "murugesankumaran@hotmail.com", "healthcare": "hospital", "name": "Kummaran Eye Speciality Centre", "operator:type": "private", "source": "OpenGovernmentData", "website": "http://www.kumaraneyecare.in/"}}, {"type": "node", "id": 6933757130, "lat": 13.0842489, "lon": 80.220851, "tags": {"addr:district": "Chennai", "addr:full": "B-Block,1/2 Second Avenue,Anna Nagar", "addr:postcode": "600102", "addr:state": "Tamil Nadu", "amenity": "hospital", "healthcare": "hospital", "name": "Premier Health Center", "source": "OpenGovernmentData"}}, {"type": "node", "id": 6933794368, "lat": 13.0731975, "lon": 80.2527237, "tags": {"addr:district": "Chennai", "addr:full": "13, East Spurtank Road, Chetpet", "addr:postcode": "600031", "addr:state": "Tamil Nadu", "amenity": "hospital", "healthcare": "hospital", "name": "Vasantha Subramanian Hospitals Pvt Ltd", "source": "OpenGovernmentData"}}, {"type": "node", "id": 6933802716, "lat": 13.1109009, "lon": 80.2812195, "tags": {"addr:district": "Chennai", "addr:full": "New No 976, Old No 447, T H Road,Old Washermenpet, Opp To Nirmala Silks,Tondiarpet", "addr:postcode": "600021", "addr:state": "Tamil Nadu", "amenity": "hospital", "healthcare": "hospital", "name": "Vasan Eye Care Hospital, Tondiarpet", "source": "OpenGovernmentData"}}, {"type": "node", "id": 6933828333, "lat": 13.0461063, "lon": 80.2220044, "tags": {"addr:district": "Chennai", "addr:full": "5 Kannadasan St.Ranga Rajapuram", "addr:postcode": "600024", "addr:state": "Tamil Nadu", "amenity": "hospital", "healthcare": "hospital", "name": "Madras Poly Clinic and R.R. Scan", "source": "OpenGovernmentData"}}, {"type": "node", "id": 6933833923, "lat": 13.0535505, "lon": 80.2576911, "tags": {"addr:block": "Chennai Zone Ix", "addr:district": "Chennai", "addr:full": "32/12, Next To Gopalapuram Boys High School Play Ground, Gopalapuram, Conran Smith Road", "addr:postcode": "600086", "addr:state": "Tamil Nadu", "amenity": "hospital", "healthcare": "hospital", "name": "Life Medhospital", "source": "OpenGovernmentData"}}, {"type": "node", "id": 6933869777, "lat": 13.0884107, "lon": 80.2421169, "tags": {"addr:district": "Tiruvallur", "addr:full": "No.167,E.H.Road,Vyasarpadi,Sharma Nagar,Chennai", "addr:postcode": "600019", "addr:state": "Tamil Nadu", "amenity": "hospital", "healthcare": "hospital", "name": "K.M. Hospitals, Chennai", "source": "OpenGovernmentData"}}, {"type": "node", "id": 6933875088, "lat": 13.0741955, "lon": 80.2357775, "tags": {"addr:district": "Chennai", "addr:full": "# 10, Dr. Guruswamy Road", "addr:postcode": "600031", "addr:state": "Tamil Nadu", "amenity": "hospital", "healthcare": "hospital", "name": "Zubeda Hospitals Ltd.", "source": "OpenGovernmentData"}}, {"type": "node", "id": 6933910999, "lat": 13.0584745, "lon": 80.2740124, "tags": {"addr:block": "Chennai Zone Ix", "addr:district": "Chennai", "addr:full": "Near Rathna Cafe Hotel, Triplicane, T.H. Road", "addr:postcode": "600005", "addr:state": "Tamil Nadu", "amenity": "hospital", "healthcare": "hospital", "name": "RR Multispeciality Hospital", "source": "OpenGovernmentData"}}, {"type": "node", "id": 6933998001, "lat": 13.0743836, "lon": 80.2367672, "tags": {"addr:district": "Chennai", "addr:full": "No,18,Nowroji Road", "addr:postcode": "600001", "addr:state": "Tamil Nadu", "amenity": "hospital", "healthcare": "hospital", "name": "Dr.Manju Kulkarni Hospital", "source": "OpenGovernmentData"}}, {"type": "node", "id": 6934018868, "lat": 13.0473239, "lon": 80.2241461, "tags": {"addr:district": "Chennai", "addr:full": "New No: 177, Old No:77, Rangarajapuram Road, Kodambakkam", "addr:postcode": "600024", "addr:state": "Tamil Nadu", "amenity": "hospital", "healthcare": "hospital", "name": "S.V. Bone And Joint Hospital", "source": "OpenGovernmentData"}}, {"type": "node", "id": 6934036697, "lat": 13.0981213, "lon": 80.2362643, "tags": {"addr:district": "Chennai", "addr:full": "No.46, Konnur High Road Ayanavaram", "addr:postcode": "600023", "addr:state": "Tamil Nadu", "amenity": "hospital", "healthcare": "hospital", "name": "Sri Eshodha Hospital", "source": "OpenGovernmentData"}}, {"type": "node", "id": 6934146446, "lat": 13.0350623, "lon": 80.2778479, "tags": {"addr:district": "Chennai", "addr:full": "35 A, Santhome High Road, Marina Beach", "addr:postcode": "600004", "addr:state": "Tamil Nadu", "amenity": "hospital", "healthcare": "hospital", "name": "Sinus And Nose Hospital - Mylapore, Chennai", "source": "OpenGovernmentData"}}, {"type": "node", "id": 6934246102, "lat": 13.1100467, "lon": 80.2466847, "tags": {"addr:district": "Chennai", "addr:full": "Old No.89,& New No.106 Pate Road Perambur, (Near Perambur Railway Station), Patel Road", "addr:postcode": "600011", "addr:state": "Tamil Nadu", "amenity": "hospital", "healthcare": "hospital", "name": "Srinivas Priya Hospital (P) Ltd", "source": "OpenGovernmentData"}}, {"type": "node", "id": 6934271069, "lat": 13.0725279, "lon": 80.2195783, "tags": {"addr:district": "Chennai", "addr:full": "New No. 12 Old No.20, Govindan Street Ayyavoo, Naidu Colony, Aminjikarai", "addr:postcode": "600029", "addr:state": "Tamil Nadu", "amenity": "hospital", "healthcare": "hospital", "name": "M.R. Hospital, Chennai", "source": "OpenGovernmentData"}}, {"type": "node", "id": 6934271075, "lat": 13.0810328, "lon": 80.2336653, "tags": {"addr:district": "Chennai", "addr:full": "No. 14, Bank Street Off New Avadi Road, Kilpauk", "addr:postcode": "600010", "addr:state": "Tamil Nadu", "amenity": "hospital", "emergency": "yes", "healthcare": "hospital", "name": "M. N. Orthopaedic Hospital", "phone": "+914426442279", "source": "OpenGovernmentData", "start_date": "1975", "website": "https://www.mnorthohosp.com/"}}, {"type": "node", "id": 6934325848, "lat": 13.1122162, "lon": 80.2309737, "tags": {"addr:district": "Chennai", "addr:full": "7(1/1A)1st Main Road Jawahar Nagar", "addr:postcode": "600082", "addr:state": "Tamil Nadu", "amenity": "hospital", "healthcare": "hospital", "name": "N.R. Hospital", "source": "OpenGovernmentData"}}, {"type": "node", "id": 6934325849, "lat": 13.0965878, "lon": 80.2597135, "tags": {"addr:district": "Chennai", "addr:full": "No 1, Binny Colony, Perambur Barracks Road, Behind Binny Cloth Show Room", "addr:postcode": "600012", "addr:state": "Tamil Nadu", "amenity": "hospital", "healthcare": "hospital", "name": "N.R. Medical Home Private Limited", "source": "OpenGovernmentData"}}, {"type": "node", "id": 6934325882, "lat": 13.0328516, "lon": 80.2615173, "tags": {"addr:district": "Chennai", "addr:full": "Thoppu New No.2,(Old No.64),Dr.Ranga Road, Abiramapuram", "addr:postcode": "600018", "addr:state": "Tamil Nadu", "amenity": "hospital", "healthcare": "hospital", "name": "Nandalala Medical Foundation", "source": "OpenGovernmentData"}}, {"type": "node", "id": 6934340623, "lat": 13.0265108, "lon": 80.2607878, "tags": {"addr:district": "Chennai", "addr:full": "73 Venkatakrishna Road, Ra Puram", "addr:postcode": "600028", "addr:state": "Tamil Nadu", "amenity": "hospital", "check_date": "2024-05-22", "healthcare": "hospital", "name": "Navasuja Sankara Nethralaya", "name:en": "Navasuja Sankara Nethralaya", "source": "OpenGovernmentData"}}, {"type": "node", "id": 6934340638, "lat": 13.083452, "lon": 80.2030747, "tags": {"addr:district": "Chennai", "addr:full": "2181 L Block 12Th Main Road, Anna Nagar", "addr:postcode": "600040", "addr:state": "Tamil Nadu", "amenity": "hospital", "healthcare": "hospital", "name": "Neomed Hospital - Chennai", "source": "OpenGovernmentData"}}, {"type": "node", "id": 6934340658, "lat": 13.0316469, "lon": 80.2311185, "tags": {"addr:district": "Chennai", "addr:full": "49 Srinivasa Reddu Street,T Nagar", "addr:postcode": "600017", "addr:state": "Tamil Nadu", "amenity": "hospital", "healthcare": "hospital", "name": "New Balaji Hospital, Chennai", "source": "OpenGovernmentData"}}, {"type": "node", "id": 6934340659, "lat": 13.0777579, "lon": 80.2414826, "tags": {"addr:district": "Chennai", "addr:full": "No 1051, Poonamallee High Road, Arumbakkam", "addr:postcode": "600106", "addr:state": "Tamil Nadu", "amenity": "hospital", "healthcare": "hospital", "name": "New Hope Indian Specilaity Hospital", "source": "OpenGovernmentData"}}, {"type": "node", "id": 6934340664, "lat": 13.0776821, "lon": 80.2415201, "tags": {"addr:district": "Chennai", "addr:full": "No. 814, Poonamallee High Road, Kilpauk", "addr:postcode": "600010", "addr:state": "Tamil Nadu", "amenity": "hospital", "healthcare": "hospital", "name": "New Hope Medical Centre Pvt. Ltd", "source": "OpenGovernmentData"}}, {"type": "node", "id": 6934340749, "lat": 13.0390564, "lon": 80.2086724, "tags": {"addr:district": "Chennai", "addr:full": "No. 25, 10Th Avenue, Ashoknagar", "addr:postcode": "600083", "addr:state": "Tamil Nadu", "amenity": "hospital", "healthcare": "hospital", "name": "Orthopedic and Specialities Hospital", "source": "OpenGovernmentData"}}, {"type": "node", "id": 6934340782, "lat": 13.0420391, "lon": 80.2126005, "tags": {"addr:block": "Chennai Zone X", "addr:district": "Chennai", "addr:full": "No.19A, Next To Bhuari Hotel, Ashok Nagar, First Avenue", "addr:postcode": "600083", "addr:state": "Tamil Nadu", "amenity": "hospital", "healthcare": "hospital", "name": "Pallava Hospital", "source": "OpenGovernmentData"}}, {"type": "node", "id": 6934347086, "lat": 13.0983518, "lon": 80.2797285}, {"type": "node", "id": 6934347087, "lat": 13.060131, "lon": 80.2523656, "tags": {"addr:district": "Chennai", "addr:full": "No.15, Thousand Lights, Shafee Mohammed Road", "addr:postcode": "600006", "addr:state": "Tamil Nadu", "amenity": "hospital", "email": "enquiry@apollohospitals.com", "healthcare": "hospital", "name": "Apollo Childrens Hospital", "operator:type": "private", "source": "OpenGovernmentData", "website": "http://www.apollohospitals.com/Apollo_Children/"}}, {"type": "node", "id": 6934347093, "lat": 13.0356881, "lon": 80.2337551, "tags": {"addr:district": "Chennai", "addr:full": "31,Dhandapani Street,T.Nagar", "addr:postcode": "600017", "addr:state": "Tamil Nadu", "amenity": "hospital", "healthcare": "hospital", "name": "Anuradha Maternity Centre", "source": "OpenGovernmentData"}}, {"type": "node", "id": 6934407803, "lat": 13.0919709, "lon": 80.2511633, "tags": {"addr:district": "Chennai", "addr:full": "No-36, Brickkiln Road Near Abirani Theatre", "addr:postcode": "600012", "addr:state": "Tamil Nadu", "amenity": "hospital", "healthcare": "hospital", "name": "Shri Balaji Hospital - Chennai", "source": "OpenGovernmentData"}}, {"type": "node", "id": 6934897845, "lat": 13.0710341, "lon": 80.222632, "tags": {"addr:district": "Chennai", "addr:full": "No.76,Nelson Manickam Road, Aminjikaral", "addr:postcode": "600026", "addr:state": "Tamil Nadu", "amenity": "hospital", "healthcare": "hospital", "name": "Tamil Nadu Urological Research Centre", "source": "OpenGovernmentData"}}, {"type": "node", "id": 6935224404, "lat": 13.0517176, "lon": 80.2300054, "tags": {"addr:district": "Chennai", "addr:full": "# 5, First Street, Taylors Estate, Kodambakkam", "addr:postcode": "600024", "addr:state": "Tamil Nadu", "amenity": "hospital", "healthcare": "hospital", "name": "Thulasi Krishna Nursing Home, Kodambakkam", "source": "OpenGovernmentData"}}, {"type": "node", "id": 6935272552, "lat": 13.074266, "lon": 80.2382156, "tags": {"addr:district": "Chennai", "addr:full": "No. 11, M C. Nichols Road, 4Th Lane, Opposite To Chetpet Police Station Chetpet", "addr:postcode": "600031", "addr:state": "Tamil Nadu", "amenity": "hospital", "healthcare": "hospital", "name": "Dr. Agarwal's Eye Hospital", "operator": "Dr. Agarwal's Eye Hospital", "operator:type": "private", "operator:wikidata": "Q17052044", "source": "OpenGovernmentData"}}, {"type": "node", "id": 6935274089, "lat": 13.0850183, "lon": 80.2244673, "tags": {"addr:district": "Chennai", "addr:full": "C-54, 1 St Main Road, Anna Nagar East, Near Chinthamani Supermarket", "addr:postcode": "600102", "addr:state": "Tamil Nadu", "amenity": "hospital", "healthcare": "hospital", "name": "Selvarangam Hospital", "source": "OpenGovernmentData"}}, {"type": "node", "id": 6936134771, "lat": 13.0670837, "lon": 80.2505444, "tags": {"addr:district": "Chennai", "addr:full": "(A Unit Of Medical Research Foundation)41/18, College Road, Nungambakkam", "addr:postcode": "600006", "addr:state": "Tamil Nadu", "amenity": "hospital", "healthcare": "hospital", "name": "Sankara Nethralaya, Chennai", "source": "OpenGovernmentData"}}, {"type": "node", "id": 6936275517, "lat": 13.1135903, "lon": 80.2270764, "tags": {"addr:district": "Chennai", "addr:full": "B-63, Siva Elango Salai (70 Feet Road), Periyar Nagar", "addr:postcode": "600082", "addr:state": "Tamil Nadu", "amenity": "hospital", "healthcare": "hospital", "name": "Dr Agarwal Eye Hospital Ltd", "source": "OpenGovernmentData"}}, {"type": "node", "id": 6936316468, "lat": 13.0827016, "lon": 80.2424652, "tags": {"addr:district": "Chennai", "addr:full": "No.34/72, Ormes Road, Kilpauk", "addr:postcode": "600010", "addr:state": "Tamil Nadu", "amenity": "hospital", "healthcare": "hospital", "name": "Tosh Hospitals Private Limited", "source": "OpenGovernmentData"}}, {"type": "node", "id": 6936339695, "lat": 13.07604, "lon": 80.2366224, "tags": {"addr:district": "Chennai", "addr:full": "Flat1/B,Ii Floor,Old#No191,New#297,Precision Diagnostics Complex,Periyar Evr Salai(P.H.Road)Kilpauk", "addr:postcode": "600010", "addr:state": "Tamil Nadu", "amenity": "hospital", "healthcare": "hospital", "name": "Sundaram Cancer Centre", "source": "OpenGovernmentData"}}, {"type": "node", "id": 6936339711, "lat": 13.0483992, "lon": 80.2040416, "tags": {"addr:district": "Chennai", "addr:full": "37, Arunachalam Road", "addr:postcode": "600093", "addr:state": "Tamil Nadu", "amenity": "hospital", "healthcare": "hospital", "name": "R.R. Eye Instutute and Laser Foundation", "source": "OpenGovernmentData"}}, {"type": "node", "id": 6936339822, "lat": 13.0441485, "lon": 80.2637114, "tags": {"addr:district": "Chennai", "addr:full": "3, P S Sivasami Salai Mylapore", "addr:postcode": "600004", "addr:state": "Tamil Nadu", "addr:subdistrict": "Mylapore", "amenity": "hospital", "email": "avmmerf@sify.com;ravikv@mail.com", "healthcare": "hospital", "name": "Avm Medical Ent Research Foundation Pvt Ltd", "operator:type": "private", "source": "OpenGovernmentData", "website": "https://avmmerf.in/contact.php"}}, {"type": "node", "id": 6936356289, "lat": 13.0806801, "lon": 80.2486159, "tags": {"addr:district": "Chennai", "addr:full": "7, Barnaby Road", "addr:postcode": "600010", "addr:state": "Tamil Nadu", "addr:subdistrict": "Kilpauk", "amenity": "hospital", "healthcare": "hospital", "healthcare:speciality": "Cosmetic and Plastic Surgery; Dentistry; Dialysis", "name": "Aditya Hospital, Chennai", "operator:type": "private", "source": "OpenGovernmentData", "website": "https://www.adityahospital.co.in/"}}, {"type": "node", "id": 6936359923, "lat": 13.0430125, "lon": 80.2371521, "tags": {"addr:district": "Chennai", "addr:full": "No.121 G.N.Chetty Road", "addr:postcode": "600017", "addr:state": "Tamil Nadu", "addr:subdistrict": "T Nagar", "amenity": "hospital", "email": "info@drashokchennai.com", "healthcare": "hospital", "name": "Laser and Laparascopic Hospital", "operator:type": "private", "source": "OpenGovernmentData", "website": "https://www.drashokchennai.com/"}}, {"type": "node", "id": 6936359972, "lat": 13.0790289, "lon": 80.2490893, "tags": {"addr:district": "Chennai", "addr:full": "214, E.V.R.Periyar Salai, Poonamalee High Road, Periyar Salai", "addr:postcode": "600010", "addr:state": "Tamil Nadu", "addr:subdistrict": "Kilpauk", "amenity": "hospital", "email": "kumaranhospitals@hotmail.com", "healthcare": "hospital", "name": "Kumaran Hospital Pvt.Ltd.", "operator:type": "private", "source": "OpenGovernmentData", "website": "https://kumaranhospitals.com/Index.html"}}, {"type": "node", "id": 6936411410, "lat": 13.0877615, "lon": 80.2423476, "tags": {"addr:district": "Chennai", "addr:full": "72, Medavakkam Tank Road, Near Jamai Mosque", "addr:postcode": "600010", "addr:state": "Tamil Nadu", "addr:subdistrict": "Kilpauk", "amenity": "hospital", "email": "deepameyehospital@gmail.com; contact@deepameyehospital.com", "healthcare": "hospital", "name": "Deepam Eye Hospital", "operator:type": "private", "source": "OpenGovernmentData", "website": "http://www.deepameyehospital.com/"}}, {"type": "node", "id": 6936415699, "lat": 13.0685338, "lon": 80.2579902, "tags": {"addr:district": "Chennai", "addr:full": "28, Marshalls Road Egmore", "addr:postcode": "600008", "addr:state": "Tamil Nadu", "amenity": "hospital", "healthcare": "hospital", "name": "Dr. A. Ramachandran's Diabetes Hospital", "source": "OpenGovernmentData"}}, {"type": "node", "id": 6936469837, "lat": 13.0843952, "lon": 80.2182426, "tags": {"addr:district": "Thiruvallur", "addr:full": "4/579, Chennai, 4/579 Rajiv Gandhi Salai", "addr:postcode": "600041", "addr:state": "Tamil Nadu", "addr:subdistrict": "Ambattur", "amenity": "hospital", "healthcare": "hospital", "name": "Veecare Eye Hospital", "source": "OpenGovernmentData"}}, {"type": "node", "id": 6936669886, "lat": 13.0790015, "lon": 80.25267, "tags": {"addr:district": "Chennai", "addr:full": "New-182, Old-927, Poonamalee High Road, Flower Road", "addr:postcode": "600084", "addr:state": "Tamil Nadu", "amenity": "hospital", "email": "kjh@rediffmail.com", "healthcare": "hospital", "name": "K.J. Hospital", "operator:type": "private", "source": "OpenGovernmentData", "website": "http://kjhospital.net/kjhospital/Welcome.aspx", "wheelchair": "yes"}}, {"type": "node", "id": 6936681265, "lat": 13.0440365, "lon": 80.2336198, "tags": {"addr:district": "Chennai", "addr:full": "24,Coats Road, T.Nagar", "addr:postcode": "600017", "addr:state": "Tamil Nadu", "amenity": "hospital", "healthcare": "hospital", "name": "Sathya Physiotherapy Centre", "source": "OpenGovernmentData"}}, {"type": "node", "id": 6936684311, "lat": 13.0788382, "lon": 80.2469368, "tags": {"addr:district": "Chennai", "addr:full": "856,Poonamallee High Road, Kilpauk", "addr:postcode": "600010", "addr:state": "Tamil Nadu", "amenity": "hospital", "healthcare": "hospital", "name": "Kensington Hospital", "source": "OpenGovernmentData"}}, {"type": "node", "id": 6936684391, "lat": 13.0389519, "lon": 80.2290894, "tags": {"addr:district": "Chennai", "addr:full": "35, Rangan Street, Behind Grt, T.Nagar", "addr:postcode": "600017", "addr:state": "Tamil Nadu", "amenity": "hospital", "healthcare": "hospital", "name": "Pdr Othopaedic Hospital", "source": "OpenGovernmentData"}}, {"type": "node", "id": 6936695126, "lat": 13.0427786, "lon": 80.2706811, "tags": {"addr:district": "Chennai", "addr:full": "4Second Street Dr Radhakrishnan Road Mylapore", "addr:postcode": "600004", "addr:state": "Tamil Nadu", "amenity": "hospital", "healthcare": "hospital", "name": "E V Kalyani Medical Centre", "source": "OpenGovernmentData"}}, {"type": "node", "id": 6936695172, "lat": 13.0269877, "lon": 80.2631588, "tags": {"addr:block": "Chennai Zone Ix", "addr:district": "Chennai", "addr:full": "Near Central Bank (Bus Stop), Mandaveli, Devanathan St", "addr:postcode": "600028", "addr:state": "Tamil Nadu", "amenity": "hospital", "name": "Yogi Vedha Kumari Hospital", "source": "OpenGovernmentData"}}, {"type": "node", "id": 6936695178, "lat": 13.0478465, "lon": 80.2329075, "tags": {"addr:district": "Chennai", "addr:full": "4 / 1 & 4/2 , Porur Somasundaram, North Usman Road T Nagar", "addr:postcode": "600017", "addr:state": "Tamil Nadu", "amenity": "hospital", "healthcare": "hospital", "name": "Women and Children Foundation", "source": "OpenGovernmentData"}}, {"type": "node", "id": 6936695226, "lat": 13.0791504, "lon": 80.2541493, "tags": {"addr:district": "Chennai", "addr:full": "51/18, Adam Sahib Street, Pumping Station Road, Roya Puram", "addr:postcode": "600013", "addr:state": "Tamil Nadu", "amenity": "hospital", "healthcare": "hospital", "name": "Sudha Hospital, Chennai", "source": "OpenGovernmentData"}}, {"type": "node", "id": 6936696196, "lat": 13.0816938, "lon": 80.2522811, "tags": {"addr:district": "Chennai", "addr:full": "No.77, Dr. Alagappa Road, Purasawalkam", "addr:postcode": "600084", "addr:state": "Tamil Nadu", "amenity": "hospital", "healthcare": "hospital", "name": "V.K. Hospital", "source": "OpenGovernmentData"}}, {"type": "node", "id": 6936696229, "lat": 13.0838857, "lon": 80.2252632, "tags": {"addr:district": "Chennai", "addr:full": "103/112, D- Block,1st Main Road, Annanagar East", "addr:postcode": "600102", "addr:state": "Tamil Nadu", "amenity": "hospital", "healthcare": "hospital", "name": "U.K. Hospitals Pvt. Ltd.", "source": "OpenGovernmentData"}}, {"type": "node", "id": 6936696239, "lat": 13.0892193, "lon": 80.2415402, "tags": {"addr:district": "Chennai", "addr:full": "N0 122,Medavakkam Tank Road,Ayanavaram", "addr:postcode": "600023", "addr:state": "Tamil Nadu", "amenity": "hospital", "healthcare": "hospital", "name": "Trust Hospital, Chennai", "source": "OpenGovernmentData"}}, {"type": "node", "id": 6936696240, "lat": 13.082343, "lon": 80.2076291, "tags": {"addr:district": "Chennai", "addr:full": "Road s Enterprises Pvt Limited, Franchisee Of Titan Eye Rbn Tower,Ak-2,4Th Avenue,Shanthi Colony,Annanagar", "addr:postcode": "600040", "addr:state": "Tamil Nadu", "amenity": "hospital", "healthcare": "hospital", "name": "Titan Eye", "source": "OpenGovernmentData"}}, {"type": "node", "id": 6936708005, "lat": 13.0332775, "lon": 80.2371645, "tags": {"addr:district": "Chennai", "addr:full": "55, Sadulla Street, T.Nagar", "addr:postcode": "600017", "addr:state": "Tamil Nadu", "amenity": "hospital", "healthcare": "hospital", "name": "Sai Ortho Care Hospital", "source": "OpenGovernmentData"}}, {"type": "node", "id": 6936708989, "lat": 13.0481888, "lon": 80.2035199, "tags": {"addr:block": "Chennai Zone X", "addr:district": "Chennai", "addr:full": "No.1, Near By Avm Studio, Saligramam, Arunachalam St", "addr:postcode": "600093", "addr:state": "Tamil Nadu", "amenity": "hospital", "healthcare": "hospital", "name": "Sooriya Hospital", "source": "OpenGovernmentData", "wikidata": "Q52843713"}}, {"type": "node", "id": 6936709086, "lat": 13.0496502, "lon": 80.2410582, "tags": {"addr:city": "Chennai", "addr:district": "Chennai", "addr:full": "Old No.24, New 73, Habibullah Road, T.Nagar", "addr:housenumber": "73", "addr:postcode": "600017", "addr:state": "Tamil Nadu", "addr:street": "Habibullah Road", "amenity": "hospital", "healthcare": "hospital", "name": "Centre For Blood Disorders", "phone": "+91 44 2834 0668;+91 44 2834 5161", "source": "OpenGovernmentData"}}, {"type": "node", "id": 6936874933, "lat": 13.0475826, "lon": 80.2069719, "tags": {"addr:district": "Chennai", "addr:full": "175, N.S.K. Salai, Vadapalani", "addr:postcode": "600026", "addr:state": "Tamil Nadu", "amenity": "hospital", "healthcare": "hospital", "name": "Paterson Cancer Center / Vijaya Health Centre Premises", "source": "OpenGovernmentData"}}, {"type": "node", "id": 6936953154, "lat": 13.0558855, "lon": 80.2481343, "tags": {"addr:district": "Chennai", "addr:full": "6E, Nungambakkam High Road", "addr:postcode": "600034", "addr:state": "Tamil Nadu", "amenity": "hospital", "healthcare": "hospital", "name": "Fertility Research Centre", "source": "OpenGovernmentData"}}, {"type": "node", "id": 6936976871, "lat": 13.047269, "lon": 80.2187347, "tags": {"addr:district": "Chennai", "addr:full": "No.36, Dr. Ambedkar Road, Kodambakkam", "addr:postcode": "600024", "addr:state": "Tamil Nadu", "amenity": "hospital", "healthcare": "hospital", "name": "Spot Hospital", "source": "OpenGovernmentData"}}, {"type": "node", "id": 6937067452, "lat": 13.0606718, "lon": 80.2432201, "tags": {"addr:district": "Chennai", "addr:full": "83, Valluvarkottam High Road ( Village Road)", "addr:postcode": "600034", "addr:state": "Tamil Nadu", "amenity": "hospital", "healthcare": "hospital", "name": "Medindia Hospitals, Chennai", "source": "OpenGovernmentData"}}, {"type": "node", "id": 6937351599, "lat": 13.0781955, "lon": 80.2452886, "tags": {"addr:district": "Chennai", "addr:full": "827, Poonamallee High Road", "addr:housenumber": "274", "addr:postcode": "600010", "addr:state": "Tamil Nadu", "addr:street": "Poonamalee High Road", "alt_name": "KKR ENT Hospital", "amenity": "hospital", "email": "enquiry@kkrenthospital.org", "healthcare": "hospital", "name": "K.K.R. ENT Hospital and Research Institute(P) Ltd", "opening_hours": "Mo-Su 07:00-19:00", "operator:type": "private", "phone": "+91 44 2641 1444", "source": "OpenGovernmentData", "website": "https://www.kkrenthospital.org/", "wikidata": "Q30260572"}}, {"type": "node", "id": 6937434309, "lat": 13.0503377, "lon": 80.2299377, "tags": {"addr:district": "Chennai", "addr:full": "47, Railway Station Road, Near Post Office, Kodambakkam", "addr:postcode": "600024", "addr:state": "Tamil Nadu", "amenity": "hospital", "healthcare": "hospital", "name": "Srinivasa Hospital P P N, Chennai", "source": "OpenGovernmentData"}}, {"type": "node", "id": 6937467152, "lat": 13.0394065, "lon": 80.2507684, "tags": {"addr:district": "Tiruchirappalli", "addr:full": "C,57 11Th Cross Thillai Nagar", "addr:postcode": "620018", "addr:state": "Tamil Nadu", "amenity": "hospital", "healthcare": "hospital", "name": "Gastro Cre Hospital", "source": "OpenGovernmentData"}}, {"type": "node", "id": 7181684162, "lat": 13.0619796, "lon": 80.2741693, "tags": {"addr:district": "Chennai", "addr:full": "136 (295), Triplicane High Road", "addr:postcode": "600005", "addr:state": "Tamil Nadu", "amenity": "hospital", "healthcare": "hospital", "name": "Siva E N T Hospital", "source": "OpenGovernmentData"}}, {"type": "node", "id": 7181711080, "lat": 13.0476113, "lon": 80.2650954, "tags": {"addr:district": "Chennai", "addr:full": "194, Old No 289, Lloyd's Road, Avvai Sanmugam Salai, Royapettah", "addr:postcode": "600014", "addr:state": "Tamil Nadu", "amenity": "hospital", "healthcare": "hospital", "name": "Vinayagam Laser Hospital, Chennai", "source": "OpenGovernmentData"}}, {"type": "node", "id": 7181721033, "lat": 13.0524884, "lon": 80.2736449, "tags": {"addr:district": "Chennai", "addr:full": "No: 290, Triplicane High Road, Triplicane", "addr:postcode": "600014", "addr:state": "Tamil Nadu", "amenity": "hospital", "healthcare": "hospital", "name": "Dr Agarwals Eye Hospital, Triplicane", "source": "OpenGovernmentData"}}, {"type": "node", "id": 7181722911, "lat": 13.0432085, "lon": 80.259169, "tags": {"addr:district": "Chennai", "addr:full": "No-19, Cathedral Road", "addr:postcode": "600086", "addr:state": "Tamil Nadu", "addr:subdistrict": "Gopala Puram", "amenity": "hospital", "email": "dragarwal@vsnl.com", "healthcare": "hospital", "name": "Dr.Agarwal's Eye Hospital Ltd., Gopala Puram", "operator": "Dr. Agarwal's Eye Hospital", "operator:type": "private", "operator:wikidata": "Q17052044", "source": "OpenGovernmentData", "website": "https://www.dragarwal.com/"}}, {"type": "node", "id": 7181748147, "lat": 13.0380111, "lon": 80.2013205, "tags": {"addr:district": "Chennai", "addr:full": "No 22, Arcot Road, Saligramam", "addr:postcode": "600093", "addr:state": "Tamil Nadu", "amenity": "hospital", "healthcare": "hospital", "name": "Bharani Hospital", "source": "OpenGovernmentData"}}, {"type": "node", "id": 7210884259, "lat": 13.0475131, "lon": 80.2042733, "tags": {"addr:district": "Chennai", "addr:full": "Ottagapalayam, Kannika Puram, Vadapalani, Chennai", "addr:postcode": "600026", "addr:state": "Tamil Nadu", "amenity": "hospital", "healthcare": "hospital", "name": "Fortis Vadapalani Hospital", "source": "OpenGovernmentData"}}, {"type": "node", "id": 7210895386, "lat": 13.0748708, "lon": 80.2147555, "tags": {"addr:district": "Chennai", "addr:full": "Poonamallee High Road,Arumbakkam LandMark : Next to Chennai Ford LandMark", "addr:postcode": "636106", "addr:state": "Tamil Nadu", "amenity": "hospital", "healthcare": "hospital", "name": "Tamil Nadu Urological Research Centre Best Kidney Stone Clinic", "source": "OpenGovernmentData"}}, {"type": "node", "id": 7210911300, "lat": 13.0290525, "lon": 80.2636265, "tags": {"addr:district": "Chennai", "addr:full": "No.06, Chokkalingam St, Jeth Nagar, Mandaveli", "addr:postcode": "600028", "addr:state": "Tamil Nadu", "amenity": "hospital", "healthcare": "hospital", "name": "Sri Ranga Hospitals", "source": "OpenGovernmentData"}}, {"type": "node", "id": 7210948177, "lat": 13.0297278, "lon": 80.2446245, "tags": {"addr:district": "Chennai", "addr:full": "23, Pasumpon Muthuramalinga Thevar Rd, Rathna Nagar, Nandanam", "addr:postcode": "600035", "addr:state": "Tamil Nadu", "amenity": "hospital", "healthcare": "hospital", "name": "Chamiers Day Care Center", "source": "OpenGovernmentData"}}, {"type": "node", "id": 7213492568, "lat": 13.0465056, "lon": 80.2423799, "tags": {"addr:district": "Chennai", "addr:full": "56,(Old No.105), G.N. Chetty Road, First Floor, T.Nagar", "addr:postcode": "600017", "addr:state": "Tamil Nadu", "amenity": "hospital", "healthcare": "hospital", "name": "Dr.Bala Subramanian", "source": "OpenGovernmentData"}}, {"type": "node", "id": 7252333314, "lat": 13.07832, "lon": 80.243753, "tags": {"addr:block": "Chennai Zone Xi", "addr:district": "Chennai", "addr:full": "822, Poonamallee High Rd, Near Ega Theatre, Kilpauk, Chennai", "addr:postcode": "600010", "addr:state": "Tamil Nadu", "amenity": "hospital", "healthcare": "hospital", "name": "Govt Kilpauk Medical College Hospital", "source": "OpenGovernmentData"}}, {"type": "node", "id": 7252333320, "lat": 13.0991743, "lon": 80.2301988, "tags": {"addr:block": "Chennai Zone Vi", "addr:district": "Chennai", "addr:full": "United India Nagar, Ayanavaram", "addr:postcode": "600023", "addr:state": "Tamil Nadu", "amenity": "hospital", "healthcare": "hospital", "name": "Government Maternity And Child Hospital", "source": "OpenGovernmentData"}}, {"type": "node", "id": 7252333321, "lat": 13.0433937, "lon": 80.2461174, "tags": {"addr:block": "Chennai Zone Ix", "addr:district": "Chennai", "addr:full": "Near Hyatt Resigency Hotel, T. Nagar, Vijayaraghava Road", "addr:postcode": "600017", "addr:state": "Tamil Nadu", "amenity": "hospital", "healthcare": "hospital", "name": "Cloudnine Hospital - Chennai", "source": "OpenGovernmentData"}}, {"type": "node", "id": 7252333330, "lat": 13.061988, "lon": 80.2745135, "tags": {"addr:block": "Chennai Zone Ix", "addr:district": "Chennai", "addr:full": "Near Star Theatre, Triplicane, Quaide-Millah High Road", "addr:postcode": "600005", "addr:state": "Tamil Nadu", "amenity": "hospital", "healthcare": "hospital", "name": "Shifa Hospital And Reasearch Centre", "source": "OpenGovernmentData"}}, {"type": "node", "id": 7252333349, "lat": 13.0431134, "lon": 80.2453103, "tags": {"addr:block": "Chennai Zone Ix", "addr:district": "Chennai", "addr:full": "5A, (Opp) Anjuman Hr.Sec. School, T. Nagar, Vijayaraghava Road", "addr:postcode": "600017", "addr:state": "Tamil Nadu", "amenity": "hospital", "healthcare": "hospital", "name": "Be Well Hospital", "source": "OpenGovernmentData"}}, {"type": "node", "id": 7252333356, "lat": 13.0586646, "lon": 80.2428501, "tags": {"addr:block": "Chennai Zone Ix", "addr:district": "Chennai", "addr:full": "103-109, Near Valluvarkottam, Nungambakkam, Valluvarkottam High Road", "addr:postcode": "600034", "addr:state": "Tamil Nadu", "amenity": "hospital", "healthcare": "hospital", "name": "Meenakshi Hospital & Childrens Hospital", "source": "OpenGovernmentData"}}, {"type": "node", "id": 7252333371, "lat": 13.0616195, "lon": 80.275793, "tags": {"addr:block": "Chennai Zone Ix", "addr:district": "Chennai", "addr:full": "New No: 53/25, Near L.V. Bank, Triplicane, Big Street", "addr:postcode": "600005", "addr:state": "Tamil Nadu", "amenity": "hospital", "healthcare": "hospital", "name": "Hiba Hospital", "source": "OpenGovernmentData"}}, {"type": "node", "id": 7252333372, "lat": 13.0508818, "lon": 80.2735131, "tags": {"addr:block": "Chennai Zone Ix", "addr:district": "Chennai", "addr:full": "Muthiah Street, Dr. Natesan Road, Ice House, Mirsahibpet, Royapettah", "addr:postcode": "600005", "addr:state": "Tamil Nadu", "amenity": "hospital", "healthcare": "hospital", "name": "A.R.A Hospital For Women", "source": "OpenGovernmentData"}}, {"type": "node", "id": 7252333375, "lat": 13.0594024, "lon": 80.1954415, "tags": {"addr:block": "Chennai Zone X", "addr:district": "Chennai", "addr:full": "No.849, Near Parvathi Bhavan, Elango Nagar, Kaliamman Koil St", "addr:postcode": "600092", "addr:state": "Tamil Nadu", "amenity": "hospital", "name": "Priyas Medical Centre", "source": "OpenGovernmentData"}}, {"type": "node", "id": 7252333378, "lat": 13.044837, "lon": 80.2475507, "tags": {"addr:block": "Chennai Zone Ix", "addr:district": "Chennai", "addr:full": "No. 562, Century Plaza, Anna Salai, Teynampet, Opp.Hyatt Regency, Chennai;Century Plaza Anna Salai Teynampet", "addr:postcode": "600018", "addr:state": "Tamil Nadu", "amenity": "hospital", "healthcare": "hospital", "name": "Dr. Rai Memorial Medical Centre", "source": "OpenGovernmentData"}}, {"type": "node", "id": 7252333380, "lat": 13.0535971, "lon": 80.2275376, "tags": {"addr:block": "Chennai Zone X", "addr:district": "Chennai", "addr:full": "Near Corporation Ground, Kodambakkam, Trustpuram 4Th Cross St", "addr:state": "Tamil Nadu", "amenity": "hospital", "healthcare": "hospital", "name": "Medway Hospitals", "source": "OpenGovernmentData"}}, {"type": "node", "id": 7252333381, "lat": 13.0993782, "lon": 80.2825418, "tags": {"addr:block": "Chennai Zone V", "addr:district": "Chennai", "addr:full": "Near Seven Wells Police Station, Seven Wells, Amman Koil Street,Chennai-1", "addr:postcode": "600001", "addr:state": "Tamil Nadu", "amenity": "hospital", "healthcare": "hospital", "name": "Seven Wells Hospital", "source": "OpenGovernmentData"}}, {"type": "node", "id": 7252333383, "lat": 13.068807, "lon": 80.2672078, "tags": {"addr:block": "Chennai Zone Xi", "addr:district": "Chennai", "addr:full": "Pudupet, Komaleeswaranpet, Egmore, Chennai", "addr:postcode": "600002", "addr:state": "Tamil Nadu", "amenity": "hospital", "healthcare": "hospital", "name": "Government Hospital", "source": "OpenGovernmentData"}}, {"type": "node", "id": 7252333389, "lat": 13.1142928, "lon": 80.2844517, "tags": {"addr:block": "Chennai Zone V", "addr:district": "Chennai", "addr:full": "Near old washermanpet post office, Royapuram, Solaiappar Street", "addr:postcode": "600021", "addr:state": "Tamil Nadu", "amenity": "hospital", "healthcare": "hospital", "name": "Chennai Corporation Hospital", "source": "OpenGovernmentData"}}, {"type": "node", "id": 7252333390, "lat": 13.0410091, "lon": 80.1964532, "tags": {"addr:block": "Chennai Zone X", "addr:district": "Chennai", "addr:full": "Sector 11, K. K. Nagar, Chennai", "addr:postcode": "600083", "addr:state": "Tamil Nadu", "amenity": "hospital", "healthcare": "hospital", "name": "Guru Raghavendra Hospital", "source": "OpenGovernmentData"}}, {"type": "node", "id": 7252333394, "lat": 13.0487028, "lon": 80.2645448, "tags": {"addr:block": "Chennai Zone Ix", "addr:district": "Chennai", "addr:full": "128/241, (Opp) To Provident Fund Office, Royapettah", "addr:postcode": "600014", "addr:state": "Tamil Nadu", "amenity": "hospital", "healthcare": "hospital", "name": "Seethapathy clinic & Hospital", "source": "OpenGovernmentData", "wikidata": "Q61932788"}}, {"type": "node", "id": 7252333395, "lat": 13.0763562, "lon": 80.224826}, {"type": "node", "id": 7252333397, "lat": 13.0572714, "lon": 80.2757357, "tags": {"addr:block": "Chennai Zone Ix", "addr:district": "Chennai", "addr:full": "No: 175, Near Indian Bank, Triplicane, Big Street", "addr:postcode": "600005", "addr:state": "Tamil Nadu", "amenity": "hospital", "healthcare": "hospital", "name": "Sakthi Hospital &Reasearch Centre Helath Care Organization", "source": "OpenGovernmentData"}}, {"type": "node", "id": 7252333398, "lat": 13.0480821, "lon": 80.2329957, "tags": {"addr:block": "Chennai Zone Ix", "addr:district": "Chennai", "addr:full": "No:20, Near North Usman Road Head Post Office, T. Nagar, North Usman Road", "addr:postcode": "600017", "addr:state": "Tamil Nadu", "amenity": "hospital", "healthcare": "hospital", "name": "Women And Children Foundation Hospitals T-Nagar", "source": "OpenGovernmentData"}}, {"type": "node", "id": 7252333403, "lat": 13.0916464, "lon": 80.2139939, "tags": {"addr:district": "Thiruvallur", "addr:full": "No.65, Near K4 Police Station, Anna Nagar Chennai, R- Block, 12Th Street", "addr:postcode": "600040", "addr:state": "Tamil Nadu", "addr:subdistrict": "Ambattur", "amenity": "hospital", "healthcare": "hospital", "name": "Firm Hospital", "source": "OpenGovernmentData"}}, {"type": "node", "id": 7252333406, "lat": 13.0535089, "lon": 80.2195494, "tags": {"addr:block": "Chennai Zone Ix", "addr:district": "Chennai", "addr:full": "Near Power House, Kodambakkam, Vellala Street", "addr:postcode": "600024", "addr:state": "Tamil Nadu", "amenity": "hospital", "healthcare": "hospital", "name": "The Best Hospital Private Ltd", "source": "OpenGovernmentData"}}, {"type": "node", "id": 7252333407, "lat": 13.0887, "lon": 80.256712, "tags": {"addr:block": "Chennai Zone Vi", "addr:district": "Chennai", "addr:full": "Purasaiwalkaam, Kariyappa Street", "addr:postcode": "600007", "addr:state": "Tamil Nadu", "amenity": "hospital", "healthcare": "hospital", "name": "Chennai Corporation Hospital", "source": "OpenGovernmentData"}}, {"type": "node", "id": 7252333409, "lat": 13.060986, "lon": 80.2747981, "tags": {"addr:block": "Chennai Zone Ix", "addr:district": "Chennai", "addr:full": "Near V.House Bus Stop, Icce Hpuse, Dr.Bescent Road", "addr:postcode": "600005", "addr:state": "Tamil Nadu", "amenity": "hospital", "healthcare": "hospital", "name": "Triplicane Government Hospital", "source": "OpenGovernmentData"}}, {"type": "node", "id": 7255706468, "lat": 13.0561828, "lon": 80.2478331, "tags": {"addr:district": "Chennai", "addr:full": "Tirumurthy Nagar, Nungambakkam, Chennai", "addr:postcode": "600034", "addr:state": "Tamil Nadu", "amenity": "hospital", "healthcare": "hospital", "name": "SIMS Hospital", "source": "Local Knowledge"}}, {"type": "node", "id": 7257421540, "lat": 13.0319129, "lon": 80.2099892, "tags": {"addr:block": "Chennai Zone X", "addr:district": "Chennai", "addr:full": "Next To Ashok Nagar Bus Statnd, Ashok Nagar, 2Nd Avenue", "addr:postcode": "600083", "addr:state": "Tamil Nadu", "amenity": "hospital", "healthcare": "hospital", "name": "Sunrays Laproscopic Centre", "source": "OpenGovernmentData"}}, {"type": "node", "id": 7257421557, "lat": 13.0312006, "lon": 80.2511993, "tags": {"addr:block": "Chennai Zone Ix", "addr:district": "Chennai", "addr:full": "Alwarpet Signal, Alwerpet, T.T..K Road", "addr:postcode": "600018", "addr:state": "Tamil Nadu", "amenity": "hospital", "healthcare": "hospital", "name": "Motherhood Hospital", "source": "OpenGovernmentData"}}, {"type": "node", "id": 7257421569, "lat": 13.0374624, "lon": 80.2389389, "tags": {"addr:block": "Chennai Zone X", "addr:district": "Chennai", "addr:full": "No:1, Raj Palace Hotel (Opp), T. Nagar, Crescent Park St", "addr:postcode": "600017", "addr:state": "Tamil Nadu", "amenity": "hospital", "check_date": "2025-11-21", "healthcare": "hospital", "name": "Gunasekaran Hospitals Pvt.Ltd", "source": "OpenGovernmentData"}}, {"type": "node", "id": 7257421583, "lat": 13.03968, "lon": 80.21204, "tags": {"addr:block": "Chennai Zone X", "addr:district": "Chennai", "addr:full": "No: 46, 1St Avenue, Opp To Canara Bank & Andhra Bank, Ashok Nagar, Chennai", "addr:postcode": "600083", "addr:state": "Tamil Nadu", "amenity": "hospital", "healthcare": "hospital", "name": "Kumaran Specialities Hospital", "source": "OpenGovernmentData"}}, {"type": "node", "id": 7257421593, "lat": 13.034922, "lon": 80.2465468, "tags": {"addr:block": "Chennai Zone Ix", "addr:district": "Chennai", "addr:full": "Suthamal Extension, Teynampet, First Main Road", "addr:postcode": "600018", "addr:state": "Tamil Nadu", "amenity": "hospital", "healthcare": "hospital", "name": "Genesis Womens Hospital", "source": "OpenGovernmentData"}}, {"type": "node", "id": 7257421596, "lat": 13.0342203, "lon": 80.2398192, "tags": {"addr:block": "Chennai Zone Ix", "addr:district": "Chennai", "addr:full": "New No: 12, Old No:29, Behind Dakshina Hindi Prachara Sabha, T. Nagar, Hindi Prachara Sabha St", "addr:postcode": "600017", "addr:state": "Tamil Nadu", "amenity": "hospital", "healthcare": "hospital", "name": "Radhatri Nethralaya", "source": "OpenGovernmentData"}}, {"type": "node", "id": 7257421601, "lat": 13.038362, "lon": 80.2572398, "tags": {"addr:block": "Chennai Zone Ix", "addr:district": "Chennai", "addr:full": "Cit Colony, Alwarpet", "addr:postcode": "600018", "addr:state": "Tamil Nadu", "amenity": "hospital", "healthcare": "hospital", "name": "Kavery Hospital", "source": "OpenGovernmentData"}}, {"type": "node", "id": 7257421602, "lat": 13.0298989, "lon": 80.2261208, "tags": {"addr:block": "Chennai Zone Xiii", "addr:district": "Chennai", "addr:full": "Kannammapet, Cit Nagar, Chennai", "addr:postcode": "600017", "addr:state": "Tamil Nadu", "amenity": "hospital", "healthcare": "hospital", "name": "Kanamapet Government Hospital", "source": "OpenGovernmentData"}}, {"type": "node", "id": 7257421603, "lat": 13.037967, "lon": 80.2162727, "tags": {"addr:block": "Chennai Zone X", "addr:district": "Chennai", "addr:full": "No.39, Ashok Nagar, 7Th Avenue", "addr:postcode": "600083", "addr:state": "Tamil Nadu", "amenity": "hospital", "healthcare": "hospital", "name": "Sri Sai Krs Hospital", "source": "OpenGovernmentData"}}, {"type": "node", "id": 7320948885, "lat": 13.0753606, "lon": 80.21879, "tags": {"amenity": "hospital", "healthcare": "hospital", "name:en": "Unani sidha ayurvedha in patient block"}}, {"type": "node", "id": 7823415033, "lat": 13.041251, "lon": 80.267354, "tags": {"addr:district": "Chennai", "addr:full": "Mylapore, Chennai", "addr:postcode": "600004", "addr:state": "Tamil Nadu", "amenity": "hospital", "healthcare": "hospital", "name": "Accu Hospital", "source": "Local Knowledge"}}, {"type": "node", "id": 7823415037, "lat": 13.0512111, "lon": 80.273209, "tags": {"addr:district": "Chennai", "addr:full": "Sudandira Nagar, Royapettah", "addr:postcode": "600014", "addr:state": "Tamil Nadu", "amenity": "hospital", "healthcare": "hospital", "name": "Kalyani Hospital", "source": "Local Knowledge"}}, {"type": "node", "id": 7823415048, "lat": 13.0385371, "lon": 80.2581929, "tags": {"addr:district": "Chennai", "addr:full": "Mylapore, Chennai", "addr:postcode": "600004", "addr:state": "Tamil Nadu", "amenity": "hospital", "healthcare": "hospital", "name": "Triveni Hospital", "source": "Local Knowledge"}}, {"type": "node", "id": 7823415059, "lat": 13.0490602, "lon": 80.2747953, "tags": {"addr:district": "Chennai", "addr:postcode": "600014", "addr:state": "Tamil Nadu", "amenity": "hospital", "healthcare": "hospital", "name": "Vasantha Hospital", "source": "Local Knowledge"}}, {"type": "node", "id": 7823415061, "lat": 13.0454703, "lon": 80.2668731, "tags": {"addr:district": "Chennai", "addr:full": "Royapettah, Chennai", "addr:postcode": "600004", "addr:state": "Tamil Nadu", "amenity": "hospital", "healthcare": "hospital", "name": "Orthomed Hospital", "source": "Local Knowledge"}}, {"type": "node", "id": 7823415083, "lat": 13.0436591, "lon": 80.2639406, "tags": {"addr:district": "Chennai", "addr:postcode": "600004", "addr:state": "Tamil Nadu", "amenity": "hospital", "healthcare": "hospital", "name": "Saanvi Fertility Centre Urology and Stone Centre", "source": "Local Knowledge"}}, {"type": "node", "id": 7823415084, "lat": 13.0528771, "lon": 80.2727865, "tags": {"addr:district": "Chennai", "addr:full": "Mirsahibpet, Royapettah", "addr:postcode": "600014", "addr:state": "Tamil Nadu", "amenity": "hospital", "healthcare": "hospital", "name": "The Crescent Hospital", "source": "Local Knowledge"}}, {"type": "node", "id": 7823415087, "lat": 13.0546321, "lon": 80.2774772, "tags": {"addr:district": "Chennai", "addr:full": "Narayana Krishnaraja Puram", "addr:postcode": "600005", "addr:state": "Tamil Nadu", "amenity": "hospital", "healthcare": "hospital", "name": "Syma Hospital", "source": "Local Knowledge"}}, {"type": "node", "id": 7823415088, "lat": 13.0547617, "lon": 80.2756509, "tags": {"addr:district": "Chennai", "addr:full": "Narayana Krishnaraja Puram, Triplicane", "addr:postcode": "600005", "addr:state": "Tamil Nadu", "amenity": "hospital", "healthcare": "hospital", "name": "Sri Parthasarathy Hospital", "source": "Local Knowledge"}}, {"type": "node", "id": 7823776196, "lat": 13.0549375, "lon": 80.2068588, "tags": {"addr:district": "Chennai", "addr:full": "Vadapalani, Chennai", "addr:postcode": "600026", "addr:state": "Tamil Nadu", "amenity": "hospital", "healthcare": "hospital", "name": "R.S. Hospital", "source": "Local Knowledge"}}, {"type": "node", "id": 7823776209, "lat": 13.0553167, "lon": 80.2012868, "tags": {"addr:district": "Chennai", "addr:full": "Shanthi Nagar, Annamalai Colony, Chennai", "addr:postcode": "600093", "addr:state": "Tamil Nadu", "amenity": "hospital", "healthcare": "hospital", "name": "C.M. Hospital", "source": "Local Knowledge"}}, {"type": "node", "id": 7823776213, "lat": 13.051996, "lon": 80.204702, "tags": {"addr:district": "Chennai", "addr:full": "Vadapalani, Chennai", "addr:postcode": "600094", "addr:state": "Tamil Nadu", "amenity": "hospital", "healthcare": "hospital", "name": "Shali Day & Night Hospital", "source": "Local Knowledge"}}, {"type": "node", "id": 7823776215, "lat": 13.051051, "lon": 80.243818, "tags": {"addr:district": "Chennai", "addr:postcode": "600017", "addr:state": "Tamil Nadu", "amenity": "hospital", "healthcare": "hospital", "name": "Koncept Hospitals", "source": "Local Knowledge"}}, {"type": "node", "id": 7823776217, "lat": 13.0520108, "lon": 80.2076585, "tags": {"addr:district": "Chennai", "addr:full": "Vadapalani, Chennai", "addr:postcode": "600026", "addr:state": "Tamil Nadu", "amenity": "hospital", "healthcare": "hospital", "name": "Diawin Multi Speciality Siddha Hospital", "source": "Local Knowledge"}}, {"type": "node", "id": 7823776221, "lat": 13.0554543, "lon": 80.2477343, "tags": {"addr:district": "Chennai", "addr:full": "Tirumurthy Nagar, Nungambakkam, Chennai", "addr:postcode": "600034", "addr:state": "Tamil Nadu", "amenity": "hospital", "healthcare": "hospital", "name": "G G Hospital", "source": "Local Knowledge"}}, {"type": "node", "id": 7823776223, "lat": 13.0616711, "lon": 80.2434943, "tags": {"addr:district": "Chennai", "addr:full": "Tirumurthy Nagar, Nungambakkam, Chennai", "addr:postcode": "600034", "addr:state": "Tamil Nadu", "amenity": "hospital", "healthcare": "hospital", "name": "K R S Hospitals", "source": "Local Knowledge"}}, {"type": "node", "id": 7823776225, "lat": 13.0616367, "lon": 80.243704, "tags": {"addr:district": "Chennai", "addr:full": "Seetha Nagar, Nungambakkam, Chennai", "addr:postcode": "600034", "addr:state": "Tamil Nadu", "amenity": "hospital", "healthcare": "hospital", "name": "Sterling Hospitals", "source": "Local Knowledge"}}, {"type": "node", "id": 7823776227, "lat": 13.0516365, "lon": 80.1939117, "tags": {"addr:district": "Chennai", "addr:full": "Swarnambigai Nagar, Virugambakkam, Chennai", "addr:postcode": "600093", "addr:state": "Tamil Nadu", "amenity": "hospital", "healthcare": "hospital", "name": "Lily Shantha Hospital", "source": "Local Knowledge"}}, {"type": "node", "id": 7823776231, "lat": 13.0594426, "lon": 80.2459459, "tags": {"addr:district": "Chennai", "addr:full": "Tirumurthy Nagar, Nungambakkam, Chennai", "addr:postcode": "600034", "addr:state": "Tamil Nadu", "amenity": "hospital", "healthcare": "hospital", "name": "Dr. Maibbar Hospital", "source": "Local Knowledge"}}, {"type": "node", "id": 7823776233, "lat": 13.0539266, "lon": 80.1991968, "tags": {"addr:district": "Chennai", "addr:full": "Annamalai Colony, Chennai", "addr:postcode": "600093", "addr:state": "Tamil Nadu", "amenity": "hospital", "healthcare": "hospital", "name": "Swastik Hospital", "source": "Local Knowledge"}}, {"type": "node", "id": 7823776253, "lat": 13.0514652, "lon": 80.2031882, "tags": {"addr:district": "Chennai", "addr:full": "Bharathi Nagar, Taramani, Chennai", "addr:postcode": "600113", "addr:state": "Tamil Nadu", "amenity": "hospital", "healthcare": "hospital", "name": "Arun Hospital", "source": "Local Knowledge"}}, {"type": "node", "id": 7823776254, "lat": 13.0538214, "lon": 80.1989274, "tags": {"addr:district": "Chennai", "addr:full": "Virugambakkam, Chennai", "addr:postcode": "600093", "addr:state": "Tamil Nadu", "amenity": "hospital", "healthcare": "hospital", "name": "Krishna Geetham Vaidyasala", "source": "Local Knowledge"}}, {"type": "node", "id": 7824965206, "lat": 13.0802093, "lon": 80.2522439, "tags": {"addr:district": "Chennai", "addr:full": "Chennai", "addr:postcode": "600084", "addr:state": "Tamil Nadu", "amenity": "hospital", "healthcare": "hospital", "name": "Agm Hospital", "source": "Local Knowledge"}}, {"type": "node", "id": 7824965209, "lat": 13.0886474, "lon": 80.2416011, "tags": {"addr:district": "Chennai", "addr:full": "Sanyasipuram, Kilpauk, Chennai", "addr:postcode": "600010", "addr:state": "Tamil Nadu", "amenity": "hospital", "healthcare": "hospital", "name": "Dr. Sambandam Eye Hospital", "source": "Local Knowledge"}}, {"type": "node", "id": 7824965211, "lat": 13.0828855, "lon": 80.2709938, "tags": {"addr:district": "Chennai", "addr:postcode": "600003", "addr:state": "Tamil Nadu", "amenity": "hospital", "healthcare": "hospital", "name": "Sugumar Hospital", "source": "Local Knowledge"}}, {"type": "node", "id": 7824965213, "lat": 13.0888843, "lon": 80.2418555, "tags": {"addr:district": "Chennai", "addr:full": "Kilpauk, Chennai", "addr:postcode": "600010", "addr:state": "Tamil Nadu", "amenity": "hospital", "healthcare": "hospital", "name": "Ranjith Hospital", "source": "Local Knowledge"}}, {"type": "node", "id": 7824965216, "lat": 13.0704319, "lon": 80.2421491, "tags": {"addr:district": "Chennai", "addr:full": "Chetpet, Chennai", "addr:postcode": "600031", "addr:state": "Tamil Nadu", "amenity": "hospital", "healthcare": "hospital", "name": "Mythili Hospitals", "source": "Local Knowledge"}}, {"type": "node", "id": 7824965221, "lat": 13.0746638, "lon": 80.2537976, "tags": {"addr:district": "Chennai", "addr:full": "Egmore, Chennai", "addr:postcode": "600008", "addr:state": "Tamil Nadu", "amenity": "hospital", "healthcare": "hospital", "name": "Santosham Chest Hospital", "source": "Local Knowledge"}}, {"type": "node", "id": 7824965222, "lat": 13.0715459, "lon": 80.2622655, "tags": {"addr:district": "Chennai", "addr:full": "Komaleeswaranpet, Egmore, Chennai", "addr:postcode": "600002", "addr:state": "Tamil Nadu", "amenity": "hospital", "healthcare": "hospital", "name": "Tune 32 Hospital", "source": "Local Knowledge"}}, {"type": "node", "id": 7824965223, "lat": 13.0771575, "lon": 80.2450769, "tags": {"addr:district": "Chennai", "addr:full": "Chetpet, Chennai", "addr:postcode": "600031", "addr:state": "Tamil Nadu", "amenity": "hospital", "healthcare": "hospital", "name": "Pandalai Hospital", "source": "Local Knowledge"}}, {"type": "node", "id": 7824965225, "lat": 13.0786423, "lon": 80.2540859, "tags": {"addr:district": "Chennai", "addr:full": "Chennai", "addr:postcode": "600084", "addr:state": "Tamil Nadu", "amenity": "hospital", "healthcare": "hospital", "name": "Centre For Gastro Esophageal Disorders", "source": "Local Knowledge"}}, {"type": "node", "id": 7824965227, "lat": 13.0807479, "lon": 80.2340062, "tags": {"addr:district": "Chennai", "addr:full": "Kilpauk, Chennai", "addr:postcode": "600010", "addr:state": "Tamil Nadu", "amenity": "hospital", "healthcare": "hospital", "name": "Be Well Hospital", "source": "Local Knowledge"}}, {"type": "node", "id": 7824965229, "lat": 13.0812406, "lon": 80.2506114, "tags": {"addr:district": "Chennai", "addr:full": "Purasaiwakkam, Chennai", "addr:postcode": "600084", "addr:state": "Tamil Nadu", "amenity": "hospital", "healthcare": "hospital", "name": "Puttur Kattu Hospital", "source": "Local Knowledge"}}, {"type": "node", "id": 7824965232, "lat": 13.0849581, "lon": 80.2669979, "tags": {"addr:district": "Chennai", "addr:full": "Periyamet, Chennai", "addr:postcode": "600003", "addr:state": "Tamil Nadu", "amenity": "hospital", "healthcare": "hospital", "name": "An-Noor Eye Hospital", "source": "Local Knowledge"}}, {"type": "node", "id": 7824965237, "lat": 13.0793874, "lon": 80.2473996, "tags": {"addr:district": "Chennai", "addr:full": "Kilpauk, Chennai", "addr:postcode": "600031", "addr:state": "Tamil Nadu", "amenity": "hospital", "healthcare": "hospital", "name": "Herbzalive Ayurveda Hospital", "source": "Local Knowledge"}}, {"type": "node", "id": 7824965238, "lat": 13.0826737, "lon": 80.2705905, "tags": {"addr:district": "Chennai", "addr:full": "Chennai", "addr:postcode": "600003", "addr:state": "Tamil Nadu", "amenity": "hospital", "healthcare": "hospital", "name": "Meta Hospital", "source": "Local Knowledge"}}, {"type": "node", "id": 7824965240, "lat": 13.0737332, "lon": 80.2268354, "tags": {"addr:district": "Chennai", "addr:full": "Shenoy Nagar, Aminjikarai, Chennai", "addr:postcode": "600029", "addr:state": "Tamil Nadu", "amenity": "hospital", "healthcare": "hospital", "name": "Dr. H. Yogish Hospital", "source": "Local Knowledge"}}, {"type": "node", "id": 7824965241, "lat": 13.0713435, "lon": 80.2625981, "tags": {"addr:district": "Chennai", "addr:full": "Egmore, Chennai", "addr:postcode": "600008", "addr:state": "Tamil Nadu", "amenity": "hospital", "healthcare": "hospital", "name": "Neuro Hospital", "source": "Local Knowledge"}}, {"type": "node", "id": 7824965243, "lat": 13.0833684, "lon": 80.234299, "tags": {"addr:district": "Chennai", "addr:full": "Kilpauk, Chennai", "addr:postcode": "600010", "addr:state": "Tamil Nadu", "amenity": "hospital", "healthcare": "hospital", "name": "Murugan Hospitals", "source": "Local Knowledge"}}, {"type": "node", "id": 7824965244, "lat": 13.0811868, "lon": 80.2520834, "tags": {"addr:district": "Chennai", "addr:full": "Purasaiwakkam, Chennai", "addr:postcode": "600084", "addr:state": "Tamil Nadu", "amenity": "hospital", "healthcare": "hospital", "name": "Amrit Hospital", "source": "Local Knowledge"}}, {"type": "node", "id": 7824965245, "lat": 13.071832, "lon": 80.260048, "tags": {"addr:district": "Chennai", "addr:full": "Egmore, Chennai", "addr:postcode": "600008", "addr:state": "Tamil Nadu", "amenity": "hospital", "healthcare": "hospital", "name": "Mercury Hospital", "source": "Local Knowledge"}}, {"type": "node", "id": 7824965246, "lat": 13.0850158, "lon": 80.2699983, "tags": {"addr:district": "Chennai", "addr:full": "Poongavanapuram, Chennai", "addr:postcode": "600007", "addr:state": "Tamil Nadu", "amenity": "hospital", "healthcare": "hospital", "name": "Naz Unani Hospital", "source": "Local Knowledge"}}, {"type": "node", "id": 7824965249, "lat": 13.0761303, "lon": 80.2694819, "tags": {"addr:district": "Chennai", "addr:full": "Chintadripet, Chennai", "addr:postcode": "641301", "addr:state": "Tamil Nadu", "amenity": "hospital", "healthcare": "hospital", "name": "S.K. Selvam Hospital", "source": "Local Knowledge"}}, {"type": "node", "id": 7824965252, "lat": 13.0825738, "lon": 80.2710331, "tags": {"addr:district": "Chennai", "addr:full": "Periyamet, Chennai", "addr:postcode": "600003", "addr:state": "Tamil Nadu", "amenity": "hospital", "healthcare": "hospital", "name": "Apollo Hospital", "source": "Local Knowledge"}}, {"type": "node", "id": 7824965254, "lat": 13.0813334, "lon": 80.2553965, "tags": {"addr:district": "Chennai", "addr:full": "Purasaiwakkam, Chennai", "addr:postcode": "600084", "addr:state": "Tamil Nadu", "amenity": "hospital", "healthcare": "hospital", "name": "Kola Saraswathi Agarwal Samaj Health Centre", "source": "Local Knowledge"}}, {"type": "node", "id": 7824965258, "lat": 13.0844036, "lon": 80.2454945, "tags": {"addr:district": "Chennai", "addr:full": "Kilpauk, Chennai", "addr:postcode": "600010", "addr:state": "Tamil Nadu", "amenity": "hospital", "healthcare": "hospital", "name": "Demo Hospital", "source": "Local Knowledge"}}, {"type": "node", "id": 7824965259, "lat": 13.0793157, "lon": 80.2290477, "tags": {"addr:district": "Chennai", "addr:full": "Venkatasamy Nagar, Shenoy Nagar, Chennai", "addr:postcode": "600030", "addr:state": "Tamil Nadu", "amenity": "hospital", "healthcare": "hospital", "name": "Gremaltes Hospital", "source": "Local Knowledge"}}, {"type": "node", "id": 7824965260, "lat": 13.0814203, "lon": 80.2333756, "tags": {"addr:district": "Chennai", "addr:full": "Thandavaraya, Kilpauk, Chennai", "addr:postcode": "600030", "addr:state": "Tamil Nadu", "amenity": "hospital", "healthcare": "hospital", "name": "Srl Hospital", "source": "Local Knowledge"}}, {"type": "node", "id": 7824965262, "lat": 13.0811497, "lon": 80.2620778, "tags": {"addr:district": "Chennai", "addr:full": "Vepery, Chennai", "addr:postcode": "600007", "addr:state": "Tamil Nadu", "amenity": "hospital", "healthcare": "hospital", "name": "Periyar Maniammai Hospital", "source": "Local Knowledge"}}, {"type": "node", "id": 7824965264, "lat": 13.074301, "lon": 80.267569, "tags": {"addr:district": "Chennai", "addr:full": "Chintadripet, Chennai", "addr:postcode": "600002", "addr:state": "Tamil Nadu", "amenity": "hospital", "healthcare": "hospital", "name": "Red Cross Hospital", "source": "Local Knowledge"}}, {"type": "node", "id": 7824965266, "lat": 13.0768584, "lon": 80.2339377, "tags": {"addr:district": "Chennai", "addr:full": "Alagappa Nagar, Adambakkam, Chennai", "addr:postcode": "600031", "addr:state": "Tamil Nadu", "amenity": "hospital", "healthcare": "hospital", "name": "Ponmalligai Hospitals", "source": "Local Knowledge"}}, {"type": "node", "id": 7825002782, "lat": 13.113594, "lon": 80.2394367, "tags": {"addr:district": "Chennai", "addr:full": "Perambur, Chennai", "addr:postcode": "600011", "addr:state": "Tamil Nadu", "amenity": "hospital", "healthcare": "hospital", "name": "GK Hospital", "source": "Local Knowledge"}}, {"type": "node", "id": 7825009792, "lat": 13.1102652, "lon": 80.2418486, "tags": {"addr:district": "Chennai", "addr:full": "Perambur, Chennai", "addr:postcode": "600011", "addr:state": "Tamil Nadu", "amenity": "hospital", "healthcare": "hospital", "name": "Dr. A C Aruldas Hospital", "source": "Local Knowledge"}}, {"type": "node", "id": 7825009815, "lat": 13.1093369, "lon": 80.2312849, "tags": {"addr:district": "Chennai", "addr:full": "Perambur, Chennai", "addr:postcode": "600082", "addr:state": "Tamil Nadu", "amenity": "hospital", "healthcare": "hospital", "name": "Government Hospital", "source": "Local Knowledge"}}, {"type": "node", "id": 7825009817, "lat": 13.1131038, "lon": 80.2404022, "tags": {"addr:district": "Chennai", "addr:full": "Perambur, Chennai", "addr:postcode": "600011", "addr:state": "Tamil Nadu", "amenity": "hospital", "healthcare": "hospital", "name": "Sankar Eye Hospital", "source": "Local Knowledge"}}, {"type": "node", "id": 7825009819, "lat": 13.1101477, "lon": 80.2244516, "tags": {"addr:district": "Chennai", "addr:full": "Perambur, Chennai", "addr:postcode": "600082", "addr:state": "Tamil Nadu", "amenity": "hospital", "healthcare": "hospital", "name": "Niranjana Hospital", "source": "Local Knowledge"}}, {"type": "node", "id": 7825009820, "lat": 13.1148422, "lon": 80.2441515, "tags": {"addr:district": "Chennai", "addr:full": "Perambur, Chennai", "addr:postcode": "600039", "addr:state": "Tamil Nadu", "amenity": "hospital", "healthcare": "hospital", "name": "Parvatham Hospital", "source": "Local Knowledge"}}, {"type": "node", "id": 7825009824, "lat": 13.1106227, "lon": 80.2374461, "tags": {"addr:district": "Chennai", "addr:full": "Amrithammal Colony, Perambur, Chennai", "addr:postcode": "600011", "addr:state": "Tamil Nadu", "amenity": "hospital", "healthcare": "hospital", "name": "Bharani Hospital", "source": "Local Knowledge"}}, {"type": "node", "id": 8099947735, "lat": 13.0371216, "lon": 80.2013389, "tags": {"addr:street": "1/459, 31st St, Sector 6, K. K. Nagar, Chennai, Tamil Nadu 600078", "amenity": "hospital", "healthcare": "hospital", "name": "K.M. Nursing Home", "opening_hours": "24/7", "phone": "044 4353 0015"}}, {"type": "node", "id": 8108467017, "lat": 13.0487242, "lon": 80.2036274, "tags": {"addr:street": "Arunachalam St", "amenity": "hospital", "healthcare": "hospital", "name": "\u0b89\u0bb4\u0bc8\u0baa\u0bcd\u0baa\u0bbe\u0bb3\u0bbf \u0bae\u0bb0\u0bc1\u0ba4\u0bcd\u0ba4\u0bc1\u0bb5\u0bae\u0ba9\u0bc8", "name:en": "Uzhaippali hospital", "opening_hours": "Mo-Sa 09:00-21:00"}}, {"type": "node", "id": 8108591031, "lat": 13.026029, "lon": 80.212368, "tags": {"addr:street": "B 50, Gangai Amman Koil St, Jawahar Nagar, West Jafferkhanpet, Chennai, Tamil Nadu 600083", "amenity": "hospital", "healthcare": "hospital", "name": "KS Bone and Joint Clinic - Ortho", "opening_hours": "Mo-Sa 10:00-13:00, 17:00-21:00; Su 10:00-13:00", "phone": "98842 83582", "website": "https://www.ksboneandjointortho.in/"}}, {"type": "node", "id": 8111861614, "lat": 13.0318828, "lon": 80.2103124, "tags": {"addr:street": "40, 11th Ave, Mettuppalayam, Ashok Nagar, Chennai, Tamil Nadu 600083", "amenity": "hospital", "healthcare": "hospital", "name": "Shens Multi-Speciality Hospital", "opening_hours": "24/7", "phone": "044 2471 5000", "website": "https://shens.in/"}}, {"type": "node", "id": 8291970836, "lat": 13.0799395, "lon": 80.2757167}, {"type": "node", "id": 8919334127, "lat": 13.079521, "lon": 80.2178797}, {"type": "node", "id": 8919334128, "lat": 13.079287, "lon": 80.217922}, {"type": "node", "id": 8919334129, "lat": 13.0789948, "lon": 80.2179246}, {"type": "node", "id": 8919334130, "lat": 13.0786569, "lon": 80.2179954}, {"type": "node", "id": 8935514615, "lat": 13.0439323, "lon": 80.2407095, "tags": {"amenity": "hospital", "healthcare": "hospital", "name": "Geri care hospital"}}, {"type": "node", "id": 9189419123, "lat": 13.096083, "lon": 80.238845, "tags": {"access": "private", "barrier": "gate"}}, {"type": "node", "id": 10161954838, "lat": 13.0393953, "lon": 80.2621409}, {"type": "node", "id": 10236494322, "lat": 13.1075515, "lon": 80.2855608}, {"type": "node", "id": 10271805421, "lat": 13.0972767, "lon": 80.1982422, "tags": {"addr:housenumber": "R/7a", "addr:street": "N Main Rd, Kailash Colony, Sector A, Anna Nagar West Extension, Chennai, Tamil Nadu 600101", "amenity": "hospital", "description": "A mental health centre and nonprofit organization based at Chennai, Tamil Nadu, offering a multidisciplinary, comprehensive range of psychiatric care and rehabilitation services", "email": "info@scarfindia.org; communications@scarfindia.org", "name": "Frame of Mind - SCARF Psychiatric Hospital", "opening_hours": "Mo, We-Sa 09:30-13:30", "phone": "+919150587361;04426151073; 04426153971", "speciality": "schizophrenia, psychiatry", "website": "https://www.scarfindia.org/"}}, {"type": "node", "id": 10294576078, "lat": 13.040756, "lon": 80.2146876, "tags": {"addr:city": "Chennai", "addr:housenumber": "No. 33", "addr:postcode": "600083", "addr:street": "35th Street, Opp JFA Showroom, Ashok Nagar", "amenity": "hospital", "healthcare": "hospital", "name": "Vasantha Memorial Cancer Centre", "phone": "+91 9791048379"}}, {"type": "node", "id": 10933682533, "lat": 13.0983333, "lon": 80.2800134}, {"type": "node", "id": 10933682534, "lat": 13.098345, "lon": 80.279833}, {"type": "node", "id": 10933682536, "lat": 13.0983329, "lon": 80.2800191}, {"type": "node", "id": 10933682537, "lat": 13.0984355, "lon": 80.2800262}, {"type": "node", "id": 10933682538, "lat": 13.0984545, "lon": 80.2797356}, {"type": "node", "id": 10933682541, "lat": 13.0984468, "lon": 80.2798547}, {"type": "node", "id": 10933682556, "lat": 13.098349, "lon": 80.2797718}, {"type": "node", "id": 10967392142, "lat": 13.091011, "lon": 80.2815096}, {"type": "node", "id": 10967392143, "lat": 13.0910492, "lon": 80.2812471}, {"type": "node", "id": 10967392145, "lat": 13.0911701, "lon": 80.2812674}, {"type": "node", "id": 10967423628, "lat": 13.0910745, "lon": 80.2812508}, {"type": "node", "id": 10967423639, "lat": 13.0911527, "lon": 80.2812649}, {"type": "node", "id": 11032908313, "lat": 13.0547671, "lon": 80.2644809}, {"type": "node", "id": 11032908314, "lat": 13.0547329, "lon": 80.2645496}, {"type": "node", "id": 11032908315, "lat": 13.0542494, "lon": 80.2645469}, {"type": "node", "id": 11036721544, "lat": 13.0705885, "lon": 80.276014, "tags": {"access": "private", "barrier": "gate"}}, {"type": "node", "id": 11039950219, "lat": 13.0674323, "lon": 80.2731205}, {"type": "node", "id": 11039950220, "lat": 13.0677852, "lon": 80.2730903}, {"type": "node", "id": 11039950221, "lat": 13.0678419, "lon": 80.2733351}, {"type": "node", "id": 11039950223, "lat": 13.0685207, "lon": 80.27383}, {"type": "node", "id": 11039950224, "lat": 13.0683979, "lon": 80.2740526}, {"type": "node", "id": 11039950225, "lat": 13.0684867, "lon": 80.2741277}, {"type": "node", "id": 11039950226, "lat": 13.0683143, "lon": 80.2743959}, {"type": "node", "id": 11039950227, "lat": 13.0687036, "lon": 80.2746722}, {"type": "node", "id": 11039950228, "lat": 13.0705318, "lon": 80.2760979}, {"type": "node", "id": 11039950229, "lat": 13.0699211, "lon": 80.2756686}, {"type": "node", "id": 11039950230, "lat": 13.0699708, "lon": 80.275607}, {"type": "node", "id": 11039950231, "lat": 13.0696154, "lon": 80.2753441}, {"type": "node", "id": 11039950232, "lat": 13.0698351, "lon": 80.2750246}, {"type": "node", "id": 11039950235, "lat": 13.0711674, "lon": 80.2748144}, {"type": "node", "id": 11039950236, "lat": 13.0710759, "lon": 80.2748305}, {"type": "node", "id": 11039950240, "lat": 13.0708303, "lon": 80.2743986}, {"type": "node", "id": 11039950241, "lat": 13.0709218, "lon": 80.2745005}, {"type": "node", "id": 11071527636, "lat": 13.084556, "lon": 80.2130458, "tags": {"amenity": "hospital", "healthcare": "hospital", "name": "KHM"}}, {"type": "node", "id": 11144189731, "lat": 13.105483, "lon": 80.2823031}, {"type": "node", "id": 11144189748, "lat": 13.1039904, "lon": 80.2841368}, {"type": "node", "id": 11505576821, "lat": 13.1034654, "lon": 80.2832785}, {"type": "node", "id": 11505576824, "lat": 13.1034837, "lon": 80.283228}, {"type": "node", "id": 11505577021, "lat": 13.1051272, "lon": 80.2834415}, {"type": "node", "id": 11505577022, "lat": 13.1051523, "lon": 80.2832474}, {"type": "node", "id": 11533428360, "lat": 13.1002774, "lon": 80.2838191}, {"type": "node", "id": 11533428361, "lat": 13.100168, "lon": 80.2838024}, {"type": "node", "id": 11533428362, "lat": 13.1001843, "lon": 80.2837}, {"type": "node", "id": 11533428363, "lat": 13.1002721, "lon": 80.2837115}, {"type": "node", "id": 11533428364, "lat": 13.1002901, "lon": 80.2837346}, {"type": "node", "id": 11633690559, "lat": 13.0362086, "lon": 80.2571464}, {"type": "node", "id": 11633690560, "lat": 13.0361798, "lon": 80.2574055}, {"type": "node", "id": 11738634212, "lat": 13.0985215, "lon": 80.2795235}, {"type": "node", "id": 11738634213, "lat": 13.0985067, "lon": 80.2796111}, {"type": "node", "id": 11738634214, "lat": 13.0985829, "lon": 80.2796414}, {"type": "node", "id": 11738634215, "lat": 13.0985795, "lon": 80.2797126}, {"type": "node", "id": 11738634216, "lat": 13.0984487, "lon": 80.2796951}, {"type": "node", "id": 11738634217, "lat": 13.0984851, "lon": 80.2795083}, {"type": "node", "id": 11741347968, "lat": 13.0570554, "lon": 80.2457535}, {"type": "node", "id": 11782229708, "lat": 13.0662887, "lon": 80.2505496}, {"type": "node", "id": 11782229711, "lat": 13.0666592, "lon": 80.2506492}, {"type": "node", "id": 11887228742, "lat": 13.0690925, "lon": 80.2727178}, {"type": "node", "id": 11948456076, "lat": 13.0701887, "lon": 80.2589498}, {"type": "node", "id": 11948456077, "lat": 13.0705366, "lon": 80.2594852}, {"type": "node", "id": 11948456078, "lat": 13.0706576, "lon": 80.2597807}, {"type": "node", "id": 11948456082, "lat": 13.0709084, "lon": 80.2602221}, {"type": "node", "id": 12146055740, "lat": 13.081276, "lon": 80.2631177, "tags": {"amenity": "hospital", "healthcare": "hospital", "name": "Commissioner of Police office, Greater chennai Police"}}, {"type": "node", "id": 12167706527, "lat": 13.0767428, "lon": 80.2242628}, {"type": "node", "id": 12167706528, "lat": 13.0767193, "lon": 80.2248502}, {"type": "node", "id": 12167706529, "lat": 13.0763901, "lon": 80.2243298}, {"type": "node", "id": 12367559381, "lat": 13.0920988, "lon": 80.2588062, "tags": {"amenity": "hospital", "healthcare": "hospital"}}, {"type": "node", "id": 12619467462, "lat": 13.1002212, "lon": 80.2400853, "tags": {"amenity": "hospital", "name": "Vadivelu Hospital"}}, {"type": "node", "id": 12901254877, "lat": 13.0818852, "lon": 80.2780073}, {"type": "node", "id": 12901254891, "lat": 13.0814117, "lon": 80.2791987}, {"type": "node", "id": 12951914556, "lat": 13.1046084, "lon": 80.2867801}, {"type": "node", "id": 12956293766, "lat": 13.0753327, "lon": 80.2182223}, {"type": "node", "id": 12956293767, "lat": 13.0752045, "lon": 80.2183355}, {"type": "node", "id": 12956293768, "lat": 13.0750722, "lon": 80.218587}, {"type": "node", "id": 12956352248, "lat": 13.0757861, "lon": 80.2436501}, {"type": "node", "id": 12956352249, "lat": 13.0765243, "lon": 80.2436968}, {"type": "node", "id": 12956352250, "lat": 13.0766022, "lon": 80.2440567}, {"type": "node", "id": 12956352251, "lat": 13.0768398, "lon": 80.2440987}, {"type": "node", "id": 12956352252, "lat": 13.0768015, "lon": 80.2446134}, {"type": "node", "id": 12956352253, "lat": 13.0778029, "lon": 80.2446565}, {"type": "node", "id": 12956352254, "lat": 13.0775767, "lon": 80.2429747}, {"type": "node", "id": 12956435037, "lat": 13.067664, "lon": 80.273251}, {"type": "node", "id": 12956435039, "lat": 13.0678551, "lon": 80.273148}, {"type": "node", "id": 12964083489, "lat": 13.0786249, "lon": 80.2192523}, {"type": "node", "id": 12964083490, "lat": 13.0795908, "lon": 80.2178843}, {"type": "node", "id": 12964083491, "lat": 13.0795596, "lon": 80.2180171}, {"type": "node", "id": 12964083492, "lat": 13.0783953, "lon": 80.2194553}, {"type": "node", "id": 12964083493, "lat": 13.0782496, "lon": 80.2195548}, {"type": "node", "id": 12964083494, "lat": 13.0780073, "lon": 80.2193534}, {"type": "node", "id": 12964083495, "lat": 13.0775078, "lon": 80.2193061}, {"type": "node", "id": 12964098754, "lat": 13.0755654, "lon": 80.2195343}, {"type": "node", "id": 12969313990, "lat": 13.1077908, "lon": 80.2827799}, {"type": "node", "id": 12969313991, "lat": 13.1077491, "lon": 80.2827871}, {"type": "node", "id": 12969313992, "lat": 13.1077445, "lon": 80.2830454}, {"type": "node", "id": 12969313993, "lat": 13.1077973, "lon": 80.283039}, {"type": "node", "id": 13047649501, "lat": 13.0386137, "lon": 80.2626954}, {"type": "node", "id": 13131270243, "lat": 13.0770545, "lon": 80.2173212}, {"type": "node", "id": 13131270244, "lat": 13.0770613, "lon": 80.2176614}, {"type": "node", "id": 13131270245, "lat": 13.0768883, "lon": 80.2176614}, {"type": "node", "id": 13131270246, "lat": 13.0768984, "lon": 80.2173143}, {"type": "way", "id": 27618339, "nodes": [303284025, 303284026, 2269631507, 303284095, 2269631515, 2269631517, 8291970836, 2214509753, 2214509754, 303283976, 303283980, 6273945265, 303283984, 2482072924, 2482072927, 12901254877, 2482072931, 303284028, 12901254891, 303284031, 303284025], "tags": {"addr:block": "Chennai Zone Xi", "addr:district": "Chennai", "addr:full": "General Hospital Road, Central Railway Station, Park Town", "addr:postcode": "600003", "addr:state": "Tamil Nadu", "amenity": "hospital", "contact:mobile": "9436120190", "contact:phone": "04425305711;04425305000", "email": "dchsub@yahoo.co.in", "healthcare": "hospital", "name": "Rajiv Gandhi Government General Hospital", "name:etymology:wikidata": "Q4593", "name:hi": "\u0930\u093e\u091c\u0940\u0935 \u0917\u093e\u0901\u0927\u0940 \u0938\u0930\u0915\u093e\u0930 \u091c\u0928\u0930\u0932 \u0905\u0938\u094d\u092a\u0924\u093e\u0932", "name:ml": "\u0d30\u0d3e\u0d1c\u0d40\u0d35\u0d4d \u0d17\u0d3e\u0d28\u0d4d\u0d27\u0d3f \u0d38\u0d7c\u0d15\u0d4d\u0d15\u0d3e\u0d7c \u0d1c\u0d28\u0d31\u0d7d \u0d06\u0d36\u0d41\u0d2a\u0d24\u0d4d\u0d30\u0d3f", "name:ta": "\u0bb0\u0bbe\u0b9c\u0bc0\u0bb5\u0bcd \u0b95\u0bbe\u0ba8\u0bcd\u0ba4\u0bbf \u0b85\u0bb0\u0b9a\u0bc1 \u0baa\u0bca\u0ba4\u0bc1 \u0bae\u0bb0\u0bc1\u0ba4\u0bcd\u0ba4\u0bc1\u0bb5\u0bae\u0ba9\u0bc8", "opening_hours": "24/7", "operator:type": "government", "source": "OpenGovernmentData", "website": "https://www.mmc.tn.gov.in/", "wikidata": "Q5588842", "wikimedia_commons": "Category:Government General Hospital, Chennai", "wikipedia": "en:Government General Hospital, Chennai"}}, {"type": "way", "id": 28345285, "nodes": [311311305, 11144189731, 311311306, 311311307, 311311308, 603480861, 311311309, 12969313990, 12969313991, 12969313992, 12969313993, 311311310, 311311311, 2271836927, 311311312, 2269895061, 311311313, 10236494322, 311311314, 311311315, 311311316, 311311317, 2269895032, 12951914556, 311311318, 256346630, 311311305], "tags": {"amenity": "hospital", "healthcare": "hospital", "name": "Stanley Medical College and Hospital", "name:etymology:wikidata": "Q5539480", "name:ta": "\u0bb8\u0bcd\u0b9f\u0bbe\u0ba9\u0bcd\u0bb2\u0bbf \u0bae\u0bb0\u0bc1\u0ba4\u0bcd\u0ba4\u0bc1\u0bb5\u0b95\u0bcd \u0b95\u0bb2\u0bcd\u0bb2\u0bc2\u0bb0\u0bbf"}}, {"type": "way", "id": 28730499, "nodes": [315888313, 315888314, 315888315, 315888316, 315888317, 315888313], "tags": {"source": "OpenGovernmentData"}}, {"type": "way", "id": 28732032, "nodes": [11032908313, 2480866163, 315901215, 315901216, 315901217, 315901284, 315901219, 315901212, 315901213, 11032908315, 11032908314, 11032908313], "tags": {"source": "OpenGovernmentData"}}, {"type": "way", "id": 29116157, "nodes": [320286924, 320286929, 11948456076, 11948456077, 11948456078, 320286934, 11948456082, 320286953, 320286958, 320286924], "tags": {"amenity": "hospital", "healthcare": "hospital", "healthcare:speciality": "ophthalmology", "name": "Egmore Eye Hospital", "official_name": "Regional Institute of Ophthalmology and Government Ophthalmic Hospital", "wikidata": "Q7309083", "wikipedia": "en:Regional Institute of Ophthalmology and Government Ophthalmic Hospital, Chennai"}}, {"type": "way", "id": 30973308, "nodes": [344420292, 344420293, 736221807, 344420294, 344420296, 344420299, 344420300, 9189419123, 344420292], "tags": {"amenity": "hospital", "healthcare": "hospital", "name": "ESI Hospital", "operator": "Employees' State Insurance", "operator:short": "ESI", "operator:wikidata": "Q3595726", "operator:wikipedia": "hi:\u0915\u0930\u094d\u092e\u091a\u093e\u0930\u0940 \u0930\u093e\u091c\u094d\u200d\u092f \u092c\u0940\u092e\u093e \u0928\u093f\u0917\u092e"}}, {"type": "way", "id": 35312695, "nodes": [413916094, 413916095, 413916096, 413916097, 10161954838, 2196313744, 413916098, 413916099, 2196313733, 413916100, 2197093192, 13047649501, 413916101, 413916102, 413916390, 413916103, 2196313615, 413916094], "tags": {"addr:district": "Chennai", "addr:full": "Near Vivekananda College, Myloapore, Oliver Road", "addr:postcode": "600004", "addr:state": "Tamil Nadu", "addr:suburb": "Mylapore", "amenity": "hospital", "healthcare": "hospital", "name": "\u0baa\u0bc1\u0ba9\u0bbf\u0ba4 \u0b87\u0bb8\u0bcd\u0baa\u0bc7\u0bb2\u0bcd \u0bae\u0bb0\u0bc1\u0ba4\u0bcd\u0ba4\u0bc1\u0bb5\u0bae\u0ba9\u0bc8", "name:en": "St. Isabel's Hospital", "source": "OpenGovernmentData"}}, {"type": "way", "id": 47416302, "nodes": [6274342347, 11505577022, 11505577021, 311311603, 311311604, 311311605, 11144189748, 603499169, 603499165, 603499166, 11505576821, 11505576824, 6274342352, 6274342351, 6274342350, 6274342349, 6274342348, 6274342347], "tags": {"amenity": "hospital", "healthcare": "hospital", "name": "Stanley Medical College and Hospital", "name:etymology:wikidata": "Q5539480"}}, {"type": "way", "id": 48737654, "nodes": [618609794, 618609798, 618609797, 618609793, 618609795, 618609794], "tags": {"amenity": "hospital", "healthcare": "hospital"}}, {"type": "way", "id": 48741356, "nodes": [618641805, 618641795, 618641807, 618641823, 618641805], "tags": {"amenity": "hospital", "healthcare": "hospital", "name": "ICF Hospital"}}, {"type": "way", "id": 48753841, "nodes": [618736313, 618736292, 618736591, 618736596, 618736313], "tags": {"addr:district": "Chennai", "addr:full": "3rd Avenue Anna Nagar, Kilpauk", "addr:postcode": "600102", "addr:state": "Tamil Nadu", "amenity": "hospital", "healthcare": "hospital", "name": "Anna Nagar Government Hospital", "source": "OpenGovernmentData"}}, {"type": "way", "id": 59359967, "nodes": [344420294, 736221805, 736221806, 736221807, 344420294], "tags": {"amenity": "hospital", "healthcare": "hospital"}}, {"type": "way", "id": 100857284, "nodes": [1165550845, 12956293766, 12956293767, 12956293768, 1165550799, 12964098754, 1165550991, 1165550731, 1165550920, 12964083495, 1165550971, 12964083494, 12964083493, 12964083492, 12964083489, 12964083491, 12964083490, 8919334127, 8919334128, 8919334129, 8919334130, 1165550850, 1165550962, 1165550996, 1165550880, 1165550845], "tags": {"addr:street": "Anna Arch Road", "amenity": "hospital", "healthcare": "hospital", "landuse": "Hospital", "name": "\u0b85\u0bb1\u0bbf\u0b9e\u0bb0\u0bcd \u0b85\u0ba3\u0bcd\u0ba3\u0bbe \u0b85\u0bb0\u0b9a\u0bc1 \u0b87\u0ba8\u0bcd\u0ba4\u0bbf\u0baf,\u0bae\u0bb0\u0bc1\u0ba4\u0bcd\u0ba4\u0bc1\u0bb5\u0bae\u0ba9\u0bc8,\u0b85\u0bb0\u0bc1\u0bae\u0bcd\u0baa\u0bbe\u0b95\u0bcd\u0b95\u0bae\u0bcd,\u0b9a\u0bc6\u0ba9\u0bcd\u0ba9\u0bc8-106", "name:en": "Aringar anna goverment indian medicine hospital arumbakkam chennai", "name:etymology:wikidata": "Q138765", "opening_hours": "Mo-Su 07:30-12:00"}}, {"type": "way", "id": 125180726, "nodes": [1391028842, 1391028839, 2250346308, 1391028857, 1391028854, 1391028858, 2250346454, 2250346457, 370222369, 1391574198, 366738197, 372180644, 1391028842], "tags": {"addr:block": "Chennai Zone Xi", "addr:district": "Chennai", "addr:full": "Anna Main Rd, Bharathidasan Colony, West Jafferkhanpet, Chennai", "addr:postcode": "600083", "addr:state": "Tamil Nadu", "amenity": "hospital", "healthcare": "hospital", "name": "Govt Peripheral Hospital KK Nagar", "source": "OpenGovernmentData"}}, {"type": "way", "id": 133862451, "nodes": [1473027572, 1473027570, 1473027571, 1473027569, 1473027572], "tags": {"addr:district": "Chennai", "addr:full": "Chetpet, No.77, Harrington Road", "addr:postcode": "600031", "addr:state": "Tamil Nadu", "amenity": "hospital", "email": "info@pfrcivf.com", "emergency": "yes", "healthcare": "hospital", "name": "Prashanth Hospitals", "operator:type": "private", "source": "OpenGovernmentData", "website": "https://pfrcivf.com/"}}, {"type": "way", "id": 156240637, "nodes": [1685049623, 1685049624, 1685049552, 1685049551, 1685049570, 1685049581, 1685049586, 1685049590, 1685049619, 1685049623], "tags": {"addr:district": "Chennai", "addr:full": "No. 9, Murrays Gate Road, Alwarpet,Next To Jevnampet Post Office", "addr:postcode": "600018", "addr:state": "Tamil Nadu", "amenity": "hospital", "healthcare": "hospital", "name": "Udhi Eye Hospitals", "source": "OpenGovernmentData"}}, {"type": "way", "id": 156250603, "nodes": [1685124308, 1685124313, 1685124315, 1685124309, 1685124308], "tags": {"amenity": "hospital", "healthcare": "hospital", "name": "Agarwal Eye Hospital"}}, {"type": "way", "id": 156250608, "nodes": [1685124293, 1685124285, 1685124281, 1685124282, 1685124292, 1685124293], "tags": {"addr:district": "Chennai", "addr:full": "24, Kasturi Rangan Road,Near Hotel Citola Sheraton, Teynampet", "addr:postcode": "600018", "addr:state": "Tamil Nadu", "amenity": "hospital", "healthcare": "hospital", "name": "Aswene Soundarya Hospital", "source": "OpenGovernmentData"}}, {"type": "way", "id": 188445646, "nodes": [11633690559, 11633690560, 1990726958, 1990726968, 11633690559], "tags": {"addr:district": "Chennai", "addr:full": "12, C P Ramasamy Road, Alwarpet", "addr:postcode": "600018", "addr:state": "Tamil Nadu", "amenity": "hospital", "building": "yes", "healthcare": "hospital", "name": "Apollo Clinic & Pharmacy", "source": "OpenGovernmentData"}}, {"type": "way", "id": 209413524, "nodes": [2196313693, 2196313682, 2196313671, 2196313670, 2196313691, 2196313693], "tags": {"amenity": "hospital", "healthcare": "hospital", "name": "Trinity Acute Care"}}, {"type": "way", "id": 209546207, "nodes": [2197496939, 2197496991, 2197496996, 2197496999, 2197496970, 2197496969, 11782229711, 2197496953, 11782229708, 2197496934, 2197496939], "tags": {"amenity": "hospital", "healthcare": "hospital", "name": "Sankara Nethralaya", "wikidata": "Q7418640", "wikimedia_commons": "Category:Sankara Nethralaya", "wikipedia": "en:Sankara Nethralaya"}}, {"type": "way", "id": 211260239, "nodes": [264481347, 344406370, 2212827683, 2212827684, 6588016969, 2212827686, 264481348, 264481347], "tags": {"amenity": "hospital", "healthcare": "hospital", "name": "Apollo Hospital"}}, {"type": "way", "id": 211274279, "nodes": [321842947, 2212976312, 2212976269, 2212976264, 321842947], "tags": {"addr:district": "Chennai", "addr:full": "# 15, Dr. Radhakrishnan Salai, Mylapore", "addr:postcode": "600004", "addr:state": "Tamil Nadu", "addr:street": "Dr Radhakrishnan Salai", "amenity": "hospital", "email": "csikalyanihospital@rocketmail.com", "healthcare": "hospital", "name": "CSI Kalyani Hospital", "source": "OpenGovernmentData", "website": "http://www.csikalyanihospital.com/"}}, {"type": "way", "id": 211423255, "nodes": [2214392247, 2214392260, 2214392265, 2214392255, 2214392243, 2214392247], "tags": {"amenity": "hospital", "healthcare": "hospital", "name": "EV Kalyani Hospital"}}, {"type": "way", "id": 211423281, "nodes": [321840406, 321840404, 2214392449, 2214392433, 2214392338, 2214392351, 2214392360, 2214392368, 321840406], "tags": {"addr:district": "Chennai", "addr:full": "Triplicane, Victoria Hostel Road", "addr:postcode": "600005", "addr:state": "Tamil Nadu", "amenity": "hospital", "healthcare": "hospital", "name": "Kasturibai Gandhi Hospital", "name:etymology:wikidata": "Q264908", "name:ta": "\u0b95\u0bb8\u0bcd\u0ba4\u0bc2\u0bb0\u0bcd\u0baa\u0bbe \u0b95\u0bbe\u0ba8\u0bcd\u0ba4\u0bbf \u0bae\u0bb0\u0bc1\u0ba4\u0bcd\u0ba4\u0bc1\u0bb5\u0bae\u0ba9\u0bc8", "source": "OpenGovernmentData"}}, {"type": "way", "id": 211436948, "nodes": [2214530298, 3602114947, 2214530299, 2214530301, 2214530300, 2214530298], "tags": {"amenity": "hospital", "healthcare": "hospital"}}, {"type": "way", "id": 217797428, "nodes": [2271022795, 2271022794, 2271022796, 2487062532, 2271022802, 2271022799, 2271022795], "tags": {"addr:district": "Chennai", "addr:full": "No.2 (E), Mcnichols Road, 3 Lane, Chetpet", "addr:postcode": "600031", "addr:state": "Tamil Nadu", "amenity": "hospital", "healthcare": "hospital", "name": "Mehta Hospital", "source": "OpenGovernmentData"}}, {"type": "way", "id": 217846762, "nodes": [2271510741, 2271510740, 2271510738, 2271510743, 2271510741], "tags": {"amenity": "hospital", "healthcare": "hospital", "name": "Corporation Baby Hospital"}}, {"type": "way", "id": 217960574, "nodes": [2272699940, 2272699945, 2272699946, 11039950232, 11039950231, 11039950230, 11039950229, 11039950228, 11036721544, 258991886, 11039950235, 11039950236, 258991861, 2272699949, 11039950241, 11039950240, 309061776, 258991862, 258991863, 11887228742, 2214509482, 309061990, 2214509435, 258991864, 258991865, 11039950219, 12956435037, 11039950220, 12956435039, 11039950221, 11039950223, 11039950224, 11039950225, 11039950226, 11039950227, 2272699940], "tags": {"amenity": "hospital", "emergency": "yes", "healthcare": "hospital", "name": "Tamil Nadu Government Multi Super Speciality Hospital", "name:ta": "\u0ba4\u0bae\u0bbf\u0bb4\u0bcd\u0ba8\u0bbe\u0b9f\u0bc1 \u0b85\u0bb0\u0b9a\u0bc1 \u0baa\u0ba9\u0bcd\u0ba9\u0bcb\u0b95\u0bcd\u0b95\u0bc1 \u0b89\u0baf\u0bb0\u0bcd \u0b9a\u0bbf\u0bb1\u0baa\u0bcd\u0baa\u0bc1 \u0bae\u0bb0\u0bc1\u0ba4\u0bcd\u0ba4\u0bc1\u0bb5\u0bae\u0ba9\u0bc8", "opening_hours": "Mo-Su 10:00-14:00", "short_name": "TNGMSSH", "website": "https://tngmssh.tn.gov.in/", "wikidata": "Q7681366", "wikipedia": "en:Tamil Nadu Government Multi Super Speciality Hospital"}}, {"type": "way", "id": 218149507, "nodes": [2274279925, 2274279932, 2274279934, 2274279928, 2274279925], "tags": {"addr:block": "Chennai Zone Ix", "addr:district": "Chennai", "addr:full": "52, 2Nd Main Road, R.A. Puram, Trustpakkam, Raja Annamalai Puram", "addr:postcode": "600028", "addr:state": "Tamil Nadu", "addr:subdistrict": "Rajaannamalaipuram", "amenity": "hospital", "emergency": "yes", "healthcare": "hospital", "name": "Billroth Hospital", "operator:type": "private", "source": "OpenGovernmentData", "website": "https://www.billrothhospitals.com/"}}, {"type": "way", "id": 231052536, "nodes": [2394697635, 2394697636, 2394697637, 2394697638, 2394697635], "tags": {"amenity": "hospital", "building": "yes", "healthcare": "hospital", "name": "Vasan Dental Care"}}, {"type": "way", "id": 240472123, "nodes": [2482057612, 320284711, 2482057618, 2482057635, 2482057633, 2482057608, 2482057601, 2482057592, 320284665, 2482057612], "tags": {"addr:district": "Chennai", "addr:full": "Egmore, Chennai", "addr:postcode": "600008", "addr:state": "Tamil Nadu", "amenity": "hospital", "healthcare": "hospital", "name": "Police Hospital", "source": "Local Knowledge"}}, {"type": "way", "id": 240501607, "nodes": [2482301385, 3725687797, 2482301375, 11741347968, 2482301383, 2482301385], "tags": {"addr:district": "Chennai", "addr:full": "12-A, Nageswara Road, Nungambakkam", "addr:postcode": "600034", "addr:state": "Tamil Nadu", "amenity": "hospital", "healthcare": "hospital", "name": "The Child Trust Medical Research Foundation", "source": "OpenGovernmentData"}}, {"type": "way", "id": 240869141, "nodes": [2485567706, 2485567774, 2485567782, 2485567783, 2485567719, 2485567771, 2485567709, 2485567706], "tags": {"amenity": "hospital", "healthcare": "hospital"}}, {"type": "way", "id": 315499682, "nodes": [3216126408, 3216126405, 3216126415, 3216126407, 3216126409, 3216126412, 3216126411, 3216126413, 3216126410, 3216126414, 3216126406, 3216126408], "tags": {"addr:city": "Chennai", "addr:housenumber": "320, Padma Complex", "addr:postcode": "600035", "addr:street": "Anna Salai (Mount Road)", "amenity": "hospital", "emergency": "yes", "healthcare": "hospital", "name": "Apollo Speciality Hospital - Block A", "operator": "Apollo Hospitals", "operator:wikidata": "Q4780321", "operator:wikipedia": "en:Apollo Hospitals"}}, {"type": "way", "id": 315499747, "nodes": [3216127292, 3216127296, 3216127294, 3216127299, 3216127297, 3216127298, 3216127293, 3216127295, 3216127292], "tags": {"amenity": "hospital", "emergency": "no", "healthcare": "hospital", "name": "Apollo Speciality Hospital - Block B"}}, {"type": "way", "id": 315499965, "nodes": [3216127211, 3216127210, 3216127214, 3216127213, 3216127212, 3216127208, 3216127209, 3216127211], "tags": {"amenity": "hospital", "emergency": "no", "healthcare": "hospital", "name": "Apollo Speciality Hospital - Block C"}}, {"type": "way", "id": 332525434, "nodes": [3396718585, 3396718586, 3396718587, 3396718588, 3396718589, 3396718590, 3396718591, 3396718592, 3396718585], "tags": {"addr:city": "West Mambalam", "addr:housenumber": "174/114", "addr:postcode": "600033", "addr:street": "Lake View Road", "amenity": "hospital", "email": "md@phc-mc.org", "emergency": "yes", "fax": "044 2489 7007", "healthcare": "hospital", "name": "Public Health Centre (In Patient Block)", "operator": "Public Health Welfare Society", "phone": "044 2489 3172/7008/3101", "website": "https://www.phc-mc.org/"}}, {"type": "way", "id": 332525519, "nodes": [3396721106, 3396721107, 3396721108, 3396721109, 3396721110, 3396721111, 3396721112, 3396721113, 3396721106], "tags": {"addr:city": "West Mambalam", "addr:postcode": "600033", "addr:street": "Ramakrishnapuram 1st Street", "amenity": "hospital", "healthcare": "hospital", "name": "Public Health Centre (Out Patient Block)"}}, {"type": "way", "id": 350538223, "nodes": [3562907944, 3562907945, 3562907946, 3562907947, 3562907948, 3562907949, 3562907950, 3562907951, 3562907944], "tags": {"addr:city": "West Mambalam", "addr:housenumber": "68", "addr:postcode": "600033", "addr:street": "Thambiah Road, Duraiswamy Subway, West Mambalam, Chennai, Tamil Nadu 600033", "amenity": "hospital", "emergency": "yes", "healthcare": "hospital", "name": "SRM Hospital", "opening_hours": "24/7", "phone": "044 2474 4727", "website": "https://srmhospitals.org/"}}, {"type": "way", "id": 354243595, "nodes": [3599982618, 3599982617, 3599982605, 3599982606, 3599982618], "tags": {"addr:district": "Chennai", "addr:full": "372, Poonamallee High Road", "addr:postcode": "600010", "addr:state": "Tamil Nadu", "addr:street": "EVR Periyar Salai (Poonamallee High Road)", "addr:subdistrict": "Kilpauk", "amenity": "hospital", "building": "hospital", "email": "info@guesthospital.com", "healthcare": "hospital", "name": "Guest Hospital", "operator:type": "private", "source": "OpenGovernmentData", "website": "https://www.guesthospital.com/"}}, {"type": "way", "id": 354293689, "nodes": [3600327089, 3600327088, 3600327078, 3600327079, 3600327084, 3600327085, 3600327089], "tags": {"addr:city": "Chennai", "addr:housenumber": "65", "addr:street": "Uttamar Gandhi Salai", "amenity": "hospital", "healthcare": "hospital", "name": "Hande Medical Centre", "operator": "Hande Medical Centre"}}, {"type": "way", "id": 354839873, "nodes": [3605005831, 3605005821, 3605005776, 3605005784, 3605005831], "tags": {"addr:block": "Chennai Zone X", "addr:full": "(Opp) Kodambakkam Railway Station, Kodambakkam, Railway Border Road", "addr:state": "Tamil Nadu", "addr:street": "Tailor Estate 1st Street", "amenity": "hospital", "emergency": "yes", "healthcare": "hospital", "name": "J.V. Hospitals Llp", "source": "OpenGovernmentData"}}, {"type": "way", "id": 354840226, "nodes": [3605006167, 3605006158, 3605006126, 3605006129, 3605006167], "tags": {"addr:street": "Tailor Estate 2nd Street", "amenity": "hospital", "healthcare": "hospital", "name": "R.R Dental Hospital"}}, {"type": "way", "id": 354840384, "nodes": [3605005806, 3605005803, 3605005822, 3605005820, 3605005782, 3605005788, 3605005806], "tags": {"addr:street": "Tailor Estate 1st Street", "amenity": "hospital", "emergency": "yes", "healthcare": "hospital", "name": "JV Hospital"}}, {"type": "way", "id": 355067576, "nodes": [3606839541, 3606839526, 3606839514, 3606839518, 3606839541], "tags": {"amenity": "hospital", "building": "yes", "name": "Chennai Heritage Hospital", "note": "Ayurveda and Siddha"}}, {"type": "way", "id": 355658593, "nodes": [3612356095, 3612356140, 5226880850, 5226880851, 5226880852, 5226880853, 3612356139, 3612356138, 3612356137, 3612356110, 3612356115, 3612355990, 5226880854, 3612356095], "tags": {"addr:district": "Chennai", "addr:full": "No. 106, Jawaharlal Nehru Salai, Thirumangalam, Anna Nagar West, Near VR Mall , Koyambedu Junction, Chennai", "addr:postcode": "600040", "addr:state": "Tamil Nadu", "amenity": "hospital", "building": "hospital", "contact:email": "ask@bewellhospitals.com", "healthcare": "hospital", "name": "Be Well Hospitals", "source": "OpenGovernmentData", "website": "https://www.bewellhospitals.in/"}}, {"type": "way", "id": 1176875169, "nodes": [6934347086, 10933682556, 10933682534, 10933682533, 10933682536, 10933682537, 10933682541, 10933682538, 6934347086], "tags": {"addr:district": "Chennai", "addr:full": "Mint Street", "addr:postcode": "600001", "addr:state": "Tamil Nadu", "amenity": "hospital", "healthcare": "hospital", "name": "Shaarave Hospital", "source": "OpenGovernmentData"}}, {"type": "way", "id": 1180926082, "nodes": [10967392142, 3498455460, 10967392145, 10967423639, 10967423628, 10967392143, 10967392142], "tags": {"addr:district": "Chennai", "addr:full": "Old No 158 (New No 174) Govindappa Naick Street", "addr:postcode": "600001", "addr:state": "Tamil Nadu", "addr:street": "Govindappa Naicken Street", "amenity": "hospital", "building": "yes", "building:levels": "4", "healthcare": "hospital", "name": "The Arya Vysya Meternity Home and Child Welfare Centre", "phone": "04425381525", "source": "OpenGovernmentData"}}, {"type": "way", "id": 1241298308, "nodes": [11533428362, 11533428361, 11533428360, 11533428364, 11533428363, 11533428362], "tags": {"amenity": "hospital", "healthcare": "hospital", "name": "Mint Hospital"}}, {"type": "way", "id": 1263441145, "nodes": [11738634212, 11738634213, 11738634214, 11738634215, 11738634216, 11738634217, 11738634212], "tags": {"amenity": "hospital", "healthcare": "hospital"}}, {"type": "way", "id": 1314584114, "nodes": [12167706529, 7252333395, 12167706528, 12167706527, 12167706529], "tags": {"addr:block": "Chennai Zone Viii", "addr:district": "Chennai", "addr:full": "Pulla Avenue Corporation School, Shenoy Nagar, Pulla Avenue", "addr:postcode": "600030", "addr:state": "Tamil Nadu", "amenity": "hospital", "healthcare": "hospital", "name": "Government child birth Hospital", "source": "OpenGovernmentData"}}, {"type": "way", "id": 1410036059, "nodes": [6161110114, 6161110132, 6161110131, 6161110130, 6161110129, 6161110003, 6161110127, 6161110126, 6161110125, 12956352248, 12956352249, 12956352250, 12956352251, 12956352252, 12956352253, 12956352254, 6161110114], "tags": {"amenity": "hospital", "healthcare": "hospital", "name": "Govt. Kilpauk Hospital"}}, {"type": "way", "id": 1428318904, "nodes": [13131270243, 13131270244, 13131270245, 13131270246, 13131270243], "tags": {"amenity": "hospital", "healthcare": "hospital", "healthcare:speciality": "yoga_and_naturopathy;specialized_in_treating_ncds;_psychosomatic_disorders;_iridology;obstetric_and_gynaecological_disorders;_yoga_for_pregnancy;hydrotherapy;mud_therapy;naturopathic_diet;yoga_therapy;chromotherapy", "name": "Gynmc PG Block", "operator": "Government of Tamilnadu", "operator:type": "government"}}, {"type": "relation", "id": 14377391, "members": [{"type": "way", "ref": 28732032, "role": "outer"}, {"type": "way", "ref": 28730499, "role": "outer"}], "tags": {"addr:block": "Chennai Zone Ix", "addr:district": "Chennai", "addr:full": "Royapettah Police Station, Royapettah, Ammaiappan Lane", "addr:postcode": "600014", "addr:state": "Tamil Nadu", "amenity": "hospital", "healthcare": "hospital", "name": "Royapettah Government Hospital", "type": "multipolygon", "wikidata": "Q14956845", "wikipedia": "en:Government Royapettah Hospital"}}]}