{"version": 0.6, "generator": "Overpass API 0.7.62.8 e802775f", "osm3s": {"timestamp_osm_base": "2026-01-14T23:48:43Z", "copyright": "The data included in this document is from www.openstreetmap.org. The data is made available under ODbL."}, "elements": [{"type": "node", "id": 30084259, "lat": 43.2439872, "lon": 5.3710909, "tags": {"bus": "yes", "name": "Pointe Rouge", "name:oc": "Poncha Roja", "public_transport": "stop_position", "source:name:oc": "ieo-bdtopoc"}}, {"type": "node", "id": 30084268, "lat": 43.2483015, "lon": 5.374931, "tags": {"bus": "yes", "name": "Vieille Chapelle", "name:oc": "La Cap\u00e8la Vi\u00e8lha", "public_transport": "stop_position", "source:name:oc": "ieo-bdtopoc"}}, {"type": "node", "id": 30084491, "lat": 43.2365768, "lon": 5.3624296, "tags": {"bus": "yes", "name": "Grotte Rolland", "name:oc": "Bauma Roland", "public_transport": "stop_position", "source:name:oc": "ieo-bdtopoc"}}, {"type": "node", "id": 30834796, "lat": 43.2252187, "lon": 5.3484632, "tags": {"bus": "yes", "name": "Escalette", "name:fr": "Escalette", "name:oc": "L'Escaleta", "public_transport": "stop_position", "source:name:oc": "ieo-bdtopoc"}}, {"type": "node", "id": 33955464, "lat": 43.2599584, "lon": 5.3754071, "tags": {"bus": "yes", "name": "Plage de l'Huveaune", "name:oc": "Platja de V\u00e8una", "public_transport": "stop_position", "source:name:oc": "ieo-bdtopoc"}}, {"type": "node", "id": 33955477, "lat": 43.2483991, "lon": 5.3748214, "tags": {"bus": "yes", "name": "Vieille Chapelle", "name:oc": "La Cap\u00e8la Vi\u00e8lha", "public_transport": "stop_position", "source:name:oc": "ieo-bdtopoc"}}, {"type": "node", "id": 262633751, "lat": 43.2387435, "lon": 5.3651881, "tags": {"bus": "yes", "name": "Engali\u00e8re", "name:oc": "En Gali\u00e8ra", "public_transport": "stop_position", "source:name:oc": "ieo-bdtopoc"}}, {"type": "node", "id": 262633755, "lat": 43.2389974, "lon": 5.3655187, "tags": {"bus": "yes", "name": "Engali\u00e8re", "name:oc": "En Gali\u00e8ra", "public_transport": "stop_position", "source:name:oc": "ieo-bdtopoc"}}, {"type": "node", "id": 673456814, "lat": 43.2402799, "lon": 5.3661232, "tags": {"bus": "yes", "name": "Montredon Pastr\u00e9", "name:oc": "Mont Redon - Pastre", "public_transport": "stop_position", "source:name:oc": "ieo-bdtopoc"}}, {"type": "node", "id": 739673794, "lat": 43.231081, "lon": 5.3545993, "tags": {"bench": "yes", "bin": "yes", "bus": "yes", "highway": "bus_stop", "lit": "no", "name": "Madrague de Montredon", "name:oc": "Madraga dau Mont Redon", "public_transport": "platform", "shelter": "yes", "source:name:oc": "ieo-bdtopoc", "tactile_paving": "no"}}, {"type": "node", "id": 805729188, "lat": 43.2400809, "lon": 5.3770396, "tags": {"bus": "yes", "name": "Lyc\u00e9e Marseilleveyre", "name:oc": "Lic\u00e8u Marselha Vi\u00e8lha", "public_transport": "stop_position", "source:name:oc": "ieo-bdtopoc"}}, {"type": "node", "id": 814194444, "lat": 43.2292337, "lon": 5.353865, "tags": {"bench": "no", "bus": "yes", "highway": "bus_stop", "name": "Sam\u00e9na", "name:oc": "Sant Menna", "public_transport": "platform", "shelter": "no", "source:name:oc": "ieo-bdtopoc"}}, {"type": "node", "id": 814194450, "lat": 43.2288811, "lon": 5.3529605, "tags": {"bench": "no", "bus": "yes", "comment": "Proprietari deis Fabregas de souda", "highway": "bus_stop", "name": "Sam\u00e9na", "name:oc": "Sant Menna", "public_transport": "platform", "shelter": "no", "source:name:oc": "ieo-bdtopoc"}}, {"type": "node", "id": 958315392, "lat": 43.2516365, "lon": 5.3755681, "tags": {"bus": "yes", "name": "Bowl du Prado", "name:oc": "Bowl dau Prad\u00f2t", "public_transport": "stop_position", "source:name:oc": "ieo-bdtopoc"}}, {"type": "node", "id": 1270953446, "lat": 43.2430143, "lon": 5.3798324, "tags": {"bench": "yes", "bin": "no", "bus": "yes", "highway": "bus_stop", "lit": "yes", "name": "Lyc\u00e9e Poinso-Chapuis", "name:oc": "Lic\u00e8u Poinso-Chapueis", "public_transport": "platform", "shelter": "yes", "tactile_paving": "yes"}}, {"type": "node", "id": 1342678478, "lat": 43.2288482, "lon": 5.3529965, "tags": {"bus": "yes", "name": "Sam\u00e9na", "name:oc": "Sant Menna", "public_transport": "stop_position", "source:name:oc": "ieo-bdtopoc"}}, {"type": "node", "id": 1342678483, "lat": 43.2292074, "lon": 5.3537901, "tags": {"bus": "yes", "name": "Sam\u00e9na", "name:oc": "Sant Menna", "public_transport": "stop_position", "source:name:oc": "ieo-bdtopoc"}}, {"type": "node", "id": 1351939682, "lat": 43.2452556, "lon": 5.3802196, "tags": {"bus": "yes", "name": "Parangon Neptune", "name:oc": "Parangon - Neptun", "operator": "RTM", "public_transport": "stop_position", "source:name:oc": "ieo-bdtopoc"}}, {"type": "node", "id": 1363887603, "lat": 43.2254202, "lon": 5.3485281, "tags": {"bench": "no", "bin": "no", "bus": "yes", "check_date:shelter": "2023-09-16", "highway": "bus_stop", "name": "Escalette", "name:fr": "Escalette", "name:oc": "L'Escaleta", "public_transport": "platform", "shelter": "no", "source:name:oc": "ieo-bdtopoc"}}, {"type": "node", "id": 1363887621, "lat": 43.2251767, "lon": 5.3484045, "tags": {"bench": "yes", "bin": "yes", "bus": "yes", "highway": "bus_stop", "name": "L'Escalette", "name:oc": "L'Escaleta", "public_transport": "platform", "shelter": "yes", "source:name:oc": "ieo-bdtopoc"}}, {"type": "node", "id": 1363933655, "lat": 43.2516645, "lon": 5.3755125, "tags": {"bench": "yes", "bin": "yes", "bus": "yes", "highway": "bus_stop", "name": "Bowl du Prado", "name:oc": "Bowl dau Prad\u00f2t", "public_transport": "platform", "shelter": "yes", "source:name:oc": "ieo-bdtopoc", "tactile_paving": "yes", "wheelchair": "yes"}}, {"type": "node", "id": 1363933656, "lat": 43.2452456, "lon": 5.3729384, "tags": {"bench": "yes", "bin": "yes", "bus": "yes", "highway": "bus_stop", "lit": "no", "name": "Tiboulen", "name:oc": "Tiborenc", "public_transport": "platform", "shelter": "yes", "source:name:oc": "ieo-bdtopoc", "tactile_paving": "yes", "wheelchair": "yes"}}, {"type": "node", "id": 1363933658, "lat": 43.2558606, "lon": 5.3763929, "tags": {"bench": "yes", "bin": "yes", "bus": "yes", "highway": "bus_stop", "name": "Escale Bor\u00e9ly", "name:oc": "Escala Bor\u00e8li", "public_transport": "platform", "shelter": "yes", "source:name:oc": "ieo-bdtopoc", "tactile_paving": "yes", "wheelchair": "yes"}}, {"type": "node", "id": 1363933660, "lat": 43.2517512, "lon": 5.3757476, "tags": {"bench": "yes", "bus": "yes", "highway": "bus_stop", "name": "Bowl du Prado", "name:oc": "Bowl dau Prad\u00f2t", "public_transport": "platform", "shelter": "yes", "source:name:oc": "ieo-bdtopoc", "tactile_paving": "yes", "wheelchair": "yes"}}, {"type": "node", "id": 1363933661, "lat": 43.2439211, "lon": 5.3711279, "tags": {"bench": "no", "bin": "yes", "bus": "yes", "highway": "bus_stop", "lit": "yes", "name": "Pointe Rouge", "name:oc": "Poncha Roja", "public_transport": "platform", "shelter": "no", "source:name:oc": "ieo-bdtopoc", "tactile_paving": "yes", "wheelchair": "yes"}}, {"type": "node", "id": 1363933662, "lat": 43.2484417, "lon": 5.3747602, "tags": {"bench": "yes", "bin": "yes", "bus": "yes", "highway": "bus_stop", "lit": "yes", "name": "Vieille Chapelle", "name:oc": "La Cap\u00e8la Vi\u00e8lha", "public_transport": "platform", "shelter": "yes", "source:name:oc": "ieo-bdtopoc", "tactile_paving": "yes", "wheelchair": "yes"}}, {"type": "node", "id": 1363933665, "lat": 43.2387269, "lon": 5.3652743, "tags": {"bench": "yes", "bin": "yes", "bus": "yes", "highway": "bus_stop", "lit": "yes", "name": "Engali\u00e8re", "name:oc": "En Gali\u00e8ra", "public_transport": "platform", "shelter": "yes", "source:name:oc": "ieo-bdtopoc", "tactile_paving": "no"}}, {"type": "node", "id": 1363933669, "lat": 43.2419365, "lon": 5.3688785, "tags": {"bus": "yes", "name": "Montredon Chancel", "name:oc": "Mont Redon - Chanc\u00e8l", "public_transport": "stop_position", "source:name:oc": "ieo-bdtopoc"}}, {"type": "node", "id": 1363933673, "lat": 43.256584, "lon": 5.3766336, "tags": {"bus": "yes", "name": "Escale Bor\u00e9ly", "name:oc": "Escala Bor\u00e8li", "public_transport": "stop_position", "source:name:oc": "ieo-bdtopoc"}}, {"type": "node", "id": 1363933674, "lat": 43.2598721, "lon": 5.3753546, "tags": {"bench": "yes", "bin": "no", "bus": "yes", "highway": "bus_stop", "lit": "no", "name": "Plage de l'Huveaune", "name:oc": "Plaja de V\u00e8una", "public_transport": "platform", "shelter": "yes", "source:name:oc": "ieo-bdtopoc", "tactile_paving": "yes", "wheelchair": "yes"}}, {"type": "node", "id": 1363933675, "lat": 43.2419284, "lon": 5.3689878, "tags": {"bench": "yes", "bin": "yes", "bus": "yes", "highway": "bus_stop", "lit": "yes", "name": "Montredon Chancel", "name:oc": "Mont Redon - Chanc\u00e8l", "public_transport": "platform", "shelter": "yes", "source:name:oc": "ieo-bdtopoc", "tactile_paving": "yes", "wheelchair": "yes"}}, {"type": "node", "id": 1363933678, "lat": 43.2483168, "lon": 5.3750179, "tags": {"bench": "yes", "bin": "no", "bus": "yes", "highway": "bus_stop", "name": "Vieille Chapelle", "name:oc": "La Cap\u00e8la Vi\u00e8lha", "public_transport": "platform", "shelter": "yes", "source:name:oc": "ieo-bdtopoc", "wheelchair": "no"}}, {"type": "node", "id": 1363933681, "lat": 43.2452295, "lon": 5.3729943, "tags": {"bus": "yes", "name": "Tiboulen", "name:oc": "Tiborenc", "public_transport": "stop_position", "source:name:oc": "ieo-bdtopoc"}}, {"type": "node", "id": 1363933683, "lat": 43.2458286, "lon": 5.3736268, "tags": {"bench": "yes", "bin": "yes", "bus": "yes", "highway": "bus_stop", "name": "Tiboulen", "name:oc": "Tiborenc", "public_transport": "platform", "shelter": "yes", "source:name:oc": "ieo-bdtopoc", "tactile_paving": "yes", "wheelchair": "yes"}}, {"type": "node", "id": 1363933684, "lat": 43.2390157, "lon": 5.3654423, "tags": {"bench": "no", "bin": "no", "bus": "yes", "highway": "bus_stop", "lit": "no", "name": "Engali\u00e8re", "name:oc": "En Gali\u00e8ra", "public_transport": "platform", "shelter": "no", "source:name:oc": "ieo-bdtopoc", "tactile_paving": "no"}}, {"type": "node", "id": 1363933685, "lat": 43.2565981, "lon": 5.3767139, "tags": {"bench": "yes", "bin": "yes", "bus": "yes", "highway": "bus_stop", "name": "Escale Bor\u00e9ly", "name:oc": "Escala Bor\u00e8li", "public_transport": "platform", "shelter": "yes", "source:name:oc": "ieo-bdtopoc", "tactile_paving": "yes", "wheelchair": "yes"}}, {"type": "node", "id": 1363933687, "lat": 43.2436749, "lon": 5.3701474, "tags": {"bus": "yes", "name": "Pointe Rouge", "name:oc": "Poncha Roja", "public_transport": "stop_position", "source:name:oc": "ieo-bdtopoc"}}, {"type": "node", "id": 1363933690, "lat": 43.2437147, "lon": 5.3701294, "tags": {"bench": "yes", "bin": "yes", "bus": "yes", "highway": "bus_stop", "name": "Pointe Rouge", "name:oc": "Poncha Roja", "public_transport": "platform", "shelter": "yes", "source:name:oc": "ieo-bdtopoc", "tactile_paving": "yes", "wheelchair": "yes"}}, {"type": "node", "id": 1363933692, "lat": 43.25179, "lon": 5.3757022, "tags": {"bus": "yes", "name": "Bowl du Prado", "name:oc": "Bowl dau Prad\u00f2t", "public_transport": "stop_position", "source:name:oc": "ieo-bdtopoc"}}, {"type": "node", "id": 1363933693, "lat": 43.2458754, "lon": 5.3735976, "tags": {"bus": "yes", "name": "Tiboulen", "name:oc": "Tibolenc", "public_transport": "stop_position", "source:name:oc": "ieo-bdtopoc"}}, {"type": "node", "id": 1363933695, "lat": 43.25586, "lon": 5.3764845, "tags": {"bus": "yes", "name": "Escale Bor\u00e9ly", "name:oc": "Escala Bor\u00e8li", "public_transport": "stop_position", "source:name:oc": "ieo-bdtopoc"}}, {"type": "node", "id": 1429314945, "lat": 43.2402884, "lon": 5.3672068, "tags": {"bus": "yes", "name": "Montredon Pastr\u00e9", "name:oc": "Mont Redon - Pastre", "public_transport": "stop_position", "source:name:oc": "ieo-bdtopoc"}}, {"type": "node", "id": 1429314947, "lat": 43.2402603, "lon": 5.3672347, "tags": {"bench": "yes", "bus": "yes", "highway": "bus_stop", "name": "Montredon Pastr\u00e9", "name:oc": "Mont Redon - Pastre", "public_transport": "platform", "shelter": "yes", "source:name:oc": "ieo-bdtopoc", "tactile_paving": "yes", "wheelchair": "yes"}}, {"type": "node", "id": 1439849870, "lat": 43.2363993, "lon": 5.3622811, "tags": {"bench": "no", "bus": "yes", "check_date:shelter": "2023-07-28", "highway": "bus_stop", "name": "Grotte Rolland", "name:oc": "Bauma Roland", "public_transport": "platform", "shelter": "no", "source:name:oc": "ieo-bdtopoc"}}, {"type": "node", "id": 1439849872, "lat": 43.2364103, "lon": 5.3622028, "tags": {"bus": "yes", "name": "Grotte Rolland", "name:oc": "Bauma Roland", "public_transport": "stop_position", "source:name:oc": "ieo-bdtopoc"}}, {"type": "node", "id": 1439849873, "lat": 43.2365758, "lon": 5.3623248, "tags": {"bench": "no", "bin": "yes", "bus": "yes", "highway": "bus_stop", "lit": "yes", "name": "Grotte Rolland", "name:oc": "Bauma Roland", "public_transport": "platform", "shelter": "no", "source:name:oc": "ieo-bdtopoc", "tactile_paving": "no"}}, {"type": "node", "id": 1439849875, "lat": 43.2373379, "lon": 5.3635654, "tags": {"bus": "yes", "name": "Montredon Miremonts", "name:oc": "Mont Redon - Miramonts", "public_transport": "stop_position", "source:name:oc": "ieo-bdtopoc"}}, {"type": "node", "id": 1439849876, "lat": 43.2373406, "lon": 5.3634878, "tags": {"bench": "no", "bin": "yes", "bus": "yes", "highway": "bus_stop", "lit": "yes", "name": "Montredon Miremonts", "name:oc": "Mont Redon - Miramonts", "public_transport": "platform", "shelter": "no", "source:name:oc": "ieo-bdtopoc", "tactile_paving": "no"}}, {"type": "node", "id": 1439849878, "lat": 43.2402238, "lon": 5.3660924, "tags": {"bench": "no", "bin": "yes", "bus": "yes", "highway": "bus_stop", "lit": "yes", "name": "Montredon Pastr\u00e9", "name:oc": "Mont Redon - Pastre", "public_transport": "platform", "shelter": "no", "source:name:oc": "ieo-bdtopoc", "tactile_paving": "yes"}}, {"type": "node", "id": 1439849879, "lat": 43.2423433, "lon": 5.3676831, "tags": {"bus": "yes", "name": "Pointe Rouge Port", "name:oc": "Poncha Roja P\u00f2rt", "public_transport": "stop_position", "source:name:oc": "ieo-bdtopoc"}}, {"type": "node", "id": 1439849881, "lat": 43.2423628, "lon": 5.3676475, "tags": {"bench": "yes", "bus": "yes", "highway": "bus_stop", "name": "Pointe Rouge Port", "name:oc": "Poncha Roja P\u00f2rt", "public_transport": "platform", "shelter": "yes", "source:name:oc": "ieo-bdtopoc", "tactile_paving": "yes", "wheelchair": "yes"}}, {"type": "node", "id": 1492452525, "lat": 43.2543842, "lon": 5.3779082, "tags": {"bench": "yes", "bin": "yes", "bus": "yes", "highway": "bus_stop", "name": "Escale Bor\u00e9ly", "name:oc": "Escala Bor\u00e8li", "public_transport": "platform", "shelter": "yes", "source:name:oc": "ieo-bdtopoc"}}, {"type": "node", "id": 1492452526, "lat": 43.2544237, "lon": 5.3779106, "tags": {"bus": "yes", "name": "Escale Bor\u00e9ly", "name:oc": "Escala Bor\u00e8li", "public_transport": "stop_position"}}, {"type": "node", "id": 1492452527, "lat": 43.2545146, "lon": 5.3775843, "tags": {"bus": "yes", "name": "Escale Bor\u00e9ly", "name:oc": "Escala Bor\u00e8li", "public_transport": "stop_position", "source:name:oc": "ieo-bdtopoc"}}, {"type": "node", "id": 1492452528, "lat": 43.2545552, "lon": 5.3775869, "tags": {"bench": "no", "bin": "yes", "bus": "yes", "highway": "bus_stop", "name": "Escale Bor\u00e9ly", "name:oc": "Escala Bor\u00e8li", "public_transport": "platform", "shelter": "no", "source:name:oc": "ieo-bdtopoc"}}, {"type": "node", "id": 1701468437, "lat": 43.243082, "lon": 5.3671642, "tags": {"amenity": "ferry_terminal", "cargo": "passengers", "ferry": "yes", "harbour": "yes", "level": "0", "name": "Pointe Rouge", "name:oc": "Poncha Roja", "network": "RTM", "operator": "R\u00e9gie des Transports Marseillais", "public_transport": "stop_position", "seamark:harbour:category": "passenger", "seamark:type": "harbour", "source:name:oc": "ieo-bdtopoc", "toilets:wheelchair": "yes", "wheelchair": "limited"}}, {"type": "node", "id": 1705213289, "lat": 43.2329407, "lon": 5.3572657, "tags": {"bench": "no", "bus": "yes", "highway": "bus_stop", "name": "Madrague Lieutenant Moulin", "name:oc": "Madraga - Lu\u00f2ctenent Molin", "public_transport": "platform", "shelter": "no", "source:name:oc": "ieo-bdtopoc"}}, {"type": "node", "id": 1705213290, "lat": 43.2329752, "lon": 5.3572371, "tags": {"bus": "yes", "name": "Madrague Lieutenant Moulin", "name:oc": "Madraga - Lu\u00f2ctenent Molin", "public_transport": "stop_position", "source:name:oc": "ieo-bdtopoc"}}, {"type": "node", "id": 1705213293, "lat": 43.233436, "lon": 5.3579385, "tags": {"bus": "yes", "name": "Madrague Lieutenant Moulin", "name:oc": "Madraga - Lu\u00f2ctenent Molin", "public_transport": "stop_position", "source:name:oc": "ieo-bdtopoc"}}, {"type": "node", "id": 1705213302, "lat": 43.2334473, "lon": 5.3578862, "tags": {"bench": "no", "bin": "no", "bus": "yes", "check_date:shelter": "2023-09-16", "highway": "bus_stop", "name": "Madrague Lieutenant Moulin", "name:oc": "Madraga - Lu\u00f2ctenent Molin", "public_transport": "platform", "shelter": "no", "source:name:oc": "ieo-bdtopoc", "tactile_paving": "no"}}, {"type": "node", "id": 1705213305, "lat": 43.2314875, "lon": 5.3552758, "tags": {"bus": "yes", "name": "Madrague Mont-Rose", "name:oc": "Madraga - Mont R\u00f2se", "public_transport": "stop_position", "source:name:oc": "ieo-bdtopoc"}}, {"type": "node", "id": 1705213311, "lat": 43.2315119, "lon": 5.3552184, "tags": {"bench": "no", "bin": "yes", "bus": "yes", "check_date:shelter": "2023-09-16", "highway": "bus_stop", "lit": "no", "name": "Madrague Mont-Rose", "name:oc": "Madraga - Mont R\u00f2se", "public_transport": "platform", "shelter": "no", "source:name:oc": "ieo-bdtopoc", "tactile_paving": "no"}}, {"type": "node", "id": 1705213317, "lat": 43.2316773, "lon": 5.355471, "tags": {"bench": "no", "bin": "no", "bus": "yes", "highway": "bus_stop", "lit": "no", "name": "Madrague Mont-Rose", "name:oc": "Madraga - Mont R\u00f2se", "public_transport": "platform", "shelter": "no", "source:name:oc": "ieo-bdtopoc", "tactile_paving": "no"}}, {"type": "node", "id": 1705213322, "lat": 43.2316967, "lon": 5.35544, "tags": {"bus": "yes", "name": "Madrague Mont-Rose", "name:oc": "Madraga - Mont R\u00f2se", "public_transport": "stop_position", "source:name:oc": "ieo-bdtopoc"}}, {"type": "node", "id": 1705213326, "lat": 43.2344383, "lon": 5.3594034, "tags": {"bus": "yes", "name": "Verrerie", "name:oc": "Veiriera", "public_transport": "stop_position", "source:name:oc": "ieo-bdtopoc"}}, {"type": "node", "id": 1705213331, "lat": 43.2344209, "lon": 5.3593026, "tags": {"bench": "no", "bus": "yes", "check_date:shelter": "2023-07-28", "highway": "bus_stop", "name": "Verrerie", "name:oc": "Veiriera", "public_transport": "platform", "shelter": "no", "source:name:oc": "ieo-bdtopoc"}}, {"type": "node", "id": 1705213336, "lat": 43.2344575, "lon": 5.3595304, "tags": {"bench": "yes", "bus": "yes", "highway": "bus_stop", "name": "Verrerie", "name:oc": "Veiriera", "public_transport": "platform", "shelter": "yes", "source:name:oc": "ieo-bdtopoc"}}, {"type": "node", "id": 1705213341, "lat": 43.2345097, "lon": 5.3595036, "tags": {"bus": "yes", "name": "Verrerie", "name:oc": "Veiriera", "public_transport": "stop_position"}}, {"type": "node", "id": 1707368746, "lat": 43.2402211, "lon": 5.3774364, "tags": {"bench": "yes", "bin": "yes", "bus": "yes", "highway": "bus_stop", "lit": "yes", "name": "Lyc\u00e9e Marseilleveyre", "name:oc": "Lic\u00e8u Marselha Vi\u00e8lha", "public_transport": "platform", "shelter": "yes", "source:name:oc": "ieo-bdtopoc", "tactile_paving": "yes", "wall": "yes"}}, {"type": "node", "id": 1707368759, "lat": 43.2402119, "lon": 5.3771798, "tags": {"bench": "no", "bin": "no", "bus": "yes", "highway": "bus_stop", "lit": "yes", "name": "Lyc\u00e9e Marseilleveyre", "name:oc": "Lic\u00e8u Marselha Vi\u00e8lha", "public_transport": "platform", "shelter": "no", "source:name:oc": "ieo-bdtopoc", "tactile_paving": "yes", "wall": "yes"}}, {"type": "node", "id": 1707368764, "lat": 43.2391737, "lon": 5.375507, "tags": {"bench": "yes", "bin": "yes", "bus": "yes", "highway": "bus_stop", "lit": "yes", "name": "Marseilleveyre", "name:oc": "Marselha Vi\u00e8lha", "public_transport": "platform", "shelter": "yes", "source:name:oc": "ieo-bdtopoc", "tactile_paving": "no", "wheelchair": "limited"}}, {"type": "node", "id": 1707368771, "lat": 43.2386276, "lon": 5.3738984, "tags": {"bench": "no", "bin": "yes", "bus": "yes", "highway": "bus_stop", "lit": "no", "name": "ENSM", "name:oc": "ENSM", "public_transport": "platform", "shelter": "no", "source:name:oc": "ieo-bdtopoc", "tactile_paving": "no"}}, {"type": "node", "id": 1768566927, "lat": 43.2402471, "lon": 5.377325, "tags": {"bus": "yes", "name": "Lyc\u00e9e Marseilleveyre", "name:oc": "Lic\u00e8u Marselha Vi\u00e8lha", "public_transport": "stop_position", "source:name:oc": "ieo-bdtopoc"}}, {"type": "node", "id": 1768566928, "lat": 43.2392371, "lon": 5.3754215, "tags": {"bus": "yes", "name": "Marseilleveyre", "name:oc": "Marselha Vi\u00e8lha", "operator": "RTM", "public_transport": "stop_position", "source:name:oc": "ieo-bdtopoc"}}, {"type": "node", "id": 1768566929, "lat": 43.2422632, "lon": 5.379547, "tags": {"bus": "yes", "name": "Lyc\u00e9e Poinso-Chapuis", "name:oc": "Lic\u00e8u Poinso-Chapueis", "operator": "RTM", "public_transport": "stop_position"}}, {"type": "node", "id": 1768566930, "lat": 43.2422857, "lon": 5.3794741, "tags": {"bench": "no", "bus": "yes", "highway": "bus_stop", "name": "Lyc\u00e9e Poinso-Chapuis", "name:oc": "Lic\u00e8u Poinso-Chapueis", "public_transport": "platform", "shelter": "no", "source:name:oc": "ieo-bdtopoc"}}, {"type": "node", "id": 1768566931, "lat": 43.2430206, "lon": 5.3797962, "tags": {"bus": "yes", "name": "Lyc\u00e9e Poinso-Chapuis", "name:oc": "Lic\u00e8u Poinso-Chapueis", "operator": "RTM", "public_transport": "stop_position"}}, {"type": "node", "id": 1768566932, "lat": 43.2452073, "lon": 5.3803204, "tags": {"bench": "yes", "bus": "yes", "highway": "bus_stop", "name": "Parangon Neptune", "name:oc": "Parangon - Neptun", "public_transport": "platform", "shelter": "yes", "source:name:oc": "ieo-bdtopoc"}}, {"type": "node", "id": 1768566933, "lat": 43.2452411, "lon": 5.3801406, "tags": {"bench": "no", "bus": "yes", "highway": "bus_stop", "name": "Parangon Neptune", "name:oc": "Parangon - Neptun", "public_transport": "platform", "shelter": "no", "source:name:oc": "ieo-bdtopoc"}}, {"type": "node", "id": 1768566934, "lat": 43.2386825, "lon": 5.3738524, "tags": {"bus": "yes", "name": "ENSM", "name:oc": "ENSM", "public_transport": "stop_position", "source:name:oc": "ieo-bdtopoc"}}, {"type": "node", "id": 1781598529, "lat": 43.2417653, "lon": 5.3640678, "tags": {"bench": "no", "highway": "bus_stop", "note": "Stop for line 19B (operated only during summer)", "operator": "RTM", "public_transport": "platform", "shelter": "no"}}, {"type": "node", "id": 1781598530, "lat": 43.2417884, "lon": 5.3641193, "tags": {"bus": "yes", "operator": "RTM", "public_transport": "stop_position"}}, {"type": "node", "id": 4253158349, "lat": 43.2430012, "lon": 5.3671819}, {"type": "node", "id": 4253158350, "lat": 43.2430098, "lon": 5.3671995, "tags": {"barrier": "gate"}}, {"type": "node", "id": 4253158351, "lat": 43.2430202, "lon": 5.3672208}, {"type": "node", "id": 4253158355, "lat": 43.2431237, "lon": 5.3670697}, {"type": "node", "id": 4253158482, "lat": 43.2431426, "lon": 5.3671086}, {"type": "node", "id": 4299001683, "lat": 43.2424355, "lon": 5.3676944, "tags": {"bench": "no", "bus": "yes", "highway": "bus_stop", "name": "Pointe Rouge Port", "name:oc": "Poncha Roja P\u00f2rt", "public_transport": "platform", "shelter": "no", "source:name:oc": "ieo-bdtopoc"}}, {"type": "node", "id": 4299001684, "lat": 43.2424811, "lon": 5.3678509, "tags": {"bus": "yes", "name": "Pointe Rouge Port", "name:oc": "Poncha Roja P\u00f2rt", "public_transport": "stop_position", "source:name:oc": "ieo-bdtopoc"}}, {"type": "node", "id": 4299003000, "lat": 43.2309305, "lon": 5.3547098}, {"type": "node", "id": 4299003001, "lat": 43.2309457, "lon": 5.3546662}, {"type": "node", "id": 4299003002, "lat": 43.2309809, "lon": 5.3546273}, {"type": "node", "id": 4299003003, "lat": 43.2310165, "lon": 5.3546078}, {"type": "node", "id": 4299003004, "lat": 43.2310512, "lon": 5.3546038}, {"type": "node", "id": 4299003005, "lat": 43.2310834, "lon": 5.3546099}, {"type": "node", "id": 4299003006, "lat": 43.2311242, "lon": 5.3546246}, {"type": "node", "id": 4299003032, "lat": 43.2429837, "lon": 5.3672226, "tags": {"amenity": "shelter"}}, {"type": "node", "id": 6581718944, "lat": 43.231097, "lon": 5.354638, "tags": {"bus": "yes", "name": "Madrague de Montredon", "name:oc": "Madraga dau Mont Redon", "public_transport": "stop_position", "source:name:oc": "ieo-bdtopoc"}}, {"type": "node", "id": 6581718951, "lat": 43.2311121, "lon": 5.3548209}, {"type": "node", "id": 6581718952, "lat": 43.2311668, "lon": 5.3546528}, {"type": "node", "id": 9968164138, "lat": 43.2402526, "lon": 5.3774059, "tags": {"bus": "yes", "name": "Lyc\u00e9e Marseilleveyre", "name:oc": "Lic\u00e8u Marselha Vi\u00e8lha", "public_transport": "stop_position", "source:name:oc": "ieo-bdtopoc"}}, {"type": "node", "id": 9968164147, "lat": 43.2401344, "lon": 5.3772363, "tags": {"bench": "no", "bin": "yes", "bus": "yes", "highway": "bus_stop", "lit": "yes", "name": "Lyc\u00e9e Marseilleveyre", "name:oc": "Lic\u00e8u Marselha Vi\u00e8lha", "public_transport": "platform", "shelter": "no", "source:name:oc": "ieo-bdtopoc", "tactile_paving": "yes"}}, {"type": "node", "id": 11118128794, "lat": 43.2604436, "lon": 5.3753864, "tags": {"bus": "yes", "highway": "bus_stop", "name": "Plage de l'Huveaune", "name:oc": "Platja de V\u00e8una", "public_transport": "platform", "shelter": "no", "source:name:oc": "ieo-bdtopoc"}}, {"type": "node", "id": 11121716157, "lat": 43.2604277, "lon": 5.3753379, "tags": {"bus": "yes", "name": "Plage de l'Huveaune", "name:oc": "Plaja de V\u00e8una", "public_transport": "stop_position", "source:name:oc": "ieo-bdtopoc"}}, {"type": "way", "id": 425990650, "nodes": [4253158349, 4253158355, 4253158482, 1701468437, 4253158351, 4253158350, 4253158349], "tags": {"bench": "yes", "bin": "no", "ferry": "yes", "floating": "yes", "lit": "no", "man_made": "pier", "name": "Pointe Rouge", "name:oc": "Poncha Roja", "public_transport": "platform", "shelter": "yes", "tactile_paving": "no"}}, {"type": "way", "id": 430637227, "nodes": [6581718952, 4299003006, 4299003005, 4299003004, 4299003003, 4299003002, 4299003001, 4299003000, 6581718951, 6581718952], "tags": {"access": "unknown", "area": "yes", "bench": "yes", "bin": "yes", "bus": "yes", "covered": "no", "foot": "yes", "lit": "yes", "motor_vehicle": "no", "name": "Madrague de Montredon", "name:oc": "Madraga dau Mont Redon", "parking": "lane", "public_transport": "platform", "source:name:oc": "ieo-bdtopoc", "tactile_paving": "no", "wheelchair": "limited"}}, {"type": "way", "id": 772165287, "nodes": [4299003006, 4299003005, 4299003004, 4299003003], "tags": {"bench": "yes", "bin": "yes", "bus": "yes", "highway": "platform", "lit": "no", "name": "Madrague de Montredon", "name:oc": "Madraga dau Mont Redon", "public_transport": "platform", "shelter": "yes", "source:name:oc": "ieo-bdtopoc", "tactile_paving": "no"}}, {"type": "relation", "id": 6408059, "members": [{"type": "node", "ref": 262633755, "role": "stop"}, {"type": "node", "ref": 1363933684, "role": "platform"}, {"type": "node", "ref": 262633751, "role": "stop"}, {"type": "node", "ref": 1363933665, "role": "platform"}], "tags": {"name": "Engali\u00e8re", "name:oc": "En Gali\u00e8ra", "network": "RTM", "operator": "R\u00e9gie des Transports M\u00e9tropolitains", "public_transport": "stop_area", "source:name:oc": "ieo-bdtopoc", "type": "public_transport"}}, {"type": "relation", "id": 6408060, "members": [{"type": "node", "ref": 30834796, "role": "stop"}, {"type": "node", "ref": 1363887621, "role": "platform"}, {"type": "node", "ref": 1363887603, "role": "platform"}], "tags": {"name": "Escalette", "name:oc": "L'Escaleta", "network": "RTM", "operator": "R\u00e9gie des Transports M\u00e9tropolitains", "public_transport": "stop_area", "source:name:oc": "ieo-bdtopoc", "type": "public_transport"}}, {"type": "relation", "id": 6408061, "members": [{"type": "node", "ref": 30084491, "role": "stop"}, {"type": "node", "ref": 1439849873, "role": "platform"}, {"type": "node", "ref": 1439849872, "role": "stop"}, {"type": "node", "ref": 1439849870, "role": "platform"}], "tags": {"name": "Grotte Rolland", "name:oc": "Bauma Roland", "network": "RTM", "operator": "R\u00e9gie des Transports M\u00e9tropolitains", "public_transport": "stop_area", "source:name:oc": "ieo-bdtopoc", "type": "public_transport"}}, {"type": "relation", "id": 6408062, "members": [{"type": "node", "ref": 1363933673, "role": "stop"}, {"type": "node", "ref": 1363933685, "role": "platform"}, {"type": "node", "ref": 1363933695, "role": "stop"}, {"type": "node", "ref": 1363933658, "role": "platform"}, {"type": "node", "ref": 1492452525, "role": "platform"}, {"type": "node", "ref": 1492452526, "role": "stop"}, {"type": "node", "ref": 1492452527, "role": "stop"}, {"type": "node", "ref": 1492452528, "role": "platform"}], "tags": {"name": "Escale Bor\u00e9ly", "name:oc": "Escala Bor\u00e8li", "network": "RTM", "operator": "R\u00e9gie des Transports M\u00e9tropolitains", "public_transport": "stop_area", "source:name:oc": "ieo-bdtopoc", "type": "public_transport"}}, {"type": "relation", "id": 6408066, "members": [{"type": "node", "ref": 1363933655, "role": "platform"}, {"type": "node", "ref": 958315392, "role": "stop"}, {"type": "node", "ref": 1363933660, "role": "platform"}, {"type": "node", "ref": 1363933692, "role": "stop"}], "tags": {"name": "Bowl du Prado", "name:oc": "Bowl dau Prad\u00f2t", "network": "RTM", "operator": "R\u00e9gie des Transports M\u00e9tropolitains", "public_transport": "stop_area", "source:name:oc": "ieo-bdtopoc", "type": "public_transport"}}, {"type": "relation", "id": 6408067, "members": [{"type": "node", "ref": 1705213290, "role": "stop"}, {"type": "node", "ref": 1705213289, "role": "platform"}, {"type": "node", "ref": 1705213293, "role": "stop"}, {"type": "node", "ref": 1705213302, "role": "platform"}], "tags": {"name": "Madrague Lieutenant Moulin", "name:oc": "Lu\u00f2ctenent Molin", "network": "RTM", "operator": "R\u00e9gie des Transports M\u00e9tropolitains", "public_transport": "stop_area", "source:name:oc": "ieo-bdtopoc", "type": "public_transport"}}, {"type": "relation", "id": 6408068, "members": [{"type": "node", "ref": 1705213322, "role": "stop"}, {"type": "node", "ref": 1705213317, "role": "platform"}, {"type": "node", "ref": 1705213305, "role": "stop"}, {"type": "node", "ref": 1705213311, "role": "platform"}], "tags": {"name": "Madrague Mont-Rose", "name:oc": "Madraga - Mont R\u00f2se", "network": "RTM", "operator": "R\u00e9gie des Transports M\u00e9tropolitains", "public_transport": "stop_area", "source:name:oc": "ieo-bdtopoc", "type": "public_transport"}}, {"type": "relation", "id": 6408069, "members": [{"type": "node", "ref": 1363933669, "role": "stop"}, {"type": "node", "ref": 1363933675, "role": "platform"}], "tags": {"name": "Montredon Chancel", "name:oc": "Mont Redon - Chancel", "network": "RTM", "operator": "R\u00e9gie des Transports M\u00e9tropolitains", "public_transport": "stop_area", "source:name:oc": "ieo-bdtopoc", "type": "public_transport"}}, {"type": "relation", "id": 6408070, "members": [{"type": "node", "ref": 1439849875, "role": "stop"}, {"type": "node", "ref": 1439849876, "role": "platform"}], "tags": {"name": "Montredon Pastr\u00e9", "name:oc": "Mont Redon - Pastre", "network": "RTM", "operator": "R\u00e9gie des Transports M\u00e9tropolitains", "public_transport": "stop_area", "source:name:oc": "ieo-bdtopoc", "type": "public_transport"}}, {"type": "relation", "id": 6408071, "members": [{"type": "node", "ref": 673456814, "role": "stop"}, {"type": "node", "ref": 1439849878, "role": "platform"}, {"type": "node", "ref": 1429314945, "role": "stop"}, {"type": "node", "ref": 1429314947, "role": "platform"}], "tags": {"name": "Montredon Pastr\u00e9", "name:oc": "Mont Redon - Pastre", "network": "RTM", "operator": "R\u00e9gie des Transports M\u00e9tropolitains", "public_transport": "stop_area", "source:name:oc": "ieo-bdtopoc", "type": "public_transport"}}, {"type": "relation", "id": 6408072, "members": [{"type": "node", "ref": 33955464, "role": "stop"}, {"type": "node", "ref": 1363933674, "role": "platform"}, {"type": "node", "ref": 11121716157, "role": "stop"}, {"type": "node", "ref": 11118128794, "role": "platform"}], "tags": {"name": "Plage de l'Huveaune", "name:oc": "Platja de V\u00e8una", "network": "RTM", "operator": "R\u00e9gie des Transports M\u00e9tropolitains", "public_transport": "stop_area", "source:name:oc": "ieo-bdtopoc", "type": "public_transport"}}, {"type": "relation", "id": 6408073, "members": [{"type": "node", "ref": 1439849881, "role": "platform"}, {"type": "node", "ref": 4299001684, "role": "stop"}], "tags": {"name": "Pointe Rouge Port", "name:oc": "Poncha Roja P\u00f2rt", "network": "RTM", "operator": "R\u00e9gie des Transports M\u00e9tropolitains", "public_transport": "stop_area", "source:name:oc": "ieo-bdtopoc", "type": "public_transport"}}, {"type": "relation", "id": 6408074, "members": [{"type": "node", "ref": 4299003032, "role": ""}, {"type": "way", "ref": 425990650, "role": "platform"}, {"type": "node", "ref": 1701468437, "role": "stop"}], "tags": {"name": "Pointe Rouge", "name:oc": "Poncha Roja", "network": "RTM", "operator": "R\u00e9gie des Transports Marseillais", "public_transport": "stop_area", "source:name:oc": "ieo-bdtopoc", "type": "public_transport"}}, {"type": "relation", "id": 6408075, "members": [{"type": "node", "ref": 1363933687, "role": "stop"}, {"type": "node", "ref": 1363933690, "role": "platform"}, {"type": "node", "ref": 30084259, "role": "stop"}, {"type": "node", "ref": 1363933661, "role": "platform"}], "tags": {"name": "Pointe Rouge", "name:oc": "Poncha Roja", "network": "RTM", "operator": "R\u00e9gie des Transports M\u00e9tropolitains", "public_transport": "stop_area", "source:name:oc": "ieo-bdtopoc", "type": "public_transport"}}, {"type": "relation", "id": 6408077, "members": [{"type": "node", "ref": 1342678478, "role": "stop"}, {"type": "node", "ref": 814194450, "role": "platform"}, {"type": "node", "ref": 1342678483, "role": "stop"}, {"type": "node", "ref": 814194444, "role": "platform"}], "tags": {"name": "Sam\u00e9na", "name:oc": "Sant Menna", "network": "RTM", "operator": "R\u00e9gie des Transports M\u00e9tropolitains", "public_transport": "stop_area", "source:name:oc": "ieo-bdtopoc", "type": "public_transport"}}, {"type": "relation", "id": 6408078, "members": [{"type": "node", "ref": 1363933681, "role": "stop"}, {"type": "node", "ref": 1363933656, "role": "platform"}, {"type": "node", "ref": 1363933693, "role": "stop"}, {"type": "node", "ref": 1363933683, "role": "platform"}], "tags": {"name": "Tiboulen", "name:oc": "Tibolenc", "network": "RTM", "operator": "R\u00e9gie des Transports M\u00e9tropolitains", "public_transport": "stop_area", "source:name:oc": "ieo-bdtopoc", "type": "public_transport"}}, {"type": "relation", "id": 6408079, "members": [{"type": "node", "ref": 1705213326, "role": "stop"}, {"type": "node", "ref": 1705213331, "role": "platform"}, {"type": "node", "ref": 1705213341, "role": "stop"}, {"type": "node", "ref": 1705213336, "role": "platform"}], "tags": {"name": "Verrerie", "name:oc": "Veiriera", "network": "RTM", "operator": "R\u00e9gie des Transports M\u00e9tropolitains", "public_transport": "stop_area", "source:name:oc": "ieo-bdtopoc", "type": "public_transport"}}, {"type": "relation", "id": 6408080, "members": [{"type": "node", "ref": 33955477, "role": "stop"}, {"type": "node", "ref": 1363933662, "role": "platform"}, {"type": "node", "ref": 30084268, "role": "stop"}, {"type": "node", "ref": 1363933678, "role": "platform"}], "tags": {"name": "Vieille Chapelle", "name:oc": "Cap\u00e8la Vi\u00e8lha", "network": "RTM", "operator": "R\u00e9gie des Transports M\u00e9tropolitains", "public_transport": "stop_area", "source:name:oc": "ieo-bdtopoc", "type": "public_transport"}}]}