{"version": 0.6, "generator": "Overpass API 0.7.62.8 e802775f", "osm3s": {"timestamp_osm_base": "2026-01-13T04:08:45Z", "copyright": "The data included in this document is from www.openstreetmap.org. The data is made available under ODbL."}, "elements": [{"type": "node", "id": 726274913, "lat": 17.3937581, "lon": 78.4524941, "tags": {"amenity": "school", "name": "St.Josephs High School"}}, {"type": "node", "id": 728911854, "lat": 17.3947951, "lon": 78.4730227, "tags": {"amenity": "school", "name": "Sujatha High School"}}, {"type": "node", "id": 728912657, "lat": 17.393638, "lon": 78.474754, "tags": {"amenity": "school", "name": "Little Flower High School"}}, {"type": "node", "id": 728915591, "lat": 17.3925192, "lon": 78.4740505, "tags": {"amenity": "school", "name": "Little Flower Primary School"}}, {"type": "node", "id": 1447172299, "lat": 17.3942194, "lon": 78.4842629, "tags": {"amenity": "school"}}, {"type": "node", "id": 1891052141, "lat": 17.3395118, "lon": 78.5019168, "tags": {"amenity": "school", "name": "Kendriya Vidyalaya, DRDO, Kanchanbagh"}}, {"type": "node", "id": 2208158646, "lat": 17.3618384, "lon": 78.4819749, "tags": {"amenity": "school", "name": "Dharmavant High School", "name:te": "\u0c27\u0c30\u0c4d\u0c2e\u0c35\u0c02\u0c24\u0c4d \u0c39\u0c48 \u0c38\u0c4d\u0c15\u0c42\u0c32\u0c4d"}}, {"type": "node", "id": 2418717380, "lat": 17.317087, "lon": 78.4812804}, {"type": "node", "id": 2418717384, "lat": 17.3185815, "lon": 78.4799491}, {"type": "node", "id": 2418717386, "lat": 17.3197931, "lon": 78.4801548}, {"type": "node", "id": 2418717389, "lat": 17.3191742, "lon": 78.4811563}, {"type": "node", "id": 2460450525, "lat": 17.3171066, "lon": 78.4796258}, {"type": "node", "id": 2460450529, "lat": 17.3197988, "lon": 78.481116}, {"type": "node", "id": 3619598670, "lat": 17.3936166, "lon": 78.4559896}, {"type": "node", "id": 3619598681, "lat": 17.393693, "lon": 78.455929}, {"type": "node", "id": 3619598690, "lat": 17.3937273, "lon": 78.456143}, {"type": "node", "id": 3619598804, "lat": 17.3938037, "lon": 78.4560825}, {"type": "node", "id": 3619599332, "lat": 17.3948966, "lon": 78.4545076}, {"type": "node", "id": 3619599338, "lat": 17.394918, "lon": 78.454636}, {"type": "node", "id": 3619599361, "lat": 17.3951054, "lon": 78.4544694}, {"type": "node", "id": 3619599363, "lat": 17.3951268, "lon": 78.4545978}, {"type": "node", "id": 3664113899, "lat": 17.3828927, "lon": 78.4544736}, {"type": "node", "id": 3664113900, "lat": 17.3828959, "lon": 78.4543561}, {"type": "node", "id": 3664113942, "lat": 17.3832519, "lon": 78.4544844}, {"type": "node", "id": 3664113943, "lat": 17.3832551, "lon": 78.4543668}, {"type": "node", "id": 4739312650, "lat": 17.3680742, "lon": 78.5156883, "tags": {"addr:city": "hyderabad", "addr:housenumber": "Asmangadh palace", "addr:postcode": "500036", "amenity": "school", "name": "St joseph's public school", "operator": "School", "website": "http://sjpsmalakpet.com/"}}, {"type": "node", "id": 4739316297, "lat": 17.368494, "lon": 78.5146455}, {"type": "node", "id": 4739316298, "lat": 17.3683775, "lon": 78.5152932}, {"type": "node", "id": 4739316299, "lat": 17.368337, "lon": 78.5158789}, {"type": "node", "id": 4739316300, "lat": 17.3683386, "lon": 78.5160223}, {"type": "node", "id": 4739316301, "lat": 17.3675049, "lon": 78.5160285}, {"type": "node", "id": 4739316302, "lat": 17.3674848, "lon": 78.5155095}, {"type": "node", "id": 4739316303, "lat": 17.3677719, "lon": 78.5154912}, {"type": "node", "id": 4739316304, "lat": 17.3677816, "lon": 78.5151477}, {"type": "node", "id": 4739316305, "lat": 17.3681464, "lon": 78.5152025}, {"type": "node", "id": 4739316306, "lat": 17.3682744, "lon": 78.514607}, {"type": "node", "id": 4796530721, "lat": 17.3593826, "lon": 78.5045484, "tags": {"amenity": "school", "name": "Sri Vidya vardhini high school", "name:en": "Sri Vidya vardhini high school"}}, {"type": "node", "id": 4972953421, "lat": 17.3621596, "lon": 78.5020934, "tags": {"amenity": "school", "name": "Kare school", "name:en": "Kare school"}}, {"type": "node", "id": 5389639230, "lat": 17.3940612, "lon": 78.4514384, "tags": {"amenity": "school", "name": "St Joseph high school (kindergarten block)"}}, {"type": "node", "id": 5565535476, "lat": 17.3944606, "lon": 78.4382545, "tags": {"amenity": "school", "name": "Sri chaitanya school", "name:en": "Sri Chaitanya School Mehdipatnam"}}, {"type": "node", "id": 5625674125, "lat": 17.3918238, "lon": 78.4373826, "tags": {"amenity": "school", "name": "Tiny tots school"}}, {"type": "node", "id": 6208287186, "lat": 17.3834054, "lon": 78.4793975, "tags": {"amenity": "school", "name": "Viveka Vardhani School"}}, {"type": "node", "id": 7088336248, "lat": 17.3529531, "lon": 78.507007, "tags": {"amenity": "school", "name": "Angel's Convent High School"}}, {"type": "node", "id": 7244480673, "lat": 17.3931364, "lon": 78.4365999, "tags": {"amenity": "school", "name": "G. Pulla Reddy High School"}}, {"type": "node", "id": 7244480674, "lat": 17.3941834, "lon": 78.4365354, "tags": {"amenity": "school", "name": "G. Pulla Reddy High School grounds"}}, {"type": "node", "id": 7375397983, "lat": 17.3898991, "lon": 78.5097805, "tags": {"amenity": "school", "name": "Bharati Vidya Bhavan High School"}}, {"type": "node", "id": 7527829347, "lat": 17.348503, "lon": 78.5097698, "tags": {"addr:street": "Durga Bhavani Nagar, Road No 1", "amenity": "school", "description": "Nursery to Class-1", "name": "Vidya Dayini Pre-Primary School", "phone": "04024531653, 04024530353"}}, {"type": "node", "id": 7716811637, "lat": 17.3414005, "lon": 78.4714209}, {"type": "node", "id": 8077237916, "lat": 17.357872, "lon": 78.5054576, "tags": {"addr:city": "Hyderbad", "addr:state": "Telangana", "addr:street": "Sayeedabad Road", "amenity": "school", "name": "\u0633\u06a9\u0633\u06cc\u0633 \u0627\u0633\u06a9\u0648\u0644", "name:en": "Success School"}}, {"type": "node", "id": 8233700556, "lat": 17.368147, "lon": 78.50494}, {"type": "node", "id": 8233700557, "lat": 17.3681351, "lon": 78.5051917}, {"type": "node", "id": 8233700558, "lat": 17.3683801, "lon": 78.5052515}, {"type": "node", "id": 8233700559, "lat": 17.3684444, "lon": 78.5049525}, {"type": "node", "id": 8233700560, "lat": 17.3683207, "lon": 78.5049325}, {"type": "node", "id": 8233700561, "lat": 17.3681482, "lon": 78.5049238}, {"type": "node", "id": 8233701014, "lat": 17.371567, "lon": 78.5037063, "tags": {"amenity": "school", "grades": "1-10", "name": "Petros high school"}}, {"type": "node", "id": 8259012752, "lat": 17.381063, "lon": 78.4393913, "tags": {"amenity": "school", "name": "newgen", "website": "https://www.newgenhighschool.com/"}}, {"type": "node", "id": 8387539872, "lat": 17.357889, "lon": 78.4615836, "tags": {"addr:city": "hyderabad", "addr:postcode": "500064", "addr:street": "doodhbowli", "amenity": "school", "grades": "1-3", "name": "kasturibhai girls high school"}}, {"type": "node", "id": 8866621215, "lat": 17.3723374, "lon": 78.5144147, "tags": {"addr:housenumber": "9GC7+QH Hyderabad, Telangana", "addr:street": "H No 16-11-310/8/c/d/1, Near Hegade Nursing Home Salem nagar, Moosarambagh Rd, Malakpet, Hyderabad, Telangana 500036", "amenity": "school", "name": "St.Domnics High School", "phone": "040 2454 8892"}}, {"type": "node", "id": 8911008864, "lat": 17.3892953, "lon": 78.5105136, "tags": {"amenity": "school", "name": "Twin Cities High School"}}, {"type": "node", "id": 9605498384, "lat": 17.3415518, "lon": 78.4716137}, {"type": "node", "id": 9605498385, "lat": 17.3417184, "lon": 78.472091}, {"type": "node", "id": 9605498386, "lat": 17.3417077, "lon": 78.472328}, {"type": "node", "id": 9605498387, "lat": 17.3415395, "lon": 78.4723568}, {"type": "node", "id": 9605498388, "lat": 17.3415243, "lon": 78.4726035}, {"type": "node", "id": 9605498389, "lat": 17.3413255, "lon": 78.4726019}, {"type": "node", "id": 9605498390, "lat": 17.3410335, "lon": 78.4725362}, {"type": "node", "id": 9605498391, "lat": 17.340951, "lon": 78.4723664}, {"type": "node", "id": 9605498392, "lat": 17.3409357, "lon": 78.4718459}, {"type": "node", "id": 9605498393, "lat": 17.3413958, "lon": 78.4713975}, {"type": "node", "id": 9708882625, "lat": 17.3485722, "lon": 78.5088044, "tags": {"amenity": "school", "name": "bhashyam high school"}}, {"type": "node", "id": 9885051455, "lat": 17.3758779, "lon": 78.4882815, "tags": {"amenity": "school"}}, {"type": "node", "id": 9885051475, "lat": 17.3773268, "lon": 78.4863801, "tags": {"amenity": "school", "name": "Arya Samaj School"}}, {"type": "node", "id": 9913821065, "lat": 17.3781457, "lon": 78.4369801, "tags": {"amenity": "school", "name": "Sri Gayatri School"}}, {"type": "node", "id": 9913821067, "lat": 17.3802769, "lon": 78.4394986, "tags": {"amenity": "school", "name": "Vivekananda School"}}, {"type": "node", "id": 10019985224, "lat": 17.3697332, "lon": 78.4231754, "tags": {"amenity": "school", "name": "Sri Chaitanya School, Hyderguda"}}, {"type": "node", "id": 10020074718, "lat": 17.3739106, "lon": 78.4518668, "tags": {"amenity": "school", "name": "Bharathi Vidya Nikethan School"}}, {"type": "node", "id": 10075681247, "lat": 17.3302879, "lon": 78.4868622, "tags": {"addr:housenumber": "8FJP+4P9, Hyderabad", "addr:street": "8FJP+4P9, DMRL Main Road, Hafiz Baba Nagar North, Kanchan Bagh, Hyderabad", "amenity": "school", "name": "Vikas High School", "opening_hours": "Mo-Sa 08:30-04:30"}}, {"type": "node", "id": 10277936648, "lat": 17.3063269, "lon": 78.4396489, "tags": {"amenity": "school", "name": "Sri Narayana School"}}, {"type": "node", "id": 10279304203, "lat": 17.3626729, "lon": 78.4439258, "tags": {"amenity": "school", "name": "newton mission high school"}}, {"type": "node", "id": 10279305411, "lat": 17.3626937, "lon": 78.4440837}, {"type": "node", "id": 10279305412, "lat": 17.362518, "lon": 78.4438768}, {"type": "node", "id": 10279452107, "lat": 17.3598869, "lon": 78.4414484}, {"type": "node", "id": 10279452108, "lat": 17.3596022, "lon": 78.4412902}, {"type": "node", "id": 10279481509, "lat": 17.3595165, "lon": 78.4414594}, {"type": "node", "id": 10279481510, "lat": 17.3595319, "lon": 78.4414766}, {"type": "node", "id": 10279481511, "lat": 17.3595049, "lon": 78.4415299}, {"type": "node", "id": 10279481512, "lat": 17.3596368, "lon": 78.4416033}, {"type": "node", "id": 10279481513, "lat": 17.3596688, "lon": 78.44154}, {"type": "node", "id": 10279481514, "lat": 17.3595731, "lon": 78.4414868}, {"type": "node", "id": 10279481515, "lat": 17.3596163, "lon": 78.4414014}, {"type": "node", "id": 10279481516, "lat": 17.359846, "lon": 78.4415292}, {"type": "node", "id": 10279481517, "lat": 17.3597495, "lon": 78.4415722, "tags": {"amenity": "school", "name": "School Ground"}}, {"type": "node", "id": 10279481519, "lat": 17.3616764, "lon": 78.4419501, "tags": {"amenity": "school", "name": "Vidya Bharthi High School"}}, {"type": "node", "id": 10764939245, "lat": 17.3780079, "lon": 78.4480161}, {"type": "node", "id": 10764939246, "lat": 17.3780343, "lon": 78.4481634}, {"type": "node", "id": 10764939247, "lat": 17.3779853, "lon": 78.4481772}, {"type": "node", "id": 10764939248, "lat": 17.3779636, "lon": 78.4480586}, {"type": "node", "id": 10764939249, "lat": 17.3779145, "lon": 78.4480636}, {"type": "node", "id": 10764939250, "lat": 17.3779089, "lon": 78.4480141}, {"type": "node", "id": 10764939251, "lat": 17.3779768, "lon": 78.4480082}, {"type": "node", "id": 10764939252, "lat": 17.378017, "lon": 78.4480669}, {"type": "node", "id": 10764939253, "lat": 17.3779976, "lon": 78.4480818, "tags": {"addr:city": "Natraj Nagar Jirra,", "addr:postcode": "500006", "amenity": "school", "name": "New Eden school"}}, {"type": "node", "id": 10764939262, "lat": 17.3749679, "lon": 78.4488247}, {"type": "node", "id": 10764939263, "lat": 17.3749607, "lon": 78.4489658}, {"type": "node", "id": 10764939264, "lat": 17.3748116, "lon": 78.4489677}, {"type": "node", "id": 10764939265, "lat": 17.3748152, "lon": 78.4488153}, {"type": "node", "id": 10764939266, "lat": 17.3748745, "lon": 78.4489018, "tags": {"addr:city": "Ambedkar nagar, Tappa chabhudra", "addr:postcode": "500006", "amenity": "school", "name": "Jasmin Techno School"}}, {"type": "node", "id": 10836262027, "lat": 17.3780049, "lon": 78.438844, "tags": {"amenity": "school", "name": "Governament School"}}, {"type": "node", "id": 10836262034, "lat": 17.3803567, "lon": 78.4397296, "tags": {"amenity": "school", "name": "Newgen High School"}}, {"type": "node", "id": 11365536232, "lat": 17.3403461, "lon": 78.4696002, "tags": {"amenity": "school", "name": "Sri Chaitanya School"}}, {"type": "node", "id": 11365536250, "lat": 17.339785, "lon": 78.4702743}, {"type": "node", "id": 11365536251, "lat": 17.3393487, "lon": 78.4702908}, {"type": "node", "id": 11365536252, "lat": 17.3393629, "lon": 78.470703}, {"type": "node", "id": 11365536253, "lat": 17.3397993, "lon": 78.4706865}, {"type": "node", "id": 11365536254, "lat": 17.3397843, "lon": 78.4702513}, {"type": "node", "id": 11365536259, "lat": 17.3400659, "lon": 78.4731667, "tags": {"amenity": "school", "name": "Thakshashila HIgh School"}}, {"type": "node", "id": 11365562311, "lat": 17.3425036, "lon": 78.4748167}, {"type": "node", "id": 11365562312, "lat": 17.3423284, "lon": 78.4747908}, {"type": "node", "id": 11365562313, "lat": 17.3424913, "lon": 78.4749078}, {"type": "node", "id": 11365628296, "lat": 17.3371624, "lon": 78.4737816, "tags": {"amenity": "school", "name": "Govt Girls High School  And College"}}, {"type": "node", "id": 11365804003, "lat": 17.3399877, "lon": 78.4735935, "tags": {"amenity": "school", "name": "Saraswati vidhya mandir"}}, {"type": "node", "id": 11462470507, "lat": 17.3423161, "lon": 78.4748818}, {"type": "node", "id": 12245832501, "lat": 17.3934767, "lon": 78.455121, "tags": {"amenity": "school", "name": "Government High School, Vijayanagar Colony"}}, {"type": "node", "id": 12245832601, "lat": 17.3799762, "lon": 78.483112, "tags": {"amenity": "school", "name": "Vivek Vardhini Kanyashala School"}}, {"type": "node", "id": 12787727915, "lat": 17.3627828, "lon": 78.4440006}, {"type": "node", "id": 12787727916, "lat": 17.3626072, "lon": 78.4437937}, {"type": "way", "id": 233492309, "nodes": [2418717389, 2418717380, 2460450525, 2418717384, 2418717386, 2460450529, 2418717389], "tags": {"addr:housename": "KVCRPF, Barkas", "amenity": "school", "name": "Kendriya Vidyalaya CRPF"}}, {"type": "way", "id": 356555597, "nodes": [3619598681, 3619598804, 3619598690, 3619598670, 3619598681], "tags": {"amenity": "school", "building": "yes", "name": "Loyola School"}}, {"type": "way", "id": 356555685, "nodes": [3619599361, 3619599363, 3619599338, 3619599332, 3619599361], "tags": {"amenity": "school", "building": "yes", "name": "Loyola School"}}, {"type": "way", "id": 362018570, "nodes": [3664113900, 3664113943, 3664113942, 3664113899, 3664113900], "tags": {"amenity": "school", "building": "yes", "name": "Goodwill Model School"}}, {"type": "way", "id": 480983272, "nodes": [4739316297, 4739316298, 4739316299, 4739316300, 4739316301, 4739316302, 4739316303, 4739316304, 4739316305, 4739316306, 4739316297], "tags": {"amenity": "school", "name": "St Jospeph High School"}}, {"type": "way", "id": 885449286, "nodes": [8233700556, 8233700557, 8233700558, 8233700559, 8233700560, 8233700561, 8233700556], "tags": {"amenity": "school", "name": "MDA vidhyalaya"}}, {"type": "way", "id": 1043717438, "nodes": [9605498384, 9605498385, 9605498386, 9605498387, 9605498388, 9605498389, 9605498390, 9605498391, 9605498392, 9605498393, 7716811637, 9605498384], "tags": {"amenity": "school", "name": "sharadha school"}}, {"type": "way", "id": 1124048925, "nodes": [12787727915, 10279305411, 10279305412, 12787727916, 12787727915], "tags": {"amenity": "school", "building": "yes"}}, {"type": "way", "id": 1124063177, "nodes": [10279452107, 10279452108, 10279481509, 10279481510, 10279481511, 10279481512, 10279481513, 10279481514, 10279481515, 10279481516, 10279452107], "tags": {"amenity": "school", "building": "yes", "name": "Govt High School"}}, {"type": "way", "id": 1157549417, "nodes": [10764939245, 10764939252, 10764939246, 10764939247, 10764939248, 10764939249, 10764939250, 10764939251, 10764939245], "tags": {"amenity": "school"}}, {"type": "way", "id": 1157549420, "nodes": [10764939262, 10764939263, 10764939264, 10764939265, 10764939262], "tags": {"addr:city": "Ambedkar nagar colony, Tappa chabhudra", "addr:postcode": "500006", "amenity": "school"}}, {"type": "way", "id": 1225570321, "nodes": [11365536250, 11365536251, 11365536252, 11365536253, 11365536254, 11365536250], "tags": {"amenity": "school"}}, {"type": "way", "id": 1225572881, "nodes": [11365562311, 11365562312, 11462470507, 11365562313, 11365562311], "tags": {"amenity": "school", "name": "Emily The School"}}]}