{"version": 0.6, "generator": "Overpass API 0.7.62.8 e802775f", "osm3s": {"timestamp_osm_base": "2026-01-13T03:13:40Z", "copyright": "The data included in this document is from www.openstreetmap.org. The data is made available under ODbL."}, "elements": [{"type": "node", "id": 1930607012, "lat": 17.3937118, "lon": 78.4269709}, {"type": "node", "id": 1930607014, "lat": 17.3935093, "lon": 78.4269808}, {"type": "node", "id": 1930607015, "lat": 17.3935375, "lon": 78.4276131}, {"type": "node", "id": 1930607016, "lat": 17.3937399, "lon": 78.4276032}, {"type": "node", "id": 2460471023, "lat": 17.3596526, "lon": 78.4753489}, {"type": "node", "id": 2460471024, "lat": 17.3597939, "lon": 78.4746054}, {"type": "node", "id": 2460471025, "lat": 17.3600489, "lon": 78.474615}, {"type": "node", "id": 2460471026, "lat": 17.3600796, "lon": 78.4744927}, {"type": "node", "id": 2460471027, "lat": 17.3606448, "lon": 78.4756096}, {"type": "node", "id": 2460471028, "lat": 17.3606909, "lon": 78.4754293}, {"type": "node", "id": 2460471029, "lat": 17.3608568, "lon": 78.474953}, {"type": "node", "id": 2460471030, "lat": 17.3608967, "lon": 78.4746472}, {"type": "node", "id": 2460471031, "lat": 17.3609981, "lon": 78.4754905}, {"type": "node", "id": 2460471032, "lat": 17.3610995, "lon": 78.474998}, {"type": "node", "id": 2461299757, "lat": 17.3686232, "lon": 78.4739305}, {"type": "node", "id": 2461299760, "lat": 17.3686579, "lon": 78.4729812}, {"type": "node", "id": 2461299761, "lat": 17.3686608, "lon": 78.4735071}, {"type": "node", "id": 2461299764, "lat": 17.3687305, "lon": 78.4752181}, {"type": "node", "id": 2461299840, "lat": 17.3698692, "lon": 78.4727566}, {"type": "node", "id": 2461299844, "lat": 17.3700194, "lon": 78.4736539}, {"type": "node", "id": 2461299858, "lat": 17.3702558, "lon": 78.4754464}, {"type": "node", "id": 2461304326, "lat": 17.3689497, "lon": 78.4752094}, {"type": "node", "id": 2461304360, "lat": 17.369408, "lon": 78.4752138}, {"type": "node", "id": 2461304364, "lat": 17.3695958, "lon": 78.475207}, {"type": "node", "id": 2461447814, "lat": 17.3680405, "lon": 78.4666224}, {"type": "node", "id": 2461447816, "lat": 17.3681548, "lon": 78.468269}, {"type": "node", "id": 2461447817, "lat": 17.3688558, "lon": 78.4682155}, {"type": "node", "id": 2461478505, "lat": 17.3710101, "lon": 78.4717437}, {"type": "node", "id": 2461478506, "lat": 17.3710863, "lon": 78.4711892}, {"type": "node", "id": 2461478507, "lat": 17.3716383, "lon": 78.4741491}, {"type": "node", "id": 2461478508, "lat": 17.3719924, "lon": 78.4750586}, {"type": "node", "id": 2461478509, "lat": 17.3722208, "lon": 78.4712131}, {"type": "node", "id": 2461478512, "lat": 17.3722322, "lon": 78.4716599}, {"type": "node", "id": 2461478513, "lat": 17.3724302, "lon": 78.475633}, {"type": "node", "id": 2461478515, "lat": 17.3725863, "lon": 78.4716838}, {"type": "node", "id": 2461478517, "lat": 17.3726738, "lon": 78.4727449}, {"type": "node", "id": 2461478519, "lat": 17.3727667, "lon": 78.4757996}, {"type": "node", "id": 2461478523, "lat": 17.3731421, "lon": 78.472713}, {"type": "node", "id": 2461478525, "lat": 17.3731878, "lon": 78.4758325}, {"type": "node", "id": 2461478526, "lat": 17.3736256, "lon": 78.4730162}, {"type": "node", "id": 2461478527, "lat": 17.3737398, "lon": 78.4726771}, {"type": "node", "id": 2461478528, "lat": 17.3738331, "lon": 78.4758285}, {"type": "node", "id": 2461478530, "lat": 17.3738388, "lon": 78.473084}, {"type": "node", "id": 2461478532, "lat": 17.3738426, "lon": 78.4738419}, {"type": "node", "id": 2461478534, "lat": 17.3738636, "lon": 78.4752541}, {"type": "node", "id": 2461478536, "lat": 17.3740692, "lon": 78.4752541}, {"type": "node", "id": 2461478538, "lat": 17.3743337, "lon": 78.4752999}, {"type": "node", "id": 2461478540, "lat": 17.3743452, "lon": 78.4751164}, {"type": "node", "id": 2461478542, "lat": 17.3745279, "lon": 78.4751264}, {"type": "node", "id": 2461478551, "lat": 17.3747639, "lon": 78.4738818}, {"type": "node", "id": 2461478970, "lat": 17.371624, "lon": 78.4740943}, {"type": "node", "id": 2533171513, "lat": 17.3142166, "lon": 78.4046423}, {"type": "node", "id": 2533171514, "lat": 17.3140207, "lon": 78.4045019}, {"type": "node", "id": 2533171515, "lat": 17.3139889, "lon": 78.4045506}, {"type": "node", "id": 2533171516, "lat": 17.3138691, "lon": 78.4044647}, {"type": "node", "id": 2533171517, "lat": 17.3138088, "lon": 78.404557}, {"type": "node", "id": 2533171518, "lat": 17.3139244, "lon": 78.4046398}, {"type": "node", "id": 2533171519, "lat": 17.31391, "lon": 78.4046618}, {"type": "node", "id": 2533171520, "lat": 17.3139375, "lon": 78.4046815}, {"type": "node", "id": 2533171521, "lat": 17.3139756, "lon": 78.4046232}, {"type": "node", "id": 2533171522, "lat": 17.3140718, "lon": 78.4046921}, {"type": "node", "id": 2533171523, "lat": 17.3140583, "lon": 78.4047128}, {"type": "node", "id": 2533171524, "lat": 17.3141018, "lon": 78.4047439}, {"type": "node", "id": 2533171525, "lat": 17.3141494, "lon": 78.4047452}, {"type": "node", "id": 2533171526, "lat": 17.3141164, "lon": 78.4047215}, {"type": "node", "id": 3390633309, "lat": 17.3687414, "lon": 78.466569}, {"type": "node", "id": 3619376473, "lat": 17.3949298, "lon": 78.472138}, {"type": "node", "id": 3619376477, "lat": 17.3949417, "lon": 78.4719836}, {"type": "node", "id": 3619377003, "lat": 17.3951425, "lon": 78.472156}, {"type": "node", "id": 3619377010, "lat": 17.3951544, "lon": 78.4720017}, {"type": "node", "id": 3619476945, "lat": 17.3942665, "lon": 78.4517846}, {"type": "node", "id": 3619476956, "lat": 17.394304, "lon": 78.4518731}, {"type": "node", "id": 3619476978, "lat": 17.3943949, "lon": 78.4517249}, {"type": "node", "id": 3619476990, "lat": 17.3944324, "lon": 78.4518134}, {"type": "node", "id": 3668069411, "lat": 17.3714238, "lon": 78.4438197}, {"type": "node", "id": 3668069412, "lat": 17.3714462, "lon": 78.4436644}, {"type": "node", "id": 3668069428, "lat": 17.3715555, "lon": 78.4438406}, {"type": "node", "id": 3668069431, "lat": 17.3715689, "lon": 78.4437479}, {"type": "node", "id": 4178292014, "lat": 17.3933101, "lon": 78.4717018}, {"type": "node", "id": 4178292015, "lat": 17.3933492, "lon": 78.4722235}, {"type": "node", "id": 4178292016, "lat": 17.3934864, "lon": 78.4716873}, {"type": "node", "id": 4178292017, "lat": 17.3934971, "lon": 78.4718307}, {"type": "node", "id": 4178292019, "lat": 17.3935317, "lon": 78.4720756}, {"type": "node", "id": 4178292020, "lat": 17.3935416, "lon": 78.4722077}, {"type": "node", "id": 4178292023, "lat": 17.3936606, "lon": 78.471673}, {"type": "node", "id": 4178292024, "lat": 17.3936713, "lon": 78.4718164}, {"type": "node", "id": 4178292025, "lat": 17.3936992, "lon": 78.4720618}, {"type": "node", "id": 4178292026, "lat": 17.3937091, "lon": 78.4721939}, {"type": "node", "id": 4178292032, "lat": 17.3938248, "lon": 78.4716595}, {"type": "node", "id": 4178292041, "lat": 17.3938638, "lon": 78.4721812}, {"type": "node", "id": 4972310519, "lat": 17.3448605, "lon": 78.4599543, "tags": {"addr:city": "Hyderabad", "addr:housenumber": "19-2-24/11/A/B", "addr:locality": "Ali Bagh", "addr:postcode": "500053", "amenity": "hospital", "name": "Health Care Clinic", "operator": "Dr.Rehan Siddiqui"}}, {"type": "node", "id": 5679345122, "lat": 17.3497123, "lon": 78.4707124, "tags": {"amenity": "hospital", "name": "Sitara medical center"}}, {"type": "node", "id": 5876735151, "lat": 17.3140538, "lon": 78.4045957, "tags": {"amenity": "hospital", "emergency": "yes", "name": "NIRD heatlth centre"}}, {"type": "node", "id": 6216425386, "lat": 17.3948133, "lon": 78.4525058, "tags": {"amenity": "hospital", "name": "Mahatma Sriramachandra Centenary Memorial Hospital"}}, {"type": "node", "id": 6220365686, "lat": 17.3946344, "lon": 78.4519084, "tags": {"addr:district": "Hyderabad", "addr:full": "229/2RT, Beside Post Office , Vijayanagar Colony", "addr:postcode": "500057", "addr:state": "Telangana", "amenity": "hospital", "name": "Rohan Hospital", "source": "OpenGovernmentData"}}, {"type": "node", "id": 6479961202, "lat": 17.3913878, "lon": 78.4369875, "tags": {"addr:district": "Hyderabad", "addr:full": "#12-2-823/A/46, Near Santosh Nagar Park, Lane Opposite Pillar 19, Santosh Nagar Colony, Mehdipatnam", "addr:postcode": "500028", "addr:state": "Telangana", "amenity": "hospital", "contact:email": "arjun.e@apoorvahospital.com", "health_facility:type": "Lounge; Reception; PICU; State of Art Equipments; 24 hours Pediatric Emergencies; Surgical Facilities", "medical_system": "Allopathic", "name": "Apoorva Hospital", "operator:type": "private", "phone": "040 65503232; 040 23521139", "source": "OpenGovernmentData", "website": "http://www.apoorvahospital.com"}}, {"type": "node", "id": 6481952537, "lat": 17.3854315, "lon": 78.4747114, "tags": {"addr:district": "Hyderabad", "addr:full": "Opp. Exhibition Grounds Road, Nampally, Chandra Viha, Kattel Mandi, Abids", "addr:postcode": "500001", "addr:state": "Telangana", "amenity": "hospital", "contact:email": "info@carehospitals.com", "emergency_telephone_code": "040 30417777", "health_facility:type": "Blood Bank;Ambulance;Emergency Room;Food;Pharmacy;Day Care", "healthcare:speciality": "multi speciality", "medical_system": "Allopathic", "name": "Care Hospital, Nampally", "operator:type": "private", "phone": "040 30417777", "source": "OpenGovernmentData", "website": "https://www.carehospitals.com/"}}, {"type": "node", "id": 6481959033, "lat": 17.3851141, "lon": 78.4754102, "tags": {"addr:district": "Hyderabad", "addr:full": "5-4-183 To 199, Twin City Market Complex, Moazam Jahi Market", "addr:postcode": "500001", "addr:state": "Telangana", "amenity": "hospital", "fax": "040 24744223", "name": "Aarogya Hospital", "source": "OpenGovernmentData"}}, {"type": "node", "id": 6481978987, "lat": 17.3918945, "lon": 78.4378043, "tags": {"addr:district": "Hyderabad", "addr:full": "12-2-824, P.V. Narasimha Rao Express Way, Near St.Anns Women's College, Mehdipatnam", "addr:postcode": "500028", "addr:state": "Telangana", "amenity": "hospital", "name": "Arvind Eye Hospital", "phone": "040 2351 2233", "source": "OpenGovernmentData", "website": "www.aravindeyecarehospitals.com"}}, {"type": "node", "id": 6484721973, "lat": 17.3942929, "lon": 78.4419228, "tags": {"addr:district": "Hyderabad", "addr:full": "10-3-5/E/106, Sakina Complex, Mehdipatnam", "addr:postcode": "500028", "addr:state": "Telangana", "amenity": "hospital", "fax": "040-23513839;040-55578888", "name": "Sai Preethi Life Line Hospital", "source": "OpenGovernmentData"}}, {"type": "node", "id": 6484856482, "lat": 17.3644409, "lon": 78.4731994, "tags": {"addr:district": "Hyderabad", "addr:full": "21-7-191, Mama Jumla Phatak, Charkaman", "addr:postcode": "500002", "addr:state": "Telangana", "amenity": "hospital", "name": "Smt. Bhagwan Devi Hospital", "source": "OpenGovernmentData"}}, {"type": "node", "id": 6484886609, "lat": 17.3729437, "lon": 78.4673019, "tags": {"addr:district": "Hyderabad", "addr:full": "Nagarkhana, Begum Bazar", "addr:postcode": "500012", "addr:state": "Telangana", "amenity": "hospital", "name": "Kishorechand Chordia Eye Centre", "source": "OpenGovernmentData"}}, {"type": "node", "id": 6485264332, "lat": 17.3755381, "lon": 78.4190255, "tags": {"addr:district": "Hyderabad", "addr:full": "9-1-43/24, Langar House", "addr:postcode": "500008", "addr:state": "Telangana", "amenity": "hospital", "name": "Kosaraju Hospitals Private Ltd.", "source": "OpenGovernmentData"}}, {"type": "node", "id": 6485441362, "lat": 17.3944196, "lon": 78.4626817, "tags": {"addr:district": "Hyderabad", "addr:full": "11-5-80, Bazar Ghat ' X' Roads", "addr:postcode": "500004", "addr:state": "Telangana", "amenity": "hospital", "name": "Nisha Hospital", "source": "OpenGovernmentData"}}, {"type": "node", "id": 6485587478, "lat": 17.3818518, "lon": 78.4727287, "tags": {"addr:district": "Hyderabad", "addr:full": "Door No.5-3-832/8/1&2, Indian Oil Petrol Pump, M.J. Market", "addr:postcode": "500012", "addr:state": "Telangana", "amenity": "hospital", "name": "Goshamahal Hospital", "source": "OpenGovernmentData"}}, {"type": "node", "id": 6485668057, "lat": 17.3763924, "lon": 78.4676445, "tags": {"addr:city": "Hyderabad", "addr:district": "Hyderabad", "addr:full": "14-2-163, Opposite L.M.G. School, Joshiwadi, Begum Bazar", "addr:postcode": "500012", "addr:state": "Telangana", "amenity": "hospital", "name": "Deepa Hospital", "source": "OpenGovernmentData"}}, {"type": "node", "id": 6485824573, "lat": 17.3915772, "lon": 78.4268716, "tags": {"addr:district": "Hyderabad", "addr:full": "12-2-718, Khader Bagh Road, Toli Chowki, Padmanabha Nagar, Mehdipatnam", "addr:postcode": "500028", "addr:state": "Telangana", "amenity": "hospital", "check_date": "2025-03-25", "contact:mobile": "+91 7702001163", "contact:phone": "040-2351 5100", "name": "Premier Hospital", "source": "OpenGovernmentData", "website": "https://www.premierhospital.in"}}, {"type": "node", "id": 6485889000, "lat": 17.376004, "lon": 78.4190007, "tags": {"addr:district": "Hyderabad", "addr:full": "9-1-43/8, Near Alankar Cinemas, Langar Houz", "addr:postcode": "500008", "addr:state": "Telangana", "amenity": "hospital", "name": "Vasu Hospital", "source": "OpenGovernmentData"}}, {"type": "node", "id": 6486047722, "lat": 17.3652026, "lon": 78.3969207, "tags": {"addr:district": "Hyderabad", "addr:full": "Hydershakote,Himagiri Nagar Colony,Near Shadan Medical College", "addr:postcode": "500008", "addr:state": "Telangana", "amenity": "hospital", "fax": "24190501", "name": "Sun City Nursing Home", "source": "OpenGovernmentData"}}, {"type": "node", "id": 6487137845, "lat": 17.394618, "lon": 78.4386519, "tags": {"addr:district": "Hyderabad", "addr:full": "#12-2-823/A/10, Opposite Jaya Bhushan Bus Stop & ICICI Bank, Santosh Nagar Colony, Mehdipatnam", "addr:postcode": "500028", "addr:state": "Telangana", "amenity": "hospital", "contact:email": "anishkolly@theendocrinologist.com", "contact:phone": "040-66563334", "healthcare": "hospital", "name": "Jaya Bhushan Hospitals Pvt. Ltd", "source": "OpenGovernmentData"}}, {"type": "node", "id": 6487200705, "lat": 17.3913379, "lon": 78.4348029, "tags": {"addr:district": "Hyderabad", "addr:full": "12-2-790/74, Ayodhya Nagar Colony Mehdipatnam", "addr:postcode": "500028", "addr:state": "Telangana", "amenity": "hospital", "name": "Ayodhya Nursing Home", "source": "OpenGovernmentData"}}, {"type": "node", "id": 6487263499, "lat": 17.3178961, "lon": 78.4453909, "tags": {"addr:district": "Hyderabad", "addr:full": "8-1-206/A,Opposite Shivalayam Temple, Raghavendra Hills, Mailardevpally, Nawab Saheb Kunta", "addr:postcode": "500005", "addr:state": "Telangana", "amenity": "hospital", "name": "Sree Raghavendra Hospital", "source": "OpenGovernmentData"}}, {"type": "node", "id": 6489894585, "lat": 17.3879656, "lon": 78.4397234, "tags": {"addr:district": "Hyderabad", "addr:full": "Gudimalkapur, Opp LIC Office, Mehdipatnam", "addr:postcode": "500028", "addr:state": "Telangana", "amenity": "hospital", "name": "Anusha Hospital", "source": "OpenGovernmentData"}}, {"type": "node", "id": 6493336766, "lat": 17.3926842, "lon": 78.4455183, "tags": {"addr:district": "Hyderabad", "addr:full": "10-2-524 & 531, Near Canara Bank, Upstair Mirza Street, M.C.H Colony, Asif Nagar", "addr:postcode": "500028", "addr:state": "Telangana", "amenity": "hospital", "name": "Aries Maternity Hospital", "source": "OpenGovernmentData"}}, {"type": "node", "id": 6494489670, "lat": 17.3655046, "lon": 78.4620085, "tags": {"addr:district": "Hyderabad", "addr:full": "21-4-736, Gulab Singh Lane, Hussaini Alam, Near Purana Pul", "addr:postcode": "500064", "addr:state": "Telangana", "amenity": "hospital", "email": "contact@medshospital.org", "name": "Meds Hospital", "phone": "+91 40 24521890", "source": "OpenGovernmentData", "website": "www.medshospital.org"}}, {"type": "node", "id": 6496875044, "lat": 17.379978, "lon": 78.421019, "tags": {"addr:district": "Hyderabad", "addr:full": "Bapu Nagar, Langar Houz", "addr:postcode": "500008", "addr:state": "Telangana", "amenity": "hospital", "contact:email": "majestic.hospital@yahoo.com", "healthcare:speciality": "General Surgery; Pediatric; Orthopedics; Obstetrics and Gynaecology; ENT; Anesthesiology; Opthamology; Dermatology", "medical_system": "Allopathic", "name": "Majestic Hospital", "operator:type": "private", "phone": "040 23521051", "source": "OpenGovernmentData", "website": "https://majestichospital.com/"}}, {"type": "node", "id": 6496907674, "lat": 17.3913737, "lon": 78.4757126, "tags": {"addr:district": "Hyderabad", "addr:full": "5-8-535, Beside Santosh Sapna Theatre, Abids Road", "addr:postcode": "500001", "addr:state": "Telangana", "amenity": "hospital", "email": "info@shantabainursinghome.com", "health_facility:type": "24 Hour Obstetric Care;24 Hour General Surgical Care;Intrauterine Insemination;Diagnostic Lab;Well Equipped OT;In House Pharmacy;Ultrasound", "healthcare:speciality": "Obstetrics;Gynecology;Infertility;Pediatrics;General Surgery;Laparoscopy;Radiology;General Medicine", "medical_system": "Allopathic", "name": "Dr.Shantabai Nursing Home", "operator:type": "private", "phone": "040 23202163;040 23203339;040 64603339", "source": "OpenGovernmentData", "website": "https://www.shantabainursinghome.com/"}}, {"type": "node", "id": 6497391583, "lat": 17.3648685, "lon": 78.4626402, "tags": {"addr:district": "Hyderabad", "addr:full": "21-4-189, Hussaini Alam", "addr:postcode": "500002", "addr:state": "Telangana", "amenity": "hospital", "fax": "040 24412197", "name": "Azam Hospital", "source": "OpenGovernmentData"}}, {"type": "node", "id": 6497614668, "lat": 17.3910723, "lon": 78.4267851, "tags": {"addr:district": "Hyderabad", "addr:full": "13-6-437/1L/1, Opp Nalanda Public School, Nanal Nagar 'X' Road, Khaderbagh, Mehdipatnam", "addr:postcode": "500008", "addr:state": "Telangana", "amenity": "hospital", "fax": "040 23511855", "name": "Dr. Sreedhar's Kidney & Infertility Hospital", "source": "OpenGovernmentData"}}, {"type": "node", "id": 6502946680, "lat": 17.3836628, "lon": 78.4292413, "tags": {"addr:district": "Hyderabad", "addr:full": "H.No.13-6-434C/148, Opp. Pillar No. 81, PVNR Exp Highway, Inner Ring Road, Maruthi Nagar, Mehdipatnam", "addr:postcode": "500008", "addr:state": "Telangana", "amenity": "hospital", "contact:email": "info@mythrihospital.net", "contact:phone": "+91 7997996030 ; 040-23516326/27", "name": "Mythri Hospital", "source": "OpenGovernmentData", "website": "https://www.mythrihospital.net/"}}, {"type": "node", "id": 6503203211, "lat": 17.3935545, "lon": 78.4435281, "tags": {"addr:district": "Hyderabad", "addr:full": "12-2-831/87, Sai Suchi Towers, Opposite Syndicate Bank, Mehdipatnam", "addr:postcode": "500028", "addr:state": "Telangana", "amenity": "hospital", "email": "info@drakbareyehospitals.com", "health_facility:type": "Ocular Photography;Ultrasound and Intraocular Lens Calculation;Specialized Ophthalmic Testing;Non Contact Tonometry", "healthcare:speciality": "Primary Eye Care;LASIK Services;Cataract Services;Cornea and Refractive Surgery Services;Glaucoma Services;Retina and Diabetic Retinopathy;Retina and Hypertensive Retinopathy;Contact Lens Services;Pediatric Service", "medical_system": "Allopathic", "name": "Dr. Akbar Eye Hospital", "operator:type": "private", "phone": "040 66362660", "source": "OpenGovernmentData", "website": "https://www.drakbareyehospitals.com/"}}, {"type": "node", "id": 6503431340, "lat": 17.3763547, "lon": 78.4203096, "tags": {"addr:district": "Hyderabad", "addr:full": "9-1-29/23, Opposite To Alankar Cinema, Langar Houz", "addr:postcode": "500008", "addr:state": "Telangana", "amenity": "hospital", "name": "Ambaa Hospitals", "source": "OpenGovernmentData"}}, {"type": "node", "id": 6503438537, "lat": 17.393511, "lon": 78.4568185, "tags": {"addr:district": "Hyderabad", "addr:full": "10-2-317/1/A/9/B, Beside Hotel Riyan, Vijayanagar Colony", "addr:postcode": "500057", "addr:state": "Telangana", "amenity": "hospital", "name": "Mansoor Maternity And Childrens Hospital", "source": "OpenGovernmentData"}}, {"type": "node", "id": 6505322583, "lat": 17.3452876, "lon": 78.4567943, "tags": {"addr:district": "Hyderabad", "addr:full": "D/O 19-2-23/M/H/9, Makka Colony , Kalepathar, New Tadbun Road", "addr:postcode": "500064", "addr:state": "Telangana", "amenity": "hospital", "name": "Care Well Hospital", "source": "OpenGovernmentData"}}, {"type": "node", "id": 6505516403, "lat": 17.3837869, "lon": 78.4367287, "tags": {"addr:district": "Hyderabad", "addr:full": "12-2-417/46/8/G1, Hari Hara Teja Apartments, Shiv Bagh, Near Gudimalkapur 'X' Roads", "addr:postcode": "500028", "addr:state": "Telangana", "amenity": "hospital", "name": "Dharani Hospital", "source": "OpenGovernmentData"}}, {"type": "node", "id": 6512822726, "lat": 17.3662637, "lon": 78.473135, "tags": {"addr:district": "Hyderabad", "addr:full": "21-1-410, Opposite Agarwal Girls High School, Rikabgunj", "addr:postcode": "500002", "addr:state": "Telangana", "amenity": "hospital", "name": "Gupta Hospital", "source": "OpenGovernmentData"}}, {"type": "node", "id": 6513234521, "lat": 17.3854802, "lon": 78.4752171, "tags": {"addr:district": "Hyderabad", "addr:full": "Twin City Market, 5-4-183 To 199, Moazamjahi Market", "addr:postcode": "500001", "addr:state": "Telangana", "amenity": "hospital", "name": "Kailash Diagnostic and Rehabilitation Center", "source": "OpenGovernmentData"}}, {"type": "node", "id": 6530719501, "lat": 17.3623277, "lon": 78.4685625, "tags": {"addr:district": "Hyderabad", "addr:full": "20-3-732, Tagari Naka, Charminar", "addr:postcode": "500002", "addr:state": "Telangana", "amenity": "hospital", "name": "Ganga Nursing Home", "source": "OpenGovernmentData"}}, {"type": "node", "id": 6531290879, "lat": 17.3903338, "lon": 78.4514802, "tags": {"addr:district": "Hyderabad", "addr:full": "#10-2-350/1/4, Ohad Residency, Flat No - G1, Indira Nagar, Asif Nagar", "addr:postcode": "500028", "addr:state": "Telangana", "amenity": "hospital", "fixme": "Please verify the accurate position of the hospital as I have mapped the facility based on the address provided in Open Government data", "name": "Healing Touch Hospital", "source": "OpenGovernmentData"}}, {"type": "node", "id": 6536842812, "lat": 17.36424, "lon": 78.4275663, "tags": {"addr:district": "Hyderabad", "addr:full": "3-4-181/1, Hyderguda, Attapur", "addr:postcode": "500048", "addr:state": "Telangana", "amenity": "hospital", "name": "Usha Mohan Hospital", "source": "OpenGovernmentData"}}, {"type": "node", "id": 6542441846, "lat": 17.3922555, "lon": 78.4631672, "tags": {"addr:district": "Hyderabad", "addr:place": "Near Bazarghat 'X' Roads", "addr:state": "Telangana", "addr:street": "Habeebnagar", "addr:subdistrict": "Nampally", "amenity": "hospital", "healthcare": "hospital", "name": "Area Hospital, Nampally", "operational_status": "operational", "operator:type": "government", "source": "OpenDataT"}}, {"type": "node", "id": 6543812599, "lat": 17.3342065, "lon": 78.4698338, "tags": {"addr:district": "Hyderabad", "addr:place": "Jangammet", "addr:state": "Telangana", "addr:street": "Near Govt. Jr.College", "addr:subdistrict": "Charminar", "amenity": "hospital", "healthcare": "hospital", "name": "Community Health Centre, Jangammet", "operational_status": "operational", "operator:type": "government", "source": "OpenDataTelangana"}}, {"type": "node", "id": 6546851783, "lat": 17.3852587, "lon": 78.4026083, "tags": {"addr:district": "Hyderabad", "addr:full": "9-11-178, Fort Road Golconda, Near Golconda Fort", "addr:postcode": "500008", "addr:state": "Telangana", "addr:street": "Golconda", "addr:subdistrict": "Golconda", "amenity": "hospital", "contact:phone": "4023513776", "name": "Area Hospital, Golconda", "source": "OpenGovernmentData"}}, {"type": "node", "id": 6548828778, "lat": 17.3802341, "lon": 78.4297081, "tags": {"addr:city": "Hyderabad", "addr:full": "13-6-431/D/77/A&B, PILLAR NO.92, MOGHAL KA NALA, ATTAPUR, Opp:HOTEL SWAGATH GRAND", "addr:postcode": "500028", "addr:state": "Telangana", "amenity": "hospital", "contact:phone": "0407032555; 666; 7032664444; 23525565", "name": "RISE CHILDRENS HOSPITAL (A UNIT OF RISE HOSPITALS PVT. LTD.)", "operator:type": "private", "source": "OpenGovernmentData"}}, {"type": "node", "id": 6548879008, "lat": 17.3949495, "lon": 78.4573924, "tags": {"addr:full": "H.No: 10-2-300/A/2, Nukkula Arcade, Vijayanagar Colony Main Road, Above Canara Bank", "addr:postcode": "500057", "addr:state": "Telangana", "amenity": "hospital", "contact:phone": "4023342434", "name": "SRISHTI EYE CENTRE", "operator:type": "private", "source": "OpenGovernmentData"}}, {"type": "node", "id": 6548894505, "lat": 17.3612589, "lon": 78.4280745, "tags": {"addr:city": "Hyderabad", "addr:full": "H.No: 4-8-137/5/A, Opp Pillar No: 151, ATTAPUR", "addr:postcode": "500048", "addr:state": "Telangana", "amenity": "hospital", "contact:phone": "24001117", "name": "SAI SURYA HOSPITAL", "operator:type": "private", "source": "OpenGovernmentData"}}, {"type": "node", "id": 6549133126, "lat": 17.3448357, "lon": 78.4590373, "tags": {"addr:district": "Hyderabad", "addr:full": "9-2-24/20/7/6, NEW IDGAH ROAD, JAHANNUMA NAWAB SAHEB KUNTA", "addr:postcode": "500053", "addr:state": "Telangana", "amenity": "hospital", "name": "FATIMA HOSPITAL", "operator:type": "private", "source": "OpenGovernmentData"}}, {"type": "node", "id": 6549152212, "lat": 17.3632928, "lon": 78.4284984, "tags": {"addr:city": "Hyderabad", "addr:full": "H.No: 4-8-149/4/2/1, Opp Pillar No:145, ATTAPUR", "addr:postcode": "500048", "addr:state": "Telangana", "amenity": "hospital", "contact:phone": "47201201", "name": "ZOI HOSPITALS", "operator:type": "private", "source": "OpenGovernmentData"}}, {"type": "node", "id": 6549176002, "lat": 17.3696216, "lon": 78.4273417, "tags": {"addr:city": "Hyderabad", "addr:full": "LANE ADJACENT TO SPENCERS, PILLAR NO 125, AMBIENCE FORT ROAD, ATTAPUR", "addr:postcode": "500048", "addr:state": "Telangana", "amenity": "hospital", "name": "IRIS EYE HOSPITAL", "operator:type": "private", "source": "OpenGovernmentData"}}, {"type": "node", "id": 6549186461, "lat": 17.3910435, "lon": 78.4712635, "tags": {"addr:city": "Hyderabad", "addr:full": "H.No: 5-8-/105/A, Behind Kamath Hotel, Station Road, Nampally", "addr:postcode": "500001", "addr:state": "Telangana", "amenity": "hospital", "contact:phone": "4066734111", "name": "RAMA EYE HOSPITAL", "operator:type": "private", "source": "OpenGovernmentData"}}, {"type": "node", "id": 6549189965, "lat": 17.3893119, "lon": 78.4422313, "tags": {"addr:city": "Hyderabad", "addr:district": "Rangareddy", "addr:full": "Hill Colony Road, Alapathi Nagar", "addr:postcode": "500028", "addr:state": "Telangana", "amenity": "hospital", "contact:phone": "4023533234", "name": "Sri Vijaya Hospitals", "operator:type": "private", "source": "OpenGovernmentData"}}, {"type": "node", "id": 6549197557, "lat": 17.3529175, "lon": 78.4180733, "tags": {"addr:city": "Hyderabad", "addr:full": "Opp. PILLAR NO. 190, FORT VIEW COLONY, PVNR EXPRESS FLYOVER, UPPARPALLY, RAJENDERA NAGAR", "addr:postcode": "500048", "addr:state": "Telangana", "amenity": "hospital", "contact:phone": "65645555", "healthcare": "hospital", "name": "Human Touch Hospital", "operator:type": "private", "source": "OpenGovernmentData"}}, {"type": "node", "id": 6549203906, "lat": 17.3619565, "lon": 78.4281778, "tags": {"addr:district": "Hyderabad", "addr:full": "48-138/1/B, Main Road, Opp To Pillar No 150, Attapur", "addr:postcode": "500048", "addr:state": "Telangana", "amenity": "hospital", "contact:phone": "4065645555", "name": "GERMANTEN HOSPITALS", "operator:type": "private", "source": "OpenGovernmentData"}}, {"type": "node", "id": 6549290634, "lat": 17.3942641, "lon": 78.4307253, "tags": {"addr:city": "Hyderabad", "addr:full": "12-2-727/1/A, INNER RING ROAD, Opp: PILLAR NO. 46, RETHI BOWLI, MEHDIPATNAM", "addr:postcode": "500028", "addr:state": "Telangana", "amenity": "hospital", "contact:phone": "040-23512970; 040-23521946 ; 08106891947", "name": "ORIENT EYE HOSPITAL", "operator:type": "private", "source": "OpenGovernmentData"}}, {"type": "node", "id": 6549296470, "lat": 17.3753068, "lon": 78.4295377, "tags": {"addr:city": "Hyderabad", "addr:full": "13-6-826/5, Attapur, Pillar No.108, Moghul Nagar", "addr:postcode": "500006", "addr:state": "Telangana", "amenity": "hospital", "contact:phone": "4023520108", "name": "SAFE KIDS HOSPITALS PRIVATE LIMITED", "operator:type": "private", "source": "OpenGovernmentData"}}, {"type": "node", "id": 6559309139, "lat": 17.3918869, "lon": 78.4406219, "tags": {"addr:district": "Hyderabad", "addr:full": "Near Bus Depot, Mehdipatnam", "addr:postcode": "500028", "addr:state": "Telangana", "amenity": "hospital", "fixme": "Please verify the accurate position of the hospital as I have mapped the facility based on the address provided in Open Government data", "name": "Amrutha Hospital For Health and Fitness", "source": "OpenGovernmentData"}}, {"type": "node", "id": 6560524869, "lat": 17.3728426, "lon": 78.4740262, "tags": {"addr:district": "Hyderabad", "addr:full": "15-5-104, Near Afzal Gunj Bus Stop, Osmania General Hospital Premises", "addr:postcode": "500012", "addr:state": "Telangana", "amenity": "hospital", "contact:mobile": "9849546995", "email": "bloodbank.ogh@gmail.com", "healthcare": "blood_bank", "name": "Osmania General Hospital's Blood Bank", "opening_hours": "24/7", "operator:type": "government", "phone": "4024600146", "source": "OpenGovernmentData"}}, {"type": "node", "id": 6561022554, "lat": 17.3568423, "lon": 78.4738019, "tags": {"addr:city": "Hyderabad", "addr:state": "Telangana", "amenity": "hospital", "contact:phone": "040-24523798", "name:en": "Princess Esra Hospital", "opening_hours": "24/7"}}, {"type": "node", "id": 6567311932, "lat": 17.3893491, "lon": 78.4734696, "tags": {"addr:district": "Hyderabad", "addr:full": "5-4-446, Nampally Station Road, Abids", "addr:postcode": "500001", "addr:state": "Telangana", "amenity": "hospital", "fixme": "Please verify the accurate position of the hospital as I have mapped the facility based on the address provided in Open Government data", "name": "Jayanti Maternity and Nursing Home", "source": "OpenGovernmentData"}}, {"type": "node", "id": 6575809304, "lat": 17.3882646, "lon": 78.460981}, {"type": "node", "id": 6575809305, "lat": 17.3883462, "lon": 78.4610613}, {"type": "node", "id": 6575809306, "lat": 17.3882667, "lon": 78.46115}, {"type": "node", "id": 6575809307, "lat": 17.3881851, "lon": 78.4610696}, {"type": "node", "id": 6811749025, "lat": 17.360911, "lon": 78.389319, "tags": {"addr:district": "Ranga Reddy", "addr:full": "Near Telephone Exchange, Chevella Road, Bandlaguda, Himagiri Nagar, Hyderabad", "addr:postcode": "500031", "addr:state": "Telangana", "amenity": "hospital", "name": "Cocoon Hospital", "source": "OpenGovernmentData"}}, {"type": "node", "id": 6811749118, "lat": 17.3554702, "lon": 78.4636083, "tags": {"addr:district": "Hyderabad", "addr:full": "19-1-837, Near Vazir Ali Masjid , Doodh Bowli", "addr:postcode": "500064", "addr:state": "Telangana", "amenity": "hospital", "name": "Medicare Hospital", "source": "OpenGovernmentData"}}, {"type": "node", "id": 6811749120, "lat": 17.3222518, "lon": 78.4307242, "tags": {"addr:district": "Ranga Reddy", "addr:full": "Near Pillar No.318, Aramghar X Road, Sivarampalli, Hyderabad", "addr:postcode": "500052", "addr:state": "Telangana", "amenity": "hospital", "contact:mobile": "9848812008", "name": "Sri Lakshmi Hospital", "source": "OpenGovernmentData"}}, {"type": "node", "id": 6811749130, "lat": 17.3223098, "lon": 78.4305647, "tags": {"addr:district": "Ranga Reddy", "addr:full": "P V N R Expressway Pillar No.316, Aramghar X Road, Rajendra Nagar, Hyderabad", "addr:postcode": "500052", "addr:state": "Telangana", "amenity": "hospital", "name": "Sujatha Hospital", "source": "OpenGovernmentData"}}, {"type": "node", "id": 6811749134, "lat": 17.3921804, "lon": 78.4264492, "tags": {"addr:district": "Hyderabad", "addr:full": "13-6-148, Near Quba Masjid, Rock Hill Colony, Toli Chowki, Mehdipatnam", "addr:postcode": "500028", "addr:state": "Telangana", "amenity": "hospital", "name": "Salamah Hospital", "source": "OpenGovernmentData"}}, {"type": "node", "id": 6811749144, "lat": 17.3058624, "lon": 78.4683878, "tags": {"addr:district": "Ranga Reddy", "addr:full": "Ismail Nagar, Chandrayangutta, Hyderabad", "addr:postcode": "500005", "addr:state": "Telangana", "amenity": "hospital", "name": "Al Madina General Hospital", "source": "OpenGovernmentData"}}, {"type": "node", "id": 6846152947, "lat": 17.3732371, "lon": 78.446451, "tags": {"addr:district": "Hyderabad", "addr:place": "Karwan", "addr:state": "Telangana", "addr:street": "Pannipura", "addr:subdistrict": "Asif Nagar", "amenity": "hospital", "healthcare": "hospital", "name": "Community Health Centre, Panipura", "operational_status": "operational", "operator:type": "government", "source": "OpenDataTelangana"}}, {"type": "node", "id": 7003004381, "lat": 17.3702276, "lon": 78.4752329, "tags": {"access": "private", "barrier": "gate"}}, {"type": "node", "id": 7003041693, "lat": 17.3700082, "lon": 78.4744277}, {"type": "node", "id": 7003041694, "lat": 17.3701214, "lon": 78.4744257}, {"type": "node", "id": 7003041713, "lat": 17.3699346, "lon": 78.4750093}, {"type": "node", "id": 7003041727, "lat": 17.3701943, "lon": 78.4749807}, {"type": "node", "id": 7088862151, "lat": 17.3290827, "lon": 78.4276336, "tags": {"amenity": "hospital", "healthcare": "hospital"}}, {"type": "node", "id": 7244480650, "lat": 17.394532, "lon": 78.4352772, "tags": {"amenity": "hospital", "healthcare": "hospital", "name": "Dr. Moinuddin clinic"}}, {"type": "node", "id": 7244480682, "lat": 17.3946369, "lon": 78.4384775, "tags": {"amenity": "hospital", "healthcare": "hospital", "name": "Vijaya Diagnostic Centre"}}, {"type": "node", "id": 8748452003, "lat": 17.3641376, "lon": 78.3947106, "tags": {"addr:city": "Hyderabad", "addr:country": "IN", "addr:district": "Rangareddy", "addr:full": "Hydershakote", "addr:housenumber": "4", "addr:postcode": "500091", "addr:state": "Telangana", "addr:street": "Near MS Function Hall, Hydershahkote", "amenity": "hospital", "email": "info@divaclinics.co.in", "emergency": "no", "healthcare": "hospital", "healthcare:speciality": "general;surgery;oncology;endocrinology;dermatology;gynaecology;gastroenterology", "name": "DIVA Multispeciality Clinics", "operator": "Dr G Uday Kiran", "operator:type": "private", "source": "Local Knowledge;streetlevel imagery", "website": "https://divaclinics.co.in/"}}, {"type": "node", "id": 8759435760, "lat": 17.3535608, "lon": 78.4745425, "tags": {"addr:district": "Hyderabad", "addr:full": "23-6-983, Rajpal Nagar, Shalibanda", "addr:postcode": "500065", "addr:state": "Telangana", "amenity": "hospital", "name": "Government Hospital, Suraj Bhan", "source": "Local Knowledge"}}, {"type": "node", "id": 9852600026, "lat": 17.3646406, "lon": 78.4286144, "tags": {"addr:city": "Hyderguda", "addr:housenumber": "139 pillar , Above IDBI Bank, 3rd Floor", "addr:postcode": "500048", "addr:street": "Hyderabad Elevated Expressway \"P.V. Narasimha Rao\"", "amenity": "hospital", "description": "Exclusive pain clinic treating Knee Pain, SHoulder, Lower back pain, migranes and all chronic pains, Non-Surgically", "email": "help@painfreelife.in", "healthcare": "hospital", "healthcare:speciality": "pain_control", "name": "PRAANAA PAIN CLINIC", "operator": "Dr. Sahitya", "operator:type": "private", "phone": "+91 9182626161", "website": "www.painfreelife.in"}}, {"type": "node", "id": 10112896286, "lat": 17.3836203, "lon": 78.4292848, "tags": {"amenity": "hospital", "name": "Mythri Hospital"}}, {"type": "node", "id": 10139228459, "lat": 17.3932979, "lon": 78.4261156, "tags": {"addr:city": "Hyderabad", "addr:housenumber": "House No 9-4-84/16", "addr:postcode": "500028", "addr:street": "1st Floor, Janaa Heights Nanal Nagar Cross Roads , Toli Chowki, Mehdipatnam,", "amenity": "hospital", "email": "vinayakanethralayaeyehospital@gmail.com", "healthcare": "hospital", "healthcare:speciality": "ophthalmology", "name": "Vinayaka Nethralaya Eye Hospital", "phone": "+919677920539", "website": "https://vinayakanethralayaeyehospital.com/"}}, {"type": "node", "id": 10279481534, "lat": 17.3607193, "lon": 78.4408817, "tags": {"amenity": "hospital", "healthcare": "hospital"}}, {"type": "node", "id": 10970003770, "lat": 17.3923182, "lon": 78.4624848, "tags": {"amenity": "hospital", "fixme": "add proper tags: Government Homoeo Dispensary, Vijayanagar Colony operational_status = operational operator:type=government source=OpenDataTelangana", "healthcare": "hospital"}}, {"type": "node", "id": 11365536200, "lat": 17.3377414, "lon": 78.4732451}, {"type": "node", "id": 11365536201, "lat": 17.3377358, "lon": 78.4734357}, {"type": "node", "id": 11365536202, "lat": 17.3376099, "lon": 78.4734317}, {"type": "node", "id": 11365536203, "lat": 17.3376154, "lon": 78.4732411}, {"type": "node", "id": 11365536218, "lat": 17.337349, "lon": 78.4680874, "tags": {"amenity": "hospital", "healthcare": "hospital"}}, {"type": "node", "id": 11925953631, "lat": 17.3841667, "lon": 78.4562354, "tags": {"addr:district": "Hyderabad", "addr:place": "Near Tv Studio", "addr:state": "Telangana", "addr:street": "Ramanthapur", "addr:subdistrict": "Amberpet", "amenity": "hospital", "healthcare": "hospital", "name": "D.K.GOVT. HOMOEO HOSPITAL", "operational_status": "operational", "operator:type": "government", "source": "OpenDataTelangana"}}, {"type": "node", "id": 11935458418, "lat": 17.3203486, "lon": 78.4018045, "tags": {"addr:district": "Rangareddy", "addr:place": "Water Pilter Beds", "addr:state": "Telangana", "addr:street": "MAINROAD", "addr:subdistrict": "Rajendranagar", "amenity": "hospital", "healthcare": "hospital", "name": "Community Health Centre Rajendranagar", "operational_status": "operational", "operator:type": "government", "source": "OpenDataTelangana"}}, {"type": "node", "id": 11937489795, "lat": 17.3684615, "lon": 78.4674183, "tags": {"addr:district": "Hyderabad", "addr:state": "Telangana", "addr:street": "Petlaburz", "addr:subdistrict": "Charminar", "amenity": "hospital", "healthcare": "hospital", "name": "MG Govt Maternity Hospital, Petla Burz", "operational_status": "operational", "operator:type": "government", "source": "OpenDataTelangana"}}, {"type": "node", "id": 11938622049, "lat": 17.392244, "lon": 78.4601927, "tags": {"addr:district": "Hyderabad", "addr:place": "Red Hills, Lakadikapul, Hyderabad", "addr:state": "Telangana", "addr:street": "Red Hills, Lakadikapul,", "addr:subdistrict": "Nampally", "amenity": "hospital", "healthcare": "hospital", "name": "MNJ Institute of Oncology and Regional Cancer Center", "operational_status": "operational", "operator:type": "government", "source": "OpenDataTelangana"}}, {"type": "node", "id": 11972170541, "lat": 17.3610168, "lon": 78.4749827}, {"type": "node", "id": 12565848764, "lat": 17.3535776, "lon": 78.4745244, "tags": {"amenity": "hospital", "healthcare": "hospital"}}, {"type": "node", "id": 13061999372, "lat": 17.3680874, "lon": 78.4666022}, {"type": "node", "id": 13227662859, "lat": 17.3733681, "lon": 78.414395, "tags": {"amenity": "hospital", "check_date": "2025-10-12", "healthcare": "hospital", "name": "Renova Hospitals"}}, {"type": "way", "id": 182703660, "nodes": [1930607012, 1930607014, 1930607015, 1930607016, 1930607012], "tags": {"addr:district": "Hyderabad", "addr:full": "12-2-718/3,4,5, Nanalnagar 'X' Road, Mehdipatnam", "addr:state": "Telangana", "amenity": "hospital", "check_date": "2025-03-25", "emergency": "yes", "health_facility:type": "Onsite Pharmacy;Dietitian Designed Catering;Modern Delivery Room and Birthing Suites;Physiotherapy;Blood Transfusion Services;Patient Escort Services", "healthcare:speciality": "multi specialty", "medical_system": "Allopathic", "name": "Olive Hospital", "operator:type": "private", "phone": "040 30499500", "source": "OpenGovernmentData", "website": "http://www.olivehospital.com"}}, {"type": "way", "id": 238194521, "nodes": [2460471024, 2460471023, 2460471027, 2460471028, 2460471031, 2460471032, 11972170541, 2460471029, 2460471030, 2460471026, 2460471025, 2460471024], "tags": {"amenity": "hospital", "healthcare": "hospital", "name": "Nizamia Government General Hospital", "name:ar": "\u0645\u0633\u062a\u0634\u0641\u0649 \u0646\u0638\u0627\u0645\u064a\u0627 \u0627\u0644\u062d\u0643\u0648\u0645\u064a \u0627\u0644\u0639\u0627\u0645", "name:en": "Nizamia Government General Hospital", "name:te": "\u0c28\u0c3f\u0c1c\u0c3e\u0c2e\u0c3f\u0c2f\u0c3e \u0c1c\u0c28\u0c30\u0c32\u0c4d \u0c06\u0c38\u0c4d\u0c2a\u0c24\u0c4d\u0c30\u0c3f", "name:ur": "(\u062d\u06a9\u0648\u0645\u062a \u0646\u0638\u0627\u0645\u06cc\u06c1 \u062c\u0646\u0631\u0644 \u06c1\u0633\u067e\u062a\u0627\u0644 ( \u0637\u0628\u06cc \u062f\u0627\u0648\u0627\u06a9\u06c1\u0627\u0646"}}, {"type": "way", "id": 238284087, "nodes": [2461299840, 2461299760, 2461299761, 2461299757, 2461299764, 2461304326, 2461304360, 2461304364, 2461299858, 7003004381, 7003041727, 7003041713, 7003041693, 7003041694, 2461299844, 2461299840], "tags": {"amenity": "hospital", "name": "Victoria Zenana Maternity Hospital", "name:etymology:wikidata": "Q9439", "name:fa": "\u0628\u06cc\u0645\u0627\u0631\u0633\u062a\u0627\u0646 \u0632\u0646\u0627\u0646 \u0648 \u0632\u0627\u06cc\u0645\u0627\u0646 \u0648\u06cc\u06a9\u062a\u0648\u0631\u06cc\u0627 \u0632\u0646\u0627\u0646\u0627", "wikidata": "Q125510418"}}, {"type": "way", "id": 238298641, "nodes": [2461447816, 2461447817, 3390633309, 13061999372, 2461447814, 2461447816], "tags": {"addr:district": "Hyderabad", "addr:full": "Near Nayapool", "addr:state": "Telangana", "addr:street": "Petlaburz", "addr:subdistrict": "Charminar", "amenity": "hospital", "check_date": "2024-07-14", "contact:phone": "040-24523641", "emergency": "no", "healthcare:speciality": "women_clinic", "name": "Modern Government Maternity Hospital, Petla Burz", "source": "OpenGovernmentData"}}, {"type": "way", "id": 238302531, "nodes": [2461478528, 2461478534, 2461478536, 2461478538, 2461478540, 2461478542, 2461478551, 2461478532, 2461478530, 2461478526, 2461478527, 2461478523, 2461478517, 2461478515, 2461478512, 2461478509, 2461478506, 2461478505, 2461478970, 2461478507, 2461478508, 2461478513, 2461478519, 2461478525, 2461478528], "tags": {"addr:district": "Hyderabad", "addr:full": "15-5-104, Near Afzal Gunj Bus Stop", "addr:postcode": "500012", "addr:state": "Telangana", "addr:street": "Afzalgunj", "addr:subdistrict": "Charminar", "amenity": "hospital", "contact:phone": "040-24600146", "name": "Osmania General Hospital", "name:en": "Osmania General Hospital", "name:fa": "\u0628\u06cc\u0645\u0627\u0631\u0633\u062a\u0627\u0646 \u0639\u0645\u0648\u0645\u06cc \u0639\u062b\u0645\u0627\u0646\u06cc\u0647", "name:hi": "\u0909\u0938\u094d\u092e\u093e\u0928\u093f\u092f\u093e \u091c\u0928\u0930\u0932 \u0905\u0938\u094d\u092a\u0924\u093e\u0932", "name:te": "\u0c09\u0c38\u0c4d\u0c2e\u0c3e\u0c28\u0c3f\u0c2f\u0c3e \u0c1c\u0c28\u0c30\u0c32\u0c4d \u0c39\u0c3e\u0c38\u0c4d\u0c2a\u0c3f\u0c1f\u0c32\u0c4d", "source": "OpenGovernmentData", "wikidata": "Q7107128", "wikipedia": "en:Osmania General Hospital"}}, {"type": "way", "id": 246257880, "nodes": [2533171513, 2533171514, 2533171515, 2533171516, 2533171517, 2533171518, 2533171519, 2533171520, 2533171521, 2533171522, 2533171523, 2533171524, 2533171526, 2533171525, 2533171513], "tags": {"amenity": "hospital", "building": "yes", "name": "NIRD Health Centre"}}, {"type": "way", "id": 356517417, "nodes": [3619377003, 3619376473, 3619376477, 3619377010, 3619377003], "tags": {"addr:district": "Hyderabad", "addr:full": "5-9-163, Chapel Road, Near Staneley College, Abids", "addr:postcode": "500001", "addr:state": "Telangana", "amenity": "hospital", "building": "yes", "contact:mobile": "9248023188", "healthcare:speciality": "Cataract;Trauma surgeries;Pediatric Ophthalmology", "medical_system": "Allopathic", "name": "Swarup Eye Centre", "operator:type": "Private", "phone": "040 66783188;040 23233188", "source": "OpenGovernmentData", "website": "http://swarupeye.org"}}, {"type": "way", "id": 356535887, "nodes": [3619476945, 3619476978, 3619476990, 3619476956, 3619476945], "tags": {"addr:district": "Hyderabad", "addr:full": "10-3-76/10, 2/3RT, Vijaya Nagar Colony", "addr:postcode": "500057", "addr:state": "Telangana", "amenity": "hospital", "building": "yes", "email": "nirmalahospitalhyd@gmail.com", "name": "Nirmala Maternity, Orthopaedic & General Hospital", "name:en": "Nirmala Maternity, Orthopaedic & General Hospital", "opening_hours": "Mo-Sa 10:00-13:00", "phone": "040-23345930", "source": "OpenGovernmentData"}}, {"type": "way", "id": 362515707, "nodes": [3668069412, 3668069431, 3668069428, 3668069411, 3668069412], "tags": {"amenity": "hospital", "healthcare": "hospital", "name": "khuteja hospitals"}}, {"type": "way", "id": 417247417, "nodes": [4178292032, 4178292041, 4178292026, 4178292025, 4178292019, 4178292020, 4178292015, 4178292014, 4178292016, 4178292017, 4178292024, 4178292023, 4178292032], "tags": {"addr:district": "Hyderabad", "addr:full": "100, Raghava Ratna Towers, Mahesh Nagar Colony, Nampally", "addr:postcode": "500001", "addr:state": "Telangana", "amenity": "hospital", "building": "yes", "emergency": "yes", "emergency_telephone_code": "040 23206666", "fax": "040 23201120; 040 23203565", "health_facility:type": "Out and in Patient Service;Intensive Care Unit;Operation Theatre;Special Diagnostic Lab;Dialysis Centre;Laboratory Service;Physiotheraphy and Rehab;Blood Bank;Health Check ups;Amenities;Oncology;Bone and Joint Centre;Pharmacy", "healthcare:speciality": "Anaesthesia;Cardiology;Dermatology;Diabetology;Endocrinology;Gastroenterology;General Medicine and family Medicine;Microbiology;Nephrology;Neurology;Pulmonology;ENT;General Surgery;Neuro Surgery;Obstetrics and Gynaecology;Plastic Surgery;Urology etc", "medical_system": "Allopathic", "name": "Medwin Hospital", "operator:type": "Private", "phone": "040 23202902;040 23206666", "source": "OpenGovernmentData", "wikidata": "Q30280393"}}, {"type": "way", "id": 700248245, "nodes": [6575809304, 6575809305, 6575809306, 6575809307, 6575809304], "tags": {"amenity": "hospital", "healthcare": "hospital", "name": "Apollo"}}, {"type": "way", "id": 1225570310, "nodes": [11365536200, 11365536201, 11365536202, 11365536203, 11365536200], "tags": {"amenity": "hospital", "building": "yes", "healthcare": "hospital", "name": "Gemini Health Care"}}]}