{"version": 0.6, "generator": "Overpass API 0.7.62.8 e802775f", "osm3s": {"timestamp_osm_base": "2026-01-16T01:25:59Z", "copyright": "The data included in this document is from www.openstreetmap.org. The data is made available under ODbL."}, "elements": [{"type": "node", "id": 6330357309, "lat": 47.5650635, "lon": 7.6145956}, {"type": "node", "id": 6330357310, "lat": 47.5658399, "lon": 7.6154458}, {"type": "node", "id": 6330357311, "lat": 47.5662417, "lon": 7.6130533}, {"type": "node", "id": 6330357312, "lat": 47.5666779, "lon": 7.6135817}, {"type": "node", "id": 6330357313, "lat": 47.5672547, "lon": 7.6144984}, {"type": "node", "id": 6330357316, "lat": 47.5661826, "lon": 7.615982}, {"type": "node", "id": 6330357317, "lat": 47.5649753, "lon": 7.6145012}, {"type": "node", "id": 6330357318, "lat": 47.5658699, "lon": 7.612636}, {"type": "node", "id": 6330478671, "lat": 47.5861564, "lon": 7.6551962}, {"type": "node", "id": 6330478672, "lat": 47.5862867, "lon": 7.6552713}, {"type": "node", "id": 6330478673, "lat": 47.586265, "lon": 7.65551}, {"type": "node", "id": 6330478674, "lat": 47.5858046, "lon": 7.6554161}, {"type": "node", "id": 6330478675, "lat": 47.5857557, "lon": 7.6556441}, {"type": "node", "id": 6330478676, "lat": 47.5857259, "lon": 7.6559955}, {"type": "node", "id": 6330478677, "lat": 47.5852329, "lon": 7.6558929}, {"type": "node", "id": 6330478678, "lat": 47.5852663, "lon": 7.6555797}, {"type": "node", "id": 6330478679, "lat": 47.5854201, "lon": 7.6555422}, {"type": "node", "id": 6330478680, "lat": 47.585469, "lon": 7.6549682}, {"type": "node", "id": 6944952291, "lat": 47.5665658, "lon": 7.6134459}, {"type": "node", "id": 10311223130, "lat": 47.5659334, "lon": 7.6127122}, {"type": "node", "id": 11741381039, "lat": 47.5659896, "lon": 7.6156732}, {"type": "node", "id": 11741381040, "lat": 47.5649922, "lon": 7.6145174}, {"type": "node", "id": 13194576925, "lat": 47.5655256, "lon": 7.6132934}, {"type": "way", "id": 675950977, "nodes": [6330357318, 13194576925, 6330357317, 11741381040, 6330357309, 6330357310, 11741381039, 6330357316, 6330357313, 6330357312, 6944952291, 6330357311, 10311223130, 6330357318], "tags": {"addr:city": "Basel", "addr:country": "CH", "addr:housenumber": "30", "addr:postcode": "4058", "addr:street": "Kleinriehenstrasse", "alt_name": "Rehaklinik Basel", "amenity": "hospital", "emergency": "yes", "healthcare": "hospital", "healthcare:speciality": "intensive;emergency;cardiology", "name": "St. Clara-Spital", "operator": "St. Claraspital AG", "operator:type": "private", "phone": "+41 61 685 85 85", "website": "https://www.claraspital.ch/", "wheelchair": "yes", "wikidata": "Q30274497"}}, {"type": "way", "id": 675968299, "nodes": [6330478671, 6330478680, 6330478679, 6330478678, 6330478677, 6330478676, 6330478675, 6330478674, 6330478673, 6330478672, 6330478671], "tags": {"addr:city": "Riehen", "addr:country": "CH", "addr:housenumber": "60", "addr:postcode": "4125", "addr:street": "Sch\u00fctzengasse", "amenity": "hospital", "name": "Adullam Spital", "phone": "+41 61 266 99 11", "website": "https://www.adullam.ch/"}}]}