{"version": 0.6, "generator": "Overpass API 0.7.62.8 e802775f", "osm3s": {"timestamp_osm_base": "2026-01-12T02:14:02Z", "copyright": "The data included in this document is from www.openstreetmap.org. The data is made available under ODbL."}, "elements": [{"type": "node", "id": 665132280, "lat": 17.4293162, "lon": 78.533452, "tags": {"addr:district": "Hyderabad", "addr:full": "12-5-30, Whith House, Moulali Road, Tarnaka", "addr:postcode": "500017", "addr:state": "Telangana", "amenity": "hospital", "contact:phone": "040 2700 7272 ; 9000991535", "name": "Innova Children's Heart Hospital", "source": "OpenGovernmentData", "website": "https://www.innovahospitals.in/"}}, {"type": "node", "id": 665132281, "lat": 17.4290954, "lon": 78.5333362, "tags": {"amenity": "hospital", "name": "Apollo Clinic"}}, {"type": "node", "id": 1504756065, "lat": 17.3688309, "lon": 78.5301893, "tags": {"amenity": "hospital", "healthcare": "hospital", "healthcare:speciality": "paediatrics", "name": "Lakshmi Childrens Hospital"}}, {"type": "node", "id": 1595794961, "lat": 17.3505362, "lon": 78.5563819}, {"type": "node", "id": 1595794963, "lat": 17.3525433, "lon": 78.5562478}, {"type": "node", "id": 1595794965, "lat": 17.3523795, "lon": 78.5560708}, {"type": "node", "id": 1595794967, "lat": 17.3524921, "lon": 78.5557114}, {"type": "node", "id": 1595794973, "lat": 17.3518316, "lon": 78.5572832}, {"type": "node", "id": 1595794974, "lat": 17.3514425, "lon": 78.5550623}, {"type": "node", "id": 1598149460, "lat": 17.3684777, "lon": 78.5387483, "tags": {"addr:district": "Hyderabad", "addr:full": "11-9-46, Sri Sai Shivani Complex, Opposite P.V.T Market, Kothapet 'X' Road, New Nagole Main Road, Dilsukhnagar, Laxmi Nagar Colony, Kothapet", "addr:postcode": "500060", "addr:state": "Telangana", "amenity": "hospital", "healthcare": "hospital", "healthcare:speciality": "multi speciality", "medical_system": "Allopathic", "name": "Omni Hospital", "operator:type": "private", "phone": "040 49871690;040 67369999", "source": "OpenGovernmentData", "website": "https://omnihospitals.in/"}}, {"type": "node", "id": 2217950153, "lat": 17.3594287, "lon": 78.5450683, "tags": {"addr:city": "Hyderabad", "addr:full": "H.No: 11-13-201/33, ROAD NO. 4, KOTHAPET, DILSUKHNAGAR, BESIDE CMR SHOPPING MALL, OPPOSITE WHITE HOUSE", "addr:postcode": "500065", "addr:state": "Telangana", "amenity": "hospital", "contact:phone": "4030108108", "name": "OZONE HOSPITALS", "operator:type": "private", "source": "OpenGovernmentData"}}, {"type": "node", "id": 2583708951, "lat": 17.4255371, "lon": 78.5306786, "tags": {"amenity": "hospital", "name": "Tarnaka Flyover;TGSRTC Hospital", "place": "locality"}}, {"type": "node", "id": 2583734761, "lat": 17.4241623, "lon": 78.5297591}, {"type": "node", "id": 2583734762, "lat": 17.4250792, "lon": 78.529218}, {"type": "node", "id": 2583734763, "lat": 17.4264175, "lon": 78.5308078}, {"type": "node", "id": 2583734764, "lat": 17.4264585, "lon": 78.5310653}, {"type": "node", "id": 2583734772, "lat": 17.4253171, "lon": 78.5317868}, {"type": "node", "id": 2583734773, "lat": 17.4255961, "lon": 78.5324775}, {"type": "node", "id": 2593895374, "lat": 17.4011535, "lon": 78.5707964}, {"type": "node", "id": 2593895376, "lat": 17.4010382, "lon": 78.5707944}, {"type": "node", "id": 2593895378, "lat": 17.4010369, "lon": 78.5708786}, {"type": "node", "id": 2593895380, "lat": 17.4011522, "lon": 78.5708806}, {"type": "node", "id": 2593908683, "lat": 17.4058981, "lon": 78.5913809}, {"type": "node", "id": 2593908685, "lat": 17.40581, "lon": 78.5914073}, {"type": "node", "id": 2593908687, "lat": 17.4058377, "lon": 78.5915092}, {"type": "node", "id": 2593908689, "lat": 17.4059258, "lon": 78.5914829}, {"type": "node", "id": 2706889270, "lat": 17.3645563, "lon": 78.5334923}, {"type": "node", "id": 2706889273, "lat": 17.3650319, "lon": 78.5335397}, {"type": "node", "id": 2706889276, "lat": 17.3650343, "lon": 78.5336571}, {"type": "node", "id": 2706889279, "lat": 17.3653157, "lon": 78.5337596}, {"type": "node", "id": 2706889282, "lat": 17.3647903, "lon": 78.534709}, {"type": "node", "id": 2706889285, "lat": 17.364488, "lon": 78.5346782}, {"type": "node", "id": 3200948738, "lat": 17.345698, "lon": 78.549763, "tags": {"amenity": "hospital", "healthcare": "hospital", "name": "Healthcare Hospitals"}}, {"type": "node", "id": 3384203436, "lat": 17.3526774, "lon": 78.5542584, "tags": {"amenity": "hospital", "name": "hospital"}}, {"type": "node", "id": 3625132960, "lat": 17.355383, "lon": 78.5659429}, {"type": "node", "id": 3625132964, "lat": 17.3553978, "lon": 78.5658441}, {"type": "node", "id": 3625132977, "lat": 17.3554645, "lon": 78.565855}, {"type": "node", "id": 3625132980, "lat": 17.3554733, "lon": 78.5657964}, {"type": "node", "id": 3625132992, "lat": 17.3555354, "lon": 78.565983}, {"type": "node", "id": 3625133193, "lat": 17.3555376, "lon": 78.5659682}, {"type": "node", "id": 3625133214, "lat": 17.3556445, "lon": 78.5660009}, {"type": "node", "id": 3625133218, "lat": 17.3556702, "lon": 78.5658288}, {"type": "node", "id": 3628246393, "lat": 17.4000225, "lon": 78.5407192}, {"type": "node", "id": 3628246395, "lat": 17.4000362, "lon": 78.5408232}, {"type": "node", "id": 3628246431, "lat": 17.4002331, "lon": 78.5406888}, {"type": "node", "id": 3628246433, "lat": 17.4002467, "lon": 78.5407928}, {"type": "node", "id": 3630403304, "lat": 17.3869267, "lon": 78.526213}, {"type": "node", "id": 3630403308, "lat": 17.3869682, "lon": 78.5261069}, {"type": "node", "id": 3630403309, "lat": 17.3869748, "lon": 78.5262337}, {"type": "node", "id": 3630403310, "lat": 17.3869876, "lon": 78.5262485}, {"type": "node", "id": 3630403312, "lat": 17.3870164, "lon": 78.5261276}, {"type": "node", "id": 3630403313, "lat": 17.3870272, "lon": 78.5261311}, {"type": "node", "id": 3630403314, "lat": 17.3870486, "lon": 78.5262711}, {"type": "node", "id": 3630403316, "lat": 17.3870883, "lon": 78.5261538}, {"type": "node", "id": 4517094891, "lat": 17.3451071, "lon": 78.5537805, "tags": {"addr:district": "Hyderabad", "addr:full": "3-8-264&264/1&3, Opp VIJAYA LAXMI THEATRE, CHANDRAPURI COLONY, L.B NAGAR", "addr:postcode": "500074", "addr:state": "Telangana", "addr:street": "LB Nagar Junction", "amenity": "hospital", "emergency_telephone_code": "9966108108", "fax": "040 24114111", "health_facility:type": "ICU;Operation Theatres;Nuclear Medicine;Radiology;Pathology;Ambulance Service;Emergency Service", "healthcare": "hospital", "healthcare:speciality": "Cardiology;Neurology;Orthopedics;Gastroenterology;Hematology;Hematology;Joint Replacement;NeuroSurgery;ENT;Nephrology;Endocrinology;Cancer;Urology", "medical_system": "Allopathic", "name": "Shresta Orange Hospitals", "name:en": "Shresta Orange Hospitals", "name:te": "\u0c36\u0c4d\u0c30\u0c47\u0c37\u0c4d\u0c1f \u0c06\u0c30\u0c46\u0c02\u0c1c\u0c4d \u0c39\u0c3e\u0c38\u0c4d\u0c2a\u0c3f\u0c1f\u0c32\u0c4d\u0c38\u0c4d", "operator:type": "private", "phone": "040 24113111", "source": "OpenGovernmentData", "website": "http://orangehospitals.net"}}, {"type": "node", "id": 5538998266, "lat": 17.4027495, "lon": 78.5826543, "tags": {"addr:district": "Hyderabad", "addr:full": "Plot No 2&3,Beside Axis Bank, Peerzadiguda,Near Uppal.", "addr:postcode": "500039", "addr:state": "Telangana", "amenity": "hospital", "email": "info@sparkhospitals.com", "fax": "040 27206622", "name": "Spark Hospitals", "phone": "040-27206777/621", "source": "OpenGovernmentData", "website": "www.sparkhospitals.com"}}, {"type": "node", "id": 5539039096, "lat": 17.405751, "lon": 78.5871698, "tags": {"addr:district": "Hyderabad", "addr:full": "P. No. 6, H. No. 3-13/2, Mallikarjuna Nagar, Opposite Uppal Bus Depot, Peerzadiguda, Ghatkesar Mdl", "addr:postcode": "500092", "addr:state": "Telangana", "amenity": "hospital", "name": "Surya Hospital, Hyderabad", "source": "OpenGovernmentData"}}, {"type": "node", "id": 5608402071, "lat": 17.4080743, "lon": 78.5988119, "tags": {"addr:city": "Hyderabad", "addr:full": "Plot No: 50 & 51, MEDIPALLY, WARANGAL HIGHWAY, UPPAL", "addr:postcode": "500098", "addr:state": "Telangana", "amenity": "hospital", "contact:phone": "9100926436; 04027215252; 27209901", "name": "APEX HOSPITAL", "operator": "Private", "source": "OpenGovernmentData"}}, {"type": "node", "id": 5763499578, "lat": 17.4124431, "lon": 78.5839032}, {"type": "node", "id": 5763499579, "lat": 17.4123356, "lon": 78.5839002}, {"type": "node", "id": 5763499580, "lat": 17.4123381, "lon": 78.5838019}, {"type": "node", "id": 5763499581, "lat": 17.4124456, "lon": 78.583805}, {"type": "node", "id": 6372428649, "lat": 17.3709786, "lon": 78.5425682, "tags": {"addr:city": "Hyderabad", "addr:full": "Plot No:10 B& C, ROAD NO. 2 B, LAXMI NAGAR COLONY, KOTHAPET", "addr:postcode": "500035", "addr:state": "Telangana", "amenity": "hospital", "healthcare": "hospital", "healthcare:speciality": "gynaecology", "name": "sri sai womens hospital", "operator:type": "private", "phone": "+91 40 24050020", "source": "OpenGovernmentData"}}, {"type": "node", "id": 6375038698, "lat": 17.3703144, "lon": 78.5276104, "tags": {"addr:district": "Hyderabad", "addr:full": "4-85/3, Vikas Nagar, Lane Beside Rajadhani Theatre, Dilsukhnagar", "addr:postcode": "500060", "addr:state": "Telangana", "amenity": "hospital", "healthcare": "hospital", "name": "Siva Eye Hospital", "source": "OpenGovernmentData"}}, {"type": "node", "id": 6477150039, "lat": 17.3767587, "lon": 78.5583415}, {"type": "node", "id": 6477150040, "lat": 17.3767732, "lon": 78.5581735}, {"type": "node", "id": 6477150041, "lat": 17.3767476, "lon": 78.5584698}, {"type": "node", "id": 6477150042, "lat": 17.3769249, "lon": 78.5584866}, {"type": "node", "id": 6477150043, "lat": 17.3769505, "lon": 78.5581902}, {"type": "node", "id": 6482035085, "lat": 17.3525175, "lon": 78.5551161, "tags": {"addr:district": "Hyderabad", "addr:full": "3-11-142/N, DVN Complex, Opposite to Kamineni Hospital, RTC Colony, LB Nagar", "addr:postcode": "500074", "addr:state": "Telangana", "amenity": "hospital", "medical_system": "Allopathic", "name": "Disha Children's Hospital", "operator:type": "private", "phone": "040 24038488", "source": "OpenGovernmentData", "website": "http://dishachildrenshospital.blogspot.in/"}}, {"type": "node", "id": 6482123642, "lat": 17.3676358, "lon": 78.5404511, "tags": {"addr:district": "Hyderabad", "addr:full": "11-9-1, Vimal Complex, Opposite Kothapet Bus Stop, Dilsukhnagar", "addr:postcode": "500035", "addr:state": "Telangana", "amenity": "hospital", "contact:tollfree": "1800 1033 363", "fax": "040 40045671", "health_facility:type": "Optical Dispensing Showroom;Pharmacy;Laboratory Services", "healthcare": "hospital", "healthcare:speciality": "Glaucoma Services;Retina Services;Oculoplasty Services;Strabismus and Neurophthalmology Services;Cornea Services;Contact Lens Clinic;Low Visual Aid Clinic", "medical_system": "Allopathic", "name": "Sree Netralaya Eye Hospital and Laser Centre", "operator:type": "private", "phone": "040 40045670", "source": "OpenGovernmentData", "website": "https://sreenetralaya.org/"}}, {"type": "node", "id": 6484775841, "lat": 17.3452764, "lon": 78.5282483, "tags": {"addr:district": "Hyderabad", "addr:full": "8-8-112/1, Sriram Nagar Colony, Nagarjuna Sagar Road, Near Karmanghat 'X' Roads", "addr:postcode": "500035", "addr:state": "Telangana", "amenity": "hospital", "healthcare": "hospital", "name": "Kiran Hospital", "source": "OpenGovernmentData"}}, {"type": "node", "id": 6485458540, "lat": 17.4017218, "lon": 78.5756557, "tags": {"addr:district": "Hyderabad", "addr:full": "Survey Number 93/2 and 125, Opposite Bharath Petrol Pump, Warangal Highway Mainroad, Shanthi Nagar, Uppal", "addr:postcode": "500039", "addr:state": "Telangana", "amenity": "hospital", "email": "uppal@adityahospital.com", "fax": "040 33855644", "health_facility:type": "Clinical Services;Diagnostic Services;Laboratory Services and Transfusion Services;Pharmacy;Ambulance Services;Dietetics;Physiotherapy;Laboratory Service", "healthcare:speciality": "Cardiology;Nephrology;Orthopaedics;Internal Medicine;Critical Care;Radiology;General Medicine;Gastroenterology;Endocrinalogy;Dermatology;Pulmonology;Pediatrics", "medical_system": "Allopathic", "name": "Aditya Hospital, Uppal", "operator:type": "private", "phone": "040 33855555", "source": "OpenGovernmentData", "website": "https://www.adityahospital.com/"}}, {"type": "node", "id": 6486935781, "lat": 17.4255423, "lon": 78.5340929, "tags": {"addr:district": "Hyderabad", "addr:full": "401 to 404, 4th Floor, Tara Tycoon Tower, Opp. Aradhana Theatre, Tarnaka", "addr:postcode": "500017", "addr:state": "Telangana", "amenity": "hospital", "name": "Anand Vitreo Retina Institute Pvt Ltd", "source": "OpenGovernmentData"}}, {"type": "node", "id": 6486957243, "lat": 17.4028902, "lon": 78.5828997, "tags": {"addr:district": "Hyderabad", "addr:full": "Beside ICICI Bank, Main Road, Peerzadiguda, Boduppal", "addr:state": "Telangana", "amenity": "hospital", "contact:mobile": "9849554545", "email": "boduppal@ankurahospital.com", "medical_system": "Allopathic", "name": "Ankura Hospital, Boduppal", "operator:type": "private", "phone": "040 49799999", "source": "OpenGovernmentData", "website": "https://www.ankurahospital.com/"}}, {"type": "node", "id": 6487102159, "lat": 17.3760514, "lon": 78.5569091, "tags": {"addr:district": "Hyderabad", "addr:full": "Plot No. 21, Nagole", "addr:postcode": "500035", "addr:state": "Telangana", "amenity": "hospital", "fax": "24221935", "name": "SRI LAXMI MULTI SPECIALITY HOSPITAL, LAPROSCOPIC AND RESEARCH CENTRE", "source": "OpenGovernmentData"}}, {"type": "node", "id": 6487122129, "lat": 17.3974654, "lon": 78.5366464, "tags": {"addr:district": "Hyderabad", "addr:full": "3-9-9-10/14, Saradhanagar, Ramantapur", "addr:postcode": "500013", "addr:state": "Telangana", "amenity": "hospital", "name": "Anantha Lakshmi Kidney and Multi Specialty Hospital", "source": "OpenGovernmentData"}}, {"type": "node", "id": 6487288564, "lat": 17.345958, "lon": 78.5399126, "tags": {"addr:district": "Hyderabad", "addr:full": "Bairamlguda, Nagarjune Sagar Road;Ground Floor(North Block), Room No. 702 to 710, D.No: 08-16-01, Sowbhagya Nagar, Sagar Road, Saroor Nagar", "addr:postcode": "500035", "addr:state": "Telangana", "amenity": "hospital", "fax": "24031184; 24030077", "healthcare": "blood_bank", "healthcare:speciality": "multi specialty", "medical_system": "Allopathic", "name": "Aware gleneagles Global Hospital;Aware Gleneagles Global Hospital's Blood Bank", "operator:type": "private", "phone": "040 24111111;04024111111, Extn: 787", "source": "OpenGovernmentData", "website": "http://www.globalhospitalsindia.com/"}}, {"type": "node", "id": 6487777184, "lat": 17.3771559, "lon": 78.557005, "tags": {"addr:district": "Hyderabad", "addr:full": "Plot No. 65, Near Bank of Baroda, Nagole Cross Road", "addr:postcode": "500035", "addr:state": "Telangana", "amenity": "hospital", "fax": "040 24051203", "name": "Bhavya Hospital", "source": "OpenGovernmentData"}}, {"type": "node", "id": 6488483046, "lat": 17.3973433, "lon": 78.5603427, "tags": {"addr:district": "Hyderabad", "addr:full": "Adjacent to Raj Lakshmi Theatre, Rajnagar Colony, Uppal 'X' Roads", "addr:postcode": "500039", "addr:state": "Telangana", "amenity": "hospital", "name": "Krishna Multi Speciality Hospital", "source": "OpenGovernmentData"}}, {"type": "node", "id": 6489610677, "lat": 17.4002374, "lon": 78.5405061, "tags": {"addr:district": "Hyderabad", "addr:full": "Plot Number 4, 5, 14 and 15, Pragati Nagar, Ramanthapur, Opposite Ramanthapur Lake", "addr:postcode": "500013", "addr:state": "Telangana", "amenity": "hospital", "email": "contact@matrixhospital.com", "healthcare:speciality": "Medical Specialities;Surgical Specialities;Plastic Surgery;Obstetrics and Gynaecology;Physiotherapy;Dietitics;Dentistry;Bariatric Surgery", "medical_system": "Allopathic", "name": "Matrix Hospital", "operator:type": "private", "phone": "040 27035678; 040 64647575; 040 27030101", "source": "OpenGovernmentData", "website": "http://matrixhospital.com"}}, {"type": "node", "id": 6489762038, "lat": 17.397102, "lon": 78.5319123, "tags": {"addr:district": "Hyderabad", "addr:full": "3-11-48, Opp. Govt Homeo College, Ramanthapur, Rangareddy", "addr:postcode": "500013", "addr:state": "Telangana", "amenity": "hospital", "name": "Shree Jaya Krishna Hospital", "source": "OpenGovernmentData"}}, {"type": "node", "id": 6489835094, "lat": 17.401288, "lon": 78.5648384, "tags": {"addr:district": "Hyderabad", "addr:full": "Near Gandhi Statue, Uppal Main Road", "addr:postcode": "500039", "addr:state": "Telangana", "amenity": "hospital", "name": "Sathya Hospital", "source": "OpenGovernmentData"}}, {"type": "node", "id": 6490864509, "lat": 17.3646867, "lon": 78.5441633, "tags": {"addr:district": "Hyderabad", "addr:full": "1-13-1383, Road No. 1, Margadarsi Colony, R.K. Puram", "addr:postcode": "500035", "addr:state": "Telangana", "amenity": "hospital", "fixme": "Please verify the accurate position of the hospital as I have mapped the facility based on the address provided in Open Government data", "name": "Sri Srinivasa Nursing Home", "source": "OpenGovernmentData"}}, {"type": "node", "id": 6491342836, "lat": 17.410791, "lon": 78.5434699, "tags": {"addr:district": "Hyderabad", "addr:full": "4-96/2, Street No. 8, Sneha Nagar Colony, Habsiguda", "addr:postcode": "500007", "addr:state": "Telangana", "amenity": "hospital", "fax": "040 27154758", "name": "Rajagiri Hospitals", "source": "OpenGovernmentData"}}, {"type": "node", "id": 6494385067, "lat": 17.4173069, "lon": 78.5412021, "tags": {"addr:district": "Hyderabad", "addr:full": "Kakatiya Nagar, Habsiguda", "addr:postcode": "500007", "addr:state": "Telangana", "amenity": "hospital", "name": "Habsiguda Poly Clinic and Nursing Home", "source": "OpenGovernmentData"}}, {"type": "node", "id": 6494447237, "lat": 17.3974917, "lon": 78.5339528, "tags": {"addr:district": "Hyderabad", "addr:full": "H.No. 3-10-4/B/1, Near St. Joseph's School, Lane Beside Bharat Petrol Pump, Gokhale Nagar, Ramantapur", "addr:postcode": "500013", "addr:state": "Telangana", "amenity": "hospital", "fax": "040 27035444", "name": "Ramantapur Hospital", "source": "OpenGovernmentData"}}, {"type": "node", "id": 6494458034, "lat": 17.3608928, "lon": 78.5432218, "tags": {"addr:district": "Hyderabad", "addr:full": "Plot No. V\u20137, NH 9, Narsimhapuri Colony, Kothapet, Saroornagar", "addr:postcode": "500035", "addr:state": "Telangana", "amenity": "hospital", "contact:mobile": "09248019460;08897161525", "fax": "040 24039017", "health_facility:type": "Information Desk;OPD Counter;24x7 Laboratory;Spiral CT Scan;Diagnostic Services;Radiology;Laboratory Services and Transfusion Services;Physiotherapy;Dietery;Housekeeping;Pharmacy", "healthcare:speciality": "multi specility", "medical_system": "Allopathic", "name": "Sai Sanjeevini Hospital", "operator:type": "private", "phone": "040 24039012;040 24039013;040 24039014;040 24039015;040 24039016", "source": "OpenGovernmentData", "website": "www.saisanjeevinihospitals.com"}}, {"type": "node", "id": 6496578004, "lat": 17.4171112, "lon": 78.5440868, "tags": {"addr:district": "Hyderabad", "addr:full": "7-102/7, Sandhya Enclave, 1st Floor, Habsiguda", "addr:postcode": "500007", "addr:state": "Telangana", "amenity": "hospital", "fax": "040 27177618", "name": "Neo Vision Eye Care and Laser Center", "phone": "040-40122177", "source": "OpenGovernmentData", "website": "https://neovisioneyecare.in/"}}, {"type": "node", "id": 6496940849, "lat": 17.4348983, "lon": 78.5429897, "tags": {"addr:district": "Hyderabad", "addr:full": "Lalapet,Tarnaka", "addr:postcode": "500017", "addr:state": "Telangana", "amenity": "hospital", "name": "Manjary Multispeciality Hospital", "source": "OpenGovernmentData"}}, {"type": "node", "id": 6497354554, "lat": 17.4097647, "lon": 78.5441056, "tags": {"addr:district": "Hyderabad", "addr:full": "8-12-65, Street No 8, Habsiguda", "addr:postcode": "500007", "addr:state": "Telangana", "amenity": "hospital", "name": "Siris Hospital", "source": "OpenGovernmentData"}}, {"type": "node", "id": 6497366546, "lat": 17.3937938, "lon": 78.5302003, "tags": {"addr:district": "Hyderabad", "addr:full": "3-12-58/2, Srinivasapuram Road, Ganesh Nagar, Ramanthapur, Opp T. V. Studio", "addr:postcode": "500013", "addr:state": "Telangana", "amenity": "hospital", "contact:phone": "+91 8686873245; 040 27033300", "name": "Janani Hospital", "source": "OpenGovernmentData", "website": "http://jananiihospital.com"}}, {"type": "node", "id": 6497571978, "lat": 17.3688485, "lon": 78.5343739, "tags": {"addr:district": "Hyderabad", "addr:full": "2-41/5, Prabhath Nagar Colony, Chaitanyapuri", "addr:postcode": "500060", "addr:state": "Telangana", "amenity": "hospital", "fax": "040 24054116", "healthcare": "hospital", "name": "Oarchid Hospital", "source": "OpenGovernmentData"}}, {"type": "node", "id": 6503302425, "lat": 17.3674854, "lon": 78.5358477, "tags": {"addr:district": "Hyderabad", "addr:full": "Opposite Kothapet Fruit Market, Near Miraj Cinemas, Krishna Veni Nagar Colony, Kothapet, Sri Sai Shivani Complex, HUDA Complex, Saroornagar.", "addr:postcode": "500035", "addr:state": "Telangana", "amenity": "hospital", "fax": "040 65126514", "healthcare": "hospital", "name": "Induss Hospitals", "source": "OpenGovernmentData"}}, {"type": "node", "id": 6503660417, "lat": 17.4002489, "lon": 78.5665409, "tags": {"addr:district": "Hyderabad", "addr:full": "Vijayapuri Colony, Uppal", "addr:postcode": "500039", "addr:state": "Telangana", "amenity": "hospital", "healthcare": "hospital", "healthcare:speciality": "paediatrics", "name": "Ammaji Childrens Hospital", "source": "OpenGovernmentData"}}, {"type": "node", "id": 6503794648, "lat": 17.3453352, "lon": 78.5492826, "tags": {"addr:district": "Hyderabad", "addr:full": "3-2-394, Near LB Nagar Circle, Towards Sagar Ring Road, L B Nagar", "addr:postcode": "500074", "addr:state": "Telangana", "amenity": "hospital", "healthcare": "hospital", "name": "Health Care Hospitals", "source": "OpenGovernmentData"}}, {"type": "node", "id": 6504077179, "lat": 17.3946084, "lon": 78.5304907, "tags": {"addr:district": "Hyderabad", "addr:full": "3-12-51, Ganesh Nagar, Opp. TV Studio, Ramanthapur", "addr:postcode": "500013", "addr:state": "Telangana", "amenity": "hospital", "name": "Sri Krishna Swathi Children's Hospital", "source": "OpenGovernmentData"}}, {"type": "node", "id": 6505167632, "lat": 17.4004716, "lon": 78.5666549, "tags": {"addr:city": "Hyderabad", "addr:district": "Hyderabad", "addr:full": "Uppal Main Road", "addr:postcode": "500039", "addr:state": "Telangana", "amenity": "hospital", "healthcare": "hospital", "name": "Shiva Sai Hospital", "source": "OpenGovernmentData"}}, {"type": "node", "id": 6505386986, "lat": 17.3719492, "lon": 78.5358806, "tags": {"addr:district": "Hyderabad", "addr:full": "1-54, Lane Beside Food World, Chaitanyapuri", "addr:postcode": "500060", "addr:state": "Telangana", "amenity": "hospital", "name": "Ganga Orthopaedic and Maternity Hospital", "source": "OpenGovernmentData"}}, {"type": "node", "id": 6505593241, "lat": 17.3900901, "lon": 78.5314, "tags": {"addr:district": "Hyderabad", "addr:full": "Opposite Anand Jyothi Hogh School, Srinivasapuram", "addr:postcode": "500013", "addr:state": "Telangana", "amenity": "hospital", "name": "Sri Gayatri Hospital", "source": "OpenGovernmentData"}}, {"type": "node", "id": 6505613357, "lat": 17.4261322, "lon": 78.5324286, "tags": {"addr:district": "Hyderabad", "addr:full": "12-13-64, Beside Tarnaka Flyover, Tarnaka", "addr:postcode": "500017", "addr:state": "Telangana", "amenity": "hospital", "email": "info@surakshachildhospital.com", "emergency_telephone_code": "040 27016600;040 27016611;040 27016622", "fax": "040 2701 6623", "health_facility:type": "24 Hours Ambulance Services;Round The Clock Pharmacy;Imaging;Diagnostic Services;Antenatal Counselling;Neonatal and Paediatric Surgery;Neonatal Intensive Care Unit NICU ;Paediatric Intensive Care Unit PICU ;24 Hours Emergency Services;Out Patient Services", "healthcare:speciality": "multi specialty", "medical_system": "Allopathic", "name": "Suraksha Childrens Hospital", "operator:type": "private", "phone": "040 2706600;040 2706611;040 2706622", "source": "OpenGovernmentData", "website": "https://www.surakshachildrenshospital.com/"}}, {"type": "node", "id": 6510205415, "lat": 17.3676268, "lon": 78.5508728, "tags": {"addr:district": "Hyderabad", "addr:full": "Road No. 5, Ramakrishnapuram, Kothapet", "addr:postcode": "500035", "addr:state": "Telangana", "amenity": "hospital", "name": "Hyma Children's Hospital", "source": "OpenGovernmentData"}}, {"type": "node", "id": 6511165512, "lat": 17.345084, "lon": 78.5288881, "tags": {"addr:district": "Hyderabad", "addr:full": "Plot No. 63, Opp. Andhra Bank, Near Megha Function Hall, Karmanghat", "addr:postcode": "500079", "addr:state": "Telangana", "amenity": "hospital", "healthcare": "hospital", "name": "Krishna Sai Multispeciality Hospital", "source": "OpenGovernmentData"}}, {"type": "node", "id": 6518192361, "lat": 17.4183783, "lon": 78.5835349, "tags": {"addr:city": "Hyderabad", "addr:postcode": "500092", "addr:street": "West Hanuman Nagar", "amenity": "hospital", "emergency": "yes", "healthcare": "hospital", "healthcare:speciality": "general", "name": "RBM Multi-Speciality Hospital"}}, {"type": "node", "id": 6518297217, "lat": 17.4090144, "lon": 78.5864131, "tags": {"addr:city": "Hyderabad", "addr:postcode": "500092", "addr:street": "Mallikarjuna Nagar, Boduppal", "amenity": "hospital", "healthcare": "hospital", "healthcare:speciality": "paediatrics", "name": "AVI Clinic", "operator": "Dr Suman"}}, {"type": "node", "id": 6518592570, "lat": 17.4124176, "lon": 78.5838042}, {"type": "node", "id": 6518592571, "lat": 17.4124076, "lon": 78.5838039}, {"type": "node", "id": 6527839627, "lat": 17.4150148, "lon": 78.5452451, "tags": {"addr:district": "Hyderabad", "addr:full": "Street No. 7, Near TVS Show Room and Habsiguda Metro station, Habsiguda", "addr:postcode": "500007", "addr:state": "Telangana", "amenity": "hospital", "name": "Dr.Padmaja Fertility Centre and Nursing Home", "source": "OpenGovernmentData"}}, {"type": "node", "id": 6528552348, "lat": 17.370156, "lon": 78.5320289, "tags": {"addr:district": "Hyderabad", "addr:full": "1-7-90, Chaitanyapuri", "addr:postcode": "500060", "addr:state": "Telangana", "amenity": "hospital", "healthcare": "hospital", "name": "Geeta Multispeciality Hospital", "source": "OpenGovernmentData"}}, {"type": "node", "id": 6528604456, "lat": 17.3617057, "lon": 78.5620603, "tags": {"addr:district": "Hyderabad", "addr:full": "Plot No. 60-61, Rock Town Colony, L.B Nagar", "addr:postcode": "500068", "addr:state": "Telangana", "amenity": "hospital", "name": "Sri Sai Balaji Hospital", "source": "OpenGovernmentData"}}, {"type": "node", "id": 6528608362, "lat": 17.4227606, "lon": 78.5469769, "tags": {"addr:district": "Hyderabad", "addr:full": "Plot No. 7-44, Bapuji Nagar, Nacharam", "addr:postcode": "500076", "addr:state": "Telangana", "amenity": "hospital", "name": "Bapuji Maternity and Nursing Home", "source": "OpenGovernmentData"}}, {"type": "node", "id": 6528632311, "lat": 17.3700395, "lon": 78.5278568, "tags": {"addr:district": "Hyderabad", "addr:full": "Near Ganesh Function Hall, Beside Rajadhani Theatre Lane, Vikas Nagar", "addr:postcode": "500060", "addr:state": "Telangana", "amenity": "hospital", "healthcare": "hospital", "healthcare:speciality": "orthopaedics", "name": "Abinav Orthopedic Hospital", "source": "OpenGovernmentData"}}, {"type": "node", "id": 6531352585, "lat": 17.4273708, "lon": 78.5517687, "tags": {"addr:district": "Hyderabad", "addr:full": "Near St. Peter's School, Raghavendra Nagar, Nacharam", "addr:postcode": "500076", "addr:state": "Telangana", "amenity": "hospital", "healthcare": "hospital", "healthcare:speciality": "general", "name": "Chandamama Hospital", "operator": "xyz", "operator:type": "private", "source": "OpenGovernmentData;local knowledge"}}, {"type": "node", "id": 6531745861, "lat": 17.369612, "lon": 78.5302386, "tags": {"addr:district": "Hyderabad", "addr:full": "Pochamma Temple Lane, Near Chaitanyapuri Bridge, Dilsukhnagar", "addr:postcode": "500060", "addr:state": "Telangana", "amenity": "hospital", "fax": "040 24041789", "healthcare": "hospital", "healthcare:speciality": "paediatrics", "name": "Lakshmi Children's Hospital", "source": "OpenGovernmentData"}}, {"type": "node", "id": 6531874857, "lat": 17.3692696, "lon": 78.5346776, "tags": {"addr:district": "Hyderabad", "addr:full": "Beside Fruit Market Road, Prabath Nagar, Chaitanyapuri, Dilsukhnagar", "addr:postcode": "500060", "addr:state": "Telangana", "amenity": "hospital", "contact:email": "info@gbrfertility.com", "contact:mobile": "+91 9248009789", "healthcare": "hospital", "name": "G.B.R. Hospital", "opening_hours": "Mo-Sa 08:00-17:00", "source": "OpenGovernmentData", "website": "https://www.gbrfertility.com"}}, {"type": "node", "id": 6532260599, "lat": 17.3696005, "lon": 78.5292421, "tags": {"addr:district": "Hyderabad", "addr:full": "H.No: 4-20/A, Near E Seva Lane, Vikas Nagar, Dilsukhnagar", "addr:postcode": "500060", "addr:state": "Telangana", "amenity": "hospital", "contact:phone": "040-24046464", "healthcare": "hospital", "name": "Manju Sudha Multispeciality Hospital", "source": "OpenGovernmentData"}}, {"type": "node", "id": 6532277404, "lat": 17.3665529, "lon": 78.535367, "tags": {"addr:district": "Hyderabad", "addr:full": "Lane Opposite Fruit Market, Dilsukhnagar", "addr:postcode": "500060", "addr:state": "Telangana", "amenity": "hospital", "healthcare": "hospital", "name": "Sri JRD Hospital", "source": "OpenGovernmentData"}}, {"type": "node", "id": 6532315949, "lat": 17.3716433, "lon": 78.5340057, "tags": {"addr:district": "Hyderabad", "addr:full": "2-45/1, Behind HP Petrol Bunk, Chaitanyapuri, Dilsukhnagar", "addr:postcode": "500060", "addr:state": "Telangana", "amenity": "hospital", "fax": "040 24045950", "name": "Raghava Hospital", "source": "OpenGovernmentData"}}, {"type": "node", "id": 6532327359, "lat": 17.3681674, "lon": 78.5267378, "tags": {"addr:district": "Hyderabad", "addr:full": "Beside R.S Brothers, Dilshuknagar", "addr:postcode": "500060", "addr:state": "Telangana", "amenity": "hospital", "healthcare": "hospital", "name": "Harsha Neuro and General Hospital", "source": "OpenGovernmentData"}}, {"type": "node", "id": 6532335482, "lat": 17.3689234, "lon": 78.5299851, "tags": {"addr:district": "Hyderabad", "addr:full": "2-127, Badam Complex, Beside Lakshmi Childrens Hospital", "addr:postcode": "500060", "addr:state": "Telangana", "amenity": "hospital", "healthcare": "hospital", "healthcare:speciality": "orthopaedics", "name": "Anurag Orthopedic and Multispecial Hospital", "source": "OpenGovernmentData"}}, {"type": "node", "id": 6532379590, "lat": 17.3694424, "lon": 78.5314201, "tags": {"addr:district": "Hyderabad", "addr:full": "D.No. 1-7-309, Hanuman Nagar, Opp Jagini's Foodland, Chaitanyapuri 'X' Roads, Dilsukhnagar", "addr:postcode": "500060", "addr:state": "Telangana", "amenity": "hospital", "healthcare": "hospital", "name": "Goodlife Hospitals", "source": "OpenGovernmentData"}}, {"type": "node", "id": 6537138789, "lat": 17.3697132, "lon": 78.5319766, "tags": {"addr:district": "Hyderabad", "addr:full": "1-7-97, Khazana Jewellers Lane, Chaitanyapuri, Dilsukhnagar", "addr:postcode": "500060", "addr:state": "Telangana", "amenity": "hospital", "healthcare": "hospital", "name": "Swapna Hospital Private Limited", "source": "OpenGovernmentData"}}, {"type": "node", "id": 6537199550, "lat": 17.3597254, "lon": 78.5448767, "tags": {"addr:district": "Hyderabad", "addr:full": "Beside Karachi Bakery, Green Hills Colony, Kothapet Main Road", "addr:postcode": "500035", "addr:state": "Telangana", "amenity": "hospital", "contact:phone": "040 40 108 108", "fax": "040 24050239", "name": "Paramitha Children's Hospital", "source": "OpenGovernmentData"}}, {"type": "node", "id": 6537306558, "lat": 17.3740649, "lon": 78.5409902, "tags": {"addr:district": "Hyderabad", "addr:full": "1-5-22/3, Maruthi Nagar Bus Stop, Kothapet", "addr:postcode": "500060", "addr:state": "Telangana", "amenity": "hospital", "name": "Sai Nikith Speciality Hospital And Laproscopic Centre", "source": "OpenGovernmentData"}}, {"type": "node", "id": 6538849589, "lat": 17.3707739, "lon": 78.5275, "tags": {"addr:district": "Hyderabad", "addr:full": "4-85/1, Lane Beside Rajadhani Theatre, Dilsukhnagar", "addr:postcode": "500060", "addr:state": "Telangana", "amenity": "hospital", "fixme": "Please verify the accurate position of the hospital as I have mapped the facility based on the address provided in Open Government data", "healthcare": "hospital", "name": "The Doctors Multi Speciality Hospital", "source": "OpenGovernmentData"}}, {"type": "node", "id": 6539071275, "lat": 17.3587987, "lon": 78.5237382, "tags": {"addr:district": "Hyderabad", "addr:full": "17-1-462/3, Shankeswara Bazar, Saroornagar", "addr:postcode": "500060", "addr:state": "Telangana", "amenity": "hospital", "name": "Medi Sight Eye Care centre", "phone": "9440204696", "source": "OpenGovernmentData"}}, {"type": "node", "id": 6548789473, "lat": 17.3452377, "lon": 78.5276489, "tags": {"addr:city": "Hyderabad", "addr:full": "Plot No: A/529, Opp. Mega Function Hall, Karmanghat", "addr:postcode": "500079", "addr:state": "Telangana", "amenity": "hospital", "contact:phone": "040 2407 8717 / 9717", "email": "info@maaxlifehospitals.com", "healthcare": "hospital", "name": "MAAX LIFE HOSPITALS", "operator:type": "private", "source": "OpenGovernmentData", "website": "https://www.maaxlifehospitals.com/"}}, {"type": "node", "id": 6548833978, "lat": 17.3658656, "lon": 78.5522434, "tags": {"addr:full": "H.No: 11-13-123/1, Plot No: 14, NEAR SAI BABA TEMPLE, ALKAPURI SAROORNAGAR MANDAL", "addr:postcode": "500035", "addr:state": "Telangana", "amenity": "hospital", "contact:phone": "74610 94932", "email": "contact@avanieyehospital.com", "name": "AVANI LASER EYE HOSPITAL", "operator:type": "private", "source": "OpenGovernmentData", "website": "https://www.avanieyehospital.com/"}}, {"type": "node", "id": 6548846382, "lat": 17.3739165, "lon": 78.5521227, "tags": {"addr:city": "Hyderabad", "addr:full": "Road No.1, Beside Swathi Nivas Apt., Opp Heritage Fresh, New Nagole, Mohan Nagar", "addr:postcode": "500035", "addr:state": "Telangana", "amenity": "hospital", "contact:phone": "9849184513", "name": "SANJEEVANI HOSPITAL", "operator:type": "private", "source": "OpenGovernmentData"}}, {"type": "node", "id": 6548918441, "lat": 17.3623879, "lon": 78.5570419, "tags": {"addr:city": "Hyderabad", "addr:full": "Yadav Nagar Colony, Opp. Swagath Grand Hotel, Alkapuri 'X' Roads", "addr:postcode": "500035", "addr:state": "Telangana", "amenity": "hospital", "contact:phone": "040-2403-6663/7773/8883", "email": "contact@nakshatrahospitals.com", "healthcare": "hospital", "name": "Nakshatra Hospitals", "operator:type": "private", "source": "OpenGovernmentData", "website": "https://www.nakshatrahospitals.com/"}}, {"type": "node", "id": 6549172458, "lat": 17.426232, "lon": 78.5322033, "tags": {"addr:district": "Hyderabad", "addr:full": "Plot No: 12-13-67/2, Street No.5, Sadhashiva Nagar, Lane Adjacent to Sanman Hotel, Tarnaka", "addr:postcode": "500017", "addr:state": "Telangana", "amenity": "hospital", "contact:phone": "040 27007111", "name": "PADMVATI MEDICAL CENTRE", "operator:type": "private", "source": "OpenGovernmentData"}}, {"type": "node", "id": 6549209512, "lat": 17.4183281, "lon": 78.5427846, "tags": {"addr:district": "Hyderabad", "addr:full": "#7-147/1, Nagendra Nagar Colony, Habsiguda Main Road", "addr:postcode": "500007", "addr:state": "Telangana", "amenity": "hospital", "contact:phone": "040-27151999", "fax": "040 27151999", "name": "ANAND EYE INSITUTE", "operator:type": "private", "source": "OpenGovernmentData"}}, {"type": "node", "id": 6549292101, "lat": 17.3482504, "lon": 78.5520463, "tags": {"addr:district": "Hyderabad", "addr:full": "3-3-273, LB Nagar - Uppal Rd, Kamala Nagar, Suvidha Arcade, RTC Colony, LB Nagar", "addr:postcode": "500074", "addr:state": "Telangana", "amenity": "hospital", "contact:phone": "040 24031111;040 24031122", "name": "SHINE CHILDREN'S HOSPITAL", "operator:type": "private", "source": "OpenGovernmentData", "wheelchair": "yes"}}, {"type": "node", "id": 6549295174, "lat": 17.3690962, "lon": 78.5301608, "tags": {"addr:city": "Hyderabad", "addr:full": "H.No: 3-8, Chaitanayapuri 'X' roads, Dilshuknagar", "addr:postcode": "500060", "addr:state": "Telangana", "amenity": "hospital", "contact:phone": "040 66905566", "healthcare": "hospital", "name": "Saptagiri Hospital", "operator:type": "private", "source": "OpenGovernmentData"}}, {"type": "node", "id": 6549298910, "lat": 17.3542853, "lon": 78.5470426, "tags": {"addr:district": "Hyderabad", "addr:full": "Plot No: 1, CHITRA LAYOUT, BESIDE Rangareddy Court, L.B NAGAR", "addr:postcode": "500074", "addr:state": "Telangana", "amenity": "hospital", "contact:mobile": "8121033233", "contact:phone": "4024033233", "name": "DR RAJASHEKAR REDDY LAPAROSCOPY HOSPITAL", "operator:type": "private", "source": "OpenGovernmentData"}}, {"type": "node", "id": 6549301063, "lat": 17.3984982, "lon": 78.536071, "tags": {"addr:city": "Hyderabad", "addr:full": "H.No: 3-9-2, Plot No: 3, RAMANATHAPUR", "addr:postcode": "500013", "addr:state": "Telangana", "amenity": "hospital", "contact:phone": "27038744", "name": "ADRM HOSPITAL", "operator:type": "private", "source": "OpenGovernmentData"}}, {"type": "node", "id": 6549341748, "lat": 17.4230318, "lon": 78.5470144, "tags": {"addr:city": "Hyderabad", "addr:full": "1-29, NACHARAM MALLAPUR ROAD, HMT NAGAR, TARNAKA", "addr:postcode": "500076", "addr:state": "Telangana", "amenity": "hospital", "contact:phone": "040 40121000", "name": "SHREE POOJA HOSPITAL", "operator:type": "private", "source": "OpenGovernmentData"}}, {"type": "node", "id": 6549364392, "lat": 17.3673811, "lon": 78.5358068, "tags": {"addr:city": "Hyderabad", "addr:full": "Plot No: 34, KRISNAVENI NAGAR, Opp. KOTHAPET FRUIT MARKET, NEAR GADDIANNARAM MUNICIPAL OFFICE", "addr:postcode": "500034", "addr:state": "Telangana", "amenity": "hospital", "contact:phone": "24050104", "healthcare": "hospital", "name": "SBR Pulse Hospital", "operator:type": "private", "source": "OpenGovernmentData"}}, {"type": "node", "id": 6549371813, "lat": 17.368126, "lon": 78.530836, "tags": {"addr:city": "Hyderabad", "addr:full": "H.No: 18-79, Manikanta Crown Complex, Beside Indian Bank, Chaitanyapuri 'X' Roads, Dilsukhnagar", "addr:postcode": "500060", "addr:state": "Telangana", "amenity": "hospital", "contact:phone": "4024059511", "healthcare": "hospital", "name": "Magnas ENT Hospital", "operator:type": "private", "source": "OpenGovernmentData"}}, {"type": "node", "id": 6549378688, "lat": 17.3458905, "lon": 78.5292422, "tags": {"addr:city": "Hyderabad", "addr:full": "Plot No. 56, Sriram Nagar Colony, Karmanghat 'X' Roads", "addr:postcode": "500035", "addr:state": "Telangana", "amenity": "hospital", "contact:phone": "040 29803762", "healthcare": "hospital", "name": "SREE SREYAS HOSPITAL", "operator:type": "private", "source": "OpenGovernmentData"}}, {"type": "node", "id": 6549439100, "lat": 17.3960244, "lon": 78.559704, "tags": {"addr:city": "Hyderabad", "addr:full": "H.No: 1-30/F, Saraswathi Colony, Near Rajlakshmi Theatre, Beside Uppal Ring Road, Uppal", "addr:postcode": "500039", "addr:state": "Telangana", "amenity": "hospital", "contact:phone": "04027202741 ; 04027202742", "healthcare": "hospital", "name": "SUMITHRA HOSPITALS", "operator:type": "private", "source": "OpenGovernmentData"}}, {"type": "node", "id": 6563028513, "lat": 17.3678054, "lon": 78.5496034, "tags": {"addr:district": "Hyderabad", "addr:full": "Road No.3, Near S.R.K Puram Bus Stop, Rangareddy", "addr:postcode": "500035", "addr:state": "Telangana", "amenity": "hospital", "name": "Susheela Hospital - R.K Puram", "source": "OpenGovernmentData"}}, {"type": "node", "id": 6567338346, "lat": 17.4186403, "lon": 78.5420912, "tags": {"addr:district": "Hyderabad", "addr:full": "4-7-75, Opposite Indian Petrol Pump, Habsiguda 'X' Roads", "addr:state": "Telangana", "amenity": "hospital", "fixme": "Please verify the accurate position of the hospital as I have mapped the facility based on the address provided in Open Data Government", "name": "Whitus Hospital (A Unit Of Sri Shikhara Hospitals India Pvt Ltd)", "source": "OpenGovernmentData"}}, {"type": "node", "id": 6632844432, "lat": 17.4189151, "lon": 78.5654264, "tags": {"amenity": "hospital", "healthcare": "hospital", "healthcare:speciality": "laparascopic_surgery", "name": "Satya Multi Speciality Hospital", "phone": "+91 7093088502;+91 9030911252"}}, {"type": "node", "id": 6811749024, "lat": 17.372487, "lon": 78.522991, "tags": {"addr:district": "Medchal Malkajgiri", "addr:full": "16-11-511/D/16, Shalivahana Nagar, Near Bhashyam School Dilsukhnagar", "addr:postcode": "500036", "addr:state": "Telangana", "amenity": "hospital", "contact:phone": "040 30091234", "healthcare": "hospital", "name": "Amma Hospitals", "source": "OpenGovernmentData"}}, {"type": "node", "id": 6811749029, "lat": 17.354892, "lon": 78.532407, "tags": {"addr:district": "Ranga Reddy", "addr:full": "Near Gandhi Statue, Saroornagar Cross Roads, Hyderabad", "addr:postcode": "500035", "addr:state": "Telangana", "amenity": "hospital", "name": "Saroornagar Hospital", "source": "OpenGovernmentData"}}, {"type": "node", "id": 6811749031, "lat": 17.367644, "lon": 78.529654, "tags": {"addr:district": "Medchal Malkajgiri", "addr:full": "Kamala Nagar, Lane opp. To Pulla Reddy Sweets, Dilsukhnagar", "addr:postcode": "500060", "addr:state": "Telangana", "amenity": "hospital", "healthcare": "hospital", "name": "Srihitha Hospital", "source": "OpenGovernmentData"}}, {"type": "node", "id": 6811749148, "lat": 17.4028303, "lon": 78.5741446, "tags": {"addr:district": "Hyderabad", "addr:full": "Opp. Aditya Hospital, Beside Petrol Bunk Lane , Uppal", "addr:state": "Telangana", "amenity": "hospital", "contact:mobile": "9246542348", "contact:phone": "040 64552348", "name": "Lakshmi Priya Nursing", "source": "OpenGovernmentData"}}, {"type": "node", "id": 6811749151, "lat": 17.4023438, "lon": 78.5670163, "tags": {"addr:district": "Medchal Malkajgiri", "addr:full": "2-6-71/A, Bharath Nagar Colony, Near Masjid, Uppal", "addr:postcode": "500039", "addr:state": "Telangana", "amenity": "hospital", "name": "SKIMS Hospital", "source": "OpenGovernmentData"}}, {"type": "node", "id": 6811749182, "lat": 17.3659362, "lon": 78.5255259, "tags": {"addr:district": "Hyderabad", "addr:full": "H.No: 7-78/1, Madhura Puri, Konark Theatre Lane, P & T Colony Road, Dilsukhnagar", "addr:state": "Telangana", "amenity": "hospital", "contact:mobile": "8341966249", "healthcare": "hospital", "name": "SAI RAM MULTI SPECIALITY HOSPITAL (ARK HEALTH CARE PVT LTD)", "operator:type": "private", "source": "OpenGovernmentData"}}, {"type": "node", "id": 6868572410, "lat": 17.4234633, "lon": 78.5478069, "tags": {"addr:city": "Hyderabad", "addr:street": "HMT colony", "amenity": "hospital", "healthcare": "hospital", "healthcare:speciality": "general;gynaecology;surgery", "name": "Durga prasad"}}, {"type": "node", "id": 6934778614, "lat": 17.3745451, "lon": 78.5455972, "tags": {"amenity": "hospital", "healthcare": "hospital"}}, {"type": "node", "id": 6935636792, "lat": 17.4324216, "lon": 78.5525978}, {"type": "node", "id": 8745836201, "lat": 17.3614317, "lon": 78.5539533, "tags": {"addr:district": "Rangareddy", "addr:full": "Haripuri Colony, Bharat Nagar, Bahadurguda", "addr:postcode": "500074", "addr:state": "Telangana", "amenity": "hospital", "name": "Kamineni Hospital", "source": "Local Knowledge"}}, {"type": "node", "id": 8759230773, "lat": 17.4012471, "lon": 78.5636616, "tags": {"addr:district": "Hyderabad", "addr:full": "Vijayapuri Colony, Uppal, Hyderabad", "addr:postcode": "500039", "addr:state": "Telangana", "amenity": "hospital", "name": "Tapadia Diagnostics Centre", "source": "Local Knowledge"}}, {"type": "node", "id": 8759335242, "lat": 17.3632288, "lon": 78.5449317, "tags": {"addr:district": "Hyderabad", "addr:full": "H.No: 11-13-1161, Kothapet, Hyderabad", "addr:postcode": "500035", "addr:state": "Telangana", "amenity": "hospital", "name": "Vasavi Hospital", "source": "Local Knowledge"}}, {"type": "node", "id": 8760959031, "lat": 17.4058368, "lon": 78.5875386, "tags": {"addr:district": "Medchal", "addr:full": "H-NO, 3-13/3, Mallikarjuna Nagar Colony,Boduppal, Hyderabad", "addr:postcode": "500092", "addr:state": "Telangana", "amenity": "hospital", "name": "Save Hospitals", "source": "Local Knowledge"}}, {"type": "node", "id": 8761004351, "lat": 17.3582035, "lon": 78.5444422, "tags": {"addr:district": "Medchal", "addr:full": "Green Hills Colony,Kothapet, Doctors Colony Main Rd, Bahadurguda", "addr:postcode": "500074", "addr:state": "Telangana", "amenity": "hospital", "name": "Paramitha Children's Hospital", "source": "Local Knowledge"}}, {"type": "node", "id": 8763259938, "lat": 17.3931001, "lon": 78.5575394, "tags": {"addr:district": "Medchal", "addr:full": "Opposite Metro Rail Pillar No. NUP-9, Survey Colony, Industrial Development Area, Uppal, Hyderabad", "addr:postcode": "500039", "addr:state": "Telangana", "amenity": "hospital", "name": "Centre for DNA Fingerprinting and Diagnostics", "source": "Local Knowledge"}}, {"type": "node", "id": 8763598296, "lat": 17.4009873, "lon": 78.5794678, "tags": {"addr:district": "Medchal", "addr:full": "H.No.: 2-3-214/156/NR, beside kattamaisamma Temple, Hyderabad", "addr:postcode": "500039", "addr:state": "Telangana", "amenity": "hospital", "name": "Shree Healthcare Multi Specialty Hospital", "source": "Local Knowledge"}}, {"type": "node", "id": 9391261140, "lat": 17.4274216, "lon": 78.5517653, "tags": {"amenity": "hospital", "healthcare": "hospital"}}, {"type": "node", "id": 9527080374, "lat": 17.3532901, "lon": 78.5589741, "tags": {"amenity": "hospital", "healthcare": "hospital", "name": "kamineni"}}, {"type": "node", "id": 9870554869, "lat": 17.4113015, "lon": 78.5859926, "tags": {"amenity": "hospital", "healthcare": "hospital", "name": "Vijaya Diagnostics Center"}}, {"type": "node", "id": 10898562903, "lat": 17.400154, "lon": 78.5405264, "tags": {"amenity": "hospital", "healthcare": "hospital"}}, {"type": "node", "id": 11005197974, "lat": 17.3979133, "lon": 78.5310178, "tags": {"addr:district": "Hyderabad", "addr:place": "Ramanthapur, Uppal Road", "addr:state": "Telangana", "addr:street": "Warangal Highway Road", "addr:subdistrict": "Amberpet", "amenity": "hospital", "healthcare": "hospital", "name": "DK Govt Homoeopathic Hospital, Ramanthapur, Hyd", "operational_status": "operational", "operator:type": "government", "source": "OpenDataTelangana"}}, {"type": "node", "id": 11098927505, "lat": 17.3934464, "lon": 78.5365962, "tags": {"addr:postcode": "500013", "addr:street": "RTC Colony", "amenity": "hospital", "name": "Susheela Hospital"}}, {"type": "node", "id": 12289411655, "lat": 17.3667392, "lon": 78.5811285, "tags": {"addr:city": "Hyderabad", "addr:country": "IN", "addr:district": "k.v.rangareddy", "addr:housenumber": "H.No. 12-1-468/2P/2F, 2nd floor", "addr:postcode": "500068", "addr:street": "beside ace ajanta apartments, bandlaguda, nagole", "amenity": "hospital", "email": "info@swasthyadental.in", "healthcare": "hospital", "healthcare:speciality": "dentist;dental_oral_maxillo_facial_surgery", "mobile": "+919676814469", "name": "Swasthya Dental Clinic", "operator": "Dr Ramya Surapaneni", "operator:type": "private", "payment:cash": "yes", "payment:credit_cards": "yes", "payment:debit_cards": "yes", "payment:wallets": "yes", "website": "https://swasthyadental.in", "wheelchair": "yes"}}, {"type": "node", "id": 12852366410, "lat": 17.3959816, "lon": 78.5299056, "tags": {"amenity": "hospital", "healthcare": "hospital", "name": "Sai charan Children's hospital"}}, {"type": "node", "id": 12852371077, "lat": 17.3943514, "lon": 78.5299096, "tags": {"amenity": "hospital", "healthcare": "hospital", "name": "Janani infertility center"}}, {"type": "node", "id": 12890299914, "lat": 17.4319353, "lon": 78.5522966}, {"type": "node", "id": 12890299915, "lat": 17.4314769, "lon": 78.5531095}, {"type": "node", "id": 12890299916, "lat": 17.4319634, "lon": 78.5534108}, {"type": "node", "id": 12949577900, "lat": 17.365035, "lon": 78.534275}, {"type": "node", "id": 12949589701, "lat": 17.3649201, "lon": 78.534507}, {"type": "node", "id": 12949589702, "lat": 17.3651591, "lon": 78.533683}, {"type": "node", "id": 12949589703, "lat": 17.3645297, "lon": 78.5338632}, {"type": "node", "id": 13181481501, "lat": 17.363751, "lon": 78.585004, "tags": {"amenity": "hospital", "name": "CGHS Bandlaguda"}}, {"type": "node", "id": 13337356007, "lat": 17.349695, "lon": 78.5483858, "tags": {"amenity": "hospital", "healthcare": "hospital", "name": "Medicare Hospitals"}}, {"type": "way", "id": 146312947, "nodes": [1595794974, 1595794961, 1595794973, 1595794963, 1595794965, 1595794967, 1595794974], "tags": {"addr:district": "Hyderabad", "addr:full": "Kamineni, L.B Nagar", "addr:housenumber": "10", "addr:postcode": "500068", "addr:state": "Telangana", "amenity": "hospital", "email": "ms.khl@kaminenihospitals.com", "emergency": "yes", "emergency_telephone_code": "040 66002200;040 24022222", "fax": "040 2402 2277", "healthcare:speciality": "multi specialty", "medical_system": "Allopathic", "name": "Kamineni Hospital", "opening_hours": "24/7", "operator:type": "private", "phone": "040 39879999", "source": "OpenGovernmentData", "website": "https://www.kaminenihospitals.com/"}}, {"type": "way", "id": 252285892, "nodes": [2583734761, 2583734762, 2583734763, 2583734764, 2583734773, 2583734772, 2583734761], "tags": {"amenity": "hospital", "emergency": "yes"}}, {"type": "way", "id": 253465843, "nodes": [2593895374, 2593895376, 2593895378, 2593895380, 2593895374], "tags": {"addr:district": "Hyderabad", "addr:full": "Opposite Vegetable Market, Uppal Main Road", "addr:postcode": "500039", "addr:state": "Telangana", "amenity": "hospital", "building": "yes", "name": "Shreeda Children's Hospital", "source": "OpenGovernmentData"}}, {"type": "way", "id": 253467402, "nodes": [2593908683, 2593908685, 2593908687, 2593908689, 2593908683], "tags": {"addr:district": "Hyderabad", "addr:full": "H.No-9-1/3, Sri Ram Nagar Colony,Peerjadiguda (Village),Gatkeswar(Mandal)", "addr:postcode": "500039", "addr:state": "Telangana", "amenity": "hospital", "building": "yes", "emergency": "yes", "name": "Anitha Nursing Home", "source": "OpenGovernmentData"}}, {"type": "way", "id": 265036384, "nodes": [2706889270, 2706889273, 2706889276, 12949589702, 2706889279, 12949577900, 12949589701, 2706889282, 2706889285, 12949589703, 2706889270], "tags": {"amenity": "hospital", "healthcare": "hospital", "healthcare:speciality": "dentistry", "name": "pananeeya dental hospital"}}, {"type": "way", "id": 357179813, "nodes": [3625133218, 3625133214, 3625132992, 3625133193, 3625132960, 3625132964, 3625132977, 3625132980, 3625133218], "tags": {"amenity": "hospital", "healthcare": "hospital", "name": "Urban health centre"}}, {"type": "way", "id": 357971564, "nodes": [3630403312, 3630403309, 3630403304, 3630403308, 3630403312], "tags": {"amenity": "hospital", "name": "Pharmacy"}}, {"type": "way", "id": 357971577, "nodes": [3630403316, 3630403314, 3630403310, 3630403313, 3630403316], "tags": {"amenity": "hospital", "name": "Vasudeva Rao Clinic"}}, {"type": "way", "id": 608308376, "nodes": [5763499581, 5763499578, 5763499579, 5763499580, 6518592571, 6518592570, 5763499581], "tags": {"addr:city": "Hyderabad", "addr:postcode": "500092", "addr:street": "Boduppal", "amenity": "hospital", "building:levels": "1", "emergency": "no", "healthcare": "hospital", "name": "Primary Healthcare Center", "operator": "Government"}}, {"type": "way", "id": 690384774, "nodes": [6477150043, 6477150042, 6477150041, 6477150039, 6477150040, 6477150043], "tags": {"addr:district": "Hyderabad", "addr:full": "Nagole 'X' Road", "addr:state": "Telangana", "amenity": "hospital", "building": "yes", "fax": "040 30979798", "healthcare:speciality": "Meditrina;Orthopedics;ENT;Spine;Neurology;Cancer Care", "medical_system": "Allopathic", "name": "Supraja Hospital", "operator:type": "private", "phone": "040 30979797", "source": "OpenGovernmentData"}}, {"type": "way", "id": 1076262700, "nodes": [3628246431, 3628246393, 3628246395, 3628246433, 3628246431], "tags": {"amenity": "hospital", "healthcare": "hospital", "name": "ground"}}, {"type": "way", "id": 1392514385, "nodes": [6935636792, 12890299914, 12890299915, 12890299916, 6935636792], "tags": {"addr:city": "Hyderabad", "addr:postcode": "500076", "addr:street": "Nacharam", "amenity": "hospital", "emergency": "yes", "healthcare": "hospital", "name": "ESI Hospital", "operator": "Employees' State Insurance", "operator:short": "ESI", "operator:type": "private", "operator:wikidata": "Q3595726"}}]}