{"version": 0.6, "generator": "Overpass API 0.7.62.8 e802775f", "osm3s": {"timestamp_osm_base": "2026-01-13T06:58:21Z", "copyright": "The data included in this document is from www.openstreetmap.org. The data is made available under ODbL."}, "elements": [{"type": "node", "id": 246472067, "lat": 19.0421735, "lon": 72.9329888, "tags": {"bench": "yes", "bin": "yes", "bus": "yes", "highway": "bus_stop", "lit": "yes", "name": "BARC Gate 6", "public_transport": "platform", "shelter": "yes"}}, {"type": "node", "id": 344885648, "lat": 19.0437772, "lon": 73.0188461}, {"type": "node", "id": 344885649, "lat": 19.0419956, "lon": 73.0188021}, {"type": "node", "id": 344885653, "lat": 19.035761, "lon": 73.0182504}, {"type": "node", "id": 344895140, "lat": 19.0275222, "lon": 73.0166497}, {"type": "node", "id": 344895142, "lat": 19.0252162, "lon": 73.0166936}, {"type": "node", "id": 344895143, "lat": 19.0243767, "lon": 73.0170246}, {"type": "node", "id": 344895144, "lat": 19.0236243, "lon": 73.0175317}, {"type": "node", "id": 344895149, "lat": 19.0181867, "lon": 73.0235329}, {"type": "node", "id": 344895150, "lat": 19.0176268, "lon": 73.0241495}, {"type": "node", "id": 344895151, "lat": 19.0171765, "lon": 73.0246656}, {"type": "node", "id": 344895152, "lat": 19.0164958, "lon": 73.0259821}, {"type": "node", "id": 344895153, "lat": 19.0162752, "lon": 73.0269744}, {"type": "node", "id": 478508658, "lat": 19.0074117, "lon": 73.0161522, "tags": {"bus": "yes", "highway": "bus_stop", "name": "NRI", "operator": "NMMT", "public_transport": "platform"}}, {"type": "node", "id": 619073109, "lat": 19.0182862, "lon": 73.0227878}, {"type": "node", "id": 619073110, "lat": 19.0170332, "lon": 73.0237619}, {"type": "node", "id": 619073111, "lat": 19.0158515, "lon": 73.0241908}, {"type": "node", "id": 619073114, "lat": 19.0058579, "lon": 73.0252477}, {"type": "node", "id": 619073115, "lat": 19.0040558, "lon": 73.0257393}, {"type": "node", "id": 1366794662, "lat": 19.033651, "lon": 72.9503637, "tags": {"amenity": "bus_station", "bus": "yes", "name": "Trombay", "public_transport": "station"}}, {"type": "node", "id": 1470665016, "lat": 19.0075876, "lon": 73.0159579, "tags": {"bus": "yes", "highway": "bus_stop", "name": "NRI", "operator": "NMMT", "public_transport": "platform", "shelter": "yes"}}, {"type": "node", "id": 2440539523, "lat": 19.0146459, "lon": 73.0251957}, {"type": "node", "id": 2440539525, "lat": 19.0153174, "lon": 73.0258222}, {"type": "node", "id": 2440539526, "lat": 19.0157191, "lon": 73.0264283}, {"type": "node", "id": 2440539528, "lat": 19.0159532, "lon": 73.027044}, {"type": "node", "id": 2440539555, "lat": 19.0354796, "lon": 73.0184485}, {"type": "node", "id": 2440539556, "lat": 19.0378153, "lon": 73.0186327, "tags": {"railway": "switch"}}, {"type": "node", "id": 2440539558, "lat": 19.0423978, "lon": 73.01899}, {"type": "node", "id": 2440539562, "lat": 19.0501034, "lon": 73.0189629}, {"type": "node", "id": 2440539564, "lat": 19.0505387, "lon": 73.0189015}, {"type": "node", "id": 2440539565, "lat": 19.0518128, "lon": 73.0187234}, {"type": "node", "id": 2440539566, "lat": 19.0524319, "lon": 73.0186568}, {"type": "node", "id": 3204504352, "lat": 19.0384776, "lon": 72.9446669, "tags": {"highway": "bus_stop", "name": "cheeta camp"}}, {"type": "node", "id": 3204508759, "lat": 19.0342614, "lon": 72.9494324, "tags": {"bus": "yes", "highway": "bus_stop", "name": "trombay bus stop..", "public_transport": "platform"}}, {"type": "node", "id": 3357228527, "lat": 19.031509, "lon": 73.0182318}, {"type": "node", "id": 3357228529, "lat": 19.0367794, "lon": 73.0183867}, {"type": "node", "id": 3674854447, "lat": 19.040097, "lon": 73.0137792}, {"type": "node", "id": 3674854448, "lat": 19.0400674, "lon": 73.0145909}, {"type": "node", "id": 3799406379, "lat": 18.9772041, "lon": 73.0256878}, {"type": "node", "id": 3799406848, "lat": 18.9833093, "lon": 73.0299007}, {"type": "node", "id": 4567530198, "lat": 18.967403, "lon": 73.0192055}, {"type": "node", "id": 4567530199, "lat": 18.9676897, "lon": 73.0193944}, {"type": "node", "id": 4648373500, "lat": 19.0415133, "lon": 73.019361, "tags": {"bus": "yes", "highway": "bus_stop", "name:en": "Cidco Office", "operator": "NMMT", "public_transport": "platform"}}, {"type": "node", "id": 4648373501, "lat": 19.0440055, "lon": 73.0191378, "tags": {"bus": "yes", "highway": "bus_stop", "name:en": "Rajiv Gandhi Bridge", "operator": "NMMT", "public_transport": "platform"}}, {"type": "node", "id": 4648374192, "lat": 19.0442487, "lon": 73.0231477, "tags": {"bus": "yes", "highway": "bus_stop", "name:en": "Shivaji Chowk", "operator": "NMMT", "public_transport": "platform"}}, {"type": "node", "id": 4648374393, "lat": 19.0427169, "lon": 73.0222772, "tags": {"bus": "yes", "highway": "bus_stop", "name:en": "SIES College", "operator": "NMMT", "public_transport": "platform"}}, {"type": "node", "id": 4648482189, "lat": 19.0420799, "lon": 73.0223594, "tags": {"bus": "yes", "highway": "bus_stop", "name:en": "SIES College", "operator": "NMMT", "public_transport": "platform"}}, {"type": "node", "id": 4648504491, "lat": 19.0407527, "lon": 73.0212253, "tags": {"bus": "yes", "highway": "bus_stop", "name:en": "Parsik Bank Bus Stop", "operator": "NMMT", "public_transport": "platform"}}, {"type": "node", "id": 4648505096, "lat": 19.0078649, "lon": 73.0163469, "tags": {"amenity": "bus_station", "bus": "yes", "name": "Nerul Sector 46/48 NMMT Bus Depot", "name:en": "Nerul Sector 46/48 NMMT Bus Depot", "operator": "NMMT", "public_transport": "station"}}, {"type": "node", "id": 4648677492, "lat": 19.0191046, "lon": 73.015854, "tags": {"bus": "yes", "highway": "bus_stop", "name": "D-Mart Seawoods", "operator": "NMMT", "public_transport": "platform"}}, {"type": "node", "id": 4648683790, "lat": 19.02351, "lon": 73.0148998, "tags": {"bus": "yes", "highway": "bus_stop", "name": "Sanjay Joshi Chowk", "name:en": "Sanjay Joshi Chowk", "operator": "NMMT", "public_transport": "platform"}}, {"type": "node", "id": 4648683892, "lat": 19.033945, "lon": 73.0170918, "tags": {"bench": "yes", "bin": "no", "bus": "yes", "highway": "bus_stop", "lit": "no", "name": "Nerul West", "operator": "NMMT", "public_transport": "platform", "shelter": "yes"}}, {"type": "node", "id": 4648683995, "lat": 19.0110907, "lon": 73.0117217, "tags": {"bus": "yes", "highway": "bus_stop", "name": "Akshar Residency", "name:en": "Palm Beach Highway", "operator": "NMMT", "public_transport": "platform"}}, {"type": "node", "id": 4648683996, "lat": 19.0123487, "lon": 73.0131056, "tags": {"bus": "yes", "highway": "bus_stop", "name": "Sector 48/Petrol Pump", "operator": "NMMT", "public_transport": "platform"}}, {"type": "node", "id": 4648703198, "lat": 19.026821, "lon": 73.0178619, "tags": {"bus": "yes", "highway": "bus_stop", "name:en": "Darave Village", "operator": "NMMT", "public_transport": "platform"}}, {"type": "node", "id": 4648707793, "lat": 19.0181167, "lon": 73.0122746, "tags": {"bus": "yes", "highway": "bus_stop", "name": "Ganesh Maidan", "name:en": "Ganesh Maidan", "operator": "NMMT", "public_transport": "platform"}}, {"type": "node", "id": 4648707794, "lat": 19.0199793, "lon": 73.0143089, "tags": {"bus": "yes", "highway": "bus_stop", "name": "Kendriya Vihar", "name:en": "Kendriya Vihar", "operator": "NMMT", "public_transport": "platform"}}, {"type": "node", "id": 4648707797, "lat": 19.0281589, "lon": 73.0164986, "tags": {"bus": "yes", "highway": "bus_stop", "name": "Shree Ganesh CHS", "name:en": "Ganesh Society (Nerul)", "operator": "NMMT", "public_transport": "platform"}}, {"type": "node", "id": 4648722990, "lat": 19.023677, "lon": 73.0194877, "tags": {"bus": "yes", "highway": "bus_stop", "name:en": "Seawood Darawe Railway Station", "operator": "NMMT", "public_transport": "platform"}}, {"type": "node", "id": 4648746490, "lat": 19.0145654, "lon": 73.0152096, "tags": {"bus": "yes", "name": "Gaimukh Chowk", "operator": "NMMT", "public_transport": "stop_position"}}, {"type": "node", "id": 4648746491, "lat": 19.0203771, "lon": 73.011308, "tags": {"bus": "yes", "highway": "bus_stop", "name": "Karave Gaon", "name:en": "Karave Gaon", "operator": "NMMT", "public_transport": "platform"}}, {"type": "node", "id": 4648788190, "lat": 19.0302588, "lon": 73.0169642, "tags": {"bus": "yes", "highway": "bus_stop", "name": "Terna Engineering College", "name:en": "Terna Engineering College", "operator": "NMMT", "public_transport": "platform"}}, {"type": "node", "id": 4648808889, "lat": 19.0276662, "lon": 73.0164574, "tags": {"bus": "yes", "highway": "bus_stop", "name:en": "Nerul Gymkhana", "operator": "NMMT", "public_transport": "platform"}}, {"type": "node", "id": 4651809100, "lat": 19.0367315, "lon": 73.0153027, "tags": {"bus": "yes", "highway": "bus_stop", "name": "Nerul Village", "name:en": "Nerul Village", "operator": "NMMT", "public_transport": "platform"}}, {"type": "node", "id": 4652120891, "lat": 19.0371473, "lon": 73.0126657, "tags": {"bus": "yes", "highway": "bus_stop", "name:en": "Vidyaprasarak Shikshan Mandal", "operator": "NMMT", "public_transport": "platform"}}, {"type": "node", "id": 4662929497, "lat": 19.010073, "lon": 73.0148761, "tags": {"bus": "yes", "highway": "bus_stop", "name": "Gurudatta Society", "name:en": "Gurudatta Society", "operator": "NMMT", "public_transport": "platform"}}, {"type": "node", "id": 4662929701, "lat": 19.0242739, "lon": 73.0187853, "tags": {"bus": "yes", "highway": "bus_stop", "name:en": "Nageshwar Talav", "operator": "NMMT", "public_transport": "platform"}}, {"type": "node", "id": 4662933890, "lat": 19.0244212, "lon": 73.0220807, "tags": {"bus": "yes", "highway": "bus_stop", "name:en": "Sterling College", "operator": "NMMT", "public_transport": "platform"}}, {"type": "node", "id": 4662933891, "lat": 19.0107862, "lon": 73.016389, "tags": {"bus": "yes", "highway": "bus_stop", "name": "Ashtagandha Society", "name:en": "Ashtagandha Society", "operator": "NMMT", "public_transport": "platform"}}, {"type": "node", "id": 4662946990, "lat": 19.0142049, "lon": 73.0165953, "tags": {"bus": "yes", "name": "Banubai Ganpat Tandel Market", "operator": "NMMT", "public_transport": "stop_position"}}, {"type": "node", "id": 4662948489, "lat": 19.0285331, "lon": 73.0229931, "tags": {"bus": "yes", "highway": "bus_stop", "name": "Mother Teresa Garden", "name:en": "Mother Teresa Garden", "operator": "NMMT", "public_transport": "platform"}}, {"type": "node", "id": 4662948491, "lat": 19.0093128, "lon": 73.0160668, "tags": {"bus": "yes", "highway": "bus_stop", "name": "Sai Krupa Society", "name:en": "Sai Krupa Society", "operator": "NMMT", "public_transport": "platform"}}, {"type": "node", "id": 4662950389, "lat": 19.025536, "lon": 73.0217717, "tags": {"bus": "yes", "highway": "bus_stop", "name": "Nirmala Society Sector 21", "name:en": "Nirmala Society Sector 21", "operator": "NMMT", "public_transport": "platform"}}, {"type": "node", "id": 4662960389, "lat": 19.0130928, "lon": 73.017874, "tags": {"bus": "yes", "highway": "bus_stop", "name": "Shivdarshan Society", "name:en": "Shivdarshan Society", "operator": "NMMT", "public_transport": "platform"}}, {"type": "node", "id": 4662975890, "lat": 19.0341403, "lon": 73.0196832, "tags": {"bus": "yes", "highway": "bus_stop", "name": "Nerul Railway Station", "name:en": "Nerul Railway Station", "operator": "NMMT", "public_transport": "platform", "shelter": "yes"}}, {"type": "node", "id": 4662980489, "lat": 19.011622, "lon": 73.0148747, "tags": {"bus": "yes", "highway": "bus_stop", "name": "Saidham Society", "name:en": "Saidham Society", "operator": "NMMT", "public_transport": "platform"}}, {"type": "node", "id": 4662988589, "lat": 19.0315039, "lon": 73.0219661, "tags": {"bus": "yes", "highway": "bus_stop", "name": "D Mart / Nerul Sector 21", "name:en": "D Mart / Nerul Sector 21", "operator": "NMMT", "public_transport": "platform"}}, {"type": "node", "id": 4662988590, "lat": 19.0359395, "lon": 73.019853, "tags": {"bus": "yes", "highway": "bus_stop", "name": "Nerul Sector 11/15", "name:en": "Nerul Sector 11/15", "operator": "NMMT", "public_transport": "platform"}}, {"type": "node", "id": 4662990489, "lat": 19.0337412, "lon": 73.0208409, "tags": {"bus": "yes", "highway": "bus_stop", "name:en": "Meenatai Thakre Hospital", "operator": "NMMT", "public_transport": "platform"}}, {"type": "node", "id": 4665109304, "lat": 19.0440667, "lon": 73.017651, "tags": {"bus": "yes", "highway": "bus_stop", "name:en": "Ganesh Chowk (Nerul-E)", "operator": "NMMT", "public_transport": "platform"}}, {"type": "node", "id": 4665153705, "lat": 19.0436464, "lon": 73.0146601, "tags": {"bus": "yes", "highway": "bus_stop", "name": "Swatantryaveer Sawarkar Chowk", "name:en": "Swatantryaveer Sawarkar Chowk", "operator": "NMMT", "public_transport": "platform"}}, {"type": "node", "id": 4665153706, "lat": 19.0439156, "lon": 73.014306, "tags": {"bus": "yes", "highway": "bus_stop", "name": "Sarsole Koliwada", "name:en": "Sarsole Koliwada", "operator": "NMMT", "public_transport": "platform"}}, {"type": "node", "id": 4665153902, "lat": 19.0430206, "lon": 73.0146821, "tags": {"bus": "yes", "highway": "bus_stop", "name:en": "Sarsole Koliwada", "operator": "NMMT", "public_transport": "platform"}}, {"type": "node", "id": 4665153903, "lat": 19.038573, "lon": 73.0146009, "tags": {"bus": "yes", "highway": "bus_stop", "name:en": "Terna College", "operator": "NMMT", "public_transport": "platform"}}, {"type": "node", "id": 4665153999, "lat": 19.0436749, "lon": 73.0142363, "tags": {"bus": "yes", "highway": "bus_stop", "name": "Sarsole Koliwada", "name:en": "Sarsole Koliwada", "operator": "NMMT", "public_transport": "platform"}}, {"type": "node", "id": 4665154197, "lat": 19.0403055, "lon": 73.014709, "tags": {"bus": "yes", "highway": "bus_stop", "name:en": "Sarsole Depot", "operator": "NMMT", "public_transport": "platform"}}, {"type": "node", "id": 4665154497, "lat": 19.032132, "lon": 73.0188338, "tags": {"bench": "yes", "bin": "no", "bus": "yes", "highway": "bus_stop", "lit": "no", "name": "Nerul Railway Station East", "operator": "NMMT", "public_transport": "platform", "shelter": "yes"}}, {"type": "node", "id": 4665191695, "lat": 19.0383042, "lon": 73.0145241, "tags": {"bus": "yes", "highway": "bus_stop", "name:en": "Terna College", "operator": "NMMT", "public_transport": "platform"}}, {"type": "node", "id": 4665191790, "lat": 19.0444372, "lon": 73.0178158, "tags": {"bus": "yes", "highway": "bus_stop", "name:en": "Ganesh Chowk (Nerul-E)", "operator": "NMMT", "public_transport": "platform"}}, {"type": "node", "id": 4665192293, "lat": 19.0297772, "lon": 73.0182867, "tags": {"bus": "yes", "highway": "bus_stop", "name:en": "Nerul Police Station", "operator": "NMMT", "public_transport": "platform"}}, {"type": "node", "id": 4665230989, "lat": 19.0322162, "lon": 73.0191906, "tags": {"bench": "yes", "bin": "no", "bus": "yes", "highway": "bus_stop", "lit": "no", "name": "Nerul Railway Station East", "operator": "NMMT", "public_transport": "platform", "shelter": "yes"}}, {"type": "node", "id": 4665230990, "lat": 19.0298582, "lon": 73.0184986, "tags": {"bus": "yes", "highway": "bus_stop", "name:en": "Nerul Police Station", "operator": "NMMT", "public_transport": "platform"}}, {"type": "node", "id": 4665647294, "lat": 19.0411208, "lon": 73.0097661, "tags": {"bus": "yes", "highway": "bus_stop", "name:en": "Meridian", "operator": "NMMT", "public_transport": "platform"}}, {"type": "node", "id": 4665684192, "lat": 19.0439737, "lon": 73.011494, "tags": {"bus": "yes", "highway": "bus_stop", "name:en": "Nerul Sector-2/4", "operator": "NMMT", "public_transport": "platform"}}, {"type": "node", "id": 4665684294, "lat": 19.0429616, "lon": 73.0097301, "tags": {"bus": "yes", "highway": "bus_stop", "name:en": "Deep Sagar Society", "operator": "NMMT", "public_transport": "platform"}}, {"type": "node", "id": 4665684295, "lat": 19.0423903, "lon": 73.0098312, "tags": {"bus": "yes", "highway": "bus_stop", "name:en": "Deep Sagar Society", "operator": "NMMT", "public_transport": "platform"}}, {"type": "node", "id": 4665684392, "lat": 19.041035, "lon": 73.0096562, "tags": {"bus": "yes", "highway": "bus_stop", "name:en": "Meridian", "operator": "NMMT", "public_transport": "platform"}}, {"type": "node", "id": 4822210676, "lat": 19.0540999, "lon": 73.018499}, {"type": "node", "id": 4822210926, "lat": 19.054096, "lon": 73.0183594}, {"type": "node", "id": 5126161634, "lat": 19.0296712, "lon": 73.0174777}, {"type": "node", "id": 5193610884, "lat": 19.0139451, "lon": 73.0248634}, {"type": "node", "id": 5193610885, "lat": 19.0132403, "lon": 73.0247003}, {"type": "node", "id": 5302029675, "lat": 19.022842, "lon": 73.0176989}, {"type": "node", "id": 5302029676, "lat": 19.0233812, "lon": 73.0172029}, {"type": "node", "id": 5302029677, "lat": 19.0242276, "lon": 73.0166527}, {"type": "node", "id": 5302029678, "lat": 19.0251432, "lon": 73.0163568}, {"type": "node", "id": 5302029680, "lat": 19.0260777, "lon": 73.0162992}, {"type": "node", "id": 5302029681, "lat": 19.0315192, "lon": 73.0179925}, {"type": "node", "id": 5302968714, "lat": 19.0305949, "lon": 73.0176571}, {"type": "node", "id": 5302968715, "lat": 19.0268807, "lon": 73.0164311}, {"type": "node", "id": 5302968717, "lat": 19.024831, "lon": 73.0164349}, {"type": "node", "id": 5302968718, "lat": 19.0236506, "lon": 73.0169945}, {"type": "node", "id": 5302968719, "lat": 19.0176976, "lon": 73.0233301}, {"type": "node", "id": 5302968720, "lat": 19.0163643, "lon": 73.0240552}, {"type": "node", "id": 5302970022, "lat": 19.0135884, "lon": 73.0247439}, {"type": "node", "id": 5302970023, "lat": 19.0160372, "lon": 73.0274765}, {"type": "node", "id": 5302970024, "lat": 19.0162813, "lon": 73.0280185}, {"type": "node", "id": 5302970025, "lat": 19.0163791, "lon": 73.0263777}, {"type": "node", "id": 5302970026, "lat": 19.0167441, "lon": 73.0253818}, {"type": "node", "id": 5302970034, "lat": 19.0203115, "lon": 73.0209732}, {"type": "node", "id": 5302970035, "lat": 19.0199094, "lon": 73.0215061}, {"type": "node", "id": 5302970036, "lat": 19.0186575, "lon": 73.0229151}, {"type": "node", "id": 5302970037, "lat": 19.0171277, "lon": 73.0246322}, {"type": "node", "id": 5302970038, "lat": 19.0169867, "lon": 73.0248469}, {"type": "node", "id": 5302970039, "lat": 19.0166985, "lon": 73.025357}, {"type": "node", "id": 5302970040, "lat": 19.0164442, "lon": 73.0259694}, {"type": "node", "id": 5302970041, "lat": 19.0163255, "lon": 73.0263746}, {"type": "node", "id": 5302970042, "lat": 19.0162241, "lon": 73.0269755}, {"type": "node", "id": 5302970043, "lat": 19.0162472, "lon": 73.0284383}, {"type": "node", "id": 5302970049, "lat": 19.0162516, "lon": 73.0267428}, {"type": "node", "id": 5302970050, "lat": 19.0163033, "lon": 73.0267415}, {"type": "node", "id": 5302970056, "lat": 19.0206025, "lon": 73.0206265}, {"type": "node", "id": 5302970057, "lat": 19.0230395, "lon": 73.0178967}, {"type": "node", "id": 5302970058, "lat": 19.0235418, "lon": 73.0174226}, {"type": "node", "id": 5302970059, "lat": 19.0240551, "lon": 73.0170481}, {"type": "node", "id": 5302970060, "lat": 19.0243246, "lon": 73.0168947}, {"type": "node", "id": 5302970061, "lat": 19.0241126, "lon": 73.0171701}, {"type": "node", "id": 5302970063, "lat": 19.0300542, "lon": 73.017771}, {"type": "node", "id": 5302970065, "lat": 19.0251903, "lon": 73.0165741}, {"type": "node", "id": 5302970066, "lat": 19.0258237, "lon": 73.0164874}, {"type": "node", "id": 5302970067, "lat": 19.0265891, "lon": 73.0165343}, {"type": "node", "id": 5302970068, "lat": 19.0271317, "lon": 73.0166479}, {"type": "node", "id": 5302970069, "lat": 19.0296264, "lon": 73.017607}, {"type": "node", "id": 5302970071, "lat": 19.0309579, "lon": 73.0179562}, {"type": "node", "id": 5302970074, "lat": 19.0319576, "lon": 73.0183994}, {"type": "node", "id": 5302970075, "lat": 19.0315045, "lon": 73.0183385}, {"type": "node", "id": 5302970078, "lat": 19.0315147, "lon": 73.0180985}, {"type": "node", "id": 5302970079, "lat": 19.0309506, "lon": 73.0180543}, {"type": "node", "id": 5302970080, "lat": 19.0306844, "lon": 73.0180182}, {"type": "node", "id": 5302970082, "lat": 19.0309217, "lon": 73.0181953}, {"type": "node", "id": 5302970083, "lat": 19.0307111, "lon": 73.0179287}, {"type": "node", "id": 5302970084, "lat": 19.0309465, "lon": 73.0181018}, {"type": "node", "id": 5302970086, "lat": 19.0308913, "lon": 73.0177807}, {"type": "node", "id": 5302970088, "lat": 19.0296486, "lon": 73.0175435}, {"type": "node", "id": 5302970089, "lat": 19.0275004, "lon": 73.016713}, {"type": "node", "id": 5302970090, "lat": 19.0271468, "lon": 73.0165842}, {"type": "node", "id": 5302970091, "lat": 19.0265985, "lon": 73.0164534}, {"type": "node", "id": 5302970092, "lat": 19.0260733, "lon": 73.0163966}, {"type": "node", "id": 5302970093, "lat": 19.0251674, "lon": 73.0164686}, {"type": "node", "id": 5302970094, "lat": 19.0248622, "lon": 73.0165508}, {"type": "node", "id": 5302970095, "lat": 19.0242776, "lon": 73.0167773}, {"type": "node", "id": 5302970096, "lat": 19.0239979, "lon": 73.0169261}, {"type": "node", "id": 5302970097, "lat": 19.0234635, "lon": 73.0173146}, {"type": "node", "id": 5302970099, "lat": 19.0229425, "lon": 73.0177996}, {"type": "node", "id": 5302970100, "lat": 19.0205784, "lon": 73.0204391}, {"type": "node", "id": 5302970101, "lat": 19.0201818, "lon": 73.0208469}, {"type": "node", "id": 5302970102, "lat": 19.0192431, "lon": 73.0218012}, {"type": "node", "id": 5302970103, "lat": 19.0183233, "lon": 73.02283}, {"type": "node", "id": 5302970104, "lat": 19.0177228, "lon": 73.0233897}, {"type": "node", "id": 5302970105, "lat": 19.0152756, "lon": 73.0242854}, {"type": "node", "id": 5302970106, "lat": 19.0191966, "lon": 73.0217552}, {"type": "node", "id": 5302970107, "lat": 19.0189031, "lon": 73.0220877}, {"type": "node", "id": 5302970108, "lat": 19.0180195, "lon": 73.0231441}, {"type": "node", "id": 5302970109, "lat": 19.017357, "lon": 73.0235737}, {"type": "node", "id": 5302970110, "lat": 19.0170694, "lon": 73.0238146}, {"type": "node", "id": 5302970111, "lat": 19.0166757, "lon": 73.0240039}, {"type": "node", "id": 5302970112, "lat": 19.0160421, "lon": 73.0242072}, {"type": "node", "id": 5302970113, "lat": 19.0155341, "lon": 73.0243106}, {"type": "node", "id": 5302970117, "lat": 19.0260693, "lon": 73.0164863}, {"type": "node", "id": 5302970118, "lat": 19.0263415, "lon": 73.0165041}, {"type": "node", "id": 5302970120, "lat": 19.0255035, "lon": 73.0163059}, {"type": "node", "id": 5302970122, "lat": 19.0132426, "lon": 73.024636}, {"type": "node", "id": 5302970123, "lat": 19.0135923, "lon": 73.024682}, {"type": "node", "id": 5302970124, "lat": 19.0139633, "lon": 73.0248101}, {"type": "node", "id": 5302970125, "lat": 19.0143246, "lon": 73.0249666}, {"type": "node", "id": 5302970126, "lat": 19.0158398, "lon": 73.0266795}, {"type": "node", "id": 5302970127, "lat": 19.015486, "lon": 73.0260538}, {"type": "node", "id": 5302970128, "lat": 19.014895, "lon": 73.0253754}, {"type": "node", "id": 5302970129, "lat": 19.0143051, "lon": 73.0250173}, {"type": "node", "id": 5302970130, "lat": 19.0146647, "lon": 73.0251475}, {"type": "node", "id": 5302970131, "lat": 19.0149299, "lon": 73.0253386}, {"type": "node", "id": 5302970132, "lat": 19.0151258, "lon": 73.0255344}, {"type": "node", "id": 5302970133, "lat": 19.0153604, "lon": 73.0258061}, {"type": "node", "id": 5302970134, "lat": 19.0155391, "lon": 73.0260541}, {"type": "node", "id": 5302970135, "lat": 19.0157236, "lon": 73.0263509}, {"type": "node", "id": 5302970136, "lat": 19.0158716, "lon": 73.0266578}, {"type": "node", "id": 5302970137, "lat": 19.0159927, "lon": 73.0270298}, {"type": "node", "id": 5302970138, "lat": 19.0160769, "lon": 73.0274602}, {"type": "node", "id": 5302970139, "lat": 19.0161316, "lon": 73.0278888}, {"type": "node", "id": 5302970140, "lat": 19.0161765, "lon": 73.0284028}, {"type": "node", "id": 5302970152, "lat": 19.016285, "lon": 73.0284296}, {"type": "node", "id": 5302970153, "lat": 19.0162396, "lon": 73.0280234}, {"type": "node", "id": 5302970154, "lat": 19.0168361, "lon": 73.0250994}, {"type": "node", "id": 5302970155, "lat": 19.0169014, "lon": 73.0250961}, {"type": "node", "id": 5302970156, "lat": 19.0166099, "lon": 73.0256824}, {"type": "node", "id": 5302970157, "lat": 19.01656, "lon": 73.0256661}, {"type": "node", "id": 5302970158, "lat": 19.0160917, "lon": 73.0278952}, {"type": "node", "id": 5302970159, "lat": 19.016134, "lon": 73.0283931}, {"type": "node", "id": 5302970160, "lat": 19.0161442, "lon": 73.0287721}, {"type": "node", "id": 5302970161, "lat": 19.0161923, "lon": 73.0299414}, {"type": "node", "id": 5302970162, "lat": 19.0162054, "lon": 73.0305067}, {"type": "node", "id": 5302970163, "lat": 19.0162223, "lon": 73.0310116}, {"type": "node", "id": 5302970164, "lat": 19.0162899, "lon": 73.031733}, {"type": "node", "id": 5302970165, "lat": 19.016488, "lon": 73.0331318}, {"type": "node", "id": 5302970166, "lat": 19.0165477, "lon": 73.0336325}, {"type": "node", "id": 5303002067, "lat": 19.0430292, "lon": 73.0188446}, {"type": "node", "id": 5303002068, "lat": 19.045224, "lon": 73.0188352}, {"type": "node", "id": 5303002071, "lat": 19.0533488, "lon": 73.0184105}, {"type": "node", "id": 5303002072, "lat": 19.0521991, "lon": 73.0185395}, {"type": "node", "id": 5303002073, "lat": 19.0510886, "lon": 73.0187219}, {"type": "node", "id": 5303002074, "lat": 19.0500908, "lon": 73.0188627}, {"type": "node", "id": 5303002075, "lat": 19.0495778, "lon": 73.0188899}, {"type": "node", "id": 5303002078, "lat": 19.0467273, "lon": 73.0188813}, {"type": "node", "id": 5303002079, "lat": 19.045765, "lon": 73.01889}, {"type": "node", "id": 5303002080, "lat": 19.0445378, "lon": 73.0188971}, {"type": "node", "id": 5303002081, "lat": 19.0445127, "lon": 73.0188453}, {"type": "node", "id": 5303002083, "lat": 19.0445439, "lon": 73.0190087}, {"type": "node", "id": 5303002085, "lat": 19.0495797, "lon": 73.018985}, {"type": "node", "id": 5303002086, "lat": 19.0533531, "lon": 73.0185163}, {"type": "node", "id": 5303002087, "lat": 19.0524939, "lon": 73.0185847}, {"type": "node", "id": 5303002088, "lat": 19.0521736, "lon": 73.0186124}, {"type": "node", "id": 5303002090, "lat": 19.050099, "lon": 73.0189143}, {"type": "node", "id": 5303002091, "lat": 19.0495787, "lon": 73.018938}, {"type": "node", "id": 5303002092, "lat": 19.0445345, "lon": 73.0189513}, {"type": "node", "id": 5303002093, "lat": 19.0434861, "lon": 73.0189491}, {"type": "node", "id": 5303002094, "lat": 19.0427317, "lon": 73.0189429}, {"type": "node", "id": 5303002095, "lat": 19.0424036, "lon": 73.0189377}, {"type": "node", "id": 5303002099, "lat": 19.037399, "lon": 73.0185508}, {"type": "node", "id": 5303002100, "lat": 19.036799, "lon": 73.0185041}, {"type": "node", "id": 5303002101, "lat": 19.0363483, "lon": 73.0185528}, {"type": "node", "id": 5303002102, "lat": 19.035148, "lon": 73.018553}, {"type": "node", "id": 5303002103, "lat": 19.043502, "lon": 73.0188975}, {"type": "node", "id": 5303002104, "lat": 19.0430185, "lon": 73.0188957}, {"type": "node", "id": 5303002105, "lat": 19.0424114, "lon": 73.0188833}, {"type": "node", "id": 5303002106, "lat": 19.0419928, "lon": 73.0188568}, {"type": "node", "id": 5303002107, "lat": 19.0398068, "lon": 73.0186778}, {"type": "node", "id": 5303002109, "lat": 19.0367888, "lon": 73.0184426}, {"type": "node", "id": 5303002110, "lat": 19.0354868, "lon": 73.0183277}, {"type": "node", "id": 5303002111, "lat": 19.0354919, "lon": 73.0182084}, {"type": "node", "id": 5303031991, "lat": 19.0049146, "lon": 73.0254041}, {"type": "node", "id": 5303031992, "lat": 19.0054576, "lon": 73.0253}, {"type": "node", "id": 5303031993, "lat": 19.0044698, "lon": 73.0255554}, {"type": "node", "id": 5303031994, "lat": 19.0031163, "lon": 73.0264141}, {"type": "node", "id": 5303031995, "lat": 19.0034938, "lon": 73.0260767}, {"type": "node", "id": 5303031996, "lat": 19.0088512, "lon": 73.0250054}, {"type": "node", "id": 5303031997, "lat": 19.0054457, "lon": 73.0253665}, {"type": "node", "id": 5303031998, "lat": 19.0049259, "lon": 73.0254584}, {"type": "node", "id": 5303031999, "lat": 19.0045064, "lon": 73.0255985}, {"type": "node", "id": 5303032000, "lat": 19.0040854, "lon": 73.0257819}, {"type": "node", "id": 5303032001, "lat": 19.003529, "lon": 73.0261208}, {"type": "node", "id": 5303032002, "lat": 19.0031616, "lon": 73.0264447}, {"type": "node", "id": 5303032003, "lat": 19.0018068, "lon": 73.0281226}, {"type": "node", "id": 5303032004, "lat": 18.9975219, "lon": 73.033452}, {"type": "node", "id": 5303032005, "lat": 19.001776, "lon": 73.0280841}, {"type": "node", "id": 5303032008, "lat": 18.997475, "lon": 73.0334207}, {"type": "node", "id": 5303032010, "lat": 19.0088458, "lon": 73.0249346}, {"type": "node", "id": 5303032013, "lat": 19.0113351, "lon": 73.0247729, "tags": {"railway": "switch"}}, {"type": "node", "id": 5303032015, "lat": 19.0113255, "lon": 73.0246752, "tags": {"railway": "switch"}}, {"type": "node", "id": 5303039622, "lat": 19.0151778, "lon": 73.0154206}, {"type": "node", "id": 5303039623, "lat": 19.0151519, "lon": 73.0154387}, {"type": "node", "id": 5303039624, "lat": 19.0151247, "lon": 73.0154443}, {"type": "node", "id": 5303039625, "lat": 19.0150942, "lon": 73.0154426}, {"type": "node", "id": 5303039626, "lat": 19.0150625, "lon": 73.015431}, {"type": "node", "id": 5304226860, "lat": 19.0237142, "lon": 73.0171107}, {"type": "node", "id": 5304226861, "lat": 19.0239423, "lon": 73.0168072}, {"type": "node", "id": 5363453978, "lat": 19.0229978, "lon": 73.0179647}, {"type": "node", "id": 5363453979, "lat": 19.023074, "lon": 73.0180405}, {"type": "node", "id": 5363453980, "lat": 19.0210863, "lon": 73.0202655}, {"type": "node", "id": 5363453981, "lat": 19.0210106, "lon": 73.0201892}, {"type": "node", "id": 5363453982, "lat": 19.0227997, "lon": 73.0177672}, {"type": "node", "id": 5363453983, "lat": 19.0228815, "lon": 73.0178487}, {"type": "node", "id": 5363453984, "lat": 19.0208874, "lon": 73.0200651}, {"type": "node", "id": 5363453985, "lat": 19.0208061, "lon": 73.0199832}, {"type": "node", "id": 5363467104, "lat": 19.0209138, "lon": 73.0200917}, {"type": "node", "id": 5363467105, "lat": 19.0209917, "lon": 73.0201702}, {"type": "node", "id": 5363467106, "lat": 19.0229776, "lon": 73.0179445}, {"type": "node", "id": 5363467107, "lat": 19.0228992, "lon": 73.0178664}, {"type": "node", "id": 5363467108, "lat": 19.0227796, "lon": 73.0177472}, {"type": "node", "id": 5363467109, "lat": 19.0227053, "lon": 73.0176731}, {"type": "node", "id": 5363467110, "lat": 19.0207116, "lon": 73.019888}, {"type": "node", "id": 5363467111, "lat": 19.0207857, "lon": 73.0199626}, {"type": "node", "id": 5363467112, "lat": 19.0211076, "lon": 73.020287}, {"type": "node", "id": 5363467113, "lat": 19.0211804, "lon": 73.0203603}, {"type": "node", "id": 5363467114, "lat": 19.0231674, "lon": 73.0181337}, {"type": "node", "id": 5363467115, "lat": 19.0230943, "lon": 73.0180608}, {"type": "node", "id": 5370266398, "lat": 19.0296023, "lon": 73.0176761}, {"type": "node", "id": 5370266399, "lat": 19.0312285, "lon": 73.0181853}, {"type": "node", "id": 5370266400, "lat": 19.0312328, "lon": 73.0180778}, {"type": "node", "id": 5388598579, "lat": 19.0153614, "lon": 73.0146237}, {"type": "node", "id": 5388598580, "lat": 19.0150609, "lon": 73.0149596}, {"type": "node", "id": 5389146168, "lat": 19.0271146, "lon": 73.01672}, {"type": "node", "id": 5389146169, "lat": 19.0265798, "lon": 73.0166151}, {"type": "node", "id": 5389146170, "lat": 19.0263326, "lon": 73.0165939}, {"type": "node", "id": 5389146171, "lat": 19.0260648, "lon": 73.0165861}, {"type": "node", "id": 5389146173, "lat": 19.0248914, "lon": 73.0166591}, {"type": "node", "id": 5389146174, "lat": 19.0249245, "lon": 73.016782}, {"type": "node", "id": 5389146175, "lat": 19.0245778, "lon": 73.0166442}, {"type": "node", "id": 5389146176, "lat": 19.0245423, "lon": 73.0165248}, {"type": "node", "id": 5389146177, "lat": 19.0246124, "lon": 73.0167607}, {"type": "node", "id": 5389146178, "lat": 19.0246508, "lon": 73.0168902}, {"type": "node", "id": 5389146179, "lat": 19.0300308, "lon": 73.0178393}, {"type": "node", "id": 5389146180, "lat": 19.0258229, "lon": 73.0163904}, {"type": "node", "id": 5389146181, "lat": 19.0258246, "lon": 73.0165934}, {"type": "node", "id": 5389146182, "lat": 19.027479, "lon": 73.0167753}, {"type": "node", "id": 5389146183, "lat": 19.0274565, "lon": 73.0168397}, {"type": "node", "id": 5389146184, "lat": 19.0271639, "lon": 73.016512}, {"type": "node", "id": 5389146185, "lat": 19.026608, "lon": 73.0163708}, {"type": "node", "id": 5389146186, "lat": 19.0237786, "lon": 73.0172285}, {"type": "node", "id": 5389146187, "lat": 19.0238458, "lon": 73.0173513}, {"type": "node", "id": 5389146188, "lat": 19.0231456, "lon": 73.0174127}, {"type": "node", "id": 5404924140, "lat": 19.0215148, "lon": 73.0028226, "tags": {"addr:city": "Navi Mumbai", "addr:postcode": "400706", "addr:street": "Palm Beach Marg", "amenity": "ferry_terminal", "ferry": "yes", "name": "Seawoods Jetty", "public_transport": "station"}}, {"type": "node", "id": 5405093120, "lat": 19.0189497, "lon": 73.0221337}, {"type": "node", "id": 5405094121, "lat": 19.0192169, "lon": 73.0223977}, {"type": "node", "id": 5405094122, "lat": 19.0191705, "lon": 73.0223518}, {"type": "node", "id": 5405094123, "lat": 19.0194636, "lon": 73.0220189}, {"type": "node", "id": 5405094124, "lat": 19.0195104, "lon": 73.0220652}, {"type": "node", "id": 5406582623, "lat": 18.9832865, "lon": 73.0299381}, {"type": "node", "id": 5406582624, "lat": 18.9771343, "lon": 73.0258136}, {"type": "node", "id": 5406582625, "lat": 18.967662, "lon": 73.0194414}, {"type": "node", "id": 5406582626, "lat": 18.9673753, "lon": 73.0192525}, {"type": "node", "id": 5406582627, "lat": 18.9587225, "lon": 73.0134284}, {"type": "node", "id": 5406582628, "lat": 18.9610155, "lon": 73.0147982}, {"type": "node", "id": 5406582629, "lat": 18.9609369, "lon": 73.0149262}, {"type": "node", "id": 5406582630, "lat": 18.9587957, "lon": 73.0133027}, {"type": "node", "id": 5406582631, "lat": 18.9776263, "lon": 73.0259784}, {"type": "node", "id": 5406582632, "lat": 18.9775605, "lon": 73.0261035}, {"type": "node", "id": 5406634551, "lat": 19.0319647, "lon": 73.0182681}, {"type": "node", "id": 5406634552, "lat": 19.0360114, "lon": 73.0184624, "tags": {"railway": "switch"}}, {"type": "node", "id": 5406634553, "lat": 19.0350386, "lon": 73.0181615}, {"type": "node", "id": 5406634555, "lat": 19.0314104, "lon": 73.0178272}, {"type": "node", "id": 5406634556, "lat": 19.0305827, "lon": 73.0177362}, {"type": "node", "id": 5406634557, "lat": 19.0308987, "lon": 73.0176903}, {"type": "node", "id": 5406634558, "lat": 19.0298691, "lon": 73.0175987}, {"type": "node", "id": 5406634559, "lat": 19.0298845, "lon": 73.017532}, {"type": "node", "id": 5406634561, "lat": 19.0319793, "lon": 73.018002}, {"type": "node", "id": 5406634562, "lat": 19.0319721, "lon": 73.0181335}, {"type": "node", "id": 5411587086, "lat": 19.0101419, "lon": 73.0119159, "tags": {"bus": "yes", "highway": "bus_stop", "name": "Palm Beach Highway", "name:en": "Palm Beach Highway", "operator": "NMMT", "public_transport": "platform"}}, {"type": "node", "id": 5423885902, "lat": 19.0231359, "lon": 73.0179933}, {"type": "node", "id": 5423969704, "lat": 18.970606, "lon": 73.0214461}, {"type": "node", "id": 5423969705, "lat": 18.9706383, "lon": 73.0213951}, {"type": "node", "id": 5428254315, "lat": 19.0348678, "lon": 73.0180194}, {"type": "node", "id": 5428254316, "lat": 19.0351706, "lon": 73.0180374, "tags": {"railway": "switch"}}, {"type": "node", "id": 5428254318, "lat": 19.0367255, "lon": 73.0182605, "tags": {"railway": "switch"}}, {"type": "node", "id": 5428254319, "lat": 19.0437405, "lon": 73.0187193, "tags": {"railway": "buffer_stop"}}, {"type": "node", "id": 5428254320, "lat": 19.0425474, "lon": 73.0187188}, {"type": "node", "id": 5428322721, "lat": 19.0414856, "lon": 73.0186278}, {"type": "node", "id": 5428322722, "lat": 19.0400274, "lon": 73.0185112}, {"type": "node", "id": 5428322723, "lat": 19.0348735, "lon": 73.0178974}, {"type": "node", "id": 5428322724, "lat": 19.0351753, "lon": 73.0179299}, {"type": "node", "id": 5428322727, "lat": 19.038776, "lon": 73.0183267}, {"type": "node", "id": 5428322729, "lat": 19.0402002, "lon": 73.0185265, "tags": {"railway": "switch"}}, {"type": "node", "id": 5428322730, "lat": 19.0407128, "lon": 73.0185017}, {"type": "node", "id": 5428322731, "lat": 19.0425546, "lon": 73.0186441}, {"type": "node", "id": 5428322732, "lat": 19.04374, "lon": 73.0186429, "tags": {"railway": "buffer_stop"}}, {"type": "node", "id": 5428322737, "lat": 19.0365277, "lon": 73.018489}, {"type": "node", "id": 5428322738, "lat": 19.0372243, "lon": 73.0185927, "tags": {"railway": "switch"}}, {"type": "node", "id": 5428322739, "lat": 19.0382099, "lon": 73.0187014}, {"type": "node", "id": 5428322740, "lat": 19.0385594, "lon": 73.018763}, {"type": "node", "id": 5428322741, "lat": 19.0390662, "lon": 73.0188092}, {"type": "node", "id": 5428322742, "lat": 19.0394808, "lon": 73.0188444}, {"type": "node", "id": 5428356879, "lat": 18.9641179, "lon": 73.0170709}, {"type": "node", "id": 5428356880, "lat": 18.9641487, "lon": 73.0170221}, {"type": "node", "id": 5428356881, "lat": 18.9643103, "lon": 73.0172063}, {"type": "node", "id": 5428356882, "lat": 18.964341, "lon": 73.0171574}, {"type": "node", "id": 5430685715, "lat": 19.0402235, "lon": 73.0137851}, {"type": "node", "id": 5441972840, "lat": 18.9713538, "lon": 73.0218722}, {"type": "node", "id": 5441972841, "lat": 18.971322, "lon": 73.0219236}, {"type": "node", "id": 5441972842, "lat": 18.9739306, "lon": 73.0234857}, {"type": "node", "id": 5441972843, "lat": 18.973852, "lon": 73.023611}, {"type": "node", "id": 5466069077, "lat": 19.0156489, "lon": 73.0149033}, {"type": "node", "id": 5466069078, "lat": 19.0148363, "lon": 73.0152108}, {"type": "node", "id": 5466069079, "lat": 19.0150784, "lon": 73.0154383}, {"type": "node", "id": 5466069080, "lat": 19.0151095, "lon": 73.015445}, {"type": "node", "id": 5466069081, "lat": 19.0151388, "lon": 73.015442}, {"type": "node", "id": 5466069082, "lat": 19.0151652, "lon": 73.0154308}, {"type": "node", "id": 5501108946, "lat": 19.0151656, "lon": 73.0149449, "tags": {"bench": "yes", "bus": "yes", "departures_board": "realtime", "highway": "bus_stop", "lit": "yes", "name": "Seawoods Bus Station", "operator": "NMMT", "public_transport": "platform", "shelter": "yes", "wheelchair": "yes"}}, {"type": "node", "id": 5501219611, "lat": 19.0326863, "lon": 73.0175914}, {"type": "node", "id": 5501219612, "lat": 19.0326545, "lon": 73.0186496}, {"type": "node", "id": 5501219613, "lat": 19.0345445, "lon": 73.0186059}, {"type": "node", "id": 5501219614, "lat": 19.0345886, "lon": 73.0177952}, {"type": "node", "id": 5501280530, "lat": 19.0344229, "lon": 73.0176767}, {"type": "node", "id": 5501280531, "lat": 19.0348686, "lon": 73.0178104}, {"type": "node", "id": 5501280532, "lat": 19.0348291, "lon": 73.0186214}, {"type": "node", "id": 5501280533, "lat": 19.0345399, "lon": 73.0187347}, {"type": "node", "id": 5501280534, "lat": 19.032331, "lon": 73.0176612}, {"type": "node", "id": 5501280537, "lat": 19.0326789, "lon": 73.0176802}, {"type": "node", "id": 5518339331, "lat": 19.0405632, "lon": 73.0194299}, {"type": "node", "id": 5518339332, "lat": 19.039815, "lon": 73.0202289}, {"type": "node", "id": 5518339333, "lat": 19.0396281, "lon": 73.0199675}, {"type": "node", "id": 5518339334, "lat": 19.0395537, "lon": 73.0198186}, {"type": "node", "id": 5518339335, "lat": 19.0394994, "lon": 73.0193626}, {"type": "node", "id": 5518339336, "lat": 19.0394843, "lon": 73.019598}, {"type": "node", "id": 5520349112, "lat": 19.0193582, "lon": 73.0162069, "tags": {"bus": "yes", "highway": "bus_stop", "name": "D-Mart Seawoods", "operator": "NMMT", "public_transport": "platform"}}, {"type": "node", "id": 5520349113, "lat": 19.0174061, "lon": 73.0172118, "tags": {"bus": "yes", "highway": "bus_stop", "name": "Nakhwa Chowk", "operator": "NMMT", "public_transport": "platform"}}, {"type": "node", "id": 5520349114, "lat": 19.0172961, "lon": 73.017193, "tags": {"bus": "yes", "highway": "bus_stop", "name": "Nakhwa Chowk", "operator": "NMMT", "public_transport": "platform"}}, {"type": "node", "id": 5520349115, "lat": 19.016674, "lon": 73.0170673, "tags": {"bus": "yes", "highway": "bus_stop", "name": "Maharashtra Gyan Maha Mandal", "operator": "NMMT", "public_transport": "platform"}}, {"type": "node", "id": 5520349116, "lat": 19.0160943, "lon": 73.0166735, "tags": {"bus": "yes", "highway": "bus_stop", "name": "Maharashtra Gyan Maha Mandal", "operator": "NMMT", "public_transport": "platform"}}, {"type": "node", "id": 5520349117, "lat": 19.0125483, "lon": 73.0131077, "tags": {"bus": "yes", "highway": "bus_stop", "name": "Sector 48/Petrol Pump", "operator": "NMMT", "public_transport": "platform"}}, {"type": "node", "id": 5520349118, "lat": 19.0146516, "lon": 73.0151077, "tags": {"bus": "yes", "name": "Gaimukh Chowk", "operator": "NMMT", "public_transport": "stop_position"}}, {"type": "node", "id": 5520349119, "lat": 19.0156804, "lon": 73.0149526, "tags": {"bus": "yes", "highway": "bus_stop", "name": "Seawoods Bus Station", "operator": "NMMT", "public_transport": "platform"}}, {"type": "node", "id": 5520349120, "lat": 19.017064, "lon": 73.0134358, "tags": {"bus": "yes", "highway": "bus_stop", "name": "Karave Smashan Bhoomi", "operator": "NMMT", "public_transport": "platform"}}, {"type": "node", "id": 5520349223, "lat": 19.0205616, "lon": 73.0180886, "tags": {"bus": "yes", "highway": "bus_stop", "name": "Seawoods Railway Station", "name:en": "Seawoods Railway Station", "operator": "NMMT", "public_transport": "platform"}}, {"type": "node", "id": 5520349224, "lat": 19.0213792, "lon": 73.0171892, "tags": {"bus": "yes", "highway": "bus_stop", "name": "Seawoods Railway Station", "operator": "NMMT", "public_transport": "platform"}}, {"type": "node", "id": 5520349225, "lat": 19.0220038, "lon": 73.016655, "tags": {"bus": "yes", "highway": "bus_stop", "name": "Seawoods Railway Station", "operator": "NMMT", "public_transport": "platform"}}, {"type": "node", "id": 5520349226, "lat": 19.0233855, "lon": 73.0151626, "tags": {"bus": "yes", "highway": "bus_stop", "name": "Sanjay Joshi Chowk", "name:en": "Sanjay Joshi Chowk", "operator": "NMMT", "public_transport": "platform"}}, {"type": "node", "id": 5520352021, "lat": 19.0115554, "lon": 73.0123526, "tags": {"bus": "yes", "highway": "bus_stop", "name": "Akshar Residency", "name:en": "Akshar Residency", "operator": "NMMT", "public_transport": "platform"}}, {"type": "node", "id": 5520352022, "lat": 19.0099366, "lon": 73.0118435, "tags": {"bus": "yes", "highway": "bus_stop", "name": "Palm Beach Highway", "name:en": "Palm Beach Highway", "operator": "NMMT", "public_transport": "platform"}}, {"type": "node", "id": 5590125821, "lat": 19.017984, "lon": 73.0230992}, {"type": "node", "id": 5590125822, "lat": 19.0174075, "lon": 73.0236142}, {"type": "node", "id": 5590125823, "lat": 19.0163765, "lon": 73.0241159}, {"type": "node", "id": 5590125824, "lat": 19.016666, "lon": 73.0239375}, {"type": "node", "id": 5590125825, "lat": 19.0160462, "lon": 73.0241467}, {"type": "node", "id": 5590125826, "lat": 19.0158692, "lon": 73.0242461}, {"type": "node", "id": 5590125827, "lat": 19.0155351, "lon": 73.0242485}, {"type": "node", "id": 5590125828, "lat": 19.0152706, "lon": 73.0243455}, {"type": "node", "id": 5637121146, "lat": 19.0255148, "lon": 73.016413}, {"type": "node", "id": 5637121147, "lat": 19.0258221, "lon": 73.0162888}, {"type": "node", "id": 5637121148, "lat": 19.0255254, "lon": 73.0165131}, {"type": "node", "id": 5637121149, "lat": 19.0255374, "lon": 73.0166266}, {"type": "node", "id": 5637121150, "lat": 19.0204716, "lon": 73.0203332}, {"type": "node", "id": 5637121151, "lat": 19.0206797, "lon": 73.0205394}, {"type": "node", "id": 5707752228, "lat": 19.0170314, "lon": 73.0248822}, {"type": "node", "id": 5707752237, "lat": 19.0467286, "lon": 73.0189402}, {"type": "node", "id": 5707752238, "lat": 19.0467286, "lon": 73.0189971}, {"type": "node", "id": 5707752239, "lat": 19.0467336, "lon": 73.0188278}, {"type": "node", "id": 5707752240, "lat": 19.04274, "lon": 73.0188913}, {"type": "node", "id": 5707752241, "lat": 19.0427182, "lon": 73.0188349}, {"type": "node", "id": 5707752242, "lat": 19.0419901, "lon": 73.0189096}, {"type": "node", "id": 5707752243, "lat": 19.0419875, "lon": 73.0189608}, {"type": "node", "id": 5707752244, "lat": 19.0424053, "lon": 73.018826}, {"type": "node", "id": 5707752245, "lat": 19.0378175, "lon": 73.0185823}, {"type": "node", "id": 5707752246, "lat": 19.0378201, "lon": 73.0185237}, {"type": "node", "id": 5707752247, "lat": 19.0378224, "lon": 73.0184721, "tags": {"railway": "switch"}}, {"type": "node", "id": 5707764306, "lat": 19.0283533, "lon": 73.0169699}, {"type": "node", "id": 5707764307, "lat": 19.0283304, "lon": 73.0170338}, {"type": "node", "id": 5707816015, "lat": 19.0291252, "lon": 73.0174129}, {"type": "node", "id": 5707816017, "lat": 19.0291484, "lon": 73.0173501}, {"type": "node", "id": 5707816019, "lat": 19.0312401, "lon": 73.0179798}, {"type": "node", "id": 5707816020, "lat": 19.0312038, "lon": 73.0182788}, {"type": "node", "id": 5707817421, "lat": 19.0347496, "lon": 73.0178895}, {"type": "node", "id": 5707817422, "lat": 19.0347437, "lon": 73.018014}, {"type": "node", "id": 5707817423, "lat": 19.0347375, "lon": 73.0181414}, {"type": "node", "id": 5707817424, "lat": 19.0347312, "lon": 73.0182739}, {"type": "node", "id": 5707817425, "lat": 19.0347246, "lon": 73.018412}, {"type": "node", "id": 5707817426, "lat": 19.0347181, "lon": 73.0185465}, {"type": "node", "id": 5707817427, "lat": 19.0360084, "lon": 73.0185562}, {"type": "node", "id": 5707817428, "lat": 19.0360142, "lon": 73.0183747}, {"type": "node", "id": 5707817429, "lat": 19.036017, "lon": 73.0182864}, {"type": "node", "id": 5707817430, "lat": 19.0360131, "lon": 73.0181978}, {"type": "node", "id": 5707817431, "lat": 19.0360223, "lon": 73.0181189, "tags": {"railway": "switch"}}, {"type": "node", "id": 5707817432, "lat": 19.0207762, "lon": 73.0206352}, {"type": "node", "id": 5707817433, "lat": 19.0205003, "lon": 73.0205278}, {"type": "node", "id": 5707817434, "lat": 19.0232337, "lon": 73.0175203}, {"type": "node", "id": 5707817435, "lat": 19.0233173, "lon": 73.0176225}, {"type": "node", "id": 5707817436, "lat": 19.0234009, "lon": 73.0177246}, {"type": "node", "id": 5725014656, "lat": 18.9624945, "lon": 73.0158878}, {"type": "node", "id": 5725014657, "lat": 18.9624728, "lon": 73.01595}, {"type": "node", "id": 5725014669, "lat": 18.9794124, "lon": 73.0273314}, {"type": "node", "id": 5725014670, "lat": 18.9794362, "lon": 73.027291}, {"type": "node", "id": 5725014671, "lat": 19.0026782, "lon": 73.0270135}, {"type": "node", "id": 5725014672, "lat": 19.0026496, "lon": 73.0269634}, {"type": "node", "id": 5725014673, "lat": 18.9986129, "lon": 73.0321413}, {"type": "node", "id": 5725014674, "lat": 18.9985709, "lon": 73.032099}, {"type": "node", "id": 5725014675, "lat": 19.005869, "lon": 73.0253128}, {"type": "node", "id": 5725014676, "lat": 19.015077, "lon": 73.0255492}, {"type": "node", "id": 5725014677, "lat": 19.0288578, "lon": 73.0173094}, {"type": "node", "id": 5725014678, "lat": 19.0288806, "lon": 73.0172465}, {"type": "node", "id": 5725014679, "lat": 19.0283079, "lon": 73.0170964}, {"type": "node", "id": 5725014680, "lat": 19.0282842, "lon": 73.0171623}, {"type": "node", "id": 5729558107, "lat": 19.0405633, "lon": 73.0138011}, {"type": "node", "id": 5729558108, "lat": 19.0405098, "lon": 73.0146062}, {"type": "node", "id": 5729676624, "lat": 19.0132343, "lon": 73.0245489}, {"type": "node", "id": 5729676625, "lat": 19.0132275, "lon": 73.024483}, {"type": "node", "id": 5758250197, "lat": 19.0091856, "lon": 73.0249538}, {"type": "node", "id": 5758250198, "lat": 19.0091788, "lon": 73.0248787}, {"type": "node", "id": 5787735901, "lat": 18.957008, "lon": 73.0125821}, {"type": "node", "id": 5787735902, "lat": 18.9566647, "lon": 73.0125016}, {"type": "node", "id": 5787735903, "lat": 18.955895, "lon": 73.0123739}, {"type": "node", "id": 5787735904, "lat": 18.9550631, "lon": 73.0124016}, {"type": "node", "id": 5787735905, "lat": 18.9535502, "lon": 73.0127594}, {"type": "node", "id": 5787735906, "lat": 18.9319961, "lon": 73.0239975}, {"type": "node", "id": 5787735945, "lat": 18.9319527, "lon": 73.0238899}, {"type": "node", "id": 5787735946, "lat": 18.9535254, "lon": 73.0126809}, {"type": "node", "id": 5787735947, "lat": 18.9550569, "lon": 73.0123192}, {"type": "node", "id": 5787735948, "lat": 18.9558976, "lon": 73.0122838}, {"type": "node", "id": 5787735949, "lat": 18.9567231, "lon": 73.0124007}, {"type": "node", "id": 5787735950, "lat": 18.9570742, "lon": 73.0124853}, {"type": "node", "id": 5812501243, "lat": 19.0121807, "lon": 73.0246673}, {"type": "node", "id": 5812501244, "lat": 19.0125868, "lon": 73.0246387}, {"type": "node", "id": 5841999715, "lat": 19.0197039, "lon": 73.0213021}, {"type": "node", "id": 5873320695, "lat": 19.0304411, "lon": 73.0179448}, {"type": "node", "id": 5982498108, "lat": 19.0398073, "lon": 73.0186225}, {"type": "node", "id": 5982498109, "lat": 19.0361092, "lon": 73.0181303, "tags": {"railway": "switch"}}, {"type": "node", "id": 5982498110, "lat": 19.0387774, "lon": 73.0184045}, {"type": "node", "id": 5982498111, "lat": 19.0414626, "lon": 73.0185531}, {"type": "node", "id": 6029559152, "lat": 19.0153328, "lon": 73.0152504}, {"type": "node", "id": 6050884340, "lat": 19.0326617, "lon": 73.0185016}, {"type": "node", "id": 6050884341, "lat": 19.0322911, "lon": 73.0184814}, {"type": "node", "id": 6053994297, "lat": 19.034752, "lon": 73.0179108}, {"type": "node", "id": 6053994298, "lat": 19.034748, "lon": 73.0179914}, {"type": "node", "id": 6053994299, "lat": 19.0324366, "lon": 73.0178818}, {"type": "node", "id": 6053994300, "lat": 19.0324407, "lon": 73.0178012}, {"type": "node", "id": 6053994301, "lat": 19.0324346, "lon": 73.0179202}, {"type": "node", "id": 6053994302, "lat": 19.0347416, "lon": 73.0181234}, {"type": "node", "id": 6053994303, "lat": 19.0347455, "lon": 73.0180429}, {"type": "node", "id": 6053994304, "lat": 19.0347396, "lon": 73.0181657}, {"type": "node", "id": 6053994305, "lat": 19.0347354, "lon": 73.0182518}, {"type": "node", "id": 6053994306, "lat": 19.0324234, "lon": 73.0181402}, {"type": "node", "id": 6053994307, "lat": 19.0324278, "lon": 73.0180541}, {"type": "node", "id": 6053994308, "lat": 19.0324211, "lon": 73.0181852}, {"type": "node", "id": 6053994309, "lat": 19.0324165, "lon": 73.0182762}, {"type": "node", "id": 6053994310, "lat": 19.0347287, "lon": 73.0183898}, {"type": "node", "id": 6053994311, "lat": 19.0347266, "lon": 73.0184328}, {"type": "node", "id": 6053994312, "lat": 19.0347224, "lon": 73.0185188}, {"type": "node", "id": 6053994313, "lat": 19.0324103, "lon": 73.0183994}, {"type": "node", "id": 6053994314, "lat": 19.0324146, "lon": 73.0183134}, {"type": "node", "id": 6053994315, "lat": 19.032408, "lon": 73.0184444}, {"type": "node", "id": 6053994316, "lat": 19.0324065, "lon": 73.0184751}, {"type": "node", "id": 6053994317, "lat": 19.0347184, "lon": 73.0186005}, {"type": "node", "id": 6053994318, "lat": 19.0347199, "lon": 73.0185699}, {"type": "node", "id": 6053994319, "lat": 19.0347541, "lon": 73.0178688}, {"type": "node", "id": 6053994320, "lat": 19.034756, "lon": 73.0178264}, {"type": "node", "id": 6053994321, "lat": 19.0324451, "lon": 73.0177114}, {"type": "node", "id": 6053994322, "lat": 19.0324432, "lon": 73.0177538}, {"type": "node", "id": 6053994323, "lat": 19.0324301, "lon": 73.0180085}, {"type": "node", "id": 6053994324, "lat": 19.0347331, "lon": 73.0182987}, {"type": "node", "id": 6054063975, "lat": 19.0306648, "lon": 73.0181046}, {"type": "node", "id": 6054063976, "lat": 19.0304216, "lon": 73.018008}, {"type": "node", "id": 6063384082, "lat": 19.0400611, "lon": 73.0184421, "tags": {"railway": "buffer_stop"}}, {"type": "node", "id": 6063384083, "lat": 19.0367285, "lon": 73.0181849}, {"type": "node", "id": 6063384084, "lat": 19.0361, "lon": 73.0182092}, {"type": "node", "id": 6063384185, "lat": 19.0319379, "lon": 73.0177504}, {"type": "node", "id": 6063384186, "lat": 19.031932, "lon": 73.0178687}, {"type": "node", "id": 6063384187, "lat": 19.0323103, "lon": 73.0177734}, {"type": "node", "id": 6063384188, "lat": 19.0323043, "lon": 73.0178928}, {"type": "node", "id": 6063384189, "lat": 19.0322977, "lon": 73.0180216}, {"type": "node", "id": 6063384190, "lat": 19.032291, "lon": 73.0181542}, {"type": "node", "id": 6063384191, "lat": 19.0322843, "lon": 73.0182868}, {"type": "node", "id": 6063384192, "lat": 19.0322778, "lon": 73.0184149}, {"type": "node", "id": 6063384193, "lat": 19.0312032, "lon": 73.0178086, "tags": {"railway": "switch"}}, {"type": "node", "id": 6063384194, "lat": 19.0312075, "lon": 73.0177079}, {"type": "node", "id": 6081359786, "lat": 19.0304619, "lon": 73.0178774}, {"type": "node", "id": 6081359787, "lat": 19.0307049, "lon": 73.0179275}, {"type": "node", "id": 6091687313, "lat": 18.9762214, "lon": 73.0250572}, {"type": "node", "id": 6091687314, "lat": 18.9761718, "lon": 73.0251397}, {"type": "node", "id": 6091687315, "lat": 18.974121, "lon": 73.0237622}, {"type": "node", "id": 6091687316, "lat": 18.9741706, "lon": 73.0236796}, {"type": "node", "id": 6091687317, "lat": 18.9763763, "lon": 73.0249559}, {"type": "node", "id": 6091687318, "lat": 18.9761579, "lon": 73.0253213}, {"type": "node", "id": 6091687319, "lat": 18.9739641, "lon": 73.0238566}, {"type": "node", "id": 6091687320, "lat": 18.9741856, "lon": 73.0234861}, {"type": "node", "id": 6091687321, "lat": 18.9609584, "lon": 73.0147844}, {"type": "node", "id": 6091687322, "lat": 18.9609089, "lon": 73.0148669}, {"type": "node", "id": 6091687323, "lat": 18.9588579, "lon": 73.0134894}, {"type": "node", "id": 6091687324, "lat": 18.9589075, "lon": 73.0134069}, {"type": "node", "id": 6091687325, "lat": 18.9610978, "lon": 73.0146818}, {"type": "node", "id": 6091687326, "lat": 18.9608806, "lon": 73.0150469}, {"type": "node", "id": 6091687327, "lat": 18.95869, "lon": 73.0135832}, {"type": "node", "id": 6091687328, "lat": 18.9589075, "lon": 73.0132174}, {"type": "node", "id": 6091737993, "lat": 19.0533581, "lon": 73.0186366}, {"type": "node", "id": 6091737994, "lat": 19.0541033, "lon": 73.0186204}, {"type": "node", "id": 6094411341, "lat": 18.9762774, "lon": 73.0249687}, {"type": "node", "id": 6094411342, "lat": 18.9762526, "lon": 73.02501}, {"type": "node", "id": 6094411343, "lat": 18.9742018, "lon": 73.0236325}, {"type": "node", "id": 6094411344, "lat": 18.9742266, "lon": 73.0235912}, {"type": "node", "id": 6094411345, "lat": 18.9761446, "lon": 73.0251826}, {"type": "node", "id": 6094411346, "lat": 18.9761198, "lon": 73.0252239}, {"type": "node", "id": 6094411347, "lat": 18.974069, "lon": 73.0238464}, {"type": "node", "id": 6094411348, "lat": 18.9740938, "lon": 73.0238051}, {"type": "node", "id": 6094411349, "lat": 18.9608733, "lon": 73.0149155}, {"type": "node", "id": 6094411350, "lat": 18.9608485, "lon": 73.0149568}, {"type": "node", "id": 6094411351, "lat": 18.9587975, "lon": 73.0135793}, {"type": "node", "id": 6094411352, "lat": 18.9588223, "lon": 73.013538}, {"type": "node", "id": 6094411353, "lat": 18.9610117, "lon": 73.0147015}, {"type": "node", "id": 6094411354, "lat": 18.9609869, "lon": 73.0147427}, {"type": "node", "id": 6094411355, "lat": 18.958936, "lon": 73.0133652}, {"type": "node", "id": 6094411356, "lat": 18.9589608, "lon": 73.0133239}, {"type": "node", "id": 6120968332, "lat": 19.0263502, "lon": 73.0164156}, {"type": "node", "id": 6120968333, "lat": 19.0263589, "lon": 73.0163274}, {"type": "node", "id": 6120968334, "lat": 19.0268667, "lon": 73.0165059}, {"type": "node", "id": 6120968335, "lat": 19.0268534, "lon": 73.0165771}, {"type": "node", "id": 6120968336, "lat": 19.0268395, "lon": 73.0166518}, {"type": "node", "id": 6120968337, "lat": 19.0203102, "lon": 73.0205109}, {"type": "node", "id": 6120968338, "lat": 19.0206147, "lon": 73.0208136}, {"type": "node", "id": 6175035024, "lat": 19.0114834, "lon": 73.0246826, "tags": {"internet_access": "no", "network": "IR", "operator": "CR", "railway": "signal"}}, {"type": "node", "id": 6177994507, "lat": 19.0489892, "lon": 73.0189007}, {"type": "node", "id": 6177994508, "lat": 19.0489891, "lon": 73.0189522}, {"type": "node", "id": 6177994509, "lat": 19.0489891, "lon": 73.0190002}, {"type": "node", "id": 6177994510, "lat": 19.0481062, "lon": 73.0188931, "tags": {"railway": "switch"}}, {"type": "node", "id": 6177994511, "lat": 19.0486444, "lon": 73.0188521}, {"type": "node", "id": 6177994512, "lat": 19.0372326, "lon": 73.0184774}, {"type": "node", "id": 6177994513, "lat": 19.0372282, "lon": 73.0185375}, {"type": "node", "id": 6177994514, "lat": 19.0372367, "lon": 73.0184205}, {"type": "node", "id": 6194544571, "lat": 19.0330489, "lon": 73.0188412, "tags": {"bench": "yes", "bin": "yes", "bus": "yes", "highway": "bus_stop", "lit": "yes", "name": "Nerul Station (E)", "operator": "NMMT", "public_transport": "platform", "shelter": "yes"}}, {"type": "node", "id": 6578047863, "lat": 18.9628927, "lon": 73.0161608, "tags": {"railway": "switch"}}, {"type": "node", "id": 6578047864, "lat": 18.9632891, "lon": 73.0165062, "tags": {"railway": "switch"}}, {"type": "node", "id": 6578047865, "lat": 18.962086, "lon": 73.0155868, "tags": {"railway": "switch"}}, {"type": "node", "id": 6578047866, "lat": 18.961282, "lon": 73.0151562, "tags": {"railway": "switch"}}, {"type": "node", "id": 6627076091, "lat": 18.9591557, "lon": 73.0140795}, {"type": "node", "id": 6627076092, "lat": 18.9602902, "lon": 73.0148381}, {"type": "node", "id": 6627076095, "lat": 18.959343, "lon": 73.0142826}, {"type": "node", "id": 6627076096, "lat": 18.9600434, "lon": 73.014748}, {"type": "node", "id": 6627076097, "lat": 18.9600749, "lon": 73.0146949}, {"type": "node", "id": 6627076098, "lat": 18.9593766, "lon": 73.0142263}, {"type": "node", "id": 6627076099, "lat": 18.9589325, "lon": 73.0139311}, {"type": "node", "id": 6627076100, "lat": 18.960503, "lon": 73.0149795}, {"type": "node", "id": 6627076101, "lat": 18.959012, "lon": 73.0137974}, {"type": "node", "id": 6627076102, "lat": 18.9605813, "lon": 73.0148479}, {"type": "node", "id": 6627076103, "lat": 18.9604905, "lon": 73.0139977}, {"type": "node", "id": 6627076104, "lat": 18.9597926, "lon": 73.0135334}, {"type": "node", "id": 6627076105, "lat": 18.9604442, "lon": 73.0140757}, {"type": "node", "id": 6627076106, "lat": 18.9597482, "lon": 73.0136081}, {"type": "node", "id": 6627076107, "lat": 18.9608803, "lon": 73.0143658}, {"type": "node", "id": 6627076108, "lat": 18.9593178, "lon": 73.0133218}, {"type": "node", "id": 6627076109, "lat": 18.959246, "lon": 73.0134426}, {"type": "node", "id": 6627076110, "lat": 18.9608073, "lon": 73.0144886}, {"type": "node", "id": 6651081025, "lat": 19.044209, "lon": 73.0229567, "tags": {"bus": "yes", "highway": "bus_stop", "name:en": "Shivaji Chowk", "operator": "NMMT", "public_transport": "platform"}}, {"type": "node", "id": 6651130795, "lat": 19.0155957, "lon": 73.0149617, "tags": {"access": "no", "barrier": "gate", "foot": "yes"}}, {"type": "node", "id": 6655553679, "lat": 19.0335613, "lon": 73.0171856, "tags": {"bench": "yes", "bin": "no", "bus": "yes", "highway": "bus_stop", "lit": "no", "name": "Nerul Station West", "operator": "NMMT", "public_transport": "platform", "shelter": "yes"}}, {"type": "node", "id": 6986966478, "lat": 19.040601, "lon": 73.0213838, "tags": {"bus": "yes", "highway": "bus_stop", "name:en": "Parsik Bank Bus Stop", "operator": "NMMT", "public_transport": "platform"}}, {"type": "node", "id": 6986966479, "lat": 19.0399203, "lon": 73.0203679, "tags": {"bus": "yes", "highway": "bus_stop", "public_transport": "platform"}}, {"type": "node", "id": 6986966480, "lat": 19.0390704, "lon": 73.0201153, "tags": {"bus": "yes", "highway": "bus_stop", "name": "Balaji Building", "public_transport": "platform"}}, {"type": "node", "id": 7005644736, "lat": 19.0200897, "lon": 73.0207572}, {"type": "node", "id": 7005644737, "lat": 19.0203989, "lon": 73.0210582}, {"type": "node", "id": 7021435149, "lat": 19.0149253, "lon": 73.0152975, "tags": {"barrier": "gate"}}, {"type": "node", "id": 7542027627, "lat": 19.0240488, "lon": 73.0226336, "tags": {"bus": "yes", "highway": "bus_stop", "name:en": "Sterling College", "operator": "NMMT", "public_transport": "platform"}}, {"type": "node", "id": 7608287399, "lat": 19.011559, "lon": 73.0246516}, {"type": "node", "id": 7608287400, "lat": 19.0115681, "lon": 73.024764}, {"type": "node", "id": 7608287401, "lat": 19.0116374, "lon": 73.0246757}, {"type": "node", "id": 7608287402, "lat": 19.0115665, "lon": 73.024744}, {"type": "node", "id": 7611347425, "lat": 19.0154388, "lon": 73.0152171, "tags": {"bus": "yes", "name": "Sector 42A", "operator": "NMMT", "public_transport": "stop_position"}}, {"type": "node", "id": 7614794326, "lat": 18.9597116, "lon": 73.0145276}, {"type": "node", "id": 7614885966, "lat": 18.9744384, "lon": 73.0236551}, {"type": "node", "id": 7614885967, "lat": 18.9742202, "lon": 73.0240278}, {"type": "node", "id": 7614885968, "lat": 18.9760134, "lon": 73.0247133}, {"type": "node", "id": 7614885969, "lat": 18.9758, "lon": 73.025082}, {"type": "node", "id": 7614885970, "lat": 18.9757335, "lon": 73.0251932}, {"type": "node", "id": 7614885971, "lat": 18.9741546, "lon": 73.0241375}, {"type": "node", "id": 7614885972, "lat": 18.9745154, "lon": 73.0235264}, {"type": "node", "id": 7614885973, "lat": 18.9760926, "lon": 73.0245809}, {"type": "node", "id": 7614885974, "lat": 18.9743074, "lon": 73.0242397}, {"type": "node", "id": 7614885977, "lat": 18.9754884, "lon": 73.0250294}, {"type": "node", "id": 7614885978, "lat": 18.9746233, "lon": 73.0235986}, {"type": "node", "id": 7614885981, "lat": 18.9759426, "lon": 73.0244806}, {"type": "node", "id": 7614885982, "lat": 18.9749891, "lon": 73.0246955}, {"type": "node", "id": 7614892185, "lat": 18.9753508, "lon": 73.024085}, {"type": "node", "id": 7728070192, "lat": 19.0316759, "lon": 73.0216566, "tags": {"bus": "yes", "highway": "bus_stop", "name": "D Mart / Nerul Sector 21", "name:en": "D Mart / Nerul Sector 21", "operator": "NMMT", "public_transport": "platform"}}, {"type": "node", "id": 7781000024, "lat": 19.0395088, "lon": 73.0197145}, {"type": "node", "id": 7818030804, "lat": 19.0219561, "lon": 73.0193143, "tags": {"name": "Seawoods", "public_transport": "stop_position", "railway": "stop", "ref": "1", "train": "yes"}}, {"type": "node", "id": 7818030805, "lat": 19.021867, "lon": 73.0192097, "tags": {"name": "Seawoods", "public_transport": "stop_position", "railway": "stop", "ref": "2", "train": "yes"}}, {"type": "node", "id": 7818030806, "lat": 19.0217733, "lon": 73.0191051, "tags": {"name": "Seawoods", "public_transport": "stop_position", "railway": "stop", "ref": "3", "train": "yes"}}, {"type": "node", "id": 7818030807, "lat": 19.0216812, "lon": 73.018989, "tags": {"name": "Seawoods", "public_transport": "stop_position", "railway": "stop", "ref": "4", "train": "yes"}}, {"type": "node", "id": 7818050098, "lat": 19.0335632, "lon": 73.0180837, "tags": {"name": "Nerul", "public_transport": "stop_position", "railway": "stop", "ref": "4", "train": "yes"}}, {"type": "node", "id": 7818050099, "lat": 19.0335519, "lon": 73.0182161, "tags": {"name": "Nerul", "public_transport": "stop_position", "railway": "stop", "ref": "3", "train": "yes"}}, {"type": "node", "id": 7818050100, "lat": 19.033537, "lon": 73.0183511, "tags": {"name": "Nerul", "public_transport": "stop_position", "railway": "stop", "ref": "2", "train": "yes"}}, {"type": "node", "id": 7818050101, "lat": 19.033534, "lon": 73.0184826, "tags": {"name": "Nerul", "public_transport": "stop_position", "railway": "stop", "ref": "1", "train": "yes"}}, {"type": "node", "id": 7818050102, "lat": 19.0335634, "lon": 73.0179554, "tags": {"name": "Nerul", "public_transport": "stop_position", "railway": "stop", "ref": "5", "train": "yes"}}, {"type": "node", "id": 7818050103, "lat": 19.0335669, "lon": 73.0178332, "tags": {"name": "Nerul", "public_transport": "stop_position", "railway": "stop", "ref": "6", "train": "yes"}}, {"type": "node", "id": 7818268524, "lat": 18.9599149, "lon": 73.0142349, "tags": {"name": "Kharkopar", "public_transport": "stop_position", "railway": "stop", "train": "yes"}}, {"type": "node", "id": 7818268525, "lat": 18.9599691, "lon": 73.0140932, "tags": {"name": "Kharkopar", "public_transport": "stop_position", "railway": "stop", "train": "yes"}}, {"type": "node", "id": 7818310738, "lat": 18.9752076, "lon": 73.0243448, "tags": {"name": "Baman-Dongri", "public_transport": "stop_position", "railway": "stop", "train": "yes"}}, {"type": "node", "id": 7818310739, "lat": 18.9751387, "lon": 73.0244744, "tags": {"name": "Baman-Dongri", "public_transport": "stop_position", "railway": "stop", "train": "yes"}}, {"type": "node", "id": 8360488244, "lat": 19.0019459, "lon": 73.0242449}, {"type": "node", "id": 8366126761, "lat": 19.0021598, "lon": 73.0239396}, {"type": "node", "id": 8820651814, "lat": 19.0208983, "lon": 73.0196806}, {"type": "node", "id": 9318371056, "lat": 18.9517522, "lon": 73.0131661}, {"type": "node", "id": 9318371057, "lat": 18.9517922, "lon": 73.0132399}, {"type": "node", "id": 9318371058, "lat": 18.9575681, "lon": 73.012795}, {"type": "node", "id": 9318371059, "lat": 18.9576209, "lon": 73.0126898}, {"type": "node", "id": 9318371060, "lat": 18.9581225, "lon": 73.0130527}, {"type": "node", "id": 9318371061, "lat": 18.9582139, "lon": 73.0129625}, {"type": "node", "id": 9318371062, "lat": 18.9324716, "lon": 73.0238295}, {"type": "node", "id": 9318371063, "lat": 18.9324348, "lon": 73.0237242}, {"type": "node", "id": 9318371064, "lat": 18.9331598, "lon": 73.023399}, {"type": "node", "id": 9318371065, "lat": 18.933222, "lon": 73.0234938}, {"type": "node", "id": 9332158966, "lat": 19.0329043, "lon": 73.0188118, "tags": {"bench": "yes", "bin": "yes", "bus": "yes", "highway": "bus_stop", "lit": "yes", "name": "Nerul Station (E)", "operator": "NMMT", "public_transport": "platform", "shelter": "yes"}}, {"type": "node", "id": 9332158973, "lat": 19.0328181, "lon": 73.017595}, {"type": "node", "id": 9332158974, "lat": 19.032881, "lon": 73.0175236}, {"type": "node", "id": 9332158975, "lat": 19.0345939, "lon": 73.0176859}, {"type": "node", "id": 9332158976, "lat": 19.0343599, "lon": 73.0176021}, {"type": "node", "id": 9332158977, "lat": 19.034385, "lon": 73.0187282}, {"type": "node", "id": 9332158978, "lat": 19.0343065, "lon": 73.0187932}, {"type": "node", "id": 9332158979, "lat": 19.0328523, "lon": 73.0187389}, {"type": "node", "id": 9332158980, "lat": 19.0327712, "lon": 73.0186559}, {"type": "node", "id": 9383394432, "lat": 19.0019246, "lon": 73.0239603}, {"type": "node", "id": 9383394434, "lat": 19.0021824, "lon": 73.0242263}, {"type": "node", "id": 9383394435, "lat": 19.0020717, "lon": 73.0243401}, {"type": "node", "id": 9383394436, "lat": 19.002158, "lon": 73.024285}, {"type": "node", "id": 9383394437, "lat": 19.0021216, "lon": 73.0243196}, {"type": "node", "id": 9383394438, "lat": 19.001967, "lon": 73.024296}, {"type": "node", "id": 9383394439, "lat": 19.0020127, "lon": 73.0243322}, {"type": "node", "id": 9665403496, "lat": 19.0197452, "lon": 73.014424, "tags": {"bus": "yes", "highway": "bus_stop", "name": "Kendriya Vihar", "operator": "NMMT", "public_transport": "platform"}}, {"type": "node", "id": 9685181441, "lat": 19.0089492, "lon": 73.0251922, "tags": {"bus": "yes", "highway": "bus_stop", "name": "NMMC", "public_transport": "platform"}}, {"type": "node", "id": 9835810729, "lat": 19.011483, "lon": 73.0247673, "tags": {"internet_access": "no", "network": "IR", "operator": "CR", "railway": "signal"}}, {"type": "node", "id": 9839496211, "lat": 18.9337533, "lon": 73.0230881}, {"type": "node", "id": 9839496212, "lat": 18.9338224, "lon": 73.0231857}, {"type": "node", "id": 9839496216, "lat": 18.9401384, "lon": 73.0171564}, {"type": "node", "id": 9839511217, "lat": 18.9392987, "lon": 73.0176285}, {"type": "node", "id": 9839511218, "lat": 18.9381621, "lon": 73.0184104}, {"type": "node", "id": 9839511219, "lat": 18.9374099, "lon": 73.0189495}, {"type": "node", "id": 9839511220, "lat": 18.9391389, "lon": 73.0175507}, {"type": "node", "id": 9839511221, "lat": 18.9400826, "lon": 73.0170786}, {"type": "node", "id": 9839511222, "lat": 18.9448826, "lon": 73.0153727}, {"type": "node", "id": 9861950417, "lat": 19.0211427, "lon": 73.0203223}, {"type": "node", "id": 9861985267, "lat": 19.0203665, "lon": 73.0184576, "tags": {"bus": "yes", "highway": "bus_stop", "name": "Seawoods Railway Station", "name:en": "Seawoods Railway Station", "operator": "NMMT", "public_transport": "platform"}}, {"type": "node", "id": 10039044996, "lat": 19.0161769, "lon": 73.0284218}, {"type": "node", "id": 10088731325, "lat": 19.0148841, "lon": 73.0152574, "tags": {"barrier": "gate"}}, {"type": "node", "id": 10278679547, "lat": 19.0428498, "lon": 72.9480171}, {"type": "node", "id": 10278679548, "lat": 19.0470991, "lon": 72.9421377}, {"type": "node", "id": 10278679552, "lat": 19.0428954, "lon": 72.9482692}, {"type": "node", "id": 10278679553, "lat": 19.0464551, "lon": 72.9434091}, {"type": "node", "id": 10278679554, "lat": 19.0470484, "lon": 72.942591}, {"type": "node", "id": 10278679555, "lat": 19.0473957, "lon": 72.9421189}, {"type": "node", "id": 10832119765, "lat": 19.0541601, "lon": 73.0183563}, {"type": "node", "id": 10832119768, "lat": 19.0541738, "lon": 73.0184967}, {"type": "node", "id": 10832119769, "lat": 19.054182, "lon": 73.0186187}, {"type": "node", "id": 11057916703, "lat": 19.0326062, "lon": 73.0180173}, {"type": "node", "id": 11612768451, "lat": 18.9353933, "lon": 73.021471}, {"type": "node", "id": 11612768452, "lat": 18.9349771, "lon": 73.0219812}, {"type": "node", "id": 11612768453, "lat": 18.9347223, "lon": 73.0222334}, {"type": "node", "id": 11612768454, "lat": 18.934159, "lon": 73.0227626}, {"type": "node", "id": 11612768455, "lat": 18.9341155, "lon": 73.023001}, {"type": "node", "id": 11612768456, "lat": 18.9345684, "lon": 73.0226147}, {"type": "node", "id": 11612768457, "lat": 18.9349312, "lon": 73.0222231}, {"type": "node", "id": 11612768458, "lat": 18.9355896, "lon": 73.021456}, {"type": "node", "id": 11612768459, "lat": 18.9377498, "lon": 73.0187751}, {"type": "node", "id": 11612768460, "lat": 18.938379, "lon": 73.0182534}, {"type": "node", "id": 11612768461, "lat": 18.9389499, "lon": 73.0178431}, {"type": "node", "id": 11612768462, "lat": 18.9396628, "lon": 73.017422}, {"type": "node", "id": 11612768463, "lat": 18.9395334, "lon": 73.0173187}, {"type": "node", "id": 11612768464, "lat": 18.9391782, "lon": 73.0175212}, {"type": "node", "id": 11612768465, "lat": 18.938563, "lon": 73.0179128}, {"type": "node", "id": 11612768466, "lat": 18.9381355, "lon": 73.0182414}, {"type": "node", "id": 11612768467, "lat": 18.9378983, "lon": 73.018472}, {"type": "node", "id": 11612768468, "lat": 18.9376027, "lon": 73.0187336}, {"type": "node", "id": 11612788894, "lat": 18.9359225, "lon": 73.0207635}, {"type": "node", "id": 11612788895, "lat": 18.9359219, "lon": 73.0209853}, {"type": "node", "id": 11938941986, "lat": 19.0435502, "lon": 73.0186431, "tags": {"railway": "level_crossing"}}, {"type": "node", "id": 11938941987, "lat": 19.0435526, "lon": 73.0188975, "tags": {"railway": "level_crossing"}}, {"type": "node", "id": 11938941988, "lat": 19.0435509, "lon": 73.0187192, "tags": {"railway": "level_crossing"}}, {"type": "node", "id": 11938941989, "lat": 19.0435521, "lon": 73.0188456, "tags": {"railway": "level_crossing"}}, {"type": "node", "id": 11938941990, "lat": 19.0435531, "lon": 73.0189492, "tags": {"railway": "level_crossing"}}, {"type": "node", "id": 11938941991, "lat": 19.0435536, "lon": 73.0190001, "tags": {"railway": "level_crossing"}}, {"type": "node", "id": 12133218353, "lat": 19.0145457, "lon": 73.0152313, "tags": {"bench": "yes", "bus": "yes", "highway": "bus_stop", "name": "Gaimukh Chowk", "operator": "NMMT", "public_transport": "platform", "shelter": "yes"}}, {"type": "node", "id": 12133218354, "lat": 19.0146769, "lon": 73.015075, "tags": {"bench": "yes", "bus": "yes", "highway": "bus_stop", "name": "Gaimukh Chowk", "operator": "NMMT", "public_transport": "platform", "shelter": "yes"}}, {"type": "node", "id": 12133218355, "lat": 19.0154624, "lon": 73.015248, "tags": {"bus": "yes", "highway": "bus_stop", "name": "Sector 42A", "operator": "NMMT", "public_transport": "platform"}}, {"type": "node", "id": 12133218356, "lat": 19.0142268, "lon": 73.016618, "tags": {"bench": "yes", "bus": "yes", "highway": "bus_stop", "name": "Banubai Ganpat Tandel Market", "operator": "NMMT", "public_transport": "platform", "shelter": "yes"}}, {"type": "node", "id": 12189351683, "lat": 19.0218192, "lon": 73.0191588, "tags": {"name": "Seawoods", "network": "Mumbai Suburban Railway", "network:wikidata": "Q3273422", "operator": "Central Railway", "platforms": "4", "public_transport": "station", "railway": "station", "ref": "SWDV", "train": "yes", "wikidata": "Q3632540"}}, {"type": "node", "id": 12894108480, "lat": 19.0197452, "lon": 73.014424, "tags": {"bus": "yes", "highway": "bus_stop", "name": "Kendriya Vihar", "operator": "NMMT", "public_transport": "platform"}}, {"type": "way", "id": 48788386, "nodes": [5303032015, 6175035024, 7608287401, 5812501243], "tags": {"electrified": "contact_line", "frequency": "50", "gauge": "1676", "name": "Uran Line", "oneway": "yes", "passenger_lines": "1", "railway": "rail", "start_date": "2018-11-12", "usage": "main", "voltage": "25000"}}, {"type": "way", "id": 142502868, "nodes": [5405094121, 344895149, 344895150, 344895151, 5707752228, 5302970155, 5302970026, 5302970156, 344895152, 5302970025, 5302970050, 344895153, 5302970024, 5302970152], "tags": {"electrified": "contact_line", "frequency": "50", "gauge": "1676", "layer": "0", "name": "Harbour Line", "oneway": "yes", "passenger_lines": "2", "railway": "rail", "usage": "main", "voltage": "25000"}}, {"type": "way", "id": 235978552, "nodes": [5302970166, 5302970165, 5302970164, 5302970163, 5302970162, 5302970161, 5302970160, 5302970159, 5302970158, 5302970023, 2440539528, 5302970126, 2440539526, 5302970127, 2440539525, 5725014676, 5302970128, 2440539523, 5302970129, 5193610884, 5302970022, 5193610885, 7608287400, 9835810729, 5303032013], "tags": {"electrified": "contact_line", "embankment": "yes", "frequency": "50", "gauge": "1676", "name": "Uran Line", "oneway": "yes", "passenger_lines": "1", "railway": "rail", "start_date": "2018-11-12", "usage": "main", "voltage": "25000"}}, {"type": "way", "id": 376927931, "nodes": [5302970043, 5302970153, 5302970042, 5302970049, 5302970041, 5302970040, 5302970157, 5302970039, 5302970154, 5302970038, 5302970037, 5302970036, 5405094122], "tags": {"electrified": "contact_line", "frequency": "50", "gauge": "1676", "layer": "0", "name": "Harbour Line", "oneway": "yes", "passenger_lines": "4", "railway": "rail", "usage": "main", "voltage": "25000"}}, {"type": "way", "id": 461217175, "nodes": [4567530198, 4567530199], "tags": {"bridge": "yes", "electrified": "contact_line", "frequency": "50", "gauge": "1676", "layer": "1", "name": "Uran Line", "oneway": "yes", "passenger_lines": "2", "railway": "rail", "start_date": "2018-11-12", "usage": "main", "voltage": "25000"}}, {"type": "way", "id": 461217177, "nodes": [5428356882, 4567530198], "tags": {"electrified": "contact_line", "frequency": "50", "gauge": "1676", "name": "Uran Line", "oneway": "yes", "passenger_lines": "2", "railway": "rail", "start_date": "2018-11-12", "usage": "main", "voltage": "25000"}}, {"type": "way", "id": 536022614, "nodes": [5303032008, 5725014674, 5303032005, 5725014672, 5303031994, 5303031995, 619073115, 5303031993, 5303031991, 5303031992, 619073114, 5303032010, 5758250198], "tags": {"bridge": "yes", "electrified": "contact_line", "frequency": "50", "gauge": "1676", "layer": "1", "name": "Uran Line", "oneway": "yes", "passenger_lines": "2", "railway": "rail", "start_date": "2018-11-12", "usage": "main", "voltage": "25000"}}, {"type": "way", "id": 548952855, "nodes": [4567530199, 5423969705], "tags": {"electrified": "contact_line", "frequency": "50", "gauge": "1676", "name": "Uran Line", "oneway": "yes", "passenger_lines": "2", "railway": "rail", "start_date": "2018-11-12", "usage": "main", "voltage": "25000"}}, {"type": "way", "id": 548960658, "nodes": [5758250197, 5303031996, 5725014675, 5303031997, 5303031998, 5303031999, 5303032000, 5303032001, 5303032002, 5725014671, 5303032003, 5725014673, 5303032004], "tags": {"bridge": "yes", "electrified": "contact_line", "frequency": "50", "gauge": "1676", "layer": "1", "name": "Uran Line", "oneway": "yes", "passenger_lines": "1", "railway": "rail", "start_date": "2018-11-12", "usage": "main", "voltage": "25000"}}, {"type": "way", "id": 548961672, "nodes": [5388598579, 5466069077, 6651130795, 6029559152, 5303039622, 5466069082, 5303039623, 5466069081, 5303039624, 5466069080, 5303039625, 5466069079, 5303039626, 7021435149, 10088731325, 5466069078, 5388598580, 5388598579], "tags": {"addr:city": "Navi Mumbai", "addr:postcode": "400706", "addr:street": "Seawoods Main Road", "amenity": "bus_station", "barrier": "wall", "bench": "yes", "bus": "yes", "internet_access": "no", "name": "Seawoods Bus Station", "operator": "NMMT", "operator:wikidata": "Q6982295", "public_transport": "station", "shelter": "yes", "wheelchair": "yes"}}, {"type": "way", "id": 555972717, "nodes": [5363453978, 5363453979, 5363453980, 5363453981, 5363453978], "tags": {"area": "yes", "bench": "yes", "bin": "no", "covered": "yes", "layer": "-1", "level": "-1", "lit": "yes", "operator": "CIDCO", "public_transport": "platform", "railway": "platform", "ref": "1;2", "shelter": "yes", "surface": "paved", "train": "yes", "wheelchair": "limited"}}, {"type": "way", "id": 555972718, "nodes": [5363453982, 5363453983, 5363453984, 5363453985, 5363453982], "tags": {"area": "yes", "bench": "yes", "bin": "yes", "covered": "yes", "layer": "-1", "level": "-1", "lit": "yes", "operator": "CIDCO", "public_transport": "platform", "railway": "platform", "ref": "3;4", "shelter": "yes", "surface": "paved", "train": "yes", "wheelchair": "limited"}}, {"type": "way", "id": 555974690, "nodes": [5363467104, 5363467105, 5363467106, 5363467107, 5363467104], "tags": {"area": "yes", "bench": "yes", "bin": "no", "covered": "yes", "layer": "-1", "level": "-1", "lit": "yes", "operator": "CIDCO", "public_transport": "platform", "railway": "platform", "ref": "2;3", "shelter": "yes", "surface": "paved", "train": "yes", "wheelchair": "yes"}}, {"type": "way", "id": 555974691, "nodes": [5363467108, 5363467109, 8820651814, 5363467110, 5363467111, 5363467108], "tags": {"area": "yes", "bench": "yes", "bin": "no", "covered": "yes", "layer": "-1", "level": "-1", "lit": "yes", "operator": "CIDCO", "public_transport": "platform", "railway": "platform", "ref": "4", "shelter": "yes", "surface": "paved", "train": "yes", "wheelchair": "yes"}}, {"type": "way", "id": 555974692, "nodes": [5363467112, 9861950417, 5363467113, 5363467114, 5363467115, 5363467112], "tags": {"area": "yes", "bench": "yes", "bin": "no", "covered": "yes", "layer": "-1", "level": "-1", "lit": "yes", "operator": "CIDCO", "public_transport": "platform", "railway": "platform", "ref": "1", "shelter": "yes", "surface": "paved", "train": "yes", "wheelchair": "yes"}}, {"type": "way", "id": 560631404, "nodes": [5406582626, 5428356881], "tags": {"electrified": "contact_line", "frequency": "50", "gauge": "1676", "name": "Uran Line", "oneway": "yes", "passenger_lines": "2", "railway": "rail", "start_date": "2018-11-12", "usage": "main", "voltage": "25000"}}, {"type": "way", "id": 560631405, "nodes": [5406582632, 5406582624], "tags": {"bridge": "yes", "electrified": "contact_line", "frequency": "50", "gauge": "1676", "layer": "1", "name": "Uran Line", "oneway": "yes", "passenger_lines": "2", "railway": "rail", "start_date": "2018-11-12", "usage": "main", "voltage": "25000"}}, {"type": "way", "id": 560631406, "nodes": [5406582624, 7818310739, 5441972843, 5441972841], "tags": {"electrified": "contact_line", "frequency": "50", "gauge": "1676", "name": "Uran Line", "oneway": "yes", "passenger_lines": "2", "railway": "rail", "start_date": "2018-11-12", "usage": "main", "voltage": "25000"}}, {"type": "way", "id": 560631407, "nodes": [3799406379, 5406582631], "tags": {"bridge": "yes", "electrified": "contact_line", "frequency": "50", "gauge": "1676", "layer": "1", "name": "Uran Line", "oneway": "yes", "passenger_lines": "2", "railway": "rail", "start_date": "2018-11-12", "usage": "main", "voltage": "25000"}}, {"type": "way", "id": 560631408, "nodes": [5406582631, 5725014670, 3799406848], "tags": {"electrified": "contact_line", "frequency": "50", "gauge": "1676", "name": "Uran Line", "oneway": "yes", "passenger_lines": "2", "railway": "rail", "start_date": "2018-11-12", "usage": "main", "voltage": "25000"}}, {"type": "way", "id": 560631410, "nodes": [5406582623, 5725014669, 5406582632], "tags": {"electrified": "contact_line", "frequency": "50", "gauge": "1676", "name": "Uran Line", "oneway": "yes", "passenger_lines": "2", "railway": "rail", "start_date": "2018-11-12", "usage": "main", "voltage": "25000"}}, {"type": "way", "id": 560631417, "nodes": [5406582625, 5406582626], "tags": {"bridge": "yes", "electrified": "contact_line", "frequency": "50", "gauge": "1676", "layer": "1", "name": "Uran Line", "oneway": "yes", "passenger_lines": "2", "railway": "rail", "start_date": "2018-11-12", "usage": "main", "voltage": "25000"}}, {"type": "way", "id": 560637966, "nodes": [5303002102, 5406634552], "tags": {"electrified": "contact_line", "gauge": "1676", "name": "Trans-Harbour Line", "oneway": "yes", "railway": "rail"}}, {"type": "way", "id": 563239084, "nodes": [5303032013, 5758250197], "tags": {"electrified": "contact_line", "embankment": "yes", "frequency": "50", "gauge": "1676", "name": "Uran Line", "oneway": "yes", "passenger_lines": "1", "railway": "rail", "start_date": "2018-11-12", "usage": "main", "voltage": "25000"}}, {"type": "way", "id": 563239089, "nodes": [5428322729, 5428322730, 5982498111, 5428322731, 11938941986, 5428322732], "tags": {"gauge": "1676", "name": "Nerul Sidings", "railway": "rail", "service": "siding"}}, {"type": "way", "id": 563239099, "nodes": [2440539556, 5428322739, 5428322740, 5428322741, 5428322742], "tags": {"railway": "rail", "service": "spur"}}, {"type": "way", "id": 563243875, "nodes": [5428356881, 5428356879], "tags": {"bridge": "yes", "electrified": "contact_line", "frequency": "50", "gauge": "1676", "layer": "1", "name": "Uran Line", "oneway": "yes", "passenger_lines": "2", "railway": "rail", "start_date": "2018-11-12", "usage": "main", "voltage": "25000"}}, {"type": "way", "id": 563243876, "nodes": [5428356880, 5428356882], "tags": {"bridge": "yes", "electrified": "contact_line", "frequency": "50", "gauge": "1676", "layer": "1", "name": "Uran Line", "oneway": "yes", "passenger_lines": "2", "railway": "rail", "start_date": "2018-11-12", "usage": "main", "voltage": "25000"}}, {"type": "way", "id": 563243877, "nodes": [5428356879, 6578047864, 5725014657, 6578047866, 5406582629, 7818268524, 5406582627], "tags": {"electrified": "contact_line", "frequency": "50", "gauge": "1676", "name": "Uran Line", "oneway": "yes", "passenger_lines": "2", "railway": "rail", "start_date": "2018-11-12", "usage": "main", "voltage": "25000"}}, {"type": "way", "id": 564925966, "nodes": [5441972840, 5441972842, 7818310738, 3799406379], "tags": {"electrified": "contact_line", "frequency": "50", "gauge": "1676", "name": "Uran Line", "oneway": "yes", "passenger_lines": "2", "railway": "rail", "start_date": "2018-11-12", "usage": "main", "voltage": "25000"}}, {"type": "way", "id": 564925968, "nodes": [5423969705, 5441972840], "tags": {"bridge": "yes", "electrified": "contact_line", "frequency": "50", "gauge": "1676", "layer": "1", "name": "Uran Line", "oneway": "yes", "passenger_lines": "2", "railway": "rail", "start_date": "2018-11-12", "usage": "main", "voltage": "25000"}}, {"type": "way", "id": 564925970, "nodes": [5423969704, 5406582625], "tags": {"electrified": "contact_line", "frequency": "50", "gauge": "1676", "name": "Uran Line", "oneway": "yes", "passenger_lines": "2", "railway": "rail", "start_date": "2018-11-12", "usage": "main", "voltage": "25000"}}, {"type": "way", "id": 564925972, "nodes": [5441972841, 5423969704], "tags": {"bridge": "yes", "electrified": "contact_line", "frequency": "50", "gauge": "1676", "layer": "1", "name": "Uran Line", "oneway": "yes", "passenger_lines": "2", "railway": "rail", "start_date": "2018-11-12", "usage": "main", "voltage": "25000"}}, {"type": "way", "id": 572630813, "nodes": [5501219611, 5501280537, 5501280534, 6050884341, 6050884340, 5501219612, 9332158980, 9332158979, 9332158978, 9332158977, 5501280533, 5501219613, 5501280532, 5501280531, 5501219614, 9332158975, 5501280530, 9332158976, 9332158974, 9332158973, 5501219611], "tags": {"addr:city": "Navi Mumbai", "addr:postcode": "400706", "addr:street": "Mata Amritanandamayi Marg", "building": "train_station", "internet_access": "yes", "layer": "2", "name": "Nerul", "network": "Mumbai Suburban Railway Network", "nohousenumber": "yes", "operator": "Central Railways", "platforms": "6", "public_transport": "train_station", "railway": "station", "ref": "NEU", "train": "yes", "wheelchair": "limited", "wikidata": "Q15261704", "wikipedia": "en:Nerul railway station"}}, {"type": "way", "id": 575018148, "nodes": [5518339331, 5518339332, 5518339333, 5518339334, 7781000024, 5518339336, 5518339335, 5518339331], "tags": {"amenity": "bus_station", "bus": "yes", "name": "Nerul Bus Station", "network": "NMMT", "public_transport": "station"}}, {"type": "way", "id": 600157355, "nodes": [5707817421, 5428322723, 5428322724, 5707817431, 5982498109, 6063384083, 5428322727, 6063384082], "tags": {"gauge": "1676", "name": "Nerul Sidings", "railway": "rail", "service": "siding"}}, {"type": "way", "id": 600157359, "nodes": [5707817422, 5428254315, 5428254316, 5707817430, 6063384084, 5428254318, 5982498110, 5428322722, 5428322729, 5428322721, 5428254320, 11938941988, 5428254319], "tags": {"gauge": "1676", "name": "Nerul Sidings", "railway": "rail", "service": "siding"}}, {"type": "way", "id": 602887029, "nodes": [5707764306, 5725014678], "tags": {"gauge": "1676", "oneway": "yes", "railway": "rail"}}, {"type": "way", "id": 602887032, "nodes": [5725014677, 5707764307], "tags": {"gauge": "1676", "oneway": "yes", "railway": "rail"}}, {"type": "way", "id": 602887034, "nodes": [5707816017, 5302970069], "tags": {"gauge": "1676", "oneway": "yes", "railway": "rail"}}, {"type": "way", "id": 602887036, "nodes": [5370266398, 5707816015], "tags": {"gauge": "1676", "oneway": "yes", "railway": "rail"}}, {"type": "way", "id": 602887040, "nodes": [5389146179, 5370266398], "tags": {"electrified": "contact_line", "frequency": "50", "gauge": "1676", "name": "Harbour Line", "oneway": "yes", "passenger_lines": "2", "railway": "rail", "usage": "main", "voltage": "25000"}}, {"type": "way", "id": 603574291, "nodes": [3674854448, 3674854447, 5430685715, 5729558107, 5729558108, 3674854448], "tags": {"amenity": "bus_station", "bus": "yes", "name": "Sarsole Bus Station", "operator": "NMMT", "public_transport": "station"}}, {"type": "way", "id": 603593847, "nodes": [5303032015, 7608287399, 5729676625, 5302970105, 5590125827, 619073111, 5590125825, 5302968720, 5590125824, 619073110, 5302970109, 5302968719, 5590125821, 619073109, 5302970107], "tags": {"electrified": "contact_line", "embankment": "yes", "frequency": "50", "gauge": "1676", "name": "Uran Line", "oneway": "yes", "passenger_lines": "1", "railway": "rail", "start_date": "11 November, 2018", "usage": "main", "voltage": "25000"}}, {"type": "way", "id": 603593856, "nodes": [5707817422, 7818050102, 6063384188, 6063384186, 5406634555, 6063384193, 5302970086, 5406634556, 5406634558, 5302970088, 5707816017], "tags": {"electrified": "contact_line", "frequency": "50", "gauge": "1676", "name": "Uran Line", "oneway": "reversible", "passenger_lines": "1", "railway": "rail", "start_date": "11 November, 2018", "usage": "main", "voltage": "25000"}}, {"type": "way", "id": 603597147, "nodes": [5405093120, 5302970103, 5302970108, 5302970104, 5590125822, 5302970110, 5302970111, 5590125823, 5302970112, 5590125826, 5302970113, 5590125828, 5729676624, 5812501244], "tags": {"electrified": "contact_line", "embankment": "yes", "frequency": "50", "gauge": "1676", "name": "Uran Line", "oneway": "yes", "passenger_lines": "1", "railway": "rail", "start_date": "11 November, 2018", "usage": "main", "voltage": "25000"}}, {"type": "way", "id": 603597148, "nodes": [5302029675, 5389146188, 5302029676, 5302968718, 5304226861, 5302029677, 5389146176, 5302968717, 5302029678, 5302970120, 5637121147, 5302029680, 6120968333, 5389146185, 5302968715, 5389146184, 344895140, 5707764306], "tags": {"electrified": "contact_line", "frequency": "50", "gauge": "1676", "name": "Uran Line", "oneway": "yes", "passenger_lines": "1", "railway": "rail", "start_date": "11 November, 2018", "usage": "main", "voltage": "25000"}}, {"type": "way", "id": 603597153, "nodes": [5302970057, 5707817435, 5302970058, 5389146186, 5302970059, 5302970060, 5389146177, 5389146173, 5302970065, 5637121148, 5302970066, 5302970117, 5302970118, 5302970067, 6120968335, 5302970068, 5389146182, 5725014679, 5725014677], "tags": {"electrified": "contact_line", "frequency": "50", "gauge": "1676", "name": "Harbour Line", "oneway": "yes", "passenger_lines": "4", "railway": "rail", "usage": "main", "voltage": "25000"}}, {"type": "way", "id": 607644845, "nodes": [5758250198, 5303032015], "tags": {"electrified": "contact_line", "embankment": "yes", "frequency": "50", "gauge": "1676", "name": "Uran Line", "oneway": "yes", "passenger_lines": "2", "railway": "rail", "start_date": "2018-11-12", "usage": "main", "voltage": "25000"}}, {"type": "way", "id": 611270791, "nodes": [5787735902, 5787735903, 5787735904, 5787735905, 9318371057, 9839496216, 11612768462, 9839511217, 11612768461, 11612768460, 9839511218, 11612768459, 11612788895, 11612768458, 11612768457, 11612768456, 11612768455, 9839496212, 9318371065, 9318371062, 5787735906], "tags": {"electrified": "contact_line", "frequency": "50", "gauge": "1676", "name": "Uran Line", "passenger_lines": "2", "railway": "rail", "start_date": "2024-01-12", "usage": "main", "voltage": "25000"}}, {"type": "way", "id": 611270792, "nodes": [5406582630, 7818268525, 5406582628, 6578047865, 5725014656, 6578047863, 5428356880], "tags": {"electrified": "contact_line", "frequency": "50", "gauge": "1676", "name": "Uran Line", "oneway": "yes", "passenger_lines": "2", "railway": "rail", "start_date": "2018-11-12", "usage": "main", "voltage": "25000"}}, {"type": "way", "id": 614488865, "nodes": [5812501244, 5812501243], "tags": {"electrified": "contact_line", "frequency": "50", "gauge": "1676", "name": "Uran Line", "oneway": "reversible", "railway": "rail", "start_date": "2018-11-12", "usage": "main", "voltage": "25000"}}, {"type": "way", "id": 614488866, "nodes": [5812501243, 7608287402, 5303032013], "tags": {"electrified": "contact_line", "frequency": "50", "gauge": "1676", "name": "Uran Line", "oneway": "yes", "passenger_lines": "1", "railway": "rail", "start_date": "2018-11-12", "usage": "main", "voltage": "25000"}}, {"type": "way", "id": 614488867, "nodes": [5812501244, 5302970122, 5302970123, 5302970124, 5302970125, 5302970130, 5302970131, 5302970132, 5302970133, 5302970134, 5302970135, 5302970136, 5302970137, 5302970138, 5302970139, 5302970140, 10039044996], "tags": {"electrified": "contact_line", "embankment": "yes", "frequency": "50", "gauge": "1676", "name": "Uran Line", "oneway": "yes", "passenger_lines": "1", "railway": "rail", "start_date": "2018-11-12", "usage": "main", "voltage": "25000"}}, {"type": "way", "id": 621732575, "nodes": [5428322737, 5303002100, 6177994513, 5303002099, 5707752245, 5707752242, 5303002095, 5303002094, 5303002093, 11938941990, 5303002092, 5707752237, 6177994508, 5303002091, 5303002090, 5303002088, 5303002087, 5303002086, 4822210676, 10832119768], "tags": {"electrified": "contact_line", "frequency": "50", "gauge": "1676", "name": "Trans-Harbour Line", "oneway": "yes", "passenger_lines": "1", "railway": "rail", "usage": "main", "voltage": "25000"}}, {"type": "way", "id": 621732579, "nodes": [5302970063, 5873320695], "tags": {"electrified": "contact_line", "frequency": "50", "gauge": "1676", "name": "Trans-Harbour Line", "oneway": "yes", "passenger_lines": "1", "railway": "rail", "usage": "main", "voltage": "25000"}}, {"type": "way", "id": 621732582, "nodes": [5302970080, 5873320695], "tags": {"electrified": "contact_line", "frequency": "50", "gauge": "1676", "name": "Harbour Line", "oneway": "reversible", "railway": "rail", "usage": "main", "voltage": "25000"}}, {"type": "way", "id": 621732586, "nodes": [5873320695, 5389146179], "tags": {"electrified": "contact_line", "frequency": "50", "gauge": "1676", "name": "Harbour Line", "oneway": "yes", "passenger_lines": "2", "railway": "rail", "usage": "main", "voltage": "25000"}}, {"type": "way", "id": 621732911, "nodes": [5725014678, 5707764307], "tags": {"electrified": "contact_line", "frequency": "50", "gauge": "1676", "name": "Uran Line", "oneway": "yes", "passenger_lines": "1", "railway": "rail", "start_date": "11 November, 2018", "usage": "main", "voltage": "25000"}}, {"type": "way", "id": 621732912, "nodes": [5707816017, 5725014678], "tags": {"electrified": "contact_line", "frequency": "50", "gauge": "1676", "name": "Uran Line", "oneway": "reversible", "passenger_lines": "1", "railway": "rail", "start_date": "11 November, 2018", "usage": "main", "voltage": "25000"}}, {"type": "way", "id": 621732913, "nodes": [5725014677, 5707816015], "tags": {"electrified": "contact_line", "frequency": "50", "gauge": "1676", "name": "Harbour Line", "oneway": "reversible", "passenger_lines": "4", "railway": "rail", "usage": "main", "voltage": "25000"}}, {"type": "way", "id": 621732914, "nodes": [5707816015, 5302970069], "tags": {"electrified": "contact_line", "frequency": "50", "gauge": "1676", "name": "Harbour Line", "oneway": "yes", "passenger_lines": "4", "railway": "rail", "usage": "main", "voltage": "25000"}}, {"type": "way", "id": 643074995, "nodes": [5707764306, 5126161634, 5406634559, 5302968714, 5406634557, 6063384194, 6063384185], "tags": {"electrified": "contact_line", "frequency": "50", "gauge": "1676", "name": "Uran Line", "oneway": "yes", "passenger_lines": "1", "railway": "rail", "start_date": "11 November, 2018", "usage": "main", "voltage": "25000"}}, {"type": "way", "id": 643074996, "nodes": [5707764307, 5302970089, 5302970090, 6120968334, 5302970091, 6120968332, 5302970092, 5389146180, 5637121146, 5302970093, 5302970094, 5389146175, 5302970095, 5302970096, 5304226860, 5302970097, 5707817434, 5302970099], "tags": {"electrified": "contact_line", "frequency": "50", "gauge": "1676", "name": "Uran Line", "oneway": "yes", "passenger_lines": "1", "railway": "rail", "start_date": "11 November, 2018", "usage": "main", "voltage": "25000"}}, {"type": "way", "id": 643074997, "nodes": [5370266398, 5725014680, 5389146183, 5389146168, 6120968336, 5389146169, 5389146170, 5389146171, 5389146181, 5637121149, 344895142, 5389146174, 5389146178, 344895143, 5302970061, 5389146187, 344895144, 5707817436, 5423885902], "tags": {"electrified": "contact_line", "frequency": "50", "gauge": "1676", "name": "Harbour Line", "oneway": "yes", "passenger_lines": "2", "railway": "rail", "usage": "main", "voltage": "25000"}}, {"type": "way", "id": 643074998, "nodes": [5302970069, 5302970063], "tags": {"electrified": "contact_line", "frequency": "50", "gauge": "1676", "name": "Harbour Line", "oneway": "yes", "passenger_lines": "4", "railway": "rail", "usage": "main", "voltage": "25000"}}, {"type": "way", "id": 643264124, "nodes": [6053994297, 6053994298, 6053994299, 6053994300, 6053994297], "tags": {"area": "yes", "bench": "yes", "bin": "yes", "lit": "yes", "name": "Uran Line", "public_transport": "platform", "railway": "platform", "ref": "5;6", "shelter": "yes", "start_date": "2018-11-12", "surface": "paved", "train": "yes"}}, {"type": "way", "id": 643264125, "nodes": [6053994301, 6053994323, 11057916703, 6053994302, 6053994303, 6053994301], "tags": {"area": "yes", "bench": "yes", "bin": "yes", "lit": "yes", "public_transport": "platform", "railway": "platform", "ref": "4;5", "shelter": "yes", "surface": "paved", "train": "yes"}}, {"type": "way", "id": 643264126, "nodes": [6053994304, 6053994305, 6053994306, 6053994307, 6053994304], "tags": {"area": "yes", "bench": "yes", "bin": "yes", "check_date:shelter": "2024-10-14", "lit": "yes", "name": "Harbour Line", "public_transport": "platform", "railway": "platform", "ref": "3;4", "shelter": "yes", "surface": "paved", "train": "yes"}}, {"type": "way", "id": 643264127, "nodes": [6053994308, 6053994309, 6053994310, 6053994324, 6053994308], "tags": {"area": "yes", "bench": "yes", "bin": "yes", "check_date:shelter": "2024-10-14", "lit": "yes", "public_transport": "platform", "railway": "platform", "ref": "2;3", "shelter": "yes", "surface": "paved", "train": "yes"}}, {"type": "way", "id": 643264128, "nodes": [6053994311, 6053994312, 6053994313, 6053994314, 6053994311], "tags": {"area": "yes", "bench": "yes", "bin": "yes", "check_date:shelter": "2024-10-14", "lit": "yes", "name": "Trans-Harbour Line", "public_transport": "platform", "railway": "platform", "ref": "1;2", "shelter": "yes", "surface": "paved", "train": "yes"}}, {"type": "way", "id": 643264129, "nodes": [6053994315, 6053994316, 6053994317, 6053994318, 6053994315], "tags": {"area": "yes", "bench": "yes", "bin": "yes", "check_date:shelter": "2024-10-14", "lit": "yes", "public_transport": "platform", "railway": "platform", "ref": "1", "shelter": "yes", "surface": "paved", "train": "yes"}}, {"type": "way", "id": 643264130, "nodes": [6053994319, 6053994320, 6053994321, 6053994322, 6053994319], "tags": {"area": "yes", "bench": "yes", "bin": "yes", "check_date:shelter": "2024-10-14", "lit": "yes", "public_transport": "platform", "railway": "platform", "ref": "6", "shelter": "yes", "surface": "paved", "train": "no"}}, {"type": "way", "id": 644866232, "nodes": [5982498109, 5428254318], "tags": {"gauge": "1676", "name": "Nerul Sidings", "railway": "rail", "service": "yard"}}, {"type": "way", "id": 644866234, "nodes": [5428254316, 5707817431], "tags": {"gauge": "1676", "name": "Nerul Sidings", "railway": "rail", "service": "yard"}}, {"type": "way", "id": 644866237, "nodes": [6063384185, 6063384193], "tags": {"electrified": "contact_line", "gauge": "1676", "name": "Uran Line", "oneway": "yes", "railway": "rail", "start_date": "2018-11-12"}}, {"type": "way", "id": 647589176, "nodes": [6063384185, 6063384187, 7818050103, 5707817421], "tags": {"electrified": "contact_line", "frequency": "50", "gauge": "1676", "name": "Uran Line", "oneway": "reversible", "passenger_lines": "1", "railway": "rail", "start_date": "11 November, 2018", "usage": "main", "voltage": "25000"}}, {"type": "way", "id": 647589852, "nodes": [5303002102, 5707817426, 7818050101, 6063384192], "tags": {"electrified": "contact_line", "frequency": "50", "gauge": "1676", "name": "Trans-Harbour Line", "oneway": "reversible", "passenger_lines": "2", "railway": "rail", "usage": "main", "voltage": "25000"}}, {"type": "way", "id": 647589853, "nodes": [6063384192, 5302970074, 5302970075, 5707816020, 5302970082, 6054063975, 6054063976, 5389146179], "tags": {"electrified": "contact_line", "frequency": "50", "gauge": "1676", "name": "Trans-Harbour Line", "oneway": "yes", "passenger_lines": "1", "railway": "rail", "usage": "main", "voltage": "25000"}}, {"type": "way", "id": 648982740, "nodes": [6091687313, 6091687314, 6091687315, 6091687316, 6091687313], "tags": {"area": "yes", "bench": "yes", "lit": "yes", "name": "Uran Line", "public_transport": "platform", "railway": "platform", "ref": "1;2", "shelter": "yes", "start_date": "2018-11-12", "surface": "paved", "train": "yes"}}, {"type": "way", "id": 648982741, "nodes": [6091687317, 6091687318, 7614885969, 7614885970, 7614885977, 7614885982, 7614885974, 7614885971, 7614885967, 6091687319, 6091687320, 7614885966, 7614885972, 7614885978, 7614892185, 7614885981, 7614885973, 7614885968, 6091687317], "tags": {"addr:city": "Navi Mumbai", "addr:postcode": "410206", "building": "train_station", "internet_access": "yes", "layer": "1", "name": "Baman-Dongri", "network": "Mumbai Suburban Rail Network", "operator": "Central Railways", "platforms": "2", "public_transport": "train_station", "railway": "station", "ref": "BMDR", "start_date": "11 November, 2018", "train": "yes", "wheelchair": "yes", "wikidata": "Q29026164", "wikipedia": "en:Bamandongri railway station"}}, {"type": "way", "id": 648982742, "nodes": [6091687321, 6091687322, 6091687323, 6091687324, 6091687321], "tags": {"area": "yes", "bench": "yes", "lit": "yes", "name": "Uran Line", "public_transport": "platform", "railway": "platform", "ref": "1;2", "shelter": "yes", "start_date": "2018-11-12", "surface": "paved", "train": "yes"}}, {"type": "way", "id": 648982743, "nodes": [6091687325, 6091687326, 6627076102, 6627076100, 6627076092, 6627076097, 6627076096, 7614794326, 6627076095, 6627076098, 6627076091, 6627076099, 6627076101, 6091687327, 6091687328, 6627076109, 6627076108, 6627076106, 6627076104, 6627076103, 6627076105, 6627076107, 6627076110, 6091687325], "tags": {"addr:city": "Navi Mumbai", "addr:postcode": "410206", "building": "train_station", "internet_access": "yes", "layer": "1", "name": "Kharkopar", "network": "Mumbai Suburban Railway", "network:wikidata": "Q3273422", "operator": "Central Railways", "platforms": "2", "public_transport": "station", "railway": "station", "ref": "KARP", "start_date": "11 November, 2018", "train": "yes", "wheelchair": "yes", "wikidata": "Q29026161", "wikipedia": "en:Kharkopar railway station"}}, {"type": "way", "id": 649371301, "nodes": [6094411341, 6094411342, 6094411343, 6094411344, 6094411341], "tags": {"area": "yes", "bench": "yes", "check_date:shelter": "2025-12-16", "lit": "yes", "public_transport": "platform", "railway": "platform", "ref": "2", "shelter": "yes", "surface": "paved", "train": "yes", "wheelchair": "yes"}}, {"type": "way", "id": 649371302, "nodes": [6094411345, 6094411346, 6094411347, 6094411348, 6094411345], "tags": {"area": "yes", "bench": "yes", "check_date:shelter": "2025-12-16", "lit": "yes", "public_transport": "platform", "railway": "platform", "ref": "1", "shelter": "yes", "surface": "paved", "train": "yes", "wheelchair": "yes"}}, {"type": "way", "id": 649371303, "nodes": [6094411349, 6094411350, 6094411351, 6094411352, 6094411349], "tags": {"area": "yes", "bench": "yes", "lit": "yes", "public_transport": "platform", "railway": "platform", "ref": "1", "shelter": "yes", "surface": "paved", "train": "yes", "wheelchair": "yes"}}, {"type": "way", "id": 649371304, "nodes": [6094411353, 6094411354, 6094411355, 6094411356, 6094411353], "tags": {"area": "yes", "bench": "yes", "lit": "yes", "public_transport": "platform", "railway": "platform", "ref": "2", "shelter": "yes", "surface": "paved", "train": "yes", "wheelchair": "yes"}}, {"type": "way", "id": 659857896, "nodes": [6177994512, 5707752247], "tags": {"electrified": "contact_line", "gauge": "1676", "name": "Harbour Line", "oneway": "yes", "railway": "rail"}}, {"type": "way", "id": 700471128, "nodes": [6578047864, 6578047863], "tags": {"electrified": "contact_line", "gauge": "1676", "name": "Uran Line", "railway": "rail", "service": "crossover", "start_date": "2018-11-12"}}, {"type": "way", "id": 700471129, "nodes": [6578047866, 6578047865], "tags": {"electrified": "contact_line", "gauge": "1676", "name": "Uran Line", "railway": "rail", "service": "crossover", "start_date": "2018-11-12"}}, {"type": "way", "id": 808005916, "nodes": [5787735945, 9318371063, 9318371064, 9839496211, 11612768454, 11612768453, 11612768452, 11612768451, 11612788894, 9839511219, 11612768468, 11612768467, 11612768466, 11612768465, 9839511220, 11612768464, 11612768463, 9839511221, 9839511222, 9318371056, 5787735946, 5787735947, 5787735948, 5787735949], "tags": {"electrified": "contact_line", "frequency": "50", "gauge": "1676", "name": "Uran Line", "passenger_lines": "2", "railway": "rail", "start_date": "2024-01-12", "usage": "main", "voltage": "25000"}}, {"type": "way", "id": 946201807, "nodes": [10832119769, 6091737994, 6091737993, 2440539566, 2440539565, 2440539564, 2440539562, 5303002085, 6177994509, 5707752238, 5303002083, 11938941991, 2440539558, 5707752243, 2440539556, 5428322738, 5303002101, 5707817427, 5303002102], "tags": {"electrified": "contact_line", "frequency": "50", "gauge": "1676", "name": "Trans-Harbour Line", "oneway": "yes", "passenger_lines": "2", "railway": "rail", "usage": "main", "voltage": "25000"}}, {"type": "way", "id": 1009942852, "nodes": [5787735901, 5787735902], "tags": {"bridge": "yes", "electrified": "contact_line", "frequency": "50", "gauge": "1676", "layer": "1", "name": "Uran Line", "passenger_lines": "2", "railway": "rail", "start_date": "2024-01-12", "usage": "main", "voltage": "25000"}}, {"type": "way", "id": 1009942853, "nodes": [5787735949, 5787735950], "tags": {"bridge": "yes", "electrified": "contact_line", "frequency": "50", "gauge": "1676", "layer": "1", "name": "Uran Line", "passenger_lines": "2", "railway": "rail", "start_date": "2024-01-12", "usage": "main", "voltage": "25000"}}, {"type": "way", "id": 1009942854, "nodes": [5787735950, 9318371059, 9318371061, 5406582630], "tags": {"electrified": "contact_line", "frequency": "50", "gauge": "1676", "name": "Uran Line", "passenger_lines": "2", "railway": "rail", "start_date": "2024-01-12", "usage": "main", "voltage": "25000"}}, {"type": "way", "id": 1009942855, "nodes": [5406582627, 9318371060, 9318371058, 5787735901], "tags": {"electrified": "contact_line", "frequency": "50", "gauge": "1676", "name": "Uran Line", "passenger_lines": "2", "railway": "rail", "start_date": "2024-01-12", "usage": "main", "voltage": "25000"}}, {"type": "way", "id": 1017311981, "nodes": [9383394432, 8360488244, 9383394438, 9383394439, 9383394435, 9383394437, 9383394436, 9383394434, 8366126761, 9383394432], "tags": {"amenity": "ferry_terminal", "building": "yes", "ferry": "yes", "name": "Nerul Passenger Water Transport Terminal", "public_transport": "station"}}, {"type": "way", "id": 1058064638, "nodes": [5302970080, 5302970084, 5370266399, 3357228527, 5406634551, 6063384191], "tags": {"electrified": "contact_line", "frequency": "50", "gauge": "1676", "name": "Trans-Harbour Line", "oneway": "yes", "passenger_lines": "1", "railway": "rail", "usage": "main", "voltage": "25000"}}, {"type": "way", "id": 1058064644, "nodes": [6063384191, 7818050100, 5707817425, 2440539555, 5406634552, 5428322737], "tags": {"electrified": "contact_line", "frequency": "50", "gauge": "1676", "name": "Trans-Harbour Line", "oneway": "reversible", "passenger_lines": "2", "railway": "rail", "usage": "main", "voltage": "25000"}}, {"type": "way", "id": 1058064645, "nodes": [5428322738, 5428322737], "tags": {"electrified": "contact_line", "gauge": "1676", "name": "Trans-Harbour Line", "oneway": "yes", "railway": "rail"}}, {"type": "way", "id": 1058064646, "nodes": [5302970063, 6081359786, 6081359787, 5302970083, 5302970071, 5707816019, 5302029681, 5406634561, 6063384189, 7818050098, 5707817423, 5406634553, 5303002111, 344885653, 5707817429, 3357228529, 6177994514, 5707752247, 5982498108, 344885649, 5707752244, 5707752241, 5303002067, 11938941989, 344885648, 5303002081, 5303002068, 5707752239, 6177994511], "tags": {"electrified": "contact_line", "frequency": "50", "gauge": "1676", "name": "Harbour Line (CSMT, Vadala, Goregaon)", "oneway": "yes", "operator": "Central Railways", "passenger_lines": "3", "railway": "rail", "usage": "main", "voltage": "25000"}}, {"type": "way", "id": 1058064648, "nodes": [6177994512, 5303002109, 5707817428, 5303002110, 5707817424, 7818050099, 6063384190], "tags": {"electrified": "contact_line", "frequency": "50", "gauge": "1676", "name": "Harbour Line (Belapur, Panvel)", "oneway": "reversible", "operator": "Central Railways", "passenger_lines": "2", "railway": "rail", "usage": "main", "voltage": "25000"}}, {"type": "way", "id": 1058064649, "nodes": [6063384190, 5406634562, 5302970078, 5370266400, 5302970079, 5302970080], "tags": {"electrified": "contact_line", "frequency": "50", "gauge": "1676", "name": "Harbour Line (Belapur, Panvel)", "oneway": "yes", "operator": "Central Railways", "passenger_lines": "2", "railway": "rail", "usage": "main", "voltage": "25000"}}, {"type": "way", "id": 1058064650, "nodes": [7005644736, 6120968337, 5637121150, 7818030807, 5302029675], "tags": {"electrified": "contact_line", "frequency": "50", "gauge": "1676", "layer": "-1", "level": "-1", "name": "Uran Line", "oneway": "yes", "passenger_lines": "1", "railway": "rail", "start_date": "11 November, 2018", "tunnel": "yes", "usage": "main", "voltage": "25000"}}, {"type": "way", "id": 1058064651, "nodes": [5302970099, 7818030806, 5302970100, 5707817433, 5302970101], "tags": {"electrified": "contact_line", "frequency": "50", "gauge": "1676", "layer": "-1", "level": "-1", "name": "Uran Line", "oneway": "yes", "passenger_lines": "1", "railway": "rail", "start_date": "11 November, 2018", "tunnel": "yes", "usage": "main", "voltage": "25000"}}, {"type": "way", "id": 1058064652, "nodes": [5302970034, 5302970056, 5637121151, 7818030805, 5302970057], "tags": {"electrified": "contact_line", "frequency": "50", "gauge": "1676", "layer": "-1", "level": "-1", "name": "Harbour Line", "oneway": "yes", "passenger_lines": "4", "railway": "rail", "tunnel": "yes", "usage": "main", "voltage": "25000"}}, {"type": "way", "id": 1058064653, "nodes": [5423885902, 7818030804, 5707817432, 6120968338, 7005644737], "tags": {"electrified": "contact_line", "frequency": "50", "gauge": "1676", "layer": "-1", "level": "-1", "name": "Harbour Line", "oneway": "yes", "passenger_lines": "2", "railway": "rail", "tunnel": "yes", "usage": "main", "voltage": "25000"}}, {"type": "way", "id": 1058064654, "nodes": [5302970101, 5841999715, 5302970102], "tags": {"electrified": "contact_line", "frequency": "50", "gauge": "1676", "name": "Uran Line", "oneway": "yes", "passenger_lines": "1", "railway": "rail", "start_date": "11 November, 2018", "usage": "main", "voltage": "25000"}}, {"type": "way", "id": 1058064655, "nodes": [5302970106, 7005644736], "tags": {"electrified": "contact_line", "frequency": "50", "gauge": "1676", "name": "Uran Line", "oneway": "yes", "passenger_lines": "1", "railway": "rail", "start_date": "11 November, 2018", "usage": "main", "voltage": "25000"}}, {"type": "way", "id": 1058064656, "nodes": [5302970107, 5302970106], "tags": {"bridge": "yes", "electrified": "contact_line", "frequency": "50", "gauge": "1676", "layer": "1", "name": "Uran Line", "oneway": "yes", "passenger_lines": "1", "railway": "rail", "start_date": "11 November, 2018", "usage": "main", "voltage": "25000"}}, {"type": "way", "id": 1058064657, "nodes": [5302970102, 5405093120], "tags": {"bridge": "yes", "electrified": "contact_line", "frequency": "50", "gauge": "1676", "layer": "1", "name": "Uran Line", "oneway": "yes", "passenger_lines": "1", "railway": "rail", "start_date": "11 November, 2018", "usage": "main", "voltage": "25000"}}, {"type": "way", "id": 1058064658, "nodes": [5405094123, 5302970035, 5302970034], "tags": {"electrified": "contact_line", "frequency": "50", "gauge": "1676", "name": "Harbour Line", "oneway": "yes", "passenger_lines": "4", "railway": "rail", "usage": "main", "voltage": "25000"}}, {"type": "way", "id": 1058064659, "nodes": [5405094122, 5405094123], "tags": {"bridge": "yes", "electrified": "contact_line", "frequency": "50", "gauge": "1676", "layer": "1", "name": "Harbour Line", "oneway": "yes", "passenger_lines": "4", "railway": "rail", "usage": "main", "voltage": "25000"}}, {"type": "way", "id": 1058064660, "nodes": [7005644737, 5405094124], "tags": {"electrified": "contact_line", "frequency": "50", "gauge": "1676", "name": "Harbour Line", "oneway": "yes", "passenger_lines": "2", "railway": "rail", "usage": "main", "voltage": "25000"}}, {"type": "way", "id": 1058064661, "nodes": [5405094124, 5405094121], "tags": {"bridge": "yes", "electrified": "contact_line", "frequency": "50", "gauge": "1676", "layer": "1", "name": "Harbour Line", "oneway": "yes", "passenger_lines": "2", "railway": "rail", "usage": "main", "voltage": "25000"}}, {"type": "way", "id": 1123961005, "nodes": [10278679555, 10278679554, 10278679553, 10278679552], "tags": {"electrified": "contact_line", "frequency": "50", "gauge": "1435", "name": "Dahisar (W) to Mandale Metro (Line-2)", "railway": "subway", "service": "yard", "tracks": "2", "voltage": "25000"}}, {"type": "way", "id": 1123961006, "nodes": [10278679547, 10278679548], "tags": {"electrified": "contact_line", "frequency": "50", "gauge": "1435", "name": "Dahisar (W) to Mandale Metro (Line-2)", "railway": "subway", "service": "yard", "tracks": "2", "voltage": "25000"}}, {"type": "way", "id": 1164686608, "nodes": [10832119765, 4822210926, 5303002071, 5303002072, 5303002073, 5303002074, 5303002075, 6177994507, 6177994510, 5303002078, 5303002079, 5303002080, 11938941987, 5303002103, 5303002104, 5707752240, 5303002105, 5303002106, 5303002107, 5707752246, 6177994512], "tags": {"electrified": "contact_line", "frequency": "50", "gauge": "1676", "name": "Harbour Line (Belapur, Panvel)", "oneway": "yes", "operator": "Central Railways", "passenger_lines": "2", "railway": "rail", "usage": "main", "voltage": "25000"}}, {"type": "relation", "id": 11508000, "members": [{"type": "node", "ref": 12189351683, "role": ""}, {"type": "way", "ref": 555974692, "role": "platform"}, {"type": "way", "ref": 555972717, "role": "platform"}, {"type": "way", "ref": 555974690, "role": "platform"}, {"type": "way", "ref": 555972718, "role": "platform"}, {"type": "way", "ref": 555974691, "role": "platform"}, {"type": "node", "ref": 7818030804, "role": "stop"}, {"type": "node", "ref": 7818030805, "role": "stop"}, {"type": "node", "ref": 7818030806, "role": "stop"}, {"type": "node", "ref": 7818030807, "role": "stop"}], "tags": {"name": "Seawoods", "network": "Indian Railways", "operator": "Central Railway", "public_transport": "stop_area", "ref": "SWDV", "type": "public_transport"}}, {"type": "relation", "id": 11511648, "members": [{"type": "way", "ref": 572630813, "role": ""}, {"type": "way", "ref": 643264129, "role": ""}, {"type": "way", "ref": 643264128, "role": ""}, {"type": "way", "ref": 643264127, "role": ""}, {"type": "way", "ref": 643264126, "role": ""}, {"type": "way", "ref": 643264125, "role": ""}, {"type": "way", "ref": 643264124, "role": ""}, {"type": "way", "ref": 643264130, "role": ""}, {"type": "node", "ref": 7818050098, "role": ""}, {"type": "node", "ref": 7818050099, "role": ""}, {"type": "node", "ref": 7818050100, "role": ""}, {"type": "node", "ref": 7818050101, "role": ""}, {"type": "node", "ref": 7818050102, "role": ""}, {"type": "node", "ref": 7818050103, "role": ""}], "tags": {"name": "Nerul", "public_transport": "stop_area", "type": "public_transport"}}, {"type": "relation", "id": 11512044, "members": [{"type": "node", "ref": 7818268525, "role": ""}, {"type": "node", "ref": 7818268524, "role": ""}, {"type": "way", "ref": 649371304, "role": ""}, {"type": "way", "ref": 648982742, "role": ""}, {"type": "way", "ref": 649371303, "role": ""}, {"type": "way", "ref": 648982743, "role": ""}], "tags": {"name": "Kharkopar", "public_transport": "stop_area", "type": "public_transport"}}, {"type": "relation", "id": 11512101, "members": [{"type": "node", "ref": 7818310738, "role": ""}, {"type": "node", "ref": 7818310739, "role": ""}, {"type": "way", "ref": 648982741, "role": ""}, {"type": "way", "ref": 649371301, "role": ""}, {"type": "way", "ref": 648982740, "role": ""}, {"type": "way", "ref": 649371302, "role": ""}], "tags": {"name": "Baman-Dongri", "public_transport": "stop_area", "type": "public_transport"}}]}