{"version": 0.6, "generator": "Overpass API 0.7.62.8 e802775f", "osm3s": {"timestamp_osm_base": "2026-01-16T10:25:44Z", "copyright": "The data included in this document is from www.openstreetmap.org. The data is made available under ODbL."}, "elements": [{"type": "node", "id": 1289132977, "lat": 59.6933, "lon": 10.2131, "tags": {"highway": "bus_stop", "name": "M\u00e6len 88", "ref:nsrq": "29809"}}, {"type": "node", "id": 1289133023, "lat": 59.695057, "lon": 10.206055, "tags": {"highway": "bus_stop", "name": "M\u00e6len", "ref:nsrq": "29811"}}, {"type": "node", "id": 1289133097, "lat": 59.664538, "lon": 10.21409, "tags": {"highway": "bus_stop", "name": "Fabrikkdammen", "ref:nsrq": "33930"}}, {"type": "node", "id": 1289133109, "lat": 59.6919, "lon": 10.2156, "tags": {"highway": "bus_stop", "name": "M\u00e6len 76", "ref:nsrq": "29804"}}, {"type": "node", "id": 1289230078, "lat": 59.6955, "lon": 10.1607, "tags": {"highway": "bus_stop", "name": "Berg Skoger", "ref:nsrq": "29836"}}, {"type": "node", "id": 1289230462, "lat": 59.6963, "lon": 10.163, "tags": {"highway": "bus_stop", "name": "Svingen", "ref:nsrq": "29833", "shelter": "yes"}}, {"type": "node", "id": 1289231958, "lat": 59.6997, "lon": 10.1597, "tags": {"highway": "bus_stop", "name": "Haldenlia", "ref:nsrq": "29957"}}, {"type": "node", "id": 1289232050, "lat": 59.6915, "lon": 10.1464, "tags": {"highway": "bus_stop", "name": "Berget Skoger", "ref:nsrq": "29845"}}, {"type": "node", "id": 1289236304, "lat": 59.6925, "lon": 10.1545, "tags": {"highway": "bus_stop", "name": "Imjelt", "ref:nsrq": "29840"}}, {"type": "node", "id": 2883431803, "lat": 59.6844, "lon": 10.2082, "tags": {"highway": "bus_stop", "name": "Hanevoldveien", "ref:nsrq": "29820"}}, {"type": "node", "id": 2883431809, "lat": 59.685734, "lon": 10.1942, "tags": {"highway": "bus_stop", "name": "L\u00f8se", "ref:nsrq": "29816"}}, {"type": "node", "id": 2883469883, "lat": 59.6858, "lon": 10.1797, "tags": {"highway": "bus_stop", "name": "Borgeveien", "ref:nsrq": "29826"}}, {"type": "node", "id": 2883469884, "lat": 59.6901, "lon": 10.1736, "tags": {"highway": "bus_stop", "name": "Skalstad Skoger", "ref:nsrq": "29828"}}, {"type": "node", "id": 6372879183, "lat": 59.6927, "lon": 10.1543, "tags": {"highway": "bus_stop", "name": "Imjelt", "ref:nsrq": "29841"}}, {"type": "node", "id": 6372879185, "lat": 59.6956, "lon": 10.1605, "tags": {"highway": "bus_stop", "name": "Berg Skoger", "ref:nsrq": "29837"}}, {"type": "node", "id": 6372879186, "lat": 59.69625, "lon": 10.163052, "tags": {"highway": "bus_stop", "name": "Svingen", "ref:nsrq": "29832"}}, {"type": "node", "id": 6372879187, "lat": 59.6902, "lon": 10.1744, "tags": {"highway": "bus_stop", "name": "Skalstad Skoger", "ref:nsrq": "29830"}}, {"type": "node", "id": 6372879188, "lat": 59.6867, "lon": 10.1788, "tags": {"highway": "bus_stop", "name": "Borgeveien", "ref:nsrq": "29824"}}, {"type": "node", "id": 6372879189, "lat": 59.68444, "lon": 10.20769, "tags": {"highway": "bus_stop", "name": "Hanevoldveien", "ref:nsrq": "29819"}}, {"type": "node", "id": 6372879192, "lat": 59.6856, "lon": 10.1947, "tags": {"highway": "bus_stop", "name": "L\u00f8se", "ref:nsrq": "29815"}}, {"type": "node", "id": 6372879193, "lat": 59.6935, "lon": 10.2132, "tags": {"highway": "bus_stop", "name": "M\u00e6len 88", "ref:nsrq": "29807"}}, {"type": "node", "id": 6372879195, "lat": 59.6919, "lon": 10.2159, "tags": {"highway": "bus_stop", "name": "M\u00e6len 76", "ref:nsrq": "29803"}}, {"type": "node", "id": 6372880334, "lat": 59.69496, "lon": 10.205979, "tags": {"highway": "bus_stop", "name": "M\u00e6len", "ref:nsrq": "29812"}}, {"type": "node", "id": 6373442948, "lat": 59.664447, "lon": 10.214193, "tags": {"highway": "bus_stop", "name": "Fabrikkdammen", "ref:nsrq": "33929"}}]}