{"version": 0.6, "generator": "Overpass API 0.7.62.8 e802775f", "osm3s": {"timestamp_osm_base": "2026-01-14T23:53:50Z", "copyright": "The data included in this document is from www.openstreetmap.org. The data is made available under ODbL."}, "elements": [{"type": "node", "id": 12157143, "lat": 43.2463051, "lon": 5.4320034, "tags": {"bus": "yes", "name": "Lachamp Le Clos des Iris", "name:oc": "Lacamp - Lo Claus dei Glaujas", "public_transport": "stop_position", "source:name:oc": "ieo-bdtopoc"}}, {"type": "node", "id": 12167515, "lat": 43.2487483, "lon": 5.4410161, "tags": {"bus": "yes", "name": "Grands Pins", "name:oc": "Pin\u00e0s", "public_transport": "stop_position", "source": "Marseille Provence M\u00e9tropole Open Data 2013", "source:name:oc": "ieo-bdtopoc"}}, {"type": "node", "id": 12169876, "lat": 43.2487434, "lon": 5.3978033, "tags": {"bus": "yes", "name": "Jardin Bortoli", "name:oc": "Jardin Bort\u00f2li", "operator": "RTM", "public_transport": "stop_position"}}, {"type": "node", "id": 112288165, "lat": 43.2380575, "lon": 5.434345, "tags": {"bus": "yes", "name": "Cochet", "name:oc": "Cochet", "public_transport": "stop_position", "source": "Marseille Provence M\u00e9tropole Open Data 2013", "source:name:oc": "ieo-bdtopoc"}}, {"type": "node", "id": 112289271, "lat": 43.2332978, "lon": 5.4335375, "tags": {"bus": "yes", "name": "Kedge BS", "name:oc": "Kedge BS", "public_transport": "stop_position", "source:name:oc": "ieo-bdtopoc"}}, {"type": "node", "id": 112328716, "lat": 43.2283492, "lon": 5.4153958, "tags": {"bus": "yes", "name": "Morgiou Arnaud", "name:oc": "Morgiu - Arnaud", "public_transport": "stop_position", "source:name:oc": "ieo-bdtopoc"}}, {"type": "node", "id": 262638337, "lat": 43.2593926, "lon": 5.4025802, "tags": {"bus": "yes", "name": "Aiguier Trioulet", "name:oc": "Aiguier - Triolet", "public_transport": "stop_position"}}, {"type": "node", "id": 262638782, "lat": 43.2538608, "lon": 5.4131707, "tags": {"bus": "yes", "name": "Chemin Colline Saint-Joseph", "name:oc": "Camin C\u00f2la de Sant Jos\u00e8p", "public_transport": "stop_position", "source:name:oc": "ieo-bdtopoc"}}, {"type": "node", "id": 262640109, "lat": 43.2472744, "lon": 5.3930181, "tags": {"bus": "yes", "name": "Hambourg Lancier", "name:oc": "Amborg - Lancier", "public_transport": "stop_position", "source:name:oc": "ieo-bdtopoc"}}, {"type": "node", "id": 265707722, "lat": 43.2428756, "lon": 5.4062633, "tags": {"bus": "yes", "name": "Morgiou Seigneurie", "name:oc": "Morgiu - Senhori\u00e1", "public_transport": "stop_position", "source:name:oc": "ieo-bdtopoc"}}, {"type": "node", "id": 265707730, "lat": 43.2375, "lon": 5.4089499, "tags": {"bus": "yes", "name": "Morgiou Cauvi\u00e8re", "name:oc": "Morgiu - Cauvi\u00e8ra", "public_transport": "stop_position", "source:name:oc": "ieo-bdtopoc"}}, {"type": "node", "id": 270918752, "lat": 43.23161, "lon": 5.4371266, "tags": {"bus": "yes", "name": "Luminy Parc National des Calanques", "name:oc": "Lumini - Pargue Nacionau dei Calancas", "public_transport": "stop_position", "source:name:oc": "ieo-bdtopoc"}}, {"type": "node", "id": 308240295, "lat": 43.2349345, "lon": 5.3992499, "tags": {"bus": "yes", "name": "Sormiou Jarre", "name:oc": "Sormiu - Croisa", "public_transport": "stop_position", "source:name:oc": "ieo-bdtopoc"}}, {"type": "node", "id": 308240452, "lat": 43.2343454, "lon": 5.3992729, "tags": {"bus": "yes", "name": "Sormiou Jarre", "name:oc": "Sormiu - Jarra", "public_transport": "stop_position", "source:name:oc": "ieo-bdtopoc"}}, {"type": "node", "id": 308240990, "lat": 43.2365685, "lon": 5.3989794, "tags": {"bus": "yes", "name": "Sormiou Roy d'Espagne", "name:oc": "Sormiu - R\u00e8i d\u2019Espanha", "public_transport": "stop_position", "source:name:oc": "ieo-bdtopoc"}}, {"type": "node", "id": 364617989, "lat": 43.2473618, "lon": 5.3930401, "tags": {"bus": "yes", "name": "Hambourg Lancier", "name:oc": "Amborg - Lancier", "public_transport": "stop_position", "source:name:oc": "ieo-bdtopoc"}}, {"type": "node", "id": 364880353, "lat": 43.2545718, "lon": 5.3942345, "tags": {"bus": "yes", "name": "Sainte-Anne Ha\u00effa", "name:oc": "Santa Anna - Haifa", "public_transport": "stop_position", "source:name:oc": "ieo-bdtopoc"}}, {"type": "node", "id": 364880624, "lat": 43.2567017, "lon": 5.3940482, "tags": {"bus": "yes", "name:fr": "Sainte-Anne", "name:oc": "Santa Anna", "public_transport": "stop_position", "source:name:oc": "ieo-bdtopoc"}}, {"type": "node", "id": 364880625, "lat": 43.2592907, "lon": 5.3941389, "tags": {"bus": "yes", "name": "CC Saint-Anne", "name:oc": "CC de Santa Anna", "public_transport": "stop_position", "source:name:oc": "ieo-bdtopoc"}}, {"type": "node", "id": 401866091, "lat": 43.2528824, "lon": 5.4219315, "tags": {"bus": "yes", "name": "La Rouvi\u00e8re", "name:oc": "La Roviera", "public_transport": "stop_position", "source:name:oc": "ieo-bdtopoc"}}, {"type": "node", "id": 485381977, "lat": 43.2320303, "lon": 5.4023671, "tags": {"bus": "yes", "name": "Terrasses de Sormiou", "name:oc": "Terrasssas de Sormiu", "public_transport": "stop_position", "source:name:oc": "ieo-bdtopoc"}}, {"type": "node", "id": 500880435, "lat": 43.2534691, "lon": 5.4085533, "tags": {"bus": "yes", "name": "Aiguier Saint-Jacques", "name:oc": "Aiguier - Sant Jaume", "operator": "RTM", "public_transport": "stop_position", "source:name:oc": "ieo-bdtopoc"}}, {"type": "node", "id": 500880459, "lat": 43.2505587, "lon": 5.4171444, "tags": {"bus": "yes", "name": "Valmante", "name:oc": "Valmanta", "public_transport": "stop_position"}}, {"type": "node", "id": 503957022, "lat": 43.2574944, "lon": 5.4103187, "tags": {"bus": "yes", "name": "La Gaye", "name:oc": "fixme:Coll\u00e8gi Menu", "public_transport": "stop_position", "source:name:oc": "ieo-bdtopoc"}}, {"type": "node", "id": 672578385, "lat": 43.2433662, "lon": 5.3921522, "tags": {"bus": "yes", "name": "Floralia Le M\u00e9e", "name:oc": "Floraria - Lo Mea", "public_transport": "stop_position", "source:name:oc": "ieo-bdtopoc"}}, {"type": "node", "id": 675393835, "lat": 43.2392639, "lon": 5.4143181, "tags": {"bus": "yes", "name": "La Seigneurie", "name:oc": "La Senhori\u00e1", "public_transport": "stop_position", "source:name:oc": "ieo-bdtopoc"}}, {"type": "node", "id": 742394107, "lat": 43.2323665, "lon": 5.4000779, "tags": {"bench": "no", "bin": "yes", "bus": "yes", "highway": "bus_stop", "lit": "yes", "name": "CC Sormiou", "name:oc": "CC Sormiu", "public_transport": "platform", "shelter": "no", "source": "survey", "source:name:oc": "ieo-bdtopoc", "tactile_paving": "yes"}}, {"type": "node", "id": 742394113, "lat": 43.2292222, "lon": 5.4014948, "tags": {"bench": "no", "bin": "no", "bus": "yes", "highway": "bus_stop", "name": "Sormiou Cayolle", "name:oc": "Sormiu - Calh\u00f2la", "public_transport": "platform", "shelter": "no", "source": "survey", "source:name:oc": "ieo-bdtopoc"}}, {"type": "node", "id": 742394118, "lat": 43.2327241, "lon": 5.4001035, "tags": {"bench": "yes", "bin": "yes", "bus": "yes", "highway": "bus_stop", "lit": "yes", "name": "CC Sormiou", "name:oc": "CC Sormiu", "public_transport": "platform", "shelter": "yes", "source": "survey", "source:name:oc": "ieo-bdtopoc", "tactile_paving": "no", "wheelchair": "yes"}}, {"type": "node", "id": 742394121, "lat": 43.2303054, "lon": 5.4010781, "tags": {"bench": "yes", "bin": "no", "bus": "yes", "highway": "bus_stop", "lit": "yes", "name": "Sormiou Cayolle", "name:oc": "Sormiu - Calh\u00f2la", "public_transport": "platform", "shelter": "no", "source": "survey", "source:name:oc": "ieo-bdtopoc", "tactile_paving": "yes", "wheelchair": "yes"}}, {"type": "node", "id": 774087007, "lat": 43.2567146, "lon": 5.4272503, "tags": {"bench": "yes", "bus": "yes", "highway": "bus_stop", "name": "La Panouse", "name:oc": "La Panosa", "public_transport": "platform", "shelter": "yes"}}, {"type": "node", "id": 789380788, "lat": 43.241293, "lon": 5.3943664, "tags": {"bus": "yes", "name": "Floralia", "name:oc": "Floralia", "public_transport": "stop_position", "source:name:oc": "ieo-bdtopoc"}}, {"type": "node", "id": 789380793, "lat": 43.241522, "lon": 5.3961505, "tags": {"bus": "yes", "name": "Coll\u00e8ge Roy d'Espagne", "name:oc": "Collegi Dau R\u00e8i d\u2019Espanha", "public_transport": "stop_position", "source:name:oc": "ieo-bdtopoc"}}, {"type": "node", "id": 789380794, "lat": 43.2415996, "lon": 5.3964533, "tags": {"bus": "yes", "name": "Coll\u00e8ge Roy d'Espagne", "name:oc": "Collegi Dau R\u00e8i d\u2019Espanha", "public_transport": "stop_position", "source:name:oc": "ieo-bdtopoc"}}, {"type": "node", "id": 790305742, "lat": 43.2458325, "lon": 5.3925685, "tags": {"bus": "yes", "name": "Zenatti Lyc\u00e9e", "name:oc": "Zenatti - Lic\u00e8u", "public_transport": "stop_position", "source:name:oc": "ieo-bdtopoc"}}, {"type": "node", "id": 790305745, "lat": 43.2458044, "lon": 5.3937764, "tags": {"bus": "yes", "name": "Zenatti Lyc\u00e9e", "name:oc": "Zenatti - Lic\u00e8u", "public_transport": "stop_position", "source:name:oc": "ieo-bdtopoc"}}, {"type": "node", "id": 804194301, "lat": 43.2514772, "lon": 5.4031847, "tags": {"bus": "yes", "name": "Ob\u00e9lisque", "name:oc": "Obelisc", "public_transport": "stop_position", "source:name:oc": "ieo-bdtopoc"}}, {"type": "node", "id": 1327850403, "lat": 43.2592869, "lon": 5.3940593, "tags": {"bench": "no", "bin": "yes", "bus": "yes", "highway": "bus_stop", "lit": "yes", "name": "CC Saint-Anne", "name:oc": "CC de Santa Anna", "public_transport": "platform", "shelter": "no", "source:name:oc": "ieo-bdtopoc", "tactile_paving": "no"}}, {"type": "node", "id": 1327850438, "lat": 43.2593124, "lon": 5.3942368, "tags": {"bench": "yes", "bus": "yes", "highway": "bus_stop", "name": "CC Saint-Anne", "name:oc": "CC de Santa Anna", "public_transport": "platform", "shelter": "yes", "source:name:oc": "ieo-bdtopoc"}}, {"type": "node", "id": 1334342124, "lat": 43.2585409, "lon": 5.3983053, "tags": {"bench": "no", "bus": "yes", "highway": "bus_stop", "name": "Luce Michelet", "name:oc": "L\u00facia - Michelet", "public_transport": "platform", "shelter": "no", "source:name:oc": "ieo-bdtopoc", "wheelchair": "no"}}, {"type": "node", "id": 1334342126, "lat": 43.2504863, "lon": 5.3956145, "tags": {"bench": "no", "bin": "no", "bus": "yes", "highway": "bus_stop", "lit": "no", "name": "Mazargues L\u00e8gre", "name:oc": "Marsangues - L\u00e8gre", "public_transport": "platform", "shelter": "no", "source:name:oc": "ieo-bdtopoc", "tactile_paving": "no"}}, {"type": "node", "id": 1334342127, "lat": 43.2566422, "lon": 5.3946053, "tags": {"bench": "no", "bin": "no", "bus": "yes", "highway": "bus_stop", "lit": "yes", "name": "Sainte-Anne", "name:oc": "Santa Anna", "public_transport": "platform", "shelter": "no", "source:name:oc": "ieo-bdtopoc", "tactile_paving": "no"}}, {"type": "node", "id": 1334342128, "lat": 43.2525345, "lon": 5.3946789, "tags": {"bench": "no", "bus": "yes", "highway": "bus_stop", "name": "L'Aillaude", "name:oc": "L'Alhauda", "public_transport": "platform", "shelter": "no", "source:name:oc": "ieo-bdtopoc"}}, {"type": "node", "id": 1334342129, "lat": 43.2576982, "lon": 5.3972445, "tags": {"bench": "no", "bus": "yes", "highway": "bus_stop", "name": "Isaac Luce", "name:oc": "Ishaq - L\u00facia", "public_transport": "platform", "shelter": "no", "source:name:oc": "ieo-bdtopoc"}}, {"type": "node", "id": 1334342130, "lat": 43.2580797, "lon": 5.3967416, "tags": {"bench": "yes", "bin": "yes", "bus": "yes", "highway": "bus_stop", "name": "Luce Isaac", "name:oc": "L\u00facia - Ishaq", "public_transport": "platform", "shelter": "no", "source:name:oc": "ieo-bdtopoc"}}, {"type": "node", "id": 1347031530, "lat": 43.2501361, "lon": 5.4029686, "tags": {"bench": "no", "bin": "no", "bus": "yes", "highway": "bus_stop", "name": "Concorde Ob\u00e9lisque", "name:oc": "Conc\u00f2rdia - Obelisc", "public_transport": "platform", "shelter": "no", "source:name:oc": "ieo-bdtopoc", "tactile_paving": "no"}}, {"type": "node", "id": 1347031558, "lat": 43.2468857, "lon": 5.3963284, "tags": {"bench": "yes", "bus": "yes", "highway": "bus_stop", "name": "Le Lancier", "name:oc": "Lo Lancier", "public_transport": "platform", "shelter": "yes", "source:name:oc": "ieo-bdtopoc"}}, {"type": "node", "id": 1347031596, "lat": 43.2524213, "lon": 5.3945703, "tags": {"bench": "no", "bin": "yes", "bus": "yes", "comment": "< occitan Bastida deis Alhauds", "highway": "bus_stop", "name": "L'Aillaude", "name:oc": "L'Alhauda", "public_transport": "platform", "shelter": "no", "source:name:oc": "ieo-bdtopoc"}}, {"type": "node", "id": 1347031629, "lat": 43.2544553, "lon": 5.3943631, "tags": {"bench": "yes", "bin": "no", "bus": "yes", "highway": "bus_stop", "name": "Sainte-Anne Ha\u00effa", "name:oc": "Santa Anna - Haifa", "public_transport": "platform", "shelter": "yes", "source:name:oc": "ieo-bdtopoc"}}, {"type": "node", "id": 1347031646, "lat": 43.2531345, "lon": 5.3927499, "tags": {"bench": "no", "bin": "yes", "bus": "yes", "highway": "bus_stop", "lit": "no", "name": "Ha\u00effa Ollivary", "name:oc": "Haifa - Ollivari", "public_transport": "platform", "shelter": "no", "source:name:oc": "ieo-bdtopoc", "tactile_paving": "no"}}, {"type": "node", "id": 1347031672, "lat": 43.2501229, "lon": 5.402995, "tags": {"bus": "yes", "name": "Concorde Ob\u00e9lisque", "name:oc": "Conc\u00f2rdia - Obelisc", "public_transport": "stop_position", "source:name:oc": "ieo-bdtopoc"}}, {"type": "node", "id": 1347031673, "lat": 43.2474015, "lon": 5.3931024, "tags": {"bench": "yes", "bin": "yes", "bus": "yes", "highway": "bus_stop", "lit": "yes", "name": "Hambourg Lancier", "name:oc": "Amborg - Lancier", "public_transport": "platform", "shelter": "yes", "source:name:oc": "ieo-bdtopoc", "tactile_paving": "no"}}, {"type": "node", "id": 1347031674, "lat": 43.2483536, "lon": 5.4012851, "tags": {"bench": "no", "bus": "yes", "highway": "bus_stop", "name": "Magdelon", "name:oc": "Magdelon", "public_transport": "platform", "shelter": "no", "source:name:oc": "ieo-bdtopoc"}}, {"type": "node", "id": 1347031684, "lat": 43.2467217, "lon": 5.3958029, "tags": {"bench": "no", "bus": "yes", "highway": "bus_stop", "name": "Le Lancier", "name:oc": "Lo Lancier", "public_transport": "platform", "shelter": "no", "source:name:oc": "ieo-bdtopoc"}}, {"type": "node", "id": 1347031691, "lat": 43.2568854, "lon": 5.4001325, "tags": {"bus": "yes", "name": "Michelet Taine", "name:oc": "Michelet - Taine", "public_transport": "stop_position"}}, {"type": "node", "id": 1347031694, "lat": 43.2537607, "lon": 5.4017725, "tags": {"bench": "yes", "bus": "yes", "highway": "bus_stop", "name": "Michelet Bonneaude", "name:oc": "Michelet - Bonnauda", "public_transport": "platform", "shelter": "yes", "tactile_paving": "no", "wheelchair": "no"}}, {"type": "node", "id": 1347031699, "lat": 43.2466977, "lon": 5.3958436, "tags": {"bus": "yes", "name": "Le Lancier", "name:oc": "Lo Lancier", "public_transport": "stop_position", "source:name:oc": "ieo-bdtopoc"}}, {"type": "node", "id": 1347031702, "lat": 43.2533099, "lon": 5.3932498, "tags": {"bench": "yes", "bus": "yes", "highway": "bus_stop", "name": "Ha\u00effa Ollivary", "name:oc": "Haifa - Ollivari", "public_transport": "platform", "shelter": "yes", "source:name:oc": "ieo-bdtopoc"}}, {"type": "node", "id": 1347031713, "lat": 43.2472396, "lon": 5.3929816, "tags": {"bench": "yes", "bin": "no", "bus": "yes", "highway": "bus_stop", "lit": "yes", "name": "Hambourg Lancier", "name:oc": "Amborg - Lancier", "public_transport": "platform", "shelter": "yes", "source:name:oc": "ieo-bdtopoc", "tactile_paving": "no"}}, {"type": "node", "id": 1347031718, "lat": 43.2591614, "lon": 5.3988501, "tags": {"bus": "yes", "name": "Michelet Luce", "name:oc": "Michelet - L\u00facia", "public_transport": "stop_position", "source:name:oc": "ieo-bdtopoc"}}, {"type": "node", "id": 1347031719, "lat": 43.2546255, "lon": 5.3941294, "tags": {"bench": "no", "bin": "yes", "bus": "yes", "highway": "bus_stop", "lit": "yes", "name": "Sainte-Anne Ha\u00effa", "name:oc": "Santa Anna - Haifa", "public_transport": "platform", "shelter": "no", "source:name:oc": "ieo-bdtopoc", "tactile_paving": "yes"}}, {"type": "node", "id": 1347031722, "lat": 43.2483742, "lon": 5.4012344, "tags": {"bus": "yes", "name": "Magdelon", "name:oc": "Magdelon", "public_transport": "stop_position", "source:name:oc": "ieo-bdtopoc"}}, {"type": "node", "id": 1347031725, "lat": 43.2533522, "lon": 5.3931906, "tags": {"bus": "yes", "name": "Ha\u00effa Ollivary", "name:oc": "Haifa - Ollivari", "operator": "RTM", "public_transport": "stop_position", "source:name:oc": "ieo-bdtopoc"}}, {"type": "node", "id": 1347031734, "lat": 43.250329, "lon": 5.4032017, "tags": {"bus": "yes", "name": "Concorde Ob\u00e9lisque", "name:oc": "Conc\u00f2rdia - Obelisc", "public_transport": "stop_position", "source:name:oc": "ieo-bdtopoc"}}, {"type": "node", "id": 1347031743, "lat": 43.2510832, "lon": 5.4032705, "tags": {"bench": "yes", "bin": "yes", "bus": "yes", "highway": "bus_stop", "name": "Ob\u00e9lisque", "name:oc": "Obelisc", "public_transport": "platform", "shelter": "yes", "source:name:oc": "ieo-bdtopoc", "tactile_paving": "no", "wheelchair": "no"}}, {"type": "node", "id": 1347031744, "lat": 43.2485981, "lon": 5.4014609, "tags": {"bus": "yes", "name": "Magdelon", "name:oc": "Magdelon", "public_transport": "stop_position", "source:name:oc": "ieo-bdtopoc"}}, {"type": "node", "id": 1347031746, "lat": 43.2525389, "lon": 5.3946229, "tags": {"bus": "yes", "name": "L'Aillaude", "name:oc": "L'Alhauda", "public_transport": "stop_position", "source:name:oc": "ieo-bdtopoc"}}, {"type": "node", "id": 1347031748, "lat": 43.2538427, "lon": 5.4019667, "tags": {"bench": "yes", "bin": "no", "bus": "yes", "highway": "bus_stop", "lit": "yes", "name": "Michelet Bonneaude", "name:oc": "Michelet - Bonnauda", "public_transport": "platform", "shelter": "yes", "tactile_paving": "no", "wheelchair": "no"}}, {"type": "node", "id": 1347031749, "lat": 43.2515559, "lon": 5.4032638, "tags": {"bench": "yes", "bin": "yes", "bus": "yes", "highway": "bus_stop", "lit": "yes", "name": "Ob\u00e9lisque", "name:oc": "Obelisc", "public_transport": "platform", "shelter": "yes", "source:name:oc": "ieo-bdtopoc", "tactile_paving": "no", "wheelchair": "no"}}, {"type": "node", "id": 1347031759, "lat": 43.2569624, "lon": 5.4002077, "tags": {"bench": "yes", "bin": "yes", "bus": "yes", "highway": "bus_stop", "lit": "yes", "name": "Michelet Taine", "name:oc": "Michelet - Taine", "public_transport": "platform", "shelter": "yes", "tactile_paving": "no", "wheelchair": "no"}}, {"type": "node", "id": 1347031761, "lat": 43.2587071, "lon": 5.3991045, "tags": {"bus": "yes", "name": "Michelet Luce", "name:oc": "Michelet - L\u00facia", "public_transport": "stop_position", "source:name:oc": "ieo-bdtopoc"}}, {"type": "node", "id": 1347031765, "lat": 43.2486808, "lon": 5.3977432, "tags": {"bench": "no", "bin": "no", "bus": "yes", "highway": "bus_stop", "name": "Jardin Bortoli", "name:oc": "Jardin Bort\u00f2li", "public_transport": "platform", "shelter": "no", "source:name:oc": "ieo-bdtopoc", "tactile_paving": "no"}}, {"type": "node", "id": 1347031766, "lat": 43.2469122, "lon": 5.3962695, "tags": {"bus": "yes", "name": "Le Lancier", "name:oc": "Lo Lancier", "operator": "RTM", "public_transport": "stop_position", "source:name:oc": "ieo-bdtopoc"}}, {"type": "node", "id": 1347031769, "lat": 43.2524282, "lon": 5.3946278, "tags": {"bus": "yes", "name": "L'Aillaude", "name:oc": "L'Alhauda", "public_transport": "stop_position", "source:name:oc": "ieo-bdtopoc"}}, {"type": "node", "id": 1347031773, "lat": 43.2503235, "lon": 5.3956429, "tags": {"bench": "no", "bin": "yes", "bus": "yes", "highway": "bus_stop", "name": "Mazargues L\u00e8gre", "name:oc": "Marsangues - L\u00e8gre", "public_transport": "platform", "shelter": "no", "source:name:oc": "ieo-bdtopoc"}}, {"type": "node", "id": 1347031778, "lat": 43.2564906, "lon": 5.400234, "tags": {"bench": "yes", "bin": "no", "bus": "yes", "highway": "bus_stop", "lit": "yes", "name": "Michelet Taine", "name:oc": "Michelet - Taine", "public_transport": "platform", "shelter": "yes", "tactile_paving": "no", "wheelchair": "no"}}, {"type": "node", "id": 1347031784, "lat": 43.2545018, "lon": 5.3942596, "tags": {"bus": "yes", "name": "Sainte-Anne Ha\u00effa", "name:oc": "Santa Anna - Haifa", "public_transport": "stop_position", "source:name:oc": "ieo-bdtopoc"}}, {"type": "node", "id": 1347031786, "lat": 43.2530978, "lon": 5.3927998, "tags": {"bus": "yes", "name": "Ha\u00effa Ollivary", "name:oc": "Haifa - Ollivari", "operator": "RTM", "public_transport": "stop_position", "source:name:oc": "ieo-bdtopoc"}}, {"type": "node", "id": 1347031787, "lat": 43.2503497, "lon": 5.3956973, "tags": {"bus": "yes", "name": "Mazargues L\u00e8gre", "name:oc": "Marsangues - L\u00e8gre", "public_transport": "stop_position", "source:name:oc": "ieo-bdtopoc"}}, {"type": "node", "id": 1347031792, "lat": 43.2567533, "lon": 5.3940134, "tags": {"bench": "no", "bin": "yes", "bus": "yes", "highway": "bus_stop", "lit": "yes", "name": "Sainte Anne", "name:oc": "Santa Anna", "public_transport": "platform", "shelter": "no", "source:name:oc": "ieo-bdtopoc", "tactile_paving": "yes"}}, {"type": "node", "id": 1347031795, "lat": 43.25923, "lon": 5.3989382, "tags": {"bench": "yes", "bin": "no", "bus": "yes", "highway": "bus_stop", "lit": "yes", "name": "Michelet Luce", "name:oc": "Michelet - L\u00facia", "public_transport": "platform", "shelter": "yes", "source:name:oc": "ieo-bdtopoc", "tactile_paving": "no", "wheelchair": "no"}}, {"type": "node", "id": 1347031798, "lat": 43.2511162, "lon": 5.4033893, "tags": {"bus": "yes", "name": "Ob\u00e9lisque", "name:oc": "Obelisc", "public_transport": "stop_position", "source:name:oc": "ieo-bdtopoc"}}, {"type": "node", "id": 1347031807, "lat": 43.2565495, "lon": 5.4003177, "tags": {"bus": "yes", "name": "Michelet Taine", "name:oc": "Michelet - Taine", "public_transport": "stop_position"}}, {"type": "node", "id": 1347031809, "lat": 43.2538046, "lon": 5.4018756, "tags": {"bus": "yes", "name": "Michelet Bonneaude", "name:oc": "Michelet - Bonnauda", "public_transport": "stop_position"}}, {"type": "node", "id": 1347031819, "lat": 43.2503019, "lon": 5.4032574, "tags": {"bench": "no", "bin": "yes", "bus": "yes", "highway": "bus_stop", "name": "Concorde Ob\u00e9lisque", "name:oc": "Conc\u00f2rdia - Obelisc", "public_transport": "platform", "shelter": "no", "source:name:oc": "ieo-bdtopoc", "tactile_paving": "no"}}, {"type": "node", "id": 1347031823, "lat": 43.2569726, "lon": 5.3941863, "tags": {"bench": "no", "bin": "yes", "bus": "yes", "highway": "bus_stop", "lit": "yes", "name": "Ste Anne", "public_transport": "platform", "shelter": "no", "source:name:oc": "ieo-bdtopoc", "tactile_paving": "yes"}}, {"type": "node", "id": 1347031831, "lat": 43.2486127, "lon": 5.4014192, "tags": {"bench": "no", "bus": "yes", "highway": "bus_stop", "name": "Magdelon", "name:oc": "Magdelon", "public_transport": "platform", "shelter": "no", "source:name:oc": "ieo-bdtopoc"}}, {"type": "node", "id": 1347031834, "lat": 43.2487779, "lon": 5.3978378, "tags": {"bench": "no", "bus": "yes", "highway": "bus_stop", "name": "Jardin Bortoli", "name:oc": "Jardin Bortoli", "public_transport": "platform", "shelter": "no", "source:name:oc": "ieo-bdtopoc"}}, {"type": "node", "id": 1347031837, "lat": 43.2504632, "lon": 5.3955722, "tags": {"bus": "yes", "name": "Mazargues L\u00e8gre", "name:oc": "Marsangues - Legre", "public_transport": "stop_position", "source:name:oc": "ieo-bdtopoc"}}, {"type": "node", "id": 1352485299, "lat": 43.2425504, "lon": 5.4063542, "tags": {"bus": "yes", "name": "Morgiou Seigneurie", "name:oc": "Morgiu - Senhori\u00e1", "operator": "RTM", "public_transport": "stop_position", "source:name:oc": "ieo-bdtopoc"}}, {"type": "node", "id": 1352668611, "lat": 43.2285848, "lon": 5.4153052, "tags": {"bus": "yes", "name": "Morgiou Arnaud", "name:oc": "Morgiu - Arnaud", "public_transport": "stop_position", "source:name:oc": "ieo-bdtopoc"}}, {"type": "node", "id": 1377484611, "lat": 43.2460915, "lon": 5.3987582, "tags": {"bench": "yes", "bin": "yes", "bus": "yes", "highway": "bus_stop", "lit": "yes", "name": "Barqui\u00e8re Martheline", "name:oc": "Barquiera - Martelina", "public_transport": "platform", "shelter": "yes", "tactile_paving": "yes"}}, {"type": "node", "id": 1377484614, "lat": 43.2405967, "lon": 5.4010843, "tags": {"bench": "yes", "bin": "no", "bus": "yes", "highway": "bus_stop", "name": "Oc\u00e9an Pistou", "name:oc": "Ocean - Pisto", "public_transport": "platform", "shelter": "yes", "source:name:oc": "ieo-bdtopoc"}}, {"type": "node", "id": 1377484622, "lat": 43.2445523, "lon": 5.4000011, "tags": {"bench": "yes", "bin": "yes", "bus": "yes", "highway": "bus_stop", "name": "Soude R\u00e9ginensi", "name:oc": "Souda - Reginensi", "public_transport": "platform", "shelter": "yes", "source:name:oc": "ieo-bdtopoc"}}, {"type": "node", "id": 1377484623, "lat": 43.242577, "lon": 5.4028874, "tags": {"bench": "yes", "bin": "yes", "bus": "yes", "highway": "bus_stop", "lit": "yes", "name": "Soude Pom\u00e9on", "name:oc": "Souda - Pomeon", "public_transport": "platform", "shelter": "yes", "source:name:oc": "ieo-bdtopoc", "tactile_paving": "yes"}}, {"type": "node", "id": 1377484624, "lat": 43.2407062, "lon": 5.4021733, "tags": {"bench": "no", "bin": "no", "bus": "yes", "highway": "bus_stop", "lit": "yes", "name": "Oc\u00e9an Pistou", "name:oc": "Ocean - Pisto", "public_transport": "platform", "shelter": "no", "source:name:oc": "ieo-bdtopoc", "tactile_paving": "no"}}, {"type": "node", "id": 1418007742, "lat": 43.2425495, "lon": 5.4028381, "tags": {"bus": "yes", "name": "Soude Pom\u00e9on", "name:oc": "Souda - Pomeon", "public_transport": "stop_position", "source:name:oc": "ieo-bdtopoc"}}, {"type": "node", "id": 1429310242, "lat": 43.2340376, "lon": 5.4120189, "tags": {"bench": "no", "bin": "yes", "bus": "yes", "departures_board": "timetable", "highway": "bus_stop", "name": "Beauvallon", "name:oc": "Beuvalon", "public_transport": "platform", "shelter": "no", "source:name:oc": "ieo-bdtopoc", "tactile_paving": "no"}}, {"type": "node", "id": 1429310258, "lat": 43.2340351, "lon": 5.411941, "tags": {"bus": "yes", "name": "Beauvallon", "name:oc": "Beuvalon", "public_transport": "stop_position", "source:name:oc": "ieo-bdtopoc"}}, {"type": "node", "id": 1429310261, "lat": 43.2307369, "lon": 5.4142621, "tags": {"bench": "yes", "bin": "yes", "bus": "yes", "highway": "bus_stop", "lit": "yes", "name": "Baumettes Rimbaud", "name:oc": "Baumetas - Rimbaud", "public_transport": "platform", "shelter": "yes", "source:name:oc": "ieo-bdtopoc", "tactile_paving": "no"}}, {"type": "node", "id": 1429310267, "lat": 43.2283289, "lon": 5.4153248, "tags": {"bench": "no", "bin": "yes", "bus": "yes", "highway": "bus_stop", "lit": "yes", "name": "Morgiou Arnaud", "name:oc": "Morgiu - Arnaud", "public_transport": "platform", "shelter": "no", "source:name:oc": "ieo-bdtopoc", "tactile_paving": "no", "wheelchair": "limited"}}, {"type": "node", "id": 1429310269, "lat": 43.2263161, "lon": 5.4163903, "tags": {"bus": "yes", "name": "Les Baumettes", "name:oc": "Lei Baumetas", "public_transport": "stop_position", "source:name:oc": "ieo-bdtopoc"}}, {"type": "node", "id": 1429310272, "lat": 43.2338081, "lon": 5.4124594, "tags": {"bus": "yes", "name": "Rabat Baumettes", "name:oc": "Rabat - Baumetas", "public_transport": "stop_position", "source:name:oc": "ieo-bdtopoc"}}, {"type": "node", "id": 1429310274, "lat": 43.2330427, "lon": 5.4125559, "tags": {"bench": "no", "bus": "yes", "highway": "bus_stop", "name": "Baumettes Beauvallon", "name:oc": "Baumetas - Beuvalon", "public_transport": "platform", "shelter": "no", "source:name:oc": "ieo-bdtopoc"}}, {"type": "node", "id": 1429310275, "lat": 43.2340896, "lon": 5.4119832, "tags": {"bench": "no", "bin": "no", "bus": "yes", "departures_board": "timetable", "highway": "bus_stop", "name": "Beauvallon", "name:oc": "Beuvalon", "public_transport": "platform", "shelter": "no", "source:name:oc": "ieo-bdtopoc", "tactile_paving": "no"}}, {"type": "node", "id": 1429310287, "lat": 43.2306055, "lon": 5.4141478, "tags": {"bench": "no", "bin": "yes", "bus": "yes", "highway": "bus_stop", "name": "Baumettes Rimbaud", "name:oc": "Baumetas - Rimbaud", "public_transport": "platform", "shelter": "no", "source:name:oc": "ieo-bdtopoc", "tactile_paving": "no"}}, {"type": "node", "id": 1429310288, "lat": 43.2349808, "lon": 5.4111441, "tags": {"bus": "yes", "name": "Morgiou Beauvallon", "name:oc": "Morgiu - Beuvalon", "public_transport": "stop_position", "source:name:oc": "ieo-bdtopoc"}}, {"type": "node", "id": 1429310289, "lat": 43.2338035, "lon": 5.4125209, "tags": {"bench": "no", "bus": "yes", "highway": "bus_stop", "name": "Rabat Baumettes", "name:oc": "Rabat - Baumetas", "public_transport": "platform", "shelter": "no", "source:name:oc": "ieo-bdtopoc"}}, {"type": "node", "id": 1429310296, "lat": 43.2262611, "lon": 5.4164155, "tags": {"bench": "yes", "bin": "no", "bus": "yes", "departures_board": "timetable", "highway": "bus_stop", "lit": "yes", "name": "Les Baumettes", "name:oc": "Lei Baumetas", "public_transport": "platform", "shelter": "yes", "source:name:oc": "ieo-bdtopoc", "tactile_paving": "no", "wheelchair": "limited"}}, {"type": "node", "id": 1429310297, "lat": 43.233137, "lon": 5.412575, "tags": {"bus": "yes", "name": "Baumettes Beauvallon", "name:oc": "Baumetas - Beuvalon", "public_transport": "stop_position", "source:name:oc": "ieo-bdtopoc"}}, {"type": "node", "id": 1429310300, "lat": 43.2286188, "lon": 5.4154305, "tags": {"bench": "no", "bus": "yes", "highway": "bus_stop", "name": "Morgiou Arnaud", "name:oc": "Morgiu - Arnaud", "public_transport": "platform", "shelter": "no", "source:name:oc": "ieo-bdtopoc"}}, {"type": "node", "id": 1429310302, "lat": 43.2349433, "lon": 5.4110767, "tags": {"bench": "no", "bin": "yes", "bus": "yes", "highway": "bus_stop", "name": "Morgiou Beauvallon", "name:oc": "Morgiu - Beuvalon", "public_transport": "platform", "shelter": "no", "source:name:oc": "ieo-bdtopoc"}}, {"type": "node", "id": 1429310307, "lat": 43.2306474, "lon": 5.4142204, "tags": {"bus": "yes", "name": "Baumettes Rimbaud", "name:oc": "Baumetas - Rimbaud", "public_transport": "stop_position", "source:name:oc": "ieo-bdtopoc"}}, {"type": "node", "id": 1450692381, "lat": 43.246059, "lon": 5.3985185, "tags": {"bench": "no", "bin": "yes", "bus": "yes", "highway": "bus_stop", "name": "Barqui\u00e8re Martheline", "name:oc": "Barquiera - Martelina", "public_transport": "platform", "shelter": "no", "source:name:oc": "ieo-bdtopoc", "tactile_paving": "yes"}}, {"type": "node", "id": 1450692382, "lat": 43.2461158, "lon": 5.3987073, "tags": {"bus": "yes", "name": "Barqui\u00e8re Martheline", "name:oc": "Barquiera - Martelina", "public_transport": "stop_position", "source:name:oc": "ieo-bdtopoc"}}, {"type": "node", "id": 1450692383, "lat": 43.2409363, "lon": 5.3970444, "tags": {"bench": "yes", "bin": "no", "bus": "yes", "highway": "bus_stop", "name": "Coll\u00e8ge Roy d'Espagne", "name:oc": "Collegi Dau R\u00e8i d\u2019Espanha", "public_transport": "platform", "shelter": "yes", "source:name:oc": "ieo-bdtopoc"}}, {"type": "node", "id": 1450692384, "lat": 43.2409552, "lon": 5.3971328, "tags": {"bus": "yes", "name": "Coll\u00e8ge Roy d'Espagne", "name:oc": "Collegi Dau R\u00e8i d\u2019Espanha", "operator": "RTM", "public_transport": "stop_position", "source:name:oc": "ieo-bdtopoc"}}, {"type": "node", "id": 1450692388, "lat": 43.2413011, "lon": 5.3971534, "tags": {"bus": "yes", "name": "Coll\u00e8ge Roy d'Espagne", "name:oc": "Collegi Dau R\u00e8i d\u2019Espanha", "public_transport": "stop_position", "source:name:oc": "ieo-bdtopoc"}}, {"type": "node", "id": 1450692389, "lat": 43.2413058, "lon": 5.3972268, "tags": {"bench": "yes", "bin": "no", "bus": "yes", "highway": "bus_stop", "name": "Coll\u00e8ge Roy d'Espagne", "name:oc": "Collegi Dau R\u00e8i d\u2019Espanha", "public_transport": "platform", "shelter": "yes", "source:name:oc": "ieo-bdtopoc"}}, {"type": "node", "id": 1450692390, "lat": 43.2405385, "lon": 5.4010738, "tags": {"bus": "yes", "name": "Oc\u00e9an Pistou", "name:oc": "Ocean - Pisto", "public_transport": "stop_position", "source:name:oc": "ieo-bdtopoc"}}, {"type": "node", "id": 1450692391, "lat": 43.240735, "lon": 5.4021192, "tags": {"bus": "yes", "name": "Oc\u00e9an Pistou", "name:oc": "Ocean - Pisto", "public_transport": "stop_position", "source:name:oc": "ieo-bdtopoc"}}, {"type": "node", "id": 1450692392, "lat": 43.2411436, "lon": 5.3991008, "tags": {"bench": "yes", "bus": "yes", "highway": "bus_stop", "lit": "yes", "name": "Oc\u00e9an R\u00e9attu", "name:oc": "Occean - Reatu", "public_transport": "platform", "shelter": "yes", "source:name:oc": "ieo-bdtopoc"}}, {"type": "node", "id": 1450692393, "lat": 43.2411861, "lon": 5.3991521, "tags": {"bus": "yes", "name": "Oc\u00e9an R\u00e9attu", "name:oc": "Occean - Reatu", "public_transport": "stop_position", "source:name:oc": "ieo-bdtopoc"}}, {"type": "node", "id": 1450692394, "lat": 43.241399, "lon": 5.3987534, "tags": {"bus": "yes", "name": "Oc\u00e9an R\u00e9attu", "name:oc": "Occean - Reatu", "public_transport": "stop_position", "source:name:oc": "ieo-bdtopoc"}}, {"type": "node", "id": 1450692395, "lat": 43.241443, "lon": 5.3987973, "tags": {"bench": "no", "bin": "no", "bus": "yes", "highway": "bus_stop", "lit": "yes", "name": "Oc\u00e9an R\u00e9attu", "name:oc": "Occean - Reatu", "public_transport": "platform", "shelter": "no", "source:name:oc": "ieo-bdtopoc"}}, {"type": "node", "id": 1450692396, "lat": 43.2422435, "lon": 5.4031584, "tags": {"bench": "no", "bin": "no", "bus": "yes", "highway": "bus_stop", "lit": "yes", "name": "Soude Pom\u00e9on", "name:oc": "Souda - Pomeon", "public_transport": "platform", "shelter": "no", "source:name:oc": "ieo-bdtopoc", "tactile_paving": "no"}}, {"type": "node", "id": 1450692397, "lat": 43.2444559, "lon": 5.3999976, "tags": {"bench": "no", "bus": "yes", "highway": "bus_stop", "name": "Soude R\u00e9ginensi", "name:oc": "Souda - Reginensi", "public_transport": "platform", "shelter": "no", "source:name:oc": "ieo-bdtopoc"}}, {"type": "node", "id": 1450692398, "lat": 43.2445082, "lon": 5.3999768, "tags": {"bus": "yes", "name": "Soude R\u00e9ginensi", "name:oc": "Souda - Reginensi", "public_transport": "stop_position", "source:name:oc": "ieo-bdtopoc"}}, {"type": "node", "id": 1451045915, "lat": 43.2292403, "lon": 5.4015294, "tags": {"bus": "yes", "name": "Sormiou Cayolle", "name:oc": "Sormiu - Calh\u00f2la", "public_transport": "stop_position", "source:name:oc": "ieo-bdtopoc"}}, {"type": "node", "id": 1451045917, "lat": 43.2327237, "lon": 5.4000504, "tags": {"bus": "yes", "name": "CC Sormiou", "name:oc": "CC Sormiu", "public_transport": "stop_position", "source:name:oc": "ieo-bdtopoc"}}, {"type": "node", "id": 1451045918, "lat": 43.2303061, "lon": 5.4010228, "tags": {"bus": "yes", "name": "Sormiou Cayolle", "name:oc": "Sormiu - Calh\u00f2la", "public_transport": "stop_position", "source:name:oc": "ieo-bdtopoc"}}, {"type": "node", "id": 1452951580, "lat": 43.2449909, "lon": 5.4281415, "tags": {"bench": "yes", "bin": "yes", "bus": "yes", "highway": "bus_stop", "lit": "yes", "name": "Le Redon", "name:oc": "Lo Redon", "public_transport": "platform", "ref": "24;24T;M8", "shelter": "yes", "source:name:oc": "ieo-bdtopoc", "tactile_paving": "yes", "wheelchair": "yes"}}, {"type": "node", "id": 1452951596, "lat": 43.2448159, "lon": 5.4268293, "tags": {"bench": "yes", "bin": "yes", "bus": "yes", "highway": "bus_stop", "lit": "yes", "name": "Le Redon", "name:oc": "Lo Redon", "public_transport": "platform", "ref": "B1;521", "shelter": "yes", "source": "survey 2018-09-13", "source:name:oc": "ieo-bdtopoc", "tactile_paving": "yes", "wheelchair": "yes"}}, {"type": "node", "id": 1452951623, "lat": 43.2451616, "lon": 5.4242865, "tags": {"bench": "yes", "bin": "yes", "bus": "yes", "highway": "bus_stop", "lit": "yes", "name": "R\u00e9sidence Valmont Redon", "name:oc": "Resid\u00e9ncia Valmont - Redon", "public_transport": "platform", "shelter": "yes", "source": "survey 2018-09-13", "source:name:oc": "ieo-bdtopoc", "tactile_paving": "yes", "wheelchair": "yes"}}, {"type": "node", "id": 1452951640, "lat": 43.2455454, "lon": 5.4233297, "tags": {"bench": "yes", "bin": "yes", "bus": "yes", "highway": "bus_stop", "lit": "yes", "name": "R\u00e9sidence Valmont Redon", "name:oc": "Resid\u00e9ncia Valmont - Redon", "public_transport": "platform", "shelter": "yes", "source": "survey 2018-09-13", "source:name:oc": "ieo-bdtopoc", "tactile_paving": "yes", "wheelchair": "yes"}}, {"type": "node", "id": 1452951649, "lat": 43.2426832, "lon": 5.4381103, "tags": {"bench": "no", "bin": "no", "bus": "yes", "highway": "bus_stop", "lit": "yes", "name": "HLM de Luminy", "name:oc": "HLM de Luminie", "public_transport": "platform", "shelter": "no", "source": "survey 2018-09-06", "source:name:oc": "ieo-bdtopoc", "tactile_paving": "yes", "wheelchair": "yes"}}, {"type": "node", "id": 1452951655, "lat": 43.2426831, "lon": 5.438181, "tags": {"bus": "yes", "name": "HLM de Luminy", "name:oc": "HLM de Lumini", "public_transport": "stop_position", "source:name:oc": "ieo-bdtopoc"}}, {"type": "node", "id": 1452951659, "lat": 43.2431095, "lon": 5.4382235, "tags": {"bench": "yes", "bin": "yes", "bus": "yes", "highway": "bus_stop", "lit": "yes", "name": "HLM de Luminy", "name:oc": "HLM de Luminie", "public_transport": "platform", "shelter": "yes", "source": "survey 2018-09-06", "source:name:oc": "ieo-bdtopoc", "tactile_paving": "yes", "wheelchair": "yes"}}, {"type": "node", "id": 1452951665, "lat": 43.2462681, "lon": 5.4323963, "tags": {"bench": "yes", "bin": "no", "bus": "yes", "highway": "bus_stop", "lit": "yes", "name": "Lachamp Le Clos des Iris", "name:oc": "Lacamp - Lo Claus dei Glaujas", "public_transport": "platform", "shelter": "no", "source": "survey 2018-09-13", "tactile_paving": "yes", "wheelchair": "yes"}}, {"type": "node", "id": 1452951669, "lat": 43.246358, "lon": 5.4319648, "tags": {"bench": "yes", "bin": "yes", "bus": "yes", "check_date:shelter": "2023-06-09", "highway": "bus_stop", "lit": "yes", "name": "Lachamp Le Clos des Iris", "name:oc": "Lacamp - Lo Claus dei Glaujas", "public_transport": "platform", "shelter": "yes", "source": "survey 2018-09-13", "source:name:oc": "ieo-bdtopoc", "tactile_paving": "yes", "wheelchair": "yes"}}, {"type": "node", "id": 1452951679, "lat": 43.2462929, "lon": 5.4323973, "tags": {"bus": "yes", "name": "Lachamp Le Clos des Iris", "name:oc": "Lacamp - Lo Claus dei Glaujas", "public_transport": "stop_position", "source:name:oc": "ieo-bdtopoc"}}, {"type": "node", "id": 1452951682, "lat": 43.2374197, "lon": 5.4356345, "tags": {"bench": "no", "bin": "no", "bus": "yes", "highway": "bus_stop", "name": "Luminy Complexe Sportif", "name:oc": "Lumini - Compl\u00e8x Esportiu", "public_transport": "platform", "shelter": "no", "source": "survey 2018-09-06", "source:name:oc": "ieo-bdtopoc", "tactile_paving": "yes", "wheelchair": "yes"}}, {"type": "node", "id": 1452951695, "lat": 43.2462696, "lon": 5.4357604, "tags": {"name": "Luminy Vaufr\u00e8ges", "name:oc": "Lumini - Vau Freja", "network": "RTM", "operator": "R\u00e9gie des Transports Marseillais", "public_transport": "pole"}}, {"type": "node", "id": 1452951709, "lat": 43.2463252, "lon": 5.4363568, "tags": {"bus": "yes", "name": "Luminy Lachamp", "name:oc": "Lumini - Lachamp", "public_transport": "stop_position", "source:name:oc": "ieo-bdtopoc"}}, {"type": "node", "id": 1452951741, "lat": 43.2454847, "lon": 5.4113178, "tags": {"bus": "yes", "name": "Tomasi", "name:oc": "Tomasi", "public_transport": "stop_position", "source:name:oc": "ieo-bdtopoc"}}, {"type": "node", "id": 1452951750, "lat": 43.2455641, "lon": 5.4114134, "tags": {"bench": "yes", "bin": "yes", "bus": "yes", "highway": "bus_stop", "lit": "yes", "name": "Tomasi", "name:oc": "Tomasi", "public_transport": "platform", "shelter": "yes", "source": "survey 2018-09-13", "source:name:oc": "ieo-bdtopoc", "tactile_paving": "yes", "wheelchair": "yes"}}, {"type": "node", "id": 1452951755, "lat": 43.2478561, "lon": 5.4063513, "tags": {"bench": "yes", "bin": "yes", "bus": "yes", "highway": "bus_stop", "name": "Sainte-Trinit\u00e9", "name:oc": "Santa Trinitat", "public_transport": "platform", "shelter": "yes", "source": "survey 2018-09-13", "source:name:oc": "ieo-bdtopoc", "tactile_paving": "yes", "wheelchair": "yes"}}, {"type": "node", "id": 1452951766, "lat": 43.2478965, "lon": 5.4065287, "tags": {"bench": "yes", "bus": "yes", "highway": "bus_stop", "name": "Sainte-Trinit\u00e9", "name:oc": "Santa Trinitat", "public_transport": "platform", "shelter": "yes", "source": "survey 2018-09-13", "source:name:oc": "ieo-bdtopoc", "tactile_paving": "yes", "wheelchair": "yes"}}, {"type": "node", "id": 1452951778, "lat": 43.2458134, "lon": 5.4166054, "tags": {"bus": "yes", "name": "Centre Commercial Valmante", "name:oc": "Centre Comerciau Valmanta", "public_transport": "stop_position", "source:name:oc": "ieo-bdtopoc", "survey:date": "2023-06-08"}}, {"type": "node", "id": 1452951782, "lat": 43.2458124, "lon": 5.415798, "tags": {"bench": "yes", "bin": "yes", "bus": "yes", "check_date:shelter": "2023-08-31", "highway": "bus_stop", "lit": "yes", "name": "Centre Commercial Valmante", "name:oc": "Centre Comerciau Valmanta", "public_transport": "platform", "shelter": "yes", "source": "survey 2018-09-13", "source:name:oc": "ieo-bdtopoc", "tactile_paving": "yes", "wheelchair": "yes"}}, {"type": "node", "id": 1492452516, "lat": 43.2415204, "lon": 5.396483, "tags": {"bench": "no", "bus": "yes", "highway": "bus_stop", "name": "Coll\u00e8ge Roy d'Espagne", "name:oc": "Collegi Dau R\u00e8i d\u2019Espanha", "public_transport": "platform", "shelter": "no", "source:name:oc": "ieo-bdtopoc"}}, {"type": "node", "id": 1492452519, "lat": 43.2416135, "lon": 5.3961961, "tags": {"bench": "yes", "bin": "yes", "bus": "yes", "departures_board": "timetable", "highway": "bus_stop", "name": "Coll\u00e8ge Roy d'Espagne", "name:oc": "Collegi Dau R\u00e8i d\u2019Espanha", "public_transport": "platform", "shelter": "yes", "source:name:oc": "ieo-bdtopoc"}}, {"type": "node", "id": 1492452520, "lat": 43.2434226, "lon": 5.3921946, "tags": {"bench": "yes", "bus": "yes", "highway": "bus_stop", "name": "Floralia Le M\u00e9e", "name:oc": "Floraria - Lo Mea", "public_transport": "platform", "shelter": "yes", "source:name:oc": "ieo-bdtopoc"}}, {"type": "node", "id": 1492452521, "lat": 43.2426427, "lon": 5.3926453, "tags": {"bench": "no", "bin": "yes", "bus": "yes", "highway": "bus_stop", "name": "Floralia Rimet", "name:oc": "Floralia - Rimet", "public_transport": "platform", "shelter": "no", "source:name:oc": "ieo-bdtopoc"}}, {"type": "node", "id": 1492452522, "lat": 43.2427101, "lon": 5.3926591, "tags": {"bus": "yes", "name": "Floralia Rimet", "name:oc": "Floralia - Rimet", "public_transport": "stop_position", "source:name:oc": "ieo-bdtopoc"}}, {"type": "node", "id": 1492452523, "lat": 43.2412429, "lon": 5.3944049, "tags": {"bench": "no", "bus": "yes", "highway": "bus_stop", "name": "Floralia", "name:oc": "Floralia", "public_transport": "platform", "shelter": "no", "source:name:oc": "ieo-bdtopoc"}}, {"type": "node", "id": 1492452524, "lat": 43.2413528, "lon": 5.3943548, "tags": {"bench": "yes", "bus": "yes", "highway": "bus_stop", "name": "Floralia", "name:oc": "Floralia", "public_transport": "platform", "shelter": "yes", "source:name:oc": "ieo-bdtopoc"}}, {"type": "node", "id": 1661418224, "lat": 43.2341012, "lon": 5.4088639, "tags": {"bench": "no", "bus": "yes", "highway": "bus_stop", "name": "Colgate Algelasto", "name:oc": "Colgate - Algelasto", "public_transport": "platform", "shelter": "no", "source:name:oc": "ieo-bdtopoc"}}, {"type": "node", "id": 1696622324, "lat": 43.2314104, "lon": 5.4372039, "tags": {"bench": "no", "bin": "yes", "bus": "yes", "highway": "bus_stop", "lit": "yes", "name": "Luminy Parc National des Calanques", "name:oc": "Lumini - Pargue Nacionau dei Calancas", "public_transport": "platform", "shelter": "no", "source:name:oc": "ieo-bdtopoc", "tactile_paving": "yes", "wheelchair": "yes"}}, {"type": "node", "id": 1714070543, "lat": 43.2460155, "lon": 5.3986151, "tags": {"bus": "yes", "name": "Barqui\u00e8re Martheline", "name:oc": "Barquiera - Martelina", "public_transport": "stop_position", "source:name:oc": "ieo-bdtopoc"}}, {"type": "node", "id": 1768566935, "lat": 43.2457499, "lon": 5.3937761, "tags": {"bench": "yes", "bus": "yes", "highway": "bus_stop", "name": "Zenatti Lyc\u00e9e", "name:oc": "Zenatti - Lic\u00e8u", "public_transport": "platform", "shelter": "yes", "source:name:oc": "ieo-bdtopoc"}}, {"type": "node", "id": 1768566936, "lat": 43.2458789, "lon": 5.3925645, "tags": {"bench": "yes", "bus": "yes", "highway": "bus_stop", "name": "Zenatti Lyc\u00e9e", "name:oc": "Zenatti - Lic\u00e8u", "public_transport": "platform", "shelter": "yes", "source:name:oc": "ieo-bdtopoc"}}, {"type": "node", "id": 1768642942, "lat": 43.2340204, "lon": 5.4089941, "tags": {"bench": "no", "bus": "yes", "highway": "bus_stop", "name": "Colgate Algelasto", "name:oc": "Colgate - Algelasto", "public_transport": "platform", "shelter": "no", "source:name:oc": "ieo-bdtopoc"}}, {"type": "node", "id": 1768642952, "lat": 43.2340685, "lon": 5.408924, "tags": {"bus": "yes", "name": "Colgate Algelasto", "name:oc": "Colgate - Algelasto", "public_transport": "stop_position", "source:name:oc": "ieo-bdtopoc"}}, {"type": "node", "id": 1768642961, "lat": 43.2319841, "lon": 5.4023903, "tags": {"bench": "no", "bus": "yes", "highway": "bus_stop", "name": "Terrasses de Sormiou", "name:oc": "Terrassas de Sormiu", "public_transport": "platform", "shelter": "no", "source:name:oc": "ieo-bdtopoc", "tactile_paving": "yes", "wheelchair": "yes"}}, {"type": "node", "id": 1768642967, "lat": 43.2320577, "lon": 5.4023071, "tags": {"bench": "yes", "bus": "yes", "highway": "bus_stop", "name": "Terrasses de Sormiou", "name:oc": "Terrassas de Sormiu", "public_transport": "platform", "shelter": "yes", "source:name:oc": "ieo-bdtopoc", "tactile_paving": "yes", "wheelchair": "yes"}}, {"type": "node", "id": 1768642982, "lat": 43.2331026, "lon": 5.4052032, "tags": {"bus": "yes", "name": "Colgate Valette", "name:oc": "Colgate - Valeta", "public_transport": "stop_position", "source:name:oc": "ieo-bdtopoc"}}, {"type": "node", "id": 1768642989, "lat": 43.233125, "lon": 5.4051397, "tags": {"bench": "yes", "bus": "yes", "highway": "bus_stop", "name": "Colgate Valette", "name:oc": "Colgate - Valeta", "public_transport": "platform", "shelter": "yes", "source:name:oc": "ieo-bdtopoc", "tactile_paving": "yes", "wheelchair": "yes"}}, {"type": "node", "id": 1768642998, "lat": 43.2335008, "lon": 5.4059856, "tags": {"bench": "no", "bus": "yes", "highway": "bus_stop", "name": "Colgate Valette", "name:oc": "Colgate - Valeta", "public_transport": "platform", "shelter": "no", "source:name:oc": "ieo-bdtopoc"}}, {"type": "node", "id": 1768643005, "lat": 43.2335287, "lon": 5.4059675, "tags": {"bus": "yes", "name": "Colgate Valette", "name:oc": "Colgate - Valeta", "public_transport": "stop_position", "source:name:oc": "ieo-bdtopoc"}}, {"type": "node", "id": 1768643009, "lat": 43.2343368, "lon": 5.3992254, "tags": {"bench": "no", "bus": "yes", "highway": "bus_stop", "name": "Sormiou Jarre", "name:oc": "Sormiu - Jarra", "public_transport": "platform", "shelter": "no", "source:name:oc": "ieo-bdtopoc", "tactile_paving": "yes", "wheelchair": "yes"}}, {"type": "node", "id": 1768643019, "lat": 43.2349976, "lon": 5.3992766, "tags": {"bench": "yes", "bin": "yes", "bus": "yes", "highway": "bus_stop", "name": "Sormiou Croisa", "name:oc": "Sormiu - Croisa", "public_transport": "platform", "shelter": "yes", "source:name:oc": "ieo-bdtopoc", "tactile_paving": "yes", "wheelchair": "yes"}}, {"type": "node", "id": 1768643026, "lat": 43.2360092, "lon": 5.398878, "tags": {"bench": "no", "bus": "yes", "highway": "bus_stop", "name": "Sormiou Roy d'Espagne", "name:oc": "Sormiu - R\u00e8i d\u2019Espanha", "public_transport": "platform", "shelter": "no", "source:name:oc": "ieo-bdtopoc"}}, {"type": "node", "id": 1768643034, "lat": 43.2360169, "lon": 5.3989359, "tags": {"bus": "yes", "name": "Sormiou Roy d'Espagne", "name:oc": "Sormiu - R\u00e8i d\u2019Espanha", "public_transport": "stop_position", "source:name:oc": "ieo-bdtopoc"}}, {"type": "node", "id": 1768643040, "lat": 43.2365743, "lon": 5.3990376, "tags": {"bench": "no", "bin": "yes", "bus": "yes", "highway": "bus_stop", "name": "Sormiou Roy d'Espagne", "name:oc": "Sormiu - R\u00e8i d\u2019Espanha", "public_transport": "platform", "shelter": "no", "source:name:oc": "ieo-bdtopoc"}}, {"type": "node", "id": 1781534072, "lat": 43.2576809, "lon": 5.3971912, "tags": {"bus": "yes", "name": "Isaac Luce", "name:oc": "Ishaq - L\u00facia", "public_transport": "stop_position", "source:name:oc": "ieo-bdtopoc"}}, {"type": "node", "id": 1781534073, "lat": 43.2580416, "lon": 5.3967573, "tags": {"bus": "yes", "name": "Luce Isaac", "name:oc": "L\u00facia - Ishaq", "public_transport": "stop_position", "source:name:oc": "ieo-bdtopoc"}}, {"type": "node", "id": 1781534075, "lat": 43.2585192, "lon": 5.3985232, "tags": {"bench": "no", "bus": "yes", "highway": "bus_stop", "name": "Luce Michelet", "name:oc": "L\u00facia - Michelet", "public_transport": "platform", "shelter": "no", "source:name:oc": "ieo-bdtopoc"}}, {"type": "node", "id": 1781534076, "lat": 43.258541, "lon": 5.3984315, "tags": {"bus": "yes", "name": "Luce Michelet", "name:oc": "L\u00facia - Michelet", "public_transport": "stop_position", "source:name:oc": "ieo-bdtopoc"}}, {"type": "node", "id": 1781534077, "lat": 43.2566723, "lon": 5.3945936, "tags": {"bus": "yes", "name": "Sainte-Anne", "name:oc": "Santa Anna", "public_transport": "stop_position", "source:name:oc": "ieo-bdtopoc"}}, {"type": "node", "id": 1781549781, "lat": 43.246008, "lon": 5.4040948, "tags": {"bench": "yes", "bus": "yes", "highway": "bus_stop", "name": "Mazargues", "name:oc": "Marsangues", "public_transport": "platform", "shelter": "yes", "source:name:oc": "ieo-bdtopoc"}}, {"type": "node", "id": 1781549784, "lat": 43.2460118, "lon": 5.4038407, "tags": {"bench": "no", "bus": "yes", "highway": "bus_stop", "name": "Mazargues", "name:oc": "Marsangues", "public_transport": "platform", "shelter": "no", "source:name:oc": "ieo-bdtopoc"}}, {"type": "node", "id": 1781549785, "lat": 43.246032, "lon": 5.4038584, "tags": {"bus": "yes", "name": "Mazargues", "name:oc": "Marzaneges", "public_transport": "stop_position", "source:name:oc": "ieo-bdtopoc"}}, {"type": "node", "id": 1781549798, "lat": 43.2460422, "lon": 5.4040182, "tags": {"bus": "yes", "name": "Mazargues", "name:oc": "Marsangues", "public_transport": "stop_position", "source:name:oc": "ieo-bdtopoc"}}, {"type": "node", "id": 1781549812, "lat": 43.2428512, "lon": 5.4063012, "tags": {"bench": "no", "bus": "yes", "highway": "bus_stop", "name": "Morgiou Seigneurie", "name:oc": "Morgiu - Senhori\u00e1", "public_transport": "platform", "shelter": "no", "source:name:oc": "ieo-bdtopoc"}}, {"type": "node", "id": 1781549817, "lat": 43.2471246, "lon": 5.401458, "tags": {"bench": "no", "bin": "no", "bus": "yes", "highway": "bus_stop", "name": "Robespierre", "name:oc": "Robespierre", "public_transport": "platform", "shelter": "no", "source:name:oc": "ieo-bdtopoc", "tactile_paving": "yes"}}, {"type": "node", "id": 1781549819, "lat": 43.2471428, "lon": 5.4014745, "tags": {"bus": "yes", "name": "Robespierre", "name:oc": "Robespierre", "operator": "RTM", "public_transport": "stop_position"}}, {"type": "node", "id": 1781549832, "lat": 43.2480968, "lon": 5.4011801, "tags": {"bus": "yes", "name": "Robespierre", "name:oc": "Robespierre", "operator": "RTM", "public_transport": "stop_position", "source:name:oc": "ieo-bdtopoc"}}, {"type": "node", "id": 1781549836, "lat": 43.2481207, "lon": 5.4012019, "tags": {"bench": "no", "bus": "yes", "check_date:shelter": "2024-08-08", "highway": "bus_stop", "name": "Robespierre", "name:oc": "Robespierre", "public_transport": "platform", "shelter": "no", "source:name:oc": "ieo-bdtopoc", "tactile_paving": "no"}}, {"type": "node", "id": 1781572464, "lat": 43.240446, "lon": 5.4070387, "tags": {"bus": "yes", "name": "Morgiou Rosiers", "name:oc": "Morgiu - Rosiers", "public_transport": "stop_position", "source:name:oc": "ieo-bdtopoc"}}, {"type": "node", "id": 1781572466, "lat": 43.240661, "lon": 5.4069796, "tags": {"bus": "yes", "name": "Morgiou Rosiers", "name:oc": "Morgiu - Rosiers", "public_transport": "stop_position", "source:name:oc": "ieo-bdtopoc"}}, {"type": "node", "id": 1781579967, "lat": 43.2392186, "lon": 5.4142823, "tags": {"bench": "no", "bus": "yes", "highway": "bus_stop", "name": "La Seigneurie", "name:oc": "La Senhori\u00e1", "public_transport": "platform", "shelter": "no", "source:name:oc": "ieo-bdtopoc"}}, {"type": "node", "id": 1781579968, "lat": 43.2393131, "lon": 5.4143533, "tags": {"bench": "no", "bus": "yes", "highway": "bus_stop", "name": "La Seigneurie", "name:oc": "La Senhori\u00e1", "public_transport": "platform", "shelter": "no", "source:name:oc": "ieo-bdtopoc"}}, {"type": "node", "id": 1781579969, "lat": 43.2374923, "lon": 5.4090474, "tags": {"bench": "no", "bin": "yes", "bus": "yes", "highway": "bus_stop", "name": "Morgiou Cauvi\u00e8re", "name:oc": "Morgiu - Cauvi\u00e8ra", "public_transport": "platform", "shelter": "no", "source:name:oc": "ieo-bdtopoc"}}, {"type": "node", "id": 1781579971, "lat": 43.2375603, "lon": 5.4088112, "tags": {"bench": "no", "bin": "no", "bus": "yes", "highway": "bus_stop", "name": "Morgiou Cauvi\u00e8re", "name:oc": "Morgiu - Cauvi\u00e8ra", "public_transport": "platform", "shelter": "no", "source:name:oc": "ieo-bdtopoc"}}, {"type": "node", "id": 1781579972, "lat": 43.237582, "lon": 5.4089016, "tags": {"bus": "yes", "name": "Morgiou Cauvi\u00e8re", "name:oc": "Morgiu - Cauvi\u00e8ra", "public_transport": "stop_position", "source:name:oc": "ieo-bdtopoc"}}, {"type": "node", "id": 1781579973, "lat": 43.2403555, "lon": 5.406985, "tags": {"bench": "no", "bin": "no", "bus": "yes", "highway": "bus_stop", "name": "Morgiou Rosiers", "name:oc": "Morgiu - Rosiers", "public_transport": "platform", "shelter": "no", "source:name:oc": "ieo-bdtopoc"}}, {"type": "node", "id": 1781579974, "lat": 43.2406753, "lon": 5.4070774, "tags": {"bench": "yes", "bin": "yes", "bus": "yes", "highway": "bus_stop", "name": "Morgiou Rosiers", "name:oc": "Morgiu - Rosiers", "public_transport": "platform", "shelter": "yes", "source:name:oc": "ieo-bdtopoc", "tactile_paving": "yes"}}, {"type": "node", "id": 1781579976, "lat": 43.2358339, "lon": 5.4103964, "tags": {"bus": "yes", "name": "Morgiou Vert Plan", "name:oc": "Morgiu - Plan V\u00e8rd", "public_transport": "stop_position", "source:name:oc": "ieo-bdtopoc"}}, {"type": "node", "id": 1781579977, "lat": 43.2358737, "lon": 5.4104581, "tags": {"bench": "no", "bin": "yes", "bus": "yes", "highway": "bus_stop", "name": "Morgiou Vert Plan", "name:oc": "Morgiu - Plan V\u00e8rd", "public_transport": "platform", "shelter": "no", "source:name:oc": "ieo-bdtopoc"}}, {"type": "node", "id": 1781579978, "lat": 43.2360321, "lon": 5.4100969, "tags": {"bench": "no", "bin": "yes", "bus": "yes", "highway": "bus_stop", "name": "Morgiou Vert Plan", "name:oc": "Morgiu - Plan V\u00e8rd", "public_transport": "platform", "shelter": "no", "source:name:oc": "ieo-bdtopoc", "tactile_paving": "no"}}, {"type": "node", "id": 1781579979, "lat": 43.2360662, "lon": 5.4101676, "tags": {"bus": "yes", "name": "Morgiou Vert Plan", "name:oc": "Morgiu - Plan V\u00e8rd", "public_transport": "stop_position", "source:name:oc": "ieo-bdtopoc"}}, {"type": "node", "id": 1781579981, "lat": 43.2353056, "lon": 5.4129946, "tags": {"bus": "yes", "name": "Rabat Beauvallon", "name:oc": "Rabat - Beuvalon", "public_transport": "stop_position", "source:name:oc": "ieo-bdtopoc"}}, {"type": "node", "id": 1781579982, "lat": 43.2353511, "lon": 5.4129321, "tags": {"bench": "no", "bus": "yes", "highway": "bus_stop", "name": "Rabat Beauvallon", "name:oc": "Rabat - Beuvalon", "public_transport": "platform", "shelter": "no", "source:name:oc": "ieo-bdtopoc"}}, {"type": "node", "id": 1781579983, "lat": 43.2354035, "lon": 5.41317, "tags": {"bench": "no", "bus": "yes", "highway": "bus_stop", "name": "Rabat Beauvallon", "name:oc": "Rabat - Beuvalon", "public_transport": "platform", "shelter": "no", "source:name:oc": "ieo-bdtopoc"}}, {"type": "node", "id": 1781579984, "lat": 43.2354291, "lon": 5.413129, "tags": {"bus": "yes", "name": "Rabat Beauvallon", "name:oc": "Rabat - Beuvalon", "public_transport": "stop_position", "source:name:oc": "ieo-bdtopoc"}}, {"type": "node", "id": 1781579985, "lat": 43.2371578, "lon": 5.4133204, "tags": {"bus": "yes", "name": "Rabat Seigneurie", "name:oc": "Rabat - Senhori\u00e1", "public_transport": "stop_position", "source:name:oc": "ieo-bdtopoc"}}, {"type": "node", "id": 1781579987, "lat": 43.237161, "lon": 5.4133855, "tags": {"bench": "no", "bus": "yes", "highway": "bus_stop", "name": "Rabat Seigneurie", "name:oc": "Rabat - Senhori\u00e1", "public_transport": "platform", "shelter": "no", "source:name:oc": "ieo-bdtopoc"}}, {"type": "node", "id": 1781579988, "lat": 43.2375863, "lon": 5.4132977, "tags": {"bus": "yes", "name": "Rabat Seigneurie", "name:oc": "Rabat - Senhori\u00e1", "public_transport": "stop_position", "source:name:oc": "ieo-bdtopoc"}}, {"type": "node", "id": 1781579989, "lat": 43.2376135, "lon": 5.4132281, "tags": {"bench": "yes", "bus": "yes", "highway": "bus_stop", "name": "Rabat Seigneurie", "name:oc": "Rabat - Senhori\u00e1", "public_transport": "platform", "shelter": "yes", "source:name:oc": "ieo-bdtopoc"}}, {"type": "node", "id": 1827904968, "lat": 43.256631, "lon": 5.4194603, "tags": {"bus": "yes", "name": "Le Redon La Panouse", "name:oc": "Lo Redon - La Panosa", "public_transport": "stop_position", "source:name:oc": "ieo-bdtopoc"}}, {"type": "node", "id": 1969809320, "lat": 43.2314514, "lon": 5.4371911, "tags": {"bus": "yes", "name": "Luminy Parc National des Calanques", "name:oc": "Lumini - Pargue Nacionau dei Calancas", "public_transport": "stop_position", "source:name:oc": "ieo-bdtopoc"}}, {"type": "node", "id": 2059728434, "lat": 43.2422631, "lon": 5.4031924, "tags": {"bus": "yes", "name": "Soude Pom\u00e9on", "name:oc": "Souda - Pomeon", "public_transport": "stop_position", "source:name:oc": "ieo-bdtopoc"}}, {"type": "node", "id": 2113358543, "lat": 43.2478854, "lon": 5.4064642, "tags": {"bus": "yes", "name": "Sainte-Trinit\u00e9", "name:oc": "Santa Trinitat", "public_transport": "stop_position", "source:name:oc": "ieo-bdtopoc"}}, {"type": "node", "id": 2269499295, "lat": 43.2589417, "lon": 5.4029543, "tags": {"bench": "yes", "bin": "no", "bus": "yes", "highway": "bus_stop", "lit": "yes", "name": "Aiguier Trioulet", "name:oc": "Aiguier - Triolet", "public_transport": "platform", "shelter": "yes", "source": "opendata.regionpaca.fr", "source:name:oc": "ieo-bdtopoc", "tactile_paving": "no"}}, {"type": "node", "id": 2269499296, "lat": 43.2593733, "lon": 5.4025273, "tags": {"bench": "no", "bin": "yes", "bus": "yes", "highway": "bus_stop", "lit": "yes", "name": "Aiguier Trioulet", "name:oc": "Aiguier - Triolet", "public_transport": "platform", "shelter": "no", "source": "opendata.regionpaca.fr", "tactile_paving": "no"}}, {"type": "node", "id": 2396680490, "lat": 43.2543823, "lon": 5.4207283, "tags": {"bus": "yes", "name": "All\u00e9e des Pins", "name:oc": "Andana dei Pins", "public_transport": "stop_position", "source:name:oc": "ieo-bdtopoc"}}, {"type": "node", "id": 2396680491, "lat": 43.2545648, "lon": 5.4204526, "tags": {"bus": "yes", "name": "All\u00e9e des Pins", "name:oc": "Andana dei Pins", "public_transport": "stop_position", "source:name:oc": "ieo-bdtopoc"}}, {"type": "node", "id": 2396680501, "lat": 43.2586832, "lon": 5.4173097, "tags": {"bus": "yes", "name": "Le Cabot", "name:oc": "Lo Cab\u00f2t", "public_transport": "stop_position", "source:name:oc": "ieo-bdtopoc"}}, {"type": "node", "id": 2396680502, "lat": 43.2590576, "lon": 5.4169181, "tags": {"bus": "yes", "name": "Le Cabot", "name:oc": "Lo Cab\u00f2t", "public_transport": "stop_position", "source:name:oc": "ieo-bdtopoc"}}, {"type": "node", "id": 2396680512, "lat": 43.2567014, "lon": 5.419504, "tags": {"bus": "yes", "name": "Le Redon La Panouse", "name:oc": "Lo Redon - La Panosa", "public_transport": "stop_position", "source:name:oc": "ieo-bdtopoc"}}, {"type": "node", "id": 2397771170, "lat": 43.257855, "lon": 5.4034564, "tags": {"bench": "no", "bin": "no", "bus": "yes", "highway": "bus_stop", "lit": "yes", "name": "La Verdi\u00e8re", "name:oc": "fixme:Aiguier - Cantini", "public_transport": "platform", "shelter": "no", "source": "Marseille Provence M\u00e9tropole Open Data 2013", "source:name:oc": "ieo-bdtopoc", "tactile_paving": "no"}}, {"type": "node", "id": 2397771171, "lat": 43.2581337, "lon": 5.4034198, "tags": {"bench": "no", "bin": "no", "bus": "yes", "highway": "bus_stop", "lit": "yes", "name": "La Verdi\u00e8re", "name:oc": "fixme:Aiguier - Cantini", "public_transport": "platform", "shelter": "no", "source": "Marseille Provence M\u00e9tropole Open Data 2013", "source:name:oc": "ieo-bdtopoc", "tactile_paving": "no"}}, {"type": "node", "id": 2397771172, "lat": 43.2558962, "lon": 5.405406, "tags": {"bench": "no", "bin": "no", "bus": "yes", "highway": "bus_stop", "lit": "yes", "name": "Aiguier C.N.R.S.", "name:oc": "Aiguier - C.N.R.S.", "public_transport": "platform", "shelter": "no", "source": "Marseille Provence M\u00e9tropole Open Data 2013", "source:name:oc": "ieo-bdtopoc", "tactile_paving": "no"}}, {"type": "node", "id": 2397771173, "lat": 43.2561629, "lon": 5.4052583, "tags": {"bench": "no", "bin": "no", "bus": "yes", "highway": "bus_stop", "lit": "yes", "name": "Aiguier C.N.R.S.", "name:oc": "Aiguier - C.N.R.S.", "public_transport": "platform", "shelter": "no", "source": "Marseille Provence M\u00e9tropole Open Data 2013", "source:name:oc": "ieo-bdtopoc", "tactile_paving": "no"}}, {"type": "node", "id": 2397771174, "lat": 43.2508094, "lon": 5.4138619, "tags": {"bench": "no", "bus": "yes", "highway": "bus_stop", "name": "Aiguier CPCAM", "name:oc": "Aiguier - CPCAM", "public_transport": "platform", "shelter": "no", "source": "Marseille Provence M\u00e9tropole Open Data 2013", "source:name:oc": "ieo-bdtopoc"}}, {"type": "node", "id": 2397771175, "lat": 43.2508886, "lon": 5.4140946, "tags": {"bench": "yes", "bus": "yes", "highway": "bus_stop", "name": "Aiguier CPCAM", "name:oc": "Aiguier - CPCAM", "public_transport": "platform", "shelter": "yes", "source": "Marseille Provence M\u00e9tropole Open Data 2013", "source:name:oc": "ieo-bdtopoc"}}, {"type": "node", "id": 2397771176, "lat": 43.2529397, "lon": 5.4090414, "tags": {"bench": "no", "bin": "yes", "bus": "yes", "highway": "bus_stop", "name": "Aiguier Saint-Jacques", "name:oc": "Aiguier - Sant Jaume", "public_transport": "platform", "shelter": "no", "source": "Marseille Provence M\u00e9tropole Open Data 2013", "source:name:oc": "ieo-bdtopoc", "tactile_paving": "no"}}, {"type": "node", "id": 2397771179, "lat": 43.2534982, "lon": 5.4086089, "tags": {"bus": "yes", "highway": "bus_stop", "name": "Aiguier Saint-Jacques", "name:oc": "Aiguier - Sant Jaume", "public_transport": "platform", "shelter": "yes", "source": "Marseille Provence M\u00e9tropole Open Data 2013", "source:name:oc": "ieo-bdtopoc"}}, {"type": "node", "id": 2397771181, "lat": 43.2567006, "lon": 5.410763, "tags": {"bench": "yes", "bus": "yes", "highway": "bus_stop", "name": "La Gaye", "public_transport": "platform", "shelter": "yes", "source": "survey 2025-02-04"}}, {"type": "node", "id": 2397771184, "lat": 43.2531082, "lon": 5.4138079, "tags": {"bench": "no", "bus": "yes", "highway": "bus_stop", "name": "Chemin Colline Saint-Joseph", "name:oc": "Camin C\u00f2la de Sant Jos\u00e8p", "public_transport": "platform", "shelter": "no", "source": "Marseille Provence M\u00e9tropole Open Data 2013", "source:name:oc": "ieo-bdtopoc"}}, {"type": "node", "id": 2397771188, "lat": 43.253885, "lon": 5.4132154, "tags": {"bench": "yes", "bin": "no", "bus": "yes", "highway": "bus_stop", "lit": "yes", "name": "Chemin Colline Saint-Joseph", "name:oc": "Camin C\u00f2la de Sant Jos\u00e8p", "public_transport": "platform", "shelter": "yes", "source": "Marseille Provence M\u00e9tropole Open Data 2013", "source:name:oc": "ieo-bdtopoc", "tactile_paving": "no"}}, {"type": "node", "id": 2397771192, "lat": 43.2379058, "lon": 5.4322428, "tags": {"bus": "yes", "name": "Stade de Luminy", "name:oc": "Estadi de Lumini", "public_transport": "stop_position", "source": "Marseille Provence M\u00e9tropole Open Data 2013"}}, {"type": "node", "id": 2397771195, "lat": 43.2487466, "lon": 5.4406343, "tags": {"bus": "yes", "name": "Grands Pins", "name:oc": "Pin\u00e0s", "public_transport": "stop_position", "source": "Marseille Provence M\u00e9tropole Open Data 2013", "source:name:oc": "ieo-bdtopoc"}}, {"type": "node", "id": 2397771196, "lat": 43.2519982, "lon": 5.4111747, "tags": {"bench": "yes", "bin": "yes", "bus": "yes", "highway": "bus_stop", "lit": "yes", "name": "Hesp\u00e9rides Montval", "name:oc": "Esperidas - Montval", "public_transport": "platform", "shelter": "yes", "source": "Marseille Provence M\u00e9tropole Open Data 2013", "source:name:oc": "ieo-bdtopoc", "tactile_paving": "no"}}, {"type": "node", "id": 2397771197, "lat": 43.2519454, "lon": 5.4109708, "tags": {"bench": "no", "bin": "yes", "bus": "yes", "highway": "bus_stop", "lit": "no", "name": "Hesp\u00e9rides Montval", "name:oc": "Esperidas - Montval", "public_transport": "platform", "shelter": "no", "source": "Marseille Provence M\u00e9tropole Open Data 2013", "source:name:oc": "ieo-bdtopoc", "tactile_paving": "no"}}, {"type": "node", "id": 2397771201, "lat": 43.237886, "lon": 5.432252, "tags": {"bus": "yes", "name": "Stade de Luminy", "name:oc": "Estadi de Lumini", "public_transport": "stop_position", "source": "Marseille Provence M\u00e9tropole Open Data 2013", "source:name:oc": "ieo-bdtopoc"}}, {"type": "node", "id": 2397771203, "lat": 43.251409, "lon": 5.4149978, "tags": {"bench": "no", "bus": "yes", "description": "lignes 46-A/ 46S-A/ 48T-A/", "highway": "bus_stop", "name": "Saint-Joseph Aiguier", "name:oc": "Sant Jos\u00e8p - Aiguier", "public_transport": "platform", "shelter": "no", "source": "Marseille Provence M\u00e9tropole Open Data 2013", "source:name:oc": "ieo-bdtopoc"}}, {"type": "node", "id": 2397771204, "lat": 43.2521239, "lon": 5.4189743, "tags": {"bench": "yes", "bus": "yes", "highway": "bus_stop", "name": "Saint-Joseph Bon Pasteur", "name:oc": "Sant Jos\u00e8p - B\u00f2n Pastor", "public_transport": "platform", "shelter": "yes", "source": "Marseille Provence M\u00e9tropole Open Data 2013", "source:name:oc": "ieo-bdtopoc"}}, {"type": "node", "id": 2397771205, "lat": 43.252179, "lon": 5.4187781, "tags": {"bench": "yes", "bin": "yes", "bus": "yes", "highway": "bus_stop", "name": "Saint-Joseph Bon Pasteur", "name:oc": "Sant Jos\u00e8p - B\u00f2n Pastor", "public_transport": "platform", "shelter": "yes", "source": "Marseille Provence M\u00e9tropole Open Data 2013", "source:name:oc": "ieo-bdtopoc"}}, {"type": "node", "id": 2397771208, "lat": 43.2505202, "lon": 5.4167758, "tags": {"bench": "no", "bus": "yes", "highway": "bus_stop", "name": "Valmante", "name:oc": "Valmanta", "public_transport": "platform", "shelter": "no", "source": "Marseille Provence M\u00e9tropole Open Data 2013", "source:name:oc": "ieo-bdtopoc"}}, {"type": "node", "id": 2397809333, "lat": 43.2478997, "lon": 5.4281856, "tags": {"bench": "yes", "bus": "yes", "highway": "bus_stop", "name": "H\u00f4pital Clairval", "name:oc": "Espitau Vauclar", "public_transport": "platform", "shelter": "yes", "source": "Marseille Provence M\u00e9tropole Open Data 2013", "source:name:oc": "ieo-bdtopoc", "tactile_paving": "yes"}}, {"type": "node", "id": 2397809334, "lat": 43.2488044, "lon": 5.4254486, "tags": {"bench": "no", "bus": "yes", "highway": "bus_stop", "name": "Vallon du Redon", "name:oc": "Valon dau Redon", "public_transport": "platform", "shelter": "no", "source": "Marseille Provence M\u00e9tropole Open Data 2013", "source:name:oc": "ieo-bdtopoc"}}, {"type": "node", "id": 2397809335, "lat": 43.2485812, "lon": 5.4252365, "tags": {"bench": "no", "bus": "yes", "highway": "bus_stop", "name": "Vallon du Redon", "name:oc": "Valon dau Redon", "public_transport": "platform", "shelter": "no", "source": "Marseille Provence M\u00e9tropole Open Data 2013", "source:name:oc": "ieo-bdtopoc"}}, {"type": "node", "id": 2490743983, "lat": 43.2559527, "lon": 5.4054549, "tags": {"bus": "yes", "name": "Aiguier C.N.R.S.", "name:oc": "Aiguier - C.N.R.S.", "public_transport": "stop_position", "source:name:oc": "ieo-bdtopoc"}}, {"type": "node", "id": 2490743984, "lat": 43.2561163, "lon": 5.4051902, "tags": {"bus": "yes", "name": "Aiguier C.N.R.S.", "name:oc": "Aiguier - C.N.R.S.", "public_transport": "stop_position", "source:name:oc": "ieo-bdtopoc"}}, {"type": "node", "id": 2490743985, "lat": 43.2578797, "lon": 5.4035025, "tags": {"bus": "yes", "name": "La Verdi\u00e8re", "name:oc": "fixme:Aiguier - Cantini", "operator": "RTM", "public_transport": "stop_position", "source": "Terrain", "source:name:oc": "ieo-bdtopoc"}}, {"type": "node", "id": 2490743989, "lat": 43.2581162, "lon": 5.4033673, "tags": {"bus": "yes", "name": "La Verdi\u00e8re", "name:oc": "fixme: Aiguier - Cantini", "public_transport": "stop_position", "source:name:oc": "ieo-bdtopoc"}}, {"type": "node", "id": 2490743993, "lat": 43.2550578, "lon": 5.4068011, "tags": {"bench": "yes", "bus": "yes", "highway": "bus_stop", "name": "Coll\u00e8ge Grande Bastide", "name:oc": "fixme: Aiguier - Gaia", "opening_hours": "Mo-Sa 06:30-21:30; Su off", "public_transport": "platform", "shelter": "yes", "source": "Terrain", "source:name:oc": "ieo-bdtopoc"}}, {"type": "node", "id": 2490744000, "lat": 43.2550788, "lon": 5.4068192, "tags": {"bus": "yes", "name": "Coll\u00e8ge Grande Bastide", "name:oc": "fixme: Aiguier - Gaia", "opening_hours": "Mo-Sa 06:30-21:30; Su off", "operator": "RTM", "public_transport": "stop_position", "source": "Terrain"}}, {"type": "node", "id": 2490744005, "lat": 43.2551669, "lon": 5.4068071, "tags": {"bus": "yes", "name": "Coll\u00e8ge Grande Bastide", "name:oc": "fixme: Aiguier - Gaia", "public_transport": "stop_position", "source": "Terrain", "source:name:oc": "ieo-bdtopoc"}}, {"type": "node", "id": 2490744010, "lat": 43.2551814, "lon": 5.4068236, "tags": {"bench": "yes", "bin": "yes", "bus": "yes", "highway": "bus_stop", "lit": "yes", "name": "Coll\u00e8ge Grande Bastide", "name:oc": "fixme: Aiguier - Gaia", "opening_hours": "Mo-Sa 06:30-21:30; Su off", "public_transport": "platform", "shelter": "yes", "source": "Terrain", "source:name:oc": "ieo-bdtopoc", "tactile_paving": "no"}}, {"type": "node", "id": 2687231707, "lat": 43.2468016, "lon": 5.4348912, "tags": {"bus": "yes", "name": "Lachamp Luminy", "name:oc": "Lachamp - Lumini", "public_transport": "stop_position", "source": "Bing + terrain", "source:name:oc": "ieo-bdtopoc"}}, {"type": "node", "id": 2687231723, "lat": 43.2469692, "lon": 5.4351599, "tags": {"bus": "yes", "name": "Lachamp Luminy", "name:oc": "Lachamp - Lumini", "public_transport": "stop_position", "source": "Bing + terrain", "source:name:oc": "ieo-bdtopoc"}}, {"type": "node", "id": 2688427353, "lat": 43.2449582, "lon": 5.4271598, "tags": {"bench": "yes", "bin": "yes", "bus": "yes", "highway": "bus_stop", "lit": "yes", "name": "Le Redon", "name:oc": "Lo Redon", "public_transport": "platform", "ref": "24;24B;24T", "shelter": "yes", "source:name:oc": "ieo-bdtopoc", "tactile_paving": "yes", "wheelchair": "yes"}}, {"type": "node", "id": 2688427359, "lat": 43.2449609, "lon": 5.4272132, "tags": {"bus": "yes", "name": "Le Redon", "name:oc": "Lo Redon", "public_transport": "stop_position", "ref": "24;24B;24T", "source:name:oc": "ieo-bdtopoc", "survey:date": "2023-06-08"}}, {"type": "node", "id": 2688427419, "lat": 43.2447585, "lon": 5.4267558, "tags": {"bus": "yes", "name": "Le Redon", "name:oc": "Lo Redon", "public_transport": "stop_position", "ref": "B1;521", "source:name:oc": "ieo-bdtopoc"}}, {"type": "node", "id": 2688462084, "lat": 43.2478359, "lon": 5.4282031, "tags": {"bus": "yes", "name": "H\u00f4pital Clairval", "name:oc": "Espitau Vauclar", "operator": "RTM", "public_transport": "stop_position", "source": "BDOrtho IGN; survey", "source:name:oc": "ieo-bdtopoc"}}, {"type": "node", "id": 2700318724, "lat": 43.2519621, "lon": 5.4219229, "tags": {"bus": "yes", "name": "La Rouvi\u00e8re", "name:oc": "La Roviera", "public_transport": "stop_position", "source:name:oc": "ieo-bdtopoc"}}, {"type": "node", "id": 3544483605, "lat": 43.2863437, "lon": 5.3835179}, {"type": "node", "id": 3544483606, "lat": 43.2863558, "lon": 5.3835508}, {"type": "node", "id": 3544780767, "lat": 43.2853535, "lon": 5.3847886, "tags": {"level": "0", "name": "Castellane", "name:oc": "Castelana", "network": "RTM", "operator": "R\u00e9gie des Transports Marseillais", "public_transport": "stop_position", "railway": "tram_stop", "source": "survey", "tram": "yes", "wheelchair": "yes"}}, {"type": "node", "id": 3544780768, "lat": 43.2853725, "lon": 5.3848056, "tags": {"level": "0", "name": "Castellane", "name:oc": "Castelana", "network": "RTM", "operator": "R\u00e9gie des Transports M\u00e9tropolitains", "public_transport": "stop_position", "railway": "tram_stop", "source": "survey", "tram": "yes", "wheelchair": "yes"}}, {"type": "node", "id": 3562029792, "lat": 43.2525074, "lon": 5.423091, "tags": {"bench": "yes", "covered": "yes", "highway": "bus_stop", "name": "Centre Commercial", "name:oc": "Centre Comerciau", "network": "La Rouvi\u00e8re : centre commercial --> bat. B", "operator": "Copropri\u00e9t\u00e9 La rouvi\u00e8re", "public_transport": "platform", "shelter": "yes", "source:name:oc": "ieo-bdtopoc"}}, {"type": "node", "id": 3979780644, "lat": 43.2571319, "lon": 5.4220308, "tags": {"bench": "no", "bus": "yes", "highway": "bus_stop", "name": "La Panouse Belle Fontaine", "name:oc": "La Panosa - B\u00e8la F\u00f2nt", "public_transport": "platform", "shelter": "no"}}, {"type": "node", "id": 3979854682, "lat": 43.2570944, "lon": 5.4241326, "tags": {"bench": "yes", "bus": "yes", "highway": "bus_stop", "name": "La Panouse Bougainvilliers", "name:oc": "La Panosa - Bougainvill\u00e8as", "operator": "RTM", "public_transport": "platform", "shelter": "yes"}}, {"type": "node", "id": 3979854683, "lat": 43.2569803, "lon": 5.4244318, "tags": {"bench": "no", "bus": "yes", "highway": "bus_stop", "name": "La Panouse Bougainvilliers", "name:oc": "La Panosa - Bougainvill\u00e8as", "public_transport": "platform", "shelter": "no"}}, {"type": "node", "id": 3979862445, "lat": 43.2570506, "lon": 5.4225659, "tags": {"bench": "no", "bus": "yes", "highway": "bus_stop", "name": "La Panouse Belle Fontaine", "name:oc": "La Panosa - B\u00e8la F\u00f2nt", "public_transport": "platform", "shelter": "no"}}, {"type": "node", "id": 3986105186, "lat": 43.2452343, "lon": 5.4242115, "tags": {"bus": "yes", "name": "R\u00e9sidence Valmont Redon", "name:oc": "Resid\u00e9ncia Valmont - Redon", "public_transport": "stop_position", "source": "survey 2018-09-13", "source:name:oc": "ieo-bdtopoc"}}, {"type": "node", "id": 3986105359, "lat": 43.2454525, "lon": 5.4233917, "tags": {"bus": "yes", "name": "R\u00e9sidence Valmont Redon", "name:oc": "Resid\u00e9ncia Valmont - Redon", "public_transport": "stop_position", "source:name:oc": "ieo-bdtopoc", "survey:date": "2023-06-08"}}, {"type": "node", "id": 4234355449, "lat": 43.2516031, "lon": 5.4150385, "tags": {"bench": "no", "bus": "yes", "highway": "bus_stop", "name": "Saint-Joseph Aiguier", "name:oc": "Sant Jos\u00e8p - Aiguier", "public_transport": "platform", "shelter": "no", "source": "Marseille Provence M\u00e9tropole Open Data 2013", "source:name:oc": "ieo-bdtopoc"}}, {"type": "node", "id": 4314635096, "lat": 43.248325, "lon": 5.4370219, "tags": {"bus": "yes", "name": "Lachamp Augier", "name:oc": "Lachamp - Augier", "public_transport": "stop_position", "source:name:oc": "ieo-bdtopoc"}}, {"type": "node", "id": 4328307999, "lat": 43.2529324, "lon": 5.4219997, "tags": {"bench": "no", "bin": "yes", "bus": "yes", "check_date:shelter": "2023-04-05", "highway": "bus_stop", "lit": "yes", "name": "La Rouvi\u00e8re", "name:oc": "La Roviera", "public_transport": "platform", "shelter": "no", "source:name:oc": "ieo-bdtopoc", "tactile_paving": "yes", "wheelchair": "yes"}}, {"type": "node", "id": 4328308000, "lat": 43.2586492, "lon": 5.4172575, "tags": {"bench": "yes", "bin": "yes", "bus": "yes", "check_date:shelter": "2023-06-10", "highway": "bus_stop", "lit": "yes", "name": "Le Cabot", "name:oc": "Lo Cab\u00f2t", "public_transport": "platform", "shelter": "yes", "source:name:oc": "ieo-bdtopoc", "tactile_paving": "yes"}}, {"type": "node", "id": 4328308001, "lat": 43.259118, "lon": 5.416939, "tags": {"bench": "yes", "bin": "yes", "bus": "yes", "highway": "bus_stop", "lit": "yes", "name": "Le Cabot", "name:oc": "Lo Cab\u00f2t", "public_transport": "platform", "shelter": "yes", "source:name:oc": "ieo-bdtopoc", "tactile_paving": "yes"}}, {"type": "node", "id": 4328308004, "lat": 43.2565747, "lon": 5.4194415, "tags": {"bench": "no", "bin": "no", "bus": "yes", "highway": "bus_stop", "lit": "no", "name": "Le Redon La Panouse", "name:oc": "Lo Redon - La Panosa", "public_transport": "platform", "shelter": "no", "source:name:oc": "ieo-bdtopoc", "tactile_paving": "no"}}, {"type": "node", "id": 4328308005, "lat": 43.2567671, "lon": 5.4194677, "tags": {"bench": "yes", "bin": "no", "bus": "yes", "highway": "bus_stop", "lit": "yes", "name": "Le Redon La Panouse", "name:oc": "Lo Redon - La Panosa", "public_transport": "platform", "shelter": "yes", "source:name:oc": "ieo-bdtopoc", "tactile_paving": "no"}}, {"type": "node", "id": 4328308787, "lat": 43.2544301, "lon": 5.4207429, "tags": {"bench": "yes", "bin": "no", "bus": "yes", "highway": "bus_stop", "lit": "no", "name": "All\u00e9e des Pins", "name:oc": "Andana dei Pins", "public_transport": "platform", "shelter": "yes", "source:name:oc": "ieo-bdtopoc", "tactile_paving": "no"}}, {"type": "node", "id": 4328308788, "lat": 43.2544981, "lon": 5.4204272, "tags": {"bench": "no", "bin": "no", "bus": "yes", "highway": "bus_stop", "lit": "no", "name": "All\u00e9e des Pins", "name:oc": "Andana dei Pins", "public_transport": "platform", "shelter": "no", "source:name:oc": "ieo-bdtopoc", "tactile_paving": "no"}}, {"type": "node", "id": 4535454090, "lat": 43.2511776, "lon": 5.4277478, "tags": {"bench": "yes", "covered": "yes", "highway": "bus_stop", "name": "Super Rouvi\u00e8re", "name:oc": "Super Roviera", "network": "La Rouvi\u00e8re : centre commercial --> bat. B", "operator": "Copropri\u00e9t\u00e9 La rouvi\u00e8re", "public_transport": "platform", "shelter": "yes", "source:name:oc": "ieo-bdtopoc"}}, {"type": "node", "id": 4718165526, "lat": 43.2485871, "lon": 5.4252874, "tags": {"bus": "yes", "name": "Vallon du Redon", "name:oc": "Valon dau Redon", "public_transport": "stop_position", "source:name:oc": "ieo-bdtopoc"}}, {"type": "node", "id": 4718173389, "lat": 43.2487805, "lon": 5.4254733, "tags": {"bus": "yes", "name": "Vallon du Redon", "name:oc": "Valon dau Redon", "public_transport": "stop_position", "source:name:oc": "ieo-bdtopoc"}}, {"type": "node", "id": 4718833958, "lat": 43.2508447, "lon": 5.4140976, "tags": {"bus": "yes", "name": "Aiguier CPCAM", "name:oc": "Aiguier - CPCAM", "public_transport": "stop_position", "source:name:oc": "ieo-bdtopoc"}}, {"type": "node", "id": 4718833959, "lat": 43.2508521, "lon": 5.4138671, "tags": {"bus": "yes", "name": "Aiguier CPCAM", "name:oc": "Aiguier - CPCAM", "public_transport": "stop_position", "source:name:oc": "ieo-bdtopoc"}}, {"type": "node", "id": 4718833960, "lat": 43.2529696, "lon": 5.4090812, "tags": {"bus": "yes", "name": "Aiguier Saint-Jacques", "name:oc": "Aiguier - Sant Jaume", "operator": "RTM", "public_transport": "stop_position", "source:name:oc": "ieo-bdtopoc"}}, {"type": "node", "id": 4718833961, "lat": 43.2589222, "lon": 5.4029007, "tags": {"bus": "yes", "name": "Aiguier Trioulet", "name:oc": "Aiguier - Triolet", "public_transport": "stop_position"}}, {"type": "node", "id": 4718833966, "lat": 43.2519865, "lon": 5.4110405, "tags": {"bus": "yes", "name": "Hesp\u00e9rides Montval", "name:oc": "Esperidas - Montval", "operator": "RTM", "public_transport": "stop_position", "source:name:oc": "ieo-bdtopoc"}}, {"type": "node", "id": 4718833969, "lat": 43.2524749, "lon": 5.4213875, "tags": {"bus": "yes", "name": "La Rouvi\u00e8re", "name:oc": "La Roviera", "public_transport": "stop_position", "source:name:oc": "ieo-bdtopoc"}}, {"type": "node", "id": 4718833970, "lat": 43.2525219, "lon": 5.4213861, "tags": {"bench": "no", "bus": "yes", "highway": "bus_stop", "name": "La Rouvi\u00e8re", "name:oc": "La Roviera", "public_transport": "platform", "shelter": "no", "source:name:oc": "ieo-bdtopoc"}}, {"type": "node", "id": 4718833974, "lat": 43.2521619, "lon": 5.4189202, "tags": {"bus": "yes", "name": "Saint-Joseph Bon Pasteur", "name:oc": "Sant Jos\u00e8p - B\u00f2n Pastor", "operator": "RTM", "public_transport": "stop_position", "source:name:oc": "ieo-bdtopoc"}}, {"type": "node", "id": 4718833975, "lat": 43.2504936, "lon": 5.4167841, "tags": {"bus": "yes", "name": "Valmante", "name:oc": "Valmanta", "public_transport": "stop_position", "source:name:oc": "ieo-bdtopoc"}}, {"type": "node", "id": 4718833976, "lat": 43.2505294, "lon": 5.4171508, "tags": {"bench": "no", "bus": "yes", "highway": "bus_stop", "name": "Valmante", "name:oc": "Valmanta", "public_transport": "platform", "shelter": "no", "source:name:oc": "ieo-bdtopoc"}}, {"type": "node", "id": 4721766735, "lat": 43.2500479, "lon": 5.4223605, "tags": {"bench": "yes", "bin": "no", "bus": "yes", "check_date": "2024-09-26", "check_date:tactile_paving": "2024-09-26", "highway": "bus_stop", "name": "Le Fangas", "name:oc": "Lo Fang\u00e0s", "public_transport": "platform", "shelter": "yes", "source:name:oc": "ieo-bdtopoc", "tactile_paving": "no"}}, {"type": "node", "id": 4721782079, "lat": 43.2465585, "lon": 5.4246078, "tags": {"bench": "no", "bin": "yes", "bus": "yes", "highway": "bus_stop", "name": "La Gouffonne", "name:oc": "Gaufona", "public_transport": "platform", "shelter": "no", "source:name:oc": "ieo-bdtopoc", "survey:date": "2023-06-08", "tactile_paving": "yes", "wheelchair": "yes"}}, {"type": "node", "id": 4721782080, "lat": 43.2466033, "lon": 5.4246538, "tags": {"bus": "yes", "name": "La Gouffonne", "name:oc": "Gaufona", "public_transport": "stop_position", "source:name:oc": "ieo-bdtopoc", "survey:date": "2023-06-08"}}, {"type": "node", "id": 4721782082, "lat": 43.2521775, "lon": 5.4220432, "tags": {"bench": "yes", "bin": "no", "bus": "yes", "highway": "bus_stop", "name": "La Rouvi\u00e8re", "name:oc": "La Roviera", "public_transport": "platform", "shelter": "yes", "source:name:oc": "ieo-bdtopoc", "tactile_paving": "no"}}, {"type": "node", "id": 4721782084, "lat": 43.2521802, "lon": 5.4219775, "tags": {"bus": "yes", "name": "La Rouvi\u00e8re", "name:oc": "La Roviera", "public_transport": "stop_position", "source:name:oc": "ieo-bdtopoc"}}, {"type": "node", "id": 4721782085, "lat": 43.2500152, "lon": 5.42229, "tags": {"bus": "yes", "name": "Le Fangas", "name:oc": "Lo Fang\u00e0s", "public_transport": "stop_position", "source:name:oc": "ieo-bdtopoc", "survey:date": "2023-06-08"}}, {"type": "node", "id": 4721782087, "lat": 43.2500924, "lon": 5.4221271, "tags": {"bench": "no", "bin": "yes", "bus": "yes", "highway": "bus_stop", "name": "Le Fangas", "name:oc": "Lo Fang\u00e0s", "public_transport": "platform", "shelter": "no", "source:name:oc": "ieo-bdtopoc", "tactile_paving": "no"}}, {"type": "node", "id": 4721782088, "lat": 43.2500929, "lon": 5.4221767, "tags": {"bus": "yes", "name": "Le Fangas", "name:oc": "Lo Fang\u00e0s", "public_transport": "stop_position", "source:name:oc": "ieo-bdtopoc", "survey:date": "2023-06-08"}}, {"type": "node", "id": 4721782892, "lat": 43.246651, "lon": 5.4246933, "tags": {"bench": "yes", "bus": "yes", "highway": "bus_stop", "name": "La Gouffonne", "name:oc": "Gaufona", "public_transport": "platform", "shelter": "yes", "source:name:oc": "ieo-bdtopoc", "survey:date": "2023-06-08", "tactile_paving": "yes", "wheelchair": "yes"}}, {"type": "node", "id": 4721782893, "lat": 43.2519597, "lon": 5.4218383, "tags": {"bench": "yes", "bin": "yes", "bus": "yes", "highway": "bus_stop", "name": "La Rouvi\u00e8re", "name:oc": "La Roviera", "public_transport": "platform", "shelter": "yes", "source:name:oc": "ieo-bdtopoc", "tactile_paving": "yes"}}, {"type": "node", "id": 4721782905, "lat": 43.2452691, "lon": 5.4269566, "tags": {"bench": "no", "bus": "yes", "highway": "bus_stop", "name": "Le Redon", "name:oc": "Lo Redon", "public_transport": "platform", "shelter": "no", "source:name:oc": "ieo-bdtopoc"}}, {"type": "node", "id": 4721782989, "lat": 43.2452362, "lon": 5.4269275, "tags": {"bus": "yes", "name": "Le Redon", "name:oc": "Lo Redon", "public_transport": "stop_position", "source:name:oc": "ieo-bdtopoc"}}, {"type": "node", "id": 4722637847, "lat": 43.2515423, "lon": 5.4150084, "tags": {"bus": "yes", "name": "Saint-Joseph Aiguier", "name:oc": "Sant Jos\u00e8p - Aiguier", "public_transport": "stop_position", "source:name:oc": "ieo-bdtopoc"}}, {"type": "node", "id": 4722643131, "lat": 43.2531405, "lon": 5.4138391, "tags": {"bus": "yes", "name": "Chemin Colline Saint-Joseph", "name:oc": "Camin de la C\u00f2la de Sant Jos\u00e8p", "public_transport": "stop_position", "source:name:oc": "ieo-bdtopoc"}}, {"type": "node", "id": 4722643133, "lat": 43.2570817, "lon": 5.4225681, "tags": {"bus": "yes", "name": "La Panouse Belle Fontaine", "name:oc": "La Panosa - B\u00e8la F\u00f2nt", "public_transport": "stop_position"}}, {"type": "node", "id": 4722643134, "lat": 43.2570897, "lon": 5.4220328, "tags": {"bus": "yes", "name": "La Panouse Belle Fontaine", "name:oc": "La Panosa - B\u00e8la F\u00f2nt", "public_transport": "stop_position"}}, {"type": "node", "id": 4722643135, "lat": 43.2570257, "lon": 5.4244363, "tags": {"bus": "yes", "name": "La Panouse Bougainvilliers", "name:oc": "La Panosa - Bougainvill\u00e8as", "public_transport": "stop_position"}}, {"type": "node", "id": 4722643136, "lat": 43.257051, "lon": 5.4241256, "tags": {"bus": "yes", "name": "La Panouse Bougainvilliers", "name:oc": "La Panosa - Bougainvill\u00e8as", "operator": "RTM", "public_transport": "stop_position"}}, {"type": "node", "id": 4722643141, "lat": 43.2566872, "lon": 5.4272511, "tags": {"bus": "yes", "name": "La Panouse", "name:oc": "La Panosa", "public_transport": "stop_position"}}, {"type": "node", "id": 4736151939, "lat": 43.2483376, "lon": 5.4373761, "tags": {"bench": "no", "bus": "yes", "highway": "bus_stop", "name": "Lachamp Augier", "name:oc": "Lachamp - Augier", "public_transport": "platform", "shelter": "no", "source:name:oc": "ieo-bdtopoc"}}, {"type": "node", "id": 4736151940, "lat": 43.2483514, "lon": 5.4369291, "tags": {"bench": "no", "bus": "yes", "highway": "bus_stop", "name": "Lachamp Augier", "name:oc": "Lacamp - Augier", "public_transport": "platform", "shelter": "no", "source:name:oc": "ieo-bdtopoc"}}, {"type": "node", "id": 4736155845, "lat": 43.2487894, "lon": 5.4405555, "tags": {"bench": "no", "bus": "yes", "highway": "bus_stop", "name": "Grands Pins", "name:oc": "Pin\u00e0s", "public_transport": "platform", "shelter": "no", "source:name:oc": "ieo-bdtopoc"}}, {"type": "node", "id": 4736156715, "lat": 43.2483781, "lon": 5.4373548, "tags": {"bus": "yes", "name": "Lachamp Augier", "name:oc": "Lachamp - Augier", "public_transport": "stop_position"}}, {"type": "node", "id": 4736156820, "lat": 43.2467799, "lon": 5.4347737, "tags": {"bench": "no", "bus": "yes", "highway": "bus_stop", "name": "Lachamp Luminy", "name:oc": "Lachamp - Lumini", "public_transport": "platform", "shelter": "no", "source:name:oc": "ieo-bdtopoc"}}, {"type": "node", "id": 4736156821, "lat": 43.2469616, "lon": 5.4351982, "tags": {"bench": "no", "bus": "yes", "highway": "bus_stop", "name": "Lachamp Luminy", "name:oc": "Lachamp - Lumini", "public_transport": "platform", "shelter": "no", "source:name:oc": "ieo-bdtopoc"}}, {"type": "node", "id": 4748924679, "lat": 43.2379071, "lon": 5.4322958, "tags": {"bench": "no", "bus": "yes", "highway": "bus_stop", "name": "Stade de Luminy", "name:oc": "Estadi de Lumini", "public_transport": "platform", "shelter": "no", "wheelchair": "no"}}, {"type": "node", "id": 4748924681, "lat": 43.2332451, "lon": 5.4335598, "tags": {"bench": "yes", "bus": "yes", "highway": "bus_stop", "name": "Kedge BS", "name:oc": "Kedge BS", "public_transport": "platform", "shelter": "yes", "wheelchair": "no"}}, {"type": "node", "id": 4748932454, "lat": 43.2380993, "lon": 5.4343704, "tags": {"bench": "no", "bus": "yes", "highway": "bus_stop", "name": "Cochet", "name:oc": "Cochet", "public_transport": "platform", "shelter": "no", "source:name:oc": "ieo-bdtopoc", "wheelchair": "no"}}, {"type": "node", "id": 4748932826, "lat": 43.2378715, "lon": 5.4322025, "tags": {"bench": "no", "bus": "yes", "highway": "bus_stop", "name": "Stade de Luminy", "name:oc": "Estadi de Lumini", "public_transport": "platform", "shelter": "no", "wheelchair": "no"}}, {"type": "node", "id": 5232622239, "lat": 43.23238, "lon": 5.4001272, "tags": {"bus": "yes", "name": "CC Sormiou", "name:oc": "CC Sormiu", "public_transport": "stop_position", "source:name:oc": "ieo-bdtopoc"}}, {"type": "node", "id": 5890724938, "lat": 43.2310897, "lon": 5.4396285, "tags": {"bus": "yes", "name": "Luminy Facult\u00e9", "name:oc": "Lumini - Facultat", "public_transport": "stop_position", "source:name:oc": "ieo-bdtopoc"}}, {"type": "node", "id": 5890726204, "lat": 43.2316543, "lon": 5.4371592, "tags": {"bench": "yes", "bin": "yes", "bus": "yes", "highway": "bus_stop", "lit": "yes", "name": "Luminy Parc National des Calanques", "name:oc": "Lumini - Pargue Nacionau dei Calancas", "public_transport": "platform", "shelter": "yes", "tactile_paving": "yes", "wheelchair": "yes"}}, {"type": "node", "id": 5890726498, "lat": 43.2310454, "lon": 5.4396596, "tags": {"bench": "no", "bin": "yes", "bus": "yes", "fixme": "emplacement approximatif", "highway": "bus_stop", "lit": "yes", "name": "Luminy Facult\u00e9", "name:oc": "Lumini - Facultat", "public_transport": "platform", "shelter": "no", "source": "survey 2018-09-06", "tactile_paving": "yes", "wheelchair": "yes"}}, {"type": "node", "id": 5890726686, "lat": 43.2311308, "lon": 5.4397096, "tags": {"bench": "yes", "bin": "yes", "bus": "yes", "fixme": "emplacement approximatif", "highway": "bus_stop", "lit": "yes", "name": "Luminy Facult\u00e9", "name:oc": "Lumini - Facultat", "public_transport": "platform", "shelter": "yes", "source": "survey 2018-09-06", "tactile_paving": "yes", "wheelchair": "yes"}}, {"type": "node", "id": 5894187835, "lat": 43.2374422, "lon": 5.4356695, "tags": {"bus": "yes", "name": "Luminy Complexe Sportif", "name:oc": "Lumini - Compl\u00e8x Esportiu", "public_transport": "stop_position", "source:name:oc": "ieo-bdtopoc"}}, {"type": "node", "id": 5894187836, "lat": 43.2376847, "lon": 5.4357759, "tags": {"amenity": "shelter", "bench": "yes", "bin": "yes", "bus": "yes", "highway": "bus_stop", "lit": "yes", "name": "Luminy Complexe Sportif", "name:oc": "Lumini - Compl\u00e8x Esportiu", "public_transport": "platform", "shelter": "yes", "shelter_type": "public_transport", "source": "survey 2018-09-06", "source:name:oc": "ieo-bdtopoc", "tactile_paving": "yes", "wheelchair": "yes"}}, {"type": "node", "id": 5894187852, "lat": 43.2325026, "lon": 5.4360694, "tags": {"bus": "yes", "name": "Luminy Kedge Business School", "name:oc": "Lumini Kedge Business School", "public_transport": "stop_position", "source:name:oc": "ieo-bdtopoc"}}, {"type": "node", "id": 5894187960, "lat": 43.2377613, "lon": 5.4357166, "tags": {"bus": "yes", "name": "Luminy Complexe Sportif", "name:oc": "Lumini - Compl\u00e8x Esportiu", "public_transport": "stop_position", "source:name:oc": "ieo-bdtopoc"}}, {"type": "node", "id": 5894188453, "lat": 43.2324298, "lon": 5.4361442, "tags": {"bench": "yes", "bin": "yes", "bus": "yes", "highway": "bus_stop", "lit": "yes", "name": "Luminy Kedge Business School", "name:oc": "Lumini Kedge Business School", "public_transport": "platform", "shelter": "yes", "tactile_paving": "yes", "wheelchair": "yes"}}, {"type": "node", "id": 5894188555, "lat": 43.2323449, "lon": 5.4360402, "tags": {"bus": "yes", "name": "Luminy Kedge Business School", "name:oc": "Lumini Kedge Business School", "public_transport": "stop_position", "source:name:oc": "ieo-bdtopoc"}}, {"type": "node", "id": 5894188635, "lat": 43.2323366, "lon": 5.4360089, "tags": {"bench": "no", "bin": "yes", "bus": "yes", "highway": "bus_stop", "lit": "yes", "name": "Luminy Kedge Business School", "name:oc": "Lumini Kedge Business School", "public_transport": "platform", "shelter": "no", "tactile_paving": "yes", "wheelchair": "yes"}}, {"type": "node", "id": 5895926901, "lat": 43.2431278, "lon": 5.4381773, "tags": {"bus": "yes", "name": "HLM de Luminy", "name:oc": "HLM de Lumini", "public_transport": "stop_position", "source:name:oc": "ieo-bdtopoc"}}, {"type": "node", "id": 5895927186, "lat": 43.246354, "lon": 5.4363804, "tags": {"bench": "yes", "bin": "yes", "bus": "yes", "highway": "bus_stop", "lit": "yes", "name": "Luminy Lachamp", "name:oc": "Luminie - Lachamp", "public_transport": "platform", "shelter": "yes", "source": "survey 2018-09-06", "source:name:oc": "ieo-bdtopoc", "tactile_paving": "yes", "wheelchair": "yes"}}, {"type": "node", "id": 5895927362, "lat": 43.2462423, "lon": 5.436429, "tags": {"bus": "yes", "name": "Luminy Lachamp", "name:oc": "Luminie - Lachamp", "public_transport": "stop_position", "source:name:oc": "ieo-bdtopoc"}}, {"type": "node", "id": 5895927441, "lat": 43.2461912, "lon": 5.4364842, "tags": {"bench": "yes", "bin": "yes", "bus": "yes", "highway": "bus_stop", "lit": "yes", "name": "Luminy Lachamp", "name:oc": "Luminie - Lachamp", "public_transport": "platform", "shelter": "yes", "source": "survey 2018-09-06", "source:name:oc": "ieo-bdtopoc", "tactile_paving": "yes", "wheelchair": "yes"}}, {"type": "node", "id": 5906299043, "lat": 43.2450651, "lon": 5.428179, "tags": {"bus": "yes", "name": "Le Redon", "name:oc": "Lo Redon", "public_transport": "stop_position", "ref": "24;24T;M8", "source:name:oc": "ieo-bdtopoc", "survey:date": "2023-06-08"}}, {"type": "node", "id": 5911096874, "lat": 43.2454438, "lon": 5.4114503, "tags": {"bench": "yes", "bin": "yes", "bus": "yes", "highway": "bus_stop", "lit": "yes", "name": "Tomasi", "name:oc": "Tomasi", "public_transport": "platform", "shelter": "yes", "source": "survey 2018-09-13", "source:name:oc": "ieo-bdtopoc", "tactile_paving": "yes", "wheelchair": "yes"}}, {"type": "node", "id": 5911115176, "lat": 43.2457728, "lon": 5.415801, "tags": {"bus": "yes", "name": "Centre Commercial Valmante", "name:oc": "Centre Comerciau Valmanta", "public_transport": "stop_position", "source:name:oc": "ieo-bdtopoc"}}, {"type": "node", "id": 5911115308, "lat": 43.2455299, "lon": 5.4114023, "tags": {"bus": "yes", "name": "Tomasi", "name:oc": "Tomasi", "public_transport": "stop_position", "source:name:oc": "ieo-bdtopoc"}}, {"type": "node", "id": 5911116279, "lat": 43.245766, "lon": 5.4166074, "tags": {"bench": "yes", "bin": "yes", "bus": "yes", "check_date": "2025-05-02", "check_date:bin": "2025-05-02", "check_date:lit": "2025-05-02", "highway": "bus_stop", "lit": "yes", "name": "Centre Commercial Valmante", "name:oc": "Centre Comerciau Valmanta", "public_transport": "platform", "shelter": "yes", "source": "survey 2018-09-13", "source:name:oc": "ieo-bdtopoc", "tactile_paving": "yes", "wheelchair": "yes"}}, {"type": "node", "id": 5911116627, "lat": 43.24576, "lon": 5.415443, "tags": {"bench": "no", "bin": "yes", "bus": "yes", "highway": "bus_stop", "name": "Centre Commercial Valmante", "name:oc": "Centre Comerciau Valmanta", "note": "Bus de La Marcouline ligne 28", "public_transport": "platform", "shelter": "yes", "source": "survey 2018-09-13", "source:name:oc": "ieo-bdtopoc", "tactile_paving": "yes"}}, {"type": "node", "id": 5911116740, "lat": 43.2458035, "lon": 5.4169048, "tags": {"bench": "no", "bin": "yes", "bus": "yes", "highway": "bus_stop", "name": "Centre Commercial Valmante", "name:oc": "Centre Comerciau Valmanta", "note": "Bus de La Marcouline ligne 28", "public_transport": "platform", "shelter": "yes", "source": "survey 2018-09-13", "source:name:oc": "ieo-bdtopoc"}}, {"type": "node", "id": 5913412985, "lat": 43.2586365, "lon": 5.3990225, "tags": {"bench": "yes", "bin": "yes", "bus": "yes", "highway": "bus_stop", "lit": "yes", "name": "Michelet Luce", "name:oc": "Michelet - L\u00facia", "public_transport": "platform", "shelter": "yes", "source:name:oc": "ieo-bdtopoc", "tactile_paving": "no", "wheelchair": "no"}}, {"type": "node", "id": 5913413654, "lat": 43.2477358, "lon": 5.406461, "tags": {"bench": "no", "bus": "yes", "highway": "bus_stop", "name": "Sainte-Trinit\u00e9", "name:oc": "Santa Trinitat", "note": "Bus de La Marcouline ligne M8", "public_transport": "platform", "shelter": "no", "source": "survey 2018-09-13", "source:name:oc": "ieo-bdtopoc", "tactile_paving": "yes"}}, {"type": "node", "id": 5913414852, "lat": 43.2478645, "lon": 5.4063984, "tags": {"bus": "yes", "name": "Sainte-Trinit\u00e9", "name:oc": "Santa Trinitat", "public_transport": "stop_position", "source:name:oc": "ieo-bdtopoc"}}, {"type": "node", "id": 5919958013, "lat": 43.2425465, "lon": 5.4063088, "tags": {"bench": "no", "bin": "yes", "bus": "yes", "highway": "bus_stop", "lit": "yes", "name": "Morgiou Seigneurie", "name:oc": "Morgiu - Senhori\u00e1", "public_transport": "platform", "shelter": "no", "source:name:oc": "ieo-bdtopoc", "tactile_paving": "no"}}, {"type": "node", "id": 6837713628, "lat": 43.2569919, "lon": 5.3941338, "tags": {"bus": "yes", "name:fr": "Sainte-Anne", "name:oc": "Santa Anna", "public_transport": "stop_position", "source:name:oc": "ieo-bdtopoc"}}, {"type": "node", "id": 9949715934, "lat": 43.2862145, "lon": 5.3836503}, {"type": "node", "id": 9949715935, "lat": 43.2861682, "lon": 5.3837451}, {"type": "node", "id": 9949715937, "lat": 43.2861304, "lon": 5.3838726}, {"type": "node", "id": 9949715939, "lat": 43.2860485, "lon": 5.3839973}, {"type": "node", "id": 9949715941, "lat": 43.285958, "lon": 5.384079}, {"type": "node", "id": 9949715943, "lat": 43.2858686, "lon": 5.3841273}, {"type": "node", "id": 9949715945, "lat": 43.2857638, "lon": 5.3841834}, {"type": "node", "id": 9949715946, "lat": 43.2857097, "lon": 5.3842317}, {"type": "node", "id": 9949715947, "lat": 43.285669, "lon": 5.3842888}, {"type": "node", "id": 9949715952, "lat": 43.2850265, "lon": 5.3854165}, {"type": "node", "id": 9949715959, "lat": 43.2823682, "lon": 5.3903412, "tags": {"level": "0", "name": "Parc du 26e Centenaire", "network": "RTM", "operator": "R\u00e9gie des Transports M\u00e9tropolitains", "public_transport": "stop_position", "railway": "tram_stop", "source": "survey", "tram": "yes", "wheelchair": "yes"}}, {"type": "node", "id": 9949715962, "lat": 43.281732, "lon": 5.3915176}, {"type": "node", "id": 9949780131, "lat": 43.2571192, "lon": 5.4107222}, {"type": "node", "id": 9949824545, "lat": 43.2776671, "lon": 5.3989674}, {"type": "node", "id": 9949824546, "lat": 43.2775776, "lon": 5.3990894}, {"type": "node", "id": 9949824547, "lat": 43.2774693, "lon": 5.3991749}, {"type": "node", "id": 9949824548, "lat": 43.2773199, "lon": 5.3992129}, {"type": "node", "id": 9949824549, "lat": 43.2745578, "lon": 5.3999357}, {"type": "node", "id": 9949824550, "lat": 43.274397, "lon": 5.4000248}, {"type": "node", "id": 9949824551, "lat": 43.2738584, "lon": 5.400366}, {"type": "node", "id": 9949824552, "lat": 43.2701328, "lon": 5.4027553}, {"type": "node", "id": 9949824553, "lat": 43.26975, "lon": 5.4029215}, {"type": "node", "id": 9949824554, "lat": 43.2694279, "lon": 5.4030109}, {"type": "node", "id": 9949824555, "lat": 43.2693049, "lon": 5.4030229}, {"type": "node", "id": 9949824556, "lat": 43.2690076, "lon": 5.4030067}, {"type": "node", "id": 9949824557, "lat": 43.2687403, "lon": 5.402922}, {"type": "node", "id": 9949824559, "lat": 43.2678175, "lon": 5.402352}, {"type": "node", "id": 9949824560, "lat": 43.2677333, "lon": 5.4023211}, {"type": "node", "id": 9949824561, "lat": 43.2673423, "lon": 5.4024182}, {"type": "node", "id": 9949824563, "lat": 43.2668735, "lon": 5.4026521}, {"type": "node", "id": 9949824566, "lat": 43.2639047, "lon": 5.4041988, "tags": {"railway": "tram_level_crossing"}}, {"type": "node", "id": 9949824567, "lat": 43.2629473, "lon": 5.4045073}, {"type": "node", "id": 9949824572, "lat": 43.2620731, "lon": 5.4044647}, {"type": "node", "id": 9949824574, "lat": 43.261704, "lon": 5.4050945}, {"type": "node", "id": 9949824575, "lat": 43.2608922, "lon": 5.4064083}, {"type": "node", "id": 9949824578, "lat": 43.2602248, "lon": 5.4074591}, {"type": "node", "id": 9949824580, "lat": 43.2598253, "lon": 5.40812}, {"type": "node", "id": 9949824581, "lat": 43.2593231, "lon": 5.408903}, {"type": "node", "id": 9949824583, "lat": 43.2591218, "lon": 5.4091861}, {"type": "node", "id": 9949824584, "lat": 43.2587969, "lon": 5.4094611}, {"type": "node", "id": 9949824585, "lat": 43.2582043, "lon": 5.4098986}, {"type": "node", "id": 9957253802, "lat": 43.2688727, "lon": 5.4029692, "tags": {"railway": "tram_crossing"}}, {"type": "node", "id": 10207638431, "lat": 43.2680562, "lon": 5.4025031}, {"type": "node", "id": 10816628864, "lat": 43.2591201, "lon": 5.4092384, "tags": {"railway": "tram_level_crossing"}}, {"type": "node", "id": 10816629057, "lat": 43.265502, "lon": 5.4033781}, {"type": "node", "id": 11083876998, "lat": 43.2301401, "lon": 5.4033481, "tags": {"bus": "yes", "name": "La Cayolle", "name:oc": "La Calh\u00f2la", "public_transport": "stop_position", "source:name:oc": "ieo-bdtopoc"}}, {"type": "node", "id": 11083876999, "lat": 43.2309259, "lon": 5.4033018, "tags": {"bus": "yes", "name": "La Cayolle", "name:oc": "La Calh\u00f2la", "public_transport": "stop_position", "source:name:oc": "ieo-bdtopoc"}}, {"type": "node", "id": 11083877000, "lat": 43.2301781, "lon": 5.4033127, "tags": {"bench": "yes", "bus": "yes", "highway": "bus_stop", "name": "La Cayolle", "name:oc": "La Calh\u00f2la", "public_transport": "platform", "shelter": "no", "source:name:oc": "ieo-bdtopoc", "tactile_paving": "yes", "wheelchair": "yes"}}, {"type": "node", "id": 11083877001, "lat": 43.2309794, "lon": 5.403353, "tags": {"bench": "no", "bin": "yes", "bus": "yes", "highway": "bus_stop", "name": "La Cayolle", "name:oc": "La Calh\u00f2la", "public_transport": "platform", "shelter": "yes", "source:name:oc": "ieo-bdtopoc", "tactile_paving": "yes", "wheelchair": "yes"}}, {"type": "node", "id": 11853940786, "lat": 43.2607004, "lon": 5.4067127}, {"type": "node", "id": 11853940787, "lat": 43.2621909, "lon": 5.4043752}, {"type": "node", "id": 11853940788, "lat": 43.2632445, "lon": 5.4044284}, {"type": "node", "id": 11853940790, "lat": 43.2686207, "lon": 5.4028592}, {"type": "node", "id": 11853940792, "lat": 43.2725491, "lon": 5.4011997}, {"type": "node", "id": 11853940793, "lat": 43.274911, "lon": 5.3997972}, {"type": "node", "id": 11853940794, "lat": 43.2839736, "lon": 5.3872999, "tags": {"railway": "tram_level_crossing"}}, {"type": "node", "id": 11932786629, "lat": 43.2751394, "lon": 5.3997879}, {"type": "node", "id": 11932786631, "lat": 43.2749725, "lon": 5.3998253}, {"type": "node", "id": 11932786632, "lat": 43.2748331, "lon": 5.3998671}, {"type": "node", "id": 11932786633, "lat": 43.2746599, "lon": 5.3999281}, {"type": "node", "id": 11932786634, "lat": 43.2745354, "lon": 5.3999836, "tags": {"railway": "tram_level_crossing"}}, {"type": "node", "id": 11932786635, "lat": 43.2744113, "lon": 5.4000542}, {"type": "node", "id": 11932786636, "lat": 43.273948, "lon": 5.4003509}, {"type": "node", "id": 11932786637, "lat": 43.2731562, "lon": 5.400849}, {"type": "node", "id": 11932786638, "lat": 43.2727685, "lon": 5.4011031}, {"type": "node", "id": 11932786639, "lat": 43.2729623, "lon": 5.400976}, {"type": "node", "id": 11932786640, "lat": 43.2730761, "lon": 5.4008642}, {"type": "node", "id": 11932786642, "lat": 43.2726228, "lon": 5.4011932}, {"type": "node", "id": 11932786643, "lat": 43.2712161, "lon": 5.4020954, "tags": {"level": "0", "name": "Sainte-Marguerite Dromel", "network": "RTM", "operator": "R\u00e9gie des Transports M\u00e9tropolitains", "public_transport": "stop_position", "railway": "tram_stop", "source": "survey", "tram": "yes", "wheelchair": "yes"}}, {"type": "node", "id": 11932786646, "lat": 43.2687285, "lon": 5.4029653}, {"type": "node", "id": 11932786647, "lat": 43.2686242, "lon": 5.4029138}, {"type": "node", "id": 11932786648, "lat": 43.268559, "lon": 5.4028752}, {"type": "node", "id": 11932786649, "lat": 43.2682157, "lon": 5.4026556}, {"type": "node", "id": 11932786650, "lat": 43.2679403, "lon": 5.4024707}, {"type": "node", "id": 11932786651, "lat": 43.2678234, "lon": 5.4023934}, {"type": "node", "id": 11932786652, "lat": 43.2677612, "lon": 5.402369}, {"type": "node", "id": 11932786653, "lat": 43.2676828, "lon": 5.4023548}, {"type": "node", "id": 11932786654, "lat": 43.2675887, "lon": 5.4023581, "tags": {"railway": "tram_level_crossing"}}, {"type": "node", "id": 11932786655, "lat": 43.2675374, "lon": 5.4023751}, {"type": "node", "id": 11932786656, "lat": 43.2674072, "lon": 5.4024422}, {"type": "node", "id": 11932786657, "lat": 43.2667692, "lon": 5.4027328}, {"type": "node", "id": 12160335765, "lat": 43.246417, "lon": 5.4083198, "tags": {"bench": "no", "bin": "yes", "bus": "yes", "highway": "bus_stop", "name": "R\u00e9sidence Le Montmorency", "name:oc": "Resid\u00e9ncia Lo Montmorenci", "public_transport": "platform", "shelter": "no", "wheelchair": "no"}}, {"type": "node", "id": 12160335766, "lat": 43.2462622, "lon": 5.4087248, "tags": {"bench": "no", "bin": "yes", "bus": "yes", "highway": "bus_stop", "name": "R\u00e9sidence Le Montmorency", "name:oc": "Resid\u00e9ncia Lo Montmorenci", "public_transport": "platform", "shelter": "no", "tactile_paving": "yes", "wheelchair": "no"}}, {"type": "node", "id": 12160335767, "lat": 43.2462844, "lon": 5.4086016, "tags": {"bus": "yes", "name": "R\u00e9sidence Le Montmorency", "name:oc": "Resid\u00e9ncia Lo Montmorenci", "public_transport": "stop_position"}}, {"type": "node", "id": 12160335768, "lat": 43.246444, "lon": 5.4083455, "tags": {"bus": "yes", "name": "R\u00e9sidence Le Montmorency", "name:oc": "Resid\u00e9ncia Lo Montmorenci", "public_transport": "stop_position"}}, {"type": "node", "id": 12292382674, "lat": 43.2712022, "lon": 5.4020617, "tags": {"level": "0", "name": "Sainte-Marguerite Dromel", "network": "RTM", "operator": "R\u00e9gie des Transports M\u00e9tropolitains", "public_transport": "stop_position", "railway": "tram_stop", "source": "survey", "tram": "yes", "wheelchair": "yes"}}, {"type": "node", "id": 12292382675, "lat": 43.2691491, "lon": 5.4030214}, {"type": "node", "id": 12292382676, "lat": 43.2688542, "lon": 5.4030101, "tags": {"railway": "tram_crossing"}}, {"type": "node", "id": 12292382677, "lat": 43.268998, "lon": 5.4030445}, {"type": "node", "id": 12292382678, "lat": 43.269099, "lon": 5.4030599}, {"type": "node", "id": 12292382679, "lat": 43.2691742, "lon": 5.4030614}, {"type": "node", "id": 12292382680, "lat": 43.2693095, "lon": 5.4030541}, {"type": "node", "id": 12292382681, "lat": 43.2694125, "lon": 5.4030414}, {"type": "node", "id": 12292382682, "lat": 43.2694833, "lon": 5.4030271}, {"type": "node", "id": 12337440481, "lat": 43.2862643, "lon": 5.3836002}, {"type": "node", "id": 12337440483, "lat": 43.2851918, "lon": 5.3851207}, {"type": "node", "id": 12337440500, "lat": 43.275125, "lon": 5.3997358}, {"type": "node", "id": 12337454514, "lat": 43.2774225, "lon": 5.399126, "tags": {"railway": "tram_level_crossing"}}, {"type": "node", "id": 12337454515, "lat": 43.277498, "lon": 5.3990842}, {"type": "node", "id": 12337454516, "lat": 43.2775731, "lon": 5.3990118}, {"type": "node", "id": 12337454517, "lat": 43.2776483, "lon": 5.3989112}, {"type": "node", "id": 12337454518, "lat": 43.2823533, "lon": 5.3903134, "tags": {"level": "0", "name": "Parc du 26e Centenaire", "network": "RTM", "operator": "R\u00e9gie des Transports M\u00e9tropolitains", "public_transport": "stop_position", "railway": "tram_stop", "source": "survey", "tram": "yes", "wheelchair": "yes"}}, {"type": "node", "id": 12337454521, "lat": 43.2856472, "lon": 5.3842623}, {"type": "node", "id": 12337454522, "lat": 43.2856854, "lon": 5.3842015}, {"type": "node", "id": 12337454523, "lat": 43.2857504, "lon": 5.3841386}, {"type": "node", "id": 12337454524, "lat": 43.2859694, "lon": 5.384016}, {"type": "node", "id": 12337454525, "lat": 43.2860204, "lon": 5.3839675}, {"type": "node", "id": 12337454526, "lat": 43.2861123, "lon": 5.3838388}, {"type": "node", "id": 12337454527, "lat": 43.2861437, "lon": 5.3837333}, {"type": "node", "id": 12337454528, "lat": 43.2861865, "lon": 5.3836355}, {"type": "node", "id": 12337454529, "lat": 43.2862406, "lon": 5.3835765}, {"type": "node", "id": 12416491231, "lat": 43.2697755, "lon": 5.4029401}, {"type": "node", "id": 12416491232, "lat": 43.269946, "lon": 5.4028677}, {"type": "node", "id": 12416491233, "lat": 43.2701671, "lon": 5.4027629}, {"type": "node", "id": 12416491235, "lat": 43.2639106, "lon": 5.4042266, "tags": {"railway": "tram_level_crossing"}}, {"type": "node", "id": 12416491236, "lat": 43.2637006, "lon": 5.4042986}, {"type": "node", "id": 12416491237, "lat": 43.2629615, "lon": 5.4045577}, {"type": "node", "id": 12416491238, "lat": 43.2622022, "lon": 5.4044137}, {"type": "node", "id": 12416491239, "lat": 43.2621388, "lon": 5.4044481}, {"type": "node", "id": 12416491240, "lat": 43.2621024, "lon": 5.4044824}, {"type": "node", "id": 12416491241, "lat": 43.2617212, "lon": 5.405128}, {"type": "node", "id": 12416491242, "lat": 43.2606648, "lon": 5.4068156}, {"type": "node", "id": 12416491243, "lat": 43.2598396, "lon": 5.4081326}, {"type": "node", "id": 12416491244, "lat": 43.259173, "lon": 5.4091807}, {"type": "node", "id": 12416491245, "lat": 43.2591342, "lon": 5.4092244}, {"type": "node", "id": 12416491246, "lat": 43.2590441, "lon": 5.4093143}, {"type": "node", "id": 12416491247, "lat": 43.2586971, "lon": 5.4095748}, {"type": "node", "id": 12416491248, "lat": 43.2578317, "lon": 5.4102191}, {"type": "node", "id": 12416491249, "lat": 43.2571355, "lon": 5.410746}, {"type": "node", "id": 12416491252, "lat": 43.2622517, "lon": 5.4043979}, {"type": "node", "id": 12416491253, "lat": 43.2622424, "lon": 5.4043632, "tags": {"railway": "tram_crossing"}}, {"type": "node", "id": 12416491254, "lat": 43.262305, "lon": 5.4043962}, {"type": "node", "id": 12416491255, "lat": 43.262348, "lon": 5.4043755}, {"type": "node", "id": 12416491256, "lat": 43.2590671, "lon": 5.4092465}, {"type": "node", "id": 12416491257, "lat": 43.2592463, "lon": 5.4090759}, {"type": "node", "id": 12416491258, "lat": 43.2591879, "lon": 5.4091039}, {"type": "node", "id": 12416491260, "lat": 43.2563533, "lon": 5.4113384}, {"type": "node", "id": 12416491262, "lat": 43.2563433, "lon": 5.4113033}, {"type": "node", "id": 12641552897, "lat": 43.2675261, "lon": 5.4023367}, {"type": "node", "id": 12641552898, "lat": 43.267613, "lon": 5.4023177, "tags": {"railway": "tram_level_crossing"}}, {"type": "node", "id": 12641552899, "lat": 43.2666466, "lon": 5.4027722, "tags": {"railway": "tram_level_crossing"}}, {"type": "node", "id": 12641552900, "lat": 43.2666529, "lon": 5.4027958, "tags": {"railway": "tram_level_crossing"}}, {"type": "node", "id": 13183662779, "lat": 43.2863364, "lon": 5.383522, "tags": {"railway": "tram_crossing"}}, {"type": "node", "id": 13183662780, "lat": 43.2863464, "lon": 5.3835559, "tags": {"railway": "tram_crossing"}}, {"type": "node", "id": 13183662782, "lat": 43.28588, "lon": 5.3840661, "tags": {"railway": "tram_level_crossing"}}, {"type": "node", "id": 13183662783, "lat": 43.2855817, "lon": 5.3843797, "tags": {"railway": "tram_crossing"}}, {"type": "node", "id": 13183662784, "lat": 43.2856048, "lon": 5.3844007, "tags": {"railway": "tram_crossing"}}, {"type": "node", "id": 13183662785, "lat": 43.2859304, "lon": 5.3840939, "tags": {"railway": "tram_level_crossing"}}, {"type": "node", "id": 13184713013, "lat": 43.2621475, "lon": 5.4043965, "tags": {"highway": "crossing", "railway": "tram_level_crossing"}}, {"type": "node", "id": 13404998275, "lat": 43.276922, "lon": 5.3992589, "tags": {"fixme": "\u00e0 pr\u00e9ciser apr\u00e8s mise \u00e0 jour de l'orthophoto", "name": "Place Ferri\u00e9", "network": "RTM", "operator": "R\u00e9gie des Transports M\u00e9tropolitains", "public_transport": "stop_position", "railway": "tram_stop", "source": "survey", "tram": "yes", "wheelchair": "yes"}}, {"type": "node", "id": 13404998276, "lat": 43.2769313, "lon": 5.399308, "tags": {"fixme": "\u00e0 pr\u00e9ciser apr\u00e8s mise \u00e0 jour de l'orthophoto", "name": "Place Ferri\u00e9", "network": "RTM", "operator": "R\u00e9gie des Transports M\u00e9tropolitains", "public_transport": "stop_position", "railway": "tram_stop", "source": "survey", "tram": "yes", "wheelchair": "yes"}}, {"type": "node", "id": 13404998278, "lat": 43.2664162, "lon": 5.4029221, "tags": {"level": "0", "name": "Aubert Ganay", "network": "RTM", "operator": "R\u00e9gie des Transports M\u00e9tropolitains", "public_transport": "stop_position", "railway": "tram_stop", "source": "survey", "tram": "yes", "wheelchair": "yes"}}, {"type": "node", "id": 13404998279, "lat": 43.2664102, "lon": 5.4028973, "tags": {"level": "0", "name": "Aubert Ganay", "network": "RTM", "operator": "R\u00e9gie des Transports M\u00e9tropolitains", "public_transport": "stop_position", "railway": "tram_stop", "source": "survey", "tram": "yes", "wheelchair": "yes"}}, {"type": "node", "id": 13404998280, "lat": 43.261914, "lon": 5.4048014, "tags": {"level": "0", "name": "Parc S\u00e9vign\u00e9", "network": "RTM", "operator": "R\u00e9gie des Transports M\u00e9tropolitains", "public_transport": "stop_position", "railway": "tram_stop", "source": "survey", "tram": "yes", "wheelchair": "yes"}}, {"type": "node", "id": 13404998281, "lat": 43.2618926, "lon": 5.4047726, "tags": {"level": "0", "name": "Parc S\u00e9vign\u00e9", "network": "RTM", "operator": "R\u00e9gie des Transports M\u00e9tropolitains", "public_transport": "stop_position", "railway": "tram_stop", "source": "survey", "tram": "yes", "wheelchair": "yes"}}, {"type": "node", "id": 13404998282, "lat": 43.259433, "lon": 5.4087791, "tags": {"level": "0", "name": "H\u00f4pital Sainte-Marguerite", "network": "RTM", "operator": "R\u00e9gie des Transports M\u00e9tropolitains", "public_transport": "stop_position", "railway": "tram_stop", "source": "survey", "tram": "yes", "wheelchair": "yes"}}, {"type": "node", "id": 13404998283, "lat": 43.2594167, "lon": 5.4087571, "tags": {"level": "0", "name": "H\u00f4pital Sainte-Marguerite", "network": "RTM", "operator": "R\u00e9gie des Transports M\u00e9tropolitains", "public_transport": "stop_position", "railway": "tram_stop", "source": "survey", "tram": "yes", "wheelchair": "yes"}}, {"type": "node", "id": 13404998284, "lat": 43.256805, "lon": 5.4109979, "tags": {"name": "La Gaye", "network": "RTM", "operator": "R\u00e9gie des Transports M\u00e9tropolitains", "public_transport": "stop_position", "railway": "tram_stop", "source": "survey", "tram": "yes", "wheelchair": "yes"}}, {"type": "node", "id": 13404998285, "lat": 43.2567917, "lon": 5.4109656, "tags": {"name": "La Gaye", "network": "RTM", "operator": "R\u00e9gie des Transports M\u00e9tropolitains", "public_transport": "stop_position", "railway": "tram_stop", "source": "survey", "tram": "yes", "wheelchair": "yes"}}, {"type": "node", "id": 13408923600, "lat": 43.2798931, "lon": 5.3948878, "tags": {"level": "0", "name": "Cantini Rouet", "network": "RTM", "operator": "R\u00e9gie des Transports M\u00e9tropolitains", "public_transport": "stop_position", "railway": "tram_stop", "source": "survey", "tram": "yes", "wheelchair": "yes"}}, {"type": "node", "id": 13408944501, "lat": 43.2798682, "lon": 5.3948588, "tags": {"level": "0", "name": "Cantini Rouet", "network": "RTM", "operator": "R\u00e9gie des Transports M\u00e9tropolitains", "public_transport": "stop_position", "railway": "tram_stop", "source": "survey", "tram": "yes", "wheelchair": "yes"}}, {"type": "node", "id": 13418425099, "lat": 43.2660137, "lon": 5.4031317, "tags": {"railway": "tram_level_crossing"}}, {"type": "node", "id": 13418425100, "lat": 43.2660077, "lon": 5.4031104, "tags": {"railway": "tram_level_crossing"}}, {"type": "node", "id": 13437306364, "lat": 43.2851788, "lon": 5.3851017, "tags": {"railway": "tram_crossing"}}, {"type": "node", "id": 13437306365, "lat": 43.2851288, "lon": 5.3851913, "tags": {"railway": "tram_level_crossing"}}, {"type": "node", "id": 13437306366, "lat": 43.2844302, "lon": 5.3864432, "tags": {"railway": "tram_level_crossing"}}, {"type": "node", "id": 13437306367, "lat": 43.2839624, "lon": 5.3872816, "tags": {"railway": "tram_level_crossing"}}, {"type": "node", "id": 13437306368, "lat": 43.2838863, "lon": 5.3874176, "tags": {"railway": "tram_level_crossing"}}, {"type": "node", "id": 13437306369, "lat": 43.2832944, "lon": 5.388488, "tags": {"railway": "tram_crossing"}}, {"type": "node", "id": 13437306372, "lat": 43.2828578, "lon": 5.3893675, "tags": {"railway": "tram_level_crossing"}}, {"type": "node", "id": 13437306373, "lat": 43.2825168, "lon": 5.3900088, "tags": {"railway": "tram_crossing"}}, {"type": "node", "id": 13437306374, "lat": 43.2821054, "lon": 5.3907667, "tags": {"railway": "tram_crossing"}}, {"type": "node", "id": 13437306375, "lat": 43.2796783, "lon": 5.3952055, "tags": {"railway": "tram_crossing"}}, {"type": "node", "id": 13437306376, "lat": 43.2777363, "lon": 5.3987505, "tags": {"railway": "tram_crossing"}}, {"type": "node", "id": 13437306377, "lat": 43.2775939, "lon": 5.3989839, "tags": {"railway": "tram_level_crossing"}}, {"type": "node", "id": 13437306378, "lat": 43.2772459, "lon": 5.3991729, "tags": {"railway": "tram_crossing"}}, {"type": "node", "id": 13437306379, "lat": 43.2771916, "lon": 5.3991873, "tags": {"railway": "tram_crossing"}}, {"type": "node", "id": 13437306380, "lat": 43.2760557, "lon": 5.3994888, "tags": {"railway": "tram_level_crossing"}}, {"type": "node", "id": 13437306381, "lat": 43.2744292, "lon": 5.400007, "tags": {"railway": "tram_level_crossing"}}, {"type": "node", "id": 13437306382, "lat": 43.2740985, "lon": 5.4002139, "tags": {"railway": "tram_level_crossing"}}, {"type": "node", "id": 13437306395, "lat": 43.2852094, "lon": 5.38509, "tags": {"railway": "tram_crossing"}}, {"type": "node", "id": 13437306396, "lat": 43.285158, "lon": 5.3851812, "tags": {"railway": "tram_level_crossing"}}, {"type": "node", "id": 13437306397, "lat": 43.2844437, "lon": 5.3864577, "tags": {"railway": "tram_level_crossing"}}, {"type": "node", "id": 13437306398, "lat": 43.2839003, "lon": 5.3874314, "tags": {"railway": "tram_level_crossing"}}, {"type": "node", "id": 13437413004, "lat": 43.282884, "lon": 5.389375, "tags": {"railway": "tram_level_crossing"}}, {"type": "node", "id": 13437413007, "lat": 43.2821264, "lon": 5.3907883, "tags": {"railway": "tram_crossing"}}, {"type": "node", "id": 13437413008, "lat": 43.2797048, "lon": 5.3952331, "tags": {"railway": "tram_crossing"}}, {"type": "node", "id": 13437413009, "lat": 43.2777668, "lon": 5.3987847, "tags": {"railway": "tram_crossing"}}, {"type": "node", "id": 13437413010, "lat": 43.2776009, "lon": 5.3990576, "tags": {"railway": "tram_level_crossing"}}, {"type": "node", "id": 13437413011, "lat": 43.2771999, "lon": 5.3992423, "tags": {"railway": "tram_crossing"}}, {"type": "node", "id": 13437413012, "lat": 43.2772534, "lon": 5.3992292, "tags": {"railway": "tram_crossing"}}, {"type": "node", "id": 13437413013, "lat": 43.2774288, "lon": 5.3991852, "tags": {"railway": "tram_level_crossing"}}, {"type": "node", "id": 13437413014, "lat": 43.2760876, "lon": 5.3995296, "tags": {"railway": "tram_level_crossing"}}, {"type": "node", "id": 13437413015, "lat": 43.2747158, "lon": 5.3998671}, {"type": "node", "id": 13437413016, "lat": 43.2746141, "lon": 5.3999098}, {"type": "node", "id": 13437413018, "lat": 43.2571497, "lon": 5.4107353, "tags": {"railway": "tram_crossing"}}, {"type": "node", "id": 13437413019, "lat": 43.2571388, "lon": 5.4107073, "tags": {"railway": "tram_crossing"}}, {"type": "node", "id": 13437413022, "lat": 43.2725337, "lon": 5.4012095, "tags": {"railway": "tram_level_crossing"}}, {"type": "node", "id": 13437413023, "lat": 43.2725434, "lon": 5.4012423, "tags": {"railway": "tram_level_crossing"}}, {"type": "node", "id": 13437413062, "lat": 43.2708931, "lon": 5.4022622, "tags": {"railway": "tram_level_crossing"}}, {"type": "node", "id": 13437413063, "lat": 43.2704046, "lon": 5.402579, "tags": {"railway": "tram_level_crossing"}}, {"type": "node", "id": 13437413064, "lat": 43.2683317, "lon": 5.4026769, "tags": {"railway": "tram_level_crossing"}}, {"type": "node", "id": 13437413065, "lat": 43.270196, "lon": 5.4027143, "tags": {"railway": "tram_level_crossing"}}, {"type": "node", "id": 13437413066, "lat": 43.2689416, "lon": 5.4029884, "tags": {"railway": "tram_crossing"}}, {"type": "node", "id": 13437413067, "lat": 43.2689945, "lon": 5.4030031, "tags": {"railway": "tram_level_crossing"}}, {"type": "node", "id": 13437413068, "lat": 43.2690557, "lon": 5.4030117, "tags": {"railway": "tram_level_crossing"}}, {"type": "node", "id": 13437413069, "lat": 43.269617, "lon": 5.4029584, "tags": {"railway": "tram_level_crossing"}}, {"type": "node", "id": 13437413070, "lat": 43.2654823, "lon": 5.4033882, "tags": {"railway": "tram_level_crossing"}}, {"type": "node", "id": 13437413071, "lat": 43.2649502, "lon": 5.4036616, "tags": {"railway": "tram_crossing"}}, {"type": "node", "id": 13437413072, "lat": 43.2646275, "lon": 5.4038274, "tags": {"railway": "tram_level_crossing"}}, {"type": "node", "id": 13437413073, "lat": 43.264761, "lon": 5.4037588, "tags": {"railway": "tram_level_crossing"}}, {"type": "node", "id": 13437413074, "lat": 43.2636623, "lon": 5.4042831, "tags": {"railway": "tram_level_crossing"}}, {"type": "node", "id": 13437413075, "lat": 43.26205, "lon": 5.4045042, "tags": {"railway": "tram_crossing"}}, {"type": "node", "id": 13437413076, "lat": 43.2626969, "lon": 5.4044522, "tags": {"railway": "tram_level_crossing"}}, {"type": "node", "id": 13437413077, "lat": 43.262764, "lon": 5.404467, "tags": {"railway": "tram_level_crossing"}}, {"type": "node", "id": 13437413078, "lat": 43.2628637, "lon": 5.4044889, "tags": {"railway": "tram_crossing"}}, {"type": "node", "id": 13437413079, "lat": 43.2629102, "lon": 5.4044991, "tags": {"railway": "tram_crossing"}}, {"type": "node", "id": 13437413080, "lat": 43.26167, "lon": 5.4051495, "tags": {"railway": "tram_crossing"}}, {"type": "node", "id": 13437413081, "lat": 43.2616431, "lon": 5.405193, "tags": {"railway": "tram_level_crossing"}}, {"type": "node", "id": 13437413082, "lat": 43.2616509, "lon": 5.4051805, "tags": {"railway": "tram_level_crossing"}}, {"type": "node", "id": 13437413083, "lat": 43.2613215, "lon": 5.4057135, "tags": {"railway": "tram_level_crossing"}}, {"type": "node", "id": 13437413084, "lat": 43.2607877, "lon": 5.4065742, "tags": {"railway": "tram_level_crossing"}}, {"type": "node", "id": 13437413085, "lat": 43.2601848, "lon": 5.4075252, "tags": {"railway": "tram_level_crossing"}}, {"type": "node", "id": 13437413086, "lat": 43.2591022, "lon": 5.4092077, "tags": {"railway": "tram_level_crossing"}}, {"type": "node", "id": 13437413087, "lat": 43.2580554, "lon": 5.4100116, "tags": {"railway": "tram_crossing"}}, {"type": "node", "id": 13437413088, "lat": 43.2581147, "lon": 5.4099666, "tags": {"railway": "tram_level_crossing"}}, {"type": "node", "id": 13437413089, "lat": 43.2579122, "lon": 5.4101203, "tags": {"railway": "tram_level_crossing"}}, {"type": "node", "id": 13437413090, "lat": 43.2578083, "lon": 5.4101992, "tags": {"railway": "tram_crossing"}}, {"type": "node", "id": 13437413091, "lat": 43.27411, "lon": 5.4002472, "tags": {"railway": "tram_level_crossing"}}, {"type": "node", "id": 13437413092, "lat": 43.2709042, "lon": 5.4022938, "tags": {"railway": "tram_level_crossing"}}, {"type": "node", "id": 13437413093, "lat": 43.2704178, "lon": 5.4026033, "tags": {"railway": "tram_level_crossing"}}, {"type": "node", "id": 13437413094, "lat": 43.2683176, "lon": 5.4027208, "tags": {"railway": "tram_level_crossing"}}, {"type": "node", "id": 13437413095, "lat": 43.2702064, "lon": 5.4027379, "tags": {"railway": "tram_level_crossing"}}, {"type": "node", "id": 13437413096, "lat": 43.2689241, "lon": 5.4030268, "tags": {"railway": "tram_crossing"}}, {"type": "node", "id": 13437413097, "lat": 43.2689814, "lon": 5.4030405, "tags": {"railway": "tram_level_crossing"}}, {"type": "node", "id": 13437413098, "lat": 43.269621, "lon": 5.4029861, "tags": {"railway": "tram_level_crossing"}}, {"type": "node", "id": 13437413099, "lat": 43.269039, "lon": 5.4030508, "tags": {"railway": "tram_level_crossing"}}, {"type": "node", "id": 13437413100, "lat": 43.2654867, "lon": 5.4034061, "tags": {"railway": "tram_level_crossing"}}, {"type": "node", "id": 13437413101, "lat": 43.2649557, "lon": 5.4036825, "tags": {"railway": "tram_crossing"}}, {"type": "node", "id": 13437413102, "lat": 43.2646342, "lon": 5.4038499, "tags": {"railway": "tram_level_crossing"}}, {"type": "node", "id": 13437413103, "lat": 43.2647677, "lon": 5.4037804, "tags": {"railway": "tram_level_crossing"}}, {"type": "node", "id": 13437413104, "lat": 43.263668, "lon": 5.40431, "tags": {"railway": "tram_level_crossing"}}, {"type": "node", "id": 13437413105, "lat": 43.2622191, "lon": 5.4044083, "tags": {"railway": "tram_crossing"}}, {"type": "node", "id": 13437413106, "lat": 43.262184, "lon": 5.4044236, "tags": {"railway": "tram_level_crossing"}}, {"type": "node", "id": 13437413107, "lat": 43.2620765, "lon": 5.4045263, "tags": {"railway": "tram_crossing"}}, {"type": "node", "id": 13437413108, "lat": 43.2626863, "lon": 5.40449, "tags": {"railway": "tram_level_crossing"}}, {"type": "node", "id": 13437413109, "lat": 43.2627749, "lon": 5.4045118, "tags": {"railway": "tram_level_crossing"}}, {"type": "node", "id": 13437413110, "lat": 43.2628712, "lon": 5.4045355, "tags": {"railway": "tram_crossing"}}, {"type": "node", "id": 13437413111, "lat": 43.2629175, "lon": 5.4045469, "tags": {"railway": "tram_crossing"}}, {"type": "node", "id": 13437413112, "lat": 43.2616741, "lon": 5.4052033, "tags": {"railway": "tram_level_crossing"}}, {"type": "node", "id": 13437413113, "lat": 43.2616574, "lon": 5.4052299, "tags": {"railway": "tram_level_crossing"}}, {"type": "node", "id": 13437413114, "lat": 43.2616935, "lon": 5.4051723, "tags": {"railway": "tram_crossing"}}, {"type": "node", "id": 13437413115, "lat": 43.2613404, "lon": 5.4057364, "tags": {"railway": "tram_level_crossing"}}, {"type": "node", "id": 13437413116, "lat": 43.260796, "lon": 5.406606, "tags": {"railway": "tram_level_crossing"}}, {"type": "node", "id": 13437413117, "lat": 43.2602053, "lon": 5.4075489, "tags": {"railway": "tram_level_crossing"}}, {"type": "node", "id": 13437413118, "lat": 43.2588864, "lon": 5.4094327, "tags": {"railway": "tram_crossing"}}, {"type": "node", "id": 13437413119, "lat": 43.258069, "lon": 5.4100424, "tags": {"railway": "tram_crossing"}}, {"type": "node", "id": 13437413120, "lat": 43.2581264, "lon": 5.4099997, "tags": {"railway": "tram_level_crossing"}}, {"type": "node", "id": 13437413121, "lat": 43.2578176, "lon": 5.4102297, "tags": {"railway": "tram_crossing"}}, {"type": "node", "id": 13437413122, "lat": 43.2579215, "lon": 5.4101523, "tags": {"railway": "tram_level_crossing"}}, {"type": "node", "id": 13446498027, "lat": 43.2767204, "lon": 5.3993634, "tags": {"railway": "tram_crossing"}}, {"type": "node", "id": 13446498028, "lat": 43.2767133, "lon": 5.3993143, "tags": {"railway": "tram_crossing"}}, {"type": "node", "id": 13448200113, "lat": 43.28403, "lon": 5.3871988, "tags": {"railway": "tram_level_crossing"}}, {"type": "node", "id": 13448200114, "lat": 43.2840177, "lon": 5.3871825, "tags": {"railway": "tram_level_crossing"}}, {"type": "node", "id": 13448200123, "lat": 43.2831139, "lon": 5.388921, "tags": {"railway": "tram_level_crossing"}}, {"type": "node", "id": 13448200124, "lat": 43.2831172, "lon": 5.388845, "tags": {"railway": "tram_level_crossing"}}, {"type": "node", "id": 13448200130, "lat": 43.2833183, "lon": 5.3885172, "tags": {"railway": "tram_crossing"}}, {"type": "node", "id": 13448200131, "lat": 43.2825359, "lon": 5.3900301, "tags": {"railway": "tram_crossing"}}, {"type": "node", "id": 13452221277, "lat": 43.2721585, "lon": 5.4014897}, {"type": "node", "id": 13452221286, "lat": 43.2715261, "lon": 5.4018961}, {"type": "node", "id": 13452221290, "lat": 43.2720476, "lon": 5.401561}, {"type": "node", "id": 13452221291, "lat": 43.2718598, "lon": 5.4016408}, {"type": "node", "id": 13452221292, "lat": 43.2720358, "lon": 5.4015282}, {"type": "node", "id": 13452221293, "lat": 43.2718679, "lon": 5.4016765}, {"type": "node", "id": 13452267049, "lat": 43.2567305, "lon": 5.4108317, "tags": {"bus": "yes", "name": "La Gaye", "public_transport": "stop_position"}}, {"type": "node", "id": 13452267050, "lat": 43.2560051, "lon": 5.4074851, "tags": {"bus": "yes", "highway": "bus_stop", "name": "Horticulture", "name:oc": "Orticultura", "public_transport": "platform", "shelter": "yes", "source": "Terrain", "source:name:oc": "ieo-bdtopoc", "tactile_paving": "yes", "wheelchair": "yes"}}, {"type": "node", "id": 13452267051, "lat": 43.2566214, "lon": 5.408491, "tags": {"bus": "yes", "highway": "bus_stop", "name": "Horticulture", "name:oc": "Orticultura", "public_transport": "platform", "shelter": "yes", "source": "Terrain", "source:name:oc": "ieo-bdtopoc", "wheelchair": "no"}}, {"type": "node", "id": 13452267052, "lat": 43.2565924, "lon": 5.4084984, "tags": {"bus": "yes", "name": "Horticulture", "name:oc": "Orticultura", "operator": "RTM", "public_transport": "stop_position"}}, {"type": "node", "id": 13452267053, "lat": 43.2560405, "lon": 5.4074598, "tags": {"bus": "yes", "name": "Horticulture", "name:oc": "Orticultura", "operator": "RTM", "public_transport": "stop_position"}}, {"type": "node", "id": 13452267056, "lat": 43.2567642, "lon": 5.4109094, "tags": {"bench": "yes", "bus": "yes", "highway": "bus_stop", "name": "La Gaye", "network": "RTM", "network:wikidata": "Q3454986", "public_transport": "platform", "shelter": "yes"}}, {"type": "node", "id": 13452267059, "lat": 43.2588999, "lon": 5.3996302, "tags": {"bus": "yes", "highway": "bus_stop", "name": "Michelet Luce", "name:oc": "Michelet - L\u00facia", "public_transport": "platform", "source:name:oc": "ieo-bdtopoc", "wheelchair": "no"}}, {"type": "node", "id": 13452267060, "lat": 43.258938, "lon": 5.3996101, "tags": {"bus": "yes", "name": "Michelet Luce", "name:oc": "Michelet - L\u00facia", "public_transport": "stop_position", "source:name:oc": "ieo-bdtopoc"}}, {"type": "node", "id": 13452825158, "lat": 43.2792951, "lon": 5.3959052, "tags": {"railway": "tram_crossing"}}, {"type": "node", "id": 13452825159, "lat": 43.2793218, "lon": 5.395935, "tags": {"railway": "tram_crossing"}}, {"type": "node", "id": 13452825173, "lat": 43.2838322, "lon": 5.3875584, "tags": {"railway": "tram_level_crossing"}}, {"type": "node", "id": 13452825174, "lat": 43.2838179, "lon": 5.3875413, "tags": {"railway": "tram_level_crossing"}}, {"type": "node", "id": 13452825190, "lat": 43.2800632, "lon": 5.3945761, "tags": {"railway": "tram_crossing"}}, {"type": "node", "id": 13452825191, "lat": 43.2800378, "lon": 5.3945487, "tags": {"railway": "tram_crossing"}}, {"type": "node", "id": 13452825196, "lat": 43.2808315, "lon": 5.3931681, "tags": {"railway": "tram_crossing"}}, {"type": "node", "id": 13452825197, "lat": 43.280807, "lon": 5.3931416, "tags": {"railway": "tram_crossing"}}, {"type": "way", "id": 1085867756, "nodes": [3544483605, 13183662779, 12337454529, 12337454528, 12337454527, 12337454526, 12337454525, 12337454524, 13183662782, 12337454523, 12337454522, 12337454521, 13183662783, 3544780767, 13437306364, 13437306365, 13437306366, 13448200114, 13437306367, 13437306368, 13452825174, 13437306369, 13448200124, 13437306372, 13437306373, 12337454518, 13437306374, 13452825197, 13452825191, 13408944501, 13437306375, 13452825158, 13437306376, 12337454517, 13437306377, 12337454516, 12337454515, 12337454514, 13437306378, 13437306379, 13404998275, 13446498028, 13437306380, 12337440500, 11853940793, 13437413015, 13437413016, 9949824549, 13437306381, 9949824550, 13437306382, 9949824551, 11932786640, 11853940792, 13437413022, 13452221292, 13452221291, 12292382674, 13437413062, 13437413063, 13437413065, 9949824552, 9949824553, 13437413069, 9949824554, 9949824555, 12292382675, 13437413068, 9949824556, 13437413067, 13437413066, 9957253802, 9949824557, 11853940790, 13437413064, 10207638431, 9949824559, 9949824560, 12641552898, 12641552897, 9949824561, 9949824563, 12641552899, 13404998279, 13418425100, 10816629057, 13437413070, 13437413071, 13437413073, 13437413072, 9949824566, 13437413074, 11853940788, 9949824567, 13437413079, 13437413078, 13437413077, 13437413076, 12416491255, 12416491253, 11853940787, 13184713013, 9949824572, 13437413075, 13404998281, 9949824574, 13437413080, 13437413082, 13437413081, 13437413083, 9949824575, 13437413084, 11853940786, 9949824578, 13437413085, 9949824580, 13404998283, 9949824581, 12416491258, 9949824583, 13437413086, 12416491256, 9949824584, 9949824585, 13437413088, 13437413087, 13437413089, 13437413090, 13437413019, 9949780131, 13404998285], "tags": {"electrified": "contact_line", "frequency": "0", "gauge": "1435", "level": "0", "name": "Tramway 3", "operator": "RTM", "railway": "tram", "railway:preferred_direction": "forward", "source": "survey", "voltage": "750"}}, {"type": "way", "id": 1465060405, "nodes": [13404998284, 12416491249, 13437413018, 13437413121, 12416491248, 13437413122, 13437413119, 13437413120, 12416491247, 13437413118, 12416491246, 10816628864, 12416491245, 12416491244, 12416491257, 13404998282, 12416491243, 13437413117, 12416491242, 13437413116, 13437413115, 13437413113, 13437413112, 13437413114, 12416491241, 13404998280, 13437413107, 12416491240, 12416491239, 13437413106, 12416491238, 13437413105, 12416491252, 12416491254, 13437413108, 13437413109, 13437413110, 13437413111, 12416491237, 13437413104, 12416491236, 12416491235, 13437413102, 13437413103, 13437413101, 13437413100, 13418425099, 13404998278, 12641552900, 11932786657, 11932786656, 11932786655, 11932786654, 11932786653, 11932786652, 11932786651, 11932786650, 11932786649, 13437413094, 11932786648, 11932786647, 11932786646, 12292382676, 13437413096, 13437413097, 12292382677, 13437413099, 12292382678, 12292382679, 12292382680, 12292382681, 12292382682, 13437413098, 12416491231, 12416491232, 12416491233, 13437413095, 13437413093, 13437413092, 11932786643, 13452221286, 13452221293, 13452221290, 13452221277, 13437413023, 11932786642, 11932786638, 11932786639, 11932786637, 11932786636, 13437413091, 11932786635, 11932786634, 11932786633, 11932786632, 11932786631, 11932786629, 13437413014, 13446498027, 13404998276, 13437413011, 13437413012, 9949824548, 13437413013, 9949824547, 9949824546, 13437413010, 9949824545, 13437413009, 13452825159, 13437413008, 13408923600, 13452825190, 13452825196, 9949715962, 13437413007, 9949715959, 13448200131, 13437413004, 13448200123, 13448200130, 13452825173, 13437306398, 11853940794, 13448200113, 13437306397, 9949715952, 13437306396, 12337440483, 13437306395, 3544780768, 13183662784, 9949715947, 9949715946, 9949715945, 9949715943, 13183662785, 9949715941, 9949715939, 9949715937, 9949715935, 9949715934, 12337440481, 13183662780, 3544483606], "tags": {"electrified": "contact_line", "frequency": "0", "gauge": "1435", "level": "0", "name": "Tramway 3", "operator": "RTM", "railway": "tram", "railway:preferred_direction": "forward", "source": "survey", "voltage": "750"}}, {"type": "way", "id": 1465104013, "nodes": [12416491260, 13404998284], "tags": {"electrified": "contact_line", "frequency": "0", "gauge": "1435", "level": "0", "name": "Tramway 3", "operator": "RTM", "railway": "tram", "railway:preferred_direction": "forward", "source": "survey", "voltage": "750"}}, {"type": "way", "id": 1465104014, "nodes": [13404998285, 12416491262], "tags": {"electrified": "contact_line", "frequency": "0", "gauge": "1435", "level": "0", "name": "Tramway 3", "operator": "RTM", "railway": "tram", "source": "survey", "voltage": "750"}}, {"type": "relation", "id": 4451615, "members": [{"type": "node", "ref": 1696622324, "role": "platform"}, {"type": "node", "ref": 1969809320, "role": "stop"}, {"type": "node", "ref": 5890726204, "role": "platform"}, {"type": "node", "ref": 270918752, "role": "stop"}], "tags": {"name": "Luminy PN des Calanques", "name:oc": "Lumini - PN dei Calancas", "network": "RTM", "operator": "R\u00e9gie des Tranports M\u00e9tropolitains", "public_transport": "stop_area", "source:name:oc": "ieo-bdtopoc", "type": "public_transport"}}, {"type": "relation", "id": 6425706, "members": [{"type": "node", "ref": 1347031809, "role": "stop"}, {"type": "node", "ref": 1347031694, "role": "platform"}, {"type": "node", "ref": 1347031748, "role": "platform"}], "tags": {"name": "Michelet Bonneaude", "name:oc": "Michelet - Bonnauda", "network": "RTM", "operator": "R\u00e9gie des Transports M\u00e9tropolitains", "public_transport": "stop_area", "source:name:oc": "ieo-bdtopoc", "type": "public_transport"}}, {"type": "relation", "id": 6425710, "members": [{"type": "node", "ref": 1347031795, "role": "platform"}, {"type": "node", "ref": 1347031718, "role": "stop"}, {"type": "node", "ref": 1334342124, "role": "platform"}, {"type": "node", "ref": 1781534076, "role": "stop"}, {"type": "node", "ref": 1781534075, "role": "platform"}, {"type": "node", "ref": 1347031761, "role": "stop"}, {"type": "node", "ref": 5913412985, "role": "platform"}, {"type": "node", "ref": 13452267059, "role": "platform"}, {"type": "node", "ref": 13452267060, "role": "stop"}], "tags": {"name": "Michelet Luce", "name:oc": "Michelet - L\u00facia", "network": "RTM", "operator": "R\u00e9gie des Transports M\u00e9tropolitains", "public_transport": "stop_area", "source:name:oc": "ieo-bdtopoc", "type": "public_transport"}}, {"type": "relation", "id": 6425712, "members": [{"type": "node", "ref": 1347031807, "role": "stop"}, {"type": "node", "ref": 1347031778, "role": "platform"}, {"type": "node", "ref": 1347031691, "role": "stop"}, {"type": "node", "ref": 1347031759, "role": "platform"}], "tags": {"name": "Michelet Taine", "name:oc": "Michelet - Taine", "network": "RTM", "operator": "R\u00e9gie des Transports M\u00e9tropolitains", "public_transport": "stop_area", "source:name:oc": "ieo-bdtopoc", "type": "public_transport"}}, {"type": "relation", "id": 6425713, "members": [{"type": "node", "ref": 1347031798, "role": "stop"}, {"type": "node", "ref": 1347031743, "role": "platform"}, {"type": "node", "ref": 804194301, "role": "stop"}, {"type": "node", "ref": 1347031749, "role": "platform"}], "tags": {"name": "Ob\u00e9lisque", "name:oc": "Obelisc", "network": "RTM", "operator": "R\u00e9gie des Transports M\u00e9tropolitains", "public_transport": "stop_area", "source:name:oc": "ieo-bdtopoc", "type": "public_transport"}}, {"type": "relation", "id": 6429490, "members": [{"type": "node", "ref": 4748924679, "role": "platform"}, {"type": "node", "ref": 2397771192, "role": "stop"}, {"type": "node", "ref": 4748932826, "role": "platform"}], "tags": {"name": "Stade de Luminy", "name:oc": "Estadi de Lumini", "network": "RTM", "operator": "R\u00e9gie des Transports M\u00e9tropolitains", "public_transport": "stop_area", "source:name:oc": "ieo-bdtopoc", "type": "public_transport"}}, {"type": "relation", "id": 6429491, "members": [{"type": "node", "ref": 112288165, "role": "stop"}, {"type": "node", "ref": 4748932454, "role": "platform"}], "tags": {"name": "Cochet", "name:oc": "Cochet", "network": "RTM", "operator": "R\u00e9gie des Transports M\u00e9tropolitains", "public_transport": "stop_area", "source:name:oc": "ieo-bdtopoc", "type": "public_transport"}}, {"type": "relation", "id": 6429493, "members": [{"type": "node", "ref": 2397771195, "role": "stop"}, {"type": "node", "ref": 12167515, "role": "stop"}], "tags": {"name": "Grands Pins", "name:oc": "Pin\u00e0s", "network": "RTM", "operator": "R\u00e9gie des Transports Marseillais", "public_transport": "stop_area", "source:name:oc": "ieo-bdtopoc", "type": "public_transport"}}, {"type": "relation", "id": 6429494, "members": [{"type": "node", "ref": 4314635096, "role": "stop"}, {"type": "node", "ref": 4736156715, "role": "stop"}, {"type": "node", "ref": 4736151939, "role": "platform"}, {"type": "node", "ref": 4736151940, "role": "platform"}], "tags": {"name": "Lachamp Augier", "name:oc": "Lachamp - Augier", "network": "RTM", "operator": "R\u00e9gie des Transports Marseillais", "public_transport": "stop_area", "source:name:oc": "ieo-bdtopoc", "type": "public_transport"}}, {"type": "relation", "id": 6429495, "members": [{"type": "node", "ref": 4736156820, "role": "platform"}, {"type": "node", "ref": 2687231707, "role": "stop"}, {"type": "node", "ref": 4736156821, "role": "platform"}, {"type": "node", "ref": 2687231723, "role": "stop"}], "tags": {"name": "Lachamp Luminy", "name:oc": "Lachamp - Lumini", "network": "RTM", "operator": "R\u00e9gie des Transports M\u00e9tropolitains", "public_transport": "stop_area", "source:name:oc": "ieo-bdtopoc", "type": "public_transport"}}, {"type": "relation", "id": 6429496, "members": [{"type": "node", "ref": 1452951596, "role": "platform"}, {"type": "node", "ref": 2688427419, "role": "stop"}, {"type": "node", "ref": 2688427359, "role": "stop"}, {"type": "node", "ref": 1452951580, "role": "platform"}, {"type": "node", "ref": 5906299043, "role": "stop"}], "tags": {"name": "Le Redon", "name:oc": "Lo Redon", "network": "RTM", "operator": "R\u00e9gie des Transports M\u00e9tropolitains", "public_transport": "stop_area", "source:name:oc": "ieo-bdtopoc", "type": "public_transport"}}, {"type": "relation", "id": 6429498, "members": [{"type": "node", "ref": 1452951640, "role": "platform"}, {"type": "node", "ref": 3986105359, "role": "stop"}, {"type": "node", "ref": 1452951623, "role": "platform"}, {"type": "node", "ref": 3986105186, "role": "stop"}], "tags": {"name": "R\u00e9sidence Valmont Redon", "name:oc": "Resid\u00e9ncia Valmont - Redon", "network": "RTM", "operator": "R\u00e9gie des Transports M\u00e9tropolitains", "public_transport": "stop_area", "source:name:oc": "ieo-bdtopoc", "type": "public_transport"}}, {"type": "relation", "id": 6429499, "members": [{"type": "node", "ref": 5894188453, "role": "platform"}, {"type": "node", "ref": 5894187852, "role": "stop"}, {"type": "node", "ref": 5894188635, "role": "platform"}, {"type": "node", "ref": 5894188555, "role": "stop"}], "tags": {"name": "Luminy Keydge BS", "name:oc": "Lumini - Kedge BS", "network": "RTM", "operator": "R\u00e9gie des Transports M\u00e9tropolitains", "public_transport": "stop_area", "source:name:oc": "ieo-bdtopoc", "type": "public_transport"}}, {"type": "relation", "id": 6429500, "members": [{"type": "node", "ref": 5895926901, "role": "stop"}, {"type": "node", "ref": 1452951659, "role": "platform"}, {"type": "node", "ref": 1452951655, "role": "stop"}, {"type": "node", "ref": 1452951649, "role": "platform"}], "tags": {"name": "Luminy HLM", "name:oc": "Lumini HLM", "network": "RTM", "operator": "R\u00e9gie des Transports M\u00e9tropolitains", "public_transport": "stop_area", "source:name:oc": "ieo-bdtopoc", "type": "public_transport"}}, {"type": "relation", "id": 6429502, "members": [{"type": "node", "ref": 5894187836, "role": "platform"}, {"type": "node", "ref": 5894187960, "role": "stop"}, {"type": "node", "ref": 1452951682, "role": "platform"}, {"type": "node", "ref": 5894187835, "role": "stop"}], "tags": {"name": "Luminy Complexe Sportif", "name:oc": "Lumini - Compl\u00e8x Esportiu", "network": "RTM", "operator": "R\u00e9gie des Transports M\u00e9tropolitains", "public_transport": "stop_area", "source:name:oc": "ieo-bdtopoc", "type": "public_transport"}}, {"type": "relation", "id": 6429503, "members": [{"type": "node", "ref": 5895927186, "role": "platform"}, {"type": "node", "ref": 1452951709, "role": "stop"}, {"type": "node", "ref": 5895927441, "role": "platform"}, {"type": "node", "ref": 5895927362, "role": "stop"}], "tags": {"name": "Luminy Lachamp", "name:oc": "Lumini - Lachamp", "network": "RTM", "operator": "R\u00e9gie des Transports M\u00e9tropolitains", "public_transport": "stop_area", "source:name:oc": "ieo-bdtopoc", "type": "public_transport"}}, {"type": "relation", "id": 6429506, "members": [{"type": "node", "ref": 1452951750, "role": "platform"}, {"type": "node", "ref": 1452951741, "role": "stop"}, {"type": "node", "ref": 5911096874, "role": "platform"}], "tags": {"name": "Tomasi", "name:oc": "Tomasi", "network": "RTM", "operator": "R\u00e9gie des Transports M\u00e9tropolitains", "public_transport": "stop_area", "source:name:oc": "ieo-bdtopoc", "type": "public_transport"}}, {"type": "relation", "id": 6429507, "members": [{"type": "node", "ref": 1452951766, "role": "platform"}, {"type": "node", "ref": 2113358543, "role": "stop"}, {"type": "node", "ref": 1452951755, "role": "platform"}, {"type": "node", "ref": 5913414852, "role": "stop"}], "tags": {"name": "Sainte-Trinit\u00e9", "name:oc": "Santa Trinitat", "network": "RTM", "operator": "R\u00e9gie des Transports M\u00e9tropolitains", "public_transport": "stop_area", "source:name:oc": "ieo-bdtopoc", "type": "public_transport"}}, {"type": "relation", "id": 6429508, "members": [{"type": "node", "ref": 5911116627, "role": "platform"}, {"type": "node", "ref": 1452951782, "role": "platform"}, {"type": "node", "ref": 5911115176, "role": "stop"}, {"type": "node", "ref": 5911116279, "role": "platform"}, {"type": "node", "ref": 1452951778, "role": "stop"}, {"type": "node", "ref": 5911116740, "role": "platform"}], "tags": {"name": "Centre Commercial Valmante", "name:oc": "Centre Comerciau Valmanta", "network": "RTM", "operator": "R\u00e9gie des Transports M\u00e9tropolitains", "public_transport": "stop_area", "source:name:oc": "ieo-bdtopoc", "type": "public_transport"}}, {"type": "relation", "id": 6429510, "members": [{"type": "node", "ref": 112289271, "role": "stop"}, {"type": "node", "ref": 4748924681, "role": "platform"}], "tags": {"name": "Kedge BS", "name:oc": "Kedge BS", "network": "RTM", "operator": "R\u00e9gie des Transports M\u00e9tropolitains", "public_transport": "stop_area", "source:name:oc": "ieo-bdtopoc", "type": "public_transport"}}, {"type": "relation", "id": 6447806, "members": [{"type": "node", "ref": 2396680491, "role": "stop"}, {"type": "node", "ref": 4328308788, "role": "platform"}, {"type": "node", "ref": 2396680490, "role": "stop"}, {"type": "node", "ref": 4328308787, "role": "platform"}], "tags": {"name": "All\u00e9e des Pins", "name:oc": "Andana dei Pins", "network": "RTM", "operator": "R\u00e9gie des Transports M\u00e9tropolitains", "public_transport": "stop_area", "source:name:oc": "ieo-bdtopoc", "type": "public_transport"}}, {"type": "relation", "id": 6447810, "members": [{"type": "node", "ref": 4721782892, "role": "platform"}, {"type": "node", "ref": 4721782080, "role": "stop"}, {"type": "node", "ref": 4721782079, "role": "platform"}], "tags": {"name": "La Gouffonne", "name:oc": "Gaufona", "network": "RTM", "operator": "R\u00e9gie des Transports Marseillais", "public_transport": "stop_area", "source:name:oc": "ieo-bdtopoc", "type": "public_transport"}}, {"type": "relation", "id": 6447811, "members": [{"type": "node", "ref": 4328307999, "role": "platform"}, {"type": "node", "ref": 401866091, "role": "stop"}, {"type": "node", "ref": 4721782893, "role": "platform"}, {"type": "node", "ref": 2700318724, "role": "stop"}], "tags": {"name": "La Rouvi\u00e8re", "name:oc": "La Roviera", "network": "RTM", "operator": "R\u00e9gie des Transports M\u00e9tropolitains", "public_transport": "stop_area", "source:name:oc": "ieo-bdtopoc", "type": "public_transport"}}, {"type": "relation", "id": 6447812, "members": [{"type": "node", "ref": 2396680502, "role": "stop"}, {"type": "node", "ref": 4328308001, "role": "platform"}, {"type": "node", "ref": 2396680501, "role": "stop"}, {"type": "node", "ref": 4328308000, "role": "platform"}], "tags": {"name": "Le Cabot", "name:oc": "Lo Cab\u00f2t", "network": "RTM", "operator": "R\u00e9gie des Transports M\u00e9tropolitains", "public_transport": "stop_area", "source:name:oc": "ieo-bdtopoc", "type": "public_transport"}}, {"type": "relation", "id": 6447813, "members": [{"type": "node", "ref": 4721766735, "role": "platform"}, {"type": "node", "ref": 4721782085, "role": "stop"}, {"type": "node", "ref": 4721782088, "role": "stop"}, {"type": "node", "ref": 4721782087, "role": "platform"}], "tags": {"name": "Le Fangas", "name:oc": "Lo Fang\u00e0s", "network": "RTM", "operator": "R\u00e9gie des Transports Marseillais", "public_transport": "stop_area", "source:name:oc": "ieo-bdtopoc", "type": "public_transport"}}, {"type": "relation", "id": 6447814, "members": [{"type": "node", "ref": 1827904968, "role": "stop"}, {"type": "node", "ref": 4328308004, "role": "platform"}, {"type": "node", "ref": 2396680512, "role": "stop"}, {"type": "node", "ref": 4328308005, "role": "platform"}], "tags": {"name": "Le Redon La Panouse", "name:oc": "Lo Redon - La Panosa", "network": "RTM", "operator": "R\u00e9gie des Transports M\u00e9tropolitains", "public_transport": "stop_area", "source:name:oc": "ieo-bdtopoc", "type": "public_transport"}}]}