{"version": 0.6, "generator": "Overpass API 0.7.62.8 e802775f", "osm3s": {"timestamp_osm_base": "2026-01-12T16:11:56Z", "copyright": "The data included in this document is from www.openstreetmap.org. The data is made available under ODbL."}, "elements": [{"type": "node", "id": 308073342, "lat": 13.0646541, "lon": 77.5232221}, {"type": "node", "id": 308073343, "lat": 13.0663198, "lon": 77.5189461}, {"type": "node", "id": 308073344, "lat": 13.0675862, "lon": 77.5156742}, {"type": "node", "id": 308073345, "lat": 13.0682534, "lon": 77.5139326}, {"type": "node", "id": 308073346, "lat": 13.0688643, "lon": 77.5124096}, {"type": "node", "id": 308073347, "lat": 13.0693351, "lon": 77.5115111}, {"type": "node", "id": 308073348, "lat": 13.0699459, "lon": 77.5106447}, {"type": "node", "id": 308073349, "lat": 13.0707834, "lon": 77.509723}, {"type": "node", "id": 308073350, "lat": 13.0718747, "lon": 77.5087004}, {"type": "node", "id": 308073351, "lat": 13.0746787, "lon": 77.5056373, "tags": {"internet_access": "no", "name": "Chikka Banavara", "name:kn": "\u0c9a\u0cbf\u0c95\u0ccd\u0c95 \u0cac\u0cbe\u0ca3\u0cb5\u0cbe\u0cb0", "network": "IR", "operator": "SWR", "public_transport": "station", "railway": "station", "ref": "BAW", "wikidata": "Q63355771"}}, {"type": "node", "id": 308073360, "lat": 13.0847368, "lon": 77.4965246}, {"type": "node", "id": 308073362, "lat": 13.0858507, "lon": 77.4954618}, {"type": "node", "id": 308073363, "lat": 13.0881452, "lon": 77.4932751}, {"type": "node", "id": 308073364, "lat": 13.0905043, "lon": 77.4910194}, {"type": "node", "id": 308073365, "lat": 13.092824, "lon": 77.4888099}, {"type": "node", "id": 308073366, "lat": 13.0940921, "lon": 77.4875788}, {"type": "node", "id": 308073368, "lat": 13.0955875, "lon": 77.4860264}, {"type": "node", "id": 308073369, "lat": 13.0972762, "lon": 77.4841617}, {"type": "node", "id": 308073370, "lat": 13.099055, "lon": 77.4821982}, {"type": "node", "id": 308073374, "lat": 13.1048835, "lon": 77.4760496}, {"type": "node", "id": 308073375, "lat": 13.1096233, "lon": 77.4713632}, {"type": "node", "id": 308073376, "lat": 13.1145218, "lon": 77.4664709}, {"type": "node", "id": 308073378, "lat": 13.1157877, "lon": 77.4652017}, {"type": "node", "id": 308073379, "lat": 13.1162522, "lon": 77.4646084}, {"type": "node", "id": 308073380, "lat": 13.1168321, "lon": 77.4636841}, {"type": "node", "id": 308073381, "lat": 13.1174141, "lon": 77.4625055}, {"type": "node", "id": 308074054, "lat": 13.0401291, "lon": 77.542309}, {"type": "node", "id": 308074058, "lat": 13.0479234, "lon": 77.5371525}, {"type": "node", "id": 308074059, "lat": 13.0499436, "lon": 77.5358205}, {"type": "node", "id": 308074060, "lat": 13.0527199, "lon": 77.5340148}, {"type": "node", "id": 308074061, "lat": 13.0538913, "lon": 77.5333289}, {"type": "node", "id": 308074062, "lat": 13.0544735, "lon": 77.5330851}, {"type": "node", "id": 308074063, "lat": 13.0560409, "lon": 77.5326043}, {"type": "node", "id": 308074064, "lat": 13.0571945, "lon": 77.5323048}, {"type": "node", "id": 308074066, "lat": 13.0583917, "lon": 77.531934}, {"type": "node", "id": 308074067, "lat": 13.0595358, "lon": 77.5313669}, {"type": "node", "id": 308074068, "lat": 13.0603749, "lon": 77.5308067}, {"type": "node", "id": 308074069, "lat": 13.0612299, "lon": 77.5300658}, {"type": "node", "id": 308074070, "lat": 13.0618215, "lon": 77.5294064}, {"type": "node", "id": 308074071, "lat": 13.0624905, "lon": 77.5284404}, {"type": "node", "id": 308074072, "lat": 13.0630044, "lon": 77.5274038}, {"type": "node", "id": 308074074, "lat": 13.0638849, "lon": 77.5251877}, {"type": "node", "id": 308185400, "lat": 13.0906208, "lon": 77.5390081, "tags": {"highway": "bus_stop", "loc_name": "KANSHIRAM NAGARA CROSS", "name": "Kanshiram Nagar"}}, {"type": "node", "id": 308185555, "lat": 13.133825, "lon": 77.5147156, "tags": {"highway": "bus_stop", "name": "Shivakote", "name:kn": "\u0cb6\u0cbf\u0cb5\u0c95\u0ccb\u0c9f\u0cbf"}}, {"type": "node", "id": 308231591, "lat": 13.0685251, "lon": 77.5600191, "tags": {"bus": "yes", "highway": "bus_stop", "loc_name": "VIDYARANYAPURA", "name": "Nanjappa Circle", "name:en": "Nanjappa Circle", "name:kn": "\u0ca8\u0c82\u0c9c\u0caa\u0ccd\u0caa \u0cb5\u0cc3\u0ca4\u0ccd\u0ca4", "network": "BMTC", "operator": "BMTC", "public_transport": "platform", "wheelchair": "no"}}, {"type": "node", "id": 308231595, "lat": 13.0647746, "lon": 77.5596849, "tags": {"bench": "yes", "bus": "yes", "covered": "yes", "highway": "bus_stop", "loc_name": "CHAMUNDESHWARI LAYOUT", "name": "Chamundeshwari Layout", "name:en": "Chamundeshwari Layout", "name:kn": "\u0c9a\u0cbe\u0cae\u0cc1\u0c82\u0ca1\u0cc7\u0cb6\u0ccd\u0cb5\u0cb0\u0cbf \u0cac\u0ca1\u0cbe\u0cb5\u0ca3\u0cc6", "network": "BMTC", "operator": "BMTC", "public_transport": "platform", "shelter": "yes", "toilets:wheelchair": "no", "wheelchair": "no"}}, {"type": "node", "id": 308715187, "lat": 13.0838676, "lon": 77.5603008, "tags": {"bus": "yes", "highway": "bus_stop", "loc_name": "VIDYARANYAPURA", "name": "Vidyaranyapura", "name:kn": "\u0cb5\u0cbf\u0ca6\u0ccd\u0caf\u0cbe\u0cb0\u0ca3\u0ccd\u0caf\u0caa\u0cc1\u0cb0", "public_transport": "platform"}}, {"type": "node", "id": 433843548, "lat": 13.1386597, "lon": 77.4746221, "tags": {"bench": "yes", "bin": "no", "bus": "yes", "highway": "bus_stop", "lit": "yes", "loc_name": "Hesaraghatta", "name": "Vinayaka Nagara", "name:kn": "\u0cb5\u0cbf\u0ca8\u0cbe\u0caf\u0c95 \u0ca8\u0c97\u0cb0", "public_transport": "platform", "shelter": "yes"}}, {"type": "node", "id": 433843567, "lat": 13.137901, "lon": 77.4784342, "tags": {"bench": "yes", "bin": "no", "bus": "yes", "highway": "bus_stop", "loc_name": "HASARAGHATTA", "name": "Hesaraghatta Village", "name:kn": "\u0cb9\u0cc6\u0cb8\u0cb0\u0c98\u0c9f\u0ccd\u0c9f \u0c97\u0ccd\u0cb0\u0cbe\u0cae", "public_transport": "platform", "shelter": "yes"}}, {"type": "node", "id": 433843747, "lat": 13.1055331, "lon": 77.4794248, "tags": {"highway": "bus_stop", "loc_name": "THARABANAHALLI", "name": "Tharabana Halli Choultry", "name:kn": "\u0ca4\u0cb0\u0cac\u0ca8\u0cb9\u0cb3\u0ccd\u0cb3\u0cbf \u0c9a\u0cbe\u0cb5\u0ca1\u0cbf"}}, {"type": "node", "id": 433843800, "lat": 13.0880852, "lon": 77.4949031, "tags": {"highway": "bus_stop", "loc_name": "Chikkabanavara", "name": "Dwarka Nagar", "name:kn": "\u0ca6\u0ccd\u0cb5\u0cbe\u0cb0\u0c95\u0ca8\u0c97\u0cb0"}}, {"type": "node", "id": 433843828, "lat": 13.0762424, "lon": 77.5050696, "tags": {"highway": "bus_stop", "loc_name": "CHIKKA BANAVARA", "name": "Medarahalli Railway Gate"}}, {"type": "node", "id": 443722548, "lat": 13.0397202, "lon": 77.5426132}, {"type": "node", "id": 483405488, "lat": 13.1374628, "lon": 77.4944743, "tags": {"bus": "yes", "highway": "bus_stop", "loc_name": "NARKANDA PURA", "name": "Ivara Kondapura", "name:kn": "\u0c87\u0cb5\u0cb0 \u0c95\u0cca\u0c82\u0ca1\u0cbe\u0caa\u0cc1\u0cb0", "public_transport": "platform"}}, {"type": "node", "id": 503002483, "lat": 13.0686238, "lon": 77.4765245, "tags": {"bus": "yes", "highway": "bus_stop", "loc_name": "Madhanayakanahalli KUDREGERE", "name": "Kudhurgere colony", "public_transport": "platform"}}, {"type": "node", "id": 574398494, "lat": 13.0787974, "lon": 77.5164773, "tags": {"highway": "bus_stop", "loc_name": "KEREGUDDADAHALLI", "name": "Kere Guddadahalli", "name:kn": "\u0c95\u0cc6\u0cb0\u0cc6\u0c97\u0cc1\u0ca1\u0ccd\u0ca1\u0ca6\u0cb9\u0cb3\u0ccd\u0cb3\u0cbf"}}, {"type": "node", "id": 574500358, "lat": 13.0999575, "lon": 77.4806396}, {"type": "node", "id": 574500373, "lat": 13.1005009, "lon": 77.4793309}, {"type": "node", "id": 863291814, "lat": 13.0554769, "lon": 77.4791781, "tags": {"highway": "bus_stop", "loc_name": "Tumkur Road", "name": "Anchepalya", "name:kn": "\u0c85\u0c82\u0c9a\u0cc7\u0caa\u0cbe\u0cb3\u0ccd\u0caf"}}, {"type": "node", "id": 1147826271, "lat": 13.0437123, "lon": 77.5399741, "tags": {"railway": "switch"}}, {"type": "node", "id": 1318807705, "lat": 13.0763334, "lon": 77.4883159, "tags": {"highway": "bus_stop", "loc_name": "THAMENAHALLLI", "name": "Thammenahalli Palya", "name:kn": "\u0ca4\u0cae\u0ccd\u0cae\u0cc7\u0ca8\u0cb9\u0cb3\u0ccd\u0cb3\u0cbf \u0caa\u0cbe\u0cb3\u0ccd\u0caf"}}, {"type": "node", "id": 1318807736, "lat": 13.0835119, "lon": 77.4841613, "tags": {"alt_name": "Acharya Institute of Technology Chikkabanavara", "highway": "bus_stop", "name": "Acharya Institute of Technology", "name:en": "Acharya Institute of Technology", "network": "BMTC", "operator": "BMTC", "public_transport": "platform"}}, {"type": "node", "id": 1318807746, "lat": 13.0841656, "lon": 77.4865932, "tags": {"alt_name": "Achyutha Nagara Gate Chikkabanavara", "highway": "bus_stop", "loc_name": "Soladevanahalli", "name": "Achyuthanagara Gate", "name:en": "Achyuthanagara Gate", "name:kn": "\u0c85\u0c9a\u0ccd\u0caf\u0cc1\u0ca4\u0ca8\u0c97\u0cb0", "network": "BMTC", "operator": "BMTC", "public_transport": "platform"}}, {"type": "node", "id": 1463626190, "lat": 13.0795041, "lon": 77.5592368, "tags": {"bus": "yes", "highway": "bus_stop", "loc_name": "VIDYARANYAPURA", "name": "Echal Mara Vidyaranyapura", "name:kn": "\u0c88\u0c9a\u0cb2\u0cc1 \u0cae\u0cb0", "public_transport": "platform"}}, {"type": "node", "id": 1485692894, "lat": 13.0647697, "lon": 77.5173296, "tags": {"bus": "yes", "highway": "bus_stop", "loc_name": "SHETTIHALLI", "name": "Shettty Halli", "name:kn": "\u0cb6\u0cc6\u0c9f\u0ccd\u0c9f\u0cbf\u0cb9\u0cb3\u0ccd\u0cb3\u0cbf", "public_transport": "platform"}}, {"type": "node", "id": 1485692927, "lat": 13.0672443, "lon": 77.5159428, "tags": {"bus": "yes", "highway": "bus_stop", "loc_name": "SHETTIHALLI", "name": "Medarahalli Railway Cross", "public_transport": "platform"}}, {"type": "node", "id": 1485692933, "lat": 13.0675008, "lon": 77.5158994, "tags": {"railway": "level_crossing"}}, {"type": "node", "id": 1485693042, "lat": 13.0753344, "lon": 77.5045233, "tags": {"highway": "bus_stop", "loc_name": "CHIKKA BANAVARA", "name": "Chikka Banawara Railway Gate", "name:en": "Chikka Banawara Railway Gate", "network": "BMTC", "operator": "BMTC", "public_transport": "platform"}}, {"type": "node", "id": 1576973952, "lat": 13.0505308, "lon": 77.4932587}, {"type": "node", "id": 1576973971, "lat": 13.0534566, "lon": 77.484948}, {"type": "node", "id": 1576973975, "lat": 13.0502271, "lon": 77.4941493}, {"type": "node", "id": 1576973977, "lat": 13.0517007, "lon": 77.489768}, {"type": "node", "id": 1576973978, "lat": 13.0555796, "lon": 77.47931}, {"type": "node", "id": 1576973979, "lat": 13.0582688, "lon": 77.4695696}, {"type": "node", "id": 1594902864, "lat": 13.1067359, "lon": 77.4901759, "tags": {"bus": "yes", "highway": "bus_stop", "loc_name": "KUMBARA HALLI CROSS", "name": "Kumbarahalli Cross", "public_transport": "platform"}}, {"type": "node", "id": 1681763287, "lat": 13.0731839, "lon": 77.5072051, "tags": {"railway": "buffer_stop"}}, {"type": "node", "id": 1681763312, "lat": 13.0775184, "lon": 77.503171}, {"type": "node", "id": 1681763324, "lat": 13.0770024, "lon": 77.5035734}, {"type": "node", "id": 1681763325, "lat": 13.0571339, "lon": 77.501909, "tags": {"highway": "bus_stop", "name": "Bagalagunte Village", "name:kn": "\u0cac\u0cbe\u0c97\u0cb2\u0c97\u0cc1\u0c82\u0c9f\u0cc6"}}, {"type": "node", "id": 1681763352, "lat": 13.0762838, "lon": 77.5042573}, {"type": "node", "id": 1681763420, "lat": 13.0683203, "lon": 77.4893818, "tags": {"bus": "yes", "highway": "bus_stop", "loc_name": "THOTADAGURADAHALLI", "name": "Thotada Guddadahalli", "name:kn": "\u0ca4\u0ccb\u0c9f\u0ca6 \u0c97\u0cc1\u0ca1\u0ccd\u0ca1\u0ca6\u0cb9\u0cb3\u0ccd\u0cb3\u0cbf", "public_transport": "platform"}}, {"type": "node", "id": 1681763441, "lat": 13.0804996, "lon": 77.5022973, "tags": {"alt_name": "Sante Beedi", "highway": "bus_stop", "loc_name": "Chikka Banawara", "name": "Chikka Banavara", "name:en": "Chikka Banavara", "name:kn": "\u0c9a\u0cbf\u0c95\u0ccd\u0c95 \u0cac\u0cbe\u0ca3\u0cb5\u0cbe\u0cb0", "network": "BMTC", "operator": "BMTC", "public_transport": "platform"}}, {"type": "node", "id": 1681763451, "lat": 13.0743961, "lon": 77.5060624}, {"type": "node", "id": 1681763509, "lat": 13.0607746, "lon": 77.5009314, "tags": {"highway": "bus_stop", "loc_name": "Bagalagunte", "name": "MEI Layout"}}, {"type": "node", "id": 1681763531, "lat": 13.0625424, "lon": 77.4953754, "tags": {"bus": "yes", "highway": "bus_stop", "loc_name": "SIDEDAHALLI", "name": "Sidedahalli", "name:kn": "\u0cb8\u0cbf\u0ca1\u0cc7\u0ca6\u0cb9\u0cb3\u0ccd\u0cb3\u0cbf", "public_transport": "platform", "wheelchair": "limited"}}, {"type": "node", "id": 1681763533, "lat": 13.0757835, "lon": 77.5047361}, {"type": "node", "id": 1681763604, "lat": 13.065434, "lon": 77.4927168, "tags": {"bus": "yes", "highway": "bus_stop", "loc_name": "MEENAKSHI LAYOUT", "name": "Meenakshi Layout", "name:kn": "\u0cae\u0cc0\u0ca8\u0cbe\u0c95\u0ccd\u0cb7\u0cbf \u0cac\u0ca1\u0cbe\u0cb5\u0ca3\u0cc6", "public_transport": "platform"}}, {"type": "node", "id": 1681763647, "lat": 13.077797, "lon": 77.5029265}, {"type": "node", "id": 1681780198, "lat": 13.11193, "lon": 77.4819095, "tags": {"highway": "bus_stop", "name": "Thore Nagasandra cross"}}, {"type": "node", "id": 1681780221, "lat": 13.0934254, "lon": 77.4888939, "tags": {"bus": "yes", "highway": "bus_stop", "loc_name": "SOLADEVANA HALLI", "name": "Soladevana Halli Police Station", "name:kn": "\u0cb8\u0ccb\u0cb2\u0ca6\u0cc7\u0cb5\u0ca8\u0cb9\u0cb3\u0ccd\u0cb3\u0cbf \u0c86\u0cb0\u0c95\u0ccd\u0cb7\u0c95 \u0ca0\u0cbe\u0ca3\u0cc6", "public_transport": "platform"}}, {"type": "node", "id": 1894246518, "lat": 13.1059162, "lon": 77.4750219}, {"type": "node", "id": 1894246664, "lat": 13.1056463, "lon": 77.475289}, {"type": "node", "id": 1894246671, "lat": 13.1004499, "lon": 77.4806401, "tags": {"railway": "level_crossing"}}, {"type": "node", "id": 1894246731, "lat": 13.1176522, "lon": 77.4620107}, {"type": "node", "id": 1983915347, "lat": 13.0984105, "lon": 77.5251924, "tags": {"highway": "bus_stop", "loc_name": "GUNI AGRAHARA", "name": "Guni Agrahara", "name:kn": "\u0c97\u0cc1\u0ca3\u0cbf \u0c85\u0c97\u0ccd\u0cb0\u0cb9\u0cbe\u0cb0"}}, {"type": "node", "id": 1983915925, "lat": 13.088115, "lon": 77.5214425, "tags": {"highway": "bus_stop", "name": "Somashettihalli", "name:kn": "\u0cb8\u0ccb\u0cae\u0cb6\u0cc6\u0c9f\u0ccd\u0c9f\u0cbf\u0cb9\u0cb3\u0ccd\u0cb3\u0cbf"}}, {"type": "node", "id": 2130914570, "lat": 13.1013211, "lon": 77.4735245}, {"type": "node", "id": 2130914578, "lat": 13.1008421, "lon": 77.477567}, {"type": "node", "id": 2130914579, "lat": 13.1006711, "lon": 77.4786357}, {"type": "node", "id": 2142790819, "lat": 13.060893, "lon": 77.5003917, "tags": {"highway": "bus_stop", "name": "MEI layout", "wheelchair": "limited"}}, {"type": "node", "id": 2242519390, "lat": 13.1266044, "lon": 77.5141077, "tags": {"highway": "bus_stop", "loc_name": "KONDU SHETTYHALLI", "name": "Kondashettihalli Byalakere"}}, {"type": "node", "id": 2242519489, "lat": 13.1282495, "lon": 77.5072278, "tags": {"highway": "bus_stop", "loc_name": "MADHUGIRI HALLI", "name": "Madhugirihalli", "name:kn": "\u0cae\u0ca7\u0cc1\u0c97\u0cbf\u0cb0\u0cbf\u0cb9\u0cb3\u0ccd\u0cb3\u0cbf"}}, {"type": "node", "id": 2242520000, "lat": 13.1411446, "lon": 77.5261802, "tags": {"highway": "bus_stop", "loc_name": "Linganahalli", "name": "Muttugadahalli", "name:kn": "\u0cae\u0cc1\u0ca4\u0ccd\u0ca4\u0cc1\u0c97\u0ca6\u0cb9\u0cb3\u0ccd\u0cb3\u0cbf"}}, {"type": "node", "id": 2244641393, "lat": 13.0712135, "lon": 77.5059782, "tags": {"highway": "bus_stop", "name": "Geleyara Balaga", "name:kn": "\u0c97\u0cc6\u0cb2\u0cc6\u0caf\u0cb0 \u0cac\u0cb3\u0c97"}}, {"type": "node", "id": 2244642129, "lat": 13.1036624, "lon": 77.5165725, "tags": {"highway": "bus_stop", "loc_name": "KALATHAMANAHALLI", "name": "Kalathammanahalli", "name:en": "Kalathammanahalli", "name:kn": "\u0c95\u0cb2\u0ca4\u0cae\u0ccd\u0cae\u0ca8\u0cb9\u0cb3\u0ccd\u0cb3\u0cbf", "network": "BMTC", "operator": "BMTC", "public_transport": "platform"}}, {"type": "node", "id": 2244732074, "lat": 13.0734449, "lon": 77.503117, "tags": {"bus": "yes", "name": "Janapriya Apartments", "name:en": "Janapriya Apartments", "network": "BMTC", "operator": "BMTC", "public_transport": "stop_position"}}, {"type": "node", "id": 2244732235, "lat": 13.0769515, "lon": 77.5258623, "tags": {"highway": "bus_stop", "name": "Abbigere", "name:en": "Abbigere", "name:kn": "\u0c85\u0cac\u0ccd\u0cac\u0cbf\u0c97\u0cc6\u0cb0\u0cc6", "network": "BMTC", "operator": "BMTC", "public_transport": "platform"}}, {"type": "node", "id": 2244850488, "lat": 13.0769735, "lon": 77.5385696, "tags": {"highway": "bus_stop", "loc_name": "SINGAPURA LAYOUT", "name": "Singapura Layout", "name:kn": "\u0cb8\u0cbf\u0c82\u0c97\u0cbe\u0caa\u0cc1\u0cb0 \u0cac\u0ca1\u0cbe\u0cb5\u0ca3\u0cc6"}}, {"type": "node", "id": 2245002308, "lat": 13.0859091, "lon": 77.5512173, "tags": {"highway": "bus_stop", "name": "Adithyanagara MS Palya"}}, {"type": "node", "id": 2245002662, "lat": 13.0941941, "lon": 77.554559, "tags": {"highway": "bus_stop", "loc_name": "DODDA BETTAHALLI", "name": "Doddabettahalli", "name:kn": "\u0ca6\u0cca\u0ca1\u0ccd\u0ca1\u0cac\u0cc6\u0c9f\u0ccd\u0c9f\u0cb9\u0cb3\u0ccd\u0cb3\u0cbf"}}, {"type": "node", "id": 2245002704, "lat": 13.0955217, "lon": 77.5409808, "tags": {"highway": "bus_stop", "loc_name": "MS Palya", "name": "Muneshwara Layout", "name:kn": "\u0cae\u0cc1\u0ca8\u0cc7\u0cb6\u0ccd\u0cb5\u0cb0 \u0cac\u0ca1\u0cbe\u0cb5\u0ca3\u0cc6"}}, {"type": "node", "id": 2245002830, "lat": 13.1194467, "lon": 77.5586487, "tags": {"highway": "bus_stop", "loc_name": "YELAHANKA", "name": "Ramagondanahalli", "name:kn": "\u0cb0\u0cbe\u0cae\u0c97\u0cca\u0c82\u0ca1\u0ca8\u0cb9\u0cb3\u0ccd\u0cb3\u0cbf"}}, {"type": "node", "id": 2246324627, "lat": 13.0921819, "lon": 77.5594157, "tags": {"bench": "yes", "bus": "yes", "covered": "yes", "highway": "bus_stop", "loc_name": "DODDA BETTAHALLI LAYOUT", "name": "Betta Halli Layout", "name:en": "Betta Halli Layout", "name:kn": "\u0cac\u0cc6\u0c9f\u0ccd\u0c9f\u0cb9\u0cb3\u0ccd\u0cb3\u0cbf \u0cac\u0ca1\u0cbe\u0cb5\u0ca3\u0cc6", "network": "BMTC", "operator": "BMTC", "public_transport": "platform", "shelter": "yes"}}, {"type": "node", "id": 2246494781, "lat": 13.099269, "lon": 77.5387852, "tags": {"highway": "bus_stop", "loc_name": "RAINBOW LAYOUT", "name": "Rainbow Layout"}}, {"type": "node", "id": 2246659652, "lat": 13.0862728, "lon": 77.5289229, "tags": {"highway": "bus_stop", "loc_name": "MS Palya", "name": "Lakshmipura", "name:kn": "\u0cb2\u0c95\u0ccd\u0cb7\u0ccd\u0cae\u0cc0\u0caa\u0cc1\u0cb0"}}, {"type": "node", "id": 2289153675, "lat": 13.0913516, "lon": 77.4898281, "tags": {"internet_access": "no", "name": "Soladevanahalli", "name:kn": "\u0cb8\u0ccb\u0cb2\u0ca6\u0cc7\u0cb5\u0ca8\u0cb9\u0cb3\u0ccd\u0cb3\u0cbf", "network": "IR", "operator": "SWR", "platforms": "2", "railway": "halt", "ref": "SDVL"}}, {"type": "node", "id": 2431230945, "lat": 13.0564209, "lon": 77.5072784, "tags": {"highway": "bus_stop", "name": "Bagalagunte", "name:en": "Bagalagunte", "name:kn": "\u0cac\u0cbe\u0c97\u0cb2\u0c97\u0cc1\u0c82\u0c9f\u0cc6", "network": "BMTC", "operator": "BMTC", "public_transport": "platform"}}, {"type": "node", "id": 2431232325, "lat": 13.0640151, "lon": 77.5048674, "tags": {"highway": "bus_stop", "name": "Bone Mill", "name:en": "Bone Mill", "network": "BMTC", "operator": "BMTC", "public_transport": "platform"}}, {"type": "node", "id": 2431234341, "lat": 13.0669701, "lon": 77.5032715, "tags": {"highway": "bus_stop", "loc_name": "Chikka Banawara", "name": "Sapthagiri College", "name:en": "Sapthagiri College", "name:kn": "\u0cb8\u0caa\u0ccd\u0ca4\u0c97\u0cbf\u0cb0\u0cbf \u0c95\u0cbe\u0cb2\u0cc7\u0c9c\u0cc1", "network": "BMTC", "operator": "BMTC", "public_transport": "platform"}}, {"type": "node", "id": 2431237657, "lat": 13.0734812, "lon": 77.5030691, "tags": {"highway": "bus_stop", "name": "Janapriya Apartments", "name:en": "Janapriya Apartments", "name:kn": "\u0c9c\u0ca8\u0caa\u0ccd\u0cb0\u0caf", "network": "BMTC", "operator": "BMTC", "public_transport": "platform"}}, {"type": "node", "id": 2431238702, "lat": 13.0825565, "lon": 77.500118, "tags": {"highway": "bus_stop", "loc_name": "CHIKKA BANAVARA", "name": "Chikkabanawara", "name:kn": "\u0c9a\u0cbf\u0c95\u0ccd\u0c95\u0cac\u0cbe\u0ca3\u0cbe\u0cb5\u0cb0"}}, {"type": "node", "id": 2431244398, "lat": 13.1012792, "lon": 77.4806781, "tags": {"highway": "bus_stop", "loc_name": "TARABANAHALLI", "name": "Tharabana Halli Hesaraghatta", "name:kn": "\u0ca4\u0cb0\u0cac\u0ca8\u0cb9\u0cb3\u0ccd\u0cb3\u0cbf"}}, {"type": "node", "id": 2431246221, "lat": 13.1160504, "lon": 77.4827892, "tags": {"highway": "bus_stop", "name": "Huruli Chikkanahalli", "name:kn": "\u0cb9\u0cc1\u0cb0\u0cc1\u0cb3\u0cbf \u0c9a\u0cbf\u0c95\u0ccd\u0c95\u0ca8\u0cb9\u0cb3\u0ccd\u0cb3\u0cbf"}}, {"type": "node", "id": 2431247267, "lat": 13.1252792, "lon": 77.4835931, "tags": {"highway": "bus_stop", "loc_name": "THIRUMALAPURA", "name": "Thirumalapura Gate"}}, {"type": "node", "id": 2431247783, "lat": 13.1303632, "lon": 77.4843686, "tags": {"highway": "bus_stop", "loc_name": "T.B.CROSS", "name": "Hesaraghatta TB Cross"}}, {"type": "node", "id": 2432318435, "lat": 13.0559749, "lon": 77.5578439, "tags": {"bus": "yes", "highway": "bus_stop", "loc_name": "JALAHALLI", "name": "Nagaland Circle", "name:kn": "\u0ca8\u0cbe\u0c97\u0cb2\u0c82\u0ca1\u0ccd \u0cb5\u0cc3\u0ca4\u0ccd\u0ca4", "public_transport": "platform", "toilets:wheelchair": "no", "wheelchair": "no"}}, {"type": "node", "id": 2432318776, "lat": 13.0588346, "lon": 77.5592891, "tags": {"bench": "yes", "bus": "yes", "highway": "bus_stop", "loc_name": "DODDA BOMMASANDRA", "name": "Dodda Bommasandra Arch", "public_transport": "platform", "shelter": "yes", "toilets:wheelchair": "no", "wheelchair": "no"}}, {"type": "node", "id": 2432319138, "lat": 13.0601068, "lon": 77.55882, "tags": {"bus": "yes", "highway": "bus_stop", "loc_name": "DODDA BOMMASANDRA", "name": "Dodda Bommasandra", "name:kn": "\u0ca6\u0cca\u0ca1\u0ccd\u0ca1 \u0cac\u0cca\u0cae\u0ccd\u0cae\u0cb8\u0c82\u0ca6\u0ccd\u0cb0", "public_transport": "platform"}}, {"type": "node", "id": 2432322366, "lat": 13.0703462, "lon": 77.5555305, "tags": {"bench": "yes", "bus": "yes", "highway": "bus_stop", "loc_name": "VIDYARANYAPURA", "name": "Vidhyaranyapura 1st Block", "public_transport": "platform", "shelter": "yes"}}, {"type": "node", "id": 2432323147, "lat": 13.072187, "lon": 77.5564491, "tags": {"bus": "yes", "highway": "bus_stop", "loc_name": "Vidyaranyapura III Block", "name": "Canara Bank Vidyaranyapura", "name:kn": "\u0c95\u0cc6\u0ca8\u0cb0\u0cbe \u0cac\u0ccd\u0caf\u0cbe\u0c82\u0c95\u0ccd", "public_transport": "platform"}}, {"type": "node", "id": 2432324881, "lat": 13.0762084, "lon": 77.5582754, "tags": {"bench": "yes", "bin": "yes", "bus": "yes", "covered": "yes", "highway": "bus_stop", "loc_name": "VIDYARANYAPURA", "name": "Vidyaranyapura Post Office", "name:en": "Vidyaranyapura Post Office", "network": "BMTC", "network:wikidata": "Q3345039", "operator": "BMTC", "public_transport": "platform", "shelter": "yes"}}, {"type": "node", "id": 2432326327, "lat": 13.0818224, "lon": 77.5598389, "tags": {"bus": "yes", "highway": "bus_stop", "loc_name": "VIDYARANYAPURA", "name": "Durgaparmeshwari Temple", "name:kn": "\u0ca6\u0cc1\u0cb0\u0ccd\u0c97\u0cbe\u0caa\u0cb0\u0cae\u0cc7\u0cb6\u0ccd\u0cb5\u0cb0\u0cbf \u0ca6\u0cc7\u0cb5\u0cb8\u0ccd\u0ca5\u0cbe\u0ca8", "public_transport": "platform"}}, {"type": "node", "id": 2432467854, "lat": 13.0642011, "lon": 77.4886424, "tags": {"highway": "bus_stop", "name": "Sheshadri Nagara", "name:kn": "\u0cb6\u0cc7\u0cb6\u0cbe\u0ca6\u0ccd\u0cb0\u0cbf \u0ca8\u0c97\u0cb0"}}, {"type": "node", "id": 2432479041, "lat": 13.1352937, "lon": 77.4909127, "tags": {"highway": "bus_stop", "loc_name": "I.I.H.R.HESARAGHATTA", "name": "T B Hesaraghatta"}}, {"type": "node", "id": 2432490961, "lat": 13.0673669, "lon": 77.5001184, "tags": {"highway": "bus_stop", "loc_name": "KIRLOSKAR LAYOUT", "name": "Kirloskar Badavane", "name:kn": "\u0c95\u0cbf\u0cb0\u0ccd\u0cb2\u0ccb\u0cb8\u0ccd\u0c95\u0cb0 \u0cac\u0ca1\u0cbe\u0cb5\u0ca3\u0cc6"}}, {"type": "node", "id": 2435397326, "lat": 13.0572477, "lon": 77.5098468, "tags": {"bus": "yes", "highway": "bus_stop", "loc_name": "Bagalagunte", "name": "Mallasandra", "name:kn": "\u0cae\u0cb2\u0ccd\u0cb2\u0cb8\u0c82\u0ca6\u0ccd\u0cb0", "public_transport": "platform"}}, {"type": "node", "id": 2435401490, "lat": 13.0891518, "lon": 77.5103914, "tags": {"bus": "yes", "highway": "bus_stop", "loc_name": "GANIGARAHALLI", "name": "Ghanigara Halli", "name:kn": "\u0c97\u0cbe\u0ca3\u0cbf\u0c97\u0cb0 \u0cb9\u0cb3\u0ccd\u0cb3\u0cbf", "public_transport": "platform"}}, {"type": "node", "id": 2435407049, "lat": 13.0720035, "lon": 77.4995979, "tags": {"highway": "bus_stop", "name": "Chimney Hills", "name:kn": "\u0c9a\u0cbf\u0cae\u0ccd\u0ca8\u0cbf \u0cb9\u0cbf\u0cb2\u0ccd\u0cb8\u0ccd"}}, {"type": "node", "id": 2435445597, "lat": 13.06697, "lon": 77.497335, "tags": {"highway": "bus_stop", "name": "Soundarya Layout"}}, {"type": "node", "id": 2435445618, "lat": 13.0654638, "lon": 77.4948226, "tags": {"highway": "bus_stop", "loc_name": "Soundarya Layout", "name": "Bireshwara Circle", "name:kn": "\u0cac\u0cc0\u0cb0\u0cc7\u0cb6\u0ccd\u0cb5\u0cb0 \u0cb5\u0cc3\u0ca4\u0ccd\u0ca4"}}, {"type": "node", "id": 2435448577, "lat": 13.0791187, "lon": 77.4969976, "tags": {"highway": "bus_stop", "loc_name": "CHIKKA BANAVARA", "name": "Ganapathi Nagara", "name:kn": "\u0c97\u0ca3\u0caa\u0ca4\u0cbf \u0ca8\u0c97\u0cb0"}}, {"type": "node", "id": 2437414063, "lat": 13.1430123, "lon": 77.5023435, "tags": {"highway": "bus_stop", "loc_name": "Hesaraghatta", "name": "Muthkur Cross"}}, {"type": "node", "id": 2440576401, "lat": 13.1147717, "lon": 77.4745876, "tags": {"highway": "bus_stop", "name": "Thore Nagasandra", "name:kn": "\u0ca4\u0ccb\u0cb0\u0cc6\u0ca8\u0cbe\u0c97\u0cb8\u0c82\u0ca6\u0ccd\u0cb0"}}, {"type": "node", "id": 2440577260, "lat": 13.1258356, "lon": 77.4757041, "tags": {"highway": "bus_stop", "loc_name": "BILEJAJI", "name": "Bili Jaji"}}, {"type": "node", "id": 2441207671, "lat": 13.1259799, "lon": 77.4973356, "tags": {"highway": "bus_stop", "loc_name": "TAMMARASANAHALLI", "name": "Thammarasanahalli", "name:kn": "\u0ca4\u0cae\u0ccd\u0cae\u0cb0\u0cb8\u0ca8\u0cb9\u0cb3\u0ccd\u0cb3\u0cbf"}}, {"type": "node", "id": 2441209134, "lat": 13.1093076, "lon": 77.4919747, "tags": {"bus": "yes", "highway": "bus_stop", "loc_name": "SHABARI NAGARA", "name": "Shabari Nagara", "name:kn": "\u0cb6\u0cac\u0cb0\u0cbf\u0ca8\u0c97\u0cb0", "public_transport": "platform"}}, {"type": "node", "id": 2441209233, "lat": 13.1142743, "lon": 77.5011419, "tags": {"highway": "bus_stop", "loc_name": "SILAVE MAIN ROAD", "name": "Shiluvepura", "name:kn": "\u0cb8\u0cbf\u0cb2\u0cc1\u0cb5\u0cc6\u0caa\u0cc1\u0cb0"}}, {"type": "node", "id": 2441209742, "lat": 13.1147116, "lon": 77.5149723, "tags": {"highway": "bus_stop", "name": "Raghavendra Dhama", "name:kn": "\u0cb0\u0cbe\u0c98\u0cb5\u0cc7\u0c82\u0ca6\u0ccd\u0cb0 \u0ca7\u0cbe\u0cae"}}, {"type": "node", "id": 2441209743, "lat": 13.1127922, "lon": 77.5251056, "tags": {"highway": "bus_stop", "loc_name": "DODDABYALA KERE", "name": "Dodda Byalakere", "name:en": "Dodda Byalakere", "name:kn": "\u0ca6\u0cca\u0ca1\u0ccd\u0ca1\u0cac\u0ccd\u0caf\u0cbe\u0cb2\u0ca6\u0c95\u0cc6\u0cb0\u0cc6", "network": "BMTC", "operator": "BMTC", "public_transport": "platform"}}, {"type": "node", "id": 2441210567, "lat": 13.1276253, "lon": 77.5290563, "tags": {"bus": "yes", "highway": "bus_stop", "name": "Mavallipura", "name:kn": "\u0cae\u0cbe\u0cb5\u0cb3\u0cbf\u0caa\u0cc1\u0cb0", "public_transport": "platform"}}, {"type": "node", "id": 2441213814, "lat": 13.1026851, "lon": 77.4915779, "tags": {"highway": "bus_stop", "loc_name": "KUMBARA HALLI", "name": "Kumbarahalli", "name:kn": "\u0c95\u0cc1\u0c82\u0cac\u0cbe\u0cb0\u0cb9\u0cb3\u0ccd\u0cb3\u0cbf"}}, {"type": "node", "id": 2441221343, "lat": 13.0954722, "lon": 77.4996401, "tags": {"highway": "bus_stop", "loc_name": "KEMPAPURA", "name": "Kempapura", "name:kn": "\u0c95\u0cc6\u0c82\u0caa\u0caa\u0cc1\u0cb0"}}, {"type": "node", "id": 2447225117, "lat": 13.0578317, "lon": 77.5462216, "tags": {"bench": "yes", "covered": "yes", "highway": "bus_stop", "loc_name": "JALAHALLI EAST", "name": "Gangamma Circle", "name:en": "Gangamma Circle", "name:kn": "\u0c97\u0c82\u0c97\u0cae\u0ccd\u0cae \u0cb5\u0cc3\u0ca4\u0ccd\u0ca4", "network": "BMTC", "operator": "BMTC", "public_transport": "platform", "shelter": "yes", "toilets:wheelchair": "no", "wheelchair": "no"}}, {"type": "node", "id": 2447233133, "lat": 13.0816572, "lon": 77.5482326, "tags": {"highway": "bus_stop", "loc_name": "MOHAMMAD SAB PALYA", "name": "MS Palya", "name:kn": "\u0cae\u0cca\u0cb9\u0cae\u0ccd\u0cae\u0ca6\u0ccd \u0cb8\u0cbe\u0cac\u0ccd \u0caa\u0cbe\u0cb3\u0ccd\u0caf"}}, {"type": "node", "id": 2447233136, "lat": 13.0815439, "lon": 77.5483978, "tags": {"highway": "bus_stop", "loc_name": "MOHAMMAD SAB PALYA", "name": "MS Palya", "name:kn": "\u0cae\u0cca\u0cb9\u0cae\u0ccd\u0cae\u0ca6\u0ccd \u0cb8\u0cbe\u0cac\u0ccd \u0caa\u0cbe\u0cb3\u0ccd\u0caf"}}, {"type": "node", "id": 2447235581, "lat": 13.0883716, "lon": 77.5464663, "tags": {"bench": "yes", "bin": "no", "covered": "yes", "highway": "bus_stop", "lit": "yes", "loc_name": "M.S.PALYA", "name": "Sambhram College", "name:en": "Sambhram College", "name:kn": "\u0cb8\u0c82\u0cad\u0ccd\u0cb0\u0cae \u0c95\u0cbe\u0cb2\u0cc7\u0c9c\u0cc1", "network": "BMTC", "operator": "BMTC", "public_transport": "platform", "shelter": "yes"}}, {"type": "node", "id": 2447236987, "lat": 13.0898321, "lon": 77.5424946, "tags": {"highway": "bus_stop", "loc_name": "BEST COLONY", "name": "Nethravathi", "name:kn": "\u0ca8\u0cc7\u0ca4\u0ccd\u0cb0\u0cbe\u0cb5\u0ca4\u0cbf"}}, {"type": "node", "id": 2447240417, "lat": 13.0921813, "lon": 77.533964, "tags": {"highway": "bus_stop", "loc_name": "LAKSHMIPURA", "name": "Lakshmipura Cross", "name:kn": "\u0cb2\u0c95\u0ccd\u0cb7\u0ccd\u0cae\u0cbf\u0caa\u0cc1\u0cb0 \u0c95\u0ccd\u0cb0\u0cbe\u0cb8\u0ccd"}}, {"type": "node", "id": 2447241091, "lat": 13.1013948, "lon": 77.5305966, "tags": {"highway": "bus_stop", "loc_name": "MEDA AGRAHARA", "name": "Meda Agrahara Cross"}}, {"type": "node", "id": 2447244179, "lat": 13.1196231, "lon": 77.5215523, "tags": {"highway": "bus_stop", "loc_name": "CHIKKA BYLAKERE", "name": "Chikka Byalakere", "name:kn": "\u0c9a\u0cbf\u0c95\u0ccd\u0c95 \u0cac\u0ccd\u0caf\u0cbe\u0cb2\u0c95\u0cc6\u0cb0\u0cc6"}}, {"type": "node", "id": 2447249193, "lat": 13.1265226, "lon": 77.5196707, "tags": {"highway": "bus_stop", "loc_name": "KURUBARAHALLI CROSS", "name": "Kurubarahalli Cross"}}, {"type": "node", "id": 2447285517, "lat": 13.137133, "lon": 77.5353369, "tags": {"bus": "yes", "highway": "bus_stop", "loc_name": "MADAPPANAHALLI", "name": "Mylappanahalli", "name:kn": "\u0cae\u0cc8\u0cb2\u0caa\u0ccd\u0caa\u0ca8\u0cb9\u0cb3\u0ccd\u0cb3\u0cbf", "public_transport": "stop_position"}}, {"type": "node", "id": 2447317779, "lat": 13.0563674, "lon": 77.5463003, "tags": {"bus": "yes", "highway": "bus_stop", "loc_name": "JALAHALLI", "name": "Gangamma Circle", "name:kn": "\u0c97\u0c82\u0c97\u0cae\u0ccd\u0cae \u0cb5\u0cc3\u0ca4\u0ccd\u0ca4", "public_transport": "platform", "toilets:wheelchair": "no", "wheelchair": "no"}}, {"type": "node", "id": 2447322599, "lat": 13.0568608, "lon": 77.5327052, "tags": {"highway": "bus_stop", "loc_name": "KAMMAGONDANAHALLI", "name": "KG Halli Post Office"}}, {"type": "node", "id": 2447324454, "lat": 13.0611724, "lon": 77.5311682, "tags": {"highway": "bus_stop", "loc_name": "KAMMAGONDANAHALLI", "name": "SRS Mathikere"}}, {"type": "node", "id": 2447325138, "lat": 13.0637498, "lon": 77.5306365, "tags": {"bench": "no", "covered": "yes", "highway": "bus_stop", "loc_name": "KAMMAGONDANAHALLI", "name": "Rama Temple", "name:kn": "\u0cb0\u0cbe\u0cae \u0ca6\u0cc7\u0cb5\u0cb8\u0ccd\u0ca5\u0cbe\u0ca8", "note": "RAMA TEMPLE , Near MNTI College", "shelter": "yes"}}, {"type": "node", "id": 2447335950, "lat": 13.0710107, "lon": 77.5280137, "tags": {"highway": "bus_stop", "loc_name": "ABBIGERE", "name": "Abbigere Dinne", "name:en": "Abbigere Dinne", "name:kn": "\u0c85\u0cac\u0ccd\u0cac\u0cbf\u0c97\u0cc6\u0cb0\u0cc6 \u0ca6\u0cbf\u0ca8\u0ccd\u0ca8\u0cc6", "network": "BMTC", "operator": "BMTC", "public_transport": "platform"}}, {"type": "node", "id": 2447338470, "lat": 13.0724477, "lon": 77.5235219, "tags": {"highway": "bus_stop", "name": "Abbigere Gate", "name:en": "Abbigere Gate", "name:kn": "\u0c85\u0cac\u0ccd\u0cac\u0cbf\u0c97\u0cc6\u0cb0\u0cc6", "network": "BMTC", "operator": "BMTC", "public_transport": "platform"}}, {"type": "node", "id": 2447345284, "lat": 13.0759197, "lon": 77.5171325, "tags": {"highway": "bus_stop", "loc_name": "KEREGUDDADA HALLI", "name": "RMG"}}, {"type": "node", "id": 2447347638, "lat": 13.0794507, "lon": 77.5155027, "tags": {"highway": "bus_stop", "loc_name": "KEREGUDDADAHALLI", "name": "Kere Guddadahalli", "name:kn": "\u0c95\u0cc6\u0cb0\u0cc6\u0c97\u0cc1\u0ca1\u0ccd\u0ca1\u0ca6\u0cb9\u0cb3\u0ccd\u0cb3\u0cbf"}}, {"type": "node", "id": 2447349005, "lat": 13.0798991, "lon": 77.5124437, "tags": {"highway": "bus_stop", "loc_name": "KEREGUDDADAHALLI", "name": "Gangadhara Kalyana Mantapa", "name:kn": "\u0c97\u0c82\u0c97\u0cbe\u0ca7\u0cbe\u0cb0 \u0c95\u0cb2\u0ccd\u0caf\u0cbe\u0ca3 \u0cae\u0c82\u0c9f\u0caa"}}, {"type": "node", "id": 2447350754, "lat": 13.0793144, "lon": 77.5059746, "tags": {"highway": "bus_stop", "name": "Dasappana Palya", "name:kn": "\u0ca6\u0cbe\u0cb8\u0caa\u0ccd\u0caa\u0ca8 \u0caa\u0cbe\u0cb3\u0ccd\u0caf"}}, {"type": "node", "id": 2447361613, "lat": 13.0935051, "lon": 77.5279929, "tags": {"highway": "bus_stop", "loc_name": "GUNI AGRAHARA LAYOUT", "name": "Layout Guniagrahara"}}, {"type": "node", "id": 2447362976, "lat": 13.082878, "lon": 77.5447231, "tags": {"highway": "bus_stop", "loc_name": "VINAYAKA NAGARA", "name": "Vinayaka Nagara", "name:kn": "\u0cb5\u0cbf\u0ca8\u0cbe\u0caf\u0c95 \u0ca8\u0c97\u0cb0"}}, {"type": "node", "id": 2447365333, "lat": 13.0797045, "lon": 77.5384544, "tags": {"bus": "yes", "highway": "bus_stop", "loc_name": "SINGAPURA VILLAGE", "name": "Singapura", "name:kn": "\u0cb8\u0cbf\u0c82\u0c97\u0caa\u0cc1\u0cb0", "public_transport": "platform"}}, {"type": "node", "id": 2447365336, "lat": 13.0730693, "lon": 77.5414076, "tags": {"highway": "bus_stop", "name": "Kuvempu Nagara 2nd Stage"}}, {"type": "node", "id": 2447366623, "lat": 13.0692401, "lon": 77.5414283, "tags": {"highway": "bus_stop", "name": "Kuvempu Nagara 1st Stage"}}, {"type": "node", "id": 2447914889, "lat": 13.0858951, "lon": 77.5557916, "tags": {"bus": "yes", "highway": "bus_stop", "loc_name": "CHOWDESHWARI NAGARA", "name": "Jelly Machine Yalahanka", "name:en": "Jelly Machine Yalahanka", "network": "BMTC", "operator": "BMTC", "public_transport": "platform"}}, {"type": "node", "id": 2447918259, "lat": 13.0925076, "lon": 77.5595763, "tags": {"bus": "yes", "highway": "bus_stop", "loc_name": "DODDA BETTAHALLI LAYOUT", "name": "Betta Halli Layout", "name:kn": "\u0cac\u0cc6\u0c9f\u0ccd\u0c9f\u0cb9\u0cb3\u0ccd\u0cb3\u0cbf \u0cac\u0ca1\u0cbe\u0cb5\u0ca3\u0cc6", "public_transport": "platform", "shelter": "no"}}, {"type": "node", "id": 2447918653, "lat": 13.0894554, "lon": 77.556171, "tags": {"bus": "yes", "highway": "bus_stop", "loc_name": "CHIKKA BETTAHALLI", "name": "Chikkabettahalli", "name:en": "Chikkabettahalli", "name:kn": "\u0c9a\u0cbf\u0c95\u0ccd\u0c95\u0cac\u0cc6\u0c9f\u0ccd\u0c9f\u0cb9\u0cb3\u0ccd\u0cb3\u0cbf", "network": "BMTC", "operator": "BMTC", "public_transport": "platform"}}, {"type": "node", "id": 2447918654, "lat": 13.0895199, "lon": 77.5563736, "tags": {"bus": "yes", "highway": "bus_stop", "loc_name": "CHIKKA BETTAHALLI", "name": "Chikkabettahalli", "name:en": "Chikkabettahalli", "name:kn": "\u0c9a\u0cbf\u0c95\u0ccd\u0c95\u0cac\u0cc6\u0c9f\u0ccd\u0c9f\u0cb9\u0cb3\u0ccd\u0cb3\u0cbf", "network": "BMTC", "operator": "BMTC", "public_transport": "platform"}}, {"type": "node", "id": 2447919832, "lat": 13.0976356, "lon": 77.5630915, "tags": {"bench": "yes", "bus": "yes", "highway": "bus_stop", "loc_name": "ATTUR LAYOUT", "name": "Thirumala Daba", "name:en": "Thirumala Daba", "name:kn": "\u0ca4\u0cbf\u0cb0\u0cc1\u0cae\u0cb2 \u0ca6\u0cac", "network": "BMTC", "operator": "BMTC", "public_transport": "platform", "shelter": "yes"}}, {"type": "node", "id": 2447919843, "lat": 13.0978139, "lon": 77.563123, "tags": {"bench": "no", "bin": "no", "bus": "yes", "highway": "bus_stop", "loc_name": "ATTUR LAYOUT", "name": "Thirumala Daba", "name:en": "Thirumala Daba", "name:kn": "\u0ca4\u0cbf\u0cb0\u0cc1\u0cae\u0cb2 \u0ca6\u0cac", "network": "BMTC", "operator": "BMTC", "public_transport": "platform", "shelter": "no"}}, {"type": "node", "id": 2448095257, "lat": 13.0578201, "lon": 77.5513823, "tags": {"highway": "bus_stop", "loc_name": "RAMACHANDRAPURA", "name": "Manjunatha tent", "toilets:wheelchair": "no", "wheelchair": "no"}}, {"type": "node", "id": 2448096102, "lat": 13.0621926, "lon": 77.5509701, "tags": {"bench": "yes", "covered": "yes", "highway": "bus_stop", "loc_name": "RAMACHANDRAPURA", "name": "Ramachandrapura", "name:kn": "\u0cb0\u0cbe\u0cae\u0c9a\u0c82\u0ca6\u0ccd\u0cb0\u0caa\u0cc1\u0cb0", "shelter": "yes", "toilets:wheelchair": "no", "wheelchair": "limited"}}, {"type": "node", "id": 2448125915, "lat": 13.0656401, "lon": 77.5527057, "tags": {"highway": "bus_stop", "name": "Bloomfield Garden"}}, {"type": "node", "id": 2448176656, "lat": 13.0669703, "lon": 77.5319695, "tags": {"highway": "bus_stop", "loc_name": "ABBIGERE", "name": "Vishweshwaraiah Enclave"}}, {"type": "node", "id": 2448204408, "lat": 13.0677872, "lon": 77.5445642, "tags": {"highway": "bus_stop", "loc_name": "Jalahalli East", "name": "Double Tank", "wheelchair": "no"}}, {"type": "node", "id": 2448228288, "lat": 13.1054402, "lon": 77.5544339, "tags": {"highway": "bus_stop", "loc_name": "VEERASAGARA", "name": "Veerasagara", "name:kn": "\u0cb5\u0cc0\u0cb0\u0cb8\u0cbe\u0c97\u0cb0"}}, {"type": "node", "id": 2448244443, "lat": 13.0863992, "lon": 77.5307839, "tags": {"highway": "bus_stop", "loc_name": "LAKSHMIPURA", "name": "Lakshmipura", "name:kn": "\u0cb2\u0c95\u0ccd\u0cb7\u0ccd\u0cae\u0cc0\u0caa\u0cc1\u0cb0"}}, {"type": "node", "id": 2448244593, "lat": 13.0776134, "lon": 77.5303478, "tags": {"highway": "bus_stop", "name": "Muthkuru", "name:kn": "\u0cae\u0cc1\u0ca4\u0ccd\u0c95\u0cc2\u0cb0\u0cc1"}}, {"type": "node", "id": 2448248903, "lat": 13.0928999, "lon": 77.523654, "tags": {"highway": "bus_stop", "name": "Somashettihalli Gate"}}, {"type": "node", "id": 2450178690, "lat": 13.0578971, "lon": 77.5644207, "tags": {"highway": "bus_stop", "name": "Kabir Ashrama", "name:kn": "\u0c95\u0cac\u0cc0\u0cb0\u0ccd \u0c86\u0cb6\u0ccd\u0cb0\u0cae"}}, {"type": "node", "id": 3228461839, "lat": 13.0497448, "lon": 77.495422}, {"type": "node", "id": 3543273314, "lat": 13.1374825, "lon": 77.4791989}, {"type": "node", "id": 3543273315, "lat": 13.1374898, "lon": 77.4793084}, {"type": "node", "id": 3543273322, "lat": 13.137689, "lon": 77.4791844}, {"type": "node", "id": 3543273323, "lat": 13.1377011, "lon": 77.4796522}, {"type": "node", "id": 3764952341, "lat": 13.0448888, "lon": 77.5391448, "tags": {"railway": "switch"}}, {"type": "node", "id": 3868501020, "lat": 13.0734442, "lon": 77.5072739, "tags": {"railway": "switch"}}, {"type": "node", "id": 3868567932, "lat": 13.0767333, "lon": 77.5039088}, {"type": "node", "id": 3868567933, "lat": 13.076796, "lon": 77.5039839}, {"type": "node", "id": 3868567934, "lat": 13.0739143, "lon": 77.5067304}, {"type": "node", "id": 3868567935, "lat": 13.0738516, "lon": 77.5066634}, {"type": "node", "id": 3868567936, "lat": 13.0776207, "lon": 77.5033221}, {"type": "node", "id": 3868567937, "lat": 13.0776621, "lon": 77.5033696}, {"type": "node", "id": 3868567938, "lat": 13.0747424, "lon": 77.5061413}, {"type": "node", "id": 3868567939, "lat": 13.0747043, "lon": 77.5060908}, {"type": "node", "id": 3868567940, "lat": 13.0773256, "lon": 77.5032206}, {"type": "node", "id": 3868567941, "lat": 13.0773526, "lon": 77.5032671}, {"type": "node", "id": 3868567942, "lat": 13.0770309, "lon": 77.503534}, {"type": "node", "id": 3868567943, "lat": 13.0764522, "lon": 77.5040787}, {"type": "node", "id": 3868567944, "lat": 13.0758956, "lon": 77.5046145}, {"type": "node", "id": 3868567945, "lat": 13.0756116, "lon": 77.5048834}, {"type": "node", "id": 3868567946, "lat": 13.0751917, "lon": 77.5052758}, {"type": "node", "id": 3868567947, "lat": 13.0749134, "lon": 77.5055477}, {"type": "node", "id": 3868567948, "lat": 13.0744194, "lon": 77.5060113}, {"type": "node", "id": 3868567949, "lat": 13.0743723, "lon": 77.5059609}, {"type": "node", "id": 3868567950, "lat": 13.0755211, "lon": 77.5048547}, {"type": "node", "id": 3868567951, "lat": 13.077134, "lon": 77.5033689}, {"type": "node", "id": 3868567952, "lat": 13.0768615, "lon": 77.5036042}, {"type": "node", "id": 3868567953, "lat": 13.0766747, "lon": 77.5037742}, {"type": "node", "id": 3870399507, "lat": 13.072617, "lon": 77.5079904}, {"type": "node", "id": 3870399508, "lat": 13.0726582, "lon": 77.5080295}, {"type": "node", "id": 3870399509, "lat": 13.07039, "lon": 77.5101366}, {"type": "node", "id": 3870399510, "lat": 13.0701112, "lon": 77.5104243}, {"type": "node", "id": 3870399511, "lat": 13.06954, "lon": 77.5111826}, {"type": "node", "id": 3870399512, "lat": 13.0691453, "lon": 77.5118562}, {"type": "node", "id": 3870399513, "lat": 13.0690057, "lon": 77.5121182}, {"type": "node", "id": 3870399514, "lat": 13.0686403, "lon": 77.5129581}, {"type": "node", "id": 3870399515, "lat": 13.0673029, "lon": 77.5163975}, {"type": "node", "id": 3870399516, "lat": 13.0667323, "lon": 77.5179072}, {"type": "node", "id": 3870399517, "lat": 13.0653903, "lon": 77.5213214}, {"type": "node", "id": 3870399518, "lat": 13.0633974, "lon": 77.5264413}, {"type": "node", "id": 3870399519, "lat": 13.0631654, "lon": 77.5270124}, {"type": "node", "id": 3870399520, "lat": 13.062798, "lon": 77.5278533}, {"type": "node", "id": 3870399521, "lat": 13.0626297, "lon": 77.5281976}, {"type": "node", "id": 3870399522, "lat": 13.062161, "lon": 77.5289586}, {"type": "node", "id": 3870399523, "lat": 13.06233, "lon": 77.5287013}, {"type": "node", "id": 3870399524, "lat": 13.0620151, "lon": 77.529167}, {"type": "node", "id": 3870399525, "lat": 13.0615646, "lon": 77.5297125}, {"type": "node", "id": 3870399526, "lat": 13.0613774, "lon": 77.5299144}, {"type": "node", "id": 3870399527, "lat": 13.0607937, "lon": 77.5304778}, {"type": "node", "id": 3870399528, "lat": 13.0610475, "lon": 77.5302401}, {"type": "node", "id": 3870399529, "lat": 13.060597, "lon": 77.5306407}, {"type": "node", "id": 3870399530, "lat": 13.0599482, "lon": 77.5311145}, {"type": "node", "id": 3870399531, "lat": 13.0588537, "lon": 77.5317268}, {"type": "node", "id": 3870399532, "lat": 13.0592471, "lon": 77.5315297}, {"type": "node", "id": 3870399533, "lat": 13.0577719, "lon": 77.5321469}, {"type": "node", "id": 3870399534, "lat": 13.0574578, "lon": 77.5322332}, {"type": "node", "id": 3870399535, "lat": 13.0553753, "lon": 77.5327841}, {"type": "node", "id": 3870399536, "lat": 13.0548299, "lon": 77.532952}, {"type": "node", "id": 3870399537, "lat": 13.0550674, "lon": 77.5328746}, {"type": "node", "id": 3870399538, "lat": 13.0541165, "lon": 77.5332299}, {"type": "node", "id": 3870399539, "lat": 13.0530841, "lon": 77.5337855}, {"type": "node", "id": 3870399540, "lat": 13.0533684, "lon": 77.5336106}, {"type": "node", "id": 3870399541, "lat": 13.0536407, "lon": 77.5334595}, {"type": "node", "id": 3870399542, "lat": 13.0511174, "lon": 77.5350535}, {"type": "node", "id": 3870399543, "lat": 13.0517571, "lon": 77.5346451}, {"type": "node", "id": 3870399544, "lat": 13.0505081, "lon": 77.5354583}, {"type": "node", "id": 3870399545, "lat": 13.048914, "lon": 77.5364946}, {"type": "node", "id": 3870401198, "lat": 13.0462036, "lon": 77.5382666}, {"type": "node", "id": 3870401199, "lat": 13.0449441, "lon": 77.5391563}, {"type": "node", "id": 3870405064, "lat": 13.0451793, "lon": 77.5390012}, {"type": "node", "id": 3870405065, "lat": 13.0457147, "lon": 77.5386562}, {"type": "node", "id": 3870405066, "lat": 13.0458813, "lon": 77.5385514}, {"type": "node", "id": 3870405067, "lat": 13.0463128, "lon": 77.5382568}, {"type": "node", "id": 3870405068, "lat": 13.0465439, "lon": 77.5381115}, {"type": "node", "id": 3870405069, "lat": 13.0471304, "lon": 77.5377239}, {"type": "node", "id": 3870405070, "lat": 13.0473134, "lon": 77.5376093}, {"type": "node", "id": 3870405071, "lat": 13.0477978, "lon": 77.537287}, {"type": "node", "id": 3870405072, "lat": 13.0480386, "lon": 77.5371318}, {"type": "node", "id": 3870405073, "lat": 13.0485326, "lon": 77.5368085}, {"type": "node", "id": 3870405074, "lat": 13.0488427, "lon": 77.5365999}, {"type": "node", "id": 3870405075, "lat": 13.0492106, "lon": 77.5363577}, {"type": "node", "id": 3870405076, "lat": 13.0494658, "lon": 77.5361887}, {"type": "node", "id": 3870405077, "lat": 13.0499003, "lon": 77.5359203}, {"type": "node", "id": 3870405078, "lat": 13.0501288, "lon": 77.535768}, {"type": "node", "id": 3870405079, "lat": 13.0506599, "lon": 77.5354227}, {"type": "node", "id": 3870405080, "lat": 13.0510734, "lon": 77.5351549}, {"type": "node", "id": 3870405081, "lat": 13.0514286, "lon": 77.5349146}, {"type": "node", "id": 3870405082, "lat": 13.0521064, "lon": 77.5344749}, {"type": "node", "id": 3870405083, "lat": 13.0524157, "lon": 77.5342799}, {"type": "node", "id": 3870405084, "lat": 13.0526633, "lon": 77.5341149}, {"type": "node", "id": 3870405085, "lat": 13.0531068, "lon": 77.533828}, {"type": "node", "id": 3870405086, "lat": 13.0534553, "lon": 77.533621}, {"type": "node", "id": 3870405087, "lat": 13.0538804, "lon": 77.5333942}, {"type": "node", "id": 3870405088, "lat": 13.0541446, "lon": 77.5332646}, {"type": "node", "id": 3870405089, "lat": 13.0543964, "lon": 77.5331663}, {"type": "node", "id": 3870405090, "lat": 13.054815, "lon": 77.5330078}, {"type": "node", "id": 3870405091, "lat": 13.0552367, "lon": 77.5328699}, {"type": "node", "id": 3870405092, "lat": 13.0554715, "lon": 77.5328096}, {"type": "node", "id": 3870405093, "lat": 13.0561932, "lon": 77.5326117}, {"type": "node", "id": 3870405094, "lat": 13.0565105, "lon": 77.5325336}, {"type": "node", "id": 3870405095, "lat": 13.0572307, "lon": 77.5323603}, {"type": "node", "id": 3870405096, "lat": 13.0574299, "lon": 77.5323103}, {"type": "node", "id": 3870405097, "lat": 13.0578122, "lon": 77.5322023}, {"type": "node", "id": 3870405098, "lat": 13.0582033, "lon": 77.53207}, {"type": "node", "id": 3870405099, "lat": 13.058479, "lon": 77.5319522}, {"type": "node", "id": 3870405100, "lat": 13.0589486, "lon": 77.5317422}, {"type": "node", "id": 3870405101, "lat": 13.0592753, "lon": 77.5315745}, {"type": "node", "id": 3870405102, "lat": 13.0595164, "lon": 77.5314409}, {"type": "node", "id": 3870405103, "lat": 13.0597179, "lon": 77.5313155}, {"type": "node", "id": 3870405104, "lat": 13.0599289, "lon": 77.5311836}, {"type": "node", "id": 3870405105, "lat": 13.0601414, "lon": 77.5310338}, {"type": "node", "id": 3870405106, "lat": 13.0604222, "lon": 77.5308303}, {"type": "node", "id": 3870405107, "lat": 13.0607648, "lon": 77.5305535}, {"type": "node", "id": 3870405108, "lat": 13.0610694, "lon": 77.5302815}, {"type": "node", "id": 3870405109, "lat": 13.061339, "lon": 77.5300161}, {"type": "node", "id": 3870405110, "lat": 13.0615897, "lon": 77.5297507}, {"type": "node", "id": 3870405111, "lat": 13.0618831, "lon": 77.5293941}, {"type": "node", "id": 3870405112, "lat": 13.0621639, "lon": 77.5290261}, {"type": "node", "id": 3870405113, "lat": 13.062305, "lon": 77.528816}, {"type": "node", "id": 3870405114, "lat": 13.0624859, "lon": 77.5285262}, {"type": "node", "id": 3870405115, "lat": 13.0626397, "lon": 77.5282689}, {"type": "node", "id": 3870405116, "lat": 13.0628111, "lon": 77.5279432}, {"type": "node", "id": 3870405117, "lat": 13.0629443, "lon": 77.5276501}, {"type": "node", "id": 3870405118, "lat": 13.0630601, "lon": 77.527401}, {"type": "node", "id": 3870405119, "lat": 13.0631987, "lon": 77.5270461}, {"type": "node", "id": 3870405120, "lat": 13.0634503, "lon": 77.5264174}, {"type": "node", "id": 3870405121, "lat": 13.0637358, "lon": 77.5256912}, {"type": "node", "id": 3870405122, "lat": 13.0639928, "lon": 77.5250317}, {"type": "node", "id": 3870405123, "lat": 13.0642513, "lon": 77.5243641}, {"type": "node", "id": 3870405124, "lat": 13.064724, "lon": 77.5231493}, {"type": "node", "id": 3870405125, "lat": 13.0650841, "lon": 77.5222423}, {"type": "node", "id": 3870405126, "lat": 13.0654204, "lon": 77.5213646}, {"type": "node", "id": 3870405127, "lat": 13.0658312, "lon": 77.5203046}, {"type": "node", "id": 3870405128, "lat": 13.0662325, "lon": 77.5193015}, {"type": "node", "id": 3870405129, "lat": 13.0666053, "lon": 77.5183277}, {"type": "node", "id": 3870405130, "lat": 13.0667655, "lon": 77.517932}, {"type": "node", "id": 3870405131, "lat": 13.0670922, "lon": 77.5171016}, {"type": "node", "id": 3870405132, "lat": 13.0673302, "lon": 77.5164714}, {"type": "node", "id": 3870405133, "lat": 13.0676263, "lon": 77.5156858}, {"type": "node", "id": 3870405134, "lat": 13.0679586, "lon": 77.5148327}, {"type": "node", "id": 3870405135, "lat": 13.0682794, "lon": 77.5139977}, {"type": "node", "id": 3870405136, "lat": 13.0684581, "lon": 77.5135521}, {"type": "node", "id": 3870405137, "lat": 13.0685886, "lon": 77.513215}, {"type": "node", "id": 3870405138, "lat": 13.0687214, "lon": 77.5128687}, {"type": "node", "id": 3870405139, "lat": 13.0688613, "lon": 77.5125407}, {"type": "node", "id": 3870405140, "lat": 13.0689931, "lon": 77.5122402}, {"type": "node", "id": 3870405141, "lat": 13.0690921, "lon": 77.5120501}, {"type": "node", "id": 3870405142, "lat": 13.0692187, "lon": 77.5118024}, {"type": "node", "id": 3870405143, "lat": 13.0693624, "lon": 77.5115589}, {"type": "node", "id": 3870405144, "lat": 13.0695152, "lon": 77.5113097}, {"type": "node", "id": 3870405145, "lat": 13.0696803, "lon": 77.5110788}, {"type": "node", "id": 3870405146, "lat": 13.069849, "lon": 77.5108535}, {"type": "node", "id": 3870405147, "lat": 13.0699937, "lon": 77.5106589}, {"type": "node", "id": 3870405148, "lat": 13.0701627, "lon": 77.5104617}, {"type": "node", "id": 3870405149, "lat": 13.0704026, "lon": 77.5101973}, {"type": "node", "id": 3870405150, "lat": 13.0708689, "lon": 77.5097218}, {"type": "node", "id": 3870405151, "lat": 13.0713243, "lon": 77.5092814}, {"type": "node", "id": 3870405152, "lat": 13.0716367, "lon": 77.5089874}, {"type": "node", "id": 3870405153, "lat": 13.0719491, "lon": 77.5086911}, {"type": "node", "id": 3870405154, "lat": 13.0725075, "lon": 77.5081651}, {"type": "node", "id": 3870405155, "lat": 13.0730943, "lon": 77.5075366}, {"type": "node", "id": 3870405156, "lat": 13.0733132, "lon": 77.5073298}, {"type": "node", "id": 3870405157, "lat": 13.073816, "lon": 77.5068478}, {"type": "node", "id": 3870405158, "lat": 13.0740207, "lon": 77.5066524}, {"type": "node", "id": 3870405159, "lat": 13.0742475, "lon": 77.5064309}, {"type": "node", "id": 3870405160, "lat": 13.0743784, "lon": 77.5063853}, {"type": "node", "id": 3870405168, "lat": 13.0745527, "lon": 77.50615}, {"type": "node", "id": 3870405169, "lat": 13.0747742, "lon": 77.5059316}, {"type": "node", "id": 4601120856, "lat": 13.0860471, "lon": 77.5556415, "tags": {"bus": "yes", "highway": "bus_stop", "name": "Jelly Machine Yalahanka", "public_transport": "platform"}}, {"type": "node", "id": 4793687727, "lat": 13.0647807, "lon": 77.5230064}, {"type": "node", "id": 5954688563, "lat": 13.0497029, "lon": 77.4954053}, {"type": "node", "id": 6021402053, "lat": 13.0441271, "lon": 77.5396937, "tags": {"railway": "switch"}}, {"type": "node", "id": 6087642388, "lat": 13.0697338, "lon": 77.5109137}, {"type": "node", "id": 6087642389, "lat": 13.0749263, "lon": 77.5058564}, {"type": "node", "id": 6087642390, "lat": 13.091493, "lon": 77.4900859}, {"type": "node", "id": 6087642391, "lat": 13.0989112, "lon": 77.4821934}, {"type": "node", "id": 6087642392, "lat": 13.1040084, "lon": 77.4769187}, {"type": "node", "id": 6087642393, "lat": 13.1031873, "lon": 77.4777491}, {"type": "node", "id": 6087642394, "lat": 13.1024416, "lon": 77.478499}, {"type": "node", "id": 6087642395, "lat": 13.0981081, "lon": 77.4832309}, {"type": "node", "id": 6087642396, "lat": 13.0964005, "lon": 77.4851369}, {"type": "node", "id": 6087642397, "lat": 13.0949103, "lon": 77.4867704}, {"type": "node", "id": 6087642398, "lat": 13.0946266, "lon": 77.4870754}, {"type": "node", "id": 6087642399, "lat": 13.0934045, "lon": 77.488252}, {"type": "node", "id": 6087642400, "lat": 13.0921402, "lon": 77.4894613}, {"type": "node", "id": 6087642401, "lat": 13.0710439, "lon": 77.5095456}, {"type": "node", "id": 6087642402, "lat": 13.0756954, "lon": 77.5051324}, {"type": "node", "id": 6087642403, "lat": 13.0763764, "lon": 77.5044963}, {"type": "node", "id": 6087642404, "lat": 13.0773189, "lon": 77.5035919}, {"type": "node", "id": 6087642405, "lat": 13.0780769, "lon": 77.5028589}, {"type": "node", "id": 6087642406, "lat": 13.0790875, "lon": 77.5018845}, {"type": "node", "id": 6087642407, "lat": 13.0799377, "lon": 77.5010726}, {"type": "node", "id": 6087642408, "lat": 13.0807747, "lon": 77.5002989}, {"type": "node", "id": 6087642409, "lat": 13.0816294, "lon": 77.4994881, "tags": {"railway": "switch"}}, {"type": "node", "id": 6087642410, "lat": 13.0826224, "lon": 77.4985329}, {"type": "node", "id": 6087642411, "lat": 13.0837428, "lon": 77.4974819}, {"type": "node", "id": 6087642412, "lat": 13.0754161, "lon": 77.5053209}, {"type": "node", "id": 6087642413, "lat": 13.0762518, "lon": 77.5045298}, {"type": "node", "id": 6087642414, "lat": 13.0769509, "lon": 77.5038743}, {"type": "node", "id": 6087642415, "lat": 13.077664, "lon": 77.5031901}, {"type": "node", "id": 6087642416, "lat": 13.0785029, "lon": 77.5023879}, {"type": "node", "id": 6087642417, "lat": 13.0794039, "lon": 77.5015171}, {"type": "node", "id": 6087642418, "lat": 13.0802862, "lon": 77.5006814}, {"type": "node", "id": 6087642419, "lat": 13.0810972, "lon": 77.4999255}, {"type": "node", "id": 6087642420, "lat": 13.0818071, "lon": 77.4992413}, {"type": "node", "id": 6087642421, "lat": 13.0825885, "lon": 77.4984965}, {"type": "node", "id": 6087642422, "lat": 13.0834631, "lon": 77.4976767}, {"type": "node", "id": 6087642423, "lat": 13.0847105, "lon": 77.4964822}, {"type": "node", "id": 6087642424, "lat": 13.0855509, "lon": 77.4956816}, {"type": "node", "id": 6087642425, "lat": 13.0863789, "lon": 77.4948746}, {"type": "node", "id": 6087642426, "lat": 13.0875113, "lon": 77.4938108}, {"type": "node", "id": 6087642427, "lat": 13.0889948, "lon": 77.4923914}, {"type": "node", "id": 6087642428, "lat": 13.0893739, "lon": 77.4920326}, {"type": "node", "id": 6087642429, "lat": 13.0901801, "lon": 77.4912575}, {"type": "node", "id": 6087642430, "lat": 13.0908698, "lon": 77.4906036}, {"type": "node", "id": 6087642431, "lat": 13.0915486, "lon": 77.4899545}, {"type": "node", "id": 6087642432, "lat": 13.0924139, "lon": 77.4891283}, {"type": "node", "id": 6087642433, "lat": 13.0931362, "lon": 77.4884378}, {"type": "node", "id": 6087642434, "lat": 13.0938694, "lon": 77.4877376}, {"type": "node", "id": 6087642435, "lat": 13.0945917, "lon": 77.4870343}, {"type": "node", "id": 6087642436, "lat": 13.0951696, "lon": 77.4864171}, {"type": "node", "id": 6087642437, "lat": 13.0959432, "lon": 77.4855638}, {"type": "node", "id": 6087642438, "lat": 13.0967556, "lon": 77.4846564}, {"type": "node", "id": 6087642439, "lat": 13.0978849, "lon": 77.4834156}, {"type": "node", "id": 6087642440, "lat": 13.099081, "lon": 77.4820743}, {"type": "node", "id": 6087642441, "lat": 13.0997008, "lon": 77.4814061}, {"type": "node", "id": 6087642442, "lat": 13.1003842, "lon": 77.4806565}, {"type": "node", "id": 6087642443, "lat": 13.1011889, "lon": 77.4797729}, {"type": "node", "id": 6087642444, "lat": 13.1018925, "lon": 77.4790026}, {"type": "node", "id": 6087642445, "lat": 13.1030529, "lon": 77.4777842}, {"type": "node", "id": 6087642446, "lat": 13.1042474, "lon": 77.4766072}, {"type": "node", "id": 6087642447, "lat": 13.1048299, "lon": 77.4760123}, {"type": "node", "id": 6087642448, "lat": 13.1056065, "lon": 77.475234}, {"type": "node", "id": 6087642449, "lat": 13.099706, "lon": 77.4810785}, {"type": "node", "id": 6087642450, "lat": 13.0994941, "lon": 77.4814375}, {"type": "node", "id": 6087642451, "lat": 13.0992758, "lon": 77.4817403}, {"type": "node", "id": 6087642452, "lat": 13.0990517, "lon": 77.4820178}, {"type": "node", "id": 6087642453, "lat": 13.0987005, "lon": 77.4824308}, {"type": "node", "id": 6087642454, "lat": 13.0983504, "lon": 77.4828251}, {"type": "node", "id": 6087642455, "lat": 13.0974987, "lon": 77.4837692}, {"type": "node", "id": 6087642456, "lat": 13.0965112, "lon": 77.4848662}, {"type": "node", "id": 6087642457, "lat": 13.0944944, "lon": 77.487079}, {"type": "node", "id": 6087642458, "lat": 13.0931882, "lon": 77.4883236}, {"type": "node", "id": 6087642459, "lat": 13.0919932, "lon": 77.4894305}, {"type": "node", "id": 6087642460, "lat": 13.0914852, "lon": 77.4898867}, {"type": "node", "id": 6087642461, "lat": 13.0901508, "lon": 77.4911562}, {"type": "node", "id": 6087642462, "lat": 13.0896957, "lon": 77.491582}, {"type": "node", "id": 6087642463, "lat": 13.0894704, "lon": 77.4918148}, {"type": "node", "id": 6087642464, "lat": 13.089051, "lon": 77.4922614}, {"type": "node", "id": 6087642465, "lat": 13.0887838, "lon": 77.4925357}, {"type": "node", "id": 6087642466, "lat": 13.0883877, "lon": 77.4929105}, {"type": "node", "id": 6087642467, "lat": 13.087569, "lon": 77.4936952}, {"type": "node", "id": 6087642468, "lat": 13.0869228, "lon": 77.4942964}, {"type": "node", "id": 6087642469, "lat": 13.0862284, "lon": 77.4949583}, {"type": "node", "id": 6087642470, "lat": 13.0855232, "lon": 77.4956361}, {"type": "node", "id": 6087642471, "lat": 13.0847729, "lon": 77.4963522}, {"type": "node", "id": 6087642472, "lat": 13.0840971, "lon": 77.4970029}, {"type": "node", "id": 6087642473, "lat": 13.0833452, "lon": 77.4977206}, {"type": "node", "id": 6087642474, "lat": 13.0826415, "lon": 77.4983761}, {"type": "node", "id": 6087642475, "lat": 13.0820497, "lon": 77.4989422}, {"type": "node", "id": 6087642476, "lat": 13.0813848, "lon": 77.4995834}, {"type": "node", "id": 6087642477, "lat": 13.0811953, "lon": 77.4997716, "tags": {"railway": "switch"}}, {"type": "node", "id": 6087642478, "lat": 13.0804418, "lon": 77.5004749}, {"type": "node", "id": 6087642479, "lat": 13.0802352, "lon": 77.5006711}, {"type": "node", "id": 6087642480, "lat": 13.0794538, "lon": 77.5014047, "tags": {"railway": "switch"}}, {"type": "node", "id": 6087642481, "lat": 13.0793497, "lon": 77.5015036, "tags": {"railway": "switch"}}, {"type": "node", "id": 6087642482, "lat": 13.078632, "lon": 77.5021909}, {"type": "node", "id": 6087642483, "lat": 13.0778273, "lon": 77.5029676}, {"type": "node", "id": 6087642484, "lat": 13.0772564, "lon": 77.5033655}, {"type": "node", "id": 6087642585, "lat": 13.0739827, "lon": 77.5064487}, {"type": "node", "id": 6087642586, "lat": 13.0737897, "lon": 77.5066314, "tags": {"railway": "switch"}}, {"type": "node", "id": 6087642587, "lat": 13.0732186, "lon": 77.5072747, "tags": {"railway": "switch"}}, {"type": "node", "id": 6087642588, "lat": 13.0731611, "lon": 77.5073391, "tags": {"railway": "switch"}}, {"type": "node", "id": 6087642589, "lat": 13.0724799, "lon": 77.5081216, "tags": {"railway": "switch"}}, {"type": "node", "id": 6087642590, "lat": 13.0723793, "lon": 77.5082178, "tags": {"railway": "switch"}}, {"type": "node", "id": 6087642591, "lat": 13.0717721, "lon": 77.508859, "tags": {"railway": "switch"}}, {"type": "node", "id": 6087642592, "lat": 13.0728391, "lon": 77.5077793, "tags": {"railway": "switch"}}, {"type": "node", "id": 6087642593, "lat": 13.0735781, "lon": 77.5071466, "tags": {"railway": "switch"}}, {"type": "node", "id": 6087642594, "lat": 13.0742162, "lon": 77.5066108, "tags": {"railway": "switch"}}, {"type": "node", "id": 6087642595, "lat": 13.0783873, "lon": 77.5023573}, {"type": "node", "id": 6087642596, "lat": 13.078698, "lon": 77.5020654, "tags": {"railway": "switch"}}, {"type": "node", "id": 6087642597, "lat": 13.0794266, "lon": 77.5013781, "tags": {"railway": "buffer_stop"}}, {"type": "node", "id": 6087642598, "lat": 13.0801091, "lon": 77.5008492, "tags": {"railway": "switch"}}, {"type": "node", "id": 6087642599, "lat": 13.0805915, "lon": 77.5003968, "tags": {"railway": "switch"}}, {"type": "node", "id": 6087642600, "lat": 13.0804864, "lon": 77.5004949, "tags": {"railway": "switch"}}, {"type": "node", "id": 6087642601, "lat": 13.0798858, "lon": 77.5011222, "tags": {"railway": "switch"}}, {"type": "node", "id": 6087642602, "lat": 13.0798198, "lon": 77.5011852, "tags": {"railway": "switch"}}, {"type": "node", "id": 6087642603, "lat": 13.0792324, "lon": 77.5018182, "tags": {"railway": "switch"}}, {"type": "node", "id": 6087642604, "lat": 13.080962, "lon": 77.5000515, "tags": {"railway": "switch"}}, {"type": "node", "id": 6087642605, "lat": 13.0798408, "lon": 77.5012502, "tags": {"railway": "buffer_stop"}}, {"type": "node", "id": 6087642606, "lat": 13.0789851, "lon": 77.5020522}, {"type": "node", "id": 6087642607, "lat": 13.0786603, "lon": 77.5023874}, {"type": "node", "id": 6087642608, "lat": 13.0778277, "lon": 77.5032106, "tags": {"railway": "switch"}}, {"type": "node", "id": 6087642609, "lat": 13.0772125, "lon": 77.5038173}, {"type": "node", "id": 6087642610, "lat": 13.0763272, "lon": 77.5046519}, {"type": "node", "id": 6087642611, "lat": 13.0752594, "lon": 77.5056713}, {"type": "node", "id": 6087642612, "lat": 13.0744609, "lon": 77.5063914}, {"type": "node", "id": 6087642613, "lat": 13.0738504, "lon": 77.5069707, "tags": {"railway": "buffer_stop"}}, {"type": "node", "id": 6087642614, "lat": 13.0762459, "lon": 77.5048496, "tags": {"railway": "switch"}}, {"type": "node", "id": 6087642615, "lat": 13.075729, "lon": 77.505223, "tags": {"railway": "switch"}}, {"type": "node", "id": 6087642616, "lat": 13.0774763, "lon": 77.5036343}, {"type": "node", "id": 6087642617, "lat": 13.0772914, "lon": 77.50384}, {"type": "node", "id": 6087642618, "lat": 13.0771656, "lon": 77.5039548}, {"type": "node", "id": 6087642619, "lat": 13.0766716, "lon": 77.5044317}, {"type": "node", "id": 6087642620, "lat": 13.0759492, "lon": 77.5051127, "tags": {"railway": "switch"}}, {"type": "node", "id": 6087642621, "lat": 13.073737, "lon": 77.5072036, "tags": {"railway": "buffer_stop"}}, {"type": "node", "id": 6087642622, "lat": 13.075755, "lon": 77.5053344}, {"type": "node", "id": 6087642623, "lat": 13.0756525, "lon": 77.5054604}, {"type": "node", "id": 6087642624, "lat": 13.0750622, "lon": 77.5060106}, {"type": "node", "id": 6087642625, "lat": 13.0745293, "lon": 77.5065257}, {"type": "node", "id": 6087642626, "lat": 13.0741611, "lon": 77.5068639}, {"type": "node", "id": 6087642627, "lat": 13.0737696, "lon": 77.5072466, "tags": {"railway": "buffer_stop"}}, {"type": "node", "id": 6087642628, "lat": 13.0774952, "lon": 77.5032531}, {"type": "node", "id": 6087642629, "lat": 13.0773414, "lon": 77.5033681}, {"type": "node", "id": 6087642630, "lat": 13.0772008, "lon": 77.5034764}, {"type": "node", "id": 6087642631, "lat": 13.0770382, "lon": 77.5036027}, {"type": "node", "id": 6087642632, "lat": 13.0766801, "lon": 77.503941}, {"type": "node", "id": 6087642633, "lat": 13.0759727, "lon": 77.5046131}, {"type": "node", "id": 6087642634, "lat": 13.0748215, "lon": 77.505698}, {"type": "node", "id": 6087642635, "lat": 13.07398, "lon": 77.5065303}, {"type": "node", "id": 6087642636, "lat": 13.0736649, "lon": 77.5068197}, {"type": "node", "id": 6087642637, "lat": 13.0728447, "lon": 77.5076538, "tags": {"railway": "buffer_stop"}}, {"type": "node", "id": 6087642638, "lat": 13.1151979, "lon": 77.4658202}, {"type": "node", "id": 6087642639, "lat": 13.1155098, "lon": 77.4655002}, {"type": "node", "id": 6087642640, "lat": 13.1160134, "lon": 77.4649346}, {"type": "node", "id": 6087642641, "lat": 13.1166179, "lon": 77.4640711}, {"type": "node", "id": 6087642642, "lat": 13.1164455, "lon": 77.4643317}, {"type": "node", "id": 6087790238, "lat": 13.1059742, "lon": 77.4748749}, {"type": "node", "id": 6087790239, "lat": 13.1074499, "lon": 77.4734236}, {"type": "node", "id": 6087790240, "lat": 13.1078413, "lon": 77.4730887}, {"type": "node", "id": 6087790241, "lat": 13.1094909, "lon": 77.4714013}, {"type": "node", "id": 6087790242, "lat": 13.1103452, "lon": 77.4705592}, {"type": "node", "id": 6087790243, "lat": 13.1113548, "lon": 77.4695577}, {"type": "node", "id": 6087790244, "lat": 13.1124452, "lon": 77.4684796}, {"type": "node", "id": 6087790245, "lat": 13.1141165, "lon": 77.4668145}, {"type": "node", "id": 6087790246, "lat": 13.1148776, "lon": 77.4660554}, {"type": "node", "id": 6087790247, "lat": 13.1152752, "lon": 77.4656662}, {"type": "node", "id": 6087790248, "lat": 13.115502, "lon": 77.4654302}, {"type": "node", "id": 6087790249, "lat": 13.1156667, "lon": 77.4652548}, {"type": "node", "id": 6087790250, "lat": 13.1157816, "lon": 77.4651208}, {"type": "node", "id": 6087790251, "lat": 13.1160363, "lon": 77.4648178}, {"type": "node", "id": 6087790252, "lat": 13.1162973, "lon": 77.4644605}, {"type": "node", "id": 6087790253, "lat": 13.1165582, "lon": 77.4640523}, {"type": "node", "id": 6087790254, "lat": 13.1168067, "lon": 77.4636216}, {"type": "node", "id": 6087790255, "lat": 13.1169745, "lon": 77.4633027}, {"type": "node", "id": 6087790256, "lat": 13.117192, "lon": 77.4628561}, {"type": "node", "id": 6118954656, "lat": 13.1007537, "lon": 77.4782054}, {"type": "node", "id": 6118954657, "lat": 13.1005918, "lon": 77.4789655}, {"type": "node", "id": 6118954658, "lat": 13.1002987, "lon": 77.4798663}, {"type": "node", "id": 6118954659, "lat": 13.1001455, "lon": 77.4802232}, {"type": "node", "id": 6141603066, "lat": 13.0929259, "lon": 77.488712, "tags": {"railway": "level_crossing"}}, {"type": "node", "id": 6142972951, "lat": 13.0675054, "lon": 77.5158879}, {"type": "node", "id": 6226432851, "lat": 13.0742425, "lon": 77.5572632, "tags": {"name": "Lakshmi Venkateshwara Temple", "name:kn": "\u0cb2\u0c95\u0ccd\u0cb7\u0ccd\u0cae\u0cc0 \u0cb5\u0cc6\u0c82\u0c95\u0c9f\u0cc7\u0cb6\u0ccd\u0cb5\u0cb0", "public_transport": "platform"}}, {"type": "node", "id": 6568316522, "lat": 13.1176072, "lon": 77.4619958}, {"type": "node", "id": 6568316524, "lat": 13.105879, "lon": 77.4749679}, {"type": "node", "id": 6808256113, "lat": 13.0593002, "lon": 77.5078232}, {"type": "node", "id": 6808256115, "lat": 13.0588479, "lon": 77.507563}, {"type": "node", "id": 6808256116, "lat": 13.0588452, "lon": 77.507818}, {"type": "node", "id": 7104434958, "lat": 13.0753112, "lon": 77.5046108, "tags": {"bus": "yes", "name": "Chikka Banawara Railway Gate", "name:en": "Chikka Banawara Railway Gate", "name:kn": "\u0c9a\u0cbf\u0c95\u0ccd\u0c95\u0cac\u0cbe\u0ca3\u0cbe\u0cb5\u0cb0", "network": "BMTC", "operator": "BMTC", "public_transport": "stop_position"}}, {"type": "node", "id": 7104434959, "lat": 13.0711347, "lon": 77.5038028, "tags": {"name": "Sapthagiri Hospital", "name:en": "Sapthagiri Hospital", "name:kn": "\u0cb8\u0caa\u0ccd\u0ca4\u0c97\u0cbf\u0cb0\u0cbf \u0c86\u0cb8\u0ccd\u0caa\u0ca4\u0ccd\u0cb0\u0cc6", "network": "BMTC", "operator": "BMTC", "public_transport": "platform"}}, {"type": "node", "id": 7104434961, "lat": 13.064047, "lon": 77.5049215, "tags": {"bus": "yes", "name": "Bone Mill", "name:en": "Bone Mill", "network": "BMTC", "operator": "BMTC", "public_transport": "stop_position"}}, {"type": "node", "id": 7227496212, "lat": 13.0578543, "lon": 77.5462761, "tags": {"bus": "yes", "name": "Gangamma Circle", "name:en": "Gangamma Circle", "name:kn": "\u0c97\u0c82\u0c97\u0cae\u0ccd\u0cae \u0cb5\u0cc3\u0ca4\u0ccd\u0ca4", "network": "BMTC", "operator": "BMTC", "public_transport": "stop_position"}}, {"type": "node", "id": 7227496235, "lat": 13.0676844, "lon": 77.5446379, "tags": {"bus": "yes", "name": "Double Tank", "name:en": "Double Tank", "network": "BMTC", "operator": "BMTC", "public_transport": "stop_position"}}, {"type": "node", "id": 7227496236, "lat": 13.0676794, "lon": 77.544685, "tags": {"bench": "yes", "covered": "yes", "highway": "bus_stop", "loc_name": "Jalahalli East", "name": "Double Tank", "name:en": "Double Tank", "network": "BMTC", "operator": "BMTC", "public_transport": "platform", "shelter": "yes", "wheelchair": "no"}}, {"type": "node", "id": 7227496274, "lat": 13.0859779, "lon": 77.5553971, "tags": {"bus": "yes", "name": "Jelly Machine Yalahanka", "name:en": "Jelly Machine Yalahanka", "network": "BMTC", "operator": "BMTC", "public_transport": "stop_position"}}, {"type": "node", "id": 7227496275, "lat": 13.0859294, "lon": 77.5554179, "tags": {"bench": "yes", "bus": "yes", "highway": "bus_stop", "name": "Jelly Machine Yalahanka", "name:en": "Jelly Machine Yalahanka", "network": "BMTC", "operator": "BMTC", "public_transport": "platform"}}, {"type": "node", "id": 7227496279, "lat": 13.0922103, "lon": 77.5593881, "tags": {"bus": "yes", "name": "Bettahalli Layout", "name:en": "Betta Halli Layout", "name:kn": "\u0cac\u0cc6\u0c9f\u0ccd\u0c9f\u0cb9\u0cb3\u0ccd\u0cb3\u0cbf \u0cac\u0ca1\u0cbe\u0cb5\u0ca3\u0cc6", "network": "BMTC", "operator": "BMTC", "public_transport": "stop_position"}}, {"type": "node", "id": 7227502968, "lat": 13.0884746, "lon": 77.5464563, "tags": {"bus": "yes", "name": "Sambhram College", "name:en": "Sambhram College", "name:kn": "\u0cb8\u0c82\u0cad\u0ccd\u0cb0\u0cae \u0c95\u0cbe\u0cb2\u0cc7\u0c9c\u0cc1", "network": "BMTC", "operator": "BMTC", "public_transport": "stop_position"}}, {"type": "node", "id": 7247396090, "lat": 13.1000984, "lon": 77.4803276, "tags": {"railway": "level_crossing"}}, {"type": "node", "id": 7247396091, "lat": 13.1004199, "lon": 77.4806164, "tags": {"railway": "level_crossing"}}, {"type": "node", "id": 7339719974, "lat": 13.0525871, "lon": 77.4873606}, {"type": "node", "id": 9635258267, "lat": 13.0675493, "lon": 77.51589, "tags": {"crossing:barrier": "full", "railway": "level_crossing"}}, {"type": "node", "id": 9635263902, "lat": 13.1015161, "lon": 77.4720964}, {"type": "node", "id": 9635264181, "lat": 13.0927997, "lon": 77.4886835, "tags": {"railway": "level_crossing"}}, {"type": "node", "id": 9635264182, "lat": 13.0928668, "lon": 77.4886954, "tags": {"railway": "level_crossing"}}, {"type": "node", "id": 9787816251, "lat": 13.0519264, "lon": 77.4891939}, {"type": "node", "id": 9851354796, "lat": 13.0520816, "lon": 77.4887633}, {"type": "node", "id": 9887085017, "lat": 13.0800666, "lon": 77.5107883, "tags": {"highway": "bus_stop", "name": "\u0ca1\u0cbf.\u0c8e\u0cb8\u0ccd \u0cb8\u0ccd\u0caa\u0ccd\u0cb2\u0cc6\u0c82\u0ca1\u0cb0\u0ccd \u0c85\u0caa\u0cbe\u0cb0\u0ccd\u0c9f\u0ccd\u0cae\u0cc6\u0c82\u0c9f\u0ccd", "name:en": "DS MAX SPLENDOR APARTMENT"}}, {"type": "node", "id": 9950454198, "lat": 13.1375489, "lon": 77.4793042}, {"type": "node", "id": 9950454199, "lat": 13.1375727, "lon": 77.4796612}, {"type": "node", "id": 9950454200, "lat": 13.1377045, "lon": 77.4794176}, {"type": "node", "id": 9950454201, "lat": 13.1377792, "lon": 77.4794445}, {"type": "node", "id": 9950454202, "lat": 13.1377802, "lon": 77.4795718}, {"type": "node", "id": 10168584605, "lat": 13.0393691, "lon": 77.5429235}, {"type": "node", "id": 10755520274, "lat": 13.0991587, "lon": 77.4820824}, {"type": "node", "id": 10755520275, "lat": 13.0992143, "lon": 77.4820203}, {"type": "node", "id": 10971543232, "lat": 13.0648476, "lon": 77.5596219, "tags": {"bus": "yes", "name": "Chamundeshwari Layout", "name:en": "Chamundeshwari Layout", "name:kn": "\u0c9a\u0cbe\u0cae\u0cc1\u0c82\u0ca1\u0cc7\u0cb6\u0ccd\u0cb5\u0cb0\u0cbf \u0cac\u0ca1\u0cbe\u0cb5\u0ca3\u0cc6", "network": "BMTC", "operator": "BMTC", "public_transport": "stop_position"}}, {"type": "node", "id": 11011564801, "lat": 13.1127507, "lon": 77.5251295, "tags": {"bus": "yes", "name": "Dodda Byalakere", "name:en": "Dodda Byalakere", "network": "BMTC", "operator": "BMTC", "public_transport": "stop_position"}}, {"type": "node", "id": 11017144748, "lat": 13.1008495, "lon": 77.4775044}, {"type": "node", "id": 11445466243, "lat": 13.0703809, "lon": 77.5554238, "tags": {"bench": "yes", "bus": "yes", "highway": "bus_stop", "name": "Vidyaranyapura BEL 1st Block", "network": "BMTC", "network:wikidata": "Q3345039", "operator": "BMTC", "public_transport": "platform", "shelter": "yes"}}, {"type": "node", "id": 11445466249, "lat": 13.0764196, "lon": 77.5581953, "tags": {"bench": "yes", "bus": "yes", "covered": "yes", "highway": "bus_stop", "name": "Vidyaranyapura Post Office", "name:en": "Vidyaranyapura Post Office", "network": "BMTC", "operator": "BMTC", "public_transport": "platform", "shelter": "yes"}}, {"type": "node", "id": 11445466252, "lat": 13.079545, "lon": 77.5590549, "tags": {"bus": "yes", "highway": "bus_stop", "public_transport": "platform", "shelter": "yes"}}, {"type": "node", "id": 11445466253, "lat": 13.081377, "lon": 77.5595634, "tags": {"bus": "yes", "highway": "bus_stop", "public_transport": "platform"}}, {"type": "node", "id": 11445466255, "lat": 13.084334, "lon": 77.5598162, "tags": {"bench": "yes", "bus": "yes", "highway": "bus_stop", "public_transport": "platform", "shelter": "yes"}}, {"type": "node", "id": 11496080742, "lat": 13.0647859, "lon": 77.559521, "tags": {"bench": "yes", "bus": "yes", "highway": "bus_stop", "name": "Chamundeshwari Layout", "name:kn": "\u0c9a\u0cbe\u0cae\u0cc1\u0c82\u0ca1\u0cc7\u0cb6\u0ccd\u0cb5\u0cb0\u0cbf \u0cac\u0ca1\u0cbe\u0cb5\u0ca3\u0cc6", "network": "BMTC", "operator": "BMTC", "public_transport": "platform", "shelter": "yes"}}, {"type": "node", "id": 11521293860, "lat": 13.0575456, "lon": 77.4721715}, {"type": "node", "id": 11521293861, "lat": 13.0575783, "lon": 77.4721836}, {"type": "node", "id": 11521293862, "lat": 13.0579101, "lon": 77.4707097}, {"type": "node", "id": 11521293863, "lat": 13.0579441, "lon": 77.4707137}, {"type": "node", "id": 11521293864, "lat": 13.0567696, "lon": 77.4754639}, {"type": "node", "id": 11521293865, "lat": 13.056814, "lon": 77.4754666}, {"type": "node", "id": 11521293866, "lat": 13.0571315, "lon": 77.4739686}, {"type": "node", "id": 11521293867, "lat": 13.0571681, "lon": 77.473982}, {"type": "node", "id": 11521293868, "lat": 13.0563084, "lon": 77.4774152}, {"type": "node", "id": 11521297769, "lat": 13.0563529, "lon": 77.4774259}, {"type": "node", "id": 11521297770, "lat": 13.0547904, "lon": 77.4812736}, {"type": "node", "id": 11521297771, "lat": 13.0547459, "lon": 77.4812655}, {"type": "node", "id": 11521297773, "lat": 13.055537, "lon": 77.4792951}, {"type": "node", "id": 11521297774, "lat": 13.0544297, "lon": 77.4821314}, {"type": "node", "id": 11521297775, "lat": 13.0538599, "lon": 77.4837157}, {"type": "node", "id": 11521297776, "lat": 13.0534146, "lon": 77.4849319}, {"type": "node", "id": 11521297777, "lat": 13.0518845, "lon": 77.4891773}, {"type": "node", "id": 11521297778, "lat": 13.0516589, "lon": 77.4897513}, {"type": "node", "id": 11521297779, "lat": 13.0510274, "lon": 77.4914983}, {"type": "node", "id": 11521297780, "lat": 13.0507092, "lon": 77.4923976}, {"type": "node", "id": 11521297781, "lat": 13.0504879, "lon": 77.4932451}, {"type": "node", "id": 11521297782, "lat": 13.050185, "lon": 77.4941333}, {"type": "node", "id": 11521297783, "lat": 13.0582256, "lon": 77.4695571}, {"type": "node", "id": 11521297784, "lat": 13.0507521, "lon": 77.4924114}, {"type": "node", "id": 11521297785, "lat": 13.0510696, "lon": 77.4915142}, {"type": "node", "id": 11521297786, "lat": 13.053902, "lon": 77.4837318}, {"type": "node", "id": 11521297787, "lat": 13.0544716, "lon": 77.482148}, {"type": "node", "id": 11598060942, "lat": 13.0842061, "lon": 77.486592, "tags": {"alt_name": "Achyutha Nagara Gate Chikkabanavara", "bus": "yes", "loc_name": "Soladevanahalli", "name": "Achyuthanagara Gate", "name:en": "Achyuthanagara Gate", "name:kn": "\u0c85\u0c9a\u0ccd\u0caf\u0cc1\u0ca4\u0ca8\u0c97\u0cb0", "network": "BMTC", "operator": "BMTC", "public_transport": "stop_position"}}, {"type": "node", "id": 11598060943, "lat": 13.0835206, "lon": 77.4841132, "tags": {"alt_name": "Acharya Institute of Technology Chikkabanavara", "bus": "yes", "name": "Acharya Institute of Technology", "name:en": "Acharya Institute of Technology", "network": "BMTC", "operator": "BMTC", "public_transport": "stop_position"}}, {"type": "node", "id": 11598060944, "lat": 13.0835308, "lon": 77.48411, "tags": {"alt_name": "Acharya Institute of Technology Chikkabanavara", "highway": "bus_stop", "name": "Acharya Institute of Technology", "name:en": "Acharya Institute of Technology", "network": "BMTC", "operator": "BMTC", "public_transport": "platform"}}, {"type": "node", "id": 11598060945, "lat": 13.0835329, "lon": 77.4841548, "tags": {"alt_name": "Acharya Institute of Technology Chikkabanavara", "bus": "yes", "name": "Acharya Institute of Technology", "name:en": "Acharya Institute of Technology", "network": "BMTC", "operator": "BMTC", "public_transport": "stop_position"}}, {"type": "node", "id": 11598060953, "lat": 13.0687543, "lon": 77.530006, "tags": {"bus": "yes", "name": "WIMAC Junction", "name:en": "WIMAC Junction", "network": "BMTC", "operator": "BMTC", "public_transport": "stop_position"}}, {"type": "node", "id": 11598060954, "lat": 13.0687297, "lon": 77.5299691, "tags": {"highway": "bus_stop", "name": "WIMAC Junction", "name:en": "WIMAC Junction", "network": "BMTC", "operator": "BMTC", "public_transport": "platform"}}, {"type": "node", "id": 11598060955, "lat": 13.0710699, "lon": 77.5280265, "tags": {"bus": "yes", "name": "Abbigere Dinne", "name:en": "Abbigere Dinne", "name:kn": "\u0c85\u0cac\u0ccd\u0cac\u0cbf\u0c97\u0cc6\u0cb0\u0cc6 \u0ca6\u0cbf\u0ca8\u0ccd\u0ca8\u0cc6", "network": "BMTC", "operator": "BMTC", "public_transport": "stop_position"}}, {"type": "node", "id": 11598060956, "lat": 13.0724665, "lon": 77.5235281, "tags": {"bus": "yes", "name": "Abbigere Gate", "name:en": "Abbigere Gate", "network": "BMTC", "operator": "BMTC", "public_transport": "stop_position"}}, {"type": "node", "id": 11598060957, "lat": 13.0769208, "lon": 77.5258486, "tags": {"bus": "yes", "name": "Abbigere", "name:en": "Abbigere", "name:kn": "\u0c85\u0cac\u0ccd\u0cac\u0cbf\u0c97\u0cc6\u0cb0\u0cc6", "network": "BMTC", "operator": "BMTC", "public_transport": "stop_position"}}, {"type": "node", "id": 11655480561, "lat": 13.0763988, "lon": 77.5582777, "tags": {"bus": "yes", "name": "Vidyaranyapura Post Office", "name:en": "Vidyaranyapura Post Office", "name:kn": "\u0cb5\u0cbf\u0ca6\u0ccd\u0caf\u0cbe\u0cb6\u0c82\u0c95\u0cb0 \u0ca6\u0cc7\u0cb5\u0cbe\u0cb2\u0caf", "network": "BMTC", "operator": "BMTC", "public_transport": "stop_position"}}, {"type": "node", "id": 11675805412, "lat": 13.0684525, "lon": 77.5600073, "tags": {"bus": "yes", "name": "Nanjappa Circle", "name:en": "Nanjappa Circle", "name:kn": "\u0ca8\u0c82\u0c9c\u0caa\u0ccd\u0caa \u0cb5\u0cc3\u0ca4\u0ccd\u0ca4", "network": "BMTC", "operator": "BMTC", "public_transport": "stop_position"}}, {"type": "node", "id": 11907314982, "lat": 13.0593029, "lon": 77.5075682}, {"type": "node", "id": 11907347776, "lat": 13.0568493, "lon": 77.5073341, "tags": {"bus": "yes", "departures_board": "no", "highway": "bus_stop", "name": "Bagalkunte", "name:kn": "\u0cac\u0cbe\u0c97\u0cb2\u0c97\u0cc1\u0c82\u0c9f\u0cc6", "operator": "BMTC", "public_transport": "platform"}}, {"type": "node", "id": 12316543760, "lat": 13.0574004, "lon": 77.4728018, "tags": {"alt_name": "BIEC", "name": "Madavara", "name:kn": "\u0cae\u0ca6\u0cb5\u0cb0", "network": "Namma Metro", "note": "Contributors are requested to not edit the \"network\" and the \"operator\" tags. (2023/11/08)", "operator": "Bangalore Metro Rail Corporation Limited", "public_transport": "stop_position", "public_transport:version": "2", "railway": "stop", "source": "http://www.bmrc.co.in/English/Network.htm", "start_date": "2024-11-07", "subway": "yes", "wheelchair": "yes"}}, {"type": "node", "id": 12316543761, "lat": 13.0574359, "lon": 77.4728077, "tags": {"alt_name": "BIEC", "name": "Madavara", "name:kn": "\u0cae\u0ca6\u0cb5\u0cb0", "network": "Namma Metro", "note": "Contributors are requested to not edit the \"network\" and the \"operator\" tags. (2023/11/08)", "operator": "Bangalore Metro Rail Corporation Limited", "public_transport": "stop_position", "public_transport:version": "2", "railway": "stop", "source": "http://www.bmrc.co.in/English/Network.htm", "start_date": "2024-11-07", "subway": "yes", "wheelchair": "yes"}}, {"type": "node", "id": 12316543762, "lat": 13.0523412, "lon": 77.4879101, "tags": {"name": "Chikkabidarakallu", "name:kn": "\u0c9a\u0cbf\u0c95\u0ccd\u0c95\u0cac\u0cbf\u0ca6\u0cb0\u0c95\u0cb2\u0ccd\u0cb2\u0cc1", "network": "Namma Metro", "note": "Contributors are requested to not edit the \"network\" and the \"operator\" tags. (2023/11/08)", "operator": "Bangalore Metro Rail Corporation Limited", "public_transport": "stop_position", "public_transport:version": "2", "railway": "stop", "source": "http://www.bmrc.co.in/English/Network.htm", "start_date": "2024-11-07", "subway": "yes", "wheelchair": "yes"}}, {"type": "node", "id": 12316543763, "lat": 13.0523847, "lon": 77.4879224, "tags": {"name": "Chikkabidarakallu", "name:kn": "\u0c9a\u0cbf\u0c95\u0ccd\u0c95\u0cac\u0cbf\u0ca6\u0cb0\u0c95\u0cb2\u0ccd\u0cb2\u0cc1", "network": "Namma Metro", "note": "Contributors are requested to not edit the \"network\" and the \"operator\" tags. (2023/11/08)", "operator": "Bangalore Metro Rail Corporation Limited", "public_transport": "stop_position", "public_transport:version": "2", "railway": "stop", "source": "http://www.bmrc.co.in/English/Network.htm", "start_date": "2024-11-07", "subway": "yes", "wheelchair": "yes"}}, {"type": "node", "id": 12316543764, "lat": 13.0501121, "lon": 77.4944527, "tags": {"name": "Manjunathanagara", "name:kn": "\u0cae\u0c82\u0c9c\u0cc1\u0ca8\u0cbe\u0ca5\u0ca8\u0c97\u0cb0", "network": "Namma Metro", "note": "Contributors are requested to not edit the \"network\" and the \"operator\" tags. (2023/11/08)", "operator": "Bangalore Metro Rail Corporation Limited", "public_transport": "stop_position", "public_transport:version": "2", "railway": "stop", "source": "http://www.bmrc.co.in/English/Network.htm", "start_date": "2024-11-07", "subway": "yes", "wheelchair": "yes"}}, {"type": "node", "id": 12316543765, "lat": 13.0500685, "lon": 77.4944407, "tags": {"name": "Manjunathanagara", "name:kn": "\u0cae\u0c82\u0c9c\u0cc1\u0ca8\u0cbe\u0ca5\u0ca8\u0c97\u0cb0", "network": "Namma Metro", "note": "Contributors are requested to not edit the \"network\" and the \"operator\" tags. (2023/11/08)", "operator": "Bangalore Metro Rail Corporation Limited", "public_transport": "stop_position", "public_transport:version": "2", "railway": "stop", "source": "http://www.bmrc.co.in/English/Network.htm", "start_date": "2024-11-07", "subway": "yes", "wheelchair": "yes"}}, {"type": "node", "id": 12478359019, "lat": 12.9971919, "lon": 77.662617}, {"type": "node", "id": 12478359020, "lat": 12.9988803, "lon": 77.6615959}, {"type": "node", "id": 12478359021, "lat": 12.9997638, "lon": 77.6610796}, {"type": "node", "id": 12478359022, "lat": 13.00061, "lon": 77.6605537}, {"type": "node", "id": 12478359023, "lat": 13.0008953, "lon": 77.6603559}, {"type": "node", "id": 12478359024, "lat": 13.0011868, "lon": 77.660139}, {"type": "node", "id": 12478359025, "lat": 13.0014659, "lon": 77.659892}, {"type": "node", "id": 12478359026, "lat": 13.0017792, "lon": 77.6596131}, {"type": "node", "id": 12478359027, "lat": 13.0021081, "lon": 77.6592537}, {"type": "node", "id": 12478359028, "lat": 13.0024308, "lon": 77.6588816}, {"type": "node", "id": 12478359029, "lat": 13.0028341, "lon": 77.6583455}, {"type": "node", "id": 12478359030, "lat": 13.0031164, "lon": 77.6578847}, {"type": "node", "id": 12478359031, "lat": 13.0034049, "lon": 77.6573504}, {"type": "node", "id": 12478359032, "lat": 13.0036177, "lon": 77.6569032}, {"type": "node", "id": 12478359033, "lat": 13.0037729, "lon": 77.6564704}, {"type": "node", "id": 12478359034, "lat": 13.0039171, "lon": 77.6559871}, {"type": "node", "id": 12478359035, "lat": 13.0040396, "lon": 77.6554656}, {"type": "node", "id": 12478359036, "lat": 13.0041527, "lon": 77.6548949}, {"type": "node", "id": 12478359037, "lat": 13.004241, "lon": 77.6542732}, {"type": "node", "id": 12478359038, "lat": 13.0053527, "lon": 77.6464463}, {"type": "node", "id": 12478359039, "lat": 13.0054022, "lon": 77.6460123}, {"type": "node", "id": 12478359040, "lat": 13.0054331, "lon": 77.6456294}, {"type": "node", "id": 12478359041, "lat": 13.0054622, "lon": 77.645217}, {"type": "node", "id": 12478359042, "lat": 13.0054758, "lon": 77.6448747}, {"type": "node", "id": 12478359043, "lat": 13.005478, "lon": 77.6444325}, {"type": "node", "id": 12478359044, "lat": 13.0054765, "lon": 77.6439524}, {"type": "node", "id": 12478359045, "lat": 13.0054625, "lon": 77.6435329}, {"type": "node", "id": 12478359046, "lat": 13.0054402, "lon": 77.6430781}, {"type": "node", "id": 12478359047, "lat": 13.0053869, "lon": 77.6425564}, {"type": "node", "id": 12478359048, "lat": 13.0053284, "lon": 77.6421121}, {"type": "node", "id": 12478359049, "lat": 13.0052556, "lon": 77.6416419}, {"type": "node", "id": 12478359050, "lat": 13.0051693, "lon": 77.641178}, {"type": "node", "id": 12478359051, "lat": 13.0045861, "lon": 77.6381173}, {"type": "node", "id": 12478359052, "lat": 13.0044066, "lon": 77.6372009}, {"type": "node", "id": 12478359053, "lat": 13.0042256, "lon": 77.6361516}, {"type": "node", "id": 12478359054, "lat": 13.0041714, "lon": 77.6358595}, {"type": "node", "id": 12478359055, "lat": 13.0041118, "lon": 77.6355038}, {"type": "node", "id": 12478359056, "lat": 13.0040851, "lon": 77.6353043}, {"type": "node", "id": 12478359057, "lat": 13.0040625, "lon": 77.6351464}, {"type": "node", "id": 12478359058, "lat": 13.0040569, "lon": 77.6349255}, {"type": "node", "id": 12478359059, "lat": 13.0040585, "lon": 77.6347081}, {"type": "node", "id": 12478359060, "lat": 13.0040782, "lon": 77.6344378}, {"type": "node", "id": 12478359061, "lat": 13.0041096, "lon": 77.634185}, {"type": "node", "id": 12478359062, "lat": 13.0041562, "lon": 77.6339488}, {"type": "node", "id": 12478359063, "lat": 13.0042079, "lon": 77.6337101}, {"type": "node", "id": 12478359064, "lat": 13.0042674, "lon": 77.6334603}, {"type": "node", "id": 12478359065, "lat": 13.0044031, "lon": 77.6329098}, {"type": "node", "id": 12478359066, "lat": 13.0044198, "lon": 77.6328452}, {"type": "node", "id": 12478359067, "lat": 13.0045493, "lon": 77.6323312}, {"type": "node", "id": 12478359068, "lat": 13.004613, "lon": 77.6320303}, {"type": "node", "id": 12478359069, "lat": 13.0047409, "lon": 77.6315349}, {"type": "node", "id": 12478359070, "lat": 13.0049153, "lon": 77.6310216}, {"type": "node", "id": 12478359071, "lat": 13.0051166, "lon": 77.6305122}, {"type": "node", "id": 12478359072, "lat": 13.0057475, "lon": 77.6289318}, {"type": "node", "id": 12478359073, "lat": 13.0062231, "lon": 77.6277512}, {"type": "node", "id": 12478359074, "lat": 13.0066064, "lon": 77.6268197}, {"type": "node", "id": 12478359075, "lat": 13.0071713, "lon": 77.6254306}, {"type": "node", "id": 12478359076, "lat": 13.0075158, "lon": 77.624588}, {"type": "node", "id": 12478359077, "lat": 13.0078781, "lon": 77.6236936}, {"type": "node", "id": 12478359078, "lat": 13.0082165, "lon": 77.6228779}, {"type": "node", "id": 12478359079, "lat": 13.0084, "lon": 77.622453}, {"type": "node", "id": 12478359080, "lat": 13.0085296, "lon": 77.6221578}, {"type": "node", "id": 12478359081, "lat": 13.0087177, "lon": 77.6218373}, {"type": "node", "id": 12478359082, "lat": 13.0089345, "lon": 77.6215718}, {"type": "node", "id": 12478359083, "lat": 13.0091516, "lon": 77.6213459}, {"type": "node", "id": 12478359084, "lat": 13.009449, "lon": 77.6211189}, {"type": "node", "id": 12478359085, "lat": 13.0097561, "lon": 77.6209319}, {"type": "node", "id": 12478359086, "lat": 13.0097648, "lon": 77.6209284}, {"type": "node", "id": 12478359087, "lat": 13.0098194, "lon": 77.6209066}, {"type": "node", "id": 12478359088, "lat": 13.0100908, "lon": 77.620798}, {"type": "node", "id": 12478359089, "lat": 13.0103703, "lon": 77.6207311}, {"type": "node", "id": 12478359090, "lat": 13.0106453, "lon": 77.6206823}, {"type": "node", "id": 12478359091, "lat": 13.0110149, "lon": 77.6206774}, {"type": "node", "id": 12478359092, "lat": 13.0113581, "lon": 77.6207176}, {"type": "node", "id": 12478359093, "lat": 13.0116768, "lon": 77.6207918}, {"type": "node", "id": 12478359094, "lat": 13.011956, "lon": 77.620893}, {"type": "node", "id": 12478359095, "lat": 13.0135417, "lon": 77.6215736}, {"type": "node", "id": 12478359096, "lat": 13.016096, "lon": 77.6227189}, {"type": "node", "id": 12478359097, "lat": 13.01646, "lon": 77.6228779}, {"type": "node", "id": 12478359098, "lat": 13.0169161, "lon": 77.6230476}, {"type": "node", "id": 12478359099, "lat": 13.0173253, "lon": 77.6231822}, {"type": "node", "id": 12478359100, "lat": 13.0176783, "lon": 77.6232739}, {"type": "node", "id": 12478368831, "lat": 12.9967065, "lon": 77.662905}, {"type": "node", "id": 12478382701, "lat": 13.0180679, "lon": 77.6233605}, {"type": "node", "id": 12478382702, "lat": 13.0185156, "lon": 77.6234346}, {"type": "node", "id": 12478382703, "lat": 13.0189083, "lon": 77.6234804}, {"type": "node", "id": 12478382704, "lat": 13.0193522, "lon": 77.62351}, {"type": "node", "id": 12478382705, "lat": 13.0197981, "lon": 77.6235159}, {"type": "node", "id": 12478382706, "lat": 13.0202043, "lon": 77.6234999}, {"type": "node", "id": 12478382707, "lat": 13.020656, "lon": 77.6234615}, {"type": "node", "id": 12478382708, "lat": 13.0210552, "lon": 77.623406}, {"type": "node", "id": 12478382709, "lat": 13.0212714, "lon": 77.6233623}, {"type": "node", "id": 12478382710, "lat": 13.0214141, "lon": 77.6233391}, {"type": "node", "id": 12478382711, "lat": 13.0219576, "lon": 77.623219}, {"type": "node", "id": 12478382712, "lat": 13.0224844, "lon": 77.6230645}, {"type": "node", "id": 12478382713, "lat": 13.0230363, "lon": 77.6228327}, {"type": "node", "id": 12478382714, "lat": 13.0235464, "lon": 77.6225924}, {"type": "node", "id": 12478382715, "lat": 13.0241719, "lon": 77.6222646}, {"type": "node", "id": 12478382716, "lat": 13.0244617, "lon": 77.6221055}, {"type": "node", "id": 12478382717, "lat": 13.0245456, "lon": 77.6220594}, {"type": "node", "id": 12478382718, "lat": 13.0248479, "lon": 77.6218766}, {"type": "node", "id": 12478382719, "lat": 13.0250617, "lon": 77.6217333}, {"type": "node", "id": 12478382720, "lat": 13.0252942, "lon": 77.6215453}, {"type": "node", "id": 12478382721, "lat": 13.0256203, "lon": 77.6211762}, {"type": "node", "id": 12478382722, "lat": 13.0258166, "lon": 77.6209188}, {"type": "node", "id": 12478382723, "lat": 13.0259631, "lon": 77.620687}, {"type": "node", "id": 12478382724, "lat": 13.0260887, "lon": 77.6204236}, {"type": "node", "id": 12478382725, "lat": 13.0261957, "lon": 77.6201602}, {"type": "node", "id": 12478382726, "lat": 13.0262376, "lon": 77.6200663}, {"type": "node", "id": 12478382727, "lat": 13.0262507, "lon": 77.6200334}, {"type": "node", "id": 12478382728, "lat": 13.0262665, "lon": 77.6199969}, {"type": "node", "id": 12478382729, "lat": 13.0264785, "lon": 77.6194756}, {"type": "node", "id": 12478382730, "lat": 13.0266554, "lon": 77.6190241}, {"type": "node", "id": 12478382731, "lat": 13.0267277, "lon": 77.6188408}, {"type": "node", "id": 12478382732, "lat": 13.0269038, "lon": 77.6184044}, {"type": "node", "id": 12478382733, "lat": 13.0272008, "lon": 77.6177087}, {"type": "node", "id": 12478382734, "lat": 13.0274221, "lon": 77.61728}, {"type": "node", "id": 12478382735, "lat": 13.0276563, "lon": 77.6169453}, {"type": "node", "id": 12478382736, "lat": 13.0278875, "lon": 77.6166459}, {"type": "node", "id": 12478382737, "lat": 13.0281063, "lon": 77.6164237}, {"type": "node", "id": 12478382738, "lat": 13.0283779, "lon": 77.6161855}, {"type": "node", "id": 12478382739, "lat": 13.0288274, "lon": 77.6158018}, {"type": "node", "id": 12478382740, "lat": 13.0288644, "lon": 77.6157729}, {"type": "node", "id": 12478382741, "lat": 13.029315, "lon": 77.6154209}, {"type": "node", "id": 12478382742, "lat": 13.0298083, "lon": 77.6150243}, {"type": "node", "id": 12478382743, "lat": 13.030884, "lon": 77.6141482}, {"type": "node", "id": 12478382744, "lat": 13.0334786, "lon": 77.6120647}, {"type": "node", "id": 12478382745, "lat": 13.0340021, "lon": 77.6116986}, {"type": "node", "id": 12478382746, "lat": 13.0343217, "lon": 77.6115205}, {"type": "node", "id": 12478382747, "lat": 13.0346959, "lon": 77.6113126}, {"type": "node", "id": 12478382748, "lat": 13.0350813, "lon": 77.6111425}, {"type": "node", "id": 12478382749, "lat": 13.0354791, "lon": 77.610998}, {"type": "node", "id": 12478382750, "lat": 13.0361773, "lon": 77.6108102}, {"type": "node", "id": 12478382751, "lat": 13.0367529, "lon": 77.610674}, {"type": "node", "id": 12478382752, "lat": 13.0375087, "lon": 77.610503}, {"type": "node", "id": 12478382753, "lat": 13.0379705, "lon": 77.6103888}, {"type": "node", "id": 12478382754, "lat": 13.038252, "lon": 77.6102874}, {"type": "node", "id": 12478382755, "lat": 13.0385457, "lon": 77.610173}, {"type": "node", "id": 12478382756, "lat": 13.0387778, "lon": 77.6100614}, {"type": "node", "id": 12478382757, "lat": 13.0390285, "lon": 77.6099243}, {"type": "node", "id": 12478382758, "lat": 13.0393044, "lon": 77.6097417}, {"type": "node", "id": 12478382759, "lat": 13.0395804, "lon": 77.6095209}, {"type": "node", "id": 12478382760, "lat": 13.0397918, "lon": 77.6093285}, {"type": "node", "id": 12478382761, "lat": 13.0400095, "lon": 77.6090851}, {"type": "node", "id": 12478382762, "lat": 13.0401957, "lon": 77.6088355}, {"type": "node", "id": 12478382763, "lat": 13.0403819, "lon": 77.6085603}, {"type": "node", "id": 12478382764, "lat": 13.0405287, "lon": 77.6082982}, {"type": "node", "id": 12478382765, "lat": 13.0406507, "lon": 77.6080361}, {"type": "node", "id": 12478382766, "lat": 13.0407527, "lon": 77.6077122}, {"type": "node", "id": 12478382767, "lat": 13.0408244, "lon": 77.6075076}, {"type": "node", "id": 12478382768, "lat": 13.040908, "lon": 77.6071059}, {"type": "node", "id": 12478382769, "lat": 13.040952, "lon": 77.6066748}, {"type": "node", "id": 12478382770, "lat": 13.0411318, "lon": 77.6004999}, {"type": "node", "id": 12478382771, "lat": 13.0411403, "lon": 77.6002328}, {"type": "node", "id": 12478382772, "lat": 13.0412236, "lon": 77.5973204}, {"type": "node", "id": 12478382773, "lat": 13.0412482, "lon": 77.5964813}, {"type": "node", "id": 12478382774, "lat": 13.0412761, "lon": 77.5960147}, {"type": "node", "id": 12478382775, "lat": 13.041289, "lon": 77.5953742}, {"type": "node", "id": 12478382776, "lat": 13.0412777, "lon": 77.5951244}, {"type": "node", "id": 12478382777, "lat": 13.0412476, "lon": 77.594664}, {"type": "node", "id": 12478382778, "lat": 13.0411738, "lon": 77.5941678}, {"type": "node", "id": 12478382779, "lat": 13.0411063, "lon": 77.5936779}, {"type": "node", "id": 12478382780, "lat": 13.0410757, "lon": 77.5933181}, {"type": "node", "id": 12478382781, "lat": 13.0410639, "lon": 77.5929902}, {"type": "node", "id": 12478382782, "lat": 13.0410886, "lon": 77.5926713}, {"type": "node", "id": 12478382783, "lat": 13.0411353, "lon": 77.5923526}, {"type": "node", "id": 12478382784, "lat": 13.0411882, "lon": 77.5920627}, {"type": "node", "id": 12478382785, "lat": 13.0414582, "lon": 77.5908585}, {"type": "node", "id": 12478382786, "lat": 13.0416132, "lon": 77.5901372}, {"type": "node", "id": 12478382787, "lat": 13.0416971, "lon": 77.5897469}, {"type": "node", "id": 12478382788, "lat": 13.041933, "lon": 77.5886945}, {"type": "node", "id": 12478382789, "lat": 13.0421193, "lon": 77.5877761}, {"type": "node", "id": 12478382790, "lat": 13.0422797, "lon": 77.587007}, {"type": "node", "id": 12478382791, "lat": 13.042405, "lon": 77.5864566}, {"type": "node", "id": 12478382792, "lat": 13.0424559, "lon": 77.5862175}, {"type": "node", "id": 12478382793, "lat": 13.042528, "lon": 77.5858792}, {"type": "node", "id": 12478382794, "lat": 13.0426752, "lon": 77.5853424}, {"type": "node", "id": 12478382795, "lat": 13.0428049, "lon": 77.5849906}, {"type": "node", "id": 12478382796, "lat": 13.0429455, "lon": 77.5846906}, {"type": "node", "id": 12478382797, "lat": 13.0430861, "lon": 77.5844403}, {"type": "node", "id": 12478382798, "lat": 13.0432597, "lon": 77.5841786}, {"type": "node", "id": 12478382799, "lat": 13.0434794, "lon": 77.5838719}, {"type": "node", "id": 12478382800, "lat": 13.0437014, "lon": 77.5836012}, {"type": "node", "id": 12478382801, "lat": 13.0439343, "lon": 77.5833058}, {"type": "node", "id": 12478382802, "lat": 13.0442419, "lon": 77.582911}, {"type": "node", "id": 12478382803, "lat": 13.0445846, "lon": 77.5825118}, {"type": "node", "id": 12478382804, "lat": 13.0450175, "lon": 77.5819818}, {"type": "node", "id": 12478382805, "lat": 13.0451779, "lon": 77.5817653}, {"type": "node", "id": 12478382806, "lat": 13.0455969, "lon": 77.5812456}, {"type": "node", "id": 12478382807, "lat": 13.0458908, "lon": 77.5808767}, {"type": "node", "id": 12478382808, "lat": 13.0463649, "lon": 77.5802818}, {"type": "node", "id": 12478382809, "lat": 13.0466884, "lon": 77.5798486}, {"type": "node", "id": 12478382810, "lat": 13.0469152, "lon": 77.5794965}, {"type": "node", "id": 12478382811, "lat": 13.0470566, "lon": 77.5791672}, {"type": "node", "id": 12478382812, "lat": 13.0471646, "lon": 77.5788811}, {"type": "node", "id": 12478382813, "lat": 13.0472376, "lon": 77.5785906}, {"type": "node", "id": 12478382814, "lat": 13.0472736, "lon": 77.5783169}, {"type": "node", "id": 12478382815, "lat": 13.0472897, "lon": 77.5780398}, {"type": "node", "id": 12478382816, "lat": 13.0472897, "lon": 77.577803}, {"type": "node", "id": 12478382817, "lat": 13.0472717, "lon": 77.5775627}, {"type": "node", "id": 12478382818, "lat": 13.0471553, "lon": 77.5758306}, {"type": "node", "id": 12478382819, "lat": 13.0469251, "lon": 77.5726584}, {"type": "node", "id": 12478382820, "lat": 13.046708, "lon": 77.5698551}, {"type": "node", "id": 12478382821, "lat": 13.0464922, "lon": 77.5669094}, {"type": "node", "id": 12478382822, "lat": 13.0464642, "lon": 77.5666238}, {"type": "node", "id": 12478382823, "lat": 13.0464022, "lon": 77.566298}, {"type": "node", "id": 12478382824, "lat": 13.0463317, "lon": 77.5660099}, {"type": "node", "id": 12478382825, "lat": 13.0462085, "lon": 77.5656304}, {"type": "node", "id": 12478382826, "lat": 13.0461383, "lon": 77.5654483}, {"type": "node", "id": 12478382827, "lat": 13.046026, "lon": 77.5652077}, {"type": "node", "id": 12478382828, "lat": 13.0458923, "lon": 77.5649742}, {"type": "node", "id": 12478382829, "lat": 13.0456208, "lon": 77.5646076}, {"type": "node", "id": 12478382830, "lat": 13.0454986, "lon": 77.5644358}, {"type": "node", "id": 12478382831, "lat": 13.0453469, "lon": 77.564283}, {"type": "node", "id": 12478382832, "lat": 13.0451807, "lon": 77.5641319}, {"type": "node", "id": 12478382833, "lat": 13.0445221, "lon": 77.5636377}, {"type": "node", "id": 12478382834, "lat": 13.0435481, "lon": 77.5630806}, {"type": "node", "id": 12478382835, "lat": 13.0417687, "lon": 77.5620848}, {"type": "node", "id": 12478382836, "lat": 13.0403835, "lon": 77.5612978}, {"type": "node", "id": 12478382837, "lat": 13.0401004, "lon": 77.5610907}, {"type": "node", "id": 12478382838, "lat": 13.0382777, "lon": 77.5601015}, {"type": "node", "id": 12478382839, "lat": 13.0368039, "lon": 77.5592753}, {"type": "node", "id": 12478382840, "lat": 13.0354986, "lon": 77.5582159}, {"type": "node", "id": 12478382841, "lat": 13.034797, "lon": 77.5574474}, {"type": "node", "id": 12478382842, "lat": 13.033565, "lon": 77.5556248}, {"type": "node", "id": 12478382843, "lat": 13.0323851, "lon": 77.5538009}, {"type": "node", "id": 12478382844, "lat": 13.0319357, "lon": 77.5530982}, {"type": "node", "id": 12478382845, "lat": 13.0314026, "lon": 77.552378}, {"type": "node", "id": 12478382846, "lat": 13.0310041, "lon": 77.5518979}, {"type": "node", "id": 12478382847, "lat": 13.0306592, "lon": 77.5515506}, {"type": "node", "id": 12478382848, "lat": 13.0292572, "lon": 77.5506423}, {"type": "node", "id": 12478382849, "lat": 13.0286967, "lon": 77.5502792}, {"type": "node", "id": 12478382850, "lat": 13.0281087, "lon": 77.5499547}, {"type": "node", "id": 12478382851, "lat": 13.0279321, "lon": 77.5499454}, {"type": "node", "id": 12478382852, "lat": 13.0270232, "lon": 77.5503029}, {"type": "node", "id": 12478382853, "lat": 13.0274068, "lon": 77.550079}, {"type": "node", "id": 12478382854, "lat": 13.0275388, "lon": 77.5499833}, {"type": "node", "id": 12478382855, "lat": 13.0277742, "lon": 77.5497857}, {"type": "node", "id": 12478382856, "lat": 13.0279136, "lon": 77.5496647}, {"type": "node", "id": 12478382857, "lat": 13.0280257, "lon": 77.5496107}, {"type": "node", "id": 12478382858, "lat": 13.0282792, "lon": 77.5494801}, {"type": "node", "id": 12478382859, "lat": 13.0283686, "lon": 77.5494528}, {"type": "node", "id": 12478382860, "lat": 13.0287094, "lon": 77.5492812}, {"type": "node", "id": 12478382861, "lat": 13.029032, "lon": 77.5491004}, {"type": "node", "id": 12478382862, "lat": 13.0291293, "lon": 77.5490552}, {"type": "node", "id": 12478382863, "lat": 13.0294361, "lon": 77.5489067}, {"type": "node", "id": 12478382864, "lat": 13.029795, "lon": 77.5487127}, {"type": "node", "id": 12478382865, "lat": 13.0304241, "lon": 77.5483808}, {"type": "node", "id": 12478382866, "lat": 13.0311975, "lon": 77.5479643}, {"type": "node", "id": 12478382867, "lat": 13.0313293, "lon": 77.5478954}, {"type": "node", "id": 12478382868, "lat": 13.0317943, "lon": 77.5476515}, {"type": "node", "id": 12478382869, "lat": 13.0327183, "lon": 77.5471647}, {"type": "node", "id": 12478382870, "lat": 13.0344097, "lon": 77.5462538}, {"type": "node", "id": 12478382871, "lat": 13.0357121, "lon": 77.5455741}, {"type": "node", "id": 12478382872, "lat": 13.0368672, "lon": 77.544942}, {"type": "node", "id": 12478382873, "lat": 13.0373274, "lon": 77.5446707}, {"type": "node", "id": 12478382874, "lat": 13.0376608, "lon": 77.5444411}, {"type": "node", "id": 12478382875, "lat": 13.0379726, "lon": 77.5441954}, {"type": "node", "id": 12478382876, "lat": 13.0382975, "lon": 77.5439227}, {"type": "node", "id": 12478382877, "lat": 13.0392047, "lon": 77.5431209}, {"type": "node", "id": 12478382878, "lat": 13.0393039, "lon": 77.5430332}, {"type": "node", "id": 12478382879, "lat": 13.0393926, "lon": 77.5429548}, {"type": "node", "id": 12478382880, "lat": 13.0397437, "lon": 77.5426445}, {"type": "node", "id": 12478382881, "lat": 13.0401526, "lon": 77.5423403}, {"type": "node", "id": 12478382882, "lat": 13.0437358, "lon": 77.5400054}, {"type": "node", "id": 12478382883, "lat": 13.0441506, "lon": 77.539725}, {"type": "node", "id": 12478382884, "lat": 13.0449676, "lon": 77.5391876}, {"type": "node", "id": 12478382885, "lat": 13.0452028, "lon": 77.5390325}, {"type": "node", "id": 12478382886, "lat": 13.0457382, "lon": 77.5386875}, {"type": "node", "id": 12478382887, "lat": 13.0459048, "lon": 77.5385827}, {"type": "node", "id": 12478382888, "lat": 13.0463363, "lon": 77.5382881}, {"type": "node", "id": 12478382889, "lat": 13.0465674, "lon": 77.5381428}, {"type": "node", "id": 12478382890, "lat": 13.0471539, "lon": 77.5377552}, {"type": "node", "id": 12478382891, "lat": 13.0473369, "lon": 77.5376406}, {"type": "node", "id": 12478382892, "lat": 13.0478213, "lon": 77.5373183}, {"type": "node", "id": 12478382893, "lat": 13.0480621, "lon": 77.5371631}, {"type": "node", "id": 12478382894, "lat": 13.0485561, "lon": 77.5368398}, {"type": "node", "id": 12478382895, "lat": 13.0488662, "lon": 77.5366312}, {"type": "node", "id": 12478382896, "lat": 13.0492341, "lon": 77.536389}, {"type": "node", "id": 12478382897, "lat": 13.0494893, "lon": 77.53622}, {"type": "node", "id": 12478382898, "lat": 13.0499238, "lon": 77.5359516}, {"type": "node", "id": 12478382899, "lat": 13.0501523, "lon": 77.5357993}, {"type": "node", "id": 12478382900, "lat": 13.0506834, "lon": 77.535454}, {"type": "node", "id": 12478382901, "lat": 13.0510969, "lon": 77.5351862}, {"type": "node", "id": 12478382902, "lat": 13.0514521, "lon": 77.5349459}, {"type": "node", "id": 12478382903, "lat": 13.0521299, "lon": 77.5345062}, {"type": "node", "id": 12478382904, "lat": 13.0524392, "lon": 77.5343112}, {"type": "node", "id": 12478382905, "lat": 13.0526868, "lon": 77.5341462}, {"type": "node", "id": 12478382906, "lat": 13.0531303, "lon": 77.5338593}, {"type": "node", "id": 12478382907, "lat": 13.0534788, "lon": 77.5336523}, {"type": "node", "id": 12478382908, "lat": 13.0539039, "lon": 77.5334255}, {"type": "node", "id": 12478382909, "lat": 13.0541681, "lon": 77.5332959}, {"type": "node", "id": 12478382910, "lat": 13.0544199, "lon": 77.5331976}, {"type": "node", "id": 12478382911, "lat": 13.0548385, "lon": 77.5330391}, {"type": "node", "id": 12478382912, "lat": 13.0552602, "lon": 77.5329012}, {"type": "node", "id": 12478382913, "lat": 13.055495, "lon": 77.5328409}, {"type": "node", "id": 12478382914, "lat": 13.0562167, "lon": 77.532643}, {"type": "node", "id": 12478382915, "lat": 13.056534, "lon": 77.5325649}, {"type": "node", "id": 12478382916, "lat": 13.0572542, "lon": 77.5323916}, {"type": "node", "id": 12478382917, "lat": 13.0574534, "lon": 77.5323416}, {"type": "node", "id": 12478382918, "lat": 13.0578357, "lon": 77.5322336}, {"type": "node", "id": 12478382919, "lat": 13.0582268, "lon": 77.5321013}, {"type": "node", "id": 12478382920, "lat": 13.0585025, "lon": 77.5319835}, {"type": "node", "id": 12478382921, "lat": 13.0589721, "lon": 77.5317735}, {"type": "node", "id": 12478382922, "lat": 13.0592988, "lon": 77.5316058}, {"type": "node", "id": 12478382923, "lat": 13.0595399, "lon": 77.5314722}, {"type": "node", "id": 12478382924, "lat": 13.0597414, "lon": 77.5313468}, {"type": "node", "id": 12478382925, "lat": 13.0599524, "lon": 77.5312149}, {"type": "node", "id": 12478382926, "lat": 13.0601649, "lon": 77.5310651}, {"type": "node", "id": 12478382927, "lat": 13.0604457, "lon": 77.5308616}, {"type": "node", "id": 12478382928, "lat": 13.0607883, "lon": 77.5305848}, {"type": "node", "id": 12478382929, "lat": 13.0610929, "lon": 77.5303128}, {"type": "node", "id": 12478382930, "lat": 13.0613625, "lon": 77.5300474}, {"type": "node", "id": 12478382931, "lat": 13.0616132, "lon": 77.529782}, {"type": "node", "id": 12478382932, "lat": 13.0619066, "lon": 77.5294254}, {"type": "node", "id": 12478382933, "lat": 13.0621874, "lon": 77.5290574}, {"type": "node", "id": 12478382934, "lat": 13.0623285, "lon": 77.5288473}, {"type": "node", "id": 12478382935, "lat": 13.0625094, "lon": 77.5285575}, {"type": "node", "id": 12478382936, "lat": 13.0626632, "lon": 77.5283002}, {"type": "node", "id": 12478382937, "lat": 13.0628346, "lon": 77.5279745}, {"type": "node", "id": 12478382938, "lat": 13.0629678, "lon": 77.5276814}, {"type": "node", "id": 12478382939, "lat": 13.0630836, "lon": 77.5274323}, {"type": "node", "id": 12478382940, "lat": 13.0632222, "lon": 77.5270774}, {"type": "node", "id": 12478382941, "lat": 13.0634738, "lon": 77.5264487}, {"type": "node", "id": 12478382942, "lat": 13.0637593, "lon": 77.5257225}, {"type": "node", "id": 12478382943, "lat": 13.0640163, "lon": 77.525063}, {"type": "node", "id": 12478382944, "lat": 13.0642748, "lon": 77.5243954}, {"type": "node", "id": 12478382945, "lat": 13.0647475, "lon": 77.5231806}, {"type": "node", "id": 12478382946, "lat": 13.0648042, "lon": 77.5230377}, {"type": "node", "id": 12478382947, "lat": 13.0651076, "lon": 77.5222736}, {"type": "node", "id": 12478382948, "lat": 13.0654439, "lon": 77.5213959}, {"type": "node", "id": 12478382949, "lat": 13.0658547, "lon": 77.5203359}, {"type": "node", "id": 12478382950, "lat": 13.066256, "lon": 77.5193328}, {"type": "node", "id": 12478382951, "lat": 13.0666288, "lon": 77.518359}, {"type": "node", "id": 12478382952, "lat": 13.066789, "lon": 77.5179633}, {"type": "node", "id": 12478382953, "lat": 13.0671157, "lon": 77.5171329}, {"type": "node", "id": 12478382954, "lat": 13.0673537, "lon": 77.5165027}, {"type": "node", "id": 12478382955, "lat": 13.0675728, "lon": 77.5159213}, {"type": "node", "id": 12478382956, "lat": 13.0676498, "lon": 77.5157171}, {"type": "node", "id": 12478382957, "lat": 13.0679821, "lon": 77.514864}, {"type": "node", "id": 12478382958, "lat": 13.0683029, "lon": 77.514029}, {"type": "node", "id": 12478382959, "lat": 13.0684816, "lon": 77.5135834}, {"type": "node", "id": 12478382960, "lat": 13.0686121, "lon": 77.5132463}, {"type": "node", "id": 12478382961, "lat": 13.0687449, "lon": 77.5129}, {"type": "node", "id": 12478382962, "lat": 13.0688848, "lon": 77.512572}, {"type": "node", "id": 12478382963, "lat": 13.0690166, "lon": 77.5122715}, {"type": "node", "id": 12478382964, "lat": 13.0691156, "lon": 77.5120814}, {"type": "node", "id": 12478382965, "lat": 13.0692422, "lon": 77.5118337}, {"type": "node", "id": 12478382966, "lat": 13.0693859, "lon": 77.5115902}, {"type": "node", "id": 12478382967, "lat": 13.0695387, "lon": 77.511341}, {"type": "node", "id": 12478382968, "lat": 13.0697038, "lon": 77.5111101}, {"type": "node", "id": 12478382969, "lat": 13.0698725, "lon": 77.5108848}, {"type": "node", "id": 12478382970, "lat": 13.0700172, "lon": 77.5106902}, {"type": "node", "id": 12478382971, "lat": 13.0701862, "lon": 77.510493}, {"type": "node", "id": 12478382972, "lat": 13.0704261, "lon": 77.5102286}, {"type": "node", "id": 12478382973, "lat": 13.0708924, "lon": 77.5097531}, {"type": "node", "id": 12478382974, "lat": 13.0710674, "lon": 77.5095769}, {"type": "node", "id": 12478382975, "lat": 13.0713478, "lon": 77.5093127}, {"type": "node", "id": 12478382976, "lat": 13.0716602, "lon": 77.5090187}, {"type": "node", "id": 12478382977, "lat": 13.0717956, "lon": 77.5088903}, {"type": "node", "id": 12478382978, "lat": 13.0719726, "lon": 77.5087224}, {"type": "node", "id": 12478382979, "lat": 13.072531, "lon": 77.5081964}, {"type": "node", "id": 12478382980, "lat": 13.0726817, "lon": 77.5080608}, {"type": "node", "id": 12478382981, "lat": 13.0734677, "lon": 77.5073052}, {"type": "node", "id": 12478382982, "lat": 13.0736016, "lon": 77.5071779}, {"type": "node", "id": 12478382983, "lat": 13.0744019, "lon": 77.5064166}, {"type": "node", "id": 12478382984, "lat": 13.0749498, "lon": 77.5058877}, {"type": "node", "id": 12620870365, "lat": 13.0697553, "lon": 77.5413847, "tags": {"bench": "yes", "bus": "yes", "departures_board": "no", "highway": "bus_stop", "name": "Kuvempnagara 1st stage", "not:network:wikidata": "Q3345039", "operator": "BMTC", "public_transport": "platform", "shelter": "yes"}}, {"type": "node", "id": 12627916327, "lat": 13.0262218, "lon": 77.6201017}, {"type": "node", "id": 12688134101, "lat": 13.0563105, "lon": 77.5463255, "tags": {"bench": "yes", "covered": "yes", "highway": "bus_stop", "name": "Gangamma Circle", "name:en": "Gangamma Circle", "network": "BMTC", "operator": "BMTC", "public_transport": "platform", "shelter": "yes"}}, {"type": "node", "id": 12688134102, "lat": 13.0563254, "lon": 77.5463245, "tags": {"bus": "yes", "name": "Gangamma Circle", "name:en": "Gangamma Circle", "network": "BMTC", "operator": "BMTC", "public_transport": "stop_position"}}, {"type": "node", "id": 12688134103, "lat": 13.0563278, "lon": 77.5463423, "tags": {"bench": "yes", "covered": "yes", "highway": "bus_stop", "name": "Gangamma Circle", "name:en": "Gangamma Circle", "network": "BMTC", "operator": "BMTC", "public_transport": "platform", "shelter": "yes"}}, {"type": "node", "id": 12698073337, "lat": 13.0599082, "lon": 77.5591641, "tags": {"addr:floor": "G", "bench": "yes", "bin": "yes", "bus": "yes", "highway": "bus_stop", "level": "0", "lit": "yes", "name": "Doddabommasandra", "public_transport": "platform", "source": "local knowledge", "wheelchair": "limited"}}, {"type": "node", "id": 12805665276, "lat": 13.0859239, "lon": 77.5558035, "tags": {"bus": "yes", "name": "Jelly Machine Yalahanka", "name:en": "Jelly Machine Yalahanka", "network": "BMTC", "operator": "BMTC", "public_transport": "stop_position"}}, {"type": "node", "id": 12806363244, "lat": 13.0762237, "lon": 77.5582234, "tags": {"bus": "yes", "name": "Vidyaranyapura Post Office", "name:en": "Vidyaranyapura Post Office", "network": "BMTC", "operator": "BMTC", "public_transport": "stop_position"}}, {"type": "node", "id": 12951405510, "lat": 13.1036206, "lon": 77.5165582, "tags": {"bus": "yes", "name": "Kalathammanahalli", "name:en": "Kalathammanahalli", "network": "BMTC", "operator": "BMTC", "public_transport": "stop_position"}}, {"type": "node", "id": 13130332986, "lat": 13.0895271, "lon": 77.5563543, "tags": {"bus": "yes", "name": "Chikkabettahalli", "name:en": "Chikkabettahalli", "network": "BMTC", "operator": "BMTC", "public_transport": "stop_position"}}, {"type": "node", "id": 13130332987, "lat": 13.089442, "lon": 77.5561904, "tags": {"bus": "yes", "name": "Chikkabettahalli", "name:en": "Chikkabettahalli", "network": "BMTC", "operator": "BMTC", "public_transport": "stop_position"}}, {"type": "node", "id": 13130334025, "lat": 13.0976806, "lon": 77.5630989, "tags": {"bus": "yes", "name": "Thirumala Daba", "name:en": "Thirumala Daba", "network": "BMTC", "operator": "BMTC", "public_transport": "stop_position"}}, {"type": "node", "id": 13130334026, "lat": 13.0977599, "lon": 77.5631135, "tags": {"bus": "yes", "name": "Thirumala Daba", "name:en": "Thirumala Daba", "network": "BMTC", "operator": "BMTC", "public_transport": "stop_position"}}, {"type": "node", "id": 13385600206, "lat": 13.0696878, "lon": 77.5109776}, {"type": "node", "id": 13385600207, "lat": 13.0696528, "lon": 77.5110261}, {"type": "node", "id": 13385600208, "lat": 13.0720443, "lon": 77.5086015}, {"type": "node", "id": 13385600209, "lat": 13.0720907, "lon": 77.5085577}, {"type": "node", "id": 13385600210, "lat": 13.0697015, "lon": 77.5110504}, {"type": "node", "id": 13385600211, "lat": 13.0697375, "lon": 77.5110025}, {"type": "way", "id": 45249611, "nodes": [6087642477, 6087642476, 6087642475, 6087642474, 6087642473, 6087642472, 6087642471, 6087642470, 6087642469, 6087642468, 6087642467, 6087642466, 6087642465, 6087642464, 6087642463, 6087642462, 6087642461, 6087642460, 6087642459, 9635264181, 6087642458, 6087642457, 6087642456, 6087642455, 6087642454, 6087642453, 6087642391, 6087642452, 6087642451, 6087642450, 6087642449, 574500358, 7247396090, 6118954659, 6118954658, 574500373, 6118954657, 2130914579, 6118954656, 2130914578, 11017144748, 2130914570, 9635263902], "tags": {"alt_name": "Hassan\u2013Bangalore", "electrified": "contact_line", "frequency": "50", "gauge": "1676", "maxspeed": "110", "name": "KSR Bengaluru-Hassan", "old_name": "Nelamangala-Hassan", "passenger_lines": "1", "railway": "rail", "source": "landsat", "usage": "main", "voltage": "25000", "wikidata": "Q17054620", "wikipedia": "en:Hassan\u2013Bangalore section"}}, {"type": "way", "id": 99223808, "nodes": [13385600210, 3870405145, 3870405144, 3870405143, 3870405142, 3870405141, 3870405140, 3870405139, 3870405138, 3870405137, 3870405136, 3870405135, 3870405134, 3870405133, 9635258267, 3870405132, 3870405131, 3870405130, 3870405129, 3870405128, 3870405127, 3870405126, 3870405125, 4793687727, 3870405124, 3870405123, 3870405122, 3870405121, 3870405120, 3870405119, 3870405118, 3870405117, 3870405116, 3870405115, 3870405114, 3870405113, 3870405112, 3870405111, 3870405110, 3870405109, 3870405108, 3870405107, 3870405106, 3870405105, 3870405104, 3870405103, 3870405102, 3870405101, 3870405100, 3870405099, 3870405098, 3870405097, 3870405096, 3870405095, 3870405094, 3870405093, 3870405092, 3870405091, 3870405090, 3870405089, 3870405088, 3870405087, 3870405086, 3870405085, 3870405084, 3870405083, 3870405082, 3870405081, 3870405080, 3870405079, 3870405078, 3870405077, 3870405076, 3870405075, 3870405074, 3870405073, 3870405072, 3870405071, 3870405070, 3870405069, 3870405068, 3870405067, 3870405066, 3870405065, 3870405064, 3870401199, 6021402053, 1147826271, 308074054, 443722548, 10168584605], "tags": {"electrified": "contact_line", "frequency": "50", "gauge": "1676", "level": "1", "maxspeed": "100", "passenger_lines": "2", "railway": "rail", "usage": "main", "voltage": "25000"}}, {"type": "way", "id": 155817461, "nodes": [6087642597, 6087642596, 6087642595, 1681763647, 1681763312, 6087642484, 1681763324, 1681763352, 1681763533, 1681763451, 6087642585, 6087642586, 1681763287], "tags": {"electrified": "no", "gauge": "1676", "railway": "rail", "service": "siding"}}, {"type": "way", "id": 179088589, "nodes": [1894246518, 1894246664], "tags": {"bridge": "yes", "electrified": "contact_line", "frequency": "50", "gauge": "1676", "layer": "1", "maxspeed": "110", "passenger_lines": "2", "railway": "rail", "usage": "main", "voltage": "25000"}}, {"type": "way", "id": 179088603, "nodes": [1894246731, 308073381, 308073380, 6087642641, 6087642642, 308073379, 6087642640, 308073378, 6087642639, 6087642638, 308073376, 308073375, 1894246518], "tags": {"electrified": "contact_line", "frequency": "50", "gauge": "1676", "maxspeed": "110", "passenger_lines": "2", "railway": "rail", "usage": "main", "voltage": "25000"}}, {"type": "way", "id": 348114212, "nodes": [3543273322, 9950454200, 9950454201, 9950454202, 3543273323, 9950454199, 9950454198, 3543273315, 3543273314, 3543273322], "tags": {"amenity": "bus_station", "building": "yes", "bus": "yes", "name": "Hesaghatta Bus Terminal", "public_transport": "station"}}, {"type": "way", "id": 359201105, "nodes": [3228461839, 12316543764, 1576973975, 1576973952, 11521297784, 11521297785, 1576973977, 9787816251, 9851354796, 12316543763, 7339719974, 1576973971, 11521297786, 11521297787, 11521297770, 1576973978, 11521297769, 11521293865, 11521293867, 12316543761, 11521293861, 11521293863, 1576973979], "tags": {"bridge": "viaduct", "colour": "green", "designation": "Namma Metro - Reach 3C", "electrified": "rail", "frequency": "0", "gauge": "1435", "layer": "1", "maxspeed": "80", "name": "Namma Metro - Reach 3C", "name:kn": "\u0ca8\u0cae\u0ccd\u0cae \u0cae\u0cc6\u0c9f\u0ccd\u0cb0\u0ccb", "network": "Namma Metro", "note": "Contributors are requested to not edit the \"network\" and the \"operator\" tags. (2023/11/08)", "operator": "Bangalore Metro Rail Corporation Limited", "railway": "subway", "start_date": "2024-11-07", "subway": "yes", "voltage": "750"}}, {"type": "way", "id": 383575669, "nodes": [3868567932, 3868567933, 3868567934, 3868567935, 3868567932], "tags": {"area": "yes", "name": "Platform", "railway": "platform"}}, {"type": "way", "id": 383575670, "nodes": [3868567936, 3868567937, 3868567938, 3868567939, 3868567936], "tags": {"area": "yes", "railway": "platform"}}, {"type": "way", "id": 383575671, "nodes": [3868567940, 3868567941, 3868567942, 3868567943, 3868567944, 3868567945, 3868567946, 3868567947, 3868567948, 3868567949, 3868567950, 3868567953, 3868567952, 3868567951, 3868567940], "tags": {"area": "yes", "railway": "platform"}}, {"type": "way", "id": 408928985, "nodes": [10755520274, 308073370, 6087642395, 308073369, 6087642396, 308073368, 6087642397, 6087642398, 308073366, 6087642399, 6141603066, 308073365, 6087642400, 6087642390, 308073364, 308073363, 308073362, 308073360], "tags": {"electrified": "contact_line", "frequency": "50", "gauge": "1676", "maxspeed": "110", "passenger_lines": "2", "railway": "rail", "usage": "main", "voltage": "25000"}}, {"type": "way", "id": 648427308, "nodes": [6087642586, 6087642587], "tags": {"electrified": "no", "gauge": "1676", "railway": "rail", "service": "siding"}}, {"type": "way", "id": 648427309, "nodes": [6087642588, 6087642589], "tags": {"electrified": "contact_line", "frequency": "50", "gauge": "1676", "railway": "rail", "service": "crossover", "voltage": "25000"}}, {"type": "way", "id": 648427310, "nodes": [6087642590, 6087642591], "tags": {"electrified": "contact_line", "frequency": "50", "gauge": "1676", "railway": "rail", "service": "crossover", "voltage": "25000"}}, {"type": "way", "id": 648427311, "nodes": [6087642592, 3868501020], "tags": {"electrified": "contact_line", "frequency": "50", "gauge": "1676", "railway": "rail", "service": "crossover", "voltage": "25000"}}, {"type": "way", "id": 648427312, "nodes": [6087642593, 6087642594], "tags": {"electrified": "no", "gauge": "1676", "railway": "rail", "service": "siding"}}, {"type": "way", "id": 648427313, "nodes": [6087642481, 6087642596], "tags": {"electrified": "no", "gauge": "1676", "railway": "rail", "service": "siding"}}, {"type": "way", "id": 648427314, "nodes": [6087642480, 6087642598], "tags": {"electrified": "no", "gauge": "1676", "railway": "rail", "service": "crossover"}}, {"type": "way", "id": 648427315, "nodes": [6087642477, 6087642599], "tags": {"electrified": "no", "gauge": "1676", "railway": "rail", "service": "crossover"}}, {"type": "way", "id": 648427316, "nodes": [6087642600, 6087642601], "tags": {"electrified": "no", "gauge": "1676", "railway": "rail", "service": "crossover"}}, {"type": "way", "id": 648427317, "nodes": [6087642602, 6087642603], "tags": {"electrified": "no", "gauge": "1676", "railway": "rail", "service": "siding"}}, {"type": "way", "id": 648427318, "nodes": [6087642604, 6087642409], "tags": {"electrified": "no", "gauge": "1676", "railway": "rail", "service": "crossover"}}, {"type": "way", "id": 648427319, "nodes": [6087642605, 6087642603, 6087642606, 6087642607, 6087642608, 6087642609, 6087642610, 6087642615, 6087642611, 6087642612, 6087642594, 6087642613], "tags": {"electrified": "no", "gauge": "1676", "railway": "rail", "service": "siding"}}, {"type": "way", "id": 648427320, "nodes": [6087642614, 6087642615], "tags": {"railway": "rail", "service": "yard"}}, {"type": "way", "id": 648427321, "nodes": [6087642608, 6087642616, 6087642617, 6087642618, 6087642619, 6087642614, 6087642620, 6087642621], "tags": {"gauge": "1676", "railway": "rail", "service": "yard"}}, {"type": "way", "id": 648427322, "nodes": [6087642620, 6087642622, 6087642623, 6087642624, 6087642625, 6087642626, 6087642627], "tags": {"gauge": "1676", "railway": "rail", "service": "yard"}}, {"type": "way", "id": 699466324, "nodes": [6568316524, 6087790238, 6087790239, 6087790240, 6087790241, 6087790242, 6087790243, 6087790244, 6087790245, 6087790246, 6087790247, 6087790248, 6087790249, 6087790250, 6087790251, 6087790252, 6087790253, 6087790254, 6087790255, 6087790256, 6568316522], "tags": {"electrified": "contact_line", "frequency": "50", "gauge": "1676", "maxspeed": "110", "passenger_lines": "2", "railway": "rail", "usage": "main", "voltage": "25000"}}, {"type": "way", "id": 699466325, "nodes": [6087642448, 6568316524], "tags": {"bridge": "yes", "electrified": "contact_line", "frequency": "50", "gauge": "1676", "layer": "1", "maxspeed": "110", "passenger_lines": "2", "railway": "rail", "usage": "main", "voltage": "25000"}}, {"type": "way", "id": 699466326, "nodes": [3764952341, 3870401198, 308074058, 3870399545, 308074059, 3870399544, 3870399542, 3870399543, 308074060, 3870399539, 3870399540, 3870399541, 308074061, 3870399538, 308074062, 3870399536, 3870399537, 3870399535, 308074063, 308074064, 3870399534, 3870399533, 308074066, 3870399531, 3870399532, 308074067, 3870399530, 308074068, 3870399529, 3870399527, 3870399528, 308074069, 3870399526, 3870399525, 308074070, 3870399524, 3870399522, 3870399523, 308074071, 3870399521, 3870399520, 308074072, 3870399519, 3870399518, 308074074, 308073342, 3870399517, 308073343, 3870399516, 3870399515, 1485692933, 6142972951, 308073344, 308073345, 3870399514, 308073346, 3870399513, 3870399512, 308073347, 3870399511, 13385600207], "tags": {"electrified": "contact_line", "frequency": "50", "gauge": "1676", "level": "1", "maxspeed": "100", "passenger_lines": "2", "railway": "rail", "usage": "main", "voltage": "25000"}}, {"type": "way", "id": 726174388, "nodes": [6808256113, 11907314982, 6808256115, 6808256116, 6808256113], "tags": {"addr:street": "Hesaraghatta Main Road", "amenity": "bus_station", "bus": "yes", "name": "Mallasandra Bus Station", "name:kn": "\u0cae\u0cb2\u0ccd\u0cb2\u0cb8\u0c82\u0ca6\u0ccd\u0cb0", "operator": "BMTC", "public_transport": "station"}}, {"type": "way", "id": 819007972, "nodes": [6087642637, 6087642588], "tags": {"electrified": "no", "gauge": "1676", "passenger_lines": "1", "railway": "rail", "service": "yard", "source": "landsat"}}, {"type": "way", "id": 1106116705, "nodes": [6087642601, 6087642602, 6087642406, 6087642405, 6087642404, 6087642403, 6087642402, 6087642389], "tags": {"electrified": "contact_line", "frequency": "50", "gauge": "1676", "maxspeed": "100", "passenger_lines": "2", "railway": "rail", "usage": "main", "voltage": "25000"}}, {"type": "way", "id": 1156552719, "nodes": [1894246664, 308073374, 6087642392, 6087642393, 6087642394, 1894246671, 10755520275], "tags": {"electrified": "contact_line", "frequency": "50", "gauge": "1676", "maxspeed": "110", "passenger_lines": "2", "railway": "rail", "usage": "main", "voltage": "25000"}}, {"type": "way", "id": 1156552720, "nodes": [10755520275, 10755520274], "tags": {"bridge": "yes", "electrified": "contact_line", "frequency": "50", "gauge": "1676", "layer": "1", "maxspeed": "110", "passenger_lines": "2", "railway": "rail", "usage": "main", "voltage": "25000"}}, {"type": "way", "id": 1240092403, "nodes": [5954688563, 12316543765, 11521297782, 11521297781, 11521297780, 11521297779, 11521297778, 11521297777, 12316543762, 11521297776, 11521297775, 11521297774, 11521297771, 11521297773, 11521293868, 11521293864, 11521293866, 12316543760, 11521293860, 11521293862, 11521297783], "tags": {"bridge": "viaduct", "colour": "green", "designation": "Namma Metro - Reach 3C", "electrified": "rail", "frequency": "0", "gauge": "1435", "layer": "1", "maxspeed": "80", "name": "Namma Metro - Reach 3C", "name:kn": "\u0ca8\u0cae\u0ccd\u0cae \u0cae\u0cc6\u0c9f\u0ccd\u0cb0\u0ccb", "network": "Namma Metro", "note": "Contributors are requested to not edit the \"network\" and the \"operator\" tags. (2023/11/08)", "operator": "Bangalore Metro Rail Corporation Limited", "railway": "subway", "start_date": "2024-11-07", "subway": "yes", "voltage": "750"}}, {"type": "way", "id": 1348981998, "nodes": [12478382984, 12478382983, 12478382982, 12478382981, 12478382980, 12478382979, 12478382978, 12478382977, 12478382976, 12478382975, 12478382974, 12478382973, 12478382972, 12478382971, 12478382970, 12478382969, 12478382968, 12478382967, 12478382966, 12478382965, 12478382964, 12478382963, 12478382962, 12478382961, 12478382960, 12478382959, 12478382958, 12478382957, 12478382956, 12478382955, 12478382954, 12478382953, 12478382952, 12478382951, 12478382950, 12478382949, 12478382948, 12478382947, 12478382946, 12478382945, 12478382944, 12478382943, 12478382942, 12478382941, 12478382940, 12478382939, 12478382938, 12478382937, 12478382936, 12478382935, 12478382934, 12478382933, 12478382932, 12478382931, 12478382930, 12478382929, 12478382928, 12478382927, 12478382926, 12478382925, 12478382924, 12478382923, 12478382922, 12478382921, 12478382920, 12478382919, 12478382918, 12478382917, 12478382916, 12478382915, 12478382914, 12478382913, 12478382912, 12478382911, 12478382910, 12478382909, 12478382908, 12478382907, 12478382906, 12478382905, 12478382904, 12478382903, 12478382902, 12478382901, 12478382900, 12478382899, 12478382898, 12478382897, 12478382896, 12478382895, 12478382894, 12478382893, 12478382892, 12478382891, 12478382890, 12478382889, 12478382888, 12478382887, 12478382886, 12478382885, 12478382884, 12478382883, 12478382882, 12478382881, 12478382880, 12478382879, 12478382878, 12478382877, 12478382876, 12478382875, 12478382874, 12478382873, 12478382872, 12478382871, 12478382870, 12478382869, 12478382868, 12478382867, 12478382866, 12478382865, 12478382864, 12478382863, 12478382862, 12478382861, 12478382860, 12478382859, 12478382858, 12478382857, 12478382856, 12478382855, 12478382854, 12478382853, 12478382852, 12478382851, 12478382850, 12478382849, 12478382848, 12478382847, 12478382846, 12478382845, 12478382844, 12478382843, 12478382842, 12478382841, 12478382840, 12478382839, 12478382838, 12478382837, 12478382836, 12478382835, 12478382834, 12478382833, 12478382832, 12478382831, 12478382830, 12478382829, 12478382828, 12478382827, 12478382826, 12478382825, 12478382824, 12478382823, 12478382822, 12478382821, 12478382820, 12478382819, 12478382818, 12478382817, 12478382816, 12478382815, 12478382814, 12478382813, 12478382812, 12478382811, 12478382810, 12478382809, 12478382808, 12478382807, 12478382806, 12478382805, 12478382804, 12478382803, 12478382802, 12478382801, 12478382800, 12478382799, 12478382798, 12478382797, 12478382796, 12478382795, 12478382794, 12478382793, 12478382792, 12478382791, 12478382790, 12478382789, 12478382788, 12478382787, 12478382786, 12478382785, 12478382784, 12478382783, 12478382782, 12478382781, 12478382780, 12478382779, 12478382778, 12478382777, 12478382776, 12478382775, 12478382774, 12478382773, 12478382772, 12478382771, 12478382770, 12478382769, 12478382768, 12478382767, 12478382766, 12478382765, 12478382764, 12478382763, 12478382762, 12478382761, 12478382760, 12478382759, 12478382758, 12478382757, 12478382756, 12478382755, 12478382754, 12478382753, 12478382752, 12478382751, 12478382750, 12478382749, 12478382748, 12478382747, 12478382746, 12478382745, 12478382744, 12478382743, 12478382742, 12478382741, 12478382740, 12478382739, 12478382738, 12478382737, 12478382736, 12478382735, 12478382734, 12478382733, 12478382732, 12478382731, 12478382730, 12478382729, 12478382728, 12478382727, 12478382726, 12627916327, 12478382725, 12478382724, 12478382723, 12478382722, 12478382721, 12478382720, 12478382719, 12478382718, 12478382717, 12478382716, 12478382715, 12478382714, 12478382713, 12478382712, 12478382711, 12478382710, 12478382709, 12478382708, 12478382707, 12478382706, 12478382705, 12478382704, 12478382703, 12478382702, 12478382701, 12478359100, 12478359099, 12478359098, 12478359097, 12478359096, 12478359095, 12478359094, 12478359093, 12478359092, 12478359091, 12478359090, 12478359089, 12478359088, 12478359087, 12478359086, 12478359085, 12478359084, 12478359083, 12478359082, 12478359081, 12478359080, 12478359079, 12478359078, 12478359077, 12478359076, 12478359075, 12478359074, 12478359073, 12478359072, 12478359071, 12478359070, 12478359069, 12478359068, 12478359067, 12478359066, 12478359065, 12478359064, 12478359063, 12478359062, 12478359061, 12478359060, 12478359059, 12478359058, 12478359057, 12478359056, 12478359055, 12478359054, 12478359053, 12478359052, 12478359051, 12478359050, 12478359049, 12478359048, 12478359047, 12478359046, 12478359045, 12478359044, 12478359043, 12478359042, 12478359041, 12478359040, 12478359039, 12478359038, 12478359037, 12478359036, 12478359035, 12478359034, 12478359033, 12478359032, 12478359031, 12478359030, 12478359029, 12478359028, 12478359027, 12478359026, 12478359025, 12478359024, 12478359023, 12478359022, 12478359021, 12478359020, 12478359019, 12478368831], "tags": {"electrified": "yes", "fixme": "Approximate alignment", "level": "1", "name": "Mallige Line", "network": "Bengaluru Suburban Railway", "railway": "proposed"}}, {"type": "way", "id": 1453283464, "nodes": [308073360, 6087642411, 6087642410, 6087642409, 6087642408, 6087642407, 6087642601], "tags": {"electrified": "contact_line", "frequency": "50", "gauge": "1676", "maxspeed": "110", "passenger_lines": "2", "railway": "rail", "usage": "main", "voltage": "25000"}}, {"type": "way", "id": 1453283465, "nodes": [6087642599, 6087642604, 6087642419, 6087642420, 6087642421, 6087642422, 6087642423, 6087642424, 6087642425, 6087642426, 6087642427, 6087642428, 6087642429, 6087642430, 6087642431, 6087642432, 9635264182, 6087642433, 6087642434, 6087642435, 6087642436, 6087642437, 6087642438, 6087642439, 6087642440, 6087642441, 6087642442, 7247396091, 6087642443, 6087642444, 6087642445, 6087642446, 6087642447, 6087642448], "tags": {"electrified": "contact_line", "frequency": "50", "gauge": "1676", "maxspeed": "110", "passenger_lines": "2", "railway": "rail", "usage": "main", "voltage": "25000"}}, {"type": "way", "id": 1453283466, "nodes": [6087642600, 6087642599], "tags": {"electrified": "contact_line", "frequency": "50", "gauge": "1676", "maxspeed": "100", "passenger_lines": "2", "railway": "rail", "usage": "main", "voltage": "25000"}}, {"type": "way", "id": 1453283467, "nodes": [6087642588, 6087642587, 6087642636, 6087642635, 6087642634, 6087642633, 6087642632, 6087642631, 6087642630, 6087642629, 6087642628, 6087642483, 6087642482, 6087642481, 6087642480, 6087642479, 6087642478, 6087642477], "tags": {"electrified": "contact_line", "frequency": "50", "gauge": "1676", "passenger_lines": "1", "railway": "rail", "source": "landsat", "usage": "main", "voltage": "25000"}}, {"type": "way", "id": 1459465190, "nodes": [13385600206, 6087642388, 308073348, 3870399510, 3870399509, 308073349, 308073350, 6087642590, 6087642589, 3870399507, 6087642592, 3870405155, 3870405156, 3870405157, 3870405158, 3870405159, 3870405168, 3870405169, 6087642412, 6087642413, 6087642414, 6087642415, 6087642416, 6087642417, 6087642598, 6087642418, 6087642600], "tags": {"electrified": "contact_line", "frequency": "50", "gauge": "1676", "level": "1", "maxspeed": "100", "passenger_lines": "2", "railway": "rail", "usage": "main", "voltage": "25000"}}, {"type": "way", "id": 1459465191, "nodes": [13385600207, 13385600206], "tags": {"bridge": "yes", "electrified": "contact_line", "frequency": "50", "gauge": "1676", "layer": "1", "level": "1", "maxspeed": "100", "passenger_lines": "2", "railway": "rail", "usage": "main", "voltage": "25000"}}, {"type": "way", "id": 1459465192, "nodes": [6087642389, 3870405160, 6087642593, 3868501020, 3870399508, 3870405154, 13385600209], "tags": {"electrified": "contact_line", "frequency": "50", "gauge": "1676", "level": "1", "maxspeed": "100", "passenger_lines": "2", "railway": "rail", "usage": "main", "voltage": "25000"}}, {"type": "way", "id": 1459465193, "nodes": [13385600209, 13385600208], "tags": {"bridge": "yes", "electrified": "contact_line", "frequency": "50", "gauge": "1676", "layer": "1", "level": "1", "maxspeed": "100", "passenger_lines": "2", "railway": "rail", "usage": "main", "voltage": "25000"}}, {"type": "way", "id": 1459465194, "nodes": [13385600208, 3870405153, 6087642591, 3870405152, 3870405151, 6087642401, 3870405150, 3870405149, 3870405148, 3870405147, 3870405146, 13385600211], "tags": {"electrified": "contact_line", "frequency": "50", "gauge": "1676", "level": "1", "maxspeed": "100", "passenger_lines": "2", "railway": "rail", "usage": "main", "voltage": "25000"}}, {"type": "way", "id": 1459465195, "nodes": [13385600211, 13385600210], "tags": {"bridge": "yes", "electrified": "contact_line", "frequency": "50", "gauge": "1676", "layer": "1", "level": "1", "maxspeed": "100", "passenger_lines": "2", "railway": "rail", "usage": "main", "voltage": "25000"}}, {"type": "relation", "id": 10532754, "members": [{"type": "node", "ref": 1681763441, "role": "platform"}], "tags": {"name": "Chikka Banavara", "name:en": "Chikka Banavara", "name:kn": "\u0c9a\u0cbf\u0c95\u0ccd\u0c95 \u0cac\u0cbe\u0ca3\u0cb5\u0cbe\u0cb0", "network": "BMTC", "operator": "BMTC", "public_transport": "stop_area", "type": "public_transport"}}, {"type": "relation", "id": 10532755, "members": [{"type": "node", "ref": 7104434958, "role": "stop"}, {"type": "node", "ref": 1485693042, "role": "platform"}], "tags": {"name": "Chikka Banawara Railway Gate", "name:en": "Chikka Banawara Railway Gate", "network": "BMTC", "operator": "BMTC", "public_transport": "stop_area", "type": "public_transport"}}, {"type": "relation", "id": 10532756, "members": [{"type": "node", "ref": 2244732074, "role": "stop"}, {"type": "node", "ref": 2431237657, "role": "platform"}], "tags": {"name": "Janapriya Apartments", "name:en": "Janapriya Apartments", "network": "BMTC", "operator": "BMTC", "public_transport": "stop_area", "type": "public_transport"}}, {"type": "relation", "id": 10532757, "members": [{"type": "node", "ref": 2431234341, "role": "platform"}], "tags": {"name": "Sapthagiri College", "name:en": "Sapthagiri College", "name:kn": "\u0cb8\u0caa\u0ccd\u0ca4\u0c97\u0cbf\u0cb0\u0cbf \u0c95\u0cbe\u0cb2\u0cc7\u0c9c\u0cc1", "network": "BMTC", "operator": "BMTC", "public_transport": "stop_area", "type": "public_transport"}}, {"type": "relation", "id": 10532758, "members": [{"type": "node", "ref": 7104434961, "role": "stop"}, {"type": "node", "ref": 2431232325, "role": "platform"}], "tags": {"name": "Bone Mill", "name:en": "Bone Mill", "network": "BMTC", "operator": "BMTC", "public_transport": "stop_area", "type": "public_transport"}}, {"type": "relation", "id": 10532759, "members": [{"type": "node", "ref": 2431230945, "role": "platform"}], "tags": {"name": "Bagalagunte", "name:en": "Bagalagunte", "name:kn": "\u0cac\u0cbe\u0c97\u0cb2\u0c97\u0cc1\u0c82\u0c9f\u0cc6", "network": "BMTC", "operator": "BMTC", "public_transport": "stop_area", "type": "public_transport"}}, {"type": "relation", "id": 10728101, "members": [{"type": "node", "ref": 7227496212, "role": "stop"}, {"type": "node", "ref": 2447225117, "role": "platform"}], "tags": {"name": "Gangamma Circle", "name:en": "Gangamma Circle", "name:kn": "\u0c97\u0c82\u0c97\u0cae\u0ccd\u0cae \u0cb5\u0cc3\u0ca4\u0ccd\u0ca4", "network": "BMTC", "operator": "BMTC", "public_transport": "stop_area", "type": "public_transport"}}, {"type": "relation", "id": 10728102, "members": [{"type": "node", "ref": 7227496235, "role": "stop"}, {"type": "node", "ref": 7227496236, "role": "platform"}], "tags": {"name": "Double Tank", "name:en": "Double Tank", "network": "BMTC", "operator": "BMTC", "public_transport": "stop_area", "type": "public_transport"}}, {"type": "relation", "id": 10728103, "members": [{"type": "node", "ref": 7227496274, "role": "stop"}, {"type": "node", "ref": 7227496275, "role": "platform"}], "tags": {"name": "Jelly Machine Yalahanka", "name:en": "Jelly Machine Yalahanka", "network": "BMTC", "operator": "BMTC", "public_transport": "stop_area", "type": "public_transport"}}, {"type": "relation", "id": 10728104, "members": [{"type": "node", "ref": 7227496279, "role": "stop"}, {"type": "node", "ref": 2246324627, "role": "platform"}], "tags": {"name": "Betta Halli Layout", "name:en": "Betta Halli Layout", "name:kn": "\u0cac\u0cc6\u0c9f\u0ccd\u0c9f\u0cb9\u0cb3\u0ccd\u0cb3\u0cbf \u0cac\u0ca1\u0cbe\u0cb5\u0ca3\u0cc6", "network": "BMTC", "operator": "BMTC", "public_transport": "stop_area", "type": "public_transport"}}, {"type": "relation", "id": 10728131, "members": [{"type": "node", "ref": 7227502968, "role": "stop"}, {"type": "node", "ref": 2447235581, "role": "platform"}], "tags": {"name": "Sambhram College", "name:en": "Sambhram College", "name:kn": "\u0cb8\u0c82\u0cad\u0ccd\u0cb0\u0cae \u0c95\u0cbe\u0cb2\u0cc7\u0c9c\u0cc1", "network": "BMTC", "operator": "BMTC", "public_transport": "stop_area", "type": "public_transport"}}, {"type": "relation", "id": 15972048, "members": [{"type": "node", "ref": 10971543232, "role": "stop"}, {"type": "node", "ref": 308231595, "role": "platform"}], "tags": {"name": "Chamundeshwari Layout", "name:en": "Chamundeshwari Layout", "name:kn": "\u0c9a\u0cbe\u0cae\u0cc1\u0c82\u0ca1\u0cc7\u0cb6\u0ccd\u0cb5\u0cb0\u0cbf \u0cac\u0ca1\u0cbe\u0cb5\u0ca3\u0cc6", "network": "BMTC", "operator": "BMTC", "public_transport": "stop_area", "type": "public_transport"}}, {"type": "relation", "id": 17172862, "members": [{"type": "node", "ref": 11598060942, "role": "stop"}, {"type": "node", "ref": 1318807746, "role": "platform"}], "tags": {"alt_name": "Achyutha Nagara Gate Chikkabanavara", "loc_name": "Soladevanahalli", "name": "Achyuthanagara Gate", "name:en": "Achyuthanagara Gate", "name:kn": "\u0c85\u0c9a\u0ccd\u0caf\u0cc1\u0ca4\u0ca8\u0c97\u0cb0", "network": "BMTC", "operator": "BMTC", "public_transport": "stop_area", "type": "public_transport"}}, {"type": "relation", "id": 17172863, "members": [{"type": "node", "ref": 11598060943, "role": "stop"}, {"type": "node", "ref": 11598060944, "role": "platform"}], "tags": {"alt_name": "Acharya Institute of Technology Chikkabanavara", "name": "Acharya Institute of Technology", "name:en": "Acharya Institute of Technology", "network": "BMTC", "operator": "BMTC", "public_transport": "stop_area", "type": "public_transport"}}, {"type": "relation", "id": 17172864, "members": [{"type": "node", "ref": 11598060945, "role": "stop"}, {"type": "node", "ref": 1318807736, "role": "platform"}], "tags": {"alt_name": "Acharya Institute of Technology Chikkabanavara", "name": "Acharya Institute of Technology", "name:en": "Acharya Institute of Technology", "network": "BMTC", "operator": "BMTC", "public_transport": "stop_area", "type": "public_transport"}}, {"type": "relation", "id": 17172867, "members": [{"type": "node", "ref": 11598060953, "role": "stop"}, {"type": "node", "ref": 11598060954, "role": "platform"}], "tags": {"name": "WIMAC Junction", "name:en": "WIMAC Junction", "network": "BMTC", "operator": "BMTC", "public_transport": "stop_area", "type": "public_transport"}}, {"type": "relation", "id": 17172868, "members": [{"type": "node", "ref": 11598060955, "role": "stop"}, {"type": "node", "ref": 2447335950, "role": "platform"}], "tags": {"name": "Abbigere Dinne", "name:en": "Abbigere Dinne", "name:kn": "\u0c85\u0cac\u0ccd\u0cac\u0cbf\u0c97\u0cc6\u0cb0\u0cc6 \u0ca6\u0cbf\u0ca8\u0ccd\u0ca8\u0cc6", "network": "BMTC", "operator": "BMTC", "public_transport": "stop_area", "type": "public_transport"}}, {"type": "relation", "id": 17172869, "members": [{"type": "node", "ref": 11598060956, "role": "stop"}, {"type": "node", "ref": 2447338470, "role": "platform"}], "tags": {"name": "Abbigere Gate", "name:en": "Abbigere Gate", "name:kn": "\u0c85\u0cac\u0ccd\u0cac\u0cbf\u0c97\u0cc6\u0cb0\u0cc6", "network": "BMTC", "operator": "BMTC", "public_transport": "stop_area", "type": "public_transport"}}, {"type": "relation", "id": 17172870, "members": [{"type": "node", "ref": 11598060957, "role": "stop"}, {"type": "node", "ref": 2244732235, "role": "platform"}], "tags": {"name": "Abbigere", "name:en": "Abbigere", "name:kn": "\u0c85\u0cac\u0ccd\u0cac\u0cbf\u0c97\u0cc6\u0cb0\u0cc6", "network": "BMTC", "operator": "BMTC", "public_transport": "stop_area", "type": "public_transport"}}, {"type": "relation", "id": 17256147, "members": [{"type": "node", "ref": 11655480561, "role": "stop"}, {"type": "node", "ref": 11445466249, "role": "platform"}], "tags": {"name": "Vidyaranyapura Post Office", "name:en": "Vidyaranyapura Post Office", "name:kn": "\u0cb5\u0cbf\u0ca6\u0ccd\u0caf\u0cbe\u0cb0\u0ca3\u0ccd\u0caf\u0caa\u0cc1\u0cb0 \u0c85\u0c82\u0c9a\u0cc6 \u0c95\u0c9a\u0cc7\u0cb0\u0cbf", "network": "BMTC", "operator": "BMTC", "public_transport": "stop_area", "type": "public_transport"}}, {"type": "relation", "id": 17286769, "members": [{"type": "node", "ref": 11675805412, "role": "stop"}, {"type": "node", "ref": 308231591, "role": "platform"}], "tags": {"name": "Nanjappa Circle", "name:en": "Nanjappa Circle", "name:kn": "\u0ca8\u0c82\u0c9c\u0caa\u0ccd\u0caa \u0cb5\u0cc3\u0ca4\u0ccd\u0ca4", "network": "BMTC", "operator": "BMTC", "public_transport": "stop_area", "type": "public_transport"}}, {"type": "relation", "id": 18873584, "members": [{"type": "node", "ref": 12688134102, "role": "stop"}, {"type": "node", "ref": 12688134103, "role": "platform"}, {"type": "node", "ref": 12688134101, "role": "platform"}], "tags": {"name": "Gangamma Circle", "name:en": "Gangamma Circle", "network": "BMTC", "operator": "BMTC", "public_transport": "stop_area", "type": "public_transport"}}, {"type": "relation", "id": 19073133, "members": [{"type": "node", "ref": 12805665276, "role": "stop"}, {"type": "node", "ref": 2447914889, "role": "platform"}], "tags": {"name": "Jelly Machine Yalahanka", "name:en": "Jelly Machine Yalahanka", "network": "BMTC", "operator": "BMTC", "public_transport": "stop_area", "type": "public_transport"}}, {"type": "relation", "id": 19074708, "members": [{"type": "node", "ref": 12806363244, "role": "stop"}, {"type": "node", "ref": 2432324881, "role": "platform"}], "tags": {"name": "Vidyaranyapura Post Office", "name:en": "Vidyaranyapura Post Office", "network": "BMTC", "operator": "BMTC", "public_transport": "stop_area", "type": "public_transport"}}, {"type": "relation", "id": 19286604, "members": [{"type": "node", "ref": 12951405510, "role": "stop"}, {"type": "node", "ref": 2244642129, "role": "platform"}], "tags": {"name": "Kalathammanahalli", "name:en": "Kalathammanahalli", "network": "BMTC", "operator": "BMTC", "public_transport": "stop_area", "type": "public_transport"}}, {"type": "relation", "id": 19286605, "members": [{"type": "node", "ref": 11011564801, "role": "stop"}, {"type": "node", "ref": 2441209743, "role": "platform"}], "tags": {"name": "Dodda Byalakere", "name:en": "Dodda Byalakere", "network": "BMTC", "operator": "BMTC", "public_transport": "stop_area", "type": "public_transport"}}, {"type": "relation", "id": 19581617, "members": [{"type": "node", "ref": 13130332986, "role": "stop"}, {"type": "node", "ref": 2447918654, "role": "platform"}], "tags": {"name": "Chikkabettahalli", "name:en": "Chikkabettahalli", "network": "BMTC", "operator": "BMTC", "public_transport": "stop_area", "type": "public_transport"}}, {"type": "relation", "id": 19581618, "members": [{"type": "node", "ref": 13130332987, "role": "stop"}, {"type": "node", "ref": 2447918653, "role": "platform"}], "tags": {"name": "Chikkabettahalli", "name:en": "Chikkabettahalli", "network": "BMTC", "operator": "BMTC", "public_transport": "stop_area", "type": "public_transport"}}, {"type": "relation", "id": 19581619, "members": [{"type": "node", "ref": 13130334025, "role": "stop"}, {"type": "node", "ref": 2447919832, "role": "platform"}], "tags": {"name": "Thirumala Daba", "name:en": "Thirumala Daba", "network": "BMTC", "operator": "BMTC", "public_transport": "stop_area", "type": "public_transport"}}, {"type": "relation", "id": 19581620, "members": [{"type": "node", "ref": 13130334026, "role": "stop"}, {"type": "node", "ref": 2447919843, "role": "platform"}], "tags": {"name": "Thirumala Daba", "name:en": "Thirumala Daba", "network": "BMTC", "operator": "BMTC", "public_transport": "stop_area", "type": "public_transport"}}]}