{"version": 0.6, "generator": "Overpass API 0.7.62.8 e802775f", "osm3s": {"timestamp_osm_base": "2026-01-12T06:25:29Z", "copyright": "The data included in this document is from www.openstreetmap.org. The data is made available under ODbL."}, "elements": [{"type": "node", "id": 1516388617, "lat": 13.1241718, "lon": 80.1444714}, {"type": "node", "id": 1516388619, "lat": 13.1242658, "lon": 80.1463945}, {"type": "node", "id": 1516388625, "lat": 13.1245333, "lon": 80.1463648}, {"type": "node", "id": 1516388627, "lat": 13.1245478, "lon": 80.1460084}, {"type": "node", "id": 1516388638, "lat": 13.1254589, "lon": 80.146001}, {"type": "node", "id": 1516388640, "lat": 13.1254806, "lon": 80.1465727}, {"type": "node", "id": 1516388642, "lat": 13.1256903, "lon": 80.1419023}, {"type": "node", "id": 1516388644, "lat": 13.1257192, "lon": 80.1465875}, {"type": "node", "id": 1516388646, "lat": 13.1257554, "lon": 80.1463574}, {"type": "node", "id": 1516388649, "lat": 13.1260679, "lon": 80.1444769}, {"type": "node", "id": 1516388651, "lat": 13.1262109, "lon": 80.1453847}, {"type": "node", "id": 1516388652, "lat": 13.1262366, "lon": 80.1423295}, {"type": "node", "id": 1516388662, "lat": 13.1262673, "lon": 80.1433795}, {"type": "node", "id": 1516388664, "lat": 13.1262724, "lon": 80.1444506}, {"type": "node", "id": 1516388665, "lat": 13.1262905, "lon": 80.1412489}, {"type": "node", "id": 1516388666, "lat": 13.1263236, "lon": 80.1417204}, {"type": "node", "id": 1516388669, "lat": 13.1264423, "lon": 80.1412118}, {"type": "node", "id": 1516388675, "lat": 13.1265869, "lon": 80.1464465}, {"type": "node", "id": 1516388683, "lat": 13.1266014, "lon": 80.1454218}, {"type": "node", "id": 6307353799, "lat": 13.1257306, "lon": 80.1465136}, {"type": "node", "id": 6914911759, "lat": 13.1990395, "lon": 80.1760313, "tags": {"addr:district": "Tiruvallur", "addr:full": "#4/198 & 199, M.A.Koil St,M.A.Nagar,Redhills", "addr:postcode": "600052", "addr:state": "Tamil Nadu", "amenity": "hospital", "name": "Vanaja Hospital", "source": "OpenGovernmentData"}}, {"type": "node", "id": 7210899888, "lat": 13.1992282, "lon": 80.1786155, "tags": {"addr:district": "Chennai", "addr:full": "MA Nagar, Padiyanallur, Thiruvallur, NH-5, Great Northern Trunk Road, Thiruvallu", "addr:postcode": "600052", "addr:state": "Tamil Nadu", "addr:subdistrict": "Thiruvottiyur", "amenity": "hospital", "name": "Sree Sanjeevi Rayan Hospital", "operator:type": "private", "source": "OpenGovernmentData"}}, {"type": "node", "id": 7818702358, "lat": 13.1345397, "lon": 80.2058879, "tags": {"addr:district": "Tiruvallur", "addr:full": "Bharathi Nagar, Lakshmipuram", "addr:postcode": "600099", "addr:state": "Tamil Nadu", "amenity": "hospital", "healthcare": "hospital", "name": "Uma Hospital", "source": "Local Knowledge"}}, {"type": "node", "id": 7818702399, "lat": 13.1702776, "lon": 80.193567, "tags": {"addr:district": "Tiruvallur", "addr:full": "Kannappasamy Nagar, Puzhal", "addr:postcode": "600066", "addr:state": "Tamil Nadu", "amenity": "hospital", "name": "Md Hussain Hospital", "source": "Local Knowledge"}}, {"type": "node", "id": 7818702420, "lat": 13.161861, "lon": 80.204431, "tags": {"addr:district": "Tiruvallur", "addr:full": "Puzhal", "addr:postcode": "600066", "addr:state": "Tamil Nadu", "amenity": "hospital", "name": "St. Anthony's Hospital", "source": "Local Knowledge"}}, {"type": "node", "id": 9717766098, "lat": 13.2086279, "lon": 80.1698455, "tags": {"amenity": "hospital", "healthcare": "hospital", "name": "Chamdhi Netralayam Eye Hospital"}}, {"type": "node", "id": 9980280804, "lat": 13.1266701, "lon": 80.2014392, "tags": {"amenity": "hospital", "healthcare": "hospital", "name": "Shreyas hospital"}}, {"type": "node", "id": 11461791503, "lat": 13.1298328, "lon": 80.1310999}, {"type": "node", "id": 11461791504, "lat": 13.129845, "lon": 80.1308852}, {"type": "node", "id": 11461791505, "lat": 13.1295805, "lon": 80.1308694}, {"type": "node", "id": 11461791506, "lat": 13.1295683, "lon": 80.131084}, {"type": "way", "id": 138307630, "nodes": [1516388669, 1516388665, 1516388642, 1516388617, 1516388619, 1516388625, 1516388627, 1516388638, 1516388640, 1516388644, 6307353799, 1516388646, 1516388675, 1516388683, 1516388651, 1516388649, 1516388664, 1516388662, 1516388652, 1516388666, 1516388669], "tags": {"amenity": "hospital", "healthcare": "hospital", "name": "Sir Ivan Stedford Hospital", "name:etymology:wikidata": "Q15971168", "website": "https://stedefordhospital.org/", "wikidata": "Q7527346", "wikipedia": "en:Sir Ivan Stedeford Hospital"}}, {"type": "way", "id": 1234813078, "nodes": [11461791503, 11461791504, 11461791505, 11461791506, 11461791503], "tags": {"amenity": "hospital", "healthcare": "hospital", "name": "Cherish Hospital"}}]}