{"version": 0.6, "generator": "Overpass API 0.7.62.8 e802775f", "osm3s": {"timestamp_osm_base": "2026-01-15T16:17:30Z", "copyright": "The data included in this document is from www.openstreetmap.org. The data is made available under ODbL."}, "elements": [{"type": "node", "id": 275540332, "lat": 51.4877046, "lon": 5.4731189}, {"type": "node", "id": 275540333, "lat": 51.4878673, "lon": 5.4736896}, {"type": "node", "id": 275540334, "lat": 51.4876162, "lon": 5.4739066}, {"type": "node", "id": 275540335, "lat": 51.4873583, "lon": 5.4739056}, {"type": "node", "id": 275541642, "lat": 51.4873609, "lon": 5.4733851}, {"type": "node", "id": 567556031, "lat": 51.4832234, "lon": 5.4651107}, {"type": "node", "id": 567556036, "lat": 51.4837447, "lon": 5.4650646}, {"type": "node", "id": 567556077, "lat": 51.4814772, "lon": 5.4652972}, {"type": "node", "id": 567556389, "lat": 51.4837737, "lon": 5.4659596}, {"type": "node", "id": 567556390, "lat": 51.4832682, "lon": 5.4660017}, {"type": "node", "id": 567556406, "lat": 51.4815088, "lon": 5.4660095}, {"type": "node", "id": 567556830, "lat": 51.4822165, "lon": 5.4652087}, {"type": "node", "id": 567556960, "lat": 51.4822472, "lon": 5.4659077}, {"type": "node", "id": 567561271, "lat": 51.488198, "lon": 5.4738405}, {"type": "node", "id": 567561420, "lat": 51.4883009, "lon": 5.4741772}, {"type": "node", "id": 589011239, "lat": 51.4886108, "lon": 5.4739456}, {"type": "node", "id": 589011280, "lat": 51.4886647, "lon": 5.4741255}, {"type": "node", "id": 589011281, "lat": 51.4883076, "lon": 5.4743951}, {"type": "node", "id": 589011282, "lat": 51.488149, "lon": 5.4738777}, {"type": "node", "id": 2744939962, "lat": 51.4903587, "lon": 5.4560208, "tags": {"addr:city": "Eindhoven", "addr:housenumber": "3", "addr:postcode": "5629CC", "addr:street": "Toledolaan", "amenity": "school", "name": "Taalbrug College", "source": "BAG", "source:date": "2014-03-24", "website": "https://taalbrugcollege.nl/"}}, {"type": "node", "id": 2744939963, "lat": 51.489, "lon": 5.4540809, "tags": {"addr:city": "Eindhoven", "addr:housenumber": "4", "addr:postcode": "5629CC", "addr:street": "Toledolaan", "amenity": "school", "capacity": "120", "denomination": "catholic", "isced": "1", "max_age": "20", "min_age": "4", "name": "Mytylschool Eindhoven", "operator": "Stichting Speciaal Onderwijs & Expertisecentra (SSOE)", "pedagogy": "Speciaal onderwijs (SO)", "religion": "christian", "source": "BAG", "source:date": "2014-03-24", "website": "https://www.mytylschooleindhoven.nl/"}}, {"type": "node", "id": 2750120046, "lat": 51.474704, "lon": 5.4506211}, {"type": "node", "id": 2751877468, "lat": 51.4704919, "lon": 5.4683153, "tags": {"addr:city": "Eindhoven", "addr:housenumber": "1", "addr:postcode": "5625CV", "addr:street": "Elegaststraat", "amenity": "school", "name": "Het Dok", "source": "BAG", "source:date": "2014-03-24", "website": "https://www.koraal.nl/over-koraal/locaties/het-dok"}}, {"type": "node", "id": 6806082963, "lat": 51.4676132, "lon": 5.4446823}, {"type": "node", "id": 6806082965, "lat": 51.4674086, "lon": 5.4440287}, {"type": "node", "id": 6806082967, "lat": 51.4677285, "lon": 5.4437707}, {"type": "node", "id": 6806082975, "lat": 51.467933, "lon": 5.4444243}, {"type": "node", "id": 6806154896, "lat": 51.4742719, "lon": 5.4492621}, {"type": "node", "id": 6806154898, "lat": 51.4776614, "lon": 5.4461908}, {"type": "node", "id": 6806154900, "lat": 51.4753392, "lon": 5.4483873}, {"type": "node", "id": 6806154902, "lat": 51.4780396, "lon": 5.4474011}, {"type": "node", "id": 6806154905, "lat": 51.4760343, "lon": 5.4471642}, {"type": "node", "id": 6806154908, "lat": 51.4757714, "lon": 5.4497461}, {"type": "node", "id": 6810207780, "lat": 51.4779188, "lon": 5.4474976}, {"type": "node", "id": 6811987214, "lat": 51.4905786, "lon": 5.443301}, {"type": "node", "id": 6811987215, "lat": 51.4907335, "lon": 5.444019}, {"type": "node", "id": 6811987216, "lat": 51.490206, "lon": 5.4443941}, {"type": "node", "id": 6811987217, "lat": 51.4900307, "lon": 5.4436078}, {"type": "node", "id": 7574798848, "lat": 51.4768857, "lon": 5.4468289}, {"type": "node", "id": 8242817910, "lat": 51.4822554, "lon": 5.4660005}, {"type": "node", "id": 8246096477, "lat": 51.4831345, "lon": 5.4659149}, {"type": "node", "id": 8246096478, "lat": 51.4831048, "lon": 5.4651203}, {"type": "node", "id": 9216324747, "lat": 51.4776041, "lon": 5.4634093}, {"type": "node", "id": 9216324748, "lat": 51.4778203, "lon": 5.463381}, {"type": "node", "id": 9216324749, "lat": 51.477758, "lon": 5.46421}, {"type": "node", "id": 9216324750, "lat": 51.4772023, "lon": 5.4642639}, {"type": "node", "id": 9216324751, "lat": 51.4771694, "lon": 5.4635187}, {"type": "node", "id": 9216324752, "lat": 51.4775348, "lon": 5.463298}, {"type": "node", "id": 9317666630, "lat": 51.4873853, "lon": 5.473365, "tags": {"barrier": "gate", "entrance": "yes"}}, {"type": "node", "id": 9384245322, "lat": 51.4777505, "lon": 5.463927}, {"type": "node", "id": 9388251036, "lat": 51.4778332, "lon": 5.4639224}, {"type": "node", "id": 9388251037, "lat": 51.4778273, "lon": 5.463564}, {"type": "node", "id": 10235269900, "lat": 51.4767759, "lon": 5.4465503}, {"type": "node", "id": 10235316870, "lat": 51.485408, "lon": 5.4382672}, {"type": "node", "id": 10235316871, "lat": 51.4852269, "lon": 5.438624}, {"type": "node", "id": 10235316872, "lat": 51.4849649, "lon": 5.4387461}, {"type": "node", "id": 10235316873, "lat": 51.4852716, "lon": 5.4393744}, {"type": "node", "id": 10235316874, "lat": 51.4854273, "lon": 5.4396052}, {"type": "node", "id": 10235316875, "lat": 51.4856978, "lon": 5.4392406}, {"type": "node", "id": 10235316876, "lat": 51.4856218, "lon": 5.4388334}, {"type": "node", "id": 10235316877, "lat": 51.4855735, "lon": 5.4386046}, {"type": "node", "id": 10249231190, "lat": 51.4798824, "lon": 5.4266673}, {"type": "node", "id": 10249231191, "lat": 51.4798792, "lon": 5.4274845}, {"type": "node", "id": 10249231192, "lat": 51.4795031, "lon": 5.4274715}, {"type": "node", "id": 10249231193, "lat": 51.4794934, "lon": 5.427854}, {"type": "node", "id": 10249231194, "lat": 51.4792616, "lon": 5.4278775}, {"type": "node", "id": 10249231195, "lat": 51.4792454, "lon": 5.4277343}, {"type": "node", "id": 10249231196, "lat": 51.4791822, "lon": 5.4276042}, {"type": "node", "id": 10249231197, "lat": 51.4791109, "lon": 5.4275365}, {"type": "node", "id": 10249231198, "lat": 51.4791628, "lon": 5.4274715}, {"type": "node", "id": 10249231199, "lat": 51.4790672, "lon": 5.4269458}, {"type": "node", "id": 10698251175, "lat": 51.4746618, "lon": 5.443373}, {"type": "node", "id": 10698251176, "lat": 51.4755495, "lon": 5.4425546}, {"type": "node", "id": 10698251177, "lat": 51.4759563, "lon": 5.4434398}, {"type": "node", "id": 10698251178, "lat": 51.4760497, "lon": 5.4434358}, {"type": "node", "id": 10698251179, "lat": 51.476172, "lon": 5.4448565}, {"type": "node", "id": 10698251180, "lat": 51.4761557, "lon": 5.4449116}, {"type": "node", "id": 10698251181, "lat": 51.4760331, "lon": 5.4450192}, {"type": "node", "id": 10698251182, "lat": 51.4758501, "lon": 5.4444944}, {"type": "node", "id": 10698251183, "lat": 51.4752586, "lon": 5.4450914}, {"type": "node", "id": 10698821543, "lat": 51.4752843, "lon": 5.4432923, "tags": {"addr:city": "Eindhoven", "addr:housenumber": "11A", "addr:postcode": "5627GA", "addr:street": "Avignonlaan", "amenity": "school", "branch": "Eindhoven", "capacity": "320", "isced:level": "2", "max_age": "20", "min_age": "12", "name": "De Korenaer", "operator": "Aloysius Stichting", "operator:website": "https://www.aloysiusstichting.nl/", "operator:wikidata": "Q133827160", "pedagogy": "Voortgezet speciaal onderwijs (VSO)", "phone": "+31 40 259 5444", "school": "secondary", "source": "BAG", "source:date": "2023-02-28", "website": "https://www.korenaereindhoven.nl/"}}, {"type": "node", "id": 10698821544, "lat": 51.4755615, "lon": 5.4442247, "tags": {"addr:city": "Eindhoven", "addr:housenumber": "11", "addr:postcode": "5627GA", "addr:street": "Avignonlaan", "amenity": "school", "capacity": "280", "isced": "1", "max_age": "12", "min_age": "4", "name": "De Rungraaf", "operator": "Aloysius Stichting", "pedagogy": "Speciaal onderwijs (SO)", "source": "BAG", "source:date": "2023-02-28", "website": "https://www.rungraaf.nl/"}}, {"type": "node", "id": 11142374013, "lat": 51.4694773, "lon": 5.4597217}, {"type": "node", "id": 11142374014, "lat": 51.468862, "lon": 5.4604784}, {"type": "node", "id": 11142374015, "lat": 51.4685076, "lon": 5.4597359}, {"type": "node", "id": 11142374016, "lat": 51.4688972, "lon": 5.4592567}, {"type": "node", "id": 11142374017, "lat": 51.4689087, "lon": 5.459281}, {"type": "node", "id": 11142374018, "lat": 51.4690089, "lon": 5.4591578}, {"type": "node", "id": 11142374019, "lat": 51.4689981, "lon": 5.4591353}, {"type": "node", "id": 11142374020, "lat": 51.4691237, "lon": 5.4589809}, {"type": "node", "id": 11512127149, "lat": 51.4742766, "lon": 5.4445013}, {"type": "node", "id": 11512127150, "lat": 51.4736902, "lon": 5.4450842}, {"type": "node", "id": 11512127151, "lat": 51.4735375, "lon": 5.4446956}, {"type": "node", "id": 11512127152, "lat": 51.4741285, "lon": 5.4441259}, {"type": "node", "id": 11512128534, "lat": 51.4765143, "lon": 5.448658}, {"type": "node", "id": 11512128535, "lat": 51.4767599, "lon": 5.4484562}, {"type": "node", "id": 12570946112, "lat": 51.4759104, "lon": 5.4434247}, {"type": "node", "id": 12570946113, "lat": 51.4758673, "lon": 5.4433897}, {"type": "node", "id": 12765742772, "lat": 51.4805565, "lon": 5.451449}, {"type": "node", "id": 12765742773, "lat": 51.4804262, "lon": 5.450586}, {"type": "node", "id": 12765742774, "lat": 51.480516, "lon": 5.4502494}, {"type": "node", "id": 12765742775, "lat": 51.4809035, "lon": 5.4500999}, {"type": "node", "id": 12765742776, "lat": 51.4810296, "lon": 5.4509582}, {"type": "node", "id": 12765742777, "lat": 51.4809979, "lon": 5.4509702}, {"type": "node", "id": 12765742778, "lat": 51.4809686, "lon": 5.4509997}, {"type": "node", "id": 12765742779, "lat": 51.4809503, "lon": 5.4510386}, {"type": "node", "id": 12765742780, "lat": 51.4809336, "lon": 5.4511017}, {"type": "node", "id": 12765742781, "lat": 51.4808404, "lon": 5.4515965}, {"type": "way", "id": 25297928, "nodes": [275540332, 275540333, 275540334, 275540335, 275541642, 9317666630, 275540332], "tags": {"addr:city": "Eindhoven", "addr:housenumber": "47", "addr:postcode": "5629MP", "addr:street": "Shakespearelaan", "amenity": "school", "barrier": "fence", "description": "basisonderwijs voor nieuwkomers in Nederland", "email": "wereldwijzer@skpo.nl", "isced:level": "0;1", "name": "De Wereldwijzer", "operator": "SKPO", "operator:website": "https://www.skpo.nl/", "operator:wikidata": "Q121792961", "phone": "+31 40 240 6016", "school": "primary", "website": "https://wereldwijzereindhoven.nl/"}}, {"type": "way", "id": 44742135, "nodes": [567556830, 567556960, 567556406, 567556077, 567556830], "tags": {"addr:city": "Eindhoven", "addr:housenumber": "2A", "addr:postcode": "5628DP", "addr:street": "Hettenheuvellaan", "amenity": "school", "email": "info@bs-ontmoeting.nl", "isced:level": "0;1", "name": "De Ontmoeting", "official_name": "SALTO-school De Ontmoeting", "operator": "SALTO", "operator:website": "https://www.salto-eindhoven.nl/", "operator:wikidata": "Q121792966", "phone": "+31 40 241 4663", "school": "primary", "website": "https://bs-ontmoeting.nl/", "wikidata": "Q22754426"}}, {"type": "way", "id": 44742146, "nodes": [567556031, 567556390, 567556389, 567556036, 567556031], "tags": {"addr:city": "Eindhoven", "addr:housenumber": "52", "addr:postcode": "5628EP", "addr:street": "Torenberglaan", "amenity": "school", "email": "vijfkamp@salto-eindhoven.nl", "isced:level": "0;1", "name": "De Vijfkamp", "official_name": "SALTO-school De Vijfkamp", "operator": "SALTO", "operator:website": "https://www.salto-eindhoven.nl/", "operator:wikidata": "Q121792966", "phone": "+31 40 241 1890", "school": "primary", "toilets:wheelchair": "yes", "website": "https://www.sbo-vijfkamp.nl/", "wheelchair": "yes"}}, {"type": "way", "id": 46195695, "nodes": [567561271, 567561420, 589011239, 589011280, 589011281, 589011282, 567561271], "tags": {"amenity": "school"}}, {"type": "way", "id": 725914684, "nodes": [6806082967, 6806082965, 6806082963, 6806082975, 6806082967], "tags": {"amenity": "school", "capacity": "120", "isced": "2", "max_age": "20", "min_age": "12", "name": "Het Dok", "operator": "Saltho Onderwijs", "pedagogy": "Voortgezet speciaal onderwijs (VSO)", "website": "https://www.koraal.nl/over-koraal/locaties/het-dok"}}, {"type": "way", "id": 725923955, "nodes": [6810207780, 11512128535, 11512128534, 6806154905, 10235269900, 7574798848, 6806154898, 6806154902, 6810207780], "tags": {"addr:city": "Eindhoven", "addr:housenumber": "1", "addr:postcode": "5627GA", "addr:street": "Avignonlaan", "amenity": "school", "email": "info@fritsphilips.eu", "name": "Frits Philips Lyceum-mavo", "phone": "+31 40 241 2844", "website": "https://fritsphilips.eu"}}, {"type": "way", "id": 725923956, "nodes": [6806154908, 2750120046, 6806154896, 6806154900, 6806154908], "tags": {"addr:city": "Eindhoven", "addr:housenumber": "20", "addr:postcode": "5624AA", "addr:street": "Oude Bossche Baan", "amenity": "school", "description": "vmbo", "email": "info@stedelijkcollege.nl", "isced:level": "2", "name": "Stedelijk College Eindhoven", "operator": "SILFO", "operator:website": "https://www.silfo.nl/", "operator:wikidata": "Q121840741", "phone": "+31 40 264 5364", "school": "secondary", "website": "https://www.stedelijkcollege.nl/oude-bossche-baan/"}}, {"type": "way", "id": 726835982, "nodes": [6811987214, 6811987215, 6811987216, 6811987217, 6811987214], "tags": {"addr:city": "Eindhoven", "addr:housenumber": "1", "addr:postcode": "5627NV", "addr:street": "Cotentinlaan", "amenity": "school", "email": "achtbaan@skpo.nl", "isced:level": "0;1", "name": "De Achtbaan", "official_name": "Basisschool de Achtbaan", "operator": "SKPO", "operator:website": "https://www.skpo.nl/", "operator:wikidata": "Q121792961", "phone": "+31 40 241 2210", "school": "primary", "website": "https://www.basisschooldeachtbaan.nl/"}}, {"type": "way", "id": 886801618, "nodes": [8246096477, 8242817910, 567556960, 567556830, 8246096478, 8246096477], "tags": {"addr:city": "Eindhoven", "addr:housenumber": "3", "addr:postcode": "5628EJ", "addr:street": "Broodberglaan", "alt_name": "Senior College", "amenity": "school", "fixme": "Volgens hun website is het Stedelijk College Eindhoven alleen nog maar gevestigd op de Henegouwenlaan en de Oude Bossche Baan.", "name": "Stedelijk College Eindhoven", "website": "https://www.stedelijkcollege.nl/"}}, {"type": "way", "id": 998157225, "nodes": [9216324752, 9216324751, 9216324750, 9216324749, 9384245322, 9388251036, 9388251037, 9216324748, 9216324747, 9216324752], "tags": {"addr:city": "Eindhoven", "addr:housenumber": "3", "addr:postcode": "5628KC", "addr:street": "Zuiderzeelaan", "amenity": "school", "email": "deschelp@skpo.nl", "isced:level": "0;1", "landuse": "education", "name": "De Schelp", "official_name": "Basisschool De Schelp", "operator": "SKPO", "operator:website": "https://www.skpo.nl/", "operator:wikidata": "Q121792961", "phone": "+31 40 241 5166", "school": "primary", "website": "https://bsdeschelp.nl/", "wikidata": "Q22754203"}}, {"type": "way", "id": 1119136367, "nodes": [10235316870, 10235316871, 10235316872, 10235316873, 10235316874, 10235316875, 10235316876, 10235316877, 10235316870], "tags": {"addr:city": "Eindhoven", "addr:housenumber": "4", "addr:postcode": "5627DP", "addr:street": "Heraultlaan", "amenity": "school", "email": "despaaihoeve@skpo.nl", "isced:level": "0;1", "name": "De Spaaihoeve", "operator": "SKPO", "operator:website": "https://www.skpo.nl/", "operator:wikidata": "Q121792961", "phone": "+31 40 262 2320", "school": "primary", "website": "https://despaaihoeve.nl/"}}, {"type": "way", "id": 1120602332, "nodes": [10249231190, 10249231191, 10249231192, 10249231193, 10249231194, 10249231195, 10249231196, 10249231197, 10249231198, 10249231199, 10249231190], "tags": {"addr:city": "Eindhoven", "addr:housenumber": "105", "addr:postcode": "5626BB", "addr:street": "Maasstraat", "amenity": "school", "email": "spilcentrumacht@skpo.nl", "isced:level": "0;1", "name": "Sint Antonius Abt", "official_name": "St. Antonius Abt", "operator": "SKPO", "operator:website": "https://www.skpo.nl/", "operator:wikidata": "Q121792961", "phone": "+31 40 262 1520", "school": "primary", "website": "https://spilcentrumacht.nl/", "wikidata": "Q22754181"}}, {"type": "way", "id": 1150036620, "nodes": [10698251183, 10698251182, 10698251181, 10698251180, 10698251179, 10698251178, 10698251177, 12570946112, 12570946113, 10698251176, 10698251175, 10698251183], "tags": {"amenity": "school"}}, {"type": "way", "id": 1201797616, "nodes": [11142374020, 11142374019, 11142374018, 11142374017, 11142374016, 11142374015, 11142374014, 11142374013, 11142374020], "tags": {"addr:city": "Eindhoven", "addr:housenumber": "17", "addr:postcode": "5624JL", "addr:street": "Gerretsonlaan", "amenity": "school", "email": "info-korenaar@skpo.nl", "isced:level": "0;1", "name": "De Korenaar", "operator": "SKPO", "operator:website": "https://www.skpo.nl/", "operator:wikidata": "Q121792961", "phone": "+31 40 243 5728", "school": "primary", "website": "https://skpo-korenaar.nl/", "wikidata": "Q22754186"}}, {"type": "way", "id": 1239211502, "nodes": [11512127152, 11512127151, 11512127150, 11512127149, 11512127152], "tags": {"addr:city": "Eindhoven", "addr:housenumber": "4", "addr:postcode": "5624MD", "addr:street": "Furkapas", "amenity": "school", "name": "Summa College", "operator": "Summa College", "operator:wikidata": "Q2451989"}}, {"type": "way", "id": 1378613951, "nodes": [12765742781, 12765742780, 12765742779, 12765742778, 12765742777, 12765742776, 12765742775, 12765742774, 12765742773, 12765742772, 12765742781], "tags": {"addr:city": "Eindhoven", "addr:housenumber": "50", "addr:postcode": "5627HT", "addr:street": "Normandielaan", "amenity": "school", "email": "klapwiek@salto-eindhoven.nl", "isced:level": "0;1", "name": "De Klapwiek", "official_name": "SALTO-school De Klapwiek", "operator": "SALTO", "operator:website": "https://www.salto-eindhoven.nl/", "operator:wikidata": "Q121792966", "phone": "+31 40 241 33 40", "school": "primary", "website": "https://www.bs-klapwiek.nl/", "wikidata": "Q22754427"}}]}