{"version": 0.6, "generator": "Overpass API 0.7.62.8 e802775f", "osm3s": {"timestamp_osm_base": "2026-01-12T01:57:54Z", "copyright": "The data included in this document is from www.openstreetmap.org. The data is made available under ODbL."}, "elements": [{"type": "node", "id": 3387296810, "lat": 17.4824476, "lon": 78.5527351}, {"type": "node", "id": 3387296811, "lat": 17.48284, "lon": 78.5528812}, {"type": "node", "id": 3387296812, "lat": 17.4827799, "lon": 78.5530589}, {"type": "node", "id": 3387296813, "lat": 17.4823875, "lon": 78.5529129}, {"type": "node", "id": 3387370912, "lat": 17.4762089, "lon": 78.5629604}, {"type": "node", "id": 3387370913, "lat": 17.4762324, "lon": 78.5631948}, {"type": "node", "id": 3387370914, "lat": 17.4765437, "lon": 78.563271}, {"type": "node", "id": 3387370915, "lat": 17.4765269, "lon": 78.5630336}, {"type": "node", "id": 3614774687, "lat": 17.4685801, "lon": 78.4895471}, {"type": "node", "id": 3614774696, "lat": 17.468604, "lon": 78.4894077}, {"type": "node", "id": 3614774839, "lat": 17.4688871, "lon": 78.4896576}, {"type": "node", "id": 3614774844, "lat": 17.4688958, "lon": 78.4896067}, {"type": "node", "id": 3614774894, "lat": 17.4690011, "lon": 78.4896791}, {"type": "node", "id": 3614774908, "lat": 17.4690338, "lon": 78.4894888}, {"type": "node", "id": 3616927598, "lat": 17.4692052, "lon": 78.5649072}, {"type": "node", "id": 3616927631, "lat": 17.4692827, "lon": 78.5647678}, {"type": "node", "id": 3616927643, "lat": 17.4693068, "lon": 78.5649694}, {"type": "node", "id": 3616927674, "lat": 17.4693843, "lon": 78.5648299}, {"type": "node", "id": 6133853785, "lat": 17.536328, "lon": 78.4885233, "tags": {"amenity": "hospital", "name": "Surekha Hospital"}}, {"type": "node", "id": 6480099631, "lat": 17.4760702, "lon": 78.5640143, "tags": {"addr:district": "Hyderabad", "addr:full": "1-7-43-457/206, Near Asian Radhika Multiplex, Maheshnagar, ECIL Post, Kapra", "addr:postcode": "500062", "addr:state": "Telangana", "amenity": "hospital", "name": "Aruna Hospital", "source": "OpenGovernmentData"}}, {"type": "node", "id": 6482100116, "lat": 17.4878467, "lon": 78.5647274, "tags": {"addr:district": "Hyderabad", "addr:full": "1-1-211, Sai Priya Colony, Beside Old Municipal Kapra Office, Kapra", "addr:postcode": "500062", "addr:state": "Telangana", "amenity": "hospital", "contact:phone": "040-64621340", "name": "New Life Line Multi Specialty Hospital", "source": "OpenGovernmentData"}}, {"type": "node", "id": 6484905715, "lat": 17.4738034, "lon": 78.5692647, "tags": {"addr:district": "Hyderabad", "addr:full": "D.No. 1-7-226, Kamala Nagar, Opposite Water Tank, ECIL Post", "addr:postcode": "500062", "addr:state": "Telangana", "amenity": "hospital", "name": "Soorya Orthopaedic Hospital", "source": "OpenGovernmentData"}}, {"type": "node", "id": 6485002885, "lat": 17.4769771, "lon": 78.5627764, "tags": {"addr:district": "Hyderabad", "addr:full": "100, Anupuram, E.C.I.L Post.", "addr:postcode": "500062", "addr:state": "Telangana", "amenity": "hospital", "name": "Thatha Hospital", "source": "OpenGovernmentData"}}, {"type": "node", "id": 6485435755, "lat": 17.4837017, "lon": 78.5373142, "tags": {"addr:district": "Hyderabad", "addr:full": "Plot No: 610, Defence Colony, Neredmet 'X' Roads, Secunderabad", "addr:postcode": "500094", "addr:state": "Telangana", "amenity": "hospital", "name": "Meda Hospital Pvt. Ltd", "source": "OpenGovernmentData"}}, {"type": "node", "id": 6486059355, "lat": 17.4810002, "lon": 78.5334009, "tags": {"addr:district": "Hyderabad", "addr:full": "35-601/1, G K Colony, Sainikpuri", "addr:postcode": "500094", "addr:state": "Telangana", "amenity": "hospital", "name": "Rishab Eye Centre", "source": "OpenGovernmentData"}}, {"type": "node", "id": 6486941192, "lat": 17.4775643, "lon": 78.5529341, "tags": {"addr:district": "Hyderabad", "addr:full": "Plot No.7, Pragathinagar, Officers Colony, Sainatupuram, Saibaba Temple Road, Besides Karur Vysya Bank", "addr:postcode": "500062", "addr:state": "Telangana", "amenity": "hospital", "name": "Vanaja Hospitals", "source": "OpenGovernmentData"}}, {"type": "node", "id": 6487033522, "lat": 17.4812995, "lon": 78.5563056, "tags": {"addr:district": "Hyderabad", "addr:full": "Plot No.4, Thyagaraya Nagar, Dr. A.S. Rao Nagar, Secunderabad", "addr:postcode": "500062", "addr:state": "Telangana", "amenity": "hospital", "contact:email": "geetanjali_ivf@yahoo.com", "name": "Geetanjali Test Tube Baby Centre", "phone": "040-27127676", "source": "OpenGovernmentData", "website": "https://www.geetanjaliivf.com"}}, {"type": "node", "id": 6487647064, "lat": 17.4825166, "lon": 78.5510686, "tags": {"addr:district": "Hyderabad", "addr:full": "Sainikpuri, Secunderabad", "addr:postcode": "500094", "addr:state": "Telangana", "amenity": "hospital", "name": "Bhavan's Sarada Devi Hospital", "source": "OpenGovernmentData"}}, {"type": "node", "id": 6487685466, "lat": 17.5028854, "lon": 78.5132843, "tags": {"addr:district": "Hyderabad", "addr:full": "8-84, Temple Road, Alwal", "addr:postcode": "500010", "addr:state": "Telangana", "amenity": "hospital", "name": "Sundari Maternity and General Hospital", "source": "OpenGovernmentData"}}, {"type": "node", "id": 6487879316, "lat": 17.4751261, "lon": 78.5394748, "tags": {"addr:district": "Hyderabad", "addr:full": "29-75/6E, Kakatiya Nagar, Near Old Police Station, Neredmet, Secunderabad", "addr:postcode": "500056", "addr:state": "Telangana", "amenity": "hospital", "name": "Sriya Hospital", "source": "OpenGovernmentData", "website": "http://www.sriyahospital.com"}}, {"type": "node", "id": 6487901010, "lat": 17.4951472, "lon": 78.5130295, "tags": {"addr:district": "Hyderabad", "addr:full": "Next To Hanuman Temple Main Road Lothkunta (Alwal) ad", "addr:postcode": "500015", "addr:state": "Telangana", "amenity": "hospital", "name": "Jayaprada Hospital", "source": "OpenGovernmentData"}}, {"type": "node", "id": 6488677506, "lat": 17.4747705, "lon": 78.5678552, "tags": {"addr:district": "Hyderabad", "addr:full": "1-7-100, Kamala Nagar, ECIL 'X' Road", "addr:postcode": "500062", "addr:state": "Telangana", "amenity": "hospital", "name": "Raghavendra Hospital", "source": "OpenGovernmentData"}}, {"type": "node", "id": 6490089435, "lat": 17.520925, "lon": 78.484531, "tags": {"addr:district": "Hyderabad", "addr:full": "Plot No: 1-76/1/b/4, Ganga Enclave, Pet Basheerabad, Medchal Road, Secunderabad", "addr:postcode": "500055", "addr:state": "Telangana", "amenity": "hospital", "contact:email": "drprsunk@yahoo.com", "contact:mobile": "9949073049", "fax": "040 27165116", "healthcare:speciality": "multi specialty", "medical_system": "Allopathic", "name": "Harsha Hospitals", "operator:type": "private", "phone": "040 27165110", "source": "OpenGovernmentData", "website": "http://www.harshahospitals.com"}}, {"type": "node", "id": 6491359724, "lat": 17.49926, "lon": 78.5129283, "tags": {"addr:district": "Hyderabad", "addr:full": "Behind Satya Petrol Pump, Alwal", "addr:postcode": "500010", "addr:state": "Telangana", "amenity": "hospital", "name": "G.N.R. Multispeciality Hospital", "source": "OpenGovernmentData"}}, {"type": "node", "id": 6494135269, "lat": 17.4711657, "lon": 78.5050875, "tags": {"addr:district": "Hyderabad", "addr:full": "Plot No-136, S. P. Colony , Trimulgherry", "addr:postcode": "500015", "addr:state": "Telangana", "amenity": "hospital", "name": "Pratibha Maternity Home", "source": "OpenGovernmentData"}}, {"type": "node", "id": 6494829945, "lat": 17.4936174, "lon": 78.5127834, "tags": {"addr:district": "Hyderabad", "addr:full": "5-Saraswathi Nagar,Lothkunta", "addr:postcode": "500015", "addr:state": "Telangana", "amenity": "hospital", "name": "Devi Maternity Home", "source": "OpenGovernmentData"}}, {"type": "node", "id": 6496852838, "lat": 17.4825173, "lon": 78.5374282, "tags": {"addr:district": "Hyderabad", "addr:full": "Sajini plaza, 1st floor, 37-90/2, defence colony, Neredmet 'X' Roads, secunderabad", "addr:postcode": "500094", "addr:state": "Telangana", "amenity": "hospital", "email": "universaldentalhyd@yahoo.com", "health_facility:type": "Implantology;Correction of Irregular Teeth Braces ;Gum Surgery;Advance Root Canal Therapy;Fixed Partial Dentures;Veneering;Dental Lasers", "healthcare:speciality": "Cosmetic Dentistry; Dentistry; Orthodontics", "medical_system": "Allopathic", "name": "Universal Superspeciality Dental Hospital", "operator:type": "private", "phone": "040 27111100;040 27111101", "source": "OpenGovernmentData", "website": "https://universaldentalhospital.com/"}}, {"type": "node", "id": 6496903933, "lat": 17.4782302, "lon": 78.5558448, "tags": {"addr:district": "Hyderabad", "addr:full": "MIG, B-10, Dr. A.S. Rao Nagar Road, ECIL Main Road", "addr:postcode": "500062", "addr:state": "Telangana", "amenity": "hospital", "phone": "040 27122230", "source": "OpenGovernmentData"}}, {"type": "node", "id": 6497360893, "lat": 17.4938323, "lon": 78.5398865, "tags": {"addr:district": "Hyderabad", "addr:full": "250, Opp Kandiguda Church, Hastinapuri Colony, Sainikpuri", "addr:postcode": "500094", "addr:state": "Telangana", "amenity": "hospital", "name": "Srinivasa Hospital", "source": "OpenGovernmentData"}}, {"type": "node", "id": 6498046738, "lat": 17.4779001, "lon": 78.5626893, "tags": {"addr:district": "Hyderabad", "addr:full": "1-1-265/286, Srinivasa Nagar Colony, Dr A S Rao Nagar, Ecil, Kapra", "addr:postcode": "500062", "addr:state": "Telangana", "amenity": "hospital", "name": "Shreyas Hospital", "source": "OpenGovernmentData"}}, {"type": "node", "id": 6503384572, "lat": 17.4660729, "lon": 78.4832785, "tags": {"addr:district": "Hyderabad", "addr:full": "Plot No-2, H No-2-12-149, Breg Syed Road,Bapuji Nagar Bowenpally, Cantonment", "addr:postcode": "500009", "addr:state": "Telangana", "amenity": "hospital", "name": "Lifespring Hospital", "source": "OpenGovernmentData"}}, {"type": "node", "id": 6503394122, "lat": 17.4820222, "lon": 78.5525036, "tags": {"addr:district": "Hyderabad", "addr:full": "Beside ICICI Bank, Sainikpuri, A.S. Rao Nagar", "addr:state": "Telangana", "amenity": "hospital", "contact:mobile": "097018 88488", "email": "asraonagar@ankurahospital.com", "healthcare:speciality": "Neonatology;Pediatric Critical Care;Paediatric Emergency;Paediatric Surgery;Pediatric Dentistry;Paediatric Neurology;Paediatric Cardiology;Paediatric Endocrinology", "medical_system": "Allopathic", "name": "Ankura Children's Hospital", "operator:type": "private", "phone": "040 49699999", "source": "OpenGovernmentData", "website": "https://ankurahospital.com"}}, {"type": "node", "id": 6503410509, "lat": 17.4713934, "lon": 78.4849957, "tags": {"addr:district": "Hyderabad", "addr:full": "7-A, Panchasheela Enclave, near ICRISAT Colony Phase 2, Hashmathpet", "addr:postcode": "500009", "addr:state": "Telangana", "amenity": "hospital", "name": "SKM Multi Speciality Hospital", "source": "OpenGovernmentData"}}, {"type": "node", "id": 6503446084, "lat": 17.4727007, "lon": 78.5713568, "tags": {"addr:district": "Hyderabad", "addr:full": "Plot Number 43, EC Extension, ECIL 'X' Roads", "addr:postcode": "500062", "addr:state": "Telangana", "amenity": "hospital", "contact:email": "info@xeniahospitals.com", "contact:mobile": "9000681166", "fax": "040 27134666", "healthcare:speciality": "Internal Medicine;Neurology;Gastroenterology;Anesthesiology;Cardiology;Trauma Care;Neurophysiology;Plastic Surgery", "medical_system": "Allopathic", "name": "Xenia Multi Speciality Hospital", "operator:type": "private", "phone": "040 27144000;040 27144777", "source": "OpenGovernmentData", "website": "www.xeniahospitals.in"}}, {"type": "node", "id": 6503669088, "lat": 17.4748831, "lon": 78.5709384, "tags": {"addr:district": "Hyderabad", "addr:full": "A-12, Electronic Complex, Beside SBI, Kushaiguda, ECIL 'X' Roads", "addr:postcode": "500062", "addr:state": "Telangana", "amenity": "hospital", "contact:email": "info@tulasihospials.com", "contact:mobile": "+91 9505108108", "name": "Tulasi Hospitals", "source": "OpenGovernmentData", "website": "http://thulasihospitals.com"}}, {"type": "node", "id": 6505307085, "lat": 17.4759595, "lon": 78.4837787, "tags": {"addr:district": "Hyderabad", "addr:full": "Plot No 8, Main Road, Old Bowenpally", "addr:postcode": "500011", "addr:state": "Telangana", "amenity": "hospital", "name": "Ramya Nursing Home", "source": "OpenGovernmentData"}}, {"type": "node", "id": 6505447806, "lat": 17.4776666, "lon": 78.5630205, "tags": {"addr:district": "Hyderabad", "addr:full": "D.No.1-1-256/7, Srinivas Nagar Colony, Kapra Circle, Kesara Mandal, A.S.Rao Nagar", "addr:postcode": "500062", "addr:state": "Telangana", "amenity": "hospital", "medical_system": "Allopathic", "name": "Vasan Eye Care", "operator:type": "private", "phone": "040 39890600", "source": "OpenGovernmentData", "website": "https://vasaneye.com/"}}, {"type": "node", "id": 6505550308, "lat": 17.503255, "lon": 78.5095681, "tags": {"addr:district": "Hyderabad", "addr:full": "1-10-11/6, New Police Station Bus Stop, Temple Alwal, Alwal", "addr:postcode": "500010", "addr:state": "Telangana", "amenity": "hospital", "email": "prashamsahospital@gmail.com", "name": "Prashamsha Hospital", "phone": "040 27970458; 040 27961858", "source": "OpenGovernmentData", "website": "www.prashamsahospital.com"}}, {"type": "node", "id": 6505671806, "lat": 17.4811326, "lon": 78.5541297, "tags": {"addr:district": "Hyderabad", "addr:full": "205, Bhanu Enclave, Near City Union Bank, Dr. A. S. Rao Nagar", "addr:postcode": "500062", "addr:state": "Telangana", "amenity": "hospital", "fax": "27127919", "name": "Prema Eye Care Centre", "source": "OpenGovernmentData"}}, {"type": "node", "id": 6511011214, "lat": 17.5218368, "lon": 78.4831209, "tags": {"addr:district": "Hyderabad", "addr:full": "C - 4,5, Ganga Enclave, Opp Excellancy Garden, Petbasheerabad, Medchal Road, Rangareddy", "addr:postcode": "500055", "addr:state": "Telangana", "amenity": "hospital", "name": "RR Hospital", "source": "OpenGovernmentData"}}, {"type": "node", "id": 6528301302, "lat": 17.5130968, "lon": 78.5541491, "tags": {"addr:district": "Hyderabad", "addr:full": "Main Road, Balaji Nagar", "addr:postcode": "500087", "addr:state": "Telangana", "amenity": "hospital", "emergency": "yes", "healthcare:speciality": "gynaecology;surgery;general;dermatology", "name": "Meenakshi Mother and Child Hospital"}}, {"type": "node", "id": 6531328860, "lat": 17.5019044, "lon": 78.5405564, "tags": {"addr:district": "Hyderabad", "addr:full": "Near Sai Baba Temple, Bapuji Nagar Colony, Yapral", "addr:postcode": "500087", "addr:state": "Telangana", "amenity": "hospital", "fixme": "Please verify the accurate position of the hospital as I have mapped the facility based on the address provided in Open Government Data", "name": "Jain Multi Speciality Hospital", "source": "OpenGovernmentData"}}, {"type": "node", "id": 6548796448, "lat": 17.469289, "lon": 78.4862155, "tags": {"addr:city": "Hyderabad", "addr:full": "Plot No:. 27 & 28, Hasmathpet Road, Bowenpally Beside Reliance Fresh Super Market", "addr:postcode": "500011", "addr:state": "Telangana", "amenity": "hospital", "contact:phone": "04042306565;64595609", "name": "KRUTI HOSPITAL ADVANCED EYE & DENTAL CARE", "operator": "Private", "source": "OpenGovernmentData"}}, {"type": "node", "id": 6548823374, "lat": 17.4832707, "lon": 78.5523789, "tags": {"addr:city": "Hyderabad", "addr:full": "Plot No:. 42, 43, 45 &46, VIJAYAPURI COLONY, Opp CANARA BANK SAINIKPURI, NEAR PETROL PUMP, DR A S RAO NAGAR", "addr:postcode": "500062", "addr:state": "Telangana", "amenity": "hospital", "contact:phone": "040 27140022", "name": "MAYFLOWER HOSPITAL FOR WOMEN & CHILDREN", "operator:type": "private", "source": "OpenGovernmentData"}}, {"type": "node", "id": 6548874152, "lat": 17.473687, "lon": 78.571436, "tags": {"addr:city": "Hyderabad", "addr:full": "Plot No: 13, SVK Towers, Kushaiguda Main Road, Near A.S Rao Nagar, ECIL Cross Road, Secunderabad", "addr:postcode": "500062", "addr:state": "Telangana", "amenity": "hospital", "email": "info@soliseyecare.com", "name": "SOLIS EYE CARE HOSPITALS PVT LTD", "operator:type": "private", "phone": "040-40068855; 040-40028855", "source": "OpenGovernmentData", "website": "http://www.soliseyecare.com"}}, {"type": "node", "id": 6548910436, "lat": 17.4657813, "lon": 78.5389222, "tags": {"addr:city": "Hyderabad", "addr:full": "H.No: 30-1587/1, Plot No: 25, CHANDRAGIRI COLONY, KRUPA COMPLEX, BESIDE BOI, OLD SAFILGUDA, MEDCHAL- MALKAJGIRI", "addr:postcode": "500047", "addr:state": "Telangana", "amenity": "hospital", "contact:phone": "7794942714", "name": "SUDHA HOSPITAL", "operator:type": "private", "source": "OpenGovernmentData"}}, {"type": "node", "id": 6549206566, "lat": 17.470118, "lon": 78.5086575, "tags": {"addr:city": "Secunderabad", "addr:full": "MOTI VALLEY, BESIDE ACER MOTORS, TIRUMALAGIRI `X` ROAD", "addr:postcode": "500015", "addr:state": "Telangana", "amenity": "hospital", "contact:phone": "4060608899", "name": "STERLING HOSPITALS PVT LTD", "operator": "Private", "source": "OpenGovernmentData"}}, {"type": "node", "id": 6549320016, "lat": 17.4714919, "lon": 78.5676406, "tags": {"addr:district": "Hyderabad", "addr:full": "1-7-181, KAMALA NAGAR, Opp. DAE Colony ('D' Sector Gate), KAPRA, ECIL", "addr:postcode": "500062", "addr:state": "Telangana", "amenity": "hospital", "contact:phone": "4027135842", "name": "ARC HOSPITAL", "operator:type": "private", "source": "OpenGovernmentData"}}, {"type": "node", "id": 6549322814, "lat": 17.5064398, "lon": 78.5160054, "tags": {"addr:district": "Secunderabad", "addr:full": "BUNGALOW NO-56, SURVEY NO- 606, GV REDDY COLONY, Opp: RYTHU BAZAAR, ALWAL", "addr:postcode": "500010", "addr:state": "Telangana", "amenity": "hospital", "contact:phone": "27862699", "name": "jubilee hospitals", "operator": "Private", "source": "OpenGovernmentData"}}, {"type": "node", "id": 6560362897, "lat": 17.4722792, "lon": 78.5170314, "tags": {"addr:district": "Hyderabad", "addr:full": "Military Hospital premises Trimulgherry", "addr:place": "Secunderabad", "addr:state": "Telangana", "amenity": "hospital", "name": "Military Hospital"}}, {"type": "node", "id": 6561171891, "lat": 17.4711388, "lon": 78.5078877, "tags": {"addr:district": "Hyderabad", "addr:full": "Rtc Colony, Trimulgherry", "addr:postcode": "500015", "addr:state": "Telangana", "amenity": "hospital", "name": "Vamshi Hospital - Trimulgherry", "source": "OpenGovernmentData"}}, {"type": "node", "id": 6562454569, "lat": 17.483593, "lon": 78.5580665, "tags": {"addr:district": "Hyderabad", "addr:full": "H.No. 19-66/11, Prashanth Nagar, Hi Tension Road, Dr. A.S. Rao Nagar, Kapra", "addr:postcode": "500062", "addr:state": "Telangana", "amenity": "hospital", "name": "Asha Hospital", "source": "OpenGovernmentData"}}, {"type": "node", "id": 6562751438, "lat": 17.5051697, "lon": 78.5071749, "tags": {"addr:district": "Hyderabad", "addr:full": "House No. 1-7-39/B, Plot No. 9, Main Road, Temple Alwal, Secunderabad", "addr:postcode": "5000010", "addr:state": "Telangana", "amenity": "hospital", "contact:phone": "+91 9652100844", "name": "Life Spring Maternity Hospital", "source": "OpenGovernmentData", "website": "https://www.lifespring.in/"}}, {"type": "node", "id": 6811749088, "lat": 17.5314158, "lon": 78.4875009, "tags": {"addr:district": "Hyderabad", "addr:full": "H.No: 3-63/4a, Main Road, NH 7, Near Cine Planet, Beside Croma, Komapally", "addr:state": "Telangana", "amenity": "hospital", "contact:mobile": "8096104104", "contact:phone": "040 68180000", "name": "Srikara Hospital", "operator:type": "Private", "source": "OpenGovernmentData"}}, {"type": "node", "id": 6811749163, "lat": 17.512371, "lon": 78.557713, "tags": {"addr:district": "Medchal Malkajgiri", "addr:full": "Balaji Nagar Road, Sainikpuri, Secunderabad", "addr:postcode": "500094", "addr:state": "Telangana", "amenity": "hospital", "contact:phone": "040 65143144", "name": "Sri Balaji Nagar Nursing Home", "source": "OpenGovernmentData"}}, {"type": "node", "id": 6811749169, "lat": 17.513357, "lon": 78.556607, "tags": {"addr:district": "Medchal Malkajgiri", "addr:full": "Sai Kamman Road, Near Shivalayam, Vishwa Karma Colony, Balaji Nagar, Secunderabad", "addr:postcode": "500094", "addr:state": "Telangana", "amenity": "hospital", "name": "Aditya Hospital", "source": "OpenGovernmentData"}}, {"type": "node", "id": 8151182017, "lat": 17.493969, "lon": 78.513036, "tags": {"addr:street": "Lothkunta", "amenity": "hospital", "name": "Sri sanjeevini", "name:en": "Sri sanjeevini multi speciality, sharadha dental clinic,sks eye care hospitals"}}, {"type": "node", "id": 8759169871, "lat": 17.4753103, "lon": 78.4857756, "tags": {"addr:district": "Hyderabad", "addr:full": "Hasmathpet, Bowenpally, Secunderabad", "addr:postcode": "500009", "addr:state": "Telangana", "amenity": "hospital", "name": "SKS Hospital", "source": "Local Knowledge"}}, {"type": "node", "id": 8763276400, "lat": 17.4867461, "lon": 78.5540117, "tags": {"addr:district": "Medchal", "addr:full": "Nethaji Nagar, Rukminipuri Colony, Kapra, Secunderabad", "addr:postcode": "500094", "addr:state": "Telangana", "amenity": "hospital", "name": "Nandini Hospital", "source": "Local Knowledge"}}, {"type": "node", "id": 8763411325, "lat": 17.5079988, "lon": 78.5022081, "tags": {"addr:district": "Medchal", "addr:full": "1-5-56/29,Plot No.29,Old Alwal,Near IG Statue, Secunderabad", "addr:postcode": "500010", "addr:state": "Telangana", "amenity": "hospital", "name": "Excel Hospitals", "source": "Local Knowledge"}}, {"type": "node", "id": 9355590863, "lat": 17.4801489, "lon": 78.5121788, "tags": {"amenity": "hospital", "healthcare": "hospital"}}, {"type": "node", "id": 12536226054, "lat": 17.4754498, "lon": 78.5681603, "tags": {"amenity": "hospital", "name": "SK + Diagnostics"}}, {"type": "way", "id": 331629144, "nodes": [3387296810, 3387296811, 3387296812, 3387296813, 3387296810], "tags": {"addr:district": "Hyderabad", "addr:full": "Plot No. A-2 & B-17, Rukminipuri Colony, Dr. A S Rao Nagar Main Road", "addr:postcode": "500062", "addr:state": "Telangana", "amenity": "hospital", "fax": "+91 9032920000; 040-27141079", "name": "Poulomi Hospital", "source": "OpenGovernmentData", "website": "https://poulomihospital.com"}}, {"type": "way", "id": 331633380, "nodes": [3387370912, 3387370913, 3387370914, 3387370915, 3387370912], "tags": {"amenity": "hospital", "name": "lucid diagnostics"}}, {"type": "way", "id": 355979902, "nodes": [3614774696, 3614774908, 3614774894, 3614774839, 3614774844, 3614774687, 3614774696], "tags": {"addr:district": "Hyderabad", "addr:full": "Manovikas Nagar, Secunderabad, Near Delhi Public School", "addr:postcode": "500009", "addr:state": "Telangana", "addr:subdistrict": "Secunderabad", "amenity": "hospital", "building": "yes", "contact:phone": "04027753385", "health_facility:type": "Others", "healthcare": "centre", "name": "Southern Regional Centre of Ali Yavar Jung National Institute for the Hearing Handicapped (AYJNIHH)", "source": "OpenGovernmentData"}}, {"type": "way", "id": 356200125, "nodes": [3616927674, 3616927643, 3616927598, 3616927631, 3616927674], "tags": {"addr:district": "Hyderabad", "addr:full": "Plot No. 25, Green Hills Colony, S.P Nagar", "addr:postcode": "500040", "addr:state": "Telangana", "amenity": "hospital", "contact:phone": "040 27131591; 9059098664; 9160900966", "healthcare": "hospital", "name": "Bhaskara Orthopaedic Centre", "source": "OpenGovernmentData"}}]}