{"version": 0.6, "generator": "Overpass API 0.7.62.8 e802775f", "osm3s": {"timestamp_osm_base": "2026-01-12T14:08:00Z", "copyright": "The data included in this document is from www.openstreetmap.org. The data is made available under ODbL."}, "elements": [{"type": "node", "id": 1228960966, "lat": 12.90306, "lon": 77.4974982, "tags": {"addr:district": "Bengaluru Urban", "addr:full": "67, Uttarahalli Road, Kengeri", "addr:postcode": "560060", "addr:state": "Karnataka", "amenity": "hospital", "email": "web.enquiries@globalhospitalsindia.com", "healthcare": "hospital", "healthcare:speciality": "multi speciality", "name": "BGS Gleneagles Hospitals", "name:kn": "\u0cac\u0cbf\u0c9c\u0cbf\u0c8e\u0cb8\u0ccd \u0c86\u0cb8\u0ccd\u0caa\u0ca4\u0ccd\u0cb0\u0cc6", "operator:type": "private", "source": "OpenGovernmentData", "website": "https://bgsgleneaglesglobalhospitalbengaluru.com/"}}, {"type": "node", "id": 1318987638, "lat": 12.8915893, "lon": 77.560715, "tags": {"amenity": "hospital", "emergency": "yes", "name": "Metro Hospital"}}, {"type": "node", "id": 2002686385, "lat": 12.8807554, "lon": 77.5841671, "tags": {"addr:district": "Bengaluru Urban", "addr:full": "Kothanur Dinne Main Road,Sapthagiri Layout,OppositeFabricana Factory,J.P.Ngar,8Th Phase", "addr:postcode": "560078", "addr:state": "Karnataka", "amenity": "hospital", "name": "T.R.Hospital", "source": "OpenGovernmentData"}}, {"type": "node", "id": 2012122119, "lat": 12.891484, "lon": 77.5816961, "tags": {"amenity": "hospital", "emergency": "yes", "healthcare": "hospital", "name": "Rainbow Clinic and Diagnostic Laboratory"}}, {"type": "node", "id": 2122595759, "lat": 12.8845448, "lon": 77.5701276, "tags": {"addr:district": "Bengaluru Rural", "addr:full": "#3, 6 th Cross, Old Bank Colony, Konanakunte", "addr:postcode": "560062", "addr:state": "Karnataka", "amenity": "hospital", "healthcare": "hospital", "name": "Rajnandani Hospital, Bangalore", "source": "OpenGovernmentData"}}, {"type": "node", "id": 3037310855, "lat": 12.8827229, "lon": 77.5466715, "tags": {"addr:city": "Bangalore", "addr:housenumber": "28", "addr:postcode": "560062", "addr:street": "Kanakapura Road", "amenity": "hospital", "healthcare": "hospital", "name": "Aikya Healthcare"}}, {"type": "node", "id": 3100475907, "lat": 12.8840897, "lon": 77.5664029, "tags": {"addr:district": "Bangalore", "addr:full": "PARK, NEAR PARK", "addr:postcode": "560062", "addr:state": "Karnataka", "addr:subdistrict": "Bangalore South", "amenity": "hospital", "contact:phone": "8026323311", "healthcare": "hospital", "name": "Konanakunte Government Hospital", "source": "OpenGovernmentData"}}, {"type": "node", "id": 4447383325, "lat": 12.9039905, "lon": 77.5859569, "tags": {"addr:city": "bangalore", "addr:housenumber": "9", "addr:postcode": "560078", "addr:street": "24th Main Rd, KR Layout, 1st Phase, JP Nagar", "amenity": "hospital", "name": "M N Speciality Clinic", "name:kn": "\u0c8e\u0cae\u0ccd \u0c8e\u0ca8\u0ccd \u0cb8\u0ccd\u0caa\u0cc6\u0cb6\u0cbe\u0cb2\u0cbf\u0c9f\u0cbf \u0c95\u0ccd\u0cb2\u0cbf\u0ca8\u0cbf\u0c95\u0ccd", "phone": "080 2653 0121"}}, {"type": "node", "id": 4456339090, "lat": 12.8943049, "lon": 77.5682821, "tags": {"addr:district": "Bengaluru Urban", "addr:full": "No.6 J.C.Industrial Area, Yelechenahalli", "addr:postcode": "560062", "addr:state": "Karnataka", "addr:street": "Kanakapura Road", "addr:subdistrict": "Kanakpura", "amenity": "hospital", "name": "Sri Sai Ram Hospital", "name:en": "Sri Sai Ram Hospital", "name:kn": "\u0cb6\u0ccd\u0cb0\u0cc0 \u0cb8\u0cbe\u0caf\u0cbf \u0cb0\u0cbe\u0cae \u0c86\u0cb8\u0ccd\u0caa\u0ca4\u0ccd\u0cb0\u0cc6", "operator:type": "private", "source": "OpenGovernmentData", "website": "http://www.srisairamhospital.com/"}}, {"type": "node", "id": 6255876709, "lat": 12.8225802, "lon": 77.5216981}, {"type": "node", "id": 6255876710, "lat": 12.8224847, "lon": 77.5216717}, {"type": "node", "id": 6255876711, "lat": 12.8225031, "lon": 77.5215436}, {"type": "node", "id": 6255876712, "lat": 12.8223415, "lon": 77.5215135}, {"type": "node", "id": 6255876713, "lat": 12.8223231, "lon": 77.5215813}, {"type": "node", "id": 6255876714, "lat": 12.8222606, "lon": 77.52157}, {"type": "node", "id": 6255876715, "lat": 12.8223121, "lon": 77.5213326}, {"type": "node", "id": 6255876716, "lat": 12.8220439, "lon": 77.5212535}, {"type": "node", "id": 6255876717, "lat": 12.8218198, "lon": 77.5222933}, {"type": "node", "id": 6255876718, "lat": 12.8220623, "lon": 77.5221238}, {"type": "node", "id": 6255876719, "lat": 12.8221174, "lon": 77.5222029}, {"type": "node", "id": 6255876720, "lat": 12.8221504, "lon": 77.5221878}, {"type": "node", "id": 6255876721, "lat": 12.8222092, "lon": 77.5222707}, {"type": "node", "id": 6255876722, "lat": 12.8222753, "lon": 77.5222368}, {"type": "node", "id": 6255876723, "lat": 12.8222423, "lon": 77.5221501}, {"type": "node", "id": 6255876724, "lat": 12.8222166, "lon": 77.5220823}, {"type": "node", "id": 6255876725, "lat": 12.82229, "lon": 77.5219995}, {"type": "node", "id": 6255876726, "lat": 12.8223268, "lon": 77.5219316}, {"type": "node", "id": 6255876727, "lat": 12.8224002, "lon": 77.5218864}, {"type": "node", "id": 6255876728, "lat": 12.8223782, "lon": 77.521796}, {"type": "node", "id": 6255876729, "lat": 12.8225361, "lon": 77.5218186}, {"type": "node", "id": 6938692472, "lat": 12.8919509, "lon": 77.5799654, "tags": {"addr:district": "Bengaluru Urban", "addr:full": "No.2, Chandra Complex,J.P.Nagar, 7Th Phase,Puttenahalli,OppositeRbi Cly", "addr:postcode": "560078", "addr:state": "Karnataka", "amenity": "hospital", "healthcare": "hospital", "name": "Supra South City Hospital", "source": "OpenGovernmentData"}}, {"type": "node", "id": 6944507682, "lat": 12.8443653, "lon": 77.583809, "tags": {"addr:district": "Bengaluru Urban", "addr:full": "Weavers Colony Main Road, Bannerghatta Road", "addr:postcode": "560083", "addr:state": "Karnataka", "amenity": "hospital", "name": "Banashankari Hospital", "source": "OpenGovernmentData"}}, {"type": "node", "id": 6947375064, "lat": 12.89708, "lon": 77.5473364, "tags": {"addr:district": "Bengaluru Urban", "addr:full": "No.4, Sagar Complex,Gopalakrishna Layout,Vasanthapura Main Road,Subramanyapura Post,Uttarahalli Hobli", "addr:postcode": "560061", "addr:state": "Karnataka", "amenity": "hospital", "name": "Samastha Hospitals Pvt Ltd", "source": "OpenGovernmentData"}}, {"type": "node", "id": 6950185729, "lat": 12.8914666, "lon": 77.5612113, "tags": {"addr:district": "Bengaluru Rural", "addr:full": "No. 21/3 Vasanthpur Main Road Konanakunte Cross", "addr:postcode": "560062", "addr:state": "Karnataka", "amenity": "hospital", "name": "Metro Hospital, Bengaluru Rural", "source": "OpenGovernmentData"}}, {"type": "node", "id": 9884952776, "lat": 12.8832909, "lon": 77.5500857, "tags": {"addr:city": "Bengaluru", "addr:housenumber": "766", "addr:postcode": "560062", "addr:street": "Narayana Nagar, 1st Block, Doddakallasandra Village, Kanakapura Road", "amenity": "hospital", "check_date": "2024-10-19", "description": "Maternity & Kids Hospital", "emergency": "yes", "healthcare": "hospital", "healthcare:speciality": "gynaecology;pulmonology;paediatrics;dermatology;dentistry;physiotherapy;fertility", "name": "Cloudnine Hospital", "operator:type": "private", "phone": "9972999729", "website": "https://www.cloudninecare.com"}}, {"type": "node", "id": 11299121541, "lat": 12.8784742, "lon": 77.5450234, "tags": {"amenity": "hospital", "healthcare": "hospital", "name": "Zymus Hospitals"}}, {"type": "node", "id": 11801601935, "lat": 12.9030689, "lon": 77.5607177}, {"type": "node", "id": 11801601936, "lat": 12.902942, "lon": 77.5606585}, {"type": "node", "id": 11801601937, "lat": 12.9031277, "lon": 77.5598988}, {"type": "node", "id": 11801601938, "lat": 12.9033643, "lon": 77.5599393}, {"type": "node", "id": 11869384815, "lat": 12.8835095, "lon": 77.550214, "tags": {"addr:street": "Kanakapura Road", "amenity": "hospital", "description": "Multi speciality hospital", "name": "Dhee Hospital", "website": "https://dheehospitals.com/"}}, {"type": "way", "id": 668074515, "nodes": [6255876709, 6255876710, 6255876711, 6255876712, 6255876713, 6255876714, 6255876715, 6255876716, 6255876717, 6255876718, 6255876719, 6255876720, 6255876721, 6255876722, 6255876723, 6255876724, 6255876725, 6255876726, 6255876727, 6255876728, 6255876729, 6255876709], "tags": {"addr:district": "Bengaluru Rural", "addr:full": "Ved Vignan Maha Vidya Peeth, 21st Km, Kanakpura Road, Udayapura P.O", "addr:postcode": "560082", "addr:state": "Karnataka", "amenity": "hospital", "building": "hospital", "healthcare": "hospital", "name": "Sri Sri Ayurveda hospital", "name:kn": "\u0c86\u0caf\u0cc1\u0cb0\u0ccd\u0cb5\u0cc7\u0ca6 \u0c86\u0cb8\u0ccd\u0caa\u0ca4\u0ccd\u0cb0\u0cc6", "source": "OpenGovernmentData"}}, {"type": "way", "id": 1270817507, "nodes": [11801601938, 11801601937, 11801601936, 11801601935, 11801601938], "tags": {"amenity": "hospital", "healthcare": "hospital", "name": "Vasavi Hospital", "name:kn": "\u0cb5\u0cbe\u0cb8\u0cb5\u0cbf \u0c86\u0cb8\u0ccd\u0caa\u0ca4\u0ccd\u0cb0\u0cc6"}}]}