{"version": 0.6, "generator": "Overpass API 0.7.62.8 e802775f", "osm3s": {"timestamp_osm_base": "2026-01-12T14:19:15Z", "copyright": "The data included in this document is from www.openstreetmap.org. The data is made available under ODbL."}, "elements": [{"type": "node", "id": 1186831410, "lat": 12.9951629, "lon": 77.69923, "tags": {"addr:street": "Whitefield Road", "amenity": "hospital", "name": "Presidency Hospital"}}, {"type": "node", "id": 1724416882, "lat": 13.0148188, "lon": 77.6653699, "tags": {"amenity": "hospital", "name": "Ayur Seva Hospital", "name:en": "Ayur Vaid Hospital"}}, {"type": "node", "id": 1761866934, "lat": 13.0207033, "lon": 77.6760593, "tags": {"amenity": "hospital", "name": "Koshys Hospital"}}, {"type": "node", "id": 1958294905, "lat": 13.0100409, "lon": 77.6674667, "tags": {"amenity": "hospital", "name": "Charan Homeopathy, Ramamurthy Nagar"}}, {"type": "node", "id": 2272455276, "lat": 13.0124345, "lon": 77.6580271, "tags": {"addr:district": "Bengaluru Urban", "addr:full": "No. 699, 3Road Main Road,Bhuvanagiri Layout,(O.M.B.R),Doddabanasawadi", "addr:postcode": "560043", "addr:state": "Karnataka", "amenity": "hospital", "name": "Srivijaya Speciality Hospital", "source": "OpenGovernmentData"}}, {"type": "node", "id": 2283768011, "lat": 13.0517437, "lon": 77.716215}, {"type": "node", "id": 2475284844, "lat": 13.0077936, "lon": 77.6923101, "tags": {"addr:city": "K.R Puram", "addr:street": "Old Madras Road", "amenity": "hospital", "healthcare": "hospital", "name": "ESi Hospital", "operator": "Employees' State Insurance", "operator:short": "ESI", "operator:type": "private", "operator:wikidata": "Q3595726"}}, {"type": "node", "id": 2625606671, "lat": 13.0224052, "lon": 77.6579566}, {"type": "node", "id": 2625606675, "lat": 13.0224263, "lon": 77.6581236}, {"type": "node", "id": 2625606677, "lat": 13.0223411, "lon": 77.658075}, {"type": "node", "id": 3673078016, "lat": 13.0205293, "lon": 77.7017416}, {"type": "node", "id": 3673078017, "lat": 13.0204392, "lon": 77.7014212}, {"type": "node", "id": 4445183934, "lat": 13.0158543, "lon": 77.7033173, "tags": {"addr:city": "Bengaluru", "addr:housenumber": "53", "addr:postcode": "560049", "addr:street": "Near Sathya Sai Lake Side Hospital, 3rd Main, Vinayaka Layout, Old Madras Road, Battarahalli, K.R. Puram, Vidya Nagar, Krishnarajapuram", "amenity": "hospital", "name": "Thyrocare", "phone": "080 6568 0365"}}, {"type": "node", "id": 4445986377, "lat": 13.0087504, "lon": 77.6939806, "tags": {"addr:city": "K.R Puram, Bangalore", "addr:district": "Bengaluru Urban", "addr:full": "No. 107 / 2, Nishvasahaa Centre, Opposite Traffic Police Station Road, Old Madras Road, Krishnaparajapuram", "addr:housenumber": "107/2,", "addr:postcode": "560036", "addr:state": "Karnataka", "addr:street": "Old Madras Road", "amenity": "hospital", "emergency": "yes", "name": "Sriram Hospital, Bangalore", "phone": "080 2561 0988", "source": "OpenGovernmentData"}}, {"type": "node", "id": 4445998037, "lat": 13.0110115, "lon": 77.6935975, "tags": {"addr:city": "Bangalore", "addr:housenumber": "#301", "addr:postcode": "560036", "addr:street": "3rd Main Road, Old Extension, Krishnarajapuram, Near Indane Gas", "amenity": "hospital", "emergency": "yes", "name": "K R Puram Super Speciality Hospital", "phone": "080 2561 7799", "source": "http://www.bangalorean.co.in/", "website": "aaxishospitals.com"}}, {"type": "node", "id": 4446018021, "lat": 13.0048396, "lon": 77.7036425, "tags": {"addr:city": "Bangalore", "addr:district": "Bengaluru Urban", "addr:full": "Devasandram Main Road Enterance, Krishnarajapuram", "addr:postcode": "560036", "addr:state": "Karnataka", "addr:street": "Devasandra Main Road, Krishnarajapuram", "amenity": "hospital", "name": "Maithri Nursing Home", "phone": "+918025611928", "source": "http://www.bangalorean.co.in/"}}, {"type": "node", "id": 4446927760, "lat": 13.0090882, "lon": 77.6918556, "tags": {"addr:city": "Bangalore", "addr:housenumber": "107/2", "addr:postcode": "560036", "addr:street": "3rd Floor, Nishvasaha Centre, Opp. Traffic Police, Old Madras Road, K.R.Puram", "amenity": "hospital", "emergency": "yes", "name": "Nimi dental bangalore", "phone": "080 2561 9979", "source": "http://yellowpages.sulekha.com/", "website": "https://practo.com/"}}, {"type": "node", "id": 4448000087, "lat": 13.0096231, "lon": 77.6924713, "tags": {"addr:city": "Bangalore", "addr:housenumber": "107/2", "addr:postcode": "560036", "addr:street": "Nishvasaha Centre, Old Madras Main Road, Opposite-Traffic Police, Station, K R Puram", "amenity": "hospital", "emergency": "yes", "name": "Sri Ram Hospital", "phone": "080 2561 0988", "source": "http://bestofhealthindia.com/"}}, {"type": "node", "id": 4528847591, "lat": 13.0120509, "lon": 77.6998816, "tags": {"addr:city": "Bangalore", "addr:district": "Bengaluru Urban", "addr:full": "#27, Old Madras Road", "addr:postcode": "560036", "addr:state": "Karnataka", "amenity": "hospital", "healthcare:speciality": "Gyanecology; Medicine; Maternity; Surgery; Immunisation Facility; Laprascopic Surgery; Endoscopy; Dermatology; Child Health Care; Eye; ENT; OPTHALMOLOGY; Urology; Ultrasound Scan; X- Ray; ECG; Health Check up", "name": "Deepa Hospital", "operator:type": "private", "source": "OpenGovernmentData", "website": "http://www.deepahospital.creativotech.com/", "wheelchair": "yes"}}, {"type": "node", "id": 4689872196, "lat": 13.0215807, "lon": 77.7128053, "tags": {"addr:district": "Bengaluru Urban", "addr:full": "Road , Casross Opposite Tc Palya Bus Store Old Madars Road", "addr:postcode": "560049", "addr:state": "Karnataka", "amenity": "hospital", "name": "Sathya Sai Lake Side Ortho Hospital", "name:en": "Satya Sai", "source": "OpenGovernmentData"}}, {"type": "node", "id": 5112187604, "lat": 13.0090912, "lon": 77.656317, "tags": {"amenity": "hospital", "name": "Subramanium Medicine Store"}}, {"type": "node", "id": 5112191947, "lat": 13.0104342, "lon": 77.6583242, "tags": {"addr:district": "Bengaluru Urban", "addr:full": "6C - 335, 4Th C Main Road, 6Th Cross Ombr Layout Bhuvanagiri", "addr:postcode": "560041", "addr:state": "Karnataka", "amenity": "hospital", "name": "Chaya Super Speciality Hospital", "source": "OpenGovernmentData"}}, {"type": "node", "id": 6464656077, "lat": 13.011214, "lon": 77.6979598, "tags": {"addr:city": "Bangalore", "addr:postcode": "560036", "addr:street": "Sri Thimappa Complex, Old Madras Road, KR Puram, Below Syndicate Bank", "amenity": "hospital", "emergency": "yes", "name": "Patil Hospital", "note": "exact location not correct", "phone": "080 2561 3891", "source": "http://www.bangalorean.co.in/"}}, {"type": "node", "id": 6944274074, "lat": 13.0139247, "lon": 77.6640775, "tags": {"addr:district": "Bengaluru Urban", "addr:full": "No. 16, Hoysala Nagar, Maruti Complex, Ramamurthy Nagar Extension", "addr:postcode": "560016", "addr:state": "Karnataka", "amenity": "hospital", "name": "Ayurseva Hospital", "source": "OpenGovernmentData"}}, {"type": "node", "id": 6945033191, "lat": 13.0121705, "lon": 77.6961802, "tags": {"addr:district": "Bengaluru Urban", "addr:full": "Opposite Syndicate Bank, Old Madras Road, Krihnarjapuram", "addr:postcode": "560001", "addr:state": "Karnataka", "amenity": "hospital", "name": "Sri Ramakrishna Hospital, Bengaluru Urban", "source": "OpenGovernmentData"}}, {"type": "node", "id": 6945724749, "lat": 13.0112166, "lon": 77.6743939, "tags": {"addr:district": "Bengaluru Urban", "addr:full": "Ramamurthynagar", "addr:postcode": "560016", "addr:state": "Karnataka", "amenity": "hospital", "name": "Spandana Hospital And Medical Centre", "source": "OpenGovernmentData", "wheelchair": "yes"}}, {"type": "node", "id": 6947459688, "lat": 13.0357404, "lon": 77.7347061, "tags": {"addr:district": "Bengaluru Urban", "addr:full": "Avalahalli, Virgonagar P.O.", "addr:postcode": "560049", "addr:state": "Karnataka", "amenity": "hospital", "name": "S.N. Hospital", "source": "OpenGovernmentData"}}, {"type": "node", "id": 6947499707, "lat": 13.0178594, "lon": 77.6547577, "tags": {"addr:district": "Bengaluru Urban", "addr:full": "No.1013, 1st Block, 3 Road Cross, Hrbr Layout, Kalyan Nagar", "addr:postcode": "560043", "addr:state": "Karnataka", "amenity": "hospital", "name": "Dr.Zamindar Microsurgical Eye Centre", "operator:type": "private", "source": "OpenGovernmentData", "website": "https://drzamindarseyecentre.com/"}}, {"type": "node", "id": 6947662459, "lat": 13.0357169, "lon": 77.7351701, "tags": {"addr:district": "Bengaluru Urban", "addr:full": "Avalahalli Virgonagar Old Madras Road Bangaror", "addr:postcode": "560049", "addr:state": "Karnataka", "amenity": "hospital", "name": "Geetha Hospital", "source": "OpenGovernmentData"}}, {"type": "node", "id": 6947662464, "lat": 13.0080397, "lon": 77.6971089, "tags": {"addr:district": "Bengaluru Urban", "addr:full": "37/, 1st Cross, Devasandra Main Road, K.R.Puram", "addr:postcode": "560035", "addr:state": "Karnataka", "amenity": "hospital", "name": "Suresh Hospital, Bengaluru Urban", "source": "OpenGovernmentData"}}, {"type": "node", "id": 6947662469, "lat": 13.0088071, "lon": 77.6948659, "tags": {"addr:district": "Bengaluru Urban", "addr:full": "2 1st Floor, Kr Purav", "addr:postcode": "560003", "addr:state": "Karnataka", "amenity": "hospital", "name": "Sri Ram Netralaya and Surgical Centre", "source": "OpenGovernmentData"}}, {"type": "node", "id": 6947662474, "lat": 13.0090854, "lon": 77.6969567, "tags": {"addr:district": "Bengaluru Urban", "addr:full": "No. 42-B1, Below Synicate Bank, Sri Thimmappa Complex, Old Madras Road, Krishnarajapuram", "addr:postcode": "560036", "addr:state": "Karnataka", "amenity": "hospital", "name": "Patil Hospital, Bengaluru Urban", "source": "OpenGovernmentData"}}, {"type": "node", "id": 6947662480, "lat": 13.011968, "lon": 77.6659168, "tags": {"addr:district": "Bengaluru Urban", "addr:full": "#311, 4B Cross, R.M. Nagar Main Road, Kasthuri Nagar", "addr:postcode": "560016", "addr:state": "Karnataka", "amenity": "hospital", "name": "Sri Sai Eye Hospital", "source": "OpenGovernmentData"}}, {"type": "node", "id": 6947716900, "lat": 13.0276736, "lon": 77.6614188, "tags": {"addr:district": "Bengaluru Urban", "addr:full": "No.21,22,1st Floor,Horamavu Main Road", "addr:postcode": "560043", "addr:state": "Karnataka", "amenity": "hospital", "name": "Dr. Sailaja's Super Speciality Eye Hospital", "source": "OpenGovernmentData"}}, {"type": "node", "id": 6950124287, "lat": 13.0113204, "lon": 77.6771966, "tags": {"addr:district": "Bengaluru Urban", "addr:full": "No. 101, Tc Palya Road,Raghavendra Nagar,Ram Murthy Nagar Extension", "addr:postcode": "560016", "addr:state": "Karnataka", "addr:street": "Opposite to bus stop", "amenity": "hospital", "name": "Little Flower Hospital", "source": "OpenGovernmentData"}}, {"type": "node", "id": 7202935809, "lat": 13.0164321, "lon": 77.7169887, "tags": {"addr:district": "Bangalore", "addr:full": "Seegehalli, Virgonagara Post", "addr:postcode": "560049", "addr:state": "Karnataka", "addr:subdistrict": "Bangalore East", "amenity": "hospital", "name": "Seegehalli Government Hospital", "name:kn": "\u0cb8\u0cc0\u0c97\u0cc7\u0cb9\u0cb3\u0ccd\u0cb3\u0cbf \u0cb8\u0cb0\u0ccd\u0c95\u0cbe\u0cb0\u0cbf \u0c86\u0cb8\u0ccd\u0caa\u0ca4\u0ccd\u0cb0\u0cc6", "source": "OpenGovernmentData"}}, {"type": "node", "id": 7448002905, "lat": 13.0054446, "lon": 77.682416}, {"type": "node", "id": 7448002906, "lat": 13.0043115, "lon": 77.6831194}, {"type": "node", "id": 7448002907, "lat": 13.0038271, "lon": 77.6822973}, {"type": "node", "id": 7448002910, "lat": 13.0049601, "lon": 77.6815939}, {"type": "node", "id": 7572131816, "lat": 13.006205, "lon": 77.7004289, "tags": {"addr:district": "Bengaluru Urban", "addr:full": "Ayyappa Nagar, Krishnarajapura, Bengaluru", "addr:postcode": "560036", "addr:state": "Karnataka", "amenity": "hospital", "name": "NMPC Hospital", "source": "Local Knowledge"}}, {"type": "node", "id": 7572131818, "lat": 13.0082031, "lon": 77.697197, "tags": {"addr:district": "Bengaluru Urban", "addr:full": "Devasandra Main Road, Krishnarajapura, Bengaluru", "addr:postcode": "560036", "addr:state": "Karnataka", "amenity": "hospital", "name": "R R Hospital", "source": "Local Knowledge"}}, {"type": "node", "id": 7572131823, "lat": 13.0031618, "lon": 77.7059531, "tags": {"addr:district": "Bengaluru Urban", "addr:full": "Ayyappa Nagar, Krishnarajapura, Bengaluru", "addr:postcode": "560036", "addr:state": "Karnataka", "amenity": "hospital", "name": "Vicky Family Life", "source": "Local Knowledge"}}, {"type": "node", "id": 7572131833, "lat": 13.0239995, "lon": 77.6585299, "tags": {"addr:district": "Bengaluru Urban", "addr:full": "Horamavu, Near Banaswadi, Bengaluru", "addr:postcode": "560043", "addr:state": "Karnataka", "amenity": "hospital", "name": "Stroke Treatment Paralysis", "source": "Local Knowledge"}}, {"type": "node", "id": 7572131835, "lat": 13.0283977, "lon": 77.6599575, "tags": {"addr:district": "Bengaluru Urban", "addr:full": "Banaswadi, Bengaluru", "addr:postcode": "560043", "addr:state": "Karnataka", "amenity": "hospital", "name": "Geriatric Hospitals", "source": "Local Knowledge"}}, {"type": "node", "id": 7572131842, "lat": 13.0219523, "lon": 77.6994046, "tags": {"addr:district": "Bengaluru Urban", "addr:full": "Sunshine Layout, Krishnarajapura, Bengaluru", "addr:postcode": "560036", "addr:state": "Karnataka", "amenity": "hospital", "name": "Health Plus Multi Speciality Hospital", "source": "Local Knowledge"}}, {"type": "node", "id": 7572131844, "lat": 12.9966313, "lon": 77.671863, "tags": {"addr:district": "Bengaluru Urban", "addr:full": "Udaya Nagar, Bengaluru", "addr:postcode": "560016", "addr:state": "Karnataka", "amenity": "hospital", "name": "Pragathi Piles Hospital", "source": "Local Knowledge"}}, {"type": "node", "id": 7572131863, "lat": 13.0207656, "lon": 77.7014387}, {"type": "node", "id": 7572131884, "lat": 13.033219, "lon": 77.6747693, "tags": {"addr:district": "Bengaluru Urban", "addr:full": "Punyabhoomi Layout, Kalkere, Bengaluru", "addr:postcode": "560016", "addr:state": "Karnataka", "amenity": "hospital", "name": "Eshawar HospItal", "source": "Local Knowledge"}}, {"type": "node", "id": 7572131905, "lat": 13.0106539, "lon": 77.6969464, "tags": {"addr:district": "Bengaluru Urban", "addr:full": "V B Layout, Krishnarajapura, Bengaluru", "addr:postcode": "560036", "addr:state": "Karnataka", "amenity": "hospital", "name": "Sad Bydya Shala Ayurvedic Hospital", "source": "Local Knowledge"}}, {"type": "node", "id": 7572131909, "lat": 13.011115, "lon": 77.697361, "tags": {"addr:district": "Bengaluru Urban", "addr:full": "Krishnarajapura, Bengaluru", "addr:postcode": "560036", "addr:state": "Karnataka", "amenity": "hospital", "name": "Sri Lakshmi Super Speciality Hospital", "source": "Local Knowledge"}}, {"type": "node", "id": 7572131920, "lat": 13.0031938, "lon": 77.7128759, "tags": {"addr:district": "Bengaluru Urban", "addr:full": "Surya Layout, Ayyappa Nagar, Krishnarajapura, Bengaluru", "addr:postcode": "560036", "addr:state": "Karnataka", "amenity": "hospital", "name": "Kids Health Link", "source": "Local Knowledge"}}, {"type": "node", "id": 7572131935, "lat": 13.0042616, "lon": 77.7114153, "tags": {"addr:district": "Bengaluru Urban", "addr:full": "Ayyappa Nagar, Krishnarajapura, Bengaluru", "addr:postcode": "560036", "addr:state": "Karnataka", "amenity": "hospital", "name": "Amrutha Healthcare", "source": "Local Knowledge"}}, {"type": "node", "id": 7577248193, "lat": 13.0091103, "lon": 77.6579493, "tags": {"addr:district": "Bengaluru Urban", "addr:full": "Lal Bahadur Nagar, Kasturi Nagar, Bengaluru", "addr:postcode": "560043", "addr:state": "Karnataka", "amenity": "hospital", "name": "Skin Remediez", "source": "Local Knowledge"}}, {"type": "node", "id": 7577248254, "lat": 13.0166883, "lon": 77.6604049, "tags": {"addr:district": "Bengaluru Urban", "addr:full": "Ramamurthy Nagar, Kuvempu Nagar, Bellandur, Bengaluru", "addr:postcode": "560043", "addr:state": "Karnataka", "amenity": "hospital", "name": "Super Specialty Eye Hospital", "source": "Local Knowledge"}}, {"type": "node", "id": 7577248279, "lat": 13.020084, "lon": 77.654053, "tags": {"addr:district": "Bengaluru Urban", "addr:full": "Nanjappa Garden, Horamavu, Bengaluru", "addr:postcode": "560043", "addr:state": "Karnataka", "amenity": "hospital", "name": "Cloudnine Hospital", "source": "Local Knowledge"}}, {"type": "node", "id": 11099732594, "lat": 13.0210779, "lon": 77.701377}, {"type": "node", "id": 12455537849, "lat": 13.0224904, "lon": 77.6580052}, {"type": "node", "id": 13000970699, "lat": 13.0515922, "lon": 77.7172852}, {"type": "node", "id": 13000970700, "lat": 13.0523055, "lon": 77.7173549}, {"type": "node", "id": 13000994501, "lat": 13.0531573, "lon": 77.7175802}, {"type": "node", "id": 13000994502, "lat": 13.0532989, "lon": 77.7185291}, {"type": "node", "id": 13000994503, "lat": 13.054273, "lon": 77.7180791}, {"type": "node", "id": 13000994504, "lat": 13.0541685, "lon": 77.7160111}, {"type": "node", "id": 13000994505, "lat": 13.0540823, "lon": 77.7160621}, {"type": "node", "id": 13000994506, "lat": 13.053996, "lon": 77.7162391}, {"type": "node", "id": 13000994507, "lat": 13.0538967, "lon": 77.7163625}, {"type": "node", "id": 13000994508, "lat": 13.0538393, "lon": 77.7165234}, {"type": "node", "id": 13000994509, "lat": 13.0530632, "lon": 77.7166146}, {"type": "node", "id": 13065272003, "lat": 13.0207473, "lon": 77.7013636}, {"type": "node", "id": 13065272004, "lat": 13.0205961, "lon": 77.7017424}, {"type": "node", "id": 13065272005, "lat": 13.0206389, "lon": 77.7019738}, {"type": "node", "id": 13065272006, "lat": 13.0210492, "lon": 77.7019362}, {"type": "node", "id": 13072628554, "lat": 13.0058328, "lon": 77.6597392, "tags": {"amenity": "hospital", "check_date": "2025-08-15", "healthcare": "hospital", "name": "NASA Hospitals"}}, {"type": "node", "id": 13135622865, "lat": 13.0542552, "lon": 77.7176972}, {"type": "node", "id": 13356901983, "lat": 13.0519599, "lon": 77.7173211}, {"type": "node", "id": 13361809653, "lat": 13.056669, "lon": 77.7156758}, {"type": "node", "id": 13361809654, "lat": 13.0567474, "lon": 77.7151608}, {"type": "node", "id": 13361809655, "lat": 13.0562065, "lon": 77.7154371}, {"type": "node", "id": 13361809656, "lat": 13.0561673, "lon": 77.7161425}, {"type": "node", "id": 13361809657, "lat": 13.0564548, "lon": 77.7162015}, {"type": "way", "id": 256940540, "nodes": [12455537849, 2625606675, 2625606677, 2625606671, 12455537849], "tags": {"addr:district": "Bengaluru Urban", "addr:full": "No. 66, 9Th Main , Horamavu Post Horamavu Main Road Banaswadi", "addr:postcode": "560043", "addr:state": "Karnataka", "amenity": "hospital", "building": "yes", "emergency": "yes", "name": "Nmpc Hospital", "source": "OpenGovernmentData"}}, {"type": "way", "id": 796370470, "nodes": [7448002910, 7448002905, 7448002906, 7448002907, 7448002910], "tags": {"amenity": "hospital", "name": "ITI General Hospital"}}, {"type": "way", "id": 1414809361, "nodes": [2283768011, 13000994509, 13000994508, 13000994507, 13000994506, 13000994505, 13000994504, 13135622865, 13000994503, 13000994502, 13000994501, 13000970700, 13356901983, 13000970699, 2283768011], "tags": {"amenity": "hospital", "name": "East Point Hospital and Medical College"}}, {"type": "way", "id": 1421739175, "nodes": [11099732594, 13065272006, 13065272005, 13065272004, 3673078016, 3673078017, 13065272003, 7572131863, 11099732594], "tags": {"addr:district": "Bengaluru Urban", "addr:full": "K.R.Puram, Battarahalli, Bengaluru", "addr:postcode": "560036", "addr:state": "Karnataka", "amenity": "hospital", "name": "Shanthinilaya Hospital", "source": "Local Knowledge"}}, {"type": "way", "id": 1456924436, "nodes": [13361809657, 13361809656, 13361809655, 13361809654, 13361809653, 13361809657], "tags": {"amenity": "hospital"}}]}