{"version": 0.6, "generator": "Overpass API 0.7.62.8 e802775f", "osm3s": {"timestamp_osm_base": "2026-01-12T16:35:26Z", "copyright": "The data included in this document is from www.openstreetmap.org. The data is made available under ODbL."}, "elements": [{"type": "node", "id": 435688304, "lat": 12.8940956, "lon": 77.5635897}, {"type": "node", "id": 435688305, "lat": 12.8928473, "lon": 77.5631179}, {"type": "node", "id": 435688306, "lat": 12.8925772, "lon": 77.5640241}, {"type": "node", "id": 435688307, "lat": 12.893351, "lon": 77.5643012}, {"type": "node", "id": 435688308, "lat": 12.8935408, "lon": 77.5637695}, {"type": "node", "id": 435688309, "lat": 12.8940299, "lon": 77.5639417}, {"type": "node", "id": 435688310, "lat": 12.8938225, "lon": 77.562109}, {"type": "node", "id": 435688311, "lat": 12.8934021, "lon": 77.5631404}, {"type": "node", "id": 435688312, "lat": 12.8941029, "lon": 77.5634325}, {"type": "node", "id": 435688313, "lat": 12.8942343, "lon": 77.5624664}, {"type": "node", "id": 435688314, "lat": 12.8941248, "lon": 77.5622192}, {"type": "node", "id": 1015924261, "lat": 12.9239624, "lon": 77.5847475}, {"type": "node", "id": 1015924279, "lat": 12.9242372, "lon": 77.5847484}, {"type": "node", "id": 1015924294, "lat": 12.9229013, "lon": 77.5816474, "tags": {"amenity": "school", "name": "Good Shepherd School"}}, {"type": "node", "id": 1085786963, "lat": 12.9095131, "lon": 77.5502862, "tags": {"addr:street": "Uttarahalli Main Road", "amenity": "school", "name": "Bangalore International Public School"}}, {"type": "node", "id": 1210191549, "lat": 12.8663262, "lon": 77.5884727}, {"type": "node", "id": 1210191567, "lat": 12.8660464, "lon": 77.5888511}, {"type": "node", "id": 1210191570, "lat": 12.8663117, "lon": 77.5885461}, {"type": "node", "id": 1210191575, "lat": 12.8660398, "lon": 77.5892561}, {"type": "node", "id": 1228960967, "lat": 12.9022641, "lon": 77.4974982, "tags": {"amenity": "school", "name": "BGS Public School"}}, {"type": "node", "id": 1331946766, "lat": 12.9119447, "lon": 77.5581363, "tags": {"amenity": "school", "name": "Prarthana School", "name:kn": "\u0caa\u0ccd\u0cb0\u0cbe\u0cb0\u0ccd\u0ca5\u0ca8\u0cbe \u0cb6\u0cbe\u0cb2\u0cc6"}}, {"type": "node", "id": 1331959282, "lat": 12.8886669, "lon": 77.5411424, "tags": {"amenity": "school", "name": "Gubbalala School", "name:kn": "\u0c97\u0cc1\u0cac\u0ccd\u0cac\u0cb2\u0cbe\u0cb2 \u0cb6\u0cbe\u0cb2\u0cc6"}}, {"type": "node", "id": 1334443053, "lat": 12.8929689, "lon": 77.5596739, "tags": {"amenity": "school", "name": "Insight Academy"}}, {"type": "node", "id": 1347489613, "lat": 12.8688163, "lon": 77.5674891}, {"type": "node", "id": 1347489615, "lat": 12.8678752, "lon": 77.5668883}, {"type": "node", "id": 1347489616, "lat": 12.8685789, "lon": 77.5679072}, {"type": "node", "id": 1347489620, "lat": 12.8675928, "lon": 77.5672101}, {"type": "node", "id": 1463584104, "lat": 12.9125086, "lon": 77.5271968, "tags": {"amenity": "school", "name": "Swargarani"}}, {"type": "node", "id": 1463586819, "lat": 12.9081687, "lon": 77.5373087, "tags": {"amenity": "school", "name": "Quality Nursing Institute"}}, {"type": "node", "id": 1463591334, "lat": 12.9056118, "lon": 77.5434456, "tags": {"amenity": "school", "name": "Government School", "name:kn": "\u0cb8\u0cb0\u0ccd\u0c95\u0cbe\u0cb0\u0cbf \u0cb6\u0cbe\u0cb2\u0cc6"}}, {"type": "node", "id": 1466630506, "lat": 12.8814372, "lon": 77.5692573}, {"type": "node", "id": 1466630507, "lat": 12.8808263, "lon": 77.5685406}, {"type": "node", "id": 1466630508, "lat": 12.8807034, "lon": 77.5691092}, {"type": "node", "id": 1466630510, "lat": 12.8812463, "lon": 77.5687959}, {"type": "node", "id": 1466630512, "lat": 12.8813457, "lon": 77.5688925}, {"type": "node", "id": 1473781134, "lat": 12.9050196, "lon": 77.580298}, {"type": "node", "id": 1620352034, "lat": 12.9220691, "lon": 77.5755122, "tags": {"addr:street": "Kanakapura Road", "amenity": "school", "building": "school", "name": "JSS Composite PU College", "name:kn": "\u0c9c\u0cc6\u0c8e\u0cb8\u0ccd\u0c8e\u0cb8\u0ccd \u0cb8\u0c82\u0caf\u0cc1\u0c95\u0ccd\u0ca4 \u0caa\u0ca6\u0cb5\u0cbf\u0caa\u0cc2\u0cb0\u0ccd\u0cb5 \u0c95\u0cbe\u0cb2\u0cc7\u0c9c\u0cc1"}}, {"type": "node", "id": 1732894519, "lat": 12.9080516, "lon": 77.5786593}, {"type": "node", "id": 1732894520, "lat": 12.9080646, "lon": 77.578127}, {"type": "node", "id": 1732894521, "lat": 12.9084837, "lon": 77.5786644}, {"type": "node", "id": 1732894522, "lat": 12.908531, "lon": 77.5782059}, {"type": "node", "id": 1814593842, "lat": 12.9184077, "lon": 77.5591112, "tags": {"amenity": "school", "name": "Sahakari Vidya Kendra", "name:kn": "\u0cb8\u0cb9\u0c95\u0cbe\u0cb0\u0cbf \u0cb5\u0cbf\u0ca6\u0ccd\u0caf\u0cbe \u0c95\u0cc7\u0c82\u0ca6\u0ccd\u0cb0"}}, {"type": "node", "id": 1835530687, "lat": 12.9232492, "lon": 77.5226522, "tags": {"access": "private", "barrier": "gate"}}, {"type": "node", "id": 1877209119, "lat": 12.8880679, "lon": 77.5810131, "tags": {"amenity": "school", "name": "Capitol Public School", "source": "Bing, local knowledge"}}, {"type": "node", "id": 1990604297, "lat": 12.8663637, "lon": 77.5402703}, {"type": "node", "id": 1990604302, "lat": 12.8657884, "lon": 77.5401523}, {"type": "node", "id": 1990604303, "lat": 12.8670279, "lon": 77.5395459}, {"type": "node", "id": 1990609262, "lat": 12.8657682, "lon": 77.5338585}, {"type": "node", "id": 1990609263, "lat": 12.8658477, "lon": 77.5333891}, {"type": "node", "id": 1990609264, "lat": 12.8658721, "lon": 77.5330631}, {"type": "node", "id": 1990609277, "lat": 12.8663088, "lon": 77.5331784}, {"type": "node", "id": 1990609280, "lat": 12.8669311, "lon": 77.5347492}, {"type": "node", "id": 1990609317, "lat": 12.867156, "lon": 77.5332508}, {"type": "node", "id": 1990609972, "lat": 12.8803528, "lon": 77.5461281}, {"type": "node", "id": 1990609977, "lat": 12.8806744, "lon": 77.5468657}, {"type": "node", "id": 1990609978, "lat": 12.8802168, "lon": 77.5466726}, {"type": "node", "id": 1990609982, "lat": 12.8801883, "lon": 77.5468283}, {"type": "node", "id": 2012546405, "lat": 12.886025, "lon": 77.5856544, "tags": {"addr:place": "Kothanur", "amenity": "school", "isced:level": "3", "name": "Cambridge School Kothanur", "name:kn": "\u0c95\u0cc7\u0c82\u0cac\u0ccd\u0cb0\u0cbf\u0c9c\u0ccd \u0cb6\u0cbe\u0cb2\u0cc6,\u0c95\u0cca\u0ca4\u0ccd\u0ca4\u0ca8\u0cc2\u0cb0\u0ccd", "operator": "Private Un-Aided", "school": "Higher Secondary"}}, {"type": "node", "id": 2016849177, "lat": 12.8833487, "lon": 77.583754}, {"type": "node", "id": 2016849178, "lat": 12.8834186, "lon": 77.5837306}, {"type": "node", "id": 2016849179, "lat": 12.8834481, "lon": 77.5840661}, {"type": "node", "id": 2016849180, "lat": 12.8834925, "lon": 77.5839628}, {"type": "node", "id": 2016849181, "lat": 12.8836324, "lon": 77.583916}, {"type": "node", "id": 2016849182, "lat": 12.8836578, "lon": 77.5839959}, {"type": "node", "id": 2083338352, "lat": 12.8815695, "lon": 77.5758606}, {"type": "node", "id": 2083338354, "lat": 12.8815753, "lon": 77.5759341}, {"type": "node", "id": 2083338356, "lat": 12.8818549, "lon": 77.5758371}, {"type": "node", "id": 2083338358, "lat": 12.8818607, "lon": 77.5759107}, {"type": "node", "id": 2120440993, "lat": 12.9086936, "lon": 77.5402243}, {"type": "node", "id": 2120440996, "lat": 12.9087626, "lon": 77.540135}, {"type": "node", "id": 2120441002, "lat": 12.9088835, "lon": 77.5403787}, {"type": "node", "id": 2120441008, "lat": 12.9089525, "lon": 77.5402895}, {"type": "node", "id": 2123565317, "lat": 12.9146638, "lon": 77.559228, "tags": {"amenity": "school", "name": "Prarthana School", "name:kn": "\u0caa\u0ccd\u0cb0\u0cbe\u0cb0\u0ccd\u0ca5\u0ca8\u0cbe \u0cb6\u0cbe\u0cb2\u0cc6"}}, {"type": "node", "id": 2168884531, "lat": 12.8972484, "lon": 77.5820784}, {"type": "node", "id": 2168884532, "lat": 12.8972951, "lon": 77.5817144}, {"type": "node", "id": 2168884533, "lat": 12.8973343, "lon": 77.5821419}, {"type": "node", "id": 2168884534, "lat": 12.8976805, "lon": 77.5822131}, {"type": "node", "id": 2168884535, "lat": 12.8976832, "lon": 77.582281}, {"type": "node", "id": 2168884536, "lat": 12.8976879, "lon": 77.5824033}, {"type": "node", "id": 2168884537, "lat": 12.8977345, "lon": 77.5816641}, {"type": "node", "id": 2168884538, "lat": 12.8977689, "lon": 77.5822043}, {"type": "node", "id": 2173392419, "lat": 12.8803576, "lon": 77.5796579, "tags": {"addr:housenumber": "#24-39", "addr:postcode": "560078", "addr:street": "7th Main Road", "amenity": "school", "email": "communications.oisjp@orchids.edu.in", "name": "Bangalore Scottish School", "name:en": "Orchids The International School, JP Nagar", "opening_hours": "Mo-Su 09:00-18:30", "operator": "Orchids International School", "phone": "9513731352", "source": "GPS", "website": "https://www.orchidsinternationalschool.com/bangalore-branches/jp-nagar/"}}, {"type": "node", "id": 2181320618, "lat": 12.8828036, "lon": 77.5704042, "tags": {"amenity": "school", "name": "Srinidhi Public School", "source": "GPS"}}, {"type": "node", "id": 2996236148, "lat": 12.9242219, "lon": 77.518945, "tags": {"amenity": "school", "name": "Carmel School Ground"}}, {"type": "node", "id": 3125514998, "lat": 12.8844629, "lon": 77.551074}, {"type": "node", "id": 3125514999, "lat": 12.884527, "lon": 77.5510518}, {"type": "node", "id": 3125515000, "lat": 12.8845872, "lon": 77.5512344}, {"type": "node", "id": 3125515001, "lat": 12.8846102, "lon": 77.5512265}, {"type": "node", "id": 3125515002, "lat": 12.8847255, "lon": 77.5512666}, {"type": "node", "id": 3125515003, "lat": 12.884677, "lon": 77.5517237}, {"type": "node", "id": 3125515004, "lat": 12.8848056, "lon": 77.5512389}, {"type": "node", "id": 3125515005, "lat": 12.8847441, "lon": 77.5516326}, {"type": "node", "id": 3125515006, "lat": 12.8848357, "lon": 77.5516009}, {"type": "node", "id": 3125515007, "lat": 12.8849358, "lon": 77.551634}, {"type": "node", "id": 3125515008, "lat": 12.9029942, "lon": 77.5101057}, {"type": "node", "id": 3125515009, "lat": 12.9030677, "lon": 77.5106699}, {"type": "node", "id": 3125515010, "lat": 12.9031095, "lon": 77.5100856}, {"type": "node", "id": 3125515011, "lat": 12.9031893, "lon": 77.5106497}, {"type": "node", "id": 3259780260, "lat": 12.9124439, "lon": 77.5114283}, {"type": "node", "id": 3377391054, "lat": 12.9098297, "lon": 77.5811845, "tags": {"amenity": "school", "name": "The Oxford Secondary School"}}, {"type": "node", "id": 3393457972, "lat": 12.9095133, "lon": 77.5812489, "tags": {"amenity": "school", "name": "The Oxford English School"}}, {"type": "node", "id": 3393457974, "lat": 12.9098297, "lon": 77.5812542, "tags": {"amenity": "school", "name": "The Oxford Senior Secondary School"}}, {"type": "node", "id": 3393478954, "lat": 12.9100822, "lon": 77.5815125, "tags": {"amenity": "school", "name": "The Oxford Primary School"}}, {"type": "node", "id": 3417085515, "lat": 12.9001134, "lon": 77.5720523}, {"type": "node", "id": 3543320636, "lat": 12.8534685, "lon": 77.5100687}, {"type": "node", "id": 3543320637, "lat": 12.8534822, "lon": 77.5102618}, {"type": "node", "id": 3543320649, "lat": 12.853671, "lon": 77.5100536}, {"type": "node", "id": 3543320650, "lat": 12.8536847, "lon": 77.5102467}, {"type": "node", "id": 3546831488, "lat": 12.9209531, "lon": 77.5213014, "tags": {"amenity": "school", "name": "BET Convent"}}, {"type": "node", "id": 3671471962, "lat": 12.9082018, "lon": 77.525151}, {"type": "node", "id": 3671471963, "lat": 12.908172, "lon": 77.525923}, {"type": "node", "id": 4042347301, "lat": 12.9222631, "lon": 77.5238083}, {"type": "node", "id": 4042347303, "lat": 12.9225712, "lon": 77.5224757}, {"type": "node", "id": 4042347311, "lat": 12.9240784, "lon": 77.5241378}, {"type": "node", "id": 4042347315, "lat": 12.9241505, "lon": 77.5233054}, {"type": "node", "id": 4042347320, "lat": 12.9251911, "lon": 77.5231577}, {"type": "node", "id": 4042347321, "lat": 12.9252126, "lon": 77.5233348}, {"type": "node", "id": 4272686491, "lat": 12.8499585, "lon": 77.5060551, "tags": {"amenity": "school", "name": "The Study", "website": "https://thevalleyschool.info/", "wikidata": "Q7771945", "wikimedia_commons": "Category:The Valley School", "wikipedia": "en:The Valley School"}}, {"type": "node", "id": 4279512889, "lat": 12.8819897, "lon": 77.5825547, "tags": {"addr:postcode": "560078", "addr:street": "2nd Main Road", "amenity": "school", "name": "Little Aryans"}}, {"type": "node", "id": 4375210071, "lat": 12.891945, "lon": 77.585586}, {"type": "node", "id": 4375210074, "lat": 12.8920169, "lon": 77.585067}, {"type": "node", "id": 4375210086, "lat": 12.892617, "lon": 77.5855646}, {"type": "node", "id": 4375213590, "lat": 12.8926732, "lon": 77.5850482}, {"type": "node", "id": 4429032700, "lat": 12.8945723, "lon": 77.5555831}, {"type": "node", "id": 4429032701, "lat": 12.8943422, "lon": 77.5555375}, {"type": "node", "id": 4429032702, "lat": 12.894235, "lon": 77.5560123}, {"type": "node", "id": 4429032703, "lat": 12.8944206, "lon": 77.5560471}, {"type": "node", "id": 4429032704, "lat": 12.8945775, "lon": 77.5556368}, {"type": "node", "id": 4444314218, "lat": 12.8920481, "lon": 77.5719005, "tags": {"addr:city": "bengaluru", "addr:postcode": "571438", "addr:street": "Jakkana Kuppe Village", "amenity": "school", "name": "Greenvalley high school"}}, {"type": "node", "id": 4445144989, "lat": 12.8867987, "lon": 77.5675026, "tags": {"addr:postcode": "560062", "addr:street": "Konanakunte-Uttarahalli Road", "amenity": "school", "name": "Hani Foundation Montessori", "name:en": "Hani Foundation Montessori"}}, {"type": "node", "id": 4445177902, "lat": 12.913853, "lon": 77.5426932, "tags": {"addr:city": "BANGALORE", "addr:housenumber": "#27", "addr:postcode": "560061", "addr:street": "Banashankari 3rd Stage, Ramanjaneyanagar, Chikka Kalsandra, Arehalli, Uttarahalli Hobli", "amenity": "school", "name": "Sri Chaitanya Techno School"}}, {"type": "node", "id": 4445183051, "lat": 12.8963221, "lon": 77.5784799, "tags": {"addr:city": "BANGALORE", "addr:housenumber": "8 & 9", "addr:postcode": "560068", "addr:street": "Near R N S Motors, GB Palya, Hosur Road, Near Bommanahalli Signal, Bommasandra Industrial Area", "amenity": "school", "name": "Narayana e-Techno School", "phone": "+9170222 93935", "website": "narayanaetechnoschools.com"}}, {"type": "node", "id": 4456223691, "lat": 12.9030471, "lon": 77.5851583, "tags": {"addr:housenumber": "CMS Annex 319", "addr:postcode": "560 078", "addr:street": "17th Cross Road", "amenity": "school", "email": "bschool@cms.ac.in", "name": "CMS Business School, Jain University", "name:en": "CMS Business School, Jain University", "name:kn": "\u0cb8\u0cbf\u0c8e\u0c82\u0c8e\u0cb8\u0ccd \u0cac\u0cbf\u0cb8\u0cbf\u0ca8\u0cc6\u0cb8\u0ccd \u0cb8\u0ccd\u0c95\u0cc2\u0cb2\u0ccd, \u0c9c\u0cc8\u0ca8\u0ccd \u0cb5\u0cbf\u0cb6\u0ccd\u0cb5\u0cb5\u0cbf\u0ca6\u0ccd\u0caf\u0cbe\u0cb2\u0caf", "opening_hours": "Mo-Fr 09:00-17:00", "phone": "+91 80 4343 0400", "website": "http://www.bschool.cms.ac.in"}}, {"type": "node", "id": 4456280292, "lat": 12.8922387, "lon": 77.5655484, "tags": {"amenity": "school", "name": "RMS International School", "name:en": "RMS International School"}}, {"type": "node", "id": 4456338990, "lat": 12.8915698, "lon": 77.5652629, "tags": {"addr:street": "Kanakapura Road", "amenity": "school", "name": "NIIT", "name:en": "NIIT"}}, {"type": "node", "id": 4463206796, "lat": 12.9053331, "lon": 77.5533196, "tags": {"addr:postcode": "560061", "addr:street": "12th main road , BHCS layout", "amenity": "school", "name": "Bright Way School", "name:en": "Bright Way School", "opening_hours": "Mo-Sa 08:00-16:00"}}, {"type": "node", "id": 4636924346, "lat": 12.9062303, "lon": 77.5574621}, {"type": "node", "id": 4636924347, "lat": 12.9064228, "lon": 77.5576388}, {"type": "node", "id": 4636924348, "lat": 12.9060915, "lon": 77.5580747}, {"type": "node", "id": 4636924349, "lat": 12.905869, "lon": 77.5578928}, {"type": "node", "id": 4730100121, "lat": 12.9190232, "lon": 77.5587872}, {"type": "node", "id": 4730100122, "lat": 12.9195593, "lon": 77.5598001}, {"type": "node", "id": 4730100128, "lat": 12.9196718, "lon": 77.558875}, {"type": "node", "id": 4730100141, "lat": 12.9189107, "lon": 77.5597171}, {"type": "node", "id": 5015937708, "lat": 12.9251324, "lon": 77.4989348}, {"type": "node", "id": 5015937709, "lat": 12.9253957, "lon": 77.4992219}, {"type": "node", "id": 5015937710, "lat": 12.9258939, "lon": 77.4989426}, {"type": "node", "id": 5015937711, "lat": 12.9253158, "lon": 77.4979724}, {"type": "node", "id": 5015937712, "lat": 12.9248533, "lon": 77.4982645}, {"type": "node", "id": 5015937713, "lat": 12.9253544, "lon": 77.4988149}, {"type": "node", "id": 5103929761, "lat": 12.8938836, "lon": 77.556381, "tags": {"amenity": "school", "name": "Rays Academy For Learning"}}, {"type": "node", "id": 5810244740, "lat": 12.9002838, "lon": 77.5271779}, {"type": "node", "id": 5810244741, "lat": 12.899766, "lon": 77.5283243}, {"type": "node", "id": 5810244742, "lat": 12.8990741, "lon": 77.5282448}, {"type": "node", "id": 6075094429, "lat": 12.8998179, "lon": 77.5852413}, {"type": "node", "id": 6075094430, "lat": 12.8998535, "lon": 77.58579}, {"type": "node", "id": 6075094431, "lat": 12.9000723, "lon": 77.5857732}, {"type": "node", "id": 6075094432, "lat": 12.900052, "lon": 77.5855616}, {"type": "node", "id": 6075094433, "lat": 12.9000308, "lon": 77.58553}, {"type": "node", "id": 6075094434, "lat": 12.900027, "lon": 77.5854667}, {"type": "node", "id": 6075094435, "lat": 12.9000328, "lon": 77.585445}, {"type": "node", "id": 6075094436, "lat": 12.900027, "lon": 77.5852334}, {"type": "node", "id": 6081211670, "lat": 12.8999597, "lon": 77.5856543, "tags": {"amenity": "school", "name": "Tiny Angels English Primary School", "wheelchair": "limited"}}, {"type": "node", "id": 6276405887, "lat": 12.8620102, "lon": 77.5641166, "tags": {"addr:place": "Anjanapura", "amenity": "school", "isced:level": "2", "name": "GHPS Anjanapura", "name:kn": "\u0cb8\u0cb0\u0ccd\u0c95\u0cbe\u0cb0\u0cbf \u0cb9\u0cbf\u0cb0\u0cbf\u0caf \u0caa\u0ccd\u0cb0\u0cbe\u0ca5\u0cae\u0cbf\u0c95 \u0cb6\u0cbe\u0cb2\u0cc6 \u0c86\u0c82\u0c9c\u0ca8\u0caa\u0cc1\u0cb0", "operator": "Department of Education", "school": "primary"}}, {"type": "node", "id": 6347251126, "lat": 12.9003691, "lon": 77.5731862}, {"type": "node", "id": 6348741188, "lat": 12.885891, "lon": 77.5738805, "tags": {"addr:place": "Chunchana Gatta", "amenity": "school", "isced:level": "2", "name": "GHPS Chunchaghatta", "name:kn": "\u0cb8\u0cb0\u0ccd\u0c95\u0cbe\u0cb0\u0cbf \u0cb9\u0cbf\u0cb0\u0cbf\u0caf \u0caa\u0ccd\u0cb0\u0cbe\u0ca5\u0cae\u0cbf\u0c95 \u0cb6\u0cbe\u0cb2\u0cc6 \u0c9a\u0cc1\u0c82\u0c9a\u0ca8\u0c98\u0c9f\u0ccd\u0c9f", "not:operator:wikidata": "Q111467381", "operator": "Department of Education", "operator:type": "public", "school": "primary"}}, {"type": "node", "id": 6348790816, "lat": 12.8572549, "lon": 77.576942, "tags": {"addr:place": "Kembathhalli", "amenity": "school", "isced:level": "2", "name": "GHPS Kembathhalli", "name:kn": "\u0cb8\u0cb0\u0ccd\u0c95\u0cbe\u0cb0\u0cbf \u0cb9\u0cbf\u0cb0\u0cbf\u0caf \u0caa\u0ccd\u0cb0\u0cbe\u0ca5\u0cae\u0cbf\u0c95 \u0cb6\u0cbe\u0cb2\u0cc6 \u0c95\u0cc6\u0c82\u0cad\u0ca4\u0ccd \u0cb9\u0cb3\u0ccd\u0cb3\u0cbf", "operator": "Department of Education", "school": "primary"}}, {"type": "node", "id": 6348900704, "lat": 12.8764315, "lon": 77.5786186, "tags": {"addr:place": "Kothanur", "amenity": "school", "isced:level": "2", "name": "GHPS Kothanur", "name:kn": "\u0cb8\u0cb0\u0ccd\u0c95\u0cbe\u0cb0\u0cbf \u0cb9\u0cbf\u0cb0\u0cbf\u0caf \u0caa\u0ccd\u0cb0\u0cbe\u0ca5\u0cae\u0cbf\u0c95 \u0cb6\u0cbe\u0cb2\u0cc6 \u0c95\u0cca\u0ca4\u0ccd\u0ca4\u0ca8\u0cc2\u0cb0\u0ccd", "operator": "Department of Education", "school": "primary"}}, {"type": "node", "id": 6349173947, "lat": 12.8873821, "lon": 77.5688673, "tags": {"addr:place": "Konanakunte", "amenity": "school", "isced:level": "2", "name": "GHPS Konanakunte", "name:kn": "\u0cb8\u0cb0\u0ccd\u0c95\u0cbe\u0cb0\u0cbf \u0cb9\u0cbf\u0cb0\u0cbf\u0caf \u0caa\u0ccd\u0cb0\u0cbe\u0ca5\u0cae\u0cbf\u0c95 \u0cb6\u0cbe\u0cb2\u0cc6 \u0c95\u0ccb\u0ca3\u0ca8\u0c95\u0cc1\u0c82\u0c9f\u0cc6", "operator": "Department of Education", "school": "primary"}}, {"type": "node", "id": 6349178484, "lat": 12.8655347, "lon": 77.5815146, "tags": {"addr:place": "Jambusavari Dinne", "amenity": "school", "isced:level": "2", "name": "GHPS Jambusavari Dinne", "name:kn": "\u0cb8\u0cb0\u0ccd\u0c95\u0cbe\u0cb0\u0cbf \u0cb9\u0cbf\u0cb0\u0cbf\u0caf \u0caa\u0ccd\u0cb0\u0cbe\u0ca5\u0cae\u0cbf\u0c95 \u0cb6\u0cbe\u0cb2\u0cc6 \u0c9c\u0c82\u0cac\u0cc1\u0cb8\u0cb5\u0cbe\u0cb0\u0cbf \u0ca6\u0cbf\u0ca3\u0ccd\u0ca3\u0cc6", "operator": "Department of Education", "school": "primary"}}, {"type": "node", "id": 6349188814, "lat": 12.8474735, "lon": 77.5840074, "tags": {"addr:place": "Nekarara Colony", "amenity": "school", "isced:level": "2", "name": "Jnanajyothi HPS Nekarara Colony", "name:kn": "\u0c9c\u0ccd\u0c9e\u0cbe\u0ca8\u0c9c\u0ccd\u0caf\u0ccb\u0ca4\u0cbf \u0cb9\u0cbf\u0cb0\u0cbf\u0caf \u0caa\u0ccd\u0cb0\u0cbe\u0ca5\u0cae\u0cbf\u0c95 \u0cb6\u0cbe\u0cb2\u0cc6 \u0ca8\u0cc7\u0c95\u0cbe\u0cb0\u0cb0 \u0c95\u0cbe\u0cb2\u0ccb\u0ca8\u0cbf", "operator": "Local body", "school": "primary"}}, {"type": "node", "id": 6349192885, "lat": 12.8435532, "lon": 77.5850056, "tags": {"addr:place": "Nekarara Colony", "amenity": "school", "isced:level": "2", "name": "GMPS Nekarara Colony", "name:kn": "\u0cb8\u0cb0\u0ccd\u0c95\u0cbe\u0cb0\u0cbf \u0cb9\u0cbf\u0cb0\u0cbf\u0caf \u0caa\u0ccd\u0cb0\u0cbe\u0ca5\u0cae\u0cbf\u0c95 \u0cb6\u0cbe\u0cb2\u0cc6 \u0ca8\u0cc7\u0c95\u0cbe\u0cb0\u0cb0 \u0c95\u0cbe\u0cb2\u0ccb\u0ca8\u0cbf", "operator": "Department of Education", "school": "primary"}}, {"type": "node", "id": 6349500173, "lat": 12.8975384, "lon": 77.582022, "tags": {"addr:place": "Puttenhalli", "amenity": "school", "isced:level": "2", "name": "GMPS Puttenhalli", "name:kn": "\u0cb8\u0cb0\u0ccd\u0c95\u0cbe\u0cb0\u0cbf \u0cae\u0cbe\u0ca6\u0cb0\u0cbf \u0caa\u0ccd\u0cb0\u0cbe\u0ca5\u0cae\u0cbf\u0c95 \u0cb6\u0cbe\u0cb2\u0cc6 \u0caa\u0cc1\u0c9f\u0ccd\u0c9f\u0cc7\u0ca8\u0cb9\u0cb3\u0ccd\u0cb3\u0cbf", "operator": "Department of Education", "school": "primary"}}, {"type": "node", "id": 6349580757, "lat": 12.8772854, "lon": 77.5701703, "tags": {"addr:place": "Hari Nagar", "amenity": "school", "isced:level": "2", "name": "GKHPS Hari Nagar", "name:kn": "\u0cb8\u0cb0\u0ccd\u0c95\u0cbe\u0cb0\u0cbf \u0c95\u0ca8\u0ccd\u0ca8\u0ca1 \u0cb9\u0cbf\u0cb0\u0cbf\u0caf \u0caa\u0ccd\u0cb0\u0cbe\u0ca5\u0cae\u0cbf\u0c95 \u0cb6\u0cbe\u0cb2\u0cc6 \u0cb9\u0cb0\u0cbf\u0ca8\u0c97\u0cb0", "operator": "Department of Primary and Secondary Education", "operator:type": "government", "operator:wikidata": "Q111467381", "school": "primary"}}, {"type": "node", "id": 6349585531, "lat": 12.8779168, "lon": 77.5704224, "tags": {"addr:place": "Hari Nagar", "amenity": "school", "isced:level": "2", "name": "GULPS Hari Nagar", "name:kn": "\u0cb8\u0cb0\u0ccd\u0c95\u0cbe\u0cb0\u0cbf \u0c89\u0cb0\u0ccd\u0ca6\u0cc1 \u0caa\u0ccd\u0cb0\u0cbe\u0ca5\u0cae\u0cbf\u0c95 \u0cb6\u0cbe\u0cb2\u0cc6 \u0cb9\u0cb0\u0cbf\u0ca8\u0c97\u0cb0", "operator": "Department of Education", "school": "primary"}}, {"type": "node", "id": 6400386412, "lat": 12.8586411, "lon": 77.5626375, "tags": {"addr:place": "Anjanapura", "amenity": "school", "isced:level": "3", "name": "Florence Public School 4th Blk, Anjanapura", "name:kn": "\u0cab\u0ccd\u0cb2\u0cbe\u0cb0\u0cc6\u0ca8\u0ccd\u0cb8\u0ccd \u0caa\u0cac\u0ccd\u0cb2\u0cbf\u0c95\u0ccd \u0cb6\u0cbe\u0cb2\u0cc6 \u0cea\u0ca8\u0cc7 \u0cac\u0ccd\u0cb2\u0cbe\u0c95\u0ccd, \u0c86\u0c82\u0c9c\u0ca8\u0cbe\u0caa\u0cc1\u0cb0", "operator": "Private Un-Aided", "school": "Higher Secondary"}}, {"type": "node", "id": 6400392576, "lat": 12.8598087, "lon": 77.5677765, "tags": {"addr:place": "Anjanapura", "amenity": "school", "isced:level": "3", "name": "Mvs HPS, Anjanapura", "name:kn": "\u0c8e\u0c82.\u0cb5\u0cbf.\u0c8e\u0cb8\u0ccd \u0cb9\u0cbf\u0cb0\u0cbf\u0caf \u0caa\u0ccd\u0cb0\u0cbe\u0ca5\u0cae\u0cbf\u0c95 \u0cb6\u0cbe\u0cb2\u0cc6 ,\u0c86\u0c82\u0c9c\u0ca8\u0cbe\u0caa\u0cc1\u0cb0", "operator": "Private Un-Aided", "school": "Higher secondary"}}, {"type": "node", "id": 6434211513, "lat": 12.861674, "lon": 77.5320585}, {"type": "node", "id": 6434211514, "lat": 12.8617864, "lon": 77.5321081}, {"type": "node", "id": 6434211515, "lat": 12.8618897, "lon": 77.5321363}, {"type": "node", "id": 6434211516, "lat": 12.8620544, "lon": 77.5321524}, {"type": "node", "id": 6434211517, "lat": 12.8622662, "lon": 77.5321618}, {"type": "node", "id": 6434211518, "lat": 12.8622636, "lon": 77.5315717}, {"type": "node", "id": 6434211519, "lat": 12.8624208, "lon": 77.5315818}, {"type": "node", "id": 6434211520, "lat": 12.8627256, "lon": 77.530915}, {"type": "node", "id": 6434211521, "lat": 12.8626637, "lon": 77.5308099}, {"type": "node", "id": 6434211522, "lat": 12.8625003, "lon": 77.5306329}, {"type": "node", "id": 6434211523, "lat": 12.8624453, "lon": 77.5305699}, {"type": "node", "id": 6434211526, "lat": 12.862278, "lon": 77.530952}, {"type": "node", "id": 6434211529, "lat": 12.862055, "lon": 77.5308483}, {"type": "node", "id": 6434211531, "lat": 12.861891, "lon": 77.5312069}, {"type": "node", "id": 6434211535, "lat": 12.8616589, "lon": 77.5315402}, {"type": "node", "id": 6434211536, "lat": 12.8616119, "lon": 77.5315167}, {"type": "node", "id": 6434211537, "lat": 12.8615648, "lon": 77.5315087}, {"type": "node", "id": 6434211538, "lat": 12.861489, "lon": 77.5315657}, {"type": "node", "id": 6434211539, "lat": 12.8613863, "lon": 77.5316589}, {"type": "node", "id": 6434211540, "lat": 12.8612987, "lon": 77.5317615}, {"type": "node", "id": 6434211541, "lat": 12.8614792, "lon": 77.5319023}, {"type": "node", "id": 6434211542, "lat": 12.8615406, "lon": 77.5319613}, {"type": "node", "id": 6438101117, "lat": 12.8898311, "lon": 77.5728954, "tags": {"addr:place": "Chunchanagatta", "amenity": "school", "isced:level": "3", "name": "Carmel Jyothi LPS, Chunchanagatta", "name:kn": "\u0c95\u0cbe\u0cb0\u0ccd\u0cae\u0cc6\u0cb2\u0ccd \u0c9c\u0ccd\u0caf\u0ccb\u0ca4\u0cbf \u0c95\u0cbf\u0cb0\u0cbf\u0caf \u0caa\u0ccd\u0cb0\u0cbe\u0ca5\u0cae\u0cbf\u0c95 \u0cb6\u0cbe\u0cb2\u0cc6 , \u0c9a\u0cc1\u0c82\u0c9a\u0ca8\u0c97\u0c9f\u0ccd\u0c9f\u0cbe", "operator": "Private Un-Aided", "school": "Higher Secondary"}}, {"type": "node", "id": 6496798356, "lat": 12.8569301, "lon": 77.5854776, "tags": {"addr:place": "Gottigere", "amenity": "school", "isced:level": "3", "name": "Silicon Vally LPS Gottigere", "name:kn": "\u0cb8\u0cbf\u0cb2\u0cbf\u0c95\u0cbe\u0ca8\u0ccd \u0cb5\u0ccd\u0caf\u0cbe\u0cb2\u0cbf \u0c95\u0cbf\u0cb0\u0cbf\u0caf \u0caa\u0ccd\u0cb0\u0cbe\u0ca5\u0cae\u0cbf\u0c95 \u0cb6\u0cbe\u0cb2\u0cc6 \u0c97\u0cca\u0c9f\u0ccd\u0c9f\u0cbf\u0c97\u0cc6\u0cb0\u0cc6", "operator": "Private Un-Aided", "school": "Higher Secondary"}}, {"type": "node", "id": 6496810726, "lat": 12.8656934, "lon": 77.5860168, "tags": {"addr:place": "Gottigere", "amenity": "school", "isced:level": "2", "name": "Sri Ramakrishna C E Kendra,Gottigere", "name:kn": "\u0cb6\u0ccd\u0cb0\u0cc0 \u0cb0\u0cbe\u0cae\u0c95\u0cc3\u0cb7\u0ccd\u0ca3 \u0cb8\u0cbf \u0c87 \u0c95\u0cc7\u0c82\u0ca6\u0ccd\u0cb0 \u0c97\u0cca\u0c9f\u0ccd\u0c9f\u0cbf\u0c97\u0cc6\u0cb0\u0cc6", "operator": "Private Aided", "school": "Higher Primary"}}, {"type": "node", "id": 6531907477, "lat": 12.9032482, "lon": 77.5787159, "tags": {"addr:place": "Jaraganahalli", "amenity": "school", "isced:level": "3", "name": "Thrishool School J P Nagar, Jaragana Halli 1", "name:kn": "\u0ca4\u0ccd\u0cb0\u0cbf\u0cb6\u0cc2\u0cb2\u0ccd \u0cb6\u0cbe\u0cb2\u0cc6 \u0c9c\u0cc6.\u0caa\u0cbf. \u0ca8\u0c97\u0cb0,\u0c9c\u0cb0\u0c97\u0ca8 \u0cb9\u0cb3\u0ccd\u0cb3\u0cbf", "operator": "Private Un-Aided", "school": "Higher Secondary"}}, {"type": "node", "id": 6531919903, "lat": 12.8951036, "lon": 77.5703915, "tags": {"addr:place": "Jaraganahalli", "amenity": "school", "isced:level": "3", "name": "Jyothi Kendriya Vidyalaya HPS, Jaragana Halli 1", "name:kn": "\u0c9c\u0ccd\u0caf\u0ccb\u0ca4\u0cbf \u0c95\u0cc7\u0c82\u0ca6\u0ccd\u0cb0\u0cc0\u0caf \u0cb5\u0cbf\u0ca6\u0ccd\u0caf\u0cbe\u0cb2\u0caf \u0cb9\u0cbf\u0cb0\u0cbf\u0caf \u0caa\u0ccd\u0cb0\u0cbe\u0ca5\u0cae\u0cbf\u0c95 \u0cb6\u0cbe\u0cb2\u0cc6,\u0c9c\u0cb0\u0c97\u0ca8 \u0cb9\u0cb3\u0ccd\u0cb3\u0cbf", "operator": "Private Un-Aided", "school": "Higher Secondary"}}, {"type": "node", "id": 6531943351, "lat": 12.9020965, "lon": 77.57588, "tags": {"addr:place": "Jaraganahalli", "amenity": "school", "isced:level": "2", "name": "Sri Vidyanikethan HPS Jaragana, Jaragana Halli 1", "name:kn": "\u0cb6\u0ccd\u0cb0\u0cc0 \u0cb5\u0cbf\u0ca6\u0ccd\u0caf\u0cbe\u0ca8\u0cbf\u0c95\u0cc6\u0ca5\u0ca8\u0ccd \u0cb9\u0cbf\u0cb0\u0cbf\u0caf \u0caa\u0ccd\u0cb0\u0cbe\u0ca5\u0cae\u0cbf\u0c95 \u0cb6\u0cbe\u0cb2\u0cc6 \u0c9c\u0cb0\u0c97\u0ca8 \u0cb9\u0cb3\u0ccd\u0cb3\u0cbf", "operator": "Private Un-Aided", "school": "Higher Primary"}}, {"type": "node", "id": 6531954352, "lat": 12.8991056, "lon": 77.5763195, "tags": {"addr:place": "Jaraganahalli", "amenity": "school", "isced:level": "2", "name": "Vivekananda HPS, Jaragana Halli 1", "name:kn": "\u0cb5\u0cbf\u0cb5\u0cc7\u0c95\u0cbe\u0ca8\u0c82\u0ca6 \u0cb9\u0cbf\u0cb0\u0cbf\u0caf \u0caa\u0ccd\u0cb0\u0cbe\u0ca5\u0cae\u0cbf\u0c95 \u0cb6\u0cbe\u0cb2\u0cc6,\u0c9c\u0cb0\u0c97\u0ca8 \u0cb9\u0cb3\u0ccd\u0cb3\u0cbf", "operator": "Private Un-Aided", "school": "Higher Primary"}}, {"type": "node", "id": 6531963628, "lat": 12.9040441, "lon": 77.574382, "tags": {"addr:place": "Jaraganahalli", "amenity": "school", "isced:level": "3", "name": "Shreyas School Jaraganahalli, Jaragana Halli 1", "name:kn": "\u0cb6\u0ccd\u0cb0\u0cc7\u0caf\u0cb8\u0ccd \u0cb6\u0cbe\u0cb2\u0cc6 \u0c9c\u0cb0\u0c97\u0ca8 \u0cb9\u0cb3\u0ccd\u0cb3\u0cbf", "operator": "Private Un-Aided", "school": "Higher Secondary"}}, {"type": "node", "id": 6536295717, "lat": 12.8996164, "lon": 77.5756288, "tags": {"addr:place": "Jaraganahalli", "amenity": "school", "isced:level": "2", "name": "Sincere Vidyalaya Jaraganahalli 1", "name:kn": "\u0cb8\u0cbf\u0ca8\u0ccd\u0cb8\u0cc6\u0cb0\u0cc6  \u0cb5\u0cbf\u0ca6\u0ccd\u0caf\u0cbe\u0cb2\u0caf \u0c9c\u0cb0\u0c97\u0ca8 \u0cb9\u0cb3\u0ccd\u0cb3\u0cbf", "operator": "Private Un-Aided", "school": "Higher Primary"}}, {"type": "node", "id": 6536296413, "lat": 12.9004587, "lon": 77.5851709, "tags": {"addr:place": "Jaraganahalli", "amenity": "school", "isced:level": "3", "name": "Image School J P Nagar, Jaraganahalli 2", "name:kn": "\u0c87\u0cae\u0cc7\u0c9c\u0ccd \u0cb6\u0cbe\u0cb2\u0cc6 \u0c9c\u0cc6.\u0caa\u0cbf.\u0ca8\u0c97\u0cb0,\u0c9c\u0cb0\u0c97\u0ca8 \u0cb9\u0cb3\u0ccd\u0cb3\u0cbf", "operator": "Private Un-Aided", "school": "Higher Secondary"}}, {"type": "node", "id": 6536353060, "lat": 12.8773193, "lon": 77.5834526, "tags": {"addr:place": "Kothanur", "amenity": "school", "isced:level": "3", "name": "The Little Angels School, Kothanur", "name:kn": "\u0cb2\u0cbf\u0c9f\u0cb2\u0ccd \u0c8f\u0c82\u0c9c\u0cb2\u0ccd \u0cb6\u0cbe\u0cb2\u0cc6,\u0c95\u0cca\u0ca4\u0ccd\u0ca4\u0ca8\u0cc2\u0cb0\u0cc1", "operator": "Private Un-Aided", "school": "Higher Secondary"}}, {"type": "node", "id": 6536359408, "lat": 12.881709, "lon": 77.5759556, "tags": {"addr:place": "Kothanur", "amenity": "school", "isced:level": "3", "name": "Sri Maruthi Edu Trust School Kothanur", "name:kn": "\u0cb6\u0ccd\u0cb0\u0cc0 \u0cae\u0cbe\u0cb0\u0cc1\u0ca4\u0cbf \u0c95\u0cca\u0ca4\u0ccd\u0ca4\u0ca8\u0cc2\u0cb0\u0cc1 \u0c8e\u0c9c\u0cc1\u0c95\u0cc7\u0cb6\u0ca8\u0ccd \u0c9f\u0ccd\u0cb0\u0cb8\u0ccd\u0c9f\u0ccd \u0c95\u0cca\u0ca4\u0ccd\u0ca4\u0ca8\u0cc2\u0cb0\u0cc1", "operator": "Private Un-Aided", "school": "Higher Secondary"}}, {"type": "node", "id": 6536363498, "lat": 12.8732088, "lon": 77.5744133, "tags": {"addr:place": "Kothanur", "amenity": "school", "isced:level": "1", "name": "Sri Sarathy English School, Kothanur", "name:kn": "\u0cb6\u0ccd\u0cb0\u0cc0 \u0cb8\u0cbe\u0cb0\u0ca5\u0cbf \u0c86\u0c82\u0c97\u0ccd\u0cb2 \u0cb6\u0cbe\u0cb2\u0cc6,\u0c95\u0cca\u0ca4\u0ccd\u0ca4\u0ca8\u0cc2\u0cb0\u0cc1", "operator": "Private Un-Aided", "school": "primary"}}, {"type": "node", "id": 6536364433, "lat": 12.8767474, "lon": 77.5725941, "tags": {"addr:place": "Kothanur", "amenity": "school", "isced:level": "3", "name": "Ennar School Aadithya Nagar, Kothanur", "name:kn": "\u0c8e\u0ca8\u0ccd\u0ca8\u0cbe\u0cb0\u0ccd \u0cb6\u0cbe\u0cb2\u0cc6 \u0c86\u0ca6\u0cbf\u0ca4\u0ccd\u0caf \u0ca8\u0c97\u0cb0, \u0c95\u0cca\u0ca4\u0ccd\u0ca4\u0ca8\u0cc2\u0cb0\u0cc1", "operator": "Private Un-Aided", "school": "Higher Secondary"}}, {"type": "node", "id": 6536381254, "lat": 12.8755011, "lon": 77.5806222, "tags": {"addr:place": "Kothanur", "amenity": "school", "isced:level": "2", "name": "A E T School Sree Annapoornesh, Kothanur", "name:kn": "\u0c8e.\u0c87.\u0c9f\u0cbf. \u0cb6\u0cbe\u0cb2\u0cc6 \u0cb6\u0ccd\u0cb0\u0cc0 \u0c85\u0ca8\u0ccd\u0ca8\u0caa\u0cc2\u0cb0\u0ccd\u0ca3\u0cc7\u0cb6\u0ccd,\u0c95\u0cca\u0ca4\u0ccd\u0ca4\u0ca8\u0cc2\u0cb0\u0cc1", "operator": "Private Un-Aided", "school": "Higher primary"}}, {"type": "node", "id": 6536384146, "lat": 12.8825158, "lon": 77.5758676, "tags": {"addr:place": "Kothanur", "amenity": "school", "isced:level": "3", "name": "Glissy Public School, Kothanur", "name:kn": "\u0c97\u0ccd\u0cb2\u0cbf\u0cb8\u0cbf \u0caa\u0cac\u0ccd\u0cb2\u0cbf\u0c95\u0ccd \u0cb6\u0cbe\u0cb2\u0cc6,\u0c95\u0cca\u0ca4\u0ccd\u0ca4\u0ca8\u0cc2\u0cb0\u0cc1", "operator": "Private Un-Aided", "school": "Higher Secondary"}}, {"type": "node", "id": 6536386707, "lat": 12.8833878, "lon": 77.5837275, "tags": {"addr:place": "Kothanur", "amenity": "school", "isced:level": "3", "name": "Lady Wellington School, Kothanur", "name:kn": "\u0cb2\u0cc7\u0ca1\u0cbf \u0cb5\u0cc6\u0cb2\u0ccd\u0cb2\u0cbf\u0c82\u0c97\u0ccd\u0c9f\u0ca8\u0ccd \u0cb6\u0cbe\u0cb2\u0cc6, \u0c95\u0cca\u0ca4\u0ccd\u0ca4\u0ca8\u0cc2\u0cb0\u0cc1", "operator": "Private Un-Aided", "school": "Higher Secondary"}}, {"type": "node", "id": 6536406541, "lat": 12.8787866, "lon": 77.5777581, "tags": {"addr:place": "Kothanur", "amenity": "school", "isced:level": "3", "name": "Jnanavikas HPS, Kothanur", "name:kn": "\u0c9c\u0ccd\u0c9e\u0cbe\u0ca8 \u0cb5\u0cbf\u0c95\u0cbe\u0cb8\u0ccd \u0cb9\u0cbf\u0cb0\u0cbf\u0caf \u0caa\u0ccd\u0cb0\u0cbe\u0ca5\u0cae\u0cbf\u0c95 \u0cb6\u0cbe\u0cb2\u0cc6, \u0c95\u0cca\u0ca4\u0ccd\u0ca4\u0ca8\u0cc2\u0cb0\u0cc1", "operator": "Private Un-Aided", "school": "Higher Secondary"}}, {"type": "node", "id": 6536421096, "lat": 12.8686079, "lon": 77.5841946, "tags": {"addr:place": "Kothanur", "amenity": "school", "isced:level": "2", "name": "Vidyakirana Public School, Kothanur", "name:kn": "\u0cb5\u0cbf\u0ca6\u0ccd\u0caf\u0cbe\u0c95\u0cbf\u0cb0\u0ca3 \u0caa\u0cac\u0ccd\u0cb2\u0cbf\u0c95\u0ccd \u0cb6\u0cbe\u0cb2\u0cc6 \u0c95\u0cca\u0ca4\u0ccd\u0ca4\u0ca8\u0cc2\u0cb0\u0cc1", "operator": "Private Un-Aided", "school": "Higher primary"}}, {"type": "node", "id": 6536612869, "lat": 12.8779934, "lon": 77.5846361, "tags": {"addr:place": "Kothanur", "amenity": "school", "isced:level": "2", "name": "Clever Land Kottanuru Dinne, Kothanur", "name:kn": "\u0c95\u0ccd\u0cb2\u0cb5\u0cc6\u0cb0\u0ccd \u0cb2\u0ccd\u0caf\u0cbe\u0c82\u0ca1\u0ccd \u0ca6\u0cbf\u0ca3\u0ccd\u0ca3\u0cc6 \u0c95\u0cca\u0ca4\u0ccd\u0ca4\u0ca8\u0cc2\u0cb0\u0cc1", "operator": "Private Un-Aided", "school": "Higher Primary"}}, {"type": "node", "id": 6681252707, "lat": 12.8738653, "lon": 77.5589454}, {"type": "node", "id": 6681252708, "lat": 12.8735429, "lon": 77.5596766}, {"type": "node", "id": 6681252709, "lat": 12.8742204, "lon": 77.5600852}, {"type": "node", "id": 6681252710, "lat": 12.8742966, "lon": 77.5593168}, {"type": "node", "id": 6681285587, "lat": 12.8743114, "lon": 77.559466}, {"type": "node", "id": 6681297603, "lat": 12.874328, "lon": 77.5596568}, {"type": "node", "id": 6745463978, "lat": 12.8493518, "lon": 77.5819746, "tags": {"addr:place": "Pillagana Halli", "amenity": "school", "isced:level": "1", "name": "GLPS Pillagana Halli", "name:kn": "\u0cb8\u0cb0\u0ccd\u0c95\u0cbe\u0cb0\u0cbf \u0c95\u0cbf\u0cb0\u0cbf\u0caf \u0caa\u0ccd\u0cb0\u0cbe\u0ca5\u0cae\u0cbf\u0c95 \u0cb6\u0cbe\u0cb2\u0cc6 \u0caa\u0cbf\u0cb3\u0ccd\u0cb3\u0c97\u0ca8\u0cb9\u0cb3\u0ccd\u0cb3\u0cbf", "operator": "Department of Education", "school": "primary"}}, {"type": "node", "id": 6813444935, "lat": 12.9252112, "lon": 77.4990179, "tags": {"access": "private", "barrier": "gate"}}, {"type": "node", "id": 6875299690, "lat": 12.9252279, "lon": 77.5041354}, {"type": "node", "id": 6875299691, "lat": 12.9259991, "lon": 77.5042293}, {"type": "node", "id": 6875299692, "lat": 12.9259756, "lon": 77.5047174}, {"type": "node", "id": 7195152634, "lat": 12.9251442, "lon": 77.5049079}, {"type": "node", "id": 7195152635, "lat": 12.9245364, "lon": 77.5043446}, {"type": "node", "id": 7195152636, "lat": 12.9248018, "lon": 77.5039034}, {"type": "node", "id": 7195152638, "lat": 12.9254436, "lon": 77.5050218}, {"type": "node", "id": 7236242031, "lat": 12.8833258, "lon": 77.5593728}, {"type": "node", "id": 7236242032, "lat": 12.8831454, "lon": 77.5599897}, {"type": "node", "id": 7236242033, "lat": 12.8829938, "lon": 77.5612316}, {"type": "node", "id": 7236242034, "lat": 12.8832474, "lon": 77.5618377}, {"type": "node", "id": 7236242035, "lat": 12.8834226, "lon": 77.5599521}, {"type": "node", "id": 7236242036, "lat": 12.8835324, "lon": 77.5594291}, {"type": "node", "id": 7236242083, "lat": 12.8834121, "lon": 77.5618752}, {"type": "node", "id": 7236242084, "lat": 12.8836997, "lon": 77.5600165}, {"type": "node", "id": 7236242191, "lat": 12.8772152, "lon": 77.5680417}, {"type": "node", "id": 7236242192, "lat": 12.8782402, "lon": 77.5685191}, {"type": "node", "id": 7298163585, "lat": 12.848586, "lon": 77.5420202}, {"type": "node", "id": 7298163634, "lat": 12.846903, "lon": 77.5432193}, {"type": "node", "id": 7298163635, "lat": 12.8469141, "lon": 77.5419251}, {"type": "node", "id": 7298163651, "lat": 12.8478603, "lon": 77.5420001}, {"type": "node", "id": 7298163652, "lat": 12.8489377, "lon": 77.5420591}, {"type": "node", "id": 7298163653, "lat": 12.8487913, "lon": 77.5436309}, {"type": "node", "id": 7298163654, "lat": 12.8484748, "lon": 77.5437677}, {"type": "node", "id": 7298163655, "lat": 12.8479074, "lon": 77.543706}, {"type": "node", "id": 7298163656, "lat": 12.8479074, "lon": 77.5433466}, {"type": "node", "id": 7298163657, "lat": 12.8469869, "lon": 77.5432205}, {"type": "node", "id": 7298163658, "lat": 12.8458389, "lon": 77.5432044}, {"type": "node", "id": 7298163659, "lat": 12.8448242, "lon": 77.5431722}, {"type": "node", "id": 7298163660, "lat": 12.8448425, "lon": 77.5429255}, {"type": "node", "id": 7298163661, "lat": 12.843688, "lon": 77.5426452}, {"type": "node", "id": 7298163662, "lat": 12.8437599, "lon": 77.5419009}, {"type": "node", "id": 7298163663, "lat": 12.8438619, "lon": 77.5418231}, {"type": "node", "id": 7298163664, "lat": 12.8439978, "lon": 77.5418016}, {"type": "node", "id": 7298163665, "lat": 12.8440894, "lon": 77.5417587}, {"type": "node", "id": 7298265930, "lat": 12.8511448, "lon": 77.5207007}, {"type": "node", "id": 7298265931, "lat": 12.8505277, "lon": 77.5209743}, {"type": "node", "id": 8809336714, "lat": 12.8777003, "lon": 77.5853151}, {"type": "node", "id": 9611168911, "lat": 12.9219385, "lon": 77.5760029}, {"type": "node", "id": 9611168912, "lat": 12.9219463, "lon": 77.5750066}, {"type": "node", "id": 9611168913, "lat": 12.9221058, "lon": 77.5750415}, {"type": "node", "id": 9611168914, "lat": 12.9230823, "lon": 77.5760371}, {"type": "node", "id": 9611168916, "lat": 12.9236698, "lon": 77.5783575, "tags": {"amenity": "school", "name": "FAME India"}}, {"type": "node", "id": 9692963088, "lat": 12.9248331, "lon": 77.5046423}, {"type": "node", "id": 9692963091, "lat": 12.9256148, "lon": 77.504983}, {"type": "node", "id": 9919570146, "lat": 12.8777329, "lon": 77.5855887}, {"type": "node", "id": 9919570195, "lat": 12.8641987, "lon": 77.5837406}, {"type": "node", "id": 9919570199, "lat": 12.8658369, "lon": 77.5858355}, {"type": "node", "id": 9919570200, "lat": 12.8662853, "lon": 77.5842503}, {"type": "node", "id": 9919570222, "lat": 12.8668214, "lon": 77.5879839}, {"type": "node", "id": 9919570227, "lat": 12.8670541, "lon": 77.5873804}, {"type": "node", "id": 9919570228, "lat": 12.8668972, "lon": 77.5878257}, {"type": "node", "id": 9919570229, "lat": 12.8667142, "lon": 77.5872731}, {"type": "node", "id": 9966219013, "lat": 12.9236467, "lon": 77.557623}, {"type": "node", "id": 9966219014, "lat": 12.9227642, "lon": 77.5574089}, {"type": "node", "id": 9966219015, "lat": 12.9226822, "lon": 77.5577643}, {"type": "node", "id": 9966219016, "lat": 12.9235648, "lon": 77.5579784}, {"type": "node", "id": 10233431244, "lat": 12.875934, "lon": 77.5620496}, {"type": "node", "id": 10233431366, "lat": 12.889119, "lon": 77.5377029}, {"type": "node", "id": 10245038163, "lat": 12.9120517, "lon": 77.5135177}, {"type": "node", "id": 10245038164, "lat": 12.9120648, "lon": 77.5131663}, {"type": "node", "id": 10245038167, "lat": 12.9134923, "lon": 77.5114658}, {"type": "node", "id": 10245038168, "lat": 12.913291, "lon": 77.5125334}, {"type": "node", "id": 10245038169, "lat": 12.9134295, "lon": 77.5125414}, {"type": "node", "id": 10245038170, "lat": 12.9133982, "lon": 77.5135446}, {"type": "node", "id": 10607507405, "lat": 12.8999129, "lon": 77.5730709}, {"type": "node", "id": 10607507406, "lat": 12.8998749, "lon": 77.5735979}, {"type": "node", "id": 10607507407, "lat": 12.9003286, "lon": 77.5736582}, {"type": "node", "id": 10801985095, "lat": 12.8708103, "lon": 77.5426386, "tags": {"addr:city": "Bangalore", "addr:postcode": "560062", "addr:street": "Kumarans School Holiday Village Road", "amenity": "school", "name": "Chethana Public School", "name:ta": "\u0b9a\u0bc7\u0ba4\u0bcd\u0ba4\u0ba9\u0bbe \u0baa\u0baa\u0bcd\u0bb3\u0bbf\u0b95\u0bcd \u0baa\u0bb3\u0bcd\u0bb3\u0bbf"}}, {"type": "node", "id": 10931529977, "lat": 12.8753065, "lon": 77.5613388}, {"type": "node", "id": 10931529983, "lat": 12.8762112, "lon": 77.5621647}, {"type": "node", "id": 10931529984, "lat": 12.8764622, "lon": 77.5616366}, {"type": "node", "id": 10931529985, "lat": 12.875466, "lon": 77.560966}, {"type": "node", "id": 10931530057, "lat": 12.876789, "lon": 77.5687122}, {"type": "node", "id": 10931530058, "lat": 12.8779552, "lon": 77.5692138}, {"type": "node", "id": 10931530118, "lat": 12.8836452, "lon": 77.5603805}, {"type": "node", "id": 10931530119, "lat": 12.8836735, "lon": 77.5601917}, {"type": "node", "id": 10931530134, "lat": 12.893136, "lon": 77.5642242}, {"type": "node", "id": 11045697439, "lat": 12.8674784, "lon": 77.5413135}, {"type": "node", "id": 11092658696, "lat": 12.8496987, "lon": 77.5064528}, {"type": "node", "id": 11092658697, "lat": 12.850848, "lon": 77.5065842}, {"type": "node", "id": 11096302708, "lat": 12.8509322, "lon": 77.5082882}, {"type": "node", "id": 11096302709, "lat": 12.850002, "lon": 77.5083894}, {"type": "node", "id": 11096302710, "lat": 12.8496176, "lon": 77.508266}, {"type": "node", "id": 11096302711, "lat": 12.8498635, "lon": 77.5077054}, {"type": "node", "id": 11124698325, "lat": 12.864617, "lon": 77.5869191}, {"type": "node", "id": 11124698326, "lat": 12.8657493, "lon": 77.5872248}, {"type": "node", "id": 11124698327, "lat": 12.8656813, "lon": 77.587477}, {"type": "node", "id": 11124698328, "lat": 12.8665573, "lon": 77.5876701}, {"type": "node", "id": 11153618103, "lat": 12.903015, "lon": 77.5318667}, {"type": "node", "id": 11153618104, "lat": 12.9026332, "lon": 77.5318171}, {"type": "node", "id": 11153618105, "lat": 12.9025783, "lon": 77.5324407}, {"type": "node", "id": 11153618106, "lat": 12.9032398, "lon": 77.5324287}, {"type": "node", "id": 11153618107, "lat": 12.9033052, "lon": 77.5320478}, {"type": "node", "id": 11153618108, "lat": 12.9023757, "lon": 77.5337899}, {"type": "node", "id": 11153618109, "lat": 12.9023182, "lon": 77.5342324}, {"type": "node", "id": 11153618110, "lat": 12.9033248, "lon": 77.534278}, {"type": "node", "id": 11153618111, "lat": 12.9034084, "lon": 77.5338086}, {"type": "node", "id": 11153618127, "lat": 12.8972617, "lon": 77.5280446}, {"type": "node", "id": 11153618128, "lat": 12.897497, "lon": 77.5271407}, {"type": "node", "id": 11153618129, "lat": 12.8990913, "lon": 77.5272129}, {"type": "node", "id": 11153618130, "lat": 12.8977114, "lon": 77.5269583}, {"type": "node", "id": 11153618131, "lat": 12.8977454, "lon": 77.5268134}, {"type": "node", "id": 11153618132, "lat": 12.8968617, "lon": 77.5265774}, {"type": "node", "id": 11153618133, "lat": 12.896731, "lon": 77.5279239}, {"type": "node", "id": 11178768417, "lat": 12.8606762, "lon": 77.5427075, "tags": {"addr:street": "Vaibhava Sumukha Enclave Phase -1, Holiday Village Resort Road, Off Kanakapura Road, Mallasandra, Bengaluru", "amenity": "school", "name": "Cohesion Montessori"}}, {"type": "node", "id": 11279634342, "lat": 12.9242829, "lon": 77.544689}, {"type": "node", "id": 11279634343, "lat": 12.9243195, "lon": 77.5445656}, {"type": "node", "id": 11279634344, "lat": 12.923875, "lon": 77.5444195}, {"type": "node", "id": 11279634345, "lat": 12.923696, "lon": 77.5452241}, {"type": "node", "id": 11279634346, "lat": 12.9243521, "lon": 77.5451222}, {"type": "node", "id": 11279634347, "lat": 12.9244384, "lon": 77.544744}, {"type": "node", "id": 11387258970, "lat": 12.9235283, "lon": 77.5240521}, {"type": "node", "id": 11549160980, "lat": 12.878567, "lon": 77.5854667}, {"type": "node", "id": 11549160981, "lat": 12.8786991, "lon": 77.5857134}, {"type": "node", "id": 11549160982, "lat": 12.8778181, "lon": 77.5861517}, {"type": "node", "id": 11586844151, "lat": 12.8497484, "lon": 77.5209689}, {"type": "node", "id": 11586844152, "lat": 12.8498347, "lon": 77.5212371}, {"type": "node", "id": 11618277667, "lat": 12.8662481, "lon": 77.5410318}, {"type": "node", "id": 11618278570, "lat": 12.8664344, "lon": 77.5410882}, {"type": "node", "id": 11741744712, "lat": 12.9040372, "lon": 77.5616627}, {"type": "node", "id": 11757261391, "lat": 12.9229929, "lon": 77.5239661}, {"type": "node", "id": 11763280918, "lat": 12.883501, "lon": 77.5608614}, {"type": "node", "id": 11799150187, "lat": 12.9041372, "lon": 77.5667737}, {"type": "node", "id": 11799150188, "lat": 12.904232, "lon": 77.5665175}, {"type": "node", "id": 11799150189, "lat": 12.9040137, "lon": 77.5663821}, {"type": "node", "id": 11799150190, "lat": 12.9039281, "lon": 77.5666858}, {"type": "node", "id": 11799150239, "lat": 12.9044961, "lon": 77.561473}, {"type": "node", "id": 11799150240, "lat": 12.904367, "lon": 77.5617831}, {"type": "node", "id": 11799150241, "lat": 12.904164, "lon": 77.5613254}, {"type": "node", "id": 11801321890, "lat": 12.8999129, "lon": 77.5720274}, {"type": "node", "id": 11801321891, "lat": 12.8999887, "lon": 77.5713596}, {"type": "node", "id": 11801321892, "lat": 12.9006057, "lon": 77.5715339}, {"type": "node", "id": 11801321893, "lat": 12.9005124, "lon": 77.5721053}, {"type": "node", "id": 11801895911, "lat": 12.9054582, "lon": 77.5597765, "tags": {"amenity": "school", "name": "Samskruthi Public School"}}, {"type": "node", "id": 11813225340, "lat": 12.9043117, "lon": 77.568727, "tags": {"amenity": "school", "name": "New Era Primary & High School"}}, {"type": "node", "id": 11813225524, "lat": 12.9036411, "lon": 77.5680175, "tags": {"amenity": "school", "name": "St. Thomas International School"}}, {"type": "node", "id": 11813288603, "lat": 12.9030097, "lon": 77.5672632}, {"type": "node", "id": 11813288604, "lat": 12.9028515, "lon": 77.5672095}, {"type": "node", "id": 11813288605, "lat": 12.9029437, "lon": 77.5669574}, {"type": "node", "id": 11813288606, "lat": 12.9031293, "lon": 77.5669963}, {"type": "node", "id": 11888174815, "lat": 12.850461, "lon": 77.5204472}, {"type": "node", "id": 11888174816, "lat": 12.8510232, "lon": 77.5202125}, {"type": "node", "id": 11888174817, "lat": 12.8512342, "lon": 77.5206607}, {"type": "node", "id": 11888174818, "lat": 12.8496961, "lon": 77.5207195}, {"type": "node", "id": 11888174819, "lat": 12.8498464, "lon": 77.5202608}, {"type": "node", "id": 11978446490, "lat": 12.9251207, "lon": 77.4984303}, {"type": "node", "id": 11978446491, "lat": 12.9250602, "lon": 77.4984917}, {"type": "node", "id": 11978446497, "lat": 12.9249558, "lon": 77.4981873}, {"type": "node", "id": 11978446500, "lat": 12.9252064, "lon": 77.4980394}, {"type": "node", "id": 12022725570, "lat": 12.8842841, "lon": 77.550838}, {"type": "node", "id": 12294200271, "lat": 12.8640633, "lon": 77.5787826}, {"type": "node", "id": 12294200272, "lat": 12.863611, "lon": 77.5787665}, {"type": "node", "id": 12294214710, "lat": 12.8599547, "lon": 77.5687779}, {"type": "node", "id": 12294214711, "lat": 12.8602698, "lon": 77.5690126}, {"type": "node", "id": 12294214712, "lat": 12.860917, "lon": 77.5680363}, {"type": "node", "id": 12294214713, "lat": 12.8604567, "lon": 77.5677413}, {"type": "node", "id": 12300982659, "lat": 12.8969271, "lon": 77.5292248}, {"type": "node", "id": 12300983212, "lat": 12.9076373, "lon": 77.5244035}, {"type": "node", "id": 12300983213, "lat": 12.9076164, "lon": 77.5250727}, {"type": "node", "id": 12300983214, "lat": 12.9075419, "lon": 77.5259095}, {"type": "node", "id": 12300983215, "lat": 12.9082138, "lon": 77.5248259}, {"type": "node", "id": 12300983216, "lat": 12.9082883, "lon": 77.5244451}, {"type": "node", "id": 12367448516, "lat": 12.904147, "lon": 77.5475831}, {"type": "node", "id": 12367448517, "lat": 12.9040019, "lon": 77.5468227}, {"type": "node", "id": 12367448518, "lat": 12.9036241, "lon": 77.5468026}, {"type": "node", "id": 12367448519, "lat": 12.9036516, "lon": 77.5476435}, {"type": "node", "id": 12367473311, "lat": 12.9134491, "lon": 77.5530924}, {"type": "node", "id": 12367473312, "lat": 12.9129027, "lon": 77.5544925}, {"type": "node", "id": 12367473313, "lat": 12.9134334, "lon": 77.5546977}, {"type": "node", "id": 12367473314, "lat": 12.913938, "lon": 77.5533257}, {"type": "node", "id": 12369330470, "lat": 12.8532538, "lon": 77.5699501}, {"type": "node", "id": 12369330471, "lat": 12.8531034, "lon": 77.5706072}, {"type": "node", "id": 12369330472, "lat": 12.8531414, "lon": 77.5706327}, {"type": "node", "id": 12369330473, "lat": 12.8539677, "lon": 77.5705723}, {"type": "node", "id": 12369330474, "lat": 12.8540697, "lon": 77.5701432}, {"type": "node", "id": 12369602763, "lat": 12.853224, "lon": 77.5700802}, {"type": "node", "id": 12448043187, "lat": 12.8667003, "lon": 77.5411558}, {"type": "node", "id": 12448043188, "lat": 12.8667665, "lon": 77.5409192}, {"type": "node", "id": 12448043189, "lat": 12.8672868, "lon": 77.5410131}, {"type": "node", "id": 12448043190, "lat": 12.8672574, "lon": 77.5412746}, {"type": "node", "id": 12448043191, "lat": 12.8675821, "lon": 77.5413307}, {"type": "node", "id": 12448043192, "lat": 12.8676869, "lon": 77.5402862}, {"type": "node", "id": 12448043193, "lat": 12.867564, "lon": 77.5400931}, {"type": "node", "id": 12448043194, "lat": 12.8676243, "lon": 77.5393247}, {"type": "node", "id": 12448043196, "lat": 12.86696, "lon": 77.5399482}, {"type": "node", "id": 12448043197, "lat": 12.8658422, "lon": 77.5397611}, {"type": "node", "id": 12488315347, "lat": 12.8842337, "lon": 77.550896}, {"type": "node", "id": 12488315348, "lat": 12.8845452, "lon": 77.5518779}, {"type": "node", "id": 12488315349, "lat": 12.8849169, "lon": 77.5517853}, {"type": "node", "id": 12488315350, "lat": 12.8850124, "lon": 77.5509629}, {"type": "node", "id": 12488315454, "lat": 12.8805574, "lon": 77.5468567}, {"type": "node", "id": 12488315464, "lat": 12.8809121, "lon": 77.5468866}, {"type": "node", "id": 12488315465, "lat": 12.881047, "lon": 77.5463806}, {"type": "node", "id": 12488315639, "lat": 12.8928962, "lon": 77.5225894}, {"type": "node", "id": 12488315640, "lat": 12.8936487, "lon": 77.522645}, {"type": "node", "id": 12488315641, "lat": 12.8936472, "lon": 77.522188}, {"type": "node", "id": 12488315642, "lat": 12.8928781, "lon": 77.5221355}, {"type": "node", "id": 12488315921, "lat": 12.8883182, "lon": 77.5381298}, {"type": "node", "id": 12488315922, "lat": 12.8890676, "lon": 77.53796}, {"type": "node", "id": 12488315923, "lat": 12.8891293, "lon": 77.5376512}, {"type": "node", "id": 12488315924, "lat": 12.8891925, "lon": 77.5376621}, {"type": "node", "id": 12488315925, "lat": 12.8893024, "lon": 77.5369858}, {"type": "node", "id": 12488315926, "lat": 12.8887651, "lon": 77.536904}, {"type": "node", "id": 12488315927, "lat": 12.8883076, "lon": 77.5369689}, {"type": "node", "id": 12492581439, "lat": 12.9237862, "lon": 77.5847469}, {"type": "node", "id": 12492581441, "lat": 12.9237872, "lon": 77.5844007}, {"type": "node", "id": 12523012065, "lat": 12.8973033, "lon": 77.5278847}, {"type": "node", "id": 12523012068, "lat": 12.899801, "lon": 77.5280014}, {"type": "node", "id": 12523012069, "lat": 12.8998457, "lon": 77.5279252}, {"type": "node", "id": 12523012071, "lat": 12.8990855, "lon": 77.527559}, {"type": "node", "id": 12555786533, "lat": 12.8621852, "lon": 77.5850549}, {"type": "node", "id": 12555786534, "lat": 12.8622702, "lon": 77.5851341}, {"type": "node", "id": 12555786535, "lat": 12.8625487, "lon": 77.5852025}, {"type": "node", "id": 12555786536, "lat": 12.8625042, "lon": 77.5856316}, {"type": "node", "id": 12555786537, "lat": 12.8622506, "lon": 77.5865865}, {"type": "node", "id": 12555786538, "lat": 12.8619838, "lon": 77.5869137}, {"type": "node", "id": 12555786539, "lat": 12.862831, "lon": 77.5873723}, {"type": "node", "id": 12555786540, "lat": 12.8638313, "lon": 77.5876339}, {"type": "node", "id": 12555786541, "lat": 12.8641333, "lon": 77.5868145}, {"type": "node", "id": 12555786542, "lat": 12.8670442, "lon": 77.5861123}, {"type": "node", "id": 12555786543, "lat": 12.8640104, "lon": 77.5843146}, {"type": "node", "id": 12555786544, "lat": 12.8645752, "lon": 77.5850496}, {"type": "node", "id": 12555786545, "lat": 12.8647439, "lon": 77.585586}, {"type": "node", "id": 12555786546, "lat": 12.8643451, "lon": 77.5855096}, {"type": "node", "id": 12555786547, "lat": 12.8639162, "lon": 77.5852896}, {"type": "node", "id": 12555786548, "lat": 12.863758, "lon": 77.5852413}, {"type": "node", "id": 12555786549, "lat": 12.863388, "lon": 77.5851327}, {"type": "node", "id": 12555786550, "lat": 12.8626153, "lon": 77.5851166}, {"type": "node", "id": 12555786551, "lat": 12.8623643, "lon": 77.5850563}, {"type": "node", "id": 12555786552, "lat": 12.8623185, "lon": 77.5849892}, {"type": "node", "id": 12555786560, "lat": 12.8661101, "lon": 77.589156}, {"type": "node", "id": 12555816420, "lat": 12.8636646, "lon": 77.57718}, {"type": "node", "id": 12555816421, "lat": 12.8641169, "lon": 77.577196}, {"type": "node", "id": 12609106778, "lat": 12.9083778, "lon": 77.5786631}, {"type": "node", "id": 12609122823, "lat": 12.9052281, "lon": 77.579539}, {"type": "node", "id": 12609122824, "lat": 12.9054804, "lon": 77.5803108}, {"type": "node", "id": 12609122825, "lat": 12.9054987, "lon": 77.5795826}, {"type": "node", "id": 12724838439, "lat": 12.9242383, "lon": 77.5844021}, {"type": "node", "id": 12817363447, "lat": 12.8901762, "lon": 77.5685298}, {"type": "node", "id": 12817363448, "lat": 12.8902167, "lon": 77.5681396}, {"type": "node", "id": 12817363449, "lat": 12.8891225, "lon": 77.5680712}, {"type": "node", "id": 12817363450, "lat": 12.8891094, "lon": 77.5682268}, {"type": "node", "id": 12817363451, "lat": 12.889201, "lon": 77.5684695}, {"type": "node", "id": 12917043468, "lat": 12.9239635, "lon": 77.5844012}, {"type": "node", "id": 12941891201, "lat": 12.8803607, "lon": 77.5796688, "tags": {"addr:postcode": "560076", "amenity": "school", "name": "Orchids The International School"}}, {"type": "node", "id": 12951088071, "lat": 12.896415, "lon": 77.5296363}, {"type": "node", "id": 12951088072, "lat": 12.8963919, "lon": 77.5294875}, {"type": "node", "id": 12951088073, "lat": 12.8963153, "lon": 77.5287586}, {"type": "node", "id": 12951088074, "lat": 12.8968905, "lon": 77.5287876}, {"type": "node", "id": 12951088075, "lat": 12.8970473, "lon": 77.5292274}, {"type": "node", "id": 12951088076, "lat": 12.8971232, "lon": 77.5298309}, {"type": "node", "id": 12951088077, "lat": 12.8969134, "lon": 77.5299563}, {"type": "node", "id": 12951088078, "lat": 12.8968406, "lon": 77.5296398}, {"type": "node", "id": 13072953743, "lat": 12.9227563, "lon": 77.5756841}, {"type": "node", "id": 13075437208, "lat": 12.8674402, "lon": 77.5393624}, {"type": "node", "id": 13075437209, "lat": 12.8674219, "lon": 77.5396227}, {"type": "node", "id": 13075439575, "lat": 12.8658695, "lon": 77.5330984}, {"type": "node", "id": 13075439576, "lat": 12.8648785, "lon": 77.5342499}, {"type": "node", "id": 13075439577, "lat": 12.8651871, "lon": 77.5343169}, {"type": "node", "id": 13075439578, "lat": 12.8651949, "lon": 77.5337134}, {"type": "node", "id": 13075439579, "lat": 12.8648838, "lon": 77.5334935}, {"type": "node", "id": 13127564538, "lat": 12.9118975, "lon": 77.513161}, {"type": "node", "id": 13127586854, "lat": 12.9239835, "lon": 77.5182639}, {"type": "node", "id": 13127586855, "lat": 12.923567, "lon": 77.5184589}, {"type": "node", "id": 13127586856, "lat": 12.9237219, "lon": 77.5186503}, {"type": "node", "id": 13127586857, "lat": 12.923889, "lon": 77.5188205}, {"type": "node", "id": 13127586858, "lat": 12.9239649, "lon": 77.5188865}, {"type": "node", "id": 13127586859, "lat": 12.924045, "lon": 77.5189471}, {"type": "node", "id": 13127586860, "lat": 12.9241289, "lon": 77.5190021}, {"type": "node", "id": 13127586861, "lat": 12.9235339, "lon": 77.5183524}, {"type": "node", "id": 13127586862, "lat": 12.9238175, "lon": 77.5187494}, {"type": "node", "id": 13127586863, "lat": 12.9242162, "lon": 77.5190511}, {"type": "node", "id": 13127586864, "lat": 12.9246737, "lon": 77.5181526}, {"type": "node", "id": 13236180426, "lat": 12.8497725, "lon": 77.5069849}, {"type": "node", "id": 13236180427, "lat": 12.8484252, "lon": 77.506662}, {"type": "node", "id": 13236180428, "lat": 12.8482212, "lon": 77.5072092}, {"type": "node", "id": 13253807116, "lat": 12.924098, "lon": 77.5235951}, {"type": "node", "id": 13253807124, "lat": 12.9251469, "lon": 77.5233339}, {"type": "way", "id": 37351657, "nodes": [435688304, 435688305, 435688306, 10931530134, 435688307, 435688308, 435688309, 435688304], "tags": {"amenity": "school", "name": "Delhi Public School", "name:kn": "\u0ca6\u0cc6\u0cb9\u0cb2\u0cbf \u0cb8\u0cbe\u0cb0\u0ccd\u0cb5\u0c9c\u0ca8\u0cbf\u0c95 \u0cb6\u0cbe\u0cb2\u0cc6"}}, {"type": "way", "id": 37351658, "nodes": [435688310, 435688311, 435688312, 435688313, 435688314, 435688310], "tags": {"amenity": "school", "name": "Alpine Public School"}}, {"type": "way", "id": 120108572, "nodes": [1347489613, 1347489615, 1347489620, 1347489616, 1347489613], "tags": {"amenity": "school", "name": "Gurukul School", "name:kn": "\u0c97\u0cc1\u0cb0\u0cc1\u0c95\u0cc1\u0cb2"}}, {"type": "way", "id": 133243116, "nodes": [1466630508, 1466630506, 1466630512, 1466630510, 1466630507, 1466630508], "tags": {"amenity": "school", "name": "Silicon City Public School"}}, {"type": "way", "id": 161298656, "nodes": [1732894520, 1732894519, 12609106778, 1732894521, 1732894522, 1732894520], "tags": {"amenity": "school", "grades": "0-12", "name": "Government Public School", "name:kn": "\u0cb8\u0cb0\u0ccd\u0c95\u0cbe\u0cb0\u0cbf \u0cb6\u0cbe\u0cb2\u0cc6"}}, {"type": "way", "id": 188431720, "nodes": [1990609317, 1990609277, 1990609264, 13075439575, 1990609263, 1990609262, 1990609280, 1990609317], "tags": {"amenity": "school", "name": "Jnana Sweekar Public School"}}, {"type": "way", "id": 191101727, "nodes": [2016849181, 2016849180, 2016849178, 2016849177, 2016849179, 2016849182, 2016849181], "tags": {"amenity": "school", "building": "yes", "name": "Lady Wellington High School"}}, {"type": "way", "id": 198161707, "nodes": [2083338356, 2083338352, 2083338354, 2083338358, 2083338356], "tags": {"amenity": "school", "building": "yes", "name": "Sri Maruthi Primary & High School", "name:kn": "\u0cb6\u0ccd\u0cb0\u0cc0 \u0cae\u0cbe\u0cb0\u0cc1\u0ca4\u0cbf \u0cb6\u0cbe\u0cb2\u0cc6"}}, {"type": "way", "id": 202062391, "nodes": [2120440996, 2120441008, 2120441002, 2120440993, 2120440996], "tags": {"amenity": "school", "building": "yes", "name": "New Kumarans School"}}, {"type": "way", "id": 206841897, "nodes": [2168884537, 2168884532, 2168884531, 2168884533, 2168884536, 2168884535, 2168884534, 2168884538, 2168884537], "tags": {"amenity": "school"}}, {"type": "way", "id": 307414834, "nodes": [3125515003, 3125514998, 3125514999, 3125515000, 3125515001, 3125515005, 3125515006, 3125515002, 3125515004, 3125515007, 3125515003], "tags": {"amenity": "school", "building": "yes", "name": "Ekya", "name:kn": "\u0c8f\u0c95\u0ccd\u0caf\u0cbe \u0cb6\u0cbe\u0cb2\u0cc6", "source": "GPS"}}, {"type": "way", "id": 307414835, "nodes": [3125515008, 3125515010, 3125515011, 3125515009, 3125515008], "tags": {"amenity": "school", "building": "yes", "name": "JSS School", "source": "GPS"}}, {"type": "way", "id": 348127005, "nodes": [3543320649, 3543320650, 3543320637, 3543320636, 3543320649], "tags": {"amenity": "school", "building": "yes", "grades": "1-12", "name": "The Valley School", "website": "https://www.thevalleyschool.info/", "wikidata": "Q7771945", "wikimedia_commons": "Category:The Valley School", "wikipedia": "en:The Valley School"}}, {"type": "way", "id": 401829358, "nodes": [4042347303, 4042347301, 11757261391, 11387258970, 4042347311, 13253807116, 4042347315, 13253807124, 4042347321, 4042347320, 1835530687, 4042347303], "tags": {"amenity": "school", "name": "National Hill View Public School"}}, {"type": "way", "id": 439843210, "nodes": [4375210074, 4375210071, 4375210086, 4375213590, 4375210074], "tags": {"amenity": "school", "name": "The Brigade School", "website": "https://www.brigadeschools.edu.in/", "wheelchair": "yes"}}, {"type": "way", "id": 445480312, "nodes": [4429032700, 4429032701, 4429032702, 4429032703, 4429032704, 4429032700], "tags": {"amenity": "school", "name": "Indira Vidya Mandir School", "name:kn": "\u0c87\u0c82\u0ca6\u0cbf\u0cb0\u0cbe \u0cb5\u0cbf\u0ca6\u0ccd\u0caf\u0cbe \u0cae\u0c82\u0ca6\u0cbf\u0cb0", "operator": "DAV Public School"}}, {"type": "way", "id": 469353409, "nodes": [4636924346, 4636924347, 4636924348, 4636924349, 4636924346], "tags": {"amenity": "school"}}, {"type": "way", "id": 479981469, "nodes": [4730100128, 4730100121, 4730100141, 4730100122, 4730100128], "tags": {"amenity": "school", "name": "Carmel School", "name:kn": "\u0c95\u0cbe\u0cb0\u0ccd\u0cae\u0cc6\u0cb2\u0ccd \u0cb6\u0cbe\u0cb2\u0cc6"}}, {"type": "way", "id": 513025075, "nodes": [5015937708, 6813444935, 5015937709, 5015937710, 5015937711, 11978446500, 11978446497, 5015937712, 11978446491, 11978446490, 5015937713, 5015937708], "tags": {"amenity": "school", "name": "Orchard International School"}}, {"type": "way", "id": 614208151, "nodes": [5810244740, 12523012069, 12523012068, 5810244741, 5810244742, 12523012071, 11153618129, 11153618128, 12523012065, 11153618127, 11153618133, 11153618132, 11153618131, 11153618130, 5810244740], "tags": {"amenity": "school", "name": "National Public School, Banashankari", "name:kn": "\u0cb0\u0cbe\u0cb7\u0ccd\u0c9f\u0ccd\u0cb0\u0cc0\u0caf \u0cb8\u0cbe\u0cb0\u0ccd\u0cb5\u0c9c\u0ca8\u0cbf\u0c95 \u0cb6\u0cbe\u0cb2\u0cc6, \u0cac\u0ca8\u0cb6\u0c82\u0c95\u0cb0\u0cbf"}}, {"type": "way", "id": 646663790, "nodes": [6075094429, 6075094430, 6075094431, 6075094432, 6075094433, 6075094434, 6075094435, 6075094436, 6075094429], "tags": {"addr:city": "Bangalore", "addr:postcode": "560078", "addr:street": "24th Main Road", "amenity": "school", "name": "Royal High School"}}, {"type": "way", "id": 686453686, "nodes": [6434211542, 6434211541, 6434211540, 6434211539, 6434211538, 6434211537, 6434211536, 6434211535, 6434211531, 6434211529, 6434211526, 6434211523, 6434211522, 6434211521, 6434211520, 6434211519, 6434211518, 6434211517, 6434211516, 6434211515, 6434211514, 6434211513, 6434211542], "tags": {"addr:city": "Bengaluru", "addr:postcode": "560062", "addr:street": "Kanakapura Road", "amenity": "school", "name": "Deeksha PU College", "name:kn": "\u0ca6\u0cc0\u0c95\u0ccd\u0cb7 \u0caa\u0ca6\u0cb5\u0cbf \u0caa\u0cc2\u0cb0\u0ccd\u0cb5 \u0c95\u0cbe\u0cb2\u0cc7\u0c9c\u0cc1"}}, {"type": "way", "id": 710637794, "nodes": [6681252707, 6681252708, 6681252709, 6681297603, 6681285587, 6681252710, 6681252707], "tags": {"amenity": "school", "email": "info@mutha.edu.in", "name": "The Mutha School", "operator": "Mutha Foundation", "operator:type": "private", "phone": "+91 99450 27007", "school:gender": "mixed", "website": "https://mutha.edu.in"}}, {"type": "way", "id": 770851392, "nodes": [7195152638, 9692963091, 6875299692, 6875299691, 6875299690, 7195152636, 7195152635, 9692963088, 7195152634, 7195152638], "tags": {"addr:city": "Bengaluru", "addr:country": "IN", "addr:housenumber": "40", "addr:postcode": "560059", "addr:street": "Pattanagere Main Road", "amenity": "school", "email": "contact@gaflschool.com", "name": "Global Academy for Learning", "phone": "+91 88804 00900", "school:gender": "mixed", "website": "https://www.gaflschool.com/"}}, {"type": "way", "id": 775660976, "nodes": [7236242036, 7236242035, 7236242084, 10931530119, 10931530118, 11763280918, 7236242083, 7236242034, 7236242033, 7236242032, 7236242031, 7236242036], "tags": {"addr:city": "Bengaluru", "addr:country": "IN", "addr:housenumber": "28/4", "addr:postcode": "560062", "addr:street": "Kanakapura Road", "addr:suburb": "Doddakalasandra", "amenity": "school", "email": "cbsedks@kumarans.org", "name": "Sri Kumaran Children's Academy", "phone": "+91 80 2632 1077", "school:gender": "mixed", "website": "https://cbse-dks.kumarans.org/"}}, {"type": "way", "id": 781680947, "nodes": [7298163634, 7298163657, 7298163656, 7298163655, 7298163654, 7298163653, 7298163652, 7298163585, 7298163651, 7298163635, 7298163634], "tags": {"addr:postcode": "560062", "amenity": "school", "name": "Sri Kumaran Children's Home CBSE", "name:en": "Sri Kumaran Children's Home CBSE", "phone": "65839365", "website": "http://pupilpod.kumarans.org"}}, {"type": "way", "id": 781680950, "nodes": [7298163635, 7298163665, 7298163664, 7298163663, 7298163662, 7298163661, 7298163660, 7298163659, 7298163658, 7298163634, 7298163635], "tags": {"addr:postcode": "560064", "amenity": "school", "name": "Sri Kumaran Children's Home ICSE", "name:en": "Sri Kumaran Children's Home ICSE", "website": "http://pupilpod.kumarans.org"}}, {"type": "way", "id": 1044521119, "nodes": [9611168914, 13072953743, 9611168913, 9611168912, 9611168911, 9611168914], "tags": {"addr:street": "Kanakapura Road", "amenity": "school", "name": "JSS Composite PU College", "name:kn": "\u0c9c\u0cc6\u0c8e\u0cb8\u0ccd\u0c8e\u0cb8\u0ccd \u0cb8\u0c82\u0caf\u0cc1\u0c95\u0ccd\u0ca4 \u0caa\u0ca6\u0cb5\u0cbf\u0caa\u0cc2\u0cb0\u0ccd\u0cb5 \u0c95\u0cbe\u0cb2\u0cc7\u0c9c\u0cc1"}}, {"type": "way", "id": 1087732061, "nodes": [9966219013, 9966219014, 9966219015, 9966219016, 9966219013], "tags": {"amenity": "school", "name": "Apollo National Public School"}}, {"type": "way", "id": 1120154288, "nodes": [10245038170, 10245038169, 10245038168, 10245038167, 3259780260, 13127564538, 10245038164, 10245038163, 10245038170], "tags": {"addr:city": "Bengaluru", "addr:postcode": "560098", "addr:street": "Kenchenahalli Main Road", "amenity": "school", "education": "school", "name": "Shri Jnanakshi Vidyaniketan", "name:kn": "\u0c9c\u0ccd\u0c9e\u0cbe\u0ca8\u0cbe\u0c95\u0ccd\u0cb7\u0cbf \u0cb5\u0cbf\u0ca6\u0ccd\u0caf\u0cbe\u0ca8\u0cbf\u0c95\u0cc7\u0ca4\u0ca8"}}, {"type": "way", "id": 1137982234, "nodes": [6347251126, 10607507407, 10607507406, 10607507405, 6347251126], "tags": {"addr:place": "Jaraganahalli", "amenity": "school", "isced:level": "2", "name": "GMPS Jaraganahalli", "name:kn": "\u0cb8\u0cb0\u0ccd\u0c95\u0cbe\u0cb0\u0cbf \u0cae\u0cb0\u0cbe\u0ca0 \u0cb9\u0cbf\u0cb0\u0cbf\u0caf \u0caa\u0ccd\u0cb0\u0cbe\u0ca5\u0cae\u0cbf\u0c95 \u0cb6\u0cbe\u0cb2\u0cc6 \u0c9c\u0cb0\u0c97\u0ca8\u0cb9\u0cb3\u0ccd\u0cb3\u0cbf", "operator": "Department of Education", "school": "primary"}}, {"type": "way", "id": 1176579513, "nodes": [10931529985, 10931529977, 10233431244, 10931529983, 10931529984, 10931529985], "tags": {"amenity": "school", "name": "Doddakalasandra Government High School"}}, {"type": "way", "id": 1176579524, "nodes": [7236242192, 10931530058, 10931530057, 7236242191, 7236242192], "tags": {"amenity": "school", "name": "DPS Bengaluru South, Junior School"}}, {"type": "way", "id": 1195513694, "nodes": [11092658696, 13236180426, 11096302711, 11096302710, 11096302709, 11096302708, 11092658697, 11092658696], "tags": {"amenity": "school"}}, {"type": "way", "id": 1203175523, "nodes": [11153618107, 11153618106, 11153618105, 11153618104, 11153618103, 11153618107], "tags": {"amenity": "school", "name": "National Public School, Uttarahalli"}}, {"type": "way", "id": 1203175524, "nodes": [11153618111, 11153618110, 11153618109, 11153618108, 11153618111], "tags": {"amenity": "school", "name": "The Happy Valley School"}}, {"type": "way", "id": 1217350555, "nodes": [11279634347, 11279634346, 11279634345, 11279634344, 11279634343, 11279634342, 11279634347], "tags": {"amenity": "school"}}, {"type": "way", "id": 1242749610, "nodes": [11549160982, 11549160981, 11549160980, 8809336714, 9919570146, 11549160982], "tags": {"amenity": "school", "name": "Skalvi International School", "opening_hours": "Mo-Sa 08:00-16:00"}}, {"type": "way", "id": 1270568427, "nodes": [11799150190, 11799150189, 11799150188, 11799150187, 11799150190], "tags": {"amenity": "school", "landuse": "education", "name": "Government Urdu Higher Primary School"}}, {"type": "way", "id": 1270568444, "nodes": [11741744712, 11799150240, 11799150239, 11799150241, 11741744712], "tags": {"amenity": "school", "name": "Blossom School"}}, {"type": "way", "id": 1270788435, "nodes": [11801321893, 11801321892, 11801321891, 11801321890, 3417085515, 11801321893], "tags": {"amenity": "school", "name": "Narayana e-Techno School"}}, {"type": "way", "id": 1272154848, "nodes": [11813288606, 11813288605, 11813288604, 11813288603, 11813288606], "tags": {"amenity": "school"}}, {"type": "way", "id": 1280762879, "nodes": [11888174819, 11888174818, 11586844151, 11586844152, 7298265931, 7298265930, 11888174817, 11888174816, 11888174815, 11888174819], "tags": {"amenity": "school"}}, {"type": "way", "id": 1328835818, "nodes": [12294214713, 12294214712, 12294214711, 12294214710, 12294214713], "tags": {"amenity": "school"}}, {"type": "way", "id": 1329553248, "nodes": [12951088071, 12951088072, 12951088073, 12951088074, 12300982659, 12951088075, 12951088076, 12951088077, 12951088078, 12951088071], "tags": {"amenity": "school"}}, {"type": "way", "id": 1329553364, "nodes": [12300983216, 12300983215, 3671471962, 3671471963, 12300983214, 12300983213, 12300983212, 12300983216], "tags": {"amenity": "school"}}, {"type": "way", "id": 1337111934, "nodes": [12367448519, 12367448518, 12367448517, 12367448516, 12367448519], "tags": {"amenity": "school"}}, {"type": "way", "id": 1337111980, "nodes": [12367473314, 12367473313, 12367473312, 12367473311, 12367473314], "tags": {"amenity": "school", "name": "Deccan International School"}}, {"type": "way", "id": 1337330212, "nodes": [12369330474, 12369330473, 12369330472, 12369330471, 12369602763, 12369330470, 12369330474], "tags": {"amenity": "school"}}, {"type": "way", "id": 1345637273, "nodes": [12448043197, 12448043196, 1990604303, 13075437209, 13075437208, 12448043194, 12448043193, 12448043192, 12448043191, 11045697439, 12448043190, 12448043189, 12448043188, 12448043187, 11618278570, 11618277667, 1990604297, 1990604302, 12448043197], "tags": {"amenity": "school", "landuse": "education", "name": "Deeksha"}}, {"type": "way", "id": 1349974772, "nodes": [12488315350, 12488315349, 12488315348, 12488315347, 12022725570, 12488315350], "tags": {"amenity": "school"}}, {"type": "way", "id": 1349974796, "nodes": [1990609977, 12488315454, 1990609982, 1990609978, 1990609972, 12488315465, 12488315464, 1990609977], "tags": {"amenity": "school", "name": "Siddaganga National School", "name:kn": "\u0cb8\u0cbf\u0ca6\u0ccd\u0ca6\u0c97\u0c82\u0c97 \u0cb6\u0cbe\u0cb2\u0cc6"}}, {"type": "way", "id": 1349974824, "nodes": [12488315642, 12488315641, 12488315640, 12488315639, 12488315642], "tags": {"amenity": "school"}}, {"type": "way", "id": 1349974888, "nodes": [12488315927, 12488315926, 12488315925, 12488315924, 12488315923, 10233431366, 12488315922, 12488315921, 12488315927], "tags": {"amenity": "school", "name": "Vidyashilp Banashankari"}}, {"type": "way", "id": 1356597042, "nodes": [12555786552, 12555786551, 12555786550, 12555786549, 12555786548, 12555786547, 12555786546, 12555786545, 12555786544, 12555786543, 9919570195, 9919570200, 9919570199, 12555786542, 9919570229, 9919570227, 9919570228, 9919570222, 12555786560, 1210191575, 1210191567, 1210191570, 1210191549, 11124698328, 11124698327, 11124698326, 11124698325, 12555786541, 12555786540, 12555786539, 12555786538, 12555786537, 12555786536, 12555786535, 12555786534, 12555786533, 12555786552], "tags": {"amenity": "school", "name": "Sri Ramakrishna Samagra Shikshana Kendra"}}, {"type": "way", "id": 1356599513, "nodes": [12555816421, 12294200271, 12294200272, 12555816420, 12555816421], "tags": {"amenity": "school", "name": "Sri Chaitanya Techno School"}}, {"type": "way", "id": 1361893709, "nodes": [12609122825, 12609122824, 1473781134, 12609122823, 12609122825], "tags": {"amenity": "school", "name": "Frank Public School", "name:kn": "\u0cab\u0ccd\u0cb0\u0cbe\u0c82\u0c95\u0ccd \u0caa\u0cac\u0ccd\u0cb2\u0cbf\u0c95\u0ccd \u0cb6\u0cbe\u0cb2\u0cc6"}}, {"type": "way", "id": 1384382921, "nodes": [12817363451, 12817363450, 12817363449, 12817363448, 12817363447, 12817363451], "tags": {"amenity": "school"}}, {"type": "way", "id": 1395462320, "nodes": [12917043468, 12724838439, 1015924279, 1015924261, 12917043468], "tags": {"addr:place": "Jayanagar", "amenity": "school", "isced:level": "2", "name": "MES School 4th Blk Jayanagar", "name:kn": "\u0c8e\u0c82.\u0c87.\u0c8e\u0cb8\u0ccd\u200c \u0cb6\u0cbe\u0cb2\u0cc6 \u0cea\u0ca8\u0cc7 \u0cac\u0ccd\u0cb2\u0cbe\u0c95\u0ccd \u0c9c\u0caf\u0ca8\u0c97\u0cb0", "operator": "Department of Education", "school": "primary"}}, {"type": "way", "id": 1395462321, "nodes": [12492581441, 12917043468, 1015924261, 12492581439, 12492581441], "tags": {"amenity": "school", "name": "Holy Christ English School", "name:kn": "\u0cb9\u0cca\u0cb2\u0cbf \u0c95\u0ccd\u0cb0\u0cc8\u0cb8\u0ccd\u0c9f\u0ccd \u0c86\u0c82\u0c97\u0ccd\u0cb2 \u0cb6\u0cbe\u0cb2\u0cc6"}}, {"type": "way", "id": 1422781175, "nodes": [13075439579, 13075439578, 13075439577, 13075439576, 13075439579], "tags": {"amenity": "school"}}, {"type": "way", "id": 1427923075, "nodes": [13127586856, 13127586855, 13127586861, 13127586854, 13127586864, 13127586863, 13127586860, 13127586859, 13127586858, 13127586857, 13127586862, 13127586856], "tags": {"amenity": "school", "landuse": "education", "name": "Mount Carmel School"}}, {"type": "way", "id": 1442547202, "nodes": [13236180428, 13236180427, 13236180426, 11096302711, 13236180428], "tags": {"amenity": "school"}}]}