{"version": 0.6, "generator": "Overpass API 0.7.62.8 e802775f", "osm3s": {"timestamp_osm_base": "2026-01-12T06:03:59Z", "copyright": "The data included in this document is from www.openstreetmap.org. The data is made available under ODbL."}, "elements": [{"type": "node", "id": 1182739082, "lat": 13.1635998, "lon": 80.2435516, "tags": {"amenity": "hospital", "name": "MMC Govenment Hospital"}}, {"type": "node", "id": 6914911759, "lat": 13.1990395, "lon": 80.1760313, "tags": {"addr:district": "Tiruvallur", "addr:full": "#4/198 & 199, M.A.Koil St,M.A.Nagar,Redhills", "addr:postcode": "600052", "addr:state": "Tamil Nadu", "amenity": "hospital", "name": "Vanaja Hospital", "source": "OpenGovernmentData"}}, {"type": "node", "id": 6932938090, "lat": 13.1368213, "lon": 80.2087516, "tags": {"addr:district": "Tiruvallur", "addr:full": "#100 A, Perambur -Redhills Road ,Near Secretariat Colony Bus Stop,Lakshmipuram", "addr:postcode": "600099", "addr:state": "Tamil Nadu", "amenity": "hospital", "healthcare": "hospital", "name": "Lake View Hospital, Tiruvallur", "source": "OpenGovernmentData"}}, {"type": "node", "id": 6933523232, "lat": 13.1282303, "lon": 80.2421558, "tags": {"addr:block": "Chennai Zone Iv", "addr:district": "Chennai", "addr:full": "Moolakadai Junction, Moolkadai, Gnt Road, Moolakadai", "addr:postcode": "600060", "addr:state": "Tamil Nadu", "amenity": "hospital", "healthcare": "hospital", "name": "Kvt Health Centre", "source": "OpenGovernmentData"}}, {"type": "node", "id": 6934326572, "lat": 13.1308907, "lon": 80.2138799, "tags": {"addr:block": "Madhavaram", "addr:district": "Thiruvallur", "addr:full": "No:1419, Chennai, 200 Feet,Retteri Junction,Kolathur", "addr:postcode": "600099", "addr:state": "Tamil Nadu", "addr:subdistrict": "Mathavaram", "amenity": "hospital", "healthcare": "hospital", "name": "Sri Kumaran Health Centre", "source": "OpenGovernmentData"}}, {"type": "node", "id": 6937111102, "lat": 13.1450072, "lon": 80.2398249, "tags": {"addr:district": "Chennai", "addr:full": "# 8 & 9 Annai Velakanni Nagar,Madhavaram Milk Colony", "addr:postcode": "600081", "addr:state": "Tamil Nadu", "amenity": "hospital", "healthcare": "hospital", "name": "K.M. Multi Speciality Hospital", "source": "OpenGovernmentData"}}, {"type": "node", "id": 7210899888, "lat": 13.1992282, "lon": 80.1786155, "tags": {"addr:district": "Chennai", "addr:full": "MA Nagar, Padiyanallur, Thiruvallur, NH-5, Great Northern Trunk Road, Thiruvallu", "addr:postcode": "600052", "addr:state": "Tamil Nadu", "addr:subdistrict": "Thiruvottiyur", "amenity": "hospital", "name": "Sree Sanjeevi Rayan Hospital", "operator:type": "private", "source": "OpenGovernmentData"}}, {"type": "node", "id": 7252256158, "lat": 13.163539, "lon": 80.2430669, "tags": {"addr:block": "Madhavaram", "addr:district": "Thiruvallur", "addr:full": "Government Hospital, Madhavaram, Madhavaram, Manjambakkam, Milk Colony", "addr:postcode": "600051", "addr:state": "Tamil Nadu", "addr:subdistrict": "Mathavaram", "amenity": "hospital", "name": "Madhavaram Government Hospital", "source": "OpenGovernmentData"}}, {"type": "node", "id": 7252256184, "lat": 13.13468, "lon": 80.243196, "tags": {"addr:block": "Chennai Zone I", "addr:district": "Chennai", "addr:full": "86/A, Pandian Cinema Theatre, Kodungaiyur, Kamarajar Salai", "addr:postcode": "600081", "addr:state": "Tamil Nadu", "amenity": "hospital", "healthcare": "hospital", "name": "NRV Hospital", "source": "OpenGovernmentData"}}, {"type": "node", "id": 7818702358, "lat": 13.1345397, "lon": 80.2058879, "tags": {"addr:district": "Tiruvallur", "addr:full": "Bharathi Nagar, Lakshmipuram", "addr:postcode": "600099", "addr:state": "Tamil Nadu", "amenity": "hospital", "healthcare": "hospital", "name": "Uma Hospital", "source": "Local Knowledge"}}, {"type": "node", "id": 7818702399, "lat": 13.1702776, "lon": 80.193567, "tags": {"addr:district": "Tiruvallur", "addr:full": "Kannappasamy Nagar, Puzhal", "addr:postcode": "600066", "addr:state": "Tamil Nadu", "amenity": "hospital", "name": "Md Hussain Hospital", "source": "Local Knowledge"}}, {"type": "node", "id": 7818702420, "lat": 13.161861, "lon": 80.204431, "tags": {"addr:district": "Tiruvallur", "addr:full": "Puzhal", "addr:postcode": "600066", "addr:state": "Tamil Nadu", "amenity": "hospital", "name": "St. Anthony's Hospital", "source": "Local Knowledge"}}, {"type": "node", "id": 7825009787, "lat": 13.1297562, "lon": 80.2172747, "tags": {"addr:district": "Chennai", "addr:full": "Kolathur", "addr:postcode": "600099", "addr:state": "Tamil Nadu", "amenity": "hospital", "healthcare": "hospital", "name": "Bluemed Healthcare", "source": "Local Knowledge"}}, {"type": "node", "id": 7825009797, "lat": 13.1300779, "lon": 80.216941, "tags": {"addr:district": "Chennai", "addr:full": "Ponniammanmedu", "addr:postcode": "600099", "addr:state": "Tamil Nadu", "amenity": "hospital", "healthcare": "hospital", "name": "Bharathiraja Hospitals", "source": "Local Knowledge"}}, {"type": "node", "id": 7825009803, "lat": 13.129071, "lon": 80.2159086, "tags": {"addr:district": "Chennai", "addr:full": "Ponniammanmedu", "addr:postcode": "600099", "addr:state": "Tamil Nadu", "amenity": "hospital", "healthcare": "hospital", "name": "KCK Hospital", "source": "Local Knowledge"}}, {"type": "node", "id": 7825009807, "lat": 13.129869, "lon": 80.214109, "tags": {"addr:district": "Chennai", "addr:full": "Kolathur", "addr:postcode": "600099", "addr:state": "Tamil Nadu", "amenity": "hospital", "healthcare": "hospital", "name": "Retteri Kumaran Hospital", "source": "Local Knowledge"}}, {"type": "node", "id": 7825009816, "lat": 13.129327, "lon": 80.2152624, "tags": {"addr:district": "Chennai", "addr:full": "Kolathur, Villivakkam", "addr:postcode": "600099", "addr:state": "Tamil Nadu", "amenity": "hospital", "healthcare": "hospital", "name": "K.H.M. Hospital", "source": "Local Knowledge"}}, {"type": "node", "id": 7825009823, "lat": 13.1263043, "lon": 80.2192658, "tags": {"addr:district": "Chennai", "addr:full": "Balakumaran Nagar, Kolathur", "addr:postcode": "600099", "addr:state": "Tamil Nadu", "amenity": "hospital", "healthcare": "hospital", "name": "U.S. Hospital", "source": "Local Knowledge"}}, {"type": "node", "id": 9717766098, "lat": 13.2086279, "lon": 80.1698455, "tags": {"amenity": "hospital", "healthcare": "hospital", "name": "Chamdhi Netralayam Eye Hospital"}}, {"type": "node", "id": 9980280804, "lat": 13.1266701, "lon": 80.2014392, "tags": {"amenity": "hospital", "healthcare": "hospital", "name": "Shreyas hospital"}}, {"type": "node", "id": 10742847096, "lat": 13.139868, "lon": 80.2173881}, {"type": "node", "id": 10742847097, "lat": 13.1402505, "lon": 80.2174062}, {"type": "node", "id": 10742847098, "lat": 13.1402205, "lon": 80.2179863}, {"type": "node", "id": 10742847099, "lat": 13.1398452, "lon": 80.2178267}, {"type": "node", "id": 10742847100, "lat": 13.1401893, "lon": 80.2179731, "tags": {"access": "private", "barrier": "gate"}}, {"type": "node", "id": 10742847103, "lat": 13.1398876, "lon": 80.2178447}, {"type": "node", "id": 12581525295, "lat": 13.1363242, "lon": 80.2157688, "tags": {"amenity": "hospital", "check_date": "2025-02-12", "healthcare": "hospital", "name": "Meridian Hospitals"}}, {"type": "node", "id": 12581658601, "lat": 13.1396018, "lon": 80.2377389, "tags": {"amenity": "hospital", "check_date": "2025-02-12", "healthcare": "hospital", "name": "St Anthony's Hospital"}}, {"type": "way", "id": 1155182281, "nodes": [10742847096, 10742847097, 10742847098, 10742847100, 10742847103, 10742847099, 10742847096], "tags": {"amenity": "hospital", "healthcare": "hospital", "name": "Prashanth Superspeciality Hospital Kolathur", "phone": "+914469177777", "website": "https://www.prashanthhospitals.org/kolathur"}}]}