{"version": 0.6, "generator": "Overpass API 0.7.62.8 e802775f", "osm3s": {"timestamp_osm_base": "2026-01-12T17:21:30Z", "copyright": "The data included in this document is from www.openstreetmap.org. The data is made available under ODbL."}, "elements": [{"type": "node", "id": 267214379, "lat": 12.9134182, "lon": 77.6774852, "tags": {"amenity": "hospital", "healthcare": "hospital", "name": "Clinic"}}, {"type": "node", "id": 307401529, "lat": 12.9263714, "lon": 77.6765455, "tags": {"addr:city": "Belandur, Bangalore", "addr:full": "74/1, Bellandur, Ring Road, Varthur", "addr:housenumber": "74/1", "addr:postcode": "560037", "addr:state": "Karnataka", "addr:street": "Outer Ring Road", "amenity": "hospital", "email": "whitefield@theapolloclinic.com", "healthcare": "hospital", "name": "Apollo Hospital", "name:kn": "\u0c85\u0caa\u0cca\u0cb2\u0ccb \u0c86\u0cb8\u0ccd\u0caa\u0ca4\u0ccd\u0cb0\u0cc6", "phone": "+91-80-40222555", "website": "http://www.apolloclinicbangalore.com/", "wheelchair": "yes"}}, {"type": "node", "id": 456013713, "lat": 12.920362, "lon": 77.665088}, {"type": "node", "id": 671185206, "lat": 12.960765, "lon": 77.7137961, "tags": {"amenity": "hospital", "name": "Hema Poly Clinic"}}, {"type": "node", "id": 697470017, "lat": 12.9717043, "lon": 77.6645116}, {"type": "node", "id": 975680681, "lat": 12.9559302, "lon": 77.7112689, "tags": {"addr:city": "Bangalore", "addr:street": "Varthur Road", "amenity": "hospital", "emergency": "yes", "healthcare": "hospital", "name": "Yashomathi Hospitals"}}, {"type": "node", "id": 1093355153, "lat": 12.9797287, "lon": 77.7271089, "tags": {"amenity": "hospital", "name": "Dr. Batra Clinic"}}, {"type": "node", "id": 1150839598, "lat": 12.9568527, "lon": 77.6990468, "tags": {"addr:district": "Bengaluru Urban", "addr:full": "93/1, 565, Srinivasa Complex Ring Road Attached To Main Road", "addr:postcode": "560037", "addr:state": "Karnataka", "addr:street": "Varthur Road", "amenity": "hospital", "level": "0", "name": "New Akshay Mallya Hospital", "source": "OpenGovernmentData"}}, {"type": "node", "id": 1309873534, "lat": 12.9824124, "lon": 77.7307563}, {"type": "node", "id": 1309873536, "lat": 12.9834331, "lon": 77.7286515}, {"type": "node", "id": 1365797741, "lat": 12.9586563, "lon": 77.7134009}, {"type": "node", "id": 1365797746, "lat": 12.9562964, "lon": 77.7141388}, {"type": "node", "id": 1365797756, "lat": 12.9668213, "lon": 77.7168891, "tags": {"addr:district": "Bengaluru Urban", "addr:full": "521, 522, Vijayalakshmi Square Itpl Main Road Kundallahall Near Cosmos Mall", "addr:postcode": "560037", "addr:state": "Karnataka", "amenity": "hospital", "emergency": "yes", "healthcare": "hospital", "name": "Brookefield Hospital(A Unit Of Sanjeevani Hospital)", "source": "OpenGovernmentData", "wheelchair": "yes"}}, {"type": "node", "id": 1365797761, "lat": 12.9585004, "lon": 77.7128362}, {"type": "node", "id": 1365797762, "lat": 12.9561646, "lon": 77.713565}, {"type": "node", "id": 1381347333, "lat": 12.9561727, "lon": 77.7128895}, {"type": "node", "id": 1381347338, "lat": 12.9574888, "lon": 77.7122282}, {"type": "node", "id": 1381347348, "lat": 12.9579489, "lon": 77.712078}, {"type": "node", "id": 1381347351, "lat": 12.9576543, "lon": 77.7121582}, {"type": "node", "id": 1381347386, "lat": 12.9577816, "lon": 77.7121102}, {"type": "node", "id": 1381347388, "lat": 12.9573197, "lon": 77.7123299}, {"type": "node", "id": 1381347390, "lat": 12.9581227, "lon": 77.7129523}, {"type": "node", "id": 1381347423, "lat": 12.9571229, "lon": 77.7124374}, {"type": "node", "id": 1381347431, "lat": 12.9566471, "lon": 77.7127325}, {"type": "node", "id": 1384956364, "lat": 12.9783298, "lon": 77.7298935}, {"type": "node", "id": 1384956369, "lat": 12.9793195, "lon": 77.7299277}, {"type": "node", "id": 1387699141, "lat": 12.9826547, "lon": 77.7282965, "tags": {"access": "private", "barrier": "gate", "locked": "yes"}}, {"type": "node", "id": 1387699147, "lat": 12.9796445, "lon": 77.7296425}, {"type": "node", "id": 1387699163, "lat": 12.9802566, "lon": 77.7281412}, {"type": "node", "id": 1387699177, "lat": 12.9824239, "lon": 77.7330602}, {"type": "node", "id": 1387699202, "lat": 12.9807109, "lon": 77.7326074}, {"type": "node", "id": 1387699207, "lat": 12.9816747, "lon": 77.7279934, "tags": {"access": "private", "barrier": "gate"}}, {"type": "node", "id": 1387699210, "lat": 12.980662, "lon": 77.732965}, {"type": "node", "id": 1387699222, "lat": 12.9802933, "lon": 77.7329969}, {"type": "node", "id": 1387699232, "lat": 12.9800358, "lon": 77.7327289}, {"type": "node", "id": 1387699235, "lat": 12.9784154, "lon": 77.7317697}, {"type": "node", "id": 1387699252, "lat": 12.9802633, "lon": 77.7275661}, {"type": "node", "id": 1387699267, "lat": 12.9794754, "lon": 77.7295647}, {"type": "node", "id": 1428600902, "lat": 12.9573067, "lon": 77.7087044, "tags": {"addr:city": "Marathahalli, Bangalore", "addr:housenumber": "S1,S2", "addr:street": "Spice Garden Compound Road", "amenity": "hospital", "check_date": "2024-08-25", "emergency": "no", "name": "Tenet diagnostics"}}, {"type": "node", "id": 1437213383, "lat": 12.9111263, "lon": 77.7073377, "tags": {"amenity": "hospital", "name": "Karunalayam Hospital"}}, {"type": "node", "id": 1590229310, "lat": 12.9749882, "lon": 77.7288314}, {"type": "node", "id": 1590229311, "lat": 12.9754895, "lon": 77.7287994}, {"type": "node", "id": 1590229312, "lat": 12.9757092, "lon": 77.7292121}, {"type": "node", "id": 1590229313, "lat": 12.9755515, "lon": 77.7288159}, {"type": "node", "id": 1590229320, "lat": 12.9759159, "lon": 77.7294935}, {"type": "node", "id": 1590229325, "lat": 12.9756849, "lon": 77.7298455}, {"type": "node", "id": 1590229352, "lat": 12.9759858, "lon": 77.7288636}, {"type": "node", "id": 1590229364, "lat": 12.9756795, "lon": 77.729901}, {"type": "node", "id": 1590229376, "lat": 12.9754984, "lon": 77.7294919}, {"type": "node", "id": 1590229381, "lat": 12.9757721, "lon": 77.7292169}, {"type": "node", "id": 1590229383, "lat": 12.975387, "lon": 77.7298551}, {"type": "node", "id": 1590229390, "lat": 12.9757986, "lon": 77.7288494}, {"type": "node", "id": 1590229393, "lat": 12.975527, "lon": 77.7291549}, {"type": "node", "id": 1590229405, "lat": 12.9757094, "lon": 77.7299245}, {"type": "node", "id": 1590229411, "lat": 12.9754642, "lon": 77.7291501}, {"type": "node", "id": 1590229414, "lat": 12.975715, "lon": 77.7298481}, {"type": "node", "id": 1590229417, "lat": 12.9754701, "lon": 77.7298838}, {"type": "node", "id": 1590229429, "lat": 12.9752504, "lon": 77.7295989}, {"type": "node", "id": 1590229433, "lat": 12.9754137, "lon": 77.7294855}, {"type": "node", "id": 1590229435, "lat": 12.9750503, "lon": 77.7296932}, {"type": "node", "id": 1590229449, "lat": 12.9758838, "lon": 77.7299378}, {"type": "node", "id": 1590229452, "lat": 12.9759532, "lon": 77.7293152}, {"type": "node", "id": 1590229462, "lat": 12.976033, "lon": 77.7293213}, {"type": "node", "id": 1590229464, "lat": 12.9750894, "lon": 77.7288391}, {"type": "node", "id": 1590229487, "lat": 12.9750404, "lon": 77.7298287}, {"type": "node", "id": 1590229497, "lat": 12.9757368, "lon": 77.72883}, {"type": "node", "id": 1590229536, "lat": 12.97602, "lon": 77.7295014}, {"type": "node", "id": 1590229566, "lat": 12.9750945, "lon": 77.7287693}, {"type": "node", "id": 1590417919, "lat": 12.975045, "lon": 77.7293135}, {"type": "node", "id": 1590417986, "lat": 12.9749538, "lon": 77.7293066}, {"type": "node", "id": 1590418023, "lat": 12.9752425, "lon": 77.7297078}, {"type": "node", "id": 1590418035, "lat": 12.9750255, "lon": 77.7295818}, {"type": "node", "id": 1594808110, "lat": 12.966207, "lon": 77.6565661}, {"type": "node", "id": 1594808113, "lat": 12.965957, "lon": 77.6560679}, {"type": "node", "id": 1594808116, "lat": 12.9662699, "lon": 77.6561137}, {"type": "node", "id": 1594808117, "lat": 12.9658941, "lon": 77.6565204}, {"type": "node", "id": 1693120843, "lat": 12.9267954, "lon": 77.6699091, "tags": {"amenity": "hospital", "designation": "Hospital", "emergency": "yes", "healthcare": "hospital", "level": "2", "name": "Sunny Medicals Hospital Clinic", "source": "Survey", "wheelchair": "limited", "wheelchair:description": "Steps at entrace to building, lift to hospital"}}, {"type": "node", "id": 2413039443, "lat": 12.9196968, "lon": 77.6649185}, {"type": "node", "id": 2413417389, "lat": 12.9325891, "lon": 77.6859257}, {"type": "node", "id": 2413417397, "lat": 12.9326863, "lon": 77.6847259}, {"type": "node", "id": 2623332318, "lat": 12.9231571, "lon": 77.6728066, "tags": {"amenity": "hospital", "healthcare": "hospital", "name": "Narayana Hrudayalaya Dental Clinic", "name:kn": "\u0ca8\u0cbe\u0cb0\u0cbe\u0caf\u0ca3 \u0cb9\u0cc3\u0ca6\u0caf\u0cbe\u0cb2\u0caf \u0ca6\u0c82\u0ca4 \u0c86\u0cb8\u0ccd\u0caa\u0ca4\u0ccd\u0cb0\u0cc6"}}, {"type": "node", "id": 2678582670, "lat": 12.9555896, "lon": 77.7053584}, {"type": "node", "id": 2678582671, "lat": 12.9555889, "lon": 77.705257}, {"type": "node", "id": 2678582672, "lat": 12.955419, "lon": 77.7052582}, {"type": "node", "id": 2678582673, "lat": 12.9554197, "lon": 77.7053597}, {"type": "node", "id": 2756598466, "lat": 12.98162, "lon": 77.7279564}, {"type": "node", "id": 2756598468, "lat": 12.9817507, "lon": 77.7280164}, {"type": "node", "id": 2756598469, "lat": 12.9818599, "lon": 77.7279249}, {"type": "node", "id": 2937449060, "lat": 12.9607845, "lon": 77.6669509}, {"type": "node", "id": 2937449064, "lat": 12.9617786, "lon": 77.6651962}, {"type": "node", "id": 2937449065, "lat": 12.9608786, "lon": 77.6676965}, {"type": "node", "id": 2937449066, "lat": 12.9608637, "lon": 77.6662637}, {"type": "node", "id": 2937449069, "lat": 12.9608219, "lon": 77.6673634}, {"type": "node", "id": 2937449070, "lat": 12.9625209, "lon": 77.6672454}, {"type": "node", "id": 2937449071, "lat": 12.9615851, "lon": 77.665341}, {"type": "node", "id": 2937449072, "lat": 12.9610773, "lon": 77.6657975}, {"type": "node", "id": 2937449076, "lat": 12.9619103, "lon": 77.6652831}, {"type": "node", "id": 2937449077, "lat": 12.9639525, "lon": 77.6653415}, {"type": "node", "id": 2937449078, "lat": 12.96378, "lon": 77.6655829}, {"type": "node", "id": 2937449080, "lat": 12.9630324, "lon": 77.664553}, {"type": "node", "id": 2937449081, "lat": 12.9610153, "lon": 77.6681225}, {"type": "node", "id": 2937449084, "lat": 12.9620988, "lon": 77.665157}, {"type": "node", "id": 2937449085, "lat": 12.9617263, "lon": 77.6682539}, {"type": "node", "id": 2937449088, "lat": 12.960801, "lon": 77.6665641}, {"type": "node", "id": 3270010723, "lat": 12.9768424, "lon": 77.7103746, "tags": {"addr:city": "Mahadevapura, Bangalore", "addr:postcode": "560048", "amenity": "hospital", "check_date": "2025-10-30", "email": "info@rxdx.in", "healthcare": "hospital", "healthcare:speciality": "physiotherapy", "name": "Telerad Rx Dx Health Care Whitefield", "operator": "RxDx", "operator:type": "private", "phone": "+91-80-49261111;+91-80-40187588", "website": "https://rxdx.in/"}}, {"type": "node", "id": 3296862868, "lat": 12.9753301, "lon": 77.7291437}, {"type": "node", "id": 3296862869, "lat": 12.9752081, "lon": 77.7291345}, {"type": "node", "id": 3296862870, "lat": 12.9753431, "lon": 77.7289639}, {"type": "node", "id": 3296862871, "lat": 12.975221, "lon": 77.7289547}, {"type": "node", "id": 3298366366, "lat": 12.9632004, "lon": 77.6647822}, {"type": "node", "id": 3477797688, "lat": 12.9241818, "lon": 77.6737518, "tags": {"addr:district": "Bengaluru Urban", "addr:full": "446/21 Above Vijaya Bank, Opposite To Amba Bajaja Showroom", "addr:postcode": "560103", "addr:state": "Karnataka", "amenity": "hospital", "healthcare": "hospital", "name": "Nelivigi Eye Hospital", "operator:type": "private", "source": "OpenGovernmentData", "website": "https://www.nelivigieyehospital.com/"}}, {"type": "node", "id": 3530517739, "lat": 12.9662374, "lon": 77.6563494}, {"type": "node", "id": 3532358821, "lat": 12.9599032, "lon": 77.7125839}, {"type": "node", "id": 3532358831, "lat": 12.9599161, "lon": 77.7126902}, {"type": "node", "id": 3532358875, "lat": 12.9600078, "lon": 77.7125706}, {"type": "node", "id": 3532358887, "lat": 12.9600206, "lon": 77.7126768}, {"type": "node", "id": 3532434494, "lat": 12.9717686, "lon": 77.6938451}, {"type": "node", "id": 3532434495, "lat": 12.9717689, "lon": 77.6937066}, {"type": "node", "id": 3532434500, "lat": 12.9718549, "lon": 77.6938453}, {"type": "node", "id": 3532434501, "lat": 12.9718552, "lon": 77.6937069}, {"type": "node", "id": 3541798347, "lat": 12.9517397, "lon": 77.6994832, "tags": {"amenity": "hospital", "healthcare": "hospital", "level": "1", "name": "Sanghi Medical Centre (P) Ltd"}}, {"type": "node", "id": 3649025368, "lat": 12.9580124, "lon": 77.7448289}, {"type": "node", "id": 3649025372, "lat": 12.9587404, "lon": 77.7451587}, {"type": "node", "id": 3649025380, "lat": 12.9585113, "lon": 77.7448829}, {"type": "node", "id": 3649025384, "lat": 12.9579249, "lon": 77.7457783}, {"type": "node", "id": 3649025387, "lat": 12.9585061, "lon": 77.7460376}, {"type": "node", "id": 3649025392, "lat": 12.9587744, "lon": 77.7455208}, {"type": "node", "id": 3649058148, "lat": 12.9660052, "lon": 77.7025354}, {"type": "node", "id": 3649058149, "lat": 12.9659818, "lon": 77.7026868}, {"type": "node", "id": 3649058150, "lat": 12.9658755, "lon": 77.7024194}, {"type": "node", "id": 3649058151, "lat": 12.9660223, "lon": 77.7026392}, {"type": "node", "id": 3649058153, "lat": 12.9657924, "lon": 77.7025173}, {"type": "node", "id": 3697287972, "lat": 12.9669259, "lon": 77.7171885}, {"type": "node", "id": 4325331196, "lat": 12.9599306, "lon": 77.7160447, "tags": {"amenity": "hospital", "healthcare": "hospital", "name": "SRL Diagnostics"}}, {"type": "node", "id": 4440829279, "lat": 12.911533, "lon": 77.6764094, "tags": {"addr:city": "Bangalore", "addr:postcode": "560035", "addr:street": "Kasvanahalli Road, Behind State Bank of Mysore, Sarjapur Road, Kaikondrahalli", "amenity": "hospital", "emergency": "yes", "healthcare": "hospital", "name": "Stanford Speciality Hospital", "phone": "080 6566 6689"}}, {"type": "node", "id": 4440931106, "lat": 12.9124371, "lon": 77.6813917, "tags": {"addr:city": "Bangalore", "addr:housenumber": "No.7/1", "addr:postcode": "560035", "addr:street": "Sarjapur Road", "amenity": "hospital", "emergency": "yes", "name": "Dr Mohan Nursing Home", "phone": "+91-80-42119084"}}, {"type": "node", "id": 4440939217, "lat": 12.9072384, "lon": 77.6755805, "tags": {"addr:city": "Bengaluru", "addr:housenumber": "4/21", "addr:postcode": "560035", "addr:street": "Kasavanahalli Road", "amenity": "hospital", "healthcare": "hospital", "name": "Sparsh Clinic", "phone": "+91-99000 19567"}}, {"type": "node", "id": 4440946384, "lat": 12.9041502, "lon": 77.6741043, "tags": {"addr:city": "Bangalore", "addr:housenumber": "9 IAS layout", "addr:postcode": "560035", "addr:street": "Lake Shore HomesRoad, Amrita college road, off sarjapur road, Kasavanahalli", "amenity": "hospital", "healthcare": "hospital", "name": "Raksha Orthopaedic And Multi Speciality Centre", "phone": "+91-74115 27777"}}, {"type": "node", "id": 4441670838, "lat": 12.9121008, "lon": 77.6820003, "tags": {"addr:city": "Bangalore", "addr:housenumber": "No. 65/1, 1st Floor", "addr:postcode": "560035", "addr:street": "Doddakannelli,\u00a0Sarjapur Road", "amenity": "hospital", "healthcare:speciality": "general;dermatology;clinic", "name": "Naadi Ayurveda Center", "operator": "Kotakkal Arya Vaidyashala", "phone": "+91-9980016089"}}, {"type": "node", "id": 4441681632, "lat": 12.9217604, "lon": 77.6618321, "tags": {"addr:city": "Bengaluru", "addr:postcode": "560103", "addr:street": "Service Rd, Agara, Iblur Village, Bellandur", "amenity": "hospital", "healthcare": "hospital", "name": "Kottakkal Arya Vaidya Sala", "phone": "+91-80 6450 4434", "website": "https://aryavaidyasala.com/"}}, {"type": "node", "id": 4441938603, "lat": 12.9122002, "lon": 77.6818637, "tags": {"addr:city": "bangaluru", "addr:housenumber": "65", "addr:postcode": "560035", "addr:street": "Sarjapur Main Rd, Kaikondrahalli", "amenity": "hospital", "name": "The Family Doctor & The Family Pharma", "phone": "+91-80 2574 6204", "website": "https://www.thefamilydoctor.co.in/"}}, {"type": "node", "id": 4445167354, "lat": 12.9179831, "lon": 77.6691258, "tags": {"addr:city": "Bangalore", "addr:postcode": "560034", "addr:street": "Sarjapur Main Rd, Bellandur", "amenity": "hospital", "healthcare": "hospital", "name": "Dr Rachna - Homeopathy", "phone": "+9195909 10963"}}, {"type": "node", "id": 4445213681, "lat": 12.9240063, "lon": 77.6545058, "tags": {"addr:city": "Bangalore", "addr:housenumber": "65/8", "addr:postcode": "560102", "addr:street": "Third Floor, H.S.R Agara Circle, Sarjapura, Outer Ring Rd, Agara Village, HSR Layout,", "amenity": "hospital", "healthcare": "hospital", "name": "Welnext", "phone": "+9196960 00222", "website": "https://welnext.com/"}}, {"type": "node", "id": 4446919794, "lat": 12.9566858, "lon": 77.7419283, "tags": {"addr:city": "Bengaluru", "addr:housenumber": "32", "addr:postcode": "560066", "addr:street": "MCC Tower, Opposite Sigma Tech Park, Varthur Kodi, Varthur Main Rd, Ramagondanahalli, Whitefield", "amenity": "hospital", "emergency": "yes", "healthcare": "hospital", "name": "Hair Loss Treatment in Bangalore - Hairline International", "phone": "091488 74972", "source": "http://www.bangalorean.co.in/", "website": "hairline.in"}}, {"type": "node", "id": 4474487215, "lat": 12.9157501, "lon": 77.6756114}, {"type": "node", "id": 4474487222, "lat": 12.9156378, "lon": 77.6754751}, {"type": "node", "id": 4690537789, "lat": 12.9817167, "lon": 77.6800412, "tags": {"addr:district": "Bengaluru Urban", "addr:full": "SRR Arcade, C.V. Raman Nagar, Kaggadasapura, Bengaluru", "addr:postcode": "560093", "addr:state": "Karnataka", "amenity": "hospital", "name": "Comfort Multispeciality Hospital", "name:en": "Comfort multispeciality hospital", "source": "Local Knowledge"}}, {"type": "node", "id": 5106809421, "lat": 12.9597752, "lon": 77.6569127, "tags": {"addr:district": "Bengaluru Urban", "addr:full": "#115,Kodihalli,Old Airport Road", "addr:postcode": "560001", "addr:state": "Karnataka", "amenity": "hospital", "healthcare": "hospital", "name": "Cloudnine Hospital Pvt. Ltd.", "name:en": "cloud nine", "source": "OpenGovernmentData"}}, {"type": "node", "id": 5774292416, "lat": 12.9202127, "lon": 77.6655913}, {"type": "node", "id": 5780885021, "lat": 12.919575, "lon": 77.6654218}, {"type": "node", "id": 5781340796, "lat": 12.9181937, "lon": 77.6722846}, {"type": "node", "id": 5781340797, "lat": 12.9181002, "lon": 77.6724716}, {"type": "node", "id": 5781340798, "lat": 12.9176332, "lon": 77.6722259}, {"type": "node", "id": 5781340799, "lat": 12.9177267, "lon": 77.6720389}, {"type": "node", "id": 5804557878, "lat": 12.9138425, "lon": 77.6794486}, {"type": "node", "id": 5804557879, "lat": 12.9137262, "lon": 77.6798147}, {"type": "node", "id": 5804557880, "lat": 12.9133171, "lon": 77.6797302}, {"type": "node", "id": 5804557881, "lat": 12.9132765, "lon": 77.6797141}, {"type": "node", "id": 5804557882, "lat": 12.9133733, "lon": 77.6792957}, {"type": "node", "id": 5964111211, "lat": 12.9317501, "lon": 77.6858251}, {"type": "node", "id": 5964111212, "lat": 12.9318559, "lon": 77.6851639}, {"type": "node", "id": 5964111213, "lat": 12.9318533, "lon": 77.684731}, {"type": "node", "id": 5968463133, "lat": 12.9754139, "lon": 77.6975146}, {"type": "node", "id": 5968463134, "lat": 12.9755052, "lon": 77.6975872}, {"type": "node", "id": 5968463135, "lat": 12.9757656, "lon": 77.6976703}, {"type": "node", "id": 5968463136, "lat": 12.9756673, "lon": 77.6981534}, {"type": "node", "id": 5968463137, "lat": 12.97485, "lon": 77.698003}, {"type": "node", "id": 5968463138, "lat": 12.9748629, "lon": 77.6978685}, {"type": "node", "id": 6018675583, "lat": 12.956216, "lon": 77.713336, "tags": {"access": "private", "barrier": "gate"}}, {"type": "node", "id": 6137643281, "lat": 12.8967728, "lon": 77.6947943}, {"type": "node", "id": 6137643282, "lat": 12.8963179, "lon": 77.6954783}, {"type": "node", "id": 6137643283, "lat": 12.8960538, "lon": 77.6953013}, {"type": "node", "id": 6137643284, "lat": 12.8965009, "lon": 77.6946495}, {"type": "node", "id": 6938889541, "lat": 12.9551501, "lon": 77.7051643, "tags": {"addr:district": "Bengaluru Urban", "addr:full": "#103, Munnekolal, Verthur Road, Marthahalli Post", "addr:postcode": "560037", "addr:state": "Karnataka", "amenity": "hospital", "name": "Lions Airport City Hospital", "source": "OpenGovernmentData"}}, {"type": "node", "id": 6944143695, "lat": 12.9825937, "lon": 77.6814736, "tags": {"addr:district": "Bengaluru Urban", "addr:full": "21st Cross Kaggadasapura Main Road C V Raman Nagar", "addr:postcode": "560093", "addr:state": "Karnataka", "amenity": "hospital", "name": "Sree Lakshmi Hospital", "source": "OpenGovernmentData"}}, {"type": "node", "id": 6944290474, "lat": 12.9651587, "lon": 77.7150508, "tags": {"addr:district": "Bengaluru Urban", "addr:full": "#477, I Main 'B' Block, Aecs Layout,,Kundalahalli", "addr:postcode": "560037", "addr:state": "Karnataka", "amenity": "hospital", "check_date": "2025-08-05", "name": "Aayug Multi Speciality Hospital", "operator:type": "private", "source": "OpenGovernmentData", "website": "http://dpal.kar.nic.in/Kanunu%20padakosha%20PDF%20Files/Recognised%20Hospitals.pdf"}}, {"type": "node", "id": 6944290475, "lat": 12.9568547, "lon": 77.7002262, "tags": {"addr:district": "Bengaluru Urban", "addr:full": "96,Varthur Main Road, Marathahalli", "addr:postcode": "560037", "addr:state": "Karnataka", "amenity": "hospital", "check_date": "2024-12-29", "healthcare": "hospital", "name": "MGA Hospital", "source": "OpenGovernmentData"}}, {"type": "node", "id": 6944578925, "lat": 12.9675989, "lon": 77.6565533, "tags": {"addr:district": "Bengaluru Urban", "addr:full": "Ist Floor, Lic Colony Main Road, Jeevan Bhima Nagar", "addr:postcode": "560032", "addr:state": "Karnataka", "amenity": "hospital", "name": "Dr Chaitanyas Dental Care & Implant Centre", "source": "OpenGovernmentData"}}, {"type": "node", "id": 7140653801, "lat": 12.9721779, "lon": 77.6807872, "tags": {"amenity": "hospital", "healthcare": "hospital", "name": "Venus MultiSpeciality Hospital"}}, {"type": "node", "id": 7202724055, "lat": 12.922327, "lon": 77.736038, "tags": {"addr:district": "Bangalore", "addr:full": "Gunjur", "addr:postcode": "560087", "addr:state": "Karnataka", "addr:subdistrict": "Bangalore East", "amenity": "hospital", "name": "Government Hospital, Gunjur", "source": "OpenGovernmentData"}}, {"type": "node", "id": 7436576283, "lat": 12.9659541, "lon": 77.6560885}, {"type": "node", "id": 7572131814, "lat": 12.9807257, "lon": 77.6823734, "tags": {"addr:district": "Bengaluru Urban", "addr:full": "Nagappareddy Layout, Kaggadasapura, Bengaluru", "addr:postcode": "560093", "addr:state": "Karnataka", "amenity": "hospital", "name": "Little Flower Hospital", "source": "Local Knowledge"}}, {"type": "node", "id": 7572131892, "lat": 12.973637, "lon": 77.675186, "tags": {"addr:district": "Bengaluru Urban", "addr:full": "Malleshpalya, New Tippasandra, Bengaluru", "addr:postcode": "560075", "addr:state": "Karnataka", "amenity": "hospital", "healthcare": "hospital", "name": "Medihope Super Specialty Hospital", "source": "Local Knowledge"}}, {"type": "node", "id": 7572526690, "lat": 12.957269, "lon": 77.653945, "tags": {"addr:district": "Bengaluru Urban", "addr:full": "Kaveri Nagar, Murgesh Pallya, Bengaluru", "addr:postcode": "560017", "addr:state": "Karnataka", "amenity": "hospital", "name": "OJUS Multi Speciality Hospital", "source": "Local Knowledge", "wheelchair": "limited"}}, {"type": "node", "id": 7572526699, "lat": 12.9635299, "lon": 77.6662889, "tags": {"addr:district": "Bengaluru Urban", "addr:full": "Jyothi Nagar, Bengaluru", "addr:postcode": "560017", "addr:state": "Karnataka", "amenity": "hospital", "name": "Jhon's Medical Hospital", "source": "Local Knowledge"}}, {"type": "node", "id": 7572526747, "lat": 12.9589495, "lon": 77.6603768, "tags": {"addr:district": "Bengaluru Urban", "addr:floor": "G", "addr:full": "Near Rajeshwari Theatre, Murgesh Pallya, Bengaluru", "addr:postcode": "560017", "addr:state": "Karnataka", "amenity": "hospital", "check_date": "2025-10-19", "healthcare": "hospital", "level": "0", "name": "Magdum Hospital", "source": "Local Knowledge"}}, {"type": "node", "id": 7572526798, "lat": 12.9583212, "lon": 77.659636, "tags": {"addr:district": "Bengaluru Urban", "addr:full": "Konena Agrahara, Murgesh Pallya, Bengaluru", "addr:postcode": "560017", "addr:state": "Karnataka", "amenity": "hospital", "healthcare": "hospital", "name": "Dr. Hemant Agrawal", "source": "Local Knowledge"}}, {"type": "node", "id": 7572526802, "lat": 12.958861, "lon": 77.654322, "tags": {"addr:district": "Bengaluru Urban", "addr:full": "Kaveri Nagar, Murgesh Pallya, Bengaluru", "addr:postcode": "560017", "addr:state": "Karnataka", "amenity": "hospital", "name": "Miracle Hopital", "source": "Local Knowledge", "wheelchair": "limited"}}, {"type": "node", "id": 9828540924, "lat": 12.9246383, "lon": 77.6723232}, {"type": "node", "id": 9828540925, "lat": 12.9242012, "lon": 77.6722551}, {"type": "node", "id": 9828540926, "lat": 12.924427, "lon": 77.672739}, {"type": "node", "id": 9828540927, "lat": 12.9245522, "lon": 77.6726953}, {"type": "node", "id": 9830781726, "lat": 12.9365283, "lon": 77.7046741, "tags": {"amenity": "hospital", "name": "Maya Hospital"}}, {"type": "node", "id": 9830902289, "lat": 12.9125713, "lon": 77.6764777}, {"type": "node", "id": 9830902290, "lat": 12.9124101, "lon": 77.6764687}, {"type": "node", "id": 9830902291, "lat": 12.9124013, "lon": 77.6766369}, {"type": "node", "id": 9830902292, "lat": 12.9125624, "lon": 77.6766458}, {"type": "node", "id": 9841433907, "lat": 12.9556074, "lon": 77.7216631, "tags": {"amenity": "hospital", "check_date": "2025-06-28", "healthcare": "hospital", "healthcare:speciality": "ophthalmology", "name": "Devi Eye Hospital"}}, {"type": "node", "id": 9874033652, "lat": 12.9337751, "lon": 77.7433234, "tags": {"amenity": "hospital", "check_date": "2025-06-28", "healthcare": "hospital", "name": "Sahasra Hospital", "name:kn": "\u0cb8\u0cb9\u0cb8\u0ccd\u0cb0 \u0c86\u0cb8\u0ccd\u0caa\u0ca4\u0ccd\u0cb0\u0cc6"}}, {"type": "node", "id": 9917513737, "lat": 12.9668844, "lon": 77.7173911}, {"type": "node", "id": 9917513738, "lat": 12.9666638, "lon": 77.7173478}, {"type": "node", "id": 9917513739, "lat": 12.9667009, "lon": 77.7171407}, {"type": "node", "id": 9970369520, "lat": 12.9107968, "lon": 77.7077392}, {"type": "node", "id": 9970369521, "lat": 12.9111027, "lon": 77.7077928}, {"type": "node", "id": 9970369522, "lat": 12.9110034, "lon": 77.708281}, {"type": "node", "id": 9970369523, "lat": 12.9112596, "lon": 77.7083749}, {"type": "node", "id": 9970369524, "lat": 12.9117354, "lon": 77.7073476}, {"type": "node", "id": 9970369525, "lat": 12.9108125, "lon": 77.7075863}, {"type": "node", "id": 9970369526, "lat": 12.9109615, "lon": 77.7067924}, {"type": "node", "id": 10051271572, "lat": 12.9563317, "lon": 77.7305782, "tags": {"amenity": "hospital", "check_date": "2025-06-29", "healthcare": "hospital", "healthcare:speciality": "ent", "name": "Siddanth Hospital"}}, {"type": "node", "id": 10137293053, "lat": 12.9263862, "lon": 77.6766068, "tags": {"amenity": "hospital", "healthcare": "hospital", "name": "Apollo Pharmacy"}}, {"type": "node", "id": 10264081912, "lat": 12.9833672, "lon": 77.7286208, "tags": {"access": "private", "barrier": "gate", "locked": "yes"}}, {"type": "node", "id": 10715838791, "lat": 12.9804146, "lon": 77.7276716}, {"type": "node", "id": 10715838792, "lat": 12.9803684, "lon": 77.727587}, {"type": "node", "id": 10744702175, "lat": 12.9795457, "lon": 77.7295971, "tags": {"barrier": "gate"}}, {"type": "node", "id": 10948384364, "lat": 12.9019638, "lon": 77.7164575}, {"type": "node", "id": 10948384379, "lat": 12.9021273, "lon": 77.714729}, {"type": "node", "id": 10948384383, "lat": 12.9020907, "lon": 77.7160674}, {"type": "node", "id": 10948384384, "lat": 12.9021038, "lon": 77.7164912}, {"type": "node", "id": 10948384385, "lat": 12.901058, "lon": 77.7162391}, {"type": "node", "id": 10948384386, "lat": 12.9015182, "lon": 77.714552}, {"type": "node", "id": 10963251389, "lat": 12.9094156, "lon": 77.663997, "tags": {"addr:city": "Bengaluru", "addr:postcode": "560102", "addr:street": "HARLUR MAIN ROAD ,OPP.OZONE EVERGREEN SOCIETY GATE 1", "amenity": "hospital", "emergency": "yes", "healthcare": "hospital", "healthcare:speciality": "dentist", "name": "The Local Dentist", "operator": "DENTAL CLINIC", "operator:type": "business"}}, {"type": "node", "id": 11051170248, "lat": 12.956203, "lon": 77.7136546}, {"type": "node", "id": 11075395440, "lat": 12.9153904, "lon": 77.675278}, {"type": "node", "id": 11075395441, "lat": 12.91564, "lon": 77.6747945}, {"type": "node", "id": 11075395442, "lat": 12.9159951, "lon": 77.6749527}, {"type": "node", "id": 11200483514, "lat": 12.9804936, "lon": 77.7277163}, {"type": "node", "id": 11329604867, "lat": 12.9830536, "lon": 77.7284639}, {"type": "node", "id": 11753319908, "lat": 12.9154066, "lon": 77.6752466}, {"type": "node", "id": 11821503969, "lat": 12.9824192, "lon": 77.7321245}, {"type": "node", "id": 11962404414, "lat": 12.9198055, "lon": 77.6672841}, {"type": "node", "id": 11962404415, "lat": 12.9207377, "lon": 77.6675136}, {"type": "node", "id": 11962404416, "lat": 12.9207097, "lon": 77.6676637}, {"type": "node", "id": 11962404417, "lat": 12.9199349, "lon": 77.6674794}, {"type": "node", "id": 11962404418, "lat": 12.9197342, "lon": 77.6674205}, {"type": "node", "id": 12183790887, "lat": 12.9202322, "lon": 77.665534}, {"type": "node", "id": 12183790888, "lat": 12.9203478, "lon": 77.6651395}, {"type": "node", "id": 12215405428, "lat": 12.9710909, "lon": 77.6656532}, {"type": "node", "id": 12215405429, "lat": 12.9710777, "lon": 77.6659387}, {"type": "node", "id": 12215405430, "lat": 12.9714295, "lon": 77.6659955}, {"type": "node", "id": 12215405431, "lat": 12.9715064, "lon": 77.6656693}, {"type": "node", "id": 12215405432, "lat": 12.9717912, "lon": 77.6652651}, {"type": "node", "id": 12215405433, "lat": 12.9708431, "lon": 77.6643626}, {"type": "node", "id": 12215405434, "lat": 12.9705528, "lon": 77.6654303}, {"type": "node", "id": 12466456674, "lat": 12.9570192, "lon": 77.7118744}, {"type": "node", "id": 12466456675, "lat": 12.9571946, "lon": 77.7123982}, {"type": "node", "id": 12466456676, "lat": 12.9562203, "lon": 77.7120465}, {"type": "node", "id": 12538499871, "lat": 12.9785213, "lon": 77.7298984}, {"type": "node", "id": 12615547386, "lat": 12.9090814, "lon": 77.6638713}, {"type": "node", "id": 12615547387, "lat": 12.9090108, "lon": 77.6638578}, {"type": "node", "id": 12615547388, "lat": 12.9090004, "lon": 77.6639115}, {"type": "node", "id": 12615547389, "lat": 12.9090788, "lon": 77.6639222}, {"type": "node", "id": 12651832969, "lat": 12.9566829, "lon": 77.7414284, "tags": {"amenity": "hospital", "check_date": "2025-03-11", "healthcare": "hospital", "name": "Cloud Nine"}}, {"type": "node", "id": 12767981104, "lat": 12.980602, "lon": 77.7092104, "tags": {"amenity": "hospital", "name": "Narayana Nethralaya", "opening_hours": "Mo-Sa 08:30-18:00", "phone": "08066121658", "website": "https://www.narayananethralaya.org/"}}, {"type": "node", "id": 12767981105, "lat": 12.9762006, "lon": 77.7258334, "tags": {"amenity": "hospital", "name": "Nethradhama", "opening_hours": "Mo-Sa 09:00-20:00,Su 09:00-13:00", "phone": "080 62646800", "website": "https://nethradhama.org/"}}, {"type": "node", "id": 13065353808, "lat": 12.9023198, "lon": 77.715214}, {"type": "node", "id": 13065353809, "lat": 12.9023985, "lon": 77.7150923}, {"type": "node", "id": 13165790304, "lat": 12.9668747, "lon": 77.7179259}, {"type": "node", "id": 13165790305, "lat": 12.9668727, "lon": 77.7180211}, {"type": "node", "id": 13165790306, "lat": 12.9671975, "lon": 77.7180281}, {"type": "node", "id": 13165790307, "lat": 12.9671994, "lon": 77.7179329}, {"type": "node", "id": 13173681435, "lat": 12.9007868, "lon": 77.6756594}, {"type": "node", "id": 13173681436, "lat": 12.9007563, "lon": 77.6759596}, {"type": "node", "id": 13173681437, "lat": 12.9003444, "lon": 77.6759112}, {"type": "node", "id": 13173681438, "lat": 12.9003764, "lon": 77.6756139}, {"type": "node", "id": 13282913268, "lat": 12.9707637, "lon": 77.6655111}, {"type": "node", "id": 13282913277, "lat": 12.9715891, "lon": 77.6655519}, {"type": "node", "id": 13282913286, "lat": 12.9711268, "lon": 77.6656978}, {"type": "node", "id": 13282913287, "lat": 12.9709567, "lon": 77.665585}, {"type": "node", "id": 13282913331, "lat": 12.9706789, "lon": 77.6650922}, {"type": "way", "id": 122157597, "nodes": [1365797762, 11051170248, 1365797746, 1365797741, 1365797761, 1381347390, 1365797762], "tags": {"amenity": "hospital", "healthcare": "hospital", "name": "Karunashraya", "name:kn": "\u0c95\u0cb0\u0cc1\u0ca3\u0cbe\u0cb6\u0ccd\u0cb0\u0caf", "website": "https://www.karunashraya.org/"}}, {"type": "way", "id": 124013168, "nodes": [6018675583, 1365797762, 1381347390, 1381347348, 1381347386, 1381347351, 1381347338, 1381347388, 12466456675, 1381347423, 1381347431, 1381347333, 6018675583], "tags": {"addr:city": "Bengaluru", "addr:district": "Bengaluru Urban", "addr:full": "Varthur Main Road, Kundalahalli Gate, Marahahalli-White Field Road", "addr:postcode": "560037", "addr:state": "Karnataka", "addr:street": "Varthur Road", "amenity": "hospital", "boundary": "wall", "check_date": "2025-09-03", "email": "bangalore@sankaraeye.com", "healthcare": "hospital", "healthcare:speciality": "ophthalmology", "name": "Sankara Eye Hospital", "name:kn": "\u0cb6\u0c82\u0c95\u0cb0 \u0ca8\u0cc7\u0ca4\u0ccd\u0cb0\u0cbe\u0cb2\u0caf", "website": "https://www.sankaraeye.com"}}, {"type": "way", "id": 124782791, "nodes": [1387699252, 10715838792, 10715838791, 11200483514, 2756598466, 1387699207, 2756598468, 2756598469, 1387699141, 11329604867, 10264081912, 1309873536, 1309873534, 11821503969, 1387699177, 1387699202, 1387699210, 1387699222, 1387699232, 1387699235, 1384956364, 12538499871, 1384956369, 1387699267, 10744702175, 1387699147, 1387699163, 1387699252], "tags": {"amenity": "hospital", "barrier": "wall", "healthcare": "hospital", "name": "Sri Sathya Sai Institute of Higher Medical Sciences", "name:etymology:wikidata": "Q483931", "wikidata": "Q11308041"}}, {"type": "way", "id": 145651581, "nodes": [1590229462, 1590229452, 1590229352, 1590229390, 1590229381, 1590229312, 1590229497, 1590229313, 1590229393, 1590229411, 1590229311, 1590229566, 1590229464, 1590229310, 1590417986, 1590417919, 1590418035, 1590229429, 1590418023, 1590229435, 1590229487, 1590229383, 1590229433, 1590229376, 1590229417, 1590229364, 1590229325, 1590229414, 1590229405, 1590229449, 1590229320, 1590229536, 1590229462]}, {"type": "way", "id": 146204781, "nodes": [1594808117, 7436576283, 1594808113, 1594808116, 3530517739, 1594808110, 1594808117], "tags": {"amenity": "hospital", "name": "ISRO Employees Hospital", "name:kn": "\u0c87\u0cb8\u0ccd\u0cb0\u0ccb \u0c86\u0cb8\u0ccd\u0caa\u0ca4\u0ccd\u0cb0\u0cc6"}}, {"type": "way", "id": 262198741, "nodes": [2678582670, 2678582671, 2678582672, 2678582673, 2678582670], "tags": {"amenity": "hospital", "building": "yes", "healthcare": "hospital", "name": "Lions Seva Hospital"}}, {"type": "way", "id": 290187542, "nodes": [2937449072, 2937449066, 2937449088, 2937449060, 2937449069, 2937449065, 2937449081, 2937449085, 2937449070, 2937449078, 2937449077, 3298366366, 2937449080, 2937449084, 2937449076, 2937449064, 2937449071, 2937449072], "tags": {"alt_name": "Hindustan Aeronautics Limited Hospital", "amenity": "hospital", "emergency": "yes", "name": "HAL Hospital", "name:kn": "\u0c8e\u0c9a\u0ccd\u0c8e\u0c8e\u0cb2\u0ccd \u0c86\u0cb8\u0ccd\u0caa\u0ca4\u0ccd\u0cb0\u0cc6", "wheelchair": "yes"}}, {"type": "way", "id": 322897153, "nodes": [3296862870, 3296862871, 3296862869, 3296862868, 3296862870]}, {"type": "way", "id": 346714039, "nodes": [3532358875, 3532358887, 3532358831, 3532358821, 3532358875], "tags": {"addr:city": "Bangalore", "addr:district": "Bengaluru Urban", "addr:housenumber": "15", "addr:postcode": "560037", "addr:street": "3rd Cross Road, Vaikuntam Layout", "amenity": "hospital", "building:levels": "1", "description": "Speech Therapy Center", "healthcare": "hospital", "name": "Ways2Guide Speech Therapy Center"}}, {"type": "way", "id": 346722362, "nodes": [3532434501, 3532434500, 3532434494, 3532434495, 3532434501], "tags": {"addr:district": "Bangalore", "addr:full": "Vibhutipura Extension, Doddanekundi", "addr:postcode": "560037", "addr:state": "Karnataka", "addr:subdistrict": "Bangalore East", "amenity": "hospital", "building": "yes", "building:levels": "1", "check_date": "2024-04-01", "healthcare": "hospital", "name": "Government Primary Health Centre", "name:kn": "\u0cb8\u0cb0\u0ccd\u0c95\u0cbe\u0cb0\u0cbf \u0caa\u0ccd\u0cb0\u0cbe\u0ca5\u0cae\u0cbf\u0c95 \u0c86\u0cb0\u0ccb\u0c97\u0ccd\u0caf \u0c95\u0cc7\u0c82\u0ca6\u0ccd\u0cb0", "source": "OpenGovernmentData"}}, {"type": "way", "id": 360342803, "nodes": [3649025392, 3649025387, 3649025384, 3649025368, 3649025380, 3649025372, 3649025392], "tags": {"amenity": "hospital", "check_date": "2025-06-03", "emergency": "yes", "healthcare": "hospital", "healthcare:speciality": "general;paediatrics;emergency;gynaecology", "name": "Manipal Hospitals", "name:kn": "\u0cae\u0ca3\u0cbf\u0caa\u0cbe\u0cb2 \u0c86\u0cb8\u0ccd\u0caa\u0ca4\u0ccd\u0cb0\u0cc6", "old_name": "Columbia Asia Whitefield"}}, {"type": "way", "id": 360347699, "nodes": [3649058149, 3649058153, 3649058150, 3649058148, 3649058151, 3649058149], "tags": {"amenity": "hospital", "building": "yes", "check_date": "2025-05-31", "emergency": "yes", "name": "Jeevika Hospital", "name:kn": "\u0c9c\u0cc0\u0cb5\u0cbf\u0c95 \u0c86\u0cb8\u0ccd\u0caa\u0ca4\u0ccd\u0cb0\u0cc6", "payment:cash": "yes", "payment:credit_cards": "yes", "payment:debit_cards": "yes", "source": "survey", "wheelchair": "yes"}}, {"type": "way", "id": 610471335, "nodes": [5781340796, 5781340797, 5781340798, 5781340799, 5781340796], "tags": {"amenity": "hospital", "healthcare": "hospital", "healthcare:speciality": "gynaecology", "name": "Motherhood"}}, {"type": "way", "id": 611385979, "nodes": [456013713, 2413039443, 5780885021, 5774292416, 12183790887, 12183790888, 456013713], "tags": {"amenity": "hospital", "check_date": "2025-02-12", "emergency": "yes", "healthcare": "hospital", "name": "Manipal Hospitals", "name:kn": "\u0cae\u0ca3\u0cbf\u0caa\u0cbe\u0cb2 \u0c86\u0cb8\u0ccd\u0caa\u0ca4\u0ccd\u0cb0\u0cc6", "payment:cash": "yes", "payment:mastercard": "yes", "payment:visa": "yes", "source": "survey", "wheelchair": "yes"}}, {"type": "way", "id": 613474107, "nodes": [5804557878, 5804557879, 5804557880, 5804557881, 5804557882, 5804557878], "tags": {"addr:city": "Bengaluru", "addr:housenumber": "66", "addr:postcode": "560034", "addr:street": "Kaikondrahalli, Sarjapur Road", "amenity": "hospital", "emergency": "yes", "healthcare": "hospital", "name": "Suvarnamukhi", "name:kn": "\u0cb8\u0cc1\u0cb5\u0cb0\u0ccd\u0ca3\u0cae\u0cc1\u0c96\u0cbf \u0c86\u0cb8\u0ccd\u0caa\u0ca4\u0ccd\u0cb0\u0cc6", "phone": "+91 98451 26869"}}, {"type": "way", "id": 631580848, "nodes": [2413417397, 2413417389, 5964111211, 5964111212, 5964111213, 2413417397], "tags": {"addr:housenumber": "52/2, 52/3", "addr:street": "Kariammana Agrahara Road", "amenity": "hospital", "check_date": "2025-09-03", "contact:phone": "080 4962 4962", "contact:website": "https://www.sakraworldhospital.com/", "emergency": "yes", "healthcare": "hospital", "healthcare:speciality": "dermatology;otolaryngology;urology;blood_check;cardiology;intensive;diabetology;orthopaedics;cardiothoracic_surgery;gynaecology;paediatrics;emergency;general;dentistry;dental_oral_maxillo_facial_surgery;rheumatology;anaesthetics;plastic_surgery;dialysis", "name": "Sakra World", "opening_hours": "24/7", "operator:type": "private", "payment:cash": "yes", "payment:credit_cards": "yes", "payment:debit_cards": "yes", "payment:qr_code": "yes", "payment:upi": "yes", "wheelchair": "yes", "wikidata": "Q134999916"}}, {"type": "way", "id": 632111019, "nodes": [5968463133, 5968463134, 5968463135, 5968463136, 5968463137, 5968463138, 5968463133], "tags": {"amenity": "hospital", "check_date": "2025-08-16", "emergency": "yes", "healthcare": "hospital", "name": "Rainbow Children's Hospital", "operator:type": "private", "payment:mastercard": "yes", "payment:visa": "yes", "wheelchair": "yes"}}, {"type": "way", "id": 655045245, "nodes": [6137643281, 6137643282, 6137643283, 6137643284, 6137643281], "tags": {"addr:district": "Bengaluru Urban", "addr:full": "14/2,Chikkanayakanahalli Village, Off Sarjapur Road", "addr:postcode": "560035", "addr:state": "Karnataka", "amenity": "hospital", "healthcare": "hospital", "healthcare:speciality": "ayurveda", "name": "Punarjani Ayurvedic Multispeciality Hospital", "source": "OpenGovernmentData"}}, {"type": "way", "id": 1071044455, "nodes": [9828540924, 9828540925, 9828540926, 9828540927, 9828540924], "tags": {"amenity": "hospital", "check_date": "2025-02-12", "healthcare": "hospital", "healthcare:speciality": "maternity", "name": "Cloudnine", "payment:cash": "yes", "payment:mastercard": "yes", "payment:visa": "yes", "source": "survey"}}, {"type": "way", "id": 1071257248, "nodes": [9830902289, 9830902290, 9830902291, 9830902292, 9830902289], "tags": {"amenity": "hospital", "healthcare": "hospital", "name": "BN Specialty Hospital"}}, {"type": "way", "id": 1082139631, "nodes": [3697287972, 9917513737, 9917513738, 9917513739, 3697287972], "tags": {"amenity": "hospital", "building": "yes", "healthcare": "hospital", "name": "Apollo Cradle", "wheelchair": "yes"}}, {"type": "way", "id": 1088209015, "nodes": [9970369526, 9970369524, 9970369523, 9970369522, 9970369521, 9970369520, 9970369525, 9970369526], "tags": {"amenity": "hospital", "name": "Karunalayam Hospital", "name:kn": "\u0c95\u0cb0\u0cc1\u0ca3\u0cbe\u0cb2\u0caf\u0c82 \u0c86\u0cb8\u0ccd\u0caa\u0ca4\u0ccd\u0cb0\u0cc6"}}, {"type": "way", "id": 1178505994, "nodes": [10948384383, 13065353808, 13065353809, 10948384379, 10948384386, 10948384385, 10948384364, 10948384384, 10948384383], "tags": {"amenity": "hospital", "healthcare": "clinic", "name": "Snehadaan Hospital"}}, {"type": "way", "id": 1193177992, "nodes": [4474487215, 4474487222, 11075395440, 11753319908, 11075395441, 11075395442, 4474487215], "tags": {"amenity": "hospital", "emergency": "yes", "healthcare": "hospital", "name": "Cloud Nine", "note": "Emergency ward and lab open 24x7", "opening_hours": "Mo-Sa 08:00-20:00, Su 10:00-12:00, 16:00-18:00", "operator": "Cloud Nine Care", "operator:type": "private", "phone": "+91 99728 99728", "website": "https://www.cloudninecare.com/centre/sarjapur-road"}}, {"type": "way", "id": 1290198690, "nodes": [11962404414, 11962404415, 11962404416, 11962404417, 11962404418, 11962404414], "tags": {"addr:city": "Bengaluru", "addr:housenumber": "3/4", "addr:postcode": "560103", "addr:street": "Sarjapura Road", "amenity": "hospital", "email": "queries@rainbowhospitals.in", "emergency": "yes", "healthcare": "hospital", "healthcare:speciality": "gynaecology;child_psychiatry;paediatrics;otolaryngology;fertility;neonatology;vascular_surgery;physiatry", "name": "Rainbow Childrens Hospital", "phone": "+91 08062261218", "website": "https://www.rainbowhospitals.in/"}}, {"type": "way", "id": 1320013891, "nodes": [12215405434, 13282913331, 12215405433, 697470017, 12215405432, 13282913277, 12215405431, 12215405430, 12215405429, 13282913286, 12215405428, 13282913287, 13282913268, 12215405434], "tags": {"amenity": "hospital", "name": "BEML Hospital"}}, {"type": "way", "id": 1347724899, "nodes": [12466456674, 12466456675, 1381347423, 1381347431, 1381347333, 12466456676, 12466456674], "tags": {"amenity": "hospital", "emergency": "yes", "healthcare": "hospital", "name": "Sri Vishveshathirtha Memorial Hospital", "short_name": "SVM Hospital"}}, {"type": "way", "id": 1362578786, "nodes": [12615547386, 12615547387, 12615547388, 12615547389, 12615547386], "tags": {"addr:city": "Bengaluru", "addr:district": "Karnataka", "addr:housenumber": "Plumeria 2nd Floor", "addr:postcode": "560102", "addr:street": "Haralur Main Road", "amenity": "hospital", "email": "urwelcome@klinikgluhen.com", "emergency": "yes", "healthcare": "hospital", "healthcare:speciality": "dentist;dental_oral_maxillo_facial_surgery;dentistry;implantology;orthodontics;pedodontics;maxillofacial_surgery;craniofacial;plastic_surgery;psychiatry", "image": "https://lh3.googleusercontent.com/p/AF1QipN-H9esnouOf6f9LhnY3IkGoS4dyHJiYGpHHac5=s680-w680-h510", "mobile": "+916366800859", "name": "Klinik Guhen - Dental Clinic", "opening_hours": "All Days 10:00-19:30 (Tue Holiday)", "operator": "Dental Clinic", "operator:type": "business", "payment:cash": "yes", "payment:credit_cards": "yes", "payment:debit_cards": "yes", "payment:google_pay": "yes", "phone": "+916366800859", "source": "streetlevel imagery;local knowledge;survey;gps", "start_date": "2021-10-01", "website": "https://klinikgluhen.com/", "wheelchair": "yes"}}, {"type": "way", "id": 1432357757, "nodes": [13165790307, 13165790306, 13165790305, 13165790304, 13165790307], "tags": {"amenity": "hospital", "building": "hospital", "name": "Mahanandi", "name:kn": "\u0cae\u0cb9\u0cbe\u0ca8\u0c82\u0ca6\u0cbf \u0c86\u0cb8\u0ccd\u0caa\u0ca4\u0ccd\u0cb0\u0cc6"}}, {"type": "way", "id": 1433363981, "nodes": [13173681435, 13173681436, 13173681437, 13173681438, 13173681435], "tags": {"amenity": "hospital", "healthcare": "hospital", "name": "Aarogya Hastha Hospital"}}, {"type": "relation", "id": 4497967, "members": [{"type": "way", "ref": 145651581, "role": "outer"}, {"type": "way", "ref": 322897153, "role": "inner"}], "tags": {"addr:district": "Bengaluru Urban", "addr:full": "82, Epip Area Nellurahalli White Field Road", "addr:postcode": "560066", "addr:state": "Karnataka", "amenity": "hospital", "building": "hospital", "building:colour": "#eecfaf", "building:levels": "4", "check_date": "2025-06-24", "emergency": "yes", "layer": "1", "min_level": "-1", "name": "Vydehi Institute Of Medical Sciences And Research Centre", "opening_hours": "24/7", "payment:cash": "yes", "payment:credit_cards": "yes", "payment:debit_cards": "yes", "roof:levels": "1", "roof:shape": "flat", "source": "OpenGovernmentData;local knowledge", "type": "multipolygon", "wheelchair": "yes"}}]}