{"version": 0.6, "generator": "Overpass API 0.7.62.8 e802775f", "osm3s": {"timestamp_osm_base": "2026-01-15T07:35:01Z", "copyright": "The data included in this document is from www.openstreetmap.org. The data is made available under ODbL."}, "elements": [{"type": "node", "id": 347536870, "lat": 38.1232095, "lon": 13.3373694}, {"type": "node", "id": 347536871, "lat": 38.1233851, "lon": 13.3379959}, {"type": "node", "id": 347536872, "lat": 38.1227774, "lon": 13.338262}, {"type": "node", "id": 347536873, "lat": 38.1226018, "lon": 13.3376183}, {"type": "node", "id": 619433203, "lat": 38.1064596, "lon": 13.3334279}, {"type": "node", "id": 619433204, "lat": 38.1064466, "lon": 13.33327}, {"type": "node", "id": 619433206, "lat": 38.1070698, "lon": 13.3333414}, {"type": "node", "id": 622139042, "lat": 38.1011665, "lon": 13.3373545}, {"type": "node", "id": 622139048, "lat": 38.1008091, "lon": 13.3377742}, {"type": "node", "id": 622139051, "lat": 38.1014446, "lon": 13.3377184}, {"type": "node", "id": 625833026, "lat": 38.1033029, "lon": 13.3346671}, {"type": "node", "id": 625833046, "lat": 38.1037176, "lon": 13.334597}, {"type": "node", "id": 625833047, "lat": 38.1036193, "lon": 13.3344049}, {"type": "node", "id": 625833059, "lat": 38.1034079, "lon": 13.3348709}, {"type": "node", "id": 948195131, "lat": 38.1034295, "lon": 13.3354224}, {"type": "node", "id": 948195588, "lat": 38.1031318, "lon": 13.3356571}, {"type": "node", "id": 948196078, "lat": 38.1065929, "lon": 13.3331624}, {"type": "node", "id": 948196491, "lat": 38.1029872, "lon": 13.3353612}, {"type": "node", "id": 948196965, "lat": 38.1065839, "lon": 13.333051}, {"type": "node", "id": 948198663, "lat": 38.1033381, "lon": 13.3350845}, {"type": "node", "id": 948199145, "lat": 38.1034521, "lon": 13.3353179}, {"type": "node", "id": 948254450, "lat": 38.1057661, "lon": 13.3403044}, {"type": "node", "id": 1511632738, "lat": 38.1263588, "lon": 13.3371568}, {"type": "node", "id": 1511632740, "lat": 38.1260242, "lon": 13.33722}, {"type": "node", "id": 1511632744, "lat": 38.1261001, "lon": 13.3378846}, {"type": "node", "id": 1511632749, "lat": 38.127076, "lon": 13.3377942}, {"type": "node", "id": 1511632751, "lat": 38.1265812, "lon": 13.3377451}, {"type": "node", "id": 1511632753, "lat": 38.1269002, "lon": 13.3369742}, {"type": "node", "id": 1511632767, "lat": 38.1266293, "lon": 13.337957}, {"type": "node", "id": 1511632770, "lat": 38.1263449, "lon": 13.3370912}, {"type": "node", "id": 2835445024, "lat": 38.1118427, "lon": 13.3328062}, {"type": "node", "id": 2835445121, "lat": 38.1118811, "lon": 13.3328357}, {"type": "node", "id": 2835445124, "lat": 38.1118834, "lon": 13.332721}, {"type": "node", "id": 2835445142, "lat": 38.1118906, "lon": 13.332726}, {"type": "node", "id": 2835445265, "lat": 38.1119349, "lon": 13.332458}, {"type": "node", "id": 2835445277, "lat": 38.1119404, "lon": 13.3328849}, {"type": "node", "id": 2835445299, "lat": 38.1119467, "lon": 13.3325008}, {"type": "node", "id": 2835445308, "lat": 38.1119503, "lon": 13.3328651}, {"type": "node", "id": 2835445313, "lat": 38.1119512, "lon": 13.3325747}, {"type": "node", "id": 2835445334, "lat": 38.1119586, "lon": 13.3325816}, {"type": "node", "id": 2835445350, "lat": 38.1119653, "lon": 13.3324934}, {"type": "node", "id": 2835445501, "lat": 38.1119812, "lon": 13.3325057}, {"type": "node", "id": 2835445554, "lat": 38.1119973, "lon": 13.3329248}, {"type": "node", "id": 2835445561, "lat": 38.1119988, "lon": 13.3323254}, {"type": "node", "id": 2835445585, "lat": 38.1120065, "lon": 13.3329026}, {"type": "node", "id": 2835445589, "lat": 38.1120088, "lon": 13.3329369}, {"type": "node", "id": 2835446463, "lat": 38.1122198, "lon": 13.332487}, {"type": "node", "id": 5058362749, "lat": 38.1069987, "lon": 13.3329448}, {"type": "node", "id": 5058362750, "lat": 38.1070563, "lon": 13.3331948}, {"type": "node", "id": 5058362754, "lat": 38.1068774, "lon": 13.3329886}, {"type": "node", "id": 5058362759, "lat": 38.1068529, "lon": 13.3329716}, {"type": "node", "id": 5058362760, "lat": 38.1064633, "lon": 13.3331842}, {"type": "node", "id": 5058362761, "lat": 38.1064685, "lon": 13.3332673}, {"type": "node", "id": 5084795315, "lat": 38.1062497, "lon": 13.3372428}, {"type": "node", "id": 5084795316, "lat": 38.1060518, "lon": 13.3373702}, {"type": "node", "id": 5084795317, "lat": 38.1058924, "lon": 13.3369812}, {"type": "node", "id": 5084795318, "lat": 38.1060943, "lon": 13.3368558}, {"type": "node", "id": 5085221862, "lat": 38.1060986, "lon": 13.3368662}, {"type": "node", "id": 5085543142, "lat": 38.1061163, "lon": 13.337329}, {"type": "node", "id": 5085827399, "lat": 38.1010913, "lon": 13.3381485}, {"type": "node", "id": 5085827401, "lat": 38.1012714, "lon": 13.3379292, "tags": {"entrance": "main"}}, {"type": "node", "id": 5092316170, "lat": 38.1046113, "lon": 13.3351592, "tags": {"addr:city": "Palermo", "addr:housenumber": "11", "addr:postcode": "90129", "addr:street": "Via Gino Marinuzzi", "amenity": "school", "name": "Centro Studi e Ricerche", "note": "Ente di Formazione Professionale"}}, {"type": "node", "id": 5283267334, "lat": 38.0980358, "lon": 13.3237389}, {"type": "node", "id": 5283267335, "lat": 38.0982087, "lon": 13.323553}, {"type": "node", "id": 5283267336, "lat": 38.098861, "lon": 13.3238216}, {"type": "node", "id": 5283267337, "lat": 38.0993021, "lon": 13.3248905}, {"type": "node", "id": 5285161163, "lat": 38.0991348, "lon": 13.324485}, {"type": "node", "id": 5879177879, "lat": 38.1017226, "lon": 13.3228793}, {"type": "node", "id": 5879177880, "lat": 38.1009383, "lon": 13.3233152}, {"type": "node", "id": 5879177881, "lat": 38.1010178, "lon": 13.323671}, {"type": "node", "id": 5879177882, "lat": 38.1011106, "lon": 13.3237269}, {"type": "node", "id": 5879177883, "lat": 38.1012545, "lon": 13.3240796}, {"type": "node", "id": 5879177884, "lat": 38.101976, "lon": 13.3237828}, {"type": "node", "id": 6096651919, "lat": 38.1011979, "lon": 13.3239408}, {"type": "node", "id": 6096652105, "lat": 38.0986819, "lon": 13.325297}, {"type": "node", "id": 6269545634, "lat": 38.1041845, "lon": 13.3339019, "tags": {"addr:city": "Palermo", "addr:housenumber": "6", "addr:postcode": "90129", "addr:street": "Via Porrazzi", "amenity": "school", "check_date": "2025-08-24", "education": "school", "name": "Euroform", "website": "https://euroformweb.it/le-sedi/palermo-porrazzi/"}}, {"type": "node", "id": 6368030246, "lat": 38.105966, "lon": 13.3371613, "tags": {"entrance": "yes"}}, {"type": "node", "id": 6368030247, "lat": 38.1061296, "lon": 13.3369381}, {"type": "node", "id": 6368030248, "lat": 38.1059608, "lon": 13.3369368}, {"type": "node", "id": 6368870198, "lat": 38.1065014, "lon": 13.3396297}, {"type": "node", "id": 6368870199, "lat": 38.105706, "lon": 13.3401288}, {"type": "node", "id": 6368870200, "lat": 38.1067241, "lon": 13.3403979}, {"type": "node", "id": 6368870201, "lat": 38.1066916, "lon": 13.3401189}, {"type": "node", "id": 6368870206, "lat": 38.1061238, "lon": 13.3398714, "tags": {"entrance": "yes"}}, {"type": "node", "id": 6384162616, "lat": 38.1109945, "lon": 13.3285792}, {"type": "node", "id": 6384162617, "lat": 38.110603, "lon": 13.3285913}, {"type": "node", "id": 6384162618, "lat": 38.1106178, "lon": 13.327792}, {"type": "node", "id": 6384162619, "lat": 38.1110082, "lon": 13.3277585}, {"type": "node", "id": 6402109625, "lat": 38.1176663, "lon": 13.333489}, {"type": "node", "id": 6402109626, "lat": 38.1167758, "lon": 13.3336043}, {"type": "node", "id": 6402109627, "lat": 38.1166871, "lon": 13.3323061}, {"type": "node", "id": 6402109628, "lat": 38.1168623, "lon": 13.3319092}, {"type": "node", "id": 6402109629, "lat": 38.1174426, "lon": 13.3317831}, {"type": "node", "id": 6407768679, "lat": 38.1165256, "lon": 13.3323204}, {"type": "node", "id": 6407768680, "lat": 38.1153015, "lon": 13.3325705}, {"type": "node", "id": 6407768681, "lat": 38.1155036, "lon": 13.3333995}, {"type": "node", "id": 6407768682, "lat": 38.1156818, "lon": 13.3333691}, {"type": "node", "id": 6407768683, "lat": 38.115985, "lon": 13.333654}, {"type": "node", "id": 6407768684, "lat": 38.1166697, "lon": 13.3335134}, {"type": "node", "id": 6407768790, "lat": 38.116345, "lon": 13.3323573, "tags": {"entrance": "main"}}, {"type": "node", "id": 6407768791, "lat": 38.1156031, "lon": 13.3325089, "tags": {"entrance": "yes"}}, {"type": "node", "id": 6419409766, "lat": 38.1310171, "lon": 13.3340756, "tags": {"entrance": "main"}}, {"type": "node", "id": 6419409767, "lat": 38.1316841, "lon": 13.3341072}, {"type": "node", "id": 6419409768, "lat": 38.1310786, "lon": 13.3343245}, {"type": "node", "id": 6419409769, "lat": 38.1308318, "lon": 13.3333254}, {"type": "node", "id": 6419409770, "lat": 38.1314563, "lon": 13.33308}, {"type": "node", "id": 8548776164, "lat": 38.1064593, "lon": 13.3307819, "tags": {"addr:city": "Palermo", "addr:housenumber": "214", "addr:postcode": "90129", "addr:street": "Via Gaetano La Loggia", "amenity": "school", "check_date": "2025-08-13", "name": "Scuola Media Statale Antonio Gramsci", "ref": "PAMM041005", "website": "http://www.scuolamediaantoniogramsci.gov.it/"}}, {"type": "node", "id": 8548776165, "lat": 38.1064775, "lon": 13.3324072, "tags": {"addr:street": "Via Vito Cesare Piazza", "amenity": "school", "check_date": "2025-08-13", "email": "PAMM041005@istruzione.it", "name": "Scuola Media Statale Antonio Gramsci", "phone": "+39 0916572226", "ref": "PAMM041005", "website": "http://www.scuolamediaantoniogramsci.gov.it/"}}, {"type": "node", "id": 8697489281, "lat": 38.0992715, "lon": 13.3248163, "tags": {"entrance": "yes"}}, {"type": "node", "id": 8697489282, "lat": 38.0991843, "lon": 13.3246051, "tags": {"entrance": "yes"}}, {"type": "node", "id": 9177798694, "lat": 38.1066538, "lon": 13.3334004, "tags": {"addr:city": "Palermo", "addr:housenumber": "58", "addr:postcode": "90129", "addr:street": "Via Giuseppe Arcoleo"}}, {"type": "node", "id": 9177798695, "lat": 38.10703, "lon": 13.333347, "tags": {"addr:city": "Palermo", "addr:housenumber": "78", "addr:postcode": "90129", "addr:street": "Via Giuseppe Arcoleo"}}, {"type": "node", "id": 9196124041, "lat": 38.1074648, "lon": 13.3391632, "tags": {"addr:city": "Palermo", "addr:housenumber": "19", "addr:postcode": "90129", "addr:street": "Via Giuseppe Sunseri", "amenity": "school", "isced:level": "1", "name": "Direzione Didattica Statale \"Ragusa Moleti\" plesso \"Sunseri\""}}, {"type": "node", "id": 9766918578, "lat": 38.116034, "lon": 13.3346132, "tags": {"addr:street": "Via degli Emiri", "amenity": "school"}}, {"type": "node", "id": 10680585707, "lat": 38.1184384, "lon": 13.3387399, "tags": {"amenity": "school", "name": "Centro Sperimentale di Cinematografia"}}, {"type": "node", "id": 10696691645, "lat": 38.1007229, "lon": 13.335092, "tags": {"addr:city": "Palermo", "addr:housenumber": "12", "addr:postcode": "90129", "addr:street": "Piazza Barbarino Costanzo", "amenity": "school", "check_date": "2025-12-17", "education": "school", "isced:level": "1", "name": "Scuola Primaria \"E. Arculeo\""}}, {"type": "node", "id": 10697165958, "lat": 38.1007425, "lon": 13.3353411, "tags": {"addr:housenumber": "14", "addr:street": "Piazza Stefano Donaudy", "amenity": "school", "check_date": "2025-12-17", "isced:level": "1", "name": "Scuola Primaria \"E. Arculeo\""}}, {"type": "node", "id": 13283694835, "lat": 38.1251615, "lon": 13.3080243, "tags": {"addr:city": "Palermo", "addr:housenumber": "1", "addr:postcode": "90135", "addr:street": "Via Tembien", "amenity": "school", "denomination": "catholic", "education": "school", "name": "ICS Michelangelo Buonarroti", "religion": "christian", "website": "https://www.icsbuonarroti.edu.it/", "wheelchair": "yes"}}, {"type": "way", "id": 31257341, "nodes": [347536870, 347536871, 347536872, 347536873, 347536870], "tags": {"amenity": "school", "name": "Scuola Peppino Impastato"}}, {"type": "way", "id": 49023932, "nodes": [622139051, 622139042, 622139048], "tags": {"barrier": "wall"}}, {"type": "way", "id": 49271444, "nodes": [625833046, 625833059, 625833026, 625833047, 625833046], "tags": {"addr:city": "Palermo", "addr:housenumber": "10", "addr:postcode": "90129", "addr:street": "Via A. Cuscina", "amenity": "school", "building": "yes", "education": "school", "email": "info@istitutotrinacria.it", "name": "Istituto Trinacria - Scuola Paritaria", "phone": "+39 091 6572198", "website": "https://www.istitutotrinacria.it/"}}, {"type": "way", "id": 81370156, "nodes": [948196491, 948195588, 948195131, 948199145, 948198663, 948196491], "tags": {"amenity": "school", "building": "yes", "name": "Scuola Primaria Statale \"E. Arculeo\" plesso \"A. Cuscina\""}}, {"type": "way", "id": 137844183, "nodes": [1511632753, 1511632738, 1511632770, 1511632740, 1511632744, 1511632751, 1511632767, 1511632749, 1511632753], "tags": {"addr:city": "Palermo", "addr:housenumber": "190", "addr:postcode": "90145", "addr:street": "Via Serradifalco", "amenity": "school", "name": "Scuola Media Statale Leonardo Da Vinci"}}, {"type": "way", "id": 279324071, "nodes": [2835446463, 2835445589, 2835445554, 2835445585, 2835445308, 2835445277, 2835445121, 2835445024, 2835445124, 2835445142, 2835445334, 2835445313, 2835445501, 2835445350, 2835445299, 2835445265, 2835445561, 2835446463], "tags": {"amenity": "school", "source": "Comune di Palermo"}}, {"type": "way", "id": 521941096, "nodes": [5084795318, 5085221862, 6368030247, 5084795315, 5085543142, 5084795316, 6368030246, 5084795317, 6368030248, 5084795318], "tags": {"amenity": "school", "building": "yes", "building:levels": "3", "name": "Scuola dell'infanzia paritaria \"Sacri Cuori\""}}, {"type": "way", "id": 522095769, "nodes": [622139048, 5085827399, 5085827401, 622139051], "tags": {"barrier": "fence"}}, {"type": "way", "id": 546735212, "nodes": [5283267334, 5283267335, 5283267336, 5285161163, 8697489282, 8697489281, 5283267337, 6096652105, 5283267334], "tags": {"addr:city": "Palermo", "addr:housenumber": "3", "addr:postcode": "90129", "addr:street": "Piazzale cardinale Francesco Carpino", "amenity": "school", "email": "PAIC8AS004@istruzione.it", "name": "Istituto Comprensivo Statale Margherita Hack", "old_name": "Istituto Comprensivo Statale Vittorio Emanuele III", "ref": "PAIC8AS004", "website": "https://www.icvittorioemanueleterzo.edu.it/", "wikidata": "Q52747317"}}, {"type": "way", "id": 622407913, "nodes": [5879177879, 5879177880, 5879177881, 5879177882, 6096651919, 5879177883, 5879177884, 5879177879], "tags": {"amenity": "school"}}, {"type": "way", "id": 679997030, "nodes": [619433206, 5058362750, 5058362749, 5058362754, 5058362759, 948196965, 948196078, 5058362760, 5058362761, 619433204, 619433203, 9177798694, 9177798695, 619433206], "tags": {"addr:city": "Palermo", "addr:postcode": "90129", "addr:street": "Via Giuseppe Arcoleo", "amenity": "school", "check_date": "2025-08-13", "email": "PAMM041005@istruzione.it", "name": "Scuola Media Statale Antonio Gramsci", "phone": "+39 0916572226", "ref": "PAMM041005", "website": "http://www.scuolamediaantoniogramsci.gov.it/"}}, {"type": "way", "id": 680197918, "nodes": [6368870198, 6368870206, 6368870199, 948254450, 6368870200, 6368870201, 6368870198], "tags": {"amenity": "school", "name": "Ragusa Moleti", "ref": "PAEE03700E"}}, {"type": "way", "id": 681708217, "nodes": [6384162619, 6384162618, 6384162617, 6384162616, 6384162619], "tags": {"amenity": "school", "name": "Scuola Elementare Giovanni Bonanno", "ref": "PAEE85303E"}}, {"type": "way", "id": 683513244, "nodes": [6402109629, 6402109628, 6402109627, 6402109626, 6402109625, 6402109629], "tags": {"addr:city": "Palermo", "addr:housenumber": "39", "addr:postcode": "90135", "addr:street": "Via Ettore Arculeo", "amenity": "school", "email": "PAIC87700V@istruzione.it", "name": "Istituto Comprensivo Statale \"Antonio Ugo\"", "phone": "+39 091211794", "ref": "PAAA87701Q", "website": "http://www.icsaugo.gov.it/"}}, {"type": "way", "id": 684023235, "nodes": [6407768679, 6407768790, 6407768791, 6407768680, 6407768681, 6407768682, 6407768683, 6407768684, 6407768679], "tags": {"addr:city": "Palermo", "addr:housenumber": "22", "addr:postcode": "90135", "addr:street": "Via Nina Siciliana", "amenity": "school", "email": "PAIS03800C@istruzione.it", "name": "IISS Pio La Torre - sede centrale", "ref": "PAIS03800C", "website": "https://www.iisspiolatorre.edu.it/"}}, {"type": "way", "id": 685098171, "nodes": [6419409770, 6419409769, 6419409766, 6419409768, 6419409767, 6419409770], "tags": {"amenity": "school", "name": "Istituto Comprensivo Statale \"Giotto Cipolla\"", "ref": "PAIC8AM00Q"}}, {"type": "relation", "id": 7550746, "members": [{"type": "way", "ref": 49023932, "role": "outer"}, {"type": "way", "ref": 522095769, "role": "outer"}], "tags": {"amenity": "school", "name": "Ettore Arculeo", "type": "multipolygon"}}, {"type": "relation", "id": 12476749, "members": [{"type": "way", "ref": 679997030, "role": ""}, {"type": "node", "ref": 8548776165, "role": ""}, {"type": "node", "ref": 8548776164, "role": ""}], "tags": {"addr:city": "Palermo", "addr:housenumber": "214", "addr:postcode": "90129", "addr:street": "Via Gaetano La Loggia", "amenity": "school", "email": "PAMM041005@istruzione.it", "name": "Scuola Media Statale Antonio Gramsci", "ref": "PAMM041005", "type": "site", "website": "http://www.scuolamediaantoniogramsci.gov.it/"}}]}