{"version": 0.6, "generator": "Overpass API 0.7.62.8 e802775f", "osm3s": {"timestamp_osm_base": "2026-01-12T17:57:15Z", "copyright": "The data included in this document is from www.openstreetmap.org. The data is made available under ODbL."}, "elements": [{"type": "node", "id": 303924572, "lat": 12.9235041, "lon": 77.5857517, "tags": {"amenity": "hospital", "name": "Shanti Hospital", "name:kn": "\u0cb6\u0cbe\u0c82\u0ca4\u0cbf \u0c86\u0cb8\u0ccd\u0caa\u0ca4\u0ccd\u0cb0\u0cc6"}}, {"type": "node", "id": 364629422, "lat": 12.9207173, "lon": 77.5745968, "tags": {"addr:street": "Kanakapura Road", "amenity": "hospital", "name": "JBS Hospital", "name:kn": "\u0c9c\u0cc6 \u0cac\u0cbf \u0c8e\u0cb8\u0ccd \u0c86\u0cb8\u0ccd\u0caa\u0ca4\u0ccd\u0cb0\u0cc6"}}, {"type": "node", "id": 364629734, "lat": 12.9231684, "lon": 77.584433, "tags": {"amenity": "hospital", "check_date": "2025-01-11", "healthcare": "hospital", "name": "Jayanagar heart Centre"}}, {"type": "node", "id": 364642648, "lat": 12.9169001, "lon": 77.5985958}, {"type": "node", "id": 560379894, "lat": 12.8954839, "lon": 77.5978327}, {"type": "node", "id": 560379898, "lat": 12.8946243, "lon": 77.5981296}, {"type": "node", "id": 560379901, "lat": 12.8940183, "lon": 77.5990607}, {"type": "node", "id": 560379902, "lat": 12.8949854, "lon": 77.5993304}, {"type": "node", "id": 560379907, "lat": 12.8960595, "lon": 77.5971952}, {"type": "node", "id": 560379910, "lat": 12.8970191, "lon": 77.5976894}, {"type": "node", "id": 560379916, "lat": 12.895621, "lon": 77.5993219}, {"type": "node", "id": 665727326, "lat": 12.9100629, "lon": 77.5924585, "tags": {"addr:district": "Bengaluru Urban", "addr:full": "220, 2nd phase, JP Nagar,Next to Nilgiris", "addr:postcode": "560078", "addr:state": "Karnataka", "amenity": "hospital", "check_date": "2025-06-21", "healthcare:speciality": "General Gynecology; Obstetrics; Prenatal Care; nulife clinic; Laboratory Testing and In-Office Surgery; Medical Spa for Women; Ophthalmology", "name": "Divakars speciality Hospital", "operator:type": "private", "source": "OpenGovernmentData", "website": "http://www.healthforher.in/"}}, {"type": "node", "id": 691930445, "lat": 12.9234317, "lon": 77.5923374, "tags": {"amenity": "hospital", "check_date": "2024-08-18", "name": "BMTC Hospital", "name:kn": "\u0cac\u0cbf\u0c8e\u0c82\u0c9f\u0cbf\u0cb8\u0cbf \u0c86\u0cb8\u0ccd\u0caa\u0ca4\u0ccd\u0cb0\u0cc6", "wheelchair": "yes"}}, {"type": "node", "id": 1272424543, "lat": 12.9073391, "lon": 77.5830655, "tags": {"addr:street": "29 Main", "address": "593 14th cross 29th main", "amenity": "hospital", "designation": "Clinic", "emergency": "no", "name": "Srinivas Clinic", "name:kn": "\u0cb6\u0ccd\u0cb0\u0cc0\u0ca8\u0cbf\u0cb5\u0cbe\u0cb8\u0ccd \u0c95\u0ccd\u0cb2\u0cbf\u0ca8\u0cbf\u0c95\u0ccd"}}, {"type": "node", "id": 1318987638, "lat": 12.8915893, "lon": 77.560715, "tags": {"amenity": "hospital", "emergency": "yes", "name": "Metro Hospital"}}, {"type": "node", "id": 1331946750, "lat": 12.9111686, "lon": 77.5795767}, {"type": "node", "id": 1331946751, "lat": 12.9110875, "lon": 77.5799978}, {"type": "node", "id": 1331946769, "lat": 12.9108601, "lon": 77.5800058}, {"type": "node", "id": 1331946771, "lat": 12.9109254, "lon": 77.5795391}, {"type": "node", "id": 1464921265, "lat": 12.9126298, "lon": 77.5913594, "tags": {"addr:district": "Bengaluru Urban", "addr:full": "1635,17Th Main ( Near To Woody `S Hotel) 2nd Phase J.P. Nagar, Banglore", "addr:postcode": "560078", "addr:state": "Karnataka", "addr:street": "17th Main Road", "amenity": "hospital", "healthcare": "hospital", "name": "Chirag Hospital and Maternity Center", "source": "OpenGovernmentData"}}, {"type": "node", "id": 1466576385, "lat": 12.9206648, "lon": 77.5598673, "tags": {"addr:district": "Bengaluru Urban", "addr:full": "274 / 275, M K Puttalingaiah Road, Padmanabhanagar", "addr:postcode": "560073", "addr:state": "Karnataka", "amenity": "hospital", "emergency": "yes", "name": "DG Hospital", "operator:type": "private", "source": "OpenGovernmentData", "website": "http://dpal.kar.nic.in/Kanunu%20padakosha%20PDF%20Files/Recognised%20Hospitals.pdf"}}, {"type": "node", "id": 1470603498, "lat": 12.914434, "lon": 77.6050207, "tags": {"amenity": "hospital", "designation": "Kids Care Clinic", "healthcare": "hospital", "name": "Kids Care Clinic"}}, {"type": "node", "id": 1473997305, "lat": 12.9162804, "lon": 77.5798278}, {"type": "node", "id": 1473997310, "lat": 12.9162881, "lon": 77.5793963}, {"type": "node", "id": 1473997317, "lat": 12.9166469, "lon": 77.5794031}, {"type": "node", "id": 1474277938, "lat": 12.9135707, "lon": 77.5788941, "tags": {"addr:street": "Ayodhyarama Road", "amenity": "hospital", "name": "Parimala Clinic", "name:kn": "\u0caa\u0cb0\u0cbf\u0cae\u0cb3 \u0c9a\u0cbf\u0c95\u0cbf\u0ca4\u0ccd\u0cb8\u0cbe\u0cb2\u0caf"}}, {"type": "node", "id": 1474317196, "lat": 12.9160081, "lon": 77.6193573, "tags": {"addr:district": "Bengaluru Rural", "addr:full": "No 72, 35Th Main 1st Cross 100 Ft Ring Road, Btm Layour, 2nd Stage Btm Layout", "addr:postcode": "560068", "addr:state": "Karnataka", "amenity": "hospital", "emergency": "yes", "healthcare": "hospital", "name": "Karanth Speciality Hospital", "source": "OpenGovernmentData"}}, {"type": "node", "id": 1474323515, "lat": 12.9162878, "lon": 77.6138218, "tags": {"addr:district": "Bengaluru Urban", "addr:full": "No.27, Kuvempunagar, B.T.M.Layout, 100 Ft. Ring Road", "addr:postcode": "560076", "addr:state": "Karnataka", "addr:street": "Outer Ring Road", "amenity": "hospital", "emergency": "yes", "name": "Gangothri Hospital", "name:kn": "\u0c97\u0c82\u0c97\u0ccb\u0ca4\u0ccd\u0cb0\u0cbf \u0c86\u0cb8\u0ccd\u0caa\u0ca4\u0ccd\u0cb0\u0cc6", "source": "OpenGovernmentData", "wheelchair": "limited"}}, {"type": "node", "id": 1474449391, "lat": 12.9239335, "lon": 77.61116, "tags": {"addr:district": "Bengaluru Urban", "addr:full": "#22, 1st Main, Chocolate Factory Road , Tavarekere Btm Layout", "addr:postcode": "560029", "addr:state": "Karnataka", "amenity": "hospital", "healthcare": "hospital", "name": "Spurthy Hospital", "source": "OpenGovernmentData"}}, {"type": "node", "id": 1474819060, "lat": 12.9147871, "lon": 77.6247622, "tags": {"addr:district": "Bengaluru Rural", "addr:full": "No-206, Reddy Building , Roopena Agrahara Opp Roopena Agrahara Bus Stop, Hosur Main Road", "addr:postcode": "560068", "addr:state": "Karnataka", "addr:street": "Hosur road", "amenity": "hospital", "name": "Aswad Hospital", "source": "OpenGovernmentData"}}, {"type": "node", "id": 1727637379, "lat": 12.8990004, "lon": 77.6218548, "tags": {"amenity": "hospital", "emergency": "no", "name": "Vinayaka Specialty Hospital", "name:kn": "\u0cb5\u0cbf\u0ca8\u0cbe\u0caf\u0c95 \u0c86\u0cb8\u0ccd\u0caa\u0ca4\u0ccd\u0cb0\u0cc6"}}, {"type": "node", "id": 1812673570, "lat": 12.9202791, "lon": 77.5598033, "tags": {"addr:district": "Bengaluru Urban", "addr:full": "No. 277, M.K. Puttalingaiah Road, Padmanabha Nagar", "addr:postcode": "560070", "addr:state": "Karnataka", "amenity": "hospital", "emergency": "yes", "name": "Yogananda Medical and Research Centre", "source": "OpenGovernmentData"}}, {"type": "node", "id": 1818494842, "lat": 12.8778532, "lon": 77.6246582, "tags": {"addr:district": "Bangalore", "addr:full": "Begur Main Road, Classic Paradise Layout, Bommanhalli, Bengaluru", "addr:postcode": "560068", "addr:state": "Karnataka", "addr:subdistrict": "Bangalore South", "amenity": "hospital", "description": "Primary Health Centre", "healthcare": "centre", "name": "Government Primary Healthcare Center, Begur", "name:kn": "\u0cb8\u0cb0\u0ccd\u0c95\u0cbe\u0cb0\u0cbf \u0caa\u0ccd\u0cb0\u0cbe\u0ca5\u0cae\u0cbf\u0c95 \u0c86\u0cb0\u0ccb\u0c97\u0ccd\u0caf \u0c95\u0cc7\u0c82\u0ca6\u0ccd\u0cb0", "source": "OpenGovernmentData"}}, {"type": "node", "id": 1861737919, "lat": 12.8968855, "lon": 77.5980071}, {"type": "node", "id": 1861737976, "lat": 12.8962168, "lon": 77.5995039}, {"type": "node", "id": 1861737990, "lat": 12.8964455, "lon": 77.5987031}, {"type": "node", "id": 1894298053, "lat": 12.8924828, "lon": 77.6198497, "tags": {"amenity": "hospital", "emergency": "no", "name": "Nayantara Opticals"}}, {"type": "node", "id": 2002686385, "lat": 12.8807554, "lon": 77.5841671, "tags": {"addr:district": "Bengaluru Urban", "addr:full": "Kothanur Dinne Main Road,Sapthagiri Layout,OppositeFabricana Factory,J.P.Ngar,8Th Phase", "addr:postcode": "560078", "addr:state": "Karnataka", "amenity": "hospital", "name": "T.R.Hospital", "source": "OpenGovernmentData"}}, {"type": "node", "id": 2012122119, "lat": 12.891484, "lon": 77.5816961, "tags": {"amenity": "hospital", "emergency": "yes", "healthcare": "hospital", "name": "Rainbow Clinic and Diagnostic Laboratory"}}, {"type": "node", "id": 2122595759, "lat": 12.8845448, "lon": 77.5701276, "tags": {"addr:district": "Bengaluru Rural", "addr:full": "#3, 6 th Cross, Old Bank Colony, Konanakunte", "addr:postcode": "560062", "addr:state": "Karnataka", "amenity": "hospital", "healthcare": "hospital", "name": "Rajnandani Hospital, Bangalore", "source": "OpenGovernmentData"}}, {"type": "node", "id": 2123564200, "lat": 12.915903, "lon": 77.5550223, "tags": {"addr:district": "Bengaluru Urban", "addr:full": "15Th Main, 17Th Cross Padmanabhanagar", "addr:postcode": "560070", "addr:state": "Karnataka", "amenity": "hospital", "emergency": "yes", "name": "Maharaja Agrasen Hospital, Bengaluru Urban", "source": "OpenGovernmentData"}}, {"type": "node", "id": 2123630630, "lat": 12.9231342, "lon": 77.5642974, "tags": {"addr:district": "Bengaluru Urban", "addr:full": "17Th, Main,27Th Cross, Banashankari 2nd Stage, South", "addr:postcode": "560070", "addr:state": "Karnataka", "amenity": "hospital", "healthcare": "hospital", "name": "Banashankari Referral Hospital", "source": "OpenGovernmentData"}}, {"type": "node", "id": 2124813862, "lat": 12.9179548, "lon": 77.555816, "tags": {"amenity": "hospital", "name": "Bangalore Kidney Foundation - NU Hospital"}}, {"type": "node", "id": 2385057300, "lat": 12.8963983, "lon": 77.5974175}, {"type": "node", "id": 2385057302, "lat": 12.8960344, "lon": 77.5974639}, {"type": "node", "id": 2385057303, "lat": 12.8962102, "lon": 77.5975133}, {"type": "node", "id": 2649089255, "lat": 12.9172238, "lon": 77.5849242}, {"type": "node", "id": 2649089256, "lat": 12.9172158, "lon": 77.5852762}, {"type": "node", "id": 2649089257, "lat": 12.9174445, "lon": 77.5849295}, {"type": "node", "id": 2649089258, "lat": 12.9174365, "lon": 77.5852815}, {"type": "node", "id": 2720476857, "lat": 12.8948505, "lon": 77.6109105, "tags": {"amenity": "hospital", "emergency": "no", "healthcare": "hospital", "name": "Vatsalya Chidren's Clinic"}}, {"type": "node", "id": 2891385860, "lat": 12.8945307, "lon": 77.598287}, {"type": "node", "id": 2932851733, "lat": 12.9169288, "lon": 77.5592568, "tags": {"addr:city": "Bangalore", "addr:district": "Bengaluru Urban", "addr:full": "No. 30, Pavana Dhama, 80 Feet Main Road,Opposite Nilgiris,Padmanabha Nagar", "addr:postcode": "560070", "addr:state": "Karnataka", "amenity": "hospital", "healthcare": "hospital", "name": "Dr.Agarwal's Eye Hospital Ltd, Padmanabha Nagar", "operator": "Dr. Agarwal's Eye Hospital", "operator:wikidata": "Q17052044", "source": "OpenGovernmentData"}}, {"type": "node", "id": 2984295033, "lat": 12.9184617, "lon": 77.5555842, "tags": {"addr:district": "Bengaluru Urban", "addr:full": "Thimmaiah Road, Padmanabhanagar, Bengaluru", "addr:postcode": "560070", "addr:state": "Karnataka", "amenity": "hospital", "name": "Shraddha Eye Care", "source": "Local Knowledge"}}, {"type": "node", "id": 3016090364, "lat": 12.9055088, "lon": 77.5858347, "tags": {"addr:city": "bangalore", "addr:housenumber": "250", "addr:postcode": "560078", "addr:street": "24th Main, 5th Phase, Opp Nandini Hotel, Puttenhalli, JP Nagar", "amenity": "hospital", "name": "Cloud Nine Fertility", "name:kn": "\u0c95\u0ccd\u0cb2\u0ccc\u0ca1\u0ccd \u0ca8\u0cc8\u0ca8\u0ccd \u0cab\u0cb0\u0ccd\u0c9f\u0cbf\u0cb2\u0cbf\u0c9f\u0cbf", "phone": "080 4350 0123", "source": "justdial", "website": "https://www.cloudninefertility.com/", "wheelchair": "limited"}}, {"type": "node", "id": 3037310855, "lat": 12.8827229, "lon": 77.5466715, "tags": {"addr:city": "Bangalore", "addr:housenumber": "28", "addr:postcode": "560062", "addr:street": "Kanakapura Road", "amenity": "hospital", "healthcare": "hospital", "name": "Aikya Healthcare"}}, {"type": "node", "id": 3100475907, "lat": 12.8840897, "lon": 77.5664029, "tags": {"addr:district": "Bangalore", "addr:full": "PARK, NEAR PARK", "addr:postcode": "560062", "addr:state": "Karnataka", "addr:subdistrict": "Bangalore South", "amenity": "hospital", "contact:phone": "8026323311", "healthcare": "hospital", "name": "Konanakunte Government Hospital", "source": "OpenGovernmentData"}}, {"type": "node", "id": 3121618244, "lat": 12.9218676, "lon": 77.5719475}, {"type": "node", "id": 3121618245, "lat": 12.9215947, "lon": 77.5718802}, {"type": "node", "id": 3121618246, "lat": 12.921477, "lon": 77.5723822}, {"type": "node", "id": 3121618247, "lat": 12.9217499, "lon": 77.5724495}, {"type": "node", "id": 3302642056, "lat": 12.9189254, "lon": 77.5986561}, {"type": "node", "id": 3401665452, "lat": 12.9104286, "lon": 77.600378}, {"type": "node", "id": 3401665453, "lat": 12.9102629, "lon": 77.600403}, {"type": "node", "id": 3401665454, "lat": 12.9102967, "lon": 77.6005699}, {"type": "node", "id": 3401665455, "lat": 12.9104542, "lon": 77.6005432}, {"type": "node", "id": 3543907506, "lat": 12.9051841, "lon": 77.6032595}, {"type": "node", "id": 3543907508, "lat": 12.9051848, "lon": 77.6031287}, {"type": "node", "id": 3543907564, "lat": 12.9053647, "lon": 77.6032604}, {"type": "node", "id": 3543907565, "lat": 12.9053654, "lon": 77.6031297}, {"type": "node", "id": 3607116665, "lat": 12.8870605, "lon": 77.603414, "tags": {"amenity": "hospital", "healthcare": "hospital", "name": "Government Hospital", "name:kn": "\u0cb8\u0cb0\u0ccd\u0c95\u0cbe\u0cb0\u0cbf \u0c86\u0cb8\u0ccd\u0caa\u0ca4\u0ccd\u0cb0\u0cc6"}}, {"type": "node", "id": 3607404261, "lat": 12.8893134, "lon": 77.602422, "tags": {"amenity": "hospital", "name": "Rajashree Granthim hospital"}}, {"type": "node", "id": 3719549886, "lat": 12.9159249, "lon": 77.5856011, "tags": {"addr:district": "Bengaluru Urban", "addr:full": "Jayanagar, J P Nagar, Bengaluru", "addr:postcode": "560041", "addr:state": "Karnataka", "amenity": "hospital", "healthcare": "clinic", "healthcare:speciality": "fertility", "name": "Milann Fertility Center", "source": "Local Knowledge"}}, {"type": "node", "id": 3874223184, "lat": 12.89543, "lon": 77.5978513}, {"type": "node", "id": 4397421787, "lat": 12.9074635, "lon": 77.5651851}, {"type": "node", "id": 4397421788, "lat": 12.9074713, "lon": 77.565228}, {"type": "node", "id": 4397421789, "lat": 12.9074791, "lon": 77.5651261}, {"type": "node", "id": 4397421791, "lat": 12.9075079, "lon": 77.5653004}, {"type": "node", "id": 4397421798, "lat": 12.9077406, "lon": 77.5652227}, {"type": "node", "id": 4397421799, "lat": 12.9078033, "lon": 77.5650456}, {"type": "node", "id": 4397421803, "lat": 12.9079654, "lon": 77.5652093}, {"type": "node", "id": 4397421804, "lat": 12.9079837, "lon": 77.5650242}, {"type": "node", "id": 4397421812, "lat": 12.9082321, "lon": 77.5650698}, {"type": "node", "id": 4397421813, "lat": 12.9082504, "lon": 77.5652441}, {"type": "node", "id": 4397421814, "lat": 12.9082556, "lon": 77.56511}, {"type": "node", "id": 4397421815, "lat": 12.9082713, "lon": 77.5651798}, {"type": "node", "id": 4397421851, "lat": 12.9198835, "lon": 77.5987694}, {"type": "node", "id": 4397421852, "lat": 12.9198736, "lon": 77.5993623}, {"type": "node", "id": 4397421853, "lat": 12.9201638, "lon": 77.5999123}, {"type": "node", "id": 4397421854, "lat": 12.920173, "lon": 77.5993676}, {"type": "node", "id": 4440769883, "lat": 12.8615976, "lon": 77.5999324, "tags": {"amenity": "hospital", "name": "Myo Medex - Ace Speciality Clinic"}}, {"type": "node", "id": 4440987271, "lat": 12.8750879, "lon": 77.5950098, "tags": {"amenity": "hospital", "description": "Eye Hospital", "healthcare": "hospital", "name": "Narayana Nethralaya", "name:kn": "\u0ca8\u0cbe\u0cb0\u0cbe\u0caf\u0ca3 \u0ca8\u0cc7\u0ca4\u0ccd\u0cb0\u0cbe\u0cb2\u0caf"}}, {"type": "node", "id": 4441961605, "lat": 12.9194712, "lon": 77.6130111, "tags": {"addr:city": "Bangaluru", "addr:district": "Bengaluru Urban", "addr:full": "No. 23/24, Om Complex, 20th Main, Gangothri Circle B.T.M. 1st Stage, Bangalore", "addr:housenumber": "2324", "addr:postcode": "560029", "addr:state": "Karnataka", "addr:street": "Om Complex, 20th Main, Gangotri Circle, BTM Layout, Madiwala", "amenity": "hospital", "name": "Life Care Hospital", "phone": "+91-80 2684 6677", "source": "OpenGovernmentData", "website": "https://lifecarehosp.com/"}}, {"type": "node", "id": 4443301971, "lat": 12.9151071, "lon": 77.5624888, "tags": {"addr:city": "bangalore", "addr:housenumber": "5", "addr:postcode": "560050", "addr:street": "80 feet road,banashankari", "amenity": "hospital", "name": "NRS Medical & Dental Specialists Centre", "phone": "08026696054"}}, {"type": "node", "id": 4444988626, "lat": 12.9060641, "lon": 77.6049776, "tags": {"addr:city": "bangalore", "addr:housenumber": "#349/352/6/1/1", "addr:postcode": "560070", "addr:street": "Main Road, Chandra Layout, Vijayanagar,", "amenity": "hospital", "healthcare": "hospital", "name": "Anurag Medical Centre"}}, {"type": "node", "id": 4445965958, "lat": 12.9241398, "lon": 77.61309}, {"type": "node", "id": 4445973784, "lat": 12.9003193, "lon": 77.6008061, "tags": {"addr:city": "Bangalore", "addr:housenumber": "2nd Cross Rd", "addr:postcode": "560076", "addr:street": "Bannerghatta Road", "amenity": "hospital", "emergency": "yes", "name": "Parimala Health Care", "phone": "080 2658 3117"}}, {"type": "node", "id": 4446322688, "lat": 12.9127062, "lon": 77.6201668, "tags": {"addr:city": "Bengaluru", "addr:postcode": "560076", "addr:street": "7th Cross, 35th Main, BTM 2nd Stage,, Adjacent DSR Naveen Lake View Apartments, Karnataka", "amenity": "hospital", "name": "Keva Ayurveda Health Care Pvt Ltd", "phone": "080508 01515", "website": "https://kevaayurveda.com/"}}, {"type": "node", "id": 4446840727, "lat": 12.8830054, "lon": 77.6073285, "tags": {"addr:city": "Bengaluru", "addr:housenumber": "311-B", "addr:postcode": "560076", "addr:street": "12th Main Road, Behind Ingu Tengu Restaurant, Off Bannerghatta Road, Shantiniketan Layout, Karnataka", "amenity": "hospital", "name": "Brahmi Ayurvedic Center", "phone": "+9190086 54547", "website": "brahmi-ayurveda.com"}}, {"type": "node", "id": 4446852004, "lat": 12.9175511, "lon": 77.6039486, "tags": {"addr:city": "Bengaluru", "addr:housenumber": "57", "addr:postcode": "560029", "addr:street": "8th B Main Road, BTM Layout 1st Stage, KEB Colony, New Gurappana Palya, BTM Layout 1, Karnataka", "amenity": "hospital", "name": "Vedam Ayurveda Multispeciality Hospital", "phone": "080 4120 2911", "website": "https://vedamayurveda.co.in/"}}, {"type": "node", "id": 4446924573, "lat": 12.9242825, "lon": 77.6170883, "tags": {"addr:city": "Bangalore", "addr:housenumber": "#1478/1", "addr:postcode": "560029", "addr:street": "Hosur Road, Madiwala, Venkateshwara Layout, Sadduguntepalya", "amenity": "hospital", "emergency": "yes", "healthcare": "hospital", "name": "Surya Diagnostics and Health Services", "phone": "080 2552 6667", "source": "http://www.bangalorean.co.in/"}}, {"type": "node", "id": 4447156427, "lat": 12.9062193, "lon": 77.580682, "tags": {"addr:city": "Bengaluru", "addr:district": "Bengaluru Urban", "addr:full": "#726, 17Th Cross, 6Th Phase, J.P. Nagar", "addr:housenumber": "5", "addr:postcode": "560078", "addr:state": "Karnataka", "addr:street": "Outer Ring Rd, Rose Garden, JP Nagar Phase 6, JP Nagar,", "amenity": "hospital", "name": "Green City Hospital, Bengaluru Urban", "name:kn": "\u0c97\u0ccd\u0cb0\u0cc0\u0ca8\u0ccd \u0cb8\u0cbf\u0c9f\u0cbf \u0c86\u0cb8\u0ccd\u0caa\u0ca4\u0ccd\u0cb0\u0cc6", "phone": "080 2653 6222", "source": "OpenGovernmentData"}}, {"type": "node", "id": 4447316956, "lat": 12.9059465, "lon": 77.5904192, "tags": {"addr:city": "Bangalore", "addr:housenumber": "11/2", "addr:postcode": "560078", "addr:street": "8th cross, Gangadhar Nagar, 100 Feet Ring Road, J P Nagar,", "amenity": "hospital", "name": "R R Hospital & Trauma Centre", "phone": "080 2671 8785"}}, {"type": "node", "id": 4447383325, "lat": 12.9039905, "lon": 77.5859569, "tags": {"addr:city": "bangalore", "addr:housenumber": "9", "addr:postcode": "560078", "addr:street": "24th Main Rd, KR Layout, 1st Phase, JP Nagar", "amenity": "hospital", "name": "M N Speciality Clinic", "name:kn": "\u0c8e\u0cae\u0ccd \u0c8e\u0ca8\u0ccd \u0cb8\u0ccd\u0caa\u0cc6\u0cb6\u0cbe\u0cb2\u0cbf\u0c9f\u0cbf \u0c95\u0ccd\u0cb2\u0cbf\u0ca8\u0cbf\u0c95\u0ccd", "phone": "080 2653 0121"}}, {"type": "node", "id": 4447978869, "lat": 12.9009278, "lon": 77.5986641, "tags": {"addr:city": "Bangalore", "addr:postcode": "560076", "addr:street": "Bannerghatta Road, Near Kalyani Kala Mantap, Bilekahalli, 2nd Cross Rd,, Ram Shetty Nagar, Bilekahalli", "amenity": "hospital", "emergency": "yes", "name": "Parimala Health Care", "phone": "080 2658 3117", "source": "http://www.justdial.com/Bangalore/"}}, {"type": "node", "id": 4448118314, "lat": 12.924274, "lon": 77.5680927, "tags": {"addr:city": "Bangalore", "addr:housenumber": "#3", "addr:postcode": "560068", "addr:street": "Ground Floor, 1st Phase, 2nd Stage, Oppo. Ias Colony Ground, BTM Layout, Mahadeshwara Nagar, Stage 2, BTM 2nd Stage", "amenity": "hospital", "emergency": "yes", "name": "Dr Lal PathLabs", "phone": "080 4091 6014", "source": "http://www.bangalorean.co.in/", "website": "https://www.lalpathlabs.com/"}}, {"type": "node", "id": 4456339090, "lat": 12.8943049, "lon": 77.5682821, "tags": {"addr:district": "Bengaluru Urban", "addr:full": "No.6 J.C.Industrial Area, Yelechenahalli", "addr:postcode": "560062", "addr:state": "Karnataka", "addr:street": "Kanakapura Road", "addr:subdistrict": "Kanakpura", "amenity": "hospital", "name": "Sri Sai Ram Hospital", "name:en": "Sri Sai Ram Hospital", "name:kn": "\u0cb6\u0ccd\u0cb0\u0cc0 \u0cb8\u0cbe\u0caf\u0cbf \u0cb0\u0cbe\u0cae \u0c86\u0cb8\u0ccd\u0caa\u0ca4\u0ccd\u0cb0\u0cc6", "operator:type": "private", "source": "OpenGovernmentData", "website": "http://www.srisairamhospital.com/"}}, {"type": "node", "id": 4547191103, "lat": 12.9056092, "lon": 77.5426964, "tags": {"addr:postcode": "560061", "addr:street": "Dr. Vishnuvardhan Road", "amenity": "hospital", "healthcare": "hospital", "name": "Nagarathna Hospital", "name:kn": "\u0ca8\u0cbe\u0c97\u0cb0\u0ca4\u0ccd\u0ca8"}}, {"type": "node", "id": 4609603646, "lat": 12.9168014, "lon": 77.5851878, "tags": {"addr:district": "Bengaluru Urban", "addr:full": "No.25, 46th Cross, 5th Block, Jayanagar", "addr:postcode": "560011", "addr:state": "Karnataka", "amenity": "hospital", "email": "contactus@apollocradle.com", "healthcare": "hospital", "name": "Apollo Bengaluru Cradle Limited, Jayanagar", "operator:type": "private", "source": "OpenGovernmentData", "website": "https://www.apollocradle.com/"}}, {"type": "node", "id": 5919817658, "lat": 12.8950374, "lon": 77.5979869}, {"type": "node", "id": 5959076193, "lat": 12.881611, "lon": 77.6260763, "tags": {"addr:district": "Bengaluru Rural", "addr:full": "#25,26,27, B Block, Viswapriyanagara, Near Chowdeshwari Temple, Begur", "addr:postcode": "560068", "addr:state": "Karnataka", "amenity": "hospital", "healthcare": "hospital", "name": "Jayashree Multi Specilaity Hospital", "source": "OpenGovernmentData"}}, {"type": "node", "id": 6852266953, "lat": 12.9158516, "lon": 77.5593919, "tags": {"addr:district": "Bengaluru Urban", "addr:full": "Padmanabhanagar, Bengaluru", "addr:postcode": "560070", "addr:state": "Karnataka", "amenity": "hospital", "healthcare": "hospital", "name": "Yogananda Multi Speciality Hospital", "name:kn": "\u0caf\u0ccb\u0c97\u0ca8\u0c82\u0ca6 \u0c86\u0cb8\u0ccd\u0caa\u0ca4\u0ccd\u0cb0\u0cc6", "source": "Local Knowledge"}}, {"type": "node", "id": 6938544594, "lat": 12.9166392, "lon": 77.5798346}, {"type": "node", "id": 6938692472, "lat": 12.8919509, "lon": 77.5799654, "tags": {"addr:district": "Bengaluru Urban", "addr:full": "No.2, Chandra Complex,J.P.Nagar, 7Th Phase,Puttenahalli,OppositeRbi Cly", "addr:postcode": "560078", "addr:state": "Karnataka", "amenity": "hospital", "healthcare": "hospital", "name": "Supra South City Hospital", "source": "OpenGovernmentData"}}, {"type": "node", "id": 6938708338, "lat": 12.9215013, "lon": 77.5655432, "tags": {"addr:district": "Bengaluru Urban", "addr:full": "No 154, 17 Th Main, 29 Th Cross, Near Bnm Institution", "addr:postcode": "560070", "addr:state": "Karnataka", "amenity": "hospital", "healthcare": "hospital", "name": "Sri Krishna Hospital", "source": "OpenGovernmentData"}}, {"type": "node", "id": 6938741378, "lat": 12.9122295, "lon": 77.5994906, "tags": {"addr:district": "Bengaluru Urban", "addr:full": "C K Emerald, No-10,N S Palya Kaveriappa Industrial Area, Bannergatta Road", "addr:postcode": "560076", "addr:state": "Karnataka", "amenity": "hospital", "healthcare": "hospital", "name": "Dr Agarwals Eye Hospital Ltd", "operator": "Dr. Agarwal's Eye Hospital", "operator:type": "private", "operator:wikidata": "Q17052044", "source": "OpenGovernmentData"}}, {"type": "node", "id": 6938772336, "lat": 12.9118831, "lon": 77.5528805, "tags": {"addr:district": "Bengaluru Urban", "addr:full": "Dr.Gurappa Naidu Complex, Opposite Komarla Brigade Residency. Uttarahalli Main Road, Chikkalasandra", "addr:postcode": "560063", "addr:state": "Karnataka", "amenity": "hospital", "healthcare": "hospital", "name": "C.S. Hospital", "source": "OpenGovernmentData"}}, {"type": "node", "id": 6938777945, "lat": 12.9176216, "lon": 77.5550705, "tags": {"addr:district": "Bengaluru Urban", "addr:full": "Bkf Chand , Nephro- Urology Centre, Ca - 6,15Th, Main Street, 11Th Cross, Padmanabhanagar", "addr:postcode": "560070", "addr:state": "Karnataka", "amenity": "hospital", "name": "Nu Trust", "source": "OpenGovernmentData"}}, {"type": "node", "id": 6938787285, "lat": 12.8822813, "lon": 77.5957945, "tags": {"addr:district": "Bengaluru Urban", "addr:full": "Dsp Tower, No 40, 1st Floor Above Icici Bank Ltd", "addr:postcode": "560076", "addr:state": "Karnataka", "addr:subdistrict": "Arkere", "amenity": "hospital", "healthcare": "hospital", "name": "Vasan Eye Care Hospital, Bannergatta Road", "operator:type": "private", "source": "OpenGovernmentData", "website": "http://www.vasaneye.in/"}}, {"type": "node", "id": 6938790393, "lat": 12.924624, "lon": 77.6170966, "tags": {"addr:district": "Bengaluru Rural", "addr:full": "No. 38/2, 2nd Main Road, Madiwala New Extension", "addr:postcode": "560068", "addr:state": "Karnataka", "amenity": "hospital", "name": "Varalakshmi Hospital", "name:kn": "\u0cb5\u0cb0\u0cb2\u0c95\u0ccd\u0cb7\u0ccd\u0cae\u0cbf \u0c86\u0cb8\u0ccd\u0caa\u0ca4\u0ccd\u0cb0\u0cc6", "source": "OpenGovernmentData"}}, {"type": "node", "id": 6938863247, "lat": 12.917589, "lon": 77.5948906, "tags": {"addr:district": "Bengaluru Urban", "addr:full": "#942, 28Th Main, 9Th Block,Jayanagar", "addr:postcode": "560039", "addr:state": "Karnataka", "amenity": "hospital", "check_date": "2025-12-06", "healthcare": "hospital", "name": "Shekhar Hospital, Jayanagar", "name:kn": "\u0cb6\u0cc7\u0c96\u0cb0 \u0c86\u0cb8\u0ccd\u0caa\u0ca4\u0ccd\u0cb0\u0cc6", "source": "OpenGovernmentData"}}, {"type": "node", "id": 6938876210, "lat": 12.9103393, "lon": 77.5732398, "tags": {"addr:district": "Bengaluru Urban", "addr:full": "Plot No.2(A-2) A Type Bbmp No.57-64-2, Shivana Arcade", "addr:postcode": "560078", "addr:state": "Karnataka", "amenity": "hospital", "healthcare": "hospital", "name": "Vasan Eye Care Hospital, Sarakki", "operator:type": "private", "source": "OpenGovernmentData", "website": "http://www.vasaneye.in/"}}, {"type": "node", "id": 6938896388, "lat": 12.9079615, "lon": 77.6235715, "tags": {"addr:district": "Bengaluru Rural", "addr:full": "No-8, 1st Cross Ngr Layout Roopera Agrahara", "addr:postcode": "560068", "addr:state": "Karnataka", "amenity": "hospital", "name": "Mahanth Hospital", "source": "OpenGovernmentData"}}, {"type": "node", "id": 6938995621, "lat": 12.9163994, "lon": 77.5847384, "tags": {"addr:district": "Bengaluru Urban", "addr:full": "909, 47Th Cross, 9Thmain, 5Th Block, Opposite Adarshapalace Apts And Near Raghavendra Matha, Jayanagar", "addr:postcode": "560041", "addr:state": "Karnataka", "amenity": "hospital", "healthcare": "hospital", "name": "Dr Kamini Rao Hospital(A Unit Of Bacc Health Care Pvt Ltd)", "source": "OpenGovernmentData"}}, {"type": "node", "id": 6939444286, "lat": 12.9246384, "lon": 77.5509238, "tags": {"addr:district": "Bengaluru Urban", "addr:full": "#271, 5Th Block, 100 Feet Road, 3Road Phase, Banashankari", "addr:postcode": "560085", "addr:state": "Karnataka", "amenity": "hospital", "name": "Abhilash Hospital And Sara Rehabilitation Centre", "source": "OpenGovernmentData"}}, {"type": "node", "id": 6944283814, "lat": 12.8579673, "lon": 77.5892687, "tags": {"addr:district": "Bengaluru Urban", "addr:full": "#3, Gottigere, Bannerghatta Main Road,Near Gottigere Bus Stand", "addr:postcode": "560083", "addr:state": "Karnataka", "amenity": "hospital", "healthcare": "hospital", "name": "Vijayashree Hospitals", "name:kn": "\u0cb5\u0cbf\u0c9c\u0caf\u0cb6\u0ccd\u0cb0\u0cc0 \u0c86\u0cb8\u0ccd\u0caa\u0ca4\u0ccd\u0cb0\u0cc6\u0c97\u0cb3\u0cc1", "source": "OpenGovernmentData", "wheelchair": "yes"}}, {"type": "node", "id": 6944290483, "lat": 12.9144587, "lon": 77.6003156, "tags": {"addr:district": "Bengaluru Urban", "addr:full": "# 33, Bannerghatta Road (Service Road), B.T.M.Layout B.T.M. Layout 2nd Stage", "addr:postcode": "560076", "addr:state": "Karnataka", "amenity": "hospital", "name": "Sri Sai Ram Hospital - Bangalore", "source": "OpenGovernmentData"}}, {"type": "node", "id": 6944507653, "lat": 12.9207314, "lon": 77.5736019, "tags": {"addr:district": "Bengaluru Urban", "addr:full": "#3/2, 27Th Cross, Banashankari 2nd Stage,Near Brigade Software Park", "addr:postcode": "560070", "addr:state": "Karnataka", "amenity": "hospital", "healthcare": "hospital", "name": "Excel Care Hospital", "source": "OpenGovernmentData"}}, {"type": "node", "id": 6944507660, "lat": 12.9242515, "lon": 77.573217, "tags": {"addr:district": "Bengaluru Urban", "addr:full": "2269, 22nd Cross K R Road, K.R.Road", "addr:postcode": "560070", "addr:state": "Karnataka", "amenity": "hospital", "name": "Dr. Vidyananda's Surgery and Dia Centre", "source": "OpenGovernmentData"}}, {"type": "node", "id": 6944507676, "lat": 12.8981572, "lon": 77.6207364, "tags": {"addr:district": "Bengaluru Rural", "addr:full": "124, Kanakapura Main Road, Jayanagara 7Th Block, Bangalore", "addr:postcode": "560082", "addr:state": "Karnataka", "amenity": "hospital", "name": "Srushti Hospital, Bengaluru Rural", "name:kn": "\u0cb8\u0cc3\u0cb7\u0ccd\u0c9f\u0cbf \u0c86\u0cb8\u0ccd\u0caa\u0ca4\u0ccd\u0cb0\u0cc6", "source": "OpenGovernmentData"}}, {"type": "node", "id": 6944507681, "lat": 12.9004567, "lon": 77.6005474, "tags": {"addr:district": "Bengaluru Urban", "addr:full": "12/13, Bilekahalli, Bannerghatta Road", "addr:postcode": "560076", "addr:state": "Karnataka", "amenity": "hospital", "healthcare": "hospital", "name": "Parimala Speciality Hospital", "operator:type": "private", "source": "OpenGovernmentData", "website": "https://www.parimalahospital.com/"}}, {"type": "node", "id": 6944507682, "lat": 12.8443653, "lon": 77.583809, "tags": {"addr:district": "Bengaluru Urban", "addr:full": "Weavers Colony Main Road, Bannerghatta Road", "addr:postcode": "560083", "addr:state": "Karnataka", "amenity": "hospital", "name": "Banashankari Hospital", "source": "OpenGovernmentData"}}, {"type": "node", "id": 6944578930, "lat": 12.9188948, "lon": 77.6058905, "tags": {"addr:district": "Bengaluru Urban", "addr:full": "No.53, 3Road Main Road, Opposite To Maruti Layout, B.T.M Layout 1st Stage", "addr:postcode": "560029", "addr:state": "Karnataka", "amenity": "hospital", "healthcare": "hospital", "name": "Kareem E.N.T and Multispeciality Centre", "source": "OpenGovernmentData"}}, {"type": "node", "id": 6945010490, "lat": 12.9067079, "lon": 77.5849275, "tags": {"addr:district": "Bengaluru Urban", "addr:full": "No. 4, Sarakki Industrial Estate, 3Road Phase, J.P.Nagar, Bannerghatta Road", "addr:postcode": "560076", "addr:state": "Karnataka", "amenity": "hospital", "name": "North Star Maternity and Nursing Home", "source": "OpenGovernmentData"}}, {"type": "node", "id": 6947375064, "lat": 12.89708, "lon": 77.5473364, "tags": {"addr:district": "Bengaluru Urban", "addr:full": "No.4, Sagar Complex,Gopalakrishna Layout,Vasanthapura Main Road,Subramanyapura Post,Uttarahalli Hobli", "addr:postcode": "560061", "addr:state": "Karnataka", "amenity": "hospital", "name": "Samastha Hospitals Pvt Ltd", "source": "OpenGovernmentData"}}, {"type": "node", "id": 6947556032, "lat": 12.9074269, "lon": 77.5716318, "tags": {"addr:district": "Bengaluru Urban", "addr:full": "11/2 8Th Cross, Gangadhar Nagar 100 Ring Road, J.P Nagar Post", "addr:postcode": "560078", "addr:state": "Karnataka", "amenity": "hospital", "name": "R.R. Hospital and Trauma Centre", "source": "OpenGovernmentData"}}, {"type": "node", "id": 6947750361, "lat": 12.9162753, "lon": 77.5589544, "tags": {"addr:district": "Bengaluru Urban", "addr:full": "No. 113, 4Th Cross, R. K. Layout, Padmanabhanagar", "addr:postcode": "560070", "addr:state": "Karnataka", "amenity": "hospital", "healthcare": "hospital", "name": "Hillside Hospital", "source": "OpenGovernmentData"}}, {"type": "node", "id": 6948751340, "lat": 12.8919999, "lon": 77.6257829, "tags": {"addr:district": "Bengaluru Rural", "addr:full": "13/29,Prathik Complexhongaasandra, Begur Road", "addr:postcode": "560068", "addr:state": "Karnataka", "amenity": "hospital", "name": "Vinayaka Health Care and Maternity Home", "source": "OpenGovernmentData"}}, {"type": "node", "id": 6950185729, "lat": 12.8914666, "lon": 77.5612113, "tags": {"addr:district": "Bengaluru Rural", "addr:full": "No. 21/3 Vasanthpur Main Road Konanakunte Cross", "addr:postcode": "560062", "addr:state": "Karnataka", "amenity": "hospital", "name": "Metro Hospital, Bengaluru Rural", "source": "OpenGovernmentData"}}, {"type": "node", "id": 7202723905, "lat": 12.9102142, "lon": 77.6244654, "tags": {"addr:district": "Bangalore", "addr:full": "3rd Main Rd, NGR Layout, Roopena Agrahara, Bommanahalli", "addr:postcode": "560068", "addr:state": "Karnataka", "addr:subdistrict": "Bangalore South", "amenity": "hospital", "name": "Roopena Agrahara Government Hospital", "source": "OpenGovernmentData"}}, {"type": "node", "id": 7514681681, "lat": 12.9240924, "lon": 77.6177848, "tags": {"addr:city": "Bengaluru", "addr:postcode": "560068", "amenity": "hospital", "healthcare": "hospital", "name": "Chamundi Hi Tech Hospital"}}, {"type": "node", "id": 7572669031, "lat": 12.9056165, "lon": 77.6122688, "tags": {"addr:district": "Bengaluru Urban", "addr:full": "EWS Colony, BTM Layout, Bengaluru", "addr:postcode": "560076", "addr:state": "Karnataka", "amenity": "hospital", "name": "Sri Venkateswara Hospital", "source": "Local Knowledge"}}, {"type": "node", "id": 7572669032, "lat": 12.895426, "lon": 77.607662, "tags": {"addr:district": "Bengaluru Urban", "addr:full": "Vijaya Bank Layout, Bilekahalli, Bengaluru", "addr:postcode": "560076", "addr:state": "Karnataka", "amenity": "hospital", "healthcare": "hospital", "name": "Rajashri Grandhim Hospitals", "source": "Local Knowledge"}}, {"type": "node", "id": 7572669035, "lat": 12.8908362, "lon": 77.6040715, "tags": {"addr:district": "Bengaluru Urban", "addr:full": "Duo Heights Layout, Devarachiknahalli, Bengaluru", "addr:postcode": "560068", "addr:state": "Karnataka", "amenity": "hospital", "healthcare": "hospital", "name": "Goldage Hospital", "source": "Local Knowledge"}}, {"type": "node", "id": 7579924715, "lat": 12.9215119, "lon": 77.5724702, "tags": {"addr:district": "Bengaluru Urban", "addr:full": "Banashankari, Bengaluru", "addr:postcode": "560070", "addr:state": "Karnataka", "amenity": "hospital", "healthcare": "hospital", "name": "Sevakshetra Hospital", "name:kn": "\u0cb8\u0cc7\u0cb5\u0cbe\u0c95\u0ccd\u0cb7\u0cc7\u0ca4\u0ccd\u0cb0 \u0c86\u0cb8\u0ccd\u0caa\u0ca4\u0ccd\u0cb0\u0cc6", "source": "Local Knowledge"}}, {"type": "node", "id": 7579924725, "lat": 12.9055752, "lon": 77.5425258, "tags": {"addr:district": "Bengaluru Urban", "addr:full": "Uttarahalli, Bengaluru", "addr:postcode": "560011", "addr:state": "Karnataka", "amenity": "hospital", "name": "Perfetual Help Hospital", "source": "Local Knowledge"}}, {"type": "node", "id": 7579924729, "lat": 12.9121632, "lon": 77.6098276, "tags": {"addr:district": "Bengaluru Urban", "addr:full": "Mahadeshwara Nagar, BTM Layout, Bengaluru", "addr:postcode": "560076", "addr:state": "Karnataka", "amenity": "hospital", "name": "Shree Vaishnavi Heart Centre and Multi Speciality", "source": "Local Knowledge"}}, {"type": "node", "id": 7579924731, "lat": 12.9136262, "lon": 77.6045369, "tags": {"addr:district": "Bengaluru Urban", "addr:floor": "3", "addr:full": "BTM, Bengaluru", "addr:postcode": "560076", "addr:state": "Karnataka", "amenity": "hospital", "check_date": "2023-12-27", "emergency": "no", "healthcare": "hospital", "internet_access": "no", "level": "3", "name": "Marigold Hospital", "operator:type": "private", "payment:cash": "yes", "payment:credit_cards": "yes", "payment:debit_cards": "yes", "source": "Local Knowledge", "wheelchair": "limited"}}, {"type": "node", "id": 7579924738, "lat": 12.9239445, "lon": 77.6198634, "tags": {"addr:district": "Bengaluru Urban", "addr:full": "Sidharata Colony, Santhosapuram, Koramangala, Bengaluru", "addr:postcode": "560034", "addr:state": "Karnataka", "amenity": "hospital", "healthcare": "hospital", "name": "Devi Hospital", "source": "Local Knowledge"}}, {"type": "node", "id": 7579924744, "lat": 12.924153, "lon": 77.565797, "tags": {"addr:district": "Bengaluru Urban", "addr:full": "Banashankari, Bengaluru", "addr:postcode": "560070", "addr:state": "Karnataka", "amenity": "hospital", "name": "Devagiri Hospital", "source": "Local Knowledge"}}, {"type": "node", "id": 7579924753, "lat": 12.9159348, "lon": 77.6034098, "tags": {"addr:district": "Bengaluru Urban", "addr:full": "Bannerghatta Main Road, BTM, Bengaluru", "addr:postcode": "560076", "addr:state": "Karnataka", "amenity": "hospital", "healthcare": "hospital", "name": "Pothys Hospital", "source": "Local Knowledge"}}, {"type": "node", "id": 7579924754, "lat": 12.916234, "lon": 77.593019, "tags": {"addr:district": "Bengaluru Urban", "addr:full": "J.P. Nagar, Bengaluru", "addr:postcode": "560078", "addr:state": "Karnataka", "amenity": "hospital", "healthcare": "hospital", "name": "Center for Liver Disease Hospital", "source": "Local Knowledge"}}, {"type": "node", "id": 7579924762, "lat": 12.920651, "lon": 77.5746118, "tags": {"addr:district": "Bengaluru Urban", "addr:full": "Jayanagar, Bengaluru", "addr:postcode": "560082", "addr:state": "Karnataka", "amenity": "hospital", "name": "Sahasra Hospital", "name:kn": "\u0cb8\u0cb9\u0cb8\u0ccd\u0cb0 \u0c86\u0cb8\u0ccd\u0caa\u0ca4\u0ccd\u0cb0\u0cc6", "source": "Local Knowledge"}}, {"type": "node", "id": 7579924768, "lat": 12.9202202, "lon": 77.5772991, "tags": {"addr:district": "Bengaluru Urban", "addr:full": "Jayanagar, Bengaluru", "addr:postcode": "560070", "addr:state": "Karnataka", "amenity": "hospital", "name": "Shanti Hospital", "name:kn": "\u0cb6\u0cbe\u0c82\u0ca4\u0cbf \u0c86\u0cb8\u0ccd\u0caa\u0ca4\u0ccd\u0cb0\u0cc6", "source": "Local Knowledge"}}, {"type": "node", "id": 7579924779, "lat": 12.923857, "lon": 77.611355, "tags": {"addr:district": "Bengaluru Urban", "addr:full": "Taverekere, Bengaluru", "addr:postcode": "560029", "addr:state": "Karnataka", "amenity": "hospital", "name": "Spurthy Hospital", "source": "Local Knowledge"}}, {"type": "node", "id": 7579924780, "lat": 12.916885, "lon": 77.585258, "tags": {"addr:district": "Bengaluru Urban", "addr:full": "TMC Layout, Jayanagar, Bengaluru", "addr:postcode": "560011", "addr:state": "Karnataka", "amenity": "hospital", "healthcare": "hospital", "name": "Apollo Cradle Maternity & Children's Hospital", "source": "Local Knowledge"}}, {"type": "node", "id": 7579924783, "lat": 12.906113, "lon": 77.542548, "tags": {"addr:district": "Bengaluru Urban", "addr:full": "Simhadri layout, Uttarahalli Hobli, Bengaluru", "addr:postcode": "560061", "addr:state": "Karnataka", "amenity": "hospital", "name": "St. Martha's Hospital", "source": "Local Knowledge"}}, {"type": "node", "id": 7579924785, "lat": 12.9160818, "lon": 77.5884774}, {"type": "node", "id": 8776646948, "lat": 12.9128623, "lon": 77.5714903, "tags": {"addr:city": "Bangalore", "addr:housenumber": "64/2, Sarakki Main Rd, Sarakki Nagar,", "addr:postcode": "560078", "addr:street": "4th Cross Road", "amenity": "hospital", "healthcare": "hospital", "healthcare:speciality": "physiotherapy;physiotherapist", "name": "Healing Hands Advanced Physiotherapy Clinic", "operator": "www.hhphysio.com", "operator:type": "private"}}, {"type": "node", "id": 9884952776, "lat": 12.8832909, "lon": 77.5500857, "tags": {"addr:city": "Bengaluru", "addr:housenumber": "766", "addr:postcode": "560062", "addr:street": "Narayana Nagar, 1st Block, Doddakallasandra Village, Kanakapura Road", "amenity": "hospital", "check_date": "2024-10-19", "description": "Maternity & Kids Hospital", "emergency": "yes", "healthcare": "hospital", "healthcare:speciality": "gynaecology;pulmonology;paediatrics;dermatology;dentistry;physiotherapy;fertility", "name": "Cloudnine Hospital", "operator:type": "private", "phone": "9972999729", "website": "https://www.cloudninecare.com"}}, {"type": "node", "id": 10146603250, "lat": 12.9034102, "lon": 77.6013846}, {"type": "node", "id": 10146603251, "lat": 12.9031678, "lon": 77.6013273}, {"type": "node", "id": 10146603252, "lat": 12.9033714, "lon": 77.6001388}, {"type": "node", "id": 10146603254, "lat": 12.9036331, "lon": 77.6001647}, {"type": "node", "id": 10632949336, "lat": 12.918923, "lon": 77.5987416}, {"type": "node", "id": 11279857425, "lat": 12.9164347, "lon": 77.589144}, {"type": "node", "id": 11279857426, "lat": 12.9164517, "lon": 77.5892432}, {"type": "node", "id": 11279857427, "lat": 12.9164424, "lon": 77.5895344}, {"type": "node", "id": 11279857428, "lat": 12.9159946, "lon": 77.5895527}, {"type": "node", "id": 11299121541, "lat": 12.8784742, "lon": 77.5450234, "tags": {"amenity": "hospital", "healthcare": "hospital", "name": "Zymus Hospitals"}}, {"type": "node", "id": 11303711371, "lat": 12.906071, "lon": 77.5869281, "tags": {"amenity": "hospital", "check_date": "2023-11-01", "healthcare": "hospital", "level": "0;1;2", "name": "Cadabam's Hospitals", "wheelchair": "yes"}}, {"type": "node", "id": 11385161943, "lat": 12.9164428, "lon": 77.5894927, "tags": {"access": "private", "barrier": "gate"}}, {"type": "node", "id": 11542884418, "lat": 12.9199755, "lon": 77.5993641}, {"type": "node", "id": 11542884419, "lat": 12.919958, "lon": 77.5999059}, {"type": "node", "id": 11542884420, "lat": 12.9192816, "lon": 77.5998849}, {"type": "node", "id": 11542884429, "lat": 12.9194694, "lon": 77.5987574}, {"type": "node", "id": 11757924262, "lat": 12.9034811, "lon": 77.6009965}, {"type": "node", "id": 11801601935, "lat": 12.9030689, "lon": 77.5607177}, {"type": "node", "id": 11801601936, "lat": 12.902942, "lon": 77.5606585}, {"type": "node", "id": 11801601937, "lat": 12.9031277, "lon": 77.5598988}, {"type": "node", "id": 11801601938, "lat": 12.9033643, "lon": 77.5599393}, {"type": "node", "id": 11813227397, "lat": 12.9075935, "lon": 77.5707809, "tags": {"amenity": "hospital", "name": "Bengaluru City Hospital"}}, {"type": "node", "id": 11869384815, "lat": 12.8835095, "lon": 77.550214, "tags": {"addr:street": "Kanakapura Road", "amenity": "hospital", "description": "Multi speciality hospital", "name": "Dhee Hospital", "website": "https://dheehospitals.com/"}}, {"type": "node", "id": 11946809268, "lat": 12.9058817, "lon": 77.6037517, "tags": {"amenity": "hospital", "healthcare": "hospital", "name": "Chirag Global Hospital"}}, {"type": "node", "id": 11956235455, "lat": 12.8948772, "lon": 77.5993046}, {"type": "node", "id": 11956235456, "lat": 12.8941265, "lon": 77.5990779}, {"type": "node", "id": 12160392616, "lat": 12.8941373, "lon": 77.5985424}, {"type": "node", "id": 12160392617, "lat": 12.8943705, "lon": 77.5985289}, {"type": "node", "id": 12160392618, "lat": 12.8941164, "lon": 77.5983292}, {"type": "node", "id": 12160392680, "lat": 12.8963799, "lon": 77.5989327}, {"type": "node", "id": 12160392681, "lat": 12.8951289, "lon": 77.5988993}, {"type": "node", "id": 12160392684, "lat": 12.89614, "lon": 77.5977297}, {"type": "node", "id": 12160392688, "lat": 12.8954584, "lon": 77.5979092}, {"type": "node", "id": 13233872595, "lat": 12.9238123, "lon": 77.613534}, {"type": "node", "id": 13234205481, "lat": 12.9240208, "lon": 77.6135869}, {"type": "node", "id": 13234528613, "lat": 12.9238073, "lon": 77.6135429}, {"type": "node", "id": 13234528614, "lat": 12.9240163, "lon": 77.6136003}, {"type": "node", "id": 13234528615, "lat": 12.9239698, "lon": 77.6130461}, {"type": "node", "id": 13257391201, "lat": 12.9070989, "lon": 77.5460762, "tags": {"addr:postcode": "560061", "addr:street": "Dr. Vishnuvardhan Road", "amenity": "hospital", "name": "Nano Hospitals"}}, {"type": "node", "id": 13359198793, "lat": 12.9169038, "lon": 77.5993477, "tags": {"barrier": "turnstile"}}, {"type": "node", "id": 13359295722, "lat": 12.9173089, "lon": 77.5998236}, {"type": "node", "id": 13359295723, "lat": 12.9173112, "lon": 77.5997286}, {"type": "node", "id": 13359295724, "lat": 12.916989, "lon": 77.5997246}, {"type": "node", "id": 13359295725, "lat": 12.9169958, "lon": 77.5993521}, {"type": "node", "id": 13359295726, "lat": 12.9169837, "lon": 77.5993518}, {"type": "node", "id": 13359295727, "lat": 12.9168789, "lon": 77.5993464}, {"type": "way", "id": 40678727, "nodes": [13359295722, 13359295723, 13359295724, 13359295725, 13359295726, 13359198793, 13359295727, 364642648, 3302642056, 10632949336, 11542884429, 4397421851, 4397421852, 11542884418, 4397421854, 4397421853, 11542884419, 11542884420, 13359295722], "tags": {"addr:district": "Bengaluru Urban", "addr:full": "Jayanagar 9Th Block, B.G. Road, Banglore", "addr:postcode": "560041", "addr:state": "Karnataka", "addr:street": "Bannerghatta Road", "amenity": "hospital", "emergency": "yes", "healthcare": "hospital", "healthcare:speciality": "cardiology", "name": "Sri Jayadeva Institute Of Cardiology", "name:kn": "\u0c9c\u0caf\u0ca6\u0cc7\u0cb5 \u0cb9\u0cc3\u0ca6\u0ccd\u0cb0\u0ccb\u0c97 \u0cb8\u0c82\u0cb8\u0ccd\u0ca5\u0cc6", "name:ta": "\u0bb8\u0bcd\u0bb0\u0bc0 \u0b9c\u0bc6\u0baf\u0ba4\u0bc7\u0bb5\u0bbe \u0b87\u0bb0\u0bc1\u0ba4\u0baf \u0bae\u0bb0\u0bc1\u0ba4\u0bcd\u0ba4\u0bc1\u0bb5\u0bae\u0ba9\u0bc8", "source": "OpenGovernmentData"}}, {"type": "way", "id": 44091443, "nodes": [560379894, 3874223184, 5919817658, 560379898, 2891385860, 12160392618, 12160392616, 12160392617, 560379901, 11956235456, 11956235455, 560379902, 12160392681, 12160392688, 560379894], "tags": {"addr:district": "Bengaluru Urban", "addr:full": "154/9, Bannerghatta Road, OppositeIIM-B", "addr:postcode": "560076", "addr:state": "Karnataka", "amenity": "hospital", "email": "enquiries@fortishospitals.in", "emergency": "yes", "healthcare": "hospital", "healthcare:speciality": "multi speciality", "name": "Fortis Hospitals, Bannerghatta Road", "name:kn": "\u0cab\u0ccb\u0cb0\u0ccd\u0c9f\u0cbf\u0cb8\u0ccd \u0c86\u0cb8\u0ccd\u0caa\u0ca4\u0ccd\u0cb0\u0cc6", "operator:type": "private", "source": "OpenGovernmentData", "website": "www.fortishospitals.com", "wheelchair": "yes"}}, {"type": "way", "id": 44091445, "nodes": [560379907, 2385057300, 560379910, 1861737919, 1861737990, 12160392680, 1861737976, 560379916, 12160392684, 2385057303, 2385057302, 560379907], "tags": {"addr:city": "Bangalore", "addr:district": "Bengaluru Urban", "addr:full": "154/11, Opp, I.I.M, Bannerghatta Road", "addr:postcode": "560076", "addr:state": "Karnataka", "addr:street": "Bannerghatta Road", "amenity": "hospital", "email": "customercarebangalore@apollohospitals.com", "emergency": "yes", "healthcare": "hospital", "healthcare:speciality": "multi speciality", "name": "Apollo Hospital", "name:kn": "\u0c85\u0caa\u0ccb\u0cb2\u0ccb \u0c86\u0cb8\u0ccd\u0caa\u0ca4\u0ccd\u0cb0\u0cc6", "operator:type": "private", "source": "OpenGovernmentData", "website": "www.apollohospitalsbangalore.com", "wheelchair": "yes"}}, {"type": "way", "id": 118411722, "nodes": [1331946771, 1331946750, 1331946751, 1331946769, 1331946771], "tags": {"addr:city": "bangalore", "addr:district": "Bengaluru Urban", "addr:full": "No 21, 9Th Cross, B-78 Jp Nagar", "addr:housenumber": "21", "addr:postcode": "560078", "addr:state": "Karnataka", "addr:street": "9th Cross Road, Phase 1, Sarakki Layout, JP Nagar", "amenity": "hospital", "emergency": "yes", "healthcare": "hospital", "name": "Rajshekhar Hospital", "name:kn": "\u0cb0\u0cbe\u0c9c\u0cb6\u0cc7\u0c96\u0cb0 \u0c86\u0cb8\u0ccd\u0caa\u0ca4\u0ccd\u0cb0\u0cc6", "phone": "080 4252 7555", "source": "OpenGovernmentData", "website": "https://www.rajshekarhospital.com/"}}, {"type": "way", "id": 133951786, "nodes": [1473997317, 1473997310, 1473997305, 6938544594, 1473997317], "tags": {"addr:district": "Bengaluru Urban", "addr:full": "VR Layout, J. P. Nagar, Bengaluru", "addr:postcode": "560078", "addr:state": "Karnataka", "amenity": "hospital", "healthcare": "hospital", "name": "Rajalakshmi Multispeciality Hospital", "name:kn": "\u0cb0\u0cbe\u0c9c\u0cbe\u0c9c\u0cbf\u0ca8\u0c97\u0cb0 \u0c86\u0cb8\u0ccd\u0caa\u0ca4\u0ccd\u0cb0\u0cc6"}}, {"type": "way", "id": 259487871, "nodes": [2649089257, 2649089258, 2649089256, 2649089255, 2649089257], "tags": {"addr:city": "Bangalore", "addr:district": "Bengaluru Urban", "addr:full": "#523, 10th Main,45th Cross, 5th Block, Jayanagar", "addr:housename": "523", "addr:postcode": "560041", "addr:state": "Karnataka", "amenity": "hospital", "building": "yes", "email": "admin@sksh.com", "healthcare": "hospital", "name": "Shri Krishna Sevashrama Hospital", "name:kn": "\u0cb6\u0ccd\u0cb0\u0cc0\u0c95\u0ccd\u0cb7\u0cc7\u0ca4\u0ccd\u0cb0 \u0cb8\u0cc7\u0cb5\u0cbe\u0cb6\u0ccd\u0cb0\u0cae \u0c86\u0cb8\u0ccd\u0caa\u0ca4\u0ccd\u0cb0\u0cc6", "operator:type": "private", "phone": "+918022441631", "source": "OpenGovernmentData", "website": "http://www.sks-hospital.org/"}}, {"type": "way", "id": 307097150, "nodes": [3121618244, 3121618247, 3121618246, 3121618245, 3121618244], "tags": {"addr:city": "Bangalore", "addr:district": "Bengaluru Urban", "addr:full": "B 70, 27Th Cross Banashankari 2nd Stage Banashankari", "addr:postcode": "560070", "addr:state": "Karnataka", "addr:street": "27th Cross", "amenity": "hospital", "emergency": "yes", "healthcare": "hospital", "name": "Sevakshetra Hospital, Bengaluru Urban", "name:kn": "\u0cb8\u0cc7\u0cb5\u0cbe\u0c95\u0ccd\u0cb7\u0cc7\u0ca4\u0ccd\u0cb0 \u0c86\u0cb8\u0ccd\u0caa\u0ca4\u0ccd\u0cb0\u0cc6", "source": "OpenGovernmentData"}}, {"type": "way", "id": 333052556, "nodes": [3401665452, 3401665453, 3401665454, 3401665455, 3401665452], "tags": {"amenity": "hospital", "building": "yes", "healthcare": "hospital", "name": "Dr. Agarwal's Eye Hospital", "operator": "Dr. Agarwal's Eye Hospital", "operator:type": "private", "operator:wikidata": "Q17052044"}}, {"type": "way", "id": 348229715, "nodes": [3543907565, 3543907564, 3543907506, 3543907508, 3543907565], "tags": {"addr:district": "Bengaluru Urban", "addr:full": "123, 7 Th Cross Dollas Colony,Billekhalli,Off Bannerghatta Road,Btm Stage Ii", "addr:postcode": "560076", "addr:state": "Karnataka", "amenity": "hospital", "building": "yes", "healthcare": "hospital", "healthcare:speciality": "gynaecology", "name": "Sakhi Hospital (A Unit Of Prasad Healthcare Services)", "source": "OpenGovernmentData", "wheelchair": "yes"}}, {"type": "way", "id": 442048031, "nodes": [4397421813, 4397421803, 4397421798, 4397421791, 4397421788, 4397421787, 4397421789, 4397421799, 4397421804, 4397421812, 4397421814, 4397421815, 4397421813], "tags": {"amenity": "hospital", "building": "hospital", "name": "Sagar Hospital", "name:kn": "\u0cb8\u0cbe\u0c97\u0cb0 \u0c86\u0cb8\u0ccd\u0caa\u0ca4\u0ccd\u0cb0\u0cc6", "opening_hours": "Mo-Su 00:00-23:00"}}, {"type": "way", "id": 1108934944, "nodes": [10146603250, 10146603251, 10146603252, 10146603254, 11757924262, 10146603250], "tags": {"addr:city": "Bengaluru", "addr:housenumber": "178/1 & 178/2", "addr:postcode": "560076", "addr:street": "Bannerghatta Road", "amenity": "hospital", "beds": "77", "emergency": "yes", "healthcare": "hospital", "healthcare:speciality": "paediatrics;gynaecology", "name": "Rainbow Children's Hospital", "operator": "Rainbow Hospitals", "operator:type": "private", "phone:mobile": "9355400341", "website": "https://www.rainbowhospitals.in/our-centre/bengaluru/bannerghatta", "wheelchair": "yes"}}, {"type": "way", "id": 1217375998, "nodes": [7579924785, 11279857428, 11279857427, 11385161943, 11279857426, 11279857425, 7579924785], "tags": {"addr:district": "Bengaluru Urban", "addr:full": "JP Nagar, Bengaluru", "addr:postcode": "560078", "addr:state": "Karnataka", "amenity": "hospital", "healthcare": "hospital", "name": "Jnana Sanjeevini", "name:kn": "\u0c9c\u0ccd\u0c9e\u0cbe\u0ca8 \u0cb8\u0c82\u0c9c\u0cc0\u0cb5\u0cbf\u0ca8\u0cbf", "source": "Local Knowledge"}}, {"type": "way", "id": 1270817507, "nodes": [11801601938, 11801601937, 11801601936, 11801601935, 11801601938], "tags": {"amenity": "hospital", "healthcare": "hospital", "name": "Vasavi Hospital", "name:kn": "\u0cb5\u0cbe\u0cb8\u0cb5\u0cbf \u0c86\u0cb8\u0ccd\u0caa\u0ca4\u0ccd\u0cb0\u0cc6"}}, {"type": "way", "id": 1442330288, "nodes": [13233872595, 13234528615, 4445965958, 13234205481, 13234528614, 13234528613, 13233872595], "tags": {"addr:city": "Bangalore", "addr:housenumber": "2324, Om Comple", "addr:postcode": "560068", "addr:street": "Maruthi Nagar Main Road", "amenity": "hospital", "emergency": "yes", "name": "Life Care Hospital", "phone": "080 2684 6677"}}]}