{"version": 0.6, "generator": "Overpass API 0.7.62.8 e802775f", "osm3s": {"timestamp_osm_base": "2026-01-13T03:37:13Z", "copyright": "The data included in this document is from www.openstreetmap.org. The data is made available under ODbL."}, "elements": [{"type": "node", "id": 1930607012, "lat": 17.3937118, "lon": 78.4269709}, {"type": "node", "id": 1930607014, "lat": 17.3935093, "lon": 78.4269808}, {"type": "node", "id": 1930607015, "lat": 17.3935375, "lon": 78.4276131}, {"type": "node", "id": 1930607016, "lat": 17.3937399, "lon": 78.4276032}, {"type": "node", "id": 2533171513, "lat": 17.3142166, "lon": 78.4046423}, {"type": "node", "id": 2533171514, "lat": 17.3140207, "lon": 78.4045019}, {"type": "node", "id": 2533171515, "lat": 17.3139889, "lon": 78.4045506}, {"type": "node", "id": 2533171516, "lat": 17.3138691, "lon": 78.4044647}, {"type": "node", "id": 2533171517, "lat": 17.3138088, "lon": 78.404557}, {"type": "node", "id": 2533171518, "lat": 17.3139244, "lon": 78.4046398}, {"type": "node", "id": 2533171519, "lat": 17.31391, "lon": 78.4046618}, {"type": "node", "id": 2533171520, "lat": 17.3139375, "lon": 78.4046815}, {"type": "node", "id": 2533171521, "lat": 17.3139756, "lon": 78.4046232}, {"type": "node", "id": 2533171522, "lat": 17.3140718, "lon": 78.4046921}, {"type": "node", "id": 2533171523, "lat": 17.3140583, "lon": 78.4047128}, {"type": "node", "id": 2533171524, "lat": 17.3141018, "lon": 78.4047439}, {"type": "node", "id": 2533171525, "lat": 17.3141494, "lon": 78.4047452}, {"type": "node", "id": 2533171526, "lat": 17.3141164, "lon": 78.4047215}, {"type": "node", "id": 3619476945, "lat": 17.3942665, "lon": 78.4517846}, {"type": "node", "id": 3619476956, "lat": 17.394304, "lon": 78.4518731}, {"type": "node", "id": 3619476978, "lat": 17.3943949, "lon": 78.4517249}, {"type": "node", "id": 3619476990, "lat": 17.3944324, "lon": 78.4518134}, {"type": "node", "id": 3619560208, "lat": 17.3516292, "lon": 78.373323}, {"type": "node", "id": 3619560211, "lat": 17.3517071, "lon": 78.3739591}, {"type": "node", "id": 3619560214, "lat": 17.3517538, "lon": 78.3739744}, {"type": "node", "id": 3619560215, "lat": 17.3517558, "lon": 78.3739532}, {"type": "node", "id": 3619560216, "lat": 17.3517562, "lon": 78.3739525}, {"type": "node", "id": 3619560217, "lat": 17.3517597, "lon": 78.3739947}, {"type": "node", "id": 3619560218, "lat": 17.3517726, "lon": 78.3740111}, {"type": "node", "id": 3619560219, "lat": 17.3517905, "lon": 78.3740211}, {"type": "node", "id": 3619560220, "lat": 17.3518107, "lon": 78.3740232}, {"type": "node", "id": 3619560223, "lat": 17.3518301, "lon": 78.374017}, {"type": "node", "id": 3619560224, "lat": 17.3518457, "lon": 78.3740035}, {"type": "node", "id": 3619560225, "lat": 17.351847, "lon": 78.3735084}, {"type": "node", "id": 3619560226, "lat": 17.3518488, "lon": 78.37394}, {"type": "node", "id": 3619560227, "lat": 17.3518514, "lon": 78.3739433}, {"type": "node", "id": 3619560228, "lat": 17.3518553, "lon": 78.3739848}, {"type": "node", "id": 3619560229, "lat": 17.3518573, "lon": 78.3739636}, {"type": "node", "id": 3619560231, "lat": 17.3518749, "lon": 78.3737366}, {"type": "node", "id": 3619560237, "lat": 17.3520298, "lon": 78.3736631}, {"type": "node", "id": 3619560238, "lat": 17.3520362, "lon": 78.373715}, {"type": "node", "id": 3619560243, "lat": 17.3521223, "lon": 78.3734714}, {"type": "node", "id": 3619560244, "lat": 17.3521266, "lon": 78.3739027}, {"type": "node", "id": 3619560245, "lat": 17.3521345, "lon": 78.3739668}, {"type": "node", "id": 3619560246, "lat": 17.3521439, "lon": 78.3736478}, {"type": "node", "id": 3619560251, "lat": 17.3521869, "lon": 78.373454}, {"type": "node", "id": 3619560252, "lat": 17.3522068, "lon": 78.3736162}, {"type": "node", "id": 3619560255, "lat": 17.352262, "lon": 78.3736088}, {"type": "node", "id": 3619560256, "lat": 17.3522713, "lon": 78.373685}, {"type": "node", "id": 3619560257, "lat": 17.3522812, "lon": 78.3738819}, {"type": "node", "id": 3619560258, "lat": 17.3522891, "lon": 78.3739461}, {"type": "node", "id": 3619560263, "lat": 17.3525107, "lon": 78.3732045}, {"type": "node", "id": 3619560264, "lat": 17.3525355, "lon": 78.3734071}, {"type": "node", "id": 3619560265, "lat": 17.3525647, "lon": 78.3736456}, {"type": "node", "id": 3619560266, "lat": 17.3525886, "lon": 78.3738406}, {"type": "node", "id": 3668069411, "lat": 17.3714238, "lon": 78.4438197}, {"type": "node", "id": 3668069412, "lat": 17.3714462, "lon": 78.4436644}, {"type": "node", "id": 3668069428, "lat": 17.3715555, "lon": 78.4438406}, {"type": "node", "id": 3668069431, "lat": 17.3715689, "lon": 78.4437479}, {"type": "node", "id": 5876735151, "lat": 17.3140538, "lon": 78.4045957, "tags": {"amenity": "hospital", "emergency": "yes", "name": "NIRD heatlth centre"}}, {"type": "node", "id": 6216425386, "lat": 17.3948133, "lon": 78.4525058, "tags": {"amenity": "hospital", "name": "Mahatma Sriramachandra Centenary Memorial Hospital"}}, {"type": "node", "id": 6220365686, "lat": 17.3946344, "lon": 78.4519084, "tags": {"addr:district": "Hyderabad", "addr:full": "229/2RT, Beside Post Office , Vijayanagar Colony", "addr:postcode": "500057", "addr:state": "Telangana", "amenity": "hospital", "name": "Rohan Hospital", "source": "OpenGovernmentData"}}, {"type": "node", "id": 6479961202, "lat": 17.3913878, "lon": 78.4369875, "tags": {"addr:district": "Hyderabad", "addr:full": "#12-2-823/A/46, Near Santosh Nagar Park, Lane Opposite Pillar 19, Santosh Nagar Colony, Mehdipatnam", "addr:postcode": "500028", "addr:state": "Telangana", "amenity": "hospital", "contact:email": "arjun.e@apoorvahospital.com", "health_facility:type": "Lounge; Reception; PICU; State of Art Equipments; 24 hours Pediatric Emergencies; Surgical Facilities", "medical_system": "Allopathic", "name": "Apoorva Hospital", "operator:type": "private", "phone": "040 65503232; 040 23521139", "source": "OpenGovernmentData", "website": "http://www.apoorvahospital.com"}}, {"type": "node", "id": 6481978987, "lat": 17.3918945, "lon": 78.4378043, "tags": {"addr:district": "Hyderabad", "addr:full": "12-2-824, P.V. Narasimha Rao Express Way, Near St.Anns Women's College, Mehdipatnam", "addr:postcode": "500028", "addr:state": "Telangana", "amenity": "hospital", "name": "Arvind Eye Hospital", "phone": "040 2351 2233", "source": "OpenGovernmentData", "website": "www.aravindeyecarehospitals.com"}}, {"type": "node", "id": 6484721973, "lat": 17.3942929, "lon": 78.4419228, "tags": {"addr:district": "Hyderabad", "addr:full": "10-3-5/E/106, Sakina Complex, Mehdipatnam", "addr:postcode": "500028", "addr:state": "Telangana", "amenity": "hospital", "fax": "040-23513839;040-55578888", "name": "Sai Preethi Life Line Hospital", "source": "OpenGovernmentData"}}, {"type": "node", "id": 6485264332, "lat": 17.3755381, "lon": 78.4190255, "tags": {"addr:district": "Hyderabad", "addr:full": "9-1-43/24, Langar House", "addr:postcode": "500008", "addr:state": "Telangana", "amenity": "hospital", "name": "Kosaraju Hospitals Private Ltd.", "source": "OpenGovernmentData"}}, {"type": "node", "id": 6485824573, "lat": 17.3915772, "lon": 78.4268716, "tags": {"addr:district": "Hyderabad", "addr:full": "12-2-718, Khader Bagh Road, Toli Chowki, Padmanabha Nagar, Mehdipatnam", "addr:postcode": "500028", "addr:state": "Telangana", "amenity": "hospital", "check_date": "2025-03-25", "contact:mobile": "+91 7702001163", "contact:phone": "040-2351 5100", "name": "Premier Hospital", "source": "OpenGovernmentData", "website": "https://www.premierhospital.in"}}, {"type": "node", "id": 6485889000, "lat": 17.376004, "lon": 78.4190007, "tags": {"addr:district": "Hyderabad", "addr:full": "9-1-43/8, Near Alankar Cinemas, Langar Houz", "addr:postcode": "500008", "addr:state": "Telangana", "amenity": "hospital", "name": "Vasu Hospital", "source": "OpenGovernmentData"}}, {"type": "node", "id": 6486047722, "lat": 17.3652026, "lon": 78.3969207, "tags": {"addr:district": "Hyderabad", "addr:full": "Hydershakote,Himagiri Nagar Colony,Near Shadan Medical College", "addr:postcode": "500008", "addr:state": "Telangana", "amenity": "hospital", "fax": "24190501", "name": "Sun City Nursing Home", "source": "OpenGovernmentData"}}, {"type": "node", "id": 6487137845, "lat": 17.394618, "lon": 78.4386519, "tags": {"addr:district": "Hyderabad", "addr:full": "#12-2-823/A/10, Opposite Jaya Bhushan Bus Stop & ICICI Bank, Santosh Nagar Colony, Mehdipatnam", "addr:postcode": "500028", "addr:state": "Telangana", "amenity": "hospital", "contact:email": "anishkolly@theendocrinologist.com", "contact:phone": "040-66563334", "healthcare": "hospital", "name": "Jaya Bhushan Hospitals Pvt. Ltd", "source": "OpenGovernmentData"}}, {"type": "node", "id": 6487200705, "lat": 17.3913379, "lon": 78.4348029, "tags": {"addr:district": "Hyderabad", "addr:full": "12-2-790/74, Ayodhya Nagar Colony Mehdipatnam", "addr:postcode": "500028", "addr:state": "Telangana", "amenity": "hospital", "name": "Ayodhya Nursing Home", "source": "OpenGovernmentData"}}, {"type": "node", "id": 6487263499, "lat": 17.3178961, "lon": 78.4453909, "tags": {"addr:district": "Hyderabad", "addr:full": "8-1-206/A,Opposite Shivalayam Temple, Raghavendra Hills, Mailardevpally, Nawab Saheb Kunta", "addr:postcode": "500005", "addr:state": "Telangana", "amenity": "hospital", "name": "Sree Raghavendra Hospital", "source": "OpenGovernmentData"}}, {"type": "node", "id": 6489894585, "lat": 17.3879656, "lon": 78.4397234, "tags": {"addr:district": "Hyderabad", "addr:full": "Gudimalkapur, Opp LIC Office, Mehdipatnam", "addr:postcode": "500028", "addr:state": "Telangana", "amenity": "hospital", "name": "Anusha Hospital", "source": "OpenGovernmentData"}}, {"type": "node", "id": 6493336766, "lat": 17.3926842, "lon": 78.4455183, "tags": {"addr:district": "Hyderabad", "addr:full": "10-2-524 & 531, Near Canara Bank, Upstair Mirza Street, M.C.H Colony, Asif Nagar", "addr:postcode": "500028", "addr:state": "Telangana", "amenity": "hospital", "name": "Aries Maternity Hospital", "source": "OpenGovernmentData"}}, {"type": "node", "id": 6496875044, "lat": 17.379978, "lon": 78.421019, "tags": {"addr:district": "Hyderabad", "addr:full": "Bapu Nagar, Langar Houz", "addr:postcode": "500008", "addr:state": "Telangana", "amenity": "hospital", "contact:email": "majestic.hospital@yahoo.com", "healthcare:speciality": "General Surgery; Pediatric; Orthopedics; Obstetrics and Gynaecology; ENT; Anesthesiology; Opthamology; Dermatology", "medical_system": "Allopathic", "name": "Majestic Hospital", "operator:type": "private", "phone": "040 23521051", "source": "OpenGovernmentData", "website": "https://majestichospital.com/"}}, {"type": "node", "id": 6497614668, "lat": 17.3910723, "lon": 78.4267851, "tags": {"addr:district": "Hyderabad", "addr:full": "13-6-437/1L/1, Opp Nalanda Public School, Nanal Nagar 'X' Road, Khaderbagh, Mehdipatnam", "addr:postcode": "500008", "addr:state": "Telangana", "amenity": "hospital", "fax": "040 23511855", "name": "Dr. Sreedhar's Kidney & Infertility Hospital", "source": "OpenGovernmentData"}}, {"type": "node", "id": 6502946680, "lat": 17.3836628, "lon": 78.4292413, "tags": {"addr:district": "Hyderabad", "addr:full": "H.No.13-6-434C/148, Opp. Pillar No. 81, PVNR Exp Highway, Inner Ring Road, Maruthi Nagar, Mehdipatnam", "addr:postcode": "500008", "addr:state": "Telangana", "amenity": "hospital", "contact:email": "info@mythrihospital.net", "contact:phone": "+91 7997996030 ; 040-23516326/27", "name": "Mythri Hospital", "source": "OpenGovernmentData", "website": "https://www.mythrihospital.net/"}}, {"type": "node", "id": 6503203211, "lat": 17.3935545, "lon": 78.4435281, "tags": {"addr:district": "Hyderabad", "addr:full": "12-2-831/87, Sai Suchi Towers, Opposite Syndicate Bank, Mehdipatnam", "addr:postcode": "500028", "addr:state": "Telangana", "amenity": "hospital", "email": "info@drakbareyehospitals.com", "health_facility:type": "Ocular Photography;Ultrasound and Intraocular Lens Calculation;Specialized Ophthalmic Testing;Non Contact Tonometry", "healthcare:speciality": "Primary Eye Care;LASIK Services;Cataract Services;Cornea and Refractive Surgery Services;Glaucoma Services;Retina and Diabetic Retinopathy;Retina and Hypertensive Retinopathy;Contact Lens Services;Pediatric Service", "medical_system": "Allopathic", "name": "Dr. Akbar Eye Hospital", "operator:type": "private", "phone": "040 66362660", "source": "OpenGovernmentData", "website": "https://www.drakbareyehospitals.com/"}}, {"type": "node", "id": 6503431340, "lat": 17.3763547, "lon": 78.4203096, "tags": {"addr:district": "Hyderabad", "addr:full": "9-1-29/23, Opposite To Alankar Cinema, Langar Houz", "addr:postcode": "500008", "addr:state": "Telangana", "amenity": "hospital", "name": "Ambaa Hospitals", "source": "OpenGovernmentData"}}, {"type": "node", "id": 6503438537, "lat": 17.393511, "lon": 78.4568185, "tags": {"addr:district": "Hyderabad", "addr:full": "10-2-317/1/A/9/B, Beside Hotel Riyan, Vijayanagar Colony", "addr:postcode": "500057", "addr:state": "Telangana", "amenity": "hospital", "name": "Mansoor Maternity And Childrens Hospital", "source": "OpenGovernmentData"}}, {"type": "node", "id": 6505322583, "lat": 17.3452876, "lon": 78.4567943, "tags": {"addr:district": "Hyderabad", "addr:full": "D/O 19-2-23/M/H/9, Makka Colony , Kalepathar, New Tadbun Road", "addr:postcode": "500064", "addr:state": "Telangana", "amenity": "hospital", "name": "Care Well Hospital", "source": "OpenGovernmentData"}}, {"type": "node", "id": 6505516403, "lat": 17.3837869, "lon": 78.4367287, "tags": {"addr:district": "Hyderabad", "addr:full": "12-2-417/46/8/G1, Hari Hara Teja Apartments, Shiv Bagh, Near Gudimalkapur 'X' Roads", "addr:postcode": "500028", "addr:state": "Telangana", "amenity": "hospital", "name": "Dharani Hospital", "source": "OpenGovernmentData"}}, {"type": "node", "id": 6531290879, "lat": 17.3903338, "lon": 78.4514802, "tags": {"addr:district": "Hyderabad", "addr:full": "#10-2-350/1/4, Ohad Residency, Flat No - G1, Indira Nagar, Asif Nagar", "addr:postcode": "500028", "addr:state": "Telangana", "amenity": "hospital", "fixme": "Please verify the accurate position of the hospital as I have mapped the facility based on the address provided in Open Government data", "name": "Healing Touch Hospital", "source": "OpenGovernmentData"}}, {"type": "node", "id": 6536842812, "lat": 17.36424, "lon": 78.4275663, "tags": {"addr:district": "Hyderabad", "addr:full": "3-4-181/1, Hyderguda, Attapur", "addr:postcode": "500048", "addr:state": "Telangana", "amenity": "hospital", "name": "Usha Mohan Hospital", "source": "OpenGovernmentData"}}, {"type": "node", "id": 6546851783, "lat": 17.3852587, "lon": 78.4026083, "tags": {"addr:district": "Hyderabad", "addr:full": "9-11-178, Fort Road Golconda, Near Golconda Fort", "addr:postcode": "500008", "addr:state": "Telangana", "addr:street": "Golconda", "addr:subdistrict": "Golconda", "amenity": "hospital", "contact:phone": "4023513776", "name": "Area Hospital, Golconda", "source": "OpenGovernmentData"}}, {"type": "node", "id": 6548828778, "lat": 17.3802341, "lon": 78.4297081, "tags": {"addr:city": "Hyderabad", "addr:full": "13-6-431/D/77/A&B, PILLAR NO.92, MOGHAL KA NALA, ATTAPUR, Opp:HOTEL SWAGATH GRAND", "addr:postcode": "500028", "addr:state": "Telangana", "amenity": "hospital", "contact:phone": "0407032555; 666; 7032664444; 23525565", "name": "RISE CHILDRENS HOSPITAL (A UNIT OF RISE HOSPITALS PVT. LTD.)", "operator:type": "private", "source": "OpenGovernmentData"}}, {"type": "node", "id": 6548894505, "lat": 17.3612589, "lon": 78.4280745, "tags": {"addr:city": "Hyderabad", "addr:full": "H.No: 4-8-137/5/A, Opp Pillar No: 151, ATTAPUR", "addr:postcode": "500048", "addr:state": "Telangana", "amenity": "hospital", "contact:phone": "24001117", "name": "SAI SURYA HOSPITAL", "operator:type": "private", "source": "OpenGovernmentData"}}, {"type": "node", "id": 6549152212, "lat": 17.3632928, "lon": 78.4284984, "tags": {"addr:city": "Hyderabad", "addr:full": "H.No: 4-8-149/4/2/1, Opp Pillar No:145, ATTAPUR", "addr:postcode": "500048", "addr:state": "Telangana", "amenity": "hospital", "contact:phone": "47201201", "name": "ZOI HOSPITALS", "operator:type": "private", "source": "OpenGovernmentData"}}, {"type": "node", "id": 6549176002, "lat": 17.3696216, "lon": 78.4273417, "tags": {"addr:city": "Hyderabad", "addr:full": "LANE ADJACENT TO SPENCERS, PILLAR NO 125, AMBIENCE FORT ROAD, ATTAPUR", "addr:postcode": "500048", "addr:state": "Telangana", "amenity": "hospital", "name": "IRIS EYE HOSPITAL", "operator:type": "private", "source": "OpenGovernmentData"}}, {"type": "node", "id": 6549189965, "lat": 17.3893119, "lon": 78.4422313, "tags": {"addr:city": "Hyderabad", "addr:district": "Rangareddy", "addr:full": "Hill Colony Road, Alapathi Nagar", "addr:postcode": "500028", "addr:state": "Telangana", "amenity": "hospital", "contact:phone": "4023533234", "name": "Sri Vijaya Hospitals", "operator:type": "private", "source": "OpenGovernmentData"}}, {"type": "node", "id": 6549197557, "lat": 17.3529175, "lon": 78.4180733, "tags": {"addr:city": "Hyderabad", "addr:full": "Opp. PILLAR NO. 190, FORT VIEW COLONY, PVNR EXPRESS FLYOVER, UPPARPALLY, RAJENDERA NAGAR", "addr:postcode": "500048", "addr:state": "Telangana", "amenity": "hospital", "contact:phone": "65645555", "healthcare": "hospital", "name": "Human Touch Hospital", "operator:type": "private", "source": "OpenGovernmentData"}}, {"type": "node", "id": 6549203906, "lat": 17.3619565, "lon": 78.4281778, "tags": {"addr:district": "Hyderabad", "addr:full": "48-138/1/B, Main Road, Opp To Pillar No 150, Attapur", "addr:postcode": "500048", "addr:state": "Telangana", "amenity": "hospital", "contact:phone": "4065645555", "name": "GERMANTEN HOSPITALS", "operator:type": "private", "source": "OpenGovernmentData"}}, {"type": "node", "id": 6549290634, "lat": 17.3942641, "lon": 78.4307253, "tags": {"addr:city": "Hyderabad", "addr:full": "12-2-727/1/A, INNER RING ROAD, Opp: PILLAR NO. 46, RETHI BOWLI, MEHDIPATNAM", "addr:postcode": "500028", "addr:state": "Telangana", "amenity": "hospital", "contact:phone": "040-23512970; 040-23521946 ; 08106891947", "name": "ORIENT EYE HOSPITAL", "operator:type": "private", "source": "OpenGovernmentData"}}, {"type": "node", "id": 6549296470, "lat": 17.3753068, "lon": 78.4295377, "tags": {"addr:city": "Hyderabad", "addr:full": "13-6-826/5, Attapur, Pillar No.108, Moghul Nagar", "addr:postcode": "500006", "addr:state": "Telangana", "amenity": "hospital", "contact:phone": "4023520108", "name": "SAFE KIDS HOSPITALS PRIVATE LIMITED", "operator:type": "private", "source": "OpenGovernmentData"}}, {"type": "node", "id": 6559309139, "lat": 17.3918869, "lon": 78.4406219, "tags": {"addr:district": "Hyderabad", "addr:full": "Near Bus Depot, Mehdipatnam", "addr:postcode": "500028", "addr:state": "Telangana", "amenity": "hospital", "fixme": "Please verify the accurate position of the hospital as I have mapped the facility based on the address provided in Open Government data", "name": "Amrutha Hospital For Health and Fitness", "source": "OpenGovernmentData"}}, {"type": "node", "id": 6811749025, "lat": 17.360911, "lon": 78.389319, "tags": {"addr:district": "Ranga Reddy", "addr:full": "Near Telephone Exchange, Chevella Road, Bandlaguda, Himagiri Nagar, Hyderabad", "addr:postcode": "500031", "addr:state": "Telangana", "amenity": "hospital", "name": "Cocoon Hospital", "source": "OpenGovernmentData"}}, {"type": "node", "id": 6811749120, "lat": 17.3222518, "lon": 78.4307242, "tags": {"addr:district": "Ranga Reddy", "addr:full": "Near Pillar No.318, Aramghar X Road, Sivarampalli, Hyderabad", "addr:postcode": "500052", "addr:state": "Telangana", "amenity": "hospital", "contact:mobile": "9848812008", "name": "Sri Lakshmi Hospital", "source": "OpenGovernmentData"}}, {"type": "node", "id": 6811749130, "lat": 17.3223098, "lon": 78.4305647, "tags": {"addr:district": "Ranga Reddy", "addr:full": "P V N R Expressway Pillar No.316, Aramghar X Road, Rajendra Nagar, Hyderabad", "addr:postcode": "500052", "addr:state": "Telangana", "amenity": "hospital", "name": "Sujatha Hospital", "source": "OpenGovernmentData"}}, {"type": "node", "id": 6811749134, "lat": 17.3921804, "lon": 78.4264492, "tags": {"addr:district": "Hyderabad", "addr:full": "13-6-148, Near Quba Masjid, Rock Hill Colony, Toli Chowki, Mehdipatnam", "addr:postcode": "500028", "addr:state": "Telangana", "amenity": "hospital", "name": "Salamah Hospital", "source": "OpenGovernmentData"}}, {"type": "node", "id": 6846152947, "lat": 17.3732371, "lon": 78.446451, "tags": {"addr:district": "Hyderabad", "addr:place": "Karwan", "addr:state": "Telangana", "addr:street": "Pannipura", "addr:subdistrict": "Asif Nagar", "amenity": "hospital", "healthcare": "hospital", "name": "Community Health Centre, Panipura", "operational_status": "operational", "operator:type": "government", "source": "OpenDataTelangana"}}, {"type": "node", "id": 7088862151, "lat": 17.3290827, "lon": 78.4276336, "tags": {"amenity": "hospital", "healthcare": "hospital"}}, {"type": "node", "id": 7244480650, "lat": 17.394532, "lon": 78.4352772, "tags": {"amenity": "hospital", "healthcare": "hospital", "name": "Dr. Moinuddin clinic"}}, {"type": "node", "id": 7244480682, "lat": 17.3946369, "lon": 78.4384775, "tags": {"amenity": "hospital", "healthcare": "hospital", "name": "Vijaya Diagnostic Centre"}}, {"type": "node", "id": 8748452003, "lat": 17.3641376, "lon": 78.3947106, "tags": {"addr:city": "Hyderabad", "addr:country": "IN", "addr:district": "Rangareddy", "addr:full": "Hydershakote", "addr:housenumber": "4", "addr:postcode": "500091", "addr:state": "Telangana", "addr:street": "Near MS Function Hall, Hydershahkote", "amenity": "hospital", "email": "info@divaclinics.co.in", "emergency": "no", "healthcare": "hospital", "healthcare:speciality": "general;surgery;oncology;endocrinology;dermatology;gynaecology;gastroenterology", "name": "DIVA Multispeciality Clinics", "operator": "Dr G Uday Kiran", "operator:type": "private", "source": "Local Knowledge;streetlevel imagery", "website": "https://divaclinics.co.in/"}}, {"type": "node", "id": 9852600026, "lat": 17.3646406, "lon": 78.4286144, "tags": {"addr:city": "Hyderguda", "addr:housenumber": "139 pillar , Above IDBI Bank, 3rd Floor", "addr:postcode": "500048", "addr:street": "Hyderabad Elevated Expressway \"P.V. Narasimha Rao\"", "amenity": "hospital", "description": "Exclusive pain clinic treating Knee Pain, SHoulder, Lower back pain, migranes and all chronic pains, Non-Surgically", "email": "help@painfreelife.in", "healthcare": "hospital", "healthcare:speciality": "pain_control", "name": "PRAANAA PAIN CLINIC", "operator": "Dr. Sahitya", "operator:type": "private", "phone": "+91 9182626161", "website": "www.painfreelife.in"}}, {"type": "node", "id": 10112896286, "lat": 17.3836203, "lon": 78.4292848, "tags": {"amenity": "hospital", "name": "Mythri Hospital"}}, {"type": "node", "id": 10139228459, "lat": 17.3932979, "lon": 78.4261156, "tags": {"addr:city": "Hyderabad", "addr:housenumber": "House No 9-4-84/16", "addr:postcode": "500028", "addr:street": "1st Floor, Janaa Heights Nanal Nagar Cross Roads , Toli Chowki, Mehdipatnam,", "amenity": "hospital", "email": "vinayakanethralayaeyehospital@gmail.com", "healthcare": "hospital", "healthcare:speciality": "ophthalmology", "name": "Vinayaka Nethralaya Eye Hospital", "phone": "+919677920539", "website": "https://vinayakanethralayaeyehospital.com/"}}, {"type": "node", "id": 10279481534, "lat": 17.3607193, "lon": 78.4408817, "tags": {"amenity": "hospital", "healthcare": "hospital"}}, {"type": "node", "id": 11925953631, "lat": 17.3841667, "lon": 78.4562354, "tags": {"addr:district": "Hyderabad", "addr:place": "Near Tv Studio", "addr:state": "Telangana", "addr:street": "Ramanthapur", "addr:subdistrict": "Amberpet", "amenity": "hospital", "healthcare": "hospital", "name": "D.K.GOVT. HOMOEO HOSPITAL", "operational_status": "operational", "operator:type": "government", "source": "OpenDataTelangana"}}, {"type": "node", "id": 11935458418, "lat": 17.3203486, "lon": 78.4018045, "tags": {"addr:district": "Rangareddy", "addr:place": "Water Pilter Beds", "addr:state": "Telangana", "addr:street": "MAINROAD", "addr:subdistrict": "Rajendranagar", "amenity": "hospital", "healthcare": "hospital", "name": "Community Health Centre Rajendranagar", "operational_status": "operational", "operator:type": "government", "source": "OpenDataTelangana"}}, {"type": "node", "id": 13227662859, "lat": 17.3733681, "lon": 78.414395, "tags": {"amenity": "hospital", "check_date": "2025-10-12", "healthcare": "hospital", "name": "Renova Hospitals"}}, {"type": "way", "id": 182703660, "nodes": [1930607012, 1930607014, 1930607015, 1930607016, 1930607012], "tags": {"addr:district": "Hyderabad", "addr:full": "12-2-718/3,4,5, Nanalnagar 'X' Road, Mehdipatnam", "addr:state": "Telangana", "amenity": "hospital", "check_date": "2025-03-25", "emergency": "yes", "health_facility:type": "Onsite Pharmacy;Dietitian Designed Catering;Modern Delivery Room and Birthing Suites;Physiotherapy;Blood Transfusion Services;Patient Escort Services", "healthcare:speciality": "multi specialty", "medical_system": "Allopathic", "name": "Olive Hospital", "operator:type": "private", "phone": "040 30499500", "source": "OpenGovernmentData", "website": "http://www.olivehospital.com"}}, {"type": "way", "id": 246257880, "nodes": [2533171513, 2533171514, 2533171515, 2533171516, 2533171517, 2533171518, 2533171519, 2533171520, 2533171521, 2533171522, 2533171523, 2533171524, 2533171526, 2533171525, 2533171513], "tags": {"amenity": "hospital", "building": "yes", "name": "NIRD Health Centre"}}, {"type": "way", "id": 356535887, "nodes": [3619476945, 3619476978, 3619476990, 3619476956, 3619476945], "tags": {"addr:district": "Hyderabad", "addr:full": "10-3-76/10, 2/3RT, Vijaya Nagar Colony", "addr:postcode": "500057", "addr:state": "Telangana", "amenity": "hospital", "building": "yes", "email": "nirmalahospitalhyd@gmail.com", "name": "Nirmala Maternity, Orthopaedic & General Hospital", "name:en": "Nirmala Maternity, Orthopaedic & General Hospital", "opening_hours": "Mo-Sa 10:00-13:00", "phone": "040-23345930", "source": "OpenGovernmentData"}}, {"type": "way", "id": 356550425, "nodes": [3619560216, 3619560211, 3619560208, 3619560263, 3619560264, 3619560251, 3619560252, 3619560255, 3619560256, 3619560265, 3619560266, 3619560257, 3619560258, 3619560245, 3619560244, 3619560226, 3619560227, 3619560229, 3619560228, 3619560224, 3619560223, 3619560220, 3619560219, 3619560218, 3619560217, 3619560214, 3619560215, 3619560216]}, {"type": "way", "id": 356550429, "nodes": [3619560243, 3619560246, 3619560237, 3619560238, 3619560231, 3619560225, 3619560243]}, {"type": "way", "id": 362515707, "nodes": [3668069412, 3668069431, 3668069428, 3668069411, 3668069412], "tags": {"amenity": "hospital", "healthcare": "hospital", "name": "khuteja hospitals"}}, {"type": "relation", "id": 5321005, "members": [{"type": "way", "ref": 356550429, "role": "inner"}, {"type": "way", "ref": 356550425, "role": "outer"}], "tags": {"amenity": "hospital", "building": "yes", "name": "Shadan Hospital", "type": "multipolygon"}}]}