{"version": 0.6, "generator": "Overpass API 0.7.62.8 e802775f", "osm3s": {"timestamp_osm_base": "2026-01-16T09:04:03Z", "copyright": "The data included in this document is from www.openstreetmap.org. The data is made available under ODbL."}, "elements": [{"type": "node", "id": 420022310, "lat": 58.9211691, "lon": 5.7136484, "tags": {"amenity": "school", "name": "J\u00e5tt\u00e5 videreg\u00e5ende skole avd. Hinna", "old_name": "Hinna husstellskole"}}, {"type": "node", "id": 450604848, "lat": 58.903872, "lon": 5.66594, "tags": {"amenity": "school", "capacity": "314", "email": "epost@sola.kommune.no", "fee": "no", "grades": "1-7", "isced:level": "1", "name": "R\u00f8yneberg skole", "operator": "Sola kommune", "operator:type": "public", "phone": "+47 51944050", "ref:udir_nsr": "975275604", "website": "https://royneberg.solaskolen.no/"}}, {"type": "node", "id": 459986363, "lat": 58.9179409, "lon": 5.6813968}, {"type": "node", "id": 546563930, "lat": 58.915108, "lon": 5.72409, "tags": {"amenity": "school", "capacity": "604", "email": "jatten.skole@stavanger.kommune.no", "fee": "no", "grades": "1-7", "isced:level": "1", "loc_name": "J\u00e5tt\u00e5 skole", "name": "J\u00e5tten skole", "operator": "Stavanger kommune", "operator:type": "public", "phone": "+47 51 91 42 30", "ref:udir_nsr": "974611511", "website": "https://minskole.no/jaatten"}}, {"type": "node", "id": 546567992, "lat": 58.917853, "lon": 5.722211, "tags": {"amenity": "school", "capacity": "273", "email": "hinna.skole@stavanger.kommune.no", "fee": "no", "grades": "8-10", "isced:level": "2", "name": "Hinna skole", "operator": "Stavanger kommune", "operator:type": "public", "phone": "+47 51912500", "ref:udir_nsr": "974611600", "website": "https://minskole.no/hinna"}}, {"type": "node", "id": 5071599186, "lat": 58.9134611, "lon": 5.7265806}, {"type": "node", "id": 5264911804, "lat": 58.91813, "lon": 5.6806236}, {"type": "node", "id": 5264911805, "lat": 58.9188944, "lon": 5.6828633}, {"type": "node", "id": 5264911806, "lat": 58.9178656, "lon": 5.6835298}, {"type": "node", "id": 5264911807, "lat": 58.9169945, "lon": 5.682131}, {"type": "node", "id": 5746135622, "lat": 58.9184402, "lon": 5.6821612}, {"type": "node", "id": 5746135674, "lat": 58.9178247, "lon": 5.6836291}, {"type": "node", "id": 5746135675, "lat": 58.9174923, "lon": 5.6831288}, {"type": "node", "id": 5746135727, "lat": 58.9177322, "lon": 5.680334}, {"type": "node", "id": 5746135728, "lat": 58.9177894, "lon": 5.6801958}, {"type": "node", "id": 5746135729, "lat": 58.9181805, "lon": 5.6803796}, {"type": "node", "id": 5851476778, "lat": 58.900358, "lon": 5.713934, "tags": {"amenity": "school", "capacity": "286", "email": "godeset.skole@stavanger.kommune.no", "fee": "no", "grades": "1-7", "isced:level": "1", "name": "Godeset skole", "operator": "Stavanger kommune", "operator:type": "public", "phone": "+47 51 91 28 60", "ref:udir_nsr": "974611341", "website": "https://minskole.no/godeset"}}, {"type": "node", "id": 5851476779, "lat": 58.899212, "lon": 5.72327, "tags": {"amenity": "school", "capacity": "372", "email": "gautesete.skole@stavanger.kommune.no", "fee": "no", "grades": "8-10", "isced:level": "2", "name": "Gautesete skole", "operator": "Stavanger kommune", "operator:type": "public", "phone": "+47 51912700", "ref:udir_nsr": "874735582", "website": "https://minskole.no/gautesete", "wikidata": "Q11971648"}}, {"type": "node", "id": 5851478090, "lat": 58.9310105, "lon": 5.732326, "tags": {"amenity": "school", "capacity": "726", "email": "vaulen.skole@stavanger.kommune.no", "fee": "no", "grades": "1-7", "isced:level": "1", "name": "Vaulen skole", "operator": "Stavanger kommune", "operator:type": "public", "phone": "+47 51914410", "ref:udir_nsr": "974611503", "website": "https://minskole.no/vaulen"}}, {"type": "node", "id": 9095783887, "lat": 58.9137341, "lon": 5.7270113}, {"type": "node", "id": 9095783888, "lat": 58.9117755, "lon": 5.7275144}, {"type": "node", "id": 9095783889, "lat": 58.9118247, "lon": 5.7278248}, {"type": "node", "id": 9095783890, "lat": 58.9127405, "lon": 5.7300855}, {"type": "node", "id": 9095783891, "lat": 58.913161, "lon": 5.7296807}, {"type": "node", "id": 9095783892, "lat": 58.9142018, "lon": 5.7278289}, {"type": "node", "id": 10696999457, "lat": 58.9123317, "lon": 5.7290763}, {"type": "node", "id": 10877273633, "lat": 58.9122791, "lon": 5.7271036}, {"type": "way", "id": 544668627, "nodes": [5746135729, 5264911804, 459986363]}, {"type": "way", "id": 605957281, "nodes": [459986363, 5746135622], "tags": {"barrier": "hedge"}}, {"type": "way", "id": 605957282, "nodes": [5746135622, 5264911805, 5264911806]}, {"type": "way", "id": 605957292, "nodes": [5264911807, 5746135727]}, {"type": "way", "id": 605957293, "nodes": [5264911806, 5746135674, 5746135675, 5264911807], "tags": {"barrier": "hedge"}}, {"type": "way", "id": 605957302, "nodes": [5746135729, 5746135728, 5746135727], "tags": {"barrier": "wall"}}, {"type": "way", "id": 983735129, "nodes": [9095783887, 5071599186, 10877273633, 9095783888, 9095783889, 10696999457, 9095783890, 9095783891, 9095783892, 9095783887], "tags": {"amenity": "school", "email": "jaattaa-vgs@skole.rogfk.no", "fee": "no", "grades": "11-13", "isced:level": "3", "name": "J\u00e5tt\u00e5 videreg\u00e5ende skole", "operator": "Rogaland fylkeskommune", "operator:type": "public", "phone": "+47 51955100", "ref:udir_nsr": "990183449", "website": "https://jaattaa.vgs.no", "wheelchair": "yes", "wikidata": "Q6320058"}}, {"type": "relation", "id": 8434661, "members": [{"type": "way", "ref": 605957292, "role": "outer"}, {"type": "way", "ref": 605957293, "role": "outer"}, {"type": "way", "ref": 605957282, "role": "outer"}, {"type": "way", "ref": 605957281, "role": "outer"}, {"type": "way", "ref": 544668627, "role": "outer"}, {"type": "way", "ref": 605957302, "role": "outer"}], "tags": {"amenity": "school", "capacity": "267", "email": "epost@sola.kommune.no", "fee": "no", "grades": "1-10", "isced:level": "1;2", "name": "Grannes skole", "operator": "Sola kommune", "operator:type": "public", "phone": "+47 51944000", "ref:udir_nsr": "975275582", "type": "multipolygon", "website": "https://grannes.solaskolen.no/"}}]}