{"version": 0.6, "generator": "Overpass API 0.7.62.8 e802775f", "osm3s": {"timestamp_osm_base": "2026-01-12T15:47:16Z", "copyright": "The data included in this document is from www.openstreetmap.org. The data is made available under ODbL."}, "elements": [{"type": "node", "id": 308219388, "lat": 13.1420265, "lon": 77.6714353, "tags": {"highway": "bus_stop", "loc_name": "BAGALURU", "name": "Bagalur Colony", "name:en": "Bagalur Colony", "name:kn": "\u0cac\u0cbe\u0c97\u0cb2\u0cc2\u0cb0\u0cc1 \u0c95\u0cbe\u0cb2\u0ccb\u0ca8\u0cbf", "network": "BMTC", "operator": "BMTC", "public_transport": "platform"}}, {"type": "node", "id": 308220124, "lat": 13.0822133, "lon": 77.7384202, "tags": {"highway": "bus_stop", "loc_name": "MANDURU", "name": "Mandooru", "name:kn": "\u0cae\u0c82\u0ca1\u0cc2\u0cb0\u0cc1"}}, {"type": "node", "id": 308449515, "lat": 13.1348178, "lon": 77.6680648, "tags": {"highway": "bus_stop", "loc_name": "BAGALURU", "name": "Bagalur (Towards Hoovinayakanahalli)", "name:en": "Bagalur (Towards Hoovinayakanahalli)", "name:kn": "\u0cac\u0cbe\u0c97\u0cb2\u0cc2\u0cb0\u0cc1", "network": "BMTC", "operator": "BMTC", "public_transport": "platform"}}, {"type": "node", "id": 308449531, "lat": 13.1327607, "lon": 77.6876742, "tags": {"highway": "bus_stop", "loc_name": "GOPALAPURA", "name": "Gopalapura", "name:kn": "\u0c97\u0cca\u0caa\u0cbe\u0cb2\u0caa\u0cc1\u0cb0"}}, {"type": "node", "id": 308449550, "lat": 13.1324454, "lon": 77.7047089, "tags": {"highway": "bus_stop", "loc_name": "MARALAKUNTE", "name": "Maralakunte", "name:kn": "\u0cae\u0cb0\u0cb3\u0c95\u0cc1\u0c82\u0c9f\u0cc6"}}, {"type": "node", "id": 355848134, "lat": 13.0709002, "lon": 77.6739661, "tags": {"highway": "bus_stop", "loc_name": "DODDAGUBBI", "name": "Dodda Gubbi", "name:kn": "\u0ca6\u0cca\u0ca1\u0ccd\u0ca1 \u0c97\u0cc1\u0cac\u0ccd\u0cac\u0cbf"}}, {"type": "node", "id": 420080578, "lat": 13.0684965, "lon": 77.6824191, "tags": {"highway": "bus_stop", "loc_name": "ANGALAPURA", "name": "Anagalipura", "name:kn": "\u0c85\u0ca3\u0c97\u0cb2\u0cbf\u0caa\u0cc1\u0cb0"}}, {"type": "node", "id": 440670284, "lat": 13.0554156, "lon": 77.7058727, "tags": {"alt_name": "Adur", "highway": "bus_stop", "name": "Aduru", "name:en": "Aduru", "name:kn": "\u0c86\u0ca6\u0cc2\u0cb0\u0cc1", "network": "BMTC", "operator": "BMTC", "public_transport": "platform"}}, {"type": "node", "id": 440673929, "lat": 13.0603575, "lon": 77.7163583, "tags": {"highway": "bus_stop", "loc_name": "BIDRAHALLI", "name": "Bidrahalli", "name:kn": "\u0cac\u0cc0\u0ca6\u0cb0\u0cb9\u0cb3\u0ccd\u0cb3\u0cbf"}}, {"type": "node", "id": 440673949, "lat": 13.0720108, "lon": 77.7210069, "tags": {"bus": "yes", "highway": "bus_stop", "loc_name": "BYAPANAHALLI", "name": "Byappana Halli", "name:kn": "\u0cac\u0cc8\u0caa\u0ca8\u0cb9\u0cb3\u0ccd\u0cb3\u0cbf", "public_transport": "platform"}}, {"type": "node", "id": 440673975, "lat": 13.0873705, "lon": 77.7146571, "tags": {"highway": "bus_stop", "loc_name": "GUNDURU", "name": "Gunduru", "name:kn": "\u0c97\u0cc1\u0c82\u0ca1\u0cc2\u0cb0\u0cc1"}}, {"type": "node", "id": 536301751, "lat": 13.0853455, "lon": 77.6871407, "tags": {"highway": "bus_stop", "loc_name": "YERAPANAHALLI", "name": "Yarappanahalli", "name:kn": "\u0caf\u0cb0\u0caa\u0ccd\u0caa\u0ca8\u0cb9\u0cb3\u0ccd\u0cb3\u0cbf"}}, {"type": "node", "id": 543322642, "lat": 13.0836729, "lon": 77.6756214, "tags": {"highway": "bus_stop", "loc_name": "N.G GOLLAHALLI", "name": "Gollarahalli", "name:kn": "\u0c97\u0cca\u0cb2\u0ccd\u0cb2\u0cb0\u0cb9\u0cb3\u0ccd\u0cb3\u0cbf"}}, {"type": "node", "id": 543331009, "lat": 13.1180544, "lon": 77.688751, "tags": {"highway": "bus_stop", "loc_name": "DASA NAYAKANA HALLI", "name": "Dasanayakanahalli"}}, {"type": "node", "id": 544379901, "lat": 13.0805504, "lon": 77.6663499, "tags": {"highway": "bus_stop", "loc_name": "CHICKKGUBBI", "name": "Chikka Gubbi", "name:kn": "\u0c9a\u0cbf\u0c95\u0ccd\u0c95\u0c97\u0cc1\u0cac\u0ccd\u0cac\u0cbf"}}, {"type": "node", "id": 544381444, "lat": 13.0988737, "lon": 77.6640397, "tags": {"highway": "bus_stop", "name": "Kada Sonappana Halli", "name:kn": "\u0c95\u0cbe\u0ca1\u0cc1 \u0cb8\u0cca\u0ca8\u0ccd\u0ca8\u0caa\u0ccd\u0caa\u0ca8\u0cb9\u0cb3\u0ccd\u0cb3\u0cbf"}}, {"type": "node", "id": 1356096198, "lat": 13.061207, "lon": 77.7419046, "tags": {"highway": "bus_stop", "loc_name": "NIMBEKAIPURA", "name": "S K F Factory"}}, {"type": "node", "id": 1459986597, "lat": 13.0626717, "lon": 77.740183, "tags": {"bus": "yes", "highway": "bus_stop", "loc_name": "BOMMANAHALLI", "name": "Grind Well", "public_transport": "platform"}}, {"type": "node", "id": 2130368909, "lat": 13.1438871, "lon": 77.7021089, "tags": {"highway": "bus_stop", "loc_name": "MAHADEVA KODIGEHALLI", "name": "Mahadeva Kodigehalli", "name:kn": "\u0cae\u0cb9\u0ca6\u0cc7\u0cb5 \u0c95\u0cca\u0ca1\u0cbf\u0c97\u0cc6\u0cb9\u0cb3\u0ccd\u0cb3\u0cbf"}}, {"type": "node", "id": 2451403806, "lat": 13.0932824, "lon": 77.6543491, "tags": {"bus": "yes", "highway": "bus_stop", "loc_name": "KANNUR", "name": "Kannuru", "name:en": "Kannuru", "name:kn": "\u0c95\u0ca3\u0ccd\u0ca3\u0cc2\u0cb0\u0cc1", "network": "BMTC", "network:wikidata": "Q3345039", "operator": "BMTC", "public_transport": "platform"}}, {"type": "node", "id": 2451425619, "lat": 13.0563629, "lon": 77.6586481, "tags": {"highway": "bus_stop", "loc_name": "KYALASANAHALLI", "name": "Kyalasanahalli", "name:kn": "\u0c95\u0ccd\u0caf\u0cbe\u0cb2\u0cb8\u0ca8\u0cb9\u0cb3\u0ccd\u0cb3\u0cbf"}}, {"type": "node", "id": 2451439952, "lat": 13.0568947, "lon": 77.7149969, "tags": {"highway": "bus_stop", "loc_name": "BIDRAHALLI", "name": "Bidrahalli Cross"}}, {"type": "node", "id": 2451701582, "lat": 13.1061519, "lon": 77.660751, "tags": {"highway": "bus_stop", "name": "Hosuru Bande", "name:en": "Hosuru Bande", "network": "BMTC", "operator": "BMTC", "public_transport": "platform"}}, {"type": "node", "id": 2451740572, "lat": 13.0891136, "lon": 77.6658879, "tags": {"highway": "bus_stop", "name": "Oasis School"}}, {"type": "node", "id": 2451741394, "lat": 13.0946973, "lon": 77.6833256, "tags": {"highway": "bus_stop", "loc_name": "YERAPANAHALLI", "name": "Yarappana Bande"}}, {"type": "node", "id": 2451743037, "lat": 13.0951323, "lon": 77.6936376, "tags": {"highway": "bus_stop", "name": "D Group Layout"}}, {"type": "node", "id": 2461760892, "lat": 13.1308688, "lon": 77.6954982, "tags": {"highway": "bus_stop", "loc_name": "YEDIYURU", "name": "Yediyuru", "name:kn": "\u0caf\u0ca1\u0cbf\u0caf\u0cc2\u0cb0\u0cc1"}}, {"type": "node", "id": 2461776729, "lat": 13.1436565, "lon": 77.7294479, "tags": {"highway": "bus_stop", "loc_name": "Budigere Road", "name": "Manchappanahalli Cross", "public_transport": "platform"}}, {"type": "node", "id": 2461826945, "lat": 13.1195669, "lon": 77.6787169, "tags": {"bus": "yes", "highway": "bus_stop", "loc_name": "MARENAHALLI", "name": "Marenahalli", "name:kn": "\u0cae\u0cbe\u0cb0\u0cc7\u0ca8\u0cb9\u0cb3\u0ccd\u0cb3\u0cbf", "public_transport": "platform"}}, {"type": "node", "id": 2461833644, "lat": 13.1134906, "lon": 77.6877066, "tags": {"highway": "bus_stop", "loc_name": "CHOKKANAHALLI", "name": "Chokkanahalli", "name:kn": "\u0c9a\u0cca\u0c95\u0ccd\u0c95\u0ca8\u0cb9\u0cb3\u0ccd\u0cb3\u0cbf"}}, {"type": "node", "id": 2462619972, "lat": 13.1234888, "lon": 77.7442695, "tags": {"highway": "bus_stop", "loc_name": "ITTHARAHALLI", "name": "Andrahalli", "name:kn": "\u0c85\u0c82\u0ca6\u0ccd\u0cb0\u0cb9\u0cb3\u0ccd\u0cb3\u0cbf", "public_transport": "platform"}}, {"type": "node", "id": 2462624244, "lat": 13.110631, "lon": 77.7450622, "tags": {"highway": "bus_stop", "loc_name": "THIRUMENAHALLI", "name": "Thirumenahalli Gate"}}, {"type": "node", "id": 2462630147, "lat": 13.1026869, "lon": 77.7440848, "tags": {"highway": "bus_stop", "loc_name": "JYOTHI PURA", "name": "Jyotipura", "name:kn": "\u0c9c\u0ccd\u0caf\u0ccb\u0ca4\u0cbf\u0caa\u0cc1\u0cb0"}}, {"type": "node", "id": 2462633912, "lat": 13.0918442, "lon": 77.7416817, "tags": {"highway": "bus_stop", "loc_name": "ANCHARAHALLI", "name": "Ancharahalli Gate"}}, {"type": "node", "id": 2462650048, "lat": 13.072684, "lon": 77.7371219, "tags": {"highway": "bus_stop", "loc_name": "MANDURU", "name": "Premium Farm Budigere"}}, {"type": "node", "id": 2462825030, "lat": 13.1351376, "lon": 77.725924, "tags": {"highway": "bus_stop", "name": "Manchappanahalli Cross"}}, {"type": "node", "id": 2462836168, "lat": 13.1357175, "lon": 77.7178466, "tags": {"highway": "bus_stop", "loc_name": "M.HOSAHALLI", "name": "M Hosahalli"}}, {"type": "node", "id": 2462858866, "lat": 13.0996654, "lon": 77.7152139, "tags": {"highway": "bus_stop", "loc_name": "MARASANDRA", "name": "Marasandra Circle", "name:kn": "\u0cae\u0cbe\u0cb0\u0cb8\u0c82\u0ca6\u0ccd\u0cb0 \u0cb5\u0cc3\u0ca4\u0ccd\u0ca4"}}, {"type": "node", "id": 2463073990, "lat": 13.1224071, "lon": 77.6682109, "tags": {"alt_name": "Chagalatti", "highway": "bus_stop", "name": "Chakkalatti", "name:en": "Chakkalatti", "name:kn": "\u0c9a\u0cbe\u0c97\u0cb2\u0cc6\u0c9f\u0ccd\u0c9f\u0cbf", "network": "BMTC", "operator": "BMTC", "public_transport": "platform"}}, {"type": "node", "id": 2468952721, "lat": 13.0810966, "lon": 77.6826061, "tags": {"highway": "bus_stop", "name": "Bande Bommasandra Cross"}}, {"type": "node", "id": 2468954093, "lat": 13.0806006, "lon": 77.6916643, "tags": {"highway": "bus_stop", "loc_name": "KADA AGRAHARA", "name": "Kada Agrahara", "name:kn": "\u0c95\u0cbe\u0ca1\u0c85\u0c97\u0ccd\u0cb0\u0cb9\u0cbe\u0cb0"}}, {"type": "node", "id": 2470156206, "lat": 13.1415385, "lon": 77.7262058, "tags": {"highway": "bus_stop", "loc_name": "MANCHAPANAHALLI", "name": "Manchappanahalli", "name:kn": "\u0cae\u0c82\u0c9a\u0caa\u0ccd\u0caa\u0ca8\u0cb9\u0cb3\u0ccd\u0cb3\u0cbf,"}}, {"type": "node", "id": 2470185322, "lat": 13.1310415, "lon": 77.6720692, "tags": {"highway": "bus_stop", "loc_name": "Bagaluru", "name": "Vijaya School"}}, {"type": "node", "id": 2474986112, "lat": 13.0618479, "lon": 77.6867831, "tags": {"highway": "bus_stop", "name": "Annagalpura Cross"}}, {"type": "node", "id": 2477698030, "lat": 13.0992458, "lon": 77.7434476, "tags": {"highway": "bus_stop", "name": "Shringarapura", "name:kn": "\u0cb6\u0ccd\u0cb0\u0cc0\u0cb0\u0c82\u0c97\u0caa\u0cc1\u0cb0"}}, {"type": "node", "id": 2477785927, "lat": 13.0945321, "lon": 77.7356396, "tags": {"highway": "bus_stop", "loc_name": "KATTUGOLLAHALLI", "name": "Kattugollahalli", "name:kn": "\u0c95\u0c9f\u0ccd\u0c9f\u0cc1\u0c97\u0cca\u0cb2\u0ccd\u0cb2\u0cb9\u0cb3\u0ccd\u0cb3\u0cbf"}}, {"type": "node", "id": 5678967721, "lat": 13.0648862, "lon": 77.6561681, "tags": {"highway": "bus_stop"}}, {"type": "node", "id": 6842561199, "lat": 13.1420283, "lon": 77.6714546, "tags": {"bus": "yes", "name": "Bagalur Colony", "name:en": "Bagalur Colony", "name:kn": "\u0cac\u0cbe\u0c97\u0cb2\u0cc2\u0cb0\u0cc1 \u0c95\u0cbe\u0cb2\u0ccb\u0ca8\u0cbf", "network": "BMTC", "operator": "BMTC", "public_transport": "stop_position"}}, {"type": "node", "id": 6842561200, "lat": 13.1348003, "lon": 77.6681028, "tags": {"bus": "yes", "name": "Bagalur (Towards Hoovinayakanahalli)", "name:en": "Bagalur (Towards Hoovinayakanahalli)", "network": "BMTC", "operator": "BMTC", "public_transport": "stop_position"}}, {"type": "node", "id": 6842561201, "lat": 13.122406, "lon": 77.6682444, "tags": {"bus": "yes", "name": "Chakkalatti", "name:en": "Chakkalatti", "name:kn": "\u0c9a\u0cbe\u0c97\u0cb2\u0cc6\u0c9f\u0ccd\u0c9f\u0cbf", "network": "BMTC", "operator": "BMTC", "public_transport": "stop_position"}}, {"type": "node", "id": 6842561203, "lat": 13.1076826, "lon": 77.6656478, "tags": {"bus": "yes", "name": "Hamsa Farm", "name:en": "Hamsa Farm", "network": "BMTC", "operator": "BMTC", "public_transport": "stop_position"}}, {"type": "node", "id": 6842561204, "lat": 13.1076969, "lon": 77.6655883, "tags": {"highway": "bus_stop", "name": "Hamsa Farm", "name:en": "Hamsa Farm", "network": "BMTC", "operator": "BMTC", "public_transport": "platform"}}, {"type": "node", "id": 6842561205, "lat": 13.1060606, "lon": 77.6607318, "tags": {"bus": "yes", "name": "Hosuru Bande", "name:en": "Hosuru Bande", "network": "BMTC", "operator": "BMTC", "public_transport": "stop_position"}}, {"type": "node", "id": 6842561206, "lat": 13.1019047, "lon": 77.6583841, "tags": {"bus": "yes", "name": "Kadasonnappanahalli Gate", "name:en": "Kadasonnappanahalli Gate", "network": "BMTC", "operator": "BMTC", "public_transport": "stop_position"}}, {"type": "node", "id": 6842561207, "lat": 13.1019184, "lon": 77.658357, "tags": {"highway": "bus_stop", "name": "Kadasonnappanahalli Gate", "name:en": "Kadasonnappanahalli Gate", "network": "BMTC", "operator": "BMTC", "public_transport": "platform"}}, {"type": "node", "id": 6842561208, "lat": 13.0932874, "lon": 77.6542749, "tags": {"bus": "yes", "name": "Kannuru", "name:en": "Kannuru", "network": "BMTC", "operator": "BMTC", "public_transport": "stop_position"}}, {"type": "node", "id": 6842561209, "lat": 13.084351, "lon": 77.6542008, "tags": {"bus": "yes", "name": "Chikka Gubbi Cross", "name:en": "Chikka Gubbi Cross", "network": "BMTC", "operator": "BMTC", "public_transport": "stop_position"}}, {"type": "node", "id": 6842561210, "lat": 13.0843481, "lon": 77.6541567, "tags": {"highway": "bus_stop", "name": "Chikka Gubbi Cross", "name:en": "Chikka Gubbi Cross", "name:kn": "\u0c9a\u0cbf\u0c95\u0ccd\u0c95\u0c97\u0cc1\u0cac\u0ccd\u0cac\u0cbf \u0c95\u0ccd\u0cb0\u0cbe\u0cb8\u0ccd", "network": "BMTC", "operator": "BMTC", "public_transport": "platform"}}, {"type": "node", "id": 10723877900, "lat": 13.0628297, "lon": 77.7403394, "tags": {"bus": "yes", "highway": "bus_stop", "loc_name": "BOMMANAHALLI", "name": "Grind Well", "public_transport": "platform"}}, {"type": "node", "id": 10828665718, "lat": 13.0820076, "lon": 77.7387486, "tags": {"highway": "bus_stop", "loc_name": "MANDURU", "name": "Mandooru", "name:kn": "\u0cae\u0c82\u0ca1\u0cc2\u0cb0\u0cc1", "public_transport": "platform"}}, {"type": "node", "id": 11598213071, "lat": 13.0554373, "lon": 77.7058824, "tags": {"alt_name": "Adur", "bus": "yes", "name": "Aduru", "name:en": "Aduru", "network": "BMTC", "operator": "BMTC", "public_transport": "stop_position"}}, {"type": "node", "id": 11872033075, "lat": 13.1302511, "lon": 77.666508, "tags": {"bus": "yes", "name": "Bagalur Old Police Station", "name:en": "Bagalur Old Police Station", "network": "BMTC", "operator": "BMTC", "public_transport": "stop_position"}}, {"type": "node", "id": 11872033076, "lat": 13.1302377, "lon": 77.6664452, "tags": {"highway": "bus_stop", "name": "Bagalur Old Police Station", "name:en": "Bagalur Old Police Station", "network": "BMTC", "operator": "BMTC", "public_transport": "platform"}}, {"type": "node", "id": 11872033077, "lat": 13.0872763, "lon": 77.6547621, "tags": {"bus": "yes", "name": "Kanakshree Layout Chikka Gubbi", "name:en": "Kanakshree Layout Chikka Gubbi", "network": "BMTC", "operator": "BMTC", "public_transport": "stop_position"}}, {"type": "node", "id": 11872033078, "lat": 13.0872951, "lon": 77.6546904, "tags": {"highway": "bus_stop", "name": "Kanakshree Layout Chikka Gubbi", "name:en": "Kanakshree Layout Chikka Gubbi", "network": "BMTC", "operator": "BMTC", "public_transport": "platform"}}, {"type": "relation", "id": 10104380, "members": [{"type": "node", "ref": 6842561199, "role": "stop"}, {"type": "node", "ref": 308219388, "role": "platform"}], "tags": {"name": "Bagalur Colony", "name:en": "Bagalur Colony", "name:kn": "\u0cac\u0cbe\u0c97\u0cb2\u0cc2\u0cb0\u0cc1 \u0c95\u0cbe\u0cb2\u0ccb\u0ca8\u0cbf", "network": "BMTC", "operator": "BMTC", "public_transport": "stop_area", "type": "public_transport"}}, {"type": "relation", "id": 10104381, "members": [{"type": "node", "ref": 6842561200, "role": "stop"}, {"type": "node", "ref": 308449515, "role": "platform"}], "tags": {"name": "Bagalur (Towards Hoovinayakanahalli)", "name:en": "Bagalur (Towards Hoovinayakanahalli)", "name:kn": "\u0cac\u0cbe\u0c97\u0cb2\u0cc2\u0cb0\u0cc1", "network": "BMTC", "operator": "BMTC", "public_transport": "stop_area", "type": "public_transport"}}, {"type": "relation", "id": 10104382, "members": [{"type": "node", "ref": 6842561201, "role": "stop"}, {"type": "node", "ref": 2463073990, "role": "platform"}], "tags": {"name": "Chakkalatti", "name:en": "Chakkalatti", "name:kn": "\u0c9a\u0cbe\u0c97\u0cb2\u0cc6\u0c9f\u0ccd\u0c9f\u0cbf", "network": "BMTC", "operator": "BMTC", "public_transport": "stop_area", "type": "public_transport"}}, {"type": "relation", "id": 10104383, "members": [{"type": "node", "ref": 6842561203, "role": "stop"}, {"type": "node", "ref": 6842561204, "role": "platform"}], "tags": {"name": "Hamsa Farm", "name:en": "Hamsa Farm", "network": "BMTC", "operator": "BMTC", "public_transport": "stop_area", "type": "public_transport"}}, {"type": "relation", "id": 10104384, "members": [{"type": "node", "ref": 6842561205, "role": "stop"}, {"type": "node", "ref": 2451701582, "role": "platform"}], "tags": {"name": "Hosuru Bande", "name:en": "Hosuru Bande", "name:kn": "\u0cb9\u0cca\u0cb8\u0cc2\u0cb0\u0cc1 \u0cac\u0c82\u0ca6\u0cc6", "network": "BMTC", "operator": "BMTC", "public_transport": "stop_area", "type": "public_transport"}}, {"type": "relation", "id": 10104385, "members": [{"type": "node", "ref": 6842561206, "role": "stop"}, {"type": "node", "ref": 6842561207, "role": "platform"}], "tags": {"name": "Kadasonnappanahalli Gate", "name:en": "Kadasonnappanahalli Gate", "network": "BMTC", "operator": "BMTC", "public_transport": "stop_area", "type": "public_transport"}}, {"type": "relation", "id": 10104386, "members": [{"type": "node", "ref": 6842561208, "role": "stop"}, {"type": "node", "ref": 2451403806, "role": "platform"}], "tags": {"name": "Kannuru", "name:en": "Kannuru", "name:kn": "\u0c95\u0ca3\u0ccd\u0ca3\u0cc2\u0cb0\u0cc1", "network": "BMTC", "operator": "BMTC", "public_transport": "stop_area", "type": "public_transport"}}, {"type": "relation", "id": 10104387, "members": [{"type": "node", "ref": 6842561209, "role": "stop"}, {"type": "node", "ref": 6842561210, "role": "platform"}], "tags": {"name": "Chikka Gubbi Cross", "name:en": "Chikka Gubbi Cross", "network": "BMTC", "operator": "BMTC", "public_transport": "stop_area", "type": "public_transport"}}, {"type": "relation", "id": 17173076, "members": [{"type": "node", "ref": 11598213071, "role": "stop"}, {"type": "node", "ref": 440670284, "role": "platform"}], "tags": {"alt_name": "Adur", "name": "Aduru", "name:en": "Aduru", "network": "BMTC", "operator": "BMTC", "public_transport": "stop_area", "type": "public_transport"}}, {"type": "relation", "id": 17545796, "members": [{"type": "node", "ref": 11872033075, "role": "stop"}, {"type": "node", "ref": 11872033076, "role": "platform"}], "tags": {"name": "Bagalur Old Police Station", "name:en": "Bagalur Old Police Station", "network": "BMTC", "operator": "BMTC", "public_transport": "stop_area", "type": "public_transport"}}, {"type": "relation", "id": 17545797, "members": [{"type": "node", "ref": 11872033077, "role": "stop"}, {"type": "node", "ref": 11872033078, "role": "platform"}], "tags": {"name": "Kanakshree Layout Chikka Gubbi", "name:en": "Kanakshree Layout Chikka Gubbi", "network": "BMTC", "operator": "BMTC", "public_transport": "stop_area", "type": "public_transport"}}]}