{"version": 0.6, "generator": "Overpass API 0.7.62.8 e802775f", "osm3s": {"timestamp_osm_base": "2026-01-15T04:28:45Z", "copyright": "The data included in this document is from www.openstreetmap.org. The data is made available under ODbL."}, "elements": [{"type": "node", "id": 291898706, "lat": 48.1515148, "lon": 11.5960485, "tags": {"addr:city": "M\u00fcnchen", "addr:country": "DE", "addr:housenumber": "6", "addr:postcode": "80538", "addr:street": "Hirschauer Stra\u00dfe", "amenity": "hospital", "beds": "82", "emergency": "no", "healthcare": "hospital", "healthcare:speciality": "gynaecology", "name": "Frauenklinik Dr. Geisenhofer", "name:en": "Dr. Geisenhofer Women's Clinic", "opening_hours:visitors": "09:00-17:00", "operator": "Frauenklinik Dr. Geisenhofer GmbH", "operator:type": "private", "phone": "+49 89 38310", "website": "https://geisenhoferklinik.de/", "wheelchair": "no"}}, {"type": "node", "id": 1285286391, "lat": 48.1505955, "lon": 11.618485, "tags": {"addr:city": "M\u00fcnchen", "addr:country": "DE", "addr:housenumber": "5", "addr:postcode": "81925", "addr:street": "Arabellastra\u00dfe", "amenity": "hospital", "beds": "60", "emergency": "no", "healthcare": "hospital", "healthcare:speciality": "anaesthetics;ophthalmology;surgery;trauma;plastic_surgery;otolaryngology;dental_oral_maxillo_facial_surgery", "level": "19", "name": "Arabella-Klinik", "operator": "Arabella Klinik GmbH", "operator:type": "private", "phone": "+49 89 92 20 92 0", "website": "https://arabellaklinik.de/", "wheelchair": "limited", "wikidata": "Q106291752", "wikipedia": "de:Arabella Klinik"}}, {"type": "node", "id": 9461152959, "lat": 48.1540311, "lon": 11.6239713}, {"type": "node", "id": 9461152960, "lat": 48.1539285, "lon": 11.624195}, {"type": "node", "id": 9461152961, "lat": 48.1538352, "lon": 11.6262785}, {"type": "node", "id": 9461152962, "lat": 48.1544509, "lon": 11.6265931}, {"type": "node", "id": 9461152963, "lat": 48.154894, "lon": 11.6268378}, {"type": "node", "id": 9461152964, "lat": 48.1554257, "lon": 11.6268937}, {"type": "node", "id": 9461152965, "lat": 48.1558642, "lon": 11.6270196}, {"type": "node", "id": 9461152966, "lat": 48.1564565, "lon": 11.6246355}, {"type": "node", "id": 9461152967, "lat": 48.1564239, "lon": 11.6238175}, {"type": "node", "id": 9461152968, "lat": 48.1563166, "lon": 11.6232302}, {"type": "node", "id": 9461152969, "lat": 48.1557896, "lon": 11.622524}, {"type": "node", "id": 9461152970, "lat": 48.1540125, "lon": 11.6226499}, {"type": "node", "id": 13084349139, "lat": 48.1550083, "lon": 11.6314524}, {"type": "node", "id": 13084349140, "lat": 48.1550683, "lon": 11.6316562}, {"type": "node", "id": 13084349141, "lat": 48.1550392, "lon": 11.631622}, {"type": "node", "id": 13084349142, "lat": 48.1550226, "lon": 11.6315939}, {"type": "node", "id": 13084349143, "lat": 48.1550092, "lon": 11.6315489}, {"type": "node", "id": 13084349144, "lat": 48.1550038, "lon": 11.6315067}, {"type": "node", "id": 13084349145, "lat": 48.1551564, "lon": 11.6307101}, {"type": "node", "id": 13084349146, "lat": 48.1555988, "lon": 11.6309146}, {"type": "node", "id": 13084349147, "lat": 48.1554295, "lon": 11.6318151}, {"type": "node", "id": 13084349187, "lat": 48.1482602, "lon": 11.6141049}, {"type": "node", "id": 13084349188, "lat": 48.148186, "lon": 11.6149695}, {"type": "node", "id": 13084349189, "lat": 48.1488315, "lon": 11.61507}, {"type": "node", "id": 13084349190, "lat": 48.1489224, "lon": 11.6142676}, {"type": "node", "id": 13128210090, "lat": 48.16313, "lon": 11.5923411}, {"type": "node", "id": 13128246564, "lat": 48.1650201, "lon": 11.5921627}, {"type": "node", "id": 13128246565, "lat": 48.1652723, "lon": 11.5923397}, {"type": "node", "id": 13128246566, "lat": 48.1646462, "lon": 11.5918811}, {"type": "node", "id": 13128246567, "lat": 48.1645737, "lon": 11.5921077}, {"type": "node", "id": 13128246568, "lat": 48.1640567, "lon": 11.5917456}, {"type": "node", "id": 13128246569, "lat": 48.1633733, "lon": 11.591287}, {"type": "node", "id": 13128246570, "lat": 48.1630072, "lon": 11.5928118}, {"type": "node", "id": 13128246571, "lat": 48.1634887, "lon": 11.5931524}, {"type": "node", "id": 13128246572, "lat": 48.1638053, "lon": 11.5934823}, {"type": "node", "id": 13128246573, "lat": 48.1640486, "lon": 11.5938136}, {"type": "node", "id": 13128246574, "lat": 48.1644458, "lon": 11.5943635}, {"type": "node", "id": 13128246575, "lat": 48.1644816, "lon": 11.5943487}, {"type": "node", "id": 13128246576, "lat": 48.1646569, "lon": 11.5940416}, {"type": "node", "id": 13128246577, "lat": 48.1651587, "lon": 11.5930988}, {"type": "node", "id": 13128246578, "lat": 48.1654468, "lon": 11.5924872}, {"type": "way", "id": 1026169510, "nodes": [9461152970, 9461152969, 9461152968, 9461152967, 9461152966, 9461152965, 9461152964, 9461152963, 9461152962, 9461152961, 9461152960, 9461152959, 9461152970], "tags": {"addr:city": "M\u00fcnchen", "addr:country": "DE", "addr:housenumber": "77", "addr:postcode": "81925", "addr:street": "Englschalkinger Stra\u00dfe", "amenity": "hospital", "email": "kmb@kh-bogenhausen.de", "healthcare": "hospital", "name": "M\u00fcnchen Klinik Bogenhausen", "operator": "M\u00fcnchen Klinik gGmbH", "operator:type": "public", "phone": "+49 89 9270-0", "website": "https://www.muenchen-klinik.de/krankenhaus/bogenhausen/", "wikidata": "Q1774595"}}, {"type": "way", "id": 1423551888, "nodes": [13084349147, 13084349146, 13084349145, 13084349139, 13084349144, 13084349143, 13084349142, 13084349141, 13084349140, 13084349147], "tags": {"amenity": "hospital", "email": "muenchen@pk-mx.de", "emergency": "no", "fax": "+49 89 917756", "healthcare": "hospital", "healthcare:speciality": "otolaryngology;surgery;maxillofacial_surgery", "name": "Paracelsus Klinik M\u00fcnchen", "operator": "Paracelsus-Kliniken Deutschland GmbH & Co. KGaA", "operator:type": "private", "operator:wikidata": "Q2051237", "phone": "+49 89 92005-0", "wikidata": "Q64554351"}}, {"type": "way", "id": 1423551898, "nodes": [13084349190, 13084349189, 13084349188, 13084349187, 13084349190], "tags": {"addr:city": "M\u00fcnchen", "addr:country": "DE", "addr:housenumber": "44", "addr:postcode": "81679", "addr:street": "Denninger Stra\u00dfe", "amenity": "hospital", "check_date": "2025-10-25", "email": "info@lubos-kliniken.de", "emergency": "no", "fax": "+49 89 92794 1501", "healthcare": "hospital", "healthcare:speciality": "surgery;gynaecology;orthopaedics;urology;anaesthetics", "name": "Dr. Lubos Kliniken Bogenhausen", "operator": "Dr. Lubos Kliniken Bogenhausen GmbH", "operator:type": "private", "phone": "+49 89 92794 0", "ref:vatin": "DE814323213", "website": "https://www.lubos-kliniken.de/bogenhausen/", "wheelchair": "yes", "wikidata": "Q97750632", "wikimedia_commons": "File:Krankenhaus \u2013 Dr. Lubos Kliniken Bogenhausen.jpg", "wikipedia": "de:Dr. Lubos Kliniken Bogenhausen"}}, {"type": "way", "id": 1428000359, "nodes": [13128246578, 13128246577, 13128246576, 13128246575, 13128246574, 13128246573, 13128246572, 13128246571, 13128246570, 13128210090, 13128246569, 13128246568, 13128246567, 13128246566, 13128246564, 13128246565, 13128246578], "tags": {"addr:city": "M\u00fcnchen", "addr:country": "DE", "addr:housenumber": "29", "addr:postcode": "80802", "addr:street": "Biedersteiner Stra\u00dfe", "amenity": "hospital", "healthcare": "hospital", "healthcare:speciality": "dermatology", "name": "Klinik und Poliklinik f\u00fcr Dermatologie und Allergologie am Biederstein, Technische Universit\u00e4t M\u00fcnchen", "operator": "Klinikum der Technischen Universit\u00e4t M\u00fcnchen (TUM Klinikum)", "short_name": "Universit\u00e4ts-Hautklinik", "website": "https://derma-allergie.med.tum.de/"}}]}