{"version": 0.6, "generator": "Overpass API 0.7.62.8 e802775f", "osm3s": {"timestamp_osm_base": "2026-01-12T02:08:00Z", "copyright": "The data included in this document is from www.openstreetmap.org. The data is made available under ODbL."}, "elements": [{"type": "node", "id": 343312950, "lat": 17.4446515, "lon": 78.450691}, {"type": "node", "id": 513439512, "lat": 17.4417142, "lon": 78.4478775, "tags": {"amenity": "hospital", "name": "Ameerpet Government Hospital", "name:te": "\u0c05\u0c2e\u0c40\u0c30\u0c4d\u200c\u0c2a\u0c47\u0c1f \u0c2a\u0c4d\u0c30\u0c2d\u0c41\u0c24\u0c4d\u0c35 \u0c06\u0c38\u0c41\u0c2a\u0c24\u0c4d\u0c30\u0c3f"}}, {"type": "node", "id": 513439517, "lat": 17.4422795, "lon": 78.4480341, "tags": {"amenity": "hospital", "name": "Sri Vijaya Hospitals", "name:te": "\u0c36\u0c4d\u0c30\u0c40 \u0c35\u0c3f\u0c1c\u0c2f \u0c39\u0c3e\u0c38\u0c4d\u0c2a\u0c3f\u0c1f\u0c32\u0c4d\u0c38\u0c4d"}}, {"type": "node", "id": 538425761, "lat": 17.4415414, "lon": 78.4461255, "tags": {"amenity": "hospital", "emergency": "no", "name": "Sree Priya Multi Speciality Hospital", "name:te": "\u0c36\u0c4d\u0c30\u0c40 \u0c2a\u0c4d\u0c30\u0c3f\u0c2f \u0c2e\u0c32\u0c4d\u0c1f\u0c40 \u0c38\u0c4d\u0c2a\u0c46\u0c37\u0c3e\u0c32\u0c3f\u0c1f\u0c40 \u0c39\u0c3e\u0c38\u0c4d\u0c2a\u0c3f\u0c1f\u0c32\u0c4d"}}, {"type": "node", "id": 665132280, "lat": 17.4293162, "lon": 78.533452, "tags": {"addr:district": "Hyderabad", "addr:full": "12-5-30, Whith House, Moulali Road, Tarnaka", "addr:postcode": "500017", "addr:state": "Telangana", "amenity": "hospital", "contact:phone": "040 2700 7272 ; 9000991535", "name": "Innova Children's Heart Hospital", "source": "OpenGovernmentData", "website": "https://www.innovahospitals.in/"}}, {"type": "node", "id": 665132281, "lat": 17.4290954, "lon": 78.5333362, "tags": {"amenity": "hospital", "name": "Apollo Clinic"}}, {"type": "node", "id": 902311398, "lat": 17.4556983, "lon": 78.4984034, "tags": {"addr:street": "Vikrampuri", "amenity": "hospital", "emergency": "yes", "name": "Oxygen Hospital"}}, {"type": "node", "id": 1050786520, "lat": 17.4693193, "lon": 78.4778376, "tags": {"amenity": "hospital"}}, {"type": "node", "id": 1050844412, "lat": 17.4636217, "lon": 78.4567398, "tags": {"amenity": "hospital", "healthcare": "hospital", "name": "Remedy Hospitals"}}, {"type": "node", "id": 1435322433, "lat": 17.4512881, "lon": 78.5354859, "tags": {"amenity": "hospital", "emergency": "yes", "name": "L.K. Diagnostic"}}, {"type": "node", "id": 1435322445, "lat": 17.4513853, "lon": 78.5352525, "tags": {"addr:district": "Hyderabad", "addr:full": "4-159 & 4-172, Near Raghavendra Theatre, Maruthi Nagar, Malkajgiri", "addr:postcode": "500047", "addr:state": "Telangana", "amenity": "hospital", "emergency": "yes", "name": "L.K. Hospitals", "source": "OpenGovernmentData"}}, {"type": "node", "id": 1438252866, "lat": 17.451435, "lon": 78.5311968, "tags": {"amenity": "hospital", "emergency": "yes", "name": "Dental Hospital"}}, {"type": "node", "id": 2208162453, "lat": 17.4291646, "lon": 78.4567382, "tags": {"addr:district": "Hyderabad", "addr:full": "6-3-1111/19, NISHATH BAGH, BEGUMPET", "addr:postcode": "500016", "addr:state": "Telangana", "amenity": "hospital", "contact:phone": "23402417", "name": "Swapna Health Care", "operator:type": "private", "source": "OpenGovernmentData"}}, {"type": "node", "id": 2583708951, "lat": 17.4255371, "lon": 78.5306786, "tags": {"amenity": "hospital", "name": "Tarnaka Flyover;TGSRTC Hospital", "place": "locality"}}, {"type": "node", "id": 2583734761, "lat": 17.4241623, "lon": 78.5297591}, {"type": "node", "id": 2583734762, "lat": 17.4250792, "lon": 78.529218}, {"type": "node", "id": 2583734763, "lat": 17.4264175, "lon": 78.5308078}, {"type": "node", "id": 2583734764, "lat": 17.4264585, "lon": 78.5310653}, {"type": "node", "id": 2583734772, "lat": 17.4253171, "lon": 78.5317868}, {"type": "node", "id": 2583734773, "lat": 17.4255961, "lon": 78.5324775}, {"type": "node", "id": 2791962057, "lat": 17.4365665, "lon": 78.4831508}, {"type": "node", "id": 2791962060, "lat": 17.4366445, "lon": 78.4831897}, {"type": "node", "id": 2791962076, "lat": 17.4374173, "lon": 78.4833935}, {"type": "node", "id": 2791962080, "lat": 17.4376017, "lon": 78.4829348}, {"type": "node", "id": 2791962082, "lat": 17.4376589, "lon": 78.4834667}, {"type": "node", "id": 2791962088, "lat": 17.4377234, "lon": 78.4821876}, {"type": "node", "id": 2791962095, "lat": 17.4378995, "lon": 78.4814901}, {"type": "node", "id": 3182207744, "lat": 17.4364397, "lon": 78.482699}, {"type": "node", "id": 3182218374, "lat": 17.4378433, "lon": 78.4815322}, {"type": "node", "id": 3182222862, "lat": 17.4370821, "lon": 78.4833077}, {"type": "node", "id": 3390967828, "lat": 17.5113399, "lon": 78.4469461, "tags": {"addr:district": "Hyderabad", "addr:full": "Plot No.: 43, Gajularamaram Road, Shapur Nagar", "addr:postcode": "500055", "addr:state": "Telangana", "addr:street": "gajuularamaram road", "amenity": "hospital", "name": "Carewell Diabetes and General Hospital", "source": "OpenGovernmentData"}}, {"type": "node", "id": 3506878894, "lat": 17.44165, "lon": 78.5218514, "tags": {"addr:district": "Hyderabad", "addr:full": "Sai Ranga Towers, North Lallaguda, Tukaram Gate", "addr:postcode": "500026", "addr:state": "Telangana", "amenity": "hospital", "building": "yes", "email": "meenahospital@yahoo.com", "name": "Meena Hospital", "phone": "040 2773 0674", "source": "OpenGovernmentData", "website": "www.meenahospital.in"}}, {"type": "node", "id": 3533084115, "lat": 17.4289946, "lon": 78.5120703, "tags": {"addr:district": "Hyderabad", "addr:full": "H. No: 11-4-523, Near Gandhi Statue and Chilkalguda Bus Stop, Chilkalguda, Secunderabad", "addr:postcode": "500025", "addr:state": "Telangana", "amenity": "hospital", "contact:email": "info@lifespring.in", "contact:phone": "+91 7893851613", "healthcare": "hospital", "name": "Life Spring Hospitals", "source": "OpenGovernmentData"}}, {"type": "node", "id": 3598267888, "lat": 17.4631717, "lon": 78.4904751, "tags": {"amenity": "hospital", "emergency": "no", "name": "Janapareddy Hospital"}}, {"type": "node", "id": 3614774687, "lat": 17.4685801, "lon": 78.4895471}, {"type": "node", "id": 3614774696, "lat": 17.468604, "lon": 78.4894077}, {"type": "node", "id": 3614774839, "lat": 17.4688871, "lon": 78.4896576}, {"type": "node", "id": 3614774844, "lat": 17.4688958, "lon": 78.4896067}, {"type": "node", "id": 3614774894, "lat": 17.4690011, "lon": 78.4896791}, {"type": "node", "id": 3614774908, "lat": 17.4690338, "lon": 78.4894888}, {"type": "node", "id": 3617223289, "lat": 17.4502067, "lon": 78.5350026}, {"type": "node", "id": 3617223292, "lat": 17.4502139, "lon": 78.5349168}, {"type": "node", "id": 3617223522, "lat": 17.450312, "lon": 78.5350123}, {"type": "node", "id": 3617223525, "lat": 17.4503191, "lon": 78.5349265}, {"type": "node", "id": 3617224045, "lat": 17.4507987, "lon": 78.5340616}, {"type": "node", "id": 3617224055, "lat": 17.4509845, "lon": 78.533685}, {"type": "node", "id": 3617224234, "lat": 17.4512422, "lon": 78.5338443}, {"type": "node", "id": 3617354714, "lat": 17.4247681, "lon": 78.4563367}, {"type": "node", "id": 3617354716, "lat": 17.4247889, "lon": 78.4564961}, {"type": "node", "id": 3617354733, "lat": 17.4251323, "lon": 78.4562844}, {"type": "node", "id": 3617354736, "lat": 17.4251531, "lon": 78.4564438}, {"type": "node", "id": 3618963151, "lat": 17.4414164, "lon": 78.4973343}, {"type": "node", "id": 3618963164, "lat": 17.4414973, "lon": 78.4967979}, {"type": "node", "id": 3618963914, "lat": 17.4420799, "lon": 78.4974727}, {"type": "node", "id": 3618963919, "lat": 17.4421843, "lon": 78.4969024}, {"type": "node", "id": 3619076683, "lat": 17.4429753, "lon": 78.4438837}, {"type": "node", "id": 3619076696, "lat": 17.4429894, "lon": 78.4437527}, {"type": "node", "id": 3619076751, "lat": 17.4430675, "lon": 78.4438946}, {"type": "node", "id": 3619076761, "lat": 17.4430817, "lon": 78.4437636}, {"type": "node", "id": 3619471876, "lat": 17.4348516, "lon": 78.4550267}, {"type": "node", "id": 3619471995, "lat": 17.4349879, "lon": 78.45501}, {"type": "node", "id": 3619471999, "lat": 17.4350028, "lon": 78.4551434}, {"type": "node", "id": 3619549990, "lat": 17.4349313, "lon": 78.5065075}, {"type": "node", "id": 3619550003, "lat": 17.4350139, "lon": 78.5067982}, {"type": "node", "id": 3619550048, "lat": 17.4354726, "lon": 78.5063385}, {"type": "node", "id": 3619550068, "lat": 17.4355552, "lon": 78.5066292}, {"type": "node", "id": 3624691519, "lat": 17.4404466, "lon": 78.4859754}, {"type": "node", "id": 3624691532, "lat": 17.4405578, "lon": 78.4862098}, {"type": "node", "id": 3624691538, "lat": 17.4406209, "lon": 78.4858919}, {"type": "node", "id": 3624691563, "lat": 17.440743, "lon": 78.4861721}, {"type": "node", "id": 3624692073, "lat": 17.4414062, "lon": 78.4865667}, {"type": "node", "id": 3624692074, "lat": 17.4414088, "lon": 78.486353}, {"type": "node", "id": 3624692083, "lat": 17.441446, "lon": 78.4863535}, {"type": "node", "id": 3624692084, "lat": 17.4414467, "lon": 78.4862911}, {"type": "node", "id": 3624692091, "lat": 17.4414996, "lon": 78.4862918}, {"type": "node", "id": 3624692092, "lat": 17.4415005, "lon": 78.4862205}, {"type": "node", "id": 3624692297, "lat": 17.4415609, "lon": 78.4865688}, {"type": "node", "id": 3624692298, "lat": 17.4415627, "lon": 78.4864147}, {"type": "node", "id": 3624692313, "lat": 17.4417456, "lon": 78.4864172}, {"type": "node", "id": 3624692314, "lat": 17.441748, "lon": 78.4862238}, {"type": "node", "id": 3624906091, "lat": 17.4437934, "lon": 78.4512266}, {"type": "node", "id": 3655193068, "lat": 17.4401606, "lon": 78.4976879}, {"type": "node", "id": 3655193075, "lat": 17.4402251, "lon": 78.4974368}, {"type": "node", "id": 3655193099, "lat": 17.4403352, "lon": 78.4977372}, {"type": "node", "id": 3655193114, "lat": 17.4403997, "lon": 78.497486}, {"type": "node", "id": 3658594189, "lat": 17.4476651, "lon": 78.5091106}, {"type": "node", "id": 3658594191, "lat": 17.4477135, "lon": 78.5087658}, {"type": "node", "id": 3658594202, "lat": 17.4478774, "lon": 78.5091563}, {"type": "node", "id": 3658594206, "lat": 17.4479283, "lon": 78.5089814}, {"type": "node", "id": 3658594220, "lat": 17.448006, "lon": 78.5088077}, {"type": "node", "id": 3661096838, "lat": 17.4408248, "lon": 78.4866798}, {"type": "node", "id": 3661096839, "lat": 17.4409176, "lon": 78.4866454}, {"type": "node", "id": 3661096840, "lat": 17.4409469, "lon": 78.4868859}, {"type": "node", "id": 3661096845, "lat": 17.4410723, "lon": 78.4870252}, {"type": "node", "id": 3661096847, "lat": 17.441099, "lon": 78.4870611}, {"type": "node", "id": 3661096850, "lat": 17.4412698, "lon": 78.4872101}, {"type": "node", "id": 3661096852, "lat": 17.4413694, "lon": 78.4871434}, {"type": "node", "id": 3661096853, "lat": 17.4414378, "lon": 78.4869656}, {"type": "node", "id": 3661096854, "lat": 17.4414445, "lon": 78.4871434}, {"type": "node", "id": 3661096855, "lat": 17.4415045, "lon": 78.4869447}, {"type": "node", "id": 3661096856, "lat": 17.4415051, "lon": 78.4869642}, {"type": "node", "id": 3661096857, "lat": 17.4415132, "lon": 78.4866978}, {"type": "node", "id": 3661096858, "lat": 17.4415209, "lon": 78.4869449}, {"type": "node", "id": 3681791850, "lat": 17.4376497, "lon": 78.4827504}, {"type": "node", "id": 3908287701, "lat": 17.4455341, "lon": 78.4522234}, {"type": "node", "id": 4146007084, "lat": 17.4387847, "lon": 78.4987364}, {"type": "node", "id": 4146007191, "lat": 17.438834, "lon": 78.4985547}, {"type": "node", "id": 4146007201, "lat": 17.4388915, "lon": 78.4987682}, {"type": "node", "id": 4146007203, "lat": 17.4389407, "lon": 78.4985865}, {"type": "node", "id": 4146349126, "lat": 17.4394356, "lon": 78.5049106}, {"type": "node", "id": 4146349129, "lat": 17.4394931, "lon": 78.5044654}, {"type": "node", "id": 4146349142, "lat": 17.439641, "lon": 78.5047977}, {"type": "node", "id": 4146349144, "lat": 17.4396667, "lon": 78.5049434}, {"type": "node", "id": 4146349145, "lat": 17.4396805, "lon": 78.504492}, {"type": "node", "id": 4146349146, "lat": 17.4396847, "lon": 78.5048039}, {"type": "node", "id": 4146479964, "lat": 17.4399864, "lon": 78.4977331}, {"type": "node", "id": 4146479965, "lat": 17.4400065, "lon": 78.4976718}, {"type": "node", "id": 4146479975, "lat": 17.4401054, "lon": 78.497776}, {"type": "node", "id": 4146479976, "lat": 17.4401255, "lon": 78.4977148}, {"type": "node", "id": 4146661495, "lat": 17.4402051, "lon": 78.5049218}, {"type": "node", "id": 4146661496, "lat": 17.4402935, "lon": 78.5041986}, {"type": "node", "id": 4146661497, "lat": 17.440712, "lon": 78.5049879}, {"type": "node", "id": 4146661498, "lat": 17.4408053, "lon": 78.5042691}, {"type": "node", "id": 4366549489, "lat": 17.4377225, "lon": 78.521976, "tags": {"amenity": "hospital", "healthcare": "hospital", "name:en": "South Central Railway Central Hospital Lallaguda"}}, {"type": "node", "id": 4451580789, "lat": 17.4269993, "lon": 78.4488484, "tags": {"amenity": "hospital"}}, {"type": "node", "id": 4486660717, "lat": 17.4396192, "lon": 78.450794, "tags": {"addr:district": "Hyderabad", "addr:full": "7-1-71/A/1, Dharam Karam Road, Ameerpet", "addr:postcode": "500016", "addr:state": "Telangana", "amenity": "hospital", "contact:email": "info@challahospital.com", "contact:mobile": "9441318181", "health_facility:type": "Multi Speciality OPD;Five Major Operation Theatres;Septic Operation Theatre;Post Op Ward;Neonatal ICU;Critical Care Unit;Critical Care Unit;Psychological Consultation", "healthcare:speciality": "multi specialty", "medical_system": "Allopathic", "name": "Challa Hospital", "name:te": "\u0c1a\u0c32\u0c4d\u0c32\u0c3e \u0c39\u0c38\u0c4d\u0c2a\u0c3f\u0c1f\u0c32\u0c4d", "operator:type": "private", "phone": "040 23744444;040 23731215;040 23731515;040 23734182", "source": "OpenGovernmentData", "website": "http://www.challahospital.com"}}, {"type": "node", "id": 4556707787, "lat": 17.4443626, "lon": 78.4527717}, {"type": "node", "id": 4614088290, "lat": 17.4410398, "lon": 78.4869976, "tags": {"highway": "emergency_access_point", "name": "Accidents & Emergency"}}, {"type": "node", "id": 4614088291, "lat": 17.4411875, "lon": 78.4869617}, {"type": "node", "id": 4614088292, "lat": 17.4413415, "lon": 78.4871156}, {"type": "node", "id": 4614088293, "lat": 17.4411634, "lon": 78.4869376}, {"type": "node", "id": 4614088294, "lat": 17.4409721, "lon": 78.4867034}, {"type": "node", "id": 4614311358, "lat": 17.4444782, "lon": 78.469498, "tags": {"addr:district": "Hyderabad", "addr:full": "SP Road, Near Begumpet Old Airport, Begumpet", "addr:postcode": "500016", "addr:state": "Telangana", "amenity": "hospital", "medical_system": "Allopathic", "name": "Pace Hospital", "operator:type": "private", "phone": "040 66171717; 040 27764646", "source": "OpenGovernmentData"}}, {"type": "node", "id": 4715099192, "lat": 17.4439091, "lon": 78.5043433, "tags": {"addr:district": "Hyderabad", "addr:full": "241, Uma Plaza, Road No. 9, West Maredpally, Secunderabad", "addr:postcode": "500026", "addr:state": "Telangana", "alt_name": "Pushpagiri Vitreo Retinal Institute", "amenity": "hospital", "contact:email": "pvri.india@gmail.com", "contact:phone": "040-27804949/5959", "healthcare": "hospital", "name": "Pushpagiri Eye Institute", "shop": "optician", "source": "OpenGovernmentData", "website": "https://pvri.org"}}, {"type": "node", "id": 6185287784, "lat": 17.4417011, "lon": 78.4973943}, {"type": "node", "id": 6212803089, "lat": 17.4379741, "lon": 78.4563758, "tags": {"addr:district": "Hyderabad", "addr:full": "7-1-21, RAILWAY STATION ROAD, UMA NAGAR, BEGUMPET", "addr:postcode": "500016", "addr:state": "Telangana", "amenity": "hospital", "contact:phone": "9000387345", "healthcare": "hospital", "name": "VINN Hospital", "operator:type": "private", "source": "OpenGovernmentData"}}, {"type": "node", "id": 6442939706, "lat": 17.4371236, "lon": 78.4833183}, {"type": "node", "id": 6479951769, "lat": 17.4553191, "lon": 78.5008281, "tags": {"addr:district": "Hyderabad", "addr:full": "Plot C 17, Vikrampuri Colony, Secunderabad", "addr:state": "Telangana", "amenity": "hospital", "contact:tollfree": "1801 2122", "fax": "040 27899090", "healthcare:speciality": "General Pediatrics;Neonatology;Pediatric Neurology;Anasthesia and Pain Management;Pediatric Gastroenterology;Pediatric Nephrology;Hematology & Oncology;ENT;Psychiatry;Pediatric Cardiology;Speech & Language Therapy;Physiotherapy and Rehabilitation Unit etc", "medical_system": "Allopathic", "name": "Rainbow Hospital for Women and Children, Secunderabad", "operator:type": "private", "phone": "040 27895050;040 27896060", "source": "OpenGovernmentData", "website": "https://www.rainbowhospitals.in/"}}, {"type": "node", "id": 6480130350, "lat": 17.4444929, "lon": 78.4662196, "tags": {"addr:district": "Hyderabad", "addr:full": "1-10-44/1, Near Prakash Nagar Metro Station, Begumpet Main Road", "addr:postcode": "500016", "addr:state": "Telangana", "amenity": "hospital", "fax": "040 30137299", "health_facility:type": "Separate Divisions for Each Speciality;State Of The Art Operation Theatres;Post Op Lounge with Beds;Advanced Eye Care Equipment;Complete Range of Optical Frames and Lenses;Exclusive Childrens Eye Care;24 7 Pharmacy;Ambulance Services", "healthcare:speciality": "Cataract Services;Refractive Surgery;Cornea Services;Glaucoma Services;Retina Services;Paediatric Ophthalmology and Squint Services;Oculoplasty Services;UVEITIS;Neuro Ophthalmology;Vision Rehabilitation Services;Computer Vision Syndrome;Contact Lenses", "medical_system": "Allopathic", "name": "Vasan Healthcare Private Limited", "operator:type": "Private", "phone": "040 30137200", "source": "OpenGovernmentData", "website": "https://vasaneye.com/"}}, {"type": "node", "id": 6482108938, "lat": 17.4432007, "lon": 78.4796964, "tags": {"addr:district": "Hyderabad", "addr:full": "Above Agrawala Sweets, Opp to Metro Pillar No 18, S.P. Road, Begumpet", "addr:postcode": "500003", "addr:state": "Telangana", "amenity": "hospital", "contact:mobile": "+91-9550003399; +91-9177550066.", "health_facility:type": "Arthritis;Sexual Problems;Thyroid Disorders;Respiratory Disorders;Skin Disorders;Female DisordersInfertility;Gastric Disorders;Kidney Problems;Auto Immune;Disorders", "healthcare:speciality": "homeopathy", "medical_system": "Ayush;Homeopathy", "name": "Homeocare International", "operator:type": "private", "source": "OpenGovernmentData", "website": "www.homeocares.com"}}, {"type": "node", "id": 6482123599, "lat": 17.5123618, "lon": 78.4754596, "tags": {"addr:district": "Hyderabad", "addr:full": "Plot Number 13 and 14, Pipeline Road, Behind Deevan Dhaba, Petbasheerabad, Jeedimetla", "addr:postcode": "500055", "addr:state": "Telangana", "amenity": "hospital", "contact:mobile": "9963545454", "email": "info@konarkhospitals.com", "health_facility:type": "Cashless Billing and Reimbursement Facility;Emergency Ambulance Services;Diagnostic Services;Surgical Services;ICU Facility;Operation Theater;Pharmacy Services", "healthcare:speciality": "multi specialty", "medical_system": "Allopathic", "name": "Konark Hospitals", "operator:type": "private", "phone": "040 44661515", "source": "OpenGovernmentData", "website": "https://www.konarkhospitals.com/"}}, {"type": "node", "id": 6482129255, "lat": 17.4252477, "lon": 78.4537243, "tags": {"addr:district": "Hyderabad", "addr:full": "Ozone Complex, 1st Floor, Near Bajaj Electronics, Panjagutta", "addr:postcode": "500082", "addr:state": "Telangana", "amenity": "hospital", "contact:email": "info@lmcindia.com", "contact:mobile": "9246391309", "name": "Leads Medical Centre", "phone": "040 23418873; 040 32009559", "source": "OpenGovernmentData", "website": "https://www.lmcindia.com/"}}, {"type": "node", "id": 6484699042, "lat": 17.447062, "lon": 78.5082445, "tags": {"addr:district": "Hyderabad", "addr:full": "Road No.4, West Marredpally, Secunderabad", "addr:postcode": "500026", "addr:state": "Telangana", "amenity": "hospital", "email": "geethahospitals@gmail.com", "fax": "040 27716287", "name": "Geetha Multi Speciality Hospital", "phone": "040-27800703; 040-27801272; 040-27802138", "source": "OpenGovernmentData", "website": "https://www.geethahospitals.com/"}}, {"type": "node", "id": 6484735190, "lat": 17.4691656, "lon": 78.4773293, "tags": {"addr:district": "Hyderabad", "addr:full": "1-10-314/P, Opposite Mallareddy Gardens, Thokatta Village, Bowenpally", "addr:postcode": "500011", "addr:state": "Telangana", "amenity": "hospital", "email": "doctor@dristenetralaya.com", "name": "Dristi Netralaya Hospital", "phone": "040-27950101", "source": "OpenGovernmentData", "website": "www.dristenetralaya.com"}}, {"type": "node", "id": 6484867650, "lat": 17.4593374, "lon": 78.5004204, "tags": {"addr:district": "Hyderabad", "addr:full": "Plot No A-7, Vikrampuri Colony, Karkhana", "addr:postcode": "500009", "addr:state": "Telangana", "amenity": "hospital", "name": "Nest Children's Hospital", "source": "OpenGovernmentData"}}, {"type": "node", "id": 6484884147, "lat": 17.4396489, "lon": 78.4991692, "tags": {"addr:district": "Hyderabad", "addr:full": "9-1-192, St. Marys Road, Secunderabad", "addr:postcode": "500003", "addr:state": "Telangana", "amenity": "hospital", "email": "info@mamatafertility.com", "healthcare": "hospital", "name": "Mamata Fertility Hospital", "old_name": "Infertility Institute and Research Centre Pvt. Ltd (IIRC)", "phone": "040-45678899; 040-27701414; 040-27700150; 040-27719471", "source": "OpenGovernmentData", "website": "https://www.mamatafertility.com/"}}, {"type": "node", "id": 6484931583, "lat": 17.429802, "lon": 78.4487075, "tags": {"addr:district": "Hyderabad", "addr:full": "# 8-3-952/10/2 & 2/1, Srinagar Colony Road, Punjagutta, Nagarjuna Nagar Colony, Yella Reddy Guda", "addr:postcode": "500073", "addr:state": "Telangana", "amenity": "hospital", "contact:email": "info@smiline.com", "fax": "23747979; 237440775", "name": "Smiline Dental Hospital", "phone": "+919595853000", "source": "OpenGovernmentData", "website": "https://www.smiline.com"}}, {"type": "node", "id": 6485054519, "lat": 17.4841162, "lon": 78.4488925, "tags": {"addr:district": "Hyderabad", "addr:full": "10-84, Sowbhagya Nagar, Opp. IDPL Colony", "addr:postcode": "500037", "addr:state": "Telangana", "amenity": "hospital", "name": "Kid Care Children's Hospital", "source": "OpenGovernmentData"}}, {"type": "node", "id": 6485236733, "lat": 17.4500557, "lon": 78.5115261, "tags": {"addr:district": "Hyderabad", "addr:full": "Plot No 23 & 24, Sanjeev Hosping Colony East Marredpally", "addr:postcode": "500026", "addr:state": "Telangana", "amenity": "hospital", "name": "Tanvi Eye Center", "source": "OpenGovernmentData"}}, {"type": "node", "id": 6485566735, "lat": 17.4298167, "lon": 78.4506487, "tags": {"addr:district": "Hyderabad", "addr:full": "Datla Pride, Punjagutta Officers Colony, Punjagutta", "addr:postcode": "500082", "addr:state": "Telangana", "amenity": "hospital", "email": "panjagutta@dragarwal.com", "healthcare": "hospital", "healthcare:speciality": "Cataract Surgery;Cornea and Refractive;Retina;Oculoplastic;Glaucoma;Uvea;Neuro Ophthamology;Squint and Pediatric Opthalmology;Lasik", "medical_system": "Allopathic", "name": "Dr.Agarwal's Eye Hospital", "operator": "Dr. Agarwal's Eye Hospital", "operator:type": "private", "operator:wikidata": "Q17052044", "phone": "040 23400081", "source": "OpenGovernmentData", "website": "https://www.dragarwal.com/"}}, {"type": "node", "id": 6485663642, "lat": 17.4409578, "lon": 78.5020941, "tags": {"addr:district": "Hyderabad", "addr:full": "Plot No. 43, Opp. St Mary's Church, S.D Road", "addr:postcode": "500003", "addr:state": "Telangana", "amenity": "hospital", "healthcare": "hospital", "name": "Madhava Nursing Home", "source": "OpenGovernmentData"}}, {"type": "node", "id": 6485763799, "lat": 17.4767414, "lon": 78.4798486, "tags": {"addr:district": "Hyderabad", "addr:full": "8-4-123, Near Old Bowenpally Bus Stop", "addr:postcode": "500011", "addr:state": "Telangana", "amenity": "hospital", "name": "Vinciti Hospital", "source": "OpenGovernmentData"}}, {"type": "node", "id": 6485873602, "lat": 17.4350761, "lon": 78.5028817, "tags": {"addr:district": "Hyderabad", "addr:full": "9-4-269, Regimental Bazar, Opp Main Gate", "addr:postcode": "500025", "addr:state": "Telangana", "amenity": "hospital", "healthcare": "hospital", "name": "Saluja Hospital", "source": "OpenGovernmentData"}}, {"type": "node", "id": 6485880627, "lat": 17.4525697, "lon": 78.4444669, "tags": {"addr:district": "Hyderabad", "addr:full": "SRT 641-642, Opposite Vinayaka Ground, Sanathnagar", "addr:postcode": "500018", "addr:state": "Telangana", "amenity": "hospital", "name": "Vijaya Krishna Nursing Home", "source": "OpenGovernmentData"}}, {"type": "node", "id": 6486037407, "lat": 17.4595888, "lon": 78.4780213, "tags": {"addr:district": "Hyderabad", "addr:full": "Plot No. 3,Ganesh Nagar Colony,Opposite Smt. Sarojini Pulla Reddy House, Hasmathpet Road, New Bowenpally", "addr:postcode": "500011", "addr:state": "Telangana", "amenity": "hospital", "fax": "040 27957958", "name": "Cure Hospitals", "source": "OpenGovernmentData"}}, {"type": "node", "id": 6486059355, "lat": 17.4810002, "lon": 78.5334009, "tags": {"addr:district": "Hyderabad", "addr:full": "35-601/1, G K Colony, Sainikpuri", "addr:postcode": "500094", "addr:state": "Telangana", "amenity": "hospital", "name": "Rishab Eye Centre", "source": "OpenGovernmentData"}}, {"type": "node", "id": 6486149790, "lat": 17.4570199, "lon": 78.4784049, "tags": {"addr:district": "Hyderabad", "addr:full": "53, Bhima Shankar Complex Malani Housing Colony Thokatta", "addr:postcode": "500009", "addr:state": "Telangana", "amenity": "hospital", "name": "Raghavendra Orthopaedic and Diagnostic Centre", "source": "OpenGovernmentData"}}, {"type": "node", "id": 6486935781, "lat": 17.4255423, "lon": 78.5340929, "tags": {"addr:district": "Hyderabad", "addr:full": "401 to 404, 4th Floor, Tara Tycoon Tower, Opp. Aradhana Theatre, Tarnaka", "addr:postcode": "500017", "addr:state": "Telangana", "amenity": "hospital", "name": "Anand Vitreo Retina Institute Pvt Ltd", "source": "OpenGovernmentData"}}, {"type": "node", "id": 6487281382, "lat": 17.4502892, "lon": 78.5099416, "tags": {"addr:district": "Secunderabad", "addr:full": "1st & 2nd Floor, Gude\u2019s Plaza, Above ICICI Bank, #77, Seshachala Colony, East Marredpally main Road", "addr:postcode": "500026", "addr:state": "Telangana", "amenity": "hospital", "name": "NephroPlus Dialysis Centre", "phone": "040-40063765", "source": "OpenGovernmentData", "website": "https://www.nephroplus.com/"}}, {"type": "node", "id": 6487508548, "lat": 17.4850586, "lon": 78.4471166, "tags": {"addr:district": "Hyderabad", "addr:full": "12-143, Community Hall Road, Adarsh Nagar, Opposite IDPL Colony Bus Stop, Balanagar", "addr:postcode": "500037", "addr:state": "Telangana", "amenity": "hospital", "name": "Jayasai Hospital For Women", "source": "OpenGovernmentData"}}, {"type": "node", "id": 6487654694, "lat": 17.4549634, "lon": 78.5087728, "tags": {"addr:district": "Hyderabad", "addr:full": "Plot No. 18, Indrapuri Railway Colony, West Marredpally", "addr:postcode": "500026", "addr:state": "Telangana", "amenity": "hospital", "fax": "040 27712131", "name": "Sree Maruthi Nursing Home", "source": "OpenGovernmentData"}}, {"type": "node", "id": 6487670042, "lat": 17.4565491, "lon": 78.5014417, "tags": {"addr:district": "Hyderabad", "addr:full": "E-30,31 Vikrampuri Colony", "addr:postcode": "500003", "addr:state": "Telangana", "amenity": "hospital", "fax": "27814173", "name": "Parvathi Multispeciality Hospital", "source": "OpenGovernmentData"}}, {"type": "node", "id": 6487685466, "lat": 17.5028854, "lon": 78.5132843, "tags": {"addr:district": "Hyderabad", "addr:full": "8-84, Temple Road, Alwal", "addr:postcode": "500010", "addr:state": "Telangana", "amenity": "hospital", "name": "Sundari Maternity and General Hospital", "source": "OpenGovernmentData"}}, {"type": "node", "id": 6487901010, "lat": 17.4951472, "lon": 78.5130295, "tags": {"addr:district": "Hyderabad", "addr:full": "Next To Hanuman Temple Main Road Lothkunta (Alwal) ad", "addr:postcode": "500015", "addr:state": "Telangana", "amenity": "hospital", "name": "Jayaprada Hospital", "source": "OpenGovernmentData"}}, {"type": "node", "id": 6488469834, "lat": 17.4467703, "lon": 78.4504817, "tags": {"addr:district": "Hyderabad", "addr:full": "7-246/B/1, Lane Opp. Yellamma Temple, Balkampet", "addr:postcode": "500016", "addr:state": "Telangana", "amenity": "hospital", "name": "S.V. Hospital", "source": "OpenGovernmentData"}}, {"type": "node", "id": 6488599602, "lat": 17.4354676, "lon": 78.4514661, "tags": {"addr:district": "Hyderabad", "addr:full": "7-1-59/4/8, Near Lal Bunglow, Ameerpet", "addr:postcode": "500016", "addr:state": "Telangana", "amenity": "hospital", "fax": "23735335", "name": "Sri Sai Kidney Centre", "source": "OpenGovernmentData"}}, {"type": "node", "id": 6489576234, "lat": 17.4418419, "lon": 78.4452461, "tags": {"addr:district": "Hyderabad", "addr:full": "43/3 RT, Near Community Hall, S.R. Nagar", "addr:postcode": "500038", "addr:state": "Telangana", "amenity": "hospital", "fax": "23801021", "name": "GSN Hospital", "source": "OpenGovernmentData"}}, {"type": "node", "id": 6490770019, "lat": 17.4274156, "lon": 78.4607056, "tags": {"addr:district": "Hyderabad", "addr:full": "6-3-1100/2, Raj Bhavan Road, Somajiguda", "addr:postcode": "500082", "addr:state": "Telangana", "amenity": "hospital", "name": "Matrika Hospital", "source": "OpenGovernmentData"}}, {"type": "node", "id": 6490857331, "lat": 17.4281006, "lon": 78.5170508, "tags": {"addr:district": "Hyderabad", "addr:full": "11-1-15, Seethaphalmandi", "addr:postcode": "500061", "addr:state": "Telangana", "amenity": "hospital", "healthcare": "hospital", "name": "Krishna Maternity And Nursing Home", "source": "OpenGovernmentData"}}, {"type": "node", "id": 6491348622, "lat": 17.4364471, "lon": 78.4961886, "tags": {"addr:district": "Hyderabad", "addr:full": "H.No. 7-1-684 & 685/A, Market Street, Secunderabad", "addr:postcode": "500003", "addr:state": "Telangana", "amenity": "hospital", "name": "Aravind Nursing Home", "source": "OpenGovernmentData"}}, {"type": "node", "id": 6491359724, "lat": 17.49926, "lon": 78.5129283, "tags": {"addr:district": "Hyderabad", "addr:full": "Behind Satya Petrol Pump, Alwal", "addr:postcode": "500010", "addr:state": "Telangana", "amenity": "hospital", "name": "G.N.R. Multispeciality Hospital", "source": "OpenGovernmentData"}}, {"type": "node", "id": 6493463498, "lat": 17.5141839, "lon": 78.4470136, "tags": {"addr:district": "Hyderabad", "addr:full": "Opposite Adarsh Bank, Beside Sagar Hotel, Shapur Nagar Main Road", "addr:postcode": "500055", "addr:state": "Telangana", "amenity": "hospital", "healthcare": "hospital", "name": "Ragani Children's Hospital", "source": "OpenGovernmentData"}}, {"type": "node", "id": 6493547008, "lat": 17.4593055, "lon": 78.4785913, "tags": {"addr:district": "Hyderabad", "addr:full": "13A & B, Anand Nagar Colony, Near Chinna Thokatta Bridge, New Bowenpally", "addr:postcode": "500011", "addr:state": "Telangana", "amenity": "hospital", "email": "drsguduru@hotmail.com", "name": "Chandana Hospitals", "phone": "9848027177", "source": "OpenGovernmentData", "website": "www.drsureshchandrahari.com"}}, {"type": "node", "id": 6494135269, "lat": 17.4711657, "lon": 78.5050875, "tags": {"addr:district": "Hyderabad", "addr:full": "Plot No-136, S. P. Colony , Trimulgherry", "addr:postcode": "500015", "addr:state": "Telangana", "amenity": "hospital", "name": "Pratibha Maternity Home", "source": "OpenGovernmentData"}}, {"type": "node", "id": 6494235890, "lat": 17.4312043, "lon": 78.4553486, "tags": {"addr:district": "Hyderabad", "addr:full": "6-3-871/A, Greenlands Road, Behind Snehalata Complex, Begumpet", "addr:postcode": "500016", "addr:state": "Telangana", "amenity": "hospital", "check_date": "2025-01-07", "name": "Vivekananda Hospital", "source": "OpenGovernmentData"}}, {"type": "node", "id": 6494422626, "lat": 17.4458107, "lon": 78.504999, "tags": {"addr:city": "Hyderabad", "addr:district": "Rangareddy", "addr:full": "10-2-256, West Maredpally", "addr:postcode": "500026", "addr:state": "Telangana", "amenity": "hospital", "contact:phone": "04066329777; 27800716", "email": "secunderabadnursinghome@gmail.com", "fax": "27800717", "name": "SECUNDERABAD NURSING HOME", "operator:type": "private", "phone": "04040061181", "source": "OpenGovernmentData"}}, {"type": "node", "id": 6494810755, "lat": 17.4404883, "lon": 78.4978656, "tags": {"addr:district": "Hyderabad", "addr:full": "Door No 8-1-5/7, Janak Plaza, Clock Tower, Secunderabad", "addr:postcode": "500003", "addr:state": "Telangana", "amenity": "hospital", "fax": "0877 27801920", "health_facility:type": "Separate Divisions for Each Speciality;State Of The Art Operation Theatres;Post Op Lounge with Beds;Advanced Eye Care Equipment;Complete Range of Optical Frames and Lenses;Exclusive Childrens Eye Care;24 7 Pharmacy;Ambulance Services", "healthcare": "hospital", "healthcare:speciality": "Cataract Services;Refractive Surgery;Cornea Services;Glaucoma Services;Retina Services;Paediatric Ophthalmology and Squint Services;Oculoplasty Services;UVEITIS;Neuro Ophthalmology;Vision Rehabilitation Services;Computer Vision Syndrome Clinic", "medical_system": "Allopathic", "name": "Vasan Healthcare Private Limited, Secunderabad", "name:te": "\u0c35\u0c3e\u0c38\u0c28\u0c4d \u0c39\u0c46\u0c32\u0c4d\u0c24\u0c4d \u0c15\u0c47\u0c30\u0c4d \u0c2a\u0c4d\u0c30\u0c48\u0c35\u0c47\u0c1f\u0c4d \u0c32\u0c3f\u0c2e\u0c3f\u0c1f\u0c46\u0c21\u0c4d \u0c38\u0c3f\u0c15\u0c3f\u0c02\u0c26\u0c4d\u0c30\u0c3e\u0c2c\u0c3e\u0c26\u0c4d", "operator:type": "private", "phone": "040 30957400", "source": "OpenGovernmentData", "website": "https://vasaneye.com/"}}, {"type": "node", "id": 6494829945, "lat": 17.4936174, "lon": 78.5127834, "tags": {"addr:district": "Hyderabad", "addr:full": "5-Saraswathi Nagar,Lothkunta", "addr:postcode": "500015", "addr:state": "Telangana", "amenity": "hospital", "name": "Devi Maternity Home", "source": "OpenGovernmentData"}}, {"type": "node", "id": 6494952509, "lat": 17.4405861, "lon": 78.4503195, "tags": {"addr:district": "Hyderabad", "addr:full": "2nd Floor, Bhaskara Hospital, Shivbagh Colony, Balkampet Road, Ameerpet", "addr:postcode": "500016", "addr:state": "Telangana", "amenity": "hospital", "name": "Vatsalya Institute Of Pediatrics Hospital", "source": "OpenGovernmentData"}}, {"type": "node", "id": 6495015780, "lat": 17.4260772, "lon": 78.457375, "tags": {"addr:district": "Hyderabad", "addr:full": "No. 6-3-1092/S1&S2, A Block, 2nd Floor, Shanthi Sikhara Complex, Somajiguda", "addr:postcode": "500082", "addr:state": "Telangana", "amenity": "hospital", "contact:phone": "+91 9000185185", "name": "Maa Ent Institute", "source": "OpenGovernmentData", "website": "https://maaent.com/"}}, {"type": "node", "id": 6495023719, "lat": 17.496063, "lon": 78.4541865, "tags": {"addr:district": "Hyderabad", "addr:full": "Plot No. 29,30, Beside Lingam Gound Residency, MNR College", "addr:postcode": "500055", "addr:state": "Telangana", "amenity": "hospital", "name": "Sanjeevani Children and General Hospital", "source": "OpenGovernmentData"}}, {"type": "node", "id": 6495079282, "lat": 17.4466174, "lon": 78.5360288, "tags": {"addr:district": "Hyderabad", "addr:full": "9-120, North Venkateswara Nagar, Sairam Theatre, Malkagiri", "addr:postcode": "500047", "addr:state": "Telangana", "amenity": "hospital", "name": "Santoshi Maternity Hospital", "source": "OpenGovernmentData"}}, {"type": "node", "id": 6496916240, "lat": 17.4376427, "lon": 78.4524706, "tags": {"addr:district": "Hyderabad", "addr:full": "7-1-57/B&C, Shyam Karan Road, Anandbagh, Ameerpet", "addr:postcode": "500016", "addr:state": "Telangana", "amenity": "hospital", "fax": "23782333", "healthcare": "hospital", "name": "Apollo Spectra Hospitals", "source": "OpenGovernmentData", "wikidata": "Q52856798"}}, {"type": "node", "id": 6496953497, "lat": 17.4465502, "lon": 78.5133715, "tags": {"addr:district": "Hyderabad", "addr:full": "10-3-32/9/32, Near Tagore's Home Junior College, East Marredpally", "addr:postcode": "500026", "addr:state": "Telangana", "amenity": "hospital", "name": "Taraporewalla Nursing Home", "source": "OpenGovernmentData"}}, {"type": "node", "id": 6496960846, "lat": 17.4478066, "lon": 78.508915, "tags": {"addr:district": "Hyderabad", "addr:full": "10-3-4, Entrenchment Road, East Marredpally, Opp Playground, Secunderabad,", "addr:postcode": "500026", "addr:state": "Telangana", "amenity": "hospital", "email": "info@shenoyhospitals.com", "name": "Shenoy Nursing Home", "phone": "040 4151 9999", "source": "OpenGovernmentData", "website": "https://www.shenoyhospitals.com/"}}, {"type": "node", "id": 6497294673, "lat": 17.4416577, "lon": 78.4908745, "tags": {"addr:district": "Hyderabad", "addr:full": "Plot Number 111, Karan Centre, S. D. Road, Landmark: Near Grand Solitaire Annex Hotel & Near Minerva Complex", "addr:postcode": "500003", "addr:state": "Telangana", "amenity": "hospital", "healthcare": "hospital", "name": "BSR ENT & Eye Nursing Home", "source": "OpenGovernmentData"}}, {"type": "node", "id": 6497362076, "lat": 17.4373484, "lon": 78.4462573, "tags": {"addr:district": "Hyderabad", "addr:full": "Plot No 4, Satyam Theatre Road, Beside Blue Fox Hotel, Mythrivanam, Ameerpet", "addr:postcode": "500038", "addr:state": "Telangana", "amenity": "hospital", "fax": "040 23755152", "health_facility:type": "Consultative;Diagnostic and Surgical Services", "healthcare": "hospital", "healthcare:speciality": "Anesthesiology;Cardiology;Diabetology;Dermatology;ENT Head and Neck Surgery;General Internal Medicine;General and Laparoscopic Surgery;Gynaecology and Obstetrics;Gastroenterology and Hematology;Neonatology and Paediatrics;Neurology and Neuro Surgery", "medical_system": "Allopathic", "name": "ASTER PRIME HOSPITALS (SRI SAINATHA MULTISPECIALITY HOSPITAL PVT.LTD.)", "operator:type": "private", "phone": "040 4959 4959", "source": "OpenGovernmentData", "website": "https://www.asterprime.com"}}, {"type": "node", "id": 6497369555, "lat": 17.4292454, "lon": 78.4531264, "tags": {"addr:district": "Hyderabad", "addr:full": "Sapphire Block, Amrutha Hills, Punjagutta", "addr:postcode": "500082", "addr:state": "Telangana", "amenity": "hospital", "name": "Amrutha Diabetic Centre", "source": "OpenGovernmentData"}}, {"type": "node", "id": 6498031548, "lat": 17.4381142, "lon": 78.5049681, "tags": {"addr:district": "Hyderabad", "addr:full": "10-3-72, St. John's Road, Opp Keyes High School, Chilakalguda, Secunderabad", "addr:postcode": "500025", "addr:state": "Telangana", "amenity": "hospital", "healthcare": "hospital", "name": "Shubhodaya Nursing Home", "source": "OpenGovernmentData"}}, {"type": "node", "id": 6498040562, "lat": 17.4620995, "lon": 78.5006364, "tags": {"addr:district": "Hyderabad", "addr:full": "59-1-2A, 1st Floor , Beside Police Station, Karkhana", "addr:postcode": "500009", "addr:state": "Telangana", "amenity": "hospital", "name": "Shekars Ent Hospital", "source": "OpenGovernmentData"}}, {"type": "node", "id": 6503106727, "lat": 17.4606974, "lon": 78.4904668, "tags": {"addr:district": "Hyderabad", "addr:full": "26/A, Sikh Road, Sikh Village, Near Diamond Point, Secunderabad", "addr:postcode": "500009", "addr:state": "Telangana", "amenity": "hospital", "contact:mobile": "9246276141", "email": "admin@janapareddy.co.in", "fax": "040 40147476", "health_facility:type": "Operation Theatre;Neonatal Intensive Care Unite;Neonatal Transport Team;Pediatric Intensive Care Unite;Emergency Care;In Patient Rooms;Lab;Pharmacy;Equipment and Facilities", "healthcare:speciality": "multi specialty", "medical_system": "Allopathic", "name": "Bloom Hospitals - Unit of Janapareddy Hospitals.", "operator:type": "private", "phone": "040 40147474;040 401474745;040 401474746", "source": "OpenGovernmentData", "website": "http://www.janapareddy.co.in"}}, {"type": "node", "id": 6503384572, "lat": 17.4660729, "lon": 78.4832785, "tags": {"addr:district": "Hyderabad", "addr:full": "Plot No-2, H No-2-12-149, Breg Syed Road,Bapuji Nagar Bowenpally, Cantonment", "addr:postcode": "500009", "addr:state": "Telangana", "amenity": "hospital", "name": "Lifespring Hospital", "source": "OpenGovernmentData"}}, {"type": "node", "id": 6503410509, "lat": 17.4713934, "lon": 78.4849957, "tags": {"addr:district": "Hyderabad", "addr:full": "7-A, Panchasheela Enclave, near ICRISAT Colony Phase 2, Hashmathpet", "addr:postcode": "500009", "addr:state": "Telangana", "amenity": "hospital", "name": "SKM Multi Speciality Hospital", "source": "OpenGovernmentData"}}, {"type": "node", "id": 6503431563, "lat": 17.5119189, "lon": 78.4465805, "tags": {"addr:district": "Hyderabad", "addr:full": "Plot No.78, 2nd Right, Gajularamaram Road, IDA, Shapurnagar, Jeedimetla", "addr:postcode": "500055", "addr:state": "Telangana", "amenity": "hospital", "name": "S.V.K. Hospital Private Ltd.", "source": "OpenGovernmentData"}}, {"type": "node", "id": 6504107685, "lat": 17.467585, "lon": 78.4819903, "tags": {"addr:district": "Hyderabad", "addr:full": "Plot No. 129/1, Viceroy Residency, Besides Ashok Gardens, Bapuji Nagar, Main Road, Bowenpalli", "addr:postcode": "500011", "addr:state": "Telangana", "amenity": "hospital", "name": "Pavithra Hospital", "source": "OpenGovernmentData"}}, {"type": "node", "id": 6504255627, "lat": 17.4407735, "lon": 78.4492117, "tags": {"addr:district": "Hyderabad", "addr:full": "7-1-212/5, Shiv Bagh, Balkampety Road, Ameerpet", "addr:postcode": "500016", "addr:state": "Telangana", "amenity": "hospital", "name": "Bhavika Nursing Home", "source": "OpenGovernmentData"}}, {"type": "node", "id": 6504269305, "lat": 17.4251451, "lon": 78.4510457, "tags": {"addr:district": "Hyderabad", "addr:full": "6-3-663/7/5, Saibaba Temple Road, Dwarakapuri, Punjagutta", "addr:postcode": "500082", "addr:state": "Telangana", "amenity": "hospital", "health_facility:type": "Allergy and Headache Clinic;Vertigo Clinic;Sleep Lab;Audiology;Speech Therapy;Clinical Lab;X ray;ECG", "healthcare:speciality": "Radio Frequency Surgery;Micro Ear Surgery;Endoscopic Sinus Surgery;Micro Laryngeal Surgery;Phono Surgery for Voice Disorders;Surgery for Snoring;Head and Neck Surgery", "medical_system": "Allopathic", "name": "Sree Srinivasa ENT Care and Research Institute", "operator:type": "private", "phone": "040 2339 4995;040 66664995", "source": "OpenGovernmentData", "website": "http://www.secri.org/contactus.htm"}}, {"type": "node", "id": 6504286989, "lat": 17.4575848, "lon": 78.4523016, "tags": {"addr:district": "Hyderabad", "addr:full": "Post Office Lane, Fathenagar", "addr:postcode": "500018", "addr:state": "Telangana", "amenity": "hospital", "name": "Peoples Health Centre", "source": "OpenGovernmentData"}}, {"type": "node", "id": 6505218409, "lat": 17.4305671, "lon": 78.4503329, "tags": {"addr:district": "Hyderabad", "addr:full": "Behind Durga Malleswara Swamy Temple, 1/2 RT, Housing Board Colony, Opposite Mosque, Panjagutta", "addr:postcode": "500008", "addr:state": "Telangana", "amenity": "hospital", "healthcare:speciality": "Laser; Storz Tricam; Storz Endoscopes; Storz Headcam; Storz Xenon Cold Light Sources; Xomed Micro Debrider; Xomed Skeeter Drill; Ventilating Bronchoscopes with Optical Forceps; Temporal Bone Dissection Laboratory", "medical_system": "Allopathic", "name": "Dr.Rao's ENT Super Speciality Hospital", "operator:type": "private", "phone": "040 45689977", "source": "OpenGovernmentData", "website": "https://raosentcare.com"}}, {"type": "node", "id": 6505307085, "lat": 17.4759595, "lon": 78.4837787, "tags": {"addr:district": "Hyderabad", "addr:full": "Plot No 8, Main Road, Old Bowenpally", "addr:postcode": "500011", "addr:state": "Telangana", "amenity": "hospital", "name": "Ramya Nursing Home", "source": "OpenGovernmentData"}}, {"type": "node", "id": 6505503898, "lat": 17.45035, "lon": 78.5034782, "tags": {"addr:district": "Hyderabad", "addr:full": "Street No:4, Road No:7, New Muncipal Park, West Maredpally", "addr:postcode": "500026", "addr:state": "Telangana", "amenity": "hospital", "name": "Lions Patny Hospital", "source": "OpenGovernmentData"}}, {"type": "node", "id": 6505550308, "lat": 17.503255, "lon": 78.5095681, "tags": {"addr:district": "Hyderabad", "addr:full": "1-10-11/6, New Police Station Bus Stop, Temple Alwal, Alwal", "addr:postcode": "500010", "addr:state": "Telangana", "amenity": "hospital", "email": "prashamsahospital@gmail.com", "name": "Prashamsha Hospital", "phone": "040 27970458; 040 27961858", "source": "OpenGovernmentData", "website": "www.prashamsahospital.com"}}, {"type": "node", "id": 6505570504, "lat": 17.4591328, "lon": 78.5007772, "tags": {"addr:district": "Hyderabad", "addr:full": "H.No.3-7-218 & 219, Behind Satyam Computer, ( Dc Greens )Kharkhana, Rangapaddy", "addr:postcode": "500015", "addr:state": "Telangana", "amenity": "hospital", "fax": "040 66318453", "name": "Soumya Multispeciality Hospital", "source": "OpenGovernmentData"}}, {"type": "node", "id": 6505613357, "lat": 17.4261322, "lon": 78.5324286, "tags": {"addr:district": "Hyderabad", "addr:full": "12-13-64, Beside Tarnaka Flyover, Tarnaka", "addr:postcode": "500017", "addr:state": "Telangana", "amenity": "hospital", "email": "info@surakshachildhospital.com", "emergency_telephone_code": "040 27016600;040 27016611;040 27016622", "fax": "040 2701 6623", "health_facility:type": "24 Hours Ambulance Services;Round The Clock Pharmacy;Imaging;Diagnostic Services;Antenatal Counselling;Neonatal and Paediatric Surgery;Neonatal Intensive Care Unit NICU ;Paediatric Intensive Care Unit PICU ;24 Hours Emergency Services;Out Patient Services", "healthcare:speciality": "multi specialty", "medical_system": "Allopathic", "name": "Suraksha Childrens Hospital", "operator:type": "private", "phone": "040 2706600;040 2706611;040 2706622", "source": "OpenGovernmentData", "website": "https://www.surakshachildrenshospital.com/"}}, {"type": "node", "id": 6506106769, "lat": 17.4486471, "lon": 78.4849052, "tags": {"addr:district": "Hyderabad", "addr:full": "1-14-158/1, Opp Pearl Palace, Beside Idgah, Balamrai, Near Paradise", "addr:postcode": "500003", "addr:state": "Telangana", "amenity": "hospital", "name": "J S Mahaveer Hospital", "source": "OpenGovernmentData"}}, {"type": "node", "id": 6507570343, "lat": 17.4422795, "lon": 78.5043204, "tags": {"addr:district": "Hyderabad", "addr:full": "F-14, First Floor, Deepthi Apartments, Beside St.Ann's High School, S.P.Road", "addr:postcode": "500003", "addr:state": "Telangana", "amenity": "hospital", "contact:email": "contact@drgowd.com", "contact:mobile": "+91 8886664790", "contact:phone": "040 66338377; 040 66312447", "healthcare": "hospital", "name": "The Dental Venue Multi Speciality Hospital (unit of Dr.Gowd\u2019s)", "source": "OpenGovernmentData", "website": "https://www.drgowd.com/"}}, {"type": "node", "id": 6510472444, "lat": 17.4466871, "lon": 78.5027158, "tags": {"addr:district": "Hyderabad", "addr:full": "Plot No 185, Road No 1, Near Kennedy School, West Marredpally", "addr:postcode": "500026", "addr:state": "Telangana", "amenity": "hospital", "email": "saibaba_goud@hotmail.com", "name": "Sai Jyothi Eye Institute", "phone": "040 2771 9170 ; 040 27701686", "source": "OpenGovernmentData", "website": "http://www.saijyothieyeinstitute.com"}}, {"type": "node", "id": 6510503879, "lat": 17.4270433, "lon": 78.450353, "tags": {"addr:district": "Hyderabad", "addr:full": "Plot No. 30, Nagarjuna Hills, Punjagutta", "addr:postcode": "500082", "addr:state": "Telangana", "amenity": "hospital", "email": "info@lsch.in", "name": "Little Star Children's Hospital (A Unit Of Thirumala Child Health Services Pvt. Ltd)", "phone": "040 6699 2345", "source": "OpenGovernmentData", "website": "www.lsch.in"}}, {"type": "node", "id": 6510820223, "lat": 17.4505451, "lon": 78.5032415, "tags": {"addr:district": "Hyderabad", "addr:full": "Beside Lions Club Hospital, West Marredpally,Secunderabad", "addr:postcode": "500026", "addr:state": "Telangana", "amenity": "hospital", "name": "Basant Sahney Hospitals", "source": "OpenGovernmentData"}}, {"type": "node", "id": 6512526669, "lat": 17.4900948, "lon": 78.4481992, "tags": {"addr:district": "Hyderabad", "addr:full": "Jeedimetla Main Road, Near Gautami Techno School", "addr:postcode": "500055", "addr:state": "Telangana", "amenity": "hospital", "name": "Pulse Hospital", "source": "OpenGovernmentData"}}, {"type": "node", "id": 6513267731, "lat": 17.4504779, "lon": 78.5062201, "tags": {"addr:district": "Hyderabad", "addr:full": "10-1-254, Near Check Post, West Marredpally", "addr:postcode": "500026", "addr:state": "Telangana", "amenity": "hospital", "fax": "040 27716646", "name": "Lions Dundoo Eye Institute", "source": "OpenGovernmentData"}}, {"type": "node", "id": 6513323438, "lat": 17.4314653, "lon": 78.4466797, "tags": {"addr:district": "Hyderabad", "addr:full": "8-3-903/F/12&13, Image House, Behind Chermas, Ameerpet", "addr:postcode": "500073", "addr:state": "Telangana", "amenity": "hospital", "fax": "2375555; 23746616", "name": "Image Hospital", "source": "OpenGovernmentData"}}, {"type": "node", "id": 6527671224, "lat": 17.4322118, "lon": 78.4490681, "tags": {"addr:district": "Hyderabad", "addr:full": "Durga Nagar Colony, Opp Gold Spot, Ameerpet", "addr:postcode": "500016", "addr:state": "Telangana", "amenity": "hospital", "name": "Disneys Medi-Kid Hospitals Pvt. Ltd", "source": "OpenGovernmentData"}}, {"type": "node", "id": 6531332945, "lat": 17.4458529, "lon": 78.4663644, "tags": {"addr:district": "Hyderabad", "addr:full": "1-11-252/1A-1D, Alladin Mansion, Near Shoppers Stop, Street Number 3, Begumpet", "addr:postcode": "500016", "addr:state": "Telangana", "amenity": "hospital", "contact:email": "info@maxivisioneyehospital.com", "contact:tollfree": "1800 425 6294", "healthcare:speciality": "Cataract;Refractive;Laser;Cornea;Retina;Glaucoma;Pediatric", "medical_system": "Allopathic", "name": "Maxivision Eye Hospital", "operator:type": "private", "phone": "040 27763677", "source": "OpenGovernmentData", "website": "https://www.maxivisioneyehospital.com"}}, {"type": "node", "id": 6537169461, "lat": 17.4840637, "lon": 78.4487262, "tags": {"addr:district": "Hyderabad", "addr:full": "Adarsh Nagar, Opp. IDPL Colony, Balanagar", "addr:postcode": "500037", "addr:state": "Telangana", "amenity": "hospital", "contact:phone": "040-67599999", "name": "Ankura Kodali Hospital", "source": "OpenGovernmentData"}}, {"type": "node", "id": 6548796448, "lat": 17.469289, "lon": 78.4862155, "tags": {"addr:city": "Hyderabad", "addr:full": "Plot No:. 27 & 28, Hasmathpet Road, Bowenpally Beside Reliance Fresh Super Market", "addr:postcode": "500011", "addr:state": "Telangana", "amenity": "hospital", "contact:phone": "04042306565;64595609", "name": "KRUTI HOSPITAL ADVANCED EYE & DENTAL CARE", "operator": "Private", "source": "OpenGovernmentData"}}, {"type": "node", "id": 6548826056, "lat": 17.4389273, "lon": 78.5060866, "tags": {"addr:city": "Hyderabad", "addr:full": "#10-3-167/A, Lane opp apollo hospitals, St.Johns road, Secunderabad", "addr:postcode": "500025", "addr:state": "Telangana", "amenity": "hospital", "contact:phone": "040-27830534, 040-27831534, +91-7207375534", "healthcare": "hospital", "name": "KASTURI MULTISPECIALITY HOSPITAL", "operator:type": "private", "source": "OpenGovernmentData", "website": "https://kasturihospitals.com/"}}, {"type": "node", "id": 6549122751, "lat": 17.435904, "lon": 78.4499786, "tags": {"addr:district": "Hyderabad", "addr:full": "D.NO. 7-1-79/A & 79/B, DHARAM KARAM ROAD, AMEERPET", "addr:postcode": "500016", "addr:state": "Telangana", "amenity": "hospital", "contact:email": "info@wellnesshospital.in", "contact:phone": "040-66667779", "healthcare": "hospital", "name": "Wellness Hospital", "operator:type": "private", "source": "OpenGovernmentData", "website": "https://www.wellnesshospital.in/"}}, {"type": "node", "id": 6549122919, "lat": 17.5072656, "lon": 78.4788038, "tags": {"addr:city": "Hyderabad", "addr:full": "H.No: 120, Green Park Avenue, Suchitra Circle, Jeedimetla Village", "addr:postcode": "500067", "addr:state": "Telangana", "amenity": "hospital", "contact:phone": "4027235867", "name": "Refracto Eye Hospital", "operator:type": "private", "source": "OpenGovernmentData"}}, {"type": "node", "id": 6549172458, "lat": 17.426232, "lon": 78.5322033, "tags": {"addr:district": "Hyderabad", "addr:full": "Plot No: 12-13-67/2, Street No.5, Sadhashiva Nagar, Lane Adjacent to Sanman Hotel, Tarnaka", "addr:postcode": "500017", "addr:state": "Telangana", "amenity": "hospital", "contact:phone": "040 27007111", "name": "PADMVATI MEDICAL CENTRE", "operator:type": "private", "source": "OpenGovernmentData"}}, {"type": "node", "id": 6549183267, "lat": 17.5084337, "lon": 78.4614305, "tags": {"addr:city": "Hyderabad", "addr:full": "Plot No:413, ROAD NO - 1, BHAGYA LAXMI COLONY, QUTHBULLAPUR", "addr:postcode": "500055", "addr:state": "Telangana", "amenity": "hospital", "contact:phone": "040 23080666", "name": "Lakshmi Sailaja Hospiatal", "operator:type": "private", "source": "OpenGovernmentData"}}, {"type": "node", "id": 6549206566, "lat": 17.470118, "lon": 78.5086575, "tags": {"addr:city": "Secunderabad", "addr:full": "MOTI VALLEY, BESIDE ACER MOTORS, TIRUMALAGIRI `X` ROAD", "addr:postcode": "500015", "addr:state": "Telangana", "amenity": "hospital", "contact:phone": "4060608899", "name": "STERLING HOSPITALS PVT LTD", "operator": "Private", "source": "OpenGovernmentData"}}, {"type": "node", "id": 6549215300, "lat": 17.45558, "lon": 78.4981728, "tags": {"addr:city": "Secunderabad", "addr:full": "Plot No: 90 P&T COLONY VIKRAMPURI KARKHANA", "addr:postcode": "500009", "addr:state": "Telangana", "amenity": "hospital", "contact:phone": "4027720777", "name": "NAVJEEVAN HOSPITAL", "operator": "Private", "source": "OpenGovernmentData"}}, {"type": "node", "id": 6549219227, "lat": 17.4691425, "lon": 78.4777518, "tags": {"addr:city": "Hyderabad", "addr:full": "Plot No:.3, BAPUJI NAGAR, Opp: SAROJINI PULLA REDDY HOUSE, BOWENPALLY", "addr:postcode": "500011", "addr:state": "Telangana", "amenity": "hospital", "name": "KS MULTISPECIALTY HOSPITAL", "operator": "Private", "source": "OpenGovernmentData"}}, {"type": "node", "id": 6549322814, "lat": 17.5064398, "lon": 78.5160054, "tags": {"addr:district": "Secunderabad", "addr:full": "BUNGALOW NO-56, SURVEY NO- 606, GV REDDY COLONY, Opp: RYTHU BAZAAR, ALWAL", "addr:postcode": "500010", "addr:state": "Telangana", "amenity": "hospital", "contact:phone": "27862699", "name": "jubilee hospitals", "operator": "Private", "source": "OpenGovernmentData"}}, {"type": "node", "id": 6549328685, "lat": 17.4635323, "lon": 78.4562123, "tags": {"addr:district": "Hyderabad", "addr:full": "7-4-158/1, Near Hotel Samrat Complex, Madhavi Nagar, Ferozguda, Balanagar", "addr:postcode": "500011", "addr:state": "Telangana", "amenity": "hospital", "contact:phone": "4023777772", "name": "SREE ROYAL HOSPITAL", "name:te": "\u0c36\u0c4d\u0c30\u0c40 \u0c30\u0c3e\u0c2f\u0c32\u0c4d \u0c39\u0c3e\u0c38\u0c4d\u0c2a\u0c3f\u0c1f\u0c32\u0c4d", "operator:type": "private", "source": "OpenGovernmentData"}}, {"type": "node", "id": 6549331621, "lat": 17.4348665, "lon": 78.4551601}, {"type": "node", "id": 6549338256, "lat": 17.4997723, "lon": 78.477497, "tags": {"addr:district": "Hyderabad", "addr:full": "H.No. 2-181/2/C , Near Suchitra Circle, Alwal Road, Ramraj Nagar, Jeedimetla", "addr:postcode": "500067", "addr:state": "Telangana", "amenity": "hospital", "contact:phone": "040 44441111; +91 8886611108", "name": "RUSSH SUPER SPECIALITY HOSPITAL", "operator:type": "private", "source": "OpenGovernmentData", "website": "https://russhhospital.com/"}}, {"type": "node", "id": 6549358302, "lat": 17.4955297, "lon": 78.4541658, "tags": {"addr:city": "Hyderabad", "addr:full": "H.No: 6-172, SURDHARSHAN REDDY NAGAR , Opp. AKSHARA SCHOOL, CHINTAL", "addr:postcode": "500054", "addr:state": "Telangana", "amenity": "hospital", "contact:phone": "4064559694", "name": "NETRA EYE AND MULTI SPECIALITY HOSPITAL", "operator:type": "private", "source": "OpenGovernmentData"}}, {"type": "node", "id": 6549358836, "lat": 17.4392005, "lon": 78.4803766, "tags": {"addr:district": "Hyderabad", "addr:full": "1-8-32/62 & 1-8-32/62/1, Minister Road, Secunderabad", "addr:postcode": "500003", "addr:state": "Telangana", "amenity": "hospital", "contact:phone": "040 66023111; 040 66023113", "name": "SECUNDERABAD WOMENS HOSPITAL", "operator:type": "private", "source": "OpenGovernmentData"}}, {"type": "node", "id": 6549381430, "lat": 17.4566496, "lon": 78.4786342, "tags": {"addr:city": "Secunderabad", "addr:full": "H.No: 53, MALANI HOUSING COLONY, NEW NEW BOWENPALLY", "addr:postcode": "500009", "addr:state": "Telangana", "amenity": "hospital", "contact:phone": "27952288;27952244", "name": "SAI GURU RAGHAVENDRA ORTHOPEADIC & MULTISPECIALITY", "operator": "Private", "source": "OpenGovernmentData"}}, {"type": "node", "id": 6560362897, "lat": 17.4722792, "lon": 78.5170314, "tags": {"addr:district": "Hyderabad", "addr:full": "Military Hospital premises Trimulgherry", "addr:place": "Secunderabad", "addr:state": "Telangana", "amenity": "hospital", "name": "Military Hospital"}}, {"type": "node", "id": 6561171891, "lat": 17.4711388, "lon": 78.5078877, "tags": {"addr:district": "Hyderabad", "addr:full": "Rtc Colony, Trimulgherry", "addr:postcode": "500015", "addr:state": "Telangana", "amenity": "hospital", "name": "Vamshi Hospital - Trimulgherry", "source": "OpenGovernmentData"}}, {"type": "node", "id": 6561341420, "lat": 17.4963994, "lon": 78.4523928, "tags": {"addr:district": "Hyderabad", "addr:full": "H .No.: 6-15 & 116, Opp. Chintal Bus Stop, Chintal", "addr:postcode": "500054", "addr:state": "Telangana", "amenity": "hospital", "name": "Happy Children Hospital - Chintal", "source": "OpenGovernmentData"}}, {"type": "node", "id": 6562751438, "lat": 17.5051697, "lon": 78.5071749, "tags": {"addr:district": "Hyderabad", "addr:full": "House No. 1-7-39/B, Plot No. 9, Main Road, Temple Alwal, Secunderabad", "addr:postcode": "5000010", "addr:state": "Telangana", "amenity": "hospital", "contact:phone": "+91 9652100844", "name": "Life Spring Maternity Hospital", "source": "OpenGovernmentData", "website": "https://www.lifespring.in/"}}, {"type": "node", "id": 6598094227, "lat": 17.4365449, "lon": 78.4831135}, {"type": "node", "id": 6598094228, "lat": 17.4365296, "lon": 78.4830679}, {"type": "node", "id": 6598094229, "lat": 17.4365091, "lon": 78.482978}, {"type": "node", "id": 6598094230, "lat": 17.4364899, "lon": 78.4828694}, {"type": "node", "id": 6811749014, "lat": 17.468492, "lon": 78.4576658, "tags": {"addr:district": "Hyderabad", "addr:full": "Vinayak Nagar, Balanagar", "addr:postcode": "500042", "addr:state": "Telangana", "amenity": "hospital", "name": "Vijaylaxmi Maternity Hospital", "source": "OpenGovernmentData"}}, {"type": "node", "id": 6811749047, "lat": 17.4329564, "lon": 78.4461388, "tags": {"addr:district": "Hyderabad", "addr:full": "Shop No.2, Yaseen Complex, Opposite Chennai Shopping Mall, Ameerpet", "addr:state": "Telangana", "amenity": "hospital", "name": "Gutta Eye Clinic", "source": "OpenGovernmentData"}}, {"type": "node", "id": 6811749062, "lat": 17.492517, "lon": 78.451227, "tags": {"addr:district": "Hyderabad", "addr:full": "5-120/2, Opposite Sha SHAhensha Theatre, HMT Road, Chintal", "addr:state": "Telangana", "amenity": "hospital", "name": "Alavi Hospital", "source": "OpenGovernmentData"}}, {"type": "node", "id": 6811749070, "lat": 17.4277736, "lon": 78.4573355, "tags": {"addr:district": "Hyderabad", "addr:full": "H.No: 6-3-1106/1/A, Near HSBC BANK, Raj Bhavan Road, Somajiguda", "addr:state": "Telangana", "amenity": "hospital", "name": "ZOI Hospital", "operator:type": "Private", "source": "OpenGovernmentData"}}, {"type": "node", "id": 6811749084, "lat": 17.4958036, "lon": 78.4524391, "tags": {"addr:district": "Medchal Malkajgiri", "addr:full": "Jeedimetla Main Road, Sudershan Reddy Nagar, Quthbullapur, Opp Chintal Bus Stop", "addr:postcode": "500055", "addr:state": "Telangana", "amenity": "hospital", "contact:mobile": "9912186174", "name": "Harsha Dental Dantam Network Dental Hospitals", "source": "OpenGovernmentData", "website": "https://dantamclinics.com/"}}, {"type": "node", "id": 6811749114, "lat": 17.4452339, "lon": 78.4617537, "tags": {"addr:district": "Hyderabad", "addr:full": "1-11-240/2D, Shyamalal Building, Near Ganesh Temple,Begumpet", "addr:state": "Telangana", "amenity": "hospital", "name": "Sri Sai Rama Clinic", "source": "survey"}}, {"type": "node", "id": 6811749141, "lat": 17.4956577, "lon": 78.4532466, "tags": {"addr:district": "Medchal Malkajgiri", "addr:full": "Behind Chintal Bus Stop, Sudharshan Reddy Nagar, Qutubullapur, Dwarakapuri Colony", "addr:postcode": "500055", "addr:state": "Telangana", "amenity": "hospital", "name": "Raman Hospital", "source": "OpenGovernmentData"}}, {"type": "node", "id": 6811749152, "lat": 17.4642455, "lon": 78.4571122, "tags": {"addr:district": "Hyderabad", "addr:full": "7-4-194, Ferozguda, Balanagar", "addr:postcode": "500011", "addr:state": "Telangana", "amenity": "hospital", "email": "rmobbrhospital@gmail.com", "emergency": "yes", "healthcare": "hospital", "name": "\u0c2c\u0c3f\u0c2c\u0c3f\u0c06\u0c30\u0c4d \u0c38\u0c42\u0c2a\u0c30\u0c4d \u0c38\u0c4d\u0c2a\u0c46\u0c37\u0c32\u0c3f\u0c1f\u0c40 \u0c39\u0c3e\u0c38\u0c4d\u0c2a\u0c3f\u0c1f\u0c32\u0c4d", "name:en": "BBR Super Speciality Hospital", "name:te": "\u0c2c\u0c3f\u0c2c\u0c3f\u0c06\u0c30\u0c4d \u0c38\u0c42\u0c2a\u0c30\u0c4d \u0c38\u0c4d\u0c2a\u0c46\u0c37\u0c32\u0c3f\u0c1f\u0c40 \u0c39\u0c3e\u0c38\u0c4d\u0c2a\u0c3f\u0c1f\u0c32\u0c4d", "phone": "040-2377 9999", "source": "OpenGovernmentData", "website": "www.bbrhospitals.com"}}, {"type": "node", "id": 6868777710, "lat": 17.4274323, "lon": 78.5191123}, {"type": "node", "id": 6868777711, "lat": 17.4272453, "lon": 78.5190814}, {"type": "node", "id": 6868777712, "lat": 17.427219, "lon": 78.5192361}, {"type": "node", "id": 6868777713, "lat": 17.427429, "lon": 78.5192637}, {"type": "node", "id": 6935540196, "lat": 17.4787553, "lon": 78.4816433, "tags": {"addr:city": "SECUNDERABAD", "addr:street": "MALLIKARJUNA COLONY", "amenity": "hospital", "healthcare": "hospital", "name": "SHEKAR HOSPITAL"}}, {"type": "node", "id": 7088814385, "lat": 17.4334334, "lon": 78.4873111}, {"type": "node", "id": 7088814386, "lat": 17.4333386, "lon": 78.4872987}, {"type": "node", "id": 7088814387, "lat": 17.4332882, "lon": 78.48757}, {"type": "node", "id": 7088814388, "lat": 17.4334008, "lon": 78.4875845}, {"type": "node", "id": 7113646686, "lat": 17.4366221, "lon": 78.4457432, "tags": {"amenity": "hospital", "healthcare": "hospital", "name": "Shresta hospital", "name:en": "Sreshta hospital"}}, {"type": "node", "id": 7117631786, "lat": 17.510807, "lon": 78.4475672}, {"type": "node", "id": 7924598593, "lat": 17.4451454, "lon": 78.4508546}, {"type": "node", "id": 7924598594, "lat": 17.4457352, "lon": 78.4510182}, {"type": "node", "id": 7924598595, "lat": 17.4455535, "lon": 78.4514742}, {"type": "node", "id": 7924598596, "lat": 17.4455369, "lon": 78.4517679}, {"type": "node", "id": 7924598597, "lat": 17.4456134, "lon": 78.4521896}, {"type": "node", "id": 7924598598, "lat": 17.4455523, "lon": 78.4522705}, {"type": "node", "id": 7924598599, "lat": 17.4452621, "lon": 78.4523927}, {"type": "node", "id": 7924598600, "lat": 17.4436203, "lon": 78.453117}, {"type": "node", "id": 7924598601, "lat": 17.4436101, "lon": 78.4524947}, {"type": "node", "id": 7924598602, "lat": 17.443541, "lon": 78.4520414}, {"type": "node", "id": 7924598603, "lat": 17.4440656, "lon": 78.450526}, {"type": "node", "id": 8113834531, "lat": 17.4492625, "lon": 78.4473693, "tags": {"addr:city": "Hyderabad", "addr:postcode": "500018", "addr:street": "Sanathnagar", "amenity": "hospital", "healthcare": "hospital", "name": "Bharati Nursing Home"}}, {"type": "node", "id": 8151182017, "lat": 17.493969, "lon": 78.513036, "tags": {"addr:street": "Lothkunta", "amenity": "hospital", "name": "Sri sanjeevini", "name:en": "Sri sanjeevini multi speciality, sharadha dental clinic,sks eye care hospitals"}}, {"type": "node", "id": 8182514342, "lat": 17.5102596, "lon": 78.4476155}, {"type": "node", "id": 8182514343, "lat": 17.5112589, "lon": 78.446559}, {"type": "node", "id": 8182514344, "lat": 17.5101488, "lon": 78.4466824}, {"type": "node", "id": 8233048690, "lat": 17.4591866, "lon": 78.5007832, "tags": {"amenity": "hospital", "healthcare": "hospital"}}, {"type": "node", "id": 8233132093, "lat": 17.4376777, "lon": 78.5220997, "tags": {"amenity": "hospital", "healthcare": "hospital"}}, {"type": "node", "id": 8236632956, "lat": 17.4402772, "lon": 78.4975865, "tags": {"amenity": "hospital", "healthcare": "hospital"}}, {"type": "node", "id": 8497880585, "lat": 17.4456093, "lon": 78.4521671}, {"type": "node", "id": 8759169871, "lat": 17.4753103, "lon": 78.4857756, "tags": {"addr:district": "Hyderabad", "addr:full": "Hasmathpet, Bowenpally, Secunderabad", "addr:postcode": "500009", "addr:state": "Telangana", "amenity": "hospital", "name": "SKS Hospital", "source": "Local Knowledge"}}, {"type": "node", "id": 8759181367, "lat": 17.4416653, "lon": 78.4860599, "tags": {"addr:district": "Hyderabad", "addr:full": "Mashallah Building, Paradise Circle, PG Road, Secunderabad", "addr:postcode": "500003", "addr:state": "Telangana", "amenity": "hospital", "name": "Navodaya Hospital", "source": "Local Knowledge"}}, {"type": "node", "id": 8759273395, "lat": 17.4419494, "lon": 78.4899303, "tags": {"addr:district": "Hyderabad", "addr:full": "Oxford Street, Sarojini Devi Road 2nd Floor CVK Park Square, Krishna Complex, Kalasiguda, Secunderabad", "addr:postcode": "500003", "addr:state": "Telangana", "amenity": "hospital", "name": "Oasis Fertility Centre", "source": "Local Knowledge"}}, {"type": "node", "id": 8759287302, "lat": 17.4444622, "lon": 78.5048595, "tags": {"addr:district": "Hyderabad", "addr:full": "Nehru Nagar Colony, West Marredpally, Secunderabad", "addr:postcode": "500026", "addr:state": "Telangana", "amenity": "hospital", "name": "Basant Sahney Hospital", "source": "Local Knowledge"}}, {"type": "node", "id": 8759356830, "lat": 17.438752, "lon": 78.4505019, "tags": {"addr:district": "Hyderabad", "addr:full": "7-1-201/2, Above Food World Supermarket, Preeth Complex, Dharam Karam Road, Ameerpet, Hyderabad", "addr:postcode": "500016", "addr:state": "Telangana", "amenity": "hospital", "name": "Partha Dental Skin Hair Clinic", "source": "Local Knowledge"}}, {"type": "node", "id": 8759738256, "lat": 17.4401505, "lon": 78.4936257, "tags": {"addr:district": "Hyderabad", "addr:full": "127, 4/3, SD Road, Rani Gunj, Secunderabad", "addr:postcode": "500003", "addr:state": "Telangana", "amenity": "hospital", "name": "Madhava Nursing Home", "source": "Local Knowledge"}}, {"type": "node", "id": 8760787195, "lat": 17.4557195, "lon": 78.4992805, "tags": {"addr:district": "Medchal", "addr:full": "Vikrampuri Colony, Karkhana, Secunderabad", "addr:postcode": "500009", "addr:state": "Telangana", "amenity": "hospital", "name": "Rainbow Children's Medicare Pvt Ltd", "source": "Local Knowledge"}}, {"type": "node", "id": 8760933526, "lat": 17.444713, "lon": 78.4691593, "tags": {"addr:district": "Medchal", "addr:full": "1-11-254, 2nd Floor, Rama Mansion Besides Pace Hospital, Motilal Nehru Nagar, Begumpet, Hyderabad", "addr:postcode": "500016", "addr:state": "Telangana", "amenity": "hospital", "name": "Pathcare Labs Pvt Ltd", "source": "Local Knowledge"}}, {"type": "node", "id": 8760982633, "lat": 17.5057005, "lon": 78.4670243, "tags": {"addr:district": "Medchal", "addr:full": "Suchitra, Sri Krishna Nagar, Quthbullapur, Hyderabad", "addr:postcode": "500055", "addr:state": "Telangana", "amenity": "hospital", "name": "Srujana Hospitals", "source": "Local Knowledge"}}, {"type": "node", "id": 8763113701, "lat": 17.4957164, "lon": 78.4525108, "tags": {"addr:district": "Medchal", "addr:full": "Jeedimetla Main Road, Chinthal, Hyderabad", "addr:postcode": "500037", "addr:state": "Telangana", "amenity": "hospital", "name": "Tesla Diagnostics", "source": "Local Knowledge"}}, {"type": "node", "id": 8763411325, "lat": 17.5079988, "lon": 78.5022081, "tags": {"addr:district": "Medchal", "addr:full": "1-5-56/29,Plot No.29,Old Alwal,Near IG Statue, Secunderabad", "addr:postcode": "500010", "addr:state": "Telangana", "amenity": "hospital", "name": "Excel Hospitals", "source": "Local Knowledge"}}, {"type": "node", "id": 8941817855, "lat": 17.4475965, "lon": 78.5089418, "tags": {"addr:city": "East Marredpally", "addr:housenumber": "5A Ground Floor", "addr:postcode": "500026", "addr:street": "Main Rd", "amenity": "hospital", "description": "Senior Ayurvedic Doctor specializing in Gastric, Piles, Joint, Skin Complaints and other conditions.", "email": "office@ayurdoctor.in", "emergency": "no", "healthcare": "hospital", "healthcare:speciality": "ayurveda;Piles;general", "name": "Shakti Ayurvedic Clinic", "operator": "Dr Prashant Kumar", "operator:type": "private", "phone": "+91-9848574437", "website": "www.ayurdoctor.in"}}, {"type": "node", "id": 9355590863, "lat": 17.4801489, "lon": 78.5121788, "tags": {"amenity": "hospital", "healthcare": "hospital"}}, {"type": "node", "id": 9611895277, "lat": 17.438001, "lon": 78.4563763, "tags": {"amenity": "hospital", "emergency": "yes", "healthcare": "hospital"}}, {"type": "node", "id": 9903919151, "lat": 17.4287042, "lon": 78.5182344, "tags": {"amenity": "hospital", "healthcare": "hospital"}}, {"type": "node", "id": 10836251320, "lat": 17.4510364, "lon": 78.5341953}, {"type": "node", "id": 11001513668, "lat": 17.4265349, "lon": 78.5192979, "tags": {"addr:district": "Hyderabad", "addr:place": "Trt Quarters", "addr:state": "Telangana", "addr:street": "Seethaphalmandi", "addr:subdistrict": "Musheerabad", "amenity": "hospital", "healthcare": "hospital", "name": "Community Health Centre, Seethaphalmandi", "operational_status": "operational", "operator:type": "government", "source": "OpenDataTelangana"}}, {"type": "node", "id": 11001544010, "lat": 17.4504805, "lon": 78.5321201, "tags": {"addr:district": "Medchal Malkajgiri", "addr:place": "Geetha Nagar Malkajgiri", "addr:state": "Telangana", "addr:street": "Geetha Nagar Malkajgiri", "addr:subdistrict": "Malkajgiri", "amenity": "hospital", "healthcare": "hospital", "name": "AREA HOSPITAL MALKAJGIRI", "operational_status": "operational", "operator:type": "government", "source": "OpenDataTelangana"}}, {"type": "node", "id": 11027534552, "lat": 17.4317717, "lon": 78.4455728, "tags": {"amenity": "hospital", "healthcare": "hospital", "name": "Shishira hospitals"}}, {"type": "node", "id": 11027534563, "lat": 17.4314966, "lon": 78.4473474, "tags": {"amenity": "hospital", "healthcare": "hospital", "name": "Image Hospital"}}, {"type": "node", "id": 11027534564, "lat": 17.4302495, "lon": 78.4487075, "tags": {"amenity": "hospital", "healthcare": "hospital", "name": "Medkid children's hospital"}}, {"type": "node", "id": 12030609760, "lat": 17.4376477, "lon": 78.4822763}, {"type": "node", "id": 12045260398, "lat": 17.4452469, "lon": 78.4508943}, {"type": "node", "id": 12669348711, "lat": 17.4865279, "lon": 78.4497546, "tags": {"addr:city": "Hyderabad", "addr:district": "hyderabad", "addr:postcode": "500054", "addr:street": "Sumithra Nagar, Gudement Nagar, IDPL Colony, Balanagar", "amenity": "hospital", "contact:facebook": "https://www.facebook.com/revivemultispecialityhospital", "email": "revivehospitalhyd@gmail.com", "emergency": "yes", "healthcare": "hospital", "healthcare:speciality": "orthopaedics;gynaecology;general;paediatrics;dermatology;otolaryngology;surgery;neurology;emergency;gastroenterology", "internet_access": "yes", "name": "Revive Multispeciality Hospital", "opening_hours": "24/7", "source": "local knowledge;gps", "wheelchair": "yes"}}, {"type": "node", "id": 12945304833, "lat": 17.4309281, "lon": 78.4558679}, {"type": "node", "id": 12945304834, "lat": 17.4311093, "lon": 78.4550989}, {"type": "node", "id": 12945304835, "lat": 17.4314851, "lon": 78.4551908}, {"type": "node", "id": 12945304836, "lat": 17.4314969, "lon": 78.4560034}, {"type": "node", "id": 13152123729, "lat": 17.4504161, "lon": 78.503069}, {"type": "node", "id": 13152123730, "lat": 17.4503955, "lon": 78.5030634}, {"type": "node", "id": 13152123731, "lat": 17.4503922, "lon": 78.5031109}, {"type": "node", "id": 13152123732, "lat": 17.4504153, "lon": 78.5031148}, {"type": "node", "id": 13152123733, "lat": 17.450419, "lon": 78.5030919}, {"type": "way", "id": 252285892, "nodes": [2583734761, 2583734762, 2583734763, 2583734764, 2583734773, 2583734772, 2583734761], "tags": {"amenity": "hospital", "emergency": "yes"}}, {"type": "way", "id": 274482470, "nodes": [3182218374, 2791962095, 2791962088, 12030609760, 3681791850, 2791962080, 2791962082, 2791962076, 6442939706, 3182222862, 2791962060, 2791962057, 6598094227, 6598094228, 6598094229, 6598094230, 3182207744, 3182218374], "tags": {"addr:district": "Hyderabad", "addr:full": "1-8-31/1, Minister Rd, Krishna Nagar Colony, Begumpet, Secunderabad", "addr:postcode": "500003", "addr:state": "Telangana", "addr:street": "Minister Road", "alt_name": "Krishna Institute Of Medical Sciences", "amenity": "hospital", "email": "assistance@kimshospitals.com", "emergency_telephone_code": "9849990401", "health_facility:type": "24 hours Ambulance service;Round the clock pharmacy;Diagnostic centreCritical and Intensive Care;Epilepsy Clinic;Fertility CentreHair TransplantObesity ClinicPalliative CareProstatic ClinicRehabilitation CentreStroke ClinicWellness Clinic", "healthcare": "hospital", "healthcare:speciality": "multi specialty", "medical_system": "Allopathic", "name": "KIMS Hospital", "operator:type": "private", "phone": "040 44885000;040 44885184", "source": "OpenGovernmentData", "website": "www.kimshospitals.com"}}, {"type": "way", "id": 355979902, "nodes": [3614774696, 3614774908, 3614774894, 3614774839, 3614774844, 3614774687, 3614774696], "tags": {"addr:district": "Hyderabad", "addr:full": "Manovikas Nagar, Secunderabad, Near Delhi Public School", "addr:postcode": "500009", "addr:state": "Telangana", "addr:subdistrict": "Secunderabad", "amenity": "hospital", "building": "yes", "contact:phone": "04027753385", "health_facility:type": "Others", "healthcare": "centre", "name": "Southern Regional Centre of Ali Yavar Jung National Institute for the Hearing Handicapped (AYJNIHH)", "source": "OpenGovernmentData"}}, {"type": "way", "id": 356248376, "nodes": [3617224234, 10836251320, 3617224045, 3617224055, 3617224234], "tags": {"amenity": "hospital", "healthcare": "hospital", "name": "Govt hospital"}}, {"type": "way", "id": 356249092, "nodes": [3617223525, 3617223522, 3617223289, 3617223292, 3617223525], "tags": {"addr:city": "Hyderabad", "addr:housenumber": "5-12", "addr:postcode": "500047", "addr:street": "Geetha nagar Malkajgiri", "amenity": "hospital", "building:levels": "1", "description": "Premium dental & orofacial clinic", "emergency": "yes", "healthcare": "hospital", "healthcare:speciality": "dentistry;emergency", "image": "https://www.ctomatodont.com/wp-content/uploads/2017/03/cropped-logo-transparent-192x192.png", "name": "Ctomatodont Dental Care", "operator": "Ctomatodont", "operator:type": "private", "website": "https://www.ctomatodont.com/"}}, {"type": "way", "id": 356270074, "nodes": [3617354733, 3617354736, 3617354716, 3617354714, 3617354733], "tags": {"addr:city": "Somajiguda", "addr:district": "Hyderabad", "addr:full": "06-6-903/A and B, Somajiguda", "addr:housenumber": "903/A & B", "addr:postcode": "500082", "addr:state": "Telangana", "addr:street": "durga nagar road", "amenity": "hospital", "building": "yes", "building:levels": "5", "contact:facebook": "https://www.facebook.com/AsvinsSpecialtyHospitals/", "emergency": "yes", "emergency_telephone_code": "9440445775", "health_facility:type": "Accommodation;Patient Rooms;Pharmacy;Dialysis;ICU", "healthcare": "hospital", "healthcare:speciality": "oncology;emergency;paediatric_surgery;multispeciality", "medical_system": "Allopathic", "name": "ASVINS Specialty Cancer Hospital", "name:te": "\u0c05\u0c38\u0c4d\u0c35\u0c3f\u0c28\u0c4d \u0c38\u0c4d\u0c2a\u0c46\u0c37\u0c3e\u0c32\u0c3f\u0c1f\u0c40 \u0c15\u0c4d\u0c2f\u0c3e\u0c28\u0c4d\u0c38\u0c30\u0c4d \u0c39\u0c3e\u0c38\u0c4d\u0c2a\u0c3f\u0c1f\u0c32\u0c4d", "operator": "Amaravati Medicare Private Limited", "operator:type": "private", "phone": "040 23323344", "source": "OpenGovernmentData", "website": "https://www.asvinshospitals.com/"}}, {"type": "way", "id": 356439747, "nodes": [3618963919, 3618963914, 6185287784, 3618963151, 3618963164, 3618963919], "tags": {"addr:district": "Hyderabad", "addr:full": "Alexander Road", "addr:postcode": "500003", "addr:state": "Telangana", "amenity": "hospital", "fax": "040 27703999", "health_facility:type": "Surgical Suites;Trauma Center;Intensive Care Units;Surgical Observation Unit;Rehabilitation Services Department", "healthcare": "hospital", "healthcare:speciality": "multi specialty", "medical_system": "Allopathic", "name": "Yashoda Super Speciality Hospital - secunderabad", "operator:type": "private", "phone": "040 45674567", "source": "OpenGovernmentData", "website": "https://www.yashodahospitals.com/"}}, {"type": "way", "id": 356464777, "nodes": [3619076761, 3619076751, 3619076683, 3619076696, 3619076761], "tags": {"addr:district": "Hyderabad", "addr:full": "Lane Number 23, Behind Axis Bank, Sanjeev Reddy Nagar", "addr:state": "Telangana", "amenity": "hospital", "emergency": "yes", "fax": "040 40101361", "health_facility:type": "Neonatal Intensive Care Unit, Pediatric Intensive Care, Pediatric Surgery, Pediatric Specialities", "healthcare": "hospital", "healthcare:speciality": "Pediatrics", "medical_system": "Allopathic", "name": "Sowmya Children's Hospital", "operator:type": "private", "phone": "040 44253545", "source": "OpenGovernmentData", "website": "http://www.sowmyachildrenshospital.com"}}, {"type": "way", "id": 356534891, "nodes": [3619471995, 3619471999, 6549331621, 3619471876, 3619471995], "tags": {"addr:district": "Hyderabad", "addr:full": "6-3-868/2, GREENLANDS, NEXT TO TELENGANA TOURISM PLAZA, BEGUMPET", "addr:postcode": "500016", "addr:state": "Telangana", "amenity": "hospital", "building": "yes", "check_date": "2025-01-07", "contact:phone": "4023408888", "name": "WIN VISION EYE HOSPITAL", "operator:type": "private", "source": "OpenGovernmentData"}}, {"type": "way", "id": 356548444, "nodes": [3619550068, 3619550003, 3619549990, 3619550048, 3619550068], "tags": {"addr:city": "Hyderabad", "addr:full": "St. Johns Road, Opposite Railway Reservation Counter Lane, Beside Ramakrishna Hotel, Railway Colony, Chilakalguda, Secunderabad", "addr:postcode": "500025", "addr:state": "Telangana", "addr:street": "Station Road", "addr:unit": "1", "amenity": "hospital", "building": "yes", "building:levels": "3", "contact:phone": "040 27833388 ; 040 46460000", "healthcare": "hospital", "name": "SRIKARA HOSPITALS", "operator:type": "private", "source": "OpenGovernmentData", "website": "https://www.srikarahospitals.com/"}}, {"type": "way", "id": 357101267, "nodes": [3624692314, 3624692313, 3624692298, 3624692297, 3624692073, 3624692074, 3624692083, 3624692084, 3624692091, 3624692092, 3624692314], "tags": {"addr:district": "Hyderabad", "addr:full": "Penderghast Road, Opposite Parsi Dharamsala, Behind Paradise Hotel, Secunderabad", "addr:postcode": "500003", "addr:state": "Telangana", "amenity": "hospital", "building": "yes", "emergency_telephone_code": "8008102102", "fax": "040 27890091", "healthcare": "hospital", "healthcare:speciality": "Anesthesiology;Cardiac Anesthesia;Cardiology;Interventional Cardiology;Pediatric;Cardiothoracic;Surgery", "medical_system": "Allopathic", "name": "Sunshine Heart Institute", "operator:type": "private", "phone": "040 43444555;040 43444555", "source": "OpenGovernmentData", "website": "http://www.sunshineheartinstitute.com"}}, {"type": "way", "id": 357101676, "nodes": [3624691538, 3624691563, 3624691532, 3624691519, 3624691538], "tags": {"amenity": "hospital", "building": "hospital", "name": "Sunshine Hospitals Out Patient Care"}}, {"type": "way", "id": 360984466, "nodes": [3655193114, 3655193099, 3655193068, 3655193075, 3655193114], "tags": {"amenity": "hospital", "healthcare": "hospital", "name": "Healing touch hospital", "name:te": "\u0c39\u0c40\u0c32\u0c3f\u0c02\u0c17\u0c4d \u0c1f\u0c1a\u0c4d \u0c39\u0c3e\u0c38\u0c4d\u0c2a\u0c3f\u0c1f\u0c32\u0c4d"}}, {"type": "way", "id": 361374554, "nodes": [3658594220, 3658594206, 3658594202, 3658594189, 3658594191, 3658594220], "tags": {"amenity": "hospital", "emergency": "yes", "healthcare": "hospital", "name": "Shenoy Hospital", "operator": "Shenoy Multi-Speciality Hospitals", "operator:type": "private"}}, {"type": "way", "id": 361655217, "nodes": [3661096839, 4614088294, 3661096857, 3661096858, 3661096855, 3661096856, 3661096853, 3661096854, 3661096852, 4614088292, 3661096850, 3661096847, 4614088291, 4614088293, 3661096845, 4614088290, 3661096840, 3661096838, 3661096839], "tags": {"addr:district": "Hyderabad", "addr:full": "Penderghast Road, Opposite Parsi Dharamsala, Behind Paradise Hotel, Sappu Bagh Apaprtment, Jogani, Ramgopalpet", "addr:postcode": "500003", "addr:state": "Telangana", "amenity": "hospital", "building": "yes", "emergency_telephone_code": "8008108108", "health_facility:type": "Trauma Care and Emergency Services;Bariatric Surgery;Biochemistry;Blood Bank", "healthcare": "hospital", "healthcare:speciality": "multi speciality", "medical_system": "Allopathic", "name": "Sunshine Hospital", "operator:type": "private", "phone": "040 44550000", "source": "OpenGovernmentData", "website": "www.sunshinehospitals.com", "wikidata": "Q52843705"}}, {"type": "way", "id": 413246550, "nodes": [4146007203, 4146007201, 4146007084, 4146007191, 4146007203], "tags": {"addr:district": "Hyderabad", "addr:full": "8-2-186, Near Passport Office, Secunderabad", "addr:postcode": "500003", "addr:state": "Telangana", "amenity": "hospital", "building": "yes", "fax": "040-66262388; 040-27131920", "health_facility:type": "AMCU Units;Medical Equipments;Operation Theaters;Emergency and CriticalCare;Ortho and Trauma Care;Maternity Unit;Ambulance;Pharmacy", "healthcare": "hospital", "healthcare:speciality": "multi speciality", "medical_system": "Allopathic", "name": "Vijaya Health Care", "operator:type": "private", "phone": "040 67362929;040 66262927", "source": "OpenGovernmentData", "website": "http://www.vijayahealthcare.com"}}, {"type": "way", "id": 413292045, "nodes": [4146349129, 4146349145, 4146349142, 4146349146, 4146349144, 4146349126, 4146349129], "tags": {"addr:city": "Secunderabad", "addr:district": "Hyderabad", "addr:postcode": "500003", "addr:street": "Pollicetty Towers, St Johns Rd, Regimental Bazaar, Shivaji Nagar", "amenity": "hospital", "emergency": "yes", "healthcare": "hospital", "healthcare:speciality": "general", "name": "Apollo Hospitals", "operator": "Apollo Hospitals", "operator:type": "private", "operator:wikidata": "Q4780321", "phone": "+91-040-69071299", "website": "https://www.apollohospitals.com/hyderabad/our-centres/secunderabad/"}}, {"type": "way", "id": 413311009, "nodes": [4146479976, 4146479975, 4146479964, 4146479965, 4146479976], "tags": {"addr:district": "Hyderabad", "addr:full": "Near Clock Tower, Market Street, Secunderabad", "addr:postcode": "500003", "addr:state": "Telangana", "amenity": "hospital", "email": "info@carehospitals.com", "healthcare": "hospital", "name": "Care Hospitals - Secunderabad", "name:te": "\u0c15\u0c47\u0c30\u0c4d \u0c39\u0c3e\u0c38\u0c4d\u0c2a\u0c3f\u0c1f\u0c32\u0c4d", "phone": "040-30114500", "source": "OpenGovernmentData", "website": "https://www.carehospitals.com"}}, {"type": "way", "id": 413327528, "nodes": [4146661496, 4146661498, 4146661497, 4146661495, 4146661496], "tags": {"addr:city": "Secunderabad", "addr:district": "Hyderabad", "addr:housenumber": "9", "addr:postcode": "500003", "addr:street": "Sarojini Devi Rd, Regimental Bazaar, Shivaji Nagar", "amenity": "hospital", "emergency": "yes", "healthcare": "hospital", "healthcare:speciality": "orthopaedics;cardiology;neurology;urology;vascular_surgery;general", "image": "https://images-ik.practo.com/tr:w-500,q-auto,f-auto,pr-true,dpr-auto/practices/1154496/medicover-hospitals-hyderabad-68d3dac007d61.png", "name": "Medicover Hospitals Secunderabad", "note": "Previously known as Sangeet Theater", "operator": "Medicover AB", "operator:type": "private", "phone": "+91-040-68334455", "website": "https://www.medicoverhospitals.in/hospitals/telangana/secunderabad/", "wheelchair": "yes"}}, {"type": "way", "id": 733458157, "nodes": [6868777710, 6868777711, 6868777712, 6868777713, 6868777710], "tags": {"amenity": "hospital", "healthcare": "hospital"}}, {"type": "way", "id": 758967948, "nodes": [7088814385, 7088814386, 7088814387, 7088814388, 7088814385], "tags": {"amenity": "hospital", "healthcare": "hospital"}}, {"type": "way", "id": 849385520, "nodes": [7924598603, 3624906091, 7924598602, 7924598601, 7924598600, 4556707787, 7924598599, 7924598598, 3908287701, 7924598597, 8497880585, 7924598596, 7924598595, 7924598594, 12045260398, 7924598593, 343312950, 7924598603], "tags": {"addr:city": "Hyderabad", "addr:country": "IN", "addr:district": "Hyderabad", "addr:place": "Ameerpet", "addr:postcode": "500016", "addr:state": "Telangana", "addr:street": "Nature Cure Hospital Road", "amenity": "hospital", "description": "Nature cure methods", "emergency": "yes", "healthcare": "alternative", "healthcare:speciality": "general;traditional_ayurvedic_medicine", "name": "\u0c2a\u0c4d\u0c30\u0c15\u0c43\u0c24\u0c3f \u0c1a\u0c3f\u0c15\u0c3f\u0c24\u0c4d\u0c38\u0c3e\u0c32\u0c2f\u0c2e\u0c41", "name:en": "Nature Cure Hospital", "name:te": "\u0c2a\u0c4d\u0c30\u0c15\u0c43\u0c24\u0c3f \u0c1a\u0c3f\u0c15\u0c3f\u0c24\u0c4d\u0c38\u0c3e\u0c32\u0c2f\u0c2e\u0c41", "operator": "Telangana Government"}}, {"type": "way", "id": 879583475, "nodes": [8182514344, 8182514343, 7117631786, 8182514342, 8182514344], "tags": {"amenity": "hospital", "name": "ESI Hospital"}}, {"type": "way", "id": 1408647364, "nodes": [12945304833, 12945304834, 12945304835, 12945304836, 12945304833], "tags": {"amenity": "hospital", "healthcare": "hospital", "name": "Vivekananda Hospital"}}, {"type": "way", "id": 1430785676, "nodes": [13152123729, 13152123730, 13152123731, 13152123732, 13152123733, 13152123729], "tags": {"addr:city": "Hyderabad", "addr:district": "Hyderabad", "addr:housenumber": "plot no 28", "addr:postcode": "500026", "addr:street": "shriraghava garden rd near punjab nation bank west marredpally secunderabad", "amenity": "hospital", "healthcare": "hospital", "healthcare:speciality": "paediatrics;diabetology;diagnostics;general;vaccination;blood_check;pathology;vascular_surgery", "name": "Pulse Clinics and Diagnostics", "operator": "owner", "operator:type": "business"}}]}