{"version": 0.6, "generator": "Overpass API 0.7.62.8 e802775f", "osm3s": {"timestamp_osm_base": "2026-01-15T15:12:51Z", "copyright": "The data included in this document is from www.openstreetmap.org. The data is made available under ODbL."}, "elements": [{"type": "node", "id": 996487545, "lat": 51.3948319, "lon": 5.4920984}, {"type": "node", "id": 996500053, "lat": 51.3952642, "lon": 5.492222}, {"type": "node", "id": 1280214700, "lat": 51.3953766, "lon": 5.4918637, "tags": {"addr:city": "Waalre", "addr:housenumber": "1", "addr:postcode": "5583XG", "addr:street": "Maximiliaanlaan", "amenity": "school", "email": "infochristoffelschool@skozok.nl", "isced:level": "0;1", "name": "Christoffelschool", "operator": "SKOzoK", "operator:website": "https://www.skozok.nl/", "operator:wikidata": "Q121770112", "phone": "+31 40 221 3498", "school": "primary", "source": "BAG", "source:date": "2014-06-23", "website": "https://www.christoffelwaalre.nl/", "wikidata": "Q22754107"}}, {"type": "node", "id": 1844599339, "lat": 51.3958232, "lon": 5.4919815, "tags": {"addr:city": "Waalre", "addr:housenumber": "1", "addr:postcode": "5583XG", "addr:street": "Maximiliaanlaan", "amenity": "school", "email": "directie@obsekenrooi.nl", "isced:level": "0;1", "name": "Ekenrooi", "official_name": "Openbare Basisschool Ekenrooi", "operator": "RBOB De Kempen", "operator:website": "https://rbobdekempen.nl/", "operator:wikidata": "Q121782390", "phone": "+31 40 221 3644", "school": "primary", "website": "https://obsekenrooi.nl/", "wikidata": "Q22754539"}}, {"type": "node", "id": 2738008865, "lat": 51.4163739, "lon": 5.4804889, "tags": {"addr:city": "Eindhoven", "addr:housenumber": "1A", "addr:postcode": "5644RX", "addr:street": "Antoon Coolenlaan", "amenity": "school", "name": "Opleidingscentrum Brabant Water", "office": "company", "operator": "Brabant Water", "operator:wikidata": "Q2458134", "phone": "+31 73 683 8000", "source": "BAG", "source:date": "2014-02-11", "website": "https://www.brabantwater.nl/"}}, {"type": "node", "id": 2739435218, "lat": 51.4211441, "lon": 5.4897226}, {"type": "node", "id": 2739435672, "lat": 51.4214504, "lon": 5.4909815}, {"type": "node", "id": 2739435680, "lat": 51.4214694, "lon": 5.4907362}, {"type": "node", "id": 2739435683, "lat": 51.421526, "lon": 5.4900254}, {"type": "node", "id": 2739435685, "lat": 51.4215434, "lon": 5.4898029}, {"type": "node", "id": 2742800400, "lat": 51.4225443, "lon": 5.503353, "tags": {"addr:city": "Eindhoven", "addr:housenumber": "21", "addr:postcode": "5643MR", "addr:street": "Rector Baptistlaan", "amenity": "school", "name": "Global College Eindhoven", "source": "BAG", "source:date": "2014-03-24", "website": "https://www.globalcollege.nl"}}, {"type": "node", "id": 9031055321, "lat": 51.4214436, "lon": 5.49108}, {"type": "node", "id": 9031055322, "lat": 51.4207992, "lon": 5.4909625}, {"type": "node", "id": 9031055323, "lat": 51.4208981, "lon": 5.489669}, {"type": "node", "id": 9909991413, "lat": 51.416594, "lon": 5.4902921}, {"type": "node", "id": 9909991414, "lat": 51.4165878, "lon": 5.4903585}, {"type": "node", "id": 9909991415, "lat": 51.4168102, "lon": 5.4904168}, {"type": "node", "id": 9909991416, "lat": 51.4167291, "lon": 5.4914656}, {"type": "node", "id": 9910011217, "lat": 51.4161917, "lon": 5.4913677}, {"type": "node", "id": 9910011218, "lat": 51.4161416, "lon": 5.4912979}, {"type": "node", "id": 9910011219, "lat": 51.4162344, "lon": 5.490219}, {"type": "node", "id": 10572938812, "lat": 51.4196316, "lon": 5.4597855}, {"type": "node", "id": 10572938813, "lat": 51.4194341, "lon": 5.4606889}, {"type": "node", "id": 10572938814, "lat": 51.4189192, "lon": 5.4604155}, {"type": "node", "id": 10572938815, "lat": 51.4189851, "lon": 5.4600936}, {"type": "node", "id": 10572938816, "lat": 51.4191319, "lon": 5.4594064}, {"type": "node", "id": 11138715388, "lat": 51.3949881, "lon": 5.49158}, {"type": "node", "id": 11138715389, "lat": 51.3953589, "lon": 5.4915539}, {"type": "node", "id": 11138715390, "lat": 51.3954088, "lon": 5.4914281}, {"type": "node", "id": 11138715391, "lat": 51.3959752, "lon": 5.4913971}, {"type": "node", "id": 11138715392, "lat": 51.3959884, "lon": 5.491691}, {"type": "node", "id": 11138715393, "lat": 51.3961545, "lon": 5.4918118}, {"type": "node", "id": 11138715394, "lat": 51.3959796, "lon": 5.4923714}, {"type": "node", "id": 11138786254, "lat": 51.3961284, "lon": 5.4704882}, {"type": "node", "id": 11138786255, "lat": 51.3960611, "lon": 5.4704604}, {"type": "node", "id": 11138786256, "lat": 51.3958982, "lon": 5.4700334}, {"type": "node", "id": 11138786257, "lat": 51.3957186, "lon": 5.4701982}, {"type": "node", "id": 11138786258, "lat": 51.3962059, "lon": 5.4714049}, {"type": "node", "id": 11138786259, "lat": 51.3963992, "lon": 5.4711833}, {"type": "node", "id": 11142392756, "lat": 51.4177395, "lon": 5.5090881}, {"type": "node", "id": 11142392757, "lat": 51.4177671, "lon": 5.5094122}, {"type": "node", "id": 11142392758, "lat": 51.4177587, "lon": 5.5095611}, {"type": "node", "id": 11142392759, "lat": 51.4177796, "lon": 5.5098353}, {"type": "node", "id": 11142392760, "lat": 51.4178302, "lon": 5.5099131}, {"type": "node", "id": 11142392761, "lat": 51.4178377, "lon": 5.5100171}, {"type": "node", "id": 11142392762, "lat": 51.4173443, "lon": 5.5101398}, {"type": "node", "id": 11142392763, "lat": 51.4172389, "lon": 5.5088952}, {"type": "node", "id": 11142392764, "lat": 51.4172473, "lon": 5.508863}, {"type": "node", "id": 11142392765, "lat": 51.4174668, "lon": 5.5085294}, {"type": "node", "id": 11147145274, "lat": 51.4218508, "lon": 5.4959091}, {"type": "node", "id": 11147145275, "lat": 51.4220597, "lon": 5.4964454}, {"type": "node", "id": 11147145276, "lat": 51.4218645, "lon": 5.4966358}, {"type": "node", "id": 11147145277, "lat": 51.4217258, "lon": 5.496807}, {"type": "node", "id": 11147145278, "lat": 51.4217093, "lon": 5.4968143}, {"type": "node", "id": 11147145279, "lat": 51.4216933, "lon": 5.4968088}, {"type": "node", "id": 11147145280, "lat": 51.4215061, "lon": 5.4964894}, {"type": "node", "id": 11147145281, "lat": 51.4214901, "lon": 5.4964509}, {"type": "node", "id": 11147145282, "lat": 51.4214798, "lon": 5.4964143}, {"type": "node", "id": 11147145283, "lat": 51.4214422, "lon": 5.4960299}, {"type": "node", "id": 11392421106, "lat": 51.420359, "lon": 5.5042312}, {"type": "node", "id": 11392421107, "lat": 51.4204889, "lon": 5.5044075}, {"type": "node", "id": 11392421108, "lat": 51.4209443, "lon": 5.5046222}, {"type": "node", "id": 11392421109, "lat": 51.4210596, "lon": 5.504002}, {"type": "node", "id": 11392421110, "lat": 51.4211191, "lon": 5.5039123}, {"type": "node", "id": 11392421111, "lat": 51.4208449, "lon": 5.5034453}, {"type": "node", "id": 12609366113, "lat": 51.4204387, "lon": 5.504059}, {"type": "way", "id": 975885021, "nodes": [2739435685, 2739435683, 2739435680, 2739435672, 9031055321, 9031055322, 9031055323, 2739435218, 2739435685], "tags": {"addr:city": "Eindhoven", "addr:housenumber": "9", "addr:postcode": "5644PK", "addr:street": "Seringenstraat", "amenity": "school", "email": "talisman@skpo.nl", "isced:level": "0;1", "name": "De Talisman", "official_name": "Basisschool de Talisman", "operator": "SKPO", "operator:website": "https://www.skpo.nl/", "operator:wikidata": "Q121792961", "phone": "+31 40 211 2316", "school": "primary", "website": "https://bsdetalisman.nl/", "wikidata": "Q22754200"}}, {"type": "way", "id": 1081207899, "nodes": [9910011219, 9910011218, 9910011217, 9909991416, 9909991415, 9909991414, 9909991413, 9910011219], "tags": {"addr:city": "Eindhoven", "addr:housenumber": "264", "addr:postcode": "5644BN", "addr:street": "Floralaan West", "amenity": "school", "email": "info@bs-floralaan.nl", "isced:level": "0;1", "name": "Floralaan", "official_name": "SALTO-school Floralaan", "operator": "SALTO", "operator:website": "https://www.salto-eindhoven.nl/", "operator:wikidata": "Q121792966", "phone": "+31 40 211 2112", "school": "primary", "website": "https://www.bs-floralaan.nl/", "wikidata": "Q22754432"}}, {"type": "way", "id": 1134065629, "nodes": [10572938812, 10572938813, 10572938814, 10572938815, 10572938816, 10572938812], "tags": {"addr:city": "Eindhoven", "addr:housenumber": "135", "addr:postcode": "5654DD", "addr:street": "Bennekelstraat", "amenity": "school", "email": "kameleon@skpo.nl", "isced:level": "0;1", "name": "De Kameleon", "official_name": "Basisschool de Kameleon", "operator": "SKPO", "operator:website": "https://www.skpo.nl/", "operator:wikidata": "Q121792961", "phone": "+31 40 251 9520", "school": "primary", "website": "https://spilcentrumdebennekel.nl/", "wikidata": "Q22754198"}}, {"type": "way", "id": 1201408553, "nodes": [11138715394, 11138715393, 11138715392, 11138715391, 11138715390, 11138715389, 11138715388, 996487545, 996500053, 11138715394], "tags": {"amenity": "school", "name": "Brede School Aalst"}}, {"type": "way", "id": 1201416338, "nodes": [11138786259, 11138786258, 11138786257, 11138786256, 11138786255, 11138786254, 11138786259], "tags": {"addr:city": "Waalre", "addr:housenumber": "5", "addr:postcode": "5582JJ", "addr:street": "Willem Smuldersplein", "amenity": "school", "email": "infodedrijfveer@skozok.nl", "isced:level": "0;1", "name": "De Drijfveer", "official_name": "Basisschool De Drijfveer", "operator": "SKOzoK", "operator:website": "https://www.skozok.nl/", "operator:wikidata": "Q121770112", "phone": "+31 40 223 3020", "school": "primary", "website": "https://www.dedrijfveer-waalre.nl/", "wikidata": "Q22754086"}}, {"type": "way", "id": 1201807132, "nodes": [11142392765, 11142392764, 11142392763, 11142392762, 11142392761, 11142392760, 11142392759, 11142392758, 11142392757, 11142392756, 11142392765], "tags": {"addr:city": "Eindhoven", "addr:housenumber": "1", "addr:postcode": "5646JD", "addr:street": "Kanunnikensven", "amenity": "school", "email": "info-reisvanbrandaan@skpo.nl", "isced:level": "0;1", "name": "De Reis van Brandaan", "operator": "SKPO", "operator:website": "https://www.skpo.nl/", "operator:wikidata": "Q121792961", "phone": "+31 40 211 1822", "school": "primary", "website": "https://www.dereisvanbrandaan.nl/"}}, {"type": "way", "id": 1202431908, "nodes": [11147145283, 11147145282, 11147145281, 11147145280, 11147145279, 11147145278, 11147145277, 11147145276, 11147145275, 11147145274, 11147145283], "tags": {"addr:city": "Eindhoven", "addr:housenumber": "1", "addr:postcode": "5643CJ", "addr:street": "Mimosaplein", "amenity": "school", "email": "info@vbs-deregenboog.nl", "isced:level": "0;1", "name": "De Regenboog", "official_name": "Vrije Basisschool De Regenboog", "pedagogy": "waldorf", "philosophy": "anthroposophy", "phone": "+31 40 211 0648", "school": "primary", "website": "https://www.vbs-deregenboog.nl/", "wikidata": "Q22754036"}}, {"type": "way", "id": 1228473263, "nodes": [11392421110, 11392421109, 11392421108, 11392421107, 11392421106, 12609366113, 11392421111, 11392421110], "tags": {"addr:city": "Eindhoven", "addr:housenumber": "347", "addr:postcode": "5643KG", "addr:street": "Heezerweg", "amenity": "school", "isced:level": "0;1", "name": "De Zevensprong", "official_name": "Openbare Basisschool De Zevensprong", "school": "primary"}}]}