{"version": 0.6, "generator": "Overpass API 0.7.62.8 e802775f", "osm3s": {"timestamp_osm_base": "2026-01-12T18:33:06Z", "copyright": "The data included in this document is from www.openstreetmap.org. The data is made available under ODbL."}, "elements": [{"type": "node", "id": 267214379, "lat": 12.9134182, "lon": 77.6774852, "tags": {"amenity": "hospital", "healthcare": "hospital", "name": "Clinic"}}, {"type": "node", "id": 307401529, "lat": 12.9263714, "lon": 77.6765455, "tags": {"addr:city": "Belandur, Bangalore", "addr:full": "74/1, Bellandur, Ring Road, Varthur", "addr:housenumber": "74/1", "addr:postcode": "560037", "addr:state": "Karnataka", "addr:street": "Outer Ring Road", "amenity": "hospital", "email": "whitefield@theapolloclinic.com", "healthcare": "hospital", "name": "Apollo Hospital", "name:kn": "\u0c85\u0caa\u0cca\u0cb2\u0ccb \u0c86\u0cb8\u0ccd\u0caa\u0ca4\u0ccd\u0cb0\u0cc6", "phone": "+91-80-40222555", "website": "http://www.apolloclinicbangalore.com/", "wheelchair": "yes"}}, {"type": "node", "id": 308866071, "lat": 12.9155759, "lon": 77.6349897, "tags": {"addr:street": "Outer Ring Road", "amenity": "hospital", "name": "Narayana Hrudayalaya Dental Clinic", "name:kn": "\u0ca8\u0cbe\u0cb0\u0cbe\u0caf\u0ca3 \u0cb9\u0cc3\u0ca6\u0caf\u0cbe\u0cb2\u0caf \u0ca6\u0c82\u0ca4 \u0c86\u0cb8\u0ccd\u0caa\u0ca4\u0ccd\u0cb0\u0cc6"}}, {"type": "node", "id": 310393723, "lat": 12.9129006, "lon": 77.6419101, "tags": {"amenity": "hospital", "healthcare": "hospital", "name": "Dr Ganesh Medical and Diabetic Clinic", "name:kn": "\u0ca1\u0cbe \u0c97\u0ca3\u0cc7\u0cb6\u0ccd \u0cae\u0cc6\u0ca1\u0cbf\u0c95\u0cb2\u0ccd \u0cae\u0ca4\u0ccd\u0ca4\u0cc1 \u0cae\u0ca7\u0cc1\u0cae\u0cc7\u0cb9 \u0c86\u0cb8\u0ccd\u0caa\u0ca4\u0ccd\u0cb0\u0cc6"}}, {"type": "node", "id": 456013713, "lat": 12.920362, "lon": 77.665088}, {"type": "node", "id": 663604723, "lat": 12.9503234, "lon": 77.6162619, "tags": {"amenity": "hospital", "healthcare": "hospital", "name": "Government Primary Health Centre", "name:kn": "\u0cb8\u0cb0\u0ccd\u0c95\u0cbe\u0cb0\u0cbf \u0caa\u0ccd\u0cb0\u0cbe\u0ca5\u0cae\u0cbf\u0c95 \u0c86\u0cb0\u0ccb\u0c97\u0ccd\u0caf \u0c95\u0cc7\u0c82\u0ca6\u0ccd\u0cb0", "ups_hospital": "hospital"}}, {"type": "node", "id": 1091417875, "lat": 12.9585862, "lon": 77.648591}, {"type": "node", "id": 1091417882, "lat": 12.958313, "lon": 77.6484841}, {"type": "node", "id": 1091417892, "lat": 12.9584826, "lon": 77.6476282}, {"type": "node", "id": 1150839598, "lat": 12.9568527, "lon": 77.6990468, "tags": {"addr:district": "Bengaluru Urban", "addr:full": "93/1, 565, Srinivasa Complex Ring Road Attached To Main Road", "addr:postcode": "560037", "addr:state": "Karnataka", "addr:street": "Varthur Road", "amenity": "hospital", "level": "0", "name": "New Akshay Mallya Hospital", "source": "OpenGovernmentData"}}, {"type": "node", "id": 1434179292, "lat": 12.9596344, "lon": 77.6490229}, {"type": "node", "id": 1454651983, "lat": 12.9624168, "lon": 77.6284491}, {"type": "node", "id": 1464138157, "lat": 12.9585405, "lon": 77.6485994}, {"type": "node", "id": 1464138158, "lat": 12.957821, "lon": 77.6473166}, {"type": "node", "id": 1464138159, "lat": 12.9582823, "lon": 77.6491764}, {"type": "node", "id": 1464138160, "lat": 12.9590181, "lon": 77.6494162}, {"type": "node", "id": 1464138164, "lat": 12.9589467, "lon": 77.6494599}, {"type": "node", "id": 1464138170, "lat": 12.9578852, "lon": 77.6481906}, {"type": "node", "id": 1464138171, "lat": 12.9587679, "lon": 77.648704}, {"type": "node", "id": 1464138179, "lat": 12.9581936, "lon": 77.6474152}, {"type": "node", "id": 1464138181, "lat": 12.9575211, "lon": 77.6479828}, {"type": "node", "id": 1464138185, "lat": 12.9589148, "lon": 77.6487905}, {"type": "node", "id": 1464138190, "lat": 12.9584098, "lon": 77.6486665}, {"type": "node", "id": 1464138196, "lat": 12.9584412, "lon": 77.6486289}, {"type": "node", "id": 1464138198, "lat": 12.9587679, "lon": 77.6487711}, {"type": "node", "id": 1464138199, "lat": 12.9582817, "lon": 77.6492311}, {"type": "node", "id": 1464138200, "lat": 12.9591365, "lon": 77.6488918}, {"type": "node", "id": 1464138203, "lat": 12.9582373, "lon": 77.6490634}, {"type": "node", "id": 1464138206, "lat": 12.9586636, "lon": 77.6493923}, {"type": "node", "id": 1464138207, "lat": 12.9591735, "lon": 77.6489904}, {"type": "node", "id": 1464138212, "lat": 12.9588647, "lon": 77.6488167}, {"type": "node", "id": 1464138219, "lat": 12.9582661, "lon": 77.6491519}, {"type": "node", "id": 1464138222, "lat": 12.9584909, "lon": 77.6486021}, {"type": "node", "id": 1464138230, "lat": 12.9586791, "lon": 77.6493531}, {"type": "node", "id": 1466638204, "lat": 12.9423039, "lon": 77.6174893, "tags": {"amenity": "hospital", "healthcare": "hospital", "name": "Srinivasa Nursing Home"}}, {"type": "node", "id": 1468540733, "lat": 12.9402371, "lon": 77.6253403, "tags": {"addr:district": "Bengaluru Urban", "addr:full": "No.897/C, 80 Feet Road, 6th Block, Koramangala", "addr:postcode": "560095", "addr:state": "Karnataka", "addr:subdistrict": "Koramangala", "amenity": "hospital", "emergency": "yes", "healthcare": "hospital", "name": "Vasan Eye Care Hospital, Koramangala", "operator:type": "private", "source": "OpenGovernmentData", "website": "http://www.vasaneye.in/"}}, {"type": "node", "id": 1468908282, "lat": 12.9158901, "lon": 77.6506948, "tags": {"addr:street": "13th cross", "amenity": "hospital", "healthcare": "hospital", "name": "Asha Clinic"}}, {"type": "node", "id": 1468908300, "lat": 12.9075992, "lon": 77.6488507, "tags": {"amenity": "hospital", "name": "health nest"}}, {"type": "node", "id": 1471128628, "lat": 12.9382768, "lon": 77.6186753, "tags": {"amenity": "hospital", "emergency": "yes", "healthcare": "hospital", "name": "Pristine Health care"}}, {"type": "node", "id": 1471719697, "lat": 12.9186845, "lon": 77.630774, "tags": {"amenity": "hospital", "name": "Prerana Dental Clinic"}}, {"type": "node", "id": 1471720698, "lat": 12.9180492, "lon": 77.6318764, "tags": {"amenity": "hospital", "name": "Mamtha Health Center"}}, {"type": "node", "id": 1472015890, "lat": 12.9273417, "lon": 77.6221301, "tags": {"amenity": "hospital", "healthcare": "hospital", "name": "Agarwal Eye Hospital"}}, {"type": "node", "id": 1472111625, "lat": 12.9169725, "lon": 77.6300572, "tags": {"amenity": "hospital", "name": "Sagar Dental Clinic"}}, {"type": "node", "id": 1472735174, "lat": 12.9257842, "lon": 77.6170828, "tags": {"addr:street": "Hosur road", "amenity": "hospital", "name": "Venkateshwara Hospital", "name:kn": "\u0cb5\u0cc6\u0c82\u0c95\u0c9f\u0cc6\u0cb6\u0ccd\u0cb5\u0cb0 \u0c86\u0cb8\u0ccd\u0caa\u0ca4\u0ccd\u0cb0\u0cc6", "wheelchair": "yes"}}, {"type": "node", "id": 1472878021, "lat": 12.9162576, "lon": 77.6374069, "tags": {"amenity": "hospital", "check_date": "2023-08-29", "name": "Devi Eye Hospital", "name:en": "Devi Eye Hospital", "wheelchair": "limited"}}, {"type": "node", "id": 1474104406, "lat": 12.9102705, "lon": 77.6265538, "tags": {"addr:street": "Hosur road", "amenity": "hospital", "check_date": "2024-09-19", "healthcare": "hospital", "name": "Vasan Eye Care"}}, {"type": "node", "id": 1474317196, "lat": 12.9160081, "lon": 77.6193573, "tags": {"addr:district": "Bengaluru Rural", "addr:full": "No 72, 35Th Main 1st Cross 100 Ft Ring Road, Btm Layour, 2nd Stage Btm Layout", "addr:postcode": "560068", "addr:state": "Karnataka", "amenity": "hospital", "emergency": "yes", "healthcare": "hospital", "name": "Karanth Speciality Hospital", "source": "OpenGovernmentData"}}, {"type": "node", "id": 1474819060, "lat": 12.9147871, "lon": 77.6247622, "tags": {"addr:district": "Bengaluru Rural", "addr:full": "No-206, Reddy Building , Roopena Agrahara Opp Roopena Agrahara Bus Stop, Hosur Main Road", "addr:postcode": "560068", "addr:state": "Karnataka", "addr:street": "Hosur road", "amenity": "hospital", "name": "Aswad Hospital", "source": "OpenGovernmentData"}}, {"type": "node", "id": 1485636649, "lat": 12.9580486, "lon": 77.6493383}, {"type": "node", "id": 1485636653, "lat": 12.9584173, "lon": 77.6485249}, {"type": "node", "id": 1485636664, "lat": 12.9595613, "lon": 77.649742}, {"type": "node", "id": 1693120843, "lat": 12.9267954, "lon": 77.6699091, "tags": {"amenity": "hospital", "designation": "Hospital", "emergency": "yes", "healthcare": "hospital", "level": "2", "name": "Sunny Medicals Hospital Clinic", "source": "Survey", "wheelchair": "limited", "wheelchair:description": "Steps at entrace to building, lift to hospital"}}, {"type": "node", "id": 1727637379, "lat": 12.8990004, "lon": 77.6218548, "tags": {"amenity": "hospital", "emergency": "no", "name": "Vinayaka Specialty Hospital", "name:kn": "\u0cb5\u0cbf\u0ca8\u0cbe\u0caf\u0c95 \u0c86\u0cb8\u0ccd\u0caa\u0ca4\u0ccd\u0cb0\u0cc6"}}, {"type": "node", "id": 1818494842, "lat": 12.8778532, "lon": 77.6246582, "tags": {"addr:district": "Bangalore", "addr:full": "Begur Main Road, Classic Paradise Layout, Bommanhalli, Bengaluru", "addr:postcode": "560068", "addr:state": "Karnataka", "addr:subdistrict": "Bangalore South", "amenity": "hospital", "description": "Primary Health Centre", "healthcare": "centre", "name": "Government Primary Healthcare Center, Begur", "name:kn": "\u0cb8\u0cb0\u0ccd\u0c95\u0cbe\u0cb0\u0cbf \u0caa\u0ccd\u0cb0\u0cbe\u0ca5\u0cae\u0cbf\u0c95 \u0c86\u0cb0\u0ccb\u0c97\u0ccd\u0caf \u0c95\u0cc7\u0c82\u0ca6\u0ccd\u0cb0", "source": "OpenGovernmentData"}}, {"type": "node", "id": 1835512586, "lat": 12.9074968, "lon": 77.6492213, "tags": {"amenity": "hospital", "name": "Cure & Care Dental Clinic Dr. Moumita Mukherjee"}}, {"type": "node", "id": 1894298053, "lat": 12.8924828, "lon": 77.6198497, "tags": {"amenity": "hospital", "emergency": "no", "name": "Nayantara Opticals"}}, {"type": "node", "id": 2285453337, "lat": 12.9349187, "lon": 77.6305022, "tags": {"amenity": "hospital", "emergency": "no", "healthcare": "hospital", "name": "Magnus Diagnostic Lab"}}, {"type": "node", "id": 2387173532, "lat": 12.9191813, "lon": 77.6381379, "tags": {"addr:city": "Bengaluru", "addr:district": "Bengaluru", "addr:postcode": "560102", "addr:street": "14th Main Rd, opposite Agara Lake, Sector 5, 1st Sector, HSR Layout", "amenity": "hospital", "emergency": "yes", "healthcare": "hospital", "name": "Greenview Medical Center"}}, {"type": "node", "id": 2413039443, "lat": 12.9196968, "lon": 77.6649185}, {"type": "node", "id": 2413417389, "lat": 12.9325891, "lon": 77.6859257}, {"type": "node", "id": 2413417397, "lat": 12.9326863, "lon": 77.6847259}, {"type": "node", "id": 2414612953, "lat": 12.9121004, "lon": 77.6485848, "tags": {"amenity": "hospital", "emergency": "no", "healthcare": "hospital", "name": "Vaidyaratnam Oushadhasala", "website": "https://www.vaidyaratnammooss.com/"}}, {"type": "node", "id": 2447846664, "lat": 12.9064393, "lon": 77.6308237, "tags": {"amenity": "hospital", "emergency": "yes", "name": "Blossoms Hospital"}}, {"type": "node", "id": 2449294308, "lat": 12.8791713, "lon": 77.6454925, "tags": {"amenity": "hospital", "emergency": "yes", "name": "Live100"}}, {"type": "node", "id": 2623332318, "lat": 12.9231571, "lon": 77.6728066, "tags": {"amenity": "hospital", "healthcare": "hospital", "name": "Narayana Hrudayalaya Dental Clinic", "name:kn": "\u0ca8\u0cbe\u0cb0\u0cbe\u0caf\u0ca3 \u0cb9\u0cc3\u0ca6\u0caf\u0cbe\u0cb2\u0caf \u0ca6\u0c82\u0ca4 \u0c86\u0cb8\u0ccd\u0caa\u0ca4\u0ccd\u0cb0\u0cc6"}}, {"type": "node", "id": 2678582670, "lat": 12.9555896, "lon": 77.7053584}, {"type": "node", "id": 2678582671, "lat": 12.9555889, "lon": 77.705257}, {"type": "node", "id": 2678582672, "lat": 12.955419, "lon": 77.7052582}, {"type": "node", "id": 2678582673, "lat": 12.9554197, "lon": 77.7053597}, {"type": "node", "id": 2720498311, "lat": 12.9002599, "lon": 77.6271003, "tags": {"amenity": "hospital", "emergency": "no", "name": "Kottakkal Arya Vaidya Sala"}}, {"type": "node", "id": 2937449060, "lat": 12.9607845, "lon": 77.6669509}, {"type": "node", "id": 2937449064, "lat": 12.9617786, "lon": 77.6651962}, {"type": "node", "id": 2937449065, "lat": 12.9608786, "lon": 77.6676965}, {"type": "node", "id": 2937449066, "lat": 12.9608637, "lon": 77.6662637}, {"type": "node", "id": 2937449069, "lat": 12.9608219, "lon": 77.6673634}, {"type": "node", "id": 2937449070, "lat": 12.9625209, "lon": 77.6672454}, {"type": "node", "id": 2937449071, "lat": 12.9615851, "lon": 77.665341}, {"type": "node", "id": 2937449072, "lat": 12.9610773, "lon": 77.6657975}, {"type": "node", "id": 2937449076, "lat": 12.9619103, "lon": 77.6652831}, {"type": "node", "id": 2937449077, "lat": 12.9639525, "lon": 77.6653415}, {"type": "node", "id": 2937449078, "lat": 12.96378, "lon": 77.6655829}, {"type": "node", "id": 2937449080, "lat": 12.9630324, "lon": 77.664553}, {"type": "node", "id": 2937449081, "lat": 12.9610153, "lon": 77.6681225}, {"type": "node", "id": 2937449084, "lat": 12.9620988, "lon": 77.665157}, {"type": "node", "id": 2937449085, "lat": 12.9617263, "lon": 77.6682539}, {"type": "node", "id": 2937449088, "lat": 12.960801, "lon": 77.6665641}, {"type": "node", "id": 3298366366, "lat": 12.9632004, "lon": 77.6647822}, {"type": "node", "id": 3299149245, "lat": 12.9575576, "lon": 77.649134}, {"type": "node", "id": 3299149250, "lat": 12.9585405, "lon": 77.6465399}, {"type": "node", "id": 3299149253, "lat": 12.9584405, "lon": 77.6478809}, {"type": "node", "id": 3421728215, "lat": 12.9193427, "lon": 77.6380084}, {"type": "node", "id": 3421728216, "lat": 12.9193342, "lon": 77.6382471}, {"type": "node", "id": 3421728217, "lat": 12.9190429, "lon": 77.6382363}, {"type": "node", "id": 3421728218, "lat": 12.9190513, "lon": 77.6379975}, {"type": "node", "id": 3477797688, "lat": 12.9241818, "lon": 77.6737518, "tags": {"addr:district": "Bengaluru Urban", "addr:full": "446/21 Above Vijaya Bank, Opposite To Amba Bajaja Showroom", "addr:postcode": "560103", "addr:state": "Karnataka", "amenity": "hospital", "healthcare": "hospital", "name": "Nelivigi Eye Hospital", "operator:type": "private", "source": "OpenGovernmentData", "website": "https://www.nelivigieyehospital.com/"}}, {"type": "node", "id": 3530490171, "lat": 12.9584692, "lon": 77.6493062}, {"type": "node", "id": 3530490172, "lat": 12.958894, "lon": 77.6487922}, {"type": "node", "id": 3530490173, "lat": 12.9589902, "lon": 77.6494456}, {"type": "node", "id": 3530490174, "lat": 12.9591193, "lon": 77.6492153}, {"type": "node", "id": 3530490175, "lat": 12.959134, "lon": 77.6492201}, {"type": "node", "id": 3530490176, "lat": 12.9591467, "lon": 77.6490803}, {"type": "node", "id": 3530490177, "lat": 12.9591483, "lon": 77.6489231}, {"type": "node", "id": 3530490178, "lat": 12.9591558, "lon": 77.6489201}, {"type": "node", "id": 3530490179, "lat": 12.959172, "lon": 77.6490983}, {"type": "node", "id": 3530490180, "lat": 12.9591776, "lon": 77.6489772}, {"type": "node", "id": 3535941963, "lat": 12.9345739, "lon": 77.6284534}, {"type": "node", "id": 3535941974, "lat": 12.9345912, "lon": 77.6287616}, {"type": "node", "id": 3535941988, "lat": 12.9346178, "lon": 77.6285213}, {"type": "node", "id": 3535942098, "lat": 12.934633, "lon": 77.6284131}, {"type": "node", "id": 3535942115, "lat": 12.9346713, "lon": 77.6286952}, {"type": "node", "id": 3535942118, "lat": 12.9346749, "lon": 77.6288679}, {"type": "node", "id": 3535942122, "lat": 12.934677, "lon": 77.6284811}, {"type": "node", "id": 3535942162, "lat": 12.9347551, "lon": 77.6288015}, {"type": "node", "id": 3538224569, "lat": 12.9288468, "lon": 77.6191124}, {"type": "node", "id": 3538224705, "lat": 12.9290363, "lon": 77.6181657}, {"type": "node", "id": 3538224734, "lat": 12.9291712, "lon": 77.617818}, {"type": "node", "id": 3538224736, "lat": 12.9292036, "lon": 77.6182376}, {"type": "node", "id": 3538224771, "lat": 12.9294029, "lon": 77.6193512}, {"type": "node", "id": 3538224789, "lat": 12.9294781, "lon": 77.6191668}, {"type": "node", "id": 3538224903, "lat": 12.9295432, "lon": 77.6192759}, {"type": "node", "id": 3538224906, "lat": 12.9295714, "lon": 77.6192068}, {"type": "node", "id": 3538224942, "lat": 12.9297583, "lon": 77.6193683}, {"type": "node", "id": 3538224963, "lat": 12.9299204, "lon": 77.6191887}, {"type": "node", "id": 3538224969, "lat": 12.929936, "lon": 77.6189328}, {"type": "node", "id": 3538224972, "lat": 12.9300116, "lon": 77.6189652}, {"type": "node", "id": 3538224973, "lat": 12.9300136, "lon": 77.6192286}, {"type": "node", "id": 3538224987, "lat": 12.9301084, "lon": 77.6189962}, {"type": "node", "id": 3538225094, "lat": 12.9301896, "lon": 77.6190311}, {"type": "node", "id": 3538225116, "lat": 12.9304491, "lon": 77.6183275}, {"type": "node", "id": 3541798347, "lat": 12.9517397, "lon": 77.6994832, "tags": {"amenity": "hospital", "healthcare": "hospital", "level": "1", "name": "Sanghi Medical Centre (P) Ltd"}}, {"type": "node", "id": 3725710400, "lat": 12.962951, "lon": 77.6418711, "tags": {"amenity": "hospital", "name": "Gift IVF center"}}, {"type": "node", "id": 3761101701, "lat": 12.9593123, "lon": 77.6464111}, {"type": "node", "id": 3761101702, "lat": 12.9592285, "lon": 77.6465953}, {"type": "node", "id": 3761101703, "lat": 12.9589964, "lon": 77.6464842}, {"type": "node", "id": 3761101704, "lat": 12.9590802, "lon": 77.6463}, {"type": "node", "id": 4044099876, "lat": 12.9489193, "lon": 77.6199783}, {"type": "node", "id": 4044099877, "lat": 12.9490186, "lon": 77.6198067}, {"type": "node", "id": 4044099878, "lat": 12.9490317, "lon": 77.6200427}, {"type": "node", "id": 4044099880, "lat": 12.9491266, "lon": 77.6198715}, {"type": "node", "id": 4127795879, "lat": 12.958754, "lon": 77.6466131}, {"type": "node", "id": 4203857493, "lat": 12.9066637, "lon": 77.6287463, "tags": {"addr:district": "Bengaluru Urban", "addr:full": "90-D, Bommanahalli Circle, Hosur road", "addr:postcode": "560068", "addr:state": "Karnataka", "amenity": "hospital", "email": "prashanthhospital1996@gmail.com", "healthcare": "hospital", "name": "Prashanth Hospital", "name:kn": "\u0caa\u0ccd\u0cb0\u0cb6\u0cbe\u0c82\u0ca4 \u0c86\u0cb8\u0ccd\u0caa\u0ca4\u0ccd\u0cb0\u0cc6", "operator:type": "private", "source": "OpenGovernmentData", "website": "http://dpal.kar.nic.in/Kanunu%20padakosha%20PDF%20Files/Recognised%20Hospitals.pdf"}}, {"type": "node", "id": 4392383890, "lat": 12.9368104, "lon": 77.6206345, "tags": {"addr:district": "Bengaluru Urban", "addr:full": "No.58, 5th Cross, 18th Main Dhanlakshmi Bank Building", "addr:postcode": "560095", "addr:state": "Karnataka", "addr:subdistrict": "Koramangala", "amenity": "hospital", "email": "contactus@apollocradle.com", "healthcare:speciality": "Maternity Services; Birthing Fertility and IVF; Woman's Health; Women Health Checks; Procedures; Cancer Evaluation; Children's Health; New Born Screening; Vaccination", "name": "Apollo Cradle", "name:en": "Apollo Cradle", "operator:type": "private", "source": "OpenGovernmentData", "website": "https://www.apollocradle.com/"}}, {"type": "node", "id": 4440829279, "lat": 12.911533, "lon": 77.6764094, "tags": {"addr:city": "Bangalore", "addr:postcode": "560035", "addr:street": "Kasvanahalli Road, Behind State Bank of Mysore, Sarjapur Road, Kaikondrahalli", "amenity": "hospital", "emergency": "yes", "healthcare": "hospital", "name": "Stanford Speciality Hospital", "phone": "080 6566 6689"}}, {"type": "node", "id": 4440931106, "lat": 12.9124371, "lon": 77.6813917, "tags": {"addr:city": "Bangalore", "addr:housenumber": "No.7/1", "addr:postcode": "560035", "addr:street": "Sarjapur Road", "amenity": "hospital", "emergency": "yes", "name": "Dr Mohan Nursing Home", "phone": "+91-80-42119084"}}, {"type": "node", "id": 4440939217, "lat": 12.9072384, "lon": 77.6755805, "tags": {"addr:city": "Bengaluru", "addr:housenumber": "4/21", "addr:postcode": "560035", "addr:street": "Kasavanahalli Road", "amenity": "hospital", "healthcare": "hospital", "name": "Sparsh Clinic", "phone": "+91-99000 19567"}}, {"type": "node", "id": 4440946384, "lat": 12.9041502, "lon": 77.6741043, "tags": {"addr:city": "Bangalore", "addr:housenumber": "9 IAS layout", "addr:postcode": "560035", "addr:street": "Lake Shore HomesRoad, Amrita college road, off sarjapur road, Kasavanahalli", "amenity": "hospital", "healthcare": "hospital", "name": "Raksha Orthopaedic And Multi Speciality Centre", "phone": "+91-74115 27777"}}, {"type": "node", "id": 4441670838, "lat": 12.9121008, "lon": 77.6820003, "tags": {"addr:city": "Bangalore", "addr:housenumber": "No. 65/1, 1st Floor", "addr:postcode": "560035", "addr:street": "Doddakannelli,\u00a0Sarjapur Road", "amenity": "hospital", "healthcare:speciality": "general;dermatology;clinic", "name": "Naadi Ayurveda Center", "operator": "Kotakkal Arya Vaidyashala", "phone": "+91-9980016089"}}, {"type": "node", "id": 4441681632, "lat": 12.9217604, "lon": 77.6618321, "tags": {"addr:city": "Bengaluru", "addr:postcode": "560103", "addr:street": "Service Rd, Agara, Iblur Village, Bellandur", "amenity": "hospital", "healthcare": "hospital", "name": "Kottakkal Arya Vaidya Sala", "phone": "+91-80 6450 4434", "website": "https://aryavaidyasala.com/"}}, {"type": "node", "id": 4441938603, "lat": 12.9122002, "lon": 77.6818637, "tags": {"addr:city": "bangaluru", "addr:housenumber": "65", "addr:postcode": "560035", "addr:street": "Sarjapur Main Rd, Kaikondrahalli", "amenity": "hospital", "name": "The Family Doctor & The Family Pharma", "phone": "+91-80 2574 6204", "website": "https://www.thefamilydoctor.co.in/"}}, {"type": "node", "id": 4442511855, "lat": 12.9161259, "lon": 77.6311505, "tags": {"addr:city": "bangalore", "addr:district": "Madurai", "addr:full": "#77, Kamarajar Salai,Arasamaram Pillaiyar Koil", "addr:housenumber": ".L-168", "addr:postcode": "625009", "addr:state": "Tamil Nadu", "addr:street": "HSR Layout Sector 6", "amenity": "hospital", "name": "Bhagavathi Hospitals Private Limited", "name:kn": "\u0cad\u0c97\u0cb5\u0ca4\u0cbf \u0c86\u0cb8\u0ccd\u0caa\u0ca4\u0ccd\u0cb0\u0cc6", "phone": "+91-80 4124 5860", "source": "OpenGovernmentData"}}, {"type": "node", "id": 4442516055, "lat": 12.9250105, "lon": 77.6278708, "tags": {"addr:city": "bangalore", "addr:housenumber": "365", "addr:postcode": "560034", "addr:street": "Sulochana Building, 1st Cross Rd, 3rd Block, Sarjapura Main Road, Koramangala", "amenity": "hospital", "name": "Gunasheela Hospitals", "phone": "+91-80 - 4646 2626", "website": "http://gunasheela.co.in/"}}, {"type": "node", "id": 4445167354, "lat": 12.9179831, "lon": 77.6691258, "tags": {"addr:city": "Bangalore", "addr:postcode": "560034", "addr:street": "Sarjapur Main Rd, Bellandur", "amenity": "hospital", "healthcare": "hospital", "name": "Dr Rachna - Homeopathy", "phone": "+9195909 10963"}}, {"type": "node", "id": 4445213681, "lat": 12.9240063, "lon": 77.6545058, "tags": {"addr:city": "Bangalore", "addr:housenumber": "65/8", "addr:postcode": "560102", "addr:street": "Third Floor, H.S.R Agara Circle, Sarjapura, Outer Ring Rd, Agara Village, HSR Layout,", "amenity": "hospital", "healthcare": "hospital", "name": "Welnext", "phone": "+9196960 00222", "website": "https://welnext.com/"}}, {"type": "node", "id": 4446322688, "lat": 12.9127062, "lon": 77.6201668, "tags": {"addr:city": "Bengaluru", "addr:postcode": "560076", "addr:street": "7th Cross, 35th Main, BTM 2nd Stage,, Adjacent DSR Naveen Lake View Apartments, Karnataka", "amenity": "hospital", "name": "Keva Ayurveda Health Care Pvt Ltd", "phone": "080508 01515", "website": "https://kevaayurveda.com/"}}, {"type": "node", "id": 4446329807, "lat": 12.9552696, "lon": 77.6428508, "tags": {"addr:city": "Bengaluru", "addr:district": "Bengaluru Urban", "addr:full": "230, Amarjyothi Layout, Off.Intermediate Ring Road, Domlur Extension", "addr:housenumber": "230", "addr:postcode": "560071", "addr:state": "Karnataka", "addr:street": "Amarjyothi Layout, Off Intermediate Ring Road, Near Dell India/Millennium Motors, Domlur Extension, Amarjyoti Layout, Domlur, Karnataka", "amenity": "hospital", "email": "info@ayurvaid.com", "name": "Ayurvaid Hospital", "operator:type": "private", "phone": "080 4092 5555", "source": "OpenGovernmentData", "website": "https://ayurvaid.com/"}}, {"type": "node", "id": 4446826362, "lat": 12.9165359, "lon": 77.6361865, "tags": {"addr:city": "Bengaluru", "addr:housenumber": "149", "addr:postcode": "560034", "addr:street": "HSR Ring Road, 5th Sector , HSR Layout, Karnataka", "amenity": "hospital", "name": "Healing Earth Multispeciality Ayurveda Hospital", "phone": "080674 75757", "website": "https://www.healingearth.co.in/"}}, {"type": "node", "id": 4446833350, "lat": 12.9165795, "lon": 77.6362187, "tags": {"addr:city": "Bengaluru", "addr:housenumber": "149", "addr:postcode": "560034", "addr:street": "HSR Ring Road, 5th Sector , HSR Layout, Jakkasandra, 1st Block Koramangala, HSR Layout, Karnataka", "amenity": "hospital", "name": "Global Ayurveda Multispeciality Hospital", "phone": "080674 75757", "website": "https://www.healingearth.co.in/"}}, {"type": "node", "id": 4446849884, "lat": 12.9344224, "lon": 77.6299785, "tags": {"addr:city": "Bengaluru", "addr:housenumber": "101", "addr:postcode": "560034", "addr:street": "KAY ARR CORNER STONE 2nd Floor 80 Feet Road 4th Block, Koramangala,Karnataka", "amenity": "hospital", "healthcare": "hospital", "name": "Fj Merrit Hydrotherapy And Wellness", "phone": "080 4095 1282"}}, {"type": "node", "id": 4446924573, "lat": 12.9242825, "lon": 77.6170883, "tags": {"addr:city": "Bangalore", "addr:housenumber": "#1478/1", "addr:postcode": "560029", "addr:street": "Hosur Road, Madiwala, Venkateshwara Layout, Sadduguntepalya", "amenity": "hospital", "emergency": "yes", "healthcare": "hospital", "name": "Surya Diagnostics and Health Services", "phone": "080 2552 6667", "source": "http://www.bangalorean.co.in/"}}, {"type": "node", "id": 4447087999, "lat": 12.9353208, "lon": 77.6205504, "tags": {"addr:city": "Bangalore", "addr:district": "Bengaluru Urban", "addr:full": "435, Acura Hospital, 18th Main, 6th Block, Koramangala", "addr:housenumber": "105", "addr:postcode": "560095", "addr:state": "Karnataka", "addr:street": "5th Block, 17th C Main Road, KHB Colony , Koramangala", "amenity": "hospital", "name": "Acura Speciality Hospital", "operator:type": "private", "phone": "+9180 4110 5151", "source": "OpenGovernmentData", "website": "https://www.seekandsource.com/acurahospital"}}, {"type": "node", "id": 4447972412, "lat": 12.9067129, "lon": 77.6265085, "tags": {"addr:city": "Bangalore", "addr:housenumber": "90/D", "addr:postcode": "560068", "addr:street": "Bommanahalli Circle, Hosur Main Road", "amenity": "hospital", "emergency": "yes", "name": "Prashanth Hospital", "name:kn": "\u0caa\u0ccd\u0cb0\u0cb6\u0cbe\u0c82\u0ca4 \u0c86\u0cb8\u0ccd\u0caa\u0ca4\u0ccd\u0cb0\u0cc6", "phone": "080 4150 3714", "source": "http://yellowpages.sulekha.com/", "website": "https://www.prashanthhospitals.in/"}}, {"type": "node", "id": 4448133411, "lat": 12.9242869, "lon": 77.6532853, "tags": {"addr:city": "Bangalore", "addr:housenumber": "65/8, Third Floor", "addr:postcode": "560102", "addr:street": "H.S.R Agara Circle, Sarjapura, Outer Ring Rd, Agara Village, HSR Layout", "amenity": "hospital", "emergency": "yes", "healthcare": "hospital", "name": "Welnext", "phone": "+9196960 00222", "source": "http://www.justdial.com/Bangalore/", "website": "https://welnext.com/"}}, {"type": "node", "id": 4474487215, "lat": 12.9157501, "lon": 77.6756114}, {"type": "node", "id": 4474487222, "lat": 12.9156378, "lon": 77.6754751}, {"type": "node", "id": 4558992274, "lat": 12.9585868, "lon": 77.6472385}, {"type": "node", "id": 4714521495, "lat": 12.9622495, "lon": 77.629302}, {"type": "node", "id": 4714521496, "lat": 12.9622756, "lon": 77.628964}, {"type": "node", "id": 4714521497, "lat": 12.9633944, "lon": 77.6267915}, {"type": "node", "id": 4714521498, "lat": 12.9636767, "lon": 77.6264964}, {"type": "node", "id": 4714521499, "lat": 12.9657364, "lon": 77.6254235}, {"type": "node", "id": 4714521500, "lat": 12.96582, "lon": 77.6255791}, {"type": "node", "id": 4714521501, "lat": 12.9652397, "lon": 77.6265018}, {"type": "node", "id": 4714521502, "lat": 12.9648215, "lon": 77.6271777}, {"type": "node", "id": 4714521503, "lat": 12.9647222, "lon": 77.6277302}, {"type": "node", "id": 4714521504, "lat": 12.9647326, "lon": 77.6280253}, {"type": "node", "id": 4714521505, "lat": 12.9643772, "lon": 77.6283525}, {"type": "node", "id": 4714521506, "lat": 12.9621188, "lon": 77.6305036}, {"type": "node", "id": 4714521507, "lat": 12.9619097, "lon": 77.6304607}, {"type": "node", "id": 5106809421, "lat": 12.9597752, "lon": 77.6569127, "tags": {"addr:district": "Bengaluru Urban", "addr:full": "#115,Kodihalli,Old Airport Road", "addr:postcode": "560001", "addr:state": "Karnataka", "amenity": "hospital", "healthcare": "hospital", "name": "Cloudnine Hospital Pvt. Ltd.", "name:en": "cloud nine", "source": "OpenGovernmentData"}}, {"type": "node", "id": 5774292416, "lat": 12.9202127, "lon": 77.6655913}, {"type": "node", "id": 5780885021, "lat": 12.919575, "lon": 77.6654218}, {"type": "node", "id": 5781340796, "lat": 12.9181937, "lon": 77.6722846}, {"type": "node", "id": 5781340797, "lat": 12.9181002, "lon": 77.6724716}, {"type": "node", "id": 5781340798, "lat": 12.9176332, "lon": 77.6722259}, {"type": "node", "id": 5781340799, "lat": 12.9177267, "lon": 77.6720389}, {"type": "node", "id": 5804557878, "lat": 12.9138425, "lon": 77.6794486}, {"type": "node", "id": 5804557879, "lat": 12.9137262, "lon": 77.6798147}, {"type": "node", "id": 5804557880, "lat": 12.9133171, "lon": 77.6797302}, {"type": "node", "id": 5804557881, "lat": 12.9132765, "lon": 77.6797141}, {"type": "node", "id": 5804557882, "lat": 12.9133733, "lon": 77.6792957}, {"type": "node", "id": 5915195092, "lat": 12.9362087, "lon": 77.616947, "tags": {"amenity": "hospital", "healthcare": "hospital", "name": "Aparna Hospital"}}, {"type": "node", "id": 5915409411, "lat": 12.9338175, "lon": 77.6201615, "tags": {"amenity": "hospital", "healthcare": "hospital", "name": "Apollo Spectra Hospitals"}}, {"type": "node", "id": 5915906204, "lat": 12.9256013, "lon": 77.6359638, "tags": {"addr:district": "Bengaluru Urban", "addr:full": "No. 8, 1st Main Road 1st Block, Koramangala", "addr:postcode": "560034", "addr:state": "Karnataka", "amenity": "hospital", "check_date": "2023-12-31", "healthcare": "hospital", "name": "Sankeerthana Hospital and Fertility Center", "source": "OpenGovernmentData"}}, {"type": "node", "id": 5959076193, "lat": 12.881611, "lon": 77.6260763, "tags": {"addr:district": "Bengaluru Rural", "addr:full": "#25,26,27, B Block, Viswapriyanagara, Near Chowdeshwari Temple, Begur", "addr:postcode": "560068", "addr:state": "Karnataka", "amenity": "hospital", "healthcare": "hospital", "name": "Jayashree Multi Specilaity Hospital", "source": "OpenGovernmentData"}}, {"type": "node", "id": 5964111211, "lat": 12.9317501, "lon": 77.6858251}, {"type": "node", "id": 5964111212, "lat": 12.9318559, "lon": 77.6851639}, {"type": "node", "id": 5964111213, "lat": 12.9318533, "lon": 77.684731}, {"type": "node", "id": 6124618183, "lat": 12.9366526, "lon": 77.6277125, "tags": {"amenity": "hospital", "healthcare": "hospital", "name": "Shiva Vision Care"}}, {"type": "node", "id": 6137643281, "lat": 12.8967728, "lon": 77.6947943}, {"type": "node", "id": 6137643282, "lat": 12.8963179, "lon": 77.6954783}, {"type": "node", "id": 6137643283, "lat": 12.8960538, "lon": 77.6953013}, {"type": "node", "id": 6137643284, "lat": 12.8965009, "lon": 77.6946495}, {"type": "node", "id": 6348894929, "lat": 12.8981781, "lon": 77.6336107}, {"type": "node", "id": 6348894930, "lat": 12.8982668, "lon": 77.6339791}, {"type": "node", "id": 6348894931, "lat": 12.8980181, "lon": 77.6340422}, {"type": "node", "id": 6348894932, "lat": 12.8979294, "lon": 77.6336737}, {"type": "node", "id": 6938758526, "lat": 12.926471, "lon": 77.6167399, "tags": {"addr:district": "Bengaluru Urban", "addr:full": "#86 Hosur Main Road, Madivala", "addr:postcode": "560068", "addr:state": "Karnataka", "amenity": "hospital", "name": "Sri Venkateshwara Hospitals", "operator:type": "private", "source": "OpenGovernmentData", "website": "http://dpal.kar.nic.in/Kanunu%20padakosha%20PDF%20Files/Recognised%20Hospitals.pdf"}}, {"type": "node", "id": 6938759412, "lat": 12.9339097, "lon": 77.620208, "tags": {"addr:district": "Bengaluru Urban", "addr:full": "Opus, 143, 1st Cross, 5th Block, Koramangala", "addr:postcode": "560034", "addr:state": "Karnataka", "amenity": "hospital", "email": "info@novamedicalcenters.com", "healthcare:speciality": "multi speciality", "name": "Nova Specialty Surgery Center, Koramangala", "operator:type": "private", "source": "OpenGovernmentData", "website": "www.novaspecialtysurgery.com"}}, {"type": "node", "id": 6938790393, "lat": 12.924624, "lon": 77.6170966, "tags": {"addr:district": "Bengaluru Rural", "addr:full": "No. 38/2, 2nd Main Road, Madiwala New Extension", "addr:postcode": "560068", "addr:state": "Karnataka", "amenity": "hospital", "name": "Varalakshmi Hospital", "name:kn": "\u0cb5\u0cb0\u0cb2\u0c95\u0ccd\u0cb7\u0ccd\u0cae\u0cbf \u0c86\u0cb8\u0ccd\u0caa\u0ca4\u0ccd\u0cb0\u0cc6", "source": "OpenGovernmentData"}}, {"type": "node", "id": 6938889541, "lat": 12.9551501, "lon": 77.7051643, "tags": {"addr:district": "Bengaluru Urban", "addr:full": "#103, Munnekolal, Verthur Road, Marthahalli Post", "addr:postcode": "560037", "addr:state": "Karnataka", "amenity": "hospital", "name": "Lions Airport City Hospital", "source": "OpenGovernmentData"}}, {"type": "node", "id": 6938896388, "lat": 12.9079615, "lon": 77.6235715, "tags": {"addr:district": "Bengaluru Rural", "addr:full": "No-8, 1st Cross Ngr Layout Roopera Agrahara", "addr:postcode": "560068", "addr:state": "Karnataka", "amenity": "hospital", "name": "Mahanth Hospital", "source": "OpenGovernmentData"}}, {"type": "node", "id": 6939253041, "lat": 12.9412109, "lon": 77.6238987, "tags": {"addr:district": "Bengaluru Urban", "addr:full": "#434, 18Th Main 80 Ft Road, 6Th Block, Opp Koramangala Bus Depot", "addr:housenumber": "434", "addr:postcode": "560095", "addr:state": "Karnataka", "addr:street": "18th Main Road", "amenity": "hospital", "check_date": "2024-01-10", "email": "care@devieyehospital.in", "full_name": "Devi Super Speciality Eye Hospital Pvt Ltd", "healthcare": "hospital", "healthcare:speciality": "multi speciality", "name": "Devi Eye Hospital", "operator:type": "private", "source": "OpenGovernmentData", "website": "http://www.devieyehospital.in/"}}, {"type": "node", "id": 6939445234, "lat": 12.9343279, "lon": 77.6228848, "tags": {"addr:district": "Bengaluru Urban", "addr:full": "# 88, 17th, A Main, 2nd Cross, 5th Block, Koramangala", "addr:postcode": "560095", "addr:state": "Karnataka", "amenity": "hospital", "healthcare:speciality": "Clinical Labs; Diagnosis; Medical Oncology; Radiation oncology; Surgical Oncology", "name": "HCG, Koramangala", "operator:type": "private", "source": "OpenGovernmentData", "website": "https://www.hcgoncology.com/"}}, {"type": "node", "id": 6939522367, "lat": 12.8957636, "lon": 77.6330289, "tags": {"addr:district": "Bengaluru Urban", "addr:full": "No.4, Achaiah Chetty Layout, Mekri Circle", "addr:postcode": "560080", "addr:state": "Karnataka", "amenity": "hospital", "name": "Ganesh Nursing Home, Bengaluru Urban", "source": "OpenGovernmentData"}}, {"type": "node", "id": 6939562670, "lat": 12.8987442, "lon": 77.6263127, "tags": {"addr:district": "Bengaluru Rural", "addr:full": "No 4/158, Hongasandra Begur Main Road Bdgur Main Road", "addr:postcode": "560068", "addr:state": "Karnataka", "amenity": "hospital", "name": "Kavya Hospital", "source": "OpenGovernmentData"}}, {"type": "node", "id": 6944290475, "lat": 12.9568547, "lon": 77.7002262, "tags": {"addr:district": "Bengaluru Urban", "addr:full": "96,Varthur Main Road, Marathahalli", "addr:postcode": "560037", "addr:state": "Karnataka", "amenity": "hospital", "check_date": "2024-12-29", "healthcare": "hospital", "name": "MGA Hospital", "source": "OpenGovernmentData"}}, {"type": "node", "id": 6944290482, "lat": 12.9160636, "lon": 77.6308219, "tags": {"addr:district": "Bengaluru Urban", "addr:full": "L 168, Sector - 6, Ring Road, Hsr Layout", "addr:postcode": "560040", "addr:state": "Karnataka", "amenity": "hospital", "name": "Bhagavathi Multi Speciality Hospital", "source": "OpenGovernmentData"}}, {"type": "node", "id": 6944507676, "lat": 12.8981572, "lon": 77.6207364, "tags": {"addr:district": "Bengaluru Rural", "addr:full": "124, Kanakapura Main Road, Jayanagara 7Th Block, Bangalore", "addr:postcode": "560082", "addr:state": "Karnataka", "amenity": "hospital", "name": "Srushti Hospital, Bengaluru Rural", "name:kn": "\u0cb8\u0cc3\u0cb7\u0ccd\u0c9f\u0cbf \u0c86\u0cb8\u0ccd\u0caa\u0ca4\u0ccd\u0cb0\u0cc6", "source": "OpenGovernmentData"}}, {"type": "node", "id": 6947247040, "lat": 12.8980516, "lon": 77.6339279, "tags": {"addr:district": "Bengaluru Rural", "addr:full": "Sri Murthy Complex, No.43, Garvey Bhav Palya Hongasandra Village Begur, Hosur Main Road Bommanahalli, Hobli", "addr:postcode": "560068", "addr:state": "Karnataka", "amenity": "hospital", "name": "Vasan Eye Care Hospital", "source": "OpenGovernmentData"}}, {"type": "node", "id": 6947674447, "lat": 12.9543777, "lon": 77.6209764, "tags": {"addr:district": "Bengaluru Urban", "addr:full": "No.162, 4Th Main, Opposite Post Office, Viveknagar, 20Yds, Viveknagar Bus Stand", "addr:postcode": "560047", "addr:state": "Karnataka", "amenity": "hospital", "name": "Sri Ram Speciality Hospital", "source": "OpenGovernmentData"}}, {"type": "node", "id": 6947701126, "lat": 12.9425676, "lon": 77.6224349, "tags": {"addr:district": "Bengaluru Urban", "addr:full": "Koramangala", "addr:postcode": "560095", "addr:state": "Karnataka", "amenity": "hospital", "healthcare": "hospital", "name": "Well Spring hospital", "source": "OpenGovernmentData"}}, {"type": "node", "id": 6947707789, "lat": 12.9084997, "lon": 77.6434431}, {"type": "node", "id": 6948552667, "lat": 12.9526616, "lon": 77.61503, "tags": {"addr:district": "Bengaluru Urban", "addr:full": "#20, 7Th Cross Rosegarden, Neelasandra", "addr:postcode": "560047", "addr:state": "Karnataka", "amenity": "hospital", "name": "Get Well Hospital", "source": "OpenGovernmentData"}}, {"type": "node", "id": 6948751340, "lat": 12.8919999, "lon": 77.6257829, "tags": {"addr:district": "Bengaluru Rural", "addr:full": "13/29,Prathik Complexhongaasandra, Begur Road", "addr:postcode": "560068", "addr:state": "Karnataka", "amenity": "hospital", "name": "Vinayaka Health Care and Maternity Home", "source": "OpenGovernmentData"}}, {"type": "node", "id": 7202723905, "lat": 12.9102142, "lon": 77.6244654, "tags": {"addr:district": "Bangalore", "addr:full": "3rd Main Rd, NGR Layout, Roopena Agrahara, Bommanahalli", "addr:postcode": "560068", "addr:state": "Karnataka", "addr:subdistrict": "Bangalore South", "amenity": "hospital", "name": "Roopena Agrahara Government Hospital", "source": "OpenGovernmentData"}}, {"type": "node", "id": 7514681681, "lat": 12.9240924, "lon": 77.6177848, "tags": {"addr:city": "Bengaluru", "addr:postcode": "560068", "amenity": "hospital", "healthcare": "hospital", "name": "Chamundi Hi Tech Hospital"}}, {"type": "node", "id": 7572526690, "lat": 12.957269, "lon": 77.653945, "tags": {"addr:district": "Bengaluru Urban", "addr:full": "Kaveri Nagar, Murgesh Pallya, Bengaluru", "addr:postcode": "560017", "addr:state": "Karnataka", "amenity": "hospital", "name": "OJUS Multi Speciality Hospital", "source": "Local Knowledge", "wheelchair": "limited"}}, {"type": "node", "id": 7572526699, "lat": 12.9635299, "lon": 77.6662889, "tags": {"addr:district": "Bengaluru Urban", "addr:full": "Jyothi Nagar, Bengaluru", "addr:postcode": "560017", "addr:state": "Karnataka", "amenity": "hospital", "name": "Jhon's Medical Hospital", "source": "Local Knowledge"}}, {"type": "node", "id": 7572526717, "lat": 12.9555948, "lon": 77.6418006, "tags": {"addr:district": "Bengaluru Urban", "addr:full": "Amarjyoti Layout, Domlur, Bengaluru", "addr:postcode": "560071", "addr:state": "Karnataka", "amenity": "hospital", "name": "Shree Sai Speciality Hospital", "source": "Local Knowledge"}}, {"type": "node", "id": 7572526747, "lat": 12.9589495, "lon": 77.6603768, "tags": {"addr:district": "Bengaluru Urban", "addr:floor": "G", "addr:full": "Near Rajeshwari Theatre, Murgesh Pallya, Bengaluru", "addr:postcode": "560017", "addr:state": "Karnataka", "amenity": "hospital", "check_date": "2025-10-19", "healthcare": "hospital", "level": "0", "name": "Magdum Hospital", "source": "Local Knowledge"}}, {"type": "node", "id": 7572526782, "lat": 12.963951, "lon": 77.64308, "tags": {"addr:district": "Bengaluru Urban", "addr:full": "Kodihalli, Bengaluru", "addr:postcode": "560008", "addr:state": "Karnataka", "amenity": "hospital", "name": "Lohitha Hospital", "source": "Local Knowledge"}}, {"type": "node", "id": 7572526798, "lat": 12.9583212, "lon": 77.659636, "tags": {"addr:district": "Bengaluru Urban", "addr:full": "Konena Agrahara, Murgesh Pallya, Bengaluru", "addr:postcode": "560017", "addr:state": "Karnataka", "amenity": "hospital", "healthcare": "hospital", "name": "Dr. Hemant Agrawal", "source": "Local Knowledge"}}, {"type": "node", "id": 7572526801, "lat": 12.9544981, "lon": 77.6401572, "tags": {"addr:district": "Bengaluru Urban", "addr:full": "Amarjyoti Layout, Domlur, Bengaluru", "addr:postcode": "560071", "addr:state": "Karnataka", "amenity": "hospital", "name": "Swasthya Hospitals", "source": "Local Knowledge"}}, {"type": "node", "id": 7572526802, "lat": 12.958861, "lon": 77.654322, "tags": {"addr:district": "Bengaluru Urban", "addr:full": "Kaveri Nagar, Murgesh Pallya, Bengaluru", "addr:postcode": "560017", "addr:state": "Karnataka", "amenity": "hospital", "name": "Miracle Hopital", "source": "Local Knowledge", "wheelchair": "limited"}}, {"type": "node", "id": 7572669027, "lat": 12.8859649, "lon": 77.6489078, "tags": {"addr:district": "Bengaluru Urban", "addr:full": "AECS Layout, Kudlu", "addr:postcode": "560068", "addr:state": "Karnataka", "amenity": "hospital", "name": "Hospitec Multispeciality Hospital", "source": "Local Knowledge"}}, {"type": "node", "id": 7576958032, "lat": 12.9596227, "lon": 77.6146819, "tags": {"addr:district": "Bengaluru Urban", "addr:full": "Austin Town, Neelasandra, Bengaluru", "addr:postcode": "560047", "addr:state": "Karnataka", "amenity": "hospital", "name": "Rahul Maternity & Child Health Centre", "source": "Local Knowledge"}}, {"type": "node", "id": 7576958092, "lat": 12.960296, "lon": 77.614714, "tags": {"addr:district": "Bengaluru Urban", "addr:full": "Victoria Layout, Bengaluru", "addr:postcode": "560047", "addr:state": "Karnataka", "amenity": "hospital", "name": "Shas Eye Care", "source": "Local Knowledge"}}, {"type": "node", "id": 7579924738, "lat": 12.9239445, "lon": 77.6198634, "tags": {"addr:district": "Bengaluru Urban", "addr:full": "Sidharata Colony, Santhosapuram, Koramangala, Bengaluru", "addr:postcode": "560034", "addr:state": "Karnataka", "amenity": "hospital", "healthcare": "hospital", "name": "Devi Hospital", "source": "Local Knowledge"}}, {"type": "node", "id": 8428403226, "lat": 12.9305937, "lon": 77.6186159, "tags": {"amenity": "hospital", "healthcare": "hospital", "name": "St. Johns hospital Emergency ward"}}, {"type": "node", "id": 9828540924, "lat": 12.9246383, "lon": 77.6723232}, {"type": "node", "id": 9828540925, "lat": 12.9242012, "lon": 77.6722551}, {"type": "node", "id": 9828540926, "lat": 12.924427, "lon": 77.672739}, {"type": "node", "id": 9828540927, "lat": 12.9245522, "lon": 77.6726953}, {"type": "node", "id": 9830781726, "lat": 12.9365283, "lon": 77.7046741, "tags": {"amenity": "hospital", "name": "Maya Hospital"}}, {"type": "node", "id": 9830902289, "lat": 12.9125713, "lon": 77.6764777}, {"type": "node", "id": 9830902290, "lat": 12.9124101, "lon": 77.6764687}, {"type": "node", "id": 9830902291, "lat": 12.9124013, "lon": 77.6766369}, {"type": "node", "id": 9830902292, "lat": 12.9125624, "lon": 77.6766458}, {"type": "node", "id": 9983607348, "lat": 12.9166964, "lon": 77.6449292}, {"type": "node", "id": 9983607349, "lat": 12.9166878, "lon": 77.6451801}, {"type": "node", "id": 9983607350, "lat": 12.9165238, "lon": 77.6451742}, {"type": "node", "id": 9983607351, "lat": 12.9165324, "lon": 77.6449233}, {"type": "node", "id": 10049386131, "lat": 12.9118088, "lon": 77.6494731}, {"type": "node", "id": 10049386132, "lat": 12.9115865, "lon": 77.6494764}, {"type": "node", "id": 10049386133, "lat": 12.9115885, "lon": 77.649615}, {"type": "node", "id": 10049386134, "lat": 12.9118108, "lon": 77.6496117}, {"type": "node", "id": 10066958277, "lat": 12.9084942, "lon": 77.6436044}, {"type": "node", "id": 10066958278, "lat": 12.9079176, "lon": 77.6435837}, {"type": "node", "id": 10066958279, "lat": 12.9079231, "lon": 77.6434223}, {"type": "node", "id": 10137293053, "lat": 12.9263862, "lon": 77.6766068, "tags": {"amenity": "hospital", "healthcare": "hospital", "name": "Apollo Pharmacy"}}, {"type": "node", "id": 10963251389, "lat": 12.9094156, "lon": 77.663997, "tags": {"addr:city": "Bengaluru", "addr:postcode": "560102", "addr:street": "HARLUR MAIN ROAD ,OPP.OZONE EVERGREEN SOCIETY GATE 1", "amenity": "hospital", "emergency": "yes", "healthcare": "hospital", "healthcare:speciality": "dentist", "name": "The Local Dentist", "operator": "DENTAL CLINIC", "operator:type": "business"}}, {"type": "node", "id": 11075395440, "lat": 12.9153904, "lon": 77.675278}, {"type": "node", "id": 11075395441, "lat": 12.91564, "lon": 77.6747945}, {"type": "node", "id": 11075395442, "lat": 12.9159951, "lon": 77.6749527}, {"type": "node", "id": 11085582504, "lat": 12.9144825, "lon": 77.6491563, "tags": {"addr:city": "bangalore", "addr:postcode": "560103", "addr:street": "24th Main Rd, Vanganahalli, 1st Sector, HSR Layout 5th Sector, Bengaluru,", "amenity": "hospital", "healthcare": "hospital", "name": "Lotus Hospital"}}, {"type": "node", "id": 11542703465, "lat": 12.929155, "lon": 77.6186663}, {"type": "node", "id": 11542703466, "lat": 12.9290631, "lon": 77.6188914}, {"type": "node", "id": 11542703467, "lat": 12.9292159, "lon": 77.6189571}, {"type": "node", "id": 11542703468, "lat": 12.9293078, "lon": 77.6187319}, {"type": "node", "id": 11542709969, "lat": 12.9293845, "lon": 77.618341}, {"type": "node", "id": 11542709970, "lat": 12.9293075, "lon": 77.6185297}, {"type": "node", "id": 11542709971, "lat": 12.9294624, "lon": 77.6185962}, {"type": "node", "id": 11542709972, "lat": 12.9295394, "lon": 77.6184076}, {"type": "node", "id": 11542709973, "lat": 12.9296052, "lon": 77.6186654}, {"type": "node", "id": 11542709974, "lat": 12.929486, "lon": 77.6189573}, {"type": "node", "id": 11542709975, "lat": 12.9296188, "lon": 77.6190143}, {"type": "node", "id": 11542709976, "lat": 12.9297379, "lon": 77.6187225}, {"type": "node", "id": 11700164026, "lat": 12.8804891, "lon": 77.6552588, "tags": {"addr:city": "Electronic city post", "addr:housenumber": "13-14/1", "addr:postcode": "560100", "addr:street": "Haralur Road", "amenity": "hospital", "healthcare": "dentist", "healthcare:speciality": "dentist", "name": "Smile Smart Dental & Implant Centre", "operator": "Smile Smart Dental", "operator:type": "private"}}, {"type": "node", "id": 11753319908, "lat": 12.9154066, "lon": 77.6752466}, {"type": "node", "id": 11782289126, "lat": 12.8933895, "lon": 77.6368614, "tags": {"amenity": "hospital", "check_date": "2024-04-03", "healthcare": "hospital", "name": "Sai Sparsh Hospital", "source": "survey"}}, {"type": "node", "id": 11903094814, "lat": 12.9240012, "lon": 77.6481809, "tags": {"amenity": "hospital", "name": "Sai Thunga Hospitals"}}, {"type": "node", "id": 11962404414, "lat": 12.9198055, "lon": 77.6672841}, {"type": "node", "id": 11962404415, "lat": 12.9207377, "lon": 77.6675136}, {"type": "node", "id": 11962404416, "lat": 12.9207097, "lon": 77.6676637}, {"type": "node", "id": 11962404417, "lat": 12.9199349, "lon": 77.6674794}, {"type": "node", "id": 11962404418, "lat": 12.9197342, "lon": 77.6674205}, {"type": "node", "id": 12080128815, "lat": 12.9578157, "lon": 77.6473284}, {"type": "node", "id": 12080142516, "lat": 12.9585438, "lon": 77.6473993}, {"type": "node", "id": 12080142517, "lat": 12.9582358, "lon": 77.6473087}, {"type": "node", "id": 12080978672, "lat": 12.958722, "lon": 77.6495339}, {"type": "node", "id": 12183790887, "lat": 12.9202322, "lon": 77.665534}, {"type": "node", "id": 12183790888, "lat": 12.9203478, "lon": 77.6651395}, {"type": "node", "id": 12270754755, "lat": 12.8841477, "lon": 77.6492549, "tags": {"amenity": "hospital", "check_date": "2024-10-20", "healthcare": "hospital"}}, {"type": "node", "id": 12270754757, "lat": 12.8892622, "lon": 77.6505317, "tags": {"amenity": "hospital", "check_date": "2024-10-20", "healthcare": "hospital", "name": "Raksha Hospital"}}, {"type": "node", "id": 12508687328, "lat": 12.9342277, "lon": 77.6296323, "tags": {"addr:city": "Bengaluru", "addr:district": "Bengaluru Urban", "addr:full": "640, 12Th Main, 80 Ft Road, 4Th Block, Koramangala", "addr:housenumber": "640", "addr:postcode": "560034", "addr:state": "Karnataka", "addr:street": "640, 12Th Main, 80 Ft Road, 4Th Block, Koramangala", "amenity": "hospital", "healthcare": "hospital", "name": "Beams Hospitals Private Limited"}}, {"type": "node", "id": 12615547386, "lat": 12.9090814, "lon": 77.6638713}, {"type": "node", "id": 12615547387, "lat": 12.9090108, "lon": 77.6638578}, {"type": "node", "id": 12615547388, "lat": 12.9090004, "lon": 77.6639115}, {"type": "node", "id": 12615547389, "lat": 12.9090788, "lon": 77.6639222}, {"type": "node", "id": 12737013801, "lat": 12.9644726, "lon": 77.6143018, "tags": {"addr:housenumber": "13", "addr:postcode": "560047", "addr:street": "Palmgrove Road, Stage 2, Xavier Layout, Victoria Layout", "amenity": "hospital", "name": "Hosmat Hospitals", "phone": "+918025593796", "website": "https://www.hosmathospitals.com/"}}, {"type": "node", "id": 12765777977, "lat": 12.9160037, "lon": 77.6523087, "tags": {"amenity": "hospital", "healthcare": "hospital", "healthcare:speciality": "gastroenterology;oncology", "name": "Bangalore Gastro Centre", "phone": "080 46 888 888", "website": "https://www.bangaloregastrocentre.com/"}}, {"type": "node", "id": 12956090274, "lat": 12.9346221, "lon": 77.6284665, "tags": {"addr:city": "Bangalore", "addr:district": "Bengaluru", "addr:housenumber": "224", "addr:postcode": "560034", "addr:street": "5th cross, 4th block", "amenity": "hospital", "emergency": "no", "healthcare": "hospital", "healthcare:speciality": "dentistry;prosthodontist;pediatric_dentist;implants;orthodontics;invisalign;root_canal_treatment", "name": "Proteeth Dental", "operator": "Dr Saranya, Dr Dipen", "operator:type": "private"}}, {"type": "node", "id": 13173681435, "lat": 12.9007868, "lon": 77.6756594}, {"type": "node", "id": 13173681436, "lat": 12.9007563, "lon": 77.6759596}, {"type": "node", "id": 13173681437, "lat": 12.9003444, "lon": 77.6759112}, {"type": "node", "id": 13173681438, "lat": 12.9003764, "lon": 77.6756139}, {"type": "way", "id": 133061664, "nodes": [1464138200, 1464138185, 3530490172, 1464138212, 1464138198, 1464138171, 1464138157, 1464138222, 1464138196, 1464138190, 1464138203, 1464138219, 1464138159, 1464138199, 3530490171, 1464138206, 1464138230, 1464138164, 3530490173, 1464138160, 3530490174, 3530490175, 3530490179, 3530490176, 1464138207, 3530490180, 3530490178, 3530490177, 1464138200], "tags": {"addr:district": "Bengaluru Urban", "addr:full": "No. 98, Rusthom Bhag, Airport Road", "addr:postcode": "560017", "addr:state": "Karnataka", "amenity": "hospital", "building": "hospital", "emergency": "yes", "healthcare": "hospital", "name": "Manipal Hospital, Bengaluru Urban", "name:kn": "\u0cae\u0ca3\u0cbf\u0caa\u0cbe\u0cb2 \u0c86\u0cb8\u0ccd\u0caa\u0ca4\u0ccd\u0cb0\u0cc6 \u0cac\u0cc6\u0c82\u0c97\u0cb3\u0cc2\u0cb0\u0cc1", "source": "OpenGovernmentData", "wheelchair": "yes"}}, {"type": "way", "id": 135262255, "nodes": [1485636649, 3299149245, 1464138170, 1464138181, 12080128815, 1464138158, 1464138179, 12080142517, 3299149250, 4127795879, 4558992274, 12080142516, 1091417892, 3299149253, 1091417882, 1485636653, 1091417875, 1434179292, 1485636664, 12080978672, 1485636649], "tags": {"amenity": "hospital", "healthcare": "hospital", "name": "Manipal Hospital", "name:kn": "\u0cae\u0ca3\u0cbf\u0caa\u0cbe\u0cb2 \u0c86\u0cb8\u0ccd\u0caa\u0ca4\u0ccd\u0cb0\u0cc6", "start_date": "1991", "wheelchair": "yes"}}, {"type": "way", "id": 262198741, "nodes": [2678582670, 2678582671, 2678582672, 2678582673, 2678582670], "tags": {"amenity": "hospital", "building": "yes", "healthcare": "hospital", "name": "Lions Seva Hospital"}}, {"type": "way", "id": 290187542, "nodes": [2937449072, 2937449066, 2937449088, 2937449060, 2937449069, 2937449065, 2937449081, 2937449085, 2937449070, 2937449078, 2937449077, 3298366366, 2937449080, 2937449084, 2937449076, 2937449064, 2937449071, 2937449072], "tags": {"alt_name": "Hindustan Aeronautics Limited Hospital", "amenity": "hospital", "emergency": "yes", "name": "HAL Hospital", "name:kn": "\u0c8e\u0c9a\u0ccd\u0c8e\u0c8e\u0cb2\u0ccd \u0c86\u0cb8\u0ccd\u0caa\u0ca4\u0ccd\u0cb0\u0cc6", "wheelchair": "yes"}}, {"type": "way", "id": 335043199, "nodes": [3421728215, 3421728216, 3421728217, 3421728218, 3421728215], "tags": {"amenity": "hospital", "healthcare": "hospital", "name": "Greenview Hospital", "wheelchair": "yes"}}, {"type": "way", "id": 347236390, "nodes": [3535942162, 3535942118, 3535941974, 3535942115, 3535942162], "tags": {"amenity": "hospital", "healthcare": "hospital"}}, {"type": "way", "id": 347236718, "nodes": [3535942122, 3535941988, 3535941963, 3535942098, 3535942122], "tags": {"addr:city": "Bangalore", "addr:district": "Bengaluru Urban", "addr:housenumber": "224", "addr:postcode": "560034", "addr:street": "5th Cross Road, 4th block", "amenity": "hospital", "building:levels": "2", "healthcare": "hospital", "healthcare:speciality": "dentistry;prosthodontist;pediatric_dentist", "name": "Proteeth Dental"}}, {"type": "way", "id": 347560957, "nodes": [3538225116, 3538225094, 3538224987, 3538224973, 3538224963, 3538224972, 3538224969, 3538224942, 3538224903, 3538224906, 3538224789, 3538224771, 3538224569, 3538224736, 3538224705, 3538224734, 3538225116]}, {"type": "way", "id": 372545827, "nodes": [3761101701, 3761101702, 3761101703, 3761101704, 3761101701], "tags": {"amenity": "hospital", "name": "BBMP Primary Health Center", "name:kn": "\u0caa\u0ccd\u0cb0\u0cbe\u0ca5\u0cae\u0cbf\u0c95 \u0c86\u0cb0\u0ccb\u0c97\u0ccd\u0caf \u0c95\u0cc7\u0c82\u0ca6\u0ccd\u0cb0"}}, {"type": "way", "id": 401993917, "nodes": [4044099878, 4044099876, 4044099877, 4044099880, 4044099878], "tags": {"amenity": "hospital", "name": "Government Hospital", "name:kn": "\u0cb8\u0cb0\u0ccd\u0c95\u0cbe\u0cb0\u0cbf \u0c86\u0cb8\u0ccd\u0caa\u0ca4\u0ccd\u0cb0\u0cc6", "ups_hospital": "general hospital"}}, {"type": "way", "id": 478206073, "nodes": [4714521507, 4714521506, 4714521505, 4714521504, 4714521503, 4714521502, 4714521501, 4714521500, 4714521499, 4714521498, 4714521497, 1454651983, 4714521496, 4714521495, 4714521507], "tags": {"addr:district": "Bengaluru Urban", "addr:full": "Air Force", "addr:postcode": "560007", "addr:state": "Karnataka", "amenity": "hospital", "healthcare": "hospital", "name": "Command Hospital (Air Force)", "source": "OpenGovernmentData"}}, {"type": "way", "id": 610471335, "nodes": [5781340796, 5781340797, 5781340798, 5781340799, 5781340796], "tags": {"amenity": "hospital", "healthcare": "hospital", "healthcare:speciality": "gynaecology", "name": "Motherhood"}}, {"type": "way", "id": 611385979, "nodes": [456013713, 2413039443, 5780885021, 5774292416, 12183790887, 12183790888, 456013713], "tags": {"amenity": "hospital", "check_date": "2025-02-12", "emergency": "yes", "healthcare": "hospital", "name": "Manipal Hospitals", "name:kn": "\u0cae\u0ca3\u0cbf\u0caa\u0cbe\u0cb2 \u0c86\u0cb8\u0ccd\u0caa\u0ca4\u0ccd\u0cb0\u0cc6", "payment:cash": "yes", "payment:mastercard": "yes", "payment:visa": "yes", "source": "survey", "wheelchair": "yes"}}, {"type": "way", "id": 613474107, "nodes": [5804557878, 5804557879, 5804557880, 5804557881, 5804557882, 5804557878], "tags": {"addr:city": "Bengaluru", "addr:housenumber": "66", "addr:postcode": "560034", "addr:street": "Kaikondrahalli, Sarjapur Road", "amenity": "hospital", "emergency": "yes", "healthcare": "hospital", "name": "Suvarnamukhi", "name:kn": "\u0cb8\u0cc1\u0cb5\u0cb0\u0ccd\u0ca3\u0cae\u0cc1\u0c96\u0cbf \u0c86\u0cb8\u0ccd\u0caa\u0ca4\u0ccd\u0cb0\u0cc6", "phone": "+91 98451 26869"}}, {"type": "way", "id": 631580848, "nodes": [2413417397, 2413417389, 5964111211, 5964111212, 5964111213, 2413417397], "tags": {"addr:housenumber": "52/2, 52/3", "addr:street": "Kariammana Agrahara Road", "amenity": "hospital", "check_date": "2025-09-03", "contact:phone": "080 4962 4962", "contact:website": "https://www.sakraworldhospital.com/", "emergency": "yes", "healthcare": "hospital", "healthcare:speciality": "dermatology;otolaryngology;urology;blood_check;cardiology;intensive;diabetology;orthopaedics;cardiothoracic_surgery;gynaecology;paediatrics;emergency;general;dentistry;dental_oral_maxillo_facial_surgery;rheumatology;anaesthetics;plastic_surgery;dialysis", "name": "Sakra World", "opening_hours": "24/7", "operator:type": "private", "payment:cash": "yes", "payment:credit_cards": "yes", "payment:debit_cards": "yes", "payment:qr_code": "yes", "payment:upi": "yes", "wheelchair": "yes", "wikidata": "Q134999916"}}, {"type": "way", "id": 655045245, "nodes": [6137643281, 6137643282, 6137643283, 6137643284, 6137643281], "tags": {"addr:district": "Bengaluru Urban", "addr:full": "14/2,Chikkanayakanahalli Village, Off Sarjapur Road", "addr:postcode": "560035", "addr:state": "Karnataka", "amenity": "hospital", "healthcare": "hospital", "healthcare:speciality": "ayurveda", "name": "Punarjani Ayurvedic Multispeciality Hospital", "source": "OpenGovernmentData"}}, {"type": "way", "id": 678066777, "nodes": [6348894929, 6348894930, 6348894931, 6348894932, 6348894929], "tags": {"amenity": "hospital", "healthcare": "hospital"}}, {"type": "way", "id": 1071044455, "nodes": [9828540924, 9828540925, 9828540926, 9828540927, 9828540924], "tags": {"amenity": "hospital", "check_date": "2025-02-12", "healthcare": "hospital", "healthcare:speciality": "maternity", "name": "Cloudnine", "payment:cash": "yes", "payment:mastercard": "yes", "payment:visa": "yes", "source": "survey"}}, {"type": "way", "id": 1071257248, "nodes": [9830902289, 9830902290, 9830902291, 9830902292, 9830902289], "tags": {"amenity": "hospital", "healthcare": "hospital", "name": "BN Specialty Hospital"}}, {"type": "way", "id": 1089884368, "nodes": [9983607348, 9983607349, 9983607350, 9983607351, 9983607348], "tags": {"amenity": "hospital", "emergency": "yes", "healthcare": "hospital", "name": "Phoenix Hospital"}}, {"type": "way", "id": 1097519307, "nodes": [10049386131, 10049386132, 10049386133, 10049386134, 10049386131], "tags": {"amenity": "hospital", "healthcare": "hospital", "name": "Bhoomi Diagnostics"}}, {"type": "way", "id": 1099665412, "nodes": [6947707789, 10066958277, 10066958278, 10066958279, 6947707789], "tags": {"addr:district": "Bengaluru Urban", "addr:full": "Ca Site No 1, Basant Health Centre Building, 18th Main, Opposite Hsr Club", "addr:postcode": "560102", "addr:state": "Karnataka", "amenity": "hospital", "healthcare": "hospital", "name": "Narayana Multispeciality Hospital", "name:kn": "\u0ca8\u0cbe\u0cb0\u0cbe\u0caf\u0ca3 \u0c86\u0cb8\u0ccd\u0caa\u0ca4\u0ccd\u0cb0\u0cc6", "operator:type": "private", "source": "OpenGovernmentData", "website": "https://www.narayanahealth.org/patients/locations/Bengaluru"}}, {"type": "way", "id": 1193177992, "nodes": [4474487215, 4474487222, 11075395440, 11753319908, 11075395441, 11075395442, 4474487215], "tags": {"amenity": "hospital", "emergency": "yes", "healthcare": "hospital", "name": "Cloud Nine", "note": "Emergency ward and lab open 24x7", "opening_hours": "Mo-Sa 08:00-20:00, Su 10:00-12:00, 16:00-18:00", "operator": "Cloud Nine Care", "operator:type": "private", "phone": "+91 99728 99728", "website": "https://www.cloudninecare.com/centre/sarjapur-road"}}, {"type": "way", "id": 1242182546, "nodes": [11542703468, 11542703467, 11542703466, 11542703465, 11542703468]}, {"type": "way", "id": 1242182547, "nodes": [11542709972, 11542709971, 11542709970, 11542709969, 11542709972]}, {"type": "way", "id": 1242182548, "nodes": [11542709976, 11542709975, 11542709974, 11542709973, 11542709976]}, {"type": "way", "id": 1290198690, "nodes": [11962404414, 11962404415, 11962404416, 11962404417, 11962404418, 11962404414], "tags": {"addr:city": "Bengaluru", "addr:housenumber": "3/4", "addr:postcode": "560103", "addr:street": "Sarjapura Road", "amenity": "hospital", "email": "queries@rainbowhospitals.in", "emergency": "yes", "healthcare": "hospital", "healthcare:speciality": "gynaecology;child_psychiatry;paediatrics;otolaryngology;fertility;neonatology;vascular_surgery;physiatry", "name": "Rainbow Childrens Hospital", "phone": "+91 08062261218", "website": "https://www.rainbowhospitals.in/"}}, {"type": "way", "id": 1362578786, "nodes": [12615547386, 12615547387, 12615547388, 12615547389, 12615547386], "tags": {"addr:city": "Bengaluru", "addr:district": "Karnataka", "addr:housenumber": "Plumeria 2nd Floor", "addr:postcode": "560102", "addr:street": "Haralur Main Road", "amenity": "hospital", "email": "urwelcome@klinikgluhen.com", "emergency": "yes", "healthcare": "hospital", "healthcare:speciality": "dentist;dental_oral_maxillo_facial_surgery;dentistry;implantology;orthodontics;pedodontics;maxillofacial_surgery;craniofacial;plastic_surgery;psychiatry", "image": "https://lh3.googleusercontent.com/p/AF1QipN-H9esnouOf6f9LhnY3IkGoS4dyHJiYGpHHac5=s680-w680-h510", "mobile": "+916366800859", "name": "Klinik Guhen - Dental Clinic", "opening_hours": "All Days 10:00-19:30 (Tue Holiday)", "operator": "Dental Clinic", "operator:type": "business", "payment:cash": "yes", "payment:credit_cards": "yes", "payment:debit_cards": "yes", "payment:google_pay": "yes", "phone": "+916366800859", "source": "streetlevel imagery;local knowledge;survey;gps", "start_date": "2021-10-01", "website": "https://klinikgluhen.com/", "wheelchair": "yes"}}, {"type": "way", "id": 1433363981, "nodes": [13173681435, 13173681436, 13173681437, 13173681438, 13173681435], "tags": {"amenity": "hospital", "healthcare": "hospital", "name": "Aarogya Hastha Hospital"}}, {"type": "relation", "id": 17069662, "members": [{"type": "way", "ref": 1242182546, "role": "inner"}, {"type": "way", "ref": 1242182547, "role": "inner"}, {"type": "way", "ref": 1242182548, "role": "inner"}, {"type": "way", "ref": 347560957, "role": "outer"}], "tags": {"addr:city": "Bangalore", "addr:district": "Bengaluru Urban", "addr:full": "Sarjapur Road, John Nagar, Koramangala", "addr:postcode": "560034", "addr:state": "Karnataka", "addr:street": "Sarjapur Road", "amenity": "hospital", "building": "yes", "email": "sjmcbng@rguhs.nic.in", "emergency": "yes", "healthcare": "hospital", "healthcare:speciality": "multi speciality", "name": "St.John's Medical College Hospital", "name:kn": "\u0cb8\u0cc6\u0c82\u0c9f\u0ccd \u0c9c\u0cbe\u0ca8\u0ccd\u0cb8\u0ccd \u0cb5\u0cc8\u0ca6\u0ccd\u0caf\u0c95\u0cc0\u0caf \u0c95\u0cbe\u0cb2\u0cc7\u0c9c\u0cc1 \u0cae\u0ca4\u0ccd\u0ca4\u0cc1 \u0c86\u0cb8\u0ccd\u0caa\u0ca4\u0ccd\u0cb0\u0cc6", "operator:type": "private", "source": "OpenGovernmentData", "type": "multipolygon", "website": "http://www.stjohns.in/hospital/#sthash.1e07FWcp.dpuf"}}]}