{"version": 0.6, "generator": "Overpass API 0.7.62.8 e802775f", "osm3s": {"timestamp_osm_base": "2026-01-12T01:30:14Z", "copyright": "The data included in this document is from www.openstreetmap.org. The data is made available under ODbL."}, "elements": [{"type": "node", "id": 343312950, "lat": 17.4446515, "lon": 78.450691}, {"type": "node", "id": 352754325, "lat": 17.4479266, "lon": 78.4381936}, {"type": "node", "id": 353039223, "lat": 17.4394206, "lon": 78.4422655}, {"type": "node", "id": 353039228, "lat": 17.4394355, "lon": 78.4424709}, {"type": "node", "id": 353039232, "lat": 17.4392358, "lon": 78.4424868}, {"type": "node", "id": 353039234, "lat": 17.4392209, "lon": 78.4422814}, {"type": "node", "id": 513439512, "lat": 17.4417142, "lon": 78.4478775, "tags": {"amenity": "hospital", "name": "Ameerpet Government Hospital", "name:te": "\u0c05\u0c2e\u0c40\u0c30\u0c4d\u200c\u0c2a\u0c47\u0c1f \u0c2a\u0c4d\u0c30\u0c2d\u0c41\u0c24\u0c4d\u0c35 \u0c06\u0c38\u0c41\u0c2a\u0c24\u0c4d\u0c30\u0c3f"}}, {"type": "node", "id": 513439517, "lat": 17.4422795, "lon": 78.4480341, "tags": {"amenity": "hospital", "name": "Sri Vijaya Hospitals", "name:te": "\u0c36\u0c4d\u0c30\u0c40 \u0c35\u0c3f\u0c1c\u0c2f \u0c39\u0c3e\u0c38\u0c4d\u0c2a\u0c3f\u0c1f\u0c32\u0c4d\u0c38\u0c4d"}}, {"type": "node", "id": 538425761, "lat": 17.4415414, "lon": 78.4461255, "tags": {"amenity": "hospital", "emergency": "no", "name": "Sree Priya Multi Speciality Hospital", "name:te": "\u0c36\u0c4d\u0c30\u0c40 \u0c2a\u0c4d\u0c30\u0c3f\u0c2f \u0c2e\u0c32\u0c4d\u0c1f\u0c40 \u0c38\u0c4d\u0c2a\u0c46\u0c37\u0c3e\u0c32\u0c3f\u0c1f\u0c40 \u0c39\u0c3e\u0c38\u0c4d\u0c2a\u0c3f\u0c1f\u0c32\u0c4d"}}, {"type": "node", "id": 1050786520, "lat": 17.4693193, "lon": 78.4778376, "tags": {"amenity": "hospital"}}, {"type": "node", "id": 1050844412, "lat": 17.4636217, "lon": 78.4567398, "tags": {"amenity": "hospital", "healthcare": "hospital", "name": "Remedy Hospitals"}}, {"type": "node", "id": 2208162453, "lat": 17.4291646, "lon": 78.4567382, "tags": {"addr:district": "Hyderabad", "addr:full": "6-3-1111/19, NISHATH BAGH, BEGUMPET", "addr:postcode": "500016", "addr:state": "Telangana", "amenity": "hospital", "contact:phone": "23402417", "name": "Swapna Health Care", "operator:type": "private", "source": "OpenGovernmentData"}}, {"type": "node", "id": 2466596561, "lat": 17.4893332, "lon": 78.4066679}, {"type": "node", "id": 2466596562, "lat": 17.4901023, "lon": 78.4063964}, {"type": "node", "id": 2466596566, "lat": 17.4902983, "lon": 78.4074958}, {"type": "node", "id": 2466596569, "lat": 17.4907949, "lon": 78.4070839}, {"type": "node", "id": 2466596572, "lat": 17.4911831, "lon": 78.4066065}, {"type": "node", "id": 2791962057, "lat": 17.4365665, "lon": 78.4831508}, {"type": "node", "id": 2791962060, "lat": 17.4366445, "lon": 78.4831897}, {"type": "node", "id": 2791962076, "lat": 17.4374173, "lon": 78.4833935}, {"type": "node", "id": 2791962080, "lat": 17.4376017, "lon": 78.4829348}, {"type": "node", "id": 2791962082, "lat": 17.4376589, "lon": 78.4834667}, {"type": "node", "id": 2791962088, "lat": 17.4377234, "lon": 78.4821876}, {"type": "node", "id": 2791962095, "lat": 17.4378995, "lon": 78.4814901}, {"type": "node", "id": 2835226156, "lat": 17.4511937, "lon": 78.4208721, "tags": {"addr:district": "Hyderabad", "addr:full": "Plot No: 170, Kalyan Nagar(Venture III), Mothi Nagar 'X' Roads", "addr:postcode": "500018", "addr:state": "Telangana", "amenity": "hospital", "healthcare": "hospital", "name": "Sri Bhargavi Hospital", "source": "OpenGovernmentData"}}, {"type": "node", "id": 2835658220, "lat": 17.4510973, "lon": 78.4224934, "tags": {"addr:city": "hyderabad", "addr:district": "Hyderabad", "addr:full": "Plot No. 128A, Phase III , Kalyan Nagar, Moti Nagar", "addr:postcode": "500018", "addr:state": "Telangana", "addr:street": "sriram nagar road", "amenity": "hospital", "healthcare": "hospital", "name": "Jaiswal Multi Speciality Hospitals", "source": "OpenGovernmentData"}}, {"type": "node", "id": 2835659213, "lat": 17.4480669, "lon": 78.4337319, "tags": {"amenity": "hospital", "name": "Government Ayurvedic Hospital", "opening_hours": "Mo-Su 09:00-12:00", "phone": "040-24512927"}}, {"type": "node", "id": 3159027236, "lat": 17.4388238, "lon": 78.4420946, "tags": {"addr:district": "Hyderabad", "addr:full": "D.Number 8-3-214/18, Srinivasa Colony West, Ameerpet", "addr:postcode": "500038", "addr:state": "Telangana", "amenity": "hospital", "fax": "040 23732617", "healthcare": "hospital", "medical_system": "Allopathic", "name": "Raghava Multi Speciality Hospital", "operator:type": "private", "phone": "040 23732617; 040 23732453; 040 55108329", "source": "OpenGovernmentData", "wheelchair": "yes"}}, {"type": "node", "id": 3159027238, "lat": 17.4385124, "lon": 78.4425646, "tags": {"addr:district": "Hyderabad", "addr:full": "8-3-214/2, Maruthy Mansion, Srinivasa Colony (West), Ameerpet, Opposite S.R Nagar ICICI Bank", "addr:postcode": "500038", "addr:state": "Telangana", "amenity": "hospital", "contact:mobile": "9246800810", "emergency_telephone_code": "040 66771566", "health_facility:type": "24 Hours Ambulance Services; Diagnostic Center; Pharmacy", "healthcare": "hospital", "healthcare:speciality": "Cardiology; Dermatology; Diabetology; Orthopedics; Gynecology; Nephrology; Pulmonology; Oncology; General Surgery; ENT; Neurology; Paediatrics Urology; Physiotherapy", "medical_system": "Allopathic", "name": "VCARE Hospitals", "operator:type": "private", "phone": "040 66771566", "source": "OpenGovernmentData", "website": "https://www.vcarehospitals.in/"}}, {"type": "node", "id": 3166260336, "lat": 17.4390074, "lon": 78.4406383, "tags": {"amenity": "hospital", "healthcare": "hospital", "name": "Deepthi Diagnostics"}}, {"type": "node", "id": 3182207744, "lat": 17.4364397, "lon": 78.482699}, {"type": "node", "id": 3182218374, "lat": 17.4378433, "lon": 78.4815322}, {"type": "node", "id": 3182222862, "lat": 17.4370821, "lon": 78.4833077}, {"type": "node", "id": 3387338154, "lat": 17.4940872, "lon": 78.4029813}, {"type": "node", "id": 3387338155, "lat": 17.4943507, "lon": 78.4031154}, {"type": "node", "id": 3387338156, "lat": 17.4942023, "lon": 78.4033595}, {"type": "node", "id": 3387338157, "lat": 17.4939593, "lon": 78.4032307}, {"type": "node", "id": 3390967828, "lat": 17.5113399, "lon": 78.4469461, "tags": {"addr:district": "Hyderabad", "addr:full": "Plot No.: 43, Gajularamaram Road, Shapur Nagar", "addr:postcode": "500055", "addr:state": "Telangana", "addr:street": "gajuularamaram road", "amenity": "hospital", "name": "Carewell Diabetes and General Hospital", "source": "OpenGovernmentData"}}, {"type": "node", "id": 3504313626, "lat": 17.4941839, "lon": 78.4033499}, {"type": "node", "id": 3523097906, "lat": 17.4897533, "lon": 78.4079352}, {"type": "node", "id": 3598267888, "lat": 17.4631717, "lon": 78.4904751, "tags": {"amenity": "hospital", "emergency": "no", "name": "Janapareddy Hospital"}}, {"type": "node", "id": 3614774687, "lat": 17.4685801, "lon": 78.4895471}, {"type": "node", "id": 3614774696, "lat": 17.468604, "lon": 78.4894077}, {"type": "node", "id": 3614774839, "lat": 17.4688871, "lon": 78.4896576}, {"type": "node", "id": 3614774844, "lat": 17.4688958, "lon": 78.4896067}, {"type": "node", "id": 3614774894, "lat": 17.4690011, "lon": 78.4896791}, {"type": "node", "id": 3614774908, "lat": 17.4690338, "lon": 78.4894888}, {"type": "node", "id": 3617125834, "lat": 17.4307005, "lon": 78.4172041}, {"type": "node", "id": 3617125854, "lat": 17.4307943, "lon": 78.4171111}, {"type": "node", "id": 3617125855, "lat": 17.4307945, "lon": 78.4173082}, {"type": "node", "id": 3617125872, "lat": 17.4308883, "lon": 78.4172153}, {"type": "node", "id": 3617313401, "lat": 17.4306351, "lon": 78.424363}, {"type": "node", "id": 3617313409, "lat": 17.4307088, "lon": 78.4241574}, {"type": "node", "id": 3617313413, "lat": 17.4307341, "lon": 78.4244019}, {"type": "node", "id": 3617313422, "lat": 17.4308078, "lon": 78.4241963}, {"type": "node", "id": 3617354714, "lat": 17.4247681, "lon": 78.4563367}, {"type": "node", "id": 3617354716, "lat": 17.4247889, "lon": 78.4564961}, {"type": "node", "id": 3617354733, "lat": 17.4251323, "lon": 78.4562844}, {"type": "node", "id": 3617354736, "lat": 17.4251531, "lon": 78.4564438}, {"type": "node", "id": 3618963151, "lat": 17.4414164, "lon": 78.4973343}, {"type": "node", "id": 3618963164, "lat": 17.4414973, "lon": 78.4967979}, {"type": "node", "id": 3618963914, "lat": 17.4420799, "lon": 78.4974727}, {"type": "node", "id": 3618963919, "lat": 17.4421843, "lon": 78.4969024}, {"type": "node", "id": 3619076683, "lat": 17.4429753, "lon": 78.4438837}, {"type": "node", "id": 3619076696, "lat": 17.4429894, "lon": 78.4437527}, {"type": "node", "id": 3619076751, "lat": 17.4430675, "lon": 78.4438946}, {"type": "node", "id": 3619076761, "lat": 17.4430817, "lon": 78.4437636}, {"type": "node", "id": 3619471876, "lat": 17.4348516, "lon": 78.4550267}, {"type": "node", "id": 3619471995, "lat": 17.4349879, "lon": 78.45501}, {"type": "node", "id": 3619471999, "lat": 17.4350028, "lon": 78.4551434}, {"type": "node", "id": 3624691519, "lat": 17.4404466, "lon": 78.4859754}, {"type": "node", "id": 3624691532, "lat": 17.4405578, "lon": 78.4862098}, {"type": "node", "id": 3624691538, "lat": 17.4406209, "lon": 78.4858919}, {"type": "node", "id": 3624691563, "lat": 17.440743, "lon": 78.4861721}, {"type": "node", "id": 3624692073, "lat": 17.4414062, "lon": 78.4865667}, {"type": "node", "id": 3624692074, "lat": 17.4414088, "lon": 78.486353}, {"type": "node", "id": 3624692083, "lat": 17.441446, "lon": 78.4863535}, {"type": "node", "id": 3624692084, "lat": 17.4414467, "lon": 78.4862911}, {"type": "node", "id": 3624692091, "lat": 17.4414996, "lon": 78.4862918}, {"type": "node", "id": 3624692092, "lat": 17.4415005, "lon": 78.4862205}, {"type": "node", "id": 3624692297, "lat": 17.4415609, "lon": 78.4865688}, {"type": "node", "id": 3624692298, "lat": 17.4415627, "lon": 78.4864147}, {"type": "node", "id": 3624692313, "lat": 17.4417456, "lon": 78.4864172}, {"type": "node", "id": 3624692314, "lat": 17.441748, "lon": 78.4862238}, {"type": "node", "id": 3624906091, "lat": 17.4437934, "lon": 78.4512266}, {"type": "node", "id": 3661096838, "lat": 17.4408248, "lon": 78.4866798}, {"type": "node", "id": 3661096839, "lat": 17.4409176, "lon": 78.4866454}, {"type": "node", "id": 3661096840, "lat": 17.4409469, "lon": 78.4868859}, {"type": "node", "id": 3661096845, "lat": 17.4410723, "lon": 78.4870252}, {"type": "node", "id": 3661096847, "lat": 17.441099, "lon": 78.4870611}, {"type": "node", "id": 3661096850, "lat": 17.4412698, "lon": 78.4872101}, {"type": "node", "id": 3661096852, "lat": 17.4413694, "lon": 78.4871434}, {"type": "node", "id": 3661096853, "lat": 17.4414378, "lon": 78.4869656}, {"type": "node", "id": 3661096854, "lat": 17.4414445, "lon": 78.4871434}, {"type": "node", "id": 3661096855, "lat": 17.4415045, "lon": 78.4869447}, {"type": "node", "id": 3661096856, "lat": 17.4415051, "lon": 78.4869642}, {"type": "node", "id": 3661096857, "lat": 17.4415132, "lon": 78.4866978}, {"type": "node", "id": 3661096858, "lat": 17.4415209, "lon": 78.4869449}, {"type": "node", "id": 3681791850, "lat": 17.4376497, "lon": 78.4827504}, {"type": "node", "id": 3908287701, "lat": 17.4455341, "lon": 78.4522234}, {"type": "node", "id": 4178240735, "lat": 17.4450041, "lon": 78.4346568}, {"type": "node", "id": 4178240736, "lat": 17.4450234, "lon": 78.4349593}, {"type": "node", "id": 4178240737, "lat": 17.4450475, "lon": 78.43485}, {"type": "node", "id": 4178240738, "lat": 17.4450607, "lon": 78.4351253}, {"type": "node", "id": 4178240739, "lat": 17.445061, "lon": 78.4349223}, {"type": "node", "id": 4178240740, "lat": 17.4450669, "lon": 78.4349486}, {"type": "node", "id": 4178240741, "lat": 17.4450751, "lon": 78.4345552}, {"type": "node", "id": 4178240742, "lat": 17.445093, "lon": 78.4346348}, {"type": "node", "id": 4178240743, "lat": 17.445094, "lon": 78.4349142}, {"type": "node", "id": 4178240744, "lat": 17.4451017, "lon": 78.4349482}, {"type": "node", "id": 4178240745, "lat": 17.4451037, "lon": 78.4351146}, {"type": "node", "id": 4178240746, "lat": 17.4451117, "lon": 78.4351501}, {"type": "node", "id": 4178240747, "lat": 17.4451225, "lon": 78.4349072}, {"type": "node", "id": 4178240749, "lat": 17.4451553, "lon": 78.4348233}, {"type": "node", "id": 4178240750, "lat": 17.4451584, "lon": 78.4348373}, {"type": "node", "id": 4178240752, "lat": 17.4452344, "lon": 78.4348516}, {"type": "node", "id": 4178240753, "lat": 17.4452404, "lon": 78.434878}, {"type": "node", "id": 4178240754, "lat": 17.4452617, "lon": 78.4348118}, {"type": "node", "id": 4178240755, "lat": 17.4452687, "lon": 78.4348431}, {"type": "node", "id": 4178240756, "lat": 17.445295, "lon": 78.4348032}, {"type": "node", "id": 4178240757, "lat": 17.4453004, "lon": 78.4348274}, {"type": "node", "id": 4178240759, "lat": 17.4453113, "lon": 78.4351008}, {"type": "node", "id": 4178240760, "lat": 17.4453264, "lon": 78.434821}, {"type": "node", "id": 4178240762, "lat": 17.4453297, "lon": 78.4351824}, {"type": "node", "id": 4178240763, "lat": 17.445332, "lon": 78.4348457}, {"type": "node", "id": 4178240764, "lat": 17.4453443, "lon": 78.4344887}, {"type": "node", "id": 4178240765, "lat": 17.4453622, "lon": 78.4345684}, {"type": "node", "id": 4178240766, "lat": 17.4453902, "lon": 78.4350813}, {"type": "node", "id": 4178240767, "lat": 17.4453916, "lon": 78.434757}, {"type": "node", "id": 4178240768, "lat": 17.4453964, "lon": 78.4347781}, {"type": "node", "id": 4178240769, "lat": 17.4454085, "lon": 78.4351629}, {"type": "node", "id": 4178240772, "lat": 17.4454565, "lon": 78.4345451}, {"type": "node", "id": 4178240775, "lat": 17.4454982, "lon": 78.4347307}, {"type": "node", "id": 4178240779, "lat": 17.4455643, "lon": 78.4350096}, {"type": "node", "id": 4178240781, "lat": 17.4455704, "lon": 78.4350368}, {"type": "node", "id": 4178240782, "lat": 17.4455707, "lon": 78.4347868}, {"type": "node", "id": 4178240783, "lat": 17.4456178, "lon": 78.4349963}, {"type": "node", "id": 4451580789, "lat": 17.4269993, "lon": 78.4488484, "tags": {"amenity": "hospital"}}, {"type": "node", "id": 4486660717, "lat": 17.4396192, "lon": 78.450794, "tags": {"addr:district": "Hyderabad", "addr:full": "7-1-71/A/1, Dharam Karam Road, Ameerpet", "addr:postcode": "500016", "addr:state": "Telangana", "amenity": "hospital", "contact:email": "info@challahospital.com", "contact:mobile": "9441318181", "health_facility:type": "Multi Speciality OPD;Five Major Operation Theatres;Septic Operation Theatre;Post Op Ward;Neonatal ICU;Critical Care Unit;Critical Care Unit;Psychological Consultation", "healthcare:speciality": "multi specialty", "medical_system": "Allopathic", "name": "Challa Hospital", "name:te": "\u0c1a\u0c32\u0c4d\u0c32\u0c3e \u0c39\u0c38\u0c4d\u0c2a\u0c3f\u0c1f\u0c32\u0c4d", "operator:type": "private", "phone": "040 23744444;040 23731215;040 23731515;040 23734182", "source": "OpenGovernmentData", "website": "http://www.challahospital.com"}}, {"type": "node", "id": 4556707787, "lat": 17.4443626, "lon": 78.4527717}, {"type": "node", "id": 4614088290, "lat": 17.4410398, "lon": 78.4869976, "tags": {"highway": "emergency_access_point", "name": "Accidents & Emergency"}}, {"type": "node", "id": 4614088291, "lat": 17.4411875, "lon": 78.4869617}, {"type": "node", "id": 4614088292, "lat": 17.4413415, "lon": 78.4871156}, {"type": "node", "id": 4614088293, "lat": 17.4411634, "lon": 78.4869376}, {"type": "node", "id": 4614088294, "lat": 17.4409721, "lon": 78.4867034}, {"type": "node", "id": 4614311358, "lat": 17.4444782, "lon": 78.469498, "tags": {"addr:district": "Hyderabad", "addr:full": "SP Road, Near Begumpet Old Airport, Begumpet", "addr:postcode": "500016", "addr:state": "Telangana", "amenity": "hospital", "medical_system": "Allopathic", "name": "Pace Hospital", "operator:type": "private", "phone": "040 66171717; 040 27764646", "source": "OpenGovernmentData"}}, {"type": "node", "id": 4622047587, "lat": 17.4911604, "lon": 78.4066502}, {"type": "node", "id": 5324874933, "lat": 17.4297764, "lon": 78.4340161, "tags": {"addr:district": "Hyderabad", "addr:full": "# 8-3-833, Plot No:100, Phase 1, Kamalapuri Colony, Sri Nagar Colony", "addr:postcode": "500073", "addr:state": "Telangana", "amenity": "hospital", "contact:email": "hospitaltanvir@gmail.com", "healthcare": "hospital", "name": "Tanvir Hospital", "phone": "+91 9951911155", "source": "OpenGovernmentData", "website": "https://tanvirhospital.com/", "wikidata": "Q52843710"}}, {"type": "node", "id": 5482634949, "lat": 17.4260213, "lon": 78.4316931}, {"type": "node", "id": 5957428793, "lat": 17.4467184, "lon": 78.4389697}, {"type": "node", "id": 5957428794, "lat": 17.4464459, "lon": 78.4400544}, {"type": "node", "id": 5957428795, "lat": 17.4468523, "lon": 78.440132}, {"type": "node", "id": 5957428796, "lat": 17.4467105, "lon": 78.441405}, {"type": "node", "id": 5957428797, "lat": 17.4473453, "lon": 78.44158}, {"type": "node", "id": 5957428798, "lat": 17.4487519, "lon": 78.4414859}, {"type": "node", "id": 5957428799, "lat": 17.448985, "lon": 78.440345}, {"type": "node", "id": 5957428800, "lat": 17.4486795, "lon": 78.4378155}, {"type": "node", "id": 5957428802, "lat": 17.4472996, "lon": 78.4385916}, {"type": "node", "id": 6078227506, "lat": 17.4564341, "lon": 78.4388653, "tags": {"addr:district": "Hyderabad", "addr:full": "7-2-1735, Opp. Voltas Company Private Ltd, Czech Colony, Sanath Nagar", "addr:postcode": "500018", "addr:state": "Telangana", "addr:street": "Czech colony", "amenity": "hospital", "health_facility:type": "Ambulance Service;Home Visit;Availability of Specialist Doctors;24 hours On Call", "healthcare": "hospital", "healthcare:speciality": "Gynaecologist and Obstetrician;Anethesia's and Critical Care;Neurology;Paediatric;Orthopaedics;Gastroenterology;Cardiology;ENT;Urology;Plastic Surgery;Physiotheraphy", "medical_system": "Allopathic", "name": "Neelima - Sanath Nagar", "operator:type": "private", "phone": "040 64617475;040 21111100", "source": "OpenGovernmentData", "website": "http://www.neelimahospital.com"}}, {"type": "node", "id": 6078236947, "lat": 17.456281, "lon": 78.4369269, "tags": {"addr:district": "Hyderabad", "addr:full": "7-2-1799/4A/2, Street Number 2, Czech Colony, Sanath Nagar", "addr:postcode": "500018", "addr:state": "Telangana", "addr:street": "Strret No. 2, Czech colony", "amenity": "hospital", "emergency": "no", "fax": "040 23718583", "healthcare": "hospital", "name": "Poojitha Hospital", "source": "OpenGovernmentData"}}, {"type": "node", "id": 6185287784, "lat": 17.4417011, "lon": 78.4973943}, {"type": "node", "id": 6186448328, "lat": 17.4254893, "lon": 78.4270947}, {"type": "node", "id": 6186448329, "lat": 17.4255039, "lon": 78.4279038}, {"type": "node", "id": 6186448330, "lat": 17.4240177, "lon": 78.4280445}, {"type": "node", "id": 6186448331, "lat": 17.4238469, "lon": 78.427289}, {"type": "node", "id": 6212803089, "lat": 17.4379741, "lon": 78.4563758, "tags": {"addr:district": "Hyderabad", "addr:full": "7-1-21, RAILWAY STATION ROAD, UMA NAGAR, BEGUMPET", "addr:postcode": "500016", "addr:state": "Telangana", "amenity": "hospital", "contact:phone": "9000387345", "healthcare": "hospital", "name": "VINN Hospital", "operator:type": "private", "source": "OpenGovernmentData"}}, {"type": "node", "id": 6217853185, "lat": 17.4257981, "lon": 78.4207625, "tags": {"amenity": "hospital", "healthcare": "hospital", "name": "Red Cross Nature Cure Centre", "name:en": "Red Cross Instuite of Nature Cure and Yoga", "opening_hours": "Mo-Sa 00:00-24:00"}}, {"type": "node", "id": 6442939706, "lat": 17.4371236, "lon": 78.4833183}, {"type": "node", "id": 6480130350, "lat": 17.4444929, "lon": 78.4662196, "tags": {"addr:district": "Hyderabad", "addr:full": "1-10-44/1, Near Prakash Nagar Metro Station, Begumpet Main Road", "addr:postcode": "500016", "addr:state": "Telangana", "amenity": "hospital", "fax": "040 30137299", "health_facility:type": "Separate Divisions for Each Speciality;State Of The Art Operation Theatres;Post Op Lounge with Beds;Advanced Eye Care Equipment;Complete Range of Optical Frames and Lenses;Exclusive Childrens Eye Care;24 7 Pharmacy;Ambulance Services", "healthcare:speciality": "Cataract Services;Refractive Surgery;Cornea Services;Glaucoma Services;Retina Services;Paediatric Ophthalmology and Squint Services;Oculoplasty Services;UVEITIS;Neuro Ophthalmology;Vision Rehabilitation Services;Computer Vision Syndrome;Contact Lenses", "medical_system": "Allopathic", "name": "Vasan Healthcare Private Limited", "operator:type": "Private", "phone": "040 30137200", "source": "OpenGovernmentData", "website": "https://vasaneye.com/"}}, {"type": "node", "id": 6482049740, "lat": 17.4311263, "lon": 78.4266108, "tags": {"addr:district": "Hyderabad", "addr:full": "8-3-231/A/516,517,A-Block, Sri Krishna Nagar, Yousufguda", "addr:postcode": "500045", "addr:state": "Telangana", "amenity": "hospital", "healthcare": "hospital", "name": "Anvitha Hospital", "source": "OpenGovernmentData"}}, {"type": "node", "id": 6482108938, "lat": 17.4432007, "lon": 78.4796964, "tags": {"addr:district": "Hyderabad", "addr:full": "Above Agrawala Sweets, Opp to Metro Pillar No 18, S.P. Road, Begumpet", "addr:postcode": "500003", "addr:state": "Telangana", "amenity": "hospital", "contact:mobile": "+91-9550003399; +91-9177550066.", "health_facility:type": "Arthritis;Sexual Problems;Thyroid Disorders;Respiratory Disorders;Skin Disorders;Female DisordersInfertility;Gastric Disorders;Kidney Problems;Auto Immune;Disorders", "healthcare:speciality": "homeopathy", "medical_system": "Ayush;Homeopathy", "name": "Homeocare International", "operator:type": "private", "source": "OpenGovernmentData", "website": "www.homeocares.com"}}, {"type": "node", "id": 6482123599, "lat": 17.5123618, "lon": 78.4754596, "tags": {"addr:district": "Hyderabad", "addr:full": "Plot Number 13 and 14, Pipeline Road, Behind Deevan Dhaba, Petbasheerabad, Jeedimetla", "addr:postcode": "500055", "addr:state": "Telangana", "amenity": "hospital", "contact:mobile": "9963545454", "email": "info@konarkhospitals.com", "health_facility:type": "Cashless Billing and Reimbursement Facility;Emergency Ambulance Services;Diagnostic Services;Surgical Services;ICU Facility;Operation Theater;Pharmacy Services", "healthcare:speciality": "multi specialty", "medical_system": "Allopathic", "name": "Konark Hospitals", "operator:type": "private", "phone": "040 44661515", "source": "OpenGovernmentData", "website": "https://www.konarkhospitals.com/"}}, {"type": "node", "id": 6482129255, "lat": 17.4252477, "lon": 78.4537243, "tags": {"addr:district": "Hyderabad", "addr:full": "Ozone Complex, 1st Floor, Near Bajaj Electronics, Panjagutta", "addr:postcode": "500082", "addr:state": "Telangana", "amenity": "hospital", "contact:email": "info@lmcindia.com", "contact:mobile": "9246391309", "name": "Leads Medical Centre", "phone": "040 23418873; 040 32009559", "source": "OpenGovernmentData", "website": "https://www.lmcindia.com/"}}, {"type": "node", "id": 6484735190, "lat": 17.4691656, "lon": 78.4773293, "tags": {"addr:district": "Hyderabad", "addr:full": "1-10-314/P, Opposite Mallareddy Gardens, Thokatta Village, Bowenpally", "addr:postcode": "500011", "addr:state": "Telangana", "amenity": "hospital", "email": "doctor@dristenetralaya.com", "name": "Dristi Netralaya Hospital", "phone": "040-27950101", "source": "OpenGovernmentData", "website": "www.dristenetralaya.com"}}, {"type": "node", "id": 6484931583, "lat": 17.429802, "lon": 78.4487075, "tags": {"addr:district": "Hyderabad", "addr:full": "# 8-3-952/10/2 & 2/1, Srinagar Colony Road, Punjagutta, Nagarjuna Nagar Colony, Yella Reddy Guda", "addr:postcode": "500073", "addr:state": "Telangana", "amenity": "hospital", "contact:email": "info@smiline.com", "fax": "23747979; 237440775", "name": "Smiline Dental Hospital", "phone": "+919595853000", "source": "OpenGovernmentData", "website": "https://www.smiline.com"}}, {"type": "node", "id": 6484944575, "lat": 17.4905626, "lon": 78.4072572}, {"type": "node", "id": 6485054519, "lat": 17.4841162, "lon": 78.4488925, "tags": {"addr:district": "Hyderabad", "addr:full": "10-84, Sowbhagya Nagar, Opp. IDPL Colony", "addr:postcode": "500037", "addr:state": "Telangana", "amenity": "hospital", "name": "Kid Care Children's Hospital", "source": "OpenGovernmentData"}}, {"type": "node", "id": 6485092243, "lat": 17.4390949, "lon": 78.4406662, "tags": {"addr:district": "Hyderabad", "addr:full": "8-3-214/46, Srinivas Colony West, Ameerpet", "addr:postcode": "500038", "addr:state": "Telangana", "amenity": "hospital", "healthcare": "hospital", "name": "Sainath Hospital", "source": "OpenGovernmentData"}}, {"type": "node", "id": 6485134606, "lat": 17.4406252, "lon": 78.4242403, "tags": {"addr:district": "Hyderabad", "addr:full": "Rahamath Nagar, Yousufguda", "addr:postcode": "500045", "addr:state": "Telangana", "amenity": "hospital", "name": "Sadanand Nursing Home", "source": "OpenGovernmentData"}}, {"type": "node", "id": 6485566735, "lat": 17.4298167, "lon": 78.4506487, "tags": {"addr:district": "Hyderabad", "addr:full": "Datla Pride, Punjagutta Officers Colony, Punjagutta", "addr:postcode": "500082", "addr:state": "Telangana", "amenity": "hospital", "email": "panjagutta@dragarwal.com", "healthcare": "hospital", "healthcare:speciality": "Cataract Surgery;Cornea and Refractive;Retina;Oculoplastic;Glaucoma;Uvea;Neuro Ophthamology;Squint and Pediatric Opthalmology;Lasik", "medical_system": "Allopathic", "name": "Dr.Agarwal's Eye Hospital", "operator": "Dr. Agarwal's Eye Hospital", "operator:type": "private", "operator:wikidata": "Q17052044", "phone": "040 23400081", "source": "OpenGovernmentData", "website": "https://www.dragarwal.com/"}}, {"type": "node", "id": 6485763799, "lat": 17.4767414, "lon": 78.4798486, "tags": {"addr:district": "Hyderabad", "addr:full": "8-4-123, Near Old Bowenpally Bus Stop", "addr:postcode": "500011", "addr:state": "Telangana", "amenity": "hospital", "name": "Vinciti Hospital", "source": "OpenGovernmentData"}}, {"type": "node", "id": 6485880627, "lat": 17.4525697, "lon": 78.4444669, "tags": {"addr:district": "Hyderabad", "addr:full": "SRT 641-642, Opposite Vinayaka Ground, Sanathnagar", "addr:postcode": "500018", "addr:state": "Telangana", "amenity": "hospital", "name": "Vijaya Krishna Nursing Home", "source": "OpenGovernmentData"}}, {"type": "node", "id": 6486037407, "lat": 17.4595888, "lon": 78.4780213, "tags": {"addr:district": "Hyderabad", "addr:full": "Plot No. 3,Ganesh Nagar Colony,Opposite Smt. Sarojini Pulla Reddy House, Hasmathpet Road, New Bowenpally", "addr:postcode": "500011", "addr:state": "Telangana", "amenity": "hospital", "fax": "040 27957958", "name": "Cure Hospitals", "source": "OpenGovernmentData"}}, {"type": "node", "id": 6486149790, "lat": 17.4570199, "lon": 78.4784049, "tags": {"addr:district": "Hyderabad", "addr:full": "53, Bhima Shankar Complex Malani Housing Colony Thokatta", "addr:postcode": "500009", "addr:state": "Telangana", "amenity": "hospital", "name": "Raghavendra Orthopaedic and Diagnostic Centre", "source": "OpenGovernmentData"}}, {"type": "node", "id": 6487116810, "lat": 17.4343967, "lon": 78.4173229, "tags": {"addr:district": "Hyderabad", "addr:full": "Plot No. 225/A, Road No 17, Jubilee Hills Check Post", "addr:postcode": "500033", "addr:state": "Telangana", "amenity": "hospital", "healthcare": "hospital", "name": "Srivision Super Speciality Eye Hospital", "source": "OpenGovernmentData"}}, {"type": "node", "id": 6487127620, "lat": 17.4352974, "lon": 78.4365799, "tags": {"addr:district": "Hyderabad", "addr:full": "8-3-667/1, Near K.K. Towers, Lane Opposite Allahabad Bank, Engineer's Colony, Yousufguda Road", "addr:postcode": "500073", "addr:state": "Telangana", "amenity": "hospital", "healthcare": "hospital", "name": "Susheela Hospital", "phone": "040 23730020", "source": "OpenGovernmentData"}}, {"type": "node", "id": 6487508548, "lat": 17.4850586, "lon": 78.4471166, "tags": {"addr:district": "Hyderabad", "addr:full": "12-143, Community Hall Road, Adarsh Nagar, Opposite IDPL Colony Bus Stop, Balanagar", "addr:postcode": "500037", "addr:state": "Telangana", "amenity": "hospital", "name": "Jayasai Hospital For Women", "source": "OpenGovernmentData"}}, {"type": "node", "id": 6487866891, "lat": 17.437122, "lon": 78.4272954, "tags": {"addr:district": "Hyderabad", "addr:full": "8-3-229/37, Tahir Villa, Near Dena Bank, Opposite St Mary\u2019s Junior College, Yousufguda Check Post", "addr:postcode": "500045", "addr:state": "Telangana", "amenity": "hospital", "contact:email": "drsmguro@gmail.com", "contact:phone": "040-23608179", "healthcare": "hospital", "name": "Fehmi Care Hospital", "source": "OpenGovernmentData", "website": "https://fehmicarehospital.com"}}, {"type": "node", "id": 6488469834, "lat": 17.4467703, "lon": 78.4504817, "tags": {"addr:district": "Hyderabad", "addr:full": "7-246/B/1, Lane Opp. Yellamma Temple, Balkampet", "addr:postcode": "500016", "addr:state": "Telangana", "amenity": "hospital", "name": "S.V. Hospital", "source": "OpenGovernmentData"}}, {"type": "node", "id": 6488599602, "lat": 17.4354676, "lon": 78.4514661, "tags": {"addr:district": "Hyderabad", "addr:full": "7-1-59/4/8, Near Lal Bunglow, Ameerpet", "addr:postcode": "500016", "addr:state": "Telangana", "amenity": "hospital", "fax": "23735335", "name": "Sri Sai Kidney Centre", "source": "OpenGovernmentData"}}, {"type": "node", "id": 6489576234, "lat": 17.4418419, "lon": 78.4452461, "tags": {"addr:district": "Hyderabad", "addr:full": "43/3 RT, Near Community Hall, S.R. Nagar", "addr:postcode": "500038", "addr:state": "Telangana", "amenity": "hospital", "fax": "23801021", "name": "GSN Hospital", "source": "OpenGovernmentData"}}, {"type": "node", "id": 6489591500, "lat": 17.4281872, "lon": 78.432519, "tags": {"addr:district": "Hyderabad", "addr:full": "Lane Beside Harley Davidson Showroom, Sagar Soceity Main Road, Road Number 2, Banjara Hills", "addr:postcode": "500034", "addr:state": "Telangana", "amenity": "hospital", "contact:mobile": "9849204178; 040-40137750", "email": "challaeyecare@gmail.com", "healthcare": "hospital", "name": "Challa Eye Care Centre", "operator:type": "private", "phone": "040-40137750; 040-40171180", "source": "OpenGovernmentData", "website": "https://challaeyecare.com"}}, {"type": "node", "id": 6489843355, "lat": 17.4554163, "lon": 78.4238099, "tags": {"addr:district": "Hyderabad", "addr:full": "Plot No: 112/C, 112/D, Moti Nagar, Erragadda", "addr:postcode": "500018", "addr:state": "Telangana", "amenity": "hospital", "name": "Leela Hospital", "source": "OpenGovernmentData"}}, {"type": "node", "id": 6490770019, "lat": 17.4274156, "lon": 78.4607056, "tags": {"addr:district": "Hyderabad", "addr:full": "6-3-1100/2, Raj Bhavan Road, Somajiguda", "addr:postcode": "500082", "addr:state": "Telangana", "amenity": "hospital", "name": "Matrika Hospital", "source": "OpenGovernmentData"}}, {"type": "node", "id": 6491348622, "lat": 17.4364471, "lon": 78.4961886, "tags": {"addr:district": "Hyderabad", "addr:full": "H.No. 7-1-684 & 685/A, Market Street, Secunderabad", "addr:postcode": "500003", "addr:state": "Telangana", "amenity": "hospital", "name": "Aravind Nursing Home", "source": "OpenGovernmentData"}}, {"type": "node", "id": 6493463498, "lat": 17.5141839, "lon": 78.4470136, "tags": {"addr:district": "Hyderabad", "addr:full": "Opposite Adarsh Bank, Beside Sagar Hotel, Shapur Nagar Main Road", "addr:postcode": "500055", "addr:state": "Telangana", "amenity": "hospital", "healthcare": "hospital", "name": "Ragani Children's Hospital", "source": "OpenGovernmentData"}}, {"type": "node", "id": 6493547008, "lat": 17.4593055, "lon": 78.4785913, "tags": {"addr:district": "Hyderabad", "addr:full": "13A & B, Anand Nagar Colony, Near Chinna Thokatta Bridge, New Bowenpally", "addr:postcode": "500011", "addr:state": "Telangana", "amenity": "hospital", "email": "drsguduru@hotmail.com", "name": "Chandana Hospitals", "phone": "9848027177", "source": "OpenGovernmentData", "website": "www.drsureshchandrahari.com"}}, {"type": "node", "id": 6494235890, "lat": 17.4312043, "lon": 78.4553486, "tags": {"addr:district": "Hyderabad", "addr:full": "6-3-871/A, Greenlands Road, Behind Snehalata Complex, Begumpet", "addr:postcode": "500016", "addr:state": "Telangana", "amenity": "hospital", "check_date": "2025-01-07", "name": "Vivekananda Hospital", "source": "OpenGovernmentData"}}, {"type": "node", "id": 6494465425, "lat": 17.4953109, "lon": 78.415377, "tags": {"addr:district": "Hyderabad", "addr:full": "Plot No. 141 & 144/1, Sapthagiri Colony, Ayyappa Swamy Temple Road, Near New Era School, Kukatpally", "addr:postcode": "500072", "addr:state": "Telangana", "amenity": "hospital", "contact:email": "info@harsha-hospitals.co.in", "contact:mobile": "7799565793; 9000855548", "name": "Harsha Hospitals", "phone": "040 23066393", "source": "OpenGovernmentData", "website": "https://www.harsha-hospitals.com/"}}, {"type": "node", "id": 6494952509, "lat": 17.4405861, "lon": 78.4503195, "tags": {"addr:district": "Hyderabad", "addr:full": "2nd Floor, Bhaskara Hospital, Shivbagh Colony, Balkampet Road, Ameerpet", "addr:postcode": "500016", "addr:state": "Telangana", "amenity": "hospital", "name": "Vatsalya Institute Of Pediatrics Hospital", "source": "OpenGovernmentData"}}, {"type": "node", "id": 6495015780, "lat": 17.4260772, "lon": 78.457375, "tags": {"addr:district": "Hyderabad", "addr:full": "No. 6-3-1092/S1&S2, A Block, 2nd Floor, Shanthi Sikhara Complex, Somajiguda", "addr:postcode": "500082", "addr:state": "Telangana", "amenity": "hospital", "contact:phone": "+91 9000185185", "name": "Maa Ent Institute", "source": "OpenGovernmentData", "website": "https://maaent.com/"}}, {"type": "node", "id": 6495023719, "lat": 17.496063, "lon": 78.4541865, "tags": {"addr:district": "Hyderabad", "addr:full": "Plot No. 29,30, Beside Lingam Gound Residency, MNR College", "addr:postcode": "500055", "addr:state": "Telangana", "amenity": "hospital", "name": "Sanjeevani Children and General Hospital", "source": "OpenGovernmentData"}}, {"type": "node", "id": 6496590575, "lat": 17.4301078, "lon": 78.4061931, "tags": {"addr:district": "Hyderabad", "addr:full": "Plot No. 1110, Road No. 55, Opposite Peddamma Temple, Jubilee Hills", "addr:postcode": "500033", "addr:state": "Telangana", "amenity": "hospital", "contact:email": "info@stopiles.com", "healthcare": "hospital", "name": "Stopiles", "phone": "040 39565230; 7799790251", "source": "OpenGovernmentData", "website": "https://www.stopiles.com"}}, {"type": "node", "id": 6496916240, "lat": 17.4376427, "lon": 78.4524706, "tags": {"addr:district": "Hyderabad", "addr:full": "7-1-57/B&C, Shyam Karan Road, Anandbagh, Ameerpet", "addr:postcode": "500016", "addr:state": "Telangana", "amenity": "hospital", "fax": "23782333", "healthcare": "hospital", "name": "Apollo Spectra Hospitals", "source": "OpenGovernmentData", "wikidata": "Q52856798"}}, {"type": "node", "id": 6497294673, "lat": 17.4416577, "lon": 78.4908745, "tags": {"addr:district": "Hyderabad", "addr:full": "Plot Number 111, Karan Centre, S. D. Road, Landmark: Near Grand Solitaire Annex Hotel & Near Minerva Complex", "addr:postcode": "500003", "addr:state": "Telangana", "amenity": "hospital", "healthcare": "hospital", "name": "BSR ENT & Eye Nursing Home", "source": "OpenGovernmentData"}}, {"type": "node", "id": 6497362076, "lat": 17.4373484, "lon": 78.4462573, "tags": {"addr:district": "Hyderabad", "addr:full": "Plot No 4, Satyam Theatre Road, Beside Blue Fox Hotel, Mythrivanam, Ameerpet", "addr:postcode": "500038", "addr:state": "Telangana", "amenity": "hospital", "fax": "040 23755152", "health_facility:type": "Consultative;Diagnostic and Surgical Services", "healthcare": "hospital", "healthcare:speciality": "Anesthesiology;Cardiology;Diabetology;Dermatology;ENT Head and Neck Surgery;General Internal Medicine;General and Laparoscopic Surgery;Gynaecology and Obstetrics;Gastroenterology and Hematology;Neonatology and Paediatrics;Neurology and Neuro Surgery", "medical_system": "Allopathic", "name": "ASTER PRIME HOSPITALS (SRI SAINATHA MULTISPECIALITY HOSPITAL PVT.LTD.)", "operator:type": "private", "phone": "040 4959 4959", "source": "OpenGovernmentData", "website": "https://www.asterprime.com"}}, {"type": "node", "id": 6497369555, "lat": 17.4292454, "lon": 78.4531264, "tags": {"addr:district": "Hyderabad", "addr:full": "Sapphire Block, Amrutha Hills, Punjagutta", "addr:postcode": "500082", "addr:state": "Telangana", "amenity": "hospital", "name": "Amrutha Diabetic Centre", "source": "OpenGovernmentData"}}, {"type": "node", "id": 6498013229, "lat": 17.48489, "lon": 78.4096652, "tags": {"addr:district": "Hyderabad", "addr:full": "Plot No. 61, KPHB Main Road, Balaji Nagar, Near Kukatpally Bus Stop", "addr:postcode": "500072", "addr:state": "Telangana", "amenity": "hospital", "name": "Prerana Hospital", "source": "OpenGovernmentData"}}, {"type": "node", "id": 6503106727, "lat": 17.4606974, "lon": 78.4904668, "tags": {"addr:district": "Hyderabad", "addr:full": "26/A, Sikh Road, Sikh Village, Near Diamond Point, Secunderabad", "addr:postcode": "500009", "addr:state": "Telangana", "amenity": "hospital", "contact:mobile": "9246276141", "email": "admin@janapareddy.co.in", "fax": "040 40147476", "health_facility:type": "Operation Theatre;Neonatal Intensive Care Unite;Neonatal Transport Team;Pediatric Intensive Care Unite;Emergency Care;In Patient Rooms;Lab;Pharmacy;Equipment and Facilities", "healthcare:speciality": "multi specialty", "medical_system": "Allopathic", "name": "Bloom Hospitals - Unit of Janapareddy Hospitals.", "operator:type": "private", "phone": "040 40147474;040 401474745;040 401474746", "source": "OpenGovernmentData", "website": "http://www.janapareddy.co.in"}}, {"type": "node", "id": 6503155785, "lat": 17.4517957, "lon": 78.4377721, "tags": {"addr:district": "Hyderabad", "addr:full": "Opposite Erragadda Rythu Bazar, Sanath Nagar", "addr:postcode": "500018", "addr:state": "Telangana", "amenity": "hospital", "contact:email": "theresa.admin@gmail.com", "contact:phone": "040 23701013", "name": "St.Theresa's Hospitals", "source": "OpenGovernmentData", "website": "https://www.sttheresashospital.com", "wikidata": "Q7586669", "wikipedia": "en:St. Theresa's Hospital"}}, {"type": "node", "id": 6503288232, "lat": 17.4490629, "lon": 78.4317237, "tags": {"addr:district": "Hyderabad", "addr:full": "8-3-167/A/7 & 8, Vikaspuri Colony, Near A.G.Colony, Road Opposite ESI Hospital, Erragadda", "addr:postcode": "500038", "addr:state": "Telangana", "alt_name": "Dr. Sudha's Test Tube Baby Centre", "amenity": "hospital", "contact:email": "sunrichhospitals2009@gmail.com", "contact:phone": "040 23705588; 9393542950", "name": "Sunrich Hospital", "source": "OpenGovernmentData", "website": "www.drsudhaivf.com"}}, {"type": "node", "id": 6503370083, "lat": 17.4448064, "lon": 78.4324291, "tags": {"addr:district": "Hyderabad", "addr:full": "Plot Number 57, Kalyan Nagar Phase 1, Behind TB Hospital", "addr:postcode": "500038", "addr:state": "Telangana", "amenity": "hospital", "medical_system": "Allopathic", "name": "J.J. Hospital", "operator:type": "private", "phone": "040 2370 4778; 040 23712106", "source": "OpenGovernmentData"}}, {"type": "node", "id": 6503384572, "lat": 17.4660729, "lon": 78.4832785, "tags": {"addr:district": "Hyderabad", "addr:full": "Plot No-2, H No-2-12-149, Breg Syed Road,Bapuji Nagar Bowenpally, Cantonment", "addr:postcode": "500009", "addr:state": "Telangana", "amenity": "hospital", "name": "Lifespring Hospital", "source": "OpenGovernmentData"}}, {"type": "node", "id": 6503410509, "lat": 17.4713934, "lon": 78.4849957, "tags": {"addr:district": "Hyderabad", "addr:full": "7-A, Panchasheela Enclave, near ICRISAT Colony Phase 2, Hashmathpet", "addr:postcode": "500009", "addr:state": "Telangana", "amenity": "hospital", "name": "SKM Multi Speciality Hospital", "source": "OpenGovernmentData"}}, {"type": "node", "id": 6503431563, "lat": 17.5119189, "lon": 78.4465805, "tags": {"addr:district": "Hyderabad", "addr:full": "Plot No.78, 2nd Right, Gajularamaram Road, IDA, Shapurnagar, Jeedimetla", "addr:postcode": "500055", "addr:state": "Telangana", "amenity": "hospital", "name": "S.V.K. Hospital Private Ltd.", "source": "OpenGovernmentData"}}, {"type": "node", "id": 6504097065, "lat": 17.4514829, "lon": 78.424402, "tags": {"addr:district": "Hyderabad", "addr:full": "Rajeev Nagar`X` Roads, Mothinagar", "addr:postcode": "500018", "addr:state": "Telangana", "amenity": "hospital", "contact:email": "manaseyehosp@gmail.com", "contact:mobile": "+91 9849726209", "name": "Manas Eye Hospital", "source": "OpenGovernmentData", "website": "https://manaseyehospital.com/"}}, {"type": "node", "id": 6504107685, "lat": 17.467585, "lon": 78.4819903, "tags": {"addr:district": "Hyderabad", "addr:full": "Plot No. 129/1, Viceroy Residency, Besides Ashok Gardens, Bapuji Nagar, Main Road, Bowenpalli", "addr:postcode": "500011", "addr:state": "Telangana", "amenity": "hospital", "name": "Pavithra Hospital", "source": "OpenGovernmentData"}}, {"type": "node", "id": 6504154905, "lat": 17.4920026, "lon": 78.4093373, "tags": {"addr:district": "Hyderabad", "addr:full": "Plot No. 688, Sumana Hospital Lane, Road Number 2, Vivekananda Nagar, Kukatpally", "addr:postcode": "500072", "addr:state": "Telangana", "amenity": "hospital", "contact:email": "sumanahospital@gmail.com", "contact:phone": "040 2306 8066", "healthcare": "hospital", "name": "Sumana Hospital", "source": "OpenGovernmentData", "website": "http://sumanahospital.com", "wikidata": "Q52843701"}}, {"type": "node", "id": 6504255627, "lat": 17.4407735, "lon": 78.4492117, "tags": {"addr:district": "Hyderabad", "addr:full": "7-1-212/5, Shiv Bagh, Balkampety Road, Ameerpet", "addr:postcode": "500016", "addr:state": "Telangana", "amenity": "hospital", "name": "Bhavika Nursing Home", "source": "OpenGovernmentData"}}, {"type": "node", "id": 6504269305, "lat": 17.4251451, "lon": 78.4510457, "tags": {"addr:district": "Hyderabad", "addr:full": "6-3-663/7/5, Saibaba Temple Road, Dwarakapuri, Punjagutta", "addr:postcode": "500082", "addr:state": "Telangana", "amenity": "hospital", "health_facility:type": "Allergy and Headache Clinic;Vertigo Clinic;Sleep Lab;Audiology;Speech Therapy;Clinical Lab;X ray;ECG", "healthcare:speciality": "Radio Frequency Surgery;Micro Ear Surgery;Endoscopic Sinus Surgery;Micro Laryngeal Surgery;Phono Surgery for Voice Disorders;Surgery for Snoring;Head and Neck Surgery", "medical_system": "Allopathic", "name": "Sree Srinivasa ENT Care and Research Institute", "operator:type": "private", "phone": "040 2339 4995;040 66664995", "source": "OpenGovernmentData", "website": "http://www.secri.org/contactus.htm"}}, {"type": "node", "id": 6504284028, "lat": 17.494147, "lon": 78.4053522, "tags": {"addr:district": "Hyderabad", "addr:full": "2-22-254, Street No.3, A.S. Raju Nagar, Behind South India Shopping Mall, Kukatpally", "addr:postcode": "500072", "addr:state": "Telangana", "amenity": "hospital", "name": "Kavya Nursing Home", "source": "OpenGovernmentData"}}, {"type": "node", "id": 6504286989, "lat": 17.4575848, "lon": 78.4523016, "tags": {"addr:district": "Hyderabad", "addr:full": "Post Office Lane, Fathenagar", "addr:postcode": "500018", "addr:state": "Telangana", "amenity": "hospital", "name": "Peoples Health Centre", "source": "OpenGovernmentData"}}, {"type": "node", "id": 6505218409, "lat": 17.4305671, "lon": 78.4503329, "tags": {"addr:district": "Hyderabad", "addr:full": "Behind Durga Malleswara Swamy Temple, 1/2 RT, Housing Board Colony, Opposite Mosque, Panjagutta", "addr:postcode": "500008", "addr:state": "Telangana", "amenity": "hospital", "healthcare:speciality": "Laser; Storz Tricam; Storz Endoscopes; Storz Headcam; Storz Xenon Cold Light Sources; Xomed Micro Debrider; Xomed Skeeter Drill; Ventilating Bronchoscopes with Optical Forceps; Temporal Bone Dissection Laboratory", "medical_system": "Allopathic", "name": "Dr.Rao's ENT Super Speciality Hospital", "operator:type": "private", "phone": "040 45689977", "source": "OpenGovernmentData", "website": "https://raosentcare.com"}}, {"type": "node", "id": 6505307085, "lat": 17.4759595, "lon": 78.4837787, "tags": {"addr:district": "Hyderabad", "addr:full": "Plot No 8, Main Road, Old Bowenpally", "addr:postcode": "500011", "addr:state": "Telangana", "amenity": "hospital", "name": "Ramya Nursing Home", "source": "OpenGovernmentData"}}, {"type": "node", "id": 6505507940, "lat": 17.4299337, "lon": 78.4271117, "tags": {"addr:district": "Hyderabad", "addr:full": "Jubilee Hills Road, Krishna Nagar", "addr:postcode": "500045", "addr:state": "Telangana", "amenity": "hospital", "healthcare": "hospital", "name": "Seethal Nursing Home", "source": "OpenGovernmentData"}}, {"type": "node", "id": 6506106769, "lat": 17.4486471, "lon": 78.4849052, "tags": {"addr:district": "Hyderabad", "addr:full": "1-14-158/1, Opp Pearl Palace, Beside Idgah, Balamrai, Near Paradise", "addr:postcode": "500003", "addr:state": "Telangana", "amenity": "hospital", "name": "J S Mahaveer Hospital", "source": "OpenGovernmentData"}}, {"type": "node", "id": 6510356260, "lat": 17.4306004, "lon": 78.4388973, "tags": {"addr:district": "Hyderabad", "addr:full": "8-3-978/1, Shree Nursing Home, Srinagar Colony", "addr:postcode": "500073", "addr:state": "Telangana", "amenity": "hospital", "email": "shreenursinghome@gmail.com", "fax": "040-23757737", "name": "Shree Hospital", "phone": "040-66756493; 040-23734898", "source": "OpenGovernmentData", "website": "http://www.shreenursinghome.com"}}, {"type": "node", "id": 6510503879, "lat": 17.4270433, "lon": 78.450353, "tags": {"addr:district": "Hyderabad", "addr:full": "Plot No. 30, Nagarjuna Hills, Punjagutta", "addr:postcode": "500082", "addr:state": "Telangana", "amenity": "hospital", "email": "info@lsch.in", "name": "Little Star Children's Hospital (A Unit Of Thirumala Child Health Services Pvt. Ltd)", "phone": "040 6699 2345", "source": "OpenGovernmentData", "website": "www.lsch.in"}}, {"type": "node", "id": 6511672655, "lat": 17.447338, "lon": 78.437815, "tags": {"addr:district": "Hyderabad", "addr:full": "House No.: 8-3-168/P/1, ESI Cross Roads, S.R. Nagar", "addr:postcode": "500038", "addr:state": "Telangana", "amenity": "hospital", "name": "Sowmya Hospital", "source": "OpenGovernmentData"}}, {"type": "node", "id": 6512526669, "lat": 17.4900948, "lon": 78.4481992, "tags": {"addr:district": "Hyderabad", "addr:full": "Jeedimetla Main Road, Near Gautami Techno School", "addr:postcode": "500055", "addr:state": "Telangana", "amenity": "hospital", "name": "Pulse Hospital", "source": "OpenGovernmentData"}}, {"type": "node", "id": 6513113356, "lat": 17.4961817, "lon": 78.4055095, "tags": {"addr:district": "Hyderabad", "addr:full": "22-163/2, Adjacent to Global Enclave, Bhagyanagar Colony, Kukatpally", "addr:postcode": "500072", "addr:state": "Telangana", "amenity": "hospital", "check_date": "2024-03-16", "healthcare": "hospital", "name": "Tadla Eye Hospital", "source": "OpenGovernmentData"}}, {"type": "node", "id": 6513323438, "lat": 17.4314653, "lon": 78.4466797, "tags": {"addr:district": "Hyderabad", "addr:full": "8-3-903/F/12&13, Image House, Behind Chermas, Ameerpet", "addr:postcode": "500073", "addr:state": "Telangana", "amenity": "hospital", "fax": "2375555; 23746616", "name": "Image Hospital", "source": "OpenGovernmentData"}}, {"type": "node", "id": 6527671224, "lat": 17.4322118, "lon": 78.4490681, "tags": {"addr:district": "Hyderabad", "addr:full": "Durga Nagar Colony, Opp Gold Spot, Ameerpet", "addr:postcode": "500016", "addr:state": "Telangana", "amenity": "hospital", "name": "Disneys Medi-Kid Hospitals Pvt. Ltd", "source": "OpenGovernmentData"}}, {"type": "node", "id": 6531332945, "lat": 17.4458529, "lon": 78.4663644, "tags": {"addr:district": "Hyderabad", "addr:full": "1-11-252/1A-1D, Alladin Mansion, Near Shoppers Stop, Street Number 3, Begumpet", "addr:postcode": "500016", "addr:state": "Telangana", "amenity": "hospital", "contact:email": "info@maxivisioneyehospital.com", "contact:tollfree": "1800 425 6294", "healthcare:speciality": "Cataract;Refractive;Laser;Cornea;Retina;Glaucoma;Pediatric", "medical_system": "Allopathic", "name": "Maxivision Eye Hospital", "operator:type": "private", "phone": "040 27763677", "source": "OpenGovernmentData", "website": "https://www.maxivisioneyehospital.com"}}, {"type": "node", "id": 6531378729, "lat": 17.4293887, "lon": 78.4178258, "tags": {"addr:district": "Hyderabad", "addr:full": "Plot No. 99, Road No. 1, Near Chiranjeevi Blood Bank, Jubilee Hills Check Post", "addr:postcode": "500033", "addr:state": "Telangana", "amenity": "hospital", "contact:email": "info@avishospitals.com ; contact@avishospitals.com", "contact:phone": "+91 9949034085 ; +91 9989527715", "healthcare": "hospital", "name": "Avis Hospitals", "old_name": "Beams Hospital", "source": "OpenGovernmentData", "website": "http://www.avishospitals.com"}}, {"type": "node", "id": 6537169461, "lat": 17.4840637, "lon": 78.4487262, "tags": {"addr:district": "Hyderabad", "addr:full": "Adarsh Nagar, Opp. IDPL Colony, Balanagar", "addr:postcode": "500037", "addr:state": "Telangana", "amenity": "hospital", "contact:phone": "040-67599999", "name": "Ankura Kodali Hospital", "source": "OpenGovernmentData"}}, {"type": "node", "id": 6538865408, "lat": 17.4451301, "lon": 78.4349412}, {"type": "node", "id": 6548796448, "lat": 17.469289, "lon": 78.4862155, "tags": {"addr:city": "Hyderabad", "addr:full": "Plot No:. 27 & 28, Hasmathpet Road, Bowenpally Beside Reliance Fresh Super Market", "addr:postcode": "500011", "addr:state": "Telangana", "amenity": "hospital", "contact:phone": "04042306565;64595609", "name": "KRUTI HOSPITAL ADVANCED EYE & DENTAL CARE", "operator": "Private", "source": "OpenGovernmentData"}}, {"type": "node", "id": 6548807629, "lat": 17.4391832, "lon": 78.4425692, "tags": {"addr:district": "Hyderabad", "addr:full": "8-3-215, Srinivas Nagar Colony West. Adjacent to Siva Reddy Sweets Opposite ICICI Bank Ameerpet", "addr:postcode": "500038", "addr:state": "Telangana", "amenity": "hospital", "contact:phone": "040 \u2013 66312345", "email": "nethrahyd@yahoo.com", "healthcare": "hospital", "name": "NETHRA EYE INSTITUE", "operator:type": "private", "source": "OpenGovernmentData", "website": "http://www.nethraeyeinstitute.com"}}, {"type": "node", "id": 6549122751, "lat": 17.435904, "lon": 78.4499786, "tags": {"addr:district": "Hyderabad", "addr:full": "D.NO. 7-1-79/A & 79/B, DHARAM KARAM ROAD, AMEERPET", "addr:postcode": "500016", "addr:state": "Telangana", "amenity": "hospital", "contact:email": "info@wellnesshospital.in", "contact:phone": "040-66667779", "healthcare": "hospital", "name": "Wellness Hospital", "operator:type": "private", "source": "OpenGovernmentData", "website": "https://www.wellnesshospital.in/"}}, {"type": "node", "id": 6549122919, "lat": 17.5072656, "lon": 78.4788038, "tags": {"addr:city": "Hyderabad", "addr:full": "H.No: 120, Green Park Avenue, Suchitra Circle, Jeedimetla Village", "addr:postcode": "500067", "addr:state": "Telangana", "amenity": "hospital", "contact:phone": "4027235867", "name": "Refracto Eye Hospital", "operator:type": "private", "source": "OpenGovernmentData"}}, {"type": "node", "id": 6549159475, "lat": 17.4366563, "lon": 78.4399192, "tags": {"addr:district": "Adilabad", "addr:full": "8-3-318/2/A/28, Opp State Home, Yousufguda Main Road, Ameerpet", "addr:postcode": "500073", "addr:state": "Telangana", "amenity": "hospital", "contact:phone": "4066025588", "healthcare": "hospital", "name": "RAJA HOSPITAL", "operator:type": "private", "source": "OpenGovernmentData"}}, {"type": "node", "id": 6549183267, "lat": 17.5084337, "lon": 78.4614305, "tags": {"addr:city": "Hyderabad", "addr:full": "Plot No:413, ROAD NO - 1, BHAGYA LAXMI COLONY, QUTHBULLAPUR", "addr:postcode": "500055", "addr:state": "Telangana", "amenity": "hospital", "contact:phone": "040 23080666", "name": "Lakshmi Sailaja Hospiatal", "operator:type": "private", "source": "OpenGovernmentData"}}, {"type": "node", "id": 6549219226, "lat": 17.4288986, "lon": 78.4398817, "tags": {"addr:city": "Hyderabad", "addr:full": "Plot No. 143, Sagar Society, Venkateshwara Colony, Srinagar Colony, Near Ratnadeep Super Market,", "addr:postcode": "500073", "addr:state": "Telangana", "amenity": "hospital", "contact:phone": "48563344", "healthcare": "hospital", "name": "SMART VISION EYE SPECIALITIES PRIVATE LIMITED", "operator:type": "private", "source": "OpenGovernmentData"}}, {"type": "node", "id": 6549219227, "lat": 17.4691425, "lon": 78.4777518, "tags": {"addr:city": "Hyderabad", "addr:full": "Plot No:.3, BAPUJI NAGAR, Opp: SAROJINI PULLA REDDY HOUSE, BOWENPALLY", "addr:postcode": "500011", "addr:state": "Telangana", "amenity": "hospital", "name": "KS MULTISPECIALTY HOSPITAL", "operator": "Private", "source": "OpenGovernmentData"}}, {"type": "node", "id": 6549328685, "lat": 17.4635323, "lon": 78.4562123, "tags": {"addr:district": "Hyderabad", "addr:full": "7-4-158/1, Near Hotel Samrat Complex, Madhavi Nagar, Ferozguda, Balanagar", "addr:postcode": "500011", "addr:state": "Telangana", "amenity": "hospital", "contact:phone": "4023777772", "name": "SREE ROYAL HOSPITAL", "name:te": "\u0c36\u0c4d\u0c30\u0c40 \u0c30\u0c3e\u0c2f\u0c32\u0c4d \u0c39\u0c3e\u0c38\u0c4d\u0c2a\u0c3f\u0c1f\u0c32\u0c4d", "operator:type": "private", "source": "OpenGovernmentData"}}, {"type": "node", "id": 6549331621, "lat": 17.4348665, "lon": 78.4551601}, {"type": "node", "id": 6549335308, "lat": 17.4915939, "lon": 78.4096941, "tags": {"addr:city": "Hyderabad", "addr:full": "Plot No:. 692, VIVEKANAND NAGAR COLONY, KUKATPALLY", "addr:postcode": "500072", "addr:state": "Telangana", "amenity": "hospital", "contact:phone": "4023060030", "healthcare": "hospital", "name": "Green Leaf Health Centre", "operator:type": "private", "source": "OpenGovernmentData"}}, {"type": "node", "id": 6549338256, "lat": 17.4997723, "lon": 78.477497, "tags": {"addr:district": "Hyderabad", "addr:full": "H.No. 2-181/2/C , Near Suchitra Circle, Alwal Road, Ramraj Nagar, Jeedimetla", "addr:postcode": "500067", "addr:state": "Telangana", "amenity": "hospital", "contact:phone": "040 44441111; +91 8886611108", "name": "RUSSH SUPER SPECIALITY HOSPITAL", "operator:type": "private", "source": "OpenGovernmentData", "website": "https://russhhospital.com/"}}, {"type": "node", "id": 6549358302, "lat": 17.4955297, "lon": 78.4541658, "tags": {"addr:city": "Hyderabad", "addr:full": "H.No: 6-172, SURDHARSHAN REDDY NAGAR , Opp. AKSHARA SCHOOL, CHINTAL", "addr:postcode": "500054", "addr:state": "Telangana", "amenity": "hospital", "contact:phone": "4064559694", "name": "NETRA EYE AND MULTI SPECIALITY HOSPITAL", "operator:type": "private", "source": "OpenGovernmentData"}}, {"type": "node", "id": 6549358836, "lat": 17.4392005, "lon": 78.4803766, "tags": {"addr:district": "Hyderabad", "addr:full": "1-8-32/62 & 1-8-32/62/1, Minister Road, Secunderabad", "addr:postcode": "500003", "addr:state": "Telangana", "amenity": "hospital", "contact:phone": "040 66023111; 040 66023113", "name": "SECUNDERABAD WOMENS HOSPITAL", "operator:type": "private", "source": "OpenGovernmentData"}}, {"type": "node", "id": 6549381430, "lat": 17.4566496, "lon": 78.4786342, "tags": {"addr:city": "Secunderabad", "addr:full": "H.No: 53, MALANI HOUSING COLONY, NEW NEW BOWENPALLY", "addr:postcode": "500009", "addr:state": "Telangana", "amenity": "hospital", "contact:phone": "27952288;27952244", "name": "SAI GURU RAGHAVENDRA ORTHOPEADIC & MULTISPECIALITY", "operator": "Private", "source": "OpenGovernmentData"}}, {"type": "node", "id": 6559338844, "lat": 17.4401185, "lon": 78.4236932, "tags": {"addr:district": "Hyderabad", "addr:full": "Near PJR Statue, Rahamath Nagar 'X' Road, Yousufguda", "addr:postcode": "500045", "addr:state": "Telangana", "amenity": "hospital", "name": "Pavithra Nursing Home", "source": "OpenGovernmentData"}}, {"type": "node", "id": 6560815058, "lat": 17.4562216, "lon": 78.4256515, "tags": {"addr:district": "Hyderabad", "addr:full": "Beside Pandu Ranga Nagar Bus Stop, Moti Nagar", "addr:postcode": "500018", "addr:state": "Telangana", "amenity": "hospital", "health_facility:type": "Ambulance Service;Home Visit;Availability of Specialist Doctors;24 hours On Call", "healthcare:speciality": "Gynaecologist and Obstetrician;Anethesia's and Critical Care;Neurology;Paediatric;Orthopaedics;Gastroenterology;Cardiology;ENT;Urology;Plastic Surgery;Physiotheraphy", "medical_system": "Allopathic", "name": "Neelima Hospital", "operator:type": "private", "phone": "040 65264448;040 23710069", "source": "OpenGovernmentData", "website": "http://www.neelimahospital.com"}}, {"type": "node", "id": 6561161964, "lat": 17.43034, "lon": 78.4370834, "tags": {"addr:district": "Hyderabad", "addr:full": "8-3-982, Srinagar Colony Main Road, Near Satya Sai Kalyana Mandapam", "addr:postcode": "500073", "addr:state": "Telangana", "amenity": "hospital", "name": "Nikhil Hospital", "source": "OpenGovernmentData"}}, {"type": "node", "id": 6561341420, "lat": 17.4963994, "lon": 78.4523928, "tags": {"addr:district": "Hyderabad", "addr:full": "H .No.: 6-15 & 116, Opp. Chintal Bus Stop, Chintal", "addr:postcode": "500054", "addr:state": "Telangana", "amenity": "hospital", "name": "Happy Children Hospital - Chintal", "source": "OpenGovernmentData"}}, {"type": "node", "id": 6598094227, "lat": 17.4365449, "lon": 78.4831135}, {"type": "node", "id": 6598094228, "lat": 17.4365296, "lon": 78.4830679}, {"type": "node", "id": 6598094229, "lat": 17.4365091, "lon": 78.482978}, {"type": "node", "id": 6598094230, "lat": 17.4364899, "lon": 78.4828694}, {"type": "node", "id": 6811748990, "lat": 17.442029, "lon": 78.440725, "tags": {"addr:district": "Hyderabad", "addr:full": "No:, H 11/C,Vengal Rao Nagar, beside tempteys, Sanjeeva Reddy Nagar", "addr:postcode": "500038", "addr:state": "Telangana", "amenity": "hospital", "name": "Shiva Homoeo Stores and clinic", "source": "OpenGovernmentData"}}, {"type": "node", "id": 6811749014, "lat": 17.468492, "lon": 78.4576658, "tags": {"addr:district": "Hyderabad", "addr:full": "Vinayak Nagar, Balanagar", "addr:postcode": "500042", "addr:state": "Telangana", "amenity": "hospital", "name": "Vijaylaxmi Maternity Hospital", "source": "OpenGovernmentData"}}, {"type": "node", "id": 6811749047, "lat": 17.4329564, "lon": 78.4461388, "tags": {"addr:district": "Hyderabad", "addr:full": "Shop No.2, Yaseen Complex, Opposite Chennai Shopping Mall, Ameerpet", "addr:state": "Telangana", "amenity": "hospital", "name": "Gutta Eye Clinic", "source": "OpenGovernmentData"}}, {"type": "node", "id": 6811749053, "lat": 17.493087, "lon": 78.4096964, "tags": {"addr:district": "Medchal Malkajgiri", "addr:full": "266, Near Geethanjali Talent, School, Vivekananda Nagar, Kukatpally", "addr:postcode": "500072", "addr:state": "Telangana", "amenity": "hospital", "name": "Apple Diagnostic & Medical Centre, Kukatpally", "source": "OpenGovernmentData"}}, {"type": "node", "id": 6811749062, "lat": 17.492517, "lon": 78.451227, "tags": {"addr:district": "Hyderabad", "addr:full": "5-120/2, Opposite Sha SHAhensha Theatre, HMT Road, Chintal", "addr:state": "Telangana", "amenity": "hospital", "name": "Alavi Hospital", "source": "OpenGovernmentData"}}, {"type": "node", "id": 6811749066, "lat": 17.4694418, "lon": 78.4256774, "tags": {"addr:city": "Hyderabad", "addr:district": "Medchal Malkajgiri", "addr:full": "Near Panchaseela School, Patel Nagar, Moosapet", "addr:postcode": "500018", "addr:state": "Telangana", "amenity": "hospital", "name": "Chaitanya Hospital", "operator:type": "Private", "source": "OpenGovernmentData"}}, {"type": "node", "id": 6811749070, "lat": 17.4277736, "lon": 78.4573355, "tags": {"addr:district": "Hyderabad", "addr:full": "H.No: 6-3-1106/1/A, Near HSBC BANK, Raj Bhavan Road, Somajiguda", "addr:state": "Telangana", "amenity": "hospital", "name": "ZOI Hospital", "operator:type": "Private", "source": "OpenGovernmentData"}}, {"type": "node", "id": 6811749084, "lat": 17.4958036, "lon": 78.4524391, "tags": {"addr:district": "Medchal Malkajgiri", "addr:full": "Jeedimetla Main Road, Sudershan Reddy Nagar, Quthbullapur, Opp Chintal Bus Stop", "addr:postcode": "500055", "addr:state": "Telangana", "amenity": "hospital", "contact:mobile": "9912186174", "name": "Harsha Dental Dantam Network Dental Hospitals", "source": "OpenGovernmentData", "website": "https://dantamclinics.com/"}}, {"type": "node", "id": 6811749114, "lat": 17.4452339, "lon": 78.4617537, "tags": {"addr:district": "Hyderabad", "addr:full": "1-11-240/2D, Shyamalal Building, Near Ganesh Temple,Begumpet", "addr:state": "Telangana", "amenity": "hospital", "name": "Sri Sai Rama Clinic", "source": "survey"}}, {"type": "node", "id": 6811749133, "lat": 17.473479, "lon": 78.421673, "tags": {"addr:district": "Medchal Malkajgiri", "addr:full": "Lane Beside Cake Walk Bakery, Pragathi Nagar, Moosapet, Hyderabad", "addr:postcode": "500072", "addr:state": "Telangana", "amenity": "hospital", "name": "Vasundhara Hospital", "opening_hours": "24/7", "source": "OpenGovernmentData"}}, {"type": "node", "id": 6811749139, "lat": 17.4691677, "lon": 78.4275318, "tags": {"addr:city": "Hyderabad", "addr:district": "Medchal Malkajgiri", "addr:full": "Opp. Andhra Bank, Beside Sangeetha Mobiles, Moosapet 'X' Road", "addr:postcode": "500018", "addr:state": "Telangana", "amenity": "hospital", "contact:mobile": "9390113366", "name": "Aradhya Multi Speciality Hospital", "operator:type": "Private", "source": "OpenGovernmentData"}}, {"type": "node", "id": 6811749141, "lat": 17.4956577, "lon": 78.4532466, "tags": {"addr:district": "Medchal Malkajgiri", "addr:full": "Behind Chintal Bus Stop, Sudharshan Reddy Nagar, Qutubullapur, Dwarakapuri Colony", "addr:postcode": "500055", "addr:state": "Telangana", "amenity": "hospital", "name": "Raman Hospital", "source": "OpenGovernmentData"}}, {"type": "node", "id": 6811749142, "lat": 17.443615, "lon": 78.434617, "tags": {"addr:district": "Hyderabad", "addr:full": "231A, Ground Floor, Simhapuri Mansion, Beside ICICI Bank, Vengalrao nagar, Kalyan Nagar Phase I", "addr:postcode": "500038", "addr:state": "Telangana", "amenity": "hospital", "name": "Skorts Multi Speciality Clinics", "source": "OpenGovernmentData"}}, {"type": "node", "id": 6811749152, "lat": 17.4642455, "lon": 78.4571122, "tags": {"addr:district": "Hyderabad", "addr:full": "7-4-194, Ferozguda, Balanagar", "addr:postcode": "500011", "addr:state": "Telangana", "amenity": "hospital", "email": "rmobbrhospital@gmail.com", "emergency": "yes", "healthcare": "hospital", "name": "\u0c2c\u0c3f\u0c2c\u0c3f\u0c06\u0c30\u0c4d \u0c38\u0c42\u0c2a\u0c30\u0c4d \u0c38\u0c4d\u0c2a\u0c46\u0c37\u0c32\u0c3f\u0c1f\u0c40 \u0c39\u0c3e\u0c38\u0c4d\u0c2a\u0c3f\u0c1f\u0c32\u0c4d", "name:en": "BBR Super Speciality Hospital", "name:te": "\u0c2c\u0c3f\u0c2c\u0c3f\u0c06\u0c30\u0c4d \u0c38\u0c42\u0c2a\u0c30\u0c4d \u0c38\u0c4d\u0c2a\u0c46\u0c37\u0c32\u0c3f\u0c1f\u0c40 \u0c39\u0c3e\u0c38\u0c4d\u0c2a\u0c3f\u0c1f\u0c32\u0c4d", "phone": "040-2377 9999", "source": "OpenGovernmentData", "website": "www.bbrhospitals.com"}}, {"type": "node", "id": 6846152948, "lat": 17.4509475, "lon": 78.4235564, "tags": {"addr:district": "Hyderabad", "addr:full": "8-3-168 / M/ 12 KALYAN NAGAR, RAJEEV NAGAR X ROAD", "addr:state": "Telangana", "amenity": "hospital", "name": "SHREYA HOSPITAL", "operator:type": "Private", "source": "OpenGovernmentData"}}, {"type": "node", "id": 6846423887, "lat": 17.4546149, "lon": 78.4200095, "tags": {"addr:district": "Hyderabad", "addr:full": "Plot No: 3-1-171 SNEHAPURI COLONY, MOTI NAGAR", "addr:state": "Telangana", "amenity": "hospital", "name": "DR NAVEEN REDDYS GENERAL HOSPITAL", "operator:type": "Private", "source": "OpenGovernmentData"}}, {"type": "node", "id": 6935540196, "lat": 17.4787553, "lon": 78.4816433, "tags": {"addr:city": "SECUNDERABAD", "addr:street": "MALLIKARJUNA COLONY", "amenity": "hospital", "healthcare": "hospital", "name": "SHEKAR HOSPITAL"}}, {"type": "node", "id": 7008089080, "lat": 17.5035172, "lon": 78.4156543, "tags": {"amenity": "hospital", "healthcare": "hospital", "name": "Mythri Clinic"}}, {"type": "node", "id": 7088814385, "lat": 17.4334334, "lon": 78.4873111}, {"type": "node", "id": 7088814386, "lat": 17.4333386, "lon": 78.4872987}, {"type": "node", "id": 7088814387, "lat": 17.4332882, "lon": 78.48757}, {"type": "node", "id": 7088814388, "lat": 17.4334008, "lon": 78.4875845}, {"type": "node", "id": 7113646686, "lat": 17.4366221, "lon": 78.4457432, "tags": {"amenity": "hospital", "healthcare": "hospital", "name": "Shresta hospital", "name:en": "Sreshta hospital"}}, {"type": "node", "id": 7117631786, "lat": 17.510807, "lon": 78.4475672}, {"type": "node", "id": 7924536679, "lat": 17.4891879, "lon": 78.4083992}, {"type": "node", "id": 7924536680, "lat": 17.4891767, "lon": 78.4072166}, {"type": "node", "id": 7924536681, "lat": 17.48862, "lon": 78.4076831}, {"type": "node", "id": 7924598593, "lat": 17.4451454, "lon": 78.4508546}, {"type": "node", "id": 7924598594, "lat": 17.4457352, "lon": 78.4510182}, {"type": "node", "id": 7924598595, "lat": 17.4455535, "lon": 78.4514742}, {"type": "node", "id": 7924598596, "lat": 17.4455369, "lon": 78.4517679}, {"type": "node", "id": 7924598597, "lat": 17.4456134, "lon": 78.4521896}, {"type": "node", "id": 7924598598, "lat": 17.4455523, "lon": 78.4522705}, {"type": "node", "id": 7924598599, "lat": 17.4452621, "lon": 78.4523927}, {"type": "node", "id": 7924598600, "lat": 17.4436203, "lon": 78.453117}, {"type": "node", "id": 7924598601, "lat": 17.4436101, "lon": 78.4524947}, {"type": "node", "id": 7924598602, "lat": 17.443541, "lon": 78.4520414}, {"type": "node", "id": 7924598603, "lat": 17.4440656, "lon": 78.450526}, {"type": "node", "id": 8013184453, "lat": 17.4478347, "lon": 78.4368011}, {"type": "node", "id": 8013184454, "lat": 17.4484898, "lon": 78.4350121}, {"type": "node", "id": 8013184455, "lat": 17.4481162, "lon": 78.4367958}, {"type": "node", "id": 8013184456, "lat": 17.4473089, "lon": 78.4372075}, {"type": "node", "id": 8013184457, "lat": 17.4466679, "lon": 78.437925}, {"type": "node", "id": 8013184458, "lat": 17.4468598, "lon": 78.4383514}, {"type": "node", "id": 8013184459, "lat": 17.4456495, "lon": 78.4390783}, {"type": "node", "id": 8013184460, "lat": 17.4453987, "lon": 78.4391025}, {"type": "node", "id": 8013184461, "lat": 17.445171, "lon": 78.4385365}, {"type": "node", "id": 8013184462, "lat": 17.4442805, "lon": 78.4385151}, {"type": "node", "id": 8013184463, "lat": 17.4443266, "lon": 78.4382629}, {"type": "node", "id": 8013184464, "lat": 17.4442063, "lon": 78.4382173}, {"type": "node", "id": 8013184465, "lat": 17.4445057, "lon": 78.4371176}, {"type": "node", "id": 8013184466, "lat": 17.4445082, "lon": 78.4366026}, {"type": "node", "id": 8013184467, "lat": 17.4435947, "lon": 78.4362942}, {"type": "node", "id": 8013184468, "lat": 17.4438557, "lon": 78.4353206}, {"type": "node", "id": 8013184469, "lat": 17.444205, "lon": 78.4338628}, {"type": "node", "id": 8013184470, "lat": 17.4444814, "lon": 78.4327295}, {"type": "node", "id": 8013184471, "lat": 17.4445863, "lon": 78.432637}, {"type": "node", "id": 8013184472, "lat": 17.4467587, "lon": 78.4328127}, {"type": "node", "id": 8013184473, "lat": 17.448129, "lon": 78.4329548}, {"type": "node", "id": 8013184474, "lat": 17.4488838, "lon": 78.4330729}, {"type": "node", "id": 8020647753, "lat": 17.4248765, "lon": 78.4321541}, {"type": "node", "id": 8020647754, "lat": 17.4260648, "lon": 78.4320209}, {"type": "node", "id": 8020647755, "lat": 17.4248417, "lon": 78.4318347}, {"type": "node", "id": 8113834531, "lat": 17.4492625, "lon": 78.4473693, "tags": {"addr:city": "Hyderabad", "addr:postcode": "500018", "addr:street": "Sanathnagar", "amenity": "hospital", "healthcare": "hospital", "name": "Bharati Nursing Home"}}, {"type": "node", "id": 8182514342, "lat": 17.5102596, "lon": 78.4476155}, {"type": "node", "id": 8182514343, "lat": 17.5112589, "lon": 78.446559}, {"type": "node", "id": 8182514344, "lat": 17.5101488, "lon": 78.4466824}, {"type": "node", "id": 8497880585, "lat": 17.4456093, "lon": 78.4521671}, {"type": "node", "id": 8759169871, "lat": 17.4753103, "lon": 78.4857756, "tags": {"addr:district": "Hyderabad", "addr:full": "Hasmathpet, Bowenpally, Secunderabad", "addr:postcode": "500009", "addr:state": "Telangana", "amenity": "hospital", "name": "SKS Hospital", "source": "Local Knowledge"}}, {"type": "node", "id": 8759181367, "lat": 17.4416653, "lon": 78.4860599, "tags": {"addr:district": "Hyderabad", "addr:full": "Mashallah Building, Paradise Circle, PG Road, Secunderabad", "addr:postcode": "500003", "addr:state": "Telangana", "amenity": "hospital", "name": "Navodaya Hospital", "source": "Local Knowledge"}}, {"type": "node", "id": 8759273395, "lat": 17.4419494, "lon": 78.4899303, "tags": {"addr:district": "Hyderabad", "addr:full": "Oxford Street, Sarojini Devi Road 2nd Floor CVK Park Square, Krishna Complex, Kalasiguda, Secunderabad", "addr:postcode": "500003", "addr:state": "Telangana", "amenity": "hospital", "name": "Oasis Fertility Centre", "source": "Local Knowledge"}}, {"type": "node", "id": 8759319675, "lat": 17.4263881, "lon": 78.4204343, "tags": {"addr:district": "Hyderabad", "addr:full": "No. 8-2-269/3/1/4, Road No. 2, near NATCO Pharma, Park View Enclave, Banjara Hills, Hyderabad", "addr:postcode": "500034", "addr:state": "Telangana", "amenity": "hospital", "healthcare": "hospital", "healthcare:speciality": "fertility", "name": "Oasis Fertility Centre", "source": "Local Knowledge"}}, {"type": "node", "id": 8759356830, "lat": 17.438752, "lon": 78.4505019, "tags": {"addr:district": "Hyderabad", "addr:full": "7-1-201/2, Above Food World Supermarket, Preeth Complex, Dharam Karam Road, Ameerpet, Hyderabad", "addr:postcode": "500016", "addr:state": "Telangana", "amenity": "hospital", "name": "Partha Dental Skin Hair Clinic", "source": "Local Knowledge"}}, {"type": "node", "id": 8759630720, "lat": 17.4535446, "lon": 78.4206489, "tags": {"addr:district": "Hyderabad", "addr:full": "Door no 8-3-167/K/28, Moti Nagar", "addr:postcode": "500018", "addr:state": "Telangana", "amenity": "hospital", "name": "Dr Naveen Reddy Hospital", "source": "Local Knowledge"}}, {"type": "node", "id": 8759738256, "lat": 17.4401505, "lon": 78.4936257, "tags": {"addr:district": "Hyderabad", "addr:full": "127, 4/3, SD Road, Rani Gunj, Secunderabad", "addr:postcode": "500003", "addr:state": "Telangana", "amenity": "hospital", "name": "Madhava Nursing Home", "source": "Local Knowledge"}}, {"type": "node", "id": 8760246825, "lat": 17.4272659, "lon": 78.4143269, "tags": {"addr:district": "Hyderabad", "addr:full": "Rd Number 45, Jubilee Hills, Hyderabad", "addr:postcode": "500033", "addr:state": "Telangana", "amenity": "hospital", "healthcare": "hospital", "name": "MAA E.N.T. Hospitals", "source": "Local Knowledge"}}, {"type": "node", "id": 8760672940, "lat": 17.4853838, "lon": 78.4109567, "tags": {"addr:district": "Medchal", "addr:full": "Balaji Nagar, Kukatpally, Hyderabad", "addr:postcode": "500072", "addr:state": "Telangana", "amenity": "hospital", "name": "OMNI Hospitals", "source": "Local Knowledge"}}, {"type": "node", "id": 8760895243, "lat": 17.48884, "lon": 78.4083858, "tags": {"addr:district": "Medchal", "addr:full": "1-6, Kukatpally, Hyderabad", "addr:postcode": "500072", "addr:state": "Telangana", "amenity": "hospital", "name": "Sivananda Rehabilitation Home", "source": "Local Knowledge"}}, {"type": "node", "id": 8760933526, "lat": 17.444713, "lon": 78.4691593, "tags": {"addr:district": "Medchal", "addr:full": "1-11-254, 2nd Floor, Rama Mansion Besides Pace Hospital, Motilal Nehru Nagar, Begumpet, Hyderabad", "addr:postcode": "500016", "addr:state": "Telangana", "amenity": "hospital", "name": "Pathcare Labs Pvt Ltd", "source": "Local Knowledge"}}, {"type": "node", "id": 8760982633, "lat": 17.5057005, "lon": 78.4670243, "tags": {"addr:district": "Medchal", "addr:full": "Suchitra, Sri Krishna Nagar, Quthbullapur, Hyderabad", "addr:postcode": "500055", "addr:state": "Telangana", "amenity": "hospital", "name": "Srujana Hospitals", "source": "Local Knowledge"}}, {"type": "node", "id": 8763113701, "lat": 17.4957164, "lon": 78.4525108, "tags": {"addr:district": "Medchal", "addr:full": "Jeedimetla Main Road, Chinthal, Hyderabad", "addr:postcode": "500037", "addr:state": "Telangana", "amenity": "hospital", "name": "Tesla Diagnostics", "source": "Local Knowledge"}}, {"type": "node", "id": 8763496906, "lat": 17.4847174, "lon": 78.4129804, "tags": {"addr:district": "Medchal", "addr:full": "H.No:5-1-97/B/NR, near Old Shivalayam Temple Complex, Hyderabad", "addr:postcode": "500072", "addr:state": "Telangana", "amenity": "hospital", "name": "Ananya Hospital", "source": "Local Knowledge"}}, {"type": "node", "id": 8763519730, "lat": 17.4829023, "lon": 78.4134217, "tags": {"addr:district": "Medchal", "addr:full": "6-2/200, M J Colony, Vivek Nagar, Kukatpally, Hyderabad", "addr:postcode": "500072", "addr:state": "Telangana", "amenity": "hospital", "name": "People's Hospital", "source": "Local Knowledge"}}, {"type": "node", "id": 8891813172, "lat": 17.4274056, "lon": 78.4321671, "tags": {"amenity": "hospital", "healthcare": "hospital", "name": "Ferticare IVF Asist"}}, {"type": "node", "id": 8909248529, "lat": 17.4452155, "lon": 78.4324096, "tags": {"amenity": "hospital", "healthcare": "hospital", "name": "DTC TB Unit Erragadda"}}, {"type": "node", "id": 8909248538, "lat": 17.4472339, "lon": 78.4326449, "tags": {"amenity": "hospital", "healthcare": "hospital", "name": "Dr.Vivek's Multispeciality Dental care"}}, {"type": "node", "id": 9611895277, "lat": 17.438001, "lon": 78.4563763, "tags": {"amenity": "hospital", "emergency": "yes", "healthcare": "hospital"}}, {"type": "node", "id": 9728614166, "lat": 17.5026194, "lon": 78.4207649, "tags": {"amenity": "hospital", "healthcare": "hospital", "healthcare:speciality": "general", "name": "balaji hospital"}}, {"type": "node", "id": 10262032093, "lat": 17.4545551, "lon": 78.421903}, {"type": "node", "id": 10262032094, "lat": 17.4545733, "lon": 78.4220719}, {"type": "node", "id": 10262032095, "lat": 17.4543666, "lon": 78.4221133}, {"type": "node", "id": 10262032096, "lat": 17.4543651, "lon": 78.4219428}, {"type": "node", "id": 10262032097, "lat": 17.4545577, "lon": 78.4219275}, {"type": "node", "id": 10277933502, "lat": 17.4938811, "lon": 78.4104042}, {"type": "node", "id": 10277933503, "lat": 17.4938479, "lon": 78.4104381}, {"type": "node", "id": 10277933504, "lat": 17.4937713, "lon": 78.4105209}, {"type": "node", "id": 10277933505, "lat": 17.49384, "lon": 78.4105971}, {"type": "node", "id": 10277933506, "lat": 17.4939537, "lon": 78.4104803}, {"type": "node", "id": 11005951281, "lat": 17.4448127, "lon": 78.4219109, "tags": {"addr:district": "Hyderabad", "addr:place": "Taj Enclave", "addr:state": "Telangana", "addr:street": "6-1-968", "addr:subdistrict": "Khairatabad", "amenity": "hospital", "healthcare": "hospital", "name": "CHC KHAIRATABAD", "operational_status": "operational", "operator:type": "government", "source": "OpenDataTelangana"}}, {"type": "node", "id": 11005968513, "lat": 17.4485486, "lon": 78.4248854, "tags": {"addr:district": "Hyderabad", "addr:place": "Opp. Old Police Station", "addr:state": "Telangana", "addr:street": "BALKAMPET ROAD", "addr:subdistrict": "Ameerpet", "amenity": "hospital", "healthcare": "hospital", "name": "Community Health Centre, AMEERPET", "operational_status": "operational", "operator:type": "government"}}, {"type": "node", "id": 11027534552, "lat": 17.4317717, "lon": 78.4455728, "tags": {"amenity": "hospital", "healthcare": "hospital", "name": "Shishira hospitals"}}, {"type": "node", "id": 11027534563, "lat": 17.4314966, "lon": 78.4473474, "tags": {"amenity": "hospital", "healthcare": "hospital", "name": "Image Hospital"}}, {"type": "node", "id": 11027534564, "lat": 17.4302495, "lon": 78.4487075, "tags": {"amenity": "hospital", "healthcare": "hospital", "name": "Medkid children's hospital"}}, {"type": "node", "id": 11082456129, "lat": 17.4566753, "lon": 78.4115501, "tags": {"amenity": "hospital", "healthcare": "hospital", "name": "Maholla Clinic"}}, {"type": "node", "id": 11082456132, "lat": 17.4564341, "lon": 78.4103806, "tags": {"amenity": "hospital", "healthcare": "hospital", "healthcare:speciality": "general;diabetology", "name": "Mohammadi Clinic"}}, {"type": "node", "id": 11770993373, "lat": 17.4771569, "lon": 78.4204028, "tags": {"amenity": "hospital", "check_date": "2024-03-29", "healthcare": "hospital", "name": "Amar Hospitals"}}, {"type": "node", "id": 11821271825, "lat": 17.4538625, "lon": 78.421752, "tags": {"addr:city": "HYDERABAD", "addr:district": "Hyderabad", "addr:housenumber": "K/21, 8-3-167, Kalyan Nagar Phase 3 Rd, phase-3, Pramila Enclave", "addr:postcode": "500018", "addr:street": "Kalyan Nagar", "amenity": "hospital", "emergency": "yes", "healthcare": "hospital", "healthcare:speciality": "general;orthopaedics;urology;paediatrics;radiology;emergency;cardiology;blood_check", "name": "Sunridge Multi-Speciality Hospital", "operator": "http://sunridgehospital.com/", "operator:type": "private"}}, {"type": "node", "id": 11934311883, "lat": 17.4487092, "lon": 78.4338427, "tags": {"addr:district": "Hyderabad", "addr:place": "Ag Colony Rd, Vikaspuri, Erragadda,Hyderabad", "addr:state": "Telangana", "addr:street": "AG COLONY ROAD", "addr:subdistrict": "Ameerpet", "amenity": "hospital", "healthcare": "hospital", "name": "Government Ayurvedic Hospital, Erragadda, Hyderabad", "operational_status": "operational", "operator:type": "government", "source": "OpenDataTelangana"}}, {"type": "node", "id": 11936671649, "lat": 17.4454284, "lon": 78.434959, "tags": {"addr:district": "Hyderabad", "addr:place": "Erragadda, Hyderabad", "addr:state": "Telangana", "addr:street": "Erragadda", "addr:subdistrict": "Khairatabad", "amenity": "hospital", "healthcare": "hospital", "name": "Government Chest Hospital", "operational_status": "operational", "operator:type": "government", "source": "OpenDataTelangana"}}, {"type": "node", "id": 11940092750, "lat": 17.4506724, "lon": 78.4361121, "tags": {"addr:district": "Hyderabad", "addr:place": "Main Road, Erragadda, Hyderabad", "addr:state": "Telangana", "addr:street": "Main Road, Erragadda,", "addr:subdistrict": "Khairatabad", "amenity": "hospital", "healthcare": "hospital", "name": "Institute of Mental Health", "operational_status": "operational", "operator:type": "government", "source": "OpenDataTelangana"}}, {"type": "node", "id": 12030609760, "lat": 17.4376477, "lon": 78.4822763}, {"type": "node", "id": 12045260398, "lat": 17.4452469, "lon": 78.4508943}, {"type": "node", "id": 12669348711, "lat": 17.4865279, "lon": 78.4497546, "tags": {"addr:city": "Hyderabad", "addr:district": "hyderabad", "addr:postcode": "500054", "addr:street": "Sumithra Nagar, Gudement Nagar, IDPL Colony, Balanagar", "amenity": "hospital", "contact:facebook": "https://www.facebook.com/revivemultispecialityhospital", "email": "revivehospitalhyd@gmail.com", "emergency": "yes", "healthcare": "hospital", "healthcare:speciality": "orthopaedics;gynaecology;general;paediatrics;dermatology;otolaryngology;surgery;neurology;emergency;gastroenterology", "internet_access": "yes", "name": "Revive Multispeciality Hospital", "opening_hours": "24/7", "source": "local knowledge;gps", "wheelchair": "yes"}}, {"type": "node", "id": 12945304833, "lat": 17.4309281, "lon": 78.4558679}, {"type": "node", "id": 12945304834, "lat": 17.4311093, "lon": 78.4550989}, {"type": "node", "id": 12945304835, "lat": 17.4314851, "lon": 78.4551908}, {"type": "node", "id": 12945304836, "lat": 17.4314969, "lon": 78.4560034}, {"type": "node", "id": 12952102468, "lat": 17.4910021, "lon": 78.4066058}, {"type": "node", "id": 12952102469, "lat": 17.4910369, "lon": 78.4068468}, {"type": "node", "id": 12952102470, "lat": 17.4906757, "lon": 78.4065998}, {"type": "node", "id": 12952102471, "lat": 17.4904643, "lon": 78.4065485}, {"type": "node", "id": 12952102472, "lat": 17.4902813, "lon": 78.4064649}, {"type": "node", "id": 12952102473, "lat": 17.489913, "lon": 78.4063071}, {"type": "node", "id": 12952102474, "lat": 17.4896896, "lon": 78.406173}, {"type": "node", "id": 12952102477, "lat": 17.4895615, "lon": 78.4068929}, {"type": "node", "id": 12952102478, "lat": 17.4894234, "lon": 78.4067965}, {"type": "node", "id": 12952102479, "lat": 17.4899688, "lon": 78.4071671}, {"type": "way", "id": 31549640, "nodes": [353039223, 353039228, 353039232, 353039234, 353039223], "tags": {"addr:district": "Hyderabad", "addr:full": "8-3-215, Srinivasa Nagar Colony(West), Opp. ICICI Bank, S R Nagar", "addr:postcode": "500038", "addr:state": "Telangana", "amenity": "hospital", "emergency": "yes", "healthcare": "hospital", "name": "Axon Hospital", "operator": "Axon", "source": "OpenGovernmentData", "wheelchair": "yes"}}, {"type": "way", "id": 238860802, "nodes": [2466596569, 6484944575, 2466596566, 12952102479, 12952102477, 12952102478, 2466596561, 12952102474, 12952102473, 2466596562, 12952102472, 12952102471, 12952102470, 12952102468, 2466596572, 4622047587, 12952102469, 2466596569], "tags": {"addr:district": "Hyderabad", "addr:full": "1- 6, Opposite Vivekananda Nagar Colony, Kukatpally", "addr:postcode": "500072", "addr:state": "Telangana", "amenity": "hospital", "healthcare": "hospital", "landuse": "Hospital Grounds", "name": "Ramdev Rao Hospital", "source": "OpenGovernmentData", "website": "http://www.sivanandarehab.org/ramdev.html"}}, {"type": "way", "id": 274482470, "nodes": [3182218374, 2791962095, 2791962088, 12030609760, 3681791850, 2791962080, 2791962082, 2791962076, 6442939706, 3182222862, 2791962060, 2791962057, 6598094227, 6598094228, 6598094229, 6598094230, 3182207744, 3182218374], "tags": {"addr:district": "Hyderabad", "addr:full": "1-8-31/1, Minister Rd, Krishna Nagar Colony, Begumpet, Secunderabad", "addr:postcode": "500003", "addr:state": "Telangana", "addr:street": "Minister Road", "alt_name": "Krishna Institute Of Medical Sciences", "amenity": "hospital", "email": "assistance@kimshospitals.com", "emergency_telephone_code": "9849990401", "health_facility:type": "24 hours Ambulance service;Round the clock pharmacy;Diagnostic centreCritical and Intensive Care;Epilepsy Clinic;Fertility CentreHair TransplantObesity ClinicPalliative CareProstatic ClinicRehabilitation CentreStroke ClinicWellness Clinic", "healthcare": "hospital", "healthcare:speciality": "multi specialty", "medical_system": "Allopathic", "name": "KIMS Hospital", "operator:type": "private", "phone": "040 44885000;040 44885184", "source": "OpenGovernmentData", "website": "www.kimshospitals.com"}}, {"type": "way", "id": 331631567, "nodes": [3387338154, 3387338155, 3387338156, 3504313626, 3387338157, 3387338154], "tags": {"amenity": "hospital", "check_date": "2024-03-16", "healthcare": "hospital", "name": "Apollo Hospital"}}, {"type": "way", "id": 355979902, "nodes": [3614774696, 3614774908, 3614774894, 3614774839, 3614774844, 3614774687, 3614774696], "tags": {"addr:district": "Hyderabad", "addr:full": "Manovikas Nagar, Secunderabad, Near Delhi Public School", "addr:postcode": "500009", "addr:state": "Telangana", "addr:subdistrict": "Secunderabad", "amenity": "hospital", "building": "yes", "contact:phone": "04027753385", "health_facility:type": "Others", "healthcare": "centre", "name": "Southern Regional Centre of Ali Yavar Jung National Institute for the Hearing Handicapped (AYJNIHH)", "source": "OpenGovernmentData"}}, {"type": "way", "id": 356234454, "nodes": [3617125872, 3617125855, 3617125834, 3617125854, 3617125872], "tags": {"amenity": "hospital", "healthcare": "hospital", "name": "DR SHARATH CHANDRA"}}, {"type": "way", "id": 356261664, "nodes": [3617313422, 3617313413, 3617313401, 3617313409, 3617313422], "tags": {"addr:city": "Hyderabad", "addr:housenumber": "49", "addr:postcode": "500045", "addr:street": "Road no 2, Jubilee Hills", "amenity": "hospital", "healthcare": "hospital", "name": "Lakshmi Narayana Speciality Clinics", "website": "https://www.facebook.com/lnsclinics"}}, {"type": "way", "id": 356270074, "nodes": [3617354733, 3617354736, 3617354716, 3617354714, 3617354733], "tags": {"addr:city": "Somajiguda", "addr:district": "Hyderabad", "addr:full": "06-6-903/A and B, Somajiguda", "addr:housenumber": "903/A & B", "addr:postcode": "500082", "addr:state": "Telangana", "addr:street": "durga nagar road", "amenity": "hospital", "building": "yes", "building:levels": "5", "contact:facebook": "https://www.facebook.com/AsvinsSpecialtyHospitals/", "emergency": "yes", "emergency_telephone_code": "9440445775", "health_facility:type": "Accommodation;Patient Rooms;Pharmacy;Dialysis;ICU", "healthcare": "hospital", "healthcare:speciality": "oncology;emergency;paediatric_surgery;multispeciality", "medical_system": "Allopathic", "name": "ASVINS Specialty Cancer Hospital", "name:te": "\u0c05\u0c38\u0c4d\u0c35\u0c3f\u0c28\u0c4d \u0c38\u0c4d\u0c2a\u0c46\u0c37\u0c3e\u0c32\u0c3f\u0c1f\u0c40 \u0c15\u0c4d\u0c2f\u0c3e\u0c28\u0c4d\u0c38\u0c30\u0c4d \u0c39\u0c3e\u0c38\u0c4d\u0c2a\u0c3f\u0c1f\u0c32\u0c4d", "operator": "Amaravati Medicare Private Limited", "operator:type": "private", "phone": "040 23323344", "source": "OpenGovernmentData", "website": "https://www.asvinshospitals.com/"}}, {"type": "way", "id": 356439747, "nodes": [3618963919, 3618963914, 6185287784, 3618963151, 3618963164, 3618963919], "tags": {"addr:district": "Hyderabad", "addr:full": "Alexander Road", "addr:postcode": "500003", "addr:state": "Telangana", "amenity": "hospital", "fax": "040 27703999", "health_facility:type": "Surgical Suites;Trauma Center;Intensive Care Units;Surgical Observation Unit;Rehabilitation Services Department", "healthcare": "hospital", "healthcare:speciality": "multi specialty", "medical_system": "Allopathic", "name": "Yashoda Super Speciality Hospital - secunderabad", "operator:type": "private", "phone": "040 45674567", "source": "OpenGovernmentData", "website": "https://www.yashodahospitals.com/"}}, {"type": "way", "id": 356464777, "nodes": [3619076761, 3619076751, 3619076683, 3619076696, 3619076761], "tags": {"addr:district": "Hyderabad", "addr:full": "Lane Number 23, Behind Axis Bank, Sanjeev Reddy Nagar", "addr:state": "Telangana", "amenity": "hospital", "emergency": "yes", "fax": "040 40101361", "health_facility:type": "Neonatal Intensive Care Unit, Pediatric Intensive Care, Pediatric Surgery, Pediatric Specialities", "healthcare": "hospital", "healthcare:speciality": "Pediatrics", "medical_system": "Allopathic", "name": "Sowmya Children's Hospital", "operator:type": "private", "phone": "040 44253545", "source": "OpenGovernmentData", "website": "http://www.sowmyachildrenshospital.com"}}, {"type": "way", "id": 356534891, "nodes": [3619471995, 3619471999, 6549331621, 3619471876, 3619471995], "tags": {"addr:district": "Hyderabad", "addr:full": "6-3-868/2, GREENLANDS, NEXT TO TELENGANA TOURISM PLAZA, BEGUMPET", "addr:postcode": "500016", "addr:state": "Telangana", "amenity": "hospital", "building": "yes", "check_date": "2025-01-07", "contact:phone": "4023408888", "name": "WIN VISION EYE HOSPITAL", "operator:type": "private", "source": "OpenGovernmentData"}}, {"type": "way", "id": 357101267, "nodes": [3624692314, 3624692313, 3624692298, 3624692297, 3624692073, 3624692074, 3624692083, 3624692084, 3624692091, 3624692092, 3624692314], "tags": {"addr:district": "Hyderabad", "addr:full": "Penderghast Road, Opposite Parsi Dharamsala, Behind Paradise Hotel, Secunderabad", "addr:postcode": "500003", "addr:state": "Telangana", "amenity": "hospital", "building": "yes", "emergency_telephone_code": "8008102102", "fax": "040 27890091", "healthcare": "hospital", "healthcare:speciality": "Anesthesiology;Cardiac Anesthesia;Cardiology;Interventional Cardiology;Pediatric;Cardiothoracic;Surgery", "medical_system": "Allopathic", "name": "Sunshine Heart Institute", "operator:type": "private", "phone": "040 43444555;040 43444555", "source": "OpenGovernmentData", "website": "http://www.sunshineheartinstitute.com"}}, {"type": "way", "id": 357101676, "nodes": [3624691538, 3624691563, 3624691532, 3624691519, 3624691538], "tags": {"amenity": "hospital", "building": "hospital", "name": "Sunshine Hospitals Out Patient Care"}}, {"type": "way", "id": 361655217, "nodes": [3661096839, 4614088294, 3661096857, 3661096858, 3661096855, 3661096856, 3661096853, 3661096854, 3661096852, 4614088292, 3661096850, 3661096847, 4614088291, 4614088293, 3661096845, 4614088290, 3661096840, 3661096838, 3661096839], "tags": {"addr:district": "Hyderabad", "addr:full": "Penderghast Road, Opposite Parsi Dharamsala, Behind Paradise Hotel, Sappu Bagh Apaprtment, Jogani, Ramgopalpet", "addr:postcode": "500003", "addr:state": "Telangana", "amenity": "hospital", "building": "yes", "emergency_telephone_code": "8008108108", "health_facility:type": "Trauma Care and Emergency Services;Bariatric Surgery;Biochemistry;Blood Bank", "healthcare": "hospital", "healthcare:speciality": "multi speciality", "medical_system": "Allopathic", "name": "Sunshine Hospital", "operator:type": "private", "phone": "040 44550000", "source": "OpenGovernmentData", "website": "www.sunshinehospitals.com", "wikidata": "Q52843705"}}, {"type": "way", "id": 417241491, "nodes": [4178240772, 4178240775, 4178240767, 4178240768, 4178240756, 4178240757, 4178240760, 4178240763, 4178240782, 4178240783, 4178240779, 4178240781, 4178240766, 4178240769, 4178240762, 4178240759, 4178240746, 4178240745, 4178240738, 4178240736, 4178240740, 4178240739, 4178240743, 4178240744, 6538865408, 4178240747, 4178240753, 4178240752, 4178240755, 4178240754, 4178240750, 4178240749, 4178240737, 4178240735, 4178240742, 4178240741, 4178240764, 4178240765, 4178240772], "tags": {"addr:district": "Hyderabad", "addr:full": "Opposite ESI Hospital", "addr:postcode": "500038", "addr:state": "Telangana", "addr:street": "Erragadda", "addr:subdistrict": "Khairatabad", "amenity": "hospital", "building": "yes", "contact:phone": "040 23814421; 040 23814422", "name": "Government General and Chest Hospital", "source": "OpenGovernmentData"}}, {"type": "way", "id": 630961248, "nodes": [5957428793, 5957428794, 5957428795, 5957428796, 5957428797, 5957428798, 5957428799, 5957428800, 352754325, 5957428802, 5957428793], "tags": {"amenity": "hospital", "healthcare": "hospital", "name": "ESI Hospital"}}, {"type": "way", "id": 660771331, "nodes": [6186448328, 6186448329, 6186448330, 6186448331, 6186448328], "tags": {"addr:district": "Hyderabad", "addr:full": "Kallam Anji Reddy Campus, L V Prasad Marg, Opp. PVR Cinemas, Banjara Hills", "addr:postcode": "500034", "addr:state": "Telangana", "amenity": "hospital", "email": "communications@lvpei.org", "emergency_telephone_code": "040 30612100;09347573377", "healthcare": "hospital", "healthcare:speciality": "ophthalmology", "medical_system": "Allopathic", "name": "L V Prasad Eye Institute", "name:etymology:wikidata": "Q6456668", "operator:type": "private", "phone": "040 30612345;040 39892020", "source": "OpenGovernmentData", "website": "https://www.lvpei.org/", "wikidata": "Q6456669", "wikimedia_commons": "Category:L. V. Prasad Eye Institute", "wikipedia": "en:L. V. Prasad Eye Institute"}}, {"type": "way", "id": 758967948, "nodes": [7088814385, 7088814386, 7088814387, 7088814388, 7088814385], "tags": {"amenity": "hospital", "healthcare": "hospital"}}, {"type": "way", "id": 849385520, "nodes": [7924598603, 3624906091, 7924598602, 7924598601, 7924598600, 4556707787, 7924598599, 7924598598, 3908287701, 7924598597, 8497880585, 7924598596, 7924598595, 7924598594, 12045260398, 7924598593, 343312950, 7924598603], "tags": {"addr:city": "Hyderabad", "addr:country": "IN", "addr:district": "Hyderabad", "addr:place": "Ameerpet", "addr:postcode": "500016", "addr:state": "Telangana", "addr:street": "Nature Cure Hospital Road", "amenity": "hospital", "description": "Nature cure methods", "emergency": "yes", "healthcare": "alternative", "healthcare:speciality": "general;traditional_ayurvedic_medicine", "name": "\u0c2a\u0c4d\u0c30\u0c15\u0c43\u0c24\u0c3f \u0c1a\u0c3f\u0c15\u0c3f\u0c24\u0c4d\u0c38\u0c3e\u0c32\u0c2f\u0c2e\u0c41", "name:en": "Nature Cure Hospital", "name:te": "\u0c2a\u0c4d\u0c30\u0c15\u0c43\u0c24\u0c3f \u0c1a\u0c3f\u0c15\u0c3f\u0c24\u0c4d\u0c38\u0c3e\u0c32\u0c2f\u0c2e\u0c41", "operator": "Telangana Government"}}, {"type": "way", "id": 849386241, "nodes": [7924536681, 7924536680, 3523097906, 7924536679, 7924536681], "tags": {"addr:city": "Hyderabad", "addr:full": "Opp. METRO PILLAR NO. KPH 28, KUKATPALLY MAIN ROAD", "addr:postcode": "500072", "addr:state": "Telangana", "addr:street": "Opp. Metro Pillar No:A-782, Kukatpally Main Road, NH65, Kukatpally, Hyderabad, Telangana 500072", "amenity": "hospital", "contact:phone": "040 23050960;040 23050961", "name": "Aakar Asha Hospital", "operator:type": "private", "source": "OpenGovernmentData", "website": "https://www.aakarasha.org"}}, {"type": "way", "id": 859679417, "nodes": [8013184474, 8013184473, 8013184472, 8013184471, 8013184470, 8013184469, 8013184468, 8013184467, 8013184466, 8013184465, 8013184464, 8013184463, 8013184462, 8013184461, 8013184460, 8013184459, 8013184458, 8013184457, 8013184456, 8013184453, 8013184455, 8013184454, 8013184474], "tags": {"amenity": "hospital", "operator": "Telangana Goverment"}}, {"type": "way", "id": 860550549, "nodes": [8020647755, 5482634949, 8020647754, 8020647753, 8020647755], "tags": {"addr:district": "Hyderabad", "addr:full": "Road No. 2, Banjara Hills, Near LV Prasad Eye Hospital, Next to Hotel Park Hyatt", "addr:postcode": "500034", "addr:state": "Telangana", "amenity": "hospital", "contact:email": "info@rainbowhospitals.in", "emergency_telephone_code": "040 22334455;040 23319191", "healthcare": "hospital", "healthcare:speciality": "General Pediatrics;Neonatology;Pediatric Neurology;Pediatric Intensive Care Unit;Anasthesia and Pain Management;Pediatric Gastroenterology;Pediatric Nephrology;Hematology and Oncology;ENT;Psychiatry;Pediatric Cardiology;Speech and Language Therapy", "medical_system": "Allopathic", "name": "Rainbow Children\u2019s Hospital", "name:te": "\u0c30\u0c46\u0c2f\u0c3f\u0c28\u0c4d\u0c2c\u0c4b \u0c2a\u0c3f\u0c32\u0c4d\u0c32\u0c32 \u0c39\u0c3e\u0c38\u0c4d\u0c2a\u0c3f\u0c1f\u0c32\u0c4d", "operator:type": "private", "phone": "04023319191;04044665555", "source": "OpenGovernmentData", "website": "https://www.rainbowhospitals.in/"}}, {"type": "way", "id": 879583475, "nodes": [8182514344, 8182514343, 7117631786, 8182514342, 8182514344], "tags": {"amenity": "hospital", "name": "ESI Hospital"}}, {"type": "way", "id": 1122005587, "nodes": [10262032093, 10262032097, 10262032094, 10262032095, 10262032096, 10262032093], "tags": {"addr:city": "HYDERABAD", "addr:street": "Moti nagar", "amenity": "hospital", "healthcare": "hospital", "name": "Maxwell Hospital"}}, {"type": "way", "id": 1123874129, "nodes": [10277933502, 10277933503, 10277933504, 10277933505, 10277933506, 10277933502], "tags": {"amenity": "hospital", "healthcare": "hospital", "name": "Ragi hospital"}}, {"type": "way", "id": 1408647364, "nodes": [12945304833, 12945304834, 12945304835, 12945304836, 12945304833], "tags": {"amenity": "hospital", "healthcare": "hospital", "name": "Vivekananda Hospital"}}]}