{"version": 0.6, "generator": "Overpass API 0.7.62.8 e802775f", "osm3s": {"timestamp_osm_base": "2026-01-12T00:41:21Z", "copyright": "The data included in this document is from www.openstreetmap.org. The data is made available under ODbL."}, "elements": [{"type": "node", "id": 31234700, "lat": -36.8332438, "lon": 174.7953326, "tags": {"ferry": "yes", "local_ref": "1", "name": "Devonport Pier 1", "network": "AT", "network:wikidata": "Q4819567", "official_name": "Devonport Ferry Terminal", "public_transport": "stop_position", "ref": "9670"}}, {"type": "node", "id": 49500905, "lat": -36.8498494, "lon": 174.7936278}, {"type": "node", "id": 49500907, "lat": -36.856679, "lon": 174.8013486}, {"type": "node", "id": 49501953, "lat": -36.8600572, "lon": 174.8052671}, {"type": "node", "id": 49501954, "lat": -36.8611295, "lon": 174.8068972}, {"type": "node", "id": 49501956, "lat": -36.8617387, "lon": 174.8079395}, {"type": "node", "id": 49501957, "lat": -36.8620619, "lon": 174.808513}, {"type": "node", "id": 259143829, "lat": -36.8601692, "lon": 174.805421}, {"type": "node", "id": 259143831, "lat": -36.8595382, "lon": 174.8046052}, {"type": "node", "id": 259143852, "lat": -36.8623027, "lon": 174.8089966}, {"type": "node", "id": 259143853, "lat": -36.862474, "lon": 174.8094299, "tags": {"exit:carriages:forward": "no|no|no|no|no|ramp", "local_ref": "1", "name": "\u014cr\u0101kei", "name:mi": "\u014cr\u0101kei", "network": "AT", "network:wikidata": "Q4819567", "official_name": "\u014cr\u0101kei 1", "public_transport": "stop_position", "railway": "stop", "ref": "9400", "side": "right", "train": "yes"}}, {"type": "node", "id": 259143854, "lat": -36.8627849, "lon": 174.810414}, {"type": "node", "id": 259143989, "lat": -36.8605139, "lon": 174.8059893}, {"type": "node", "id": 259143991, "lat": -36.8611197, "lon": 174.8069596}, {"type": "node", "id": 259143992, "lat": -36.861848, "lon": 174.8083416}, {"type": "node", "id": 259143993, "lat": -36.8621301, "lon": 174.8089695}, {"type": "node", "id": 259144085, "lat": -36.8631048, "lon": 174.8115346}, {"type": "node", "id": 259144112, "lat": -36.8630709, "lon": 174.8113041}, {"type": "node", "id": 259144189, "lat": -36.8629054, "lon": 174.8108193}, {"type": "node", "id": 259286378, "lat": -36.8501779, "lon": 174.7940028}, {"type": "node", "id": 260734190, "lat": -36.8628451, "lon": 174.810438}, {"type": "node", "id": 260734191, "lat": -36.8628034, "lon": 174.8101915}, {"type": "node", "id": 260734192, "lat": -36.8625916, "lon": 174.8095938}, {"type": "node", "id": 260734196, "lat": -36.8620835, "lon": 174.8089595}, {"type": "node", "id": 260734198, "lat": -36.8622713, "lon": 174.8094278}, {"type": "node", "id": 260734200, "lat": -36.8623902, "lon": 174.8097415}, {"type": "node", "id": 260734202, "lat": -36.8626967, "lon": 174.8105511}, {"type": "node", "id": 268169282, "lat": -36.8498274, "lon": 174.7936588}, {"type": "node", "id": 268169283, "lat": -36.850156, "lon": 174.7940338}, {"type": "node", "id": 317368814, "lat": -36.8511305, "lon": 174.7951267}, {"type": "node", "id": 317369087, "lat": -36.8566562, "lon": 174.8013822}, {"type": "node", "id": 317369088, "lat": -36.856988, "lon": 174.801757}, {"type": "node", "id": 317369121, "lat": -36.8570081, "lon": 174.8017263}, {"type": "node", "id": 317369151, "lat": -36.8591606, "lon": 174.8042144}, {"type": "node", "id": 317369152, "lat": -36.8600329, "lon": 174.8052963}, {"type": "node", "id": 317369318, "lat": -36.8601447, "lon": 174.8054494}, {"type": "node", "id": 342769903, "lat": -36.8091362, "lon": 174.8625308, "tags": {"amenity": "ferry_terminal", "fare_gates": "no", "ferry": "yes", "loc_ref": "1", "name": "Rangitoto Wharf", "name:en": "Rangitoto Wharf", "name:mk": "\u041f\u0440\u0438\u0441\u0442\u0430\u043d \u201e\u0420\u0430\u043d\u0433\u0438\u0442\u043e\u0442\u043e\u201c", "network": "AT", "network:wikidata": "Q4819567", "official_name": "Rangitoto Ferry Terminal", "public_transport": "stop_position", "ref": "9760", "wikidata": "Q131225835"}}, {"type": "node", "id": 636830936, "lat": -36.8522071, "lon": 174.8674492, "tags": {"bus": "yes", "highway": "bus_stop", "name": "Bay Road", "name:en": "Bay Road", "name:mi": "Te Huarahi o Bay", "network": "AT", "network:wikidata": "Q4819567", "public_transport": "platform", "ref": "7351"}}, {"type": "node", "id": 636830937, "lat": -36.8519468, "lon": 174.8680466, "tags": {"bus": "yes", "highway": "bus_stop", "name": "Bay Road", "name:en": "Bay Road", "name:mi": "Te Huarahi o Bay", "network": "AT", "network:wikidata": "Q4819567", "public_transport": "platform", "ref": "7350"}}, {"type": "node", "id": 973360303, "lat": -36.8655668, "lon": 174.8180204}, {"type": "node", "id": 973360349, "lat": -36.8655389, "lon": 174.8180361}, {"type": "node", "id": 1017116163, "lat": -36.8624121, "lon": 174.8096595}, {"type": "node", "id": 1017116172, "lat": -36.8628946, "lon": 174.8109424}, {"type": "node", "id": 1300415221, "lat": -36.8622754, "lon": 174.8754381, "tags": {"bench": "yes", "bin": "no", "bus": "yes", "highway": "bus_stop", "lit": "yes", "name": "Glendowie Park", "public_transport": "platform", "ref": "7374", "shelter": "yes", "tactile_paving": "no"}}, {"type": "node", "id": 1300415236, "lat": -36.8621543, "lon": 174.8755234, "tags": {"bench": "yes", "bin": "no", "bus": "yes", "highway": "bus_stop", "name": "Glendowie Park", "public_transport": "platform", "ref": "7377", "shelter": "yes", "tactile_paving": "no"}}, {"type": "node", "id": 1368581613, "lat": -36.862886, "lon": 174.8773858, "tags": {"bench": "yes", "bin": "yes", "bus": "yes", "highway": "bus_stop", "lit": "yes", "name": "Roberta Reserve", "public_transport": "platform", "ref": "7372", "shelter": "yes", "tactile_paving": "no"}}, {"type": "node", "id": 1368581786, "lat": -36.8605611, "lon": 174.869987, "tags": {"bench": "yes", "bin": "yes", "bus": "yes", "highway": "bus_stop", "lit": "yes", "public_transport": "platform", "ref": "7378", "shelter": "yes", "tactile_paving": "no"}}, {"type": "node", "id": 1368582327, "lat": -36.8602812, "lon": 174.8689045, "tags": {"bench": "no", "bin": "no", "bus": "yes", "highway": "bus_stop", "lit": "yes", "public_transport": "platform", "ref": "7380", "shelter": "no", "tactile_paving": "no"}}, {"type": "node", "id": 1368582332, "lat": -36.8617238, "lon": 174.8689298, "tags": {"bus": "yes", "highway": "bus_stop", "public_transport": "platform", "ref": "7965"}}, {"type": "node", "id": 1682765950, "lat": -36.8615403, "lon": 174.8389244, "tags": {"bus": "yes", "highway": "bus_stop", "name": "Kohimarama Road / Selwyn College", "name:en": "Kohimarama Road / Selwyn College", "name:mi": "Te Huarahi o Kohimarama m\u0101 Te K\u0101reti o Herewini", "network": "AT", "network:wikidata": "Q4819567", "public_transport": "platform", "ref": "1030"}}, {"type": "node", "id": 1682766416, "lat": -36.8600481, "lon": 174.8365457, "tags": {"bench": "yes", "bus": "yes", "highway": "bus_stop", "name": "Kepa Road Shops", "name:en": "Kepa Road Shops", "name:mi": "Ng\u0101 Toa o Te Huarahi o Kepa", "network": "AT", "network:wikidata": "Q4819567", "public_transport": "platform", "ref": "7851", "shelter": "yes"}}, {"type": "node", "id": 1724361660, "lat": -36.8308767, "lon": 174.8028909}, {"type": "node", "id": 1906473616, "lat": -36.8531786, "lon": 174.8057226, "tags": {"bus": "yes", "highway": "bus_stop", "name": "T\u0101maki Drive / Ng\u0101pipi Road", "name:en": "T\u0101maki Drive / Ng\u0101pipi Road", "name:mi": "Te Ara \u0100whio o T\u0101maki m\u0101 Te Huarahi o Ng\u0101pipi", "network": "AT", "network:wikidata": "Q4819567", "public_transport": "platform", "ref": "8981"}}, {"type": "node", "id": 1906473620, "lat": -36.8470843, "lon": 174.8286486, "tags": {"bench": "yes", "bus": "yes", "departures_board": "timetable", "highway": "bus_stop", "name": "Selwyn Domain", "name:en": "Selwyn Domain", "name:mi": "Te Papa Raurarahi o Selwyn", "network": "AT", "network:wikidata": "Q4819567", "operator": "Auckland Transport", "public_transport": "platform", "ref": "7327", "shelter": "yes"}}, {"type": "node", "id": 1906473633, "lat": -36.8520067, "lon": 174.814201, "tags": {"bus": "yes", "highway": "bus_stop", "name": "\u014ckahu Street", "name:en": "\u014ckahu Street", "name:mi": "Te Tiriti o \u014ckahu", "network": "AT", "network:wikidata": "Q4819567", "public_transport": "platform", "ref": "7319"}}, {"type": "node", "id": 1906473635, "lat": -36.852177, "lon": 174.8073505, "tags": {"bench": "yes", "bin": "no", "bus": "yes", "highway": "bus_stop", "lit": "no", "name": "T\u0101maki Drive / Ng\u0101pipi Road", "name:en": "T\u0101maki Drive / Ng\u0101pipi Road", "name:mi": "Te Ara \u0100whio o T\u0101maki m\u0101 Te Huarahi o Ng\u0101pipi", "network": "AT", "network:wikidata": "Q4819567", "public_transport": "platform", "ref": "7315", "shelter": "yes", "tactile_paving": "no"}}, {"type": "node", "id": 2007743734, "lat": -36.8609542, "lon": 174.8548404, "tags": {"bus": "yes", "highway": "bus_stop", "name": "Tarawera Terrace", "public_transport": "platform", "ref": "7982"}}, {"type": "node", "id": 2007743735, "lat": -36.8567868, "lon": 174.8525289, "tags": {"bus": "yes", "highway": "bus_stop", "name": "Towai Street", "public_transport": "platform", "ref": "7986"}}, {"type": "node", "id": 2007743741, "lat": -36.8569319, "lon": 174.852715, "tags": {"bus": "yes", "highway": "bus_stop", "name": "Towai Street", "public_transport": "platform", "ref": "7981"}}, {"type": "node", "id": 2007743753, "lat": -36.8607549, "lon": 174.8548225, "tags": {"bus": "yes", "highway": "bus_stop", "name": "Tarawera Terrace", "public_transport": "platform", "ref": "7977"}}, {"type": "node", "id": 2007743754, "lat": -36.8621633, "lon": 174.8557193, "tags": {"bus": "yes", "highway": "bus_stop", "name": "Saint Heliers Fire Station", "name:en": "Saint Heliers Fire Station", "network": "AT", "network:wikidata": "Q4819567", "public_transport": "platform", "ref": "7980"}}, {"type": "node", "id": 2007743755, "lat": -36.8624167, "lon": 174.8561225, "tags": {"bus": "yes", "highway": "bus_stop", "name": "Saint Heliers Fire Station", "name:en": "Saint Heliers Fire Station", "network": "AT", "network:wikidata": "Q4819567", "official_name": "St Heliers Fire Station", "public_transport": "platform", "ref": "7975", "wheelchair": "yes"}}, {"type": "node", "id": 2007769624, "lat": -36.8601705, "lon": 174.8290561, "tags": {"bus": "yes", "highway": "bus_stop", "name": "Kepa Road / Eastridge Shopping Centre", "network": "AT", "network:wikidata": "Q4819567", "public_transport": "platform", "ref": "7848"}}, {"type": "node", "id": 2007769631, "lat": -36.8599365, "lon": 174.8290471, "tags": {"bus": "yes", "highway": "bus_stop", "name": "Kepa Road / Eastridge Shopping Centre", "network": "AT", "network:wikidata": "Q4819567", "public_transport": "platform", "ref": "7857"}}, {"type": "node", "id": 2007769634, "lat": -36.8568016, "lon": 174.8101706, "tags": {"bus": "yes", "highway": "bus_stop", "name": "Paritai Drive", "name:en": "Paritai Drive", "name:mi": "Te Ara \u0100whio o Paritai", "network": "AT", "network:wikidata": "Q4819567", "public_transport": "platform", "ref": "7890"}}, {"type": "node", "id": 2007769638, "lat": -36.8569638, "lon": 174.8102986, "tags": {"bus": "yes", "highway": "bus_stop", "name": "Paritai Drive", "name:en": "Paritai Drive", "name:mi": "Te Ara \u0100whio o Paritai", "network": "AT", "network:wikidata": "Q4819567", "public_transport": "platform", "ref": "7892"}}, {"type": "node", "id": 2007769639, "lat": -36.8591744, "lon": 174.8296518, "tags": {"bench": "yes", "bin": "no", "bus": "yes", "highway": "bus_stop", "lit": "no", "name": "Godden Crescent", "name:en": "Godden Crescent", "name:mi": "Te Araniko o Godden", "network": "AT", "network:wikidata": "Q4819567", "public_transport": "platform", "ref": "7854", "shelter": "yes", "tactile_paving": "no"}}, {"type": "node", "id": 2007769640, "lat": -36.8598067, "lon": 174.8303317, "tags": {"bus": "yes", "highway": "bus_stop", "name": "Kepa Road / Eastridge Shopping Centre", "network": "AT", "network:wikidata": "Q4819567", "public_transport": "platform", "ref": "7855"}}, {"type": "node", "id": 2061341148, "lat": -36.8477628, "lon": 174.8375323, "tags": {"bus": "yes", "highway": "bus_stop", "name": "163 T\u0101maki Drive", "name:en": "163 T\u0101maki Drive", "name:mi": "163 ki te Ara \u0100whio o T\u0101maki", "network": "AT", "network:wikidata": "Q4819567", "public_transport": "platform", "ref": "7333"}}, {"type": "node", "id": 2061341149, "lat": -36.8477746, "lon": 174.8177444, "tags": {"bus": "yes", "highway": "bus_stop", "name": "Kelly Tarlton's", "name:en": "Kelly Tarlton's", "network": "AT", "network:wikidata": "Q4819567", "public_transport": "platform", "ref": "7323", "shelter": "yes"}}, {"type": "node", "id": 2061341150, "lat": -36.8482866, "lon": 174.8314086, "tags": {"bench": "yes", "bus": "yes", "highway": "bus_stop", "local_ref": "A", "name": "Mission Bay", "network": "AT", "network:wikidata": "Q4819567", "official_name": "Stop A Mission Bay", "public_transport": "platform", "ref": "7329", "shelter": "no"}}, {"type": "node", "id": 2061341151, "lat": -36.8494371, "lon": 174.818582, "tags": {"bus": "yes", "highway": "bus_stop", "name": "\u014cr\u0101kei Domain", "name:en": "\u014cr\u0101kei Domain", "name:mi": "Te Papa Raurarahi o \u014cr\u0101kei", "network": "AT", "network:wikidata": "Q4819567", "public_transport": "platform", "ref": "7321", "shelter": "yes"}}, {"type": "node", "id": 2061341152, "lat": -36.8499176, "lon": 174.8426094, "tags": {"bus": "yes", "highway": "bus_stop", "name": "Kohimarama Beach", "name:en": "Kohimarama Beach", "name:mi": "Te Takutai o Kohimarama", "network": "AT", "network:wikidata": "Q4819567", "public_transport": "platform", "ref": "7336", "wheelchair": "yes"}}, {"type": "node", "id": 2061341153, "lat": -36.8500371, "lon": 174.8425193, "tags": {"bus": "yes", "highway": "bus_stop", "name": "Kohimarama Beach", "name:en": "Kohimarama Beach", "name:mi": "Te Takutai o Kohimarama", "network": "AT", "network:wikidata": "Q4819567", "public_transport": "platform", "ref": "7337", "wheelchair": "yes"}}, {"type": "node", "id": 2061341154, "lat": -36.8500747, "lon": 174.8578408, "tags": {"bench": "yes", "bin": "yes", "bus": "yes", "highway": "bus_stop", "lit": "yes", "local_ref": "B", "name": "Saint Heliers", "name:en": "Saint Heliers", "network": "AT", "network:wikidata": "Q4819567", "official_name": "Stop B St Heliers", "public_transport": "platform", "ref": "7344", "shelter": "yes", "tactile_paving": "no", "wheelchair": "yes"}}, {"type": "node", "id": 2061341155, "lat": -36.8501899, "lon": 174.8515278, "tags": {"bus": "yes", "highway": "bus_stop", "name": "T\u0101maki Drive / Long Drive", "name:en": "T\u0101maki Drive / Long Drive", "name:mi": "Te Ara \u0100whio o T\u0101maki m\u0101 Te Ara \u0100whio o Long", "network": "AT", "network:wikidata": "Q4819567", "public_transport": "platform", "ref": "7341", "wheelchair": "yes"}}, {"type": "node", "id": 2061341157, "lat": -36.8502535, "lon": 174.8576499, "tags": {"bench": "yes", "bin": "no", "bus": "yes", "highway": "bus_stop", "lit": "yes", "local_ref": "A", "name": "Saint Heliers", "name:en": "Saint Heliers", "network": "AT", "network:wikidata": "Q4819567", "official_name": "Stop A St Heliers", "public_transport": "platform", "ref": "7345", "shelter": "yes", "tactile_paving": "no", "wheelchair": "yes"}}, {"type": "node", "id": 2061341158, "lat": -36.850649, "lon": 174.8525738, "tags": {"bus": "yes", "highway": "bus_stop", "name": "T\u0101maki Drive / Long Drive", "name:en": "T\u0101maki Drive / Long Drive", "name:mi": "Te Ara \u0100whio o T\u0101maki m\u0101 Te Ara \u0100whio o Long", "network": "AT", "network:wikidata": "Q4819567", "public_transport": "platform", "ref": "7340", "wheelchair": "yes"}}, {"type": "node", "id": 2061341160, "lat": -36.8509434, "lon": 174.8467276, "tags": {"bus": "yes", "highway": "bus_stop", "name": "Sage Road", "name:en": "Sage Road", "name:mi": "Te Huarahi o Sage", "network": "AT", "network:wikidata": "Q4819567", "public_transport": "platform", "ref": "7339", "wheelchair": "yes"}}, {"type": "node", "id": 2061341161, "lat": -36.8510044, "lon": 174.8553265, "tags": {"bus": "yes", "highway": "bus_stop", "name": "Vellenoweth Green", "name:en": "Vellenoweth Green", "network": "AT", "network:wikidata": "Q4819567", "public_transport": "platform", "ref": "7343"}}, {"type": "node", "id": 2061346017, "lat": -36.8508989, "lon": 174.8553361, "tags": {"bench": "no", "bin": "yes", "bus": "yes", "highway": "bus_stop", "lit": "yes", "name": "Vellenoweth Green", "name:en": "Vellenoweth Green", "network": "AT", "network:wikidata": "Q4819567", "public_transport": "platform", "ref": "7342", "shelter": "no", "tactile_paving": "no"}}, {"type": "node", "id": 2085588282, "lat": -36.8161718, "lon": 174.8039516, "tags": {"bus": "yes", "highway": "bus_stop", "name": "Morrison Avenue", "name:en": "Morrison Avenue", "name:mi": "Te Arah\u0101ngai o Morrison", "network": "AT", "network:wikidata": "Q4819567", "operator": "Auckland Transport", "public_transport": "platform", "ref": "3461"}}, {"type": "node", "id": 2085588283, "lat": -36.8164954, "lon": 174.8043455, "tags": {"bus": "yes", "description": "glass", "highway": "bus_stop", "name": "Morrison Avenue", "name:en": "Morrison Avenue", "name:mi": "Te Arah\u0101ngai o Morrison", "network": "AT", "network:wikidata": "Q4819567", "operator": "Auckland Transport", "public_transport": "platform", "ref": "3496", "shelter": "yes"}}, {"type": "node", "id": 2085588284, "lat": -36.8178445, "lon": 174.8051591, "tags": {"bus": "yes", "description": "glass", "highway": "bus_stop", "name": "Ascot Avenue", "name:en": "Ascot Avenue", "name:mi": "Te Arah\u0101ngai o Ascot", "network": "AT", "network:wikidata": "Q4819567", "operator": "Auckland Transport", "public_transport": "platform", "ref": "3459", "shelter": "yes"}}, {"type": "node", "id": 2085588285, "lat": -36.8179532, "lon": 174.8054282, "tags": {"bus": "yes", "description": "glass", "highway": "bus_stop", "name": "Ascot Avenue", "name:en": "Ascot Avenue", "name:mi": "Te Arah\u0101ngai o Ascot", "network": "AT", "network:wikidata": "Q4819567", "operator": "Auckland Transport", "public_transport": "platform", "ref": "3494", "shelter": "yes"}}, {"type": "node", "id": 2085588287, "lat": -36.820665, "lon": 174.8050314, "tags": {"bus": "yes", "highway": "bus_stop", "name": "Vauxhall Road Shops", "name:en": "Vauxhall Road Shops", "name:mi": "Ng\u0101 Toa o te Huarahi o Vauxhall", "network": "AT", "network:wikidata": "Q4819567", "operator": "Auckland Transport", "public_transport": "platform", "ref": "3457"}}, {"type": "node", "id": 2085588289, "lat": -36.8215894, "lon": 174.8048403, "tags": {"bus": "yes", "highway": "bus_stop", "name": "Vauxhall Road Shops", "name:en": "Vauxhall Road Shops", "name:mi": "Ng\u0101 Toa o te Huarahi o Vauxhall", "network": "AT", "network:wikidata": "Q4819567", "operator": "Auckland Transport", "public_transport": "platform", "ref": "3478"}}, {"type": "node", "id": 2085588297, "lat": -36.822842, "lon": 174.8042486, "tags": {"bench": "yes", "bin": "no", "bus": "yes", "description": "wooden", "highway": "bus_stop", "name": "Albert Road", "network": "AT", "network:wikidata": "Q4819567", "operator": "Auckland Transport", "public_transport": "platform", "ref": "3439", "shelter": "yes", "tactile_paving": "no"}}, {"type": "node", "id": 2085588300, "lat": -36.8231107, "lon": 174.8042961, "tags": {"access": "no", "bus": "yes", "highway": "bus_stop", "name": "Albert Road", "network": "AT", "network:wikidata": "Q4819567", "public_transport": "platform", "ref": "3480", "school_bus": "designated"}}, {"type": "node", "id": 2085588313, "lat": -36.8253945, "lon": 174.8033857, "tags": {"access": "no", "bus": "yes", "highway": "bus_stop", "name": "Devonport Museum", "network": "AT", "network:wikidata": "Q4819567", "public_transport": "platform", "ref": "4234", "school_bus": "designated", "shelter": "yes"}}, {"type": "node", "id": 2085588436, "lat": -36.8261796, "lon": 174.7965014, "tags": {"bench": "yes", "bin": "no", "bus": "yes", "description": "shelter under shop awning", "highway": "bus_stop", "lit": "no", "name": "Saint Pauls Devonport", "network": "AT", "network:wikidata": "Q4819567", "official_name": "St Pauls Devonport", "operator": "Auckland Transport", "public_transport": "platform", "ref": "3405", "shelter": "no", "tactile_paving": "no"}}, {"type": "node", "id": 2085588445, "lat": -36.8263302, "lon": 174.7966512, "tags": {"bench": "yes", "bus": "yes", "description": "glass", "highway": "bus_stop", "name": "Saint Pauls Devonport", "network": "AT", "network:wikidata": "Q4819567", "official_name": "St Pauls Devonport", "operator": "Auckland Transport", "public_transport": "platform", "ref": "3434", "shelter": "yes"}}, {"type": "node", "id": 2085588457, "lat": -36.8270863, "lon": 174.8081617, "tags": {"bus": "yes", "highway": "bus_stop", "name": "Devonport Domain", "name:en": "Devonport Domain", "name:mi": "Te Papa Raurarahi o Devonport", "network": "AT", "network:wikidata": "Q4819567", "official_name": "12 Cheltenham Rd", "operator": "Auckland Transport", "public_transport": "platform", "ref": "3468"}}, {"type": "node", "id": 2085588469, "lat": -36.8275262, "lon": 174.7966703, "tags": {"bench": "no", "bin": "no", "bus": "yes", "highway": "bus_stop", "lit": "no", "name": "Hastings Parade", "network": "AT", "network:wikidata": "Q4819567", "operator": "Auckland Transport", "public_transport": "platform", "ref": "3407", "shelter": "no", "tactile_paving": "no"}}, {"type": "node", "id": 2085588473, "lat": -36.8275761, "lon": 174.7968049, "tags": {"bench": "no", "bin": "no", "bus": "yes", "highway": "bus_stop", "lit": "no", "name": "Hastings Parade", "network": "AT", "network:wikidata": "Q4819567", "operator": "Auckland Transport", "public_transport": "platform", "ref": "3436", "shelter": "no", "tactile_paving": "no"}}, {"type": "node", "id": 2085588479, "lat": -36.8284436, "lon": 174.7964093, "tags": {"bench": "no", "bin": "yes", "bus": "yes", "highway": "bus_stop", "lit": "no", "name": "Victoria Road", "name:en": "Victoria Road", "name:mi": "Te Huarahi o Wikit\u014dria", "network": "AT", "network:wikidata": "Q4819567", "operator": "Auckland Transport", "public_transport": "platform", "ref": "3188", "shelter": "no", "tactile_paving": "no"}}, {"type": "node", "id": 2085588480, "lat": -36.8286009, "lon": 174.7960284, "tags": {"bench": "no", "bin": "no", "bus": "yes", "highway": "bus_stop", "lit": "no", "name": "Victoria Road", "name:en": "Victoria Road", "name:mi": "Te Huarahi o Wikit\u014dria", "network": "AT", "network:wikidata": "Q4819567", "operator": "Auckland Transport", "public_transport": "platform", "ref": "3409", "shelter": "no", "tactile_paving": "no"}}, {"type": "node", "id": 2085588652, "lat": -36.8315287, "lon": 174.7988969, "tags": {"bench": "yes", "bin": "no", "bus": "yes", "highway": "bus_stop", "lit": "no", "name": "Devonport Beach", "network": "AT", "network:wikidata": "Q4819567", "operator": "Auckland Transport", "public_transport": "platform", "ref": "3460", "shelter": "no", "tactile_paving": "no"}}, {"type": "node", "id": 2085588654, "lat": -36.8315437, "lon": 174.8006209, "tags": {"bench": "yes", "bin": "no", "bus": "yes", "highway": "bus_stop", "lit": "no", "name": "Mays Street", "name:en": "Mays Street", "name:mi": "Te Tiriti o Mays", "network": "AT", "network:wikidata": "Q4819567", "operator": "Auckland Transport", "public_transport": "platform", "ref": "3458", "shelter": "no", "tactile_paving": "no"}}, {"type": "node", "id": 2090727040, "lat": -36.8481321, "lon": 174.8316846, "tags": {"bus": "yes", "highway": "bus_stop", "local_ref": "B", "name": "Mission Bay", "network": "AT", "network:wikidata": "Q4819567", "official_name": "Stop B Mission Bay", "public_transport": "platform", "ref": "7328"}}, {"type": "node", "id": 2090727042, "lat": -36.8488342, "lon": 174.8699757, "tags": {"bus": "yes", "highway": "bus_stop", "name": "Glover Park", "name:en": "Glover Park", "name:mi": "Whakamuhu", "network": "AT", "network:wikidata": "Q4819567", "public_transport": "platform", "ref": "7355"}}, {"type": "node", "id": 2090727043, "lat": -36.8489318, "lon": 174.8698872, "tags": {"bus": "yes", "highway": "bus_stop", "name": "Glover Park", "name:en": "Glover Park", "name:mi": "Whakamuhu", "network": "AT", "network:wikidata": "Q4819567", "public_transport": "platform", "ref": "7352"}}, {"type": "node", "id": 2090727063, "lat": -36.8494904, "lon": 174.8746334, "tags": {"bus": "yes", "highway": "bus_stop", "name": "Abingdon Place", "name:en": "Abingdon Place", "name:mi": "Te Aramutu o Abingdon", "network": "AT", "network:wikidata": "Q4819567", "public_transport": "platform", "ref": "7358"}}, {"type": "node", "id": 2090727066, "lat": -36.8497505, "lon": 174.8744709, "tags": {"bus": "yes", "highway": "bus_stop", "name": "Abingdon Place", "name:en": "Abingdon Place", "name:mi": "Te Aramutu o Abingdon", "network": "AT", "network:wikidata": "Q4819567", "public_transport": "platform", "ref": "7361"}}, {"type": "node", "id": 2090727073, "lat": -36.8502943, "lon": 174.8625252, "tags": {"bus": "yes", "highway": "bus_stop", "name": "Rarangi Road", "name:en": "Rarangi Road", "name:mi": "Te Huarahi o Rarangi", "network": "AT", "network:wikidata": "Q4819567", "public_transport": "platform", "ref": "7346"}}, {"type": "node", "id": 2090727074, "lat": -36.8503209, "lon": 174.869455, "tags": {"bus": "yes", "highway": "bus_stop", "name": "Waimarie Street", "name:en": "Waimarie Street", "name:mi": "Te Tiriti o Waimarie", "network": "AT", "network:wikidata": "Q4819567", "public_transport": "platform", "ref": "7353"}}, {"type": "node", "id": 2090727076, "lat": -36.8503838, "lon": 174.8625943, "tags": {"bus": "yes", "highway": "bus_stop", "name": "Rarangi Road", "name:en": "Rarangi Road", "name:mi": "Te Huarahi o Rarangi", "network": "AT", "network:wikidata": "Q4819567", "public_transport": "platform", "ref": "7347"}}, {"type": "node", "id": 2090727078, "lat": -36.8504446, "lon": 174.869199, "tags": {"bus": "yes", "highway": "bus_stop", "name": "Waimarie Street", "name:en": "Waimarie Street", "name:mi": "Te Tiriti o Waimarie", "network": "AT", "network:wikidata": "Q4819567", "public_transport": "platform", "ref": "7129"}}, {"type": "node", "id": 2090727085, "lat": -36.8508517, "lon": 174.8469262, "tags": {"bus": "yes", "highway": "bus_stop", "name": "Sage Road", "name:en": "Sage Road", "name:mi": "Te Huarahi o Sage", "network": "AT", "network:wikidata": "Q4819567", "public_transport": "platform", "ref": "7338", "wheelchair": "yes"}}, {"type": "node", "id": 2090727096, "lat": -36.851371, "lon": 174.8133064, "tags": {"bus": "yes", "highway": "bus_stop", "name": "\u014ckahu Street", "name:en": "\u014ckahu Street", "name:mi": "Te Tiriti o \u014ckahu", "network": "AT", "network:wikidata": "Q4819567", "public_transport": "platform", "ref": "7316"}}, {"type": "node", "id": 2090727097, "lat": -36.8517825, "lon": 174.876199, "tags": {"bus": "yes", "highway": "bus_stop", "public_transport": "platform", "ref": "7363"}}, {"type": "node", "id": 2090727099, "lat": -36.851935, "lon": 174.8766004, "tags": {"bus": "yes", "highway": "bus_stop", "public_transport": "platform", "ref": "7360"}}, {"type": "node", "id": 2090727100, "lat": -36.8523339, "lon": 174.8061384, "tags": {"bench": "yes", "bin": "yes", "bus": "yes", "highway": "bus_stop", "lit": "yes", "name": "T\u0101maki Drive / Ng\u0101pipi Road", "name:en": "T\u0101maki Drive / Ng\u0101pipi Road", "name:mi": "Te Ara \u0100whio o T\u0101maki m\u0101 Te Huarahi o Ng\u0101pipi", "network": "AT", "network:wikidata": "Q4819567", "public_transport": "platform", "ref": "7312", "shelter": "yes", "tactile_paving": "yes"}}, {"type": "node", "id": 2090727120, "lat": -36.8554374, "lon": 174.8652789, "tags": {"bus": "yes", "highway": "bus_stop", "name": "Maskell Street", "name:en": "Maskell Street", "name:mi": "Te Tiriti o Maskell", "network": "AT", "network:wikidata": "Q4819567", "public_transport": "platform", "ref": "7388"}}, {"type": "node", "id": 2090727121, "lat": -36.8564956, "lon": 174.8672841, "tags": {"bus": "yes", "highway": "bus_stop", "name": "Chesterfield Avenue / Kesteven Avenue", "name:en": "Chesterfield Avenue / Kesteven Avenue", "network": "AT", "network:wikidata": "Q4819567", "public_transport": "platform", "ref": "7391"}}, {"type": "node", "id": 2090727130, "lat": -36.856709, "lon": 174.8674731, "tags": {"bus": "yes", "highway": "bus_stop", "name": "Chesterfield Avenue / Kesteven Avenue", "name:en": "Chesterfield Avenue / Kesteven Avenue", "network": "AT", "network:wikidata": "Q4819567", "public_transport": "platform", "ref": "7386"}}, {"type": "node", "id": 2090727131, "lat": -36.8573274, "lon": 174.8807635, "tags": {"bus": "yes", "highway": "bus_stop", "public_transport": "platform", "ref": "7369"}}, {"type": "node", "id": 2090727132, "lat": -36.857439, "lon": 174.8808749, "tags": {"bus": "yes", "highway": "bus_stop", "public_transport": "platform", "ref": "7366"}}, {"type": "node", "id": 2090727139, "lat": -36.8581124, "lon": 174.8690162, "tags": {"bus": "yes", "highway": "bus_stop", "public_transport": "platform", "ref": "7384"}}, {"type": "node", "id": 2090727140, "lat": -36.8581328, "lon": 174.8692279, "tags": {"bus": "yes", "highway": "bus_stop", "public_transport": "platform", "ref": "7387"}}, {"type": "node", "id": 2090727141, "lat": -36.8596226, "lon": 174.8684424, "tags": {"bus": "yes", "highway": "bus_stop", "public_transport": "platform", "ref": "7382"}}, {"type": "node", "id": 2090727142, "lat": -36.8601575, "lon": 174.8687966, "tags": {"bench": "yes", "bin": "no", "bus": "yes", "highway": "bus_stop", "name": "Riddell Road/Rochdale Avenue", "public_transport": "platform", "ref": "7383", "shelter": "no", "tactile_paving": "no"}}, {"type": "node", "id": 2090727146, "lat": -36.860784, "lon": 174.8690766, "tags": {"bus": "yes", "highway": "bus_stop", "public_transport": "platform", "ref": "1091"}}, {"type": "node", "id": 2090727150, "lat": -36.8625574, "lon": 174.8782722, "tags": {"bus": "yes", "highway": "bus_stop", "public_transport": "platform", "ref": "7375"}}, {"type": "node", "id": 2090729333, "lat": -36.8479991, "lon": 174.8383915, "tags": {"bus": "yes", "highway": "bus_stop", "name": "163 T\u0101maki Drive", "name:en": "163 T\u0101maki Drive", "name:mi": "163 ki te Ara \u0100whio o T\u0101maki", "network": "AT", "network:wikidata": "Q4819567", "public_transport": "platform", "ref": "7332"}}, {"type": "node", "id": 2318657830, "lat": -36.8554984, "lon": 174.8000823}, {"type": "node", "id": 2318657840, "lat": -36.8640426, "lon": 174.8139154}, {"type": "node", "id": 2318657843, "lat": -36.8608675, "lon": 174.8065385}, {"type": "node", "id": 2318657847, "lat": -36.8640112, "lon": 174.8139404}, {"type": "node", "id": 2318657852, "lat": -36.8631847, "lon": 174.8116378}, {"type": "node", "id": 2318657853, "lat": -36.8594508, "lon": 174.8045476}, {"type": "node", "id": 2318657864, "lat": -36.8625994, "lon": 174.8097935}, {"type": "node", "id": 2318657874, "lat": -36.8555147, "lon": 174.8000361}, {"type": "node", "id": 2318657876, "lat": -36.8584441, "lon": 174.8034026}, {"type": "node", "id": 2318657892, "lat": -36.8536776, "lon": 174.7979563}, {"type": "node", "id": 2960594392, "lat": -36.8523062, "lon": 174.7970045, "tags": {"bus": "yes", "highway": "bus_stop", "name": "Lilliput Mini Golf", "name:en": "Lilliput Mini Golf", "network": "AT", "network:wikidata": "Q4819567", "public_transport": "platform", "ref": "7311"}}, {"type": "node", "id": 2960594393, "lat": -36.8525263, "lon": 174.7977636, "tags": {"access": "no", "bus": "yes", "highway": "bus_stop", "name": "Lilliput Mini Golf", "name:en": "Lilliput Mini Golf", "network": "AT", "network:wikidata": "Q4819567", "official_name": "Liliputt Mini Golf", "public_transport": "platform", "ref": "7308", "school_bus": "designated"}}, {"type": "node", "id": 2960594394, "lat": -36.8531617, "lon": 174.8002462, "tags": {"access": "no", "bus": "yes", "highway": "bus_stop", "name": "Hobson Bay Marina", "name:en": "Hobson Bay Marina", "network": "AT", "network:short": "AT", "network:wikidata": "Q4819567", "public_transport": "platform", "ref": "7310", "school_bus": "designated"}}, {"type": "node", "id": 2960594395, "lat": -36.8533337, "lon": 174.8004121, "tags": {"bus": "yes", "highway": "bus_stop", "name": "Hobson Bay Marina", "name:en": "Hobson Bay Marina", "network": "AT", "network:wikidata": "Q4819567", "public_transport": "platform", "ref": "7313"}}, {"type": "node", "id": 2960594405, "lat": -36.8633386, "lon": 174.8106067, "tags": {"bus": "yes", "highway": "bus_stop", "name": "\u014cr\u0101kei Road / \u014cr\u0101kei Station", "name:en": "\u014cr\u0101kei Road / \u014cr\u0101kei Station", "name:mi": "Te Huarahi o \u014cr\u0101kei m\u0101 Te Teihana o \u014cr\u0101kei", "network": "AT", "network:wikidata": "Q4819567", "public_transport": "platform", "ref": "7778"}}, {"type": "node", "id": 2960594406, "lat": -36.8634086, "lon": 174.810663, "tags": {"bus": "yes", "highway": "bus_stop", "name": "\u014cr\u0101kei Road / \u014cr\u0101kei Station", "name:en": "\u014cr\u0101kei Road / \u014cr\u0101kei Station", "name:mi": "Te Huarahi o \u014cr\u0101kei m\u0101 Te Teihana o \u014cr\u0101kei", "network": "AT", "network:wikidata": "Q4819567", "public_transport": "platform", "ref": "7769"}}, {"type": "node", "id": 2960594409, "lat": -36.8642755, "lon": 174.8005691, "tags": {"access": "no", "bench": "no", "bus": "yes", "highway": "bus_stop", "name": "Saint Kentigern Boy's School", "network": "AT", "network:wikidata": "Q4819567", "official_name": "St Kentigern Boy's School", "public_transport": "platform", "ref": "1453", "school_bus": "designated", "shelter": "no"}}, {"type": "node", "id": 2960594410, "lat": -36.8647224, "lon": 174.7963118, "tags": {"bench": "no", "bin": "no", "bus": "yes", "highway": "bus_stop", "name": "Shore Road", "name:en": "Shore Road", "name:mi": "Te Huarahi o Shore", "network": "AT", "network:wikidata": "Q4819567", "public_transport": "platform", "ref": "7666", "shelter": "no"}}, {"type": "node", "id": 2960594411, "lat": -36.86487, "lon": 174.80004, "tags": {"access": "no", "bus": "yes", "highway": "bus_stop", "name": "Baradene College", "network": "AT", "network:wikidata": "Q4819567", "public_transport": "platform", "ref": "7790", "school_bus": "designated", "shelter": "no"}}, {"type": "node", "id": 2960594413, "lat": -36.8649159, "lon": 174.7961689, "tags": {"bench": "yes", "bin": "yes", "bus": "yes", "highway": "bus_stop", "name": "Shore Road", "name:en": "Shore Road", "name:mi": "Te Huarahi o Shore", "network": "AT", "network:wikidata": "Q4819567", "public_transport": "platform", "ref": "7673", "shelter": "yes"}}, {"type": "node", "id": 2978465200, "lat": -36.8446724, "lon": 174.8252896, "tags": {"bus": "yes", "highway": "bus_stop", "name": "Tamaki Yacht Club", "name:en": "Tamaki Yacht Club", "network": "AT", "network:wikidata": "Q4819567", "public_transport": "platform", "ref": "7324", "shelter": "no"}}, {"type": "node", "id": 2978465807, "lat": -36.8458176, "lon": 174.8214705, "tags": {"bus": "yes", "highway": "bus_stop", "name": "Bastion Point / Takaparawha", "name:en": "Bastion Point / Takaparawha", "name:mi": "Takaparawhau", "network": "AT", "network:wikidata": "Q4819567", "public_transport": "platform", "ref": "1403", "shelter": "no"}}, {"type": "node", "id": 2978469636, "lat": -36.8456825, "lon": 174.8210385, "tags": {"bus": "yes", "highway": "bus_stop", "name": "Bastion Point / Takaparawha", "name:en": "Bastion Point / Takaparawha", "name:mi": "Takaparawhau", "network": "AT", "network:wikidata": "Q4819567", "public_transport": "platform", "ref": "7325", "shelter": "no"}}, {"type": "node", "id": 3090092993, "lat": -36.8632352, "lon": 174.8408956, "tags": {"bus": "yes", "highway": "bus_stop", "name": "Saint Thomas's School", "name:en": "Saint Thomas's School", "name:mi": "Te Kura o Saint Thomas", "network": "AT", "network:wikidata": "Q4819567", "official_name": "St Thomas's School", "public_transport": "platform", "ref": "7840"}}, {"type": "node", "id": 3090093003, "lat": -36.8617802, "lon": 174.8390524, "tags": {"bus": "yes", "highway": "bus_stop", "name": "Kohimarama Road / Selwyn College", "name:en": "Kohimarama Road / Selwyn College", "network": "AT", "network:wikidata": "Q4819567", "public_transport": "platform", "ref": "7842"}}, {"type": "node", "id": 3212135801, "lat": -36.8542782, "lon": 174.8596615, "tags": {"bench": "yes", "bin": "no", "bus": "yes", "highway": "bus_stop", "lit": "no", "name": "Saint Philip's Church", "name:en": "Saint Philip's Church", "network": "AT", "network:wikidata": "Q4819567", "public_transport": "platform", "ref": "7562", "shelter": "yes", "tactile_paving": "no"}}, {"type": "node", "id": 3212135825, "lat": -36.853637, "lon": 174.8773985, "tags": {"bus": "yes", "highway": "bus_stop", "public_transport": "platform", "ref": "7365"}}, {"type": "node", "id": 3212135828, "lat": -36.8536967, "lon": 174.8777598, "tags": {"bus": "yes", "highway": "bus_stop", "public_transport": "platform", "ref": "7362"}}, {"type": "node", "id": 3212135841, "lat": -36.8539834, "lon": 174.8593311, "tags": {"bench": "no", "bin": "no", "bus": "yes", "highway": "bus_stop", "lit": "no", "name": "Saint Philip's Church", "name:en": "Saint Philip's Church", "network": "AT", "network:wikidata": "Q4819567", "public_transport": "platform", "ref": "7398", "shelter": "no", "tactile_paving": "no"}}, {"type": "node", "id": 3212137171, "lat": -36.8549342, "lon": 174.8515039, "tags": {"bus": "yes", "highway": "bus_stop", "name": "Melanesia Road", "name:en": "Melanesia Road", "name:mi": "Te Huarahi o Melanesia", "network": "AT", "network:wikidata": "Q4819567", "public_transport": "platform", "ref": "7988", "wheelchair": "yes"}}, {"type": "node", "id": 3212137172, "lat": -36.8548718, "lon": 174.8515957, "tags": {"bus": "yes", "highway": "bus_stop", "name": "Melanesia Road", "name:en": "Melanesia Road", "name:mi": "Te Huarahi o Melanesia", "network": "AT", "network:wikidata": "Q4819567", "public_transport": "platform", "ref": "7983", "wheelchair": "yes"}}, {"type": "node", "id": 3212137177, "lat": -36.8553349, "lon": 174.8804721, "tags": {"bus": "yes", "highway": "bus_stop", "public_transport": "platform", "ref": "7367"}}, {"type": "node", "id": 3212137178, "lat": -36.8553732, "lon": 174.8806096, "tags": {"bus": "yes", "highway": "bus_stop", "public_transport": "platform", "ref": "7364"}}, {"type": "node", "id": 3212137180, "lat": -36.8573088, "lon": 174.8603093, "tags": {"bench": "yes", "bin": "no", "bus": "yes", "highway": "bus_stop", "lit": "no", "name": "Woodside Crescent", "name:en": "Woodside Crescent", "network": "AT", "network:wikidata": "Q4819567", "public_transport": "platform", "ref": "7399", "shelter": "yes", "tactile_paving": "no"}}, {"type": "node", "id": 3212137181, "lat": -36.857482, "lon": 174.8602108, "tags": {"bench": "no", "bin": "no", "bus": "yes", "highway": "bus_stop", "lit": "yes", "name": "Woodside Crescent", "name:en": "Woodside Crescent", "network": "AT", "network:wikidata": "Q4819567", "public_transport": "platform", "ref": "7396", "shelter": "no", "tactile_paving": "no"}}, {"type": "node", "id": 3212137185, "lat": -36.8588277, "lon": 174.853663, "tags": {"bus": "yes", "highway": "bus_stop", "name": "Dingle Dell Reserve", "public_transport": "platform", "ref": "7984"}}, {"type": "node", "id": 3212137186, "lat": -36.8588467, "lon": 174.8537822, "tags": {"bus": "yes", "highway": "bus_stop", "name": "Dingle Dell Reserve", "public_transport": "platform", "ref": "7979"}}, {"type": "node", "id": 3212137187, "lat": -36.8589177, "lon": 174.8602574, "tags": {"bench": "yes", "bin": "yes", "bus": "yes", "highway": "bus_stop", "lit": "yes", "name": "Saint Heliers School", "name:en": "Saint Heliers School", "name:mi": "Te Kura o Saint Heliers", "network": "AT", "network:wikidata": "Q4819567", "official_name": "St Heliers School", "public_transport": "platform", "ref": "7394", "shelter": "yes", "tactile_paving": "no", "wheelchair": "yes"}}, {"type": "node", "id": 3212137188, "lat": -36.8589904, "lon": 174.860354, "tags": {"bench": "yes", "bin": "yes", "bus": "yes", "highway": "bus_stop", "lit": "no", "name": "Saint Heliers School", "name:en": "Saint Heliers School", "name:mi": "Te Kura o Saint Heliers", "network": "AT", "network:wikidata": "Q4819567", "official_name": "St Heliers School", "public_transport": "platform", "ref": "7397", "shelter": "yes", "tactile_paving": "no", "wheelchair": "yes"}}, {"type": "node", "id": 3212137189, "lat": -36.8595428, "lon": 174.8653874, "tags": {"bench": "no", "bin": "no", "bus": "yes", "highway": "bus_stop", "lit": "no", "name": "Riddell Road/Kesteven Avenue", "network": "AT", "network:wikidata": "Q4819567", "public_transport": "platform", "ref": "8860", "shelter": "no", "tactile_paving": "no"}}, {"type": "node", "id": 3212137190, "lat": -36.8596229, "lon": 174.8654114, "tags": {"bench": "no", "bin": "no", "bus": "yes", "highway": "bus_stop", "lit": "no", "name": "Riddell Road/Kesteven Avenue", "network": "AT", "network:wikidata": "Q4819567", "public_transport": "platform", "ref": "7103", "shelter": "no", "tactile_paving": "no"}}, {"type": "node", "id": 3212137191, "lat": -36.8596995, "lon": 174.862877, "tags": {"bus": "yes", "highway": "bus_stop", "name": "Riddell Road/Sierra Street", "network": "AT", "network:wikidata": "Q4819567", "public_transport": "platform", "ref": "7242"}}, {"type": "node", "id": 3212137193, "lat": -36.8597902, "lon": 174.8629369, "tags": {"bus": "yes", "highway": "bus_stop", "name": "Riddell Road/Sierra Street", "network": "AT", "network:wikidata": "Q4819567", "public_transport": "platform", "ref": "1047"}}, {"type": "node", "id": 3212137194, "lat": -36.8598996, "lon": 174.8803768, "tags": {"bus": "yes", "highway": "bus_stop", "public_transport": "platform", "ref": "7371"}}, {"type": "node", "id": 3212137195, "lat": -36.8598752, "lon": 174.8805138, "tags": {"bus": "yes", "highway": "bus_stop", "public_transport": "platform", "ref": "7368"}}, {"type": "node", "id": 3212137202, "lat": -36.8606328, "lon": 174.8706332, "tags": {"bench": "no", "bin": "no", "bus": "yes", "highway": "bus_stop", "name": "Grantham Road", "public_transport": "platform", "ref": "7381", "shelter": "no", "tactile_paving": "no"}}, {"type": "node", "id": 3212137209, "lat": -36.861334, "lon": 174.8740491, "tags": {"bench": "no", "bin": "no", "bus": "yes", "highway": "bus_stop", "name": "134 Riddell Road", "public_transport": "platform", "ref": "7379", "shelter": "no", "tactile_paving": "no"}}, {"type": "node", "id": 3212137212, "lat": -36.8613411, "lon": 174.873637, "tags": {"bench": "no", "bin": "no", "bus": "yes", "highway": "bus_stop", "public_transport": "platform", "ref": "7376", "shelter": "no", "tactile_paving": "no"}}, {"type": "node", "id": 3212137260, "lat": -36.8618496, "lon": 174.8800605, "tags": {"bus": "yes", "highway": "bus_stop", "public_transport": "platform", "ref": "7373"}}, {"type": "node", "id": 3212137267, "lat": -36.8618837, "lon": 174.8802225, "tags": {"bus": "yes", "highway": "bus_stop", "public_transport": "platform", "ref": "7370"}}, {"type": "node", "id": 3212137299, "lat": -36.8622073, "lon": 174.8570913, "tags": {"bus": "yes", "highway": "bus_stop", "name": "Saint Heliers Bay Road / Long Drive", "name:en": "Saint Heliers Bay Road / Long Drive", "name:mi": "Te Huarahi o Saint Heliers Bay m\u0101 Te Ara \u0100whio o Long", "network": "AT", "network:wikidata": "Q4819567", "official_name": "St Heliers Bay Road / Long Drive", "public_transport": "platform", "ref": "7739"}}, {"type": "node", "id": 3212137330, "lat": -36.8626429, "lon": 174.8566382, "tags": {"bus": "yes", "highway": "bus_stop", "name": "Saint Heliers Bay Road / Long Drive", "name:en": "Saint Heliers Bay Road / Long Drive", "name:mi": "Te Huarahi o Saint Heliers Bay m\u0101 Te Ara \u0100whio o Long", "network": "AT", "network:wikidata": "Q4819567", "official_name": "St Heliers Bay Road / Long Drive", "public_transport": "platform", "ref": "7740"}}, {"type": "node", "id": 3212137404, "lat": -36.8643191, "lon": 174.854022, "tags": {"bus": "yes", "highway": "bus_stop", "name": "Maxine Place", "name:en": "Maxine Place", "network": "AT", "network:wikidata": "Q4819567", "public_transport": "platform", "ref": "7741"}}, {"type": "node", "id": 3212137405, "lat": -36.8643604, "lon": 174.854154, "tags": {"bus": "yes", "highway": "bus_stop", "name": "Maxine Place", "name:en": "Maxine Place", "network": "AT", "network:wikidata": "Q4819567", "public_transport": "platform", "ref": "7742", "wheelchair": "yes"}}, {"type": "node", "id": 3263007320, "lat": -36.807104, "lon": 174.795591, "tags": {"access": "no", "bus": "yes", "highway": "bus_stop", "name": "Williamson Avenue", "name:en": "Williamson Avenue", "name:mi": "Te Arah\u0101ngai o Williamson", "network": "AT", "network:wikidata": "Q4819567", "public_transport": "platform", "ref": "3497", "school_bus": "designated"}}, {"type": "node", "id": 3263007348, "lat": -36.8121704, "lon": 174.7985064, "tags": {"bus": "yes", "description": "wooden", "highway": "bus_stop", "name": "Handley Avenue", "name:en": "Handley Avenue", "name:mi": "Te Arah\u0101ngai o Handley", "network": "AT", "network:wikidata": "Q4819567", "operator": "Auckland Transport", "public_transport": "platform", "ref": "3518", "shelter": "yes"}}, {"type": "node", "id": 3263007351, "lat": -36.8123115, "lon": 174.7977012, "tags": {"bus": "yes", "description": "glass", "highway": "bus_stop", "name": "Merani Street", "name:en": "Merani Street", "name:mi": "Te Tiriti o Merani", "network": "AT", "network:wikidata": "Q4819567", "operator": "Auckland Transport", "public_transport": "platform", "ref": "3487", "shelter": "yes"}}, {"type": "node", "id": 3263007352, "lat": -36.8124277, "lon": 174.7951582, "tags": {"bus": "yes", "highway": "bus_stop", "name": "Wicklow Road", "name:en": "Wicklow Road", "name:mi": "Te Huarahi o Wicklow", "network": "AT", "network:wikidata": "Q4819567", "operator": "Auckland Transport", "public_transport": "platform", "ref": "3514", "shelter": "no"}}, {"type": "node", "id": 3263007353, "lat": -36.8125087, "lon": 174.7952192, "tags": {"bus": "yes", "highway": "bus_stop", "name": "Wicklow Road", "name:en": "Wicklow Road", "name:mi": "Te Huarahi o Wicklow", "network": "AT", "network:wikidata": "Q4819567", "operator": "Auckland Transport", "public_transport": "platform", "ref": "3483", "shelter": "no"}}, {"type": "node", "id": 3263007355, "lat": -36.8125501, "lon": 174.8009473, "tags": {"back_door_boarding": "no", "bus": "yes", "highway": "bus_stop", "name": "Narrow Neck Beach", "network": "AT", "network:wikidata": "Q4819567", "operator": "Auckland Transport", "public_transport": "platform", "ref": "3520", "shelter": "yes"}}, {"type": "node", "id": 3263007364, "lat": -36.8135067, "lon": 174.8012905, "tags": {"bus": "yes", "highway": "bus_stop", "name": "Narrow Neck Beach", "network": "AT", "network:wikidata": "Q4819567", "operator": "Auckland Transport", "public_transport": "platform", "ref": "3489", "shelter": "yes"}}, {"type": "node", "id": 3263007384, "lat": -36.8212768, "lon": 174.8053816, "tags": {"bus": "yes", "highway": "bus_stop", "name": "Vauxhall Road", "name:en": "Vauxhall Road", "name:mi": "Te Huarahi o Vauxhall", "network": "AT", "network:wikidata": "Q4819567", "operator": "Auckland Transport", "public_transport": "platform", "ref": "3476"}}, {"type": "node", "id": 3263007386, "lat": -36.8223465, "lon": 174.7972123, "tags": {"bus": "yes", "description": "glass", "highway": "bus_stop", "name": "Mozeley Avenue", "name:en": "Mozeley Avenue", "name:mi": "Te Arah\u0101ngai o Mozeley", "network": "AT", "network:wikidata": "Q4819567", "operator": "Auckland Transport", "public_transport": "platform", "ref": "3403", "shelter": "yes"}}, {"type": "node", "id": 3263007387, "lat": -36.8226116, "lon": 174.8039662, "tags": {"bus": "yes", "highway": "bus_stop", "name": "Cambria Road", "name:en": "Cambria Road", "name:mi": "Te Huarahi o Cambria", "network": "AT", "network:wikidata": "Q4819567", "operator": "Auckland Transport", "public_transport": "platform", "ref": "3465"}}, {"type": "node", "id": 3263007388, "lat": -36.8228944, "lon": 174.7976266, "tags": {"bus": "yes", "description": "wooden", "highway": "bus_stop", "name": "Mozeley Avenue", "name:en": "Mozeley Avenue", "name:mi": "Te Arah\u0101ngai o Mozeley", "network": "AT", "network:wikidata": "Q4819567", "operator": "Auckland Transport", "public_transport": "platform", "ref": "3432", "shelter": "yes"}}, {"type": "node", "id": 3263007389, "lat": -36.8228719, "lon": 174.8031228, "tags": {"bus": "yes", "highway": "bus_stop", "name": "Cambria Road", "name:en": "Cambria Road", "name:mi": "Te Huarahi o Cambria", "network": "AT", "network:wikidata": "Q4819567", "operator": "Auckland Transport", "public_transport": "platform", "ref": "3500"}}, {"type": "node", "id": 3263007390, "lat": -36.8229486, "lon": 174.8060146, "tags": {"access": "no", "bus": "yes", "highway": "bus_stop", "name": "Mata\u012b Road", "name:en": "Mata\u012b Road", "name:mi": "Te Huarahi o Mata\u012b", "network": "AT", "network:wikidata": "Q4819567", "public_transport": "platform", "ref": "3437", "school_bus": "designated"}}, {"type": "node", "id": 3263007392, "lat": -36.8235404, "lon": 174.8063279, "tags": {"bus": "yes", "highway": "bus_stop", "name": "Mata\u012b Road", "name:en": "Mata\u012b Road", "name:mi": "Te Huarahi o Mata\u012b", "network": "AT", "network:wikidata": "Q4819567", "operator": "Auckland Transport", "public_transport": "platform", "ref": "3474"}}, {"type": "node", "id": 3263007394, "lat": -36.8236755, "lon": 174.8012125, "tags": {"bus": "yes", "highway": "bus_stop", "name": "Church Street", "name:en": "Church Street", "name:mi": "Te Tiriti o Church", "network": "AT", "network:wikidata": "Q4819567", "note": "AT has a typo in this station's name", "official_name": "Church Sreet", "operator": "Auckland Transport", "public_transport": "platform", "ref": "3467", "wheelchair": "no"}}, {"type": "node", "id": 3263007395, "lat": -36.8241285, "lon": 174.8004907, "tags": {"bus": "yes", "highway": "bus_stop", "name": "Church Street", "name:en": "Church Street", "name:mi": "Te Tiriti o Church", "network": "AT", "network:wikidata": "Q4819567", "note": "AT has a typo in this station's name", "official_name": "Church Sreet", "operator": "Auckland Transport", "public_transport": "platform", "ref": "3502", "shelter": "yes"}}, {"type": "node", "id": 3263007396, "lat": -36.824494, "lon": 174.7992865, "tags": {"bus": "yes", "highway": "bus_stop", "name": "Albert Road / Lake Road", "name:en": "Albert Road / Lake Road", "name:mi": "Te Huarahi o Albert m\u0101 Te Huarahi o Lake", "network": "AT", "network:wikidata": "Q4819567", "operator": "Auckland Transport", "public_transport": "platform", "ref": "3469"}}, {"type": "node", "id": 3263007397, "lat": -36.8247937, "lon": 174.8070771, "tags": {"access": "no", "bus": "yes", "highway": "bus_stop", "name": "Eton Avenue", "name:en": "Eton Avenue", "name:mi": "Te Arah\u0101ngai o Eton", "network": "AT", "network:wikidata": "Q4819567", "public_transport": "platform", "ref": "3435", "school_bus": "designated"}}, {"type": "node", "id": 3263007398, "lat": -36.8250284, "lon": 174.8075049, "tags": {"bus": "yes", "highway": "bus_stop", "name": "Eton Avenue", "name:en": "Eton Avenue", "name:mi": "Te Arah\u0101ngai o Eton", "network": "AT", "network:wikidata": "Q4819567", "operator": "Auckland Transport", "public_transport": "platform", "ref": "3472"}}, {"type": "node", "id": 3263007405, "lat": -36.8258287, "lon": 174.8086874, "tags": {"bus": "yes", "highway": "bus_stop", "name": "Tainui Road", "name:en": "Tainui Road", "name:mi": "Te Huarahi o Tainui", "network": "AT", "network:wikidata": "Q4819567", "operator": "Auckland Transport", "public_transport": "platform", "ref": "3470"}}, {"type": "node", "id": 3263007407, "lat": -36.8258784, "lon": 174.8085112, "tags": {"access": "no", "bus": "yes", "highway": "bus_stop", "name": "Tainui Road", "name:en": "Tainui Road", "name:mi": "Te Huarahi o Tainui", "network": "AT", "network:wikidata": "Q4819567", "public_transport": "platform", "ref": "3433", "school_bus": "designated"}}, {"type": "node", "id": 3263007409, "lat": -36.8260563, "lon": 174.802989, "tags": {"bus": "yes", "highway": "bus_stop", "name": "Devonport Museum", "network": "AT", "network:wikidata": "Q4819567", "operator": "Auckland Transport", "public_transport": "platform", "ref": "3455"}}, {"type": "node", "id": 3263007415, "lat": -36.8271797, "lon": 174.8028363, "tags": {"access": "no", "bus": "yes", "highway": "bus_stop", "name": "Fuji Reserve", "name:en": "Fuji Reserve", "name:mi": "Te Papa R\u0101hui o Fuji", "network": "AT", "network:wikidata": "Q4819567", "public_transport": "platform", "ref": "3492", "school_bus": "designated"}}, {"type": "node", "id": 3263007416, "lat": -36.8273904, "lon": 174.8079944, "tags": {"access": "no", "bus": "yes", "highway": "bus_stop", "name": "Devonport Domain", "name:en": "Devonport Domain", "name:mi": "Te Papa Raurarahi o Devonport", "network": "AT", "network:wikidata": "Q4819567", "public_transport": "platform", "ref": "3431", "school_bus": "designated"}}, {"type": "node", "id": 3263007432, "lat": -36.8281924, "lon": 174.8065673, "tags": {"access": "no", "bench": "no", "bin": "no", "bus": "yes", "highway": "bus_stop", "lit": "no", "name": "Cambridge Terrace", "name:signed": "no", "network": "AT", "network:wikidata": "Q4819567", "official_name": "52 King Edward Pde", "public_transport": "platform", "ref": "3466", "school_bus": "designated", "shelter": "no", "tactile_paving": "no"}}, {"type": "node", "id": 3263007436, "lat": -36.8284396, "lon": 174.8064707, "tags": {"bench": "no", "bin": "no", "bus": "yes", "highway": "bus_stop", "lit": "no", "name": "Cambridge Terrace", "network": "AT", "network:wikidata": "Q4819567", "official_name": "King Edward Pde Opp Cambridge Tce", "operator": "Auckland Transport", "public_transport": "platform", "ref": "3429", "shelter": "no", "tactile_paving": "no"}}, {"type": "node", "id": 3263007463, "lat": -36.829401, "lon": 174.8035869, "tags": {"access": "no", "bus": "yes", "highway": "bus_stop", "name": "Tudor Street", "name:en": "Tudor Street", "name:mi": "Te Tiriti o Tudor", "network": "AT", "network:wikidata": "Q4819567", "public_transport": "platform", "ref": "4238", "school_bus": "designated"}}, {"type": "node", "id": 3263007466, "lat": -36.8296421, "lon": 174.8042634, "tags": {"access": "no", "bench": "no", "bin": "no", "bus": "yes", "highway": "bus_stop", "lit": "no", "name": "Duders Beach", "network": "AT", "network:wikidata": "Q4819567", "public_transport": "platform", "ref": "3427", "school_bus": "designated", "shelter": "no", "tactile_paving": "no"}}, {"type": "node", "id": 3263007467, "lat": -36.8297455, "lon": 174.8042983, "tags": {"bench": "yes", "bin": "no", "bus": "yes", "highway": "bus_stop", "lit": "no", "name": "Duders Beach", "network": "AT", "network:wikidata": "Q4819567", "operator": "Auckland Transport", "public_transport": "platform", "ref": "3464", "shelter": "no", "tactile_paving": "no"}}, {"type": "node", "id": 3353534878, "lat": -36.8636562, "lon": 174.8414679, "tags": {"bench": "yes", "bus": "yes", "departures_board": "timetable", "highway": "bus_stop", "name": "Saint Thomas's School", "name:en": "Saint Thomas's School", "name:mi": "Te Kura o Saint Thomas", "network": "AT", "network:wikidata": "Q4819567", "official_name": "St Thomas's School", "public_transport": "platform", "ref": "7614", "shelter": "yes"}}, {"type": "node", "id": 3353541193, "lat": -36.8486846, "lon": 174.8316531, "tags": {"bus": "yes", "highway": "bus_stop", "local_ref": "C", "name": "Mission Bay", "name:en": "Mission Bay", "network": "AT", "network:wikidata": "Q4819567", "official_name": "Stop C Mission Bay", "official_name:en": "Stop C Mission Bay", "public_transport": "platform", "ref": "7245"}}, {"type": "node", "id": 3353541194, "lat": -36.848474, "lon": 174.8318823, "tags": {"bus": "yes", "highway": "bus_stop", "local_ref": "D", "name": "Mission Bay", "name:en": "Mission Bay", "network": "AT", "network:wikidata": "Q4819567", "official_name": "Stop C Mission Bay", "official_name:en": "Stop C Mission Bay", "public_transport": "platform", "ref": "7244"}}, {"type": "node", "id": 3353541231, "lat": -36.8504369, "lon": 174.8340917, "tags": {"bus": "yes", "highway": "bus_stop", "name": "Cullwick Road", "name:en": "Cullwick Road", "name:etymology:wikidata": "Q84767096", "network": "AT", "network:wikidata": "Q4819567", "public_transport": "platform", "ref": "7246"}}, {"type": "node", "id": 3353541232, "lat": -36.8504978, "lon": 174.8340826, "tags": {"bus": "yes", "highway": "bus_stop", "name": "Cullwick Road", "name:en": "Cullwick Road", "name:etymology:wikidata": "Q84767096", "network": "AT", "network:wikidata": "Q4819567", "public_transport": "platform", "ref": "7247"}}, {"type": "node", "id": 3353541241, "lat": -36.8513309, "lon": 174.8359465, "tags": {"bus": "yes", "highway": "bus_stop", "name": "Ronaki Road", "public_transport": "platform", "ref": "7249"}}, {"type": "node", "id": 3353541242, "lat": -36.8513323, "lon": 174.8360695, "tags": {"bus": "yes", "highway": "bus_stop", "name": "Ronaki Road", "public_transport": "platform", "ref": "7248"}}, {"type": "node", "id": 3353541247, "lat": -36.8516561, "lon": 174.8308548, "tags": {"bus": "yes", "departures_board": "timetable", "highway": "bus_stop", "name": "Patteson Avenue", "public_transport": "platform", "ref": "7867", "shelter": "no"}}, {"type": "node", "id": 3353541252, "lat": -36.8518112, "lon": 174.8306403, "tags": {"bus": "yes", "departures_board": "timetable", "highway": "bus_stop", "name": "Patteson Avenue", "public_transport": "platform", "ref": "7860", "shelter": "yes"}}, {"type": "node", "id": 3353541259, "lat": -36.8521814, "lon": 174.8281789, "tags": {"bus": "yes", "departures_board": "timetable", "highway": "bus_stop", "name": "Atkin Avenue", "name:en": "Atkin Avenue", "name:mi": "Te Arah\u0101ngai o Atkin", "network": "AT", "network:wikidata": "Q4819567", "public_transport": "platform", "ref": "7869", "shelter": "no"}}, {"type": "node", "id": 3353541266, "lat": -36.8523062, "lon": 174.8280693, "tags": {"bus": "yes", "highway": "bus_stop", "name": "Atkin Avenue", "name:en": "Atkin Avenue", "name:mi": "Te Arah\u0101ngai o Atkin", "network": "AT", "network:wikidata": "Q4819567", "public_transport": "platform", "ref": "7862", "shelter": "yes"}}, {"type": "node", "id": 3353541287, "lat": -36.8532193, "lon": 174.8352604, "tags": {"bus": "yes", "highway": "bus_stop", "public_transport": "platform", "ref": "7251"}}, {"type": "node", "id": 3353541288, "lat": -36.8532295, "lon": 174.8309688, "tags": {"bus": "yes", "highway": "bus_stop", "name": "Codrington Crescent", "name:en": "Codrington Crescent", "name:mi": "Te Araniko o Codrington", "network": "AT", "network:wikidata": "Q4819567", "public_transport": "platform", "ref": "7865"}}, {"type": "node", "id": 3353541289, "lat": -36.8534023, "lon": 174.8307277, "tags": {"bus": "yes", "highway": "bus_stop", "name": "Codrington Crescent", "name:en": "Codrington Crescent", "name:mi": "Te Araniko o Codrington", "network": "AT", "network:wikidata": "Q4819567", "public_transport": "platform", "ref": "7858"}}, {"type": "node", "id": 3353541290, "lat": -36.8535702, "lon": 174.8264982, "tags": {"bus": "yes", "highway": "bus_stop", "name": "Aotea Street", "name:en": "Aotea Street", "name:mi": "Te Tiriti o Aotea", "network": "AT", "network:wikidata": "Q4819567", "public_transport": "platform", "ref": "7871"}}, {"type": "node", "id": 3353541291, "lat": -36.8535989, "lon": 174.8262955, "tags": {"bus": "yes", "highway": "bus_stop", "name": "Aotea Street", "name:en": "Aotea Street", "name:mi": "Te Tiriti o Aotea", "network": "AT", "network:wikidata": "Q4819567", "public_transport": "platform", "ref": "7866"}}, {"type": "node", "id": 3353541295, "lat": -36.8540231, "lon": 174.8270585, "tags": {"bus": "yes", "departures_board": "timetable", "highway": "bus_stop", "name": "Rukutai Street", "name:en": "Rukutai Street", "name:mi": "Te Tiriti o Rukutai", "network": "AT", "network:wikidata": "Q4819567", "public_transport": "platform", "ref": "1413", "shelter": "no"}}, {"type": "node", "id": 3353541296, "lat": -36.8539924, "lon": 174.8356332, "tags": {"bus": "yes", "highway": "bus_stop", "name": "Selwyn Avenue / Kohimarama Road", "name:en": "Selwyn Avenue / Kohimarama Road", "network": "AT", "network:wikidata": "Q4819567", "public_transport": "platform", "ref": "7250"}}, {"type": "node", "id": 3353541303, "lat": -36.8543087, "lon": 174.8271695, "tags": {"bus": "yes", "departures_board": "timetable", "highway": "bus_stop", "name": "Rukutai Street", "name:en": "Rukutai Street", "name:mi": "Te Tiriti o Rukutai", "network": "AT", "network:wikidata": "Q4819567", "public_transport": "platform", "ref": "7864", "shelter": "yes"}}, {"type": "node", "id": 3353541309, "lat": -36.85462, "lon": 174.83667, "tags": {"bus": "yes", "highway": "bus_stop", "name": "Kohimarama School", "name:en": "Kohimarama School", "name:mi": "Te Kura o Kohimarama", "network": "AT", "network:wikidata": "Q4819567", "public_transport": "platform", "ref": "1899"}}, {"type": "node", "id": 3353541317, "lat": -36.8549842, "lon": 174.836284, "tags": {"bus": "yes", "highway": "bus_stop", "name": "Selwyn Avenue / Kohimarama Road", "name:en": "Selwyn Avenue / Kohimarama Road", "network": "AT", "network:wikidata": "Q4819567", "public_transport": "platform", "ref": "7253"}}, {"type": "node", "id": 3353541324, "lat": -36.855254, "lon": 174.8365985, "tags": {"bus": "yes", "highway": "bus_stop", "name": "Kohimarama School", "name:en": "Kohimarama School", "name:mi": "Te Kura o Kohimarama", "network": "AT", "network:wikidata": "Q4819567", "public_transport": "platform", "ref": "7252"}}, {"type": "node", "id": 3353541335, "lat": -36.855731, "lon": 174.8298601, "tags": {"bus": "yes", "highway": "bus_stop", "name": "Patteson Reserve", "name:en": "Patteson Reserve", "name:mi": "Te Papa R\u0101hui o Patteson", "network": "AT", "network:wikidata": "Q4819567", "public_transport": "platform", "ref": "7856"}}, {"type": "node", "id": 3353541347, "lat": -36.8558689, "lon": 174.8299933, "tags": {"bus": "yes", "highway": "bus_stop", "name": "Patteson Reserve", "name:en": "Patteson Reserve", "name:mi": "Te Papa R\u0101hui o Patteson", "network": "AT", "network:wikidata": "Q4819567", "public_transport": "platform", "ref": "7863"}}, {"type": "node", "id": 3353541393, "lat": -36.8580407, "lon": 174.8300304, "tags": {"bench": "no", "bin": "no", "bus": "yes", "highway": "bus_stop", "lit": "no", "name": "Palmer Crescent", "name:en": "Palmer Crescent", "name:mi": "Te Araniko o Palmer", "network": "AT", "network:wikidata": "Q4819567", "public_transport": "platform", "ref": "7861", "shelter": "no", "tactile_paving": "no"}}, {"type": "node", "id": 3353541394, "lat": -36.8579875, "lon": 174.8365904, "tags": {"bus": "yes", "highway": "bus_stop", "name": "Comins Crescent", "name:en": "Comins Crescent", "network": "AT", "network:wikidata": "Q4819567", "public_transport": "platform", "ref": "7255"}}, {"type": "node", "id": 3353541395, "lat": -36.8579789, "lon": 174.8366859, "tags": {"bus": "yes", "highway": "bus_stop", "name": "Comins Crescent", "name:en": "Comins Crescent", "network": "AT", "network:wikidata": "Q4819567", "public_transport": "platform", "ref": "7254"}}, {"type": "node", "id": 3353541404, "lat": -36.8603164, "lon": 174.8327696, "tags": {"bus": "yes", "highway": "bus_stop", "name": "Kepa Bush Reserve", "name:en": "Kepa Bush Reserve", "network": "AT", "network:wikidata": "Q4819567", "public_transport": "platform", "ref": "7853"}}, {"type": "node", "id": 3353541405, "lat": -36.860374, "lon": 174.8325727, "tags": {"bus": "yes", "highway": "bus_stop", "name": "Kepa Bush Reserve", "name:en": "Kepa Bush Reserve", "network": "AT", "network:wikidata": "Q4819567", "public_transport": "platform", "ref": "7846"}}, {"type": "node", "id": 3353541407, "lat": -36.8607391, "lon": 174.8378033, "tags": {"bus": "yes", "highway": "bus_stop", "name": "Barfoot and Thompson Stadium", "name:en": "Barfoot and Thompson Stadium", "network": "AT", "network:wikidata": "Q4819567", "public_transport": "platform", "ref": "7844"}}, {"type": "node", "id": 3353605052, "lat": -36.8622206, "lon": 174.868617, "tags": {"access": "no", "bus": "yes", "highway": "bus_stop", "name": "Glendowie College", "network": "AT", "network:wikidata": "Q4819567", "public_transport": "platform", "ref": "1479", "school_bus": "designated", "shelter": "no"}}, {"type": "node", "id": 3353605053, "lat": -36.8473439, "lon": 174.8718742, "tags": {"bus": "yes", "highway": "bus_stop", "name": "438 Riddell Road", "name:en": "438 Riddell Road", "name:mi": "438 ki te Huarahi o Riddell", "network": "AT", "network:wikidata": "Q4819567", "public_transport": "platform", "ref": "7357"}}, {"type": "node", "id": 3353605054, "lat": -36.8473792, "lon": 174.8717082, "tags": {"bus": "yes", "highway": "bus_stop", "name": "759 Riddell Road", "name:en": "759 Riddell Road", "name:mi": "759 ki te Huarahi o Riddell", "network": "AT", "network:wikidata": "Q4819567", "public_transport": "platform", "ref": "7354"}}, {"type": "node", "id": 3353605055, "lat": -36.8474651, "lon": 174.8733324, "tags": {"bus": "yes", "highway": "bus_stop", "name": "Karaka Park Place", "name:en": "Karaka Park Place", "network": "AT", "network:wikidata": "Q4819567", "public_transport": "platform", "ref": "7359"}}, {"type": "node", "id": 3353605056, "lat": -36.8475937, "lon": 174.8741129, "tags": {"bus": "yes", "highway": "bus_stop", "name": "Karaka Park Place", "name:en": "Karaka Park Place", "network": "AT", "network:wikidata": "Q4819567", "public_transport": "platform", "ref": "7356"}}, {"type": "node", "id": 3353605065, "lat": -36.8503698, "lon": 174.8421185, "tags": {"bus": "yes", "highway": "bus_stop", "name": "T\u0101maki Drive", "name:en": "T\u0101maki Drive", "name:mi": "Te Ara \u0100whio o T\u0101maki", "network": "AT", "network:wikidata": "Q4819567", "public_transport": "platform", "ref": "7996", "wheelchair": "yes"}}, {"type": "node", "id": 3353605066, "lat": -36.8508463, "lon": 174.8421242, "tags": {"bus": "yes", "highway": "bus_stop", "name": "T\u0101maki Drive", "name:en": "T\u0101maki Drive", "name:mi": "Te Ara \u0100whio o T\u0101maki", "network": "AT", "network:wikidata": "Q4819567", "public_transport": "platform", "ref": "7991", "wheelchair": "yes"}}, {"type": "node", "id": 3353605514, "lat": -36.8517332, "lon": 174.8654983, "tags": {"bus": "yes", "highway": "bus_stop", "name": "22 Bay Road", "name:en": "22 Bay Road", "name:mi": "22 ki te Huarahi o 22 Bay", "network": "AT", "network:wikidata": "Q4819567", "public_transport": "platform", "ref": "7348"}}, {"type": "node", "id": 3353605515, "lat": -36.8517329, "lon": 174.865242, "tags": {"bus": "yes", "highway": "bus_stop", "name": "19 Bay Road", "name:en": "19 Bay Road", "name:mi": "19 ki te Huarahi o 19 Bay", "network": "AT", "network:wikidata": "Q4819567", "public_transport": "platform", "ref": "7349"}}, {"type": "node", "id": 3353605546, "lat": -36.852775, "lon": 174.8427415, "tags": {"bench": "no", "bus": "yes", "highway": "bus_stop", "name": "Melanesia Road Shops", "name:en": "Melanesia Road Shops", "name:mi": "Ng\u0101 Toa o Te Huarahi o Melanesia", "network": "AT", "network:wikidata": "Q4819567", "public_transport": "platform", "ref": "7989", "shelter": "no", "tactile_paving": "no", "wheelchair": "yes"}}, {"type": "node", "id": 3353605549, "lat": -36.8527947, "lon": 174.8423652, "tags": {"bench": "yes", "bus": "yes", "highway": "bus_stop", "name": "Melanesia Road Shops", "name:en": "Melanesia Road Shops", "name:mi": "Ng\u0101 Toa o Te Huarahi o Melanesia", "network": "AT", "network:wikidata": "Q4819567", "public_transport": "platform", "ref": "7994", "shelter": "yes", "tactile_paving": "no", "wheelchair": "yes"}}, {"type": "node", "id": 3353605553, "lat": -36.8529196, "lon": 174.8248336, "tags": {"bus": "yes", "highway": "bus_stop", "name": "Eastcliffe Retirement Village", "network": "AT", "network:wikidata": "Q4819567", "public_transport": "platform", "ref": "7873"}}, {"type": "node", "id": 3353605556, "lat": -36.8531515, "lon": 174.8249806, "tags": {"bus": "yes", "highway": "bus_stop", "name": "Eastcliffe Retirement Village", "network": "AT", "network:wikidata": "Q4819567", "public_transport": "platform", "ref": "7868"}}, {"type": "node", "id": 3353605558, "lat": -36.8533362, "lon": 174.8455493, "tags": {"bus": "yes", "highway": "bus_stop", "name": "Madills Farm", "name:en": "Madills Farm", "network": "AT", "network:wikidata": "Q4819567", "public_transport": "platform", "ref": "7987"}}, {"type": "node", "id": 3353605560, "lat": -36.8533723, "lon": 174.8451405, "tags": {"bus": "yes", "highway": "bus_stop", "name": "Madills Farm", "name:en": "Madills Farm", "network": "AT", "network:wikidata": "Q4819567", "public_transport": "platform", "ref": "7992"}}, {"type": "node", "id": 3353605572, "lat": -36.8543206, "lon": 174.8477591, "tags": {"bus": "yes", "highway": "bus_stop", "name": "Allum Street", "name:en": "Allum Street", "name:mi": "Te Tiriti o Allum", "network": "AT", "network:wikidata": "Q4819567", "public_transport": "platform", "ref": "7985"}}, {"type": "node", "id": 3353605573, "lat": -36.8544125, "lon": 174.8249192, "tags": {"bus": "yes", "highway": "bus_stop", "name": "Kurahaupo Street", "name:en": "Kurahaupo Street", "name:mi": "Te Tiriti o Kurahaupo", "network": "AT", "network:wikidata": "Q4819567", "public_transport": "platform", "ref": "7875"}}, {"type": "node", "id": 3353605574, "lat": -36.8543884, "lon": 174.8475541, "tags": {"bus": "yes", "highway": "bus_stop", "name": "Allum Street", "name:en": "Allum Street", "name:mi": "Te Tiriti o Allum", "network": "AT", "network:wikidata": "Q4819567", "public_transport": "platform", "ref": "7990"}}, {"type": "node", "id": 3353605575, "lat": -36.854588, "lon": 174.8250529, "tags": {"bus": "yes", "highway": "bus_stop", "name": "Kurahaupo Street", "name:en": "Kurahaupo Street", "name:mi": "Te Tiriti o Kurahaupo", "network": "AT", "network:wikidata": "Q4819567", "public_transport": "platform", "ref": "7870"}}, {"type": "node", "id": 3353605581, "lat": -36.8551591, "lon": 174.8241259, "tags": {"bus": "yes", "highway": "bus_stop", "name": "Te Arawa Street", "name:en": "Te Arawa Street", "name:mi": "Te Tiriti o te Arawa", "network": "AT", "network:wikidata": "Q4819567", "public_transport": "platform", "ref": "7877"}}, {"type": "node", "id": 3353605584, "lat": -36.8556637, "lon": 174.8239132, "tags": {"bus": "yes", "highway": "bus_stop", "name": "Te Arawa Street", "name:en": "Te Arawa Street", "name:mi": "Te Tiriti o te Arawa", "network": "AT", "network:wikidata": "Q4819567", "public_transport": "platform", "ref": "7872"}}, {"type": "node", "id": 3353605590, "lat": -36.8562636, "lon": 174.8145982, "tags": {"bus": "yes", "highway": "bus_stop", "name": "Coates Avenue / \u014cr\u0101kei Shops", "name:en": "Coates Avenue / \u014cr\u0101kei Shops", "name:mi": "Te Arah\u0101ngai o Coates m\u0101 Ng\u0101 Toa o \u014cr\u0101kei", "network": "AT", "network:wikidata": "Q4819567", "public_transport": "platform", "ref": "7886"}}, {"type": "node", "id": 3353605592, "lat": -36.8564462, "lon": 174.8150354, "tags": {"bus": "yes", "highway": "bus_stop", "name": "Coates Avenue / \u014cr\u0101kei Shops", "name:en": "Coates Avenue / \u014cr\u0101kei Shops", "name:mi": "Te Arah\u0101ngai o Coates m\u0101 Ng\u0101 Toa o \u014cr\u0101kei", "network": "AT", "network:wikidata": "Q4819567", "public_transport": "platform", "ref": "7893"}}, {"type": "node", "id": 3353605721, "lat": -36.8572296, "lon": 174.8117052, "tags": {"bus": "yes", "highway": "bus_stop", "name": "Awarua Crescent", "network": "AT", "network:short": "AT", "network:wikidata": "Q4819567", "public_transport": "platform", "ref": "7895"}}, {"type": "node", "id": 3353605724, "lat": -36.8573342, "lon": 174.8116506, "tags": {"bus": "yes", "highway": "bus_stop", "name": "Awarua Crescent", "network": "AT", "network:short": "AT", "network:wikidata": "Q4819567", "public_transport": "platform", "ref": "7888"}}, {"type": "node", "id": 3353605728, "lat": -36.8577851, "lon": 174.8166036, "tags": {"bus": "yes", "highway": "bus_stop", "name": "\u014cr\u0101kei School", "name:en": "\u014cr\u0101kei School", "name:mi": "Te Kura o \u014cr\u0101kei", "network": "AT", "network:wikidata": "Q4819567", "public_transport": "platform", "ref": "7884"}}, {"type": "node", "id": 3353605729, "lat": -36.857796, "lon": 174.8168129, "tags": {"bus": "yes", "highway": "bus_stop", "name": "\u014cr\u0101kei School", "name:en": "\u014cr\u0101kei School", "name:mi": "Te Kura o \u014cr\u0101kei", "network": "AT", "network:wikidata": "Q4819567", "public_transport": "platform", "ref": "7891"}}, {"type": "node", "id": 3353605732, "lat": -36.8591456, "lon": 174.818593, "tags": {"bus": "yes", "highway": "bus_stop", "name": "Puna Street", "name:en": "Puna Street", "name:mi": "Te Tiriti o Puna", "network": "AT", "network:wikidata": "Q4819567", "public_transport": "platform", "ref": "7889"}}, {"type": "node", "id": 3353605733, "lat": -36.8592125, "lon": 174.8184884, "tags": {"bus": "yes", "highway": "bus_stop", "name": "Puna Street", "name:en": "Puna Street", "name:mi": "Te Tiriti o Puna", "network": "AT", "network:wikidata": "Q4819567", "public_transport": "platform", "ref": "7882"}}, {"type": "node", "id": 3353605735, "lat": -36.859184, "lon": 174.8240111, "tags": {"bench": "no", "bin": "no", "bus": "yes", "highway": "bus_stop", "lit": "yes", "name": "Tokomaru Street", "name:en": "Tokomaru Street", "name:mi": "Te Tiriti o Tokomaru", "network": "AT", "network:wikidata": "Q4819567", "public_transport": "platform", "ref": "7881", "shelter": "no", "tactile_paving": "no"}}, {"type": "node", "id": 3353605736, "lat": -36.8593723, "lon": 174.8241537, "tags": {"bench": "yes", "bin": "no", "bus": "yes", "highway": "bus_stop", "lit": "no", "name": "Tokomaru Street", "name:en": "Tokomaru Street", "name:mi": "Te Tiriti o Tokomaru", "network": "AT", "network:wikidata": "Q4819567", "public_transport": "platform", "ref": "7876", "shelter": "no", "tactile_paving": "no"}}, {"type": "node", "id": 3353605737, "lat": -36.8597464, "lon": 174.8685344, "tags": {"bus": "yes", "highway": "bus_stop", "public_transport": "platform", "ref": "7385"}}, {"type": "node", "id": 3353606002, "lat": -36.8609988, "lon": 174.8240913, "tags": {"bench": "yes", "bin": "no", "bus": "yes", "highway": "bus_stop", "lit": "yes", "name": "\u014cr\u0101kei Community Centre", "name:en": "\u014cr\u0101kei Community Centre", "network": "AT", "network:wikidata": "Q4819567", "public_transport": "platform", "ref": "7883", "shelter": "yes", "tactile_paving": "yes"}}, {"type": "node", "id": 3353606007, "lat": -36.8610564, "lon": 174.8209184, "tags": {"bus": "yes", "highway": "bus_stop", "name": "\u014cr\u0101kei Presbyterian Church", "name:en": "\u014cr\u0101kei Presbyterian Church", "network": "AT", "network:wikidata": "Q4819567", "public_transport": "platform", "ref": "7880"}}, {"type": "node", "id": 3353606028, "lat": -36.8613254, "lon": 174.8242789, "tags": {"bus": "yes", "highway": "bus_stop", "name": "\u014cr\u0101kei Community Centre", "name:en": "\u014cr\u0101kei Community Centre", "network": "AT", "network:wikidata": "Q4819567", "public_transport": "platform", "ref": "7878"}}, {"type": "node", "id": 3353606086, "lat": -36.8640415, "lon": 174.8669168, "tags": {"bus": "yes", "highway": "bus_stop", "public_transport": "platform", "ref": "7967"}}, {"type": "node", "id": 3353606088, "lat": -36.8641891, "lon": 174.8668803, "tags": {"bus": "yes", "highway": "bus_stop", "public_transport": "platform", "ref": "7972"}}, {"type": "node", "id": 3353606298, "lat": -36.8646298, "lon": 174.8577616, "tags": {"bus": "yes", "highway": "bus_stop", "public_transport": "platform", "ref": "7978"}}, {"type": "node", "id": 3353606301, "lat": -36.8648893, "lon": 174.858015, "tags": {"bus": "yes", "highway": "bus_stop", "public_transport": "platform", "ref": "7973"}}, {"type": "node", "id": 3353618663, "lat": -36.861485, "lon": 174.8248132, "tags": {"bus": "yes", "highway": "bus_stop", "name": "Kepa Road / \u014cr\u0101kei Shops", "name:en": "Kepa Road / \u014cr\u0101kei Shops", "name:mi": "Te Huarahi o Kepa m\u0101 Ng\u0101 Toa o \u014cr\u0101kei", "network": "AT", "network:wikidata": "Q4819567", "public_transport": "platform", "ref": "7859", "shelter": "no"}}, {"type": "node", "id": 3353618665, "lat": -36.8616979, "lon": 174.8237176, "tags": {"bus": "yes", "highway": "bus_stop", "name": "Kepa Road / \u014cr\u0101kei Shops", "name:en": "Kepa Road / \u014cr\u0101kei Shops", "name:mi": "Te Huarahi o Kepa m\u0101 Ng\u0101 Toa o \u014cr\u0101kei", "network": "AT", "network:wikidata": "Q4819567", "public_transport": "platform", "ref": "7850", "shelter": "yes"}}, {"type": "node", "id": 3470499161, "lat": -36.8324795, "lon": 174.7962604}, {"type": "node", "id": 3470499164, "lat": -36.8324631, "lon": 174.7961016}, {"type": "node", "id": 3470499165, "lat": -36.832466, "lon": 174.7961223}, {"type": "node", "id": 3470499167, "lat": -36.8324905, "lon": 174.7962402}, {"type": "node", "id": 3470499168, "lat": -36.8324892, "lon": 174.7962568}, {"type": "node", "id": 3470499173, "lat": -36.8329278, "lon": 174.7964206}, {"type": "node", "id": 3470499174, "lat": -36.8329315, "lon": 174.7962639}, {"type": "node", "id": 3470499175, "lat": -36.8329416, "lon": 174.79647}, {"type": "node", "id": 3470499176, "lat": -36.8329425, "lon": 174.7964213}, {"type": "node", "id": 3470499177, "lat": -36.8329694, "lon": 174.7964718}, {"type": "node", "id": 3470499178, "lat": -36.8331319, "lon": 174.7961569}, {"type": "node", "id": 3470499179, "lat": -36.8331602, "lon": 174.7963417}, {"type": "node", "id": 3470499180, "lat": -36.8331598, "lon": 174.7963584}, {"type": "node", "id": 3470499181, "lat": -36.8332603, "lon": 174.7960823}, {"type": "node", "id": 3470499182, "lat": -36.8332804, "lon": 174.7955022}, {"type": "node", "id": 3470499184, "lat": -36.833381, "lon": 174.7953643}, {"type": "node", "id": 3489893723, "lat": -36.8625784, "lon": 174.8102313}, {"type": "node", "id": 3489893724, "lat": -36.8619506, "lon": 174.8082256}, {"type": "node", "id": 3489893728, "lat": -36.8628549, "lon": 174.810464}, {"type": "node", "id": 3663915430, "lat": -36.8602652, "lon": 174.9048346, "tags": {"bus": "yes", "highway": "bus_stop", "name": "Lynton Road", "name:en": "Lynton Road", "name:mi": "Te Huarahi o Lynton", "name:zh": "\u6797\u987f\u8def", "network": "AT", "network:wikidata": "Q4819567", "public_transport": "platform", "ref": "6161"}}, {"type": "node", "id": 3663915431, "lat": -36.860585, "lon": 174.9003346, "tags": {"bus": "yes", "highway": "bus_stop", "name": "The Parade", "name:en": "The Parade", "network": "AT", "network:wikidata": "Q4819567", "public_transport": "platform", "ref": "6050"}}, {"type": "node", "id": 3663915434, "lat": -36.8618727, "lon": 174.9010409, "tags": {"bus": "yes", "highway": "bus_stop", "name": "18 Hattaway Avenue", "name:en": "18 Hattaway Avenue", "name:mi": "18 ki te Arah\u0101ngai o Hattaway", "network": "AT", "network:wikidata": "Q4819567", "public_transport": "platform", "ref": "6028"}}, {"type": "node", "id": 3663915436, "lat": -36.8634476, "lon": 174.9020993, "tags": {"bus": "yes", "highway": "bus_stop", "name": "Bucklands Beach Bowling Club", "name:en": "Bucklands Beach Bowling Club", "network": "AT", "network:wikidata": "Q4819567", "public_transport": "platform", "ref": "6052"}}, {"type": "node", "id": 3801700685, "lat": -36.8466591, "lon": 174.8171389, "tags": {"bus": "yes", "highway": "bus_stop", "name": "Kelly Tarlton's", "name:en": "Kelly Tarlton's", "network": "AT", "network:wikidata": "Q4819567", "public_transport": "platform", "ref": "7320", "shelter": "yes"}}, {"type": "node", "id": 3801700693, "lat": -36.8476228, "lon": 174.8295271, "tags": {"bench": "no", "bus": "yes", "departures_board": "timetable", "highway": "bus_stop", "name": "Selwyn Domain", "name:en": "Selwyn Domain", "name:mi": "Te Papa Raurarahi o Selwyn", "network": "AT", "network:wikidata": "Q4819567", "operator": "Auckland Transport", "public_transport": "platform", "ref": "7326", "shelter": "no"}}, {"type": "node", "id": 4274710824, "lat": -36.8625528, "lon": 174.810027, "tags": {"exit:carriages:forward": "ramp|no|no|no|no|no", "local_ref": "2", "name": "\u014cr\u0101kei", "name:mi": "\u014cr\u0101kei", "network": "AT", "network:wikidata": "Q4819567", "official_name": "\u014cr\u0101kei 2", "public_transport": "stop_position", "railway": "stop", "ref": "9401", "side": "right", "train": "yes"}}, {"type": "node", "id": 4281303017, "lat": -36.8619681, "lon": 174.8082425}, {"type": "node", "id": 4281303025, "lat": -36.8622572, "lon": 174.8087695}, {"type": "node", "id": 4281303035, "lat": -36.8623559, "lon": 174.8090028}, {"type": "node", "id": 4413336283, "lat": -36.8307816, "lon": 174.8030578}, {"type": "node", "id": 4413336284, "lat": -36.8310328, "lon": 174.8036935, "tags": {"leisure": "slipway"}}, {"type": "node", "id": 4413336490, "lat": -36.8314611, "lon": 174.8030833, "tags": {"leisure": "slipway"}}, {"type": "node", "id": 4448867180, "lat": -36.8477155, "lon": 174.8177958}, {"type": "node", "id": 4448867181, "lat": -36.8477221, "lon": 174.8177791}, {"type": "node", "id": 4448867182, "lat": -36.8477435, "lon": 174.817813}, {"type": "node", "id": 4448867183, "lat": -36.8477501, "lon": 174.8177964}, {"type": "node", "id": 4448882583, "lat": -36.8493994, "lon": 174.8186199}, {"type": "node", "id": 4448882584, "lat": -36.8494026, "lon": 174.8186422}, {"type": "node", "id": 4448882585, "lat": -36.8494293, "lon": 174.8186133}, {"type": "node", "id": 4448882586, "lat": -36.8494324, "lon": 174.8186355}, {"type": "node", "id": 4448882891, "lat": -36.8495854, "lon": 174.818311, "tags": {"bench": "no", "bin": "no", "bus": "yes", "highway": "bus_stop", "lit": "no", "name": "\u014cr\u0101kei Domain", "name:en": "\u014cr\u0101kei Domain", "name:mi": "Te Papa Raurarahi o \u014cr\u0101kei", "network": "AT", "network:wikidata": "Q4819567", "public_transport": "platform", "ref": "7318", "shelter": "no", "tactile_paving": "no"}}, {"type": "node", "id": 4735684384, "lat": -36.8571667, "lon": 174.8019574}, {"type": "node", "id": 4735684385, "lat": -36.8571866, "lon": 174.8019232}, {"type": "node", "id": 4735684401, "lat": -36.8573475, "lon": 174.8021626}, {"type": "node", "id": 4735684402, "lat": -36.8573733, "lon": 174.8021365}, {"type": "node", "id": 4735684403, "lat": -36.8578141, "lon": 174.8026343}, {"type": "node", "id": 4735684404, "lat": -36.8577194, "lon": 174.8025844}, {"type": "node", "id": 4735807590, "lat": -36.8614283, "lon": 174.8074097}, {"type": "node", "id": 4735807591, "lat": -36.861498, "lon": 174.8076457}, {"type": "node", "id": 4735807592, "lat": -36.8621794, "lon": 174.8087401}, {"type": "node", "id": 5623450642, "lat": -36.8315343, "lon": 174.7982683, "tags": {"bench": "yes", "bin": "yes", "bus": "yes", "highway": "bus_stop", "lit": "no", "name": "Devonport Library", "network": "AT", "network:wikidata": "Q4819567", "operator": "Auckland Transport", "public_transport": "platform", "ref": "3425", "shelter": "yes", "tactile_paving": "no"}}, {"type": "node", "id": 5623468235, "lat": -36.8297682, "lon": 174.797777, "tags": {"bench": "yes", "bin": "yes", "bus": "yes", "highway": "bus_stop", "lit": "no", "name": "Devonport Shops", "name:en": "Devonport Shops", "name:mi": "Ng\u0101 Toa o Devonport", "network": "AT", "network:wikidata": "Q4819567", "operator": "Auckland Transport", "public_transport": "platform", "ref": "3449", "shelter": "no", "tactile_paving": "no"}}, {"type": "node", "id": 6437236282, "lat": -36.8334275, "lon": 174.7957253, "tags": {"ferry": "yes", "local_ref": "2", "name": "Devonport Pier 2", "network": "AT", "network:wikidata": "Q4819567", "official_name": "Devonport Ferry Terminal 2", "public_transport": "stop_position", "ref": "9672", "wheelchair": "no", "wheelchair:conditional": "yes @ \"high tide\""}}, {"type": "node", "id": 6926181561, "lat": -36.8617948, "lon": 174.8083538}, {"type": "node", "id": 6926181571, "lat": -36.8618345, "lon": 174.8084584}, {"type": "node", "id": 7727809793, "lat": -36.8331842, "lon": 174.7963279, "tags": {"automatic_door": "yes", "door": "hinged", "entrance": "yes", "level": "0"}}, {"type": "node", "id": 7727809827, "lat": -36.8324546, "lon": 174.7961037}, {"type": "node", "id": 7727809830, "lat": -36.8329007, "lon": 174.7962626}, {"type": "node", "id": 7727809850, "lat": -36.8328887, "lon": 174.7961467}, {"type": "node", "id": 7727809877, "lat": -36.8332866, "lon": 174.7953612}, {"type": "node", "id": 7727809878, "lat": -36.8334225, "lon": 174.7955723}, {"type": "node", "id": 8169572407, "lat": -36.8295316, "lon": 174.809691}, {"type": "node", "id": 8169572408, "lat": -36.8297732, "lon": 174.8098066, "tags": {"leisure": "slipway"}}, {"type": "node", "id": 8313442290, "lat": -36.8530504, "lon": 174.8058286, "tags": {"bus": "yes", "highway": "bus_stop", "name": "T\u0101maki Drive / Ng\u0101pipi Road", "name:en": "T\u0101maki Drive / Ng\u0101pipi Road", "name:mi": "Te Ara \u0100whio o T\u0101maki m\u0101 Te Huarahi o Ng\u0101pipi", "network": "AT", "network:wikidata": "Q4819567", "public_transport": "platform", "ref": "7899"}}, {"type": "node", "id": 8313517567, "lat": -36.8606947, "lon": 174.8206239, "tags": {"bus": "yes", "highway": "bus_stop", "name": "\u014cr\u0101kei Presbyterian Church", "name:en": "\u014cr\u0101kei Presbyterian Church", "network": "AT", "network:wikidata": "Q4819567", "public_transport": "platform", "ref": "7887"}}, {"type": "node", "id": 8322641191, "lat": -36.8322988, "lon": 174.7956474, "tags": {"bench": "yes", "bin": "yes", "bus": "yes", "highway": "bus_stop", "lit": "yes", "name": "Devonport Terminal", "network": "AT", "network:wikidata": "Q4819567", "network:wikipedia": "en:Auckland Transport", "operator": "Auckland Transport", "public_transport": "platform", "ref": "3462", "shelter": "yes", "tactile_paving": "yes"}}, {"type": "node", "id": 8322641192, "lat": -36.8305075, "lon": 174.7978221, "tags": {"bench": "no", "bin": "no", "bus": "yes", "highway": "bus_stop", "lit": "no", "name": "Devonport Shops", "name:en": "Devonport Shops", "name:mi": "Ng\u0101 Toa o Devonport", "network": "AT", "network:wikidata": "Q4819567", "operator": "Auckland Transport", "public_transport": "platform", "ref": "3490", "shelter": "no", "tactile_paving": "no"}}, {"type": "node", "id": 8322641193, "lat": -36.8286574, "lon": 174.80289, "tags": {"bus": "yes", "highway": "bus_stop", "name": "Tudor Street", "name:en": "Tudor Street", "name:mi": "Te Tiriti o Tudor", "network": "AT", "network:wikidata": "Q4819567", "operator": "Auckland Transport", "public_transport": "platform", "ref": "3451"}}, {"type": "node", "id": 8474037901, "lat": -36.832851, "lon": 174.7962585, "tags": {"entrance": "yes", "level": "0"}}, {"type": "node", "id": 8543284887, "lat": -36.8620338, "lon": 174.8084936}, {"type": "node", "id": 8543284888, "lat": -36.8620013, "lon": 174.8085181}, {"type": "node", "id": 8543284889, "lat": -36.8626112, "lon": 174.8100295}, {"type": "node", "id": 8543284890, "lat": -36.8626519, "lon": 174.8100109}, {"type": "node", "id": 8543284891, "lat": -36.862564, "lon": 174.8097345}, {"type": "node", "id": 8543284892, "lat": -36.8624525, "lon": 174.8094078}, {"type": "node", "id": 8543284893, "lat": -36.8622729, "lon": 174.8089774}, {"type": "node", "id": 8543284894, "lat": -36.8621032, "lon": 174.8086306}, {"type": "node", "id": 8543284895, "lat": -36.8623102, "lon": 174.8092202}, {"type": "node", "id": 8543284896, "lat": -36.8624693, "lon": 174.8096304}, {"type": "node", "id": 8543284897, "lat": -36.8625788, "lon": 174.8100474}, {"type": "node", "id": 8543284898, "lat": -36.8624208, "lon": 174.8096209}, {"type": "node", "id": 8543284899, "lat": -36.8620992, "lon": 174.8088471}, {"type": "node", "id": 8543284900, "lat": -36.8619585, "lon": 174.8085474}, {"type": "node", "id": 8543284908, "lat": -36.862009, "lon": 174.8085123}, {"type": "node", "id": 8543284911, "lat": -36.8619904, "lon": 174.8085256}, {"type": "node", "id": 8543298524, "lat": -36.86185, "lon": 174.8084607}, {"type": "node", "id": 8543298525, "lat": -36.8618774, "lon": 174.8085177}, {"type": "node", "id": 8543298526, "lat": -36.862005, "lon": 174.8087859}, {"type": "node", "id": 8543298527, "lat": -36.8620492, "lon": 174.8088832}, {"type": "node", "id": 8543298551, "lat": -36.86272, "lon": 174.8099451}, {"type": "node", "id": 8666222869, "lat": -36.8274538, "lon": 174.8026281, "tags": {"bus": "yes", "highway": "bus_stop", "name": "Fuji Reserve", "name:en": "Fuji Reserve", "name:mi": "Te Papa R\u0101hui o Fuji", "network": "AT", "network:wikidata": "Q4819567", "operator": "Auckland Transport", "public_transport": "platform", "ref": "3453"}}, {"type": "node", "id": 8699932688, "lat": -36.8332788, "lon": 174.7955468, "tags": {"entrance": "yes", "level": "0"}}, {"type": "node", "id": 9146965166, "lat": -36.8525531, "lon": 174.7966523, "tags": {"name": "679/North Island Main Trunk", "railway": "milestone", "railway:position": "679"}}, {"type": "node", "id": 9146965167, "lat": -36.8558988, "lon": 174.8004212, "tags": {"name": "678.5/North Island Main Trunk", "railway": "milestone", "railway:position": "678.5"}}, {"type": "node", "id": 9146965168, "lat": -36.8592366, "lon": 174.8041904, "tags": {"name": "678/North Island Main Trunk", "railway": "milestone", "railway:position": "678"}}, {"type": "node", "id": 9146965169, "lat": -36.8590319, "lon": 174.8040129}, {"type": "node", "id": 9146965170, "lat": -36.8593546, "lon": 174.8043864}, {"type": "node", "id": 9146965171, "lat": -36.8597916, "lon": 174.8049226}, {"type": "node", "id": 9146965172, "lat": -36.8605224, "lon": 174.805934}, {"type": "node", "id": 9146965173, "lat": -36.8602899, "lon": 174.8055959}, {"type": "node", "id": 9146965174, "lat": -36.8607106, "lon": 174.8062203}, {"type": "node", "id": 9146965175, "lat": -36.8607198, "lon": 174.8063014}, {"type": "node", "id": 9146965176, "lat": -36.8620912, "lon": 174.8085425, "tags": {"name": "677.5/North Island Main Trunk", "railway": "milestone", "railway:position": "677.5"}}, {"type": "node", "id": 9146965177, "lat": -36.8639559, "lon": 174.8136329, "tags": {"name": "677/North Island Main Trunk", "railway": "milestone", "railway:position": "677"}}, {"type": "node", "id": 9430506768, "lat": -36.8466792, "lon": 174.8170871}, {"type": "node", "id": 9430506769, "lat": -36.8466495, "lon": 174.8170805}, {"type": "node", "id": 9430506770, "lat": -36.8466468, "lon": 174.8170993}, {"type": "node", "id": 9430506771, "lat": -36.8466765, "lon": 174.8171059}, {"type": "node", "id": 9563615800, "lat": -36.847834, "lon": 174.8349327, "tags": {"bus": "yes", "highway": "bus_stop", "name": "Selwyn Avenue", "name:en": "Selwyn Avenue", "network": "AT", "network:wikidata": "Q4819567", "public_transport": "platform", "ref": "7330"}}, {"type": "node", "id": 9563615801, "lat": -36.8479083, "lon": 174.83502, "tags": {"bus": "yes", "highway": "bus_stop", "name": "Selwyn Avenue", "name:en": "Selwyn Avenue", "network": "AT", "network:wikidata": "Q4819567", "public_transport": "platform", "ref": "7331"}}, {"type": "node", "id": 9584840878, "lat": -36.8626008, "lon": 174.8100353}, {"type": "node", "id": 9584840879, "lat": -36.8626191, "lon": 174.8100259}, {"type": "node", "id": 9886280626, "lat": -36.8536365, "lon": 174.8054028}, {"type": "node", "id": 9886280627, "lat": -36.8536559, "lon": 174.8052351}, {"type": "node", "id": 9886280628, "lat": -36.8536983, "lon": 174.8054061}, {"type": "node", "id": 9886280629, "lat": -36.8537203, "lon": 174.8052198}, {"type": "node", "id": 9886280630, "lat": -36.8537609, "lon": 174.8054187}, {"type": "node", "id": 9886280631, "lat": -36.8537825, "lon": 174.8052472}, {"type": "node", "id": 9886280632, "lat": -36.8538352, "lon": 174.8054361}, {"type": "node", "id": 9886280633, "lat": -36.8538693, "lon": 174.8052746}, {"type": "node", "id": 9886280651, "lat": -36.8540254, "lon": 174.805508}, {"type": "node", "id": 9886280652, "lat": -36.8540828, "lon": 174.805339}, {"type": "node", "id": 9886280653, "lat": -36.8540914, "lon": 174.8055439}, {"type": "node", "id": 9886280654, "lat": -36.8541485, "lon": 174.8053996}, {"type": "node", "id": 9886280655, "lat": -36.8541554, "lon": 174.8055798}, {"type": "node", "id": 9886280656, "lat": -36.8542141, "lon": 174.8054419}, {"type": "node", "id": 9886280657, "lat": -36.8542083, "lon": 174.805622}, {"type": "node", "id": 9886280658, "lat": -36.8542725, "lon": 174.8054961}, {"type": "node", "id": 9886280665, "lat": -36.85428, "lon": 174.8057478}, {"type": "node", "id": 9886280666, "lat": -36.8544019, "lon": 174.8055518}, {"type": "node", "id": 9886280669, "lat": -36.8543654, "lon": 174.8058361}, {"type": "node", "id": 9886280670, "lat": -36.8544547, "lon": 174.8057181}, {"type": "node", "id": 9886280671, "lat": -36.8544168, "lon": 174.8058713}, {"type": "node", "id": 9886280672, "lat": -36.8545268, "lon": 174.8057299}, {"type": "node", "id": 9886280673, "lat": -36.8544869, "lon": 174.805996}, {"type": "node", "id": 9886280674, "lat": -36.8545839, "lon": 174.8058898}, {"type": "node", "id": 10312081309, "lat": -36.8625626, "lon": 174.8095145}, {"type": "node", "id": 10316314754, "lat": -36.8626913, "lon": 174.8100952}, {"type": "node", "id": 10316314755, "lat": -36.8628448, "lon": 174.8106162}, {"type": "node", "id": 10316314756, "lat": -36.8629478, "lon": 174.8109602}, {"type": "node", "id": 10316314757, "lat": -36.862988, "lon": 174.8110749}, {"type": "node", "id": 10316314758, "lat": -36.8630019, "lon": 174.8112318}, {"type": "node", "id": 10316314761, "lat": -36.862393, "lon": 174.8092128}, {"type": "node", "id": 10316314774, "lat": -36.8625749, "lon": 174.8104379, "tags": {"bus": "yes", "highway": "bus_stop", "name": "\u014cr\u0101kei Station", "name:en": "\u014cr\u0101kei Station", "name:mi": "Te Teihana o \u014cr\u0101kei", "network": "AT", "network:wikidata": "Q4819567", "public_transport": "platform", "ref": "7793"}}, {"type": "node", "id": 10559094501, "lat": -36.8122578, "lon": 174.7972382, "tags": {"bus": "yes", "highway": "bus_stop", "name": "Merani Street", "name:en": "Merani Street", "name:mi": "Te Tiriti o Merani", "network": "AT", "network:wikidata": "Q4819567", "operator": "Auckland Transport", "public_transport": "platform", "ref": "3516"}}, {"type": "node", "id": 10570198877, "lat": -36.8509031, "lon": 174.7948204, "tags": {"railway": "signal", "railway:signal:direction": "forward", "railway:signal:main": "NZ:main_MM", "railway:signal:main:form": "light", "railway:signal:minor": "NZ:low_speed", "railway:signal:minor:form": "light", "ref": "AKD 128"}}, {"type": "node", "id": 10570198878, "lat": -36.8508864, "lon": 174.7948551, "tags": {"railway": "signal", "railway:signal:direction": "backward", "railway:signal:main": "NZ:main_MM", "railway:signal:main:form": "light", "railway:signal:minor": "NZ:low_speed", "railway:signal:minor:form": "light", "ref": "AKD 111"}}, {"type": "node", "id": 10580998507, "lat": -36.8522048, "lon": 174.806635}, {"type": "node", "id": 10580998508, "lat": -36.8521805, "lon": 174.8066264}, {"type": "node", "id": 10580998509, "lat": -36.8521866, "lon": 174.8065982}, {"type": "node", "id": 10580998510, "lat": -36.8521993, "lon": 174.8066026}, {"type": "node", "id": 10580998511, "lat": -36.8522113, "lon": 174.8065484}, {"type": "node", "id": 10580998512, "lat": -36.8521986, "lon": 174.8065441}, {"type": "node", "id": 10580998513, "lat": -36.8522349, "lon": 174.8063827}, {"type": "node", "id": 10580998514, "lat": -36.8522599, "lon": 174.8063915}, {"type": "node", "id": 10692449440, "lat": -36.8622654, "lon": 174.8093004, "tags": {"railway": "hirail_access", "surface": "unpaved"}}, {"type": "node", "id": 10731877564, "lat": -36.8488038, "lon": 174.8399502, "tags": {"bus": "yes", "highway": "bus_stop", "name": "T\u0101maki Drive / Kohimarama Road", "name:en": "T\u0101maki Drive / Kohimarama Road", "name:mi": "Te Ara \u0100whio o T\u0101maki m\u0101 Te Huarahi o Kohimarama", "network": "AT", "network:wikidata": "Q4819567", "public_transport": "platform", "ref": "7335", "wheelchair": "yes"}}, {"type": "node", "id": 10731877565, "lat": -36.8488371, "lon": 174.8402398, "tags": {"bus": "yes", "highway": "bus_stop", "name": "T\u0101maki Drive / Kohimarama Road", "name:en": "T\u0101maki Drive / Kohimarama Road", "name:mi": "Te Ara \u0100whio o T\u0101maki m\u0101 Te Huarahi o Kohimarama", "network": "AT", "network:wikidata": "Q4819567", "public_transport": "platform", "ref": "7334", "wheelchair": "yes"}}, {"type": "node", "id": 10731877567, "lat": -36.8504774, "lon": 174.8570208, "tags": {"bench": "yes", "bin": "yes", "bus": "yes", "highway": "bus_stop", "lit": "yes", "local_ref": "C", "name": "Saint Heliers", "name:en": "Saint Heliers", "network": "AT", "network:wikidata": "Q4819567", "official_name": "Stop C St Heliers", "public_transport": "platform", "ref": "7301", "shelter": "yes", "tactile_paving": "no", "wheelchair": "yes"}}, {"type": "node", "id": 10751990146, "lat": -36.7856391, "lon": 174.8932114, "tags": {"ferry": "yes", "name": "Yankee Wharf", "public_transport": "stop_position"}}, {"type": "node", "id": 10779256531, "lat": -36.857257, "lon": 174.8240414, "tags": {"bench": "yes", "bin": "no", "bus": "yes", "highway": "bus_stop", "lit": "no", "name": "\u014cr\u0101kei Baptist Church", "name:en": "\u014cr\u0101kei Baptist Church", "network": "AT", "network:wikidata": "Q4819567", "public_transport": "platform", "ref": "7874", "shelter": "yes", "tactile_paving": "no"}}, {"type": "node", "id": 10779256532, "lat": -36.85731, "lon": 174.82389, "tags": {"bench": "no", "bin": "no", "bus": "yes", "highway": "bus_stop", "lit": "no", "name": "\u014cr\u0101kei Baptist Church", "name:en": "\u014cr\u0101kei Baptist Church", "network": "AT", "network:wikidata": "Q4819567", "public_transport": "platform", "ref": "7879", "shelter": "no", "tactile_paving": "no"}}, {"type": "node", "id": 10779256533, "lat": -36.8519817, "lon": 174.8385187, "tags": {"bus": "yes", "highway": "bus_stop", "name": "Holgate Road", "name:en": "Holgate Road", "name:mi": "Te Huarahi o Holgate", "network": "AT", "network:wikidata": "Q4819567", "public_transport": "platform", "ref": "1359"}}, {"type": "node", "id": 10779256534, "lat": -36.8499807, "lon": 174.8584121, "tags": {"bench": "no", "bin": "yes", "bus": "yes", "highway": "bus_stop", "lit": "yes", "name": "Turua Street", "name:en": "Turua Street", "name:mi": "Te Tiriti o Turua", "network": "AT", "network:wikidata": "Q4819567", "public_transport": "platform", "ref": "7317", "shelter": "no", "tactile_paving": "no"}}, {"type": "node", "id": 10779256535, "lat": -36.8608, "lon": 174.8592, "tags": {"bus": "yes", "highway": "bus_stop", "name": "Grace Joel Retirement Village", "name:en": "Grace Joel Retirement Village", "network": "AT", "network:wikidata": "Q4819567", "public_transport": "platform", "ref": "1895"}}, {"type": "node", "id": 10779256536, "lat": -36.8613, "lon": 174.85861, "tags": {"bus": "yes", "highway": "bus_stop", "name": "EastMed Medical Centre", "name:en": "EastMed Medical Centre", "network": "AT", "network:wikidata": "Q4819567", "public_transport": "platform", "ref": "1890"}}, {"type": "node", "id": 10779256564, "lat": -36.8583961, "lon": 174.9022338, "tags": {"bus": "yes", "highway": "bus_stop", "name": "Musick Point Road", "name:en": "Musick Point Road", "name:mi": "Te Huarahi o Musick Point", "network": "AT", "network:wikidata": "Q4819567", "public_transport": "platform", "ref": "1929"}}, {"type": "node", "id": 10821337645, "lat": -36.8329178, "lon": 174.796148}, {"type": "node", "id": 10821337647, "lat": -36.8331577, "lon": 174.7961412, "tags": {"entrance": "yes", "level": "0"}}, {"type": "node", "id": 10821337649, "lat": -36.833417, "lon": 174.7957938}, {"type": "node", "id": 10821337650, "lat": -36.8333993, "lon": 174.795793}, {"type": "node", "id": 10821337651, "lat": -36.833398, "lon": 174.7958452}, {"type": "node", "id": 10821337652, "lat": -36.8334095, "lon": 174.7958457}, {"type": "node", "id": 10821337653, "lat": -36.8333987, "lon": 174.7962008}, {"type": "node", "id": 10821337657, "lat": -36.8334115, "lon": 174.7957935, "tags": {"entrance": "emergency", "level": "0"}}, {"type": "node", "id": 10821337659, "lat": -36.8324608, "lon": 174.7961428, "tags": {"entrance": "main", "level": "0"}}, {"type": "node", "id": 10821337661, "lat": -36.8330922, "lon": 174.7963987, "tags": {"entrance": "emergency", "level": "1"}}, {"type": "node", "id": 10821337666, "lat": -36.8330302, "lon": 174.7964356}, {"type": "node", "id": 10821337668, "lat": -36.8333987, "lon": 174.7958179}, {"type": "node", "id": 10821337669, "lat": -36.8333028, "lon": 174.7953617}, {"type": "node", "id": 10821337670, "lat": -36.8333608, "lon": 174.7953637}, {"type": "node", "id": 10821337671, "lat": -36.8333349, "lon": 174.7953386}, {"type": "node", "id": 10821337672, "lat": -36.8333095, "lon": 174.7953522}, {"type": "node", "id": 10821337673, "lat": -36.8333161, "lon": 174.7953448}, {"type": "node", "id": 10821337674, "lat": -36.8333251, "lon": 174.7953395}, {"type": "node", "id": 10821337675, "lat": -36.8333449, "lon": 174.7953421}, {"type": "node", "id": 10821337676, "lat": -36.8333529, "lon": 174.79535}, {"type": "node", "id": 10821337688, "lat": -36.8331044, "lon": 174.7963914}, {"type": "node", "id": 10821337689, "lat": -36.8334007, "lon": 174.795461}, {"type": "node", "id": 10821337690, "lat": -36.8332825, "lon": 174.7954556}, {"type": "node", "id": 10821337691, "lat": -36.8332951, "lon": 174.7953615, "tags": {"entrance": "yes", "level": "0"}}, {"type": "node", "id": 10821337692, "lat": -36.8333709, "lon": 174.795364, "tags": {"entrance": "yes", "level": "0"}}, {"type": "node", "id": 10821337696, "lat": -36.8333441, "lon": 174.7962331}, {"type": "node", "id": 10821337697, "lat": -36.8331693, "lon": 174.7963365}, {"type": "node", "id": 10821350005, "lat": -36.8333721, "lon": 174.7962165}, {"type": "node", "id": 10821350006, "lat": -36.833419, "lon": 174.7957251}, {"type": "node", "id": 10821350008, "lat": -36.8334041, "lon": 174.7957932, "tags": {"entrance": "emergency", "level": "1"}}, {"type": "node", "id": 10821350017, "lat": -36.8329297, "lon": 174.7963398}, {"type": "node", "id": 10821350018, "lat": -36.8332704, "lon": 174.7957871}, {"type": "node", "id": 10821350019, "lat": -36.8332781, "lon": 174.7955662}, {"type": "node", "id": 10821360317, "lat": -36.7785464, "lon": 174.895035, "tags": {"ferry": "yes", "name": "Islington Bay Wharf", "public_transport": "stop_position"}}, {"type": "node", "id": 10857123942, "lat": -36.8655345, "lon": 174.8002017, "tags": {"access": "no", "bus": "yes", "highway": "bus_stop", "name": "Baradene College", "network": "AT", "network:wikidata": "Q4819567", "public_transport": "platform", "ref": "7783", "school_bus": "designated"}}, {"type": "node", "id": 10857123943, "lat": -36.8643112, "lon": 174.8022151, "tags": {"access": "no", "bus": "yes", "highway": "bus_stop", "name": "Saint Kentigern Boy's School", "network": "AT", "network:wikidata": "Q4819567", "official_name": "St Kentigern Boy's School", "public_transport": "platform", "ref": "1510", "school_bus": "designated"}}, {"type": "node", "id": 10857123957, "lat": -36.8630564, "lon": 174.840924, "tags": {"access": "no", "bus": "yes", "highway": "bus_stop", "name": "Saint Thomas's School", "name:en": "Saint Thomas's School", "name:mi": "Te Kura o Saint Thomas", "network": "AT", "network:wikidata": "Q4819567", "official_name": "St Thomas's School", "public_transport": "platform", "ref": "1422", "school_bus": "designated"}}, {"type": "node", "id": 10857123958, "lat": -36.86295, "lon": 174.84133, "tags": {"access": "no", "bus": "yes", "highway": "bus_stop", "name": "St Thomas School", "network": "AT", "network:wikidata": "Q4819567", "public_transport": "platform", "ref": "1442", "school_bus": "designated"}}, {"type": "node", "id": 10857123966, "lat": -36.8617089, "lon": 174.8371762, "tags": {"access": "no", "bus": "yes", "highway": "bus_stop", "name": "Selwyn College", "name:en": "Selwyn College", "name:mi": "Te K\u0101reti o Herewini", "network": "AT", "network:wikidata": "Q4819567", "public_transport": "platform", "ref": "1493", "school_bus": "designated"}}, {"type": "node", "id": 10857123967, "lat": -36.8528064, "lon": 174.8500197, "tags": {"access": "no", "bus": "yes", "highway": "bus_stop", "name": "St Ignatius Catholic School", "network": "AT", "network:wikidata": "Q4819567", "public_transport": "platform", "ref": "1514", "school_bus": "designated"}}, {"type": "node", "id": 10857123970, "lat": -36.8579, "lon": 174.86275, "tags": {"access": "no", "bus": "yes", "highway": "bus_stop", "name": "Berwick Street", "name:en": "Berwick Street", "name:mi": "Te Tiriti o Berwick", "network": "AT", "network:wikidata": "Q4819567", "public_transport": "platform", "ref": "7395", "school_bus": "designated"}}, {"type": "node", "id": 10857123971, "lat": -36.85844, "lon": 174.8624, "tags": {"access": "no", "bus": "yes", "highway": "bus_stop", "name": "Berwick Street", "name:en": "Berwick Street", "name:mi": "Te Tiriti o Berwick", "network": "AT", "network:wikidata": "Q4819567", "public_transport": "platform", "ref": "7392", "school_bus": "designated"}}, {"type": "node", "id": 10857123972, "lat": -36.85706, "lon": 174.86365, "tags": {"access": "no", "bus": "yes", "highway": "bus_stop", "name": "Sylvia Road", "name:en": "Sylvia Road", "name:mi": "Te Huarahi o Sylvia", "network": "AT", "network:wikidata": "Q4819567", "public_transport": "platform", "ref": "7390", "school_bus": "designated"}}, {"type": "node", "id": 10857123973, "lat": -36.85624, "lon": 174.86428, "tags": {"access": "no", "bus": "yes", "highway": "bus_stop", "name": "Sylvia Road", "name:en": "Sylvia Road", "name:mi": "Te Huarahi o Sylvia", "network": "AT", "network:wikidata": "Q4819567", "public_transport": "platform", "ref": "7393", "school_bus": "designated"}}, {"type": "node", "id": 10857165474, "lat": -36.80612, "lon": 174.7948, "tags": {"access": "no", "bus": "yes", "highway": "bus_stop", "name": "Williamson Avenue", "name:en": "Williamson Avenue", "name:mi": "Te Arah\u0101ngai o Williamson", "network": "AT", "network:wikidata": "Q4819567", "public_transport": "platform", "ref": "3528", "school_bus": "designated"}}, {"type": "node", "id": 12466550634, "lat": -36.849029, "lon": 174.8753029}, {"type": "node", "id": 12466550635, "lat": -36.8491616, "lon": 174.8749024}, {"type": "node", "id": 12543755656, "lat": -36.8284299, "lon": 174.8057509, "tags": {"motorcar": "designated", "railway": "turntable"}}, {"type": "node", "id": 12543755658, "lat": -36.8284158, "lon": 174.8058339, "tags": {"motorcar": "designated", "railway": "turntable"}}, {"type": "node", "id": 12543755761, "lat": -36.8259067, "lon": 174.8021133, "tags": {"motorcar": "designated", "railway": "turntable"}}, {"type": "node", "id": 13175166342, "lat": -36.8508567, "lon": 174.7947686, "tags": {"railway": "switch", "ref": "AKD 110A"}}, {"type": "node", "id": 13175166343, "lat": -36.8505876, "lon": 174.7945191, "tags": {"railway": "switch", "ref": "AKD 110B"}}, {"type": "node", "id": 13433783433, "lat": -36.8626979, "lon": 174.8101177, "tags": {"railway": "signal", "railway:signal:direction": "backward", "railway:signal:position": "left", "ref": "Uncomissioned"}}, {"type": "node", "id": 13433783434, "lat": -36.8626409, "lon": 174.8102628, "tags": {"railway": "signal", "railway:signal:direction": "forward", "railway:signal:position": "left"}}, {"type": "node", "id": 13433783435, "lat": -36.8617896, "lon": 174.8080298, "tags": {"railway": "signal", "railway:signal:direction": "forward", "railway:signal:position": "left"}}, {"type": "node", "id": 13433783436, "lat": -36.8572075, "lon": 174.8020037, "tags": {"railway": "signal", "railway:signal:direction": "forward", "railway:signal:position": "left"}}, {"type": "node", "id": 13433783437, "lat": -36.8572282, "lon": 174.8019708, "tags": {"railway": "signal", "railway:signal:direction": "backward", "railway:signal:position": "left"}}, {"type": "way", "id": 23920519, "nodes": [49500907, 2318657874, 2318657892, 10570198877, 13175166342, 259286378], "tags": {"electrified": "contact_line", "frequency": "50", "gauge": "1067", "maxspeed": "60", "name": "North Island Main Trunk", "oneway": "yes", "passenger_lines": "2", "railway": "rail", "railway:etcs": "1", "railway:traffic_mode": "mixed", "start_date": "1930-11-16", "usage": "main", "voltage": "25000"}}, {"type": "way", "id": 23920520, "nodes": [259286378, 49500905], "tags": {"alt_name": "Hobson Bay C", "bridge": "yes", "electrified": "contact_line", "frequency": "50", "gauge": "1067", "layer": "1", "maxspeed": "60", "name": "North Island Main Trunk/Br 387", "oneway": "yes", "passenger_lines": "2", "railway": "rail", "railway:etcs": "1", "railway:traffic_mode": "mixed", "usage": "main", "voltage": "25000"}}, {"type": "way", "id": 24041902, "nodes": [3489893724, 6926181561, 6926181571, 8543298524, 8543298525, 8543298526, 8543298527, 260734196, 260734198, 260734200, 3489893723, 260734202, 3489893728, 260734190, 260734191, 8543298551, 260734192, 10312081309, 4281303035, 4281303025, 4281303017, 3489893724], "tags": {"area": "yes", "fare_gates": "no", "name": "\u014cr\u0101kei", "name:mi": "\u014cr\u0101kei", "network": "AT", "network:wikidata": "Q4819567", "public_transport": "station", "railway": "station", "ref:linz:place_id": "59616", "train": "yes", "wheelchair": "yes", "wikidata": "Q7099346"}}, {"type": "way", "id": 28869630, "nodes": [268169282, 268169283], "tags": {"alt_name": "Hobson Bay C", "bridge": "yes", "electrified": "contact_line", "frequency": "50", "gauge": "1067", "layer": "1", "maxspeed": "60", "name": "North Island Main Trunk/Br 387", "oneway": "alternating", "passenger_lines": "2", "railway": "rail", "railway:etcs": "1", "railway:traffic_mode": "mixed", "usage": "main", "voltage": "25000"}}, {"type": "way", "id": 28869651, "nodes": [13175166343, 10570198878, 317368814, 2318657830, 317369087], "tags": {"electrified": "contact_line", "frequency": "50", "gauge": "1067", "maxspeed": "60", "name": "North Island Main Trunk", "oneway": "yes", "passenger_lines": "2", "railway": "rail", "railway:etcs": "1", "railway:traffic_mode": "mixed", "start_date": "1930-11-16", "usage": "main", "voltage": "25000"}}, {"type": "way", "id": 28869672, "nodes": [317369087, 317369088], "tags": {"alt_name": "Hobson Bay B", "bridge": "yes", "electrified": "contact_line", "frequency": "50", "gauge": "1067", "layer": "1", "maxspeed": "60", "name": "North Island Main Trunk/Br 386", "oneway": "yes", "passenger_lines": "2", "railway": "rail", "railway:etcs": "1", "railway:traffic_mode": "mixed", "start_date": "1930-11-16", "usage": "main", "voltage": "25000"}}, {"type": "way", "id": 28869680, "nodes": [49501953, 9146965171, 259143831, 9146965170, 9146965169, 4735684403, 4735684402, 13433783437, 4735684385, 317369121], "tags": {"electrified": "contact_line", "frequency": "50", "gauge": "1067", "maxspeed": "60", "name": "North Island Main Trunk", "oneway": "yes", "passenger_lines": "2", "railway": "rail", "railway:etcs": "1", "railway:traffic_mode": "mixed", "start_date": "1930-11-16", "usage": "main", "voltage": "25000"}}, {"type": "way", "id": 28869682, "nodes": [317369121, 49500907], "tags": {"alt_name": "Hobson Bay B", "bridge": "yes", "electrified": "contact_line", "frequency": "50", "gauge": "1067", "layer": "1", "maxspeed": "60", "name": "North Island Main Trunk/Br 386", "oneway": "yes", "passenger_lines": "2", "railway": "rail", "railway:etcs": "1", "railway:traffic_mode": "mixed", "start_date": "1930-11-16", "usage": "main", "voltage": "25000"}}, {"type": "way", "id": 28869688, "nodes": [317369088, 4735684384, 13433783436, 4735684401, 4735684404, 2318657876, 317369151, 2318657853, 317369152], "tags": {"electrified": "contact_line", "frequency": "50", "gauge": "1067", "maxspeed": "60", "name": "North Island Main Trunk", "oneway": "yes", "passenger_lines": "2", "railway": "rail", "railway:etcs": "1", "railway:traffic_mode": "mixed", "start_date": "1930-11-16", "usage": "main", "voltage": "25000"}}, {"type": "way", "id": 28869691, "nodes": [973360303, 2318657840, 2318657852, 259144112, 10316314757, 10316314756, 259144189, 10316314755, 259143854, 13433783433, 10316314754, 2318657864, 259143853, 10316314761, 259143852, 4735807592, 49501957, 13433783435, 49501956, 4735807590, 49501954, 9146965174, 9146965172, 9146965173, 259143829], "tags": {"electrified": "contact_line", "frequency": "50", "gauge": "1067", "maxspeed": "60", "name": "North Island Main Trunk", "oneway": "yes", "passenger_lines": "2", "railway": "rail", "railway:etcs": "1", "railway:traffic_mode": "mixed", "start_date": "1930-11-16", "usage": "main", "voltage": "25000"}}, {"type": "way", "id": 28869692, "nodes": [259143829, 49501953], "tags": {"alt_name:en": "Hobson Bay A", "bridge": "yes", "electrified": "contact_line", "frequency": "50", "gauge": "1067", "layer": "1", "maxspeed": "60", "name": "North Island Main Trunk/Br 385", "oneway": "yes", "passenger_lines": "2", "railway": "rail", "railway:etcs": "1", "railway:traffic_mode": "mixed", "start_date": "1930-11-16", "usage": "main", "voltage": "25000"}}, {"type": "way", "id": 28869716, "nodes": [317369152, 317369318], "tags": {"alt_name:en": "Hobson Bay A", "bridge": "yes", "electrified": "contact_line", "frequency": "50", "gauge": "1067", "layer": "1", "maxspeed": "60", "name": "North Island Main Trunk/Br 385", "oneway": "yes", "passenger_lines": "2", "railway": "rail", "railway:etcs": "1", "railway:traffic_mode": "mixed", "start_date": "1930-11-16", "usage": "main", "voltage": "25000"}}, {"type": "way", "id": 83580946, "nodes": [317369318, 259143989, 9146965175, 2318657843, 259143991, 4735807591, 259143992, 259143993, 10692449440, 1017116163, 4274710824, 13433783434, 1017116172, 10316314758, 259144085, 2318657847, 973360349], "tags": {"electrified": "contact_line", "frequency": "50", "gauge": "1067", "maxspeed": "60", "name": "North Island Main Trunk", "oneway": "yes", "passenger_lines": "2", "railway": "rail", "railway:etcs": "1", "railway:traffic_mode": "mixed", "start_date": "1930-11-16", "usage": "main", "voltage": "25000"}}, {"type": "way", "id": 160389122, "nodes": [1724361660, 4413336490], "tags": {"railway": "narrow_gauge"}}, {"type": "way", "id": 339843079, "nodes": [3470499182, 8699932688, 10821350019, 10821350018, 3470499181, 10821337647, 3470499178, 10821337645, 7727809850, 3470499165, 3470499164, 7727809827, 10821337659, 3470499161, 3470499168, 3470499167, 8474037901, 7727809830, 3470499174, 10821350017, 3470499173, 3470499176, 3470499175, 3470499177, 10821337666, 10821337661, 10821337688, 3470499180, 3470499179, 10821337697, 7727809793, 10821337696, 10821350005, 10821337653, 10821337652, 10821337651, 10821337668, 10821337650, 10821350008, 10821337657, 10821337649, 10821350006, 7727809878, 10821337689, 3470499184, 10821337692, 10821337670, 10821337676, 10821337675, 10821337671, 10821337674, 10821337673, 10821337672, 10821337669, 10821337691, 7727809877, 10821337690, 3470499182], "tags": {"addr:housenumber": "1", "addr:street": "Queens Parade", "addr:suburb": "Devonport", "amenity": "ferry_terminal", "building": "yes", "building:levels": "1", "fare_gates": "no", "ferry": "yes", "name": "Devonport Ferry Terminal", "name:mk": "\u0422\u0440\u0430\u0435\u043a\u0442\u0435\u043d \u0442\u0435\u0440\u043c\u0438\u043d\u0430\u043b - \u0414\u0435\u0432\u043e\u043d\u043f\u043e\u0440\u0442", "public_transport": "station", "ref": "9670", "ref:linz:address_id": "1156851", "roof:shape": "hipped"}}, {"type": "way", "id": 443788923, "nodes": [4413336283, 4413336284], "tags": {"railway": "narrow_gauge"}}, {"type": "way", "id": 447824468, "nodes": [4448867181, 4448867180, 4448867182, 4448867183, 4448867181], "tags": {"amenity": "shelter", "building": "transportation", "shelter_type": "public_transport"}}, {"type": "way", "id": 447825031, "nodes": [4448882583, 4448882584, 4448882586, 4448882585, 4448882583], "tags": {"amenity": "shelter", "building": "transportation", "shelter_type": "public_transport"}}, {"type": "way", "id": 624681140, "nodes": [13175166342, 13175166343], "tags": {"electrified": "contact_line", "frequency": "50", "gauge": "1067", "maxspeed": "40", "oneway": "yes", "railway": "rail", "service": "crossover", "usage": "main", "voltage": "25000"}}, {"type": "way", "id": 878082760, "nodes": [8169572407, 8169572408], "tags": {"railway": "narrow_gauge"}}, {"type": "way", "id": 920010792, "nodes": [8543284887, 8543284908, 8543284888, 8543284895, 8543284896, 8543284889, 9584840879, 8543284890, 8543284891, 8543284892, 8543284893, 8543284894, 8543284887], "tags": {"area": "yes", "public_transport": "platform", "railway": "platform", "ref": "2", "train": "yes"}}, {"type": "way", "id": 920010793, "nodes": [8543284889, 9584840878, 8543284897, 8543284898, 8543284899, 8543284900, 8543284911, 8543284888, 8543284895, 8543284896, 8543284889], "tags": {"area": "yes", "public_transport": "platform", "railway": "platform", "ref": "1", "train": "yes"}}, {"type": "way", "id": 1022522312, "nodes": [9430506768, 9430506769, 9430506770, 9430506771, 9430506768], "tags": {"amenity": "shelter", "building": "transportation", "shelter_type": "public_transport"}}, {"type": "way", "id": 1078358817, "nodes": [9886280626, 9886280627], "tags": {"leisure": "slipway", "railway": "narrow_gauge"}}, {"type": "way", "id": 1078358818, "nodes": [9886280628, 9886280629], "tags": {"leisure": "slipway", "railway": "narrow_gauge"}}, {"type": "way", "id": 1078358819, "nodes": [9886280630, 9886280631], "tags": {"leisure": "slipway", "railway": "narrow_gauge"}}, {"type": "way", "id": 1078358820, "nodes": [9886280632, 9886280633], "tags": {"leisure": "slipway", "railway": "narrow_gauge"}}, {"type": "way", "id": 1078358826, "nodes": [9886280651, 9886280652], "tags": {"leisure": "slipway", "railway": "narrow_gauge"}}, {"type": "way", "id": 1078358827, "nodes": [9886280653, 9886280654], "tags": {"leisure": "slipway", "railway": "narrow_gauge"}}, {"type": "way", "id": 1078358828, "nodes": [9886280655, 9886280656], "tags": {"leisure": "slipway", "railway": "narrow_gauge"}}, {"type": "way", "id": 1078358829, "nodes": [9886280657, 9886280658], "tags": {"leisure": "slipway", "railway": "narrow_gauge"}}, {"type": "way", "id": 1078358832, "nodes": [9886280665, 9886280666], "tags": {"leisure": "slipway", "railway": "narrow_gauge"}}, {"type": "way", "id": 1078358834, "nodes": [9886280669, 9886280670], "tags": {"leisure": "slipway", "railway": "narrow_gauge"}}, {"type": "way", "id": 1078358835, "nodes": [9886280671, 9886280672], "tags": {"leisure": "slipway", "railway": "narrow_gauge"}}, {"type": "way", "id": 1078358836, "nodes": [9886280673, 9886280674], "tags": {"leisure": "slipway", "railway": "narrow_gauge"}}, {"type": "way", "id": 1135068835, "nodes": [10580998507, 10580998508, 10580998509, 10580998510, 10580998511, 10580998512, 10580998513, 10580998514, 10580998507], "tags": {"area": "yes", "bus": "yes", "public_transport": "platform"}}, {"type": "way", "id": 1135068836, "nodes": [10580998512, 10580998509, 10580998510, 10580998511, 10580998512], "tags": {"amenity": "shelter", "building": "yes", "shelter_type": "public_transport"}}, {"type": "way", "id": 1347729739, "nodes": [12466550634, 12466550635], "tags": {"railway": "funicular", "service": "yard"}}, {"type": "way", "id": 1433547377, "nodes": [268169283, 13175166343], "tags": {"electrified": "contact_line", "frequency": "50", "gauge": "1067", "maxspeed": "60", "name": "North Island Main Trunk", "oneway": "alternating", "passenger_lines": "2", "railway": "rail", "railway:etcs": "1", "railway:traffic_mode": "mixed", "start_date": "1930-11-16", "usage": "main", "voltage": "25000"}}, {"type": "relation", "id": 11501764, "members": [{"type": "node", "ref": 259143853, "role": "stop"}, {"type": "node", "ref": 4274710824, "role": "stop"}, {"type": "way", "ref": 920010793, "role": "platform"}, {"type": "way", "ref": 920010792, "role": "platform"}, {"type": "way", "ref": 24041902, "role": ""}], "tags": {"name": "\u014cr\u0101kei Train Station", "name:en": "\u014cr\u0101kei Train Station", "name:mi": "Te Teihana Tereina o \u014cr\u0101kei", "network": "AT", "network:wikidata": "Q4819567", "public_transport": "stop_area", "ref": "116", "type": "public_transport"}}, {"type": "relation", "id": 11995765, "members": [{"type": "node", "ref": 2061341150, "role": "platform"}, {"type": "node", "ref": 2090727040, "role": "platform"}, {"type": "node", "ref": 3353541193, "role": "platform"}, {"type": "node", "ref": 3353541194, "role": "platform"}], "tags": {"name": "Mission Bay", "name:en": "Mission Bay", "network": "AT", "network:wikidata": "Q4819567", "public_transport": "stop_area", "ref": "31012", "type": "public_transport"}}, {"type": "relation", "id": 11995775, "members": [{"type": "node", "ref": 2061341149, "role": "platform"}, {"type": "node", "ref": 3801700685, "role": "platform"}, {"type": "way", "ref": 447824468, "role": "shelter"}, {"type": "way", "ref": 1022522312, "role": "shelter"}], "tags": {"name": "Kelly Tarlton's", "name:en": "Kelly Tarlton's", "network": "AT", "network:wikidata": "Q4819567", "official_name": "T\u0101maki Drive / SEA LIFE Kelly Tarlton's Aquarium", "public_transport": "stop_area", "ref": "31007", "type": "public_transport"}}, {"type": "relation", "id": 12074867, "members": [{"type": "node", "ref": 2978469636, "role": "platform"}, {"type": "node", "ref": 2978465807, "role": "platform"}], "tags": {"name": "Bastion Point / Takaparawha", "name:en": "Bastion Point / Takaparawha", "name:mi": "Takaparawhau", "network": "AT", "network:wikidata": "Q4819567", "official_name": "T\u0101maki Drive / Hapimana St", "public_transport": "stop_area", "ref": "31009", "type": "public_transport"}}, {"type": "relation", "id": 12172505, "members": [{"type": "node", "ref": 2090727096, "role": "platform"}, {"type": "node", "ref": 1906473633, "role": "platform"}], "tags": {"name": "\u014ckahu Street", "name:en": "\u014ckahu Street", "name:mi": "Te Tiriti o \u014ckahu", "network": "AT", "network:wikidata": "Q4819567", "official_name": "T\u0101maki Drive / Okahu St", "public_transport": "stop_area", "ref": "31005", "type": "public_transport"}}, {"type": "relation", "id": 12172506, "members": [{"type": "node", "ref": 2061341151, "role": "platform"}, {"type": "node", "ref": 4448882891, "role": "platform"}, {"type": "way", "ref": 447825031, "role": "shelter"}], "tags": {"name": "\u014cr\u0101kei Domain", "name:en": "\u014cr\u0101kei Domain", "name:mi": "Te Papa Raurarahi o \u014cr\u0101kei", "network": "AT", "network:wikidata": "Q4819567", "official_name": "T\u0101maki Drive / Orakei Domain", "public_transport": "stop_area", "ref": "31006", "type": "public_transport"}}, {"type": "relation", "id": 12172508, "members": [{"type": "node", "ref": 2090727100, "role": "platform"}, {"type": "node", "ref": 1906473635, "role": "platform"}, {"type": "node", "ref": 1906473616, "role": "platform"}, {"type": "node", "ref": 8313442290, "role": "platform"}, {"type": "way", "ref": 1135068836, "role": "shelter"}], "tags": {"name": "T\u0101maki Drive / Ng\u0101pipi Road", "name:en": "T\u0101maki Drive / Ng\u0101pipi Road", "name:mi": "Te Ara \u0100whio o T\u0101maki / Te Huarahi o Ng\u0101pipi", "network": "AT", "network:wikidata": "Q4819567", "public_transport": "stop_area", "ref": "31003", "type": "public_transport"}}, {"type": "relation", "id": 12172548, "members": [{"type": "node", "ref": 2007769640, "role": "platform"}, {"type": "node", "ref": 2007769624, "role": "platform"}, {"type": "node", "ref": 2007769631, "role": "platform"}], "tags": {"name": "Kepa Road / Eastridge Shopping Centre", "network": "AT", "network:wikidata": "Q4819567", "official_name": "Kepa Rd / Eastridge Shopping Centre", "public_transport": "stop_area", "ref": "31041", "type": "public_transport"}}, {"type": "relation", "id": 12172549, "members": [{"type": "node", "ref": 3353541393, "role": "platform"}], "tags": {"name": "Patteson Avenue / Palmer Crescent", "name:en": "Patteson Avenue / Palmer Crescent", "name:mi": "Te Arah\u0101ngai o Patteson / Te Araniko o Palmer", "network": "AT", "network:wikidata": "Q4819567", "public_transport": "stop_area", "ref": "31040", "type": "public_transport"}}, {"type": "relation", "id": 12172573, "members": [{"type": "node", "ref": 8313517567, "role": "platform"}, {"type": "node", "ref": 3353606007, "role": "platform"}], "tags": {"name": "\u014cr\u0101kei Presbyterian Church", "name:en": "\u014cr\u0101kei Presbyterian Church", "network": "AT", "network:wikidata": "Q4819567", "official_name": "Coates Ave / Orakei Presbyterian Church", "public_transport": "stop_area", "ref": "31026", "type": "public_transport"}}, {"type": "relation", "id": 12172574, "members": [{"type": "node", "ref": 3353618665, "role": "platform"}, {"type": "node", "ref": 3353618663, "role": "platform"}], "tags": {"name": "Kepa Road / \u014cr\u0101kei Shops", "name:en": "Kepa Road / \u014cr\u0101kei Shops", "name:mi": "Te Huarahi o Kepa / Ng\u0101 Toa o \u014cr\u0101kei", "public_transport": "stop_area", "ref": "31917", "type": "public_transport"}}, {"type": "relation", "id": 12172575, "members": [{"type": "node", "ref": 3353606002, "role": "platform"}, {"type": "node", "ref": 3353606028, "role": "platform"}], "tags": {"name": "\u014cr\u0101kei Community Centre", "name:en": "\u014cr\u0101kei Community Centre", "network": "AT", "network:wikidata": "Q4819567", "public_transport": "stop_area", "ref": "31028", "type": "public_transport"}}, {"type": "relation", "id": 12184672, "members": [{"type": "node", "ref": 2061346017, "role": "platform"}, {"type": "node", "ref": 2061341161, "role": "platform"}], "tags": {"name": "Vellenoweth Green", "name:en": "Vellenoweth Green", "network": "AT", "network:wikidata": "Q4819567", "official_name": "T\u0101maki Drive / Vallenoweth Green", "public_transport": "stop_area", "ref": "31019", "type": "public_transport"}}, {"type": "relation", "id": 12184673, "members": [{"type": "node", "ref": 2061341157, "role": "platform"}, {"type": "node", "ref": 2061341154, "role": "platform"}, {"type": "node", "ref": 10731877567, "role": "platform"}], "tags": {"name": "Saint Heliers", "name:en": "Saint Heliers", "network": "AT", "network:wikidata": "Q4819567", "official_name": "St Heliers", "public_transport": "stop_area", "ref": "31020", "type": "public_transport"}}, {"type": "relation", "id": 12184674, "members": [{"type": "node", "ref": 3212135801, "role": "platform"}, {"type": "node", "ref": 3212135841, "role": "platform"}], "tags": {"name": "Saint Philip's Church", "name:en": "Saint Philip's Church", "network": "AT", "network:wikidata": "Q4819567", "public_transport": "stop_area", "ref": "31064", "type": "public_transport"}}, {"type": "relation", "id": 12184691, "members": [{"type": "node", "ref": 3353541324, "role": "platform"}, {"type": "node", "ref": 3353541309, "role": "platform"}], "tags": {"name": "Kohimarama School", "name:en": "Kohimarama School", "name:mi": "Te Kura o Kohimarama", "network": "AT", "network:wikidata": "Q4819567", "official_name": "Kohimarama Rd / Kohimarama School", "public_transport": "stop_area", "ref": "11861", "type": "public_transport"}}, {"type": "relation", "id": 12184692, "members": [{"type": "node", "ref": 3353541296, "role": "platform"}, {"type": "node", "ref": 3353541317, "role": "platform"}], "tags": {"name": "Selwyn Avenue / Kohimarama Road", "name:en": "Selwyn Avenue / Kohimarama Road", "network": "AT", "network:wikidata": "Q4819567", "public_transport": "stop_area", "ref": "31914", "type": "public_transport"}}, {"type": "relation", "id": 12184703, "members": [{"type": "node", "ref": 3212137187, "role": "platform"}, {"type": "node", "ref": 3212137188, "role": "platform"}], "tags": {"name": "Saint Heliers School", "name:en": "Saint Heliers School", "name:mi": "Te Kura o Saint Heliers", "network": "AT", "network:wikidata": "Q4819567", "official_name": "St Heliers School", "public_transport": "stop_area", "ref": "31066", "type": "public_transport"}}, {"type": "relation", "id": 12184704, "members": [{"type": "node", "ref": 3212137180, "role": "platform"}, {"type": "node", "ref": 3212137181, "role": "platform"}], "tags": {"name": "Woodside Crescent", "name:en": "Woodside Crescent", "network": "AT", "network:wikidata": "Q4819567", "public_transport": "stop_area", "ref": "31065", "type": "public_transport"}}, {"type": "relation", "id": 12188996, "members": [{"type": "node", "ref": 2085588480, "role": "platform"}, {"type": "node", "ref": 2085588479, "role": "platform"}], "tags": {"name": "Victoria Road", "name:en": "Victoria Road", "name:mi": "Te Huarahi o Wikit\u014dria", "network": "AT", "network:wikidata": "Q4819567", "public_transport": "stop_area", "ref": "41011", "type": "public_transport"}}, {"type": "relation", "id": 12188997, "members": [{"type": "node", "ref": 2085588473, "role": "platform"}, {"type": "node", "ref": 2085588469, "role": "platform"}], "tags": {"name": "Hastings Parade", "network": "AT", "network:wikidata": "Q4819567", "public_transport": "stop_area", "ref": "41640", "type": "public_transport"}}, {"type": "relation", "id": 12188998, "members": [{"type": "way", "ref": 339843079, "role": ""}, {"type": "node", "ref": 8322641191, "role": "platform"}, {"type": "node", "ref": 31234700, "role": "stop"}, {"type": "node", "ref": 6437236282, "role": "stop"}], "tags": {"name": "Devonport Ferry Terminal", "official_name": "/Devonport", "public_transport": "stop_area", "ref": "96701", "type": "public_transport"}}, {"type": "relation", "id": 12188999, "members": [{"type": "node", "ref": 8322641192, "role": "platform"}, {"type": "node", "ref": 5623468235, "role": "platform"}], "tags": {"name": "Devonport Shops", "name:en": "Devonport Shops", "name:mi": "Ng\u0101 Toa o Devonport", "network": "AT", "network:wikidata": "Q4819567", "public_transport": "stop_area", "ref": "41012", "type": "public_transport"}}, {"type": "relation", "id": 12189000, "members": [{"type": "node", "ref": 3263007466, "role": "platform"}, {"type": "node", "ref": 3263007467, "role": "platform"}], "tags": {"name": "Duders Beach", "network": "AT", "network:wikidata": "Q4819567", "official_name": "King Edward Parade / Church St", "public_transport": "stop_area", "ref": "41017", "type": "public_transport"}}, {"type": "relation", "id": 12189001, "members": [{"type": "node", "ref": 8322641193, "role": "platform"}, {"type": "node", "ref": 3263007463, "role": "platform"}], "tags": {"name": "Tudor Street", "name:en": "Tudor Street", "name:mi": "Te Tiriti o Tudor", "network": "AT", "network:wikidata": "Q4819567", "public_transport": "stop_area", "ref": "41053", "type": "public_transport"}}, {"type": "relation", "id": 12189002, "members": [{"type": "node", "ref": 2085588652, "role": "platform"}, {"type": "node", "ref": 5623450642, "role": "platform"}], "tags": {"name": "Devonport Beach", "official_name": "King Edward Parade / Devonport Library", "public_transport": "stop_area", "ref": "41014", "type": "public_transport"}}, {"type": "relation", "id": 12189003, "members": [{"type": "node", "ref": 2085588654, "role": "platform"}], "tags": {"name": "Mays Street", "name:en": "Mays Street", "name:mi": "Te Tiriti o Mays", "network": "AT", "network:wikidata": "Q4819567", "official_name": "King Edward Parade / Mays St", "public_transport": "stop_area", "ref": "41016", "type": "public_transport"}}, {"type": "relation", "id": 13399785, "members": [{"type": "node", "ref": 3090093003, "role": "platform"}, {"type": "node", "ref": 1682765950, "role": "platform"}], "tags": {"name": "Kohimarama Road / Selwyn College", "name:en": "Kohimarama Road / Selwyn College", "network": "AT", "network:wikidata": "Q4819567", "official_name": "Kohimarama Rd / Selwyn College", "public_transport": "stop_area", "ref": "31051", "type": "public_transport"}}, {"type": "relation", "id": 13399786, "members": [{"type": "node", "ref": 3353541405, "role": "platform"}, {"type": "node", "ref": 3353541404, "role": "platform"}], "tags": {"name": "Kepa Bush Reserve", "name:en": "Kepa Bush Reserve", "network": "AT", "network:wikidata": "Q4819567", "public_transport": "stop_area", "ref": "31042", "type": "public_transport"}}, {"type": "relation", "id": 13905758, "members": [{"type": "node", "ref": 2978465200, "role": "platform"}], "tags": {"name": "Tamaki Yacht Club", "name:en": "Tamaki Yacht Club", "network": "AT", "network:wikidata": "Q4819567", "official_name": "T\u0101maki Drive / T\u0101maki Yacht Club", "public_transport": "stop_area", "ref": "31010", "type": "public_transport"}}, {"type": "relation", "id": 13905759, "members": [{"type": "node", "ref": 9563615801, "role": "platform"}, {"type": "node", "ref": 9563615800, "role": "platform"}], "tags": {"name": "Selwyn Avenue", "name:en": "Selwyn Avenue", "network": "AT", "network:wikidata": "Q4819567", "official_name": "T\u0101maki Drive / Selwyn Ave", "public_transport": "stop_area", "ref": "31013", "type": "public_transport"}}, {"type": "relation", "id": 13905760, "members": [{"type": "node", "ref": 1906473620, "role": "platform"}, {"type": "node", "ref": 3801700693, "role": "platform"}], "tags": {"name": "Selwyn Domain", "name:en": "Selwyn Domain", "name:mi": "Te Papa Raurarahi o Selwyn", "network": "AT", "network:wikidata": "Q4819567", "official_name": "T\u0101maki Drive / Selwyn Domain", "public_transport": "stop_area", "ref": "31011", "type": "public_transport"}}, {"type": "relation", "id": 14057728, "members": [{"type": "node", "ref": 2061341153, "role": "platform"}, {"type": "node", "ref": 2061341152, "role": "platform"}], "tags": {"name": "Kohimarama Beach", "name:en": "Kohimarama Beach", "name:mi": "Te Takutai o Kohimarama", "network": "AT", "network:wikidata": "Q4819567", "official_name": "T\u0101maki Drive / Kohimarama Beach", "public_transport": "stop_area", "ref": "31918", "type": "public_transport"}}, {"type": "relation", "id": 14064579, "members": [{"type": "node", "ref": 3353605549, "role": "platform"}, {"type": "node", "ref": 3353605546, "role": "platform"}], "tags": {"name": "Melanesia Road Shops", "name:en": "Melanesia Road Shops", "name:mi": "Ng\u0101 Toa o Te Huarahi o Melanesia", "network": "AT", "network:wikidata": "Q4819567", "public_transport": "stop_area", "ref": "31055", "type": "public_transport"}}, {"type": "relation", "id": 14982294, "members": [{"type": "node", "ref": 3353605065, "role": "platform"}, {"type": "node", "ref": 3353605066, "role": "platform"}], "tags": {"name": "T\u0101maki Drive", "name:en": "T\u0101maki Drive", "name:mi": "Te Ara \u0100whio o T\u0101maki", "network": "AT", "network:wikidata": "Q4819567", "public_transport": "stop_area", "ref": "31016", "type": "public_transport"}}, {"type": "relation", "id": 14982299, "members": [{"type": "node", "ref": 3353541394, "role": "platform"}, {"type": "node", "ref": 3353541395, "role": "platform"}], "tags": {"name": "Comins Crescent", "name:en": "Comins Crescent", "network": "AT", "network:wikidata": "Q4819567", "public_transport": "stop_area", "ref": "31048", "type": "public_transport"}}, {"type": "relation", "id": 14982301, "members": [{"type": "node", "ref": 3353605732, "role": "platform"}, {"type": "node", "ref": 3353605733, "role": "platform"}], "tags": {"name": "Puna Street", "name:en": "Puna Street", "name:mi": "Te Tiriti o Puna", "network": "AT", "network:wikidata": "Q4819567", "official_name": "Coates Ave / Puna St", "public_transport": "stop_area", "ref": "31025", "type": "public_transport"}}, {"type": "relation", "id": 14982302, "members": [{"type": "node", "ref": 3353605728, "role": "platform"}, {"type": "node", "ref": 3353605729, "role": "platform"}], "tags": {"name": "\u014cr\u0101kei School", "name:en": "\u014cr\u0101kei School", "name:mi": "Te Kura o \u014cr\u0101kei", "network": "AT", "network:wikidata": "Q4819567", "official_name": "Coates Ave / Orakei School", "public_transport": "stop_area", "ref": "31024", "type": "public_transport"}}, {"type": "relation", "id": 14982303, "members": [{"type": "node", "ref": 3353605590, "role": "platform"}, {"type": "node", "ref": 3353605592, "role": "platform"}], "tags": {"name": "Coates Avenue / \u014cr\u0101kei Shops", "name:en": "Coates Avenue / \u014cr\u0101kei Shops", "name:mi": "Te Arah\u0101ngai o Coates / Ng\u0101 Toa o \u014cr\u0101kei", "network": "AT", "network:wikidata": "Q4819567", "public_transport": "stop_area", "ref": "31023", "type": "public_transport"}}, {"type": "relation", "id": 14982304, "members": [{"type": "node", "ref": 3353605724, "role": "platform"}, {"type": "node", "ref": 3353605721, "role": "platform"}], "tags": {"name": "Awarua Crescent", "network": "AT", "network:short": "AT", "network:wikidata": "Q4819567", "official_name": "Ngaiwi St / Awarua Crescent", "public_transport": "stop_area", "ref": "31022", "type": "public_transport"}}, {"type": "relation", "id": 14982305, "members": [{"type": "node", "ref": 2007769634, "role": "platform"}, {"type": "node", "ref": 2007769638, "role": "platform"}], "tags": {"name": "Paritai Drive", "name:en": "Paritai Drive", "name:mi": "Te Ara \u0100whio o Paritai", "network": "AT", "network:wikidata": "Q4819567", "official_name": "Ngapipi Rd / Paritai Drive", "public_transport": "stop_area", "ref": "31021", "type": "public_transport"}}, {"type": "relation", "id": 15036832, "members": [{"type": "node", "ref": 3263007436, "role": "platform"}, {"type": "node", "ref": 3263007432, "role": "platform"}], "tags": {"name": "Cambridge Terrace", "official_name": "King Edward Parade / Cambridge Terrace", "public_transport": "stop_area", "ref": "41018", "type": "public_transport"}}, {"type": "relation", "id": 15036833, "members": [{"type": "node", "ref": 2085588457, "role": "platform"}, {"type": "node", "ref": 3263007416, "role": "platform"}], "tags": {"name": "Devonport Domain", "name:en": "Devonport Domain", "name:mi": "Te Papa Raurarahi o Devonport", "network": "AT", "network:wikidata": "Q4819567", "official_name": "Cheltenham Rd / Devonport Domain", "public_transport": "stop_area", "ref": "41019", "type": "public_transport"}}, {"type": "relation", "id": 15036834, "members": [{"type": "node", "ref": 3263007407, "role": "platform"}, {"type": "node", "ref": 3263007405, "role": "platform"}], "tags": {"name": "Tainui Road", "name:en": "Tainui Road", "name:mi": "Te Huarahi o Tainui", "network": "AT", "network:wikidata": "Q4819567", "public_transport": "stop_area", "ref": "41020", "type": "public_transport"}}, {"type": "relation", "id": 15036835, "members": [{"type": "node", "ref": 3263007398, "role": "platform"}, {"type": "node", "ref": 3263007397, "role": "platform"}], "tags": {"name": "Eton Avenue", "name:en": "Eton Avenue", "name:mi": "Te Arah\u0101ngai o Eton", "network": "AT", "network:wikidata": "Q4819567", "official_name": "Tainui Rd / Eton Ave", "public_transport": "stop_area", "ref": "41021", "type": "public_transport"}}, {"type": "relation", "id": 15036836, "members": [{"type": "node", "ref": 3263007390, "role": "platform"}, {"type": "node", "ref": 3263007392, "role": "platform"}], "tags": {"name": "Mata\u012b Road", "name:en": "Mata\u012b Road", "name:mi": "Te Huarahi o Mata\u012b", "network": "AT", "network:wikidata": "Q4819567", "public_transport": "stop_area", "ref": "41022", "type": "public_transport"}}, {"type": "relation", "id": 15036837, "members": [{"type": "node", "ref": 2085588287, "role": "platform"}, {"type": "node", "ref": 2085588289, "role": "platform"}, {"type": "node", "ref": 3263007384, "role": "platform"}], "tags": {"name": "Vauxhall Road Shops", "name:en": "Vauxhall Road Shops", "name:mi": "Ng\u0101 Toa o te Huarahi o Vauxhall", "network": "AT", "network:wikidata": "Q4819567", "public_transport": "stop_area", "ref": "21978", "type": "public_transport"}}, {"type": "relation", "id": 15036838, "members": [{"type": "node", "ref": 2085588300, "role": "platform"}, {"type": "node", "ref": 2085588297, "role": "platform"}], "tags": {"name": "Albert Road", "official_name": "Vauxhall Rd / Albert Rd", "public_transport": "stop_area", "ref": "41024", "type": "public_transport"}}, {"type": "relation", "id": 15036839, "members": [{"type": "node", "ref": 3263007389, "role": "platform"}, {"type": "node", "ref": 3263007387, "role": "platform"}], "tags": {"name": "Cambria Road", "name:en": "Cambria Road", "name:mi": "Te Huarahi o Cambria", "network": "AT", "network:wikidata": "Q4819567", "public_transport": "stop_area", "ref": "41023", "type": "public_transport"}}, {"type": "relation", "id": 15036841, "members": [{"type": "node", "ref": 3263007409, "role": "platform"}, {"type": "node", "ref": 2085588313, "role": "platform"}], "tags": {"name": "Devonport Museum", "official_name": "Vauxhall Rd / Devonport Museum", "public_transport": "stop_area", "ref": "41054", "type": "public_transport"}}, {"type": "relation", "id": 15036842, "members": [{"type": "node", "ref": 3263007415, "role": "platform"}, {"type": "node", "ref": 8666222869, "role": "platform"}], "tags": {"name": "Fuji Reserve", "name:en": "Fuji Reserve", "name:mi": "Te Papa R\u0101hui o Fuji", "network": "AT", "network:wikidata": "Q4819567", "official_name": "Vauxhall Rd / Fuji Reserve", "public_transport": "stop_area", "ref": "41055", "type": "public_transport"}}, {"type": "relation", "id": 15036843, "members": [{"type": "node", "ref": 3263007394, "role": "platform"}, {"type": "node", "ref": 3263007395, "role": "platform"}], "tags": {"name": "Church Street", "name:en": "Church Street", "name:mi": "Te Tiriti o Church", "network": "AT", "network:wikidata": "Q4819567", "note": "AT has a typo in this station's name", "official_name": "Church Sreet", "public_transport": "stop_area", "ref": "41059", "type": "public_transport"}}, {"type": "relation", "id": 15036844, "members": [{"type": "node", "ref": 3263007396, "role": "platform"}], "tags": {"name": "Albert Road / Lake Road", "name:en": "Albert Road / Lake Road", "name:mi": "Te Huarahi o Albert / Te Huarahi o Lake", "network": "AT", "network:wikidata": "Q4819567", "public_transport": "stop_area", "ref": "41058", "type": "public_transport"}}, {"type": "relation", "id": 15036845, "members": [{"type": "node", "ref": 2085588445, "role": "platform"}, {"type": "node", "ref": 2085588436, "role": "platform"}], "tags": {"name": "Saint Pauls Devonport", "network": "AT", "network:wikidata": "Q4819567", "official_name": "St Pauls Devonport", "public_transport": "stop_area", "ref": "41641", "type": "public_transport"}}, {"type": "relation", "id": 15594068, "members": [{"type": "node", "ref": 2960594393, "role": "platform"}, {"type": "node", "ref": 2960594392, "role": "platform"}], "tags": {"name": "Lilliput Mini Golf", "name:en": "Lilliput Mini Golf", "network": "AT", "network:wikidata": "Q4819567", "official_name": "T\u0101maki Drive / Lilliput Mini Golf", "public_transport": "stop_area", "ref": "31001", "type": "public_transport"}}, {"type": "relation", "id": 15594069, "members": [{"type": "node", "ref": 2960594395, "role": "platform"}, {"type": "node", "ref": 2960594394, "role": "platform"}], "tags": {"name": "Hobson Bay Marina", "name:en": "Hobson Bay Marina", "network": "AT", "network:wikidata": "Q4819567", "official_name": "T\u0101maki Drive / Outboard Boating Club", "public_transport": "stop_area", "ref": "31002", "type": "public_transport"}}, {"type": "relation", "id": 15594094, "members": [{"type": "node", "ref": 2090729333, "role": "platform"}, {"type": "node", "ref": 2061341148, "role": "platform"}], "tags": {"name": "163 T\u0101maki Drive", "name:en": "163 T\u0101maki Drive", "name:mi": "163 ki te Ara \u0100whio o T\u0101maki", "network": "AT", "network:wikidata": "Q4819567", "official_name": "/163 and opp 167 T\u0101maki Drive", "public_transport": "stop_area", "ref": "31014", "type": "public_transport"}}, {"type": "relation", "id": 15594095, "members": [{"type": "node", "ref": 10731877564, "role": "platform"}, {"type": "node", "ref": 10731877565, "role": "platform"}], "tags": {"name": "T\u0101maki Drive / Kohimarama Road", "name:en": "T\u0101maki Drive / Kohimarama Road", "name:mi": "Te Ara \u0100whio o T\u0101maki / Te Huarahi o Kohimarama", "network": "AT", "network:wikidata": "Q4819567", "official_name": "T\u0101maki Drive / Kohimarama Rd", "public_transport": "stop_area", "ref": "31015", "type": "public_transport"}}, {"type": "relation", "id": 15594096, "members": [{"type": "node", "ref": 2061341160, "role": "platform"}, {"type": "node", "ref": 2090727085, "role": "platform"}], "tags": {"name": "Sage Road", "name:en": "Sage Road", "name:mi": "Te Huarahi o Sage", "network": "AT", "network:wikidata": "Q4819567", "official_name": "T\u0101maki Drive / Sage Rd", "public_transport": "stop_area", "ref": "31017", "type": "public_transport"}}, {"type": "relation", "id": 15594097, "members": [{"type": "node", "ref": 2061341158, "role": "platform"}, {"type": "node", "ref": 2061341155, "role": "platform"}], "tags": {"name": "T\u0101maki Drive / Long Drive", "name:en": "T\u0101maki Drive / Long Drive", "name:mi": "Te Ara \u0100whio o T\u0101maki / Te Ara \u0100whio o Long", "network": "AT", "network:wikidata": "Q4819567", "public_transport": "stop_area", "ref": "31018", "type": "public_transport"}}, {"type": "relation", "id": 15594098, "members": [{"type": "node", "ref": 2090727076, "role": "platform"}, {"type": "node", "ref": 2090727073, "role": "platform"}], "tags": {"name": "Rarangi Road", "name:en": "Rarangi Road", "name:mi": "Te Huarahi o Rarangi", "network": "AT", "network:wikidata": "Q4819567", "public_transport": "stop_area", "ref": "31072", "type": "public_transport"}}, {"type": "relation", "id": 15594102, "members": [{"type": "node", "ref": 3212137330, "role": "platform"}, {"type": "node", "ref": 3212137299, "role": "platform"}], "tags": {"name": "Saint Heliers Bay Road / Long Drive", "name:en": "Saint Heliers Bay Road / Long Drive", "name:mi": "Te Huarahi o Saint Heliers Bay / Te Ara \u0100whio o Long", "network": "AT", "network:wikidata": "Q4819567", "official_name": "St Heliers Bay Road / Long Drive", "public_transport": "stop_area", "ref": "31067", "type": "public_transport"}}, {"type": "relation", "id": 15594103, "members": [{"type": "node", "ref": 2007743755, "role": "platform"}, {"type": "node", "ref": 2007743754, "role": "platform"}], "tags": {"name": "Saint Heliers Fire Station", "name:en": "Saint Heliers Fire Station", "network": "AT", "network:wikidata": "Q4819567", "public_transport": "stop_area", "ref": "31913", "type": "public_transport"}}, {"type": "relation", "id": 15594105, "members": [{"type": "node", "ref": 2007743734, "role": "platform"}, {"type": "node", "ref": 2007743753, "role": "platform"}], "tags": {"name": "Tarawera Terrace", "official_name": "Long Drive / Tarawera Terrace", "public_transport": "stop_area", "ref": "31062", "type": "public_transport"}}, {"type": "relation", "id": 15594106, "members": [{"type": "node", "ref": 3212137186, "role": "platform"}, {"type": "node", "ref": 3212137185, "role": "platform"}], "tags": {"name": "Dingle Dell Reserve", "official_name": "Long Drive / Ding Dell Reserve", "public_transport": "stop_area", "ref": "31061", "type": "public_transport"}}, {"type": "relation", "id": 15594107, "members": [{"type": "node", "ref": 2007743741, "role": "platform"}, {"type": "node", "ref": 2007743735, "role": "platform"}], "tags": {"name": "Towai Street", "official_name": "Long Drive / Towai St", "public_transport": "stop_area", "ref": "31060", "type": "public_transport"}}, {"type": "relation", "id": 15594108, "members": [{"type": "node", "ref": 3212137171, "role": "platform"}, {"type": "node", "ref": 3212137172, "role": "platform"}], "tags": {"name": "Melanesia Road", "name:en": "Melanesia Road", "name:mi": "Te Huarahi o Melanesia", "network": "AT", "network:wikidata": "Q4819567", "public_transport": "stop_area", "ref": "31059", "type": "public_transport"}}, {"type": "relation", "id": 15594118, "members": [{"type": "node", "ref": 1682766416, "role": "platform"}], "tags": {"name": "Kepa Road Shops", "name:en": "Kepa Road Shops", "name:mi": "Ng\u0101 Toa o Te Huarahi o Kepa", "network": "AT", "network:wikidata": "Q4819567", "public_transport": "stop_area", "ref": "31043", "type": "public_transport"}}, {"type": "relation", "id": 15594119, "members": [{"type": "node", "ref": 3353541407, "role": "platform"}], "tags": {"name": "Barfoot and Thompson Stadium", "name:en": "Barfoot and Thompson Stadium", "network": "AT", "network:wikidata": "Q4819567", "official_name": "Kohimarama Rd / ASB Stadium", "public_transport": "stop_area", "ref": "31049", "type": "public_transport"}}, {"type": "relation", "id": 15594120, "members": [{"type": "node", "ref": 10857123957, "role": "platform"}, {"type": "node", "ref": 3353534878, "role": "platform"}, {"type": "node", "ref": 3090092993, "role": "platform"}], "tags": {"name": "Saint Thomas's School", "name:en": "Saint Thomas's School", "name:mi": "Te Kura o Saint Thomas", "network": "AT", "network:wikidata": "Q4819567", "official_name": "St Thomas's School", "public_transport": "stop_area", "ref": "31052", "type": "public_transport"}}, {"type": "relation", "id": 15594141, "members": [{"type": "node", "ref": 3353541241, "role": "platform"}, {"type": "node", "ref": 3353541242, "role": "platform"}], "tags": {"name": "Ronaki Road", "official_name": "Selwyn Ave / Ronaki Rd", "public_transport": "stop_area", "ref": "31045", "type": "public_transport"}}, {"type": "relation", "id": 15594147, "members": [{"type": "node", "ref": 2007769639, "role": "platform"}], "tags": {"name": "Patteson Avenue / Kepa Road", "name:en": "Patteson Avenue / Kepa Road", "name:mi": "Te Arah\u0101ngai o Patteson / Te Huarahi o Kepa", "network": "AT", "network:wikidata": "Q4819567", "public_transport": "stop_area", "ref": "31915", "type": "public_transport"}}, {"type": "relation", "id": 15594148, "members": [{"type": "node", "ref": 3353541347, "role": "platform"}, {"type": "node", "ref": 3353541335, "role": "platform"}], "tags": {"name": "Patteson Avenue / Patteson Reserve", "name:en": "Patteson Avenue / Patteson Reserve", "name:mi": "Te Arah\u0101ngai o Patteson / Te Papa R\u0101hui o Patteson", "network": "AT", "network:wikidata": "Q4819567", "public_transport": "stop_area", "ref": "31039", "type": "public_transport"}}, {"type": "relation", "id": 15594149, "members": [{"type": "node", "ref": 3353541288, "role": "platform"}, {"type": "node", "ref": 3353541289, "role": "platform"}], "tags": {"name": "Patteson Avenue / Codrington Crescent", "name:en": "Patteson Avenue / Codrington Crescent", "name:mi": "Te Arah\u0101ngai o Patteson / Te Araniko o Codrington", "network": "AT", "network:wikidata": "Q4819567", "public_transport": "stop_area", "ref": "31038", "type": "public_transport"}}, {"type": "relation", "id": 15594150, "members": [{"type": "node", "ref": 3353541247, "role": "platform"}, {"type": "node", "ref": 3353541252, "role": "platform"}], "tags": {"name": "Patteson Avenue", "official_name": "Nihill Cresent / Patteson Ave", "public_transport": "stop_area", "ref": "31037", "type": "public_transport"}}, {"type": "relation", "id": 15594151, "members": [{"type": "node", "ref": 3353541266, "role": "platform"}, {"type": "node", "ref": 3353541259, "role": "platform"}], "tags": {"name": "Atkin Avenue", "name:en": "Atkin Avenue", "name:mi": "Te Arah\u0101ngai o Atkin", "network": "AT", "network:wikidata": "Q4819567", "official_name": "Nihill Crescent / Atkin Ave", "public_transport": "stop_area", "ref": "31036", "type": "public_transport"}}, {"type": "relation", "id": 15594152, "members": [{"type": "node", "ref": 3353541295, "role": "platform"}, {"type": "node", "ref": 3353541303, "role": "platform"}], "tags": {"name": "Rukutai Street", "name:en": "Rukutai Street", "name:mi": "Te Tiriti o Rukutai", "network": "AT", "network:wikidata": "Q4819567", "official_name": "Aotea St / Rukutai St", "public_transport": "stop_area", "ref": "31035", "type": "public_transport"}}, {"type": "relation", "id": 15594153, "members": [{"type": "node", "ref": 3353541291, "role": "platform"}, {"type": "node", "ref": 3353541290, "role": "platform"}], "tags": {"name": "Aotea Street", "name:en": "Aotea Street", "name:mi": "Te Tiriti o Aotea", "network": "AT", "network:wikidata": "Q4819567", "official_name": "Rukutai St / Aotea St", "public_transport": "stop_area", "ref": "31034", "type": "public_transport"}}, {"type": "relation", "id": 15594154, "members": [{"type": "node", "ref": 3353605556, "role": "platform"}, {"type": "node", "ref": 3353605553, "role": "platform"}], "tags": {"name": "Eastcliffe Retirement Village", "network": "AT", "network:wikidata": "Q4819567", "official_name": "Te Arawa St / Eastcliffe Retirement Village", "public_transport": "stop_area", "ref": "31033", "type": "public_transport"}}, {"type": "relation", "id": 15594155, "members": [{"type": "node", "ref": 3353605575, "role": "platform"}, {"type": "node", "ref": 3353605573, "role": "platform"}], "tags": {"name": "Kurahaupo Street", "name:en": "Kurahaupo Street", "name:mi": "Te Tiriti o Kurahaupo", "network": "AT", "network:wikidata": "Q4819567", "public_transport": "stop_area", "ref": "31032", "type": "public_transport"}}, {"type": "relation", "id": 15594156, "members": [{"type": "node", "ref": 3353605581, "role": "platform"}, {"type": "node", "ref": 3353605584, "role": "platform"}], "tags": {"name": "Te Arawa Street", "name:en": "Te Arawa Street", "name:mi": "Te Tiriti o te Arawa", "network": "AT", "network:wikidata": "Q4819567", "official_name": "Kupe St / Te Arawa St", "public_transport": "stop_area", "ref": "31031", "type": "public_transport"}}, {"type": "relation", "id": 15594157, "members": [{"type": "node", "ref": 3353605736, "role": "platform"}, {"type": "node", "ref": 3353605735, "role": "platform"}], "tags": {"name": "Tokomaru Street", "name:en": "Tokomaru Street", "name:mi": "Te Tiriti o Tokomaru", "network": "AT", "network:wikidata": "Q4819567", "official_name": "Kupe St / Tokomaru St", "public_transport": "stop_area", "ref": "31029", "type": "public_transport"}}, {"type": "relation", "id": 15594158, "members": [{"type": "node", "ref": 3353541231, "role": "platform"}, {"type": "node", "ref": 3353541232, "role": "platform"}], "tags": {"name": "Cullwick Road", "name:en": "Cullwick Road", "name:etymology:wikidata": "Q84767096", "network": "AT", "network:wikidata": "Q4819567", "official_name": "Ronaki Rd / Cullwick Rd", "public_transport": "stop_area", "ref": "31044", "type": "public_transport"}}, {"type": "relation", "id": 15597763, "members": [{"type": "node", "ref": 3353605558, "role": "platform"}, {"type": "node", "ref": 3353605560, "role": "platform"}], "tags": {"name": "Madills Farm", "name:en": "Madills Farm", "network": "AT", "network:wikidata": "Q4819567", "public_transport": "stop_area", "ref": "31056", "type": "public_transport"}}, {"type": "relation", "id": 15597764, "members": [{"type": "node", "ref": 3353605572, "role": "platform"}, {"type": "node", "ref": 3353605574, "role": "platform"}], "tags": {"name": "Allum Street", "name:en": "Allum Street", "name:mi": "Te Tiriti o Allum", "network": "AT", "network:wikidata": "Q4819567", "public_transport": "stop_area", "ref": "31057", "type": "public_transport"}}, {"type": "relation", "id": 15908300, "members": [{"type": "node", "ref": 2085588282, "role": "platform"}, {"type": "node", "ref": 2085588283, "role": "platform"}], "tags": {"name": "Morrison Avenue", "name:en": "Morrison Avenue", "name:mi": "Te Arah\u0101ngai o Morrison", "network": "AT", "network:wikidata": "Q4819567", "public_transport": "stop_area", "ref": "41025", "type": "public_transport"}}, {"type": "relation", "id": 15908301, "members": [{"type": "node", "ref": 2085588284, "role": "platform"}, {"type": "node", "ref": 2085588285, "role": "platform"}], "tags": {"name": "Ascot Avenue", "name:en": "Ascot Avenue", "name:mi": "Te Arah\u0101ngai o Ascot", "network": "AT", "network:wikidata": "Q4819567", "public_transport": "stop_area", "ref": "41027", "type": "public_transport"}}, {"type": "relation", "id": 15908302, "members": [{"type": "node", "ref": 3263007364, "role": "platform"}, {"type": "node", "ref": 3263007355, "role": "platform"}], "tags": {"name": "Narrow Neck Beach", "network": "AT", "network:wikidata": "Q4819567", "public_transport": "stop_area", "ref": "41029", "type": "public_transport"}}, {"type": "relation", "id": 15908303, "members": [{"type": "node", "ref": 3263007351, "role": "platform"}, {"type": "node", "ref": 10559094501, "role": "platform"}], "tags": {"name": "Merani Street", "name:en": "Merani Street", "name:mi": "Te Tiriti o Merani", "network": "AT", "network:wikidata": "Q4819567", "public_transport": "stop_area", "ref": "41031", "type": "public_transport"}}, {"type": "relation", "id": 15908304, "members": [{"type": "node", "ref": 3263007353, "role": "platform"}, {"type": "node", "ref": 3263007352, "role": "platform"}], "tags": {"name": "Wicklow Road", "name:en": "Wicklow Road", "name:mi": "Te Huarahi o Wicklow", "network": "AT", "network:wikidata": "Q4819567", "public_transport": "stop_area", "ref": "41033", "type": "public_transport"}}, {"type": "relation", "id": 15908311, "members": [{"type": "node", "ref": 3263007320, "role": "platform"}, {"type": "node", "ref": 10857165474, "role": "platform"}], "tags": {"name": "Williamson Avenue", "name:en": "Williamson Avenue", "name:mi": "Te Arah\u0101ngai o Williamson", "network": "AT", "network:wikidata": "Q4819567", "public_transport": "stop_area", "ref": "41064", "type": "public_transport"}}, {"type": "relation", "id": 15908404, "members": [{"type": "node", "ref": 3263007386, "role": "platform"}, {"type": "node", "ref": 3263007388, "role": "platform"}], "tags": {"name": "Mozeley Avenue", "name:en": "Mozeley Avenue", "name:mi": "Te Arah\u0101ngai o Mozeley", "network": "AT", "network:wikidata": "Q4819567", "public_transport": "stop_area", "ref": "41829", "type": "public_transport"}}, {"type": "relation", "id": 15911929, "members": [{"type": "node", "ref": 10779256531, "role": "platform"}, {"type": "node", "ref": 10779256532, "role": "platform"}], "tags": {"name": "\u014cr\u0101kei Baptist Church", "name:en": "\u014cr\u0101kei Baptist Church", "network": "AT", "network:wikidata": "Q4819567", "public_transport": "stop_area", "ref": "31030", "type": "public_transport"}}, {"type": "relation", "id": 15911932, "members": [{"type": "node", "ref": 3212137404, "role": "platform"}, {"type": "node", "ref": 3212137405, "role": "platform"}], "tags": {"name": "Maxine Place", "name:en": "Maxine Place", "network": "AT", "network:wikidata": "Q4819567", "public_transport": "stop_area", "ref": "31068", "type": "public_transport"}}, {"type": "relation", "id": 15911936, "members": [{"type": "node", "ref": 3353605514, "role": "platform"}, {"type": "node", "ref": 3353605515, "role": "platform"}], "tags": {"name": "19 and 22 Bay Road", "name:en": "19 and 22 Bay Road", "name:mi": "19 m\u0101 22 ki te Huarahi o Bay", "network": "AT", "network:wikidata": "Q4819567", "public_transport": "stop_area", "ref": "31073", "type": "public_transport"}}, {"type": "relation", "id": 15911937, "members": [{"type": "node", "ref": 636830937, "role": "platform"}, {"type": "node", "ref": 636830936, "role": "platform"}], "tags": {"name": "Bay Road", "name:en": "Bay Road", "name:mi": "Te Huarahi o Bay", "network": "AT", "network:wikidata": "Q4819567", "public_transport": "stop_area", "ref": "31074", "type": "public_transport"}}, {"type": "relation", "id": 15911938, "members": [{"type": "node", "ref": 2090727078, "role": "platform"}, {"type": "node", "ref": 2090727074, "role": "platform"}], "tags": {"name": "Waimarie Street", "name:en": "Waimarie Street", "name:mi": "Te Tiriti o Waimarie", "network": "AT", "network:wikidata": "Q4819567", "public_transport": "stop_area", "ref": "31075", "type": "public_transport"}}, {"type": "relation", "id": 15911939, "members": [{"type": "node", "ref": 2090727043, "role": "platform"}, {"type": "node", "ref": 2090727042, "role": "platform"}], "tags": {"name": "Glover Park", "name:en": "Glover Park", "name:mi": "Whakamuhu", "network": "AT", "network:wikidata": "Q4819567", "public_transport": "stop_area", "ref": "31076", "type": "public_transport"}}, {"type": "relation", "id": 15911940, "members": [{"type": "node", "ref": 3353605054, "role": "platform"}, {"type": "node", "ref": 3353605053, "role": "platform"}], "tags": {"name": "438 and 759 Riddell Road", "name:en": "438 and 759 Riddell Road", "name:mi": "438 m\u0101 759 ki te Huarahi o Riddell", "network": "AT", "network:wikidata": "Q4819567", "public_transport": "stop_area", "ref": "31077", "type": "public_transport"}}, {"type": "relation", "id": 15911941, "members": [{"type": "node", "ref": 3353605056, "role": "platform"}, {"type": "node", "ref": 3353605055, "role": "platform"}], "tags": {"name": "Karaka Park Place", "name:en": "Karaka Park Place", "network": "AT", "network:wikidata": "Q4819567", "public_transport": "stop_area", "ref": "31078", "type": "public_transport"}}, {"type": "relation", "id": 15911942, "members": [{"type": "node", "ref": 2090727063, "role": "platform"}, {"type": "node", "ref": 2090727066, "role": "platform"}], "tags": {"name": "Abingdon Place", "name:en": "Abingdon Place", "name:mi": "Te Aramutu o Abingdon", "network": "AT", "network:wikidata": "Q4819567", "public_transport": "stop_area", "ref": "31079", "type": "public_transport"}}, {"type": "relation", "id": 15911943, "members": [{"type": "node", "ref": 2090727099, "role": "platform"}, {"type": "node", "ref": 2090727097, "role": "platform"}], "tags": {"name": "Riddell Rd / Peacock St", "public_transport": "stop_area", "ref": "31080", "type": "public_transport"}}, {"type": "relation", "id": 15911944, "members": [{"type": "node", "ref": 3212135828, "role": "platform"}, {"type": "node", "ref": 3212135825, "role": "platform"}], "tags": {"name": "Riddell Rd / Churchill Park", "public_transport": "stop_area", "ref": "31081", "type": "public_transport"}}, {"type": "relation", "id": 15911945, "members": [{"type": "node", "ref": 3212137178, "role": "platform"}, {"type": "node", "ref": 3212137177, "role": "platform"}], "tags": {"name": "294 and 401 Riddell Rd", "public_transport": "stop_area", "ref": "31082", "type": "public_transport"}}, {"type": "relation", "id": 15911946, "members": [{"type": "node", "ref": 2090727132, "role": "platform"}, {"type": "node", "ref": 2090727131, "role": "platform"}], "tags": {"name": "Riddell Rd / Clouston St", "public_transport": "stop_area", "ref": "31083", "type": "public_transport"}}, {"type": "relation", "id": 15911947, "members": [{"type": "node", "ref": 3212137195, "role": "platform"}, {"type": "node", "ref": 3212137194, "role": "platform"}], "tags": {"name": "Riddell Rd / Whitehaven Rd", "public_transport": "stop_area", "ref": "31084", "type": "public_transport"}}, {"type": "relation", "id": 15911948, "members": [{"type": "node", "ref": 3212137267, "role": "platform"}, {"type": "node", "ref": 3212137260, "role": "platform"}], "tags": {"name": "Riddell Rd / Glendowie Rd", "public_transport": "stop_area", "ref": "31085", "type": "public_transport"}}, {"type": "relation", "id": 15911949, "members": [{"type": "node", "ref": 1368581613, "role": "platform"}, {"type": "node", "ref": 2090727150, "role": "platform"}], "tags": {"name": "Riddell Rd / Roberta Reserve", "public_transport": "stop_area", "ref": "31086", "type": "public_transport"}}, {"type": "relation", "id": 15911950, "members": [{"type": "node", "ref": 1300415221, "role": "platform"}, {"type": "node", "ref": 1300415236, "role": "platform"}], "tags": {"name": "Riddell Rd / Glendowie Park", "public_transport": "stop_area", "ref": "31087", "type": "public_transport"}}, {"type": "relation", "id": 15911951, "members": [{"type": "node", "ref": 3212137212, "role": "platform"}, {"type": "node", "ref": 3212137209, "role": "platform"}], "tags": {"name": "134 to 183 Riddell Rd", "public_transport": "stop_area", "ref": "31088", "type": "public_transport"}}, {"type": "relation", "id": 15911952, "members": [{"type": "node", "ref": 1368581786, "role": "platform"}, {"type": "node", "ref": 3212137202, "role": "platform"}], "tags": {"name": "Riddell Rd / Grantham Rd", "public_transport": "stop_area", "ref": "31089", "type": "public_transport"}}, {"type": "relation", "id": 15911953, "members": [{"type": "node", "ref": 1368582327, "role": "platform"}, {"type": "node", "ref": 2090727141, "role": "platform"}, {"type": "node", "ref": 2090727142, "role": "platform"}, {"type": "node", "ref": 3353605737, "role": "platform"}], "tags": {"name": "Riddell Rd / Rochdale Ave", "public_transport": "stop_area", "ref": "31090", "type": "public_transport"}}, {"type": "relation", "id": 15911954, "members": [{"type": "node", "ref": 3212137190, "role": "platform"}, {"type": "node", "ref": 3212137189, "role": "platform"}], "tags": {"name": "Riddell Rd / Kesteven Ave", "public_transport": "stop_area", "ref": "31091", "type": "public_transport"}}, {"type": "relation", "id": 15911955, "members": [{"type": "node", "ref": 3212137193, "role": "platform"}, {"type": "node", "ref": 3212137191, "role": "platform"}], "tags": {"name": "Riddell Rd / Sierra St", "public_transport": "stop_area", "ref": "31092", "type": "public_transport"}}, {"type": "relation", "id": 15911956, "members": [{"type": "node", "ref": 10857123971, "role": "platform"}, {"type": "node", "ref": 10857123970, "role": "platform"}], "tags": {"name": "Berwick Street", "name:en": "Berwick Street", "name:mi": "Te Tiriti o Berwick", "network": "AT", "network:wikidata": "Q4819567", "public_transport": "stop_area", "ref": "31093", "type": "public_transport"}}, {"type": "relation", "id": 15911957, "members": [{"type": "node", "ref": 2090727130, "role": "platform"}, {"type": "node", "ref": 2090727121, "role": "platform"}], "tags": {"name": "Chesterfield Avenue / Kesteven Avenue", "name:en": "Chesterfield Avenue / Kesteven Avenue", "network": "AT", "network:wikidata": "Q4819567", "public_transport": "stop_area", "ref": "31096", "type": "public_transport"}}, {"type": "relation", "id": 15911958, "members": [{"type": "node", "ref": 2090727139, "role": "platform"}, {"type": "node", "ref": 2090727140, "role": "platform"}], "tags": {"name": "Rochdale Ave / Whitehaven Rd", "public_transport": "stop_area", "ref": "31097", "type": "public_transport"}}, {"type": "relation", "id": 15911959, "members": [{"type": "node", "ref": 3353606086, "role": "platform"}, {"type": "node", "ref": 3353606088, "role": "platform"}], "tags": {"name": "Mt Taylor Drive / Glendowie Community Centre", "public_transport": "stop_area", "ref": "31100", "type": "public_transport"}}, {"type": "relation", "id": 15911962, "members": [{"type": "node", "ref": 3353606301, "role": "platform"}, {"type": "node", "ref": 3353606298, "role": "platform"}], "tags": {"name": "Ashby Ave / Odessa Crescent", "public_transport": "stop_area", "ref": "31104", "type": "public_transport"}}, {"type": "relation", "id": 15912017, "members": [{"type": "node", "ref": 2960594410, "role": "platform"}, {"type": "node", "ref": 2960594413, "role": "platform"}], "tags": {"name": "Shore Road", "name:en": "Shore Road", "name:mi": "Te Huarahi o Shore", "network": "AT", "network:wikidata": "Q4819567", "public_transport": "stop_area", "ref": "31421", "type": "public_transport"}}, {"type": "relation", "id": 15912022, "members": [{"type": "node", "ref": 10857123942, "role": "platform"}, {"type": "node", "ref": 2960594411, "role": "platform"}], "tags": {"name": "Victoria Ave / Baradene College", "public_transport": "stop_area", "ref": "31428", "type": "public_transport"}}, {"type": "relation", "id": 16454759, "members": [{"type": "node", "ref": 10779256533, "role": "platform"}], "tags": {"name": "Holgate Road", "name:en": "Holgate Road", "name:mi": "Te Huarahi o Holgate", "network": "AT", "network:wikidata": "Q4819567", "public_transport": "stop_area", "type": "public_transport"}}]}