{"version": 0.6, "generator": "Overpass API 0.7.62.8 e802775f", "osm3s": {"timestamp_osm_base": "2026-01-12T17:43:59Z", "copyright": "The data included in this document is from www.openstreetmap.org. The data is made available under ODbL."}, "elements": [{"type": "node", "id": 292563720, "lat": 12.8432537, "lon": 77.5107392, "tags": {"bus": "yes", "highway": "bus_stop", "loc_name": "DODDA TATAGUNI", "name": "Tataguni", "name:kn": "\u0ca6\u0cca\u0ca1\u0ccd\u0ca1 \u0ca4\u0cbe\u0ca4\u0c97\u0cc1\u0ca3\u0cbf", "public_transport": "platform"}}, {"type": "node", "id": 292563936, "lat": 12.8440238, "lon": 77.4942945, "tags": {"bus": "yes", "highway": "bus_stop", "loc_name": "AGARA", "name": "KEB Office Kaggalipura", "public_transport": "platform"}}, {"type": "node", "id": 292564012, "lat": 12.8443568, "lon": 77.4870329, "tags": {"bus": "yes", "highway": "bus_stop", "name": "Agara", "name:kn": "\u0c85\u0c97\u0cb0", "public_transport": "platform"}}, {"type": "node", "id": 292564031, "lat": 12.8422314, "lon": 77.4837859, "tags": {"bus": "yes", "highway": "bus_stop", "loc_name": "Gangasandra", "name": "Hosapallya", "name:kn": "\u0cb9\u0cca\u0cb8\u0caa\u0cbe\u0cb3\u0ccd\u0caf", "public_transport": "platform"}}, {"type": "node", "id": 292564076, "lat": 12.8568358, "lon": 77.4653322, "tags": {"bus": "yes", "highway": "bus_stop", "loc_name": "DEVAGERE", "name": "Devagere Colony", "name:kn": "\u0ca6\u0cc7\u0cb5\u0c97\u0cc6\u0cb0\u0cc6 \u0c95\u0cbe\u0cb2\u0ccb\u0ca8\u0cbf", "public_transport": "platform"}}, {"type": "node", "id": 292564130, "lat": 12.8669183, "lon": 77.4551257, "tags": {"bus": "yes", "highway": "bus_stop", "name": "Tagachaguppe", "name:kn": "\u0ca4\u0c97\u0c9a\u0c97\u0cc1\u0caa\u0ccd\u0caa\u0cc6", "public_transport": "platform"}}, {"type": "node", "id": 292564924, "lat": 12.8481674, "lon": 77.4610162, "tags": {"highway": "bus_stop", "loc_name": "GANGASANDRA", "name": "Bgs College,B.G.S.International School"}}, {"type": "node", "id": 308719006, "lat": 12.7979499, "lon": 77.5208615, "tags": {"bus": "yes", "highway": "bus_stop", "name": "Vasudevapura", "name:kn": "\u0cb5\u0cbe\u0cb8\u0cc1\u0ca6\u0cc7\u0cb5\u0caa\u0cc1\u0cb0", "public_transport": "platform"}}, {"type": "node", "id": 388463954, "lat": 12.8642963, "lon": 77.5327174, "tags": {"highway": "bus_stop", "name": "Vajramuneshwara Gate", "name:kn": "\u0cb5\u0c9c\u0ccd\u0cb0 \u0cae\u0cc1\u0ca8\u0cc7\u0cb6\u0ccd\u0cb5\u0cb0 \u0c97\u0cc7\u0c9f\u0ccd"}}, {"type": "node", "id": 388463964, "lat": 12.8754279, "lon": 77.5433865, "tags": {"highway": "bus_stop", "name": "Byana Palya, Vajarahalli"}}, {"type": "node", "id": 388469089, "lat": 12.8426053, "lon": 77.5178602, "tags": {"highway": "bus_stop", "loc_name": "Kanakapura Road", "name": "Kuppa Reddy Kere", "name:kn": "\u0c95\u0cc1\u0caa\u0ccd\u0caa\u0cbe\u0cb0\u0cc6\u0ca1\u0ccd\u0ca1\u0cbf \u0c95\u0cc6\u0cb0\u0cc6", "public_transport": "platform"}}, {"type": "node", "id": 388469098, "lat": 12.8491937, "lon": 77.5220679, "tags": {"alt_name": "Agara Cross", "alt_name:kn": "\u0c85\u0c97\u0cb0 \u0c85\u0ca1\u0ccd\u0ca1", "highway": "bus_stop", "loc_name": "Kanakapura Road", "name": "Chinnayyanapalya Silk Farm", "name:en": "Chinnayyanapalya Silk Farm", "network": "BMTC", "operator": "BMTC", "public_transport": "platform"}}, {"type": "node", "id": 388469099, "lat": 12.8490827, "lon": 77.5220958, "tags": {"bus": "yes", "name": "Chinnayyanapalya Silk Farm", "name:en": "Chinnayyanapalya Silk Farm", "network": "BMTC", "operator": "BMTC", "public_transport": "stop_position"}}, {"type": "node", "id": 388469108, "lat": 12.8538203, "lon": 77.5234663, "tags": {"highway": "bus_stop", "loc_name": "Kanakapura Road", "name": "Silk Farm"}}, {"type": "node", "id": 388469677, "lat": 12.8251632, "lon": 77.5137672, "tags": {"highway": "bus_stop", "loc_name": "Kanakapura Road", "name": "Dayananda Sagar College", "name:kn": "\u0ca6\u0caf\u0cbe\u0ca8\u0c82\u0ca6 \u0cb8\u0cbe\u0c97\u0cb0 \u0c95\u0cbe\u0cb2\u0cc7\u0c9c\u0cc1", "public_transport": "platform"}}, {"type": "node", "id": 388469690, "lat": 12.8367727, "lon": 77.5160345, "tags": {"highway": "bus_stop", "loc_name": "Kanakapura Road", "name": "Shanimahathma Temple", "name:kn": "\u0cb6\u0ca8\u0cbf \u0cae\u0cb9\u0cbe\u0ca4\u0ccd\u0cae"}}, {"type": "node", "id": 388470002, "lat": 12.8112779, "lon": 77.5117083, "tags": {"bus": "yes", "highway": "bus_stop", "loc_name": "Kanakapura Road", "name": "Saalu Hunase", "name:kn": "\u0cb8\u0cbe\u0cb2\u0cc1\u0cb9\u0cc1\u0ca3\u0cb8\u0cc6", "public_transport": "platform"}}, {"type": "node", "id": 388470022, "lat": 12.8203216, "lon": 77.5139901, "tags": {"bus": "yes", "highway": "bus_stop", "loc_name": "Kanakapura Road", "name": "Udi Palya Udayapalya", "name:kn": "\u0c89\u0ca6\u0caf\u0caa\u0cbe\u0cb3\u0ccd\u0caf", "public_transport": "platform"}}, {"type": "node", "id": 1102896893, "lat": 12.7967519, "lon": 77.5017843, "tags": {"bus": "yes", "highway": "bus_stop", "loc_name": "PATAREDDY PALYA", "name": "Gandhinagara", "name:kn": "\u0c97\u0cbe\u0c82\u0ca7\u0cbf\u0ca8\u0c97\u0cb0", "public_transport": "platform"}}, {"type": "node", "id": 1345825866, "lat": 12.8228997, "lon": 77.5286083, "tags": {"bus": "yes", "highway": "bus_stop", "name": "Nallakkanadoddi", "name:kn": "\u0ca8\u0cb2\u0ccd\u0cb2\u0c95\u0ccd\u0c95\u0ca8\u0ca6\u0cca\u0ca1\u0ccd\u0ca1\u0cbf", "public_transport": "platform"}}, {"type": "node", "id": 1345825916, "lat": 12.8350827, "lon": 77.5270503, "tags": {"bus": "yes", "highway": "bus_stop", "loc_name": "VADERAHALLI", "name": "Vaddarapalya", "name:kn": "\u0cb5\u0ca1\u0ccd\u0ca1\u0cb0\u0caa\u0cbe\u0cb3\u0ccd\u0caf", "public_transport": "platform"}}, {"type": "node", "id": 1345826092, "lat": 12.7982935, "lon": 77.5260766, "tags": {"highway": "bus_stop", "loc_name": "GULAKAMALE", "name": "Nallakkanadoddi Cross"}}, {"type": "node", "id": 1345826135, "lat": 12.8099119, "lon": 77.5305143, "tags": {"highway": "bus_stop", "loc_name": "NALAKKAN DODDI", "name": "Nallakkanadoddi", "name:kn": "\u0ca8\u0cb2\u0ccd\u0cb2\u0c95\u0ccd\u0c95\u0ca8\u0ca6\u0cca\u0ca1\u0ccd\u0ca1\u0cbf"}}, {"type": "node", "id": 1387796171, "lat": 12.81802, "lon": 77.4928871, "tags": {"bus": "yes", "highway": "bus_stop", "loc_name": "UTTARI", "name": "Utthari", "name:kn": "\u0c89\u0ca4\u0ccd\u0ca4\u0cb0\u0cbf", "public_transport": "platform"}}, {"type": "node", "id": 1387796914, "lat": 12.818027, "lon": 77.4899621, "tags": {"bus": "yes", "highway": "bus_stop", "loc_name": "BADEKATTE", "name": "Bade Katte", "public_transport": "platform"}}, {"type": "node", "id": 1414325865, "lat": 12.8820567, "lon": 77.4848368, "tags": {"bus": "yes", "highway": "bus_stop", "name": "Hemmigepura", "name:kn": "\u0cb9\u0cc6\u0cae\u0ccd\u0cae\u0cbf\u0c97\u0cc6\u0caa\u0cc1\u0cb0", "public_transport": "platform"}}, {"type": "node", "id": 1414325957, "lat": 12.8743403, "lon": 77.4715126, "tags": {"highway": "bus_stop", "loc_name": "KARUBELE", "name": "Muneshwara Layout", "name:kn": "\u0cae\u0cc1\u0ca8\u0cc7\u0cb6\u0ccd\u0cb5\u0cb0 \u0cac\u0ca1\u0cbe\u0cb5\u0ca3\u0cc6"}}, {"type": "node", "id": 1577747842, "lat": 12.8794146, "lon": 77.5455999}, {"type": "node", "id": 1577747847, "lat": 12.8627735, "lon": 77.530806}, {"type": "node", "id": 1577747855, "lat": 12.8747967, "lon": 77.5423538}, {"type": "node", "id": 1577747865, "lat": 12.8758213, "lon": 77.5439311}, {"type": "node", "id": 1577747868, "lat": 12.8831324, "lon": 77.5475216}, {"type": "node", "id": 1577747877, "lat": 12.8604109, "lon": 77.5292106}, {"type": "node", "id": 1577747881, "lat": 12.8761403, "lon": 77.5441844}, {"type": "node", "id": 1577747884, "lat": 12.8816785, "lon": 77.5465144}, {"type": "node", "id": 1577747885, "lat": 12.8707251, "lon": 77.5378837}, {"type": "node", "id": 1577747896, "lat": 12.8743119, "lon": 77.5412876}, {"type": "node", "id": 1577747900, "lat": 12.8670555, "lon": 77.5350065}, {"type": "node", "id": 1577747902, "lat": 12.8753154, "lon": 77.5433884}, {"type": "node", "id": 1577747904, "lat": 12.866038, "lon": 77.5342366}, {"type": "node", "id": 1577747905, "lat": 12.861435, "lon": 77.5298172}, {"type": "node", "id": 1577747909, "lat": 12.860867, "lon": 77.5294788}, {"type": "node", "id": 1577747911, "lat": 12.8827483, "lon": 77.5470185}, {"type": "node", "id": 1577747912, "lat": 12.8636242, "lon": 77.532077}, {"type": "node", "id": 1577747913, "lat": 12.8631881, "lon": 77.5314277}, {"type": "node", "id": 1577747915, "lat": 12.8828975, "lon": 77.5471404}, {"type": "node", "id": 1577747922, "lat": 12.8833326, "lon": 77.548092}, {"type": "node", "id": 1577747925, "lat": 12.8644921, "lon": 77.5330171}, {"type": "node", "id": 1577747932, "lat": 12.8605979, "lon": 77.5293188}, {"type": "node", "id": 1577747933, "lat": 12.8858898, "lon": 77.5568757}, {"type": "node", "id": 1577747939, "lat": 12.8602616, "lon": 77.5291132}, {"type": "node", "id": 1577747943, "lat": 12.8643238, "lon": 77.5328619}, {"type": "node", "id": 1577747945, "lat": 12.8846652, "lon": 77.552925}, {"type": "node", "id": 1577747952, "lat": 12.862197, "lon": 77.5302856}, {"type": "node", "id": 1577747953, "lat": 12.8841215, "lon": 77.5511006}, {"type": "node", "id": 1577747955, "lat": 12.8766284, "lon": 77.5444246}, {"type": "node", "id": 1577747961, "lat": 12.8852865, "lon": 77.5549214}, {"type": "node", "id": 1577747968, "lat": 12.8739539, "lon": 77.5407012}, {"type": "node", "id": 1577747973, "lat": 12.8736735, "lon": 77.5403602}, {"type": "node", "id": 1577747981, "lat": 12.8625424, "lon": 77.5304964}, {"type": "node", "id": 1577747984, "lat": 12.8830216, "lon": 77.5473191}, {"type": "node", "id": 1577748001, "lat": 12.8691171, "lon": 77.5365886}, {"type": "node", "id": 1577748003, "lat": 12.8755361, "lon": 77.543658}, {"type": "node", "id": 1577748004, "lat": 12.8584166, "lon": 77.527996}, {"type": "node", "id": 1577748007, "lat": 12.8731484, "lon": 77.539826}, {"type": "node", "id": 1577748009, "lat": 12.8857094, "lon": 77.5562482}, {"type": "node", "id": 1942843796, "lat": 12.8678913, "lon": 77.5133838, "tags": {"highway": "bus_stop", "name": "Nagegowdana Palya", "name:kn": "\u0ca8\u0cbe\u0c97\u0cc7\u0c97\u0ccc\u0ca1\u0ca8 \u0caa\u0cbe\u0cb3\u0ccd\u0caf"}}, {"type": "node", "id": 2247955690, "lat": 12.8552914, "lon": 77.5145498, "tags": {"bus": "yes", "highway": "bus_stop", "loc_name": "TALAGUTA PURA", "name": "Nagegowdana Palya Cross", "public_transport": "platform"}}, {"type": "node", "id": 2250290034, "lat": 12.8856367, "lon": 77.5559889}, {"type": "node", "id": 2250764818, "lat": 12.8047274, "lon": 77.5049727, "tags": {"bus": "yes", "highway": "bus_stop", "loc_name": "KAGLIPURA", "name": "Kaggalipura Colony", "public_transport": "platform"}}, {"type": "node", "id": 2250764997, "lat": 12.8204781, "lon": 77.5224844, "tags": {"bus": "yes", "highway": "bus_stop", "loc_name": "O.B.CHUDAHALLI", "name": "Gulaka Malai", "public_transport": "platform"}}, {"type": "node", "id": 2250765075, "lat": 12.8313708, "lon": 77.5004868, "tags": {"bus": "yes", "highway": "bus_stop", "name": "Basapanpalya", "name:kn": "\u0cac\u0cb8\u0caa\u0ccd\u0caa\u0ca8\u0caa\u0cbe\u0cb3\u0ccd\u0caf", "public_transport": "platform"}}, {"type": "node", "id": 2396192725, "lat": 12.8747102, "lon": 77.4657556, "tags": {"highway": "bus_stop", "name": "Karubele", "name:kn": "\u0c95\u0cb0\u0cc1\u0cac\u0cc6\u0cb2\u0cc6"}}, {"type": "node", "id": 2410098451, "lat": 12.8692859, "lon": 77.5365553, "tags": {"highway": "bus_stop", "name": "Thalaghattapura", "name:en": "Thalaghattapura", "name:kn": "\u0ca4\u0cb2\u0c98\u0c9f\u0ccd\u0c9f\u0caa\u0cc1\u0cb0", "network": "BMTC", "operator": "BMTC", "public_transport": "platform"}}, {"type": "node", "id": 2410102067, "lat": 12.8599366, "lon": 77.5288171, "tags": {"highway": "bus_stop", "loc_name": "Kanakapura Road", "name": "Jyothi Farm"}}, {"type": "node", "id": 2410111762, "lat": 12.8333438, "lon": 77.5137889, "tags": {"highway": "bus_stop", "loc_name": "Kanakapura Road", "name": "Lakshmipura", "name:kn": "\u0cb2\u0c95\u0ccd\u0cb7\u0ccd\u0cae\u0cbf\u0caa\u0cc1\u0cb0"}}, {"type": "node", "id": 2410112552, "lat": 12.8301684, "lon": 77.513055, "tags": {"highway": "bus_stop", "loc_name": "Kanakapura Road", "name": "Saala Doddi"}}, {"type": "node", "id": 2410114855, "lat": 12.8001372, "lon": 77.5082934, "tags": {"bus": "yes", "highway": "bus_stop", "loc_name": "Kanakapura Road", "name": "Kaggalipura", "name:en": "Kaggalipura", "name:kn": "\u0c95\u0c97\u0ccd\u0c97\u0cb2\u0cbf\u0caa\u0cc1\u0cb0", "network": "BMTC", "operator": "BMTC", "public_transport": "platform"}}, {"type": "node", "id": 2410511091, "lat": 12.8527766, "lon": 77.5302443, "tags": {"highway": "bus_stop", "loc_name": "TALAGUTA PURA", "name": "Vajramuneshwara Temple", "name:kn": "\u0cb5\u0c9c\u0ccd\u0cb0 \u0cae\u0cc1\u0ca8\u0cc7\u0cb6\u0ccd\u0cb5\u0cb0 \u0ca6\u0cc7\u0cb5\u0cb8\u0ccd\u0ca5\u0cbe\u0ca8"}}, {"type": "node", "id": 2410530194, "lat": 12.8180141, "lon": 77.5206294, "tags": {"bus": "yes", "highway": "bus_stop", "name": "Vasudevapura", "name:kn": "\u0cb5\u0cbe\u0cb8\u0cc1\u0ca6\u0cc7\u0cb5\u0caa\u0cc1\u0cb0", "public_transport": "platform"}}, {"type": "node", "id": 2410534959, "lat": 12.795825, "lon": 77.4740076, "tags": {"bus": "yes", "highway": "bus_stop", "name": "Mallipalya", "name:kn": "\u0cae\u0cb2\u0ccd\u0cb2\u0cbf\u0caa\u0cbe\u0cb3\u0ccd\u0caf", "public_transport": "platform"}}, {"type": "node", "id": 2411246538, "lat": 12.7969777, "lon": 77.4642613, "tags": {"highway": "bus_stop", "loc_name": "NARAYANAPURA", "name": "Kattalepalya", "name:kn": "\u0c95\u0ca4\u0ccd\u0ca4\u0cb2\u0cc6\u0caa\u0cbe\u0cb3\u0ccd\u0caf"}}, {"type": "node", "id": 2412196354, "lat": 12.8305974, "lon": 77.4856477, "tags": {"bus": "yes", "highway": "bus_stop", "loc_name": "BANJARPALYA", "name": "Banjarapalya", "name:kn": "\u0cac\u0c82\u0c9c\u0cbe\u0cb0\u0caa\u0cbe\u0cb3\u0ccd\u0caf", "public_transport": "platform"}}, {"type": "node", "id": 2412201281, "lat": 12.8463637, "lon": 77.4705664, "tags": {"bus": "yes", "highway": "bus_stop", "name": "Gangasandra", "name:kn": "\u0c97\u0c82\u0c97\u0cb8\u0c82\u0ca6\u0ccd\u0cb0", "public_transport": "platform"}}, {"type": "node", "id": 2412202587, "lat": 12.8466337, "lon": 77.4624613, "tags": {"highway": "bus_stop", "loc_name": "Gangasandra", "name": "BGS College Gate"}}, {"type": "node", "id": 2413457059, "lat": 12.8217557, "lon": 77.4604137, "tags": {"highway": "bus_stop", "name": "Thittahalli", "name:kn": "\u0ca4\u0cbf\u0c9f\u0ccd\u0c9f\u0cb9\u0cb3\u0ccd\u0cb3\u0cbf"}}, {"type": "node", "id": 2413459462, "lat": 12.8194527, "lon": 77.4607345, "tags": {"highway": "bus_stop", "name": "MRV Bricks Factory"}}, {"type": "node", "id": 2413496700, "lat": 12.8474259, "lon": 77.4688917, "tags": {"bus": "yes", "highway": "bus_stop", "loc_name": "GANGASANDRA", "name": "BGS College Cross", "public_transport": "platform"}}, {"type": "node", "id": 2415754953, "lat": 12.7977364, "lon": 77.5241965, "tags": {"highway": "bus_stop", "loc_name": "GULAKAMALE", "name": "Gulaka Malai"}}, {"type": "node", "id": 2417400022, "lat": 12.811453, "lon": 77.4923823, "tags": {"bus": "yes", "highway": "bus_stop", "loc_name": "DINNE PALYA", "name": "Dinnepalya", "name:kn": "\u0ca6\u0cbf\u0ca8\u0ccd\u0ca8\u0cc6\u0caa\u0cbe\u0cb3\u0ccd\u0caf", "public_transport": "platform"}}, {"type": "node", "id": 2417401854, "lat": 12.8245059, "lon": 77.4845607, "tags": {"bus": "yes", "highway": "bus_stop", "name": "Thimmegowdana Palya", "name:kn": "\u0ca4\u0cbf\u0cae\u0ccd\u0cae\u0cc6\u0c97\u0ccc\u0ca1\u0ca8 \u0caa\u0cbe\u0cb3\u0ccd\u0caf", "public_transport": "platform"}}, {"type": "node", "id": 2417406624, "lat": 12.8749283, "lon": 77.5374892, "tags": {"bench": "yes", "covered": "yes", "highway": "bus_stop", "name": "Manjunatha Kalyana Mantapa", "name:en": "Manjunatha Kalyana Mantapa", "name:kn": "\u0cae\u0c82\u0c9c\u0cc1\u0ca8\u0cbe\u0ca5 \u0c95\u0cb2\u0ccd\u0caf\u0cbe\u0ca3 \u0cae\u0c82\u0c9f\u0caa", "network": "BMTC", "operator": "BMTC", "public_transport": "platform", "shelter": "yes"}}, {"type": "node", "id": 2417407989, "lat": 12.8759616, "lon": 77.5332439, "tags": {"highway": "bus_stop", "name": "Ganigara Palya", "name:kn": "\u0c97\u0ca3\u0cbf\u0c97\u0cb0\u0caa\u0cbe\u0cb3\u0ccd\u0caf"}}, {"type": "node", "id": 2417410558, "lat": 12.8785727, "lon": 77.5151455, "tags": {"highway": "bus_stop", "name": "Chikkegowdana Palya", "name:kn": "\u0c9a\u0cbf\u0c95\u0ccd\u0c95\u0cc6\u0c97\u0ccc\u0ca1\u0ca8\u0caa\u0cbe\u0cb3\u0ccd\u0caf"}}, {"type": "node", "id": 2417410674, "lat": 12.8820003, "lon": 77.5013924, "tags": {"highway": "bus_stop", "loc_name": "GATTIGERE PALYA", "name": "Gattigere Palya", "name:kn": "\u0c97\u0c9f\u0ccd\u0c9f\u0cbf\u0c97\u0cc6\u0cb0\u0cc6\u0caa\u0cbe\u0cb3\u0ccd\u0caf"}}, {"type": "node", "id": 2417411422, "lat": 12.8778162, "lon": 77.4966468, "tags": {"highway": "bus_stop", "name": "Sompura", "name:kn": "\u0cb8\u0ccb\u0c82\u0caa\u0cc1\u0cb0"}}, {"type": "node", "id": 2417426124, "lat": 12.8805375, "lon": 77.5055475, "tags": {"highway": "bus_stop", "name": "Dasegowdana Palya", "name:kn": "\u0ca6\u0cbe\u0cb8\u0cc7\u0c97\u0ccc\u0ca1\u0ca8\u0caa\u0cbe\u0cb3\u0ccd\u0caf"}}, {"type": "node", "id": 2417447110, "lat": 12.8808129, "lon": 77.4594177, "tags": {"bus": "yes", "highway": "bus_stop", "loc_name": "KAMBIPURA", "name": "Madarasa School", "public_transport": "platform"}}, {"type": "node", "id": 2417451111, "lat": 12.8718914, "lon": 77.4617673, "tags": {"bus": "yes", "highway": "bus_stop", "loc_name": "KAMBIPURA", "name": "Kambipura", "name:kn": "\u0c95\u0c82\u0cac\u0cc0\u0caa\u0cc1\u0cb0", "public_transport": "platform"}}, {"type": "node", "id": 2417451179, "lat": 12.8748044, "lon": 77.4612498, "tags": {"bus": "yes", "highway": "bus_stop", "loc_name": "KAMBIPURA", "name": "Jandemara", "name:kn": "\u0c9c\u0c82\u0ca1\u0cc6 \u0cae\u0cb0", "public_transport": "platform"}}, {"type": "node", "id": 2419046470, "lat": 12.8760451, "lon": 77.4801467, "tags": {"bus": "yes", "highway": "bus_stop", "loc_name": "H. GOLLAHALLI", "name": "H Gollahalli", "public_transport": "platform"}}, {"type": "node", "id": 2419051641, "lat": 12.8756058, "lon": 77.4870034, "tags": {"highway": "bus_stop", "name": "Channaveeraiahna Palya", "name:kn": "\u0c9a\u0ca8\u0ccd\u0ca8\u0cb5\u0cc0\u0cb0\u0caf\u0ccd\u0caf\u0ca8 \u0caa\u0cbe\u0cb3\u0ccd\u0caf"}}, {"type": "node", "id": 2419052074, "lat": 12.8774351, "lon": 77.4902322, "tags": {"highway": "bus_stop", "name": "Varahasandra", "name:kn": "\u0cb5\u0cb0\u0cb9\u0cbe\u0cb8\u0c82\u0ca6\u0ccd\u0cb0"}}, {"type": "node", "id": 2419063909, "lat": 12.8578812, "lon": 77.4726031, "tags": {"highway": "bus_stop", "loc_name": "DODDI PALYA", "name": "Doddipalya", "name:kn": "\u0ca6\u0cca\u0ca1\u0ccd\u0ca1\u0cbf\u0caa\u0cbe\u0cb3\u0ccd\u0caf"}}, {"type": "node", "id": 2419934730, "lat": 12.864357, "lon": 77.4569097, "tags": {"bus": "yes", "highway": "bus_stop", "name": "Devagere Cross", "name:kn": "\u0ca6\u0cc7\u0cb5\u0c97\u0cc6\u0cb0\u0cc6 \u0c95\u0ccd\u0cb0\u0cbe\u0cb8\u0ccd", "public_transport": "platform"}}, {"type": "node", "id": 2420894641, "lat": 12.8408987, "lon": 77.4700551, "tags": {"highway": "bus_stop", "loc_name": "HOSAPALYA COLONY", "name": "Gaviyana Palya", "name:kn": "\u0c97\u0cb5\u0cbf\u0caf\u0ca8 \u0caa\u0cbe\u0cb3\u0ccd\u0caf"}}, {"type": "node", "id": 2420897220, "lat": 12.8244819, "lon": 77.48989, "tags": {"highway": "bus_stop", "loc_name": "THIMMEGOWDAN PALYA", "name": "Aladamara", "name:kn": "\u0c86\u0cb2\u0ca6\u0cae\u0cb0"}}, {"type": "node", "id": 5114101555, "lat": 12.8668247, "lon": 77.4538993, "tags": {"bus": "yes", "highway": "bus_stop", "loc_name": "BIDADI", "name": "Byramangala Cross"}}, {"type": "node", "id": 5760198268, "lat": 12.8602847, "lon": 77.5290782}, {"type": "node", "id": 5760198269, "lat": 12.8604364, "lon": 77.5291687}, {"type": "node", "id": 5760198270, "lat": 12.8606096, "lon": 77.5292783}, {"type": "node", "id": 5760198271, "lat": 12.8608811, "lon": 77.529439}, {"type": "node", "id": 5760198272, "lat": 12.8614541, "lon": 77.5297796}, {"type": "node", "id": 5760198274, "lat": 12.8622294, "lon": 77.5302337}, {"type": "node", "id": 5760198275, "lat": 12.8625697, "lon": 77.5304644}, {"type": "node", "id": 5760198276, "lat": 12.8628075, "lon": 77.530782}, {"type": "node", "id": 5760198277, "lat": 12.8632224, "lon": 77.5314042}, {"type": "node", "id": 5760198278, "lat": 12.8636562, "lon": 77.5320502}, {"type": "node", "id": 5760198279, "lat": 12.8643442, "lon": 77.5328249}, {"type": "node", "id": 5760198280, "lat": 12.86452, "lon": 77.5329858}, {"type": "node", "id": 5760198281, "lat": 12.8660725, "lon": 77.5342028}, {"type": "node", "id": 5760198282, "lat": 12.8691536, "lon": 77.5365505}, {"type": "node", "id": 5760198283, "lat": 12.8707415, "lon": 77.5378154}, {"type": "node", "id": 5760198284, "lat": 12.8731745, "lon": 77.5397813}, {"type": "node", "id": 5760198285, "lat": 12.8737045, "lon": 77.5403027}, {"type": "node", "id": 5760198286, "lat": 12.8739925, "lon": 77.5406556}, {"type": "node", "id": 5760198287, "lat": 12.8743595, "lon": 77.5412452}, {"type": "node", "id": 5760198288, "lat": 12.8748596, "lon": 77.5423292}, {"type": "node", "id": 5760198289, "lat": 12.8753726, "lon": 77.5433762}, {"type": "node", "id": 5760198290, "lat": 12.8755869, "lon": 77.5436239}, {"type": "node", "id": 5760198291, "lat": 12.8758573, "lon": 77.5438829}, {"type": "node", "id": 5760198292, "lat": 12.8761796, "lon": 77.5441355}, {"type": "node", "id": 5760198293, "lat": 12.8766467, "lon": 77.5443724}, {"type": "node", "id": 5760198295, "lat": 12.8817117, "lon": 77.546472}, {"type": "node", "id": 5760198296, "lat": 12.8827822, "lon": 77.5469621}, {"type": "node", "id": 5760198297, "lat": 12.8829135, "lon": 77.5470635}, {"type": "node", "id": 5760198298, "lat": 12.8830179, "lon": 77.5471932}, {"type": "node", "id": 5760198299, "lat": 12.8831497, "lon": 77.5474312}, {"type": "node", "id": 5760198300, "lat": 12.8833904, "lon": 77.5480706}, {"type": "node", "id": 5760198301, "lat": 12.8841925, "lon": 77.5511008}, {"type": "node", "id": 5760198302, "lat": 12.8847268, "lon": 77.5528945}, {"type": "node", "id": 5760198303, "lat": 12.8853251, "lon": 77.5549066}, {"type": "node", "id": 5760198304, "lat": 12.8857011, "lon": 77.5559741}, {"type": "node", "id": 5760198305, "lat": 12.8857738, "lon": 77.55622}, {"type": "node", "id": 5760198458, "lat": 12.8616662, "lon": 77.5299532, "tags": {"code": "APTS", "name": "Silk Institute", "name:kn": "\u0cb0\u0cc7\u0cb7\u0ccd\u0cae\u0cc6 \u0cb8\u0c82\u0cb8\u0ccd\u0ca5\u0cc6", "network": "Namma Metro", "note": "Contributors are requested to not edit the \"network\" and the \"operator\" tags. (2023/11/08)", "operator": "Bangalore Metro Rail Corporation Limited", "public_transport": "stop_position", "public_transport:version": "2", "railway": "stop", "subway": "yes", "wheelchair": "yes"}}, {"type": "node", "id": 5760198459, "lat": 12.8714243, "lon": 77.5383625, "tags": {"code": "TGTP", "name": "Thalaghattapura", "name:kn": "\u0ca4\u0cb2\u0c98\u0c9f\u0ccd\u0c9f\u0caa\u0cc1\u0cb0", "name:ta": "\u0ba4\u0bb2\u0b95\u0b9f\u0bcd\u0b9f\u0baa\u0bc1\u0bb0\u0bbe", "network": "Namma Metro", "note": "Contributors are requested to not edit the \"network\" and the \"operator\" tags. (2023/11/08)", "operator": "Bangalore Metro Rail Corporation Limited", "public_transport": "stop_position", "public_transport:version": "2", "railway": "stop", "subway": "yes", "wheelchair": "yes"}}, {"type": "node", "id": 5760198460, "lat": 12.8775389, "lon": 77.544745, "tags": {"code": "VJRH", "name": "Vajarahalli", "name:kn": "\u0cb5\u0cbe\u0c9c\u0cb0\u0cb9\u0cb3\u0ccd\u0cb3\u0cbf", "network": "Namma Metro", "note": "Contributors are requested to not edit the \"network\" and the \"operator\" tags. (2023/11/08)", "operator": "Bangalore Metro Rail Corporation Limited", "public_transport": "stop_position", "public_transport:version": "2", "railway": "stop", "subway": "yes", "wheelchair": "yes"}}, {"type": "node", "id": 5760198461, "lat": 12.8859513, "lon": 77.5568522}, {"type": "node", "id": 7146872946, "lat": 12.882469, "lon": 77.4718825, "tags": {"bus": "yes", "name": "Provident Sunworth Apartments", "name:en": "Provident Sunworth Apartments", "network": "BMTC", "operator": "BMTC", "public_transport": "stop_position"}}, {"type": "node", "id": 7235254982, "lat": 12.8846862, "lon": 77.552751, "tags": {"code": "KLPK", "name": "Doddakallasandra", "name:kn": "\u0ca6\u0cca\u0ca1\u0ccd\u0ca1\u0c95\u0cb2\u0ccd\u0cb2\u0cb8\u0c82\u0ca6\u0ccd\u0cb0", "network": "Namma Metro", "note": "Contributors are requested to not edit the \"network\" and the \"operator\" tags. (2023/11/08)", "operator": "Bangalore Metro Rail Corporation Limited", "public_transport": "stop_position", "public_transport:version": "2", "railway": "stop", "subway": "yes", "wheelchair": "yes"}}, {"type": "node", "id": 7235254983, "lat": 12.8846245, "lon": 77.5527796, "tags": {"code": "KLPK", "name": "Doddakallasandra", "name:kn": "\u0ca6\u0cca\u0ca1\u0ccd\u0ca1\u0c95\u0cb2\u0ccd\u0cb2\u0cb8\u0c82\u0ca6\u0ccd\u0cb0", "network": "Namma Metro", "note": "Contributors are requested to not edit the \"network\" and the \"operator\" tags. (2023/11/08)", "operator": "Bangalore Metro Rail Corporation Limited", "public_transport": "stop_position", "public_transport:version": "2", "railway": "stop", "subway": "yes", "wheelchair": "yes"}}, {"type": "node", "id": 7235263985, "lat": 12.8794332, "lon": 77.5455484}, {"type": "node", "id": 7235263986, "lat": 12.8775221, "lon": 77.5448072, "tags": {"code": "VJRH", "name": "Vajarahalli", "name:kn": "\u0cb5\u0cbe\u0c9c\u0cb0\u0cb9\u0cb3\u0ccd\u0cb3\u0cbf", "network": "Namma Metro", "note": "Contributors are requested to not edit the \"network\" and the \"operator\" tags. (2023/11/08)", "operator": "Bangalore Metro Rail Corporation Limited", "public_transport": "stop_position", "public_transport:version": "2", "railway": "stop", "subway": "yes", "wheelchair": "yes"}}, {"type": "node", "id": 7235263988, "lat": 12.8670801, "lon": 77.5349726}, {"type": "node", "id": 7235263989, "lat": 12.8713916, "lon": 77.538419, "tags": {"code": "TGTP", "name": "Thalaghattapura", "name:kn": "\u0ca4\u0cb2\u0c98\u0c9f\u0ccd\u0c9f\u0caa\u0cc1\u0cb0", "name:ta": "\u0ba4\u0bb2\u0b95\u0b9f\u0bcd\u0b9f\u0baa\u0bc1\u0bb0\u0bbe", "network": "Namma Metro", "note": "Contributors are requested to not edit the \"network\" and the \"operator\" tags. (2023/11/08)", "operator": "Bangalore Metro Rail Corporation Limited", "public_transport": "stop_position", "public_transport:version": "2", "railway": "stop", "subway": "yes", "wheelchair": "yes"}}, {"type": "node", "id": 7235263990, "lat": 12.8584399, "lon": 77.5279612}, {"type": "node", "id": 7235263991, "lat": 12.8616919, "lon": 77.5299083, "tags": {"code": "APTS", "name": "Silk Institute", "name:kn": "\u0cb0\u0cc7\u0cb7\u0ccd\u0cae\u0cc6 \u0cb8\u0c82\u0cb8\u0ccd\u0ca5\u0cc6", "network": "Namma Metro", "note": "Contributors are requested to not edit the \"network\" and the \"operator\" tags. (2023/11/08)", "operator": "Bangalore Metro Rail Corporation Limited", "public_transport": "stop_position", "public_transport:version": "2", "railway": "stop", "subway": "yes", "wheelchair": "yes"}}, {"type": "node", "id": 7396735761, "lat": 12.8274696, "lon": 77.4595899, "tags": {"bus": "yes", "highway": "bus_stop", "loc_name": "CHINNAKURCHI", "name": "Chinkurchi", "name:kn": "\u0c9a\u0cbf\u0ca8\u0ccd\u0ca8\u0c95\u0cc1\u0cb0\u0ccd\u0c9a\u0cbf", "public_transport": "platform"}}, {"type": "node", "id": 7404036510, "lat": 12.8693333, "lon": 77.5366932}, {"type": "node", "id": 7404036511, "lat": 12.8693086, "lon": 77.5367491}, {"type": "node", "id": 7625647528, "lat": 12.8750538, "lon": 77.5429577}, {"type": "node", "id": 7625647529, "lat": 12.87509, "lon": 77.5428899}, {"type": "node", "id": 7625647530, "lat": 12.8639691, "lon": 77.5324861}, {"type": "node", "id": 7625647531, "lat": 12.8639986, "lon": 77.5324592}, {"type": "node", "id": 7822834607, "lat": 12.8824672, "lon": 77.4718418, "tags": {"bus": "yes", "highway": "bus_stop", "name": "Provident Sunworth Apartments", "name:en": "Provident Sunworth Apartments", "network": "BMTC", "operator": "BMTC", "public_transport": "platform"}}, {"type": "node", "id": 7835002980, "lat": 12.8579955, "lon": 77.5276932}, {"type": "node", "id": 7835002981, "lat": 12.8580226, "lon": 77.5276455}, {"type": "node", "id": 7835002982, "lat": 12.8574672, "lon": 77.5272465}, {"type": "node", "id": 7835002983, "lat": 12.8549726, "lon": 77.5246937}, {"type": "node", "id": 7835002984, "lat": 12.8535346, "lon": 77.5232565}, {"type": "node", "id": 7835011185, "lat": 12.8574413, "lon": 77.5272977}, {"type": "node", "id": 7835011186, "lat": 12.8534953, "lon": 77.5232974}, {"type": "node", "id": 8318418248, "lat": 12.8850632, "lon": 77.5540649}, {"type": "node", "id": 8318418251, "lat": 12.8837618, "lon": 77.5495864}, {"type": "node", "id": 8318418252, "lat": 12.8837093, "lon": 77.5495993}, {"type": "node", "id": 8318418253, "lat": 12.8839021, "lon": 77.5503576}, {"type": "node", "id": 8318418254, "lat": 12.8839638, "lon": 77.5503421}, {"type": "node", "id": 8318418255, "lat": 12.8832908, "lon": 77.5477258}, {"type": "node", "id": 8318418256, "lat": 12.8832503, "lon": 77.5477886}, {"type": "node", "id": 8318418257, "lat": 12.8824172, "lon": 77.5467672}, {"type": "node", "id": 8318418258, "lat": 12.8823955, "lon": 77.5468242}, {"type": "node", "id": 8318418260, "lat": 12.8741433, "lon": 77.541002}, {"type": "node", "id": 8318418261, "lat": 12.8741849, "lon": 77.5409512}, {"type": "node", "id": 8318418262, "lat": 12.8734447, "lon": 77.5400375}, {"type": "node", "id": 8318418263, "lat": 12.8734354, "lon": 77.540106}, {"type": "node", "id": 8318600548, "lat": 12.8780338, "lon": 77.5447712}, {"type": "node", "id": 8318600549, "lat": 12.877999, "lon": 77.5448564}, {"type": "node", "id": 8318600550, "lat": 12.8781623, "lon": 77.5449265}, {"type": "node", "id": 8318600551, "lat": 12.8780822, "lon": 77.5451228}, {"type": "node", "id": 8318600552, "lat": 12.8779251, "lon": 77.5450554}, {"type": "node", "id": 8318600553, "lat": 12.8778956, "lon": 77.5451277}, {"type": "node", "id": 8318600554, "lat": 12.8770746, "lon": 77.5447756}, {"type": "node", "id": 8318600555, "lat": 12.8771068, "lon": 77.5446965}, {"type": "node", "id": 8318600556, "lat": 12.8769214, "lon": 77.5446169}, {"type": "node", "id": 8318600557, "lat": 12.8769948, "lon": 77.5444369}, {"type": "node", "id": 8318600558, "lat": 12.8771686, "lon": 77.5445115}, {"type": "node", "id": 8318600559, "lat": 12.8772074, "lon": 77.5444165}, {"type": "node", "id": 8318600561, "lat": 12.8775861, "lon": 77.5445791, "tags": {"level": "0", "name": "B: Raghuvanahalli", "operator": "BMRCL", "railway": "subway_entrance", "ref": "B", "wheelchair": "yes"}}, {"type": "node", "id": 8318600562, "lat": 12.8774413, "lon": 77.5449328, "tags": {"level": "0", "name": "A: Bayanapalya", "operator": "BMRCL", "railway": "subway_entrance", "ref": "A", "wheelchair": "yes"}}, {"type": "node", "id": 8318600563, "lat": 12.8716668, "lon": 77.5388234}, {"type": "node", "id": 8318600564, "lat": 12.8717004, "lon": 77.5387797}, {"type": "node", "id": 8318600565, "lat": 12.8718107, "lon": 77.5388688}, {"type": "node", "id": 8318600566, "lat": 12.8719649, "lon": 77.538668}, {"type": "node", "id": 8318600567, "lat": 12.8718421, "lon": 77.5385688}, {"type": "node", "id": 8318600568, "lat": 12.8718813, "lon": 77.5385179}, {"type": "node", "id": 8318600569, "lat": 12.8711502, "lon": 77.5379268}, {"type": "node", "id": 8318600570, "lat": 12.8711116, "lon": 77.537977}, {"type": "node", "id": 8318600571, "lat": 12.8709762, "lon": 77.5378676}, {"type": "node", "id": 8318600572, "lat": 12.8708321, "lon": 77.5380553}, {"type": "node", "id": 8318600573, "lat": 12.8709815, "lon": 77.538176}, {"type": "node", "id": 8318600574, "lat": 12.870937, "lon": 77.538234}, {"type": "node", "id": 8318600575, "lat": 12.8715193, "lon": 77.5382252, "tags": {"level": "0", "name": "B: Thalaghattapura Police Station", "operator": "BMRCL", "railway": "subway_entrance", "ref": "B", "wheelchair": "yes"}}, {"type": "node", "id": 8318600576, "lat": 12.8713, "lon": 77.5385271, "tags": {"level": "0", "name": "A", "operator": "BMRCL", "railway": "subway_entrance", "ref": "A", "wheelchair": "yes"}}, {"type": "node", "id": 8318600577, "lat": 12.8619581, "lon": 77.5299095}, {"type": "node", "id": 8318600579, "lat": 12.8613688, "lon": 77.5299844}, {"type": "node", "id": 8318600580, "lat": 12.8614018, "lon": 77.5299256}, {"type": "node", "id": 8318600581, "lat": 12.8609069, "lon": 77.5296333}, {"type": "node", "id": 8318600582, "lat": 12.8610087, "lon": 77.5294519}, {"type": "node", "id": 8318600583, "lat": 12.8611145, "lon": 77.5295144}, {"type": "node", "id": 8318600584, "lat": 12.8611581, "lon": 77.5294369}, {"type": "node", "id": 8318600585, "lat": 12.8619224, "lon": 77.529973}, {"type": "node", "id": 8318600586, "lat": 12.8619615, "lon": 77.5303345}, {"type": "node", "id": 8318600587, "lat": 12.8621041, "lon": 77.5300804}, {"type": "node", "id": 8318600589, "lat": 12.8616691, "lon": 77.5301618, "tags": {"level": "0", "name": "A: Judicial Layout (BDA)", "operator": "BMRCL", "railway": "subway_entrance", "ref": "A", "wheelchair": "yes"}}, {"type": "node", "id": 8318600590, "lat": 12.8615644, "lon": 77.5296769, "tags": {"level": "0", "name": "B: Anjanapura Township", "operator": "BMRCL", "railway": "subway_entrance", "ref": "B", "wheelchair": "yes"}}, {"type": "node", "id": 9919651773, "lat": 12.8617298, "lon": 77.5299545, "tags": {"code": "APTS", "name": "Silk Institute", "name:kn": "\u0cb0\u0cc7\u0cb7\u0ccd\u0cae\u0cc6 \u0cb8\u0c82\u0cb8\u0ccd\u0ca5\u0cc6", "name:ml": "\u0d38\u0d3f\u0d7d\u0d15\u0d4d\u0d15\u0d4d \u0d07\u0d7b\u0d38\u0d4d\u0d31\u0d4d\u0d31\u0d3f\u0d31\u0d4d\u0d31\u0d4d\u0d2f\u0d42\u0d1f\u0d4d\u0d1f\u0d4d", "name:ta": "\u0b9a\u0bbf\u0bb2\u0bcd\u0b95\u0bcd \u0b87\u0ba9\u0bcd\u0bb8\u0bcd\u0b9f\u0bbf\u0b9f\u0bcd\u0baf\u0bc2\u0b9f\u0bcd", "network": "Namma Metro", "note": "Contributors are requested to not edit the \"network\" and the \"operator\" tags. (2023/11/08)", "operator": "Bangalore Metro Rail Corporation Limited", "platforms": "2", "public_transport": "station", "railway": "station", "shelter": "yes", "station": "subway", "subway": "yes", "wheelchair": "yes"}}, {"type": "node", "id": 9919651774, "lat": 12.8714097, "lon": 77.5383958, "tags": {"code": "TGTP", "name": "Thalaghattapura", "name:kn": "\u0ca4\u0cb2\u0c98\u0c9f\u0ccd\u0c9f\u0caa\u0cc1\u0cb0", "name:ml": "\u0d24\u0d32\u0d18\u0d1f\u0d4d\u0d1f\u0d2a\u0d41\u0d30", "name:ta": "\u0ba4\u0bb2\u0b95\u0b9f\u0bcd\u0b9f\u0baa\u0bc1\u0bb0\u0bbe", "network": "Namma Metro", "note": "Contributors are requested to not edit the \"network\" and the \"operator\" tags. (2023/11/08)", "operator": "Bangalore Metro Rail Corporation Limited", "platforms": "2", "public_transport": "station", "railway": "station", "ref": "TGTP", "shelter": "yes", "station": "subway", "subway": "yes", "wheelchair": "yes"}}, {"type": "node", "id": 9919651775, "lat": 12.8774369, "lon": 77.5447414, "tags": {"code": "VJRH", "name": "Vajarahalli", "name:kn": "\u0cb5\u0cbe\u0c9c\u0cb0\u0cb9\u0cb3\u0ccd\u0cb3\u0cbf", "name:ml": "\u0d35\u0d3e\u0d1c\u0d31\u0d39\u0d33\u0d4d\u0d33\u0d3f", "name:ta": "\u0bb5\u0b9c\u0bcd\u0b9c\u0bb0\u0bb9\u0bb2\u0bcd\u0bb2\u0bbf", "network": "Namma Metro", "note": "Contributors are requested to not edit the \"network\" and the \"operator\" tags. (2023/11/08)", "operator": "Bangalore Metro Rail Corporation Limited", "platforms": "2", "public_transport": "station", "railway": "station", "ref": "VJRH", "shelter": "yes", "station": "subway", "subway": "yes", "wheelchair": "yes"}}, {"type": "node", "id": 11291326987, "lat": 12.8551373, "lon": 77.5419708, "tags": {"highway": "bus_stop", "name": "Mallasandra Purvankara Bus Stop"}}, {"type": "node", "id": 11586821035, "lat": 12.8578338, "lon": 77.5253926}, {"type": "node", "id": 11586821036, "lat": 12.8577884, "lon": 77.5254705}, {"type": "node", "id": 11586821037, "lat": 12.8577368, "lon": 77.5255442}, {"type": "node", "id": 11586821038, "lat": 12.8576795, "lon": 77.5256134}, {"type": "node", "id": 11586821039, "lat": 12.8575386, "lon": 77.5257446}, {"type": "node", "id": 11586821040, "lat": 12.8574545, "lon": 77.5258037}, {"type": "node", "id": 11586821041, "lat": 12.8573652, "lon": 77.5258544}, {"type": "node", "id": 11586821042, "lat": 12.8571731, "lon": 77.5259435}, {"type": "node", "id": 11586821043, "lat": 12.8570708, "lon": 77.525982}, {"type": "node", "id": 11586821044, "lat": 12.8568683, "lon": 77.5260301}, {"type": "node", "id": 11586821045, "lat": 12.8566891, "lon": 77.5260384}, {"type": "node", "id": 11586821046, "lat": 12.8566088, "lon": 77.5260308}, {"type": "node", "id": 11586821047, "lat": 12.8564552, "lon": 77.5260019}, {"type": "node", "id": 11586821048, "lat": 12.8563823, "lon": 77.5259813}, {"type": "node", "id": 11586844138, "lat": 12.8576169, "lon": 77.5256775}, {"type": "node", "id": 11586844139, "lat": 12.8572717, "lon": 77.5258961}, {"type": "node", "id": 11586844140, "lat": 12.8569658, "lon": 77.5260115}, {"type": "node", "id": 11586844141, "lat": 12.8567697, "lon": 77.526041}, {"type": "node", "id": 11586844142, "lat": 12.8565291, "lon": 77.5260182}, {"type": "node", "id": 11586844143, "lat": 12.8563107, "lon": 77.5259565}, {"type": "node", "id": 11586844144, "lat": 12.856112, "lon": 77.5258251}, {"type": "node", "id": 11586844145, "lat": 12.855904, "lon": 77.5256468}, {"type": "node", "id": 11590931818, "lat": 12.8786603, "lon": 77.5151815, "tags": {"highway": "bus_stop", "name": "Chikkegowdana Palya", "name:kn": "\u0c9a\u0cbf\u0c95\u0ccd\u0c95\u0cc6\u0c97\u0ccc\u0ca1\u0ca8\u0caa\u0cbe\u0cb3\u0ccd\u0caf"}}, {"type": "node", "id": 11622451231, "lat": 12.8720205, "lon": 77.5388458}, {"type": "node", "id": 11681511502, "lat": 12.8845133, "lon": 77.4630339, "tags": {"bus": "yes", "name": "St. Benedict's Church", "name:en": "St. Benedict's Church", "network": "BMTC", "operator": "BMTC", "public_transport": "stop_position"}}, {"type": "node", "id": 11681511503, "lat": 12.8845469, "lon": 77.4630332, "tags": {"highway": "bus_stop", "name": "St. Benedict's Church", "name:en": "St. Benedict's Church", "network": "BMTC", "operator": "BMTC", "public_transport": "platform"}}, {"type": "node", "id": 11888184714, "lat": 12.8368122, "lon": 77.5158748, "tags": {"bus": "yes", "highway": "bus_stop", "loc_name": "Kanakapura Road", "name": "Shanimahathma Temple", "name:en": "Shanimahathma Temple", "name:kn": "\u0cb6\u0ca8\u0cbf \u0cae\u0cb9\u0cbe\u0ca4\u0ccd\u0cae", "network": "BMTC", "operator": "BMTC", "public_transport": "platform"}}, {"type": "node", "id": 11888184735, "lat": 12.833359, "lon": 77.5136882, "tags": {"bus": "yes", "highway": "bus_stop", "loc_name": "Kanakapura Road", "name": "Lakshmipura", "name:kn": "\u0cb2\u0c95\u0ccd\u0cb7\u0ccd\u0cae\u0cbf\u0caa\u0cc1\u0cb0", "public_transport": "platform"}}, {"type": "node", "id": 11888184754, "lat": 12.8251148, "lon": 77.5135674, "tags": {"bus": "yes", "highway": "bus_stop", "loc_name": "Kanakapura Road", "name": "Dayananda Sagar College", "name:kn": "\u0ca6\u0caf\u0cbe\u0ca8\u0c82\u0ca6 \u0cb8\u0cbe\u0c97\u0cb0 \u0c95\u0cbe\u0cb2\u0cc7\u0c9c\u0cc1", "public_transport": "platform"}}, {"type": "node", "id": 12057100544, "lat": 12.8837458, "lon": 77.5413722, "tags": {"bus": "yes", "name": "Gubbalala", "name:en": "Gubbalala", "name:kn": "\u0c97\u0cc1\u0cac\u0ccd\u0cac\u0cb2\u0cbe\u0cb2", "network": "BMTC", "operator": "BMTC", "public_transport": "stop_position"}}, {"type": "node", "id": 12057100545, "lat": 12.8837102, "lon": 77.5413403, "tags": {"highway": "bus_stop", "name": "Gubbalala", "name:en": "Gubbalala", "name:kn": "\u0c97\u0cc1\u0cac\u0ccd\u0cac\u0cb2\u0cbe\u0cb2", "network": "BMTC", "operator": "BMTC", "public_transport": "platform"}}, {"type": "node", "id": 12508633661, "lat": 12.8747772, "lon": 77.5374428, "tags": {"bus": "yes", "name": "Manjunatha Kalyana Mantapa", "name:en": "Manjunatha Kalyana Mantapa", "network": "BMTC", "operator": "BMTC", "public_transport": "stop_position"}}, {"type": "node", "id": 12508633662, "lat": 12.8747129, "lon": 77.5374323, "tags": {"highway": "bus_stop", "name": "Manjunatha Kalyana Mantapa", "name:en": "Manjunatha Kalyana Mantapa", "network": "BMTC", "operator": "BMTC", "public_transport": "platform"}}, {"type": "node", "id": 12508633664, "lat": 12.8748626, "lon": 77.5374785, "tags": {"bus": "yes", "name": "Manjunatha Kalyana Mantapa", "name:en": "Manjunatha Kalyana Mantapa", "network": "BMTC", "operator": "BMTC", "public_transport": "stop_position"}}, {"type": "node", "id": 12511888189, "lat": 12.8611057, "lon": 77.5296914, "tags": {"bus": "yes", "name": "Silk Institute Metro Station", "name:en": "Silk Institute Metro Station", "network": "BMTC", "operator": "BMTC", "public_transport": "stop_position"}}, {"type": "node", "id": 12511888190, "lat": 12.8610895, "lon": 77.5297183, "tags": {"bench": "yes", "covered": "yes", "highway": "bus_stop", "name": "Silk Institute Metro Station", "name:en": "Silk Institute Metro Station", "network": "BMTC", "operator": "BMTC", "public_transport": "platform", "shelter": "yes"}}, {"type": "node", "id": 12512069829, "lat": 12.8769852, "lon": 77.544495}, {"type": "node", "id": 12512069830, "lat": 12.8781186, "lon": 77.5449834}, {"type": "node", "id": 12512069831, "lat": 12.878131, "lon": 77.5449532}, {"type": "node", "id": 12512069832, "lat": 12.8769976, "lon": 77.5444649}, {"type": "node", "id": 12512069833, "lat": 12.8769388, "lon": 77.5446086}, {"type": "node", "id": 12512069834, "lat": 12.8780722, "lon": 77.5450969}, {"type": "node", "id": 12512069835, "lat": 12.8780845, "lon": 77.5450668}, {"type": "node", "id": 12512069836, "lat": 12.8769511, "lon": 77.5445784}, {"type": "node", "id": 12512069837, "lat": 12.8709286, "lon": 77.5379511}, {"type": "node", "id": 12512069838, "lat": 12.8718992, "lon": 77.538725}, {"type": "node", "id": 12512069839, "lat": 12.8719188, "lon": 77.5386992}, {"type": "node", "id": 12512069840, "lat": 12.8709482, "lon": 77.5379253}, {"type": "node", "id": 12512069841, "lat": 12.8708549, "lon": 77.5380484}, {"type": "node", "id": 12512069842, "lat": 12.8718255, "lon": 77.5388223}, {"type": "node", "id": 12512069843, "lat": 12.8718451, "lon": 77.5387964}, {"type": "node", "id": 12512069844, "lat": 12.8708745, "lon": 77.5380225}, {"type": "node", "id": 12512069845, "lat": 12.8620274, "lon": 77.5302043}, {"type": "node", "id": 12512069846, "lat": 12.8609626, "lon": 77.529574}, {"type": "node", "id": 12512069847, "lat": 12.8609466, "lon": 77.5296024}, {"type": "node", "id": 12512069848, "lat": 12.8620114, "lon": 77.5302327}, {"type": "node", "id": 12512069849, "lat": 12.8620874, "lon": 77.5300976}, {"type": "node", "id": 12512069850, "lat": 12.8610226, "lon": 77.5294674}, {"type": "node", "id": 12512069851, "lat": 12.8610066, "lon": 77.5294957}, {"type": "node", "id": 12512069852, "lat": 12.8620714, "lon": 77.530126}, {"type": "node", "id": 12852317293, "lat": 12.8600827, "lon": 77.5290679, "tags": {"bus": "yes", "name": "Jyothi Farm", "name:en": "Jyothi Farm", "network": "BMTC", "operator": "BMTC", "public_transport": "stop_position"}}, {"type": "node", "id": 12852317294, "lat": 12.8600704, "lon": 77.5290906, "tags": {"highway": "bus_stop", "name": "Jyothi Farm", "name:en": "Jyothi Farm", "network": "BMTC", "operator": "BMTC", "public_transport": "platform"}}, {"type": "node", "id": 12852317295, "lat": 12.864708, "lon": 77.5332461, "tags": {"bus": "yes", "name": "Vajramuneshwara Gate", "name:en": "Vajramuneshwara Gate", "network": "BMTC", "operator": "BMTC", "public_transport": "stop_position"}}, {"type": "node", "id": 12852317296, "lat": 12.8646641, "lon": 77.5333004, "tags": {"highway": "bus_stop", "name": "Vajramuneshwara Gate", "name:en": "Vajramuneshwara Gate", "name:kn": "\u0cb5\u0c9c\u0ccd\u0cb0 \u0cae\u0cc1\u0ca8\u0cc7\u0cb6\u0ccd\u0cb5\u0cb0 \u0c97\u0cc7\u0c9f\u0ccd", "network": "BMTC", "operator": "BMTC", "public_transport": "platform"}}, {"type": "node", "id": 12852317297, "lat": 12.8694458, "lon": 77.536901, "tags": {"bus": "yes", "name": "Thalaghattapura", "name:en": "Thalaghattapura", "name:kn": "\u0ca4\u0cb2\u0c98\u0c9f\u0ccd\u0c9f\u0caa\u0cc1\u0cb0", "network": "BMTC", "operator": "BMTC", "public_transport": "stop_position"}}, {"type": "node", "id": 12852317298, "lat": 12.8693996, "lon": 77.5369616, "tags": {"highway": "bus_stop", "name": "Thalaghattapura", "name:en": "Thalaghattapura", "name:kn": "\u0ca4\u0cb2\u0c98\u0c9f\u0ccd\u0c9f\u0caa\u0cc1\u0cb0", "network": "BMTC", "operator": "BMTC", "public_transport": "platform"}}, {"type": "node", "id": 12852317299, "lat": 12.8755314, "lon": 77.5437083, "tags": {"bus": "yes", "name": "Bayyanapalya", "name:en": "Bayyanapalya", "network": "BMTC", "operator": "BMTC", "public_transport": "stop_position"}}, {"type": "node", "id": 12852317300, "lat": 12.8754829, "lon": 77.543757, "tags": {"highway": "bus_stop", "name": "Bayyanapalya", "name:en": "Bayyanapalya", "network": "BMTC", "operator": "BMTC", "public_transport": "platform"}}, {"type": "node", "id": 13016690034, "lat": 12.8002018, "lon": 77.5084045, "tags": {"bus": "yes", "name": "Kaggalipura", "name:en": "Kaggalipura", "name:kn": "\u0c95\u0c97\u0ccd\u0c97\u0cb2\u0cbf\u0caa\u0cc1\u0cb0", "network": "BMTC", "operator": "BMTC", "public_transport": "stop_position"}}, {"type": "node", "id": 13016690035, "lat": 12.8001885, "lon": 77.5084551, "tags": {"bus": "yes", "highway": "bus_stop", "loc_name": "Kanakapura Road", "name": "Kaggalipura", "name:en": "Kaggalipura", "name:kn": "\u0c95\u0c97\u0ccd\u0c97\u0cb2\u0cbf\u0caa\u0cc1\u0cb0", "network": "BMTC", "operator": "BMTC", "public_transport": "platform"}}, {"type": "node", "id": 13016690036, "lat": 12.8001292, "lon": 77.5083207, "tags": {"bus": "yes", "name": "Kaggalipura", "name:en": "Kaggalipura", "name:kn": "\u0c95\u0c97\u0ccd\u0c97\u0cb2\u0cbf\u0caa\u0cc1\u0cb0", "network": "BMTC", "operator": "BMTC", "public_transport": "stop_position"}}, {"type": "node", "id": 13020763145, "lat": 12.8771135, "lon": 77.544516, "tags": {"bus": "yes", "name": "Vajarahalli Metro Station", "name:en": "Vajarahalli Metro Station", "network": "BMTC", "operator": "BMTC", "public_transport": "stop_position"}}, {"type": "node", "id": 13020763146, "lat": 12.8771394, "lon": 77.5444517, "tags": {"highway": "bus_stop", "name": "Vajarahalli Metro Station", "name:en": "Vajarahalli Metro Station", "network": "BMTC", "operator": "BMTC", "public_transport": "platform"}}, {"type": "node", "id": 13020763147, "lat": 12.8692635, "lon": 77.5365838, "tags": {"bus": "yes", "name": "Thalaghattapura", "name:en": "Thalaghattapura", "network": "BMTC", "operator": "BMTC", "public_transport": "stop_position"}}, {"type": "node", "id": 13020763148, "lat": 12.86201, "lon": 77.5298923, "tags": {"bus": "yes", "name": "Silk Institute Metro Station", "name:en": "Silk Institute Metro Station", "network": "BMTC", "operator": "BMTC", "public_transport": "stop_position"}}, {"type": "node", "id": 13020763149, "lat": 12.8619812, "lon": 77.5299396, "tags": {"bench": "yes", "covered": "yes", "highway": "bus_stop", "name": "Silk Institute Metro Station", "name:en": "Silk Institute Metro Station", "network": "BMTC", "operator": "BMTC", "public_transport": "platform", "shelter": "yes"}}, {"type": "node", "id": 13020763150, "lat": 12.8367858, "lon": 77.5159158, "tags": {"bus": "yes", "name": "Shanimahathma Temple", "name:en": "Shanimahathma Temple", "network": "BMTC", "operator": "BMTC", "public_transport": "stop_position"}}, {"type": "node", "id": 13020763151, "lat": 12.8280439, "lon": 77.512679, "tags": {"bus": "yes", "name": "Art of Living Sri Ravishankar Ashram", "name:en": "Art of Living Sri Ravishankar Ashram", "network": "BMTC", "operator": "BMTC", "public_transport": "stop_position"}}, {"type": "node", "id": 13020763152, "lat": 12.8280322, "lon": 77.5126179, "tags": {"highway": "bus_stop", "name": "Art of Living Sri Ravishankar Ashram", "name:en": "Art of Living Sri Ravishankar Ashram", "network": "BMTC", "operator": "BMTC", "public_transport": "platform"}}, {"type": "node", "id": 13088760153, "lat": 13.2665172, "lon": 77.7717315}, {"type": "node", "id": 13088760154, "lat": 13.2671136, "lon": 77.7711892}, {"type": "node", "id": 13088760155, "lat": 13.2674014, "lon": 77.7709162}, {"type": "node", "id": 13088760156, "lat": 13.2677044, "lon": 77.7706153}, {"type": "node", "id": 13088760157, "lat": 13.2678918, "lon": 77.7704209}, {"type": "node", "id": 13088760158, "lat": 13.268078, "lon": 77.770221}, {"type": "node", "id": 13088760159, "lat": 13.2682609, "lon": 77.7700178}, {"type": "node", "id": 13088760160, "lat": 13.2684403, "lon": 77.7698117}, {"type": "node", "id": 13088760161, "lat": 13.2686161, "lon": 77.7696025}, {"type": "node", "id": 13088760162, "lat": 13.2687884, "lon": 77.7693902}, {"type": "node", "id": 13088760163, "lat": 13.2689566, "lon": 77.7691755}, {"type": "node", "id": 13088760164, "lat": 13.269152, "lon": 77.7689166}, {"type": "node", "id": 13088760165, "lat": 13.2693583, "lon": 77.7686318}, {"type": "node", "id": 13088760166, "lat": 13.2695885, "lon": 77.7683022}, {"type": "node", "id": 13088760167, "lat": 13.2698717, "lon": 77.7678854}, {"type": "node", "id": 13088760168, "lat": 13.2854909, "lon": 77.7446177}, {"type": "node", "id": 13088760169, "lat": 13.2858585, "lon": 77.7440611}, {"type": "node", "id": 13088760170, "lat": 13.2860592, "lon": 77.7437415}, {"type": "node", "id": 13088760171, "lat": 13.2862166, "lon": 77.7434752}, {"type": "node", "id": 13088760172, "lat": 13.2866483, "lon": 77.7426341}, {"type": "node", "id": 13088760173, "lat": 13.2869948, "lon": 77.7417761}, {"type": "node", "id": 13088760174, "lat": 13.287263, "lon": 77.7408896}, {"type": "node", "id": 13088760175, "lat": 13.2874505, "lon": 77.7399819}, {"type": "node", "id": 13088760176, "lat": 13.2875561, "lon": 77.7390604}, {"type": "node", "id": 13088760177, "lat": 13.2875787, "lon": 77.738133}, {"type": "node", "id": 13088760178, "lat": 13.2875181, "lon": 77.7372074}, {"type": "node", "id": 13088760179, "lat": 13.2873748, "lon": 77.7362913}, {"type": "node", "id": 13088760180, "lat": 13.2871431, "lon": 77.735364}, {"type": "node", "id": 13088760181, "lat": 13.2871266, "lon": 77.7353095}, {"type": "node", "id": 13088760182, "lat": 13.2870067, "lon": 77.7349404}, {"type": "node", "id": 13088760183, "lat": 13.2868474, "lon": 77.734492}, {"type": "node", "id": 13088760184, "lat": 13.2860188, "lon": 77.7322928}, {"type": "node", "id": 13088760185, "lat": 13.2858137, "lon": 77.7317304}, {"type": "node", "id": 13088760186, "lat": 13.2857146, "lon": 77.7314403}, {"type": "node", "id": 13088760187, "lat": 13.2856198, "lon": 77.7311424}, {"type": "node", "id": 13088760188, "lat": 13.2854585, "lon": 77.7305561}, {"type": "node", "id": 13088760189, "lat": 13.2853364, "lon": 77.7299991}, {"type": "node", "id": 13088760190, "lat": 13.2852429, "lon": 77.7294382}, {"type": "node", "id": 13088760191, "lat": 13.2851776, "lon": 77.7288731}, {"type": "node", "id": 13088760192, "lat": 13.2851409, "lon": 77.7283051}, {"type": "node", "id": 13088760193, "lat": 13.2851328, "lon": 77.727736}, {"type": "node", "id": 13088760194, "lat": 13.2851534, "lon": 77.7271672}, {"type": "node", "id": 13088760195, "lat": 13.2852027, "lon": 77.7265988}, {"type": "node", "id": 13088760196, "lat": 13.2852871, "lon": 77.7259959}, {"type": "node", "id": 13088760197, "lat": 13.2853428, "lon": 77.7256877}, {"type": "node", "id": 13088760198, "lat": 13.2854039, "lon": 77.7253855}, {"type": "node", "id": 13088760199, "lat": 13.2855687, "lon": 77.7246558}, {"type": "node", "id": 13088760200, "lat": 13.2872949, "lon": 77.7173301}, {"type": "node", "id": 13088802301, "lat": 13.2874152, "lon": 77.7167839}, {"type": "node", "id": 13088802302, "lat": 13.2874918, "lon": 77.7163837}, {"type": "node", "id": 13088802303, "lat": 13.2875309, "lon": 77.7161428}, {"type": "node", "id": 13088802304, "lat": 13.2875753, "lon": 77.7158048}, {"type": "node", "id": 13088802305, "lat": 13.2876072, "lon": 77.7154693}, {"type": "node", "id": 13088802306, "lat": 13.2876271, "lon": 77.7151329}, {"type": "node", "id": 13088802307, "lat": 13.2876349, "lon": 77.7147961}, {"type": "node", "id": 13088802308, "lat": 13.2876306, "lon": 77.7144592}, {"type": "node", "id": 13088802309, "lat": 13.2876143, "lon": 77.7141227}, {"type": "node", "id": 13088802310, "lat": 13.2875859, "lon": 77.7137868}, {"type": "node", "id": 13088802311, "lat": 13.287546, "lon": 77.713456}, {"type": "node", "id": 13088802312, "lat": 13.2874738, "lon": 77.7130127}, {"type": "node", "id": 13088802313, "lat": 13.2874369, "lon": 77.7128242}, {"type": "node", "id": 13088802314, "lat": 13.2873844, "lon": 77.7125809}, {"type": "node", "id": 13088802315, "lat": 13.2872518, "lon": 77.7120334}, {"type": "node", "id": 13088802316, "lat": 13.2833351, "lon": 77.6971187}, {"type": "node", "id": 13088802317, "lat": 13.2832017, "lon": 77.6966029}, {"type": "node", "id": 13088802318, "lat": 13.2831051, "lon": 77.6962125}, {"type": "node", "id": 13088802319, "lat": 13.282876, "lon": 77.6951653}, {"type": "node", "id": 13088802320, "lat": 13.2826886, "lon": 77.6940996}, {"type": "node", "id": 13088802321, "lat": 13.2825449, "lon": 77.6930268}, {"type": "node", "id": 13088802322, "lat": 13.2824455, "lon": 77.6919488}, {"type": "node", "id": 13088802323, "lat": 13.2823903, "lon": 77.6908675}, {"type": "node", "id": 13088802324, "lat": 13.2823796, "lon": 77.6897847}, {"type": "node", "id": 13088802325, "lat": 13.2824134, "lon": 77.6887024}, {"type": "node", "id": 13088802326, "lat": 13.2824916, "lon": 77.6876226}, {"type": "node", "id": 13088802327, "lat": 13.2826129, "lon": 77.6865561}, {"type": "node", "id": 13088802328, "lat": 13.2826795, "lon": 77.6860887}, {"type": "node", "id": 13088802329, "lat": 13.2827606, "lon": 77.6855594}, {"type": "node", "id": 13088802330, "lat": 13.2843046, "lon": 77.6756775}, {"type": "node", "id": 13088802331, "lat": 13.2843919, "lon": 77.6751619}, {"type": "node", "id": 13088802332, "lat": 13.2844678, "lon": 77.6747558}, {"type": "node", "id": 13088802333, "lat": 13.2849542, "lon": 77.6728328}, {"type": "node", "id": 13088802334, "lat": 13.2856542, "lon": 77.6709464}, {"type": "node", "id": 13088802335, "lat": 13.2865517, "lon": 77.6691494}, {"type": "node", "id": 13088802336, "lat": 13.2876356, "lon": 77.6674635}, {"type": "node", "id": 13088802337, "lat": 13.2888932, "lon": 77.6659087}, {"type": "node", "id": 13088802338, "lat": 13.2903093, "lon": 77.6645034}, {"type": "node", "id": 13088802339, "lat": 13.291867, "lon": 77.6632647}, {"type": "node", "id": 13088802340, "lat": 13.2935475, "lon": 77.6622071}, {"type": "node", "id": 13088802341, "lat": 13.2953029, "lon": 77.6613567}, {"type": "node", "id": 13088802342, "lat": 13.2956345, "lon": 77.6612216}, {"type": "node", "id": 13088802343, "lat": 13.2959402, "lon": 77.661102}, {"type": "node", "id": 13088802344, "lat": 13.2964185, "lon": 77.6609214}, {"type": "node", "id": 13088802345, "lat": 13.3023261, "lon": 77.6587297}, {"type": "node", "id": 13088802346, "lat": 13.3027436, "lon": 77.6585694}, {"type": "node", "id": 13088802347, "lat": 13.3033436, "lon": 77.6583304}, {"type": "node", "id": 13088802348, "lat": 13.3039395, "lon": 77.6580831}, {"type": "node", "id": 13088802349, "lat": 13.3044953, "lon": 77.6578436}, {"type": "node", "id": 13088802350, "lat": 13.3181726, "lon": 77.6518575}, {"type": "node", "id": 13088802351, "lat": 13.3188601, "lon": 77.6515501}, {"type": "node", "id": 13088802352, "lat": 13.3191257, "lon": 77.6514254}, {"type": "node", "id": 13088802353, "lat": 13.3194302, "lon": 77.6512752}, {"type": "node", "id": 13088802354, "lat": 13.3200694, "lon": 77.650929}, {"type": "node", "id": 13088802355, "lat": 13.3206813, "lon": 77.6505541}, {"type": "node", "id": 13088802356, "lat": 13.321273, "lon": 77.6501469}, {"type": "node", "id": 13088802357, "lat": 13.3218428, "lon": 77.6497087}, {"type": "node", "id": 13088802358, "lat": 13.3223892, "lon": 77.6492403}, {"type": "node", "id": 13088802359, "lat": 13.3229107, "lon": 77.6487433}, {"type": "node", "id": 13088802360, "lat": 13.3234059, "lon": 77.6482192}, {"type": "node", "id": 13088802361, "lat": 13.3238732, "lon": 77.6476691}, {"type": "node", "id": 13088802362, "lat": 13.3243211, "lon": 77.6470823}, {"type": "node", "id": 13088802363, "lat": 13.3243658, "lon": 77.64702}, {"type": "node", "id": 13088802364, "lat": 13.3246277, "lon": 77.6466415}, {"type": "node", "id": 13088802365, "lat": 13.3249324, "lon": 77.646179}, {"type": "node", "id": 13088802366, "lat": 13.3271535, "lon": 77.6427087}, {"type": "node", "id": 13088802367, "lat": 13.3273372, "lon": 77.6424114}, {"type": "node", "id": 13088802368, "lat": 13.3274924, "lon": 77.6421519}, {"type": "node", "id": 13088802369, "lat": 13.3276158, "lon": 77.6419373}, {"type": "node", "id": 13088802370, "lat": 13.3277797, "lon": 77.6416384}, {"type": "node", "id": 13088802371, "lat": 13.3279352, "lon": 77.6413378}, {"type": "node", "id": 13088802372, "lat": 13.3280834, "lon": 77.6410334}, {"type": "node", "id": 13088802373, "lat": 13.3282242, "lon": 77.6407255}, {"type": "node", "id": 13088802374, "lat": 13.3283575, "lon": 77.6404141}, {"type": "node", "id": 13088802375, "lat": 13.3284832, "lon": 77.6400995}, {"type": "node", "id": 13088802376, "lat": 13.3286014, "lon": 77.6397818}, {"type": "node", "id": 13088802377, "lat": 13.3287116, "lon": 77.6394624}, {"type": "node", "id": 13088802378, "lat": 13.3288287, "lon": 77.6390919}, {"type": "node", "id": 13088802379, "lat": 13.3289675, "lon": 77.6386034}, {"type": "node", "id": 13088802380, "lat": 13.3291194, "lon": 77.6380144}, {"type": "node", "id": 13088802381, "lat": 13.330346, "lon": 77.6330081}, {"type": "node", "id": 13088802382, "lat": 13.3304585, "lon": 77.6325179}, {"type": "node", "id": 13088802383, "lat": 13.3305331, "lon": 77.6321422}, {"type": "node", "id": 13088802384, "lat": 13.3305498, "lon": 77.6320457}, {"type": "node", "id": 13088802385, "lat": 13.330623, "lon": 77.6314965}, {"type": "node", "id": 13088802386, "lat": 13.3306602, "lon": 77.6309614}, {"type": "node", "id": 13088802387, "lat": 13.3306634, "lon": 77.630425}, {"type": "node", "id": 13088802388, "lat": 13.3306326, "lon": 77.6298896}, {"type": "node", "id": 13088802389, "lat": 13.330568, "lon": 77.6293571}, {"type": "node", "id": 13088802390, "lat": 13.3304698, "lon": 77.62883}, {"type": "node", "id": 13088802391, "lat": 13.3303385, "lon": 77.6283106}, {"type": "node", "id": 13088802392, "lat": 13.3301745, "lon": 77.6278007}, {"type": "node", "id": 13088802393, "lat": 13.3299755, "lon": 77.6272948}, {"type": "node", "id": 13088802394, "lat": 13.3298249, "lon": 77.6269635}, {"type": "node", "id": 13088802395, "lat": 13.3296017, "lon": 77.6265145}, {"type": "node", "id": 13088802396, "lat": 13.3271931, "lon": 77.6219195}, {"type": "node", "id": 13088802397, "lat": 13.3269412, "lon": 77.6214276}, {"type": "node", "id": 13088802398, "lat": 13.3267449, "lon": 77.6210248}, {"type": "node", "id": 13088802399, "lat": 13.3266461, "lon": 77.6208117}, {"type": "node", "id": 13088802400, "lat": 13.3261736, "lon": 77.6196313}, {"type": "node", "id": 13088802401, "lat": 13.325804, "lon": 77.6183839}, {"type": "node", "id": 13088802402, "lat": 13.3255509, "lon": 77.6171065}, {"type": "node", "id": 13088802403, "lat": 13.3254165, "lon": 77.6158104}, {"type": "node", "id": 13088802404, "lat": 13.3254022, "lon": 77.6145071}, {"type": "node", "id": 13088802405, "lat": 13.3255078, "lon": 77.6132082}, {"type": "node", "id": 13088802406, "lat": 13.3257326, "lon": 77.6119253}, {"type": "node", "id": 13088802407, "lat": 13.3260744, "lon": 77.6106697}, {"type": "node", "id": 13088802408, "lat": 13.3265233, "lon": 77.6094717}, {"type": "node", "id": 13088802409, "lat": 13.3267574, "lon": 77.6089506}, {"type": "node", "id": 13088802410, "lat": 13.3269327, "lon": 77.6085837}, {"type": "node", "id": 13088802411, "lat": 13.3271324, "lon": 77.6081775}, {"type": "node", "id": 13088802412, "lat": 13.3336438, "lon": 77.5950569}, {"type": "node", "id": 13088802413, "lat": 13.333945, "lon": 77.5944284}, {"type": "node", "id": 13088802414, "lat": 13.3341556, "lon": 77.5939618}, {"type": "node", "id": 13088802415, "lat": 13.3343563, "lon": 77.5934898}, {"type": "node", "id": 13088802416, "lat": 13.3345465, "lon": 77.5930136}, {"type": "node", "id": 13088802417, "lat": 13.3347263, "lon": 77.5925329}, {"type": "node", "id": 13088802418, "lat": 13.3348957, "lon": 77.5920484}, {"type": "node", "id": 13088802419, "lat": 13.3350543, "lon": 77.5915603}, {"type": "node", "id": 13088802420, "lat": 13.3352022, "lon": 77.5910686}, {"type": "node", "id": 13088802421, "lat": 13.3353393, "lon": 77.5905735}, {"type": "node", "id": 13088802422, "lat": 13.335466, "lon": 77.5900744}, {"type": "node", "id": 13088802423, "lat": 13.3355792, "lon": 77.589587}, {"type": "node", "id": 13088802424, "lat": 13.3361879, "lon": 77.5867705}, {"type": "node", "id": 13088802425, "lat": 13.3363249, "lon": 77.5861637}, {"type": "node", "id": 13088802426, "lat": 13.3365402, "lon": 77.5853192}, {"type": "node", "id": 13088802427, "lat": 13.3367441, "lon": 77.5846206}, {"type": "node", "id": 13088802428, "lat": 13.3369686, "lon": 77.5839313}, {"type": "node", "id": 13088802429, "lat": 13.3372143, "lon": 77.5832494}, {"type": "node", "id": 13088802430, "lat": 13.3374808, "lon": 77.582576}, {"type": "node", "id": 13088802431, "lat": 13.337768, "lon": 77.5819112}, {"type": "node", "id": 13088802432, "lat": 13.3380756, "lon": 77.5812561}, {"type": "node", "id": 13088802433, "lat": 13.3384031, "lon": 77.5806113}, {"type": "node", "id": 13088802434, "lat": 13.338748, "lon": 77.5799818}, {"type": "node", "id": 13088802435, "lat": 13.338963, "lon": 77.5796104}, {"type": "node", "id": 13088802436, "lat": 13.3392773, "lon": 77.5790838}, {"type": "node", "id": 13088802437, "lat": 13.3450274, "lon": 77.5695449}, {"type": "node", "id": 13088802438, "lat": 13.3453237, "lon": 77.569048}, {"type": "node", "id": 13088802439, "lat": 13.3455357, "lon": 77.5686817}, {"type": "node", "id": 13088802440, "lat": 13.3457418, "lon": 77.5683113}, {"type": "node", "id": 13088802441, "lat": 13.3459407, "lon": 77.5679377}, {"type": "node", "id": 13088802442, "lat": 13.3461328, "lon": 77.5675606}, {"type": "node", "id": 13088802443, "lat": 13.3463181, "lon": 77.5671798}, {"type": "node", "id": 13088802444, "lat": 13.3464966, "lon": 77.5667956}, {"type": "node", "id": 13088802445, "lat": 13.3466681, "lon": 77.566408}, {"type": "node", "id": 13088802446, "lat": 13.3468325, "lon": 77.5660175}, {"type": "node", "id": 13088802447, "lat": 13.346989, "lon": 77.5656259}, {"type": "node", "id": 13088802448, "lat": 13.3471928, "lon": 77.5650824}, {"type": "node", "id": 13088802449, "lat": 13.3474359, "lon": 77.5643873}, {"type": "node", "id": 13088802450, "lat": 13.3508603, "lon": 77.5543027}, {"type": "node", "id": 13088802451, "lat": 13.3510071, "lon": 77.5538523}, {"type": "node", "id": 13088802452, "lat": 13.3511285, "lon": 77.5534576}, {"type": "node", "id": 13088802453, "lat": 13.3514319, "lon": 77.5523018}, {"type": "node", "id": 13088802454, "lat": 13.3516593, "lon": 77.5511432}, {"type": "node", "id": 13088802455, "lat": 13.3518136, "lon": 77.549972}, {"type": "node", "id": 13088802456, "lat": 13.3518942, "lon": 77.5487934}, {"type": "node", "id": 13088802457, "lat": 13.3519007, "lon": 77.5476118}, {"type": "node", "id": 13088802458, "lat": 13.3518331, "lon": 77.5464323}, {"type": "node", "id": 13088802459, "lat": 13.3516917, "lon": 77.5452596}, {"type": "node", "id": 13088802460, "lat": 13.351477, "lon": 77.5440984}, {"type": "node", "id": 13088802461, "lat": 13.3511861, "lon": 77.5429385}, {"type": "node", "id": 13088802462, "lat": 13.3510833, "lon": 77.5425893}, {"type": "node", "id": 13088802463, "lat": 13.3509418, "lon": 77.542136}, {"type": "node", "id": 13088802464, "lat": 13.3451175, "lon": 77.5243472}, {"type": "node", "id": 13088802465, "lat": 13.3449537, "lon": 77.5238711}, {"type": "node", "id": 13088802466, "lat": 13.3447969, "lon": 77.5234439}, {"type": "node", "id": 13088802467, "lat": 13.3446535, "lon": 77.5230807}, {"type": "node", "id": 13088802468, "lat": 13.3445014, "lon": 77.5227211}, {"type": "node", "id": 13088802469, "lat": 13.3443407, "lon": 77.522365}, {"type": "node", "id": 13088802470, "lat": 13.3441716, "lon": 77.522013}, {"type": "node", "id": 13088802471, "lat": 13.3439944, "lon": 77.5216657}, {"type": "node", "id": 13088802472, "lat": 13.3438087, "lon": 77.5213226}, {"type": "node", "id": 13088802473, "lat": 13.3436149, "lon": 77.5209841}, {"type": "node", "id": 13088802474, "lat": 13.3434131, "lon": 77.5206505}, {"type": "node", "id": 13088802475, "lat": 13.3432024, "lon": 77.5203201}, {"type": "node", "id": 13088802476, "lat": 13.3430367, "lon": 77.520072}, {"type": "node", "id": 13088802477, "lat": 13.342838, "lon": 77.5197844}, {"type": "node", "id": 13088802478, "lat": 13.3423366, "lon": 77.5190856}, {"type": "node", "id": 13088802479, "lat": 13.3287741, "lon": 77.5004118}, {"type": "node", "id": 13088802480, "lat": 13.3285412, "lon": 77.5000833}, {"type": "node", "id": 13088802481, "lat": 13.3283429, "lon": 77.499795}, {"type": "node", "id": 13088802482, "lat": 13.3282007, "lon": 77.4995816}, {"type": "node", "id": 13088802483, "lat": 13.3279973, "lon": 77.4992629}, {"type": "node", "id": 13088802484, "lat": 13.3277997, "lon": 77.498937}, {"type": "node", "id": 13088802485, "lat": 13.3276099, "lon": 77.4986063}, {"type": "node", "id": 13088802486, "lat": 13.3274279, "lon": 77.4982713}, {"type": "node", "id": 13088802487, "lat": 13.3272536, "lon": 77.4979318}, {"type": "node", "id": 13088802488, "lat": 13.3270872, "lon": 77.497588}, {"type": "node", "id": 13088802489, "lat": 13.3269289, "lon": 77.4972405}, {"type": "node", "id": 13088802490, "lat": 13.3267787, "lon": 77.4968891}, {"type": "node", "id": 13088802491, "lat": 13.3266371, "lon": 77.4965354}, {"type": "node", "id": 13088802492, "lat": 13.3265124, "lon": 77.4962029}, {"type": "node", "id": 13088802493, "lat": 13.3263771, "lon": 77.4958221}, {"type": "node", "id": 13088802494, "lat": 13.3261837, "lon": 77.495251}, {"type": "node", "id": 13088802495, "lat": 13.3205874, "lon": 77.4784286}, {"type": "node", "id": 13088802496, "lat": 13.3203738, "lon": 77.4778073}, {"type": "node", "id": 13088802497, "lat": 13.3201876, "lon": 77.4773035}, {"type": "node", "id": 13088802498, "lat": 13.319633, "lon": 77.4760303}, {"type": "node", "id": 13088802499, "lat": 13.3189833, "lon": 77.4748266}, {"type": "node", "id": 13088802500, "lat": 13.3182356, "lon": 77.4736835}, {"type": "node", "id": 13088802501, "lat": 13.3173952, "lon": 77.4726094}, {"type": "node", "id": 13088802502, "lat": 13.3164682, "lon": 77.4716121}, {"type": "node", "id": 13088802503, "lat": 13.3154614, "lon": 77.4706987}, {"type": "node", "id": 13088802504, "lat": 13.3143821, "lon": 77.469876}, {"type": "node", "id": 13088802505, "lat": 13.3132379, "lon": 77.4691499}, {"type": "node", "id": 13088802506, "lat": 13.3120146, "lon": 77.468514}, {"type": "node", "id": 13088802507, "lat": 13.3119081, "lon": 77.468465}, {"type": "node", "id": 13088802508, "lat": 13.3114468, "lon": 77.468262}, {"type": "node", "id": 13088802509, "lat": 13.3108016, "lon": 77.4679936}, {"type": "node", "id": 13088802510, "lat": 13.2740837, "lon": 77.4530294}, {"type": "node", "id": 13088802511, "lat": 13.2734439, "lon": 77.4527617}, {"type": "node", "id": 13088802512, "lat": 13.2729173, "lon": 77.4525259}, {"type": "node", "id": 13088802513, "lat": 13.2712359, "lon": 77.4516113}, {"type": "node", "id": 13088802514, "lat": 13.269651, "lon": 77.450475}, {"type": "node", "id": 13088802515, "lat": 13.2682139, "lon": 77.449149}, {"type": "node", "id": 13088802516, "lat": 13.2669462, "lon": 77.4476534}, {"type": "node", "id": 13088802517, "lat": 13.2658671, "lon": 77.4460103}, {"type": "node", "id": 13088802518, "lat": 13.2649926, "lon": 77.4442446}, {"type": "node", "id": 13088802519, "lat": 13.2643363, "lon": 77.4423826}, {"type": "node", "id": 13088802520, "lat": 13.2639079, "lon": 77.4404524}, {"type": "node", "id": 13088802521, "lat": 13.2637171, "lon": 77.4385143}, {"type": "node", "id": 13088802522, "lat": 13.263703, "lon": 77.4378779}, {"type": "node", "id": 13088802523, "lat": 13.2637038, "lon": 77.4372212}, {"type": "node", "id": 13088802524, "lat": 13.2638413, "lon": 77.4225595}, {"type": "node", "id": 13088802525, "lat": 13.263839, "lon": 77.4219049}, {"type": "node", "id": 13088802526, "lat": 13.2638301, "lon": 77.4214547}, {"type": "node", "id": 13088802527, "lat": 13.2638151, "lon": 77.4210052}, {"type": "node", "id": 13088802528, "lat": 13.2637806, "lon": 77.4203236}, {"type": "node", "id": 13088802529, "lat": 13.2637451, "lon": 77.4198051}, {"type": "node", "id": 13088802530, "lat": 13.2636899, "lon": 77.4191201}, {"type": "node", "id": 13088802531, "lat": 13.2589839, "lon": 77.3626927}, {"type": "node", "id": 13088802532, "lat": 13.2589361, "lon": 77.3621384}, {"type": "node", "id": 13088802533, "lat": 13.2588921, "lon": 77.3616869}, {"type": "node", "id": 13088802534, "lat": 13.2588364, "lon": 77.3612146}, {"type": "node", "id": 13088802535, "lat": 13.2584685, "lon": 77.3592941}, {"type": "node", "id": 13088802536, "lat": 13.2578885, "lon": 77.3574623}, {"type": "node", "id": 13088802537, "lat": 13.2570989, "lon": 77.3557138}, {"type": "node", "id": 13088802538, "lat": 13.2561107, "lon": 77.3540735}, {"type": "node", "id": 13088802539, "lat": 13.254938, "lon": 77.3525648}, {"type": "node", "id": 13088802540, "lat": 13.2535973, "lon": 77.3512091}, {"type": "node", "id": 13088802541, "lat": 13.2521077, "lon": 77.3500259}, {"type": "node", "id": 13088802542, "lat": 13.2504904, "lon": 77.349032}, {"type": "node", "id": 13088802543, "lat": 13.248737, "lon": 77.3482274}, {"type": "node", "id": 13088802544, "lat": 13.2484902, "lon": 77.3481343}, {"type": "node", "id": 13088802545, "lat": 13.2482137, "lon": 77.3480348}, {"type": "node", "id": 13088802546, "lat": 13.2474067, "lon": 77.3477607}, {"type": "node", "id": 13088802547, "lat": 13.2028851, "lon": 77.3329884}, {"type": "node", "id": 13088802548, "lat": 13.202416, "lon": 77.3328273}, {"type": "node", "id": 13088802549, "lat": 13.2020458, "lon": 77.3326931}, {"type": "node", "id": 13088802550, "lat": 13.2018488, "lon": 77.3326182}, {"type": "node", "id": 13088802551, "lat": 13.2013162, "lon": 77.3324003}, {"type": "node", "id": 13088802552, "lat": 13.2007842, "lon": 77.332159}, {"type": "node", "id": 13088802553, "lat": 13.2002612, "lon": 77.3318979}, {"type": "node", "id": 13088802554, "lat": 13.1997478, "lon": 77.3316172}, {"type": "node", "id": 13088802555, "lat": 13.1992453, "lon": 77.3313175}, {"type": "node", "id": 13088802556, "lat": 13.1987536, "lon": 77.3309992}, {"type": "node", "id": 13088802557, "lat": 13.1982736, "lon": 77.3306624}, {"type": "node", "id": 13088802558, "lat": 13.1978062, "lon": 77.3303077}, {"type": "node", "id": 13088802559, "lat": 13.1973542, "lon": 77.3299377}, {"type": "node", "id": 13088802560, "lat": 13.1969776, "lon": 77.3296082}, {"type": "node", "id": 13088802561, "lat": 13.19668, "lon": 77.3293374}, {"type": "node", "id": 13088802562, "lat": 13.1962784, "lon": 77.3289634}, {"type": "node", "id": 13088802563, "lat": 13.1822283, "lon": 77.3157901}, {"type": "node", "id": 13088802564, "lat": 13.1816373, "lon": 77.3152454}, {"type": "node", "id": 13088802565, "lat": 13.1812327, "lon": 77.3148906}, {"type": "node", "id": 13088802566, "lat": 13.1804135, "lon": 77.3142391}, {"type": "node", "id": 13088802567, "lat": 13.1795643, "lon": 77.3136498}, {"type": "node", "id": 13088802568, "lat": 13.1786792, "lon": 77.3131178}, {"type": "node", "id": 13088802569, "lat": 13.1777621, "lon": 77.3126455}, {"type": "node", "id": 13088802570, "lat": 13.1768169, "lon": 77.312235}, {"type": "node", "id": 13088802571, "lat": 13.1758476, "lon": 77.3118878}, {"type": "node", "id": 13088802572, "lat": 13.1748581, "lon": 77.3116056}, {"type": "node", "id": 13088802573, "lat": 13.1738527, "lon": 77.3113894}, {"type": "node", "id": 13088802574, "lat": 13.1728171, "lon": 77.3112375}, {"type": "node", "id": 13088802575, "lat": 13.1726941, "lon": 77.3112242}, {"type": "node", "id": 13088802576, "lat": 13.1721932, "lon": 77.3111786}, {"type": "node", "id": 13088802577, "lat": 13.1715981, "lon": 77.3111362}, {"type": "node", "id": 13088802578, "lat": 13.1543056, "lon": 77.3100422}, {"type": "node", "id": 13088802579, "lat": 13.1539088, "lon": 77.3100111}, {"type": "node", "id": 13088802580, "lat": 13.1535562, "lon": 77.3099778}, {"type": "node", "id": 13088802581, "lat": 13.1528909, "lon": 77.3098942}, {"type": "node", "id": 13088802582, "lat": 13.1523626, "lon": 77.3098067}, {"type": "node", "id": 13088802583, "lat": 13.1518407, "lon": 77.3097017}, {"type": "node", "id": 13088802584, "lat": 13.1513225, "lon": 77.3095789}, {"type": "node", "id": 13088802585, "lat": 13.1508087, "lon": 77.3094383}, {"type": "node", "id": 13088802586, "lat": 13.1502997, "lon": 77.3092802}, {"type": "node", "id": 13088802587, "lat": 13.1497963, "lon": 77.3091046}, {"type": "node", "id": 13088802588, "lat": 13.1492989, "lon": 77.3089118}, {"type": "node", "id": 13088802589, "lat": 13.1488133, "lon": 77.3087042}, {"type": "node", "id": 13088802590, "lat": 13.1485352, "lon": 77.3085768}, {"type": "node", "id": 13088802591, "lat": 13.1481344, "lon": 77.3083839}, {"type": "node", "id": 13088802592, "lat": 13.1476905, "lon": 77.308162}, {"type": "node", "id": 13088802593, "lat": 13.1387675, "lon": 77.303629}, {"type": "node", "id": 13088802594, "lat": 13.1383205, "lon": 77.3034095}, {"type": "node", "id": 13088802595, "lat": 13.1379674, "lon": 77.3032442}, {"type": "node", "id": 13088802596, "lat": 13.1372642, "lon": 77.3029442}, {"type": "node", "id": 13088802597, "lat": 13.1366527, "lon": 77.3027152}, {"type": "node", "id": 13088802598, "lat": 13.1360307, "lon": 77.3025116}, {"type": "node", "id": 13088802599, "lat": 13.1354009, "lon": 77.3023344}, {"type": "node", "id": 13088802600, "lat": 13.1347644, "lon": 77.3021838}, {"type": "node", "id": 13088802601, "lat": 13.1341223, "lon": 77.3020602}, {"type": "node", "id": 13088802602, "lat": 13.1334757, "lon": 77.3019636}, {"type": "node", "id": 13088802603, "lat": 13.1328258, "lon": 77.3018944}, {"type": "node", "id": 13088802604, "lat": 13.1321657, "lon": 77.3018521}, {"type": "node", "id": 13088802605, "lat": 13.1318785, "lon": 77.3018423}, {"type": "node", "id": 13088802606, "lat": 13.1314302, "lon": 77.3018353}, {"type": "node", "id": 13088802607, "lat": 13.1308333, "lon": 77.3018357}, {"type": "node", "id": 13088802608, "lat": 13.1107036, "lon": 77.3019667}, {"type": "node", "id": 13088802609, "lat": 13.1101063, "lon": 77.3019762}, {"type": "node", "id": 13088802610, "lat": 13.1097137, "lon": 77.3019897}, {"type": "node", "id": 13088802611, "lat": 13.1091961, "lon": 77.3020206}, {"type": "node", "id": 13088802612, "lat": 13.108888, "lon": 77.3020473}, {"type": "node", "id": 13088802613, "lat": 13.1085764, "lon": 77.3020806}, {"type": "node", "id": 13088802614, "lat": 13.1082655, "lon": 77.3021201}, {"type": "node", "id": 13088802615, "lat": 13.1079554, "lon": 77.302166}, {"type": "node", "id": 13088802616, "lat": 13.1076464, "lon": 77.302218}, {"type": "node", "id": 13088802617, "lat": 13.1073384, "lon": 77.3022763}, {"type": "node", "id": 13088802618, "lat": 13.1070345, "lon": 77.3023402}, {"type": "node", "id": 13088802619, "lat": 13.1065806, "lon": 77.3024475}, {"type": "node", "id": 13088802620, "lat": 13.1061492, "lon": 77.3025613}, {"type": "node", "id": 13088802621, "lat": 13.1056223, "lon": 77.302711}, {"type": "node", "id": 13088802622, "lat": 13.1000624, "lon": 77.3043501}, {"type": "node", "id": 13088802623, "lat": 13.0993026, "lon": 77.3045672}, {"type": "node", "id": 13088802624, "lat": 13.0987725, "lon": 77.3047042}, {"type": "node", "id": 13088802625, "lat": 13.0982126, "lon": 77.3048287}, {"type": "node", "id": 13088802626, "lat": 13.097647, "lon": 77.3049326}, {"type": "node", "id": 13088802627, "lat": 13.0970791, "lon": 77.3050153}, {"type": "node", "id": 13088802628, "lat": 13.0964879, "lon": 77.3050802}, {"type": "node", "id": 13088802629, "lat": 13.0957006, "lon": 77.3051463}, {"type": "node", "id": 13088802630, "lat": 13.0615854, "lon": 77.3077624}, {"type": "node", "id": 13088802631, "lat": 13.0610909, "lon": 77.3078018}, {"type": "node", "id": 13088802632, "lat": 13.0606988, "lon": 77.3078373}, {"type": "node", "id": 13088802633, "lat": 13.0601851, "lon": 77.3078943}, {"type": "node", "id": 13088802634, "lat": 13.0581986, "lon": 77.3082763}, {"type": "node", "id": 13088802635, "lat": 13.0563054, "lon": 77.3088996}, {"type": "node", "id": 13088802636, "lat": 13.0545041, "lon": 77.30976}, {"type": "node", "id": 13088802637, "lat": 13.0528231, "lon": 77.3108439}, {"type": "node", "id": 13088802638, "lat": 13.051289, "lon": 77.3121342}, {"type": "node", "id": 13088802639, "lat": 13.0499259, "lon": 77.3136101}, {"type": "node", "id": 13088802640, "lat": 13.0487555, "lon": 77.3152486}, {"type": "node", "id": 13088802641, "lat": 13.047796, "lon": 77.3170234}, {"type": "node", "id": 13088802642, "lat": 13.0470491, "lon": 77.3189409}, {"type": "node", "id": 13088802643, "lat": 13.046956, "lon": 77.3192422}, {"type": "node", "id": 13088802644, "lat": 13.0468297, "lon": 77.3196796}, {"type": "node", "id": 13088802645, "lat": 13.0466698, "lon": 77.3202655}, {"type": "node", "id": 13088802646, "lat": 13.0408323, "lon": 77.3420445}, {"type": "node", "id": 13088802647, "lat": 13.0406593, "lon": 77.3426768}, {"type": "node", "id": 13088802648, "lat": 13.0405051, "lon": 77.3432026}, {"type": "node", "id": 13088802649, "lat": 13.0404386, "lon": 77.3434146}, {"type": "node", "id": 13088802650, "lat": 13.0401654, "lon": 77.344198}, {"type": "node", "id": 13088802651, "lat": 13.0398471, "lon": 77.3449787}, {"type": "node", "id": 13088802652, "lat": 13.0394891, "lon": 77.3457413}, {"type": "node", "id": 13088802653, "lat": 13.0390923, "lon": 77.3464837}, {"type": "node", "id": 13088802654, "lat": 13.0386582, "lon": 77.3472038}, {"type": "node", "id": 13088802655, "lat": 13.0381876, "lon": 77.3478997}, {"type": "node", "id": 13088802656, "lat": 13.0376819, "lon": 77.3485694}, {"type": "node", "id": 13088802657, "lat": 13.0371425, "lon": 77.3492111}, {"type": "node", "id": 13088802658, "lat": 13.0365813, "lon": 77.3498121}, {"type": "node", "id": 13088802659, "lat": 13.0364604, "lon": 77.3499338}, {"type": "node", "id": 13088802660, "lat": 13.036107, "lon": 77.3502778}, {"type": "node", "id": 13088802661, "lat": 13.0356703, "lon": 77.3506867}, {"type": "node", "id": 13088802662, "lat": 13.0072353, "lon": 77.376893}, {"type": "node", "id": 13088802663, "lat": 13.0069375, "lon": 77.3771619}, {"type": "node", "id": 13088802664, "lat": 13.0066393, "lon": 77.3774233}, {"type": "node", "id": 13088802665, "lat": 13.0064439, "lon": 77.377589}, {"type": "node", "id": 13088802666, "lat": 13.0061261, "lon": 77.3778475}, {"type": "node", "id": 13088802667, "lat": 13.005799, "lon": 77.3780997}, {"type": "node", "id": 13088802668, "lat": 13.0054655, "lon": 77.3783431}, {"type": "node", "id": 13088802669, "lat": 13.0051261, "lon": 77.3785776}, {"type": "node", "id": 13088802670, "lat": 13.0047806, "lon": 77.3788032}, {"type": "node", "id": 13088802671, "lat": 13.0044296, "lon": 77.3790194}, {"type": "node", "id": 13088802672, "lat": 13.0040734, "lon": 77.3792262}, {"type": "node", "id": 13088802673, "lat": 13.0037118, "lon": 77.3794236}, {"type": "node", "id": 13088802674, "lat": 13.0033498, "lon": 77.3796092}, {"type": "node", "id": 13088802675, "lat": 13.003164, "lon": 77.3796999}, {"type": "node", "id": 13088802676, "lat": 13.0028511, "lon": 77.3798471}, {"type": "node", "id": 13088802677, "lat": 13.0024436, "lon": 77.380031}, {"type": "node", "id": 13088802678, "lat": 12.9747464, "lon": 77.3921062}, {"type": "node", "id": 13088802679, "lat": 12.9743315, "lon": 77.3922783}, {"type": "node", "id": 13088802680, "lat": 12.9739572, "lon": 77.392425}, {"type": "node", "id": 13088802681, "lat": 12.9734148, "lon": 77.3926188}, {"type": "node", "id": 13088802682, "lat": 12.9728613, "lon": 77.3927938}, {"type": "node", "id": 13088802683, "lat": 12.9723018, "lon": 77.3929478}, {"type": "node", "id": 13088802684, "lat": 12.9717373, "lon": 77.3930807}, {"type": "node", "id": 13088802685, "lat": 12.9711686, "lon": 77.3931925}, {"type": "node", "id": 13088802686, "lat": 12.9705962, "lon": 77.3932829}, {"type": "node", "id": 13088802687, "lat": 12.9700208, "lon": 77.393352}, {"type": "node", "id": 13088802688, "lat": 12.9694432, "lon": 77.3933994}, {"type": "node", "id": 13088802689, "lat": 12.9688727, "lon": 77.3934248}, {"type": "node", "id": 13088802690, "lat": 12.9686625, "lon": 77.393429}, {"type": "node", "id": 13088802691, "lat": 12.9682698, "lon": 77.3934304}, {"type": "node", "id": 13088802692, "lat": 12.9677762, "lon": 77.3934239}, {"type": "node", "id": 13088802693, "lat": 12.9139129, "lon": 77.3921484}, {"type": "node", "id": 13088802694, "lat": 12.9132673, "lon": 77.3921367}, {"type": "node", "id": 13088802695, "lat": 12.9127671, "lon": 77.3921364}, {"type": "node", "id": 13088802696, "lat": 12.9125475, "lon": 77.3921405}, {"type": "node", "id": 13088802697, "lat": 12.9111425, "lon": 77.3922393}, {"type": "node", "id": 13088802698, "lat": 12.9097758, "lon": 77.3924591}, {"type": "node", "id": 13088802699, "lat": 12.908433, "lon": 77.3927998}, {"type": "node", "id": 13088802700, "lat": 12.9071246, "lon": 77.3932586}, {"type": "node", "id": 13088802701, "lat": 12.9058607, "lon": 77.3938321}, {"type": "node", "id": 13088802702, "lat": 12.9046509, "lon": 77.3945158}, {"type": "node", "id": 13088802703, "lat": 12.9035045, "lon": 77.3953047}, {"type": "node", "id": 13088802704, "lat": 12.9024302, "lon": 77.3961924}, {"type": "node", "id": 13088802705, "lat": 12.9014216, "lon": 77.3971865}, {"type": "node", "id": 13088802706, "lat": 12.9010998, "lon": 77.3975425}, {"type": "node", "id": 13088802707, "lat": 12.9006394, "lon": 77.3980768}, {"type": "node", "id": 13088802708, "lat": 12.891242, "lon": 77.4092178}, {"type": "node", "id": 13088802709, "lat": 12.8908778, "lon": 77.4096345}, {"type": "node", "id": 13088802710, "lat": 12.8904947, "lon": 77.4100494}, {"type": "node", "id": 13088802711, "lat": 12.890331, "lon": 77.4102182}, {"type": "node", "id": 13088802712, "lat": 12.8900169, "lon": 77.4105288}, {"type": "node", "id": 13088802713, "lat": 12.889691, "lon": 77.4108335}, {"type": "node", "id": 13088802714, "lat": 12.8893581, "lon": 77.4111277}, {"type": "node", "id": 13088802715, "lat": 12.8890705, "lon": 77.4113689}, {"type": "node", "id": 13088802716, "lat": 12.8887211, "lon": 77.4116487}, {"type": "node", "id": 13088802717, "lat": 12.8883268, "lon": 77.411953}, {"type": "node", "id": 13088802718, "lat": 12.8748968, "lon": 77.4220962}, {"type": "node", "id": 13088802719, "lat": 12.8742981, "lon": 77.4225547}, {"type": "node", "id": 13088802720, "lat": 12.874025, "lon": 77.4227712}, {"type": "node", "id": 13088802721, "lat": 12.8738384, "lon": 77.4229237}, {"type": "node", "id": 13088802722, "lat": 12.8733834, "lon": 77.4233156}, {"type": "node", "id": 13088802723, "lat": 12.8729856, "lon": 77.4236838}, {"type": "node", "id": 13088802724, "lat": 12.8725995, "lon": 77.4240663}, {"type": "node", "id": 13088802725, "lat": 12.8722265, "lon": 77.4244619}, {"type": "node", "id": 13088802726, "lat": 12.8718668, "lon": 77.4248702}, {"type": "node", "id": 13088802727, "lat": 12.8715212, "lon": 77.4252907}, {"type": "node", "id": 13088802728, "lat": 12.8711898, "lon": 77.4257228}, {"type": "node", "id": 13088802729, "lat": 12.8708729, "lon": 77.4261664}, {"type": "node", "id": 13088802730, "lat": 12.8705704, "lon": 77.4266216}, {"type": "node", "id": 13088802731, "lat": 12.8702802, "lon": 77.4270899}, {"type": "node", "id": 13088802732, "lat": 12.8698464, "lon": 77.4278309}, {"type": "node", "id": 13088802733, "lat": 12.8617426, "lon": 77.4419299}, {"type": "node", "id": 13088802734, "lat": 12.8614329, "lon": 77.4424595}, {"type": "node", "id": 13088802735, "lat": 12.8611764, "lon": 77.442881}, {"type": "node", "id": 13088802736, "lat": 12.8609295, "lon": 77.443269}, {"type": "node", "id": 13088802737, "lat": 12.8605929, "lon": 77.4437803}, {"type": "node", "id": 13088802738, "lat": 12.8549087, "lon": 77.4523064}, {"type": "node", "id": 13088802739, "lat": 12.8545179, "lon": 77.4528863}, {"type": "node", "id": 13088802740, "lat": 12.8542881, "lon": 77.4532165}, {"type": "node", "id": 13088802741, "lat": 12.854074, "lon": 77.4535124}, {"type": "node", "id": 13088802742, "lat": 12.8534985, "lon": 77.454245}, {"type": "node", "id": 13088802743, "lat": 12.8528731, "lon": 77.4549516}, {"type": "node", "id": 13088802744, "lat": 12.8522076, "lon": 77.4556195}, {"type": "node", "id": 13088802745, "lat": 12.8515047, "lon": 77.4562459}, {"type": "node", "id": 13088802746, "lat": 12.8507669, "lon": 77.4568289}, {"type": "node", "id": 13088802747, "lat": 12.8499966, "lon": 77.4573664}, {"type": "node", "id": 13088802748, "lat": 12.8491967, "lon": 77.4578566}, {"type": "node", "id": 13088802749, "lat": 12.8483697, "lon": 77.4582978}, {"type": "node", "id": 13088802750, "lat": 12.8475274, "lon": 77.4586844}, {"type": "node", "id": 13088802751, "lat": 12.847013, "lon": 77.4588928}, {"type": "node", "id": 13088802752, "lat": 12.8464112, "lon": 77.4591201}, {"type": "node", "id": 13088802753, "lat": 12.8172648, "lon": 77.4697945}, {"type": "node", "id": 13088802754, "lat": 12.8166586, "lon": 77.4700076}, {"type": "node", "id": 13088802755, "lat": 12.8162333, "lon": 77.470146}, {"type": "node", "id": 13088802756, "lat": 12.8158665, "lon": 77.4702552}, {"type": "node", "id": 13088802757, "lat": 12.8154975, "lon": 77.4703553}, {"type": "node", "id": 13088802758, "lat": 12.8151263, "lon": 77.4704463}, {"type": "node", "id": 13088802759, "lat": 12.8147528, "lon": 77.4705282}, {"type": "node", "id": 13088802760, "lat": 12.8143776, "lon": 77.4706008}, {"type": "node", "id": 13088802761, "lat": 12.814001, "lon": 77.470664}, {"type": "node", "id": 13088802762, "lat": 12.8136229, "lon": 77.4707181}, {"type": "node", "id": 13088802763, "lat": 12.8132425, "lon": 77.4707629}, {"type": "node", "id": 13088802764, "lat": 12.8128144, "lon": 77.470802}, {"type": "node", "id": 13088802765, "lat": 12.8124184, "lon": 77.4708281}, {"type": "node", "id": 13088802766, "lat": 12.8119716, "lon": 77.4708491}, {"type": "node", "id": 13088802767, "lat": 12.7798128, "lon": 77.471843}, {"type": "node", "id": 13088802768, "lat": 12.7789633, "lon": 77.4718752}, {"type": "node", "id": 13088802769, "lat": 12.7786703, "lon": 77.4718917}, {"type": "node", "id": 13088802770, "lat": 12.7784261, "lon": 77.4719091}, {"type": "node", "id": 13088802771, "lat": 12.7756563, "lon": 77.4723817}, {"type": "node", "id": 13088802772, "lat": 12.773059, "lon": 77.4733187}, {"type": "node", "id": 13088802773, "lat": 12.7706611, "lon": 77.4747004}, {"type": "node", "id": 13088802774, "lat": 12.7685355, "lon": 77.4764845}, {"type": "node", "id": 13088802775, "lat": 12.7667466, "lon": 77.4786166}, {"type": "node", "id": 13088802776, "lat": 12.7653481, "lon": 77.4810319}, {"type": "node", "id": 13088802777, "lat": 12.7643825, "lon": 77.4836572}, {"type": "node", "id": 13088802778, "lat": 12.7638786, "lon": 77.4864131}, {"type": "node", "id": 13088802779, "lat": 12.7638511, "lon": 77.4892718}, {"type": "node", "id": 13088802780, "lat": 12.7638673, "lon": 77.4894658}, {"type": "node", "id": 13088802781, "lat": 12.7639018, "lon": 77.4898154}, {"type": "node", "id": 13088802782, "lat": 12.7640026, "lon": 77.4906746}, {"type": "node", "id": 13088802783, "lat": 12.7662202, "lon": 77.5085374}, {"type": "node", "id": 13088802784, "lat": 12.7662853, "lon": 77.5090887}, {"type": "node", "id": 13088802785, "lat": 12.7663358, "lon": 77.509586}, {"type": "node", "id": 13088802786, "lat": 12.7663629, "lon": 77.5099106}, {"type": "node", "id": 13088802787, "lat": 12.7662652, "lon": 77.5132751}, {"type": "node", "id": 13088802788, "lat": 12.7654541, "lon": 77.5166092}, {"type": "node", "id": 13088802789, "lat": 12.7639683, "lon": 77.5196919}, {"type": "node", "id": 13088802790, "lat": 12.7618759, "lon": 77.522383}, {"type": "node", "id": 13088802791, "lat": 12.7592724, "lon": 77.5245608}, {"type": "node", "id": 13088802792, "lat": 12.7562761, "lon": 77.5261267}, {"type": "node", "id": 13088802793, "lat": 12.7530229, "lon": 77.5270103}, {"type": "node", "id": 13088802794, "lat": 12.7496601, "lon": 77.5271717}, {"type": "node", "id": 13088802795, "lat": 12.7464045, "lon": 77.5266148}, {"type": "node", "id": 13088802796, "lat": 12.7460088, "lon": 77.5264975}, {"type": "node", "id": 13088802797, "lat": 12.7456294, "lon": 77.5263774}, {"type": "node", "id": 13088802798, "lat": 12.744927, "lon": 77.5261426}, {"type": "node", "id": 13088802799, "lat": 12.7138244, "lon": 77.5155858}, {"type": "node", "id": 13088802800, "lat": 12.713111, "lon": 77.5153499}, {"type": "node", "id": 13088802801, "lat": 12.71283, "lon": 77.5152623}, {"type": "node", "id": 13088802802, "lat": 12.712587, "lon": 77.5151906}, {"type": "node", "id": 13088802803, "lat": 12.7102315, "lon": 77.5147078}, {"type": "node", "id": 13088802804, "lat": 12.7078759, "lon": 77.5145894}, {"type": "node", "id": 13088802805, "lat": 12.7055293, "lon": 77.5148287}, {"type": "node", "id": 13088802806, "lat": 12.7032438, "lon": 77.5154208}, {"type": "node", "id": 13088802807, "lat": 12.7010704, "lon": 77.5163521}, {"type": "node", "id": 13088802808, "lat": 12.6990574, "lon": 77.5176018}, {"type": "node", "id": 13088802809, "lat": 12.6972496, "lon": 77.5191421}, {"type": "node", "id": 13088802810, "lat": 12.6956871, "lon": 77.5209385}, {"type": "node", "id": 13088802811, "lat": 12.6943804, "lon": 77.5229885}, {"type": "node", "id": 13088802812, "lat": 12.6942377, "lon": 77.5232601}, {"type": "node", "id": 13088802813, "lat": 12.6940574, "lon": 77.5236186}, {"type": "node", "id": 13088802814, "lat": 12.6937494, "lon": 77.5242555}, {"type": "node", "id": 13088802815, "lat": 12.684096, "lon": 77.5444634}, {"type": "node", "id": 13088802816, "lat": 12.6837732, "lon": 77.5451525}, {"type": "node", "id": 13088802817, "lat": 12.6836513, "lon": 77.5454244}, {"type": "node", "id": 13088802818, "lat": 12.6835446, "lon": 77.5456726}, {"type": "node", "id": 13088802819, "lat": 12.6829459, "lon": 77.5473418}, {"type": "node", "id": 13088802820, "lat": 12.6825359, "lon": 77.5490363}, {"type": "node", "id": 13088802821, "lat": 12.6823084, "lon": 77.550766}, {"type": "node", "id": 13088802822, "lat": 12.6822661, "lon": 77.5525104}, {"type": "node", "id": 13088802823, "lat": 12.6824096, "lon": 77.5542494}, {"type": "node", "id": 13088802824, "lat": 12.6827371, "lon": 77.5559623}, {"type": "node", "id": 13088802825, "lat": 12.6832449, "lon": 77.5576292}, {"type": "node", "id": 13088802826, "lat": 12.683927, "lon": 77.5592305}, {"type": "node", "id": 13088802827, "lat": 12.6847904, "lon": 77.560774}, {"type": "node", "id": 13088802828, "lat": 12.6849638, "lon": 77.5610425}, {"type": "node", "id": 13088802829, "lat": 12.6852165, "lon": 77.5614178}, {"type": "node", "id": 13088802830, "lat": 12.6855898, "lon": 77.5619549}, {"type": "node", "id": 13088802831, "lat": 12.6944681, "lon": 77.5746078}, {"type": "node", "id": 13088802832, "lat": 12.6947585, "lon": 77.5750175}, {"type": "node", "id": 13088802833, "lat": 12.6949935, "lon": 77.5753409}, {"type": "node", "id": 13088802834, "lat": 12.6952613, "lon": 77.5756952}, {"type": "node", "id": 13088802835, "lat": 12.6957728, "lon": 77.5763213}, {"type": "node", "id": 13088802836, "lat": 12.6963088, "lon": 77.5769144}, {"type": "node", "id": 13088802837, "lat": 12.6968733, "lon": 77.5774795}, {"type": "node", "id": 13088802838, "lat": 12.697465, "lon": 77.5780153}, {"type": "node", "id": 13088802839, "lat": 12.6980822, "lon": 77.5785201}, {"type": "node", "id": 13088802840, "lat": 12.6987235, "lon": 77.578993}, {"type": "node", "id": 13088802841, "lat": 12.6993874, "lon": 77.5794325}, {"type": "node", "id": 13088802842, "lat": 12.700072, "lon": 77.5798378}, {"type": "node", "id": 13088802843, "lat": 12.7007832, "lon": 77.5802116}, {"type": "node", "id": 13088802844, "lat": 12.7011802, "lon": 77.5804014}, {"type": "node", "id": 13088802845, "lat": 12.7015854, "lon": 77.5805851}, {"type": "node", "id": 13088802846, "lat": 12.7106266, "lon": 77.5845124}, {"type": "node", "id": 13088802847, "lat": 12.7111262, "lon": 77.5847318}, {"type": "node", "id": 13088802848, "lat": 12.7115325, "lon": 77.5849168}, {"type": "node", "id": 13088802849, "lat": 12.7119091, "lon": 77.5850974}, {"type": "node", "id": 13088802850, "lat": 12.7130267, "lon": 77.585708}, {"type": "node", "id": 13088802851, "lat": 12.7141085, "lon": 77.5864202}, {"type": "node", "id": 13088802852, "lat": 12.7151299, "lon": 77.5872199}, {"type": "node", "id": 13088802853, "lat": 12.7160841, "lon": 77.5881019}, {"type": "node", "id": 13088802854, "lat": 12.7169646, "lon": 77.5890603}, {"type": "node", "id": 13088802855, "lat": 12.7177658, "lon": 77.5900885}, {"type": "node", "id": 13088802856, "lat": 12.7184821, "lon": 77.5911801}, {"type": "node", "id": 13088802857, "lat": 12.7191089, "lon": 77.5923276}, {"type": "node", "id": 13088802858, "lat": 12.7196349, "lon": 77.5935079}, {"type": "node", "id": 13088802859, "lat": 12.719855, "lon": 77.5940875}, {"type": "node", "id": 13088802860, "lat": 12.7201053, "lon": 77.5947982}, {"type": "node", "id": 13088802861, "lat": 12.7246448, "lon": 77.6080045}, {"type": "node", "id": 13088802862, "lat": 12.724917, "lon": 77.6088138}, {"type": "node", "id": 13088802863, "lat": 12.7250948, "lon": 77.6093898}, {"type": "node", "id": 13088802864, "lat": 12.7252172, "lon": 77.6098336}, {"type": "node", "id": 13088802865, "lat": 12.7253267, "lon": 77.6102792}, {"type": "node", "id": 13088802866, "lat": 12.7254238, "lon": 77.6107278}, {"type": "node", "id": 13088802867, "lat": 12.7255083, "lon": 77.6111792}, {"type": "node", "id": 13088802868, "lat": 12.7255801, "lon": 77.6116328}, {"type": "node", "id": 13088802869, "lat": 12.7256392, "lon": 77.6120883}, {"type": "node", "id": 13088802870, "lat": 12.7256855, "lon": 77.6125453}, {"type": "node", "id": 13088802871, "lat": 12.7257189, "lon": 77.6130034}, {"type": "node", "id": 13088802872, "lat": 12.7257397, "lon": 77.6134632}, {"type": "node", "id": 13088802873, "lat": 12.7257484, "lon": 77.6140167}, {"type": "node", "id": 13088802874, "lat": 12.7257446, "lon": 77.6146213}, {"type": "node", "id": 13088802875, "lat": 12.7252744, "lon": 77.6426672}, {"type": "node", "id": 13088802876, "lat": 12.7252534, "lon": 77.6435209}, {"type": "node", "id": 13088802877, "lat": 12.7252249, "lon": 77.6440964}, {"type": "node", "id": 13088802878, "lat": 12.7250724, "lon": 77.6454999}, {"type": "node", "id": 13088802879, "lat": 12.7247943, "lon": 77.6469039}, {"type": "node", "id": 13088802880, "lat": 12.7243949, "lon": 77.6482771}, {"type": "node", "id": 13088802881, "lat": 12.7238774, "lon": 77.6496086}, {"type": "node", "id": 13088802882, "lat": 12.723246, "lon": 77.6508879}, {"type": "node", "id": 13088802883, "lat": 12.7225057, "lon": 77.6521049}, {"type": "node", "id": 13088802884, "lat": 12.7216622, "lon": 77.65325}, {"type": "node", "id": 13088802885, "lat": 12.7207223, "lon": 77.6543141}, {"type": "node", "id": 13088802886, "lat": 12.7197087, "lon": 77.6552745}, {"type": "node", "id": 13088802887, "lat": 12.7193117, "lon": 77.6556087}, {"type": "node", "id": 13088802888, "lat": 12.7188842, "lon": 77.655953}, {"type": "node", "id": 13088802889, "lat": 12.6933992, "lon": 77.6759419}, {"type": "node", "id": 13088802890, "lat": 12.6930335, "lon": 77.676231}, {"type": "node", "id": 13088802891, "lat": 12.6920854, "lon": 77.6770146}, {"type": "node", "id": 13088802892, "lat": 12.6911697, "lon": 77.6778248}, {"type": "node", "id": 13088802893, "lat": 12.6902813, "lon": 77.6786657}, {"type": "node", "id": 13088802894, "lat": 12.6894211, "lon": 77.6795365}, {"type": "node", "id": 13088802895, "lat": 12.6885901, "lon": 77.6804362}, {"type": "node", "id": 13088802896, "lat": 12.6877892, "lon": 77.6813637}, {"type": "node", "id": 13088802897, "lat": 12.6870194, "lon": 77.6823182}, {"type": "node", "id": 13088802898, "lat": 12.6862813, "lon": 77.6832983}, {"type": "node", "id": 13088802899, "lat": 12.6855729, "lon": 77.6843077}, {"type": "node", "id": 13088802900, "lat": 12.6785269, "lon": 77.694904}, {"type": "node", "id": 13088802901, "lat": 12.6782239, "lon": 77.695365}, {"type": "node", "id": 13088802902, "lat": 12.6779526, "lon": 77.695792}, {"type": "node", "id": 13088802903, "lat": 12.6778306, "lon": 77.6959921}, {"type": "node", "id": 13088802904, "lat": 12.6764249, "lon": 77.6989923}, {"type": "node", "id": 13088802905, "lat": 12.6756572, "lon": 77.7021561}, {"type": "node", "id": 13088802906, "lat": 12.6755315, "lon": 77.7054125}, {"type": "node", "id": 13088802907, "lat": 12.6760529, "lon": 77.7086278}, {"type": "node", "id": 13088802908, "lat": 12.6772002, "lon": 77.7116706}, {"type": "node", "id": 13088802909, "lat": 12.6789265, "lon": 77.7144162}, {"type": "node", "id": 13088802910, "lat": 12.6811615, "lon": 77.7167518}, {"type": "node", "id": 13088802911, "lat": 12.6838138, "lon": 77.7185812}, {"type": "node", "id": 13088802912, "lat": 12.6868324, "lon": 77.7198533}, {"type": "node", "id": 13088802913, "lat": 12.6870581, "lon": 77.7199199}, {"type": "node", "id": 13088802914, "lat": 12.6873416, "lon": 77.7199989}, {"type": "node", "id": 13088802915, "lat": 12.6880685, "lon": 77.7201881}, {"type": "node", "id": 13088802916, "lat": 12.7191468, "lon": 77.7280158}, {"type": "node", "id": 13088802917, "lat": 12.719722, "lon": 77.7281626}, {"type": "node", "id": 13088802918, "lat": 12.7201077, "lon": 77.728266}, {"type": "node", "id": 13088802919, "lat": 12.7206037, "lon": 77.7284096}, {"type": "node", "id": 13088802920, "lat": 12.7220145, "lon": 77.7289166}, {"type": "node", "id": 13088802921, "lat": 12.7233918, "lon": 77.7295691}, {"type": "node", "id": 13088802922, "lat": 12.7247014, "lon": 77.7303534}, {"type": "node", "id": 13088802923, "lat": 12.7259312, "lon": 77.7312624}, {"type": "node", "id": 13088802924, "lat": 12.7270698, "lon": 77.7322876}, {"type": "node", "id": 13088802925, "lat": 12.7281065, "lon": 77.7334197}, {"type": "node", "id": 13088802926, "lat": 12.7290319, "lon": 77.7346481}, {"type": "node", "id": 13088802927, "lat": 12.7298373, "lon": 77.7359616}, {"type": "node", "id": 13088802928, "lat": 12.7305045, "lon": 77.7373261}, {"type": "node", "id": 13088802929, "lat": 12.730688, "lon": 77.7377667}, {"type": "node", "id": 13088802930, "lat": 12.7308724, "lon": 77.7382362}, {"type": "node", "id": 13088802931, "lat": 12.7383181, "lon": 77.7580572}, {"type": "node", "id": 13088802932, "lat": 12.7385911, "lon": 77.7587677}, {"type": "node", "id": 13088802933, "lat": 12.7387228, "lon": 77.759093}, {"type": "node", "id": 13088802934, "lat": 12.7388118, "lon": 77.7593037}, {"type": "node", "id": 13088802935, "lat": 12.7393362, "lon": 77.7604061}, {"type": "node", "id": 13088802936, "lat": 12.7399298, "lon": 77.7614476}, {"type": "node", "id": 13088802937, "lat": 12.7405981, "lon": 77.7624411}, {"type": "node", "id": 13088802938, "lat": 12.7413377, "lon": 77.7633809}, {"type": "node", "id": 13088802939, "lat": 12.7421442, "lon": 77.764262}, {"type": "node", "id": 13088802940, "lat": 12.7430132, "lon": 77.7650793}, {"type": "node", "id": 13088802941, "lat": 12.7439398, "lon": 77.7658282}, {"type": "node", "id": 13088802942, "lat": 12.744919, "lon": 77.7665046}, {"type": "node", "id": 13088802943, "lat": 12.7459588, "lon": 77.7671126}, {"type": "node", "id": 13088802944, "lat": 12.746387, "lon": 77.7673341}, {"type": "node", "id": 13088802945, "lat": 12.7469248, "lon": 77.7675968}, {"type": "node", "id": 13088802946, "lat": 12.7536313, "lon": 77.770774}, {"type": "node", "id": 13088802947, "lat": 12.7540786, "lon": 77.7709884}, {"type": "node", "id": 13088802948, "lat": 12.7544363, "lon": 77.7711652}, {"type": "node", "id": 13088802949, "lat": 12.7548385, "lon": 77.7713739}, {"type": "node", "id": 13088802950, "lat": 12.7554764, "lon": 77.771735}, {"type": "node", "id": 13088802951, "lat": 12.7561031, "lon": 77.7721298}, {"type": "node", "id": 13088802952, "lat": 12.7567112, "lon": 77.7725538}, {"type": "node", "id": 13088802953, "lat": 12.7572992, "lon": 77.7730065}, {"type": "node", "id": 13088802954, "lat": 12.7578659, "lon": 77.7734866}, {"type": "node", "id": 13088802955, "lat": 12.75841, "lon": 77.7739932}, {"type": "node", "id": 13088802956, "lat": 12.7589304, "lon": 77.774525}, {"type": "node", "id": 13088802957, "lat": 12.759426, "lon": 77.7750811}, {"type": "node", "id": 13088802958, "lat": 12.7598915, "lon": 77.7756553}, {"type": "node", "id": 13088802959, "lat": 12.7601962, "lon": 77.776061}, {"type": "node", "id": 13088802960, "lat": 12.7605449, "lon": 77.7765476}, {"type": "node", "id": 13088802961, "lat": 12.7616269, "lon": 77.7780911}, {"type": "node", "id": 13088802962, "lat": 12.761891, "lon": 77.7784553}, {"type": "node", "id": 13088802963, "lat": 12.7621245, "lon": 77.7787647}, {"type": "node", "id": 13088802964, "lat": 12.7627534, "lon": 77.7795291}, {"type": "node", "id": 13088802965, "lat": 12.7634181, "lon": 77.7802434}, {"type": "node", "id": 13088802966, "lat": 12.7641243, "lon": 77.780915}, {"type": "node", "id": 13088802967, "lat": 12.7648696, "lon": 77.7815415}, {"type": "node", "id": 13088802968, "lat": 12.7656512, "lon": 77.7821206}, {"type": "node", "id": 13088802969, "lat": 12.766466, "lon": 77.78265}, {"type": "node", "id": 13088802970, "lat": 12.7673111, "lon": 77.7831276}, {"type": "node", "id": 13088802971, "lat": 12.7681835, "lon": 77.7835519}, {"type": "node", "id": 13088802972, "lat": 12.769094, "lon": 77.7839271}, {"type": "node", "id": 13088802973, "lat": 12.7693088, "lon": 77.7840061}, {"type": "node", "id": 13088802974, "lat": 12.769783, "lon": 77.7841706}, {"type": "node", "id": 13088802975, "lat": 12.7702546, "lon": 77.7843255}, {"type": "node", "id": 13088802976, "lat": 12.780523, "lon": 77.7876228}, {"type": "node", "id": 13088802977, "lat": 12.7811366, "lon": 77.7878229}, {"type": "node", "id": 13088802978, "lat": 12.7816978, "lon": 77.7880176}, {"type": "node", "id": 13088802979, "lat": 12.7822116, "lon": 77.7882139}, {"type": "node", "id": 13088802980, "lat": 12.7826962, "lon": 77.7884186}, {"type": "node", "id": 13088802981, "lat": 12.7830208, "lon": 77.7885665}, {"type": "node", "id": 13088802982, "lat": 12.783342, "lon": 77.7887218}, {"type": "node", "id": 13088802983, "lat": 12.7838678, "lon": 77.7889943}, {"type": "node", "id": 13088802984, "lat": 12.7845625, "lon": 77.789377}, {"type": "node", "id": 13088802985, "lat": 12.805409, "lon": 77.8010582}, {"type": "node", "id": 13088802986, "lat": 12.8060542, "lon": 77.8014254}, {"type": "node", "id": 13088802987, "lat": 12.8064409, "lon": 77.8016556}, {"type": "node", "id": 13088802988, "lat": 12.8068357, "lon": 77.8019043}, {"type": "node", "id": 13088802989, "lat": 12.8072772, "lon": 77.8022022}, {"type": "node", "id": 13088802990, "lat": 12.8077099, "lon": 77.8025161}, {"type": "node", "id": 13088802991, "lat": 12.8081318, "lon": 77.8028445}, {"type": "node", "id": 13088802992, "lat": 12.8085414, "lon": 77.8031861}, {"type": "node", "id": 13088802993, "lat": 12.8089157, "lon": 77.8035184}, {"type": "node", "id": 13088802994, "lat": 12.8093186, "lon": 77.8038922}, {"type": "node", "id": 13088802995, "lat": 12.8231965, "lon": 77.8170996}, {"type": "node", "id": 13088802996, "lat": 12.8235931, "lon": 77.8174797}, {"type": "node", "id": 13088802997, "lat": 12.8239143, "lon": 77.8177952}, {"type": "node", "id": 13088802998, "lat": 12.8242304, "lon": 77.8181185}, {"type": "node", "id": 13088802999, "lat": 12.8245941, "lon": 77.8185132}, {"type": "node", "id": 13088803000, "lat": 12.8249464, "lon": 77.8189223}, {"type": "node", "id": 13088803001, "lat": 12.8252849, "lon": 77.8193434}, {"type": "node", "id": 13088803002, "lat": 12.8256091, "lon": 77.8197758}, {"type": "node", "id": 13088803003, "lat": 12.825919, "lon": 77.8202191}, {"type": "node", "id": 13088803004, "lat": 12.826214, "lon": 77.820673}, {"type": "node", "id": 13088803005, "lat": 12.8264938, "lon": 77.8211368}, {"type": "node", "id": 13088803006, "lat": 12.8267581, "lon": 77.82161}, {"type": "node", "id": 13088803007, "lat": 12.8270055, "lon": 77.8220901}, {"type": "node", "id": 13088803008, "lat": 12.8272233, "lon": 77.8225462}, {"type": "node", "id": 13088803009, "lat": 12.8274902, "lon": 77.8231403}, {"type": "node", "id": 13088803010, "lat": 12.8450649, "lon": 77.8634561}, {"type": "node", "id": 13088803011, "lat": 12.8453087, "lon": 77.8640098}, {"type": "node", "id": 13088803012, "lat": 12.8454969, "lon": 77.8644218}, {"type": "node", "id": 13088803013, "lat": 12.8456709, "lon": 77.8647842}, {"type": "node", "id": 13088803014, "lat": 12.8458406, "lon": 77.865118}, {"type": "node", "id": 13088803015, "lat": 12.8460178, "lon": 77.8654474}, {"type": "node", "id": 13088803016, "lat": 12.8462025, "lon": 77.8657726}, {"type": "node", "id": 13088803017, "lat": 12.8463946, "lon": 77.8660933}, {"type": "node", "id": 13088803018, "lat": 12.846594, "lon": 77.8664094}, {"type": "node", "id": 13088803019, "lat": 12.8468006, "lon": 77.8667207}, {"type": "node", "id": 13088803020, "lat": 12.8470143, "lon": 77.867027}, {"type": "node", "id": 13088803021, "lat": 12.847233, "lon": 77.8673256}, {"type": "node", "id": 13088803022, "lat": 12.8475567, "lon": 77.8677426}, {"type": "node", "id": 13088803023, "lat": 12.8478745, "lon": 77.8681289}, {"type": "node", "id": 13088803024, "lat": 12.8482661, "lon": 77.8685869}, {"type": "node", "id": 13088803025, "lat": 12.8729515, "lon": 77.8969997}, {"type": "node", "id": 13088803026, "lat": 12.8733491, "lon": 77.8974521}, {"type": "node", "id": 13088803027, "lat": 12.8736533, "lon": 77.8977874}, {"type": "node", "id": 13088803028, "lat": 12.8738466, "lon": 77.8979928}, {"type": "node", "id": 13088803029, "lat": 12.8745899, "lon": 77.898721}, {"type": "node", "id": 13088803030, "lat": 12.8753657, "lon": 77.8993889}, {"type": "node", "id": 13088803031, "lat": 12.8761819, "lon": 77.9000046}, {"type": "node", "id": 13088803032, "lat": 12.8770353, "lon": 77.9005656}, {"type": "node", "id": 13088803033, "lat": 12.8779224, "lon": 77.9010697}, {"type": "node", "id": 13088803034, "lat": 12.8788395, "lon": 77.9015149}, {"type": "node", "id": 13088803035, "lat": 12.8797828, "lon": 77.9018991}, {"type": "node", "id": 13088803036, "lat": 12.8807484, "lon": 77.9022209}, {"type": "node", "id": 13088803037, "lat": 12.8817513, "lon": 77.9024838}, {"type": "node", "id": 13088803038, "lat": 12.8818225, "lon": 77.9024998}, {"type": "node", "id": 13088803039, "lat": 12.8822659, "lon": 77.9025923}, {"type": "node", "id": 13088803040, "lat": 12.8828036, "lon": 77.9026933}, {"type": "node", "id": 13088803041, "lat": 12.88454, "lon": 77.9029995}, {"type": "node", "id": 13088803042, "lat": 12.8852773, "lon": 77.9031231}, {"type": "node", "id": 13088803043, "lat": 12.8855527, "lon": 77.9031659}, {"type": "node", "id": 13088803044, "lat": 12.8873803, "lon": 77.9033868}, {"type": "node", "id": 13088803045, "lat": 12.889201, "lon": 77.903499}, {"type": "node", "id": 13088803046, "lat": 12.891025, "lon": 77.903504}, {"type": "node", "id": 13088803047, "lat": 12.8928463, "lon": 77.9034018}, {"type": "node", "id": 13088803048, "lat": 12.8946588, "lon": 77.9031928}, {"type": "node", "id": 13088803049, "lat": 12.8964564, "lon": 77.9028776}, {"type": "node", "id": 13088803050, "lat": 12.8982332, "lon": 77.9024573}, {"type": "node", "id": 13088803051, "lat": 12.8999833, "lon": 77.9019333}, {"type": "node", "id": 13088803052, "lat": 12.9017148, "lon": 77.9013023}, {"type": "node", "id": 13088803053, "lat": 12.9021131, "lon": 77.9011408}, {"type": "node", "id": 13088803054, "lat": 12.9029869, "lon": 77.9007729}, {"type": "node", "id": 13088803055, "lat": 12.9118061, "lon": 77.8970104}, {"type": "node", "id": 13088803056, "lat": 12.9122198, "lon": 77.8968399}, {"type": "node", "id": 13088803057, "lat": 12.9125849, "lon": 77.8966967}, {"type": "node", "id": 13088803058, "lat": 12.9127398, "lon": 77.8966386}, {"type": "node", "id": 13088803059, "lat": 12.9133737, "lon": 77.89642}, {"type": "node", "id": 13088803060, "lat": 12.9140272, "lon": 77.8962261}, {"type": "node", "id": 13088803061, "lat": 12.9146883, "lon": 77.8960611}, {"type": "node", "id": 13088803062, "lat": 12.9153558, "lon": 77.8959252}, {"type": "node", "id": 13088803063, "lat": 12.9160282, "lon": 77.8958189}, {"type": "node", "id": 13088803064, "lat": 12.9167047, "lon": 77.8957421}, {"type": "node", "id": 13088803065, "lat": 12.9173837, "lon": 77.8956952}, {"type": "node", "id": 13088803066, "lat": 12.918064, "lon": 77.8956782}, {"type": "node", "id": 13088803067, "lat": 12.9187377, "lon": 77.8956908}, {"type": "node", "id": 13088803068, "lat": 12.91914, "lon": 77.895712}, {"type": "node", "id": 13088803069, "lat": 12.9195866, "lon": 77.8957444}, {"type": "node", "id": 13088803070, "lat": 12.9356763, "lon": 77.8971987}, {"type": "node", "id": 13088803071, "lat": 12.9363186, "lon": 77.897249}, {"type": "node", "id": 13088803072, "lat": 12.9368054, "lon": 77.8972794}, {"type": "node", "id": 13088803073, "lat": 12.9374893, "lon": 77.8973093}, {"type": "node", "id": 13088803074, "lat": 12.9381713, "lon": 77.8973241}, {"type": "node", "id": 13088803075, "lat": 12.9388574, "lon": 77.8973238}, {"type": "node", "id": 13088803076, "lat": 12.9391929, "lon": 77.8973181}, {"type": "node", "id": 13088803077, "lat": 12.9397333, "lon": 77.8973015}, {"type": "node", "id": 13088803078, "lat": 12.9404278, "lon": 77.8972686}, {"type": "node", "id": 13088803079, "lat": 12.9608091, "lon": 77.896085}, {"type": "node", "id": 13088803080, "lat": 12.9616007, "lon": 77.8960451}, {"type": "node", "id": 13088803081, "lat": 12.9622054, "lon": 77.8960292}, {"type": "node", "id": 13088803082, "lat": 12.9626613, "lon": 77.896027}, {"type": "node", "id": 13088803083, "lat": 12.9631917, "lon": 77.8960302}, {"type": "node", "id": 13088803084, "lat": 13.014307, "lon": 77.8964829}, {"type": "node", "id": 13088803085, "lat": 13.0148034, "lon": 77.896484}, {"type": "node", "id": 13088803086, "lat": 13.0152001, "lon": 77.8964792}, {"type": "node", "id": 13088803087, "lat": 13.0155448, "lon": 77.8964688}, {"type": "node", "id": 13088803088, "lat": 13.0159381, "lon": 77.8964478}, {"type": "node", "id": 13088803089, "lat": 13.0163332, "lon": 77.8964168}, {"type": "node", "id": 13088803090, "lat": 13.0165201, "lon": 77.8963985}, {"type": "node", "id": 13088803091, "lat": 13.0169179, "lon": 77.896352}, {"type": "node", "id": 13088803092, "lat": 13.0171062, "lon": 77.8963264}, {"type": "node", "id": 13088803093, "lat": 13.0174, "lon": 77.8962817}, {"type": "node", "id": 13088803094, "lat": 13.0176893, "lon": 77.8962325}, {"type": "node", "id": 13088803095, "lat": 13.0183787, "lon": 77.8961002}, {"type": "node", "id": 13088803096, "lat": 13.0682693, "lon": 77.8858007}, {"type": "node", "id": 13088803097, "lat": 13.0689003, "lon": 77.8856745}, {"type": "node", "id": 13088803098, "lat": 13.0694342, "lon": 77.8855791}, {"type": "node", "id": 13088803099, "lat": 13.069862, "lon": 77.8855144}, {"type": "node", "id": 13088803100, "lat": 13.0704153, "lon": 77.8854488}, {"type": "node", "id": 13088803101, "lat": 13.0709675, "lon": 77.8854035}, {"type": "node", "id": 13088803102, "lat": 13.0712588, "lon": 77.8853876}, {"type": "node", "id": 13088803103, "lat": 13.0718066, "lon": 77.8853725}, {"type": "node", "id": 13088803104, "lat": 13.0720923, "lon": 77.8853724}, {"type": "node", "id": 13088803105, "lat": 13.0723903, "lon": 77.8853776}, {"type": "node", "id": 13088803106, "lat": 13.0727361, "lon": 77.8853895}, {"type": "node", "id": 13088803107, "lat": 13.0731322, "lon": 77.8854084}, {"type": "node", "id": 13088803108, "lat": 13.1038256, "lon": 77.8871954}, {"type": "node", "id": 13088803109, "lat": 13.1044687, "lon": 77.8872305}, {"type": "node", "id": 13088803110, "lat": 13.1050182, "lon": 77.8872513}, {"type": "node", "id": 13088803111, "lat": 13.1053034, "lon": 77.8872563}, {"type": "node", "id": 13088803112, "lat": 13.1060095, "lon": 77.8872467}, {"type": "node", "id": 13088803113, "lat": 13.1067056, "lon": 77.8872058}, {"type": "node", "id": 13088803114, "lat": 13.1073994, "lon": 77.8871337}, {"type": "node", "id": 13088803115, "lat": 13.1080892, "lon": 77.8870305}, {"type": "node", "id": 13088803116, "lat": 13.1087738, "lon": 77.8868964}, {"type": "node", "id": 13088803117, "lat": 13.1094521, "lon": 77.8867315}, {"type": "node", "id": 13088803118, "lat": 13.1101226, "lon": 77.8865364}, {"type": "node", "id": 13088803119, "lat": 13.110784, "lon": 77.8863114}, {"type": "node", "id": 13088803120, "lat": 13.11144, "lon": 77.8860548}, {"type": "node", "id": 13088803121, "lat": 13.1118919, "lon": 77.8858589}, {"type": "node", "id": 13088803122, "lat": 13.1123887, "lon": 77.8856303}, {"type": "node", "id": 13088803123, "lat": 13.1430995, "lon": 77.8710134}, {"type": "node", "id": 13088803124, "lat": 13.1438634, "lon": 77.8706421}, {"type": "node", "id": 13088803125, "lat": 13.1443406, "lon": 77.8703949}, {"type": "node", "id": 13088803126, "lat": 13.1451592, "lon": 77.8699228}, {"type": "node", "id": 13088803127, "lat": 13.1459411, "lon": 77.8694077}, {"type": "node", "id": 13088803128, "lat": 13.146692, "lon": 77.8688466}, {"type": "node", "id": 13088803129, "lat": 13.1474091, "lon": 77.8682416}, {"type": "node", "id": 13088803130, "lat": 13.1480899, "lon": 77.8675946}, {"type": "node", "id": 13088803131, "lat": 13.1487323, "lon": 77.8669079}, {"type": "node", "id": 13088803132, "lat": 13.1493339, "lon": 77.8661838}, {"type": "node", "id": 13088803133, "lat": 13.1498928, "lon": 77.865425}, {"type": "node", "id": 13088803134, "lat": 13.150414, "lon": 77.864623}, {"type": "node", "id": 13088803135, "lat": 13.1505872, "lon": 77.864332}, {"type": "node", "id": 13088803136, "lat": 13.1507609, "lon": 77.8640289}, {"type": "node", "id": 13088803137, "lat": 13.1511283, "lon": 77.8633639}, {"type": "node", "id": 13088803138, "lat": 13.1720476, "lon": 77.8249849}, {"type": "node", "id": 13088803139, "lat": 13.1723871, "lon": 77.8243689}, {"type": "node", "id": 13088803140, "lat": 13.1726597, "lon": 77.8238957}, {"type": "node", "id": 13088803141, "lat": 13.1727774, "lon": 77.8236997}, {"type": "node", "id": 13088803142, "lat": 13.1734229, "lon": 77.8227229}, {"type": "node", "id": 13088803143, "lat": 13.1741506, "lon": 77.8217812}, {"type": "node", "id": 13088803144, "lat": 13.1749447, "lon": 77.8208971}, {"type": "node", "id": 13088803145, "lat": 13.1758011, "lon": 77.820076}, {"type": "node", "id": 13088803146, "lat": 13.1767146, "lon": 77.8193221}, {"type": "node", "id": 13088803147, "lat": 13.1776805, "lon": 77.8186397}, {"type": "node", "id": 13088803148, "lat": 13.1786931, "lon": 77.8180324}, {"type": "node", "id": 13088803149, "lat": 13.1797472, "lon": 77.8175037}, {"type": "node", "id": 13088803150, "lat": 13.1808238, "lon": 77.8170617}, {"type": "node", "id": 13088803151, "lat": 13.1813989, "lon": 77.8168615}, {"type": "node", "id": 13088803152, "lat": 13.1822467, "lon": 77.8165909}, {"type": "node", "id": 13088803153, "lat": 13.2288862, "lon": 77.8020373}, {"type": "node", "id": 13088803154, "lat": 13.2293588, "lon": 77.8018843}, {"type": "node", "id": 13088803155, "lat": 13.229738, "lon": 77.8017544}, {"type": "node", "id": 13088803156, "lat": 13.229915, "lon": 77.8016907}, {"type": "node", "id": 13088803157, "lat": 13.2304032, "lon": 77.8015023}, {"type": "node", "id": 13088803158, "lat": 13.2308789, "lon": 77.8013004}, {"type": "node", "id": 13088803159, "lat": 13.231348, "lon": 77.8010828}, {"type": "node", "id": 13088803160, "lat": 13.2318098, "lon": 77.8008498}, {"type": "node", "id": 13088803161, "lat": 13.2322638, "lon": 77.8006017}, {"type": "node", "id": 13088803162, "lat": 13.2327096, "lon": 77.8003384}, {"type": "node", "id": 13088803163, "lat": 13.2331469, "lon": 77.8000606}, {"type": "node", "id": 13088803164, "lat": 13.233575, "lon": 77.7997683}, {"type": "node", "id": 13088803165, "lat": 13.2339971, "lon": 77.7994596}, {"type": "node", "id": 13088803166, "lat": 13.2342703, "lon": 77.7992483}, {"type": "node", "id": 13088803167, "lat": 13.2345411, "lon": 77.7990315}, {"type": "node", "id": 13088803168, "lat": 13.2351607, "lon": 77.7985186}, {"type": "node", "id": 13088803169, "lat": 13.2570987, "lon": 77.7801516}, {"type": "node", "id": 13088803170, "lat": 13.2569658, "lon": 77.7802704}, {"type": "node", "id": 13235863342, "lat": 12.8712838, "lon": 77.5385777, "tags": {"bus": "yes", "name": "Thalagattapura Metro Station", "name:en": "Thalagattapura Metro Station", "name:kn": "\u0ca4\u0cb2\u0c98\u0c9f\u0ccd\u0c9f\u0caa\u0cc1\u0cb0", "network": "BMTC", "operator": "BMTC", "public_transport": "stop_position"}}, {"type": "node", "id": 13235863343, "lat": 12.8712967, "lon": 77.5385602, "tags": {"highway": "bus_stop", "name": "Thalagattapura Metro Station", "name:en": "Thalagattapura Metro Station", "name:kn": "\u0ca4\u0cb2\u0c98\u0c9f\u0ccd\u0c9f\u0caa\u0cc1\u0cb0", "network": "BMTC", "operator": "BMTC", "public_transport": "platform"}}, {"type": "node", "id": 13235863344, "lat": 12.8761189, "lon": 77.5331944, "tags": {"bus": "yes", "name": "Ganigarapalya", "name:en": "Ganigarapalya", "network": "BMTC", "operator": "BMTC", "public_transport": "stop_position"}}, {"type": "node", "id": 13235863345, "lat": 12.8761419, "lon": 77.5331984, "tags": {"highway": "bus_stop", "name": "Ganigarapalya", "name:en": "Ganigarapalya", "network": "BMTC", "operator": "BMTC", "public_transport": "platform"}}, {"type": "node", "id": 13235863346, "lat": 12.8780465, "lon": 77.5166677, "tags": {"bus": "yes", "name": "Chikkegowdanapalya Junction", "name:en": "Chikkegowdanapalya Junction", "network": "BMTC", "operator": "BMTC", "public_transport": "stop_position"}}, {"type": "node", "id": 13235863347, "lat": 12.878082, "lon": 77.5166827, "tags": {"highway": "bus_stop", "name": "Chikkegowdanapalya Junction", "name:en": "Chikkegowdanapalya Junction", "network": "BMTC", "operator": "BMTC", "public_transport": "platform"}}, {"type": "node", "id": 13390364760, "lat": 12.8212131, "lon": 77.4683486}, {"type": "node", "id": 13390364761, "lat": 12.8224579, "lon": 77.4678927}, {"type": "node", "id": 13390364762, "lat": 12.822218, "lon": 77.4679806}, {"type": "way", "id": 388100817, "nodes": [1577747900, 1577747904, 1577747925, 1577747943, 7625647530, 1577747912, 1577747913, 1577747847, 1577747981, 1577747952, 5760198458, 1577747905, 1577747909, 1577747932, 1577747877, 1577747939, 1577748004, 7835002980], "tags": {"bridge": "viaduct", "designation": "Namma Metro - Reach 4B", "electrified": "rail", "frequency": "0", "gauge": "1435", "layer": "2", "maxspeed": "80", "name": "Namma Metro - Reach 4B", "name:kn": "\u0ca8\u0cae\u0ccd\u0cae \u0cae\u0cc6\u0c9f\u0ccd\u0cb0\u0ccb", "network": "Namma Metro", "note": "Contributors are requested to not edit the \"network\" and the \"operator\" tags. (2023/11/08)", "operator": "Bangalore Metro Rail Corporation Limited", "railway": "subway", "subway": "yes", "voltage": "750"}}, {"type": "way", "id": 549256469, "nodes": [1577747842, 7235263986, 1577747955, 1577747881, 1577747865, 1577748003, 1577747902, 7625647528, 1577747855, 1577747896, 8318418260, 1577747968, 1577747973, 8318418263, 1577748007, 7235263989, 1577747885, 7404036511, 1577748001, 1577747900], "tags": {"bridge": "viaduct", "designation": "Namma Metro - Reach 4B", "electrified": "rail", "frequency": "0", "gauge": "1435", "layer": "2", "maxspeed": "80", "name": "Namma Metro - Reach 4B", "name:kn": "\u0ca8\u0cae\u0ccd\u0cae \u0cae\u0cc6\u0c9f\u0ccd\u0cb0\u0cca", "network": "Namma Metro", "note": "Contributors are requested to not edit the \"network\" and the \"operator\" tags. (2023/11/08)", "operator": "Bangalore Metro Rail Corporation Limited", "railway": "subway", "subway": "yes", "voltage": "750"}}, {"type": "way", "id": 549256470, "nodes": [1577747933, 1577748009, 2250290034, 1577747961, 1577747945, 7235254983, 1577747953, 8318418253, 8318418252, 1577747922, 8318418256, 1577747868, 1577747984, 1577747915, 1577747911, 8318418258, 1577747884, 1577747842], "tags": {"bridge": "viaduct", "designation": "Namma Metro - Reach 4B", "electrified": "rail", "frequency": "0", "gauge": "1435", "layer": "2", "maxspeed": "80", "name": "Namma Metro - Reach 4B", "name:kn": "\u0ca8\u0cae\u0ccd\u0cae \u0cae\u0cc6\u0c9f\u0ccd\u0cb0\u0cca", "network": "Namma Metro", "note": "Contributors are requested to not edit the \"network\" and the \"operator\" tags. (2023/11/08)", "operator": "Bangalore Metro Rail Corporation Limited", "railway": "subway", "subway": "yes", "voltage": "750"}}, {"type": "way", "id": 607901275, "nodes": [7235263988, 5760198281, 5760198280, 5760198279, 7625647531, 5760198278, 5760198277, 5760198276, 5760198275, 5760198274, 7235263991, 5760198272, 5760198271, 5760198270, 5760198269, 5760198268, 7235263990, 7835002981], "tags": {"bridge": "viaduct", "designation": "Namma Metro - Reach 4B", "electrified": "rail", "frequency": "0", "gauge": "1435", "layer": "2", "maxspeed": "80", "name": "Namma Metro - Reach 4B", "name:kn": "\u0ca8\u0cae\u0ccd\u0cae \u0cae\u0cc6\u0c9f\u0ccd\u0cb0\u0ccb", "network": "Namma Metro", "note": "Contributors are requested to not edit the \"network\" and the \"operator\" tags. (2023/11/08)", "operator": "Bangalore Metro Rail Corporation Limited", "railway": "subway", "subway": "yes", "voltage": "750"}}, {"type": "way", "id": 607901276, "nodes": [7235263985, 5760198460, 5760198293, 5760198292, 5760198291, 5760198290, 5760198289, 7625647529, 5760198288, 5760198287, 8318418261, 5760198286, 5760198285, 8318418262, 5760198284, 11622451231, 5760198459, 5760198283, 7404036510, 5760198282, 7235263988], "tags": {"bridge": "viaduct", "designation": "Namma Metro - Reach 4B", "electrified": "rail", "frequency": "0", "gauge": "1435", "layer": "2", "maxspeed": "80", "name": "Namma Metro - Reach 4B", "name:kn": "\u0ca8\u0cae\u0ccd\u0cae \u0cae\u0cc6\u0c9f\u0ccd\u0cb0\u0cca", "network": "Namma Metro", "note": "Contributors are requested to not edit the \"network\" and the \"operator\" tags. (2023/11/08)", "operator": "Bangalore Metro Rail Corporation Limited", "railway": "subway", "subway": "yes", "voltage": "750"}}, {"type": "way", "id": 607901277, "nodes": [5760198461, 5760198305, 5760198304, 5760198303, 8318418248, 5760198302, 7235254982, 5760198301, 8318418254, 8318418251, 5760198300, 8318418255, 5760198299, 5760198298, 5760198297, 5760198296, 8318418257, 5760198295, 7235263985], "tags": {"bridge": "viaduct", "designation": "Namma Metro - Reach 4B", "electrified": "rail", "frequency": "0", "gauge": "1435", "layer": "2", "maxspeed": "80", "name": "Namma Metro - Reach 4B", "name:kn": "\u0ca8\u0cae\u0ccd\u0cae \u0cae\u0cc6\u0c9f\u0ccd\u0cb0\u0cca", "network": "Namma Metro", "note": "Contributors are requested to not edit the \"network\" and the \"operator\" tags. (2023/11/08)", "operator": "Bangalore Metro Rail Corporation Limited", "railway": "subway", "subway": "yes", "voltage": "750"}}, {"type": "way", "id": 839641001, "nodes": [7835002981, 7835002982, 11586844145, 7835002983, 7835002984], "tags": {"bridge": "viaduct", "construction": "subway", "electrified": "rail", "frequency": "0", "layer": "2", "name": "Namma Metro Green Line Phase 2 Extension", "name:kn": "\u0ca8\u0cae\u0ccd\u0cae \u0cae\u0cc6\u0c9f\u0ccd\u0cb0\u0ccb", "railway": "construction", "voltage": "750"}}, {"type": "way", "id": 839641002, "nodes": [7835002980, 7835011185, 7835011186], "tags": {"bridge": "viaduct", "construction": "subway", "electrified": "rail", "frequency": "0", "layer": "2", "name": "Namma Metro Green Line Phase 2 Extension", "name:kn": "\u0ca8\u0cae\u0ccd\u0cae \u0cae\u0cc6\u0c9f\u0ccd\u0cb0\u0ccb", "railway": "construction", "voltage": "750"}}, {"type": "way", "id": 894923126, "nodes": [8318600548, 8318600549, 8318600550, 8318600551, 8318600552, 8318600553, 8318600562, 8318600554, 8318600555, 8318600556, 8318600557, 8318600558, 8318600559, 8318600561, 8318600548], "tags": {"building": "train_station", "layer": "1", "lit": "yes"}}, {"type": "way", "id": 894923127, "nodes": [8318600563, 8318600564, 8318600565, 8318600566, 8318600567, 8318600568, 8318600575, 8318600569, 8318600570, 8318600571, 8318600572, 8318600573, 8318600574, 8318600576, 8318600563], "tags": {"building": "train_station", "layer": "1", "lit": "yes"}}, {"type": "way", "id": 894923128, "nodes": [8318600577, 8318600585, 8318600587, 8318600586, 8318600589, 8318600579, 8318600580, 8318600581, 8318600582, 8318600583, 8318600584, 8318600590, 8318600577], "tags": {"building": "train_station", "layer": "1", "lit": "yes"}}, {"type": "way", "id": 1246298536, "nodes": [11586844145, 11586844144, 11586844143, 11586821048, 11586821047, 11586844142, 11586821046, 11586821045, 11586844141, 11586821044, 11586844140, 11586821043, 11586821042, 11586844139, 11586821041, 11586821040, 11586821039, 11586844138, 11586821038, 11586821037, 11586821036, 11586821035], "tags": {"bridge": "viaduct", "construction": "subway", "electrified": "rail", "frequency": "0", "layer": "2", "name": "Namma Metro Green Line Phase 2 Extension", "name:kn": "\u0ca8\u0cae\u0ccd\u0cae \u0cae\u0cc6\u0c9f\u0ccd\u0cb0\u0ccb", "railway": "construction", "voltage": "750"}}, {"type": "way", "id": 1352304543, "nodes": [12512069832, 12512069831, 12512069830, 12512069829, 12512069832], "tags": {"alt_name": "Platform 1", "bench": "yes", "covered": "yes", "departures_board": "realtime", "departures_board:speech_output": "yes", "layer": "2", "level": "2", "name": "Towards Madavara", "network": "Namma Metro", "operator": "BMRCL", "passenger_information_display": "yes", "public_transport": "platform", "railway": "platform", "ref": "1", "shelter": "yes", "subway": "yes", "surveillance": "yes", "tactile_paving": "yes", "wheelchair": "yes"}}, {"type": "way", "id": 1352304544, "nodes": [12512069836, 12512069835, 12512069834, 12512069833, 12512069836], "tags": {"alt_name": "Platform 2", "bench": "yes", "covered": "yes", "departures_board": "realtime", "departures_board:speech_output": "yes", "layer": "2", "level": "2", "name": "Towards Silk Institute", "network": "Namma Metro", "operator": "BMRCL", "passenger_information_display": "yes", "public_transport": "platform", "railway": "platform", "ref": "2", "shelter": "yes", "subway": "yes", "surveillance": "yes", "tactile_paving": "yes", "wheelchair": "yes"}}, {"type": "way", "id": 1352304545, "nodes": [12512069840, 12512069839, 12512069838, 12512069837, 12512069840], "tags": {"alt_name": "Platform 1", "bench": "yes", "covered": "yes", "departures_board": "realtime", "departures_board:speech_output": "yes", "layer": "2", "level": "2", "name": "Towards Madavara", "network": "Namma Metro", "operator": "BMRCL", "passenger_information_display": "yes", "public_transport": "platform", "railway": "platform", "ref": "1", "shelter": "yes", "subway": "yes", "surveillance": "yes", "tactile_paving": "yes", "wheelchair": "yes"}}, {"type": "way", "id": 1352304546, "nodes": [12512069844, 12512069843, 12512069842, 12512069841, 12512069844], "tags": {"alt_name": "Platform 2", "bench": "yes", "covered": "yes", "departures_board": "realtime", "departures_board:speech_output": "yes", "layer": "2", "level": "2", "name": "Towards Silk Institute", "network": "Namma Metro", "operator": "BMRCL", "passenger_information_display": "yes", "public_transport": "platform", "railway": "platform", "ref": "2", "shelter": "yes", "subway": "yes", "surveillance": "yes", "tactile_paving": "yes", "wheelchair": "yes"}}, {"type": "way", "id": 1352304547, "nodes": [12512069848, 12512069847, 12512069846, 12512069845, 12512069848], "tags": {"alt_name": "Platform 2", "bench": "yes", "covered": "yes", "departures_board": "realtime", "departures_board:speech_output": "yes", "layer": "2", "level": "2", "network": "Namma Metro", "operator": "BMRCL", "passenger_information_display": "yes", "public_transport": "platform", "railway": "platform", "ref": "2", "shelter": "yes", "subway": "yes", "surveillance": "yes", "tactile_paving": "yes", "wheelchair": "yes"}}, {"type": "way", "id": 1352304548, "nodes": [12512069852, 12512069851, 12512069850, 12512069849, 12512069852], "tags": {"alt_name": "Platform 1", "bench": "yes", "covered": "yes", "departures_board": "realtime", "departures_board:speech_output": "yes", "layer": "2", "level": "2", "name": "Towards Madavara", "network": "Namma Metro", "operator": "BMRCL", "passenger_information_display": "yes", "public_transport": "platform", "railway": "platform", "ref": "1", "shelter": "yes", "subway": "yes", "surveillance": "yes", "tactile_paving": "yes", "wheelchair": "yes"}}, {"type": "way", "id": 1424077599, "nodes": [13088803170, 13088803168, 13088803167, 13088803166, 13088803165, 13088803164, 13088803163, 13088803162, 13088803161, 13088803160, 13088803159, 13088803158, 13088803157, 13088803156, 13088803155, 13088803154, 13088803153, 13088803152, 13088803151, 13088803150, 13088803149, 13088803148, 13088803147, 13088803146, 13088803145, 13088803144, 13088803143, 13088803142, 13088803141, 13088803140, 13088803139, 13088803138, 13088803137, 13088803136, 13088803135, 13088803134, 13088803133, 13088803132, 13088803131, 13088803130, 13088803129, 13088803128, 13088803127, 13088803126, 13088803125, 13088803124, 13088803123, 13088803122, 13088803121, 13088803120, 13088803119, 13088803118, 13088803117, 13088803116, 13088803115, 13088803114, 13088803113, 13088803112, 13088803111, 13088803110, 13088803109, 13088803108, 13088803107, 13088803106, 13088803105, 13088803104, 13088803103, 13088803102, 13088803101, 13088803100, 13088803099, 13088803098, 13088803097, 13088803096, 13088803095, 13088803094, 13088803093, 13088803092, 13088803091, 13088803090, 13088803089, 13088803088, 13088803087, 13088803086, 13088803085, 13088803084, 13088803083, 13088803082, 13088803081, 13088803080, 13088803079, 13088803078, 13088803077, 13088803076, 13088803075, 13088803074, 13088803073, 13088803072, 13088803071, 13088803070, 13088803069, 13088803068, 13088803067, 13088803066, 13088803065, 13088803064, 13088803063, 13088803062, 13088803061, 13088803060, 13088803059, 13088803058, 13088803057, 13088803056, 13088803055, 13088803054, 13088803053, 13088803052, 13088803051, 13088803050, 13088803049, 13088803048, 13088803047, 13088803046, 13088803045, 13088803044, 13088803043, 13088803042, 13088803041, 13088803040, 13088803039, 13088803038, 13088803037, 13088803036, 13088803035, 13088803034, 13088803033, 13088803032, 13088803031, 13088803030, 13088803029, 13088803028, 13088803027, 13088803026, 13088803025, 13088803024, 13088803023, 13088803022, 13088803021, 13088803020, 13088803019, 13088803018, 13088803017, 13088803016, 13088803015, 13088803014, 13088803013, 13088803012, 13088803011, 13088803010, 13088803009, 13088803008, 13088803007, 13088803006, 13088803005, 13088803004, 13088803003, 13088803002, 13088803001, 13088803000, 13088802999, 13088802998, 13088802997, 13088802996, 13088802995, 13088802994, 13088802993, 13088802992, 13088802991, 13088802990, 13088802989, 13088802988, 13088802987, 13088802986, 13088802985, 13088802984, 13088802983, 13088802982, 13088802981, 13088802980, 13088802979, 13088802978, 13088802977, 13088802976, 13088802975, 13088802974, 13088802973, 13088802972, 13088802971, 13088802970, 13088802969, 13088802968, 13088802967, 13088802966, 13088802965, 13088802964, 13088802963, 13088802962, 13088802961, 13088802960, 13088802959, 13088802958, 13088802957, 13088802956, 13088802955, 13088802954, 13088802953, 13088802952, 13088802951, 13088802950, 13088802949, 13088802948, 13088802947, 13088802946, 13088802945, 13088802944, 13088802943, 13088802942, 13088802941, 13088802940, 13088802939, 13088802938, 13088802937, 13088802936, 13088802935, 13088802934, 13088802933, 13088802932, 13088802931, 13088802930, 13088802929, 13088802928, 13088802927, 13088802926, 13088802925, 13088802924, 13088802923, 13088802922, 13088802921, 13088802920, 13088802919, 13088802918, 13088802917, 13088802916, 13088802915, 13088802914, 13088802913, 13088802912, 13088802911, 13088802910, 13088802909, 13088802908, 13088802907, 13088802906, 13088802905, 13088802904, 13088802903, 13088802902, 13088802901, 13088802900, 13088802899, 13088802898, 13088802897, 13088802896, 13088802895, 13088802894, 13088802893, 13088802892, 13088802891, 13088802890, 13088802889, 13088802888, 13088802887, 13088802886, 13088802885, 13088802884, 13088802883, 13088802882, 13088802881, 13088802880, 13088802879, 13088802878, 13088802877, 13088802876, 13088802875, 13088802874, 13088802873, 13088802872, 13088802871, 13088802870, 13088802869, 13088802868, 13088802867, 13088802866, 13088802865, 13088802864, 13088802863, 13088802862, 13088802861, 13088802860, 13088802859, 13088802858, 13088802857, 13088802856, 13088802855, 13088802854, 13088802853, 13088802852, 13088802851, 13088802850, 13088802849, 13088802848, 13088802847, 13088802846, 13088802845, 13088802844, 13088802843, 13088802842, 13088802841, 13088802840, 13088802839, 13088802838, 13088802837, 13088802836, 13088802835, 13088802834, 13088802833, 13088802832, 13088802831, 13088802830, 13088802829, 13088802828, 13088802827, 13088802826, 13088802825, 13088802824, 13088802823, 13088802822, 13088802821, 13088802820, 13088802819, 13088802818, 13088802817, 13088802816, 13088802815, 13088802814, 13088802813, 13088802812, 13088802811, 13088802810, 13088802809, 13088802808, 13088802807, 13088802806, 13088802805, 13088802804, 13088802803, 13088802802, 13088802801, 13088802800, 13088802799, 13088802798, 13088802797, 13088802796, 13088802795, 13088802794, 13088802793, 13088802792, 13088802791, 13088802790, 13088802789, 13088802788, 13088802787, 13088802786, 13088802785, 13088802784, 13088802783, 13088802782, 13088802781, 13088802780, 13088802779, 13088802778, 13088802777, 13088802776, 13088802775, 13088802774, 13088802773, 13088802772, 13088802771, 13088802770, 13088802769, 13088802768, 13088802767, 13088802766, 13088802765, 13088802764, 13088802763, 13088802762, 13088802761, 13088802760, 13088802759, 13088802758, 13088802757, 13088802756, 13088802755, 13088802754, 13088802753, 13390364760, 13390364762, 13390364761, 13088802752, 13088802751, 13088802750, 13088802749, 13088802748, 13088802747, 13088802746, 13088802745, 13088802744, 13088802743, 13088802742, 13088802741, 13088802740, 13088802739, 13088802738, 13088802737, 13088802736, 13088802735, 13088802734, 13088802733, 13088802732, 13088802731, 13088802730, 13088802729, 13088802728, 13088802727, 13088802726, 13088802725, 13088802724, 13088802723, 13088802722, 13088802721, 13088802720, 13088802719, 13088802718, 13088802717, 13088802716, 13088802715, 13088802714, 13088802713, 13088802712, 13088802711, 13088802710, 13088802709, 13088802708, 13088802707, 13088802706, 13088802705, 13088802704, 13088802703, 13088802702, 13088802701, 13088802700, 13088802699, 13088802698, 13088802697, 13088802696, 13088802695, 13088802694, 13088802693, 13088802692, 13088802691, 13088802690, 13088802689, 13088802688, 13088802687, 13088802686, 13088802685, 13088802684, 13088802683, 13088802682, 13088802681, 13088802680, 13088802679, 13088802678, 13088802677, 13088802676, 13088802675, 13088802674, 13088802673, 13088802672, 13088802671, 13088802670, 13088802669, 13088802668, 13088802667, 13088802666, 13088802665, 13088802664, 13088802663, 13088802662, 13088802661, 13088802660, 13088802659, 13088802658, 13088802657, 13088802656, 13088802655, 13088802654, 13088802653, 13088802652, 13088802651, 13088802650, 13088802649, 13088802648, 13088802647, 13088802646, 13088802645, 13088802644, 13088802643, 13088802642, 13088802641, 13088802640, 13088802639, 13088802638, 13088802637, 13088802636, 13088802635, 13088802634, 13088802633, 13088802632, 13088802631, 13088802630, 13088802629, 13088802628, 13088802627, 13088802626, 13088802625, 13088802624, 13088802623, 13088802622, 13088802621, 13088802620, 13088802619, 13088802618, 13088802617, 13088802616, 13088802615, 13088802614, 13088802613, 13088802612, 13088802611, 13088802610, 13088802609, 13088802608, 13088802607, 13088802606, 13088802605, 13088802604, 13088802603, 13088802602, 13088802601, 13088802600, 13088802599, 13088802598, 13088802597, 13088802596, 13088802595, 13088802594, 13088802593, 13088802592, 13088802591, 13088802590, 13088802589, 13088802588, 13088802587, 13088802586, 13088802585, 13088802584, 13088802583, 13088802582, 13088802581, 13088802580, 13088802579, 13088802578, 13088802577, 13088802576, 13088802575, 13088802574, 13088802573, 13088802572, 13088802571, 13088802570, 13088802569, 13088802568, 13088802567, 13088802566, 13088802565, 13088802564, 13088802563, 13088802562, 13088802561, 13088802560, 13088802559, 13088802558, 13088802557, 13088802556, 13088802555, 13088802554, 13088802553, 13088802552, 13088802551, 13088802550, 13088802549, 13088802548, 13088802547, 13088802546, 13088802545, 13088802544, 13088802543, 13088802542, 13088802541, 13088802540, 13088802539, 13088802538, 13088802537, 13088802536, 13088802535, 13088802534, 13088802533, 13088802532, 13088802531, 13088802530, 13088802529, 13088802528, 13088802527, 13088802526, 13088802525, 13088802524, 13088802523, 13088802522, 13088802521, 13088802520, 13088802519, 13088802518, 13088802517, 13088802516, 13088802515, 13088802514, 13088802513, 13088802512, 13088802511, 13088802510, 13088802509, 13088802508, 13088802507, 13088802506, 13088802505, 13088802504, 13088802503, 13088802502, 13088802501, 13088802500, 13088802499, 13088802498, 13088802497, 13088802496, 13088802495, 13088802494, 13088802493, 13088802492, 13088802491, 13088802490, 13088802489, 13088802488, 13088802487, 13088802486, 13088802485, 13088802484, 13088802483, 13088802482, 13088802481, 13088802480, 13088802479, 13088802478, 13088802477, 13088802476, 13088802475, 13088802474, 13088802473, 13088802472, 13088802471, 13088802470, 13088802469, 13088802468, 13088802467, 13088802466, 13088802465, 13088802464, 13088802463, 13088802462, 13088802461, 13088802460, 13088802459, 13088802458, 13088802457, 13088802456, 13088802455, 13088802454, 13088802453, 13088802452, 13088802451, 13088802450, 13088802449, 13088802448, 13088802447, 13088802446, 13088802445, 13088802444, 13088802443, 13088802442, 13088802441, 13088802440, 13088802439, 13088802438, 13088802437, 13088802436, 13088802435, 13088802434, 13088802433, 13088802432, 13088802431, 13088802430, 13088802429, 13088802428, 13088802427, 13088802426, 13088802425, 13088802424, 13088802423, 13088802422, 13088802421, 13088802420, 13088802419, 13088802418, 13088802417, 13088802416, 13088802415, 13088802414, 13088802413, 13088802412, 13088802411, 13088802410, 13088802409, 13088802408, 13088802407, 13088802406, 13088802405, 13088802404, 13088802403, 13088802402, 13088802401, 13088802400, 13088802399, 13088802398, 13088802397, 13088802396, 13088802395, 13088802394, 13088802393, 13088802392, 13088802391, 13088802390, 13088802389, 13088802388, 13088802387, 13088802386, 13088802385, 13088802384, 13088802383, 13088802382, 13088802381, 13088802380, 13088802379, 13088802378, 13088802377, 13088802376, 13088802375, 13088802374, 13088802373, 13088802372, 13088802371, 13088802370, 13088802369, 13088802368, 13088802367, 13088802366, 13088802365, 13088802364, 13088802363, 13088802362, 13088802361, 13088802360, 13088802359, 13088802358, 13088802357, 13088802356, 13088802355, 13088802354, 13088802353, 13088802352, 13088802351, 13088802350, 13088802349, 13088802348, 13088802347, 13088802346, 13088802345, 13088802344, 13088802343, 13088802342, 13088802341, 13088802340, 13088802339, 13088802338, 13088802337, 13088802336, 13088802335, 13088802334, 13088802333, 13088802332, 13088802331, 13088802330, 13088802329, 13088802328, 13088802327, 13088802326, 13088802325, 13088802324, 13088802323, 13088802322, 13088802321, 13088802320, 13088802319, 13088802318, 13088802317, 13088802316, 13088802315, 13088802314, 13088802313, 13088802312, 13088802311, 13088802310, 13088802309, 13088802308, 13088802307, 13088802306, 13088802305, 13088802304, 13088802303, 13088802302, 13088802301, 13088760200, 13088760199, 13088760198, 13088760197, 13088760196, 13088760195, 13088760194, 13088760193, 13088760192, 13088760191, 13088760190, 13088760189, 13088760188, 13088760187, 13088760186, 13088760185, 13088760184, 13088760183, 13088760182, 13088760181, 13088760180, 13088760179, 13088760178, 13088760177, 13088760176, 13088760175, 13088760174, 13088760173, 13088760172, 13088760171, 13088760170, 13088760169, 13088760168, 13088760167, 13088760166, 13088760165, 13088760164, 13088760163, 13088760162, 13088760161, 13088760160, 13088760159, 13088760158, 13088760157, 13088760156, 13088760155, 13088760154, 13088760153, 13088803169], "tags": {"name": "Bengaluru Circular Railway", "proposed": "railway", "railway": "proposed"}}, {"type": "relation", "id": 10841360, "members": [{"type": "node", "ref": 7235263989, "role": "stop"}, {"type": "node", "ref": 5760198459, "role": "stop"}, {"type": "way", "ref": 894923127, "role": "station"}, {"type": "node", "ref": 8318600576, "role": "entrance"}, {"type": "node", "ref": 8318600575, "role": "entrance"}, {"type": "node", "ref": 9919651774, "role": ""}, {"type": "way", "ref": 1352304546, "role": "platform"}, {"type": "way", "ref": 1352304545, "role": "platform"}], "tags": {"code": "TGTP", "colour": "#009933", "name": "Thalaghattapura", "name:kn": "\u0ca4\u0cb2\u0c98\u0c9f\u0ccd\u0c9f\u0caa\u0cc1\u0cb0", "network": "Namma Metro", "operator": "BMRCL", "public_transport": "stop_area", "type": "public_transport"}}, {"type": "relation", "id": 10841361, "members": [{"type": "node", "ref": 7235263991, "role": "stop"}, {"type": "node", "ref": 5760198458, "role": "stop"}, {"type": "node", "ref": 8318600590, "role": "entrance"}, {"type": "node", "ref": 8318600589, "role": "entrance"}, {"type": "way", "ref": 894923128, "role": "station"}, {"type": "node", "ref": 9919651773, "role": ""}, {"type": "way", "ref": 1352304548, "role": "platform"}, {"type": "way", "ref": 1352304547, "role": "platform"}], "tags": {"code": "APTS", "colour": "#009933", "name": "Silk Institute", "name:kn": "\u0cb0\u0cc7\u0cb7\u0ccd\u0cae\u0cc6 \u0cb8\u0c82\u0cb8\u0ccd\u0ca5\u0cc6", "network": "Namma Metro", "operator": "BMRCL", "public_transport": "stop_area", "type": "public_transport"}}, {"type": "relation", "id": 10841364, "members": [{"type": "node", "ref": 5760198460, "role": "stop"}, {"type": "node", "ref": 7235263986, "role": "stop"}, {"type": "node", "ref": 8318600561, "role": "entrance"}, {"type": "way", "ref": 894923126, "role": "station"}, {"type": "node", "ref": 8318600562, "role": "entrance"}, {"type": "node", "ref": 9919651775, "role": ""}, {"type": "way", "ref": 1352304543, "role": "platform"}, {"type": "way", "ref": 1352304544, "role": "platform"}], "tags": {"code": "VJRH", "colour": "#009933", "name": "Vajarahalli", "name:kn": "\u0cb5\u0cbe\u0c9c\u0cb0\u0cb9\u0cb3\u0ccd\u0cb3\u0cbf", "network": "Namma Metro", "operator": "BMRCL", "public_transport": "stop_area", "type": "public_transport"}}, {"type": "relation", "id": 17292942, "members": [{"type": "node", "ref": 11681511502, "role": "stop"}, {"type": "node", "ref": 11681511503, "role": "platform"}], "tags": {"name": "St. Benedict's Church", "name:en": "St. Benedict's Church", "network": "BMTC", "operator": "BMTC", "public_transport": "stop_area", "type": "public_transport"}}, {"type": "relation", "id": 17292943, "members": [{"type": "node", "ref": 7146872946, "role": "stop"}, {"type": "node", "ref": 7822834607, "role": "platform"}], "tags": {"name": "Provident Sunworth Apartments", "name:en": "Provident Sunworth Apartments", "network": "BMTC", "operator": "BMTC", "public_transport": "stop_area", "type": "public_transport"}}, {"type": "relation", "id": 17843814, "members": [{"type": "node", "ref": 12057100544, "role": "stop"}, {"type": "node", "ref": 12057100545, "role": "platform"}], "tags": {"name": "Gubbalala", "name:en": "Gubbalala", "network": "BMTC", "operator": "BMTC", "public_transport": "stop_area", "type": "public_transport"}}, {"type": "relation", "id": 18564410, "members": [{"type": "node", "ref": 12508633661, "role": "stop"}, {"type": "node", "ref": 12508633662, "role": "platform"}], "tags": {"name": "Manjunatha Kalyana Mantapa", "name:en": "Manjunatha Kalyana Mantapa", "network": "BMTC", "operator": "BMTC", "public_transport": "stop_area", "type": "public_transport"}}, {"type": "relation", "id": 18564411, "members": [{"type": "node", "ref": 12508633664, "role": "stop"}, {"type": "node", "ref": 2417406624, "role": "platform"}], "tags": {"name": "Manjunatha Kalyana Mantapa", "name:en": "Manjunatha Kalyana Mantapa", "network": "BMTC", "operator": "BMTC", "public_transport": "stop_area", "type": "public_transport"}}, {"type": "relation", "id": 18570789, "members": [{"type": "node", "ref": 12511888189, "role": "stop"}, {"type": "node", "ref": 12511888190, "role": "platform"}], "tags": {"name": "Silk Institute Metro Station", "name:en": "Silk Institute Metro Station", "network": "BMTC", "operator": "BMTC", "public_transport": "stop_area", "type": "public_transport"}}, {"type": "relation", "id": 19157861, "members": [{"type": "node", "ref": 12852317293, "role": "stop"}, {"type": "node", "ref": 12852317294, "role": "platform"}], "tags": {"name": "Jyothi Farm", "name:en": "Jyothi Farm", "network": "BMTC", "operator": "BMTC", "public_transport": "stop_area", "type": "public_transport"}}, {"type": "relation", "id": 19157862, "members": [{"type": "node", "ref": 12852317295, "role": "stop"}, {"type": "node", "ref": 12852317296, "role": "platform"}], "tags": {"name": "Vajramuneshwara Gate", "name:en": "Vajramuneshwara Gate", "network": "BMTC", "operator": "BMTC", "public_transport": "stop_area", "type": "public_transport"}}, {"type": "relation", "id": 19157863, "members": [{"type": "node", "ref": 12852317297, "role": "stop"}, {"type": "node", "ref": 12852317298, "role": "platform"}], "tags": {"name": "Thalaghattapura", "name:en": "Thalaghattapura", "network": "BMTC", "operator": "BMTC", "public_transport": "stop_area", "type": "public_transport"}}, {"type": "relation", "id": 19157864, "members": [{"type": "node", "ref": 12852317299, "role": "stop"}, {"type": "node", "ref": 12852317300, "role": "platform"}], "tags": {"name": "Bayyanapalya", "name:en": "Bayyanapalya", "network": "BMTC", "operator": "BMTC", "public_transport": "stop_area", "type": "public_transport"}}, {"type": "relation", "id": 19377078, "members": [{"type": "node", "ref": 13016690034, "role": "stop"}, {"type": "node", "ref": 13016690035, "role": "platform"}], "tags": {"name": "Kaggalipura", "name:en": "Kaggalipura", "network": "BMTC", "operator": "BMTC", "public_transport": "stop_area", "type": "public_transport"}}, {"type": "relation", "id": 19377079, "members": [{"type": "node", "ref": 13016690036, "role": "stop"}, {"type": "node", "ref": 2410114855, "role": "platform"}], "tags": {"name": "Kaggalipura", "name:en": "Kaggalipura", "network": "BMTC", "operator": "BMTC", "public_transport": "stop_area", "type": "public_transport"}}, {"type": "relation", "id": 19384293, "members": [{"type": "node", "ref": 13020763145, "role": "stop"}, {"type": "node", "ref": 13020763146, "role": "platform"}], "tags": {"name": "Vajarahalli Metro Station", "name:en": "Vajarahalli Metro Station", "network": "BMTC", "operator": "BMTC", "public_transport": "stop_area", "type": "public_transport"}}, {"type": "relation", "id": 19384294, "members": [{"type": "node", "ref": 13020763147, "role": "stop"}, {"type": "node", "ref": 2410098451, "role": "platform"}], "tags": {"name": "Thalaghattapura", "name:en": "Thalaghattapura", "network": "BMTC", "operator": "BMTC", "public_transport": "stop_area", "type": "public_transport"}}, {"type": "relation", "id": 19384295, "members": [{"type": "node", "ref": 13020763148, "role": "stop"}, {"type": "node", "ref": 13020763149, "role": "platform"}], "tags": {"name": "Silk Institute Metro Station", "name:en": "Silk Institute Metro Station", "network": "BMTC", "operator": "BMTC", "public_transport": "stop_area", "type": "public_transport"}}, {"type": "relation", "id": 19384296, "members": [{"type": "node", "ref": 388469099, "role": "stop"}, {"type": "node", "ref": 388469098, "role": "platform"}], "tags": {"name": "Chinnayyanapalya Silk Farm", "name:en": "Chinnayyanapalya Silk Farm", "network": "BMTC", "operator": "BMTC", "public_transport": "stop_area", "type": "public_transport"}}, {"type": "relation", "id": 19384297, "members": [{"type": "node", "ref": 13020763150, "role": "stop"}, {"type": "node", "ref": 11888184714, "role": "platform"}], "tags": {"name": "Shanimahathma Temple", "name:en": "Shanimahathma Temple", "network": "BMTC", "operator": "BMTC", "public_transport": "stop_area", "type": "public_transport"}}, {"type": "relation", "id": 19384298, "members": [{"type": "node", "ref": 13020763151, "role": "stop"}, {"type": "node", "ref": 13020763152, "role": "platform"}], "tags": {"name": "Art of Living Sri Ravishankar Ashram", "name:en": "Art of Living Sri Ravishankar Ashram", "network": "BMTC", "operator": "BMTC", "public_transport": "stop_area", "type": "public_transport"}}, {"type": "relation", "id": 19719504, "members": [{"type": "node", "ref": 13235863342, "role": "stop"}, {"type": "node", "ref": 13235863343, "role": "platform"}], "tags": {"name": "Thalagattapura Metro Station", "name:en": "Thalagattapura Metro Station", "network": "BMTC", "operator": "BMTC", "public_transport": "stop_area", "type": "public_transport"}}, {"type": "relation", "id": 19719505, "members": [{"type": "node", "ref": 13235863344, "role": "stop"}, {"type": "node", "ref": 13235863345, "role": "platform"}], "tags": {"name": "Ganigarapalya", "name:en": "Ganigarapalya", "network": "BMTC", "operator": "BMTC", "public_transport": "stop_area", "type": "public_transport"}}, {"type": "relation", "id": 19719506, "members": [{"type": "node", "ref": 13235863346, "role": "stop"}, {"type": "node", "ref": 13235863347, "role": "platform"}], "tags": {"name": "Chikkegowdanapalya Junction", "name:en": "Chikkegowdanapalya Junction", "network": "BMTC", "operator": "BMTC", "public_transport": "stop_area", "type": "public_transport"}}]}