{"version": 0.6, "generator": "Overpass API 0.7.62.8 e802775f", "osm3s": {"timestamp_osm_base": "2026-01-12T06:31:39Z", "copyright": "The data included in this document is from www.openstreetmap.org. The data is made available under ODbL."}, "elements": [{"type": "node", "id": 6914911759, "lat": 13.1990395, "lon": 80.1760313, "tags": {"addr:district": "Tiruvallur", "addr:full": "#4/198 & 199, M.A.Koil St,M.A.Nagar,Redhills", "addr:postcode": "600052", "addr:state": "Tamil Nadu", "amenity": "hospital", "name": "Vanaja Hospital", "source": "OpenGovernmentData"}}, {"type": "node", "id": 7210899888, "lat": 13.1992282, "lon": 80.1786155, "tags": {"addr:district": "Chennai", "addr:full": "MA Nagar, Padiyanallur, Thiruvallur, NH-5, Great Northern Trunk Road, Thiruvallu", "addr:postcode": "600052", "addr:state": "Tamil Nadu", "addr:subdistrict": "Thiruvottiyur", "amenity": "hospital", "name": "Sree Sanjeevi Rayan Hospital", "operator:type": "private", "source": "OpenGovernmentData"}}, {"type": "node", "id": 7252256167, "lat": 13.2097678, "lon": 80.1121208, "tags": {"addr:block": "Sholavaram", "addr:district": "Thiruvallur", "addr:full": "Near Alamthi Padavattamman Kovil, Alamathi", "addr:postcode": "600052", "addr:state": "Tamil Nadu", "addr:subdistrict": "Ponneri", "amenity": "hospital", "name": "Govt Hospital, Alamathi", "source": "OpenGovernmentData"}}, {"type": "node", "id": 9717766098, "lat": 13.2086279, "lon": 80.1698455, "tags": {"amenity": "hospital", "healthcare": "hospital", "name": "Chamdhi Netralayam Eye Hospital"}}]}