{"version": 0.6, "generator": "Overpass API 0.7.62.8 e802775f", "osm3s": {"timestamp_osm_base": "2026-01-12T06:36:46Z", "copyright": "The data included in this document is from www.openstreetmap.org. The data is made available under ODbL."}, "elements": [{"type": "node", "id": 1182739082, "lat": 13.1635998, "lon": 80.2435516, "tags": {"amenity": "hospital", "name": "MMC Govenment Hospital"}}, {"type": "node", "id": 6929257550, "lat": 13.1638346, "lon": 80.2581659, "tags": {"addr:district": "Tiruvallur", "addr:full": "201, Kamarajar Salai Manali Chennai", "addr:postcode": "600068", "addr:state": "Tamil Nadu", "amenity": "hospital", "healthcare": "hospital", "name": "Anand Hospital, Chennai", "source": "OpenGovernmentData"}}, {"type": "node", "id": 7252256158, "lat": 13.163539, "lon": 80.2430669, "tags": {"addr:block": "Madhavaram", "addr:district": "Thiruvallur", "addr:full": "Government Hospital, Madhavaram, Madhavaram, Manjambakkam, Milk Colony", "addr:postcode": "600051", "addr:state": "Tamil Nadu", "addr:subdistrict": "Mathavaram", "amenity": "hospital", "name": "Madhavaram Government Hospital", "source": "OpenGovernmentData"}}, {"type": "node", "id": 7818702393, "lat": 13.165259, "lon": 80.25871, "tags": {"addr:district": "Tiruvallur", "addr:full": "Vimlapuram, Chinnasekkadu, Manali", "addr:postcode": "600068", "addr:state": "Tamil Nadu", "amenity": "hospital", "healthcare": "hospital", "name": "Sankara Eye Hospital", "source": "Local Knowledge"}}, {"type": "node", "id": 7818702420, "lat": 13.161861, "lon": 80.204431, "tags": {"addr:district": "Tiruvallur", "addr:full": "Puzhal", "addr:postcode": "600066", "addr:state": "Tamil Nadu", "amenity": "hospital", "name": "St. Anthony's Hospital", "source": "Local Knowledge"}}]}