{"version": 0.6, "generator": "Overpass API 0.7.62.8 e802775f", "osm3s": {"timestamp_osm_base": "2026-01-13T06:11:13Z", "copyright": "The data included in this document is from www.openstreetmap.org. The data is made available under ODbL."}, "elements": [{"type": "node", "id": 1985544651, "lat": 17.4856038, "lon": 78.3903262, "tags": {"addr:district": "Hyderabad", "addr:full": "JNTU Road, Near Malaysian Town Ship Circle, KPHB Colony, Kukatpally", "addr:postcode": "500072", "addr:state": "Telangana", "amenity": "hospital", "contact:mobile": "9160016230", "designation": "Multi Specialty Hospital", "emergency": "yes", "health_facility:type": "ICU Facilities; 24 7 Pharmacy; Ambulance; Radiology and Imaging; Laboratories Services", "healthcare:speciality": "Dermatology; ENT; General Medice; Gynaecology and Obstetrics; Nephrology; Neuro Surgery; Plastic Surgery; Pediatric; Physiotherapy", "medical_system": "Allopathic", "name": "Anupama Hospital", "operator:type": "private", "source": "OpenGovernmentData", "website": "https://anupamahospitals.com/"}}, {"type": "node", "id": 2428125212, "lat": 17.4979039, "lon": 78.3911608, "tags": {"amenity": "hospital", "check_date": "2024-03-16", "healthcare": "clinic", "name": "Lucid Clinic"}}, {"type": "node", "id": 2466596561, "lat": 17.4893332, "lon": 78.4066679}, {"type": "node", "id": 2466596562, "lat": 17.4901023, "lon": 78.4063964}, {"type": "node", "id": 2466596566, "lat": 17.4902983, "lon": 78.4074958}, {"type": "node", "id": 2466596569, "lat": 17.4907949, "lon": 78.4070839}, {"type": "node", "id": 2466596572, "lat": 17.4911831, "lon": 78.4066065}, {"type": "node", "id": 2579750830, "lat": 17.4911656, "lon": 78.3930858}, {"type": "node", "id": 2579750832, "lat": 17.4909695, "lon": 78.3929905}, {"type": "node", "id": 2579750834, "lat": 17.4908902, "lon": 78.3931629}, {"type": "node", "id": 2579750835, "lat": 17.4910877, "lon": 78.3932581}, {"type": "node", "id": 2632328586, "lat": 17.4888555, "lon": 78.3959947, "tags": {"addr:district": "Hyderabad", "addr:full": "MIG - 1/496, Road No 4 , Beside Venkateswara Swamy Temple , Kphb Colony", "addr:postcode": "500072", "addr:state": "Telangana", "amenity": "hospital", "check_date": "2024-03-16", "name": "Mamata Nursing Home", "source": "OpenGovernmentData"}}, {"type": "node", "id": 3207060834, "lat": 17.4976626, "lon": 78.3901045, "tags": {"addr:city": "Hyderabad", "addr:full": "Plot No 34 & 35, Sardar Patel Nagar, Nizampet X Road", "addr:postcode": "500072", "addr:state": "Telangana", "amenity": "hospital", "check_date": "2024-03-16", "contact:phone": "040-42466666,040-40203020", "healthcare": "hospital", "name": "Cygnus Institute of Gastroenterology Centre", "operator:type": "private", "source": "OpenGovernmentData", "website": "https://cygnusgastro.com/"}}, {"type": "node", "id": 3387338154, "lat": 17.4940872, "lon": 78.4029813}, {"type": "node", "id": 3387338155, "lat": 17.4943507, "lon": 78.4031154}, {"type": "node", "id": 3387338156, "lat": 17.4942023, "lon": 78.4033595}, {"type": "node", "id": 3387338157, "lat": 17.4939593, "lon": 78.4032307}, {"type": "node", "id": 3483976672, "lat": 17.4953877, "lon": 78.3966033}, {"type": "node", "id": 3483976673, "lat": 17.4953609, "lon": 78.3967219}, {"type": "node", "id": 3483976674, "lat": 17.4955043, "lon": 78.3967575}, {"type": "node", "id": 3484033409, "lat": 17.4947917, "lon": 78.3985051}, {"type": "node", "id": 3484033410, "lat": 17.4947285, "lon": 78.3986434}, {"type": "node", "id": 3484033411, "lat": 17.4945753, "lon": 78.3985664}, {"type": "node", "id": 3484033412, "lat": 17.4946385, "lon": 78.3984281}, {"type": "node", "id": 3504308696, "lat": 17.5034348, "lon": 78.3883633}, {"type": "node", "id": 3504308697, "lat": 17.5034573, "lon": 78.3884828}, {"type": "node", "id": 3504308698, "lat": 17.5033316, "lon": 78.3885087}, {"type": "node", "id": 3504308699, "lat": 17.5033091, "lon": 78.3883892}, {"type": "node", "id": 3504313626, "lat": 17.4941839, "lon": 78.4033499}, {"type": "node", "id": 3612481217, "lat": 17.4965175, "lon": 78.397603}, {"type": "node", "id": 3612481224, "lat": 17.4965753, "lon": 78.3975006}, {"type": "node", "id": 3612481256, "lat": 17.4968063, "lon": 78.3974878}, {"type": "node", "id": 3612482968, "lat": 17.5018184, "lon": 78.3890359}, {"type": "node", "id": 3612482977, "lat": 17.5018505, "lon": 78.3891531}, {"type": "node", "id": 3612483049, "lat": 17.5021179, "lon": 78.3889456}, {"type": "node", "id": 3612483056, "lat": 17.5021501, "lon": 78.3890628}, {"type": "node", "id": 3612577071, "lat": 17.5183316, "lon": 78.3968036}, {"type": "node", "id": 3612577149, "lat": 17.5185951, "lon": 78.3969389}, {"type": "node", "id": 3612577150, "lat": 17.5185969, "lon": 78.3968077}, {"type": "node", "id": 3617008119, "lat": 17.4953558, "lon": 78.319802}, {"type": "node", "id": 3617008123, "lat": 17.4953694, "lon": 78.3196877}, {"type": "node", "id": 3617008124, "lat": 17.4954253, "lon": 78.3198111}, {"type": "node", "id": 3617008125, "lat": 17.4954388, "lon": 78.3196967}, {"type": "node", "id": 4622047587, "lat": 17.4911604, "lon": 78.4066502}, {"type": "node", "id": 4665371689, "lat": 17.4955259, "lon": 78.332226, "tags": {"addr:district": "Hyderabad", "addr:full": "86, Near R.S. Brothers, Chandanagar, Serilingampally", "addr:postcode": "500050", "addr:state": "Telangana", "amenity": "hospital", "health_facility:type": "Separate Divisions for Each Speciality; State Of The Art Operation Theatres; Post Op Lounge with Beds; Advanced Eye Care Equipment; Complete Range of Optical Frames and Lenses; Exclusive Childrens Eye Care; 24 7 Pharmacy; Ambulance Services", "healthcare": "hospital", "healthcare:speciality": "Cataract Services; Refractive Surgery; Cornea Services; Glaucoma Services; Retina Services; Paediatric Ophthalmology and Squint Services; Oculoplasty Services; UVEITIS; Neuro Ophthalmology; Vision Rehabilitation Services; Computer Vision Syndrome Clinic", "medical_system": "Allopathic", "name": "Vasan Eye Care Hospital", "name:en": "Vasan Eye Care Hospital", "opening_hours": "Mo-Sa 09:00-20:00; Su 09:00-13:00", "operator:type": "private", "phone": "040 30124500", "source": "OpenGovernmentData", "website": "https://vasaneye.com/"}}, {"type": "node", "id": 4693614990, "lat": 17.4928587, "lon": 78.327984, "tags": {"amenity": "hospital", "healthcare": "hospital", "name": "Happy Children's Hospital", "name:en": "Happy Children's Hospital"}}, {"type": "node", "id": 4695632089, "lat": 17.4921861, "lon": 78.3275773, "tags": {"amenity": "hospital", "healthcare": "hospital", "name": "Vanaja Hospital", "name:en": "Vanaja Hospital"}}, {"type": "node", "id": 4716995091, "lat": 17.4959755, "lon": 78.337417, "tags": {"addr:city": "Hyderabad", "addr:full": "1-56/AH, National Highway 9, Beside Reliance Fresh, Madinaguda, Durga Estates, Miyapur", "addr:postcode": "500049", "addr:state": "Telangana", "amenity": "hospital", "contact:phone": "040 71071000", "healthcare": "hospital", "name": "Archana Hospital", "name:en": "Archana Hospital", "operator:type": "private", "source": "OpenGovernmentData", "website": "https://archanahospitals.com/"}}, {"type": "node", "id": 5563162636, "lat": 17.498762, "lon": 78.384027, "tags": {"addr:district": "Hyderabad", "addr:full": "Plot No. 33, Dharma Reddy Colony, KPHB Phase 2, Hydernagar, Kukatpally", "addr:postcode": "500072", "addr:state": "Telangana", "amenity": "hospital", "name": "S.V. Pooja Hospital", "source": "OpenGovernmentData"}}, {"type": "node", "id": 5610683567, "lat": 17.5183297, "lon": 78.3969347}, {"type": "node", "id": 5783995954, "lat": 17.4943337, "lon": 78.3448275, "tags": {"addr:city": "Hyderabad", "addr:housename": "Plot No 204, Mythri Nagar", "addr:housenumber": "Madina Nagar", "addr:postcode": "500049", "addr:street": "Main Road, Miyapur", "amenity": "hospital", "name": "Raja Hospital"}}, {"type": "node", "id": 6235740285, "lat": 17.4858906, "lon": 78.3875314, "tags": {"addr:district": "Hyderabad", "addr:full": "16-31-H/9, HIG - 9, Near IJM Circle, Beside SBI, KPHB Phase 6", "addr:postcode": "500072", "addr:state": "Telangana", "amenity": "hospital", "name": "Sriven Hospital", "source": "OpenGovernmentData"}}, {"type": "node", "id": 6237524890, "lat": 17.494517, "lon": 78.39876, "tags": {"addr:street": "Road No. 1", "amenity": "hospital", "check_date": "2024-03-16", "healthcare": "hospital", "name": "Vijaya Diagnostic Centre"}}, {"type": "node", "id": 6237898985, "lat": 17.4967099, "lon": 78.3976994}, {"type": "node", "id": 6248864185, "lat": 17.4949239, "lon": 78.3969527, "tags": {"amenity": "hospital", "check_date": "2024-03-16", "name": "Medical Store"}}, {"type": "node", "id": 6269697486, "lat": 17.491694, "lon": 78.3958249, "tags": {"amenity": "hospital", "check_date": "2024-03-16", "name": "Aurobindo Nethralaya"}}, {"type": "node", "id": 6479941227, "lat": 17.4911264, "lon": 78.4010815, "tags": {"addr:district": "Hyderabad", "addr:full": "MIG-196, Road Number1, K.P.H.B.", "addr:postcode": "500072", "addr:state": "Telangana", "amenity": "hospital", "check_date": "2024-03-16", "health_facility:type": "Emergency;Operation Theatre", "healthcare:speciality": "Neonatical Intensive Care Unit;Pediatric Intensive Care Unit;Obstetrics and Gynecology", "medical_system": "Allopathic", "name": "Udbhava Children's Hospital", "operator:type": "private", "phone": "040 23155733;040 65555733", "source": "OpenGovernmentData", "website": "www.udbhavachildrenshospital.com"}}, {"type": "node", "id": 6480117503, "lat": 17.4912927, "lon": 78.3969096, "tags": {"addr:district": "Hyderabad", "addr:full": "Road No.4, KPHB Colony, Kukatpally", "addr:postcode": "500072", "addr:state": "Telangana", "amenity": "hospital", "contact:mobile": "9392159169", "email": "preetihospital@gmail.com", "medical_system": "Allopathic", "name": "Preeti Urology and Kidney Hospital", "operator:type": "private", "phone": "040 23152444; 93921 59169", "source": "OpenGovernmentData", "website": "https://www.preetihospital.com"}}, {"type": "node", "id": 6481950561, "lat": 17.5007182, "lon": 78.3825836, "tags": {"addr:district": "Hyderabad", "addr:full": "Nizampet Road, Kukatpally", "addr:postcode": "500072", "addr:state": "Telangana", "amenity": "hospital", "fixme": "Please verify the accurate position of the hospital as I have mapped the facility based on the address provided in Open Government Data", "name": "Abhaya Multi Speciality Hospital", "source": "OpenGovernmentData"}}, {"type": "node", "id": 6482139039, "lat": 17.4966133, "lon": 78.3398798, "tags": {"addr:district": "Hyderabad", "addr:full": "Plot Number 40/41, Mythri Nagar, Madinaguda", "addr:postcode": "500050", "addr:state": "Telangana", "amenity": "hospital", "contact:mobile": "7732038844", "health_facility:type": "Outpatient Clinic;Operating Theaters;Radiology Services;Pharmacy;Pathological Labs;Pre and Post Operating Recovery;Health Check ups", "healthcare:speciality": "Gynaecology and Obstetrics;Paediatrics;Paediatrics Surgery;General Medicine;General Surgery;Laparoscopic Surgery;Chest Physician;ENT;Urology;Neurology;NeuroSurgery;Ophthalmology;Orthopaedics;Dermatology;Physiotherapy;Dietician;Psychology", "medical_system": "Allopathic", "name": "Pranaam Hospitals", "operator:type": "private", "phone": "040 23042777", "source": "OpenGovernmentData", "website": "https://pranaamhospitals.in/"}}, {"type": "node", "id": 6482139577, "lat": 17.4925267, "lon": 78.39749, "tags": {"addr:district": "Hyderabad", "addr:full": "MIG - 318 & 260, Remedy Hospital Lane, KPHB Colony, Kukatpally", "addr:postcode": "500072", "addr:state": "Telangana", "amenity": "hospital", "name": "Vignesh Nursing Home", "source": "OpenGovernmentData"}}, {"type": "node", "id": 6484727717, "lat": 17.4920608, "lon": 78.4015616, "tags": {"addr:district": "Hyderabad", "addr:full": "MIG 303, Road Number 1, Opposite Hotel Grand Sitara, KPHB Colony, Kukatpally", "addr:postcode": "500072", "addr:state": "Telangana", "amenity": "hospital", "check_date": "2024-03-16", "email": "info@prasadhospitals.in", "health_facility:type": "ENT; General Surgery; General Medicine; Plastic Surgery; Dermatology; Obstetrics and Gynaecology; Infertility and IVF; Paediatrics; Orthopedics and Trauma; Anesthesia and Critical Care", "healthcare:speciality": "Ultrasound Workup; Human Embryo Biopsy; Intraterine Insemination IUI ; In Vitro Fertilization IVF ; Sperm Retrieval Assisted Hatching; Blastocyst Culture; Egg Donation; Embryo Donation", "medical_system": "Allopathic", "name": "Prasad Hospital", "operator:type": "private", "phone": "040 64519124; 040 64514074;040 40111596", "source": "OpenGovernmentData", "website": "https://prasadhospitals.in/"}}, {"type": "node", "id": 6484770861, "lat": 17.4876454, "lon": 78.4000755, "tags": {"addr:district": "Hyderabad", "addr:full": "Plot No: C-15, 1st Road, KPHB Colony, Opp. Axis Bank, Kukatpally", "addr:postcode": "500072", "addr:state": "Telangana", "amenity": "hospital", "check_date": "2024-03-16", "email": "bharat@sankhyahospitals.com", "emergency": "yes", "emergency_telephone_code": "9908537777", "fax": "23153939; 67044439", "health_facility:type": "ICCU Units; AMCU Units; NICU Units; Ventilation Services; Continuous Positive Airway Pressure; Surfactant Therapy; Parental Nutrition; Cardio Respiratory Monitoring; Invasive Blood; Pressure Monitoring; Exchange Transfusion; Cardio Echo", "healthcare:speciality": "Paediatrics and Neonatology; Fetal Surgery; Separation of Conjoined Twins; Tumors; Malformations; Pediatric cardiothoracic Surgery; Pediatric nephrology; Pediatric NeuroSurgery; Pediatric Urological Surgery", "medical_system": "Allopathic", "name": "Sankhya Hospital", "opening_hours": "24/7", "operator:type": "private", "phone": "040 67044444; 040 23153535", "source": "OpenGovernmentData", "website": "https://www.sankhyahospitals.com/"}}, {"type": "node", "id": 6484873593, "lat": 17.4918932, "lon": 78.3972265, "tags": {"addr:district": "Hyderabad", "addr:full": "MIG 313, Remedy Hospital Lane, KPHB Colony", "addr:postcode": "500072", "addr:state": "Telangana", "amenity": "hospital", "check_date": "2024-03-16", "name": "V.M.R Hospital", "source": "OpenGovernmentData"}}, {"type": "node", "id": 6484944575, "lat": 17.4905626, "lon": 78.4072572}, {"type": "node", "id": 6484947125, "lat": 17.494399, "lon": 78.4020397, "tags": {"addr:district": "Hyderabad", "addr:full": "Plot No. 140/1, Bhagyanagar Colony, Behind Margadarsi Building, Kukatpally", "addr:postcode": "500072", "addr:state": "Telangana", "amenity": "hospital", "check_date": "2024-03-16", "fax": "23065310", "healthcare": "hospital", "name": "Sushma Nursing Home", "source": "OpenGovernmentData"}}, {"type": "node", "id": 6485054528, "lat": 17.4956729, "lon": 78.3250616, "tags": {"addr:district": "Hyderabad", "addr:full": "2-58/8, Near Telephone Exchange, SBI Building, Chandanagar", "addr:postcode": "500050", "addr:state": "Telangana", "amenity": "hospital", "healthcare": "hospital", "name": "Vijaya Nursing Home", "phone": "040-2303-4173 ; 040-2303-6966", "source": "OpenGovernmentData", "website": "https://www.vijayanursinghome.in/"}}, {"type": "node", "id": 6485786103, "lat": 17.4932209, "lon": 78.327158, "tags": {"addr:district": "Hyderabad", "addr:full": "HUDA Colony, Opp. Kidzonia International Preschool, Chanda Nagar", "addr:postcode": "500050", "addr:state": "Telangana", "amenity": "hospital", "healthcare": "hospital", "name": "Sandhya Nursing Home", "source": "OpenGovernmentData"}}, {"type": "node", "id": 6486930279, "lat": 17.4940242, "lon": 78.3985448, "tags": {"addr:district": "Hyderabad", "addr:full": "MIG 244 & 245, Road No 4, KPHB, Kukatpally", "addr:postcode": "500072", "addr:state": "Telangana", "amenity": "hospital", "check_date": "2024-03-16", "contact:email": "info@microenthospital.com", "contact:phone": "+91 9100771482; 040 42431234", "name": "Micro Care Ent Hospital and Research Institute", "source": "OpenGovernmentData", "website": "https://www.microenthospital.com"}}, {"type": "node", "id": 6487305068, "lat": 17.4941988, "lon": 78.3240189, "tags": {"addr:district": "Hyderabad", "addr:full": "Opp. Venkateswara Swamy Temple, Chandanagar, Gangaram", "addr:postcode": "500050", "addr:state": "Telangana", "amenity": "hospital", "email": "saisivahospital@gmail.com", "fax": "40175720", "healthcare": "hospital", "name": "Sai Siva Children\u2019s Hospital", "phone": "040- 23037879", "source": "OpenGovernmentData", "website": "https://www.saisivahospital.com/"}}, {"type": "node", "id": 6487508103, "lat": 17.4939308, "lon": 78.3267166, "tags": {"addr:district": "Hyderabad", "addr:full": "6-94/6/C, Manjeera Road, Opposite Hotel Swagath Residency, Chandanagar", "addr:postcode": "500050", "addr:state": "Telangana", "amenity": "hospital", "contact:email": "kadiminursinghome@gmail.com", "contact:mobile": "8374805630", "emergency_telephone_code": "8374805630", "fax": "040 23036926; 040 23031454", "healthcare": "hospital", "healthcare:speciality": "Laparoscopic Surgery and General Surgery;Obstetrics and Gynaecology;Infertility;Diabetes Care;Orthopadics and Trauma;Physician Care;Skin and Cosmetology;Eye;ENT;Urology;Dietician;Physiotherapy", "medical_system": "Allopathic", "name": "Kadimi Nursing Home", "operator:type": "private", "phone": "040 23033599;040 23036926;", "source": "OpenGovernmentData", "website": "https://www.kadiminursinghome.com/"}}, {"type": "node", "id": 6487609803, "lat": 17.4957541, "lon": 78.3410724, "tags": {"addr:district": "Hyderabad", "addr:full": "7-10, Opp. Pearls Inn Hotel, Madinaguda, Miyapur", "addr:postcode": "500050", "addr:state": "Telangana", "amenity": "hospital", "name": "Ragi Hospital", "source": "OpenGovernmentData"}}, {"type": "node", "id": 6487886439, "lat": 17.5044701, "lon": 78.3564663, "tags": {"addr:district": "Hyderabad", "addr:full": "Plot No's. 33,34,35, Alluri Sita Ram Raju Colony, Near DK enclave", "addr:postcode": "500050", "addr:state": "Telangana", "amenity": "hospital", "healthcare": "hospital", "name": "Mirra Multi Specialty Hospital", "source": "OpenGovernmentData"}}, {"type": "node", "id": 6489964063, "lat": 17.4954209, "lon": 78.3226825, "tags": {"addr:district": "Hyderabad", "addr:full": "2-30/A/3, Near SBI Bank and Chanda Nagar Bus Stop, Chandanagar", "addr:postcode": "500050", "addr:state": "Telangana", "amenity": "hospital", "healthcare": "hospital", "name": "RR Orthopedic Hospital", "source": "OpenGovernmentData"}}, {"type": "node", "id": 6490630817, "lat": 17.4968803, "lon": 78.397838}, {"type": "node", "id": 6490630818, "lat": 17.4968262, "lon": 78.3979612}, {"type": "node", "id": 6490630819, "lat": 17.4965128, "lon": 78.3978096}, {"type": "node", "id": 6490630820, "lat": 17.496567, "lon": 78.3976865}, {"type": "node", "id": 6490913751, "lat": 17.4912076, "lon": 78.4011693, "tags": {"addr:district": "Hyderabad", "addr:full": "Plot Number 197, Road Number 1, KPHB Colony, Kukatpally", "addr:postcode": "500072", "addr:state": "Telangana", "amenity": "hospital", "check_date": "2024-03-16", "contact:mobile": "8008228811", "email": "globaleyehospital@gmail.com", "healthcare:speciality": "Primary Eye Care;Lasik Services;Cataract Services;Cornea and Refractive Surgery Services;Glaucoma Services;Retina and Diabetic Retinopathy;Retina and Hypertensive Retinopathy;Contact Lens Services;Pediatric Service", "medical_system": "Allopathic", "name": "Global Eye Hospital", "operator:type": "private", "phone": "040 64510330", "source": "OpenGovernmentData", "website": "https://globaleyehospital.com/"}}, {"type": "node", "id": 6491365368, "lat": 17.4932836, "lon": 78.4017017, "tags": {"addr:district": "Hyderabad", "addr:full": "MIG 218, KPHB Main Road, Kukatpally", "addr:postcode": "500072", "addr:state": "Telangana", "amenity": "hospital", "check_date": "2024-03-16", "contact:mobile": "09652533288; 09652533211", "health_facility:type": "24 Hours Ambulance;General Medicine;Computerized ECG Facility;Day Care Facility;Emergency Diagnostics", "healthcare:speciality": "Cardiology;Nephrology;Neurology;Diabetes", "medical_system": "Allopathic", "name": "Surakshaka Multi Speciality Hospital", "operator:type": "private", "phone": "9652533255", "source": "OpenGovernmentData", "website": "http://surakshaka.com"}}, {"type": "node", "id": 6494242172, "lat": 17.4936289, "lon": 78.4000562, "tags": {"addr:district": "Hyderabad", "addr:full": "LIG No. 564 & 565, Road No. 3, Behind RS Brothers, KPHB Colony, Kukatpally", "addr:postcode": "500072", "addr:state": "Telangana", "amenity": "hospital", "check_date": "2024-03-16", "contact:email": "ravihospital2011@gmail.com", "contact:mobile": "+91 9248005150 ; +91 9247842041", "email": "ravihospital2011@gmail.com", "healthcare": "hospital", "name": "Ravi Hospital", "phone": "040-40173131", "source": "OpenGovernmentData", "website": "https://www.ravihospitals.com/"}}, {"type": "node", "id": 6494412250, "lat": 17.493721, "lon": 78.3983745, "tags": {"addr:district": "Hyderabad", "addr:full": "Plot No. 247, G.R.G. Plaza, Road No.4, K.P.H.B Phase-1", "addr:postcode": "500072", "addr:state": "Telangana", "amenity": "hospital", "check_date": "2024-03-16", "name": "Merit Care Hospital", "source": "OpenGovernmentData"}}, {"type": "node", "id": 6494788582, "lat": 17.494784, "lon": 78.3404388, "tags": {"addr:district": "Hyderabad", "addr:full": "NH 65 , Madinaguda Bus Stop", "addr:postcode": "500049", "addr:state": "Telangana", "amenity": "hospital", "name": "Sarada Nursing Home", "source": "OpenGovernmentData"}}, {"type": "node", "id": 6495246032, "lat": 17.4954561, "lon": 78.3208955, "tags": {"addr:district": "Hyderabad", "addr:full": "NH 9, Opposite Bharat Petrol Pump, Chandanagar", "addr:postcode": "500050", "addr:state": "Telangana", "amenity": "hospital", "fax": "040 23030345", "healthcare": "hospital", "name": "Vishnu Hospital", "source": "OpenGovernmentData"}}, {"type": "node", "id": 6496885010, "lat": 17.4917263, "lon": 78.3970112, "tags": {"addr:district": "Hyderabad", "addr:full": "MIG 311, KPHB Phase I, Kukatpally", "addr:postcode": "500072", "addr:state": "Telangana", "amenity": "hospital", "name": "Eswar Eye Hospital", "source": "OpenGovernmentData"}}, {"type": "node", "id": 6496965130, "lat": 17.4947378, "lon": 78.3225725, "tags": {"addr:district": "Hyderabad", "addr:full": "Opposite State Bank Of India, Near Chandanagar Bus Stop, Chandanagar", "addr:postcode": "500050", "addr:state": "Telangana", "amenity": "hospital", "fax": "23020564", "healthcare": "hospital", "name": "Kiran Swetha Children Clinic", "source": "OpenGovernmentData"}}, {"type": "node", "id": 6497026146, "lat": 17.4982349, "lon": 78.3144481, "tags": {"addr:district": "Hyderabad", "addr:full": "Plot No: 5-4/12-16, Opposite Gandamma Temple, Chanda Nagar Main Road", "addr:state": "Telangana", "amenity": "hospital", "emergency_telephone_code": "9848030128", "fax": "040 40212000; 040 23030381", "health_facility:type": "Cardiology;Cardio Vascular and Thoracic Surgery;Trauma and Critical Care", "healthcare": "hospital", "healthcare:speciality": "Casuality;Opthalmology;Dermatology;General Surgery;Physiotherapy;Neurology;Pediatrics;Cardiology", "medical_system": "Allopathic", "name": "Mythri Multi Speciality Hospital", "operator:type": "private", "phone": "040 64633357;040 64633358;040 64633359", "source": "OpenGovernmentData"}}, {"type": "node", "id": 6503086685, "lat": 17.4946701, "lon": 78.3268218, "tags": {"addr:district": "Hyderabad", "addr:full": "Opp.Swagath Hotel, Above RKS Electronics, Chandanagar", "addr:postcode": "500050", "addr:state": "Telangana", "amenity": "hospital", "healthcare": "hospital", "name": "Sai Anurag Hosptial", "source": "OpenGovernmentData"}}, {"type": "node", "id": 6503755850, "lat": 17.4943913, "lon": 78.3232471, "tags": {"addr:district": "Hyderabad", "addr:full": "4-122/A, Opposite Vijaya Bank, Chanda Nagar", "addr:postcode": "500050", "addr:state": "Telangana", "amenity": "hospital", "fax": "040 23039092", "healthcare": "hospital", "name": "Anitha Nursing Home", "source": "OpenGovernmentData"}}, {"type": "node", "id": 6504110557, "lat": 17.4997851, "lon": 78.3841534, "tags": {"addr:district": "Hyderabad", "addr:full": "Opposite Chermas, Hydernagar, Kukatpally", "addr:postcode": "500072", "addr:state": "Telangana", "amenity": "hospital", "contact:tollfree": "1802 2122", "email": "info@rainbowhospitals.in", "emergency": "yes", "healthcare:speciality": "General Pediatrics;Neonatology;Pediatric Neurology;Anasthesia and Pain Management;Pediatric Gastroenterology;Pediatric Nephrology;Hematology & Oncology;ENT;Psychiatry;Pediatric Cardiology;Speech & Language Therapy;Physiotherapy and Rehabilitation Unit etc", "medical_system": "Allopathic", "name": "Rainbow Childrens Hospital", "opening_hours": "24/7", "operator:type": "private", "phone": "040 42462300;040 23892300", "source": "OpenGovernmentData", "website": "https://www.rainbowhospitals.in/"}}, {"type": "node", "id": 6504261883, "lat": 17.4853224, "lon": 78.3899282, "tags": {"addr:district": "Hyderabad", "addr:full": "540/1 and 2, JNTU Hitech City Road, VI - Phase, KPHB Colony", "addr:postcode": "500072", "addr:state": "Telangana", "amenity": "hospital", "check_date": "2024-03-16", "health_facility:type": "Personalised Patient Care;Hospital Information System", "healthcare:speciality": "Plastic Surgery;Reconstructive Surgery;Aesthetic Surgeries;Gynecology and Obsteric;Orthopedic;Pediatric;Pulmonology;General Medicine;Urology;Laproscopic Surgeries", "medical_system": "Allopathic", "name": "Icon Hospital", "operator:type": "private", "phone": "040 64602345;040 23159666", "source": "OpenGovernmentData"}}, {"type": "node", "id": 6504284028, "lat": 17.494147, "lon": 78.4053522, "tags": {"addr:district": "Hyderabad", "addr:full": "2-22-254, Street No.3, A.S. Raju Nagar, Behind South India Shopping Mall, Kukatpally", "addr:postcode": "500072", "addr:state": "Telangana", "amenity": "hospital", "name": "Kavya Nursing Home", "source": "OpenGovernmentData"}}, {"type": "node", "id": 6505170700, "lat": 17.4947648, "lon": 78.3600202, "tags": {"addr:district": "Hyderabad", "addr:full": "Plot No. 12 & 13, Madhava Nagar, Behind Sai Ranga Theatre, Miyapur", "addr:postcode": "500049", "addr:state": "Telangana", "amenity": "hospital", "contact:phone": "040 23040450; 040 23048625", "fax": "040 23042800", "name": "Shilpa Nursing Home", "source": "OpenGovernmentData"}}, {"type": "node", "id": 6505444434, "lat": 17.4948223, "lon": 78.4016588, "tags": {"addr:district": "Hyderabad", "addr:full": "Bhagyanagar Colony, Opposite K.P.H.B", "addr:postcode": "500072", "addr:state": "Telangana", "amenity": "hospital", "check_date": "2024-03-16", "healthcare": "hospital", "name": "Varsha Hospital", "source": "OpenGovernmentData"}}, {"type": "node", "id": 6505485733, "lat": 17.4858827, "lon": 78.3890216, "tags": {"addr:district": "Hyderabad", "addr:full": "HIG - 547, 6th Phase, KPHB Colony, Opposite Malaysian Township", "addr:postcode": "500072", "addr:state": "Telangana", "amenity": "hospital", "fax": "040 23156976", "name": "Sagar Hospital", "source": "OpenGovernmentData"}}, {"type": "node", "id": 6507652189, "lat": 17.4915108, "lon": 78.4013115, "tags": {"addr:district": "Hyderabad", "addr:full": "MIG -200, Road Number1, KPHB Colony, Kukatpally", "addr:postcode": "500072", "addr:state": "Telangana", "amenity": "hospital", "check_date": "2024-03-16", "name": "Padmaavathi Netralaya", "source": "OpenGovernmentData"}}, {"type": "node", "id": 6513113356, "lat": 17.4961817, "lon": 78.4055095, "tags": {"addr:district": "Hyderabad", "addr:full": "22-163/2, Adjacent to Global Enclave, Bhagyanagar Colony, Kukatpally", "addr:postcode": "500072", "addr:state": "Telangana", "amenity": "hospital", "check_date": "2024-03-16", "healthcare": "hospital", "name": "Tadla Eye Hospital", "source": "OpenGovernmentData"}}, {"type": "node", "id": 6530722593, "lat": 17.4951345, "lon": 78.4024782, "tags": {"addr:district": "Hyderabad", "addr:full": "Plot No.95, G-13, Pragathi Encalve, Bhagyangar Colony, Opposite KPHB Colony", "addr:postcode": "500072", "addr:state": "Telangana", "amenity": "hospital", "check_date": "2024-03-16", "fixme": "Please verify the accurate position of the hospital/health care centre as I have mapped the facility based on the address provided in Open Government data", "healthcare": "hospital", "name": "Sujatha Nursing Home", "source": "OpenGovernmentData"}}, {"type": "node", "id": 6532278196, "lat": 17.5022005, "lon": 78.3129877, "tags": {"addr:district": "Hyderabad", "addr:full": "23-15, Vinayaknagar, Ramachandrapuram", "addr:postcode": "502032", "addr:state": "Telangana", "amenity": "hospital", "healthcare": "hospital", "name": "Sidhartha Nursing Home", "source": "OpenGovernmentData"}}, {"type": "node", "id": 6548781242, "lat": 17.4926185, "lon": 78.3964245, "tags": {"addr:city": "Hyderabad", "addr:full": "HIG - 210, Phase I , Near Maharastra Bank, Kphb Colony, Kukatpally", "addr:postcode": "500072", "addr:state": "Telangana", "amenity": "hospital", "check_date": "2024-03-16", "contact:phone": "040-23051000;040-23052225", "name": "Sri Aurobindo Nethralaya", "operator:type": "private", "source": "OpenGovernmentData"}}, {"type": "node", "id": 6548786015, "lat": 17.5066316, "lon": 78.3842419, "tags": {"addr:city": "Hyderabad", "addr:full": "Plot No:9, Opp Akshara School, Nizampet", "addr:postcode": "500072", "addr:state": "Telangana", "amenity": "hospital", "contact:phone": "4023890662", "name": "CALCIUM HOSPITAL", "operator:type": "private", "source": "OpenGovernmentData"}}, {"type": "node", "id": 6548861206, "lat": 17.5254356, "lon": 78.3709408, "tags": {"addr:city": "Hyderabad", "addr:full": "SARADA ACRADE, FLAT NO.47&48, HOUSE NO 3-1-47, JAYADEEPIKA ESTATE,RAJIV GANDHI NAGARBACHUPALLY", "addr:postcode": "500090", "addr:state": "Telangana", "amenity": "hospital", "contact:phone": "42402111", "name": "ARUNODAYA HOSPITAL", "operator": "Private", "source": "OpenGovernmentData"}}, {"type": "node", "id": 6549141042, "lat": 17.4951101, "lon": 78.3706122, "tags": {"addr:city": "Hyderabad", "addr:full": "Plot No: 336, MATRUSRI NAGAR, CALVARY TEMPLE ROAD, MIYAPUR", "addr:postcode": "500049", "addr:state": "Telangana", "amenity": "hospital", "contact:phone": "8008033447", "name": "ENT CARE HOSPITAL", "operator:type": "private", "source": "OpenGovernmentData"}}, {"type": "node", "id": 6549141640, "lat": 17.4944322, "lon": 78.3415653, "tags": {"addr:city": "Hyderabad", "addr:full": "Plot No:26-27-29, NEAR VIJETHA SUPER MARKET, BEHIND BHARAT PETROL PUMP, MADINAGUDA", "addr:postcode": "500049", "addr:state": "Telangana", "amenity": "hospital", "contact:phone": "040 23043693", "name": "NAIDU EYE HOSPITAL", "operator:type": "private", "source": "OpenGovernmentData"}}, {"type": "node", "id": 6549150740, "lat": 17.494321, "lon": 78.3461505, "tags": {"addr:city": "Hyderabad", "addr:district": "Rangareddy", "addr:full": "Plot No:. 204, Mythri Nagar, Near Madinaguda, Miyapur", "addr:postcode": "500049", "addr:state": "Telangana", "amenity": "hospital", "contact:phone": "04023044155; 42007070", "fax": "23044133", "name": "HEALIX HOSPITAL", "operator:type": "private", "source": "OpenGovernmentData"}}, {"type": "node", "id": 6549190771, "lat": 17.4921363, "lon": 78.348083, "tags": {"addr:full": "#222&223, MYTHRINAGAR, PHASE-II, Opp FORTURE HEIGHTS, MIYAPUR", "addr:postcode": "500049", "addr:state": "Telangana", "amenity": "hospital", "contact:phone": "04047470000", "name": "SRIKARA HOSPITALS", "operator:type": "private", "source": "OpenGovernmentData", "website": "https://www.srikarahospitals.com/"}}, {"type": "node", "id": 6549196760, "lat": 17.4885611, "lon": 78.3915214, "tags": {"addr:district": "Hyderabad", "addr:full": "HIG 450, Opp Manjeera Trinity Corporate, JNTU-HITEC city road KPHB Phase 6, Kukatpally", "addr:postcode": "500072", "addr:state": "Telangana", "amenity": "hospital", "check_date": "2024-03-16", "contact:phone": "040-40064008; 040-40117931", "name": "Amrita ENT Head & Neck Hospital", "operator:type": "private", "source": "OpenGovernmentData", "website": "https://amritaent.com/"}}, {"type": "node", "id": 6549287021, "lat": 17.4954081, "lon": 78.3213112, "tags": {"addr:district": "Hyderabad", "addr:full": "2 - 24/1, Rajalaxmi Complex, SBI Building, Main Road, Chandanagar", "addr:postcode": "500050", "addr:state": "Telangana", "amenity": "hospital", "contact:phone": "4040065444", "healthcare": "hospital", "name": "VIJAYA SREE HOSPITAL", "operator:type": "private", "source": "OpenGovernmentData"}}, {"type": "node", "id": 6549292128, "lat": 17.4887428, "lon": 78.4005457, "tags": {"addr:city": "Hyderabad", "addr:full": "MIG 113 & 114, Road No. 1, KPHB Colony, Kukatpally", "addr:postcode": "500072", "addr:state": "Telangana", "amenity": "hospital", "check_date": "2024-03-16", "contact:phone": "4044568888", "name": "Sri Sri Holistic Hospitals", "operator:type": "private", "source": "OpenGovernmentData"}}, {"type": "node", "id": 6549314900, "lat": 17.4893785, "lon": 78.4008153, "tags": {"addr:city": "Hyderabad", "addr:full": "MIG: 88, Road No: 1, KPHB COLONY, KUKATPALLY", "addr:postcode": "500072", "addr:state": "Telangana", "amenity": "hospital", "check_date": "2024-03-16", "contact:phone": "4049542277", "name": "Smart Vision Eye Hospitals Pvt Ltd", "operator:type": "private", "source": "OpenGovernmentData"}}, {"type": "node", "id": 6549348757, "lat": 17.4925596, "lon": 78.3977428, "tags": {"addr:city": "Hyderabad", "addr:full": "S.R. Enclave, MIG - 259, Road No. 4, KPHB Colony", "addr:postcode": "500072", "addr:state": "Telangana", "amenity": "hospital", "check_date": "2024-03-16", "contact:email": "info@mcsneurohospital.com", "contact:phone": "4040266544", "name": "MCS NEURO HOSPITAL", "operator:type": "private", "source": "OpenGovernmentData", "website": "http://www.mcsneurohospital.com"}}, {"type": "node", "id": 6549349841, "lat": 17.4947571, "lon": 78.3432363, "tags": {"addr:city": "Hyderabad", "addr:full": "Plot No: 83 & 103, Miyapur Main Road", "addr:postcode": "500049", "addr:state": "Telangana", "amenity": "hospital", "contact:phone": "4023031113", "name": "HAPPY HOSPITAL", "operator:type": "private", "source": "OpenGovernmentData"}}, {"type": "node", "id": 6549350559, "lat": 17.4992274, "lon": 78.3880024, "tags": {"addr:city": "Hyderabad", "addr:full": "MCK BLOCK 2, NEAR JNTU METRO STATION, Opp. VASANTH NAGAR ARCH, HYDERNAGAR MAIN ROAD, KUKATPALLY", "addr:postcode": "500085", "addr:state": "Telangana", "amenity": "hospital", "check_date": "2024-03-16", "contact:email": "info@landmarkhospitals.net", "contact:phone": "040 45459999 ;+91 7036665051", "healthcare": "hospital", "name": "Landmark Hospital", "operator:type": "private", "source": "OpenGovernmentData", "website": "https://www.landmarkhospitals.net/"}}, {"type": "node", "id": 6549431958, "lat": 17.4910196, "lon": 78.3967075, "tags": {"addr:city": "Hyderabad", "addr:full": "MIG: 304, Beside Global Edge School, Road No. 4, KPHB Colony", "addr:postcode": "500072", "addr:state": "Telangana", "amenity": "hospital", "contact:phone": "040 69992025", "name": "Baabaji Nethralaya Eye Hospital", "operator:type": "private", "source": "OpenGovernmentData"}}, {"type": "node", "id": 6549437828, "lat": 17.496072, "lon": 78.3452386, "tags": {"addr:city": "Hyderabad", "addr:full": "Plot No:38/225, Near St. Ann's School, Madinaguda, Miyapur", "addr:postcode": "500049", "addr:state": "Telangana", "amenity": "hospital", "contact:phone": "4023048399", "name": "MOTHERHOOD FERTILITY CENTRE", "operator:type": "private", "source": "OpenGovernmentData"}}, {"type": "node", "id": 6549439330, "lat": 17.490815, "lon": 78.396851, "tags": {"addr:city": "Hyderabad", "addr:full": "MIG: 288, Road No: 4, KPHB Colony", "addr:postcode": "500085", "addr:state": "Telangana", "amenity": "hospital", "contact:phone": "4048503737", "name": "MedWise Hospital (A unit of Chirayu Avigna Healthcare)", "operator:type": "private", "source": "OpenGovernmentData"}}, {"type": "node", "id": 6562261140, "lat": 17.4953327, "lon": 78.3461183, "tags": {"addr:district": "Hyderabad", "addr:full": "1-58/7/3, 3rd Floor, Near St Ann's School & Bajaj Electronics, Madinaguda", "addr:postcode": "500049", "addr:state": "Telangana", "amenity": "hospital", "name": "Vijaya Hospital", "source": "OpenGovernmentData"}}, {"type": "node", "id": 6811749001, "lat": 17.488394, "lon": 78.39696, "tags": {"addr:district": "Medchal Malkajgiri", "addr:full": "MIG: 487, Road No. 3, Near MeeSeva, KPHB Colony, Hyderabad", "addr:postcode": "500072", "addr:state": "Telangana", "amenity": "hospital", "check_date": "2024-03-16", "name": "Madhusudhan Hospital", "source": "OpenGovernmentData"}}, {"type": "node", "id": 6811749082, "lat": 17.4889369, "lon": 78.4006671, "tags": {"addr:district": "Hyderabad", "addr:full": "ROAD NO.1, Near Vasan Dental Care, KPHB", "addr:state": "Telangana", "amenity": "hospital", "check_date": "2024-03-16", "contact:mobile": "9100962721", "name": "Trichos Skin Care", "operator:type": "Private", "source": "OpenGovernmentData"}}, {"type": "node", "id": 6811749096, "lat": 17.4933988, "lon": 78.3979717, "tags": {"addr:district": "Medchal Malkajgiri", "addr:full": "Mig-327, Road No 4, Opp. ENT Clinic, Kphb Colony", "addr:postcode": "500072", "addr:state": "Telangana", "amenity": "hospital", "check_date": "2024-03-16", "name": "J.K. Hospital", "source": "OpenGovernmentData"}}, {"type": "node", "id": 6811749170, "lat": 17.5160299, "lon": 78.3819324, "tags": {"addr:district": "Hyderabad", "addr:full": "Opposite Hanuman Temple, Nizampet, Kukatpally", "addr:state": "Telangana", "amenity": "hospital", "name": "Sunray Hospital", "source": "OpenGovernmentData"}}, {"type": "node", "id": 6811749180, "lat": 17.4934982, "lon": 78.3209211, "tags": {"addr:district": "Medchal Malkajgiri", "addr:full": "H.No. 5-126/1, Opp. Taruni Auto Works, Chandanagar", "addr:postcode": "500050", "addr:state": "Telangana", "amenity": "hospital", "healthcare": "hospital", "name": "Archana Multi Speciality Hospital", "source": "OpenGovernmentData"}}, {"type": "node", "id": 6822125026, "lat": 17.4942384, "lon": 78.3995332, "tags": {"addr:district": "Medchal Malkajgiri", "addr:full": "Mig-233, 3rd Road, Beside, Near Sri Sri VOC Jr. College, Kphb Main Road", "addr:postcode": "500072", "addr:state": "Telangana", "amenity": "hospital", "check_date": "2024-03-16", "healthcare": "hospital", "name": "SRU Facture & Plastic Surgery", "source": "OpenGovernmentData"}}, {"type": "node", "id": 6830806688, "lat": 17.4944955, "lon": 78.3296853, "tags": {"addr:district": "Hyderabad", "addr:full": "NH-65, Gangaram, Chandanagar", "addr:postcode": "500050", "addr:state": "Telangana", "amenity": "hospital", "healthcare": "hospital", "name": "Gangaram Community Hall Health Sub Center", "source": "OpenGovernmentData"}}, {"type": "node", "id": 6866161636, "lat": 17.5028997, "lon": 78.3887517, "tags": {"addr:city": "hyderabad", "addr:postcode": "500085", "addr:street": "Nizampet Road", "amenity": "hospital", "healthcare": "hospital", "healthcare:speciality": "general", "name": "srisri holistic"}}, {"type": "node", "id": 6866161637, "lat": 17.5029831, "lon": 78.3887796, "tags": {"addr:city": "hyderabad", "addr:postcode": "500085", "addr:street": "Nizampet Road", "amenity": "hospital", "healthcare": "hospital"}}, {"type": "node", "id": 7007970916, "lat": 17.4948228, "lon": 78.3401789, "tags": {"amenity": "hospital", "healthcare": "hospital", "healthcare:speciality": "ophthalmology", "name": "Titan eye plus"}}, {"type": "node", "id": 7243959583, "lat": 17.4947296, "lon": 78.341244, "tags": {"amenity": "hospital", "healthcare": "hospital", "name": "Ankura Children hospital"}}, {"type": "node", "id": 7244398147, "lat": 17.493937, "lon": 78.351628, "tags": {"amenity": "hospital", "healthcare": "hospital", "name": "Dr.agarwals"}}, {"type": "node", "id": 7246482631, "lat": 17.4955311, "lon": 78.3966389}, {"type": "node", "id": 7246517948, "lat": 17.4866535, "lon": 78.3912724, "tags": {"amenity": "hospital", "healthcare": "hospital", "name": "saidatha homeo stores and clinic"}}, {"type": "node", "id": 7963108861, "lat": 17.5054839, "lon": 78.3953535}, {"type": "node", "id": 7963108862, "lat": 17.5054391, "lon": 78.3958484}, {"type": "node", "id": 7963108863, "lat": 17.5057708, "lon": 78.3958814}, {"type": "node", "id": 7963108864, "lat": 17.5058156, "lon": 78.3953865}, {"type": "node", "id": 8007022925, "lat": 17.4998816, "lon": 78.3574735, "tags": {"addr:city": "Hyderabad", "addr:postcode": "500049", "addr:street": "Pragathi Enclave Colony, Miyapur", "amenity": "hospital", "emergency": "no", "healthcare": "hospital", "healthcare:speciality": "general;gynaecology", "name": "Tirumala Nursing home", "operator": "Individual", "operator:type": "private"}}, {"type": "node", "id": 8128135060, "lat": 17.5277125, "lon": 78.3952501}, {"type": "node", "id": 8128135061, "lat": 17.5277144, "lon": 78.395413}, {"type": "node", "id": 8128135062, "lat": 17.5277938, "lon": 78.395412}, {"type": "node", "id": 8128135063, "lat": 17.5277919, "lon": 78.395249}, {"type": "node", "id": 8386162815, "lat": 17.5149211, "lon": 78.3975763, "tags": {"amenity": "hospital", "healthcare": "hospital", "name": "Holistic Hospital"}}, {"type": "node", "id": 8386235346, "lat": 17.518463, "lon": 78.3968731, "tags": {"amenity": "hospital", "healthcare": "hospital", "name": "People's Hospital"}}, {"type": "node", "id": 8386241852, "lat": 17.4907039, "lon": 78.3373612}, {"type": "node", "id": 8386241853, "lat": 17.490675, "lon": 78.3374915}, {"type": "node", "id": 8386241854, "lat": 17.4904668, "lon": 78.3374466}, {"type": "node", "id": 8386241855, "lat": 17.4904948, "lon": 78.3373154}, {"type": "node", "id": 8386643937, "lat": 17.5070065, "lon": 78.395168, "tags": {"amenity": "hospital", "healthcare": "hospital", "name": "VITAL'S Hospital"}}, {"type": "node", "id": 8733731577, "lat": 17.498279, "lon": 78.3146178, "tags": {"addr:district": "Sangareddy", "addr:full": "Door No 22, Kalyani Towers, opposite Gandemma Temple", "addr:postcode": "500020", "addr:state": "Telangana", "amenity": "hospital", "healthcare": "hospital", "name": "Medicover Hospital ,Chandanagar", "source": "Local Knowledge"}}, {"type": "node", "id": 8733734629, "lat": 17.4943209, "lon": 78.3168615, "tags": {"addr:district": "Sangareddy", "addr:full": "BHEL X Roads, 2-82/1/2, BHEL Road, Near Lingampally Bus Stop, Kanukunta, Tara Nagar, Chanda Nagar", "addr:postcode": "502032", "addr:state": "Telangana", "amenity": "hospital", "healthcare": "hospital", "name": "Preeti Urology & Kidney Hospital ,BHEL, Lingampally", "source": "Local Knowledge"}}, {"type": "node", "id": 8747920907, "lat": 17.4940216, "lon": 78.3227858, "tags": {"addr:district": "Rangareddy", "addr:full": "Manjeera Road, Indira Nagar, Chanda Nagar", "addr:postcode": "500050", "addr:state": "Telangana", "amenity": "hospital", "healthcare": "hospital", "name": "Archana Hospital", "source": "Local Knowledge"}}, {"type": "node", "id": 8748479530, "lat": 17.4940229, "lon": 78.3470745, "tags": {"addr:district": "Rangareddy", "addr:full": "Mythri Nagar, Madinaguda Beside South India Shopping Mall, Hafeezpet", "addr:postcode": "500050", "addr:state": "Telangana", "amenity": "hospital", "name": "Pace Hospitals ,Madinaguda", "source": "Local Knowledge"}}, {"type": "node", "id": 8760595032, "lat": 17.5385472, "lon": 78.3574721, "tags": {"addr:district": "Medchal", "addr:full": "Bollaram Industrial Area, Hyderabad", "addr:postcode": "500090", "addr:state": "Telangana", "amenity": "hospital", "name": "Mamata Academy of Medical Sciences Hospital", "source": "Local Knowledge"}}, {"type": "node", "id": 8760794581, "lat": 17.4855041, "lon": 78.3908053, "tags": {"addr:district": "Medchal", "addr:full": "Kukatpally Housing Board Colony, Kukatpally, Hyderabad", "addr:postcode": "500085", "addr:state": "Telangana", "amenity": "hospital", "check_date": "2024-03-16", "name": "Remedy Hospitals", "source": "Local Knowledge"}}, {"type": "node", "id": 8760905236, "lat": 17.4908668, "lon": 78.3970173, "tags": {"addr:district": "Medchal", "addr:full": "Rd Number 4, opposite global Edge School, Kukatpally Housing Board Colony, Hyderabad", "addr:postcode": "500072", "addr:state": "Telangana", "amenity": "hospital", "name": "Cosmo Derma", "source": "Local Knowledge"}}, {"type": "node", "id": 8760926820, "lat": 17.4869463, "lon": 78.3994145, "tags": {"addr:district": "Medchal", "addr:full": "Road Number 1, KPHB Phase 2, Kukatpally, Hyderabad", "addr:postcode": "500072", "addr:state": "Telangana", "amenity": "hospital", "check_date": "2024-03-16", "name": "Padmaja Hospital", "source": "Local Knowledge"}}, {"type": "node", "id": 8763119685, "lat": 17.4919994, "lon": 78.3972386, "tags": {"addr:district": "Medchal", "addr:full": "Kukatpally Housing Board Colony, Kukatpally, Hyderabad", "addr:postcode": "500072", "addr:state": "Telangana", "amenity": "hospital", "check_date": "2024-03-16", "name": "K K Reddy Hospital", "source": "Local Knowledge"}}, {"type": "node", "id": 8763123207, "lat": 17.4928129, "lon": 78.397999, "tags": {"addr:district": "Medchal", "addr:full": "H.No.261, Rd Number 4, Kukatpally Housing Board Colony, Kukatpally", "addr:postcode": "500072", "addr:state": "Telangana", "amenity": "hospital", "check_date": "2024-03-16", "name": "Goutam Neuro Care", "source": "Local Knowledge"}}, {"type": "node", "id": 8763135141, "lat": 17.4881237, "lon": 78.3949721, "tags": {"addr:district": "Medchal", "addr:full": "Road No 4, 3rd Phase, KPHB Behind Temple Bus Stop", "addr:postcode": "500072", "addr:state": "Telangana", "amenity": "hospital", "check_date": "2024-03-16", "name": "Dr. Rao's ENT Super Speciality International Hospital", "source": "Local Knowledge"}}, {"type": "node", "id": 8763260113, "lat": 17.5380971, "lon": 78.3638048, "tags": {"addr:district": "Medchal", "addr:full": "chowrastha, Bachupally, Hyderabad", "addr:postcode": "500090", "addr:state": "Telangana", "amenity": "hospital", "name": "Sri Swastik Multispeciality Hospital", "source": "Local Knowledge"}}, {"type": "node", "id": 8763316074, "lat": 17.4951229, "lon": 78.3574077, "tags": {"addr:district": "Medchal", "addr:full": "Jagdish Complex,Miyapur Main Road, Ambedkar Nagar, Miyapur", "addr:postcode": "500049", "addr:state": "Telangana", "amenity": "hospital", "name": "Udbhava Hospital ,Miyapur", "source": "Local Knowledge"}}, {"type": "node", "id": 8763591483, "lat": 17.5281685, "lon": 78.3625871, "tags": {"addr:district": "Medchal", "addr:full": "SLG Circle, Krishnaja Hills, Nizampet, Hyderabad", "addr:postcode": "500090", "addr:state": "Telangana", "amenity": "hospital", "name": "SLG Hospitals", "source": "Local Knowledge"}}, {"type": "node", "id": 9605389618, "lat": 17.4940583, "lon": 78.3212245, "tags": {"amenity": "hospital", "healthcare": "hospital", "name": "Chenna reddy hospital"}}, {"type": "node", "id": 9903987801, "lat": 17.5020291, "lon": 78.3889724}, {"type": "node", "id": 9903987802, "lat": 17.5020423, "lon": 78.3889444, "tags": {"addr:city": "hyderabad", "addr:postcode": "500072", "addr:street": "Nizampet Road", "amenity": "hospital", "healthcare": "hospital", "name": "sri sri holistic hospitals"}}, {"type": "node", "id": 11489967865, "lat": 17.5458731, "lon": 78.3359459, "tags": {"amenity": "hospital", "healthcare": "hospital"}}, {"type": "node", "id": 11736376192, "lat": 17.4915484, "lon": 78.3910656, "tags": {"amenity": "hospital", "check_date": "2024-03-16", "healthcare": "hospital", "name": "JNTU Hospital"}}, {"type": "node", "id": 12952102468, "lat": 17.4910021, "lon": 78.4066058}, {"type": "node", "id": 12952102469, "lat": 17.4910369, "lon": 78.4068468}, {"type": "node", "id": 12952102470, "lat": 17.4906757, "lon": 78.4065998}, {"type": "node", "id": 12952102471, "lat": 17.4904643, "lon": 78.4065485}, {"type": "node", "id": 12952102472, "lat": 17.4902813, "lon": 78.4064649}, {"type": "node", "id": 12952102473, "lat": 17.489913, "lon": 78.4063071}, {"type": "node", "id": 12952102474, "lat": 17.4896896, "lon": 78.406173}, {"type": "node", "id": 12952102477, "lat": 17.4895615, "lon": 78.4068929}, {"type": "node", "id": 12952102478, "lat": 17.4894234, "lon": 78.4067965}, {"type": "node", "id": 12952102479, "lat": 17.4899688, "lon": 78.4071671}, {"type": "way", "id": 238860802, "nodes": [2466596569, 6484944575, 2466596566, 12952102479, 12952102477, 12952102478, 2466596561, 12952102474, 12952102473, 2466596562, 12952102472, 12952102471, 12952102470, 12952102468, 2466596572, 4622047587, 12952102469, 2466596569], "tags": {"addr:district": "Hyderabad", "addr:full": "1- 6, Opposite Vivekananda Nagar Colony, Kukatpally", "addr:postcode": "500072", "addr:state": "Telangana", "amenity": "hospital", "healthcare": "hospital", "landuse": "Hospital Grounds", "name": "Ramdev Rao Hospital", "source": "OpenGovernmentData", "website": "http://www.sivanandarehab.org/ramdev.html"}}, {"type": "way", "id": 251804751, "nodes": [2579750830, 2579750832, 2579750834, 2579750835, 2579750830], "tags": {"addr:district": "Hyderabad", "addr:full": "HIG No.15, JNTU, Hi tech City Road, KPHB, Kukatpally", "addr:postcode": "500071", "addr:state": "Telangana", "amenity": "hospital", "building": "yes", "check_date": "2024-03-16", "email": "frontoffice.kp@lotushospitals.in", "emergency": "yes", "health_facility:type": "X Ray; CT Scan and Ultrasound; Radiology and Imaging Services", "healthcare:speciality": "Pediatrics", "medical_system": "Allopathic", "name": "Lotus Hospitals, Kukatpally", "operator:type": "private", "phone": "040-40406666", "source": "OpenGovernmentData", "website": "https://www.lotushospitals.in/"}}, {"type": "way", "id": 331631567, "nodes": [3387338154, 3387338155, 3387338156, 3504313626, 3387338157, 3387338154], "tags": {"amenity": "hospital", "check_date": "2024-03-16", "healthcare": "hospital", "name": "Apollo Hospital"}}, {"type": "way", "id": 341185823, "nodes": [7246482631, 3483976672, 3483976673, 3483976674, 7246482631], "tags": {"amenity": "hospital", "building": "hospital", "check_date": "2024-03-16", "healthcare": "hospital", "name": "Remedy Hospital"}}, {"type": "way", "id": 341192059, "nodes": [3484033409, 3484033410, 3484033411, 3484033412, 3484033409], "tags": {"addr:district": "Hyderabad", "addr:full": "Road Number 4, K P H B Colony, Kukatpally", "addr:postcode": "500072", "addr:state": "Telangana", "amenity": "hospital", "building": "yes", "building:levels": "4", "check_date": "2024-03-16", "contact:mobile": "9666363699", "health_facility:type": "24 Hours Emergency Rooms;24 Hour Pharmacy;24 Hour Laboratory;24 Hour Ambulance", "healthcare": "hospital", "healthcare:speciality": "Emergency Services and Trauma Care Unit;Internal Medicine;General Surgery;Orthopaedics;Cardiology;ENT;Neurology;Surgeries;Gynecology and Obstretrics;Urology;Plastic Surgery", "medical_system": "Allopathic", "name": "Remedy Hosptials", "operator:type": "private", "phone": "040 41418787;040 23158787", "source": "OpenGovernmentData", "website": "https://www.remedyhospitals.in/"}}, {"type": "way", "id": 343606383, "nodes": [3504308696, 3504308697, 3504308698, 3504308699, 3504308696], "tags": {"addr:city": "Hyderabad", "addr:postcode": "500085", "addr:street": "Nizampet Road", "amenity": "hospital", "healthcare": "hospital", "healthcare:speciality": "general;stomatology", "name": "lahari dental hospital"}}, {"type": "way", "id": 355678228, "nodes": [3612481256, 6237898985, 3612481217, 3612481224, 3612481256], "tags": {"amenity": "hospital", "building": "yes", "check_date": "2024-03-16", "healthcare": "hospital", "name": "Kiran Skin Care Hospital"}}, {"type": "way", "id": 355678288, "nodes": [3612482968, 9903987801, 3612483049, 3612483056, 3612482977, 3612482968], "tags": {"addr:district": "Hyderabad", "addr:full": "#1-2-49/13B, Nizampet Road, Hydernagar, Nagarjuna Homes, Kukatpally", "addr:postcode": "500072", "addr:state": "Telangana", "amenity": "hospital", "building": "yes", "email": "admn.srisriholistic@gmail.com", "health_facility:type": "State Of The Theatres;Joint Replacement Computerized Navigation;Advanced Lab Equipment;Advanced Energy Equipment;OCT", "healthcare:speciality": "Joint Replacement Sugery;Cardiology;Gastroenterology;Respiratory Medicine;Neurology;Urology;Nephrology;Laparoscopic Surgery;Infertility Cente;Retinal;Cataract and Glaucoma Services", "medical_system": "Allopathic", "name": "Sri Sri Holistic Hospitals", "operator:type": "private", "phone": "040-44108108", "source": "OpenGovernmentData", "website": "http://www.srisriholistic.com"}}, {"type": "way", "id": 355688230, "nodes": [3612577071, 3612577150, 3612577149, 5610683567, 3612577071], "tags": {"addr:city": "Greater Hyderabad Municipal Corporation", "addr:district": "Hyderabad", "addr:full": "Plot No:755-757, Pragathi Nagar, Opp Jntu, Kukatpally", "addr:postcode": "500090", "addr:state": "Telangana", "addr:street": "Pragathi Nagar Road", "amenity": "hospital", "building": "yes", "contact:email": "peopleshospital.prn@gmail.com", "contact:mobile": "8885051514", "contact:phone": "040 23897050; 040 23897051; 040 23897052; 040 23897053", "description": "This hospital provides service for Pediatrics, Gynecology, orthopedics, ENT, Diabetes, Cardiology and Dental.", "healthcare": "hospital", "healthcare:speciality": "general;paediatrics;gynaecology;orthopaedics", "name": "People's Hospital", "source": "OpenGovernmentData", "website": "http://peoples-hospital.org"}}, {"type": "way", "id": 356240039, "nodes": [3617008125, 3617008124, 3617008119, 3617008123, 3617008125], "tags": {"addr:city": "Hyderabad", "addr:housenumber": "1-76", "addr:postcode": "500050", "addr:street": "Chandanagar - RC Puram BHEL Rd Mumbai Highway", "amenity": "hospital", "description": "Your healing is our priority... A group of like-minded doctors with various specialties trying to deliver standard medical services with an attitude to progress from time to time and motto to provide quality services as per the needs of people.", "email": "vhealmultispecialitycenter@gmail.com", "healthcare": "hospital", "healthcare:speciality": "general;orthopaedics;dermatology;gynaecology;otorhy;otolorhynology;ENT", "image": "https://business.google.com/u/2/photos/l/18440308866862923974", "internet_access": "wlan", "name": "VHeal ENT, ORTHO and Multispeciality Center", "name:te": "\u0c35\u0c3f \u0c39\u0c40\u0c32\u0c4d \u0c07 \u0c0e\u0c28\u0c4d \u0c1f\u0c3f & \u0c0e\u0c2e\u0c41\u0c15\u0c32\u0c42 \u0c2e\u0c30\u0c3f\u0c2f\u0c41 \u0c2e\u0c32\u0c4d\u0c1f\u0c40\u0c38\u0c4d\u0c2a\u0c46\u0c37\u0c3e\u0c32\u0c3f\u0c1f\u0c40 \u0c38\u0c46\u0c02\u0c1f\u0c30\u0c4d", "operator": "Dr.Mohammad Yawar, Dr.P.Srinivas", "operator:type": "private", "phone": "+91 77940 47396", "start_date": "2020-07-18", "website": "https://vhealu.github.io", "wheelchair": "yes"}}, {"type": "way", "id": 691648389, "nodes": [6490630817, 6490630818, 6490630819, 6490630820, 6490630817], "tags": {"addr:district": "Hyderabad", "addr:full": "Plot No.-27, Kphb Main Road, Opposite Arjun Theatre, Kukatpally", "addr:postcode": "500072", "addr:state": "Telangana", "amenity": "hospital", "building": "yes", "check_date": "2024-03-16", "healthcare": "hospital", "name": "Mamtha Hospital", "source": "OpenGovernmentData"}}, {"type": "way", "id": 853755273, "nodes": [7963108864, 7963108863, 7963108862, 7963108861, 7963108864], "tags": {"addr:city": "Pragathi Nagar", "addr:district": "Hyderabad", "addr:postcode": "500090", "addr:street": "High Tension Line Road", "amenity": "hospital", "healthcare": "hospital", "healthcare:speciality": "general", "name": "Prasad Hospital"}}, {"type": "way", "id": 872851196, "nodes": [8128135063, 8128135062, 8128135061, 8128135060, 8128135063], "tags": {"addr:city": "Hyderabad", "addr:district": "Medchal", "addr:housenumber": "Sai Aadhya Residency", "addr:postcode": "500090", "addr:street": "Pragathi Nagar Road", "amenity": "hospital", "emergency": "no", "healthcare": "hospital", "healthcare:speciality": "ayurveda", "name": "Sri Rn ayurved"}}, {"type": "way", "id": 902925307, "nodes": [8386241852, 8386241853, 8386241854, 8386241855, 8386241852], "tags": {"addr:city": "hyderabad", "addr:postcode": "500049", "addr:street": "Manjira Pipeline Road", "amenity": "hospital", "emergency": "yes", "healthcare": "hospital", "name": "Lakshmi hospital"}}]}