{"version": 0.6, "generator": "Overpass API 0.7.62.8 e802775f", "osm3s": {"timestamp_osm_base": "2026-01-12T05:51:45Z", "copyright": "The data included in this document is from www.openstreetmap.org. The data is made available under ODbL."}, "elements": [{"type": "node", "id": 540658116, "lat": 13.1181104, "lon": 80.1499411, "tags": {"addr:district": "Tiruvallur", "addr:full": "# 3/157, M.T.H.Road, ,Ambattur", "addr:postcode": "600053", "addr:state": "Tamil Nadu", "amenity": "hospital", "name": "B.M.Orthopaedic Hospital", "source": "OpenGovernmentData"}}, {"type": "node", "id": 1185699253, "lat": 13.1174941, "lon": 80.1008132, "tags": {"amenity": "hospital", "fixme": "Verify location of Avadi Hospital", "healthcare": "hospital", "name": "Avadi Hospital", "wheelchair": "yes"}}, {"type": "node", "id": 1516388617, "lat": 13.1241718, "lon": 80.1444714}, {"type": "node", "id": 1516388619, "lat": 13.1242658, "lon": 80.1463945}, {"type": "node", "id": 1516388625, "lat": 13.1245333, "lon": 80.1463648}, {"type": "node", "id": 1516388627, "lat": 13.1245478, "lon": 80.1460084}, {"type": "node", "id": 1516388638, "lat": 13.1254589, "lon": 80.146001}, {"type": "node", "id": 1516388640, "lat": 13.1254806, "lon": 80.1465727}, {"type": "node", "id": 1516388642, "lat": 13.1256903, "lon": 80.1419023}, {"type": "node", "id": 1516388644, "lat": 13.1257192, "lon": 80.1465875}, {"type": "node", "id": 1516388646, "lat": 13.1257554, "lon": 80.1463574}, {"type": "node", "id": 1516388649, "lat": 13.1260679, "lon": 80.1444769}, {"type": "node", "id": 1516388651, "lat": 13.1262109, "lon": 80.1453847}, {"type": "node", "id": 1516388652, "lat": 13.1262366, "lon": 80.1423295}, {"type": "node", "id": 1516388662, "lat": 13.1262673, "lon": 80.1433795}, {"type": "node", "id": 1516388664, "lat": 13.1262724, "lon": 80.1444506}, {"type": "node", "id": 1516388665, "lat": 13.1262905, "lon": 80.1412489}, {"type": "node", "id": 1516388666, "lat": 13.1263236, "lon": 80.1417204}, {"type": "node", "id": 1516388669, "lat": 13.1264423, "lon": 80.1412118}, {"type": "node", "id": 1516388675, "lat": 13.1265869, "lon": 80.1464465}, {"type": "node", "id": 1516388683, "lat": 13.1266014, "lon": 80.1454218}, {"type": "node", "id": 1621246558, "lat": 13.1187083, "lon": 80.1572422, "tags": {"addr:district": "Tiruvallur", "addr:full": "No.G4, Srivatsa Apartments, Plot No:196, Old Mth Road,Ambattur, Chennai", "addr:postcode": "600053", "addr:state": "Tamil Nadu", "amenity": "hospital", "emergency": "no", "name": "Ashwini Eye Care", "source": "OpenGovernmentData"}}, {"type": "node", "id": 1896330825, "lat": 13.1340563, "lon": 80.1037102, "tags": {"amenity": "hospital"}}, {"type": "node", "id": 1896330827, "lat": 13.1333249, "lon": 80.1033668, "tags": {"amenity": "hospital"}}, {"type": "node", "id": 4554279725, "lat": 13.1108976, "lon": 80.0952836, "tags": {"amenity": "hospital", "name": "Vivekanandha"}}, {"type": "node", "id": 6307353799, "lat": 13.1257306, "lon": 80.1465136}, {"type": "node", "id": 6928030150, "lat": 13.1162231, "lon": 80.0967247, "tags": {"addr:district": "Tiruvallur", "addr:full": "No:3,1st Floor, Main Road,Kamaraj Nagar, Avadi,Chennai", "addr:postcode": "600071", "addr:state": "Tamil Nadu", "amenity": "hospital", "healthcare": "hospital", "name": "Dr. Agarwal's Eye Hospital", "operator": "Dr. Agarwal's Eye Hospital", "operator:wikidata": "Q17052044", "source": "OpenGovernmentData", "wheelchair": "yes"}}, {"type": "node", "id": 6928800365, "lat": 13.1175413, "lon": 80.1539406, "tags": {"addr:district": "Tiruvallur", "addr:full": "Vijoya Complex,No.1.M.J.H.Road,Ambattur,Chennai", "addr:postcode": "600053", "addr:state": "Tamil Nadu", "amenity": "hospital", "name": "Dr.Bhats Eye Hospital", "source": "OpenGovernmentData"}}, {"type": "node", "id": 6929599461, "lat": 13.1190773, "lon": 80.1504859, "tags": {"addr:district": "Chennai", "addr:full": "212 Mth Road, Ambattur", "addr:postcode": "600010", "addr:state": "Tamil Nadu", "amenity": "hospital", "name": "Dr Rabindran's Health Care Center", "source": "OpenGovernmentData"}}, {"type": "node", "id": 6933748976, "lat": 13.1232006, "lon": 80.1461421, "tags": {"addr:district": "Tiruvallur", "addr:full": "No.506,M.T.H.Road,Ambathur-Chennai", "addr:postcode": "600053", "addr:state": "Tamil Nadu", "amenity": "hospital", "name": "Essvee Hospital", "source": "OpenGovernmentData"}}, {"type": "node", "id": 6934340710, "lat": 13.1184222, "lon": 80.1507749, "tags": {"addr:district": "Tiruvallur", "addr:full": "No. 11, Old B.O.B. St. Secretariate Colony", "addr:postcode": "600053", "addr:state": "Tamil Nadu", "amenity": "hospital", "name": "Om Shakthi Hospital", "source": "OpenGovernmentData"}}, {"type": "node", "id": 6934884999, "lat": 13.1220029, "lon": 80.1469266, "tags": {"addr:district": "Tiruvallur", "addr:full": "471, Mth Road, , Ambattur", "addr:postcode": "600053", "addr:state": "Tamil Nadu", "amenity": "hospital", "name": "Teja Hospital", "source": "OpenGovernmentData"}}, {"type": "node", "id": 6950427127, "lat": 13.1162117, "lon": 80.1065513, "tags": {"addr:district": "Tiruvallur", "addr:full": "221, Nehru Bazaar Road, Avadi", "addr:postcode": "600054", "addr:state": "Tamil Nadu", "amenity": "hospital", "name": "Immanuel Hosptal", "source": "OpenGovernmentData", "wheelchair": "yes"}}, {"type": "node", "id": 7252333392, "lat": 13.1126809, "lon": 80.153358, "tags": {"addr:block": "Chennai Zone Vii", "addr:district": "Chennai", "addr:full": "Canara Bank, Varadharajapuram, Railway Station Road", "addr:postcode": "600050", "addr:state": "Tamil Nadu", "amenity": "hospital", "name": "Varadarajapuram Government Hospitals", "source": "OpenGovernmentData"}}, {"type": "node", "id": 7843239851, "lat": 13.1247933, "lon": 80.1435476, "tags": {"amenity": "hospital", "healthcare": "hospital", "name": "Sir Ivan Stedford Hospital", "name:etymology:wikidata": "Q15971168"}}, {"type": "node", "id": 11461791503, "lat": 13.1298328, "lon": 80.1310999}, {"type": "node", "id": 11461791504, "lat": 13.129845, "lon": 80.1308852}, {"type": "node", "id": 11461791505, "lat": 13.1295805, "lon": 80.1308694}, {"type": "node", "id": 11461791506, "lat": 13.1295683, "lon": 80.131084}, {"type": "way", "id": 138307630, "nodes": [1516388669, 1516388665, 1516388642, 1516388617, 1516388619, 1516388625, 1516388627, 1516388638, 1516388640, 1516388644, 6307353799, 1516388646, 1516388675, 1516388683, 1516388651, 1516388649, 1516388664, 1516388662, 1516388652, 1516388666, 1516388669], "tags": {"amenity": "hospital", "healthcare": "hospital", "name": "Sir Ivan Stedford Hospital", "name:etymology:wikidata": "Q15971168", "website": "https://stedefordhospital.org/", "wikidata": "Q7527346", "wikipedia": "en:Sir Ivan Stedeford Hospital"}}, {"type": "way", "id": 1234813078, "nodes": [11461791503, 11461791504, 11461791505, 11461791506, 11461791503], "tags": {"amenity": "hospital", "healthcare": "hospital", "name": "Cherish Hospital"}}]}