{"version": 0.6, "generator": "Overpass API 0.7.62.8 e802775f", "osm3s": {"timestamp_osm_base": "2026-01-12T15:30:48Z", "copyright": "The data included in this document is from www.openstreetmap.org. The data is made available under ODbL."}, "elements": [{"type": "node", "id": 62056980, "lat": 12.9604446, "lon": 77.504936, "tags": {"bus": "yes", "highway": "bus_stop", "loc_name": "80FEET Mallathahalli Road", "name": "Ambedkar College", "name:kn": "\u0c85\u0c82\u0cac\u0cc7\u0ca1\u0ccd\u0c95\u0cb0\u0ccd \u0c95\u0cbe\u0cb2\u0cc7\u0c9c\u0cc1", "operator": "my college rote", "public_transport": "platform"}}, {"type": "node", "id": 66626034, "lat": 12.9571672, "lon": 77.5030961, "tags": {"bus": "yes", "highway": "bus_stop", "name": "Mallathalli Cross", "name:en": "Mallathalli Cross", "name:kn": "\u0cae\u0cb2\u0ccd\u0cb2\u0ca4\u0ccd\u0ca4\u0cb9\u0cb3\u0ccd\u0cb3\u0cbf", "network": "BMTC", "operator": "BMTC", "public_transport": "platform"}}, {"type": "node", "id": 308067556, "lat": 12.9593287, "lon": 77.4210094, "tags": {"highway": "bus_stop", "name": "Yalachaguppe", "name:en": "Yalachaguppe", "name:kn": "\u0caf\u0cb2\u0c9a\u0c97\u0cc1\u0caa\u0ccd\u0caa\u0cc6", "network": "BMTC", "operator": "BMTC", "public_transport": "platform"}}, {"type": "node", "id": 308069115, "lat": 12.9908634, "lon": 77.4543067, "tags": {"highway": "bus_stop", "loc_name": "Magadi Road", "name": "Machohalli Cross", "name:kn": "\u0cae\u0cbe\u0c9a\u0ccb\u0cb9\u0cb3\u0ccd\u0cb3\u0cbf \u0c95\u0ccd\u0cb0\u0cbe\u0cb8\u0ccd"}}, {"type": "node", "id": 308069135, "lat": 12.9850752, "lon": 77.4826274, "tags": {"highway": "bus_stop", "loc_name": "Magadi Road", "name": "Byadarahalli", "name:kn": "\u0cac\u0ccd\u0caf\u0cbe\u0ca1\u0cb0\u0cb9\u0cb3\u0ccd\u0cb3\u0cbf"}}, {"type": "node", "id": 308187260, "lat": 12.9772628, "lon": 77.4652831, "tags": {"highway": "bus_stop", "loc_name": "ELE KODIGE HALLI", "name": "Yale Kodigehalli", "name:en": "Yale Kodigehalli", "name:kn": "\u0c8e\u0cb2\u0cc6\u0c95\u0ccb\u0ca1\u0cbf\u0c97\u0cc6\u0cb9\u0cb3\u0ccd\u0cb3\u0cbf", "network": "BMTC", "operator": "BMTC", "public_transport": "platform"}}, {"type": "node", "id": 308187548, "lat": 12.9823496, "lon": 77.4801, "tags": {"highway": "bus_stop", "name": "Bharath Nagara 1st Phase", "name:kn": "\u0cad\u0cbe\u0cb0\u0ca4 \u0ca8\u0c97\u0cb0 \u0ce7\u0ca8\u0cc7 \u0cb9\u0c82\u0ca4"}}, {"type": "node", "id": 308298153, "lat": 13.0374566, "lon": 77.426236, "tags": {"bus": "yes", "highway": "bus_stop", "loc_name": "ARTHIPALYA", "name": "Harti palya", "name:kn": "\u0c86\u0cb0\u0ca4\u0cbf\u0caa\u0cbe\u0cb3\u0ccd\u0caf", "public_transport": "platform"}}, {"type": "node", "id": 308298177, "lat": 13.0264584, "lon": 77.424014, "tags": {"bus": "yes", "highway": "bus_stop", "name": "Ravuthanahalli", "name:kn": "\u0cb0\u0cbe\u0cb5\u0cc1\u0ca4\u0ca8\u0cb9\u0cb3\u0ccd\u0cb3\u0cbf", "public_transport": "platform"}}, {"type": "node", "id": 308298186, "lat": 13.0199191, "lon": 77.421894, "tags": {"bus": "yes", "highway": "bus_stop", "name": "Chamundi Nagara", "name:kn": "\u0c9a\u0cbe\u0cae\u0cc1\u0c82\u0ca1\u0cbf \u0ca8\u0c97\u0cb0", "public_transport": "platform"}}, {"type": "node", "id": 308298190, "lat": 13.0146758, "lon": 77.4203834, "tags": {"bus": "yes", "highway": "bus_stop", "loc_name": "CHAMUNDI NAGARA", "name": "Devananjayyana Palya", "public_transport": "platform"}}, {"type": "node", "id": 308298266, "lat": 13.0089055, "lon": 77.4194221, "tags": {"highway": "bus_stop", "name": "Kittanahalli", "name:kn": "\u0c95\u0cbf\u0ca4\u0ccd\u0ca4\u0ca8\u0cb9\u0cb3\u0ccd\u0cb3\u0cbf"}}, {"type": "node", "id": 308298721, "lat": 13.006545, "lon": 77.4530554, "tags": {"highway": "bus_stop", "name": "Machohalli", "name:kn": "\u0cae\u0cbe\u0c9a\u0ccb\u0cb9\u0cb3\u0ccd\u0cb3\u0cbf"}}, {"type": "node", "id": 503002120, "lat": 12.9886748, "lon": 77.4726248, "tags": {"highway": "bus_stop", "loc_name": "Gollarahatti", "name": "Ashraya Badavane", "name:kn": "\u0c86\u0cb6\u0ccd\u0cb0\u0caf \u0cac\u0ca1\u0cbe\u0cb5\u0ca3\u0cc6"}}, {"type": "node", "id": 574520928, "lat": 13.0096301, "lon": 77.4828987, "tags": {"bus": "yes", "name": "Andrahalli Government School", "name:en": "Andrahalli Government School", "network": "BMTC", "operator": "BMTC", "public_transport": "stop_position"}}, {"type": "node", "id": 574522047, "lat": 12.9978617, "lon": 77.4894408, "tags": {"highway": "bus_stop", "loc_name": "Andrahalli", "name": "Syndicate Bank Colony", "name:en": "Syndicate Bank Colony", "network": "BMTC", "operator": "BMTC", "public_transport": "platform"}}, {"type": "node", "id": 574529330, "lat": 13.0139019, "lon": 77.4966426, "tags": {"highway": "bus_stop", "name": "Balaji Nagar", "name:kn": "\u0cac\u0cbe\u0cb2\u0cbe\u0c9c\u0cbf \u0ca8\u0c97\u0cb0"}}, {"type": "node", "id": 599212207, "lat": 13.0100902, "lon": 77.4967077, "tags": {"highway": "bus_stop", "name": "Balaji Nagara", "name:kn": "\u0cac\u0cbe\u0cb2\u0cbe\u0c9c\u0cbf \u0ca8\u0c97\u0cb0"}}, {"type": "node", "id": 599212408, "lat": 13.0372658, "lon": 77.4911456, "tags": {"highway": "bus_stop", "name": "Byraveshwara Nagara", "name:kn": "\u0cac\u0cc8\u0cb0\u0cc7\u0cb6\u0ccd\u0cb5\u0cb0 \u0ca8\u0c97\u0cb0"}}, {"type": "node", "id": 760176061, "lat": 12.9630714, "lon": 77.4538575, "tags": {"highway": "bus_stop", "loc_name": "HOSAHALLI", "name": "Hosahalli", "name:en": "Hosahalli", "name:kn": "\u0cb9\u0cca\u0cb8\u0cb9\u0cb3\u0ccd\u0cb3\u0cbf", "network": "BMTC", "operator": "BMTC", "public_transport": "platform"}}, {"type": "node", "id": 760176175, "lat": 12.957147, "lon": 77.4498784, "tags": {"highway": "bus_stop", "name": "Kenchanapura", "name:en": "Kenchanapura", "name:kn": "\u0c95\u0cc6\u0c82\u0c9a\u0ca8\u0caa\u0cc1\u0cb0", "network": "BMTC", "operator": "BMTC", "public_transport": "platform"}}, {"type": "node", "id": 1285970661, "lat": 12.9557008, "lon": 77.4801715, "tags": {"bus": "yes", "highway": "bus_stop", "name": "Ullalu", "name:kn": "\u0c89\u0cb2\u0ccd\u0cb2\u0cbe\u0cb3\u0cc1", "public_transport": "platform"}}, {"type": "node", "id": 1285970677, "lat": 12.958835, "lon": 77.5006817, "tags": {"highway": "bus_stop", "name": "Mallathahalli", "name:kn": "\u0cae\u0cb2\u0ccd\u0cb2\u0ca4\u0ccd\u0ca4\u0cb9\u0cb3\u0ccd\u0cb3\u0cbf"}}, {"type": "node", "id": 1285970704, "lat": 12.9748467, "lon": 77.479779, "tags": {"highway": "bus_stop", "name": "Bilikallu", "name:kn": "\u0cac\u0cbf\u0cb3\u0cbf\u0c95\u0cb2\u0ccd\u0cb2\u0cc1"}}, {"type": "node", "id": 1557141963, "lat": 12.9997138, "lon": 77.5041185, "tags": {"highway": "bus_stop", "loc_name": "HEGGANA HALLI", "name": "Hegganahalli Cross", "name:en": "Hegganahalli Cross", "name:kn": "\u0cb9\u0cc6\u0c97\u0ccd\u0c97\u0ca8\u0cb9\u0cb3\u0ccd\u0cb3\u0cbf \u0c95\u0ccd\u0cb0\u0cbe\u0cb8\u0ccd", "network": "BMTC", "operator": "BMTC", "public_transport": "platform"}}, {"type": "node", "id": 1557169959, "lat": 12.9958612, "lon": 77.5025557, "tags": {"highway": "bus_stop", "loc_name": "SUNKADA KATTE", "name": "Neelagiri Thopu", "name:en": "Neelagiri Thopu", "network": "BMTC", "operator": "BMTC", "public_transport": "platform"}}, {"type": "node", "id": 1557176710, "lat": 12.987464, "lon": 77.5044863, "tags": {"highway": "bus_stop", "loc_name": "SUNKADA KATTE", "name": "Kebbala"}}, {"type": "node", "id": 1575610024, "lat": 12.9749168, "lon": 77.4999947, "tags": {"highway": "bus_stop", "name": "Veeranna Palya"}}, {"type": "node", "id": 1588411575, "lat": 12.9944842, "lon": 77.5044409, "tags": {"highway": "bus_stop", "loc_name": "SUNKADA KATTE", "name": "Vigneshwara Nagara", "name:kn": "\u0cb5\u0cbf\u0c97\u0ccd\u0ca8\u0cc7\u0cb6\u0ccd\u0cb5\u0cb0 \u0ca8\u0c97\u0cb0"}}, {"type": "node", "id": 1589314307, "lat": 13.0293215, "lon": 77.4645807, "tags": {"bus": "yes", "highway": "bus_stop", "loc_name": "LAKSHMIPURA CROSS", "name": "Gangondanahalli Cross", "name:en": "Gangondanahalli Cross", "name:kn": "\u0c97\u0c82\u0c97\u0cca\u0c82\u0ca1\u0ca8\u0cb9\u0cb3\u0ccd\u0cb3\u0cbf \u0c95\u0ccd\u0cb0\u0cbe\u0cb8\u0ccd", "network": "BMTC", "operator": "BMTC", "public_transport": "platform"}}, {"type": "node", "id": 1589314465, "lat": 13.0217203, "lon": 77.4677183, "tags": {"bus": "yes", "highway": "bus_stop", "name": "Gangondanahalli", "name:kn": "\u0c97\u0c82\u0c97\u0cca\u0c82\u0ca1\u0ca8\u0cb9\u0cb3\u0ccd\u0cb3\u0cbf", "public_transport": "platform"}}, {"type": "node", "id": 1589314684, "lat": 13.0003721, "lon": 77.4705492, "tags": {"bus": "yes", "highway": "bus_stop", "name": "Kachohalli", "name:kn": "\u0c95\u0cbe\u0c9a\u0ccb\u0cb9\u0cb3\u0ccd\u0cb3\u0cbf", "public_transport": "platform"}}, {"type": "node", "id": 1589314795, "lat": 13.0371439, "lon": 77.4612522, "tags": {"highway": "bus_stop", "loc_name": "LAKSHMIPURA", "name": "Lakshmipura", "name:en": "Lakshmipura", "name:kn": "\u0cb2\u0c95\u0ccd\u0cb7\u0ccd\u0cae\u0cc0\u0caa\u0cc1\u0cb0", "network": "BMTC", "operator": "BMTC", "public_transport": "platform"}}, {"type": "node", "id": 1589314867, "lat": 13.0293165, "lon": 77.4645099, "tags": {"bus": "yes", "name": "Gangondanahalli Cross", "name:en": "Gangondanahalli Cross", "network": "BMTC", "operator": "BMTC", "public_transport": "stop_position"}}, {"type": "node", "id": 1593070943, "lat": 13.0170955, "lon": 77.4829741, "tags": {"bus": "yes", "highway": "bus_stop", "loc_name": "THIGALARAPALYA", "name": "Thigalara Palya", "name:en": "Thigalara Palya", "name:kn": "\u0ca4\u0cbf\u0c97\u0cb2\u0cbe\u0cb0 \u0caa\u0cbe\u0cb3\u0ccd\u0caf", "network": "BMTC", "operator": "BMTC", "public_transport": "platform"}}, {"type": "node", "id": 1593070948, "lat": 13.0137955, "lon": 77.4834818, "tags": {"bus": "yes", "name": "Anjaneya Temple Thigalarapalya", "name:en": "Anjaneya Temple Thigalarapalya", "network": "BMTC", "operator": "BMTC", "public_transport": "stop_position"}}, {"type": "node", "id": 1594859769, "lat": 12.995243, "lon": 77.478282, "tags": {"highway": "bus_stop", "name": "G Hosahalli"}}, {"type": "node", "id": 1597376640, "lat": 12.9607352, "lon": 77.4831822, "tags": {"highway": "bus_stop", "name": "Upkar Residency Layout", "name:en": "Upkar Residency Layout", "name:kn": "\u0c89\u0caa\u0ccd\u0c95\u0cb0\u0ccd \u0cac\u0ca1\u0cbe\u0cb5\u0ca3\u0cc6", "network": "BMTC", "operator": "BMTC", "public_transport": "platform"}}, {"type": "node", "id": 1597724579, "lat": 12.9749037, "lon": 77.4754314, "tags": {"highway": "bus_stop", "name": "Bramha Devara Gudda", "name:kn": "\u0cac\u0ccd\u0cb0\u0cb9\u0ccd\u0cae \u0ca6\u0cc7\u0cb5\u0cb0 \u0c97\u0cc1\u0ca1\u0ccd\u0ca1"}}, {"type": "node", "id": 1600131402, "lat": 12.9732468, "lon": 77.4489464, "tags": {"highway": "bus_stop", "loc_name": "SIGEHALLI", "name": "Seegehalli", "name:kn": "\u0cb8\u0cc0\u0c97\u0cc6\u0cb9\u0cb3\u0ccd\u0cb3\u0cbf"}}, {"type": "node", "id": 1615691775, "lat": 12.9630301, "lon": 77.5050255, "tags": {"bus": "yes", "name": "Ambedkar Institute of Technology", "name:en": "Ambedkar Institute of Technology", "network": "BMTC", "operator": "BMTC", "public_transport": "stop_position"}}, {"type": "node", "id": 1719257111, "lat": 12.988996, "lon": 77.4492145, "tags": {"highway": "bus_stop", "loc_name": "Magadi Road", "name": "Kadabagere Cross", "name:en": "Kadabagere Cross", "network": "BMTC", "operator": "BMTC", "public_transport": "platform"}}, {"type": "node", "id": 1719257164, "lat": 12.9917411, "lon": 77.4591022, "tags": {"highway": "bus_stop", "loc_name": "Magadi Road", "name": "Forest Gate"}}, {"type": "node", "id": 1719258882, "lat": 12.9918561, "lon": 77.4427372, "tags": {"highway": "bus_stop", "name": "Mutturayaswamy Temple", "name:en": "Mutturayaswamy Temple", "name:kn": "\u0cae\u0cc1\u0ca4\u0ccd\u0ca4\u0cc1\u0cb0\u0cbe\u0caf\u0cb8\u0ccd\u0cb5\u0cbe\u0cae\u0cbf \u0ca6\u0cc7\u0cb5\u0cb8\u0ccd\u0ca5\u0cbe\u0ca8", "network": "BMTC", "operator": "BMTC", "public_transport": "platform"}}, {"type": "node", "id": 1719258884, "lat": 13.0033032, "lon": 77.442387, "tags": {"bus": "yes", "highway": "bus_stop", "loc_name": "BYANDHALLI COLONY", "name": "Bayyandahalli Colony", "name:en": "Bayyandahalli Colony", "network": "BMTC", "operator": "BMTC", "public_transport": "platform"}}, {"type": "node", "id": 1719258903, "lat": 12.9992158, "lon": 77.4427719, "tags": {"highway": "bus_stop", "name": "Janapriya Township", "name:en": "Janapriya Township", "network": "BMTC", "operator": "BMTC", "public_transport": "platform"}}, {"type": "node", "id": 1794170293, "lat": 13.0081727, "lon": 77.5056024, "tags": {"designation": "Dairy Bus Stop", "highway": "bus_stop", "loc_name": "Dairy Bus Stop"}}, {"type": "node", "id": 2236352106, "lat": 12.9857167, "lon": 77.427429, "tags": {"highway": "bus_stop", "loc_name": "MAHIMANNANA PALYA", "name": "Maimanapalya"}}, {"type": "node", "id": 2236352484, "lat": 12.9928046, "lon": 77.4186374, "tags": {"highway": "bus_stop", "loc_name": "GIDDENA HALLI", "name": "Giddenahalli", "name:kn": "\u0c97\u0cbf\u0ca1\u0ccd\u0ca1\u0cc7\u0ca8\u0cb9\u0cb3\u0ccd\u0cb3\u0cbf"}}, {"type": "node", "id": 2236352847, "lat": 12.9968992, "lon": 77.4332254, "tags": {"highway": "bus_stop", "name": "Kadabagere"}}, {"type": "node", "id": 2418893735, "lat": 12.9602707, "lon": 77.5042973, "tags": {"bus": "yes", "highway": "bus_stop", "loc_name": "MALLATHAHALLI", "name": "Kengunte Circle", "name:en": "Kengunte Circle", "name:kn": "\u0c95\u0cc6\u0c82\u0c97\u0cc1\u0c9f\u0cc6", "network": "BMTC", "operator": "BMTC", "public_transport": "platform"}}, {"type": "node", "id": 2418895128, "lat": 12.9666747, "lon": 77.5051865, "tags": {"bus": "yes", "highway": "bus_stop", "loc_name": "PAPAREDDY PALYA", "name": "Deepa Complex", "name:en": "Deepa Complex", "network": "BMTC", "operator": "BMTC", "public_transport": "platform"}}, {"type": "node", "id": 2418895129, "lat": 12.9668119, "lon": 77.5051018, "tags": {"highway": "bus_stop", "loc_name": "PAPAREDDY PALYA", "name": "Deepa Complex"}}, {"type": "node", "id": 2419026790, "lat": 12.9586449, "lon": 77.4957806, "tags": {"highway": "bus_stop", "name": "Balaji Badavane", "name:kn": "\u0cac\u0cbe\u0cb2\u0cbe\u0c9c\u0cbf \u0cac\u0ca1\u0cbe\u0cb5\u0ca3\u0cc6"}}, {"type": "node", "id": 2419027596, "lat": 12.9572292, "lon": 77.4953803, "tags": {"highway": "bus_stop", "name": "Jnana Jyothi Nagara 2nd Phase"}}, {"type": "node", "id": 2422576364, "lat": 12.9623714, "lon": 77.4750841, "tags": {"alt_name": "Ullala Satellite Town", "highway": "bus_stop", "name": "Ullalu Upanagara", "name:kn": "\u0c89\u0cb2\u0ccd\u0cb2\u0cbe\u0cb3\u0cc1 \u0c89\u0caa\u0ca8\u0c97\u0cb0", "public_transport": "platform"}}, {"type": "node", "id": 2422618629, "lat": 12.956729, "lon": 77.4871287, "tags": {"highway": "bus_stop", "name": "Bhavani Nagara 2nd Stage"}}, {"type": "node", "id": 2424233638, "lat": 12.9787283, "lon": 77.5017486, "tags": {"highway": "bus_stop", "loc_name": "SRI GOWDA KAVALU", "name": "Srigandha Kaval", "name:kn": "\u0cb6\u0ccd\u0cb0\u0cc0\u0c97\u0c82\u0ca7 \u0c95\u0cb5\u0cbe\u0cb2\u0ccd"}}, {"type": "node", "id": 2424234588, "lat": 12.9782346, "lon": 77.4986637, "tags": {"highway": "bus_stop", "name": "D Group Employees Layout"}}, {"type": "node", "id": 2424257402, "lat": 12.9770837, "lon": 77.4946739, "tags": {"highway": "bus_stop", "name": "Narasipura", "name:kn": "\u0ca8\u0cb0\u0cb8\u0cc0\u0caa\u0cc1\u0cb0"}}, {"type": "node", "id": 2425476358, "lat": 12.9876847, "lon": 77.4932046, "tags": {"bench": "yes", "bus": "yes", "covered": "yes", "highway": "bus_stop", "loc_name": "Magadi Road", "name": "Herohalli Cross", "name:en": "Herohalli Cross", "name:kn": "\u0cb9\u0cc7\u0cb0\u0ccb\u0cb9\u0cb3\u0ccd\u0cb3\u0cbf \u0c85\u0ca1\u0ccd\u0ca1\u0cb0\u0cb8\u0ccd\u0ca4\u0cc6", "network": "BMTC", "operator": "BMTC", "public_transport": "platform", "shelter": "yes"}}, {"type": "node", "id": 2425477361, "lat": 12.9862442, "lon": 77.4885444, "tags": {"highway": "bus_stop", "loc_name": "Magadi Road", "name": "Anjananagar Gollarahatti", "name:kn": "\u0c85\u0c82\u0c9c\u0ca8\u0ca8\u0c97\u0cb0 \u0c97\u0cca\u0cb2\u0ccd\u0cb2\u0cb0\u0cb9\u0c9f\u0ccd\u0c9f\u0cbf"}}, {"type": "node", "id": 2425478432, "lat": 12.9861912, "lon": 77.4779524, "tags": {"highway": "bus_stop", "loc_name": "Magadi Road", "name": "College Stop Gollarahatti", "name:kn": "\u0c95\u0cbe\u0cb2\u0cc7\u0c9c\u0cc1 \u0c97\u0cca\u0cb2\u0ccd\u0cb2\u0cb9\u0c9f\u0ccd\u0c9f\u0cbf"}}, {"type": "node", "id": 2425479203, "lat": 12.9879822, "lon": 77.4741074, "tags": {"highway": "bus_stop", "loc_name": "Magadi Road", "name": "Gollarahatti", "name:kn": "\u0c97\u0cca\u0cb2\u0ccd\u0cb2\u0cb0\u0cb9\u0c9f\u0ccd\u0c9f\u0cbf"}}, {"type": "node", "id": 2425644205, "lat": 12.9914136, "lon": 77.4657955, "tags": {"highway": "bus_stop", "loc_name": "Magadi Road", "name": "Chikka Gollarahatti", "name:kn": "\u0c9a\u0cbf\u0c95\u0ccd\u0c95 \u0c97\u0cca\u0cb2\u0ccd\u0cb2\u0cb0\u0cb9\u0c9f\u0ccd\u0c9f\u0cbf"}}, {"type": "node", "id": 2425646890, "lat": 12.9973548, "lon": 77.451548, "tags": {"highway": "bus_stop", "name": "Machohalli Colony"}}, {"type": "node", "id": 2425657367, "lat": 12.990475, "lon": 77.4689491, "tags": {"highway": "bus_stop", "loc_name": "Magadi Road", "name": "Kachohalli Cross"}}, {"type": "node", "id": 2425664043, "lat": 13.0109535, "lon": 77.4598985, "tags": {"highway": "bus_stop", "loc_name": "BYLAKONDANAHALLI", "name": "Bylakonenahalli", "name:kn": "\u0cac\u0cc8\u0cb2\u0c95\u0ccb\u0ca8\u0cc7\u0ca8\u0cb9\u0cb3\u0ccd\u0cb3\u0cbf"}}, {"type": "node", "id": 2427680721, "lat": 12.9923026, "lon": 77.4943652, "tags": {"bus": "yes", "highway": "bus_stop", "name": "Madeshwara Nagara", "name:kn": "\u0cae\u0cbe\u0ca6\u0cc7\u0cb6\u0ccd\u0cb5\u0cb0 \u0ca8\u0c97\u0cb0", "public_transport": "platform"}}, {"type": "node", "id": 2427682609, "lat": 12.9972668, "lon": 77.4967859, "tags": {"highway": "bus_stop", "name": "Prasanna Layout"}}, {"type": "node", "id": 2427682678, "lat": 12.9992771, "lon": 77.4961909, "tags": {"highway": "bus_stop", "name": "Nagaravale", "name:kn": "\u0ca8\u0c97\u0cb0\u0cb5\u0cbe\u0cb2\u0cc6"}}, {"type": "node", "id": 2427690222, "lat": 12.9841702, "lon": 77.4440112, "tags": {"highway": "bus_stop", "loc_name": "Magadi Road", "name": "Sigehalli Gate"}}, {"type": "node", "id": 2427693986, "lat": 12.9818471, "lon": 77.4398431, "tags": {"highway": "bus_stop", "loc_name": "Magadi Road", "name": "Hamsa Farm"}}, {"type": "node", "id": 2427694296, "lat": 12.9779212, "lon": 77.4305361, "tags": {"highway": "bus_stop", "loc_name": "Magadi Road", "name": "Channenahalli", "name:kn": "\u0c9a\u0ca8\u0ccd\u0ca8\u0cc7\u0ca8\u0cb9\u0cb3\u0ccd\u0cb3\u0cbf"}}, {"type": "node", "id": 2427695129, "lat": 12.9742391, "lon": 77.4210658, "tags": {"highway": "bus_stop", "loc_name": "Magadi Road", "name": "Honnagana Hatti", "name:kn": "\u0cb9\u0cca\u0ca8\u0ccd\u0ca8\u0c97\u0ca8\u0cb9\u0c9f\u0ccd\u0c9f\u0cbf"}}, {"type": "node", "id": 2427695950, "lat": 12.970958, "lon": 77.414868, "tags": {"highway": "bus_stop", "loc_name": "Magadi Road", "name": "Channadasi Palya", "name:kn": "\u0c9a\u0ca8\u0ccd\u0ca8\u0ca6\u0cbe\u0cb8\u0cbf \u0caa\u0cbe\u0cb3\u0ccd\u0caf"}}, {"type": "node", "id": 2428059670, "lat": 12.9672288, "lon": 77.4590501, "tags": {"highway": "bus_stop", "loc_name": "KANNALLI", "name": "Kannalli", "name:en": "Kannalli", "name:kn": "\u0c95\u0ca8\u0ccd\u0ca8\u0cb2\u0ccd\u0cb2\u0cbf", "network": "BMTC", "operator": "BMTC", "public_transport": "platform"}}, {"type": "node", "id": 2428064206, "lat": 12.9785713, "lon": 77.4778584, "tags": {"highway": "bus_stop", "name": "Bharathnagar 2nd Stage"}}, {"type": "node", "id": 2428071537, "lat": 12.9855416, "lon": 77.4586502, "tags": {"highway": "bus_stop", "name": "Gnanashakti Nagar"}}, {"type": "node", "id": 2428077748, "lat": 12.9885211, "lon": 77.4663643, "tags": {"highway": "bus_stop", "name": "Eshwari Form"}}, {"type": "node", "id": 2428260878, "lat": 12.985503, "lon": 77.485068, "tags": {"highway": "bus_stop", "loc_name": "THUNGA NAGARA CROSS", "name": "Tunganagara Cross"}}, {"type": "node", "id": 2428260879, "lat": 12.991877, "lon": 77.4851534, "tags": {"highway": "bus_stop", "name": "Thunga Nagara", "name:kn": "\u0ca4\u0cc1\u0c82\u0c97\u0ca8\u0c97\u0cb0"}}, {"type": "node", "id": 2430065563, "lat": 13.0047026, "lon": 77.4872663, "tags": {"alt_name": "Acharya College Vidhyamanyanagar", "bus": "yes", "highway": "bus_stop", "name": "Vidyamanyanagar", "name:en": "Vidyamanyanagar", "name:kn": "\u0cb5\u0cbf\u0ca6\u0ccd\u0caf\u0cae\u0cbe\u0ca8\u0ccd\u0caf \u0ca8\u0c97\u0cb0", "network": "BMTC", "operator": "BMTC", "public_transport": "platform"}}, {"type": "node", "id": 2430071288, "lat": 12.9663246, "lon": 77.4878545, "tags": {"highway": "bus_stop", "name": "Muddinapalya", "name:en": "Muddinapalya", "name:kn": "\u0cae\u0cc1\u0ca6\u0ccd\u0ca6\u0ca8\u0caa\u0cbe\u0cb3\u0ccd\u0caf", "network": "BMTC", "operator": "BMTC", "public_transport": "platform"}}, {"type": "node", "id": 2430076112, "lat": 12.9933298, "lon": 77.4885321, "tags": {"bus": "yes", "highway": "bus_stop", "name": "Venkateshwara Layout", "name:en": "Venkateshwara Layout", "network": "BMTC", "operator": "BMTC", "public_transport": "platform"}}, {"type": "node", "id": 2430077524, "lat": 13.0046069, "lon": 77.4874872, "tags": {"alt_name": "Acharya College Vidhyamanyanagar", "bus": "yes", "highway": "bus_stop", "name": "Vidyamanyanagar", "name:en": "Vidyamanyanagar", "name:kn": "\u0cb5\u0cbf\u0ca6\u0ccd\u0caf\u0cae\u0cbe\u0ca8\u0ccd\u0caf \u0ca8\u0c97\u0cb0", "network": "BMTC", "operator": "BMTC", "public_transport": "platform"}}, {"type": "node", "id": 2430080070, "lat": 13.0137744, "lon": 77.4834344, "tags": {"bus": "yes", "highway": "bus_stop", "name": "Anjaneya Temple Thigalarapalya", "name:en": "Anjaneya Temple Thigalarapalya", "name:kn": "\u0ca4\u0cbf\u0c97\u0cb2\u0cbe\u0cb0\u0caa\u0cbe\u0cb3\u0ccd\u0caf", "network": "BMTC", "operator": "BMTC", "public_transport": "platform"}}, {"type": "node", "id": 2430173593, "lat": 12.9592469, "lon": 77.4877377, "tags": {"highway": "bus_stop", "name": "Upkar Residency Layout"}}, {"type": "node", "id": 2430176320, "lat": 13.0000996, "lon": 77.4793945, "tags": {"highway": "bus_stop", "loc_name": "10th Cross Lingadeeranahalli", "name": "Lingadeeranahalli", "name:en": "Lingadeeranahalli", "name:kn": "\u0cb2\u0cbf\u0c82\u0c97\u0ca6\u0cc0\u0cb0\u0ca8\u0cb9\u0cb3\u0ccd\u0cb3\u0cbf", "network": "BMTC", "operator": "BMTC", "public_transport": "platform"}}, {"type": "node", "id": 2430630184, "lat": 13.0070265, "lon": 77.4424779, "tags": {"highway": "bus_stop", "loc_name": "BYANDHALLI", "name": "Bayyandahalli", "name:en": "Bayyandahalli", "network": "BMTC", "operator": "BMTC", "public_transport": "platform"}}, {"type": "node", "id": 2430642458, "lat": 13.0081299, "lon": 77.4349299, "tags": {"highway": "bus_stop", "loc_name": "BETTAHALLI CROSS", "name": "Bettahalli Cross", "name:en": "Bettahalli Cross", "network": "BMTC", "operator": "BMTC", "public_transport": "platform"}}, {"type": "node", "id": 2430642509, "lat": 13.0090369, "lon": 77.421661, "tags": {"highway": "bus_stop", "loc_name": "Kittanahalli", "name": "Kittanahalli", "name:en": "Kittanahalli", "network": "BMTC", "operator": "BMTC", "public_transport": "platform"}}, {"type": "node", "id": 2430805559, "lat": 13.0418661, "lon": 77.4482852, "tags": {"bus": "yes", "highway": "bus_stop", "loc_name": "KADIRENAHALLI", "name": "Kadirenahalli Village", "name:kn": "\u0c95\u0ca6\u0cbf\u0cb0\u0cc7\u0ca8\u0cb9\u0cb3\u0ccd\u0cb3\u0cbf", "public_transport": "platform"}}, {"type": "node", "id": 2430810950, "lat": 13.0346342, "lon": 77.4395654, "tags": {"bus": "yes", "highway": "bus_stop", "name": "Kammasandra", "name:kn": "\u0c95\u0cae\u0ccd\u0cae\u0cb8\u0c82\u0ca6\u0ccd\u0cb0", "public_transport": "platform"}}, {"type": "node", "id": 2430813870, "lat": 13.0298454, "lon": 77.4391367, "tags": {"bus": "yes", "highway": "bus_stop", "name": "Kamadenu Kshetra", "name:kn": "\u0c95\u0cbe\u0cae\u0ca7\u0cc7\u0ca8\u0cc1 \u0c95\u0ccd\u0cb7\u0cc7\u0ca4\u0ccd\u0cb0", "public_transport": "platform"}}, {"type": "node", "id": 2430820088, "lat": 13.0256601, "lon": 77.4476441, "tags": {"bus": "yes", "highway": "bus_stop", "name": "Kamadhenu Kshethra", "name:kn": "\u0c95\u0cbe\u0cae\u0ca7\u0cc7\u0ca8\u0cc1 \u0c95\u0ccd\u0cb7\u0cc7\u0ca4\u0ccd\u0cb0", "public_transport": "platform"}}, {"type": "node", "id": 2430832253, "lat": 13.0201687, "lon": 77.448566, "tags": {"bus": "yes", "highway": "bus_stop", "loc_name": "VADDARAHALLI", "name": "Vaddarahalli BMTC Training Centre", "name:en": "Vaddarahalli BMTC Training Centre", "network": "BMTC", "operator": "BMTC", "public_transport": "platform"}}, {"type": "node", "id": 2430834618, "lat": 13.0150369, "lon": 77.4471027, "tags": {"bus": "yes", "highway": "bus_stop", "loc_name": "VADDARAHALLI", "name": "Vaddarahalli Cross", "name:en": "Vaddarahalli Cross", "network": "BMTC", "operator": "BMTC", "public_transport": "platform"}}, {"type": "node", "id": 2430838346, "lat": 13.0154005, "lon": 77.4434612, "tags": {"highway": "bus_stop", "name": "Bettahalli Cross", "name:en": "Bettahalli Cross", "network": "BMTC", "operator": "BMTC", "public_transport": "platform"}}, {"type": "node", "id": 2431012501, "lat": 13.0168799, "lon": 77.4372605, "tags": {"bus": "yes", "highway": "bus_stop", "name": "Bettenahalli", "name:kn": "\u0cac\u0cc6\u0c9f\u0ccd\u0c9f\u0cc7\u0ca8\u0cb9\u0cb3\u0ccd\u0cb3\u0cbf", "public_transport": "platform"}}, {"type": "node", "id": 2431017789, "lat": 13.0146034, "lon": 77.4496166, "tags": {"highway": "bus_stop", "name": "Vaddarahalli", "name:kn": "\u0cb5\u0ca1\u0ccd\u0ca1\u0cb0\u0cb9\u0cb3\u0ccd\u0cb3\u0cbf"}}, {"type": "node", "id": 2431067397, "lat": 13.0334071, "lon": 77.4218979, "tags": {"bus": "yes", "highway": "bus_stop", "name": "Averehalli Cross", "public_transport": "platform"}}, {"type": "node", "id": 2431067719, "lat": 13.0349289, "lon": 77.4160517, "tags": {"bus": "yes", "highway": "bus_stop", "name": "Averahalli", "name:kn": "\u0c85\u0cb5\u0cc7\u0cb0\u0cb9\u0cb3\u0ccd\u0cb3\u0cbf", "public_transport": "platform"}}, {"type": "node", "id": 2431129752, "lat": 13.0082282, "lon": 77.5056125, "tags": {"highway": "bus_stop", "loc_name": "HEGGANA HALLI", "name": "Dairy Hegganahalli"}}, {"type": "node", "id": 2431131774, "lat": 13.0164785, "lon": 77.5057386, "tags": {"bus": "yes", "highway": "bus_stop", "loc_name": "PEENYA INDUSTRIAL AREA 2ND STAGE", "name": "Peenya 14th Cross", "name:en": "Peenya 14th Cross", "network": "BMTC", "operator": "BMTC", "public_transport": "platform"}}, {"type": "node", "id": 2431146027, "lat": 13.0410361, "lon": 77.5048282, "tags": {"highway": "bus_stop", "name": "Rukmini Nagara", "name:en": "Rukmini Nagara", "name:kn": "\u0cb0\u0cc1\u0c95\u0ccd\u0cae\u0cbf\u0ca8\u0cbf \u0ca8\u0c97\u0cb0", "network": "BMTC", "operator": "BMTC", "public_transport": "platform"}}, {"type": "node", "id": 2431146294, "lat": 13.0385761, "lon": 77.5045157, "tags": {"bus": "yes", "departures_board": "no", "highway": "bus_stop", "name": "Nagasandra Cross Bus Stop", "public_transport": "platform", "shelter": "yes"}}, {"type": "node", "id": 2431146694, "lat": 13.0337754, "lon": 77.5040962, "tags": {"alt_name": "Om timber", "highway": "bus_stop", "loc_name": "H.M.T.LAYOUT CROSS", "name": "HMT Layout", "name:en": "HMT Layout", "network": "BMTC", "operator": "BMTC", "public_transport": "platform"}}, {"type": "node", "id": 2431147069, "lat": 13.0315243, "lon": 77.5034567, "tags": {"highway": "bus_stop", "name": "Nelagedaranahalli", "name:en": "Nelagedaranahalli", "name:kn": "\u0ca8\u0cc6\u0cb2\u0c97\u0cc6\u0ca6\u0cb0\u0ca8\u0cb9\u0cb3\u0ccd\u0cb3\u0cbf", "network": "BMTC", "operator": "BMTC", "public_transport": "platform"}}, {"type": "node", "id": 2431157768, "lat": 13.0298063, "lon": 77.4997531, "tags": {"highway": "bus_stop", "name": "Gruhalaxmi Layout", "name:en": "Gruhalaxmi Layout", "name:kn": "\u0c97\u0cc3\u0cb9\u0cb2\u0c95\u0ccd\u0cb7\u0ccd\u0cae\u0cbf \u0cac\u0ca1\u0cbe\u0cb5\u0ca3\u0cc6", "network": "BMTC", "operator": "BMTC", "public_transport": "platform"}}, {"type": "node", "id": 2431163764, "lat": 13.0277238, "lon": 77.4937718, "tags": {"highway": "bus_stop", "name": "Indiranagara", "name:en": "Indiranagara", "network": "BMTC", "operator": "BMTC", "public_transport": "platform"}}, {"type": "node", "id": 2431163833, "lat": 13.0262298, "lon": 77.4731558, "tags": {"highway": "bus_stop", "loc_name": "SHANTHI NAGARA", "name": "Shanthinagara", "name:kn": "\u0cb6\u0cbe\u0c82\u0ca4\u0cbf\u0ca8\u0c97\u0cb0"}}, {"type": "node", "id": 2431163862, "lat": 13.0293894, "lon": 77.4835383, "tags": {"bus": "yes", "highway": "bus_stop", "loc_name": "TIPPENAHALLI CROSS", "name": "Thippenahalli Cross", "public_transport": "platform"}}, {"type": "node", "id": 2431168829, "lat": 13.024254, "lon": 77.4708342, "tags": {"bus": "yes", "highway": "bus_stop", "name": "Gangondanahalli Colony", "public_transport": "platform"}}, {"type": "node", "id": 2431169974, "lat": 13.0258508, "lon": 77.4596723, "tags": {"highway": "bus_stop", "loc_name": "K.G.LAKKENAHALLI CROSS", "name": "KG Lakkenahalli Cross", "name:en": "KG Lakkenahalli Cross", "name:kn": "\u0c95\u0cae\u0ccd\u0cae\u0cb8\u0c82\u0ca6\u0ccd\u0cb0", "network": "BMTC", "operator": "BMTC", "public_transport": "platform"}}, {"type": "node", "id": 2431170408, "lat": 13.0237039, "lon": 77.4589838, "tags": {"bus": "yes", "highway": "bus_stop", "loc_name": "JYOTHI NAGARA", "name": "Jyothinagar", "public_transport": "platform"}}, {"type": "node", "id": 2431171486, "lat": 13.0161627, "lon": 77.4565858, "tags": {"bus": "yes", "highway": "bus_stop", "loc_name": "K.G.LAKKENAHALLI", "name": "KG Lakkenahalli", "public_transport": "platform"}}, {"type": "node", "id": 2432447260, "lat": 12.992196, "lon": 77.5046705, "tags": {"highway": "bus_stop", "loc_name": "Sunkadakatte", "name": "Aralimara", "name:kn": "\u0c85\u0cb0\u0cb3\u0cbf\u0cae\u0cb0"}}, {"type": "node", "id": 2432492430, "lat": 13.0395465, "lon": 77.4997629, "tags": {"highway": "bus_stop", "loc_name": "NAGASANDRA", "name": "Nagasandra", "name:kn": "\u0ca8\u0cbe\u0c97\u0cb8\u0c82\u0ca6\u0ccd\u0cb0"}}, {"type": "node", "id": 2432493345, "lat": 13.0345127, "lon": 77.4992483, "tags": {"highway": "bus_stop", "loc_name": "H.M.T.LAYOUT", "name": "KRS Gowda Layout"}}, {"type": "node", "id": 2441538919, "lat": 13.0441349, "lon": 77.4906379, "tags": {"highway": "bus_stop", "name": "Muniswamappa Layout"}}, {"type": "node", "id": 2441541261, "lat": 13.0357452, "lon": 77.4844357, "tags": {"highway": "bus_stop", "loc_name": "TIPPENAHALLI", "name": "Anjaneya Temple", "name:kn": "\u0c86\u0c82\u0c9c\u0ca8\u0cc7\u0caf \u0ca6\u0cc7\u0cb5\u0cb8\u0ccd\u0ca5\u0cbe\u0ca8"}}, {"type": "node", "id": 2441553062, "lat": 13.0432754, "lon": 77.42896, "tags": {"bus": "yes", "highway": "bus_stop", "loc_name": "SHIVANAPURA COLONY", "name": "Shivanapura gate", "public_transport": "platform"}}, {"type": "node", "id": 2444515800, "lat": 13.0414303, "lon": 77.4222746, "tags": {"bus": "yes", "highway": "bus_stop", "name": "Shivanapura Cross", "public_transport": "platform"}}, {"type": "node", "id": 2446582130, "lat": 13.0406363, "lon": 77.4960981, "tags": {"highway": "bus_stop", "loc_name": "Rajiv Gandhi Nagara", "name": "Rockline Studio"}}, {"type": "node", "id": 2446582139, "lat": 13.0396553, "lon": 77.4940725, "tags": {"highway": "bus_stop", "name": "Venugopala Nagara", "name:kn": "\u0cb5\u0cc7\u0ca3\u0cc1\u0c97\u0ccb\u0caa\u0cbe\u0cb2 \u0ca8\u0c97\u0cb0"}}, {"type": "node", "id": 2446582392, "lat": 13.0379874, "lon": 77.4938686, "tags": {"highway": "bus_stop", "name": "Sri Shaneshwara Swamy Temple", "name:kn": "\u0cb6\u0ccd\u0cb0\u0cc0 \u0cb6\u0ca8\u0cc7\u0cb6\u0ccd\u0cb5\u0cb0 \u0cb8\u0ccd\u0cb5\u0cbe\u0cae\u0cbf \u0ca6\u0cc7\u0cb5\u0cb8\u0ccd\u0ca5\u0cbe\u0ca8"}}, {"type": "node", "id": 2446582393, "lat": 13.0358455, "lon": 77.4937472, "tags": {"bus": "yes", "highway": "bus_stop", "loc_name": "DODDABIDRA KALLU", "name": "Doddabidarakallu", "name:kn": "\u0ca6\u0cca\u0ca1\u0ccd\u0ca1\u0cac\u0cbf\u0ca6\u0cb0\u0c95\u0cb2\u0ccd\u0cb2\u0cc1", "public_transport": "platform"}}, {"type": "node", "id": 2446892712, "lat": 13.0257039, "lon": 77.4550167, "tags": {"highway": "bus_stop", "name": "Ganesh Circle Vaddarahalli", "name:en": "Ganesh Circle Vaddarahalli", "name:kn": "\u0c97\u0ca3\u0cc7\u0cb6 \u0cb5\u0cc3\u0ca4\u0ccd\u0ca4", "network": "BMTC", "operator": "BMTC", "public_transport": "platform"}}, {"type": "node", "id": 2446905480, "lat": 13.0368521, "lon": 77.4884874, "tags": {"highway": "bus_stop", "name": "Maranna Layout", "name:kn": "\u0cae\u0cbe\u0cb0\u0ca3\u0ccd\u0ca3 \u0cac\u0ca1\u0cbe\u0cb5\u0ca3\u0cc6"}}, {"type": "node", "id": 2446911932, "lat": 13.0283303, "lon": 77.4894359, "tags": {"highway": "bus_stop", "loc_name": "Tumkur Road, INDIRA NAGARA", "name": "Indiranagara", "name:kn": "\u0c87\u0c82\u0ca6\u0cbf\u0cb0\u0cbe\u0ca8\u0c97\u0cb0"}}, {"type": "node", "id": 2446920020, "lat": 13.0438902, "lon": 77.4850998, "tags": {"highway": "bus_stop", "loc_name": "CHANNA NAYAKANAPALYA", "name": "Channa Nayakanapalya"}}, {"type": "node", "id": 2446925226, "lat": 13.0360433, "lon": 77.497501, "tags": {"highway": "bus_stop", "name": "Sapthagiri Layout", "name:kn": "\u0cb8\u0caa\u0ccd\u0ca4\u0c97\u0cbf\u0cb0\u0cbf \u0cac\u0ca1\u0cbe\u0cb5\u0ca3\u0cc6"}}, {"type": "node", "id": 2447160900, "lat": 13.0129632, "lon": 77.5036103, "tags": {"highway": "bus_stop", "name": "GCL Factory"}}, {"type": "node", "id": 2447162479, "lat": 13.0144888, "lon": 77.5004995, "tags": {"bus": "yes", "highway": "bus_stop", "name": "Manjushree Garments", "public_transport": "platform"}}, {"type": "node", "id": 2447174548, "lat": 13.0137269, "lon": 77.4892996, "tags": {"highway": "bus_stop", "name": "Shiva Bar"}}, {"type": "node", "id": 2447182174, "lat": 12.993314, "lon": 77.4995913, "tags": {"highway": "bus_stop", "name": "Vigneshwara Nagara", "name:en": "Vigneshwara Nagara", "name:kn": "\u0cb5\u0cbf\u0c97\u0ccd\u0ca8\u0cc7\u0cb6\u0ccd\u0cb5\u0cb0 \u0ca8\u0c97\u0cb0", "network": "BMTC", "operator": "BMTC", "public_transport": "platform"}}, {"type": "node", "id": 4692323122, "lat": 12.9855649, "lon": 77.486315, "tags": {"bus": "yes", "name": "East West College Cross", "name:en": "East West College Cross", "network": "BMTC", "operator": "BMTC", "public_transport": "stop_position"}}, {"type": "node", "id": 6210612235, "lat": 12.9630231, "lon": 77.505114, "tags": {"bench": "yes", "bus": "yes", "covered": "yes", "highway": "bus_stop", "name": "Ambedkar Institute of Technology", "name:en": "Ambedkar Institute of Technology", "network": "BMTC", "operator": "BMTC", "public_transport": "platform", "shelter": "yes"}}, {"type": "node", "id": 6220918813, "lat": 12.9620848, "lon": 77.4786423, "tags": {"alt_name": "Ullala Satellite Town Cross", "name": "Ullala Upanagara Cross", "public_transport": "platform"}}, {"type": "node", "id": 9213240988, "lat": 12.9652036, "lon": 77.5047583, "tags": {"highway": "bus_stop", "name": "Ambedkar College", "name:kn": "\u0c85\u0c82\u0cac\u0cc6\u0ca1\u0ccd\u0c95\u0cb0\u0ccd \u0c95\u0cbe\u0cb2\u0cc7\u0c9c\u0cc1"}}, {"type": "node", "id": 9213271145, "lat": 12.9580697, "lon": 77.5032946, "tags": {"highway": "bus_stop", "name": "Mallathahalli", "name:kn": "\u0cae\u0cb2\u0ccd\u0cb2\u0ca4\u0ccd\u0ca4\u0cb9\u0cb3\u0ccd\u0cb3\u0cbf"}}, {"type": "node", "id": 9213291196, "lat": 12.9665643, "lon": 77.5048879, "tags": {"highway": "bus_stop", "name": "Deepa Complex", "name:en": "Deepa Complex", "network": "BMTC", "operator": "BMTC", "public_transport": "platform"}}, {"type": "node", "id": 9213635315, "lat": 12.96047, "lon": 77.5042369, "tags": {"bus": "yes", "highway": "bus_stop", "name": "Kengunte cross", "network": "BMTC", "network:wikidata": "Q3345039", "network:wikipedia": "hi:\u092c\u0947\u0902\u0917\u0932\u094b\u0930 \u092e\u0939\u093e\u0928\u0917\u0930 \u092a\u0930\u093f\u0935\u0939\u0928 \u0928\u093f\u0917\u092e", "public_transport": "platform"}}, {"type": "node", "id": 9682432255, "lat": 12.9671356, "lon": 77.4590497, "tags": {"bus": "yes", "name": "Kannalli", "name:en": "Kannalli", "network": "BMTC", "operator": "BMTC", "public_transport": "stop_position"}}, {"type": "node", "id": 9851266302, "lat": 12.9916762, "lon": 77.4591106, "tags": {"highway": "bus_stop", "loc_name": "Magadi Road", "name": "Forest Gate"}}, {"type": "node", "id": 9851266307, "lat": 12.9907989, "lon": 77.454317, "tags": {"highway": "bus_stop", "loc_name": "Magadi Road", "name": "Machohalli Cross", "name:kn": "\u0cae\u0cbe\u0c9a\u0ccb\u0cb9\u0cb3\u0ccd\u0cb3\u0cbf \u0c95\u0ccd\u0cb0\u0cbe\u0cb8\u0ccd"}}, {"type": "node", "id": 9851270724, "lat": 12.9888745, "lon": 77.4492686, "tags": {"highway": "bus_stop", "loc_name": "Magadi Road", "name": "Kadabagere Cross"}}, {"type": "node", "id": 9851270736, "lat": 12.9841118, "lon": 77.4440363, "tags": {"highway": "bus_stop", "loc_name": "Magadi Road", "name": "Sigehalli Gate"}}, {"type": "node", "id": 9851270740, "lat": 12.9817861, "lon": 77.4398636, "tags": {"highway": "bus_stop", "loc_name": "Magadi Road", "name": "Hamsa Farm"}}, {"type": "node", "id": 9851270749, "lat": 12.9778584, "lon": 77.4305523, "tags": {"highway": "bus_stop", "loc_name": "Magadi Road", "name": "Channenahalli", "name:kn": "\u0c9a\u0ca8\u0ccd\u0ca8\u0cc7\u0ca8\u0cb9\u0cb3\u0ccd\u0cb3\u0cbf"}}, {"type": "node", "id": 9851270770, "lat": 12.9741071, "lon": 77.4209797, "tags": {"highway": "bus_stop", "loc_name": "Magadi Road", "name": "Honnagana Hatti", "name:kn": "\u0cb9\u0cca\u0ca8\u0ccd\u0ca8\u0c97\u0ca8\u0cb9\u0c9f\u0ccd\u0c9f\u0cbf"}}, {"type": "node", "id": 9851270786, "lat": 12.9708979, "lon": 77.4148902, "tags": {"highway": "bus_stop", "loc_name": "Magadi Road", "name": "Channadasi Palya", "name:kn": "\u0c9a\u0ca8\u0ccd\u0ca8\u0ca6\u0cbe\u0cb8\u0cbf \u0caa\u0cbe\u0cb3\u0ccd\u0caf"}}, {"type": "node", "id": 10041006056, "lat": 13.0169945, "lon": 77.4829948, "tags": {"bus": "yes", "name": "Thigalara Palya", "name:en": "Thigalara Palya", "network": "BMTC", "operator": "BMTC", "public_transport": "stop_position"}}, {"type": "node", "id": 10110876730, "lat": 12.9991701, "lon": 77.4964908, "tags": {"bus": "yes", "highway": "bus_stop", "name": "Nagaravale", "name:kn": "\u0ca8\u0c97\u0cb0\u0cb5\u0cbe\u0cb2\u0cc6", "public_transport": "platform"}}, {"type": "node", "id": 10121145792, "lat": 12.98803, "lon": 77.5127748}, {"type": "node", "id": 10121145793, "lat": 12.9880127, "lon": 77.5127007}, {"type": "node", "id": 10121145794, "lat": 12.9879881, "lon": 77.5126288}, {"type": "node", "id": 10121145813, "lat": 12.987824, "lon": 77.51238}, {"type": "node", "id": 10121145814, "lat": 12.9876484, "lon": 77.5122517}, {"type": "node", "id": 10121145815, "lat": 12.9870682, "lon": 77.5120667}, {"type": "node", "id": 10121145816, "lat": 12.9864592, "lon": 77.5118253}, {"type": "node", "id": 10121145817, "lat": 12.9855758, "lon": 77.5113371}, {"type": "node", "id": 10121145818, "lat": 12.9851602, "lon": 77.5110018}, {"type": "node", "id": 10121145819, "lat": 12.9848518, "lon": 77.5108623}, {"type": "node", "id": 10121145820, "lat": 12.9844206, "lon": 77.510747}, {"type": "node", "id": 10121145821, "lat": 12.9838665, "lon": 77.5107604}, {"type": "node", "id": 10121145822, "lat": 12.9832314, "lon": 77.5108784}, {"type": "node", "id": 10121145823, "lat": 12.9826485, "lon": 77.5110421}, {"type": "node", "id": 10121145824, "lat": 12.9812685, "lon": 77.5110099}, {"type": "node", "id": 10121145825, "lat": 12.9805014, "lon": 77.510983}, {"type": "node", "id": 10121145826, "lat": 12.9797787, "lon": 77.5107564}, {"type": "node", "id": 10121145827, "lat": 12.9778328, "lon": 77.5103031}, {"type": "node", "id": 10121145828, "lat": 12.9756491, "lon": 77.5096983}, {"type": "node", "id": 10121145829, "lat": 12.9743056, "lon": 77.5091431}, {"type": "node", "id": 10121145830, "lat": 12.9724577, "lon": 77.5080568}, {"type": "node", "id": 10121145831, "lat": 12.9707535, "lon": 77.5069168}, {"type": "node", "id": 10121145832, "lat": 12.9699615, "lon": 77.5065252}, {"type": "node", "id": 10121145833, "lat": 12.9687344, "lon": 77.5060424}, {"type": "node", "id": 10121145834, "lat": 12.9674784, "lon": 77.5054564}, {"type": "node", "id": 10121145835, "lat": 12.9666603, "lon": 77.5050835}, {"type": "node", "id": 10121145836, "lat": 12.9661951, "lon": 77.5049467}, {"type": "node", "id": 10121145837, "lat": 12.9657899, "lon": 77.5048797}, {"type": "node", "id": 10121145838, "lat": 12.9651371, "lon": 77.5048435}, {"type": "node", "id": 10121145839, "lat": 12.9644333, "lon": 77.504877}, {"type": "node", "id": 10121145840, "lat": 12.9637132, "lon": 77.5050513}, {"type": "node", "id": 10121145841, "lat": 12.9633394, "lon": 77.5050567}, {"type": "node", "id": 10121145842, "lat": 12.9622887, "lon": 77.5048448}, {"type": "node", "id": 10121145843, "lat": 12.9611157, "lon": 77.5045617}, {"type": "node", "id": 10121145844, "lat": 12.9610465, "lon": 77.5045522}, {"type": "node", "id": 10121145845, "lat": 12.9609767, "lon": 77.5045513}, {"type": "node", "id": 10121145846, "lat": 12.9609073, "lon": 77.5045591}, {"type": "node", "id": 10121145847, "lat": 12.9608393, "lon": 77.5045752}, {"type": "node", "id": 10121145848, "lat": 12.9607868, "lon": 77.504594}, {"type": "node", "id": 10121145849, "lat": 12.9607364, "lon": 77.5046179}, {"type": "node", "id": 10121145850, "lat": 12.9606884, "lon": 77.5046466}, {"type": "node", "id": 10121145851, "lat": 12.9606432, "lon": 77.5046799}, {"type": "node", "id": 10121145852, "lat": 12.9605914, "lon": 77.5047249}, {"type": "node", "id": 10121145853, "lat": 12.9605438, "lon": 77.5047746}, {"type": "node", "id": 10121145854, "lat": 12.9605008, "lon": 77.5048286}, {"type": "node", "id": 10121145855, "lat": 12.9604629, "lon": 77.5048864}, {"type": "node", "id": 10121145856, "lat": 12.9604308, "lon": 77.5049464}, {"type": "node", "id": 10121145857, "lat": 12.9604041, "lon": 77.505009}, {"type": "node", "id": 10121145858, "lat": 12.960383, "lon": 77.5050739}, {"type": "node", "id": 10121145859, "lat": 12.9603677, "lon": 77.5051405}, {"type": "node", "id": 10121145860, "lat": 12.9603583, "lon": 77.5052083}, {"type": "node", "id": 10121145861, "lat": 12.9605988, "lon": 77.5066406}, {"type": "node", "id": 10121145862, "lat": 12.9609621, "lon": 77.5130725}, {"type": "node", "id": 10121145863, "lat": 12.9606851, "lon": 77.5137752}, {"type": "node", "id": 10121145864, "lat": 12.9610928, "lon": 77.5103983}, {"type": "node", "id": 10121145865, "lat": 12.9599218, "lon": 77.5157118}, {"type": "node", "id": 10121145866, "lat": 12.9593729, "lon": 77.5166506}, {"type": "node", "id": 10121145867, "lat": 12.9587168, "lon": 77.5172406}, {"type": "node", "id": 10121145868, "lat": 12.9584999, "lon": 77.5179058}, {"type": "node", "id": 10121145869, "lat": 12.9584301, "lon": 77.518111}, {"type": "node", "id": 10121145870, "lat": 12.9583535, "lon": 77.5183135}, {"type": "node", "id": 10121145871, "lat": 12.9582887, "lon": 77.5184701}, {"type": "node", "id": 10121145872, "lat": 12.9582199, "lon": 77.5186248}, {"type": "node", "id": 10121145873, "lat": 12.958147, "lon": 77.5187775}, {"type": "node", "id": 10121145874, "lat": 12.9580803, "lon": 77.5188614}, {"type": "node", "id": 10121145875, "lat": 12.9580081, "lon": 77.5189402}, {"type": "node", "id": 10121145876, "lat": 12.9611469, "lon": 77.5113618}, {"type": "node", "id": 10121145877, "lat": 12.9579307, "lon": 77.5190137}, {"type": "node", "id": 10121145878, "lat": 12.9578485, "lon": 77.5190815}, {"type": "node", "id": 10121145879, "lat": 12.9577618, "lon": 77.5191433}, {"type": "node", "id": 10121145880, "lat": 12.9576713, "lon": 77.5191987}, {"type": "node", "id": 10121145881, "lat": 12.9575676, "lon": 77.5192519}, {"type": "node", "id": 10121145882, "lat": 12.95735, "lon": 77.5193332}, {"type": "node", "id": 10121145883, "lat": 12.9572373, "lon": 77.5193608}, {"type": "node", "id": 10121145884, "lat": 12.9571228, "lon": 77.5193795}, {"type": "node", "id": 10121145885, "lat": 12.9547985, "lon": 77.5195178}, {"type": "node", "id": 10121145886, "lat": 12.954377, "lon": 77.5195882}, {"type": "node", "id": 10121145887, "lat": 12.9535467, "lon": 77.5198316}, {"type": "node", "id": 10121145888, "lat": 12.953345, "lon": 77.5199134}, {"type": "node", "id": 10121145889, "lat": 12.9531465, "lon": 77.5200033}, {"type": "node", "id": 10121145890, "lat": 12.9527659, "lon": 77.520202}, {"type": "node", "id": 10121145891, "lat": 12.9525796, "lon": 77.5203093}, {"type": "node", "id": 10121145892, "lat": 12.9522082, "lon": 77.5205446}, {"type": "node", "id": 10121145893, "lat": 12.9518425, "lon": 77.5208066}, {"type": "node", "id": 10121145894, "lat": 12.9509769, "lon": 77.5217253}, {"type": "node", "id": 10121145895, "lat": 12.9469618, "lon": 77.5250405}, {"type": "node", "id": 10121145896, "lat": 12.9457568, "lon": 77.5277415}, {"type": "node", "id": 10121145897, "lat": 12.9441465, "lon": 77.5301287}, {"type": "node", "id": 10121145898, "lat": 12.9414593, "lon": 77.5314268}, {"type": "node", "id": 10121145899, "lat": 12.9399169, "lon": 77.5323415}, {"type": "node", "id": 10121145900, "lat": 12.9388138, "lon": 77.5329369}, {"type": "node", "id": 10121145901, "lat": 12.9377159, "lon": 77.5336021}, {"type": "node", "id": 10121145902, "lat": 12.9370493, "lon": 77.5338677}, {"type": "node", "id": 10121145903, "lat": 12.9364193, "lon": 77.5341412}, {"type": "node", "id": 10121145904, "lat": 12.9361788, "lon": 77.5346133}, {"type": "node", "id": 10121145905, "lat": 12.9359539, "lon": 77.5352892}, {"type": "node", "id": 10121145906, "lat": 12.9353305, "lon": 77.5364493}, {"type": "node", "id": 10121145907, "lat": 12.9349384, "lon": 77.537152}, {"type": "node", "id": 10121145908, "lat": 12.9343096, "lon": 77.5382249}, {"type": "node", "id": 10121145909, "lat": 12.9336267, "lon": 77.5393521}, {"type": "node", "id": 10121145910, "lat": 12.9330137, "lon": 77.5402607}, {"type": "node", "id": 10121145911, "lat": 12.9322222, "lon": 77.541351}, {"type": "node", "id": 10121145912, "lat": 12.9314576, "lon": 77.5423783}, {"type": "node", "id": 10121145913, "lat": 12.9306171, "lon": 77.5433546}, {"type": "node", "id": 10121145914, "lat": 12.9291767, "lon": 77.544909}, {"type": "node", "id": 10121145915, "lat": 12.9280611, "lon": 77.5462722}, {"type": "node", "id": 10121145916, "lat": 12.926769, "lon": 77.5479358}, {"type": "node", "id": 10121145917, "lat": 12.9260043, "lon": 77.5489269}, {"type": "node", "id": 10121145918, "lat": 12.9245587, "lon": 77.5516078}, {"type": "node", "id": 10121145919, "lat": 12.923858, "lon": 77.5536007}, {"type": "node", "id": 10121145920, "lat": 12.9231407, "lon": 77.5558162}, {"type": "node", "id": 10121145921, "lat": 12.9223339, "lon": 77.5582999}, {"type": "node", "id": 10121145922, "lat": 12.9219888, "lon": 77.5587773}, {"type": "node", "id": 10121145923, "lat": 12.9218281, "lon": 77.559417}, {"type": "node", "id": 10121145924, "lat": 12.9216686, "lon": 77.5603759}, {"type": "node", "id": 10121145925, "lat": 12.9214542, "lon": 77.5613402}, {"type": "node", "id": 10121145926, "lat": 12.9213065, "lon": 77.5615561}, {"type": "node", "id": 10121145927, "lat": 12.9208921, "lon": 77.5618055}, {"type": "node", "id": 10121145928, "lat": 12.9203719, "lon": 77.5621784}, {"type": "node", "id": 10121145929, "lat": 12.9202412, "lon": 77.562283}, {"type": "node", "id": 10121145930, "lat": 12.9200281, "lon": 77.5625981}, {"type": "node", "id": 10121145931, "lat": 12.9195484, "lon": 77.5633827}, {"type": "node", "id": 10121145932, "lat": 12.9194739, "lon": 77.5634632}, {"type": "node", "id": 10121145933, "lat": 12.9190399, "lon": 77.5638051}, {"type": "node", "id": 10121145934, "lat": 12.9186425, "lon": 77.5640573}, {"type": "node", "id": 10121145935, "lat": 12.9180648, "lon": 77.564351}, {"type": "node", "id": 10121145936, "lat": 12.9168909, "lon": 77.5648297}, {"type": "node", "id": 10121145937, "lat": 12.9146651, "lon": 77.5656756}, {"type": "node", "id": 10121145938, "lat": 12.9140812, "lon": 77.5659402}, {"type": "node", "id": 10121145939, "lat": 12.9140016, "lon": 77.5659788}, {"type": "node", "id": 10121145940, "lat": 12.9139243, "lon": 77.566022}, {"type": "node", "id": 10121145941, "lat": 12.9138473, "lon": 77.566071}, {"type": "node", "id": 10121145942, "lat": 12.9137733, "lon": 77.5661246}, {"type": "node", "id": 10121145943, "lat": 12.9133903, "lon": 77.566435}, {"type": "node", "id": 10121145944, "lat": 12.9124086, "lon": 77.5672451}, {"type": "node", "id": 10121145945, "lat": 12.9114387, "lon": 77.5680095}, {"type": "node", "id": 10121145946, "lat": 12.9100753, "lon": 77.5691293}, {"type": "node", "id": 10121145947, "lat": 12.9092592, "lon": 77.5698153}, {"type": "node", "id": 10121145948, "lat": 12.9080635, "lon": 77.5707158}, {"type": "node", "id": 10121145949, "lat": 12.9077497, "lon": 77.5709841}, {"type": "node", "id": 10121145950, "lat": 12.9068373, "lon": 77.5718558}, {"type": "node", "id": 10121145951, "lat": 12.9067893, "lon": 77.5719135}, {"type": "node", "id": 10121145952, "lat": 12.9067465, "lon": 77.5719753}, {"type": "node", "id": 10121145953, "lat": 12.9067092, "lon": 77.5720409}, {"type": "node", "id": 10121145954, "lat": 12.9066781, "lon": 77.5721086}, {"type": "node", "id": 10121145955, "lat": 12.906653, "lon": 77.572179}, {"type": "node", "id": 10121145956, "lat": 12.906504, "lon": 77.5729582}, {"type": "node", "id": 10121145957, "lat": 12.9064634, "lon": 77.5733484}, {"type": "node", "id": 10121145958, "lat": 12.9063445, "lon": 77.5870666}, {"type": "node", "id": 10121145959, "lat": 12.9063432, "lon": 77.5897676}, {"type": "node", "id": 10121145960, "lat": 12.906287, "lon": 77.5950515}, {"type": "node", "id": 10121145961, "lat": 12.9062713, "lon": 77.5952125}, {"type": "node", "id": 10121145962, "lat": 12.9061458, "lon": 77.5962216}, {"type": "node", "id": 10121145963, "lat": 12.9061334, "lon": 77.5964865}, {"type": "node", "id": 10121145964, "lat": 12.9061424, "lon": 77.5965689}, {"type": "node", "id": 10121145965, "lat": 12.9061556, "lon": 77.5966508}, {"type": "node", "id": 10121145966, "lat": 12.9061693, "lon": 77.5967172}, {"type": "node", "id": 10121145967, "lat": 12.9071131, "lon": 77.599858}, {"type": "node", "id": 10121145968, "lat": 12.9071352, "lon": 77.5999111}, {"type": "node", "id": 10121145969, "lat": 12.9071614, "lon": 77.5999622}, {"type": "node", "id": 10121145970, "lat": 12.9071916, "lon": 77.6000109}, {"type": "node", "id": 10121145971, "lat": 12.9072346, "lon": 77.6000683}, {"type": "node", "id": 10121145972, "lat": 12.9072831, "lon": 77.6001209}, {"type": "node", "id": 10121145973, "lat": 12.9073401, "lon": 77.6001553}, {"type": "node", "id": 10121145974, "lat": 12.9074007, "lon": 77.6001826}, {"type": "node", "id": 10121145975, "lat": 12.9074535, "lon": 77.6001997}, {"type": "node", "id": 10121145976, "lat": 12.9075077, "lon": 77.6002113}, {"type": "node", "id": 10121145977, "lat": 12.9079471, "lon": 77.6002282}, {"type": "node", "id": 10121145978, "lat": 12.9107053, "lon": 77.5999573}, {"type": "node", "id": 10121145979, "lat": 12.9130661, "lon": 77.5998312}, {"type": "node", "id": 10841279515, "lat": 13.0039541, "lon": 77.5047509, "tags": {"bus": "yes", "name": "Hegganahalli", "name:en": "Hegganahalli", "network": "BMTC", "operator": "BMTC", "public_transport": "stop_position"}}, {"type": "node", "id": 11067481166, "lat": 12.9529549, "lon": 77.5201}, {"type": "node", "id": 11067481169, "lat": 12.9523963, "lon": 77.5204217}, {"type": "node", "id": 11067481172, "lat": 12.9520235, "lon": 77.5206729}, {"type": "node", "id": 11067481174, "lat": 12.9516652, "lon": 77.5209456}, {"type": "node", "id": 11067481175, "lat": 12.9514919, "lon": 77.5210896}, {"type": "node", "id": 11067481177, "lat": 12.9496935, "lon": 77.522715}, {"type": "node", "id": 11067481178, "lat": 12.948559, "lon": 77.5236109}, {"type": "node", "id": 11067481180, "lat": 12.9473788, "lon": 77.5245336}, {"type": "node", "id": 11067481181, "lat": 12.9466985, "lon": 77.525581}, {"type": "node", "id": 11067497874, "lat": 12.9574603, "lon": 77.5192968}, {"type": "node", "id": 11067497875, "lat": 12.9570073, "lon": 77.5193891}, {"type": "node", "id": 11067497876, "lat": 12.9545871, "lon": 77.5195488}, {"type": "node", "id": 11067497877, "lat": 12.9541686, "lon": 77.5196359}, {"type": "node", "id": 11067497878, "lat": 12.9539589, "lon": 77.5196927}, {"type": "node", "id": 11067497879, "lat": 12.9537515, "lon": 77.519758}, {"type": "node", "id": 11067514218, "lat": 12.9453751, "lon": 77.5287473}, {"type": "node", "id": 11067514220, "lat": 12.9447791, "lon": 77.5297746}, {"type": "node", "id": 11067514222, "lat": 12.9428735, "lon": 77.5306195}, {"type": "node", "id": 11433588998, "lat": 12.959314, "lon": 77.4210747, "tags": {"bus": "yes", "name": "Yalachaguppe", "name:en": "Yalachaguppe", "network": "BMTC", "operator": "BMTC", "public_transport": "stop_position"}}, {"type": "node", "id": 11598060951, "lat": 13.0045812, "lon": 77.4874583, "tags": {"alt_name": "Acharya College Vidhyamanyanagar", "bus": "yes", "name": "Vidyamanyanagar", "name:en": "Vidyamanyanagar", "name:kn": "\u0cb5\u0cbf\u0ca6\u0ccd\u0caf\u0cae\u0cbe\u0ca8\u0ccd\u0caf \u0ca8\u0c97\u0cb0", "network": "BMTC", "operator": "BMTC", "public_transport": "stop_position"}}, {"type": "node", "id": 11598060952, "lat": 13.004739, "lon": 77.4873051, "tags": {"alt_name": "Acharya College Vidhyamanyanagar", "bus": "yes", "name": "Vidyamanyanagar", "name:en": "Vidyamanyanagar", "name:kn": "\u0cb5\u0cbf\u0ca6\u0ccd\u0caf\u0cae\u0cbe\u0ca8\u0ccd\u0caf \u0ca8\u0c97\u0cb0", "network": "BMTC", "operator": "BMTC", "public_transport": "stop_position"}}, {"type": "node", "id": 11598159740, "lat": 13.0080262, "lon": 77.4848126, "tags": {"bus": "yes", "name": "Andrahalli", "name:en": "Andrahalli", "name:kn": "\u0c85\u0c82\u0ca6\u0ccd\u0cb0\u0cb9\u0cb3\u0ccd\u0cb3\u0cbf", "network": "BMTC", "operator": "BMTC", "public_transport": "stop_position"}}, {"type": "node", "id": 11598159741, "lat": 13.0080767, "lon": 77.4848449, "tags": {"bus": "yes", "highway": "bus_stop", "loc_name": "ANDARAHALLI", "name": "Andrahalli", "name:en": "Andrahalli", "name:kn": "\u0c85\u0c82\u0ca6\u0ccd\u0cb0\u0cb9\u0cb3\u0ccd\u0cb3\u0cbf", "network": "BMTC", "operator": "BMTC", "public_transport": "platform"}}, {"type": "node", "id": 11608103348, "lat": 12.9571802, "lon": 77.5030641, "tags": {"bus": "yes", "name": "Mallathalli Cross", "name:en": "Mallathalli Cross", "network": "BMTC", "operator": "BMTC", "public_transport": "stop_position"}}, {"type": "node", "id": 11608103349, "lat": 12.9602772, "lon": 77.5042766, "tags": {"bus": "yes", "name": "Kengunte Circle", "name:en": "Kengunte Circle", "network": "BMTC", "operator": "BMTC", "public_transport": "stop_position"}}, {"type": "node", "id": 11608103351, "lat": 12.9666909, "lon": 77.5051467, "tags": {"bus": "yes", "name": "Deepa Complex", "name:en": "Deepa Complex", "network": "BMTC", "operator": "BMTC", "public_transport": "stop_position"}}, {"type": "node", "id": 11886114694, "lat": 12.987711, "lon": 77.5122884}, {"type": "node", "id": 12134994073, "lat": 12.9879564, "lon": 77.5125599}, {"type": "node", "id": 12134994074, "lat": 12.987918, "lon": 77.5124948}, {"type": "node", "id": 12134994075, "lat": 12.9878731, "lon": 77.5124341}, {"type": "node", "id": 12134994076, "lat": 12.9877697, "lon": 77.5123313}, {"type": "node", "id": 12151572111, "lat": 12.9075628, "lon": 77.6002175}, {"type": "node", "id": 12229871102, "lat": 12.9087576, "lon": 77.600188}, {"type": "node", "id": 12462603232, "lat": 12.9889355, "lon": 77.4492535, "tags": {"bus": "yes", "name": "Kadabagere Cross", "name:en": "Kadabagere Cross", "network": "BMTC", "operator": "BMTC", "public_transport": "stop_position"}}, {"type": "node", "id": 12462603233, "lat": 12.9918518, "lon": 77.4426853, "tags": {"bus": "yes", "name": "Mutturayaswamy Temple", "name:en": "Mutturayaswamy Temple", "network": "BMTC", "operator": "BMTC", "public_transport": "stop_position"}}, {"type": "node", "id": 12462603234, "lat": 12.9992139, "lon": 77.442731, "tags": {"bus": "yes", "name": "Janapriya Township", "name:en": "Janapriya Township", "network": "BMTC", "operator": "BMTC", "public_transport": "stop_position"}}, {"type": "node", "id": 12462603235, "lat": 13.0033077, "lon": 77.4423121, "tags": {"bus": "yes", "name": "Bayyandahalli Colony", "name:en": "Bayyandahalli Colony", "network": "BMTC", "operator": "BMTC", "public_transport": "stop_position"}}, {"type": "node", "id": 12462603236, "lat": 13.0070324, "lon": 77.4424364, "tags": {"bus": "yes", "name": "Bayyandahalli", "name:en": "Bayyandahalli", "network": "BMTC", "operator": "BMTC", "public_transport": "stop_position"}}, {"type": "node", "id": 12462603237, "lat": 13.0154442, "lon": 77.443434, "tags": {"bus": "yes", "name": "Bettahalli Cross", "name:en": "Bettahalli Cross", "network": "BMTC", "operator": "BMTC", "public_transport": "stop_position"}}, {"type": "node", "id": 12462603238, "lat": 13.0150402, "lon": 77.4470452, "tags": {"bus": "yes", "name": "Vaddarahalli Cross", "name:en": "Vaddarahalli Cross", "network": "BMTC", "operator": "BMTC", "public_transport": "stop_position"}}, {"type": "node", "id": 12462603239, "lat": 13.0201687, "lon": 77.4484721, "tags": {"bus": "yes", "name": "Vaddarahalli BMTC Training Centre", "name:en": "Vaddarahalli BMTC Training Centre", "network": "BMTC", "operator": "BMTC", "public_transport": "stop_position"}}, {"type": "node", "id": 12462603241, "lat": 13.0257312, "lon": 77.4549994, "tags": {"bus": "yes", "name": "Ganesh Circle Vaddarahalli", "name:en": "Ganesh Circle Vaddarahalli", "network": "BMTC", "operator": "BMTC", "public_transport": "stop_position"}}, {"type": "node", "id": 12462603242, "lat": 13.025905, "lon": 77.459657, "tags": {"bus": "yes", "name": "KG Lakkenahalli Cross", "name:en": "KG Lakkenahalli Cross", "network": "BMTC", "operator": "BMTC", "public_transport": "stop_position"}}, {"type": "node", "id": 12462603243, "lat": 13.0371334, "lon": 77.4612102, "tags": {"bus": "yes", "name": "Lakshmipura", "name:en": "Lakshmipura", "network": "BMTC", "operator": "BMTC", "public_transport": "stop_position"}}, {"type": "node", "id": 12462646832, "lat": 13.0090932, "lon": 77.421676, "tags": {"bus": "yes", "name": "Kittanahalli", "name:en": "Kittanahalli", "network": "BMTC", "operator": "BMTC", "public_transport": "stop_position"}}, {"type": "node", "id": 12462646833, "lat": 13.0081793, "lon": 77.4349242, "tags": {"bus": "yes", "name": "Bettahalli Cross", "name:en": "Bettahalli Cross", "network": "BMTC", "operator": "BMTC", "public_transport": "stop_position"}}, {"type": "node", "id": 12523178676, "lat": 12.9899035, "lon": 77.502415, "tags": {"bus": "yes", "name": "Sunkadakatte", "name:en": "Sunkadakatte", "network": "BMTC", "operator": "BMTC", "public_transport": "stop_position"}}, {"type": "node", "id": 12523178677, "lat": 12.9899522, "lon": 77.5023973, "tags": {"highway": "bus_stop", "loc_name": "Magadi Road", "name": "Sunkadakatte", "name:en": "Sunkadakatte", "name:kn": "\u0cb8\u0cc1\u0c82\u0c95\u0ca6\u0c95\u0c9f\u0ccd\u0c9f\u0cc6", "network": "BMTC", "operator": "BMTC", "public_transport": "platform"}}, {"type": "node", "id": 12523178678, "lat": 12.9876002, "lon": 77.4932283, "tags": {"bus": "yes", "name": "Herohalli Cross", "name:en": "Herohalli Cross", "network": "BMTC", "operator": "BMTC", "public_transport": "stop_position"}}, {"type": "node", "id": 12523178679, "lat": 13.0000648, "lon": 77.4794694, "tags": {"bus": "yes", "name": "Lingadeeranahalli", "name:en": "Lingadeeranahalli", "name:kn": "\u0cb2\u0cbf\u0c82\u0c97\u0ca6\u0cc0\u0cb0\u0ca8\u0cb9\u0cb3\u0ccd\u0cb3\u0cbf", "network": "BMTC", "operator": "BMTC", "public_transport": "stop_position"}}, {"type": "node", "id": 12565464843, "lat": 12.9828445, "lon": 77.4988246}, {"type": "node", "id": 12565464844, "lat": 12.9869179, "lon": 77.4988297}, {"type": "node", "id": 12565464845, "lat": 12.9870897, "lon": 77.4988758}, {"type": "node", "id": 12565464846, "lat": 12.9872591, "lon": 77.4989305}, {"type": "node", "id": 12565464847, "lat": 12.9874257, "lon": 77.4989936}, {"type": "node", "id": 12565464848, "lat": 12.987589, "lon": 77.4990651}, {"type": "node", "id": 12565464849, "lat": 12.9877488, "lon": 77.4991447}, {"type": "node", "id": 12565464850, "lat": 12.9880625, "lon": 77.4993321}, {"type": "node", "id": 12565464851, "lat": 12.9882154, "lon": 77.4994401}, {"type": "node", "id": 12565464852, "lat": 12.9883626, "lon": 77.499556}, {"type": "node", "id": 12565464853, "lat": 12.9885038, "lon": 77.4996795}, {"type": "node", "id": 12565464854, "lat": 12.9886387, "lon": 77.4998102}, {"type": "node", "id": 12565464855, "lat": 12.9887669, "lon": 77.499948}, {"type": "node", "id": 12565464856, "lat": 12.988888, "lon": 77.5000923}, {"type": "node", "id": 12565464857, "lat": 12.9890017, "lon": 77.5002427}, {"type": "node", "id": 12565464858, "lat": 12.9879045, "lon": 77.4992323}, {"type": "node", "id": 12565464859, "lat": 12.9891077, "lon": 77.500399}, {"type": "node", "id": 12565464860, "lat": 12.9868837, "lon": 77.4987691}, {"type": "node", "id": 12565464861, "lat": 12.9870214, "lon": 77.4987364}, {"type": "node", "id": 12565464862, "lat": 12.9871568, "lon": 77.4986943}, {"type": "node", "id": 12565464863, "lat": 12.9872891, "lon": 77.4986431}, {"type": "node", "id": 12565464864, "lat": 12.9874179, "lon": 77.498583}, {"type": "node", "id": 12565464865, "lat": 12.9875424, "lon": 77.4985142}, {"type": "node", "id": 12565464866, "lat": 12.9876622, "lon": 77.4984371}, {"type": "node", "id": 12565464867, "lat": 12.9877768, "lon": 77.4983521}, {"type": "node", "id": 12565464868, "lat": 12.9878856, "lon": 77.4982593}, {"type": "node", "id": 12565464869, "lat": 12.9880823, "lon": 77.4980547}, {"type": "node", "id": 12565464870, "lat": 12.9881697, "lon": 77.4979439}, {"type": "node", "id": 12565464871, "lat": 12.9882498, "lon": 77.4978275}, {"type": "node", "id": 12565464872, "lat": 12.9883223, "lon": 77.4977059}, {"type": "node", "id": 12565464873, "lat": 12.9883869, "lon": 77.4975798}, {"type": "node", "id": 12565464874, "lat": 12.9884434, "lon": 77.4974496}, {"type": "node", "id": 12565464875, "lat": 12.9884915, "lon": 77.4973159}, {"type": "node", "id": 12565464876, "lat": 12.988531, "lon": 77.4971793}, {"type": "node", "id": 12565464877, "lat": 12.9867441, "lon": 77.4987924}, {"type": "node", "id": 12565464878, "lat": 12.9879881, "lon": 77.4981594}, {"type": "node", "id": 12565464879, "lat": 12.9885618, "lon": 77.4970403}, {"type": "node", "id": 12565464887, "lat": 12.9860175, "lon": 77.4467522}, {"type": "node", "id": 12565464888, "lat": 12.9874733, "lon": 77.4476695}, {"type": "node", "id": 12565464889, "lat": 12.9878967, "lon": 77.448037}, {"type": "node", "id": 12565464890, "lat": 12.9885684, "lon": 77.4487397}, {"type": "node", "id": 12565464891, "lat": 12.9893916, "lon": 77.4500835}, {"type": "node", "id": 12565464892, "lat": 12.9898908, "lon": 77.4511161}, {"type": "node", "id": 12565464893, "lat": 12.990356, "lon": 77.4523875}, {"type": "node", "id": 12565464894, "lat": 12.990782, "lon": 77.4540451}, {"type": "node", "id": 12565464895, "lat": 12.9911035, "lon": 77.4558368}, {"type": "node", "id": 12565464896, "lat": 12.9917308, "lon": 77.4592432}, {"type": "node", "id": 12565464897, "lat": 12.9918954, "lon": 77.4605951}, {"type": "node", "id": 12565464898, "lat": 12.9918667, "lon": 77.4623224}, {"type": "node", "id": 12565464899, "lat": 12.991689, "lon": 77.4638861}, {"type": "node", "id": 12565464900, "lat": 12.9915766, "lon": 77.464731}, {"type": "node", "id": 12565499101, "lat": 12.9911114, "lon": 77.4670565}, {"type": "node", "id": 12565499102, "lat": 12.990897, "lon": 77.4677753}, {"type": "node", "id": 12565499103, "lat": 12.9905521, "lon": 77.46869}, {"type": "node", "id": 12565499104, "lat": 12.9901705, "lon": 77.4694625}, {"type": "node", "id": 12565499105, "lat": 12.9892662, "lon": 77.4713775}, {"type": "node", "id": 12565499106, "lat": 12.9883488, "lon": 77.4732202}, {"type": "node", "id": 12565499107, "lat": 12.987583, "lon": 77.47491}, {"type": "node", "id": 12565499108, "lat": 12.9866918, "lon": 77.47675}, {"type": "node", "id": 12565499109, "lat": 12.9859574, "lon": 77.4783647}, {"type": "node", "id": 12565499110, "lat": 12.9856124, "lon": 77.4794376}, {"type": "node", "id": 12565499111, "lat": 12.9853798, "lon": 77.4806097}, {"type": "node", "id": 12565499112, "lat": 12.9850165, "lon": 77.4827045}, {"type": "node", "id": 12565499113, "lat": 12.9849616, "lon": 77.4837023}, {"type": "node", "id": 12565499114, "lat": 12.9849982, "lon": 77.4840966}, {"type": "node", "id": 12565499115, "lat": 12.9856176, "lon": 77.4863148}, {"type": "node", "id": 12565499116, "lat": 12.9865611, "lon": 77.4899599}, {"type": "node", "id": 12565499117, "lat": 12.9869845, "lon": 77.4913117}, {"type": "node", "id": 12565499118, "lat": 12.9877764, "lon": 77.4940127}, {"type": "node", "id": 12565499119, "lat": 12.9883932, "lon": 77.4963945}, {"type": "node", "id": 12565499120, "lat": 12.9888166, "lon": 77.4980172}, {"type": "node", "id": 12565499121, "lat": 12.9888715, "lon": 77.4984384}, {"type": "node", "id": 12565499122, "lat": 12.9889107, "lon": 77.4997151}, {"type": "node", "id": 12565499123, "lat": 12.9889552, "lon": 77.5000128}, {"type": "node", "id": 12565499124, "lat": 12.9893524, "lon": 77.5010186}, {"type": "node", "id": 12565499125, "lat": 12.9896765, "lon": 77.5018716}, {"type": "node", "id": 12565499126, "lat": 12.9901012, "lon": 77.5031027}, {"type": "node", "id": 12565499127, "lat": 12.9901888, "lon": 77.5036915}, {"type": "node", "id": 12565499128, "lat": 12.9902149, "lon": 77.5043278}, {"type": "node", "id": 12565499129, "lat": 12.9901305, "lon": 77.5047617}, {"type": "node", "id": 12565499130, "lat": 12.9900703, "lon": 77.5049222}, {"type": "node", "id": 12565499131, "lat": 12.9899276, "lon": 77.5052424}, {"type": "node", "id": 12565499132, "lat": 12.9898447, "lon": 77.5054012}, {"type": "node", "id": 12565499133, "lat": 12.9897553, "lon": 77.5055562}, {"type": "node", "id": 12565499134, "lat": 12.9901842, "lon": 77.5045987}, {"type": "node", "id": 12565499135, "lat": 12.9900039, "lon": 77.5050802}, {"type": "node", "id": 12565499136, "lat": 12.9896595, "lon": 77.5057071}, {"type": "node", "id": 12565499137, "lat": 12.9894302, "lon": 77.5061966}, {"type": "node", "id": 12565499138, "lat": 12.9892714, "lon": 77.5066687}, {"type": "node", "id": 12565499139, "lat": 12.9890532, "lon": 77.5076035}, {"type": "node", "id": 12565499140, "lat": 12.988963, "lon": 77.50816}, {"type": "node", "id": 12565499141, "lat": 12.9889081, "lon": 77.5084698}, {"type": "node", "id": 12565499142, "lat": 12.9888193, "lon": 77.508671}, {"type": "node", "id": 12565499143, "lat": 12.9883763, "lon": 77.509068}, {"type": "node", "id": 12565499144, "lat": 12.9881854, "lon": 77.5093411}, {"type": "node", "id": 12565499145, "lat": 12.9881563, "lon": 77.509453}, {"type": "node", "id": 12565499146, "lat": 12.9881351, "lon": 77.5095668}, {"type": "node", "id": 12565499147, "lat": 12.9881217, "lon": 77.5096818}, {"type": "node", "id": 12565499148, "lat": 12.9881183, "lon": 77.5099068}, {"type": "node", "id": 12565499149, "lat": 12.9881276, "lon": 77.5100157}, {"type": "node", "id": 12565499150, "lat": 12.9881439, "lon": 77.5101238}, {"type": "node", "id": 12565499151, "lat": 12.9881671, "lon": 77.5102304}, {"type": "node", "id": 12565499152, "lat": 12.9882221, "lon": 77.5092316}, {"type": "node", "id": 12565499153, "lat": 12.9881162, "lon": 77.5097975}, {"type": "node", "id": 12565499154, "lat": 12.9881972, "lon": 77.5103353}, {"type": "node", "id": 12565499155, "lat": 12.9883299, "lon": 77.5106512}, {"type": "node", "id": 12565499156, "lat": 12.9882495, "lon": 77.5104694}, {"type": "node", "id": 12565499157, "lat": 12.9882939, "lon": 77.5105606}, {"type": "node", "id": 12565499158, "lat": 12.9880991, "lon": 77.5125949}, {"type": "node", "id": 12565499159, "lat": 12.9881605, "lon": 77.5124121}, {"type": "node", "id": 12565499160, "lat": 12.9882142, "lon": 77.5122268}, {"type": "node", "id": 12565499161, "lat": 12.9882601, "lon": 77.5120393}, {"type": "node", "id": 12565499162, "lat": 12.988298, "lon": 77.5118499}, {"type": "node", "id": 12565499163, "lat": 12.9883488, "lon": 77.5114769}, {"type": "node", "id": 12565499164, "lat": 12.9883624, "lon": 77.5112941}, {"type": "node", "id": 12565499165, "lat": 12.9883687, "lon": 77.5111108}, {"type": "node", "id": 12565499166, "lat": 12.9883676, "lon": 77.5109275}, {"type": "node", "id": 12565499167, "lat": 12.9883279, "lon": 77.511659}, {"type": "node", "id": 12565499168, "lat": 12.9883593, "lon": 77.5107443}, {"type": "node", "id": 12565499451, "lat": 12.9610084, "lon": 77.5119189}, {"type": "node", "id": 12590389435, "lat": 12.9257144, "lon": 77.5494628}, {"type": "node", "id": 12981611946, "lat": 12.9874, "lon": 77.4924937, "tags": {"bus": "yes", "name": "Herohalli Cross", "name:en": "Herohalli Cross", "network": "BMTC", "operator": "BMTC", "public_transport": "stop_position"}}, {"type": "node", "id": 12981611947, "lat": 12.9874647, "lon": 77.4924724, "tags": {"bus": "yes", "highway": "bus_stop", "loc_name": "Magadi Road", "name": "Herohalli Cross", "name:en": "Herohalli Cross", "name:kn": "\u0cb9\u0cc7\u0cb0\u0ccb\u0cb9\u0cb3\u0ccd\u0cb3\u0cbf \u0c85\u0ca1\u0ccd\u0ca1\u0cb0\u0cb8\u0ccd\u0ca4\u0cc6", "network": "BMTC", "operator": "BMTC", "public_transport": "platform"}}, {"type": "node", "id": 12981611994, "lat": 12.9813585, "lon": 77.4851531, "tags": {"bus": "yes", "name": "Bharath Nagara 1st Phase", "name:en": "Bharath Nagara 1st Phase", "network": "BMTC", "operator": "BMTC", "public_transport": "stop_position"}}, {"type": "node", "id": 12981611995, "lat": 12.9813678, "lon": 77.4851178, "tags": {"highway": "bus_stop", "name": "Bharath Nagara 1st Phase", "name:en": "Bharath Nagara 1st Phase", "network": "BMTC", "operator": "BMTC", "public_transport": "platform"}}, {"type": "node", "id": 12981629723, "lat": 13.0410321, "lon": 77.504852, "tags": {"bus": "yes", "name": "Rukmini Nagara", "name:en": "Rukmini Nagara", "network": "BMTC", "operator": "BMTC", "public_transport": "stop_position"}}, {"type": "node", "id": 12981629724, "lat": 13.033767, "lon": 77.5041395, "tags": {"bus": "yes", "name": "HMT Layout", "name:en": "HMT Layout", "network": "BMTC", "operator": "BMTC", "public_transport": "stop_position"}}, {"type": "node", "id": 12981629725, "lat": 13.0314658, "lon": 77.5034853, "tags": {"bus": "yes", "name": "Nelagedaranahalli", "name:en": "Nelagedaranahalli", "network": "BMTC", "operator": "BMTC", "public_transport": "stop_position"}}, {"type": "node", "id": 12981629726, "lat": 13.029731, "lon": 77.499783, "tags": {"bus": "yes", "name": "Gruhalaxmi Layout", "name:en": "Gruhalaxmi Layout", "network": "BMTC", "operator": "BMTC", "public_transport": "stop_position"}}, {"type": "node", "id": 12981629727, "lat": 13.028271, "lon": 77.4962229, "tags": {"bus": "yes", "name": "Ganga International School", "name:en": "Ganga International School", "network": "BMTC", "operator": "BMTC", "public_transport": "stop_position"}}, {"type": "node", "id": 12981629728, "lat": 13.0282993, "lon": 77.4962185, "tags": {"highway": "bus_stop", "name": "Ganga International School", "name:en": "Ganga International School", "network": "BMTC", "operator": "BMTC", "public_transport": "platform"}}, {"type": "node", "id": 12981629729, "lat": 13.0276623, "lon": 77.4937952, "tags": {"bus": "yes", "name": "Indiranagara", "name:en": "Indiranagara", "network": "BMTC", "operator": "BMTC", "public_transport": "stop_position"}}, {"type": "node", "id": 12981629730, "lat": 13.0261018, "lon": 77.4889512, "tags": {"bus": "yes", "name": "Siddhartha School Cross", "name:en": "Siddhartha School Cross", "network": "BMTC", "operator": "BMTC", "public_transport": "stop_position"}}, {"type": "node", "id": 12981629731, "lat": 13.0261472, "lon": 77.4889283, "tags": {"highway": "bus_stop", "name": "Siddhartha School Cross", "name:en": "Siddhartha School Cross", "network": "BMTC", "operator": "BMTC", "public_transport": "platform"}}, {"type": "node", "id": 12981629732, "lat": 13.0250126, "lon": 77.4866168, "tags": {"bus": "yes", "name": "Kari Obanahalli", "name:en": "Kari Obanahalli", "network": "BMTC", "operator": "BMTC", "public_transport": "stop_position"}}, {"type": "node", "id": 12981629733, "lat": 13.0250536, "lon": 77.4865981, "tags": {"highway": "bus_stop", "name": "Kari Obanahalli", "name:en": "Kari Obanahalli", "network": "BMTC", "operator": "BMTC", "public_transport": "platform"}}, {"type": "node", "id": 12981629739, "lat": 13.0157449, "lon": 77.4841106, "tags": {"bus": "yes", "name": "Garudappa Circle Thigalarapalya", "name:en": "Garudappa Circle Thigalarapalya", "network": "BMTC", "operator": "BMTC", "public_transport": "stop_position"}}, {"type": "node", "id": 12981629740, "lat": 13.015734, "lon": 77.4840822, "tags": {"highway": "bus_stop", "name": "Garudappa Circle Thigalarapalya", "name:en": "Garudappa Circle Thigalarapalya", "network": "BMTC", "operator": "BMTC", "public_transport": "platform"}}, {"type": "node", "id": 12981629763, "lat": 13.00966, "lon": 77.4828739, "tags": {"highway": "bus_stop", "name": "Andrahalli Government School", "name:en": "Andrahalli Government School", "network": "BMTC", "operator": "BMTC", "public_transport": "platform"}}, {"type": "node", "id": 12981629764, "lat": 13.008054, "lon": 77.4847834, "tags": {"bus": "yes", "name": "Andrahalli", "name:en": "Andrahalli", "network": "BMTC", "operator": "BMTC", "public_transport": "stop_position"}}, {"type": "node", "id": 12981629765, "lat": 13.0080359, "lon": 77.4847652, "tags": {"bus": "yes", "highway": "bus_stop", "loc_name": "ANDARAHALLI", "name": "Andrahalli", "name:en": "Andrahalli", "name:kn": "\u0c85\u0c82\u0ca6\u0ccd\u0cb0\u0cb9\u0cb3\u0ccd\u0cb3\u0cbf", "network": "BMTC", "operator": "BMTC", "public_transport": "platform"}}, {"type": "node", "id": 12981629770, "lat": 13.0023603, "lon": 77.4882111, "tags": {"bus": "yes", "name": "Acharya College", "name:en": "Acharya College", "network": "BMTC", "operator": "BMTC", "public_transport": "stop_position"}}, {"type": "node", "id": 12981629771, "lat": 13.0023468, "lon": 77.488142, "tags": {"highway": "bus_stop", "name": "Acharya College", "name:en": "Acharya College", "network": "BMTC", "operator": "BMTC", "public_transport": "platform"}}, {"type": "node", "id": 12981629772, "lat": 12.9994304, "lon": 77.4887857, "tags": {"bus": "yes", "name": "Arch Lingadeeranahalli", "name:en": "Arch Lingadeeranahalli", "network": "BMTC", "operator": "BMTC", "public_transport": "stop_position"}}, {"type": "node", "id": 12981629773, "lat": 12.9994091, "lon": 77.4887163, "tags": {"highway": "bus_stop", "name": "Arch Lingadeeranahalli", "name:en": "Arch Lingadeeranahalli", "network": "BMTC", "operator": "BMTC", "public_transport": "platform"}}, {"type": "node", "id": 12981629774, "lat": 12.9978986, "lon": 77.4895384, "tags": {"bus": "yes", "name": "Syndicate Bank Colony", "name:en": "Syndicate Bank Colony", "network": "BMTC", "operator": "BMTC", "public_transport": "stop_position"}}, {"type": "node", "id": 12981629775, "lat": 12.9933154, "lon": 77.4885736, "tags": {"bus": "yes", "name": "Venkateshwara Layout", "name:en": "Venkateshwara Layout", "network": "BMTC", "operator": "BMTC", "public_transport": "stop_position"}}, {"type": "node", "id": 12981629776, "lat": 12.9904879, "lon": 77.4874377, "tags": {"bus": "yes", "name": "Herohalli", "name:en": "Herohalli", "network": "BMTC", "operator": "BMTC", "public_transport": "stop_position"}}, {"type": "node", "id": 12981629777, "lat": 12.9904626, "lon": 77.4874399, "tags": {"bus": "yes", "highway": "bus_stop", "name": "Herohalli", "name:en": "Herohalli", "name:kn": "\u0cb9\u0cc7\u0cb0\u0ccb\u0cb9\u0cb3\u0ccd\u0cb3\u0cbf", "network": "BMTC", "operator": "BMTC", "public_transport": "platform"}}, {"type": "node", "id": 12981630860, "lat": 12.9746193, "lon": 77.4878536, "tags": {"bus": "yes", "name": "Gidadakonenahalli Cross", "name:en": "Gidadakonenahalli Cross", "network": "BMTC", "operator": "BMTC", "public_transport": "stop_position"}}, {"type": "node", "id": 12981630861, "lat": 12.9746219, "lon": 77.4877942, "tags": {"highway": "bus_stop", "name": "Gidadakonenahalli Cross", "name:en": "Gidadakonenahalli Cross", "network": "BMTC", "operator": "BMTC", "public_transport": "platform"}}, {"type": "node", "id": 12981630862, "lat": 12.9712807, "lon": 77.4882809, "tags": {"bus": "yes", "name": "Muddinapalya Junction", "name:en": "Muddinapalya Junction", "network": "BMTC", "operator": "BMTC", "public_transport": "stop_position"}}, {"type": "node", "id": 12981630863, "lat": 12.9712095, "lon": 77.4882468, "tags": {"highway": "bus_stop", "name": "Muddinapalya Junction", "name:en": "Muddinapalya Junction", "network": "BMTC", "operator": "BMTC", "public_transport": "platform"}}, {"type": "node", "id": 12981630864, "lat": 12.9700417, "lon": 77.4963568, "tags": {"bus": "yes", "name": "Annapoorneshwari Nagara Cross", "name:en": "Annapoorneshwari Nagara Cross", "network": "BMTC", "operator": "BMTC", "public_transport": "stop_position"}}, {"type": "node", "id": 12981630865, "lat": 12.9699736, "lon": 77.4963448, "tags": {"highway": "bus_stop", "name": "Annapoorneshwari Nagara Cross", "name:en": "Annapoorneshwari Nagara Cross", "network": "BMTC", "operator": "BMTC", "public_transport": "platform"}}, {"type": "node", "id": 12981630874, "lat": 12.9691547, "lon": 77.4993993, "tags": {"bus": "yes", "name": "Nagarbhavi Vishweshwariah Sports Club", "name:en": "Nagarbhavi Vishweshwariah Sports Club", "network": "BMTC", "operator": "BMTC", "public_transport": "stop_position"}}, {"type": "node", "id": 12981630875, "lat": 12.9690723, "lon": 77.4993612, "tags": {"highway": "bus_stop", "name": "Nagarbhavi Vishweshwariah Sports Club", "name:en": "Nagarbhavi Vishweshwariah Sports Club", "network": "BMTC", "operator": "BMTC", "public_transport": "platform"}}, {"type": "node", "id": 12981630902, "lat": 12.967811, "lon": 77.5023804, "tags": {"bus": "yes", "name": "ITI Layout", "name:en": "ITI Layout", "network": "BMTC", "operator": "BMTC", "public_transport": "stop_position"}}, {"type": "node", "id": 12981630903, "lat": 12.9677746, "lon": 77.5023634, "tags": {"highway": "bus_stop", "name": "ITI Layout", "name:en": "ITI Layout", "network": "BMTC", "operator": "BMTC", "public_transport": "platform"}}, {"type": "node", "id": 12981630912, "lat": 12.9665838, "lon": 77.5048976, "tags": {"bus": "yes", "name": "Deepa Complex", "name:en": "Deepa Complex", "network": "BMTC", "operator": "BMTC", "public_transport": "stop_position"}}, {"type": "node", "id": 12981630913, "lat": 12.9629652, "lon": 77.504949, "tags": {"bus": "yes", "name": "Ambedkar Institute of Technology", "name:en": "Ambedkar Institute of Technology", "network": "BMTC", "operator": "BMTC", "public_transport": "stop_position"}}, {"type": "node", "id": 12981630914, "lat": 12.9629717, "lon": 77.5049162, "tags": {"bus": "yes", "highway": "bus_stop", "name": "Ambedkar Institute of Technology", "name:en": "Ambedkar Institute of Technology", "network": "BMTC", "operator": "BMTC", "public_transport": "platform"}}, {"type": "node", "id": 12981630915, "lat": 12.9607467, "lon": 77.5043766, "tags": {"bus": "yes", "name": "Kengunte Circle", "name:en": "Kengunte Circle", "network": "BMTC", "operator": "BMTC", "public_transport": "stop_position"}}, {"type": "node", "id": 12981630916, "lat": 12.9607599, "lon": 77.5043313, "tags": {"bus": "yes", "highway": "bus_stop", "loc_name": "MALLATHAHALLI", "name": "Kengunte Circle", "name:en": "Kengunte Circle", "name:kn": "\u0c95\u0cc6\u0c82\u0c97\u0cc1\u0c9f\u0cc6", "network": "BMTC", "operator": "BMTC", "public_transport": "platform"}}, {"type": "node", "id": 12981630917, "lat": 12.9574651, "lon": 77.5030999, "tags": {"bus": "yes", "name": "Mallathalli Cross", "name:en": "Mallathalli Cross", "network": "BMTC", "operator": "BMTC", "public_transport": "stop_position"}}, {"type": "node", "id": 12981630918, "lat": 12.9574836, "lon": 77.5030522, "tags": {"bus": "yes", "highway": "bus_stop", "name": "Mallathalli Cross", "name:en": "Mallathalli Cross", "name:kn": "\u0cae\u0cb2\u0ccd\u0cb2\u0ca4\u0ccd\u0ca4\u0cb9\u0cb3\u0ccd\u0cb3\u0cbf", "network": "BMTC", "operator": "BMTC", "public_transport": "platform"}}, {"type": "node", "id": 12989273924, "lat": 12.9607653, "lon": 77.4831112, "tags": {"bus": "yes", "name": "Upkar Residency Layout", "name:en": "Upkar Residency Layout", "network": "BMTC", "operator": "BMTC", "public_transport": "stop_position"}}, {"type": "node", "id": 12989273925, "lat": 12.9663379, "lon": 77.4878099, "tags": {"bus": "yes", "name": "Muddinapalya", "name:en": "Muddinapalya", "network": "BMTC", "operator": "BMTC", "public_transport": "stop_position"}}, {"type": "node", "id": 12989273926, "lat": 12.9603128, "lon": 77.5049905, "tags": {"bus": "yes", "name": "Kengunte Circle", "name:en": "Kengunte Circle", "network": "BMTC", "operator": "BMTC", "public_transport": "stop_position"}}, {"type": "node", "id": 12989273927, "lat": 12.9602851, "lon": 77.5049897, "tags": {"highway": "bus_stop", "name": "Kengunte Circle", "name:en": "Kengunte Circle", "network": "BMTC", "operator": "BMTC", "public_transport": "platform"}}, {"type": "node", "id": 13020365381, "lat": 12.9571824, "lon": 77.4498678, "tags": {"bus": "yes", "name": "Kenchanapura", "name:en": "Kenchanapura", "network": "BMTC", "operator": "BMTC", "public_transport": "stop_position"}}, {"type": "node", "id": 13020365382, "lat": 12.9630785, "lon": 77.4538247, "tags": {"bus": "yes", "name": "Hosahalli", "name:en": "Hosahalli", "network": "BMTC", "operator": "BMTC", "public_transport": "stop_position"}}, {"type": "node", "id": 13020365383, "lat": 12.9721073, "lon": 77.4604407, "tags": {"bus": "yes", "name": "Dombarahatti Dongadipura Cross", "name:en": "Dombarahatti Dongadipura Cross", "network": "BMTC", "operator": "BMTC", "public_transport": "stop_position"}}, {"type": "node", "id": 13020365384, "lat": 12.9721009, "lon": 77.4604784, "tags": {"highway": "bus_stop", "name": "Dombarahatti Dongadipura Cross", "name:en": "Dombarahatti Dongadipura Cross", "network": "BMTC", "operator": "BMTC", "public_transport": "platform"}}, {"type": "node", "id": 13020365385, "lat": 12.977282, "lon": 77.4652186, "tags": {"bus": "yes", "name": "Yale Kodigehalli", "name:en": "Yale Kodigehalli", "network": "BMTC", "operator": "BMTC", "public_transport": "stop_position"}}, {"type": "node", "id": 13020365386, "lat": 12.9827664, "lon": 77.4683644, "tags": {"bus": "yes", "name": "Yale Kodigehalli Colony", "name:en": "Yale Kodigehalli Colony", "network": "BMTC", "operator": "BMTC", "public_transport": "stop_position"}}, {"type": "node", "id": 13020365387, "lat": 12.98274, "lon": 77.468411, "tags": {"bus": "yes", "highway": "bus_stop", "loc_name": "KODIGEHALLI", "name": "Yale Kodigehalli Colony", "name:en": "Yale Kodigehalli Colony", "network": "BMTC", "operator": "BMTC", "public_transport": "platform"}}, {"type": "node", "id": 13020365388, "lat": 12.9886038, "lon": 77.4726045, "tags": {"bus": "yes", "name": "Gollarahatti", "name:en": "Gollarahatti", "network": "BMTC", "operator": "BMTC", "public_transport": "stop_position"}}, {"type": "node", "id": 13020365389, "lat": 12.9885723, "lon": 77.4725886, "tags": {"highway": "bus_stop", "name": "Gollarahatti", "name:en": "Gollarahatti", "network": "BMTC", "operator": "BMTC", "public_transport": "platform"}}, {"type": "node", "id": 13020365390, "lat": 12.9855381, "lon": 77.4795802, "tags": {"bus": "yes", "name": "College Cross Byadarahalli", "name:en": "College Cross Byadarahalli", "network": "BMTC", "operator": "BMTC", "public_transport": "stop_position"}}, {"type": "node", "id": 13020365391, "lat": 12.9855091, "lon": 77.4795744, "tags": {"highway": "bus_stop", "name": "College Cross Byadarahalli", "name:en": "College Cross Byadarahalli", "network": "BMTC", "operator": "BMTC", "public_transport": "platform"}}, {"type": "node", "id": 13020365392, "lat": 12.9850888, "lon": 77.4818856, "tags": {"bus": "yes", "name": "Byadarahalli", "name:en": "Byadarahalli", "name:kn": "\u0cac\u0ccd\u0caf\u0cbe\u0ca1\u0cb0\u0cb9\u0cb3\u0ccd\u0cb3\u0cbf", "network": "BMTC", "operator": "BMTC", "public_transport": "stop_position"}}, {"type": "node", "id": 13020365393, "lat": 12.9850165, "lon": 77.481873, "tags": {"highway": "bus_stop", "name": "Byadarahalli", "name:en": "Byadarahalli", "network": "BMTC", "operator": "BMTC", "public_transport": "platform"}}, {"type": "node", "id": 13020365394, "lat": 12.9855483, "lon": 77.4863859, "tags": {"highway": "bus_stop", "name": "East West College Cross", "name:en": "East West College Cross", "network": "BMTC", "operator": "BMTC", "public_transport": "platform"}}, {"type": "node", "id": 13020365395, "lat": 12.9861319, "lon": 77.488444, "tags": {"bus": "yes", "name": "Anjananagara", "name:en": "Anjananagara", "network": "BMTC", "operator": "BMTC", "public_transport": "stop_position"}}, {"type": "node", "id": 13020365396, "lat": 12.9860998, "lon": 77.4884525, "tags": {"highway": "bus_stop", "name": "Anjananagara", "name:en": "Anjananagara", "network": "BMTC", "operator": "BMTC", "public_transport": "platform"}}, {"type": "node", "id": 13020365397, "lat": 12.9875144, "lon": 77.4932408, "tags": {"bus": "yes", "name": "Herohalli Cross", "name:en": "Herohalli Cross", "network": "BMTC", "operator": "BMTC", "public_transport": "stop_position"}}, {"type": "node", "id": 13020365398, "lat": 12.987472, "lon": 77.4932536, "tags": {"bus": "yes", "highway": "bus_stop", "loc_name": "Magadi Road", "name": "Herohalli Cross", "name:en": "Herohalli Cross", "name:kn": "\u0cb9\u0cc7\u0cb0\u0ccb\u0cb9\u0cb3\u0ccd\u0cb3\u0cbf \u0c85\u0ca1\u0ccd\u0ca1\u0cb0\u0cb8\u0ccd\u0ca4\u0cc6", "network": "BMTC", "operator": "BMTC", "public_transport": "platform"}}, {"type": "node", "id": 13020365399, "lat": 12.9888334, "lon": 77.4991627, "tags": {"bus": "yes", "name": "Janapriya Apartment", "name:en": "Janapriya Apartment", "network": "BMTC", "operator": "BMTC", "public_transport": "stop_position"}}, {"type": "node", "id": 13020365400, "lat": 12.9887853, "lon": 77.4991626, "tags": {"highway": "bus_stop", "name": "Janapriya Apartment", "name:en": "Janapriya Apartment", "network": "BMTC", "operator": "BMTC", "public_transport": "platform"}}, {"type": "node", "id": 13020406481, "lat": 12.9933349, "lon": 77.4995245, "tags": {"bus": "yes", "name": "Vigneshwara Nagara", "name:en": "Vigneshwara Nagara", "network": "BMTC", "operator": "BMTC", "public_transport": "stop_position"}}, {"type": "node", "id": 13020406482, "lat": 12.9958696, "lon": 77.5025178, "tags": {"bus": "yes", "name": "Neelagiri Thopu", "name:en": "Neelagiri Thopu", "network": "BMTC", "operator": "BMTC", "public_transport": "stop_position"}}, {"type": "node", "id": 13020406483, "lat": 12.9997528, "lon": 77.5041228, "tags": {"bus": "yes", "name": "Hegganahalli Cross", "name:en": "Hegganahalli Cross", "network": "BMTC", "operator": "BMTC", "public_transport": "stop_position"}}, {"type": "node", "id": 13020406485, "lat": 13.0038168, "lon": 77.5047469, "tags": {"highway": "bus_stop", "loc_name": "HEGGANA HALLI", "name": "Hegganahalli", "name:en": "Hegganahalli", "name:kn": "\u0cb9\u0cc6\u0c97\u0ccd\u0c97\u0ca8\u0cb9\u0cb3\u0ccd\u0cb3\u0cbf", "network": "BMTC", "operator": "BMTC", "public_transport": "platform"}}, {"type": "node", "id": 13020406486, "lat": 13.007577, "lon": 77.5055865, "tags": {"bus": "yes", "name": "Milk Dairy Hegganahalli", "name:en": "Milk Dairy Hegganahalli", "network": "BMTC", "operator": "BMTC", "public_transport": "stop_position"}}, {"type": "node", "id": 13020406487, "lat": 13.0075671, "lon": 77.5056374, "tags": {"highway": "bus_stop", "name": "Milk Dairy Hegganahalli", "name:en": "Milk Dairy Hegganahalli", "network": "BMTC", "operator": "BMTC", "public_transport": "platform"}}, {"type": "node", "id": 13020406489, "lat": 13.0164496, "lon": 77.50572, "tags": {"bus": "yes", "name": "Peenya 14th Cross", "name:en": "Peenya 14th Cross", "network": "BMTC", "operator": "BMTC", "public_transport": "stop_position"}}, {"type": "node", "id": 13131270670, "lat": 12.968023, "lon": 77.4806916}, {"type": "node", "id": 13131270671, "lat": 12.9679863, "lon": 77.4806862}, {"type": "node", "id": 13131270672, "lat": 12.967975, "lon": 77.4807674}, {"type": "node", "id": 13131270673, "lat": 12.9680117, "lon": 77.4807728}, {"type": "way", "id": 1357778840, "nodes": [12565464843, 12565464877], "tags": {"name": "Hosahalli-Kadabagere Line", "network": "Namma Metro", "railway": "proposed", "wikipedia": "en:Orange Line (Namma Metro)"}}, {"type": "way", "id": 1357778841, "nodes": [12565464859, 12565464857, 12565464856, 12565464855, 12565464854, 12565464853, 12565464852, 12565464851, 12565464850, 12565464858, 12565464849, 12565464848, 12565464847, 12565464846, 12565464845, 12565464844, 12565464877], "tags": {"name": "Hosahalli-Kadabagere Line", "network": "Namma Metro", "railway": "proposed", "wikipedia": "en:Orange Line (Namma Metro)"}}, {"type": "way", "id": 1357778842, "nodes": [12565464879, 12565464876, 12565464875, 12565464874, 12565464873, 12565464872, 12565464871, 12565464870, 12565464869, 12565464878, 12565464868, 12565464867, 12565464866, 12565464865, 12565464864, 12565464863, 12565464862, 12565464861, 12565464860, 12565464877], "tags": {"name": "Hosahalli-Kadabagere Line", "network": "Namma Metro", "railway": "proposed", "wikipedia": "en:Orange Line (Namma Metro)"}}, {"type": "way", "id": 1357778844, "nodes": [10121145792, 12565499158, 12565499159, 12565499160, 12565499161, 12565499162, 12565499167, 12565499163, 12565499164, 12565499165, 12565499166, 12565499168, 12565499155, 12565499157, 12565499156, 12565499154, 12565499151, 12565499150, 12565499149, 12565499148, 12565499153, 12565499147, 12565499146, 12565499145, 12565499144, 12565499152, 12565499143, 12565499142, 12565499141, 12565499140, 12565499139, 12565499138, 12565499137, 12565499136, 12565499133, 12565499132, 12565499131, 12565499135, 12565499130, 12565499129, 12565499134, 12565499128, 12565499127, 12565499126, 12565499125, 12565499124, 12565464859, 12565499123, 12565499122, 12565499121, 12565499120, 12565464879, 12565499119, 12565499118, 12565499117, 12565499116, 12565499115, 12565499114, 12565499113, 12565499112, 12565499111, 12565499110, 12565499109, 12565499108, 12565499107, 12565499106, 12565499105, 12565499104, 12565499103, 12565499102, 12565499101, 12565464900, 12565464899, 12565464898, 12565464897, 12565464896, 12565464895, 12565464894, 12565464893, 12565464892, 12565464891, 12565464890, 12565464889, 12565464888, 12565464887], "tags": {"name": "Hosahalli-Kadabagere Line", "network": "Namma Metro", "railway": "proposed", "wikipedia": "en:Orange Line (Namma Metro)"}}, {"type": "way", "id": 1357778846, "nodes": [10121145979, 10121145978, 12229871102, 10121145977, 12151572111, 10121145976, 10121145975, 10121145974, 10121145973, 10121145972, 10121145971, 10121145970, 10121145969, 10121145968, 10121145967, 10121145966, 10121145965, 10121145964, 10121145963, 10121145962, 10121145961, 10121145960, 10121145959, 10121145958, 10121145957, 10121145956, 10121145955, 10121145954, 10121145953, 10121145952, 10121145951, 10121145950, 10121145949, 10121145948, 10121145947, 10121145946, 10121145945, 10121145944, 10121145943, 10121145942, 10121145941, 10121145940, 10121145939, 10121145938, 10121145937, 10121145936, 10121145935, 10121145934, 10121145933, 10121145932, 10121145931, 10121145930, 10121145929, 10121145928, 10121145927, 10121145926, 10121145925, 10121145924, 10121145923, 10121145922, 10121145921, 10121145920, 10121145919, 10121145918, 12590389435, 10121145917, 10121145916, 10121145915, 10121145914, 10121145913, 10121145912, 10121145911, 10121145910, 10121145909, 10121145908, 10121145907, 10121145906, 10121145905, 10121145904, 10121145903, 10121145902, 10121145901, 10121145900, 10121145899, 10121145898, 11067514222, 10121145897, 11067514220, 11067514218, 10121145896, 11067481181, 10121145895, 11067481180, 11067481178, 11067481177, 10121145894, 11067481175, 11067481174, 10121145893, 11067481172, 10121145892, 11067481169, 10121145891, 10121145890, 11067481166, 10121145889, 10121145888, 10121145887, 11067497879, 11067497878, 11067497877, 10121145886, 11067497876, 10121145885, 11067497875, 10121145884, 10121145883, 10121145882, 11067497874, 10121145881, 10121145880, 10121145879, 10121145878, 10121145877, 10121145875, 10121145874, 10121145873, 10121145872, 10121145871, 10121145870, 10121145869, 10121145868, 10121145867, 10121145866, 10121145865, 10121145863, 10121145862, 12565499451, 10121145876, 10121145864, 10121145861, 10121145860, 10121145859, 10121145858, 10121145857, 10121145856, 10121145855, 10121145854, 10121145853, 10121145852, 10121145851, 10121145850, 10121145849, 10121145848, 10121145847, 10121145846, 10121145845, 10121145844, 10121145843, 10121145842, 10121145841, 10121145840, 10121145839, 10121145838, 10121145837, 10121145836, 10121145835, 10121145834, 10121145833, 10121145832, 10121145831, 10121145830, 10121145829, 10121145828, 10121145827, 10121145826, 10121145825, 10121145824, 10121145823, 10121145822, 10121145821, 10121145820, 10121145819, 10121145818, 10121145817, 10121145816, 10121145815, 10121145814, 11886114694, 12134994076, 10121145813, 12134994075, 12134994074, 12134994073, 10121145794, 10121145793, 10121145792], "tags": {"colour": "orange", "name": "ORR-West Line (Orange Line)", "network": "Namma Metro", "note": "Proposed double-decker flyover", "railway": "proposed", "wikipedia": "en:Orange Line (Namma Metro)"}}, {"type": "way", "id": 1428321423, "nodes": [13131270670, 13131270671, 13131270672, 13131270673, 13131270670], "tags": {"amenity": "bus_station", "bus": "yes", "public_transport": "station"}}, {"type": "relation", "id": 17172865, "members": [{"type": "node", "ref": 11598060951, "role": "stop"}, {"type": "node", "ref": 2430077524, "role": "platform"}], "tags": {"alt_name": "Acharya College Vidhyamanyanagar", "name": "Vidyamanyanagar", "name:en": "Vidyamanyanagar", "name:kn": "\u0cb5\u0cbf\u0ca6\u0ccd\u0caf\u0cae\u0cbe\u0ca8\u0ccd\u0caf \u0ca8\u0c97\u0cb0", "network": "BMTC", "operator": "BMTC", "public_transport": "stop_area", "type": "public_transport"}}, {"type": "relation", "id": 17172866, "members": [{"type": "node", "ref": 11598060952, "role": "stop"}, {"type": "node", "ref": 2430065563, "role": "platform"}], "tags": {"alt_name": "Acharya College Vidhyamanyanagar", "name": "Vidyamanyanagar", "name:en": "Vidyamanyanagar", "name:kn": "\u0cb5\u0cbf\u0ca6\u0ccd\u0caf\u0cae\u0cbe\u0ca8\u0ccd\u0caf \u0ca8\u0c97\u0cb0", "network": "BMTC", "operator": "BMTC", "public_transport": "stop_area", "type": "public_transport"}}, {"type": "relation", "id": 17172877, "members": [{"type": "node", "ref": 11598159740, "role": "stop"}, {"type": "node", "ref": 11598159741, "role": "platform"}], "tags": {"name": "Andrahalli", "name:en": "Andrahalli", "name:kn": "\u0c85\u0c82\u0ca6\u0ccd\u0cb0\u0cb9\u0cb3\u0ccd\u0cb3\u0cbf", "network": "BMTC", "operator": "BMTC", "public_transport": "stop_area", "type": "public_transport"}}, {"type": "relation", "id": 17188369, "members": [{"type": "node", "ref": 11608103348, "role": "stop"}, {"type": "node", "ref": 66626034, "role": "platform"}], "tags": {"name": "Mallathalli Cross", "name:en": "Mallathalli Cross", "name:kn": "\u0cae\u0cb2\u0ccd\u0cb2\u0ca4\u0ccd\u0ca4\u0cb9\u0cb3\u0ccd\u0cb3\u0cbf \u0c95\u0ccd\u0cb0\u0cbe\u0cb8\u0ccd", "network": "BMTC", "operator": "BMTC", "public_transport": "stop_area", "type": "public_transport"}}, {"type": "relation", "id": 17188370, "members": [{"type": "node", "ref": 11608103349, "role": "stop"}, {"type": "node", "ref": 2418893735, "role": "platform"}], "tags": {"name": "Kengunte Circle", "name:en": "Kengunte Circle", "name:kn": "\u0c95\u0cc6\u0c82\u0c97\u0cc1\u0c9f\u0cc6", "network": "BMTC", "operator": "BMTC", "public_transport": "stop_area", "type": "public_transport"}}, {"type": "relation", "id": 17188371, "members": [{"type": "node", "ref": 1615691775, "role": "stop"}, {"type": "node", "ref": 6210612235, "role": "platform"}], "tags": {"name": "Ambedkar Institute of Technology", "name:en": "Ambedkar Institute of Technology", "network": "BMTC", "operator": "BMTC", "public_transport": "stop_area", "type": "public_transport"}}, {"type": "relation", "id": 17188372, "members": [{"type": "node", "ref": 11608103351, "role": "stop"}, {"type": "node", "ref": 2418895128, "role": "platform"}], "tags": {"name": "Deepa Complex", "name:en": "Deepa Complex", "network": "BMTC", "operator": "BMTC", "public_transport": "stop_area", "type": "public_transport"}}, {"type": "relation", "id": 18481477, "members": [{"type": "node", "ref": 12462603232, "role": "stop"}, {"type": "node", "ref": 1719257111, "role": "platform"}], "tags": {"name": "Kadabagere Cross", "name:en": "Kadabagere Cross", "network": "BMTC", "operator": "BMTC", "public_transport": "stop_area", "type": "public_transport"}}, {"type": "relation", "id": 18481478, "members": [{"type": "node", "ref": 12462603233, "role": "stop"}, {"type": "node", "ref": 1719258882, "role": "platform"}], "tags": {"name": "Mutturayaswamy Temple", "name:en": "Mutturayaswamy Temple", "network": "BMTC", "operator": "BMTC", "public_transport": "stop_area", "type": "public_transport"}}, {"type": "relation", "id": 18481479, "members": [{"type": "node", "ref": 12462603234, "role": "stop"}, {"type": "node", "ref": 1719258903, "role": "platform"}], "tags": {"name": "Janapriya Township", "name:en": "Janapriya Township", "network": "BMTC", "operator": "BMTC", "public_transport": "stop_area", "type": "public_transport"}}, {"type": "relation", "id": 18481480, "members": [{"type": "node", "ref": 12462603235, "role": "stop"}, {"type": "node", "ref": 1719258884, "role": "platform"}], "tags": {"name": "Bayyandahalli Colony", "name:en": "Bayyandahalli Colony", "network": "BMTC", "operator": "BMTC", "public_transport": "stop_area", "type": "public_transport"}}, {"type": "relation", "id": 18481481, "members": [{"type": "node", "ref": 12462603236, "role": "stop"}, {"type": "node", "ref": 2430630184, "role": "platform"}], "tags": {"name": "Bayyandahalli", "name:en": "Bayyandahalli", "network": "BMTC", "operator": "BMTC", "public_transport": "stop_area", "type": "public_transport"}}, {"type": "relation", "id": 18481482, "members": [{"type": "node", "ref": 12462603237, "role": "stop"}, {"type": "node", "ref": 2430838346, "role": "platform"}], "tags": {"name": "Bettahalli Cross", "name:en": "Bettahalli Cross", "network": "BMTC", "operator": "BMTC", "public_transport": "stop_area", "type": "public_transport"}}, {"type": "relation", "id": 18481483, "members": [{"type": "node", "ref": 12462603238, "role": "stop"}, {"type": "node", "ref": 2430834618, "role": "platform"}], "tags": {"name": "Vaddarahalli Cross", "name:en": "Vaddarahalli Cross", "network": "BMTC", "operator": "BMTC", "public_transport": "stop_area", "type": "public_transport"}}, {"type": "relation", "id": 18481484, "members": [{"type": "node", "ref": 12462603239, "role": "stop"}, {"type": "node", "ref": 2430832253, "role": "platform"}], "tags": {"name": "Vaddarahalli BMTC Training Centre", "name:en": "Vaddarahalli BMTC Training Centre", "network": "BMTC", "operator": "BMTC", "public_transport": "stop_area", "type": "public_transport"}}, {"type": "relation", "id": 18481485, "members": [{"type": "node", "ref": 12462603241, "role": "stop"}, {"type": "node", "ref": 2446892712, "role": "platform"}], "tags": {"name": "Ganesh Circle Vaddarahalli", "name:en": "Ganesh Circle Vaddarahalli", "network": "BMTC", "operator": "BMTC", "public_transport": "stop_area", "type": "public_transport"}}, {"type": "relation", "id": 18481486, "members": [{"type": "node", "ref": 12462603242, "role": "stop"}, {"type": "node", "ref": 2431169974, "role": "platform"}], "tags": {"name": "KG Lakkenahalli Cross", "name:en": "KG Lakkenahalli Cross", "network": "BMTC", "operator": "BMTC", "public_transport": "stop_area", "type": "public_transport"}}, {"type": "relation", "id": 18481487, "members": [{"type": "node", "ref": 1589314867, "role": "stop"}, {"type": "node", "ref": 1589314307, "role": "platform"}], "tags": {"name": "Gangondanahalli Cross", "name:en": "Gangondanahalli Cross", "network": "BMTC", "operator": "BMTC", "public_transport": "stop_area", "type": "public_transport"}}, {"type": "relation", "id": 18481488, "members": [{"type": "node", "ref": 12462603243, "role": "stop"}, {"type": "node", "ref": 1589314795, "role": "platform"}], "tags": {"name": "Lakshmipura", "name:en": "Lakshmipura", "network": "BMTC", "operator": "BMTC", "public_transport": "stop_area", "type": "public_transport"}}, {"type": "relation", "id": 18481524, "members": [{"type": "node", "ref": 12462646832, "role": "stop"}, {"type": "node", "ref": 2430642509, "role": "platform"}], "tags": {"name": "Kittanahalli", "name:en": "Kittanahalli", "network": "BMTC", "operator": "BMTC", "public_transport": "stop_area", "type": "public_transport"}}, {"type": "relation", "id": 18481525, "members": [{"type": "node", "ref": 12462646833, "role": "stop"}, {"type": "node", "ref": 2430642458, "role": "platform"}], "tags": {"name": "Bettahalli Cross", "name:en": "Bettahalli Cross", "network": "BMTC", "operator": "BMTC", "public_transport": "stop_area", "type": "public_transport"}}, {"type": "relation", "id": 18589486, "members": [{"type": "node", "ref": 12523178676, "role": "stop"}, {"type": "node", "ref": 12523178677, "role": "platform"}], "tags": {"name": "Sunkadakatte", "name:en": "Sunkadakatte", "network": "BMTC", "operator": "BMTC", "public_transport": "stop_area", "type": "public_transport"}}, {"type": "relation", "id": 18589487, "members": [{"type": "node", "ref": 12523178678, "role": "stop"}, {"type": "node", "ref": 2425476358, "role": "platform"}], "tags": {"name": "Herohalli Cross", "name:en": "Herohalli Cross", "network": "BMTC", "operator": "BMTC", "public_transport": "stop_area", "type": "public_transport"}}, {"type": "relation", "id": 18589488, "members": [{"type": "node", "ref": 12523178679, "role": "stop"}, {"type": "node", "ref": 2430176320, "role": "platform"}], "tags": {"name": "Lingadeeranahalli", "name:en": "Lingadeeranahalli", "network": "BMTC", "operator": "BMTC", "public_transport": "stop_area", "type": "public_transport"}}, {"type": "relation", "id": 19325835, "members": [{"type": "node", "ref": 12981611946, "role": "stop"}, {"type": "node", "ref": 12981611947, "role": "platform"}], "tags": {"name": "Herohalli Cross", "name:en": "Herohalli Cross", "network": "BMTC", "operator": "BMTC", "public_transport": "stop_area", "type": "public_transport"}}, {"type": "relation", "id": 19325836, "members": [{"type": "node", "ref": 12981611994, "role": "stop"}, {"type": "node", "ref": 12981611995, "role": "platform"}], "tags": {"name": "Bharath Nagara 1st Phase", "name:en": "Bharath Nagara 1st Phase", "network": "BMTC", "operator": "BMTC", "public_transport": "stop_area", "type": "public_transport"}}, {"type": "relation", "id": 19325837, "members": [{"type": "node", "ref": 12981630860, "role": "stop"}, {"type": "node", "ref": 12981630861, "role": "platform"}], "tags": {"name": "Gidadakonenahalli Cross", "name:en": "Gidadakonenahalli Cross", "network": "BMTC", "operator": "BMTC", "public_transport": "stop_area", "type": "public_transport"}}, {"type": "relation", "id": 19325838, "members": [{"type": "node", "ref": 12981630862, "role": "stop"}, {"type": "node", "ref": 12981630863, "role": "platform"}], "tags": {"name": "Muddinapalya Junction", "name:en": "Muddinapalya Junction", "network": "BMTC", "operator": "BMTC", "public_transport": "stop_area", "type": "public_transport"}}, {"type": "relation", "id": 19325839, "members": [{"type": "node", "ref": 12981630864, "role": "stop"}, {"type": "node", "ref": 12981630865, "role": "platform"}], "tags": {"name": "Annapoorneshwari Nagara Cross", "name:en": "Annapoorneshwari Nagara Cross", "network": "BMTC", "operator": "BMTC", "public_transport": "stop_area", "type": "public_transport"}}, {"type": "relation", "id": 19325840, "members": [{"type": "node", "ref": 12981630874, "role": "stop"}, {"type": "node", "ref": 12981630875, "role": "platform"}], "tags": {"name": "Nagarbhavi Vishweshwariah Sports Club", "name:en": "Nagarbhavi Vishweshwariah Sports Club", "network": "BMTC", "operator": "BMTC", "public_transport": "stop_area", "type": "public_transport"}}, {"type": "relation", "id": 19325841, "members": [{"type": "node", "ref": 12981630902, "role": "stop"}, {"type": "node", "ref": 12981630903, "role": "platform"}], "tags": {"name": "ITI Layout", "name:en": "ITI Layout", "network": "BMTC", "operator": "BMTC", "public_transport": "stop_area", "type": "public_transport"}}, {"type": "relation", "id": 19325842, "members": [{"type": "node", "ref": 12981630912, "role": "stop"}, {"type": "node", "ref": 9213291196, "role": "platform"}], "tags": {"name": "Deepa Complex", "name:en": "Deepa Complex", "network": "BMTC", "operator": "BMTC", "public_transport": "stop_area", "type": "public_transport"}}, {"type": "relation", "id": 19325843, "members": [{"type": "node", "ref": 12981630913, "role": "stop"}, {"type": "node", "ref": 12981630914, "role": "platform"}], "tags": {"name": "Ambedkar Institute of Technology", "name:en": "Ambedkar Institute of Technology", "network": "BMTC", "operator": "BMTC", "public_transport": "stop_area", "type": "public_transport"}}, {"type": "relation", "id": 19325844, "members": [{"type": "node", "ref": 12981630915, "role": "stop"}, {"type": "node", "ref": 12981630916, "role": "platform"}], "tags": {"name": "Kengunte Circle", "name:en": "Kengunte Circle", "network": "BMTC", "operator": "BMTC", "public_transport": "stop_area", "type": "public_transport"}}, {"type": "relation", "id": 19325845, "members": [{"type": "node", "ref": 12981630917, "role": "stop"}, {"type": "node", "ref": 12981630918, "role": "platform"}], "tags": {"name": "Mallathalli Cross", "name:en": "Mallathalli Cross", "network": "BMTC", "operator": "BMTC", "public_transport": "stop_area", "type": "public_transport"}}, {"type": "relation", "id": 19325863, "members": [{"type": "node", "ref": 12981629723, "role": "stop"}, {"type": "node", "ref": 2431146027, "role": "platform"}], "tags": {"name": "Rukmini Nagara", "name:en": "Rukmini Nagara", "network": "BMTC", "operator": "BMTC", "public_transport": "stop_area", "type": "public_transport"}}, {"type": "relation", "id": 19325864, "members": [{"type": "node", "ref": 12981629724, "role": "stop"}, {"type": "node", "ref": 2431146694, "role": "platform"}], "tags": {"name": "HMT Layout", "name:en": "HMT Layout", "network": "BMTC", "operator": "BMTC", "public_transport": "stop_area", "type": "public_transport"}}, {"type": "relation", "id": 19325865, "members": [{"type": "node", "ref": 12981629725, "role": "stop"}, {"type": "node", "ref": 2431147069, "role": "platform"}], "tags": {"name": "Nelagedaranahalli", "name:en": "Nelagedaranahalli", "network": "BMTC", "operator": "BMTC", "public_transport": "stop_area", "type": "public_transport"}}, {"type": "relation", "id": 19325866, "members": [{"type": "node", "ref": 12981629726, "role": "stop"}, {"type": "node", "ref": 2431157768, "role": "platform"}], "tags": {"name": "Gruhalaxmi Layout", "name:en": "Gruhalaxmi Layout", "network": "BMTC", "operator": "BMTC", "public_transport": "stop_area", "type": "public_transport"}}, {"type": "relation", "id": 19325867, "members": [{"type": "node", "ref": 12981629727, "role": "stop"}, {"type": "node", "ref": 12981629728, "role": "platform"}], "tags": {"name": "Ganga International School", "name:en": "Ganga International School", "network": "BMTC", "operator": "BMTC", "public_transport": "stop_area", "type": "public_transport"}}, {"type": "relation", "id": 19325868, "members": [{"type": "node", "ref": 12981629729, "role": "stop"}, {"type": "node", "ref": 2431163764, "role": "platform"}], "tags": {"name": "Indiranagara", "name:en": "Indiranagara", "network": "BMTC", "operator": "BMTC", "public_transport": "stop_area", "type": "public_transport"}}, {"type": "relation", "id": 19325869, "members": [{"type": "node", "ref": 12981629730, "role": "stop"}, {"type": "node", "ref": 12981629731, "role": "platform"}], "tags": {"name": "Siddhartha School Cross", "name:en": "Siddhartha School Cross", "network": "BMTC", "operator": "BMTC", "public_transport": "stop_area", "type": "public_transport"}}, {"type": "relation", "id": 19325870, "members": [{"type": "node", "ref": 12981629732, "role": "stop"}, {"type": "node", "ref": 12981629733, "role": "platform"}], "tags": {"name": "Kari Obanahalli", "name:en": "Kari Obanahalli", "network": "BMTC", "operator": "BMTC", "public_transport": "stop_area", "type": "public_transport"}}, {"type": "relation", "id": 19325871, "members": [{"type": "node", "ref": 10041006056, "role": "stop"}, {"type": "node", "ref": 1593070943, "role": "platform"}], "tags": {"name": "Thigalara Palya", "name:en": "Thigalara Palya", "network": "BMTC", "operator": "BMTC", "public_transport": "stop_area", "type": "public_transport"}}, {"type": "relation", "id": 19325872, "members": [{"type": "node", "ref": 12981629739, "role": "stop"}, {"type": "node", "ref": 12981629740, "role": "platform"}], "tags": {"name": "Garudappa Circle Thigalarapalya", "name:en": "Garudappa Circle Thigalarapalya", "network": "BMTC", "operator": "BMTC", "public_transport": "stop_area", "type": "public_transport"}}, {"type": "relation", "id": 19325873, "members": [{"type": "node", "ref": 1593070948, "role": "stop"}, {"type": "node", "ref": 2430080070, "role": "platform"}], "tags": {"name": "Anjaneya Temple Thigalarapalya", "name:en": "Anjaneya Temple Thigalarapalya", "network": "BMTC", "operator": "BMTC", "public_transport": "stop_area", "type": "public_transport"}}, {"type": "relation", "id": 19325874, "members": [{"type": "node", "ref": 574520928, "role": "stop"}, {"type": "node", "ref": 12981629763, "role": "platform"}], "tags": {"name": "Andrahalli Government School", "name:en": "Andrahalli Government School", "network": "BMTC", "operator": "BMTC", "public_transport": "stop_area", "type": "public_transport"}}, {"type": "relation", "id": 19325875, "members": [{"type": "node", "ref": 12981629764, "role": "stop"}, {"type": "node", "ref": 12981629765, "role": "platform"}], "tags": {"name": "Andrahalli", "name:en": "Andrahalli", "network": "BMTC", "operator": "BMTC", "public_transport": "stop_area", "type": "public_transport"}}, {"type": "relation", "id": 19325876, "members": [{"type": "node", "ref": 12981629770, "role": "stop"}, {"type": "node", "ref": 12981629771, "role": "platform"}], "tags": {"name": "Acharya College", "name:en": "Acharya College", "network": "BMTC", "operator": "BMTC", "public_transport": "stop_area", "type": "public_transport"}}, {"type": "relation", "id": 19325877, "members": [{"type": "node", "ref": 12981629772, "role": "stop"}, {"type": "node", "ref": 12981629773, "role": "platform"}], "tags": {"name": "Arch Lingadeeranahalli", "name:en": "Arch Lingadeeranahalli", "network": "BMTC", "operator": "BMTC", "public_transport": "stop_area", "type": "public_transport"}}, {"type": "relation", "id": 19325878, "members": [{"type": "node", "ref": 12981629774, "role": "stop"}, {"type": "node", "ref": 574522047, "role": "platform"}], "tags": {"name": "Syndicate Bank Colony", "name:en": "Syndicate Bank Colony", "network": "BMTC", "operator": "BMTC", "public_transport": "stop_area", "type": "public_transport"}}, {"type": "relation", "id": 19325879, "members": [{"type": "node", "ref": 12981629775, "role": "stop"}, {"type": "node", "ref": 2430076112, "role": "platform"}], "tags": {"name": "Venkateshwara Layout", "name:en": "Venkateshwara Layout", "network": "BMTC", "operator": "BMTC", "public_transport": "stop_area", "type": "public_transport"}}, {"type": "relation", "id": 19325880, "members": [{"type": "node", "ref": 12981629776, "role": "stop"}, {"type": "node", "ref": 12981629777, "role": "platform"}], "tags": {"name": "Herohalli", "name:en": "Herohalli", "network": "BMTC", "operator": "BMTC", "public_transport": "stop_area", "type": "public_transport"}}, {"type": "relation", "id": 19337113, "members": [{"type": "node", "ref": 11433588998, "role": "stop"}, {"type": "node", "ref": 308067556, "role": "platform"}], "tags": {"name": "Yalachaguppe", "name:en": "Yalachaguppe", "network": "BMTC", "operator": "BMTC", "public_transport": "stop_area", "type": "public_transport"}}, {"type": "relation", "id": 19337187, "members": [{"type": "node", "ref": 12989273924, "role": "stop"}, {"type": "node", "ref": 1597376640, "role": "platform"}], "tags": {"name": "Upkar Residency Layout", "name:en": "Upkar Residency Layout", "network": "BMTC", "operator": "BMTC", "public_transport": "stop_area", "type": "public_transport"}}, {"type": "relation", "id": 19337188, "members": [{"type": "node", "ref": 12989273925, "role": "stop"}, {"type": "node", "ref": 2430071288, "role": "platform"}], "tags": {"name": "Muddinapalya", "name:en": "Muddinapalya", "network": "BMTC", "operator": "BMTC", "public_transport": "stop_area", "type": "public_transport"}}, {"type": "relation", "id": 19337189, "members": [{"type": "node", "ref": 12989273926, "role": "stop"}, {"type": "node", "ref": 12989273927, "role": "platform"}], "tags": {"name": "Kengunte Circle", "name:en": "Kengunte Circle", "network": "BMTC", "operator": "BMTC", "public_transport": "stop_area", "type": "public_transport"}}, {"type": "relation", "id": 19383732, "members": [{"type": "node", "ref": 13020406481, "role": "stop"}, {"type": "node", "ref": 2447182174, "role": "platform"}], "tags": {"name": "Vigneshwara Nagara", "name:en": "Vigneshwara Nagara", "network": "BMTC", "operator": "BMTC", "public_transport": "stop_area", "type": "public_transport"}}, {"type": "relation", "id": 19383733, "members": [{"type": "node", "ref": 13020406482, "role": "stop"}, {"type": "node", "ref": 1557169959, "role": "platform"}], "tags": {"name": "Neelagiri Thopu", "name:en": "Neelagiri Thopu", "network": "BMTC", "operator": "BMTC", "public_transport": "stop_area", "type": "public_transport"}}, {"type": "relation", "id": 19383734, "members": [{"type": "node", "ref": 13020406483, "role": "stop"}, {"type": "node", "ref": 1557141963, "role": "platform"}], "tags": {"name": "Hegganahalli Cross", "name:en": "Hegganahalli Cross", "network": "BMTC", "operator": "BMTC", "public_transport": "stop_area", "type": "public_transport"}}, {"type": "relation", "id": 19383735, "members": [{"type": "node", "ref": 10841279515, "role": "stop"}, {"type": "node", "ref": 13020406485, "role": "platform"}], "tags": {"name": "Hegganahalli", "name:en": "Hegganahalli", "network": "BMTC", "operator": "BMTC", "public_transport": "stop_area", "type": "public_transport"}}, {"type": "relation", "id": 19383736, "members": [{"type": "node", "ref": 13020406486, "role": "stop"}, {"type": "node", "ref": 13020406487, "role": "platform"}], "tags": {"name": "Milk Dairy Hegganahalli", "name:en": "Milk Dairy Hegganahalli", "network": "BMTC", "operator": "BMTC", "public_transport": "stop_area", "type": "public_transport"}}, {"type": "relation", "id": 19383739, "members": [{"type": "node", "ref": 13020406489, "role": "stop"}, {"type": "node", "ref": 2431131774, "role": "platform"}], "tags": {"name": "Peenya 14th Cross", "name:en": "Peenya 14th Cross", "network": "BMTC", "operator": "BMTC", "public_transport": "stop_area", "type": "public_transport"}}, {"type": "relation", "id": 19383760, "members": [{"type": "node", "ref": 13020365381, "role": "stop"}, {"type": "node", "ref": 760176175, "role": "platform"}], "tags": {"name": "Kenchanapura", "name:en": "Kenchanapura", "network": "BMTC", "operator": "BMTC", "public_transport": "stop_area", "type": "public_transport"}}, {"type": "relation", "id": 19383761, "members": [{"type": "node", "ref": 13020365382, "role": "stop"}, {"type": "node", "ref": 760176061, "role": "platform"}], "tags": {"name": "Hosahalli", "name:en": "Hosahalli", "network": "BMTC", "operator": "BMTC", "public_transport": "stop_area", "type": "public_transport"}}, {"type": "relation", "id": 19383762, "members": [{"type": "node", "ref": 9682432255, "role": "stop"}, {"type": "node", "ref": 2428059670, "role": "platform"}], "tags": {"name": "Kannalli", "name:en": "Kannalli", "network": "BMTC", "operator": "BMTC", "public_transport": "stop_area", "type": "public_transport"}}, {"type": "relation", "id": 19383763, "members": [{"type": "node", "ref": 13020365383, "role": "stop"}, {"type": "node", "ref": 13020365384, "role": "platform"}], "tags": {"name": "Dombarahatti Dongadipura Cross", "name:en": "Dombarahatti Dongadipura Cross", "network": "BMTC", "operator": "BMTC", "public_transport": "stop_area", "type": "public_transport"}}, {"type": "relation", "id": 19383764, "members": [{"type": "node", "ref": 13020365385, "role": "stop"}, {"type": "node", "ref": 308187260, "role": "platform"}], "tags": {"name": "Yale Kodigehalli", "name:en": "Yale Kodigehalli", "network": "BMTC", "operator": "BMTC", "public_transport": "stop_area", "type": "public_transport"}}, {"type": "relation", "id": 19383765, "members": [{"type": "node", "ref": 13020365386, "role": "stop"}, {"type": "node", "ref": 13020365387, "role": "platform"}], "tags": {"name": "Yale Kodigehalli Colony", "name:en": "Yale Kodigehalli Colony", "network": "BMTC", "operator": "BMTC", "public_transport": "stop_area", "type": "public_transport"}}, {"type": "relation", "id": 19383766, "members": [{"type": "node", "ref": 13020365388, "role": "stop"}, {"type": "node", "ref": 13020365389, "role": "platform"}], "tags": {"name": "Gollarahatti", "name:en": "Gollarahatti", "network": "BMTC", "operator": "BMTC", "public_transport": "stop_area", "type": "public_transport"}}, {"type": "relation", "id": 19383767, "members": [{"type": "node", "ref": 13020365390, "role": "stop"}, {"type": "node", "ref": 13020365391, "role": "platform"}], "tags": {"name": "College Cross Byadarahalli", "name:en": "College Cross Byadarahalli", "network": "BMTC", "operator": "BMTC", "public_transport": "stop_area", "type": "public_transport"}}, {"type": "relation", "id": 19383768, "members": [{"type": "node", "ref": 13020365392, "role": "stop"}, {"type": "node", "ref": 13020365393, "role": "platform"}], "tags": {"name": "Byadarahalli", "name:en": "Byadarahalli", "network": "BMTC", "operator": "BMTC", "public_transport": "stop_area", "type": "public_transport"}}, {"type": "relation", "id": 19383769, "members": [{"type": "node", "ref": 4692323122, "role": "stop"}, {"type": "node", "ref": 13020365394, "role": "platform"}], "tags": {"name": "East West College Cross", "name:en": "East West College Cross", "network": "BMTC", "operator": "BMTC", "public_transport": "stop_area", "type": "public_transport"}}, {"type": "relation", "id": 19383770, "members": [{"type": "node", "ref": 13020365395, "role": "stop"}, {"type": "node", "ref": 13020365396, "role": "platform"}], "tags": {"name": "Anjananagara", "name:en": "Anjananagara", "network": "BMTC", "operator": "BMTC", "public_transport": "stop_area", "type": "public_transport"}}, {"type": "relation", "id": 19383771, "members": [{"type": "node", "ref": 13020365397, "role": "stop"}, {"type": "node", "ref": 13020365398, "role": "platform"}], "tags": {"name": "Herohalli Cross", "name:en": "Herohalli Cross", "network": "BMTC", "operator": "BMTC", "public_transport": "stop_area", "type": "public_transport"}}, {"type": "relation", "id": 19383772, "members": [{"type": "node", "ref": 13020365399, "role": "stop"}, {"type": "node", "ref": 13020365400, "role": "platform"}], "tags": {"name": "Janapriya Apartment", "name:en": "Janapriya Apartment", "network": "BMTC", "operator": "BMTC", "public_transport": "stop_area", "type": "public_transport"}}]}