{"version": 0.6, "generator": "Overpass API 0.7.62.8 e802775f", "osm3s": {"timestamp_osm_base": "2026-01-12T01:56:51Z", "copyright": "The data included in this document is from www.openstreetmap.org. The data is made available under ODbL."}, "elements": [{"type": "node", "id": 1050786520, "lat": 17.4693193, "lon": 78.4778376, "tags": {"amenity": "hospital"}}, {"type": "node", "id": 2466596561, "lat": 17.4893332, "lon": 78.4066679}, {"type": "node", "id": 2466596562, "lat": 17.4901023, "lon": 78.4063964}, {"type": "node", "id": 2466596566, "lat": 17.4902983, "lon": 78.4074958}, {"type": "node", "id": 2466596569, "lat": 17.4907949, "lon": 78.4070839}, {"type": "node", "id": 2466596572, "lat": 17.4911831, "lon": 78.4066065}, {"type": "node", "id": 2742570665, "lat": 17.5219656, "lon": 78.4290649}, {"type": "node", "id": 3387338154, "lat": 17.4940872, "lon": 78.4029813}, {"type": "node", "id": 3387338155, "lat": 17.4943507, "lon": 78.4031154}, {"type": "node", "id": 3387338156, "lat": 17.4942023, "lon": 78.4033595}, {"type": "node", "id": 3387338157, "lat": 17.4939593, "lon": 78.4032307}, {"type": "node", "id": 3390967828, "lat": 17.5113399, "lon": 78.4469461, "tags": {"addr:district": "Hyderabad", "addr:full": "Plot No.: 43, Gajularamaram Road, Shapur Nagar", "addr:postcode": "500055", "addr:state": "Telangana", "addr:street": "gajuularamaram road", "amenity": "hospital", "name": "Carewell Diabetes and General Hospital", "source": "OpenGovernmentData"}}, {"type": "node", "id": 3391103941, "lat": 17.5220823, "lon": 78.4431753, "tags": {"addr:district": "Hyderabad", "addr:full": "22-4/1, Apiic Colony, Near Sub Station, IDA Jeedimetla", "addr:postcode": "500055", "addr:state": "Telangana", "addr:street": "substation", "amenity": "hospital", "healthcare": "hospital", "name": "Sigma Hospitals", "source": "OpenGovernmentData"}}, {"type": "node", "id": 3504313626, "lat": 17.4941839, "lon": 78.4033499}, {"type": "node", "id": 3523097906, "lat": 17.4897533, "lon": 78.4079352}, {"type": "node", "id": 3534837998, "lat": 17.5439866, "lon": 78.4333819, "tags": {"addr:district": "Hyderabad", "addr:full": "1-1-216, Suraram'X' Roads, Jeedimetla", "addr:postcode": "500055", "addr:state": "Telangana", "amenity": "hospital", "contact:mobile": "040 23783000; 09676902111", "emergency_telephone_code": "040 23783026;040 23783030", "health_facility:type": "24 7 Emergency;Laboratory;Dialysis;Radiology;Pharmacy;Ambulance;Blood Bank;Radio diagnosis and Imaging;4 Operation Theatres;2 Cath Labs;EEG;ENMG;ECG;Echo;Doppler;MRI;CT Scan;Ultrasound;X ray;Endoscopy;Colonoscopy", "healthcare:speciality": "multi specialty", "medical_system": "Allopathic", "name": "Malla Reddy Narayana Multispeciality Hospital", "operator:type": "private", "phone": "040 23783001;040 23783002", "source": "OpenGovernmentData", "website": "https://www.narayanahealth.org/"}}, {"type": "node", "id": 3614774687, "lat": 17.4685801, "lon": 78.4895471}, {"type": "node", "id": 3614774696, "lat": 17.468604, "lon": 78.4894077}, {"type": "node", "id": 3614774839, "lat": 17.4688871, "lon": 78.4896576}, {"type": "node", "id": 3614774844, "lat": 17.4688958, "lon": 78.4896067}, {"type": "node", "id": 3614774894, "lat": 17.4690011, "lon": 78.4896791}, {"type": "node", "id": 3614774908, "lat": 17.4690338, "lon": 78.4894888}, {"type": "node", "id": 3640604684, "lat": 17.516119, "lon": 78.4388993, "tags": {"addr:city": "Hyderabad", "addr:postcode": "500055", "addr:street": "Gajularamaram Road", "amenity": "hospital", "healthcare": "hospital", "healthcare:speciality": "paediatrics", "name": "Childrens Hospital"}}, {"type": "node", "id": 4622047587, "lat": 17.4911604, "lon": 78.4066502}, {"type": "node", "id": 6061219781, "lat": 17.5454734, "lon": 78.4326051, "tags": {"addr:city": "Hyderabad", "addr:postcode": "500055", "addr:street": "suraram", "amenity": "hospital", "healthcare": "hospital", "name": "Malla Reddy Health City (MRHC)"}}, {"type": "node", "id": 6133853785, "lat": 17.536328, "lon": 78.4885233, "tags": {"amenity": "hospital", "name": "Surekha Hospital"}}, {"type": "node", "id": 6482123599, "lat": 17.5123618, "lon": 78.4754596, "tags": {"addr:district": "Hyderabad", "addr:full": "Plot Number 13 and 14, Pipeline Road, Behind Deevan Dhaba, Petbasheerabad, Jeedimetla", "addr:postcode": "500055", "addr:state": "Telangana", "amenity": "hospital", "contact:mobile": "9963545454", "email": "info@konarkhospitals.com", "health_facility:type": "Cashless Billing and Reimbursement Facility;Emergency Ambulance Services;Diagnostic Services;Surgical Services;ICU Facility;Operation Theater;Pharmacy Services", "healthcare:speciality": "multi specialty", "medical_system": "Allopathic", "name": "Konark Hospitals", "operator:type": "private", "phone": "040 44661515", "source": "OpenGovernmentData", "website": "https://www.konarkhospitals.com/"}}, {"type": "node", "id": 6484735190, "lat": 17.4691656, "lon": 78.4773293, "tags": {"addr:district": "Hyderabad", "addr:full": "1-10-314/P, Opposite Mallareddy Gardens, Thokatta Village, Bowenpally", "addr:postcode": "500011", "addr:state": "Telangana", "amenity": "hospital", "email": "doctor@dristenetralaya.com", "name": "Dristi Netralaya Hospital", "phone": "040-27950101", "source": "OpenGovernmentData", "website": "www.dristenetralaya.com"}}, {"type": "node", "id": 6484901165, "lat": 17.5160805, "lon": 78.4476453, "tags": {"addr:district": "Hyderabad", "addr:full": "57/A, Shapur Nagar, I.D.A., Jeedimetla", "addr:postcode": "500055", "addr:state": "Telangana", "amenity": "hospital", "fax": "040 44543734", "health_facility:type": "24 Hours Lab Services;24 Hours Emergency Services", "healthcare": "hospital", "healthcare:speciality": "General Surgery;Trauma and Orthopaedics;Plastic Surgery;ENT;Urology;Gynaecology and Obstetrics;Neurology;General Medicine;Neurology;Gastroenterology;Cardiology;Nephrology;Endocrinology;Dermatology;Paediatrics;Psychiatry;Physiotheraphy", "medical_system": "Allopathic", "name": "Ram Hospital", "operator:type": "private", "phone": "040 23096655;040 23096644;040 44543737", "source": "OpenGovernmentData", "website": "http://www.ramhospital.org"}}, {"type": "node", "id": 6484944575, "lat": 17.4905626, "lon": 78.4072572}, {"type": "node", "id": 6485054519, "lat": 17.4841162, "lon": 78.4488925, "tags": {"addr:district": "Hyderabad", "addr:full": "10-84, Sowbhagya Nagar, Opp. IDPL Colony", "addr:postcode": "500037", "addr:state": "Telangana", "amenity": "hospital", "name": "Kid Care Children's Hospital", "source": "OpenGovernmentData"}}, {"type": "node", "id": 6485316309, "lat": 17.5160364, "lon": 78.4472698, "tags": {"addr:district": "Hyderabad", "addr:full": "Shapur Nagar Main Road, Chinthal", "addr:postcode": "500055", "addr:state": "Telangana", "amenity": "hospital", "contact:phone": "23093903", "healthcare": "hospital", "name": "Dr. Laxman's Children Hospital", "operator:type": "private", "source": "OpenGovernmentData"}}, {"type": "node", "id": 6485763799, "lat": 17.4767414, "lon": 78.4798486, "tags": {"addr:district": "Hyderabad", "addr:full": "8-4-123, Near Old Bowenpally Bus Stop", "addr:postcode": "500011", "addr:state": "Telangana", "amenity": "hospital", "name": "Vinciti Hospital", "source": "OpenGovernmentData"}}, {"type": "node", "id": 6487508548, "lat": 17.4850586, "lon": 78.4471166, "tags": {"addr:district": "Hyderabad", "addr:full": "12-143, Community Hall Road, Adarsh Nagar, Opposite IDPL Colony Bus Stop, Balanagar", "addr:postcode": "500037", "addr:state": "Telangana", "amenity": "hospital", "name": "Jayasai Hospital For Women", "source": "OpenGovernmentData"}}, {"type": "node", "id": 6489790935, "lat": 17.5185239, "lon": 78.4822022, "tags": {"addr:district": "Hyderabad", "addr:full": "Plot No. 34, 34/A, NCL South, Petbasheerabad, Medchal Road, Secunderabad", "addr:postcode": "500055", "addr:state": "Telangana", "amenity": "hospital", "email": "balaji.hospital@yahoo.com", "name": "Sree Balaji Hospital", "phone": "040-27164000", "source": "OpenGovernmentData", "website": "www.sreebalajihospital.com"}}, {"type": "node", "id": 6490089435, "lat": 17.520925, "lon": 78.484531, "tags": {"addr:district": "Hyderabad", "addr:full": "Plot No: 1-76/1/b/4, Ganga Enclave, Pet Basheerabad, Medchal Road, Secunderabad", "addr:postcode": "500055", "addr:state": "Telangana", "amenity": "hospital", "contact:email": "drprsunk@yahoo.com", "contact:mobile": "9949073049", "fax": "040 27165116", "healthcare:speciality": "multi specialty", "medical_system": "Allopathic", "name": "Harsha Hospitals", "operator:type": "private", "phone": "040 27165110", "source": "OpenGovernmentData", "website": "http://www.harshahospitals.com"}}, {"type": "node", "id": 6493463498, "lat": 17.5141839, "lon": 78.4470136, "tags": {"addr:district": "Hyderabad", "addr:full": "Opposite Adarsh Bank, Beside Sagar Hotel, Shapur Nagar Main Road", "addr:postcode": "500055", "addr:state": "Telangana", "amenity": "hospital", "healthcare": "hospital", "name": "Ragani Children's Hospital", "source": "OpenGovernmentData"}}, {"type": "node", "id": 6494465425, "lat": 17.4953109, "lon": 78.415377, "tags": {"addr:district": "Hyderabad", "addr:full": "Plot No. 141 & 144/1, Sapthagiri Colony, Ayyappa Swamy Temple Road, Near New Era School, Kukatpally", "addr:postcode": "500072", "addr:state": "Telangana", "amenity": "hospital", "contact:email": "info@harsha-hospitals.co.in", "contact:mobile": "7799565793; 9000855548", "name": "Harsha Hospitals", "phone": "040 23066393", "source": "OpenGovernmentData", "website": "https://www.harsha-hospitals.com/"}}, {"type": "node", "id": 6495023719, "lat": 17.496063, "lon": 78.4541865, "tags": {"addr:district": "Hyderabad", "addr:full": "Plot No. 29,30, Beside Lingam Gound Residency, MNR College", "addr:postcode": "500055", "addr:state": "Telangana", "amenity": "hospital", "name": "Sanjeevani Children and General Hospital", "source": "OpenGovernmentData"}}, {"type": "node", "id": 6498013229, "lat": 17.48489, "lon": 78.4096652, "tags": {"addr:district": "Hyderabad", "addr:full": "Plot No. 61, KPHB Main Road, Balaji Nagar, Near Kukatpally Bus Stop", "addr:postcode": "500072", "addr:state": "Telangana", "amenity": "hospital", "name": "Prerana Hospital", "source": "OpenGovernmentData"}}, {"type": "node", "id": 6503384572, "lat": 17.4660729, "lon": 78.4832785, "tags": {"addr:district": "Hyderabad", "addr:full": "Plot No-2, H No-2-12-149, Breg Syed Road,Bapuji Nagar Bowenpally, Cantonment", "addr:postcode": "500009", "addr:state": "Telangana", "amenity": "hospital", "name": "Lifespring Hospital", "source": "OpenGovernmentData"}}, {"type": "node", "id": 6503410509, "lat": 17.4713934, "lon": 78.4849957, "tags": {"addr:district": "Hyderabad", "addr:full": "7-A, Panchasheela Enclave, near ICRISAT Colony Phase 2, Hashmathpet", "addr:postcode": "500009", "addr:state": "Telangana", "amenity": "hospital", "name": "SKM Multi Speciality Hospital", "source": "OpenGovernmentData"}}, {"type": "node", "id": 6503431563, "lat": 17.5119189, "lon": 78.4465805, "tags": {"addr:district": "Hyderabad", "addr:full": "Plot No.78, 2nd Right, Gajularamaram Road, IDA, Shapurnagar, Jeedimetla", "addr:postcode": "500055", "addr:state": "Telangana", "amenity": "hospital", "name": "S.V.K. Hospital Private Ltd.", "source": "OpenGovernmentData"}}, {"type": "node", "id": 6504107685, "lat": 17.467585, "lon": 78.4819903, "tags": {"addr:district": "Hyderabad", "addr:full": "Plot No. 129/1, Viceroy Residency, Besides Ashok Gardens, Bapuji Nagar, Main Road, Bowenpalli", "addr:postcode": "500011", "addr:state": "Telangana", "amenity": "hospital", "name": "Pavithra Hospital", "source": "OpenGovernmentData"}}, {"type": "node", "id": 6504154905, "lat": 17.4920026, "lon": 78.4093373, "tags": {"addr:district": "Hyderabad", "addr:full": "Plot No. 688, Sumana Hospital Lane, Road Number 2, Vivekananda Nagar, Kukatpally", "addr:postcode": "500072", "addr:state": "Telangana", "amenity": "hospital", "contact:email": "sumanahospital@gmail.com", "contact:phone": "040 2306 8066", "healthcare": "hospital", "name": "Sumana Hospital", "source": "OpenGovernmentData", "website": "http://sumanahospital.com", "wikidata": "Q52843701"}}, {"type": "node", "id": 6504284028, "lat": 17.494147, "lon": 78.4053522, "tags": {"addr:district": "Hyderabad", "addr:full": "2-22-254, Street No.3, A.S. Raju Nagar, Behind South India Shopping Mall, Kukatpally", "addr:postcode": "500072", "addr:state": "Telangana", "amenity": "hospital", "name": "Kavya Nursing Home", "source": "OpenGovernmentData"}}, {"type": "node", "id": 6505307085, "lat": 17.4759595, "lon": 78.4837787, "tags": {"addr:district": "Hyderabad", "addr:full": "Plot No 8, Main Road, Old Bowenpally", "addr:postcode": "500011", "addr:state": "Telangana", "amenity": "hospital", "name": "Ramya Nursing Home", "source": "OpenGovernmentData"}}, {"type": "node", "id": 6511011214, "lat": 17.5218368, "lon": 78.4831209, "tags": {"addr:district": "Hyderabad", "addr:full": "C - 4,5, Ganga Enclave, Opp Excellancy Garden, Petbasheerabad, Medchal Road, Rangareddy", "addr:postcode": "500055", "addr:state": "Telangana", "amenity": "hospital", "name": "RR Hospital", "source": "OpenGovernmentData"}}, {"type": "node", "id": 6512526669, "lat": 17.4900948, "lon": 78.4481992, "tags": {"addr:district": "Hyderabad", "addr:full": "Jeedimetla Main Road, Near Gautami Techno School", "addr:postcode": "500055", "addr:state": "Telangana", "amenity": "hospital", "name": "Pulse Hospital", "source": "OpenGovernmentData"}}, {"type": "node", "id": 6513113356, "lat": 17.4961817, "lon": 78.4055095, "tags": {"addr:district": "Hyderabad", "addr:full": "22-163/2, Adjacent to Global Enclave, Bhagyanagar Colony, Kukatpally", "addr:postcode": "500072", "addr:state": "Telangana", "amenity": "hospital", "check_date": "2024-03-16", "healthcare": "hospital", "name": "Tadla Eye Hospital", "source": "OpenGovernmentData"}}, {"type": "node", "id": 6530741984, "lat": 17.5420919, "lon": 78.4335503, "tags": {"addr:district": "Hyderabad", "addr:full": "Opp Suraram Bus Stand, Suraram 'X' Road, Jeedimetla", "addr:postcode": "500055", "addr:state": "Telangana", "amenity": "hospital", "fixme": "Please verify the accurate position of the hospital as I have mapped the facility based on the address provided in Open Government data", "name": "Suguna Sree Nursing Home", "source": "OpenGovernmentData"}}, {"type": "node", "id": 6537169461, "lat": 17.4840637, "lon": 78.4487262, "tags": {"addr:district": "Hyderabad", "addr:full": "Adarsh Nagar, Opp. IDPL Colony, Balanagar", "addr:postcode": "500037", "addr:state": "Telangana", "amenity": "hospital", "contact:phone": "040-67599999", "name": "Ankura Kodali Hospital", "source": "OpenGovernmentData"}}, {"type": "node", "id": 6548796448, "lat": 17.469289, "lon": 78.4862155, "tags": {"addr:city": "Hyderabad", "addr:full": "Plot No:. 27 & 28, Hasmathpet Road, Bowenpally Beside Reliance Fresh Super Market", "addr:postcode": "500011", "addr:state": "Telangana", "amenity": "hospital", "contact:phone": "04042306565;64595609", "name": "KRUTI HOSPITAL ADVANCED EYE & DENTAL CARE", "operator": "Private", "source": "OpenGovernmentData"}}, {"type": "node", "id": 6549122919, "lat": 17.5072656, "lon": 78.4788038, "tags": {"addr:city": "Hyderabad", "addr:full": "H.No: 120, Green Park Avenue, Suchitra Circle, Jeedimetla Village", "addr:postcode": "500067", "addr:state": "Telangana", "amenity": "hospital", "contact:phone": "4027235867", "name": "Refracto Eye Hospital", "operator:type": "private", "source": "OpenGovernmentData"}}, {"type": "node", "id": 6549138754, "lat": 17.5246107, "lon": 78.482795, "tags": {"addr:district": "Hyderabad", "addr:full": "6A, 7A, Petbasheerabad, NH7, Near DPS, Opp St Anns, Kompally", "addr:postcode": "500055", "addr:state": "Telangana", "alt_name": "Bloom Hospitals", "amenity": "hospital", "contact:email": "admin@janapareddy.co.in", "contact:phone": "+91 9963233911 ; +91 9963233922", "name": "JANAPAREDDY HOSPITAL PVT LTD", "operator:type": "private", "source": "OpenGovernmentData"}}, {"type": "node", "id": 6549150687, "lat": 17.5162288, "lon": 78.4472376, "tags": {"addr:city": "Hyderabad", "addr:full": "PLOT No.1, 2 & 3, SHAPUR NAGAR MAIN ROAD, BESIDES R.S. BROTHERS, JEEDIMETLA", "addr:postcode": "500055", "addr:state": "Telangana", "amenity": "hospital", "contact:email": "Info@medivisionhospital.com", "contact:phone": "+91 9515966644; 040-23193777", "healthcare": "hospital", "name": "MEDIVISION SUPER SPECIALTY HOSPITAL", "operator:type": "private", "source": "OpenGovernmentData"}}, {"type": "node", "id": 6549183267, "lat": 17.5084337, "lon": 78.4614305, "tags": {"addr:city": "Hyderabad", "addr:full": "Plot No:413, ROAD NO - 1, BHAGYA LAXMI COLONY, QUTHBULLAPUR", "addr:postcode": "500055", "addr:state": "Telangana", "amenity": "hospital", "contact:phone": "040 23080666", "name": "Lakshmi Sailaja Hospiatal", "operator:type": "private", "source": "OpenGovernmentData"}}, {"type": "node", "id": 6549219227, "lat": 17.4691425, "lon": 78.4777518, "tags": {"addr:city": "Hyderabad", "addr:full": "Plot No:.3, BAPUJI NAGAR, Opp: SAROJINI PULLA REDDY HOUSE, BOWENPALLY", "addr:postcode": "500011", "addr:state": "Telangana", "amenity": "hospital", "name": "KS MULTISPECIALTY HOSPITAL", "operator": "Private", "source": "OpenGovernmentData"}}, {"type": "node", "id": 6549335308, "lat": 17.4915939, "lon": 78.4096941, "tags": {"addr:city": "Hyderabad", "addr:full": "Plot No:. 692, VIVEKANAND NAGAR COLONY, KUKATPALLY", "addr:postcode": "500072", "addr:state": "Telangana", "amenity": "hospital", "contact:phone": "4023060030", "healthcare": "hospital", "name": "Green Leaf Health Centre", "operator:type": "private", "source": "OpenGovernmentData"}}, {"type": "node", "id": 6549338256, "lat": 17.4997723, "lon": 78.477497, "tags": {"addr:district": "Hyderabad", "addr:full": "H.No. 2-181/2/C , Near Suchitra Circle, Alwal Road, Ramraj Nagar, Jeedimetla", "addr:postcode": "500067", "addr:state": "Telangana", "amenity": "hospital", "contact:phone": "040 44441111; +91 8886611108", "name": "RUSSH SUPER SPECIALITY HOSPITAL", "operator:type": "private", "source": "OpenGovernmentData", "website": "https://russhhospital.com/"}}, {"type": "node", "id": 6549358302, "lat": 17.4955297, "lon": 78.4541658, "tags": {"addr:city": "Hyderabad", "addr:full": "H.No: 6-172, SURDHARSHAN REDDY NAGAR , Opp. AKSHARA SCHOOL, CHINTAL", "addr:postcode": "500054", "addr:state": "Telangana", "amenity": "hospital", "contact:phone": "4064559694", "name": "NETRA EYE AND MULTI SPECIALITY HOSPITAL", "operator:type": "private", "source": "OpenGovernmentData"}}, {"type": "node", "id": 6549440030, "lat": 17.5171414, "lon": 78.4449886, "tags": {"addr:city": "Hyderabad", "addr:full": "4/32-130, Shapur Nagar, IDA Jeedimetla, Chinthal", "addr:postcode": "500055", "addr:state": "Telangana", "amenity": "hospital", "contact:phone": "4023090409", "healthcare": "hospital", "name": "SAI SIDDHARTHA HOSPITAL", "operator:type": "private", "source": "OpenGovernmentData"}}, {"type": "node", "id": 6559228898, "lat": 17.5162813, "lon": 78.4473006, "tags": {"addr:district": "Hyderabad", "addr:full": "Main Road, Shapur Nagar, Near RS Brothers, Jeedimetla.", "addr:postcode": "500055", "addr:state": "Telangana", "amenity": "hospital", "healthcare": "hospital", "name": "Sai Bhavani Super Speciality Hospital", "source": "OpenGovernmentData"}}, {"type": "node", "id": 6561341420, "lat": 17.4963994, "lon": 78.4523928, "tags": {"addr:district": "Hyderabad", "addr:full": "H .No.: 6-15 & 116, Opp. Chintal Bus Stop, Chintal", "addr:postcode": "500054", "addr:state": "Telangana", "amenity": "hospital", "name": "Happy Children Hospital - Chintal", "source": "OpenGovernmentData"}}, {"type": "node", "id": 6811749004, "lat": 17.5198207, "lon": 78.4427883, "tags": {"addr:district": "Medchal Malkajgiri", "addr:full": "Near SS Medical & General Store, Apiic Colony,IDA Jeedimetla", "addr:postcode": "500055", "addr:state": "Telangana", "amenity": "hospital", "healthcare": "hospital", "name": "Lions Club Of Hyderabad Multi Speciality Hospital", "source": "OpenGovernmentData"}}, {"type": "node", "id": 6811749014, "lat": 17.468492, "lon": 78.4576658, "tags": {"addr:district": "Hyderabad", "addr:full": "Vinayak Nagar, Balanagar", "addr:postcode": "500042", "addr:state": "Telangana", "amenity": "hospital", "name": "Vijaylaxmi Maternity Hospital", "source": "OpenGovernmentData"}}, {"type": "node", "id": 6811749023, "lat": 17.539151, "lon": 78.433749, "tags": {"addr:district": "Hyderabad", "addr:full": "Opposite Sai Baba Temple, Beside United Bank of India, Jeedimetla, Suraram", "addr:state": "Telangana", "amenity": "hospital", "name": "Health Care General Hospital", "source": "OpenGovernmentData"}}, {"type": "node", "id": 6811749053, "lat": 17.493087, "lon": 78.4096964, "tags": {"addr:district": "Medchal Malkajgiri", "addr:full": "266, Near Geethanjali Talent, School, Vivekananda Nagar, Kukatpally", "addr:postcode": "500072", "addr:state": "Telangana", "amenity": "hospital", "name": "Apple Diagnostic & Medical Centre, Kukatpally", "source": "OpenGovernmentData"}}, {"type": "node", "id": 6811749062, "lat": 17.492517, "lon": 78.451227, "tags": {"addr:district": "Hyderabad", "addr:full": "5-120/2, Opposite Sha SHAhensha Theatre, HMT Road, Chintal", "addr:state": "Telangana", "amenity": "hospital", "name": "Alavi Hospital", "source": "OpenGovernmentData"}}, {"type": "node", "id": 6811749066, "lat": 17.4694418, "lon": 78.4256774, "tags": {"addr:city": "Hyderabad", "addr:district": "Medchal Malkajgiri", "addr:full": "Near Panchaseela School, Patel Nagar, Moosapet", "addr:postcode": "500018", "addr:state": "Telangana", "amenity": "hospital", "name": "Chaitanya Hospital", "operator:type": "Private", "source": "OpenGovernmentData"}}, {"type": "node", "id": 6811749084, "lat": 17.4958036, "lon": 78.4524391, "tags": {"addr:district": "Medchal Malkajgiri", "addr:full": "Jeedimetla Main Road, Sudershan Reddy Nagar, Quthbullapur, Opp Chintal Bus Stop", "addr:postcode": "500055", "addr:state": "Telangana", "amenity": "hospital", "contact:mobile": "9912186174", "name": "Harsha Dental Dantam Network Dental Hospitals", "source": "OpenGovernmentData", "website": "https://dantamclinics.com/"}}, {"type": "node", "id": 6811749088, "lat": 17.5314158, "lon": 78.4875009, "tags": {"addr:district": "Hyderabad", "addr:full": "H.No: 3-63/4a, Main Road, NH 7, Near Cine Planet, Beside Croma, Komapally", "addr:state": "Telangana", "amenity": "hospital", "contact:mobile": "8096104104", "contact:phone": "040 68180000", "name": "Srikara Hospital", "operator:type": "Private", "source": "OpenGovernmentData"}}, {"type": "node", "id": 6811749127, "lat": 17.517046, "lon": 78.480475, "tags": {"addr:district": "Medchal Malkajgiri", "addr:full": "National Highway 44, Opp.Canton Residential Township, NCL Enclave South, Jeedimetla", "addr:postcode": "500015", "addr:state": "Telangana", "amenity": "hospital", "contact:mobile": "8886668026", "name": "Suraksha Women And Children Hospital", "source": "OpenGovernmentData"}}, {"type": "node", "id": 6811749133, "lat": 17.473479, "lon": 78.421673, "tags": {"addr:district": "Medchal Malkajgiri", "addr:full": "Lane Beside Cake Walk Bakery, Pragathi Nagar, Moosapet, Hyderabad", "addr:postcode": "500072", "addr:state": "Telangana", "amenity": "hospital", "name": "Vasundhara Hospital", "opening_hours": "24/7", "source": "OpenGovernmentData"}}, {"type": "node", "id": 6811749139, "lat": 17.4691677, "lon": 78.4275318, "tags": {"addr:city": "Hyderabad", "addr:district": "Medchal Malkajgiri", "addr:full": "Opp. Andhra Bank, Beside Sangeetha Mobiles, Moosapet 'X' Road", "addr:postcode": "500018", "addr:state": "Telangana", "amenity": "hospital", "contact:mobile": "9390113366", "name": "Aradhya Multi Speciality Hospital", "operator:type": "Private", "source": "OpenGovernmentData"}}, {"type": "node", "id": 6811749141, "lat": 17.4956577, "lon": 78.4532466, "tags": {"addr:district": "Medchal Malkajgiri", "addr:full": "Behind Chintal Bus Stop, Sudharshan Reddy Nagar, Qutubullapur, Dwarakapuri Colony", "addr:postcode": "500055", "addr:state": "Telangana", "amenity": "hospital", "name": "Raman Hospital", "source": "OpenGovernmentData"}}, {"type": "node", "id": 6935540196, "lat": 17.4787553, "lon": 78.4816433, "tags": {"addr:city": "SECUNDERABAD", "addr:street": "MALLIKARJUNA COLONY", "amenity": "hospital", "healthcare": "hospital", "name": "SHEKAR HOSPITAL"}}, {"type": "node", "id": 7008089080, "lat": 17.5035172, "lon": 78.4156543, "tags": {"amenity": "hospital", "healthcare": "hospital", "name": "Mythri Clinic"}}, {"type": "node", "id": 7117631786, "lat": 17.510807, "lon": 78.4475672}, {"type": "node", "id": 7244059229, "lat": 17.5422595, "lon": 78.474491, "tags": {"amenity": "hospital", "healthcare": "hospital"}}, {"type": "node", "id": 7924536679, "lat": 17.4891879, "lon": 78.4083992}, {"type": "node", "id": 7924536680, "lat": 17.4891767, "lon": 78.4072166}, {"type": "node", "id": 7924536681, "lat": 17.48862, "lon": 78.4076831}, {"type": "node", "id": 7925585585, "lat": 17.51644, "lon": 78.445742, "tags": {"addr:city": "Hyderabad", "addr:country": "IN", "addr:district": "Medchal\u2013Malkajgiri", "addr:postcode": "500055", "addr:state": "Telangana", "addr:street": "RS Brothers Road", "addr:subdistrict": "Quthbullapur mandal", "addr:suburb": "Shapur Nagar", "amenity": "hospital", "healthcare": "hospital", "name": "Bhaskara Hospital"}}, {"type": "node", "id": 8169752555, "lat": 17.5188698, "lon": 78.4278115}, {"type": "node", "id": 8169752556, "lat": 17.521451, "lon": 78.4304628}, {"type": "node", "id": 8169752557, "lat": 17.5187796, "lon": 78.4293813}, {"type": "node", "id": 8169752558, "lat": 17.5189271, "lon": 78.4289808}, {"type": "node", "id": 8169752559, "lat": 17.5185026, "lon": 78.428809}, {"type": "node", "id": 8169752560, "lat": 17.5188558, "lon": 78.4278496}, {"type": "node", "id": 8182514342, "lat": 17.5102596, "lon": 78.4476155}, {"type": "node", "id": 8182514343, "lat": 17.5112589, "lon": 78.446559}, {"type": "node", "id": 8182514344, "lat": 17.5101488, "lon": 78.4466824}, {"type": "node", "id": 8386256231, "lat": 17.5361942, "lon": 78.4362911, "tags": {"amenity": "hospital", "healthcare": "hospital", "name": "People's health care"}}, {"type": "node", "id": 8759169871, "lat": 17.4753103, "lon": 78.4857756, "tags": {"addr:district": "Hyderabad", "addr:full": "Hasmathpet, Bowenpally, Secunderabad", "addr:postcode": "500009", "addr:state": "Telangana", "amenity": "hospital", "name": "SKS Hospital", "source": "Local Knowledge"}}, {"type": "node", "id": 8760672940, "lat": 17.4853838, "lon": 78.4109567, "tags": {"addr:district": "Medchal", "addr:full": "Balaji Nagar, Kukatpally, Hyderabad", "addr:postcode": "500072", "addr:state": "Telangana", "amenity": "hospital", "name": "OMNI Hospitals", "source": "Local Knowledge"}}, {"type": "node", "id": 8760895243, "lat": 17.48884, "lon": 78.4083858, "tags": {"addr:district": "Medchal", "addr:full": "1-6, Kukatpally, Hyderabad", "addr:postcode": "500072", "addr:state": "Telangana", "amenity": "hospital", "name": "Sivananda Rehabilitation Home", "source": "Local Knowledge"}}, {"type": "node", "id": 8760982633, "lat": 17.5057005, "lon": 78.4670243, "tags": {"addr:district": "Medchal", "addr:full": "Suchitra, Sri Krishna Nagar, Quthbullapur, Hyderabad", "addr:postcode": "500055", "addr:state": "Telangana", "amenity": "hospital", "name": "Srujana Hospitals", "source": "Local Knowledge"}}, {"type": "node", "id": 8763113701, "lat": 17.4957164, "lon": 78.4525108, "tags": {"addr:district": "Medchal", "addr:full": "Jeedimetla Main Road, Chinthal, Hyderabad", "addr:postcode": "500037", "addr:state": "Telangana", "amenity": "hospital", "name": "Tesla Diagnostics", "source": "Local Knowledge"}}, {"type": "node", "id": 8763496906, "lat": 17.4847174, "lon": 78.4129804, "tags": {"addr:district": "Medchal", "addr:full": "H.No:5-1-97/B/NR, near Old Shivalayam Temple Complex, Hyderabad", "addr:postcode": "500072", "addr:state": "Telangana", "amenity": "hospital", "name": "Ananya Hospital", "source": "Local Knowledge"}}, {"type": "node", "id": 8763519730, "lat": 17.4829023, "lon": 78.4134217, "tags": {"addr:district": "Medchal", "addr:full": "6-2/200, M J Colony, Vivek Nagar, Kukatpally, Hyderabad", "addr:postcode": "500072", "addr:state": "Telangana", "amenity": "hospital", "name": "People's Hospital", "source": "Local Knowledge"}}, {"type": "node", "id": 9728614166, "lat": 17.5026194, "lon": 78.4207649, "tags": {"amenity": "hospital", "healthcare": "hospital", "healthcare:speciality": "general", "name": "balaji hospital"}}, {"type": "node", "id": 10277933502, "lat": 17.4938811, "lon": 78.4104042}, {"type": "node", "id": 10277933503, "lat": 17.4938479, "lon": 78.4104381}, {"type": "node", "id": 10277933504, "lat": 17.4937713, "lon": 78.4105209}, {"type": "node", "id": 10277933505, "lat": 17.49384, "lon": 78.4105971}, {"type": "node", "id": 10277933506, "lat": 17.4939537, "lon": 78.4104803}, {"type": "node", "id": 11770993373, "lat": 17.4771569, "lon": 78.4204028, "tags": {"amenity": "hospital", "check_date": "2024-03-29", "healthcare": "hospital", "name": "Amar Hospitals"}}, {"type": "node", "id": 12669348711, "lat": 17.4865279, "lon": 78.4497546, "tags": {"addr:city": "Hyderabad", "addr:district": "hyderabad", "addr:postcode": "500054", "addr:street": "Sumithra Nagar, Gudement Nagar, IDPL Colony, Balanagar", "amenity": "hospital", "contact:facebook": "https://www.facebook.com/revivemultispecialityhospital", "email": "revivehospitalhyd@gmail.com", "emergency": "yes", "healthcare": "hospital", "healthcare:speciality": "orthopaedics;gynaecology;general;paediatrics;dermatology;otolaryngology;surgery;neurology;emergency;gastroenterology", "internet_access": "yes", "name": "Revive Multispeciality Hospital", "opening_hours": "24/7", "source": "local knowledge;gps", "wheelchair": "yes"}}, {"type": "node", "id": 12952102468, "lat": 17.4910021, "lon": 78.4066058}, {"type": "node", "id": 12952102469, "lat": 17.4910369, "lon": 78.4068468}, {"type": "node", "id": 12952102470, "lat": 17.4906757, "lon": 78.4065998}, {"type": "node", "id": 12952102471, "lat": 17.4904643, "lon": 78.4065485}, {"type": "node", "id": 12952102472, "lat": 17.4902813, "lon": 78.4064649}, {"type": "node", "id": 12952102473, "lat": 17.489913, "lon": 78.4063071}, {"type": "node", "id": 12952102474, "lat": 17.4896896, "lon": 78.406173}, {"type": "node", "id": 12952102477, "lat": 17.4895615, "lon": 78.4068929}, {"type": "node", "id": 12952102478, "lat": 17.4894234, "lon": 78.4067965}, {"type": "node", "id": 12952102479, "lat": 17.4899688, "lon": 78.4071671}, {"type": "way", "id": 238860802, "nodes": [2466596569, 6484944575, 2466596566, 12952102479, 12952102477, 12952102478, 2466596561, 12952102474, 12952102473, 2466596562, 12952102472, 12952102471, 12952102470, 12952102468, 2466596572, 4622047587, 12952102469, 2466596569], "tags": {"addr:district": "Hyderabad", "addr:full": "1- 6, Opposite Vivekananda Nagar Colony, Kukatpally", "addr:postcode": "500072", "addr:state": "Telangana", "amenity": "hospital", "healthcare": "hospital", "landuse": "Hospital Grounds", "name": "Ramdev Rao Hospital", "source": "OpenGovernmentData", "website": "http://www.sivanandarehab.org/ramdev.html"}}, {"type": "way", "id": 331631567, "nodes": [3387338154, 3387338155, 3387338156, 3504313626, 3387338157, 3387338154], "tags": {"amenity": "hospital", "check_date": "2024-03-16", "healthcare": "hospital", "name": "Apollo Hospital"}}, {"type": "way", "id": 355979902, "nodes": [3614774696, 3614774908, 3614774894, 3614774839, 3614774844, 3614774687, 3614774696], "tags": {"addr:district": "Hyderabad", "addr:full": "Manovikas Nagar, Secunderabad, Near Delhi Public School", "addr:postcode": "500009", "addr:state": "Telangana", "addr:subdistrict": "Secunderabad", "amenity": "hospital", "building": "yes", "contact:phone": "04027753385", "health_facility:type": "Others", "healthcare": "centre", "name": "Southern Regional Centre of Ali Yavar Jung National Institute for the Hearing Handicapped (AYJNIHH)", "source": "OpenGovernmentData"}}, {"type": "way", "id": 849386241, "nodes": [7924536681, 7924536680, 3523097906, 7924536679, 7924536681], "tags": {"addr:city": "Hyderabad", "addr:full": "Opp. METRO PILLAR NO. KPH 28, KUKATPALLY MAIN ROAD", "addr:postcode": "500072", "addr:state": "Telangana", "addr:street": "Opp. Metro Pillar No:A-782, Kukatpally Main Road, NH65, Kukatpally, Hyderabad, Telangana 500072", "amenity": "hospital", "contact:phone": "040 23050960;040 23050961", "name": "Aakar Asha Hospital", "operator:type": "private", "source": "OpenGovernmentData", "website": "https://www.aakarasha.org"}}, {"type": "way", "id": 878105762, "nodes": [8169752560, 8169752559, 8169752558, 8169752557, 8169752556, 2742570665, 8169752555, 8169752560], "tags": {"addr:district": "Hyderabad", "addr:full": "Gajularamaram Road, Shapur Nagar", "addr:postcode": "500055", "addr:state": "Telangana", "amenity": "hospital", "emergency": "yes", "medical_system": "Allopathic", "name": "Usha Mullapudi Cardiac Centre", "operator:type": "private", "source": "OpenGovernmentData"}}, {"type": "way", "id": 879583475, "nodes": [8182514344, 8182514343, 7117631786, 8182514342, 8182514344], "tags": {"amenity": "hospital", "name": "ESI Hospital"}}, {"type": "way", "id": 1123874129, "nodes": [10277933502, 10277933503, 10277933504, 10277933505, 10277933506, 10277933502], "tags": {"amenity": "hospital", "healthcare": "hospital", "name": "Ragi hospital"}}]}