{"version": 0.6, "generator": "Overpass API 0.7.62.8 e802775f", "osm3s": {"timestamp_osm_base": "2026-01-11T13:17:30Z", "copyright": "The data included in this document is from www.openstreetmap.org. The data is made available under ODbL."}, "elements": [{"type": "node", "id": 308586608, "lat": 17.4116226, "lon": 78.5181614, "tags": {"internet_access": "no", "name": "Jamai Osmania", "name:te": "\u0c1c\u0c3e\u0c2e\u0c48 \u0c09\u0c38\u0c4d\u0c2e\u0c3e\u0c28\u0c3f\u0c2f\u0c3e", "name:ur": "\u062c\u0627\u0645\u0639\u06c1 \u0639\u062b\u0645\u0627\u0646\u06cc\u06c1", "network": "IR", "operator": "SCR", "platforms": "2", "public_transport": "halt", "railway": "halt", "ref": "JOO", "train": "yes", "wikidata": "Q6146443", "wikipedia": "en:Jamia Osmania railway station"}}, {"type": "node", "id": 308586614, "lat": 17.417977, "lon": 78.5200383, "tags": {"internet_access": "no", "name": "Arts College", "name:te": "\u0c06\u0c30\u0c4d\u0c1f\u0c4d\u0c38\u0c4d \u0c15\u0c3e\u0c32\u0c47\u0c1c\u0c4d", "network": "IR", "operator": "SCR", "platforms": "2", "public_transport": "halt", "railway": "halt", "ref": "ATC", "train": "yes", "wikidata": "Q4801441", "wikipedia": "en:Arts College railway station"}}, {"type": "node", "id": 308586674, "lat": 17.4408124, "lon": 78.5247765, "tags": {"internet_access": "no", "name": "Lalaguda Gate", "network": "IR", "operator": "SCR", "public_transport": "halt", "railway": "halt", "ref": "LGDH", "train": "yes", "wikidata": "Q16938297", "wikipedia": "en:Lallaguda railway station"}}, {"type": "node", "id": 308937020, "lat": 17.4407394, "lon": 78.5506697, "tags": {"internet_access": "no", "name": "Moula Ali", "name:fa": "\u0645\u0648\u0644\u0627 \u0639\u0644\u06cc", "name:te": "\u0c2e\u0c4c\u0c32\u0c3e \u0c05\u0c32\u0c3f", "name:ur": "\u0645\u0648\u0644\u0627 \u0639\u0644\u06cc", "network": "IR", "operator": "SCR", "public_transport": "station", "railway": "station", "ref": "MLY", "train": "yes", "wikidata": "Q62004881", "wikipedia": "en:Moula Ali railway station"}}, {"type": "node", "id": 324858173, "lat": 17.4263175, "lon": 78.5313258, "tags": {"amenity": "bus_station", "bus": "yes", "highway": "bus_stop", "name": "Tarnaka Bus Stop", "public_transport": "station"}}, {"type": "node", "id": 355690053, "lat": 17.4106114, "lon": 78.5180213}, {"type": "node", "id": 355690055, "lat": 17.4113069, "lon": 78.5181881}, {"type": "node", "id": 355690056, "lat": 17.4130034, "lon": 78.5185949}, {"type": "node", "id": 355690061, "lat": 17.4105938, "lon": 78.518092}, {"type": "node", "id": 355690064, "lat": 17.4129184, "lon": 78.5186478}, {"type": "node", "id": 359998894, "lat": 17.4337667, "lon": 78.5040002}, {"type": "node", "id": 634123581, "lat": 17.4107475, "lon": 78.5075901, "tags": {"bus": "yes", "highway": "bus_stop", "name": "Ramnagar Cross Roads Bus Stop", "public_transport": "platform"}}, {"type": "node", "id": 634132021, "lat": 17.4018362, "lon": 78.5108121, "tags": {"internet_access": "no", "name": "Vidyanagar", "network": "IR", "operator": "SCR", "platforms": "2", "public_transport": "halt", "railway": "halt", "ref": "VAR", "train": "yes", "wikidata": "Q7928208", "wikipedia": "en:Vidyanagar railway station"}}, {"type": "node", "id": 817353604, "lat": 17.4351205, "lon": 78.5142111, "tags": {"bus": "yes", "highway": "bus_stop", "public_transport": "platform"}}, {"type": "node", "id": 817354636, "lat": 17.434104, "lon": 78.520881, "tags": {"bus": "yes", "highway": "bus_stop", "name": "\u0c2e\u0c46\u0c1f\u0c4d\u0c1f\u0c41\u0c17\u0c41\u0c21", "public_transport": "platform"}}, {"type": "node", "id": 886347465, "lat": 17.4388713, "lon": 78.5047987, "tags": {"bus": "yes", "highway": "bus_stop", "name": "Keyes High School", "public_transport": "platform", "shelter": "yes"}}, {"type": "node", "id": 886347477, "lat": 17.4390044, "lon": 78.5048952, "tags": {"bus": "yes", "description": "Airport Shuttle Terminus", "highway": "bus_stop", "name": "Airport Liner", "public_transport": "platform"}}, {"type": "node", "id": 1435327658, "lat": 17.4483438, "lon": 78.5289727, "tags": {"internet_access": "no", "name": "Malkajgiri", "name:te": "\u0c2e\u0c32\u0c4d\u0c15\u0c3e\u0c1c\u0c3f\u0c17\u0c3f\u0c30\u0c3f", "name:ur": "\u0645\u0644\u06a9\u0627 \u062c\u06af\u0631\u06cc", "network": "IR", "operator": "SCR", "public_transport": "station", "railway": "station", "ref": "MJF", "train": "yes", "wikidata": "Q6743861", "wikipedia": "en:Malkajgiri railway station"}}, {"type": "node", "id": 1435327660, "lat": 17.4559393, "lon": 78.5314333, "tags": {"internet_access": "no", "name": "Dayanand Nagar", "network": "IR", "operator": "SCR", "public_transport": "halt", "railway": "halt", "ref": "DYE", "train": "yes", "wikidata": "Q5243054"}}, {"type": "node", "id": 1598136849, "lat": 17.3685468, "lon": 78.5329092, "tags": {"bus": "yes", "highway": "bus_stop", "name": "Chaitanyapuri Bus Stop", "public_transport": "platform", "shelter": "yes"}}, {"type": "node", "id": 1779502577, "lat": 17.4428937, "lon": 78.5039242, "tags": {"bench": "yes", "bus": "yes", "highway": "bus_stop", "public_transport": "platform", "shelter": "yes"}}, {"type": "node", "id": 1779552114, "lat": 17.4366218, "lon": 78.5195776, "tags": {"bus": "yes", "highway": "bus_stop", "public_transport": "platform"}}, {"type": "node", "id": 1974699686, "lat": 17.4585975, "lon": 78.6066056, "tags": {"internet_access": "no", "name": "Charlapalli", "name:te": "\u0c1a\u0c30\u0c4d\u0c32\u0c2a\u0c32\u0c4d\u0c32\u0c3f", "name:ur": "\u0686\u0631\u0644\u06c1 \u067e\u0644\u06cc", "network": "IR", "operator": "SCR", "public_transport": "station", "railway": "station", "ref": "CHZ", "train": "yes", "wikidata": "Q59326703"}}, {"type": "node", "id": 2084119296, "lat": 17.4170924, "lon": 78.5196749}, {"type": "node", "id": 2084119297, "lat": 17.4271151, "lon": 78.5206417}, {"type": "node", "id": 2084119301, "lat": 17.4281607, "lon": 78.5195217}, {"type": "node", "id": 2084119302, "lat": 17.4272381, "lon": 78.5203127}, {"type": "node", "id": 2084119303, "lat": 17.4270321, "lon": 78.5204951}, {"type": "node", "id": 2084119304, "lat": 17.4272947, "lon": 78.5207231, "tags": {"alt_name": "Sitaphal Mandi", "internet_access": "no", "name": "Sitaphalmandi", "name:te": "\u0c38\u0c40\u0c24\u0c3e\u0c2b\u0c32\u0c4d\u200c\u0c2e\u0c02\u0c21\u0c3f", "name:ur": "\u0633\u06cc\u062a\u0627 \u067e\u06be\u0644 \u0645\u0646\u0688\u06cc", "network": "IR", "operator": "SCR", "public_transport": "station", "railway": "station", "ref": "STPD", "train": "yes", "wikidata": "Q7531662", "wikipedia": "en:Sitaphalmandi railway station"}}, {"type": "node", "id": 2084119305, "lat": 17.4270256, "lon": 78.5204775}, {"type": "node", "id": 2084119306, "lat": 17.4273246, "lon": 78.5203044}, {"type": "node", "id": 2084119307, "lat": 17.4200688, "lon": 78.5202471}, {"type": "node", "id": 2084119308, "lat": 17.4288778, "lon": 78.5189955}, {"type": "node", "id": 2084119309, "lat": 17.4284183, "lon": 78.519656}, {"type": "node", "id": 2084119310, "lat": 17.4170793, "lon": 78.5197346}, {"type": "node", "id": 2084119311, "lat": 17.4274813, "lon": 78.520193}, {"type": "node", "id": 2084119313, "lat": 17.4278642, "lon": 78.5198811}, {"type": "node", "id": 2084119314, "lat": 17.4199668, "lon": 78.5203647}, {"type": "node", "id": 2084119316, "lat": 17.4171481, "lon": 78.5196141}, {"type": "node", "id": 2084119319, "lat": 17.4285873, "lon": 78.519133}, {"type": "node", "id": 2084119321, "lat": 17.4284788, "lon": 78.5192398}, {"type": "node", "id": 2084119323, "lat": 17.4199539, "lon": 78.5204238}, {"type": "node", "id": 2084119324, "lat": 17.4171626, "lon": 78.5195476}, {"type": "node", "id": 2084119325, "lat": 17.4285896, "lon": 78.5194597}, {"type": "node", "id": 2084119327, "lat": 17.4273051, "lon": 78.5205569}, {"type": "node", "id": 2084119328, "lat": 17.42819, "lon": 78.5195737}, {"type": "node", "id": 2084119329, "lat": 17.4270824, "lon": 78.5205767}, {"type": "node", "id": 2084119330, "lat": 17.4276601, "lon": 78.5199332}, {"type": "node", "id": 2084119331, "lat": 17.4285996, "lon": 78.5191522}, {"type": "node", "id": 2084119333, "lat": 17.4271684, "lon": 78.520368}, {"type": "node", "id": 2084119335, "lat": 17.4272252, "lon": 78.5204887}, {"type": "node", "id": 2084119339, "lat": 17.4275368, "lon": 78.520287}, {"type": "node", "id": 2084119340, "lat": 17.4289007, "lon": 78.5190255}, {"type": "node", "id": 2084119341, "lat": 17.4287001, "lon": 78.5193084}, {"type": "node", "id": 2084119342, "lat": 17.4200543, "lon": 78.5203131}, {"type": "node", "id": 2084119344, "lat": 17.4279652, "lon": 78.5199284}, {"type": "node", "id": 2084119345, "lat": 17.4279955, "lon": 78.5196482}, {"type": "node", "id": 2084119346, "lat": 17.4276659, "lon": 78.520322}, {"type": "node", "id": 2084119347, "lat": 17.4281756, "lon": 78.5197344}, {"type": "node", "id": 2084119348, "lat": 17.4280412, "lon": 78.5200346}, {"type": "node", "id": 2183029318, "lat": 17.3696562, "lon": 78.516472, "tags": {"alt_name": "TV Tower", "bus": "yes", "highway": "bus_stop", "name": "Moosarambagh", "public_transport": "platform"}}, {"type": "node", "id": 2183029321, "lat": 17.3729311, "lon": 78.5055031, "tags": {"bus": "yes", "highway": "bus_stop", "name": "Chermas", "public_transport": "platform"}}, {"type": "node", "id": 2183029322, "lat": 17.3687814, "lon": 78.5240908, "tags": {"bus": "yes", "highway": "bus_stop", "name": "Dilsukhnagar", "public_transport": "platform"}}, {"type": "node", "id": 2183029324, "lat": 17.3486646, "lon": 78.5490541, "tags": {"bus": "yes", "highway": "bus_stop", "name": "LB Nagar City Bus Stop", "public_transport": "platform"}}, {"type": "node", "id": 2183029325, "lat": 17.3684307, "lon": 78.5234283, "tags": {"bus": "yes", "highway": "bus_stop", "name": "Dilsukhnagar", "public_transport": "platform"}}, {"type": "node", "id": 2183029333, "lat": 17.3682899, "lon": 78.5302921, "tags": {"bus": "yes", "fixme": "name", "highway": "bus_stop", "name": "Chaitanyapuri", "operator": "APSRTC Hyderabad", "public_transport": "platform", "shelter": "yes"}}, {"type": "node", "id": 2183029334, "lat": 17.3687195, "lon": 78.5371176, "tags": {"bus": "yes", "fixme": "name", "highway": "bus_stop", "name": "Fruit Market Bus Stop", "public_transport": "platform", "shelter": "yes"}}, {"type": "node", "id": 2183029335, "lat": 17.3743569, "lon": 78.5032335, "tags": {"alt_name": "Chermas", "bus": "yes", "highway": "bus_stop", "name": "Malakpet Market", "public_transport": "platform"}}, {"type": "node", "id": 2183029337, "lat": 17.3684129, "lon": 78.5245602, "tags": {"bus": "yes", "highway": "bus_stop", "name": "Dilsukhnagar", "public_transport": "platform"}}, {"type": "node", "id": 2183029341, "lat": 17.3700425, "lon": 78.5139933, "tags": {"bus": "yes", "fixme": "name", "highway": "bus_stop", "public_transport": "platform"}}, {"type": "node", "id": 2199508157, "lat": 17.3724345, "lon": 78.5092099, "tags": {"alt_name": "Malakpet Super Bazaar", "bus": "yes", "highway": "bus_stop", "name": "Super Bazaar", "public_transport": "platform"}}, {"type": "node", "id": 2212573644, "lat": 17.4332387, "lon": 78.5028861, "tags": {"name": "Secunderabad Junction", "name:hi": "\u0938\u093f\u0915\u0902\u0926\u0930\u093e\u092c\u093e\u0926 \u091c\u0902\u0915\u094d\u0936\u0928", "name:kn": "\u0cb8\u0cbf\u0c95\u0c82\u0ca6\u0cb0\u0cbe\u0cac\u0cbe\u0ca6\u0ccd \u0c9c\u0c82\u0c95\u0ccd\u0cb7\u0ca8\u0ccd", "name:ml": "\u0d38\u0d46\u0d15\u0d4d\u0d15\u0d28\u0d4d\u0d24\u0d30\u0d3e\u0d2c\u0d3e\u0d26\u0d4d \u0d1c\u0d02\u0d17\u0d4d\u0d37\u0d7b", "name:ta": "\u0b9a\u0bc6\u0b95\u0ba8\u0bcd\u0ba4\u0bbf\u0bb0\u0bbe\u0baa\u0bbe\u0ba4\u0bcd \u0b9a\u0ba8\u0bcd\u0ba4\u0bbf\u0baa\u0bcd\u0baa\u0bc1", "name:te": "\u0c38\u0c3f\u0c15\u0c3f\u0c02\u0c26\u0c4d\u0c30\u0c3e\u0c2c\u0c3e\u0c26\u0c4d \u0c1c\u0c02\u0c15\u0c4d\u0c37\u0c28\u0c4d", "name:ur": "\u0633\u06a9\u0646\u062f\u0631\u0622\u0628\u0627\u062f \u062c\u0646\u06a9\u0634\u0646", "public_transport": "stop_position", "railway": "stop", "ref": "7", "train": "yes"}}, {"type": "node", "id": 2212573646, "lat": 17.433424, "lon": 78.5028185, "tags": {"name": "Secunderabad Junction", "name:hi": "\u0938\u093f\u0915\u0902\u0926\u0930\u093e\u092c\u093e\u0926 \u091c\u0902\u0915\u094d\u0936\u0928", "name:kn": "\u0cb8\u0cbf\u0c95\u0c82\u0ca6\u0cb0\u0cbe\u0cac\u0cbe\u0ca6\u0ccd \u0c9c\u0c82\u0c95\u0ccd\u0cb7\u0ca8\u0ccd", "name:ml": "\u0d38\u0d46\u0d15\u0d4d\u0d15\u0d28\u0d4d\u0d24\u0d30\u0d3e\u0d2c\u0d3e\u0d26\u0d4d \u0d1c\u0d02\u0d17\u0d4d\u0d37\u0d7b", "name:ta": "\u0b9a\u0bc6\u0b95\u0ba8\u0bcd\u0ba4\u0bbf\u0bb0\u0bbe\u0baa\u0bbe\u0ba4\u0bcd \u0b9a\u0ba8\u0bcd\u0ba4\u0bbf\u0baa\u0bcd\u0baa\u0bc1", "name:te": "\u0c38\u0c3f\u0c15\u0c3f\u0c02\u0c26\u0c4d\u0c30\u0c3e\u0c2c\u0c3e\u0c26\u0c4d \u0c1c\u0c02\u0c15\u0c4d\u0c37\u0c28\u0c4d", "name:ur": "\u0633\u06a9\u0646\u062f\u0631\u0622\u0628\u0627\u062f \u062c\u0646\u06a9\u0634\u0646", "public_transport": "stop_position", "railway": "stop", "ref": "5", "train": "yes"}}, {"type": "node", "id": 2212573685, "lat": 17.4333878, "lon": 78.5028476, "tags": {"name": "Secunderabad Junction", "name:hi": "\u0938\u093f\u0915\u0902\u0926\u0930\u093e\u092c\u093e\u0926 \u091c\u0902\u0915\u094d\u0936\u0928", "name:kn": "\u0cb8\u0cbf\u0c95\u0c82\u0ca6\u0cb0\u0cbe\u0cac\u0cbe\u0ca6\u0ccd \u0c9c\u0c82\u0c95\u0ccd\u0cb7\u0ca8\u0ccd", "name:ml": "\u0d38\u0d46\u0d15\u0d4d\u0d15\u0d28\u0d4d\u0d24\u0d30\u0d3e\u0d2c\u0d3e\u0d26\u0d4d \u0d1c\u0d02\u0d17\u0d4d\u0d37\u0d7b", "name:ta": "\u0b9a\u0bc6\u0b95\u0ba8\u0bcd\u0ba4\u0bbf\u0bb0\u0bbe\u0baa\u0bbe\u0ba4\u0bcd \u0b9a\u0ba8\u0bcd\u0ba4\u0bbf\u0baa\u0bcd\u0baa\u0bc1", "name:te": "\u0c38\u0c3f\u0c15\u0c3f\u0c02\u0c26\u0c4d\u0c30\u0c3e\u0c2c\u0c3e\u0c26\u0c4d \u0c1c\u0c02\u0c15\u0c4d\u0c37\u0c28\u0c4d", "name:ur": "\u0633\u06a9\u0646\u062f\u0631\u0622\u0628\u0627\u062f \u062c\u0646\u06a9\u0634\u0646", "public_transport": "stop_position", "railway": "stop", "ref": "6", "train": "yes"}}, {"type": "node", "id": 2212573687, "lat": 17.4330215, "lon": 78.502945, "tags": {"name": "Secunderabad Junction", "name:hi": "\u0938\u093f\u0915\u0902\u0926\u0930\u093e\u092c\u093e\u0926 \u091c\u0902\u0915\u094d\u0936\u0928", "name:kn": "\u0cb8\u0cbf\u0c95\u0c82\u0ca6\u0cb0\u0cbe\u0cac\u0cbe\u0ca6\u0ccd \u0c9c\u0c82\u0c95\u0ccd\u0cb7\u0ca8\u0ccd", "name:ml": "\u0d38\u0d46\u0d15\u0d4d\u0d15\u0d28\u0d4d\u0d24\u0d30\u0d3e\u0d2c\u0d3e\u0d26\u0d4d \u0d1c\u0d02\u0d17\u0d4d\u0d37\u0d7b", "name:ta": "\u0b9a\u0bc6\u0b95\u0ba8\u0bcd\u0ba4\u0bbf\u0bb0\u0bbe\u0baa\u0bbe\u0ba4\u0bcd \u0b9a\u0ba8\u0bcd\u0ba4\u0bbf\u0baa\u0bcd\u0baa\u0bc1", "name:te": "\u0c38\u0c3f\u0c15\u0c3f\u0c02\u0c26\u0c4d\u0c30\u0c3e\u0c2c\u0c3e\u0c26\u0c4d \u0c1c\u0c02\u0c15\u0c4d\u0c37\u0c28\u0c4d", "name:ur": "\u0633\u06a9\u0646\u062f\u0631\u0622\u0628\u0627\u062f \u062c\u0646\u06a9\u0634\u0646", "public_transport": "stop_position", "railway": "stop", "ref": "9", "train": "yes"}}, {"type": "node", "id": 2212573719, "lat": 17.4329748, "lon": 78.5029553, "tags": {"name": "Secunderabad Junction", "name:hi": "\u0938\u093f\u0915\u0902\u0926\u0930\u093e\u092c\u093e\u0926 \u091c\u0902\u0915\u094d\u0936\u0928", "name:kn": "\u0cb8\u0cbf\u0c95\u0c82\u0ca6\u0cb0\u0cbe\u0cac\u0cbe\u0ca6\u0ccd \u0c9c\u0c82\u0c95\u0ccd\u0cb7\u0ca8\u0ccd", "name:ml": "\u0d38\u0d46\u0d15\u0d4d\u0d15\u0d28\u0d4d\u0d24\u0d30\u0d3e\u0d2c\u0d3e\u0d26\u0d4d \u0d1c\u0d02\u0d17\u0d4d\u0d37\u0d7b", "name:ta": "\u0b9a\u0bc6\u0b95\u0ba8\u0bcd\u0ba4\u0bbf\u0bb0\u0bbe\u0baa\u0bbe\u0ba4\u0bcd \u0b9a\u0ba8\u0bcd\u0ba4\u0bbf\u0baa\u0bcd\u0baa\u0bc1", "name:te": "\u0c38\u0c3f\u0c15\u0c3f\u0c02\u0c26\u0c4d\u0c30\u0c3e\u0c2c\u0c3e\u0c26\u0c4d \u0c1c\u0c02\u0c15\u0c4d\u0c37\u0c28\u0c4d", "name:ur": "\u0633\u06a9\u0646\u062f\u0631\u0622\u0628\u0627\u062f \u062c\u0646\u06a9\u0634\u0646", "public_transport": "stop_position", "railway": "stop", "ref": "10", "train": "yes"}}, {"type": "node", "id": 2212573760, "lat": 17.4335955, "lon": 78.5027936, "tags": {"name": "Secunderabad Junction", "name:hi": "\u0938\u093f\u0915\u0902\u0926\u0930\u093e\u092c\u093e\u0926 \u091c\u0902\u0915\u094d\u0936\u0928", "name:kn": "\u0cb8\u0cbf\u0c95\u0c82\u0ca6\u0cb0\u0cbe\u0cac\u0cbe\u0ca6\u0ccd \u0c9c\u0c82\u0c95\u0ccd\u0cb7\u0ca8\u0ccd", "name:ml": "\u0d38\u0d46\u0d15\u0d4d\u0d15\u0d28\u0d4d\u0d24\u0d30\u0d3e\u0d2c\u0d3e\u0d26\u0d4d \u0d1c\u0d02\u0d17\u0d4d\u0d37\u0d7b", "name:ta": "\u0b9a\u0bc6\u0b95\u0ba8\u0bcd\u0ba4\u0bbf\u0bb0\u0bbe\u0baa\u0bbe\u0ba4\u0bcd \u0b9a\u0ba8\u0bcd\u0ba4\u0bbf\u0baa\u0bcd\u0baa\u0bc1", "name:te": "\u0c38\u0c3f\u0c15\u0c3f\u0c02\u0c26\u0c4d\u0c30\u0c3e\u0c2c\u0c3e\u0c26\u0c4d \u0c1c\u0c02\u0c15\u0c4d\u0c37\u0c28\u0c4d", "name:ur": "\u0633\u06a9\u0646\u062f\u0631\u0622\u0628\u0627\u062f \u062c\u0646\u06a9\u0634\u0646", "public_transport": "stop_position", "railway": "stop", "ref": "3", "train": "yes"}}, {"type": "node", "id": 2212573769, "lat": 17.4337432, "lon": 78.5027517, "tags": {"name": "Secunderabad Junction", "name:hi": "\u0938\u093f\u0915\u0902\u0926\u0930\u093e\u092c\u093e\u0926 \u091c\u0902\u0915\u094d\u0936\u0928", "name:kn": "\u0cb8\u0cbf\u0c95\u0c82\u0ca6\u0cb0\u0cbe\u0cac\u0cbe\u0ca6\u0ccd \u0c9c\u0c82\u0c95\u0ccd\u0cb7\u0ca8\u0ccd", "name:ml": "\u0d38\u0d46\u0d15\u0d4d\u0d15\u0d28\u0d4d\u0d24\u0d30\u0d3e\u0d2c\u0d3e\u0d26\u0d4d \u0d1c\u0d02\u0d17\u0d4d\u0d37\u0d7b", "name:ta": "\u0b9a\u0bc6\u0b95\u0ba8\u0bcd\u0ba4\u0bbf\u0bb0\u0bbe\u0baa\u0bbe\u0ba4\u0bcd \u0b9a\u0ba8\u0bcd\u0ba4\u0bbf\u0baa\u0bcd\u0baa\u0bc1", "name:te": "\u0c38\u0c3f\u0c15\u0c3f\u0c02\u0c26\u0c4d\u0c30\u0c3e\u0c2c\u0c3e\u0c26\u0c4d \u0c1c\u0c02\u0c15\u0c4d\u0c37\u0c28\u0c4d", "name:ur": "\u0633\u06a9\u0646\u062f\u0631\u0622\u0628\u0627\u062f \u062c\u0646\u06a9\u0634\u0646", "public_transport": "stop_position", "railway": "stop", "ref": "1", "train": "yes"}}, {"type": "node", "id": 2212573771, "lat": 17.4331516, "lon": 78.5029134, "tags": {"name": "Secunderabad Junction", "name:hi": "\u0938\u093f\u0915\u0902\u0926\u0930\u093e\u092c\u093e\u0926 \u091c\u0902\u0915\u094d\u0936\u0928", "name:kn": "\u0cb8\u0cbf\u0c95\u0c82\u0ca6\u0cb0\u0cbe\u0cac\u0cbe\u0ca6\u0ccd \u0c9c\u0c82\u0c95\u0ccd\u0cb7\u0ca8\u0ccd", "name:ml": "\u0d38\u0d46\u0d15\u0d4d\u0d15\u0d28\u0d4d\u0d24\u0d30\u0d3e\u0d2c\u0d3e\u0d26\u0d4d \u0d1c\u0d02\u0d17\u0d4d\u0d37\u0d7b", "name:ta": "\u0b9a\u0bc6\u0b95\u0ba8\u0bcd\u0ba4\u0bbf\u0bb0\u0bbe\u0baa\u0bbe\u0ba4\u0bcd \u0b9a\u0ba8\u0bcd\u0ba4\u0bbf\u0baa\u0bcd\u0baa\u0bc1", "name:te": "\u0c38\u0c3f\u0c15\u0c3f\u0c02\u0c26\u0c4d\u0c30\u0c3e\u0c2c\u0c3e\u0c26\u0c4d \u0c1c\u0c02\u0c15\u0c4d\u0c37\u0c28\u0c4d", "name:ur": "\u0633\u06a9\u0646\u062f\u0631\u0622\u0628\u0627\u062f \u062c\u0646\u06a9\u0634\u0646", "public_transport": "stop_position", "railway": "stop", "ref": "8", "train": "yes"}}, {"type": "node", "id": 2212573775, "lat": 17.4337186, "lon": 78.5027557, "tags": {"name": "Secunderabad Junction", "name:hi": "\u0938\u093f\u0915\u0902\u0926\u0930\u093e\u092c\u093e\u0926 \u091c\u0902\u0915\u094d\u0936\u0928", "name:kn": "\u0cb8\u0cbf\u0c95\u0c82\u0ca6\u0cb0\u0cbe\u0cac\u0cbe\u0ca6\u0ccd \u0c9c\u0c82\u0c95\u0ccd\u0cb7\u0ca8\u0ccd", "name:ml": "\u0d38\u0d46\u0d15\u0d4d\u0d15\u0d28\u0d4d\u0d24\u0d30\u0d3e\u0d2c\u0d3e\u0d26\u0d4d \u0d1c\u0d02\u0d17\u0d4d\u0d37\u0d7b", "name:ta": "\u0b9a\u0bc6\u0b95\u0ba8\u0bcd\u0ba4\u0bbf\u0bb0\u0bbe\u0baa\u0bbe\u0ba4\u0bcd \u0b9a\u0ba8\u0bcd\u0ba4\u0bbf\u0baa\u0bcd\u0baa\u0bc1", "name:te": "\u0c38\u0c3f\u0c15\u0c3f\u0c02\u0c26\u0c4d\u0c30\u0c3e\u0c2c\u0c3e\u0c26\u0c4d \u0c1c\u0c02\u0c15\u0c4d\u0c37\u0c28\u0c4d", "name:ur": "\u0633\u06a9\u0646\u062f\u0631\u0622\u0628\u0627\u062f \u062c\u0646\u06a9\u0634\u0646", "public_transport": "stop_position", "railway": "stop", "ref": "2", "train": "yes"}}, {"type": "node", "id": 2217960497, "lat": 17.3684433, "lon": 78.5228597, "tags": {"bus": "yes", "highway": "bus_stop", "name": "Dilsukhnagar", "public_transport": "platform"}}, {"type": "node", "id": 2412780245, "lat": 17.3714708, "lon": 78.5694911, "tags": {"bus": "yes", "highway": "bus_stop", "name": "Bandlaguda", "operator": "APSRTC", "public_transport": "platform", "shelter": "no"}}, {"type": "node", "id": 2422173009, "lat": 17.4000621, "lon": 78.5602104, "tags": {"name": "Uppal", "name:te": "\u0c09\u0c2a\u0c4d\u0c2a\u0c32\u0c4d", "network": "Hyderabad Metro", "note": "Contributors are requested to not edit the \"network\" and the \"operator\" tags. (2023/11/08)", "operator": "Hyderabad Metro Rail Limited", "public_transport": "stop_position", "railway": "stop", "subway": "yes"}}, {"type": "node", "id": 2422173048, "lat": 17.4201642, "lon": 78.5405282, "tags": {"name": "Habsiguda", "name:te": "\u0c39\u0c2c\u0c4d\u0c38\u0c40\u0c17\u0c42\u0c21", "network": "Hyderabad Metro", "note": "Contributors are requested to not edit the \"network\" and the \"operator\" tags. (2023/11/08)", "operator": "Hyderabad Metro Rail Limited", "public_transport": "stop_position", "subway": "yes"}}, {"type": "node", "id": 2422173052, "lat": 17.4357106, "lon": 78.5054333, "tags": {"name": "Secunderabad East", "name:te": "\u0c38\u0c3f\u0c15\u0c3f\u0c02\u0c26\u0c4d\u0c30\u0c3e\u0c2c\u0c3e\u0c26\u0c4d \u0c24\u0c42\u0c30\u0c4d\u0c2a\u0c41", "network": "Hyderabad Metro", "note": "Contributors are requested to not edit the \"network\" and the \"operator\" tags. (2023/11/08)", "operator": "Hyderabad Metro Rail Limited", "public_transport": "stop_position", "railway": "stop", "subway": "yes"}}, {"type": "node", "id": 2422173068, "lat": 17.4355036, "lon": 78.5195573, "tags": {"name": "Mettuguda", "name:te": "\u0c2e\u0c46\u0c1f\u0c4d\u0c1f\u0c41\u0c17\u0c42\u0c21", "network": "Hyderabad Metro", "note": "Contributors are requested to not edit the \"network\" and the \"operator\" tags. (2023/11/08)", "operator": "Hyderabad Metro Rail Limited", "public_transport": "stop_position", "railway": "stop", "subway": "yes", "wikidata": "Q83788029"}}, {"type": "node", "id": 2422173094, "lat": 17.4073799, "lon": 78.5542281, "tags": {"name": "Stadium", "name:te": "\u0c38\u0c4d\u0c1f\u0c47\u0c21\u0c3f\u0c2f\u0c02", "network": "Hyderabad Metro", "note": "Contributors are requested to not edit the \"network\" and the \"operator\" tags. (2023/11/08)", "operator": "Hyderabad Metro Rail Limited", "public_transport": "stop_position", "railway": "stop", "subway": "yes"}}, {"type": "node", "id": 2422173111, "lat": 17.4282733, "lon": 78.5284257, "tags": {"name": "Tarnaka", "name:te": "\u0c24\u0c3e\u0c30\u0c4d\u0c28\u0c3e\u0c15", "network": "Hyderabad Metro", "note": "Contributors are requested to not edit the \"network\" and the \"operator\" tags. (2023/11/08)", "operator": "Hyderabad Metro Rail Limited", "public_transport": "stop_position", "railway": "stop", "subway": "yes"}}, {"type": "node", "id": 2422173113, "lat": 17.4148047, "lon": 78.5463149, "tags": {"name": "NGRI", "name:te": "\u0c0e\u0c28\u0c4d.\u0c1c\u0c3f.\u0c06\u0c30\u0c4d.\u0c10", "network": "Hyderabad Metro", "note": "Contributors are requested to not edit the \"network\" and the \"operator\" tags. (2023/11/08)", "operator": "Hyderabad Metro Rail Limited", "public_transport": "stop_position", "subway": "yes"}}, {"type": "node", "id": 2422989005, "lat": 17.36831, "lon": 78.5361908, "tags": {"addr:city": "Hyderabad", "addr:city:ar": "\u062d\u064a\u062f\u0631 \u0622\u0628\u0627\u062f", "addr:city:ur": "\u062d\u06cc\u062f\u0631\u0622\u0628\u0627\u062f", "name": "Chaitanyapuri", "name:ml": "\u0d1a\u0d48\u0d24\u0d28\u0d4d\u0d2f\u0d2a\u0d41\u0d30\u0d3f", "name:te": "\u0c1b\u0c48\u0c24\u0c28\u0c4d\u0c2f\u0c2a\u0c41\u0c30\u0c3f", "network": "Hyderabad Metro", "note": "Contributors are requested to not edit the \"network\" and the \"operator\" tags. (2023/11/08)", "operator": "Hyderabad Metro Rail Limited", "public_transport": "stop_position", "railway": "stop", "subway": "yes", "wheelchair": "yes"}}, {"type": "node", "id": 2422989007, "lat": 17.3734454, "lon": 78.5031791, "tags": {"addr:city": "Hyderabad", "addr:city:ar": "\u062d\u064a\u062f\u0631 \u0622\u0628\u0627\u062f", "addr:city:ur": "\u062d\u06cc\u062f\u0631\u0622\u0628\u0627\u062f", "alt_name": "\u0645\u062d\u0628\u0648\u0628 \u06af\u0646\u062c", "name": "New Market", "name:ml": "\u0d28\u0d4d\u0d2f\u0d42\u0d2e\u0d3e\u0d7c\u0d15\u0d4d\u0d15\u0d31\u0d4d\u0d31\u0d4d", "name:te": "\u0c15\u0c4a\u0c24\u0c4d\u0c24 \u0c2e\u0c3e\u0c30\u0c4d\u0c15\u0c46\u0c1f\u0c4d", "name:ur": "\u0646\u0626\u06cc \u0645\u0627\u0631\u06a9\u06cc\u0679", "network": "Hyderabad Metro", "note": "Contributors are requested to not edit the \"network\" and the \"operator\" tags. (2023/11/08)", "operator": "Hyderabad Metro Rail Limited", "public_transport": "stop_position", "public_transport:version": "2", "railway": "stop", "subway": "yes"}}, {"type": "node", "id": 2422989133, "lat": 17.3618565, "lon": 78.5439622, "tags": {"addr:city": "Hyderabad", "addr:city:ar": "\u062d\u064a\u062f\u0631 \u0622\u0628\u0627\u062f", "addr:city:ur": "\u062d\u06cc\u062f\u0631\u0622\u0628\u0627\u062f", "name": "Victoria Memorial", "name:ml": "\u0d35\u0d3f\u0d15\u0d4d\u0d1f\u0d4b\u0d31\u0d3f\u0d2f \u0d2e\u0d46\u0d2e\u0d4d\u0d2e\u0d4b\u0d31\u0d3f\u0d2f\u0d7d", "name:te": "\u0c35\u0c3f\u0c15\u0c4d\u0c1f\u0c4b\u0c30\u0c3f\u0c2f\u0c3e \u0c2e\u0c46\u0c2e\u0c4b\u0c30\u0c3f\u0c2f\u0c32\u0c4d", "network": "Hyderabad Metro", "note": "Contributors are requested to not edit the \"network\" and the \"operator\" tags. (2023/11/08)", "operator": "Hyderabad Metro Rail Limited", "public_transport": "stop_position", "public_transport:version": "2", "railway": "stop", "subway": "yes", "wheelchair": "yes"}}, {"type": "node", "id": 2422989167, "lat": 17.3685631, "lon": 78.5257183, "tags": {"addr:city": "Hyderabad", "addr:city:ar": "\u062d\u064a\u062f\u0631 \u0622\u0628\u0627\u062f", "addr:city:ur": "\u062d\u06cc\u062f\u0631\u0622\u0628\u0627\u062f", "name": "Dilsukh Nagar", "name:ml": "\u0d26\u0d3f\u0d7d\u0d38\u0d41\u0d16\u0d4d\u0d28\u0d17\u0d7c", "name:te": "\u0c26\u0c3f\u0c32\u0c4d\u200c\u0c38\u0c41\u0c16\u0c4d\u200c\u0c28\u0c17\u0c30\u0c4d", "network": "Hyderabad Metro", "note": "Contributors are requested to not edit the \"network\" and the \"operator\" tags. (2023/11/08)", "operator": "Hyderabad Metro Rail Limited", "public_transport": "stop_position", "public_transport:version": "2", "railway": "stop", "subway": "yes", "wheelchair": "yes"}}, {"type": "node", "id": 2445999527, "lat": 17.3765437, "lon": 78.5145697, "tags": {"bus": "yes", "highway": "bus_stop", "name": "Moosarambagh Bus Stop", "public_transport": "platform"}}, {"type": "node", "id": 2461282027, "lat": 17.4001075, "lon": 78.5095791}, {"type": "node", "id": 2461282028, "lat": 17.4001424, "lon": 78.5095326}, {"type": "node", "id": 2461282029, "lat": 17.4001867, "lon": 78.5094762}, {"type": "node", "id": 2461282030, "lat": 17.4002278, "lon": 78.5094298}, {"type": "node", "id": 2461282032, "lat": 17.4011017, "lon": 78.5104581}, {"type": "node", "id": 2461282036, "lat": 17.4013867, "lon": 78.5105344}, {"type": "node", "id": 2461282037, "lat": 17.401393, "lon": 78.5104614}, {"type": "node", "id": 2461282046, "lat": 17.4026662, "lon": 78.511906}, {"type": "node", "id": 2461282047, "lat": 17.4026979, "lon": 78.5118596}, {"type": "node", "id": 2461282048, "lat": 17.4027137, "lon": 78.51177}, {"type": "node", "id": 2461282050, "lat": 17.4027548, "lon": 78.5117136}, {"type": "node", "id": 2584772012, "lat": 17.4007724, "lon": 78.5604947, "tags": {"bus": "yes", "highway": "bus_stop", "name": "Uppal 'X' Roads", "note": "LB Nagar Side", "operator": "APSRTC Hyderabad", "public_transport": "platform", "shelter": "yes"}}, {"type": "node", "id": 2585318421, "lat": 17.4013224, "lon": 78.5596644, "tags": {"bus": "yes", "highway": "bus_stop", "name": "Uppal Circle", "public_transport": "platform", "shelter": "no"}}, {"type": "node", "id": 2706868235, "lat": 17.3631643, "lon": 78.5305888}, {"type": "node", "id": 2706868237, "lat": 17.3628828, "lon": 78.5305134}, {"type": "node", "id": 2706868239, "lat": 17.3629234, "lon": 78.5303472}, {"type": "node", "id": 3462997820, "lat": 17.4019813, "lon": 78.5112642, "tags": {"entrance": "yes"}}, {"type": "node", "id": 3624506988, "lat": 17.4334975, "lon": 78.5010492}, {"type": "node", "id": 3624714864, "lat": 17.3746373, "lon": 78.5606156, "tags": {"bus": "yes", "highway": "bus_stop", "operator": "APSRTC Hyderabad", "public_transport": "platform"}}, {"type": "node", "id": 3782524808, "lat": 17.4187247, "lon": 78.5200434, "tags": {"name": "Arts College", "public_transport": "stop_position", "railway": "stop", "ref": "2", "train": "yes"}}, {"type": "node", "id": 3782524851, "lat": 17.4271792, "lon": 78.5204004}, {"type": "node", "id": 3782524857, "lat": 17.4273412, "lon": 78.5202249}, {"type": "node", "id": 3782524859, "lat": 17.4273704, "lon": 78.5203968}, {"type": "node", "id": 3782524860, "lat": 17.42748, "lon": 78.5204532}, {"type": "node", "id": 3782524865, "lat": 17.4276895, "lon": 78.5200356}, {"type": "node", "id": 3782524868, "lat": 17.4277995, "lon": 78.5200782}, {"type": "node", "id": 3782524870, "lat": 17.4278269, "lon": 78.5197837}, {"type": "node", "id": 3782524871, "lat": 17.4278378, "lon": 78.5201953}, {"type": "node", "id": 3782524873, "lat": 17.4280183, "lon": 78.5198369, "tags": {"name": "Sitafalmandi", "public_transport": "stop_position", "ref": "3", "train": "yes"}}, {"type": "node", "id": 3782524878, "lat": 17.4282338, "lon": 78.5198539}, {"type": "node", "id": 3782524881, "lat": 17.4282992, "lon": 78.5194701}, {"type": "node", "id": 3782524883, "lat": 17.4283299, "lon": 78.5195776}, {"type": "node", "id": 3782524885, "lat": 17.4283752, "lon": 78.5193366}, {"type": "node", "id": 3782525068, "lat": 17.440948, "lon": 78.5248854, "tags": {"name": "Lalaguda Gate", "public_transport": "stop_position", "railway": "stop", "train": "yes"}}, {"type": "node", "id": 4332315990, "lat": 17.349846, "lon": 78.5479412, "tags": {"addr:city": "Hyderabad", "addr:city:ar": "\u062d\u064a\u062f\u0631 \u0622\u0628\u0627\u062f", "addr:city:ur": "\u062d\u06cc\u062f\u0631\u0622\u0628\u0627\u062f", "name": "L. B. Nagar", "name:ml": "\u0d0e\u0d7d \u0d2c\u0d3f \u0d28\u0d17\u0d7c", "name:te": "\u0c0e\u0c32\u0c4d.\u0c2c\u0c3f. \u0c28\u0c17\u0c30\u0c4d", "network": "Hyderabad Metro", "note": "Contributors are requested to not edit the \"network\" and the \"operator\" tags. (2023/11/08)", "operator": "Hyderabad Metro Rail Limited", "public_transport": "stop_position", "public_transport:version": "2", "railway": "stop", "subway": "yes", "wheelchair": "yes"}}, {"type": "node", "id": 4382893291, "lat": 17.412183, "lon": 78.5856175, "tags": {"artwork_type": "statue", "bus": "yes", "highway": "bus_stop", "material": "metal", "name": "Boduppal NTR Statue;NTR Statue", "name:en": "Boduppal NTR Statue", "public_transport": "platform", "tourism": "artwork"}}, {"type": "node", "id": 4791192809, "lat": 17.3792607, "lon": 78.5724297, "tags": {"bus": "yes", "highway": "bus_stop", "name": "Jaipuri Last bus stop", "public_transport": "platform"}}, {"type": "node", "id": 4914586461, "lat": 17.4339505, "lon": 78.5029034}, {"type": "node", "id": 4914586469, "lat": 17.432903, "lon": 78.4995306}, {"type": "node", "id": 4914586470, "lat": 17.4330353, "lon": 78.4998666}, {"type": "node", "id": 4914586471, "lat": 17.433162, "lon": 78.5002568}, {"type": "node", "id": 4914586472, "lat": 17.4338965, "lon": 78.5032496}, {"type": "node", "id": 4914586473, "lat": 17.4339688, "lon": 78.5036277}, {"type": "node", "id": 4914586474, "lat": 17.4340097, "lon": 78.5039638}, {"type": "node", "id": 4914586475, "lat": 17.4340973, "lon": 78.5039569}, {"type": "node", "id": 4914586476, "lat": 17.4340794, "lon": 78.5038121}, {"type": "node", "id": 4914586477, "lat": 17.4341254, "lon": 78.5037571}, {"type": "node", "id": 4914586478, "lat": 17.4339834, "lon": 78.5030383}, {"type": "node", "id": 4914586479, "lat": 17.4333564, "lon": 78.5004714}, {"type": "node", "id": 4914586480, "lat": 17.4331837, "lon": 78.4998988}, {"type": "node", "id": 4914586481, "lat": 17.4330131, "lon": 78.4995103}, {"type": "node", "id": 4914586482, "lat": 17.432896, "lon": 78.4993103}, {"type": "node", "id": 4914586483, "lat": 17.4328059, "lon": 78.4991612}, {"type": "node", "id": 4914586484, "lat": 17.4327612, "lon": 78.4991727}, {"type": "node", "id": 4914586485, "lat": 17.4327706, "lon": 78.4994358}, {"type": "node", "id": 4914586486, "lat": 17.4329044, "lon": 78.499775}, {"type": "node", "id": 4914586487, "lat": 17.4329779, "lon": 78.5000025}, {"type": "node", "id": 4914586488, "lat": 17.4330339, "lon": 78.5002064}, {"type": "node", "id": 4914586489, "lat": 17.4338096, "lon": 78.5032596}, {"type": "node", "id": 4914586490, "lat": 17.4338728, "lon": 78.5035537}, {"type": "node", "id": 4914586491, "lat": 17.4339023, "lon": 78.5037497}, {"type": "node", "id": 4914586492, "lat": 17.4339337, "lon": 78.5040074}, {"type": "node", "id": 4914586493, "lat": 17.4338991, "lon": 78.5040178}, {"type": "node", "id": 4914586494, "lat": 17.4338534, "lon": 78.5037796}, {"type": "node", "id": 4914586495, "lat": 17.4329263, "lon": 78.5000794}, {"type": "node", "id": 4914586496, "lat": 17.4328519, "lon": 78.4998081}, {"type": "node", "id": 4914586497, "lat": 17.4326041, "lon": 78.4990813}, {"type": "node", "id": 4914586498, "lat": 17.4326145, "lon": 78.4990765}, {"type": "node", "id": 5787788261, "lat": 17.3685227, "lon": 78.5257174, "tags": {"addr:city": "Hyderabad", "addr:city:ar": "\u062d\u064a\u062f\u0631 \u0622\u0628\u0627\u062f", "addr:city:ur": "\u062d\u06cc\u062f\u0631\u0622\u0628\u0627\u062f", "name": "Dilsukh Nagar", "name:ml": "\u0d26\u0d3f\u0d7d\u0d38\u0d41\u0d16\u0d4d\u0d28\u0d17\u0d7c", "name:te": "\u0c26\u0c3f\u0c32\u0c4d\u200c\u0c38\u0c41\u0c16\u0c4d\u200c\u0c28\u0c17\u0c30\u0c4d", "network": "Hyderabad Metro", "note": "Contributors are requested to not edit the \"network\" and the \"operator\" tags. (2023/11/08)", "operator": "Hyderabad Metro Rail Limited", "public_transport": "stop_position", "public_transport:version": "2", "railway": "stop", "subway": "yes", "wheelchair": "yes"}}, {"type": "node", "id": 5787788272, "lat": 17.3618406, "lon": 78.5438968, "tags": {"addr:city": "Hyderabad", "addr:city:ar": "\u062d\u064a\u062f\u0631 \u0622\u0628\u0627\u062f", "addr:city:ur": "\u062d\u06cc\u062f\u0631\u0622\u0628\u0627\u062f", "name": "Victoria Memorial", "name:ml": "\u0d35\u0d3f\u0d15\u0d4d\u0d1f\u0d4b\u0d31\u0d3f\u0d2f \u0d2e\u0d46\u0d2e\u0d4d\u0d2e\u0d4b\u0d31\u0d3f\u0d2f\u0d7d", "name:te": "\u0c35\u0c3f\u0c15\u0c4d\u0c1f\u0c4b\u0c30\u0c3f\u0c2f\u0c3e \u0c2e\u0c46\u0c2e\u0c4b\u0c30\u0c3f\u0c2f\u0c32\u0c4d", "network": "Hyderabad Metro", "note": "Contributors are requested to not edit the \"network\" and the \"operator\" tags. (2023/11/08)", "operator": "Hyderabad Metro Rail Limited", "public_transport": "stop_position", "public_transport:version": "2", "railway": "stop", "subway": "yes", "wheelchair": "yes"}}, {"type": "node", "id": 5787788275, "lat": 17.3498071, "lon": 78.5478875, "tags": {"addr:city": "Hyderabad", "addr:city:ar": "\u062d\u064a\u062f\u0631 \u0622\u0628\u0627\u062f", "addr:city:ur": "\u062d\u06cc\u062f\u0631\u0622\u0628\u0627\u062f", "name": "L. B. Nagar", "name:ml": "\u0d0e\u0d7d \u0d2c\u0d3f \u0d28\u0d17\u0d7c", "name:te": "\u0c0e\u0c32\u0c4d.\u0c2c\u0c3f. \u0c28\u0c17\u0c30\u0c4d", "network": "Hyderabad Metro", "note": "Contributors are requested to not edit the \"network\" and the \"operator\" tags. (2023/11/08)", "operator": "Hyderabad Metro Rail Limited", "public_transport": "stop_position", "public_transport:version": "2", "railway": "stop", "subway": "yes", "wheelchair": "yes"}}, {"type": "node", "id": 5787788972, "lat": 17.4000599, "lon": 78.560246, "tags": {"name": "Uppal", "name:te": "\u0c09\u0c2a\u0c4d\u0c2a\u0c32\u0c4d", "network": "Hyderabad Metro", "note": "Contributors are requested to not edit the \"network\" and the \"operator\" tags. (2023/11/08)", "operator": "Hyderabad Metro Rail Limited", "public_transport": "stop_position", "railway": "stop", "subway": "yes"}}, {"type": "node", "id": 5787788973, "lat": 17.407415, "lon": 78.5542726, "tags": {"name": "Stadium", "name:te": "\u0c38\u0c4d\u0c1f\u0c47\u0c21\u0c3f\u0c2f\u0c02", "network": "Hyderabad Metro", "note": "Contributors are requested to not edit the \"network\" and the \"operator\" tags. (2023/11/08)", "operator": "Hyderabad Metro Rail Limited", "public_transport": "stop_position", "railway": "stop", "subway": "yes"}}, {"type": "node", "id": 5787788974, "lat": 17.4148457, "lon": 78.5463534, "tags": {"name": "NGRI", "name:te": "\u0c0e\u0c28\u0c4d.\u0c1c\u0c3f.\u0c06\u0c30\u0c4d.\u0c10", "network": "Hyderabad Metro", "note": "Contributors are requested to not edit the \"network\" and the \"operator\" tags. (2023/11/08)", "operator": "Hyderabad Metro Rail Limited", "public_transport": "stop_position", "subway": "yes"}}, {"type": "node", "id": 5787788975, "lat": 17.4201948, "lon": 78.540572, "tags": {"name": "Habsiguda", "name:te": "\u0c39\u0c2c\u0c4d\u0c38\u0c40\u0c17\u0c42\u0c21", "network": "Hyderabad Metro", "note": "Contributors are requested to not edit the \"network\" and the \"operator\" tags. (2023/11/08)", "operator": "Hyderabad Metro Rail Limited", "public_transport": "stop_position", "subway": "yes"}}, {"type": "node", "id": 5787788976, "lat": 17.4283192, "lon": 78.5284576, "tags": {"name": "Tarnaka", "name:te": "\u0c24\u0c3e\u0c30\u0c4d\u0c28\u0c3e\u0c15", "network": "Hyderabad Metro", "note": "Contributors are requested to not edit the \"network\" and the \"operator\" tags. (2023/11/08)", "operator": "Hyderabad Metro Rail Limited", "public_transport": "stop_position", "railway": "stop", "subway": "yes"}}, {"type": "node", "id": 5787788977, "lat": 17.4355442, "lon": 78.5195963, "tags": {"name": "Mettuguda", "name:te": "\u0c2e\u0c46\u0c1f\u0c4d\u0c1f\u0c41\u0c17\u0c42\u0c21", "network": "Hyderabad Metro", "note": "Contributors are requested to not edit the \"network\" and the \"operator\" tags. (2023/11/08)", "operator": "Hyderabad Metro Rail Limited", "public_transport": "stop_position", "railway": "stop", "subway": "yes"}}, {"type": "node", "id": 5787788978, "lat": 17.4357255, "lon": 78.5054889, "tags": {"name": "Secunderabad East", "name:te": "\u0c38\u0c3f\u0c15\u0c3f\u0c02\u0c26\u0c4d\u0c30\u0c3e\u0c2c\u0c3e\u0c26\u0c4d \u0c24\u0c42\u0c30\u0c4d\u0c2a\u0c41", "network": "Hyderabad Metro", "note": "Contributors are requested to not edit the \"network\" and the \"operator\" tags. (2023/11/08)", "operator": "Hyderabad Metro Rail Limited", "public_transport": "stop_position", "railway": "stop", "subway": "yes"}}, {"type": "node", "id": 5941038061, "lat": 17.3914874, "lon": 78.558972}, {"type": "node", "id": 5941038062, "lat": 17.3902299, "lon": 78.5588884}, {"type": "node", "id": 5941038063, "lat": 17.3911251, "lon": 78.5589479}, {"type": "node", "id": 5941038064, "lat": 17.3912473, "lon": 78.558956}, {"type": "node", "id": 5941038071, "lat": 17.3904827, "lon": 78.5589052}, {"type": "node", "id": 5941038072, "lat": 17.3905607, "lon": 78.5589104}, {"type": "node", "id": 5941038081, "lat": 17.391491, "lon": 78.5589124}, {"type": "node", "id": 5941038082, "lat": 17.3902335, "lon": 78.5588288}, {"type": "node", "id": 5941038083, "lat": 17.3906668, "lon": 78.5587014}, {"type": "node", "id": 5941038084, "lat": 17.3905093, "lon": 78.5586909}, {"type": "node", "id": 5941038085, "lat": 17.3902429, "lon": 78.5586732}, {"type": "node", "id": 5941038086, "lat": 17.3902388, "lon": 78.558742}, {"type": "node", "id": 5941038087, "lat": 17.3914963, "lon": 78.5588256}, {"type": "node", "id": 5941038088, "lat": 17.3915004, "lon": 78.5587568}, {"type": "node", "id": 5941038089, "lat": 17.3913328, "lon": 78.5587457}, {"type": "node", "id": 5941038090, "lat": 17.3911611, "lon": 78.5587342}, {"type": "node", "id": 5961220665, "lat": 17.3910013, "lon": 78.5588151, "tags": {"name": "Nagole", "name:te": "\u0c28\u0c3e\u0c17\u0c4b\u0c32\u0c4d", "network": "Hyderabad Metro", "note": "Contributors are requested to not edit the \"network\" and the \"operator\" tags. (2023/11/08)", "operator": "Hyderabad Metro Rail Limited", "public_transport": "stop_position", "public_transport:version": "2", "subway": "yes"}}, {"type": "node", "id": 5993751682, "lat": 17.3706972, "lon": 78.5124795}, {"type": "node", "id": 5993751683, "lat": 17.3708739, "lon": 78.5125864}, {"type": "node", "id": 5993751684, "lat": 17.3714919, "lon": 78.5114646}, {"type": "node", "id": 5993752585, "lat": 17.3713151, "lon": 78.5113577}, {"type": "node", "id": 6283517747, "lat": 17.440854, "lon": 78.5249501, "tags": {"name": "Lalaguda Gate", "public_transport": "stop_position", "railway": "stop", "train": "yes"}}, {"type": "node", "id": 6369797515, "lat": 17.3902922, "lon": 78.5164631}, {"type": "node", "id": 6369797516, "lat": 17.3902935, "lon": 78.5164993}, {"type": "node", "id": 6369797517, "lat": 17.3902328, "lon": 78.5164978}, {"type": "node", "id": 6369797518, "lat": 17.3902341, "lon": 78.5164645}, {"type": "node", "id": 6371404750, "lat": 17.3597744, "lon": 78.5578073}, {"type": "node", "id": 6371404751, "lat": 17.3597297, "lon": 78.5578036}, {"type": "node", "id": 6371404752, "lat": 17.3597277, "lon": 78.557831}, {"type": "node", "id": 6371404753, "lat": 17.3597724, "lon": 78.5578347}, {"type": "node", "id": 6375001440, "lat": 17.3597568, "lon": 78.5578058}, {"type": "node", "id": 6375001441, "lat": 17.3597495, "lon": 78.5578329}, {"type": "node", "id": 6375001442, "lat": 17.3597589, "lon": 78.5578336}, {"type": "node", "id": 6375001443, "lat": 17.3597664, "lon": 78.5578066}, {"type": "node", "id": 6375006568, "lat": 17.3597503, "lon": 78.5578155, "tags": {"amenity": "bus_station", "bus": "yes", "name": "rajeevgandhi nagar", "public_transport": "stop_position"}}, {"type": "node", "id": 6375056793, "lat": 17.3600361, "lon": 78.5575549, "tags": {"amenity": "bus_station", "bus": "yes", "name": "rajeevgandhi nagar", "public_transport": "stop_position"}}, {"type": "node", "id": 6447168562, "lat": 17.3907683, "lon": 78.5588222, "tags": {"layer": "1", "name": "Nagole", "name:fa": "\u0646\u0627\u06af\u0648\u0644", "name:ml": "\u0d28\u0d3e\u0d17\u0d4b\u0d7d", "name:te": "\u0c28\u0c3e\u0c17\u0c4b\u0c32\u0c4d", "network": "Hyderabad Metro", "note": "Contributors are requested to not edit the \"network\" and the \"operator\" tags. (2023/11/08)", "operator": "Hyderabad Metro Rail Limited", "public_transport": "station", "railway": "station", "station": "subway", "subway": "yes", "wheelchair": "yes", "wikidata": "Q83377016"}}, {"type": "node", "id": 6447168563, "lat": 17.3905436, "lon": 78.5588274, "tags": {"name": "Nagole", "name:te": "\u0c28\u0c3e\u0c17\u0c4b\u0c32\u0c4d", "network": "Hyderabad Metro", "note": "Contributors are requested to not edit the \"network\" and the \"operator\" tags. (2023/11/08)", "operator": "Hyderabad Metro Rail Limited", "public_transport": "stop_position", "public_transport:version": "2", "subway": "yes"}}, {"type": "node", "id": 6570261860, "lat": 17.4230516, "lon": 78.5666056, "tags": {"bus": "yes", "highway": "bus_stop", "name": "Hemanagar Bus Stop", "operator": "APSRTC", "public_transport": "platform", "shelter": "yes"}}, {"type": "node", "id": 6624724909, "lat": 17.4187345, "lon": 78.5200045, "tags": {"name": "Arts College", "public_transport": "stop_position", "railway": "stop", "ref": "1", "train": "yes"}}, {"type": "node", "id": 6685486347, "lat": 17.4346769, "lon": 78.5047567, "tags": {"addr:city": "Secunderabad", "addr:postcode": "509001", "amenity": "bus_station", "bus": "yes", "name": "TSRTC BUS STAND , RATHIFILE ( SECUNDRABAD )", "network": "Secunderabad Railway Station", "operator": "TSRTC", "public_transport": "station"}}, {"type": "node", "id": 6685486358, "lat": 17.4295326, "lon": 78.5127952, "tags": {"bench": "yes", "bus": "yes", "highway": "bus_stop", "lit": "yes", "name": "Chilkalguda bus Stop", "network": "17,86J, 107JD", "operator": "TSRTC", "public_transport": "platform", "shelter": "yes", "surface": "paved"}}, {"type": "node", "id": 6685486367, "lat": 17.4252981, "lon": 78.5148611, "tags": {"bench": "yes", "bus": "yes", "highway": "bus_stop", "lit": "yes", "name": "Namalagundu Bus Stop", "network": "86J, 107J/D", "operator": "TSRTC", "public_transport": "platform", "shelter": "yes", "surface": "paved", "wheelchair": "no"}}, {"type": "node", "id": 6693360860, "lat": 17.4275784, "lon": 78.5174116, "tags": {"bench": "no", "bus": "yes", "highway": "bus_stop", "name": "Seethafalmandi Bus Stop", "network": "17,86J, 107JD", "operator": "TSRTC", "public_transport": "platform", "shelter": "no"}}, {"type": "node", "id": 6773898388, "lat": 17.4369415, "lon": 78.5052015, "tags": {"bus": "yes", "highway": "bus_stop", "name": "Secunderabad Uppal Bus Stop", "public_transport": "platform"}}, {"type": "node", "id": 6800005107, "lat": 17.3710873, "lon": 78.5119545, "tags": {"addr:city": "Hyderabad", "addr:city:ar": "\u062d\u064a\u062f\u0631 \u0622\u0628\u0627\u062f", "addr:city:ur": "\u062d\u06cc\u062f\u0631\u0622\u0628\u0627\u062f", "name": "Musarambagh", "name:ml": "\u0d2e\u0d42\u0d38\u0d3e\u0d30\u0d3e\u0d02\u0d2c\u0d3e\u0d17\u0d4d", "name:te": "\u0c2e\u0c42\u0c38\u0c3e\u0c30\u0c02\u0c2c\u0c3e\u0c17\u0c4d", "name:ur": "\u0645\u0648\u0633\u06cc\u0670 \u0631\u0627\u0645 \u0628\u0627\u063a", "network": "Hyderabad Metro", "note": "Contributors are requested to not edit the \"network\" and the \"operator\" tags. (2023/11/08)", "operator": "Hyderabad Metro Rail Limited", "public_transport": "stop_position", "public_transport:version": "2", "railway": "stop", "subway": "yes"}}, {"type": "node", "id": 6898477086, "lat": 17.3689527, "lon": 78.5250597, "tags": {"amenity": "bus_station", "bus": "yes", "name": "TSRTC BUS STAND , DILSHUKNAGAR", "operator": "TSRTC", "public_transport": "station", "source": "local knowledge", "wheelchair": "no"}}, {"type": "node", "id": 6934842239, "lat": 17.4420476, "lon": 78.5661125, "tags": {"bus": "yes", "departures_board": "no", "highway": "bus_stop", "name": "Janapriya Bus stop", "public_transport": "platform", "shelter": "yes"}}, {"type": "node", "id": 7015719470, "lat": 17.400035, "lon": 78.5599434, "tags": {"railway": "subway_entrance"}}, {"type": "node", "id": 7015719477, "lat": 17.4006752, "lon": 78.5599583, "tags": {"railway": "subway_entrance"}}, {"type": "node", "id": 7015780395, "lat": 17.4006386, "lon": 78.560423, "tags": {"railway": "subway_entrance"}}, {"type": "node", "id": 7015780403, "lat": 17.399804, "lon": 78.560385, "tags": {"highway": "elevator"}}, {"type": "node", "id": 7015780418, "lat": 17.3999824, "lon": 78.5603915, "tags": {"railway": "subway_entrance", "wheelchair": "yes"}}, {"type": "node", "id": 7015780421, "lat": 17.4000906, "lon": 78.5599398, "tags": {"highway": "elevator"}}, {"type": "node", "id": 7052069749, "lat": 17.3999384, "lon": 78.5601591, "tags": {"name": "Uppal", "name:fa": "\u0627\u067e\u0644", "name:ml": "\u0d09\u0d2a\u0d4d\u0d2a\u0d7d", "name:te": "\u0c09\u0c2a\u0c4d\u0c2a\u0c32\u0c4d", "network": "Hyderabad Metro", "note": "Contributors are requested to not edit the \"network\" and the \"operator\" tags. (2023/11/08)", "operator": "Hyderabad Metro Rail Limited", "public_transport": "station", "railway": "station", "ref": "OPL", "station": "subway", "subway": "yes", "wheelchair": "yes", "wikidata": "Q83407689", "wikipedia": "en:Uppal metro station"}}, {"type": "node", "id": 7052069752, "lat": 17.4074002, "lon": 78.5542531, "tags": {"name": "Stadium", "name:fa": "\u0648\u0631\u0632\u0634\u06af\u0627\u0647", "name:ml": "\u0d38\u0d4d\u0d31\u0d4d\u0d31\u0d47\u0d21\u0d3f\u0d2f\u0d02", "name:te": "\u0c38\u0c4d\u0c1f\u0c47\u0c21\u0c3f\u0c2f\u0c02", "network": "Hyderabad Metro", "note": "Contributors are requested to not edit the \"network\" and the \"operator\" tags. (2023/11/08)", "operator": "Hyderabad Metro Rail Limited", "public_transport": "station", "railway": "station", "station": "subway", "subway": "yes", "wheelchair": "yes"}}, {"type": "node", "id": 7052069753, "lat": 17.4148264, "lon": 78.5463345, "tags": {"name": "NGRI", "name:fa": "\u0627\u0646\u200c\u062c\u06cc\u200c\u0622\u0631\u200c\u0622\u06cc", "name:te": "\u0c0e\u0c28\u0c4d.\u0c1c\u0c3f.\u0c06\u0c30\u0c4d.\u0c10", "network": "Hyderabad Metro", "note": "Contributors are requested to not edit the \"network\" and the \"operator\" tags. (2023/11/08)", "operator": "Hyderabad Metro Rail Limited", "public_transport": "station", "railway": "station", "station": "subway", "subway": "yes", "wikidata": "Q83491622"}}, {"type": "node", "id": 7052069754, "lat": 17.42018, "lon": 78.540548, "tags": {"name": "Habsiguda", "name:fa": "\u0647\u0627\u0628\u0633\u06cc\u06af\u0648\u062f\u0627", "name:ml": "\u0d39\u0d2c\u0d4d\u0d38\u0d3f\u0d17\u0d41\u0d21", "name:te": "\u0c39\u0c2c\u0c4d\u0c38\u0c40\u0c17\u0c42\u0c21", "name:ur": "\u062d\u0628\u0634\u06cc \u06af\u0648\u0691\u06c1", "network": "Hyderabad Metro", "note": "Contributors are requested to not edit the \"network\" and the \"operator\" tags. (2023/11/08)", "operator": "Hyderabad Metro Rail Limited", "public_transport": "station", "railway": "station", "station": "subway", "subway": "yes", "wikidata": "Q58814861"}}, {"type": "node", "id": 7052069755, "lat": 17.4282965, "lon": 78.5284415, "tags": {"name": "Tarnaka", "name:fa": "\u062a\u0627\u0631\u0646\u0627\u06a9\u0627", "name:ml": "\u0d24\u0d7c\u0d23\u0d3e\u0d15", "name:te": "\u0c24\u0c3e\u0c30\u0c4d\u0c28\u0c3e\u0c15", "name:ur": "\u062a\u0627\u0631\u0646\u0627\u06a9\u0627", "network": "Hyderabad Metro", "note": "Contributors are requested to not edit the \"network\" and the \"operator\" tags. (2023/11/08)", "operator": "Hyderabad Metro Rail Limited", "public_transport": "station", "railway": "station", "station": "subway", "subway": "yes", "wikidata": "Q56701857"}}, {"type": "node", "id": 7052069756, "lat": 17.4355207, "lon": 78.5195754, "tags": {"name": "Mettuguda", "name:fa": "\u0645\u062a\u0648\u06af\u0648\u062f\u0627", "name:ml": "\u0d2e\u0d47\u0d1f\u0d4d\u0d1f\u0d41\u0d17\u0d41\u0d21", "name:te": "\u0c2e\u0c46\u0c1f\u0c4d\u0c1f\u0c41\u0c17\u0c42\u0c21", "name:ur": "\u0645\u06cc\u0679\u0648 \u06af\u0648\u0691\u06c1", "network": "Hyderabad Metro", "note": "Contributors are requested to not edit the \"network\" and the \"operator\" tags. (2023/11/08)", "operator": "Hyderabad Metro Rail Limited", "public_transport": "station", "railway": "station", "station": "subway", "subway": "yes", "wheelchair": "yes"}}, {"type": "node", "id": 7052069757, "lat": 17.4357184, "lon": 78.5054623, "tags": {"name": "Secunderabad East", "name:fa": "\u0633\u06a9\u0646\u062f\u0631\u0622\u0628\u0627\u062f \u0634\u0631\u0642\u06cc", "name:ml": "\u0d38\u0d46\u0d15\u0d4d\u0d15\u0d28\u0d4d\u0d26\u0d4d\u0d30\u0d3e\u0d2c\u0d3e\u0d26\u0d4d \u0d08\u0d38\u0d4d\u0d31\u0d4d\u0d31\u0d4d", "name:te": "\u0c38\u0c3f\u0c15\u0c3f\u0c02\u0c26\u0c4d\u0c30\u0c3e\u0c2c\u0c3e\u0c26\u0c4d \u0c08\u0c38\u0c4d\u0c1f\u0c4d", "name:ur": "\u0633\u06a9\u0646\u062f\u0631 \u0622\u0628\u0627\u062f \u0627\u06cc\u0633\u0679", "network": "Hyderabad Metro", "note": "Contributors are requested to not edit the \"network\" and the \"operator\" tags. (2023/11/08)", "operator": "Hyderabad Metro Rail Limited", "public_transport": "station", "railway": "station", "station": "subway", "subway": "yes", "wikidata": "Q58814860"}}, {"type": "node", "id": 7243975384, "lat": 17.371557, "lon": 78.5694429, "tags": {"bus": "yes", "highway": "bus_stop", "name": "Jaipuri colony bus stop", "public_transport": "platform"}}, {"type": "node", "id": 7244238197, "lat": 17.404087, "lon": 78.503738, "tags": {"bus": "yes", "highway": "bus_stop", "name": "VST Bus Stop", "public_transport": "platform"}}, {"type": "node", "id": 7244238208, "lat": 17.4090807, "lon": 78.5087684, "tags": {"bus": "yes", "highway": "bus_stop", "public_transport": "platform"}}, {"type": "node", "id": 7244243967, "lat": 17.4008542, "lon": 78.5080708, "tags": {"bus": "yes", "highway": "bus_stop", "name": "shanker mutt bus stop", "public_transport": "platform"}}, {"type": "node", "id": 7244267537, "lat": 17.409455, "lon": 78.5066988, "tags": {"bus": "yes", "highway": "bus_stop", "public_transport": "platform"}}, {"type": "node", "id": 7246509967, "lat": 17.3761325, "lon": 78.5569899, "tags": {"bus": "yes", "highway": "bus_stop", "name": "dsnr", "public_transport": "platform"}}, {"type": "node", "id": 7246509972, "lat": 17.3741149, "lon": 78.5585718, "tags": {"public_transport": "platform", "tram": "yes"}}, {"type": "node", "id": 7246815452, "lat": 17.3710728, "lon": 78.5119483, "tags": {"name": "Musarambagh", "name:fa": "\u0645\u0648\u0633\u06cc \u0631\u0627\u0645 \u0628\u0627\u063a", "name:te": "\u0c2e\u0c42\u0c38\u0c30\u0c02\u0c2c\u0c3e\u0c18\u0c4d", "name:ur": "\u0645\u0648\u0633\u06cc\u0670 \u0631\u0627\u0645 \u0628\u0627\u063a", "network": "Hyderabad Metro", "note": "Contributors are requested to not edit the \"network\" and the \"operator\" tags. (2023/11/08)", "operator": "Hyderabad Metro Rail Limited", "public_transport": "station", "railway": "station", "station": "subway", "subway": "yes", "wikidata": "Q81640785"}}, {"type": "node", "id": 7632809877, "lat": 17.4335786, "lon": 78.5033302}, {"type": "node", "id": 7632809878, "lat": 17.43364, "lon": 78.5033118}, {"type": "node", "id": 7632809882, "lat": 17.4333593, "lon": 78.5028511}, {"type": "node", "id": 7632809883, "lat": 17.4334486, "lon": 78.5028246}, {"type": "node", "id": 7632809884, "lat": 17.433516, "lon": 78.5028091}, {"type": "node", "id": 7632809885, "lat": 17.433615, "lon": 78.5027841}, {"type": "node", "id": 7632809893, "lat": 17.4332549, "lon": 78.5028818}, {"type": "node", "id": 7632809894, "lat": 17.4336887, "lon": 78.5027625}, {"type": "node", "id": 7632809895, "lat": 17.4332534, "lon": 78.5041521}, {"type": "node", "id": 7632809896, "lat": 17.4333129, "lon": 78.5043599}, {"type": "node", "id": 7632809897, "lat": 17.4333526, "lon": 78.5044914}, {"type": "node", "id": 7632809898, "lat": 17.4334102, "lon": 78.5046516}, {"type": "node", "id": 7632809899, "lat": 17.4334716, "lon": 78.5048032}, {"type": "node", "id": 7632809900, "lat": 17.433533, "lon": 78.50494}, {"type": "node", "id": 7632809901, "lat": 17.4334562, "lon": 78.5049802}, {"type": "node", "id": 7632809902, "lat": 17.4333385, "lon": 78.5047549}, {"type": "node", "id": 7632809903, "lat": 17.4332528, "lon": 78.5045323}, {"type": "node", "id": 7632809904, "lat": 17.4331863, "lon": 78.5042869}, {"type": "node", "id": 7632809905, "lat": 17.4321697, "lon": 78.5002756}, {"type": "node", "id": 7632809906, "lat": 17.4321448, "lon": 78.5001442}, {"type": "node", "id": 7632809907, "lat": 17.4321371, "lon": 78.5000362}, {"type": "node", "id": 7632809908, "lat": 17.4321345, "lon": 78.4998156}, {"type": "node", "id": 7632809909, "lat": 17.4321678, "lon": 78.4998129}, {"type": "node", "id": 7632809910, "lat": 17.432282, "lon": 78.4999718}, {"type": "node", "id": 7632809911, "lat": 17.4335087, "lon": 78.5044317}, {"type": "node", "id": 7632809912, "lat": 17.4335836, "lon": 78.50471}, {"type": "node", "id": 7632809913, "lat": 17.433661, "lon": 78.5049427}, {"type": "node", "id": 7632809914, "lat": 17.4336239, "lon": 78.5049614}, {"type": "node", "id": 7632809915, "lat": 17.4335317, "lon": 78.5047314}, {"type": "node", "id": 7632809916, "lat": 17.4334326, "lon": 78.5044592}, {"type": "node", "id": 7632809917, "lat": 17.4333532, "lon": 78.5041782}, {"type": "node", "id": 7632809918, "lat": 17.4332458, "lon": 78.5037792}, {"type": "node", "id": 7632809919, "lat": 17.4322279, "lon": 78.4997331}, {"type": "node", "id": 7632809920, "lat": 17.4321915, "lon": 78.49953}, {"type": "node", "id": 7632809921, "lat": 17.4321819, "lon": 78.4994703}, {"type": "node", "id": 7632809922, "lat": 17.4322701, "lon": 78.4994522}, {"type": "node", "id": 7632809924, "lat": 17.4326057, "lon": 78.499384}, {"type": "node", "id": 7632809925, "lat": 17.4326537, "lon": 78.4995452}, {"type": "node", "id": 7632809926, "lat": 17.4327431, "lon": 78.4998051}, {"type": "node", "id": 7632809927, "lat": 17.4328189, "lon": 78.5000388}, {"type": "node", "id": 7632809928, "lat": 17.4337789, "lon": 78.5038361}, {"type": "node", "id": 7632809929, "lat": 17.4338049, "lon": 78.5040216}, {"type": "node", "id": 7632809930, "lat": 17.4337907, "lon": 78.5040935}, {"type": "node", "id": 7632809931, "lat": 17.432706, "lon": 78.4999315}, {"type": "node", "id": 7632809932, "lat": 17.4326223, "lon": 78.4995569}, {"type": "node", "id": 7632809933, "lat": 17.4325448, "lon": 78.4992641}, {"type": "node", "id": 7632809934, "lat": 17.4325549, "lon": 78.4992493}, {"type": "node", "id": 7632809935, "lat": 17.4325675, "lon": 78.4992381}, {"type": "node", "id": 7632809936, "lat": 17.4324474, "lon": 78.4992819}, {"type": "node", "id": 7632809937, "lat": 17.4325488, "lon": 78.4995769}, {"type": "node", "id": 7632809938, "lat": 17.4326296, "lon": 78.4998868}, {"type": "node", "id": 7632809939, "lat": 17.4338684, "lon": 78.5049268}, {"type": "node", "id": 7632809940, "lat": 17.4338081, "lon": 78.5049775}, {"type": "node", "id": 7632809941, "lat": 17.4335548, "lon": 78.5040924}, {"type": "node", "id": 7632809942, "lat": 17.4323033, "lon": 78.4990519}, {"type": "node", "id": 7632809943, "lat": 17.4323633, "lon": 78.4990303}, {"type": "node", "id": 7635671943, "lat": 17.4416314, "lon": 78.5258947}, {"type": "node", "id": 7635671944, "lat": 17.4413352, "lon": 78.5255655}, {"type": "node", "id": 7635671945, "lat": 17.4411894, "lon": 78.5253878}, {"type": "node", "id": 7635671946, "lat": 17.4410128, "lon": 78.5251605}, {"type": "node", "id": 7635671947, "lat": 17.4405776, "lon": 78.5244778}, {"type": "node", "id": 7635671948, "lat": 17.440646, "lon": 78.5244318}, {"type": "node", "id": 7635671950, "lat": 17.4408593, "lon": 78.5249439}, {"type": "node", "id": 7635671951, "lat": 17.4406719, "lon": 78.5246475}, {"type": "node", "id": 7635671952, "lat": 17.4409341, "lon": 78.5248902}, {"type": "node", "id": 7635671955, "lat": 17.441073, "lon": 78.5251001}, {"type": "node", "id": 7635671956, "lat": 17.4413001, "lon": 78.5254099}, {"type": "node", "id": 7635671957, "lat": 17.4414984, "lon": 78.5256533}, {"type": "node", "id": 7635671958, "lat": 17.4416692, "lon": 78.5258579}, {"type": "node", "id": 7716269364, "lat": 17.4184052, "lon": 78.5845384, "tags": {"bus": "yes", "highway": "bus_stop", "name": "Boduppal Ambedkar statue", "name:en": "Boduppal Ambedkar statue", "public_transport": "platform"}}, {"type": "node", "id": 7716299123, "lat": 17.4183442, "lon": 78.5845955, "tags": {"bus": "yes", "highway": "bus_stop", "name": "Boduppal Ambedkar statue", "name:en": "Boduppal Ambedkar statue", "public_transport": "platform"}}, {"type": "node", "id": 7860889433, "lat": 17.4010715, "lon": 78.5605252}, {"type": "node", "id": 7860889434, "lat": 17.4010634, "lon": 78.5605748}, {"type": "node", "id": 7860889435, "lat": 17.4009637, "lon": 78.5605571}, {"type": "node", "id": 7860889436, "lat": 17.4009718, "lon": 78.5605074}, {"type": "node", "id": 7860889437, "lat": 17.4009, "lon": 78.5604756}, {"type": "node", "id": 7860889438, "lat": 17.4008965, "lon": 78.5605269}, {"type": "node", "id": 7860889439, "lat": 17.4008116, "lon": 78.5605207}, {"type": "node", "id": 7860889440, "lat": 17.400815, "lon": 78.5604693}, {"type": "node", "id": 8111142847, "lat": 17.414842, "lon": 78.5710841, "tags": {"bus": "yes", "highway": "bus_stop", "name": "Balaji hills colony bustop", "public_transport": "platform"}}, {"type": "node", "id": 8111160728, "lat": 17.4019433, "lon": 78.560849, "tags": {"bus": "yes", "highway": "bus_stop", "name": "uppal - kushaiguda", "public_transport": "platform"}}, {"type": "node", "id": 8111160729, "lat": 17.4015854, "lon": 78.5622183, "tags": {"bus": "yes", "highway": "bus_stop", "public_transport": "platform"}}, {"type": "node", "id": 8111166889, "lat": 17.4014901, "lon": 78.5652061, "tags": {"bus": "yes", "highway": "bus_stop", "public_transport": "platform"}}, {"type": "node", "id": 8111166890, "lat": 17.4013698, "lon": 78.5625373, "tags": {"bus": "yes", "highway": "bus_stop", "public_transport": "platform"}}, {"type": "node", "id": 8113834434, "lat": 17.3922547, "lon": 78.5167397, "tags": {"bus": "yes", "highway": "bus_stop", "name": "Amberpet bus stop", "public_transport": "platform"}}, {"type": "node", "id": 8220177270, "lat": 17.4586267, "lon": 78.6067325}, {"type": "node", "id": 8220177273, "lat": 17.458484, "lon": 78.6064529}, {"type": "node", "id": 8220177274, "lat": 17.4583103, "lon": 78.6061103}, {"type": "node", "id": 8220177275, "lat": 17.4575069, "lon": 78.606616, "tags": {"name": "Charlapalli", "public_transport": "stop_position", "railway": "stop", "train": "yes"}}, {"type": "node", "id": 8220177276, "lat": 17.4575235, "lon": 78.606606}, {"type": "node", "id": 8220177277, "lat": 17.4576548, "lon": 78.6065345}, {"type": "node", "id": 8220177278, "lat": 17.4576724, "lon": 78.6065233, "tags": {"name": "Charlapalli", "public_transport": "stop_position", "railway": "stop", "train": "yes"}}, {"type": "node", "id": 8220177279, "lat": 17.4577301, "lon": 78.6064893, "tags": {"name": "Charlapalli", "public_transport": "stop_position", "railway": "stop", "train": "yes"}}, {"type": "node", "id": 8220177280, "lat": 17.457883, "lon": 78.6064035, "tags": {"name": "Charlapalli", "public_transport": "stop_position", "railway": "stop", "train": "yes"}}, {"type": "node", "id": 8220177281, "lat": 17.4580411, "lon": 78.6063207, "tags": {"name": "Charlapalli", "public_transport": "stop_position", "railway": "stop", "train": "yes"}}, {"type": "node", "id": 8220177282, "lat": 17.4581707, "lon": 78.606249, "tags": {"name": "Charlapalli", "public_transport": "stop_position", "railway": "stop", "train": "yes"}}, {"type": "node", "id": 8220177283, "lat": 17.4582039, "lon": 78.6062303, "tags": {"name": "Charlapalli", "public_transport": "stop_position", "railway": "stop", "train": "yes"}}, {"type": "node", "id": 8220177293, "lat": 17.4580546, "lon": 78.6063128}, {"type": "node", "id": 8220177294, "lat": 17.4578656, "lon": 78.606415}, {"type": "node", "id": 8220177295, "lat": 17.4577463, "lon": 78.6064796}, {"type": "node", "id": 8220177296, "lat": 17.4581534, "lon": 78.6062594}, {"type": "node", "id": 8220177297, "lat": 17.4582222, "lon": 78.60622}, {"type": "node", "id": 8220177298, "lat": 17.4583352, "lon": 78.6061594}, {"type": "node", "id": 8220177310, "lat": 17.4559779, "lon": 78.6034039}, {"type": "node", "id": 8220177312, "lat": 17.4560572, "lon": 78.6036104}, {"type": "node", "id": 8220177313, "lat": 17.4586082, "lon": 78.6085564}, {"type": "node", "id": 8220177314, "lat": 17.4584586, "lon": 78.6083928}, {"type": "node", "id": 8220177315, "lat": 17.4583396, "lon": 78.6082225}, {"type": "node", "id": 8220177316, "lat": 17.4582219, "lon": 78.6080119}, {"type": "node", "id": 8220206217, "lat": 17.4561468, "lon": 78.6038344}, {"type": "node", "id": 8220206218, "lat": 17.4558692, "lon": 78.6030686}, {"type": "node", "id": 8220206219, "lat": 17.4558103, "lon": 78.6029157}, {"type": "node", "id": 8220206220, "lat": 17.45585, "lon": 78.6028956}, {"type": "node", "id": 8220206221, "lat": 17.458488, "lon": 78.6082144}, {"type": "node", "id": 8220206222, "lat": 17.4586492, "lon": 78.6085202}, {"type": "node", "id": 8220206227, "lat": 17.4593662, "lon": 78.6095273}, {"type": "node", "id": 8220206228, "lat": 17.4593144, "lon": 78.6094429}, {"type": "node", "id": 8220206229, "lat": 17.4591571, "lon": 78.6091371}, {"type": "node", "id": 8220206230, "lat": 17.4590547, "lon": 78.6089453}, {"type": "node", "id": 8220206231, "lat": 17.4588449, "lon": 78.6086194}, {"type": "node", "id": 8220206232, "lat": 17.4587208, "lon": 78.6084196}, {"type": "node", "id": 8220206233, "lat": 17.4585852, "lon": 78.6081661}, {"type": "node", "id": 8220206234, "lat": 17.4569528, "lon": 78.6048844}, {"type": "node", "id": 8220206235, "lat": 17.4570705, "lon": 78.604816}, {"type": "node", "id": 8220206236, "lat": 17.4594027, "lon": 78.6095059}, {"type": "node", "id": 8220206301, "lat": 17.4582897, "lon": 78.6058567}, {"type": "node", "id": 8220206302, "lat": 17.4577639, "lon": 78.6047731}, {"type": "node", "id": 8220206303, "lat": 17.458204, "lon": 78.605901}, {"type": "node", "id": 8220206304, "lat": 17.4586952, "lon": 78.6068679}, {"type": "node", "id": 8220206305, "lat": 17.457594, "lon": 78.6048566}, {"type": "node", "id": 8220206306, "lat": 17.4586477, "lon": 78.6068955}, {"type": "node", "id": 8220206307, "lat": 17.4596519, "lon": 78.6089886}, {"type": "node", "id": 8220206308, "lat": 17.4594005, "lon": 78.6084361}, {"type": "node", "id": 8220206309, "lat": 17.4591504, "lon": 78.6079111}, {"type": "node", "id": 8220206310, "lat": 17.4599771, "lon": 78.6097342}, {"type": "node", "id": 8220206311, "lat": 17.4571627, "lon": 78.604022}, {"type": "node", "id": 8220206312, "lat": 17.4599035, "lon": 78.6097694}, {"type": "node", "id": 8220206313, "lat": 17.4595786, "lon": 78.6090244}, {"type": "node", "id": 8220206314, "lat": 17.4593279, "lon": 78.6084732}, {"type": "node", "id": 8220206315, "lat": 17.4590784, "lon": 78.6079495}, {"type": "node", "id": 8220206316, "lat": 17.4571408, "lon": 78.6040355}, {"type": "node", "id": 8220206317, "lat": 17.4590208, "lon": 78.6080039}, {"type": "node", "id": 8220206318, "lat": 17.458921, "lon": 78.6080568}, {"type": "node", "id": 8220206319, "lat": 17.4571344, "lon": 78.6044607}, {"type": "node", "id": 8220206320, "lat": 17.4572336, "lon": 78.6044097}, {"type": "node", "id": 8220449627, "lat": 17.4484983, "lon": 78.5292824, "tags": {"name": "Malkajgiri", "public_transport": "stop_position", "railway": "stop", "train": "yes"}}, {"type": "node", "id": 8220449628, "lat": 17.4484844, "lon": 78.5293347, "tags": {"name": "Malkajgiri", "public_transport": "stop_position", "railway": "stop", "train": "yes"}}, {"type": "node", "id": 8220449629, "lat": 17.4484144, "lon": 78.5296144, "tags": {"name": "Malkajgiri", "public_transport": "stop_position", "railway": "stop", "train": "yes"}}, {"type": "node", "id": 8220449630, "lat": 17.4484162, "lon": 78.5295949}, {"type": "node", "id": 8220449631, "lat": 17.4484822, "lon": 78.5293478}, {"type": "node", "id": 8220449662, "lat": 17.4503962, "lon": 78.5299512}, {"type": "node", "id": 8220449665, "lat": 17.4504317, "lon": 78.5298266}, {"type": "node", "id": 8220449668, "lat": 17.4454326, "lon": 78.5284447}, {"type": "node", "id": 8220449671, "lat": 17.4454645, "lon": 78.5283277}, {"type": "node", "id": 8220449672, "lat": 17.4504012, "lon": 78.5299268}, {"type": "node", "id": 8220449673, "lat": 17.4503922, "lon": 78.5299703}, {"type": "node", "id": 8220449674, "lat": 17.4502636, "lon": 78.5299536}, {"type": "node", "id": 8220449675, "lat": 17.4496028, "lon": 78.5298952}, {"type": "node", "id": 8220449676, "lat": 17.4494506, "lon": 78.5298758}, {"type": "node", "id": 8220449677, "lat": 17.4492798, "lon": 78.529847}, {"type": "node", "id": 8220449679, "lat": 17.4491045, "lon": 78.5298061}, {"type": "node", "id": 8220449680, "lat": 17.4472884, "lon": 78.5292488}, {"type": "node", "id": 8220449681, "lat": 17.4470325, "lon": 78.529159}, {"type": "node", "id": 8220449682, "lat": 17.4468278, "lon": 78.5290731}, {"type": "node", "id": 8220449683, "lat": 17.445796, "lon": 78.5285977}, {"type": "node", "id": 8220449684, "lat": 17.4456098, "lon": 78.528522}, {"type": "node", "id": 8220449685, "lat": 17.4454627, "lon": 78.528467}, {"type": "node", "id": 8220449686, "lat": 17.4454288, "lon": 78.5284549}, {"type": "node", "id": 8220449687, "lat": 17.4454384, "lon": 78.5284294}, {"type": "node", "id": 8220449688, "lat": 17.4501083, "lon": 78.5296846}, {"type": "node", "id": 8220449689, "lat": 17.450112, "lon": 78.5296713}, {"type": "node", "id": 8220449690, "lat": 17.4504473, "lon": 78.5297737}, {"type": "node", "id": 8386245800, "lat": 17.3865699, "lon": 78.516708, "tags": {"bus": "yes", "highway": "bus_stop", "name": "Cpl Amberpet Bus stop", "public_transport": "platform", "shelter": "yes"}}, {"type": "node", "id": 8386754559, "lat": 17.4047353, "lon": 78.5865032, "tags": {"bus": "yes", "highway": "bus_stop", "name": "Boduppal bustop", "public_transport": "platform"}}, {"type": "node", "id": 8386754560, "lat": 17.4045179, "lon": 78.5865916, "tags": {"bus": "yes", "highway": "bus_stop", "name": "Boduppal bustop", "public_transport": "platform"}}, {"type": "node", "id": 8386754561, "lat": 17.4013874, "lon": 78.5714637, "tags": {"bus": "yes", "highway": "bus_stop", "public_transport": "platform"}}, {"type": "node", "id": 8386754562, "lat": 17.4013519, "lon": 78.565498, "tags": {"bus": "yes", "highway": "bus_stop", "public_transport": "platform"}}, {"type": "node", "id": 8387157856, "lat": 17.4099864, "lon": 78.5079415, "tags": {"bus": "yes", "highway": "bus_stop", "public_transport": "platform"}}, {"type": "node", "id": 8387157863, "lat": 17.4079329, "lon": 78.5135334, "tags": {"bus": "yes", "highway": "bus_stop", "name": "nallakunta busstop", "public_transport": "platform"}}, {"type": "node", "id": 8476896850, "lat": 17.3632048, "lon": 78.5304225}, {"type": "node", "id": 8935145540, "lat": 17.4409252, "lon": 78.5061483}, {"type": "node", "id": 8935145541, "lat": 17.4408919, "lon": 78.5063629}, {"type": "node", "id": 8935145542, "lat": 17.4408561, "lon": 78.5063575}, {"type": "node", "id": 8935145543, "lat": 17.4408817, "lon": 78.5061483}, {"type": "node", "id": 9357004140, "lat": 17.437564, "lon": 78.5439112}, {"type": "node", "id": 9357004141, "lat": 17.4376545, "lon": 78.5439221}, {"type": "node", "id": 9357004142, "lat": 17.4376479, "lon": 78.5439816}, {"type": "node", "id": 9357004143, "lat": 17.4375575, "lon": 78.5439707}, {"type": "node", "id": 9679094010, "lat": 17.4191988, "lon": 78.6101468, "tags": {"amenity": "bus_station", "bus": "yes", "name": "TSRTC BUS DEPOT, CHANGICHERLA", "public_transport": "station"}}, {"type": "node", "id": 9870003643, "lat": 17.4008142, "lon": 78.5604814}, {"type": "node", "id": 9870023319, "lat": 17.4010002, "lon": 78.5605636}, {"type": "node", "id": 9961161410, "lat": 17.4464267, "lon": 78.5444998}, {"type": "node", "id": 9961161411, "lat": 17.4461661, "lon": 78.5443921}, {"type": "node", "id": 9961161412, "lat": 17.4458668, "lon": 78.5443706}, {"type": "node", "id": 9961161413, "lat": 17.445833, "lon": 78.5443967}, {"type": "node", "id": 9961161414, "lat": 17.4458359, "lon": 78.5444767}, {"type": "node", "id": 9961161415, "lat": 17.445993, "lon": 78.5446383}, {"type": "node", "id": 9961161416, "lat": 17.446059, "lon": 78.5446752}, {"type": "node", "id": 9961203517, "lat": 17.4461104, "lon": 78.5446598}, {"type": "node", "id": 9961203518, "lat": 17.4461573, "lon": 78.5447136}, {"type": "node", "id": 9961203519, "lat": 17.4461397, "lon": 78.5448798}, {"type": "node", "id": 9961203520, "lat": 17.446216, "lon": 78.5449044}, {"type": "node", "id": 9961203521, "lat": 17.4461779, "lon": 78.5449644}, {"type": "node", "id": 9961203522, "lat": 17.4462557, "lon": 78.5450044}, {"type": "node", "id": 9961203523, "lat": 17.4463511, "lon": 78.5450259}, {"type": "node", "id": 9961203524, "lat": 17.4463966, "lon": 78.5449752}, {"type": "node", "id": 9961203525, "lat": 17.4463276, "lon": 78.5449321}, {"type": "node", "id": 9961203526, "lat": 17.4462953, "lon": 78.5449182}, {"type": "node", "id": 9961203527, "lat": 17.4463114, "lon": 78.5448644}, {"type": "node", "id": 9961203528, "lat": 17.4463804, "lon": 78.5448213}, {"type": "node", "id": 9961203529, "lat": 17.4463775, "lon": 78.5447613}, {"type": "node", "id": 9961203530, "lat": 17.4463951, "lon": 78.5447306}, {"type": "node", "id": 9961203531, "lat": 17.4464377, "lon": 78.5447229}, {"type": "node", "id": 9961203532, "lat": 17.446489, "lon": 78.5446583}, {"type": "node", "id": 9961203533, "lat": 17.4464479, "lon": 78.5445998}, {"type": "node", "id": 9961203534, "lat": 17.4464024, "lon": 78.544549}, {"type": "node", "id": 10252989488, "lat": 17.4338591, "lon": 78.502051, "tags": {"addr:city": "Secunderabad", "addr:postcode": "500003", "addr:street": "Station Road", "internet_access": "wlan", "internet_access:fee": "yes", "internet_access:ssid": "Rail Wire Free Wi-Fi", "name": "Secunderabad Junction", "name:hi": "\u0938\u093f\u0915\u0902\u0926\u0930\u093e\u092c\u093e\u0926 \u091c\u0902\u0915\u094d\u0936\u0928", "name:kn": "\u0cb8\u0cbf\u0c95\u0c82\u0ca6\u0cb0\u0cbe\u0cac\u0cbe\u0ca6\u0ccd \u0c9c\u0c82\u0c95\u0ccd\u0cb7\u0ca8\u0ccd", "name:ml": "\u0d38\u0d46\u0d15\u0d4d\u0d15\u0d28\u0d4d\u0d24\u0d30\u0d3e\u0d2c\u0d3e\u0d26\u0d4d \u0d1c\u0d02\u0d17\u0d4d\u0d37\u0d7b", "name:ta": "\u0b9a\u0bc6\u0b95\u0ba8\u0bcd\u0ba4\u0bbf\u0bb0\u0bbe\u0baa\u0bbe\u0ba4\u0bcd \u0b9a\u0ba8\u0bcd\u0ba4\u0bbf\u0baa\u0bcd\u0baa\u0bc1", "name:te": "\u0c38\u0c3f\u0c15\u0c3f\u0c02\u0c26\u0c4d\u0c30\u0c3e\u0c2c\u0c3e\u0c26\u0c4d \u0c1c\u0c02\u0c15\u0c4d\u0c37\u0c28\u0c4d", "name:ur": "\u0633\u06a9\u0646\u062f\u0631 \u0622\u0628\u0627\u062f \u062c\u0646\u06a9\u0634\u0646", "network": "Indian Railways", "operator": "South Central Railway", "platforms": "10", "public_transport": "station", "railway": "station", "ref": "SC", "train": "yes", "wheelchair": "yes", "wikidata": "Q7444810", "wikipedia": "en:Secunderabad Junction railway station"}}, {"type": "node", "id": 10278298785, "lat": 17.3734093, "lon": 78.5031773, "tags": {"addr:city": "Hyderabad", "addr:city:ar": "\u062d\u064a\u062f\u0631 \u0622\u0628\u0627\u062f", "addr:city:ur": "\u062d\u06cc\u062f\u0631\u0622\u0628\u0627\u062f", "alt_name": "\u0645\u062d\u0628\u0648\u0628 \u06af\u0646\u062c", "name": "New Market", "name:ml": "\u0d28\u0d4d\u0d2f\u0d42\u0d2e\u0d3e\u0d7c\u0d15\u0d4d\u0d15\u0d31\u0d4d\u0d31\u0d4d", "name:te": "\u0c15\u0c4a\u0c24\u0c4d\u0c24 \u0c2e\u0c3e\u0c30\u0c4d\u0c15\u0c46\u0c1f\u0c4d", "name:ur": "\u0646\u0626\u06cc \u0645\u0627\u0631\u06a9\u06cc\u0679", "network": "Hyderabad Metro", "note": "Contributors are requested to not edit the \"network\" and the \"operator\" tags. (2023/11/08)", "operator": "Hyderabad Metro Rail Limited", "public_transport": "stop_position", "public_transport:version": "2", "railway": "stop", "subway": "yes"}}, {"type": "node", "id": 10279821749, "lat": 17.3734268, "lon": 78.5031775, "tags": {"alt_name": "\u0645\u062d\u0628\u0648\u0628 \u06af\u0646\u062c", "name": "New Market", "name:fa": "\u0628\u0627\u0632\u0627\u0631 \u062c\u062f\u06cc\u062f", "name:ml": "\u0d28\u0d4d\u0d2f\u0d42\u0d2e\u0d3e\u0d7c\u0d15\u0d4d\u0d15\u0d31\u0d4d\u0d31\u0d4d", "name:te": "\u0c15\u0c4a\u0c24\u0c4d\u0c24 \u0c2e\u0c3e\u0c30\u0c4d\u0c15\u0c46\u0c1f\u0c4d", "name:ur": "\u0646\u0626\u06cc \u0645\u0627\u0631\u06a9\u06cc\u0679", "network": "Hyderabad Metro", "note": "Contributors are requested to not edit the \"network\" and the \"operator\" tags. (2023/11/08)", "operator": "Hyderabad Metro Rail Limited", "public_transport": "station", "railway": "station", "station": "subway", "subway": "yes", "wikidata": "Q81483949"}}, {"type": "node", "id": 10279821750, "lat": 17.3710547, "lon": 78.5119383, "tags": {"addr:city": "Hyderabad", "addr:city:ar": "\u062d\u064a\u062f\u0631 \u0622\u0628\u0627\u062f", "addr:city:ur": "\u062d\u06cc\u062f\u0631\u0622\u0628\u0627\u062f", "name": "Musarambagh", "name:ml": "\u0d2e\u0d42\u0d38\u0d3e\u0d30\u0d3e\u0d02\u0d2c\u0d3e\u0d17\u0d4d", "name:te": "\u0c2e\u0c42\u0c38\u0c3e\u0c30\u0c02\u0c2c\u0c3e\u0c17\u0c4d", "name:ur": "\u0645\u0648\u0633\u06cc\u0670 \u0631\u0627\u0645 \u0628\u0627\u063a", "network": "Hyderabad Metro", "note": "Contributors are requested to not edit the \"network\" and the \"operator\" tags. (2023/11/08)", "operator": "Hyderabad Metro Rail Limited", "public_transport": "stop_position", "public_transport:version": "2", "railway": "stop", "subway": "yes"}}, {"type": "node", "id": 10817711164, "lat": 17.3710099, "lon": 78.5256043, "tags": {"amenity": "bus_station", "bus": "yes", "name": "TSRTC BUS DEPOT , DILSHUKNAGAR", "public_transport": "station"}}, {"type": "node", "id": 10818832467, "lat": 17.3902269, "lon": 78.559068}, {"type": "node", "id": 10818832468, "lat": 17.3902085, "lon": 78.5594393}, {"type": "node", "id": 10818832469, "lat": 17.3898818, "lon": 78.5594215}, {"type": "node", "id": 10818832470, "lat": 17.3899002, "lon": 78.5590503}, {"type": "node", "id": 10992500524, "lat": 17.3697519, "lon": 78.5252265, "tags": {"amenity": "bus_station", "bus": "yes", "name": "TSRTC BUS DEPOT, DILSHUKNAGAR", "public_transport": "station"}}, {"type": "node", "id": 10992500543, "lat": 17.4081874, "lon": 78.5036561, "tags": {"amenity": "bus_station", "bus": "yes", "name": "TSRTC BUS DEPOT, MUSHEERABAD 2", "public_transport": "station"}}, {"type": "node", "id": 10992500546, "lat": 17.4340378, "lon": 78.506033, "tags": {"amenity": "bus_station", "bus": "yes", "public_transport": "station"}}, {"type": "node", "id": 10992500569, "lat": 17.4043212, "lon": 78.5102865, "tags": {"amenity": "bus_station", "bus": "yes", "name": "VIDYANAGAR BUS STOP", "public_transport": "station"}}, {"type": "node", "id": 10992500570, "lat": 17.4043258, "lon": 78.5104757, "tags": {"amenity": "bus_station", "bus": "yes", "name": "VIDYANAGAR BUS STOP", "public_transport": "station"}}, {"type": "node", "id": 10992518090, "lat": 17.4257801, "lon": 78.5329322, "tags": {"amenity": "bus_station", "bus": "yes", "name": "Tarnaka Bus Stop", "public_transport": "station"}}, {"type": "node", "id": 10992518095, "lat": 17.4045224, "lon": 78.5895715, "tags": {"amenity": "bus_station", "bus": "yes", "name": "TSRTC BUS DEPOT, UPPAL", "public_transport": "station"}}, {"type": "node", "id": 10992518096, "lat": 17.3654488, "lon": 78.5885511, "tags": {"amenity": "bus_station", "bus": "yes", "name": "TSRTC BUS DEPOT , BANDLAGUDA", "public_transport": "station"}}, {"type": "node", "id": 11082995794, "lat": 17.3684133, "lon": 78.5241497, "tags": {"bus": "yes", "highway": "bus_stop", "public_transport": "platform"}}, {"type": "node", "id": 11185517430, "lat": 17.4017664, "lon": 78.5683813}, {"type": "node", "id": 11185517431, "lat": 17.4018474, "lon": 78.5683985}, {"type": "node", "id": 11185517432, "lat": 17.4019111, "lon": 78.5685085}, {"type": "node", "id": 11185517433, "lat": 17.4018887, "lon": 78.5685979}, {"type": "node", "id": 11185517434, "lat": 17.4017725, "lon": 78.568569}, {"type": "node", "id": 11185517435, "lat": 17.4016829, "lon": 78.5684923}, {"type": "node", "id": 11737669098, "lat": 17.3618537, "lon": 78.5439302, "tags": {"name": "Victoria Memorial", "name:fa": "\u06cc\u0627\u062f\u0628\u0648\u062f \u0648\u06cc\u06a9\u062a\u0648\u0631\u06cc\u0627", "name:ml": "\u0d35\u0d3f\u0d15\u0d4d\u0d1f\u0d4b\u0d31\u0d3f\u0d2f \u0d2e\u0d46\u0d2e\u0d4d\u0d2e\u0d4b\u0d31\u0d3f\u0d2f\u0d7d", "name:te": "\u0c35\u0c3f\u0c15\u0c4d\u0c1f\u0c4b\u0c30\u0c3f\u0c2f\u0c3e \u0c2e\u0c46\u0c2e\u0c4b\u0c30\u0c3f\u0c2f\u0c32\u0c4d", "name:ur": "\u0648\u06a9\u0679\u0648\u0631\u06cc\u06c1 \u0645\u06cc\u0648\u0645\u0631\u06cc\u0644", "network": "Hyderabad Metro", "operator": "Hyderabad Metro Rail Limited", "public_transport": "station", "railway": "station", "station": "subway", "subway": "yes", "wheelchair": "yes", "wikidata": "Q58814872"}}, {"type": "node", "id": 11737669099, "lat": 17.3685518, "lon": 78.5257172, "tags": {"name": "Dilsukh Nagar", "name:fa": "\u062f\u0644\u0633\u0648\u062e \u0646\u06af\u0631", "name:ml": "\u0d26\u0d3f\u0d7d\u0d38\u0d41\u0d16\u0d4d\u0d28\u0d17\u0d7c", "name:te": "\u0c26\u0c3f\u0c32\u0c4d\u200c\u0c38\u0c41\u0c16\u0c4d\u200c\u0c28\u0c17\u0c30\u0c4d", "name:ur": "\u062f\u0650\u0644 \u0633\u064f\u06a9\u06be \u0646\u06af\u0631", "network": "Hyderabad Metro", "operator": "Hyderabad Metro Rail Limited", "public_transport": "station", "railway": "station", "station": "subway", "subway": "yes", "wheelchair": "yes", "wikidata": "Q81724990"}}, {"type": "node", "id": 11737669100, "lat": 17.3498286, "lon": 78.5479138, "tags": {"name": "L. B. Nagar Metro Station", "name:fa": "\u0627\u0644 \u0628\u06cc \u0646\u06af\u0631", "name:ml": "\u0d0e\u0d7d \u0d2c\u0d3f \u0d28\u0d17\u0d7c", "name:te": "\u0c0e\u0c32\u0c4d.\u0c2c\u0c3f. \u0c28\u0c17\u0c30\u0c4d", "network": "Hyderabad Metro", "operator": "Hyderabad Metro Rail Limited", "public_transport": "station", "railway": "station", "station": "subway", "subway": "yes", "wheelchair": "yes", "wikidata": "Q58814838"}}, {"type": "node", "id": 11738179197, "lat": 17.368286, "lon": 78.5359409, "tags": {"internet_access": "no", "name": "Chaitanyapuri", "name:fa": "\u0686\u0627\u06cc\u062a\u0627\u0646\u06cc\u0627\u067e\u0648\u0631\u06cc", "name:ml": "\u0d1a\u0d48\u0d24\u0d28\u0d4d\u0d2f\u0d2a\u0d41\u0d30\u0d3f", "name:te": "\u0c1b\u0c48\u0c24\u0c28\u0c4d\u0c2f\u0c2a\u0c41\u0c30\u0c3f", "name:ur": "\u0686\u06cc\u062a\u0646\u06cc\u06c1 \u067e\u0648\u0631\u06cc", "network": "Hyderabad Metro", "note": "Contributors are requested to not edit the \"network\" and the \"operator\" tags. (2023/11/08)", "operator": "Hyderabad Metro Rail Limited", "public_transport": "station", "railway": "station", "station": "subway", "subway": "yes", "website": "https://hmrl.co.in", "wheelchair": "yes", "wikidata": "Q81820840"}}, {"type": "node", "id": 11738179223, "lat": 17.3682602, "lon": 78.5355349, "tags": {"addr:city": "Hyderabad", "addr:city:ar": "\u062d\u064a\u062f\u0631 \u0622\u0628\u0627\u062f", "addr:city:ur": "\u062d\u06cc\u062f\u0631\u0622\u0628\u0627\u062f", "name": "Chaitanyapuri", "name:ml": "\u0d1a\u0d48\u0d24\u0d28\u0d4d\u0d2f\u0d2a\u0d41\u0d30\u0d3f", "name:te": "\u0c1b\u0c48\u0c24\u0c28\u0c4d\u0c2f\u0c2a\u0c41\u0c30\u0c3f", "network": "Hyderabad Metro", "note": "Contributors are requested to not edit the \"network\" and the \"operator\" tags. (2023/11/08)", "operator": "Hyderabad Metro Rail Limited", "public_transport": "stop_position", "railway": "stop", "subway": "yes", "wheelchair": "yes"}}, {"type": "node", "id": 12114475158, "lat": 17.4281552, "lon": 78.5199694, "tags": {"name": "Sitafalmandi", "public_transport": "stop_position", "ref": "4", "train": "yes"}}, {"type": "node", "id": 12114475159, "lat": 17.4279884, "lon": 78.5198047, "tags": {"name": "Sitafalmandi", "public_transport": "stop_position", "ref": "2", "train": "yes"}}, {"type": "node", "id": 12114475160, "lat": 17.4279018, "lon": 78.5196975, "tags": {"name": "Sitafalmandi", "public_transport": "stop_position", "ref": "1", "train": "yes"}}, {"type": "node", "id": 12114475162, "lat": 17.411607, "lon": 78.5182729, "tags": {"name": "Jamai Osmania", "public_transport": "stop_position", "ref": "1", "train": "yes"}}, {"type": "node", "id": 12114475163, "lat": 17.411598, "lon": 78.5183194, "tags": {"name": "Jamai Osmania", "public_transport": "stop_position", "ref": "2", "train": "yes"}}, {"type": "node", "id": 12114475164, "lat": 17.4019659, "lon": 78.5111109, "tags": {"name": "Vidyanagar", "public_transport": "stop_position", "ref": "1", "train": "yes"}}, {"type": "node", "id": 12114475165, "lat": 17.4019337, "lon": 78.5111472, "tags": {"name": "Vidyanagar", "public_transport": "stop_position", "ref": "2", "train": "yes"}}, {"type": "node", "id": 12114567494, "lat": 17.4547608, "lon": 78.5312162}, {"type": "node", "id": 12114567495, "lat": 17.4574344, "lon": 78.5320203}, {"type": "node", "id": 12114567496, "lat": 17.4575872, "lon": 78.5319758}, {"type": "node", "id": 12114567497, "lat": 17.4539467, "lon": 78.5308892}, {"type": "node", "id": 12114567498, "lat": 17.4454569, "lon": 78.5283544}, {"type": "node", "id": 12114567499, "lat": 17.4504276, "lon": 78.5298461}, {"type": "node", "id": 12243620911, "lat": 17.4114977, "lon": 78.5182339}, {"type": "node", "id": 12243620912, "lat": 17.4115099, "lon": 78.518178}, {"type": "node", "id": 12243620913, "lat": 17.4117509, "lon": 78.5182357}, {"type": "node", "id": 12243620914, "lat": 17.4117387, "lon": 78.5182917}, {"type": "node", "id": 12243620915, "lat": 17.4120412, "lon": 78.5183048}, {"type": "node", "id": 12243620918, "lat": 17.4118937, "lon": 78.5182696}, {"type": "node", "id": 12243620923, "lat": 17.4115976, "lon": 78.5184229}, {"type": "node", "id": 12243620924, "lat": 17.4112914, "lon": 78.5182588}, {"type": "node", "id": 12243620925, "lat": 17.4117832, "lon": 78.518467}, {"type": "node", "id": 12243620926, "lat": 17.411254, "lon": 78.5183414}, {"type": "node", "id": 12243620927, "lat": 17.4112615, "lon": 78.5183095}, {"type": "node", "id": 12243620928, "lat": 17.4117907, "lon": 78.5184339}, {"type": "node", "id": 12243620929, "lat": 17.4102909, "lon": 78.5180731}, {"type": "node", "id": 12243620930, "lat": 17.4098435, "lon": 78.517928}, {"type": "node", "id": 12243620931, "lat": 17.4100225, "lon": 78.5179926}, {"type": "node", "id": 12243620932, "lat": 17.4105788, "lon": 78.5181519}, {"type": "node", "id": 12243620933, "lat": 17.4129088, "lon": 78.5186969}, {"type": "node", "id": 12243620937, "lat": 17.4096778, "lon": 78.5178597}, {"type": "node", "id": 12243620938, "lat": 17.409699, "lon": 78.5178049}, {"type": "node", "id": 12243620939, "lat": 17.4098616, "lon": 78.5178726}, {"type": "node", "id": 12243620940, "lat": 17.4100387, "lon": 78.5179368}, {"type": "node", "id": 12243620941, "lat": 17.4103028, "lon": 78.5180162}, {"type": "node", "id": 12243620942, "lat": 17.4114387, "lon": 78.5182197}, {"type": "node", "id": 12243620947, "lat": 17.4130164, "lon": 78.5185373}, {"type": "node", "id": 12243620948, "lat": 17.4106249, "lon": 78.5179671}, {"type": "node", "id": 12243620949, "lat": 17.4103301, "lon": 78.5178909}, {"type": "node", "id": 12243620950, "lat": 17.4100721, "lon": 78.5178147}, {"type": "node", "id": 12243620951, "lat": 17.4098976, "lon": 78.5177496}, {"type": "node", "id": 12243620952, "lat": 17.4097473, "lon": 78.5176866}, {"type": "node", "id": 12243620953, "lat": 17.4097279, "lon": 78.5177303}, {"type": "node", "id": 12243620954, "lat": 17.4098908, "lon": 78.5177994}, {"type": "node", "id": 12243620955, "lat": 17.4100624, "lon": 78.5178624}, {"type": "node", "id": 12243620956, "lat": 17.4103214, "lon": 78.5179448}, {"type": "node", "id": 12243620957, "lat": 17.4549284, "lon": 78.5311276}, {"type": "node", "id": 12243620958, "lat": 17.4553757, "lon": 78.5312618}, {"type": "node", "id": 12243620961, "lat": 17.4482406, "lon": 78.5291178}, {"type": "node", "id": 12243620966, "lat": 17.4454782, "lon": 78.5282797}, {"type": "node", "id": 12243620967, "lat": 17.4571481, "lon": 78.5317937}, {"type": "node", "id": 12243620968, "lat": 17.4547453, "lon": 78.5312712}, {"type": "node", "id": 12243620969, "lat": 17.4574233, "lon": 78.5320653}, {"type": "node", "id": 12243620970, "lat": 17.4575998, "lon": 78.5319293}, {"type": "node", "id": 12243620971, "lat": 17.4539612, "lon": 78.5308374}, {"type": "node", "id": 12353469973, "lat": 17.4336238, "lon": 78.5038865}, {"type": "node", "id": 12353469974, "lat": 17.4334947, "lon": 78.5033641}, {"type": "node", "id": 12353469975, "lat": 17.4334317, "lon": 78.5031047}, {"type": "node", "id": 12353469976, "lat": 17.4329763, "lon": 78.5013746}, {"type": "node", "id": 12353469977, "lat": 17.433153, "lon": 78.5020976}, {"type": "node", "id": 12353469978, "lat": 17.4332477, "lon": 78.5024644}, {"type": "node", "id": 12353469979, "lat": 17.4333053, "lon": 78.5026501}, {"type": "node", "id": 12353469980, "lat": 17.4327739, "lon": 78.5009652}, {"type": "node", "id": 12353469981, "lat": 17.4330003, "lon": 78.5019201}, {"type": "node", "id": 12353469982, "lat": 17.4328092, "lon": 78.5006271}, {"type": "node", "id": 12353469986, "lat": 17.4326283, "lon": 78.5003733}, {"type": "node", "id": 12353527916, "lat": 17.4329323, "lon": 78.500833}, {"type": "node", "id": 12353527917, "lat": 17.4332026, "lon": 78.501817}, {"type": "node", "id": 12353527918, "lat": 17.4331683, "lon": 78.5014149}, {"type": "node", "id": 12353527919, "lat": 17.4329879, "lon": 78.5007204}, {"type": "node", "id": 12353527920, "lat": 17.432907, "lon": 78.5003801}, {"type": "node", "id": 12353527921, "lat": 17.4326278, "lon": 78.4994658}, {"type": "node", "id": 12353527922, "lat": 17.432582, "lon": 78.4993005}, {"type": "node", "id": 12353527923, "lat": 17.4333412, "lon": 78.5021114}, {"type": "node", "id": 12353527924, "lat": 17.4334311, "lon": 78.502462}, {"type": "node", "id": 12353527925, "lat": 17.4337145, "lon": 78.5035667}, {"type": "node", "id": 12353527927, "lat": 17.4328181, "lon": 78.5003729}, {"type": "node", "id": 12353527928, "lat": 17.4330718, "lon": 78.5013232}, {"type": "node", "id": 12353527929, "lat": 17.4329897, "lon": 78.5010818}, {"type": "node", "id": 12353527984, "lat": 17.432891, "lon": 78.4999428}, {"type": "node", "id": 12353527985, "lat": 17.4326958, "lon": 78.4992531}, {"type": "node", "id": 12353527986, "lat": 17.4327336, "lon": 78.4993448}, {"type": "node", "id": 12353527987, "lat": 17.4333537, "lon": 78.5014818}, {"type": "node", "id": 12353527988, "lat": 17.4335185, "lon": 78.5021206}, {"type": "node", "id": 12353527989, "lat": 17.433601, "lon": 78.5024451}, {"type": "node", "id": 12353527990, "lat": 17.4337519, "lon": 78.5030141}, {"type": "node", "id": 12353527991, "lat": 17.4338435, "lon": 78.5034076}, {"type": "node", "id": 12353527992, "lat": 17.4338798, "lon": 78.5038972}, {"type": "node", "id": 12353527993, "lat": 17.4337192, "lon": 78.5028901}, {"type": "node", "id": 12353527994, "lat": 17.4334343, "lon": 78.501803}, {"type": "node", "id": 12353527995, "lat": 17.4333958, "lon": 78.5016417}, {"type": "node", "id": 12353528010, "lat": 17.4327244, "lon": 78.4994461}, {"type": "node", "id": 12353528011, "lat": 17.4328709, "lon": 78.4998753}, {"type": "node", "id": 12353528012, "lat": 17.4332683, "lon": 78.5014345}, {"type": "node", "id": 12353528013, "lat": 17.4334373, "lon": 78.5021103}, {"type": "node", "id": 12353528014, "lat": 17.4335244, "lon": 78.5024489}, {"type": "node", "id": 12353528015, "lat": 17.4335103, "lon": 78.5017568}, {"type": "node", "id": 12353528016, "lat": 17.4333099, "lon": 78.5009763}, {"type": "node", "id": 12960605119, "lat": 17.4182762, "lon": 78.5200216}, {"type": "node", "id": 12960605122, "lat": 17.4186204, "lon": 78.5199682}, {"type": "node", "id": 13294455607, "lat": 17.4021954, "lon": 78.5111932, "tags": {"entrance": "yes"}}, {"type": "node", "id": 13294455612, "lat": 17.4018848, "lon": 78.5109982}, {"type": "node", "id": 13294455613, "lat": 17.401832, "lon": 78.5110712}, {"type": "node", "id": 13294455616, "lat": 17.4020082, "lon": 78.5112316}, {"type": "node", "id": 13294455617, "lat": 17.402153, "lon": 78.5112479}, {"type": "node", "id": 13324778746, "lat": 17.380171, "lon": 78.5821085, "tags": {"bus": "yes", "highway": "bus_stop", "public_transport": "platform"}}, {"type": "node", "id": 13426461104, "lat": 17.4356845, "lon": 78.5373343, "tags": {"bus": "yes", "highway": "bus_stop", "name": "Shanthi nagar bus stop", "network": "TGSRTC", "public_transport": "platform"}}, {"type": "way", "id": 31773509, "nodes": [355690056, 12243620947, 12243620915, 12243620918, 12243620913, 12243620912, 12243620948, 12243620949, 12243620950, 12243620951, 12243620952, 12243620953, 12243620954, 12243620955, 12243620956, 355690053, 355690055, 12243620942, 12243620911, 12243620914, 355690056], "tags": {"area": "yes", "public_transport": "platform", "railway": "platform", "ref": "1"}}, {"type": "way", "id": 31773512, "nodes": [12243620937, 12243620938, 12243620939, 12243620940, 12243620941, 355690061, 12243620924, 355690064, 12243620933, 12243620928, 12243620925, 12243620923, 12243620926, 12243620927, 12243620932, 12243620929, 12243620931, 12243620930, 12243620937], "tags": {"area": "yes", "public_transport": "platform", "railway": "platform", "ref": "2"}}, {"type": "way", "id": 198252327, "nodes": [2084119314, 2084119296, 2084119310, 12960605119, 2084119323, 2084119314], "tags": {"area": "yes", "public_transport": "platform", "railway": "platform"}}, {"type": "way", "id": 198252329, "nodes": [2084119308, 3782524883, 2084119347, 2084119344, 3782524868, 2084119339, 3782524859, 2084119335, 2084119329, 2084119297, 2084119327, 3782524860, 2084119346, 3782524871, 2084119348, 3782524878, 2084119309, 2084119325, 2084119341, 2084119340, 2084119308], "tags": {"area": "yes", "public_transport": "platform", "railway": "platform"}}, {"type": "way", "id": 198252331, "nodes": [2084119331, 3782524881, 2084119328, 2084119313, 3782524865, 2084119311, 2084119306, 3782524851, 2084119303, 2084119305, 2084119333, 2084119302, 3782524857, 2084119330, 3782524870, 2084119345, 2084119301, 3782524885, 2084119321, 2084119319, 2084119331], "tags": {"area": "yes", "public_transport": "platform", "railway": "platform"}}, {"type": "way", "id": 198252333, "nodes": [2084119342, 12960605122, 2084119316, 2084119324, 2084119307, 2084119342], "tags": {"area": "yes", "public_transport": "platform", "railway": "platform"}}, {"type": "way", "id": 238282940, "nodes": [2461282047, 13294455616, 13294455613, 2461282028, 2461282027, 2461282032, 3462997820, 2461282046, 2461282047], "tags": {"area": "yes", "public_transport": "platform", "railway": "platform", "ref": "2"}}, {"type": "way", "id": 238282941, "nodes": [2461282030, 2461282029, 2461282036, 13294455612, 13294455617, 2461282048, 2461282050, 13294455607, 2461282037, 2461282030], "tags": {"area": "yes", "public_transport": "platform", "railway": "platform", "ref": "1"}}, {"type": "way", "id": 265035232, "nodes": [8476896850, 2706868235, 2706868237, 2706868239, 8476896850], "tags": {"amenity": "bus_stop", "area": "yes", "bus": "yes", "name": "V.V.nagar bus stop", "public_transport": "platform"}}, {"type": "way", "id": 500394350, "nodes": [4914586484, 4914586483, 4914586482, 4914586481, 4914586480, 4914586479, 3624506988, 4914586461, 4914586478, 4914586477, 4914586476, 4914586475, 4914586474, 4914586473, 4914586472, 12353528015, 12353528016, 4914586471, 4914586470, 4914586469, 4914586484], "tags": {"area": "yes", "name": "Platform 1", "public_transport": "platform", "railway": "platform", "ref": "1"}}, {"type": "way", "id": 500394352, "nodes": [4914586498, 4914586497, 12353528010, 4914586496, 12353528011, 12353527984, 4914586495, 12353528012, 12353528013, 12353528014, 7632809885, 4914586494, 12353527992, 4914586493, 4914586492, 4914586491, 4914586490, 12353527991, 4914586489, 12353527990, 12353527993, 7632809894, 12353527989, 12353527988, 12353527994, 12353527995, 12353527987, 4914586488, 4914586487, 4914586486, 4914586485, 12353527986, 12353527985, 4914586498], "tags": {"area": "yes", "name": "Platform 2 & 3", "public_transport": "platform", "railway": "platform", "ref": "2;3"}}, {"type": "way", "id": 629256870, "nodes": [5941038081, 5941038082, 5941038062, 5941038071, 5941038072, 5941038063, 5941038064, 5941038061, 5941038081], "tags": {"area": "yes", "bridge": "viaduct", "layer": "1", "lit": "yes", "public_transport": "platform", "railway": "platform", "shelter": "yes"}}, {"type": "way", "id": 629256873, "nodes": [5941038083, 5941038084, 5941038085, 5941038086, 5941038087, 5941038088, 5941038089, 5941038090, 5941038083], "tags": {"area": "yes", "bridge": "viaduct", "layer": "1", "lit": "yes", "public_transport": "platform", "railway": "platform", "shelter": "yes"}}, {"type": "way", "id": 635386167, "nodes": [5993752585, 5993751684, 5993751683, 5993751682, 5993752585], "tags": {"building": "yes", "layer": "1", "name": "Moosarambagh", "network": "Hyderabad Metro", "note": "Contributors are requested to not edit the \"network\" and the \"operator\" tags. (2023/11/08)", "operator": "Hyderabad Metro Rail Limited", "public_transport": "stop_position", "station": "subway", "subway": "yes"}}, {"type": "way", "id": 680291482, "nodes": [6369797518, 6369797515, 6369797516]}, {"type": "way", "id": 680291483, "nodes": [6369797516, 6369797517, 6369797518]}, {"type": "way", "id": 680470228, "nodes": [6371404750, 6375001443, 6375001440, 6371404751, 6371404752, 6375001441, 6375001442, 6371404753, 6371404750], "tags": {"amenity": "bus_station", "building": "yes", "bus": "yes", "name": "Rajeevgandhi nagar", "public_transport": "station"}}, {"type": "way", "id": 817269980, "nodes": [7632809909, 7632809908, 7632809907, 7632809906, 7632809905, 7632809904, 7632809903, 7632809902, 7632809901, 7632809900, 7632809899, 7632809898, 7632809897, 7632809896, 7632809895, 7632809909], "tags": {"area": "yes", "name": "Platform 10", "public_transport": "platform", "railway": "platform", "ref": "10"}}, {"type": "way", "id": 817269981, "nodes": [7632809922, 7632809921, 7632809920, 7632809919, 7632809910, 7632809918, 7632809917, 7632809916, 7632809915, 7632809914, 7632809913, 7632809912, 7632809911, 7632809922], "tags": {"area": "yes", "name": "Platform 8 & 9", "public_transport": "platform", "railway": "platform", "ref": "8;9"}}, {"type": "way", "id": 817269982, "nodes": [7632809935, 7632809934, 7632809933, 7632809932, 7632809931, 12353527927, 12353527916, 12353527929, 12353527928, 12353527917, 7632809883, 7632809877, 359998894, 7632809930, 7632809929, 7632809928, 12353527925, 7632809878, 7632809884, 12353527924, 12353527923, 12353527918, 12353527919, 12353527920, 7632809927, 7632809926, 7632809925, 12353527921, 7632809924, 12353527922, 7632809935], "tags": {"area": "yes", "name": "Platform 4 & 5", "public_transport": "platform", "railway": "platform", "ref": "4;5"}}, {"type": "way", "id": 817269983, "nodes": [7632809943, 7632809942, 12353469986, 12353469980, 12353469981, 7632809893, 7632809941, 7632809940, 7632809939, 12353469973, 12353469974, 12353469975, 7632809882, 12353469979, 12353469978, 12353469977, 12353469976, 12353469982, 7632809938, 7632809937, 7632809936, 7632809943], "tags": {"area": "yes", "name": "Platform 6 & 7", "public_transport": "platform", "railway": "platform", "ref": "6A;6B;7A;7B"}}, {"type": "way", "id": 817584095, "nodes": [7635671958, 7635671957, 7635671956, 7635671955, 7635671952, 7635671948, 7635671947, 7635671951, 7635671950, 7635671946, 7635671945, 7635671944, 7635671943, 7635671958], "tags": {"area": "yes", "public_transport": "platform", "railway": "platform"}}, {"type": "way", "id": 842636938, "nodes": [7860889433, 7860889434, 9870023319, 7860889435, 7860889436, 7860889433], "tags": {"amenity": "bus_station", "building": "yes", "bus": "yes", "name": "Uppal X Road Bus Stop ( Towards Nagole )", "public_transport": "station"}}, {"type": "way", "id": 842636939, "nodes": [7860889437, 7860889438, 7860889439, 9870003643, 7860889440, 7860889437], "tags": {"amenity": "bus_station", "building": "yes", "bus": "yes", "name": "Uppal _ Nagole Bus Stop", "public_transport": "station"}}, {"type": "way", "id": 883864178, "nodes": [8220206222, 8220206221, 8220177277, 8220206220, 8220206219, 8220206218, 8220177310, 8220177312, 8220206217, 8220177276, 8220177316, 8220177315, 8220177314, 8220177313, 8220206222], "tags": {"area": "yes", "public_transport": "platform", "railway": "platform"}}, {"type": "way", "id": 883864179, "nodes": [8220206236, 8220177294, 8220206235, 8220206234, 8220177295, 8220206233, 8220206232, 8220206231, 8220206230, 8220206229, 8220206228, 8220206227, 8220206236], "tags": {"area": "yes", "public_transport": "platform", "railway": "platform"}}, {"type": "way", "id": 883864192, "nodes": [8220206316, 8220177297, 8220206315, 8220206314, 8220206313, 8220206312, 8220206310, 8220206307, 8220206308, 8220206309, 8220206306, 8220206304, 8220177270, 8220177273, 8220177298, 8220177274, 8220206303, 8220206301, 8220206302, 8220206305, 8220206311, 8220206316], "tags": {"area": "yes", "public_transport": "platform", "railway": "platform"}}, {"type": "way", "id": 883864193, "nodes": [8220206320, 8220206319, 8220177293, 8220206318, 8220206317, 8220177296, 8220206320], "tags": {"area": "yes", "public_transport": "platform", "railway": "platform"}}, {"type": "way", "id": 883894033, "nodes": [8220449687, 8220449668, 8220449686, 8220449685, 8220449684, 8220449683, 8220449682, 8220449681, 8220449680, 8220449630, 8220449679, 8220449677, 8220449676, 8220449675, 8220449674, 8220449673, 8220449662, 8220449672, 8220449631, 8220449687], "tags": {"area": "yes", "public_transport": "platform", "railway": "platform"}}, {"type": "way", "id": 965854387, "nodes": [8935145540, 8935145541, 8935145542, 8935145543, 8935145540], "tags": {"amenity": "bus_station", "building": "shed", "bus": "yes", "name": "Pushpak Airport Liner Bus Stop", "operator": "TSRTC", "public_transport": "station"}}, {"type": "way", "id": 1014213313, "nodes": [9357004140, 9357004141, 9357004142, 9357004143, 9357004140], "tags": {"area": "yes", "bus": "yes", "public_transport": "platform"}}, {"type": "way", "id": 1087173155, "nodes": [9961161410, 9961161411, 9961161412, 9961161413, 9961161414, 9961161415, 9961161416, 9961203517, 9961203518, 9961203519, 9961203520, 9961203521, 9961203522, 9961203523, 9961203524, 9961203525, 9961203526, 9961203527, 9961203528, 9961203529, 9961203530, 9961203531, 9961203532, 9961203533, 9961203534, 9961161410], "tags": {"bus": "yes", "public_transport": "platform"}}, {"type": "way", "id": 1163289546, "nodes": [10818832467, 10818832468, 10818832469, 10818832470, 10818832467], "tags": {"addr:city": "Uppal, Hyderabad", "addr:housenumber": "Metro station", "addr:postcode": "500039", "amenity": "bus_station", "bus": "yes", "internet_access": "yes", "name": "Metro Bus Station  Uppal", "public_transport": "station"}}, {"type": "way", "id": 1207148674, "nodes": [11185517430, 11185517431, 11185517432, 11185517433, 11185517434, 11185517435, 11185517430], "tags": {"amenity": "bus_station", "bus": "yes", "name": "Uppal Bus Station", "public_transport": "station"}}, {"type": "way", "id": 1308145299, "nodes": [12114567494, 12114567495, 12243620969, 12243620968, 12114567494], "tags": {"area": "yes", "public_transport": "platform", "railway": "platform", "train": "yes"}}, {"type": "way", "id": 1308145300, "nodes": [12114567496, 12243620970, 12243620967, 12243620958, 12243620957, 12243620971, 12114567497, 12114567496], "tags": {"area": "yes", "public_transport": "platform", "railway": "platform", "train": "yes"}}, {"type": "way", "id": 1308145301, "nodes": [12114567498, 8220449671, 12243620966, 12243620961, 8220449688, 8220449689, 8220449690, 8220449665, 12114567499, 12114567498], "tags": {"area": "yes", "public_transport": "platform", "railway": "platform", "train": "yes"}}, {"type": "relation", "id": 2831171, "members": [{"type": "node", "ref": 10252989488, "role": ""}, {"type": "way", "ref": 500394350, "role": "platform"}, {"type": "way", "ref": 500394352, "role": "platform"}, {"type": "way", "ref": 817269982, "role": "platform"}, {"type": "way", "ref": 817269983, "role": "platform"}, {"type": "way", "ref": 817269981, "role": "platform"}, {"type": "way", "ref": 817269980, "role": "platform"}, {"type": "node", "ref": 2212573769, "role": "stop"}, {"type": "node", "ref": 2212573775, "role": "stop"}, {"type": "node", "ref": 2212573760, "role": "stop"}, {"type": "node", "ref": 2212573646, "role": "stop"}, {"type": "node", "ref": 2212573685, "role": "stop"}, {"type": "node", "ref": 2212573644, "role": "stop"}, {"type": "node", "ref": 2212573771, "role": "stop"}, {"type": "node", "ref": 2212573687, "role": "stop"}, {"type": "node", "ref": 2212573719, "role": "stop"}], "tags": {"name": "Secunderabad Junction", "name:hi": "\u0938\u093f\u0915\u0902\u0926\u0930\u093e\u092c\u093e\u0926 \u091c\u0902\u0915\u094d\u0936\u0928", "name:kn": "\u0cb8\u0cbf\u0c95\u0c82\u0ca6\u0cb0\u0cbe\u0cac\u0cbe\u0ca6\u0ccd \u0c9c\u0c82\u0c95\u0ccd\u0cb7\u0ca8\u0ccd", "name:ml": "\u0d38\u0d46\u0d15\u0d4d\u0d15\u0d28\u0d4d\u0d24\u0d30\u0d3e\u0d2c\u0d3e\u0d26\u0d4d \u0d1c\u0d02\u0d17\u0d4d\u0d37\u0d7b", "name:ta": "\u0b9a\u0bc6\u0b95\u0ba8\u0bcd\u0ba4\u0bbf\u0bb0\u0bbe\u0baa\u0bbe\u0ba4\u0bcd \u0b9a\u0ba8\u0bcd\u0ba4\u0bbf\u0baa\u0bcd\u0baa\u0bc1", "name:te": "\u0c38\u0c3f\u0c15\u0c3f\u0c02\u0c26\u0c4d\u0c30\u0c3e\u0c2c\u0c3e\u0c26\u0c4d \u0c1c\u0c02\u0c15\u0c4d\u0c37\u0c28\u0c4d", "name:ur": "\u0633\u06a9\u0646\u062f\u0631\u0622\u0628\u0627\u062f \u062c\u0646\u06a9\u0634\u0646", "network": "Indian Railways", "operator": "South Central Railway", "public_transport": "stop_area", "ref": "SC", "type": "public_transport"}}, {"type": "relation", "id": 8759103, "members": [{"type": "node", "ref": 6447168562, "role": ""}, {"type": "node", "ref": 6447168563, "role": "stop"}, {"type": "node", "ref": 5961220665, "role": "stop"}, {"type": "way", "ref": 629256873, "role": "platform"}, {"type": "way", "ref": 629256870, "role": "platform"}], "tags": {"colour": "blue", "name": "Nagole", "network": "Hyderabad Metro", "operator": "HMRC", "public_transport": "stop_area", "public_transport:version": "2", "type": "public_transport"}}, {"type": "relation", "id": 9441715, "members": [{"type": "way", "ref": 680291482, "role": "outer"}, {"type": "way", "ref": 680291483, "role": "outer"}], "tags": {"addr:city": "Hyderabad", "addr:postcode": "500013", "addr:street": "moosarambagh road", "amenity": "bus_station", "building": "yes", "bus": "yes", "fixme": "Amberpet Busstop", "internet_access": "no", "name": "Amberpet Bus Station", "network": "All types of vehicles allowed", "operator": "persons", "public_transport": "station", "type": "multipolygon"}}, {"type": "relation", "id": 10402701, "members": [{"type": "node", "ref": 7052069749, "role": ""}, {"type": "node", "ref": 2422173009, "role": "stop"}, {"type": "node", "ref": 5787788972, "role": "stop"}, {"type": "node", "ref": 7015719477, "role": ""}, {"type": "node", "ref": 7015780395, "role": ""}, {"type": "node", "ref": 7015719470, "role": ""}, {"type": "node", "ref": 7015780418, "role": ""}, {"type": "node", "ref": 7015780421, "role": ""}, {"type": "node", "ref": 7015780403, "role": ""}], "tags": {"colour": "blue", "name": "Uppal", "name:te": "\u0c09\u0c2a\u0c4d\u0c2a\u0c32\u0c4d", "public_transport": "stop_area", "type": "public_transport"}}, {"type": "relation", "id": 10402702, "members": [{"type": "node", "ref": 7052069752, "role": ""}, {"type": "node", "ref": 2422173094, "role": "stop"}, {"type": "node", "ref": 5787788973, "role": "stop"}], "tags": {"colour": "blue", "name": "Stadium", "name:te": "\u0c38\u0c4d\u0c1f\u0c47\u0c21\u0c3f\u0c2f\u0c02", "public_transport": "stop_area", "type": "public_transport"}}, {"type": "relation", "id": 10402703, "members": [{"type": "node", "ref": 7052069753, "role": ""}, {"type": "node", "ref": 2422173113, "role": "stop"}, {"type": "node", "ref": 5787788974, "role": "stop"}], "tags": {"colour": "blue", "name": "NGRI", "name:te": "\u0c0e\u0c28\u0c4d.\u0c1c\u0c3f.\u0c06\u0c30\u0c4d.\u0c10", "public_transport": "stop_area", "type": "public_transport"}}, {"type": "relation", "id": 10402704, "members": [{"type": "node", "ref": 7052069754, "role": ""}, {"type": "node", "ref": 2422173048, "role": "stop"}, {"type": "node", "ref": 5787788975, "role": "stop"}], "tags": {"colour": "blue", "name": "Habsiguda", "name:te": "\u0c39\u0c2c\u0c4d\u0c38\u0c40\u0c17\u0c42\u0c21", "public_transport": "stop_area", "type": "public_transport"}}, {"type": "relation", "id": 10402705, "members": [{"type": "node", "ref": 7052069755, "role": ""}, {"type": "node", "ref": 2422173111, "role": "stop"}, {"type": "node", "ref": 5787788976, "role": "stop"}], "tags": {"colour": "blue", "name": "Tarnaka", "name:te": "\u0c24\u0c3e\u0c30\u0c4d\u0c28\u0c3e\u0c15", "public_transport": "stop_area", "type": "public_transport"}}, {"type": "relation", "id": 10402706, "members": [{"type": "node", "ref": 7052069756, "role": "stop"}, {"type": "node", "ref": 2422173068, "role": "stop"}, {"type": "node", "ref": 5787788977, "role": "stop"}], "tags": {"colour": "blue", "name": "Mettuguda", "name:te": "\u0c2e\u0c46\u0c1f\u0c4d\u0c1f\u0c41\u0c17\u0c42\u0c21", "public_transport": "stop_area", "type": "public_transport"}}, {"type": "relation", "id": 10402707, "members": [{"type": "node", "ref": 7052069757, "role": ""}, {"type": "node", "ref": 2422173052, "role": "stop"}, {"type": "node", "ref": 5787788978, "role": "stop"}], "tags": {"colour": "blue", "name": "Secunderabad East", "name:te": "\u0c38\u0c3f\u0c15\u0c3f\u0c02\u0c26\u0c4d\u0c30\u0c3e\u0c2c\u0c3e\u0c26\u0c4d \u0c24\u0c42\u0c30\u0c4d\u0c2a\u0c41", "public_transport": "stop_area", "type": "public_transport"}}, {"type": "relation", "id": 15034332, "members": [{"type": "node", "ref": 2422989167, "role": "stop"}, {"type": "node", "ref": 5787788261, "role": "stop"}], "tags": {"name": "Dilsukh Nagar", "public_transport": "stop_area", "type": "public_transport"}}, {"type": "relation", "id": 15034333, "members": [{"type": "node", "ref": 10279821749, "role": ""}, {"type": "node", "ref": 2422989007, "role": "stop"}, {"type": "node", "ref": 10278298785, "role": "stop"}], "tags": {"name": "New Market", "public_transport": "stop_area", "type": "public_transport"}}, {"type": "relation", "id": 15034334, "members": [{"type": "node", "ref": 7246815452, "role": ""}, {"type": "node", "ref": 6800005107, "role": "stop"}, {"type": "node", "ref": 10279821750, "role": "stop"}], "tags": {"name": "Musarambagh", "public_transport": "stop_area", "type": "public_transport"}}, {"type": "relation", "id": 17353490, "members": [{"type": "node", "ref": 11737669098, "role": ""}, {"type": "node", "ref": 5787788272, "role": "stop"}, {"type": "node", "ref": 2422989133, "role": "stop"}], "tags": {"name": "Victoria Memorial", "public_transport": "stop_area", "type": "public_transport"}}, {"type": "relation", "id": 17353491, "members": [{"type": "node", "ref": 11737669099, "role": ""}, {"type": "node", "ref": 2422989167, "role": "stop"}, {"type": "node", "ref": 5787788261, "role": "stop"}], "tags": {"name": "Dilsukh Nagar", "public_transport": "stop_area", "type": "public_transport"}}, {"type": "relation", "id": 17353492, "members": [{"type": "node", "ref": 11737669100, "role": ""}, {"type": "node", "ref": 4332315990, "role": "stop"}, {"type": "node", "ref": 5787788275, "role": "stop"}], "tags": {"name": "L. B. Nagar", "public_transport": "stop_area", "type": "public_transport"}}, {"type": "relation", "id": 17354155, "members": [{"type": "node", "ref": 11738179197, "role": ""}, {"type": "node", "ref": 11738179223, "role": "stop"}, {"type": "node", "ref": 2422989005, "role": "stop"}], "tags": {"colour": "red", "name": "Chaitanyapuri", "name:te": "\u0c1b\u0c48\u0c24\u0c28\u0c4d\u0c2f\u0c2a\u0c41\u0c30\u0c3f", "network": "Hyderabad Metro", "operator": "HMRL", "public_transport": "stop_area", "type": "public_transport"}}, {"type": "relation", "id": 17943721, "members": [{"type": "node", "ref": 1974699686, "role": ""}, {"type": "way", "ref": 883864178, "role": "platform"}, {"type": "way", "ref": 883864179, "role": "platform"}, {"type": "way", "ref": 883864193, "role": "platform"}, {"type": "way", "ref": 883864192, "role": "platform"}, {"type": "node", "ref": 8220177275, "role": "stop"}, {"type": "node", "ref": 8220177278, "role": "stop"}, {"type": "node", "ref": 8220177279, "role": "stop"}, {"type": "node", "ref": 8220177280, "role": "stop"}, {"type": "node", "ref": 8220177281, "role": "stop"}, {"type": "node", "ref": 8220177282, "role": "stop"}, {"type": "node", "ref": 8220177283, "role": "stop"}], "tags": {"name": "Charlapalli", "operator": "South Central Railway", "public_transport": "stop_area", "train": "yes", "type": "public_transport"}}]}