{"version": 0.6, "generator": "Overpass API 0.7.62.8 e802775f", "osm3s": {"timestamp_osm_base": "2026-01-16T02:05:43Z", "copyright": "The data included in this document is from www.openstreetmap.org. The data is made available under ODbL."}, "elements": [{"type": "node", "id": 253422322, "lat": 46.5414936, "lon": 6.6588285}, {"type": "node", "id": 253422325, "lat": 46.5404223, "lon": 6.6527933}, {"type": "node", "id": 268958605, "lat": 46.5305787, "lon": 6.6581807, "tags": {"bus": "yes", "ele": "627", "name": "Les Chavannes", "network": "Mobilis", "network:short": "CTV", "network:wikidata": "Q2394222", "operator": "TL", "public_transport": "stop_position", "uic_name": "Lausanne, Les Chavannes", "uic_ref": "8592065"}}, {"type": "node", "id": 310281276, "lat": 46.5522759, "lon": 6.6687815, "tags": {"bus": "yes", "ele": "795", "name": "Biolleyre", "operator": "TL", "public_transport": "stop_position", "uic_name": "Epalinges, Biolleyre", "uic_ref": "8591963"}}, {"type": "node", "id": 310281289, "lat": 46.5484107, "lon": 6.6589988, "tags": {"bus": "yes", "ele": "724", "name": "Florimont", "operator": "TL", "public_transport": "stop_position", "uic_name": "Epalinges, Florimont", "uic_ref": "8593820"}}, {"type": "node", "id": 329185181, "lat": 46.5406529, "lon": 6.6537379}, {"type": "node", "id": 395603219, "lat": 46.5408065, "lon": 6.7038047, "tags": {"ele": "806", "highway": "bus_stop", "name": "Claie-aux-Moines", "operator": "TL", "public_transport": "platform", "shelter": "yes", "uic_name": "Savigny, Claie-aux-Moines", "uic_ref": "8504172"}}, {"type": "node", "id": 395603221, "lat": 46.540523, "lon": 6.7037825, "tags": {"ele": "806", "highway": "bus_stop", "name": "Claie-aux-Moines", "operator": "TL", "public_transport": "platform", "shelter": "no", "uic_name": "Savigny, Claie-aux-Moines", "uic_ref": "8504172"}}, {"type": "node", "id": 395603225, "lat": 46.5530405, "lon": 6.6937329, "tags": {"bench": "no", "bin": "no", "bus": "yes", "ele": "832", "highway": "bus_stop", "name": "Molliettes", "network": "Mobilis", "network:wikidata": "Q2394222", "operator": "TL", "public_transport": "platform", "shelter": "no", "tactile_paving": "no", "uic_name": "Lausanne, Molliettes", "uic_ref": "8592073"}}, {"type": "node", "id": 395603227, "lat": 46.5530339, "lon": 6.6935461, "tags": {"bus": "yes", "ele": "832", "highway": "bus_stop", "name": "Molliettes", "network": "Mobilis", "network:wikidata": "Q2394222", "operator": "TL", "public_transport": "platform", "uic_name": "Lausanne, Molliettes", "uic_ref": "8592073"}}, {"type": "node", "id": 395603229, "lat": 46.5546291, "lon": 6.6947152, "tags": {"bench": "yes", "bin": "yes", "bus": "yes", "ele": "839", "highway": "bus_stop", "lit": "yes", "name": "Vers-chez-les-Blanc", "network": "Mobilis", "network:wikidata": "Q2394222", "operator": "TL", "public_transport": "platform", "shelter": "yes", "tactile_paving": "no", "uic_name": "Lausanne, Vers-chez-les-Blanc", "uic_ref": "8587548"}}, {"type": "node", "id": 395603236, "lat": 46.5586885, "lon": 6.6967357, "tags": {"bench": "no", "bin": "no", "bus": "yes", "ele": "866", "highway": "bus_stop", "lit": "no", "name": "Chevreuils", "network": "Mobilis", "network:wikidata": "Q2394222", "operator": "TL", "public_transport": "platform", "shelter": "no", "tactile_paving": "no", "uic_name": "Lausanne, Chevreuils", "uic_ref": "8592015"}}, {"type": "node", "id": 395603239, "lat": 46.5585474, "lon": 6.6966986, "tags": {"bench": "no", "bin": "yes", "bus": "yes", "ele": "866", "highway": "bus_stop", "lit": "yes", "name": "Chevreuils", "network": "Mobilis", "network:wikidata": "Q2394222", "operator": "TL", "public_transport": "platform", "shelter": "yes", "tactile_paving": "no", "uic_name": "Lausanne, Chevreuils", "uic_ref": "8592015"}}, {"type": "node", "id": 395603240, "lat": 46.5603204, "lon": 6.6965016, "tags": {"bench": "yes", "bin": "yes", "bus": "yes", "ele": "873", "highway": "bus_stop", "name": "Praz-Collet", "network": "Mobilis", "network:short": "CTV", "network:wikidata": "Q2394222", "operator": "TL", "public_transport": "platform", "shelter": "yes", "uic_name": "Lausanne, Praz-Collet", "uic_ref": "8592100"}}, {"type": "node", "id": 395603241, "lat": 46.5600593, "lon": 6.6963043, "tags": {"bus": "yes", "ele": "873", "highway": "bus_stop", "name": "Praz-Collet", "network": "Mobilis", "network:short": "CTV", "network:wikidata": "Q2394222", "operator": "TL", "public_transport": "platform", "shelter": "yes", "uic_name": "Lausanne, Praz-Collet", "uic_ref": "8592100"}}, {"type": "node", "id": 395603244, "lat": 46.5648641, "lon": 6.6934112, "tags": {"bench": "yes", "bin": "yes", "bus": "yes", "ele": "861", "highway": "bus_stop", "name": "Chalet-\u00e0-Gobet/Jorat", "network": "Mobilis", "network:short": "CTV", "network:wikidata": "Q2394222", "operator": "TL", "public_transport": "platform", "shelter": "yes", "tactile_paving": "no", "uic_name": "Lausanne, Chalet-\u00e0-Gobet/Jorat", "uic_ref": "8509491"}}, {"type": "node", "id": 395603246, "lat": 46.5648877, "lon": 6.6935599, "tags": {"bench": "no", "bin": "no", "bus": "yes", "ele": "861", "highway": "bus_stop", "lit": "no", "name": "Chalet-\u00e0-Gobet/Jorat", "network": "Mobilis", "network:short": "CTV", "network:wikidata": "Q2394222", "operator": "TL", "public_transport": "platform", "shelter": "no", "tactile_paving": "no", "uic_name": "Lausanne, Chalet-\u00e0-Gobet/Jorat", "uic_ref": "8509491"}}, {"type": "node", "id": 395603370, "lat": 46.564586, "lon": 6.6888533, "tags": {"bench": "no", "bin": "no", "ele": "858", "highway": "bus_stop", "name": "Mauvernay", "operator": "TL", "public_transport": "platform", "shelter": "no", "tactile_paving": "no", "uic_name": "Lausanne, Mauvernay", "uic_ref": "8592070"}}, {"type": "node", "id": 395603372, "lat": 46.5645143, "lon": 6.6889632, "tags": {"bench": "yes", "bin": "yes", "ele": "858", "highway": "bus_stop", "name": "Mauvernay", "operator": "TL", "public_transport": "platform", "shelter": "yes", "tactile_paving": "no", "uic_name": "Lausanne, Mauvernay", "uic_ref": "8592070"}}, {"type": "node", "id": 408170126, "lat": 46.539118, "lon": 6.696542, "tags": {"bus": "yes", "ele": "798", "highway": "bus_stop", "name": "Ravessoud", "network": "Mobilis", "network:short": "CTV", "network:wikidata": "Q2394222", "operator": "TL", "public_transport": "platform", "shelter": "yes", "uic_name": "Pully, Ravessoud", "uic_ref": "8592194"}}, {"type": "node", "id": 414204085, "lat": 46.532462, "lon": 6.694858, "tags": {"ele": "790", "highway": "bus_stop", "name": "Bas-Monts", "network": "TL", "note": "taxibus", "operator": "TL", "uic_name": "Belmont-sur-L., Bas-Monts", "uic_ref": "8593807"}}, {"type": "node", "id": 418016500, "lat": 46.5443472, "lon": 6.6589158, "tags": {"bench": "yes", "bus": "yes", "ele": "710", "highway": "bus_stop", "name": "Tuileries", "operator": "TL", "public_transport": "platform", "shelter": "no", "tactile_paving": "no", "uic_name": "Epalinges, Tuileries", "uic_ref": "8591971"}}, {"type": "node", "id": 418016505, "lat": 46.5520052, "lon": 6.6812112, "tags": {"ele": "785", "highway": "bus_stop", "name": "Lion d'Or", "operator": "TL", "public_transport": "platform", "uic_name": "Epalinges, Lion d'Or", "uic_ref": "8587546"}}, {"type": "node", "id": 418016507, "lat": 46.5610583, "lon": 6.6855385, "tags": {"bench": "no", "bus": "yes", "ele": "854", "highway": "bus_stop", "name": "Vert-Bois/EHL", "operator": "TL", "public_transport": "platform", "shelter": "no", "uic_name": "Lausanne, Vert-Bois/EHL", "uic_ref": "8592130"}}, {"type": "node", "id": 418016587, "lat": 46.5511406, "lon": 6.6912821, "tags": {"bus": "yes", "ele": "809", "highway": "bus_stop", "name": "Chalet \u00e0 Matthey", "network": "Mobilis", "network:wikidata": "Q2394222", "operator": "TL", "public_transport": "platform", "shelter": "yes", "uic_name": "Lausanne, Chalet \u00e0 Matthey", "uic_ref": "8587547"}}, {"type": "node", "id": 418016593, "lat": 46.5443237, "lon": 6.684049, "tags": {"bus": "yes", "ele": "792", "highway": "bus_stop", "name": "Haute Combe", "operator": "TL", "public_transport": "platform", "uic_name": "Lausanne, Haute Combe", "uic_ref": "8592058"}}, {"type": "node", "id": 418016594, "lat": 46.5443773, "lon": 6.6839574, "tags": {"bus": "yes", "ele": "792", "highway": "bus_stop", "name": "Haute Combe", "operator": "TL", "public_transport": "platform", "uic_name": "Lausanne, Haute Combe", "uic_ref": "8592058"}}, {"type": "node", "id": 418016598, "lat": 46.5424137, "lon": 6.6793377, "tags": {"bus": "yes", "ele": "700", "highway": "bus_stop", "name": "Perronnaz", "operator": "TL", "public_transport": "platform", "uic_name": "Montblesson, Perronnaz", "uic_ref": "8587550"}}, {"type": "node", "id": 425709280, "lat": 46.5544622, "lon": 6.6840473, "tags": {"bus": "yes", "ele": "826", "name": "Grand Chemin", "network": "Mobilis", "network:short": "CTV", "network:wikidata": "Q2394222", "operator": "TL", "public_transport": "stop_position", "uic_name": "Epalinges, Grand Chemin", "uic_ref": "8591968"}}, {"type": "node", "id": 428592190, "lat": 46.5392557, "lon": 6.6973107, "tags": {"bus": "yes", "ele": "798", "highway": "bus_stop", "name": "Ravessoud", "network": "Mobilis", "network:short": "CTV", "network:wikidata": "Q2394222", "operator": "TL", "public_transport": "platform", "shelter": "no", "uic_name": "Pully, Ravessoud", "uic_ref": "8592194"}}, {"type": "node", "id": 428592191, "lat": 46.5359853, "lon": 6.6887877, "tags": {"bus": "yes", "ele": "745", "highway": "bus_stop", "name": "Monts-de-Pully", "network": "Mobilis", "network:short": "CTV", "network:wikidata": "Q2394222", "network:wikipedia": "de:Tarifverbund Waadt", "operator": "TL", "public_transport": "platform", "uic_name": "Pully, Monts-de-Pully", "uic_ref": "8579249"}}, {"type": "node", "id": 428592194, "lat": 46.5343854, "lon": 6.6843967, "tags": {"bench": "yes", "bin": "no", "ele": "726", "highway": "bus_stop", "mapillary": "297901538674046", "name": "Trois-Chasseurs", "operator": "TL", "public_transport": "platform", "shelter": "yes", "survey:date": "2020-09-03", "uic_name": "Pully, Trois-Chasseurs", "uic_ref": "8579248"}}, {"type": "node", "id": 428592195, "lat": 46.534215, "lon": 6.684139, "tags": {"bench": "yes", "bin": "no", "ele": "726", "highway": "bus_stop", "mapillary": "297901538674046", "name": "Trois-Chasseurs", "operator": "TL", "public_transport": "platform", "shelter": "yes", "survey:date": "2020-09-03", "uic_name": "Pully, Trois-Chasseurs", "uic_ref": "8579248"}}, {"type": "node", "id": 428596569, "lat": 46.536476, "lon": 6.677714, "tags": {"bench": "no", "bus": "yes", "ele": "737", "highway": "bus_stop", "name": "Montblesson, Centenaire", "operator": "TL", "public_transport": "platform", "shelter": "no", "uic_name": "Montblesson, Centenaire", "uic_ref": "8579247"}}, {"type": "node", "id": 428596572, "lat": 46.536532, "lon": 6.677538, "tags": {"bench": "yes", "ele": "737", "highway": "bus_stop", "name": "Montblesson, Centenaire", "operator": "TL", "public_transport": "platform", "shelter": "yes", "uic_name": "Montblesson, Centenaire", "uic_ref": "8579247"}}, {"type": "node", "id": 428596574, "lat": 46.532658, "lon": 6.667853, "tags": {"bus": "yes", "ele": "677", "highway": "bus_stop", "name": "Rov\u00e9r\u00e9az", "operator": "TL", "public_transport": "platform", "uic_name": "Lausanne, Rov\u00e9r\u00e9az", "uic_ref": "8579246"}}, {"type": "node", "id": 428596576, "lat": 46.5328019, "lon": 6.6677031, "tags": {"bus": "yes", "ele": "677", "highway": "bus_stop", "name": "Rov\u00e9r\u00e9az", "operator": "TL", "public_transport": "platform", "uic_name": "Lausanne, Rov\u00e9r\u00e9az", "uic_ref": "8579246"}}, {"type": "node", "id": 428596579, "lat": 46.53341, "lon": 6.659727, "tags": {"bench": "no", "bin": "yes", "bus": "yes", "ele": "650", "highway": "bus_stop", "lit": "yes", "name": "Foyer", "operator": "TL", "public_transport": "platform", "shelter": "no", "tactile_paving": "no", "trolleybus": "yes", "uic_name": "Lausanne, Foyer", "uic_ref": "8579245"}}, {"type": "node", "id": 428596582, "lat": 46.533571, "lon": 6.659765, "tags": {"bench": "yes", "bin": "yes", "bus": "yes", "ele": "650", "highway": "bus_stop", "lit": "yes", "name": "Foyer", "operator": "TL", "public_transport": "platform", "shelter": "yes", "tactile_paving": "no", "trolleybus": "yes", "uic_name": "Lausanne, Foyer", "uic_ref": "8579245"}}, {"type": "node", "id": 428596584, "lat": 46.535317, "lon": 6.655468, "tags": {"bench": "yes", "bin": "yes", "bus": "yes", "ele": "637", "highway": "bus_stop", "lit": "yes", "name": "Valmont", "network": "Mobilis", "network:short": "CTV", "network:wikidata": "Q2394222", "network:wikipedia": "de:Tarifverbund Waadt", "operator": "TL", "public_transport": "platform", "shelter": "yes", "tactile_paving": "no", "trolleybus": "yes", "uic_name": "Lausanne, Valmont", "uic_ref": "8592127"}}, {"type": "node", "id": 428596587, "lat": 46.535153, "lon": 6.65547, "tags": {"bench": "yes", "bin": "yes", "bus": "yes", "ele": "637", "highway": "bus_stop", "lit": "yes", "name": "Valmont", "network": "Mobilis", "network:short": "CTV", "network:wikidata": "Q2394222", "network:wikipedia": "de:Tarifverbund Waadt", "operator": "TL", "public_transport": "platform", "shelter": "yes", "tactile_paving": "no", "trolleybus": "yes", "uic_name": "Lausanne, Valmont", "uic_ref": "8592127"}}, {"type": "node", "id": 571593695, "lat": 46.535723, "lon": 6.664114, "tags": {"bench": "no", "bin": "yes", "bus": "yes", "ele": "677", "highway": "bus_stop", "name": "Boveresses", "operator": "TL", "public_transport": "platform", "shelter": "no", "tactile_paving": "no", "trolleybus": "yes", "uic_name": "Lausanne, Boveresses", "uic_ref": "8592002"}}, {"type": "node", "id": 571620688, "lat": 46.537461, "lon": 6.666885, "tags": {"bench": "yes", "bin": "yes", "bus": "yes", "ele": "695", "highway": "bus_stop", "lit": "yes", "name": "Praz-S\u00e9chaud", "operator": "TL", "public_transport": "platform", "shelter": "yes", "tactile_paving": "no", "trolleybus": "yes", "uic_name": "Lausanne, Praz-S\u00e9chaud", "uic_ref": "8592101"}}, {"type": "node", "id": 572307462, "lat": 46.539974, "lon": 6.6576946}, {"type": "node", "id": 572307466, "lat": 46.5397947, "lon": 6.6575002}, {"type": "node", "id": 572307469, "lat": 46.5397132, "lon": 6.6576177}, {"type": "node", "id": 572307482, "lat": 46.539006, "lon": 6.6589136}, {"type": "node", "id": 572307525, "lat": 46.5395765, "lon": 6.6578474}, {"type": "node", "id": 572307536, "lat": 46.5398919, "lon": 6.6578453}, {"type": "node", "id": 572307539, "lat": 46.540002, "lon": 6.6577285}, {"type": "node", "id": 572307541, "lat": 46.5399751, "lon": 6.6577916}, {"type": "node", "id": 572307547, "lat": 46.5399446, "lon": 6.6578934}, {"type": "node", "id": 572307549, "lat": 46.5398701, "lon": 6.6581624}, {"type": "node", "id": 572307569, "lat": 46.5397978, "lon": 6.6584265}, {"type": "node", "id": 572307572, "lat": 46.5396844, "lon": 6.6588294}, {"type": "node", "id": 572307574, "lat": 46.5396572, "lon": 6.6589018}, {"type": "node", "id": 572307578, "lat": 46.5396207, "lon": 6.6587874}, {"type": "node", "id": 572307581, "lat": 46.5395796, "lon": 6.6587408}, {"type": "node", "id": 572307583, "lat": 46.539536, "lon": 6.6586914}, {"type": "node", "id": 616680305, "lat": 46.534996, "lon": 6.662954, "tags": {"bench": "yes", "bin": "yes", "bus": "yes", "ele": "677", "highway": "bus_stop", "lit": "yes", "name": "Boveresses", "operator": "TL", "public_transport": "platform", "shelter": "yes", "tactile_paving": "no", "trolleybus": "yes", "uic_name": "Lausanne, Boveresses", "uic_ref": "8592002"}}, {"type": "node", "id": 697294931, "lat": 46.5646389, "lon": 6.691738, "tags": {"bench": "yes", "bin": "yes", "ele": "861", "highway": "bus_stop", "name": "Chalet-\u00e0-Gobet", "operator": "TL", "public_transport": "platform", "shelter": "yes", "tactile_paving": "no", "uic_name": "Lausanne, Chalet-\u00e0-Gobet", "uic_ref": "8587929"}}, {"type": "node", "id": 698598069, "lat": 46.5508251, "lon": 6.6913313, "tags": {"bench": "no", "bin": "no", "bus": "yes", "ele": "809", "highway": "bus_stop", "name": "Chalet \u00e0 Matthey", "network": "Mobilis", "network:wikidata": "Q2394222", "operator": "TL", "public_transport": "platform", "shelter": "no", "tactile_paving": "no", "uic_name": "Lausanne, Chalet \u00e0 Matthey", "uic_ref": "8587547"}}, {"type": "node", "id": 736459925, "lat": 46.5359852, "lon": 6.6884452, "tags": {"bus": "yes", "ele": "745", "highway": "bus_stop", "name": "Monts-de-Pully", "network": "Mobilis", "network:short": "CTV", "network:wikidata": "Q2394222", "network:wikipedia": "de:Tarifverbund Waadt", "operator": "TL", "public_transport": "platform", "uic_name": "Pully, Monts-de-Pully", "uic_ref": "8579249"}}, {"type": "node", "id": 857558086, "lat": 46.5486475, "lon": 6.6745791, "tags": {"bus": "yes", "ele": "786", "name": "Giziaux", "network": "Mobilis", "operator": "TL", "public_transport": "stop_position", "uic_name": "Epalinges, Giziaux", "uic_ref": "8593821"}}, {"type": "node", "id": 983813112, "lat": 46.5446557, "lon": 6.6657413, "tags": {"bus": "yes", "ele": "747", "highway": "bus_stop", "name": "Planches", "operator": "TL", "public_transport": "platform", "uic_name": "Epalinges, Planches", "uic_ref": "8589525"}}, {"type": "node", "id": 983813128, "lat": 46.5483875, "lon": 6.6731002, "tags": {"bench": "no", "bus": "yes", "departures_board": "yes", "ele": "788", "highway": "bus_stop", "name": "Girarde", "network": "Mobilis", "operator": "TL", "public_transport": "platform", "shelter": "no", "uic_name": "Epalinges, Girarde", "uic_ref": "8591965"}}, {"type": "node", "id": 983813135, "lat": 46.5548776, "lon": 6.6698546, "tags": {"bench": "yes", "bus": "yes", "ele": "812", "highway": "bus_stop", "lit": "yes", "name": "Ball\u00e8gue", "network": "Mobilis", "operator": "TL", "public_transport": "platform", "shelter": "yes", "tactile_paving": "no", "uic_name": "Epalinges, Ball\u00e8gue", "uic_ref": "8591962"}}, {"type": "node", "id": 983813144, "lat": 46.5527289, "lon": 6.6680246, "tags": {"bus": "yes", "ele": "795", "highway": "bus_stop", "name": "Biolleyre", "operator": "TL", "public_transport": "platform", "uic_name": "Epalinges, Biolleyre", "uic_ref": "8591963"}}, {"type": "node", "id": 983813149, "lat": 46.554426, "lon": 6.6841112, "tags": {"bench": "no", "bus": "yes", "ele": "826", "highway": "bus_stop", "name": "Grand Chemin", "network": "Mobilis", "network:short": "CTV", "network:wikidata": "Q2394222", "operator": "TL", "public_transport": "platform", "shelter": "no", "source": "Bundesamt f\u00fcr Verkehr (BAV), DIDOK 2009", "tactile_paving": "no", "uic_name": "Epalinges, Grand Chemin", "uic_ref": "8591968"}}, {"type": "node", "id": 983813158, "lat": 46.554026, "lon": 6.6655373, "tags": {"bench": "no", "bin": "no", "bus": "yes", "ele": "797", "highway": "bus_stop", "lit": "yes", "name": "Polny", "operator": "TL", "public_transport": "platform", "shelter": "no", "source": "Bundesamt f\u00fcr Verkehr (BAV), DIDOK 2009", "tactile_paving": "no", "uic_name": "Epalinges, Polny", "uic_ref": "8591969"}}, {"type": "node", "id": 983813169, "lat": 46.5477318, "lon": 6.6710071, "tags": {"bench": "yes", "bin": "yes", "bus": "yes", "covered": "yes", "departures_board": "yes", "ele": "787", "highway": "bus_stop", "lit": "yes", "name": "Croix-Blanche", "operator": "TL", "passenger_information_display": "yes", "public_transport": "platform", "shelter": "yes", "tactile_paving": "no", "uic_name": "Epalinges, Croix-Blanche", "uic_ref": "8591966"}}, {"type": "node", "id": 983813173, "lat": 46.5507266, "lon": 6.6716106, "tags": {"bus": "yes", "ele": "790", "highway": "bus_stop", "name": "En Praz Bin", "operator": "TL", "public_transport": "platform", "uic_name": "Epalinges, En Praz Bin", "uic_ref": "8591967"}}, {"type": "node", "id": 983813183, "lat": 46.5440973, "lon": 6.6719303, "tags": {"bench": "no", "bin": "no", "bus": "yes", "departures_board": "yes", "ele": "765", "highway": "bus_stop", "mapillary": "316086649922168", "name": "Pr\u00e9-d'Yverdon", "operator": "TL", "public_transport": "platform", "shelter": "no", "source": "Bundesamt f\u00fcr Verkehr (BAV), DIDOK 2009", "survey:date": "2020-09-03", "tactile_paving": "no", "uic_name": "Epalinges, Pr\u00e9-d'Yverdon", "uic_ref": "8591970"}}, {"type": "node", "id": 983813194, "lat": 46.5302921, "lon": 6.6572477, "tags": {"bench": "no", "bin": "yes", "bus": "yes", "ele": "627", "highway": "bus_stop", "lit": "yes", "name": "Les Chavannes", "network": "Mobilis", "network:short": "CTV", "network:wikidata": "Q2394222", "network:wikipedia": "de:Tarifverbund Waadt", "operator": "TL", "public_transport": "platform", "shelter": "no", "source": "Bundesamt f\u00fcr Verkehr (BAV), DIDOK 2009", "tactile_paving": "no", "uic_name": "Lausanne, Les Chavannes", "uic_ref": "8592065"}}, {"type": "node", "id": 983813210, "lat": 46.5621129, "lon": 6.6828749, "tags": {"bench": "yes", "bin": "yes", "ele": "850", "highway": "bus_stop", "lit": "no", "name": "Cojonnex/EHL", "operator": "TL", "public_transport": "platform", "shelter": "yes", "tactile_paving": "no", "uic_name": "Lausanne, Cojonnex/EHL", "uic_ref": "8592037"}}, {"type": "node", "id": 983813321, "lat": 46.5546005, "lon": 6.6948494, "tags": {"bench": "yes", "bus": "yes", "ele": "837", "highway": "bus_stop", "name": "Vers-chez-les-Blanc", "network": "Mobilis", "network:wikidata": "Q2394222", "operator": "TL", "public_transport": "platform", "shelter": "yes", "source": "Bundesamt f\u00fcr Verkehr (BAV), DIDOK 2009", "uic_name": "Lausanne, Vers-chez-les-Blanc", "uic_ref": "8587548"}}, {"type": "node", "id": 983813495, "lat": 46.5511615, "lon": 6.6620964, "tags": {"bus": "yes", "ele": "768", "highway": "bus_stop", "name": "Mont\u00e9clard", "network": "Mobilis", "network:wikidata": "Q2394222", "operator": "TL", "public_transport": "platform", "uic_name": "Epalinges, Mont\u00e9clard", "uic_ref": "8593822"}}, {"type": "node", "id": 983813496, "lat": 46.558411, "lon": 6.662646, "tags": {"bus": "yes", "ele": "791", "highway": "bus_stop", "name": "Epalinges, Bois de Ban", "operator": "TL", "public_transport": "platform", "source": "Bundesamt f\u00fcr Verkehr (BAV), DIDOK 2009", "uic_name": "Epalinges, Bois de Ban", "uic_ref": "8593819"}}, {"type": "node", "id": 983813502, "lat": 46.5479674, "lon": 6.658696, "tags": {"bus": "yes", "ele": "724", "highway": "bus_stop", "name": "Florimont", "network": "Mobilis", "network:wikidata": "Q2394222", "operator": "TL", "public_transport": "platform", "source": "Bundesamt f\u00fcr Verkehr (BAV), DIDOK 2009", "uic_name": "Epalinges, Florimont", "uic_ref": "8593820"}}, {"type": "node", "id": 983813506, "lat": 46.56142, "lon": 6.667207, "tags": {"ele": "809", "highway": "bus_stop", "name": "Epalinges, Pr\u00e8s-les-bois", "operator": "TL", "source": "Bundesamt f\u00fcr Verkehr (BAV), DIDOK 2009", "uic_name": "Epalinges, Pr\u00e8s-les-bois", "uic_ref": "8593825"}}, {"type": "node", "id": 983813509, "lat": 46.541442, "lon": 6.671533, "tags": {"bus": "yes", "ele": "754", "highway": "bus_stop", "name": "Epalinges, Raidillon", "operator": "TL", "public_transport": "platform", "source": "Bundesamt f\u00fcr Verkehr (BAV), DIDOK 2009", "uic_name": "Epalinges, Raidillon", "uic_ref": "8593826"}}, {"type": "node", "id": 983813512, "lat": 46.552669, "lon": 6.663563, "tags": {"bus": "yes", "ele": "776", "highway": "bus_stop", "name": "Epalinges, Pierraz", "network": "Mobilis", "network:wikidata": "Q2394222", "operator": "TL", "public_transport": "platform", "source": "Bundesamt f\u00fcr Verkehr (BAV), DIDOK 2009", "uic_name": "Epalinges, Pierraz", "uic_ref": "8593823"}}, {"type": "node", "id": 983813518, "lat": 46.556945, "lon": 6.674652, "tags": {"bus": "yes", "ele": "834", "highway": "bus_stop", "name": "Epalinges, Praz-Buchilly", "network": "Mobilis", "network:short": "CTV", "network:wikidata": "Q2394222", "operator": "TL", "public_transport": "platform", "source": "Bundesamt f\u00fcr Verkehr (BAV), DIDOK 2009", "uic_name": "Epalinges, Praz-Buchilly", "uic_ref": "8593824"}}, {"type": "node", "id": 983813601, "lat": 46.553389, "lon": 6.67688, "tags": {"ele": "835", "highway": "bus_stop", "name": "Epalinges, Vuilletaz", "operator": "TL", "source": "Bundesamt f\u00fcr Verkehr (BAV), DIDOK 2009", "uic_name": "Epalinges, Vuilletaz", "uic_ref": "8593828"}}, {"type": "node", "id": 983813603, "lat": 46.5467235, "lon": 6.6745303, "tags": {"bus": "yes", "ele": "796", "highway": "bus_stop", "name": "Epalinges, Sylvana", "operator": "TL", "public_transport": "platform", "shelter": "no", "source": "Bundesamt f\u00fcr Verkehr (BAV), DIDOK 2009", "uic_name": "Epalinges, Sylvana", "uic_ref": "8593827"}}, {"type": "node", "id": 983813646, "lat": 46.5583203, "lon": 6.6812206, "tags": {"bench": "yes", "bus": "yes", "highway": "bus_stop", "lit": "yes", "name": "Vulliette", "network": "Mobilis", "network:short": "CTV", "network:wikidata": "Q2394222", "operator": "TL", "public_transport": "platform", "shelter": "yes", "tactile_paving": "no", "uic_name": "Lausanne, Vulliette", "uic_ref": "8587549"}}, {"type": "node", "id": 1042366787, "lat": 46.5423217, "lon": 6.6793903, "tags": {"bus": "yes", "ele": "700", "highway": "bus_stop", "name": "Perronnaz", "operator": "TL", "public_transport": "platform", "uic_name": "Montblesson, Perronnaz", "uic_ref": "8587550"}}, {"type": "node", "id": 1042367004, "lat": 46.54234, "lon": 6.6793576, "tags": {"bus": "yes", "ele": "700", "name": "Perronnaz", "operator": "TL", "public_transport": "stop_position", "uic_name": "Montblesson, Perronnaz", "uic_ref": "8587550"}}, {"type": "node", "id": 1043793186, "lat": 46.54836, "lon": 6.6730026, "tags": {"bench": "yes", "bus": "yes", "departures_board": "yes", "ele": "788", "highway": "bus_stop", "name": "Girarde", "network": "Mobilis", "operator": "TL", "public_transport": "platform", "shelter": "no", "uic_name": "Epalinges, Girarde", "uic_ref": "8591965"}}, {"type": "node", "id": 1043793435, "lat": 46.5475493, "lon": 6.6708643, "tags": {"bench": "yes", "bin": "yes", "bus": "yes", "ele": "787", "highway": "bus_stop", "name": "Croix-Blanche", "operator": "TL", "public_transport": "platform", "shelter": "no", "tactile_paving": "no", "uic_name": "Epalinges, Croix-Blanche", "uic_ref": "8591966"}}, {"type": "node", "id": 1651310752, "lat": 46.5313628, "lon": 6.6591246, "tags": {"bus": "yes", "ele": "644", "highway": "bus_stop", "name": "Craivavers", "operator": "TL", "public_transport": "platform", "uic_name": "Lausanne, Craivavers", "uic_ref": "8592025"}}, {"type": "node", "id": 1651310761, "lat": 46.5327594, "lon": 6.660337, "tags": {"bench": "no", "bin": "yes", "bus": "yes", "ele": "650", "highway": "bus_stop", "lit": "no", "name": "Foyer", "operator": "TL", "public_transport": "platform", "shelter": "no", "tactile_paving": "no", "uic_name": "Lausanne, Foyer", "uic_ref": "8579245"}}, {"type": "node", "id": 1678435053, "lat": 46.553048, "lon": 6.6936467, "tags": {"bus": "yes", "ele": "832", "name": "Molliettes", "network": "Mobilis", "network:wikidata": "Q2394222", "operator": "TL", "public_transport": "stop_position", "uic_name": "Lausanne, Molliettes", "uic_ref": "8592073"}}, {"type": "node", "id": 1942809316, "lat": 46.5451149, "lon": 6.6544944, "tags": {"bus": "yes", "ele": "711", "highway": "bus_stop", "name": "Bois-Murat", "operator": "TL", "public_transport": "platform", "shelter": "yes", "uic_name": "Epalinges, Bois-Murat", "uic_ref": "8591964"}}, {"type": "node", "id": 1942809317, "lat": 46.5649315, "lon": 6.6914901, "tags": {"bench": "yes", "bin": "yes", "ele": "861", "highway": "bus_stop", "name": "Chalet-\u00e0-Gobet", "operator": "TL", "public_transport": "platform", "shelter": "yes", "tactile_paving": "no", "uic_name": "Lausanne, Chalet-\u00e0-Gobet", "uic_ref": "8587929"}}, {"type": "node", "id": 1942809318, "lat": 46.5614243, "lon": 6.6821495, "tags": {"bench": "yes", "highway": "bus_stop", "lit": "yes", "name": "Cojonnex/EHL", "operator": "TL", "public_transport": "platform", "shelter": "yes", "tactile_paving": "no", "uic_name": "Lausanne, Cojonnex/EHL", "uic_ref": "8592037"}}, {"type": "node", "id": 1942809320, "lat": 46.5486629, "lon": 6.6746644, "tags": {"bench": "yes", "bus": "yes", "departures_board": "yes", "ele": "786", "highway": "bus_stop", "lit": "yes", "name": "Giziaux", "network": "Mobilis", "operator": "TL", "public_transport": "platform", "shelter": "yes", "tactile_paving": "no", "uic_name": "Epalinges, Giziaux", "uic_ref": "8593821"}}, {"type": "node", "id": 1942809321, "lat": 46.5517952, "lon": 6.6803009, "tags": {"bench": "yes", "covered": "yes", "ele": "785", "highway": "bus_stop", "name": "Lion d'Or", "operator": "TL", "public_transport": "platform", "shelter": "yes", "uic_name": "Epalinges, Lion d'Or", "uic_ref": "8587546"}}, {"type": "node", "id": 1942809322, "lat": 46.5525079, "lon": 6.6828168, "tags": {"bench": "no", "covered": "no", "highway": "bus_stop", "lit": "yes", "name": "Lion d'Or", "operator": "TL", "public_transport": "platform", "shelter": "no", "tactile_paving": "no", "uic_name": "Epalinges, Lion d'Or", "uic_ref": "8587546"}}, {"type": "node", "id": 1942809323, "lat": 46.5444102, "lon": 6.6678056, "tags": {"bench": "no", "bus": "yes", "ele": "747", "highway": "bus_stop", "lit": "yes", "name": "Planches", "operator": "TL", "public_transport": "platform", "shelter": "no", "tactile_paving": "no", "uic_name": "Epalinges, Planches", "uic_ref": "8589525"}}, {"type": "node", "id": 1942809324, "lat": 46.5444265, "lon": 6.6579306, "tags": {"bus": "yes", "ele": "710", "highway": "bus_stop", "name": "Tuileries", "operator": "TL", "public_transport": "platform", "uic_name": "Epalinges, Tuileries", "uic_ref": "8591971"}}, {"type": "node", "id": 1942809325, "lat": 46.5576347, "lon": 6.6818775, "tags": {"bus": "yes", "highway": "bus_stop", "name": "Vulliette", "network": "Mobilis", "network:short": "CTV", "network:wikidata": "Q2394222", "operator": "TL", "public_transport": "platform", "uic_name": "Lausanne, Vulliette", "uic_ref": "8587549"}}, {"type": "node", "id": 1946006219, "lat": 46.5522493, "lon": 6.6687526, "tags": {"bus": "yes", "ele": "795", "highway": "bus_stop", "name": "Biolleyre", "operator": "TL", "public_transport": "platform", "uic_name": "Epalinges, Biolleyre", "uic_ref": "8591963"}}, {"type": "node", "id": 1946006220, "lat": 46.5506583, "lon": 6.6714941, "tags": {"bus": "yes", "ele": "790", "highway": "bus_stop", "name": "En Praz Bin", "operator": "TL", "public_transport": "platform", "uic_name": "Epalinges, En Praz Bin", "uic_ref": "8591967"}}, {"type": "node", "id": 2012479956, "lat": 46.5450829, "lon": 6.6543958, "tags": {"bus": "yes", "ele": "711", "name": "Bois-Murat", "operator": "TL", "public_transport": "stop_position", "uic_name": "Epalinges, Bois-Murat", "uic_ref": "8591964"}}, {"type": "node", "id": 2074584199, "lat": 46.5397805, "lon": 6.6518015}, {"type": "node", "id": 2520771154, "lat": 46.5432456, "lon": 6.661881, "tags": {"bench": "yes", "bin": "yes", "bus": "yes", "highway": "bus_stop", "lit": "yes", "local_ref": "E", "name": "Croisettes", "network": "Mobilis", "network:wikidata": "Q2394222", "operator": "TL", "public_transport": "platform", "ref:sloid": "ch:1:sloid:79239:0:1691", "shelter": "no", "tactile_paving": "yes", "uic_name": "Epalinges, Croisettes", "uic_ref": "8579239"}}, {"type": "node", "id": 3172524363, "lat": 46.5420395, "lon": 6.6605939}, {"type": "node", "id": 3214217422, "lat": 46.5401258, "lon": 6.657435}, {"type": "node", "id": 3214239956, "lat": 46.5407431, "lon": 6.6568101}, {"type": "node", "id": 3214239957, "lat": 46.5410683, "lon": 6.6568885}, {"type": "node", "id": 3214239958, "lat": 46.5411191, "lon": 6.6569532}, {"type": "node", "id": 3219060209, "lat": 46.5428853, "lon": 6.6615113, "tags": {"ele": "714", "level": "-1", "name": "Croisettes", "operator": "TL", "public_transport": "station", "railway": "halt", "station": "subway", "subway": "yes", "uic_name": "Epalinges, Croisettes", "uic_ref": "8579239", "wikidata": "Q22343084"}}, {"type": "node", "id": 3219060211, "lat": 46.541273, "lon": 6.6575679, "tags": {"ele": "691", "level": "-3", "name": "Vennes", "operator": "TL", "public_transport": "stop_position", "railway": "stop", "subway": "yes", "uic_name": "Lausanne, Vennes", "uic_ref": "8592128"}}, {"type": "node", "id": 3219060224, "lat": 46.5394977, "lon": 6.6585888}, {"type": "node", "id": 3219060225, "lat": 46.539249, "lon": 6.6592182}, {"type": "node", "id": 3219060226, "lat": 46.5392933, "lon": 6.6592667}, {"type": "node", "id": 3219060227, "lat": 46.5393375, "lon": 6.6593152}, {"type": "node", "id": 3219060235, "lat": 46.5397619, "lon": 6.6518371}, {"type": "node", "id": 3219060237, "lat": 46.5398976, "lon": 6.6573501}, {"type": "node", "id": 3219060247, "lat": 46.540041, "lon": 6.6572014}, {"type": "node", "id": 3219060259, "lat": 46.540386, "lon": 6.6528161}, {"type": "node", "id": 3219060260, "lat": 46.5406223, "lon": 6.6568676}, {"type": "node", "id": 3219063364, "lat": 46.5406167, "lon": 6.6537542}, {"type": "node", "id": 3219063388, "lat": 46.540991, "lon": 6.6559673}, {"type": "node", "id": 3219063396, "lat": 46.5410961, "lon": 6.6569163, "tags": {"railway": "railway_crossing"}}, {"type": "node", "id": 3219063397, "lat": 46.5411305, "lon": 6.6574004}, {"type": "node", "id": 3219063398, "lat": 46.5411488, "lon": 6.6573939}, {"type": "node", "id": 3219063400, "lat": 46.5411637, "lon": 6.6571206}, {"type": "node", "id": 3219063402, "lat": 46.5411967, "lon": 6.6577947}, {"type": "node", "id": 3219063404, "lat": 46.5412149, "lon": 6.6577882}, {"type": "node", "id": 3219063407, "lat": 46.5412115, "lon": 6.6575919, "tags": {"ele": "691", "level": "-3", "name": "Vennes", "operator": "TL", "public_transport": "stop_position", "railway": "stop", "subway": "yes", "uic_name": "Lausanne, Vennes", "uic_ref": "8592128"}}, {"type": "node", "id": 3219063409, "lat": 46.541261, "lon": 6.6573626}, {"type": "node", "id": 3219063410, "lat": 46.5412792, "lon": 6.6573561}, {"type": "node", "id": 3219063411, "lat": 46.5412907, "lon": 6.6578114, "tags": {"railway": "subway_entrance", "wheelchair": "yes"}}, {"type": "node", "id": 3219063412, "lat": 46.5413056, "lon": 6.6579562, "tags": {"railway": "switch"}}, {"type": "node", "id": 3219063413, "lat": 46.5413278, "lon": 6.658252, "tags": {"railway": "switch"}}, {"type": "node", "id": 3219063414, "lat": 46.5413273, "lon": 6.6577579}, {"type": "node", "id": 3219063417, "lat": 46.5413455, "lon": 6.6577514}, {"type": "node", "id": 3219063418, "lat": 46.5413843, "lon": 6.6582287, "tags": {"railway": "switch"}}, {"type": "node", "id": 3219063419, "lat": 46.541462, "lon": 6.6588391}, {"type": "node", "id": 3219063420, "lat": 46.5415842, "lon": 6.6595084}, {"type": "node", "id": 3219063421, "lat": 46.5416171, "lon": 6.6594988}, {"type": "node", "id": 3219063422, "lat": 46.5416457, "lon": 6.6598609}, {"type": "node", "id": 3219063423, "lat": 46.5416778, "lon": 6.6598486}, {"type": "node", "id": 3219063424, "lat": 46.5418887, "lon": 6.6604744}, {"type": "node", "id": 3219063425, "lat": 46.542065, "lon": 6.6606242}, {"type": "node", "id": 3219063426, "lat": 46.5423383, "lon": 6.6609543, "tags": {"railway": "switch"}}, {"type": "node", "id": 3219063427, "lat": 46.542351, "lon": 6.6609266, "tags": {"railway": "switch"}}, {"type": "node", "id": 3219063428, "lat": 46.5424622, "lon": 6.6610855, "tags": {"railway": "switch"}}, {"type": "node", "id": 3219063429, "lat": 46.5424752, "lon": 6.6610571, "tags": {"railway": "switch"}}, {"type": "node", "id": 3219063430, "lat": 46.5426499, "lon": 6.6613463}, {"type": "node", "id": 3219063431, "lat": 46.5426608, "lon": 6.6613244}, {"type": "node", "id": 3219063432, "lat": 46.5427076, "lon": 6.661243}, {"type": "node", "id": 3219063433, "lat": 46.5427193, "lon": 6.6612224}, {"type": "node", "id": 3219063435, "lat": 46.542907, "lon": 6.6616176}, {"type": "node", "id": 3219063436, "lat": 46.542918, "lon": 6.6615957}, {"type": "node", "id": 3219063437, "lat": 46.5429223, "lon": 6.6615778, "tags": {"ele": "714", "layer": "-1", "level": "-1", "name": "Croisettes", "network": "Mobilis", "operator": "TL", "public_transport": "stop_position", "railway": "stop", "subway": "yes", "uic_name": "Epalinges, Croisettes", "uic_ref": "8579239"}}, {"type": "node", "id": 3219063438, "lat": 46.5429371, "lon": 6.6615469, "tags": {"ele": "714", "layer": "-1", "level": "-1", "name": "Croisettes", "network": "Mobilis", "operator": "TL", "public_transport": "stop_position", "railway": "stop", "subway": "yes", "uic_name": "Epalinges, Croisettes", "uic_ref": "8579239"}}, {"type": "node", "id": 3219063439, "lat": 46.5429493, "lon": 6.6615323}, {"type": "node", "id": 3219063440, "lat": 46.542961, "lon": 6.6615116}, {"type": "node", "id": 3220361520, "lat": 46.5430929, "lon": 6.6614849, "tags": {"bench": "yes", "bin": "yes", "bus": "yes", "highway": "bus_stop", "lit": "yes", "local_ref": "A", "name": "Croisettes", "network": "Mobilis", "network:wikidata": "Q2394222", "operator": "TL", "public_transport": "platform", "ref:sloid": "ch:1:sloid:79239:0:512", "shelter": "yes", "tactile_paving": "no", "uic_name": "Epalinges, Croisettes", "uic_ref": "8579239"}}, {"type": "node", "id": 3220361521, "lat": 46.5431448, "lon": 6.6615474, "tags": {"bench": "yes", "bin": "yes", "bus": "yes", "highway": "bus_stop", "lit": "yes", "local_ref": "B", "name": "Croisettes", "network": "Mobilis", "network:wikidata": "Q2394222", "operator": "TL", "public_transport": "platform", "ref:sloid": "ch:1:sloid:79239:0:1692", "shelter": "yes", "tactile_paving": "no", "uic_name": "Epalinges, Croisettes", "uic_ref": "8579239"}}, {"type": "node", "id": 3220361522, "lat": 46.543194, "lon": 6.6616143, "tags": {"bench": "yes", "bin": "yes", "bus": "yes", "highway": "bus_stop", "lit": "yes", "local_ref": "C", "name": "Croisettes", "network": "Mobilis", "network:wikidata": "Q2394222", "operator": "TL", "public_transport": "platform", "ref:sloid": "ch:1:sloid:79239:0:508", "shelter": "yes", "tactile_paving": "no", "uic_name": "Epalinges, Croisettes", "uic_ref": "8579239"}}, {"type": "node", "id": 3220361523, "lat": 46.5432812, "lon": 6.6616604, "tags": {"bench": "yes", "bin": "yes", "bus": "yes", "highway": "bus_stop", "lit": "yes", "local_ref": "D", "name": "Croisettes", "network": "Mobilis", "network:wikidata": "Q2394222", "operator": "TL", "public_transport": "platform", "ref:sloid": "ch:1:sloid:79239:0:510", "shelter": "yes", "tactile_paving": "no", "uic_name": "Epalinges, Croisettes", "uic_ref": "8579239"}}, {"type": "node", "id": 3476327411, "lat": 46.5431139, "lon": 6.6615587, "tags": {"railway": "subway_entrance", "wheelchair": "yes"}}, {"type": "node", "id": 5644519812, "lat": 46.5412298, "lon": 6.6575976, "tags": {"ele": "691", "level": "-3", "name": "Vennes", "operator": "TL", "public_transport": "station", "railway": "halt", "station": "subway", "subway": "yes", "uic_name": "Lausanne, Vennes", "uic_ref": "8592128", "wheelchair": "yes", "wikidata": "Q22343329"}}, {"type": "node", "id": 6595079718, "lat": 46.5569682, "lon": 6.6840153, "tags": {"ele": "833", "highway": "bus_stop", "name": "En Marin", "operator": "TL", "public_transport": "platform", "shelter": "yes", "uic_name": "Lausanne, En Marin", "uic_ref": "8504171"}}, {"type": "node", "id": 6597251655, "lat": 46.5424029, "lon": 6.6794054, "tags": {"bus": "yes", "ele": "700", "name": "Perronnaz", "operator": "TL", "public_transport": "stop_position", "uic_name": "Montblesson, Perronnaz", "uic_ref": "8587550"}}, {"type": "node", "id": 6712810105, "lat": 46.539162, "lon": 6.697055}, {"type": "node", "id": 6712810106, "lat": 46.5392662, "lon": 6.6973318}, {"type": "node", "id": 7661131289, "lat": 46.5400338, "lon": 6.6521488}, {"type": "node", "id": 7661131290, "lat": 46.5400623, "lon": 6.6521042}, {"type": "node", "id": 7661131291, "lat": 46.5410729, "lon": 6.6562345}, {"type": "node", "id": 7661131292, "lat": 46.540859, "lon": 6.6549347}, {"type": "node", "id": 7661131293, "lat": 46.5408179, "lon": 6.6549419}, {"type": "node", "id": 7661131294, "lat": 46.5405184, "lon": 6.6532613}, {"type": "node", "id": 7661131295, "lat": 46.5405542, "lon": 6.6532497}, {"type": "node", "id": 7661131296, "lat": 46.5402431, "lon": 6.6524032}, {"type": "node", "id": 7661131297, "lat": 46.5402114, "lon": 6.6524382}, {"type": "node", "id": 7661131307, "lat": 46.5401917, "lon": 6.6572166}, {"type": "node", "id": 7661131308, "lat": 46.5401475, "lon": 6.6572904}, {"type": "node", "id": 7661131309, "lat": 46.5400824, "lon": 6.6574097}, {"type": "node", "id": 7661131310, "lat": 46.539924, "lon": 6.6576811}, {"type": "node", "id": 7661131311, "lat": 46.54032, "lon": 6.6571422}, {"type": "node", "id": 7661131312, "lat": 46.5401821, "lon": 6.657342}, {"type": "node", "id": 7661131313, "lat": 46.5402512, "lon": 6.6571328}, {"type": "node", "id": 7661131314, "lat": 46.5401535, "lon": 6.6572367}, {"type": "node", "id": 7661131315, "lat": 46.5400718, "lon": 6.6573367}, {"type": "node", "id": 7661131316, "lat": 46.5400202, "lon": 6.6574258}, {"type": "node", "id": 7661131317, "lat": 46.5398917, "lon": 6.6576449}, {"type": "node", "id": 7661131318, "lat": 46.5404053, "lon": 6.6570108}, {"type": "node", "id": 7661131319, "lat": 46.540242, "lon": 6.6571147}, {"type": "node", "id": 7661131320, "lat": 46.5399826, "lon": 6.6573484}, {"type": "node", "id": 7661131321, "lat": 46.5400467, "lon": 6.6572941}, {"type": "node", "id": 7661131322, "lat": 46.540099, "lon": 6.6572341}, {"type": "node", "id": 7661131323, "lat": 46.5399768, "lon": 6.6573983}, {"type": "node", "id": 7661131324, "lat": 46.5399302, "lon": 6.6574788}, {"type": "node", "id": 7661131325, "lat": 46.5405448, "lon": 6.6569176}, {"type": "node", "id": 7661131326, "lat": 46.5403315, "lon": 6.6570584}, {"type": "node", "id": 7661131327, "lat": 46.5401535, "lon": 6.6571818}, {"type": "node", "id": 7661131328, "lat": 46.5400331, "lon": 6.6572947}, {"type": "node", "id": 7661131329, "lat": 46.5399399, "lon": 6.6573957}, {"type": "node", "id": 7661131330, "lat": 46.5398721, "lon": 6.6574969}, {"type": "node", "id": 7661131331, "lat": 46.539826, "lon": 6.6575712}, {"type": "node", "id": 7661131332, "lat": 46.5398589, "lon": 6.6576081}, {"type": "node", "id": 7661131333, "lat": 46.5390459, "lon": 6.659119}, {"type": "node", "id": 7661131334, "lat": 46.5390789, "lon": 6.6591552}, {"type": "node", "id": 7661131335, "lat": 46.539112, "lon": 6.6591914}, {"type": "node", "id": 7661131336, "lat": 46.5390128, "lon": 6.6590828}, {"type": "node", "id": 7661131337, "lat": 46.5413139, "lon": 6.6580427}, {"type": "node", "id": 7661131338, "lat": 46.5413264, "lon": 6.658038}, {"type": "node", "id": 7661131339, "lat": 46.5413582, "lon": 6.6581279}, {"type": "node", "id": 7661131340, "lat": 46.5413181, "lon": 6.6581473}, {"type": "node", "id": 7661131367, "lat": 46.5429134, "lon": 6.6616049}, {"type": "node", "id": 7661131368, "lat": 46.5429551, "lon": 6.6615219}, {"type": "node", "id": 7661131369, "lat": 46.5423807, "lon": 6.6609652}, {"type": "node", "id": 7661131370, "lat": 46.5423722, "lon": 6.6609821}, {"type": "node", "id": 7661131371, "lat": 46.5424415, "lon": 6.6610287}, {"type": "node", "id": 7661131372, "lat": 46.5424319, "lon": 6.6610475}, {"type": "node", "id": 7661131373, "lat": 46.542406, "lon": 6.6610051, "tags": {"railway": "railway_crossing"}}, {"type": "node", "id": 7661131374, "lat": 46.5420473, "lon": 6.6606512}, {"type": "node", "id": 7661131375, "lat": 46.5419172, "lon": 6.6604487}, {"type": "node", "id": 7661131376, "lat": 46.5418116, "lon": 6.660275}, {"type": "node", "id": 7661131377, "lat": 46.5417406, "lon": 6.660098}, {"type": "node", "id": 7661131378, "lat": 46.5417793, "lon": 6.6603018}, {"type": "node", "id": 7661131379, "lat": 46.5417055, "lon": 6.6601141}, {"type": "node", "id": 7661131380, "lat": 46.541147, "lon": 6.6570289}, {"type": "node", "id": 7661131381, "lat": 46.5410026, "lon": 6.6568391}, {"type": "node", "id": 7661131382, "lat": 46.5409094, "lon": 6.6568042}, {"type": "node", "id": 7661131383, "lat": 46.5408181, "lon": 6.6567948}, {"type": "node", "id": 7661131384, "lat": 46.5404855, "lon": 6.6569598}, {"type": "node", "id": 7661131385, "lat": 46.5404131, "lon": 6.6570282}, {"type": "node", "id": 7661131386, "lat": 46.5402489, "lon": 6.6572394}, {"type": "node", "id": 7661131387, "lat": 46.5400875, "lon": 6.6575036}, {"type": "node", "id": 7661131388, "lat": 46.5400511, "lon": 6.6575512}, {"type": "node", "id": 7661131389, "lat": 46.5400571, "lon": 6.6575727}, {"type": "node", "id": 7661131390, "lat": 46.5399174, "lon": 6.657973}, {"type": "node", "id": 7661131391, "lat": 46.5398372, "lon": 6.6582538}, {"type": "node", "id": 7661131392, "lat": 46.5397656, "lon": 6.6585174}, {"type": "node", "id": 7661131393, "lat": 46.5397496, "lon": 6.6586028}, {"type": "node", "id": 7661131394, "lat": 46.5397438, "lon": 6.6585596}, {"type": "node", "id": 7661131395, "lat": 46.5398215, "lon": 6.6582848}, {"type": "node", "id": 7661131396, "lat": 46.539893, "lon": 6.6580234}, {"type": "node", "id": 7661131404, "lat": 46.5402028, "lon": 6.6570872}, {"type": "node", "id": 7661131405, "lat": 46.5403513, "lon": 6.6570014}, {"type": "node", "id": 7716265970, "lat": 46.5601444, "lon": 6.6846764, "tags": {"bus": "yes", "ele": "854", "highway": "bus_stop", "name": "Vert-Bois/EHL", "operator": "TL", "public_transport": "platform", "shelter": "yes", "uic_name": "Lausanne, Vert-Bois/EHL", "uic_ref": "8592130"}}, {"type": "node", "id": 8506985334, "lat": 46.5305352, "lon": 6.6582055, "tags": {"bus": "yes", "ele": "627", "highway": "bus_stop", "name": "Les Chavannes", "network": "Mobilis", "network:short": "CTV", "network:wikidata": "Q2394222", "operator": "TL", "public_transport": "platform", "source": "Bundesamt f\u00fcr Verkehr (BAV), DIDOK 2009", "uic_name": "Lausanne, Les Chavannes", "uic_ref": "8592065"}}, {"type": "node", "id": 8507554175, "lat": 46.5574927, "lon": 6.6843849, "tags": {"ele": "833", "highway": "bus_stop", "level": "-1", "name": "En Marin", "operator": "TL", "public_transport": "platform", "shelter": "yes", "uic_name": "Lausanne, En Marin", "uic_ref": "8504171"}}, {"type": "node", "id": 8532107538, "lat": 46.5438538, "lon": 6.6728157, "tags": {"bench": "no", "bin": "no", "bus": "yes", "departures_board": "yes", "ele": "765", "highway": "bus_stop", "mapillary": "316086649922168", "name": "Pr\u00e9-d'Yverdon", "operator": "TL", "public_transport": "platform", "shelter": "no", "source": "Bundesamt f\u00fcr Verkehr (BAV), DIDOK 2009", "survey:date": "2020-09-03", "uic_name": "Epalinges, Pr\u00e9-d'Yverdon", "uic_ref": "8591970"}}, {"type": "node", "id": 9268721065, "lat": 46.5483737, "lon": 6.673045, "tags": {"bus": "yes", "ele": "788", "name": "Girarde", "network": "Mobilis", "operator": "TL", "public_transport": "stop_position", "uic_name": "Epalinges, Girarde", "uic_ref": "8591965"}}, {"type": "node", "id": 9268721069, "lat": 46.5476646, "lon": 6.6709926, "tags": {"bus": "yes", "ele": "787", "name": "Croix-Blanche", "operator": "TL", "public_transport": "stop_position", "uic_name": "Epalinges, Croix-Blanche", "uic_ref": "8591966"}}, {"type": "node", "id": 9268721070, "lat": 46.547623, "lon": 6.6708586, "tags": {"bus": "yes", "ele": "787", "name": "Croix-Blanche", "operator": "TL", "public_transport": "stop_position", "uic_name": "Epalinges, Croix-Blanche", "uic_ref": "8591966"}}, {"type": "node", "id": 9270502878, "lat": 46.5645509, "lon": 6.6889389, "tags": {"bus": "yes", "ele": "858", "name": "Mauvernay", "operator": "TL", "public_transport": "stop_position", "uic_name": "Lausanne, Mauvernay", "uic_ref": "8592070"}}, {"type": "node", "id": 9293696059, "lat": 46.5405131, "lon": 6.7036405}, {"type": "node", "id": 9293696060, "lat": 46.5404882, "lon": 6.7036484}, {"type": "node", "id": 9293696061, "lat": 46.5405264, "lon": 6.7039049}, {"type": "node", "id": 9293696062, "lat": 46.5405513, "lon": 6.703897}, {"type": "node", "id": 9293696086, "lat": 46.5408429, "lon": 6.703715}, {"type": "node", "id": 9293696087, "lat": 46.5408644, "lon": 6.7037455}, {"type": "node", "id": 9293696088, "lat": 46.5407938, "lon": 6.7038614}, {"type": "node", "id": 9293696089, "lat": 46.5407697, "lon": 6.7038201}, {"type": "node", "id": 9969649056, "lat": 46.5431623, "lon": 6.662147, "tags": {"bench": "yes", "bin": "yes", "bus": "yes", "highway": "bus_stop", "lit": "yes", "local_ref": "F", "name": "Croisettes", "network": "Mobilis", "network:wikidata": "Q2394222", "operator": "TL", "public_transport": "platform", "ref:sloid": "ch:1:sloid:79239:0:2975", "shelter": "no", "tactile_paving": "yes", "uic_name": "Epalinges, Croisettes", "uic_ref": "8579239"}}, {"type": "node", "id": 10139224684, "lat": 46.5404592, "lon": 6.6530418}, {"type": "node", "id": 10139224685, "lat": 46.5404981, "lon": 6.6530328}, {"type": "node", "id": 10139224686, "lat": 46.5403424, "lon": 6.6526063}, {"type": "node", "id": 10139224687, "lat": 46.5403046, "lon": 6.6526268}, {"type": "node", "id": 10139224688, "lat": 46.5401314, "lon": 6.6522922}, {"type": "node", "id": 10139224689, "lat": 46.5401613, "lon": 6.6522586}, {"type": "node", "id": 10139224690, "lat": 46.5399103, "lon": 6.6519929}, {"type": "node", "id": 10139224691, "lat": 46.5399284, "lon": 6.6519461}, {"type": "node", "id": 10763795396, "lat": 46.5601297, "lon": 6.6848305, "tags": {"bus": "yes", "ele": "854", "name": "Vert-Bois/EHL", "operator": "TL", "public_transport": "stop_position", "uic_name": "Lausanne, Vert-Bois/EHL", "uic_ref": "8592130"}}, {"type": "node", "id": 10763827016, "lat": 46.561111, "lon": 6.6854011, "tags": {"bus": "yes", "ele": "854", "name": "Vert-Bois/EHL", "operator": "TL", "public_transport": "stop_position", "uic_name": "Lausanne, Vert-Bois/EHL", "uic_ref": "8592130"}}, {"type": "node", "id": 10975136730, "lat": 46.5479582, "lon": 6.6587485, "tags": {"bus": "yes", "ele": "724", "name": "Florimont", "operator": "TL", "public_transport": "stop_position", "uic_name": "Epalinges, Florimont", "uic_ref": "8593820"}}, {"type": "node", "id": 11090324314, "lat": 46.5414002, "lon": 6.6576914, "tags": {"railway": "subway_entrance", "wheelchair": "yes"}}, {"type": "node", "id": 11840830098, "lat": 46.5390864, "lon": 6.6964804}, {"type": "node", "id": 11840830099, "lat": 46.539205, "lon": 6.6967899}, {"type": "node", "id": 11959335819, "lat": 46.5397072, "lon": 6.6587568}, {"type": "node", "id": 11959335820, "lat": 46.5397747, "lon": 6.6584955}, {"type": "node", "id": 11959335821, "lat": 46.5397822, "lon": 6.6584762}, {"type": "node", "id": 11959335822, "lat": 46.5398483, "lon": 6.6582273}, {"type": "node", "id": 11959335823, "lat": 46.5398554, "lon": 6.6582087}, {"type": "node", "id": 11959335824, "lat": 46.539908, "lon": 6.657994}, {"type": "node", "id": 11959335825, "lat": 46.5399248, "lon": 6.6579547}, {"type": "node", "id": 11959335826, "lat": 46.5399311, "lon": 6.6579366}, {"type": "node", "id": 11959335827, "lat": 46.539965, "lon": 6.6578207}, {"type": "node", "id": 11959335828, "lat": 46.5397513, "lon": 6.6575613}, {"type": "node", "id": 11959335829, "lat": 46.5396474, "lon": 6.6577235}, {"type": "node", "id": 11959335830, "lat": 46.5395195, "lon": 6.6579509}, {"type": "node", "id": 12130887787, "lat": 46.5431024, "lon": 6.6615339, "tags": {"bus": "yes", "local_ref": "A", "name": "Croisettes", "network": "Mobilis", "network:wikidata": "Q2394222", "operator": "TL", "public_transport": "stop_position", "uic_name": "Epalinges, Croisettes", "uic_ref": "8579239"}}, {"type": "node", "id": 12130887788, "lat": 46.5431549, "lon": 6.6616111, "tags": {"bus": "yes", "local_ref": "B", "name": "Croisettes", "network": "Mobilis", "network:wikidata": "Q2394222", "operator": "TL", "public_transport": "stop_position", "uic_name": "Epalinges, Croisettes", "uic_ref": "8579239"}}, {"type": "node", "id": 12130887789, "lat": 46.5432882, "lon": 6.6615441, "tags": {"bus": "yes", "local_ref": "D", "name": "Croisettes", "network": "Mobilis", "network:wikidata": "Q2394222", "operator": "TL", "public_transport": "stop_position", "uic_name": "Epalinges, Croisettes", "uic_ref": "8579239"}}, {"type": "node", "id": 12130887790, "lat": 46.5432073, "lon": 6.6616836, "tags": {"bus": "yes", "local_ref": "C", "name": "Croisettes", "network": "Mobilis", "network:wikidata": "Q2394222", "operator": "TL", "public_transport": "stop_position", "uic_name": "Epalinges, Croisettes", "uic_ref": "8579239"}}, {"type": "node", "id": 12130887791, "lat": 46.5431872, "lon": 6.6620355, "tags": {"bus": "yes", "local_ref": "F", "name": "Croisettes", "network": "Mobilis", "network:wikidata": "Q2394222", "operator": "TL", "public_transport": "stop_position", "uic_name": "Epalinges, Croisettes", "uic_ref": "8579239"}}, {"type": "node", "id": 12130887792, "lat": 46.5431488, "lon": 6.6618922, "tags": {"bus": "yes", "local_ref": "E", "name": "Croisettes", "network": "Mobilis", "network:wikidata": "Q2394222", "operator": "TL", "public_transport": "stop_position", "uic_name": "Epalinges, Croisettes", "uic_ref": "8579239"}}, {"type": "node", "id": 12131046304, "lat": 46.5548473, "lon": 6.6698923, "tags": {"bus": "yes", "name": "Ball\u00e8gue", "network": "Mobilis", "operator": "TL", "public_transport": "stop_position", "uic_name": "Epalinges, Ball\u00e8gue", "uic_ref": "8591962"}}, {"type": "node", "id": 12131046307, "lat": 46.5547427, "lon": 6.6654288, "tags": {"bus": "yes", "highway": "bus_stop", "name": "Bois-de-Ban", "network": "Mobilis", "operator": "TL", "public_transport": "platform", "uic_name": "Epalinges, Bois-de-Ban", "uic_ref": "8593819"}}, {"type": "node", "id": 12131046309, "lat": 46.544722, "lon": 6.6586286, "tags": {"bus": "yes", "highway": "bus_stop", "name": "Vaugueny", "network": "Mobilis", "operator": "TL", "public_transport": "platform", "uic_name": "Epalinges, Vaugueny", "uic_ref": "8511383"}}, {"type": "node", "id": 12131046310, "lat": 46.5446943, "lon": 6.6585063, "tags": {"bus": "yes", "highway": "bus_stop", "name": "Vaugueny", "network": "Mobilis", "operator": "TL", "public_transport": "platform", "uic_name": "Epalinges, Vaugueny", "uic_ref": "8511383"}}, {"type": "node", "id": 13251214800, "lat": 46.5414204, "lon": 6.6586571}, {"type": "node", "id": 13407990740, "lat": 46.5375281, "lon": 6.6668745, "tags": {"bus": "yes", "ele": "695", "name": "Praz-S\u00e9chaud", "operator": "TL", "public_transport": "stop_position", "trolleybus": "yes", "uic_name": "Lausanne, Praz-S\u00e9chaud", "uic_ref": "8592101"}}, {"type": "node", "id": 13407990741, "lat": 46.535753, "lon": 6.6640124, "tags": {"bus": "yes", "ele": "677", "name": "Boveresses", "operator": "TL", "public_transport": "stop_position", "trolleybus": "yes", "uic_name": "Lausanne, Boveresses", "uic_ref": "8592002"}}, {"type": "node", "id": 13407990742, "lat": 46.5349688, "lon": 6.6630002, "tags": {"bus": "yes", "ele": "677", "name": "Boveresses", "operator": "TL", "public_transport": "stop_position", "trolleybus": "yes", "uic_name": "Lausanne, Boveresses", "uic_ref": "8592002"}}, {"type": "node", "id": 13407990743, "lat": 46.5334864, "lon": 6.6597534, "tags": {"bus": "yes", "ele": "650", "name": "Foyer", "operator": "TL", "public_transport": "stop_position", "trolleybus": "yes", "uic_name": "Lausanne, Foyer", "uic_ref": "8579245"}}, {"type": "node", "id": 13407990744, "lat": 46.5352367, "lon": 6.655414, "tags": {"bus": "yes", "ele": "637", "name": "Valmont", "network": "Mobilis", "network:short": "CTV", "network:wikidata": "Q2394222", "network:wikipedia": "de:Tarifverbund Waadt", "operator": "TL", "public_transport": "stop_position", "trolleybus": "yes", "uic_name": "Lausanne, Valmont", "uic_ref": "8592127"}}, {"type": "node", "id": 13408637848, "lat": 46.5441281, "lon": 6.6719448, "tags": {"bus": "yes", "ele": "765", "name": "Pr\u00e9-d'Yverdon", "operator": "TL", "public_transport": "stop_position", "uic_name": "Epalinges, Pr\u00e9-d'Yverdon", "uic_ref": "8591970"}}, {"type": "node", "id": 13408637849, "lat": 46.5438149, "lon": 6.6728142, "tags": {"bus": "yes", "ele": "765", "name": "Pr\u00e9-d'Yverdon", "operator": "TL", "public_transport": "stop_position", "uic_name": "Epalinges, Pr\u00e9-d'Yverdon", "uic_ref": "8591970"}}, {"type": "node", "id": 13408637850, "lat": 46.5443448, "lon": 6.6840021, "tags": {"bus": "yes", "ele": "792", "name": "Haute Combe", "operator": "TL", "public_transport": "stop_position", "uic_name": "Lausanne, Haute Combe", "uic_ref": "8592058"}}, {"type": "node", "id": 13408637851, "lat": 46.550851, "lon": 6.6912356, "tags": {"bus": "yes", "ele": "809", "name": "Chalet \u00e0 Matthey", "network": "Mobilis", "network:wikidata": "Q2394222", "operator": "TL", "public_transport": "stop_position", "uic_name": "Lausanne, Chalet \u00e0 Matthey", "uic_ref": "8587547"}}, {"type": "node", "id": 13408637852, "lat": 46.5511395, "lon": 6.6913953, "tags": {"bus": "yes", "ele": "809", "name": "Chalet \u00e0 Matthey", "network": "Mobilis", "network:wikidata": "Q2394222", "operator": "TL", "public_transport": "stop_position", "uic_name": "Lausanne, Chalet \u00e0 Matthey", "uic_ref": "8587547"}}, {"type": "node", "id": 13408637853, "lat": 46.5546191, "lon": 6.6947886, "tags": {"bus": "yes", "ele": "839", "name": "Vers-chez-les-Blanc", "network": "Mobilis", "network:wikidata": "Q2394222", "operator": "TL", "public_transport": "stop_position", "uic_name": "Lausanne, Vers-chez-les-Blanc", "uic_ref": "8587548"}}, {"type": "node", "id": 13408637854, "lat": 46.5585923, "lon": 6.6967559, "tags": {"bus": "yes", "ele": "866", "name": "Chevreuils", "network": "Mobilis", "network:wikidata": "Q2394222", "operator": "TL", "public_transport": "stop_position", "uic_name": "Lausanne, Chevreuils", "uic_ref": "8592015"}}, {"type": "node", "id": 13408637855, "lat": 46.5586784, "lon": 6.6966793, "tags": {"bus": "yes", "ele": "866", "name": "Chevreuils", "network": "Mobilis", "network:wikidata": "Q2394222", "operator": "TL", "public_transport": "stop_position", "uic_name": "Lausanne, Chevreuils", "uic_ref": "8592015"}}, {"type": "node", "id": 13408637856, "lat": 46.5600513, "lon": 6.6963665, "tags": {"bus": "yes", "ele": "873", "name": "Praz-Collet", "network": "Mobilis", "network:short": "CTV", "network:wikidata": "Q2394222", "operator": "TL", "public_transport": "stop_position", "uic_name": "Lausanne, Praz-Collet", "uic_ref": "8592100"}}, {"type": "node", "id": 13408637857, "lat": 46.5603269, "lon": 6.696456, "tags": {"bus": "yes", "ele": "873", "name": "Praz-Collet", "network": "Mobilis", "network:short": "CTV", "network:wikidata": "Q2394222", "operator": "TL", "public_transport": "stop_position", "uic_name": "Lausanne, Praz-Collet", "uic_ref": "8592100"}}, {"type": "node", "id": 13408637858, "lat": 46.5648623, "lon": 6.6934974, "tags": {"bus": "yes", "ele": "861", "name": "Chalet-\u00e0-Gobet/Jorat", "network": "Mobilis", "network:short": "CTV", "network:wikidata": "Q2394222", "operator": "TL", "public_transport": "stop_position", "uic_name": "Lausanne, Chalet-\u00e0-Gobet/Jorat", "uic_ref": "8509491"}}, {"type": "node", "id": 13408637859, "lat": 46.5647158, "lon": 6.691677, "tags": {"bus": "yes", "ele": "861", "name": "Chalet-\u00e0-Gobet", "operator": "TL", "public_transport": "stop_position", "uic_name": "Lausanne, Chalet-\u00e0-Gobet", "uic_ref": "8587929"}}, {"type": "node", "id": 13408637861, "lat": 46.5620742, "lon": 6.6829263, "tags": {"bus": "yes", "name": "Cojonnex/EHL", "operator": "TL", "public_transport": "stop_position", "uic_name": "Lausanne, Cojonnex/EHL", "uic_ref": "8592037"}}, {"type": "node", "id": 13408637862, "lat": 46.5614594, "lon": 6.6820661, "tags": {"bus": "yes", "name": "Cojonnex/EHL", "operator": "TL", "public_transport": "stop_position", "uic_name": "Lausanne, Cojonnex/EHL", "uic_ref": "8592037"}}, {"type": "node", "id": 13408637865, "lat": 46.552097, "lon": 6.6811081, "tags": {"bus": "yes", "ele": "785", "name": "Lion d'Or", "operator": "TL", "public_transport": "stop_position", "uic_name": "Epalinges, Lion d'Or", "uic_ref": "8587546"}}, {"type": "node", "id": 13408637866, "lat": 46.5582963, "lon": 6.6811548, "tags": {"bus": "yes", "name": "Vulliette", "network": "Mobilis", "network:short": "CTV", "network:wikidata": "Q2394222", "operator": "TL", "public_transport": "stop_position", "uic_name": "Lausanne, Vulliette", "uic_ref": "8587549"}}, {"type": "node", "id": 13408637867, "lat": 46.5576609, "lon": 6.6819283, "tags": {"bus": "yes", "name": "Vulliette", "network": "Mobilis", "network:short": "CTV", "network:wikidata": "Q2394222", "operator": "TL", "public_transport": "stop_position", "uic_name": "Lausanne, Vulliette", "uic_ref": "8587549"}}, {"type": "node", "id": 13408637868, "lat": 46.5575009, "lon": 6.6842486, "tags": {"bus": "yes", "ele": "833", "name": "En Marin", "operator": "TL", "public_transport": "stop_position", "uic_name": "Lausanne, En Marin", "uic_ref": "8504171"}}, {"type": "node", "id": 13408637869, "lat": 46.5569597, "lon": 6.6841238, "tags": {"bus": "yes", "ele": "833", "name": "En Marin", "operator": "TL", "public_transport": "stop_position", "uic_name": "Lausanne, En Marin", "uic_ref": "8504171"}}, {"type": "node", "id": 13408637870, "lat": 46.5525473, "lon": 6.6827627, "tags": {"bus": "yes", "ele": "785", "name": "Lion d'Or", "operator": "TL", "public_transport": "stop_position", "uic_name": "Epalinges, Lion d'Or", "uic_ref": "8587546"}}, {"type": "node", "id": 13408637871, "lat": 46.5517132, "lon": 6.6803734, "tags": {"bus": "yes", "ele": "785", "name": "Lion d'Or", "operator": "TL", "public_transport": "stop_position", "uic_name": "Epalinges, Lion d'Or", "uic_ref": "8587546"}}, {"type": "node", "id": 13408637872, "lat": 46.5506886, "lon": 6.6715475, "tags": {"bus": "yes", "ele": "790", "name": "En Praz Bin", "operator": "TL", "public_transport": "stop_position", "uic_name": "Epalinges, En Praz Bin", "uic_ref": "8591967"}}, {"type": "node", "id": 13408637873, "lat": 46.5444591, "lon": 6.6677325, "tags": {"bus": "yes", "ele": "747", "name": "Planches", "operator": "TL", "public_transport": "stop_position", "uic_name": "Epalinges, Planches", "uic_ref": "8589525"}}, {"type": "node", "id": 13408637874, "lat": 46.5445958, "lon": 6.6656703, "tags": {"bus": "yes", "ele": "747", "name": "Planches", "operator": "TL", "public_transport": "stop_position", "uic_name": "Epalinges, Planches", "uic_ref": "8589525"}}, {"type": "node", "id": 13408637875, "lat": 46.5443091, "lon": 6.6589089, "tags": {"bus": "yes", "ele": "710", "name": "Tuileries", "operator": "TL", "public_transport": "stop_position", "uic_name": "Epalinges, Tuileries", "uic_ref": "8591971"}}, {"type": "node", "id": 13408637876, "lat": 46.5444709, "lon": 6.6579466, "tags": {"bus": "yes", "ele": "710", "name": "Tuileries", "operator": "TL", "public_transport": "stop_position", "uic_name": "Epalinges, Tuileries", "uic_ref": "8591971"}}, {"type": "node", "id": 13408637877, "lat": 46.5539898, "lon": 6.6655193, "tags": {"bus": "yes", "ele": "797", "name": "Polny", "operator": "TL", "public_transport": "stop_position", "uic_name": "Epalinges, Polny", "uic_ref": "8591969"}}, {"type": "node", "id": 13408637878, "lat": 46.5527004, "lon": 6.6680093, "tags": {"bus": "yes", "ele": "795", "name": "Biolleyre", "operator": "TL", "public_transport": "stop_position", "uic_name": "Epalinges, Biolleyre", "uic_ref": "8591963"}}, {"type": "node", "id": 13408637879, "lat": 46.5547466, "lon": 6.6653868, "tags": {"bus": "yes", "name": "Bois-de-Ban", "operator": "TL", "public_transport": "stop_position", "uic_name": "Epalinges, Bois-de-Ban", "uic_ref": "8593819"}}, {"type": "node", "id": 13408637880, "lat": 46.5512303, "lon": 6.6620926, "tags": {"bus": "yes", "ele": "768", "name": "Mont\u00e9clard", "operator": "TL", "public_transport": "stop_position", "uic_name": "Epalinges, Mont\u00e9clard", "uic_ref": "8593822"}}, {"type": "node", "id": 13408637881, "lat": 46.551263, "lon": 6.6620529, "tags": {"bus": "yes", "ele": "768", "highway": "bus_stop", "name": "Mont\u00e9clard", "operator": "TL", "public_transport": "platform", "uic_name": "Epalinges, Mont\u00e9clard", "uic_ref": "8593822"}}, {"type": "node", "id": 13408637882, "lat": 46.5484076, "lon": 6.6590387, "tags": {"bus": "yes", "ele": "724", "highway": "bus_stop", "name": "Florimont", "operator": "TL", "public_transport": "platform", "source": "Bundesamt f\u00fcr Verkehr (BAV), DIDOK 2009", "uic_name": "Epalinges, Florimont", "uic_ref": "8593820"}}, {"type": "node", "id": 13408637883, "lat": 46.5447106, "lon": 6.6585698, "tags": {"bus": "yes", "name": "Vaugueny", "network": "Mobilis", "operator": "TL", "public_transport": "stop_position", "uic_name": "Epalinges, Vaugueny", "uic_ref": "8511383"}}, {"type": "node", "id": 13426243549, "lat": 46.5302481, "lon": 6.6572752, "tags": {"bus": "yes", "ele": "627", "name": "Les Chavannes", "network": "Mobilis", "network:short": "CTV", "network:wikidata": "Q2394222", "operator": "TL", "public_transport": "stop_position", "uic_name": "Lausanne, Les Chavannes", "uic_ref": "8592065"}}, {"type": "node", "id": 13426243550, "lat": 46.5313486, "lon": 6.6591699, "tags": {"bus": "yes", "ele": "644", "name": "Craivavers", "operator": "TL", "public_transport": "stop_position", "uic_name": "Lausanne, Craivavers", "uic_ref": "8592025"}}, {"type": "node", "id": 13426243551, "lat": 46.5313335, "lon": 6.6592072, "tags": {"bus": "yes", "ele": "644", "highway": "bus_stop", "name": "Craivavers", "operator": "TL", "public_transport": "platform", "uic_name": "Lausanne, Craivavers", "uic_ref": "8592025"}}, {"type": "node", "id": 13426243552, "lat": 46.5327341, "lon": 6.6604104, "tags": {"bus": "yes", "ele": "650", "name": "Foyer", "operator": "TL", "public_transport": "stop_position", "uic_name": "Lausanne, Foyer", "uic_ref": "8579245"}}, {"type": "node", "id": 13426290285, "lat": 46.5648877, "lon": 6.691601, "tags": {"bus": "yes", "ele": "861", "name": "Chalet-\u00e0-Gobet", "operator": "TL", "public_transport": "stop_position", "uic_name": "Lausanne, Chalet-\u00e0-Gobet", "uic_ref": "8587929"}}, {"type": "way", "id": 23407742, "nodes": [3219063438, 3219063429], "tags": {"covered": "yes", "electrified": "rail", "frequency": "0", "gauge": "1435", "layer": "-1", "level": "-1", "operator": "TL", "railway": "subway", "railway:cbtc": "uto", "start_date": "2008-08", "tunnel": "yes", "voltage": "750"}}, {"type": "way", "id": 45126536, "nodes": [3219063413, 7661131340, 7661131337, 3219063412], "tags": {"electrified": "rail", "frequency": "0", "gauge": "1435", "layer": "-1", "level": "-3", "operator": "TL", "railway": "subway", "service": "yard", "tracks": "1", "tunnel": "yes", "voltage": "750"}}, {"type": "way", "id": 45126538, "nodes": [572307569, 11959335821, 11959335820, 7661131392, 7661131394, 572307578], "tags": {"electrified": "rail", "frequency": "0", "gauge": "1435", "operator": "TL", "railway": "subway", "service": "yard", "tracks": "1", "voltage": "750"}}, {"type": "way", "id": 45126539, "nodes": [572307549, 11959335823, 11959335822, 7661131391, 7661131395, 572307581], "tags": {"electrified": "rail", "frequency": "0", "gauge": "1435", "operator": "TL", "railway": "subway", "service": "yard", "tracks": "1", "voltage": "750"}}, {"type": "way", "id": 45126540, "nodes": [572307547, 11959335826, 11959335825, 7661131390, 11959335824, 7661131396, 572307583], "tags": {"electrified": "rail", "frequency": "0", "gauge": "1435", "operator": "TL", "railway": "subway", "service": "yard", "tracks": "1", "voltage": "750"}}, {"type": "way", "id": 45126542, "nodes": [572307539, 572307541, 11959335827, 572307547, 572307549, 572307569, 7661131393], "tags": {"electrified": "rail", "frequency": "0", "gauge": "1435", "operator": "TL", "railway": "subway", "service": "yard", "tracks": "1", "voltage": "750"}}, {"type": "way", "id": 45126543, "nodes": [572307462, 572307536], "tags": {"electrified": "rail", "frequency": "0", "gauge": "1435", "operator": "TL", "railway": "subway", "service": "yard", "tracks": "1", "voltage": "750"}}, {"type": "way", "id": 45126545, "nodes": [572307466, 11959335828, 572307469, 11959335829, 572307525, 11959335830, 572307482], "tags": {"electrified": "rail", "frequency": "0", "gauge": "1435", "operator": "TL", "railway": "subway", "ref": "T", "service": "yard", "tracks": "1", "voltage": "750"}}, {"type": "way", "id": 315311320, "nodes": [3214217422, 7661131387, 7661131389, 572307539], "tags": {"electrified": "rail", "frequency": "0", "gauge": "1435", "layer": "-1", "operator": "TL", "railway": "subway", "service": "yard", "tracks": "1", "tunnel": "yes", "voltage": "750"}}, {"type": "way", "id": 315311321, "nodes": [3214217422, 7661131388, 572307462], "tags": {"electrified": "rail", "frequency": "0", "gauge": "1435", "layer": "-1", "operator": "TL", "railway": "subway", "service": "yard", "tracks": "1", "tunnel": "yes", "voltage": "750"}}, {"type": "way", "id": 315311326, "nodes": [3219060260, 7661131405, 7661131404, 3219060247, 3219060237, 572307466], "tags": {"electrified": "rail", "frequency": "0", "gauge": "1435", "layer": "-1", "operator": "TL", "railway": "subway", "service": "yard", "tracks": "1", "tunnel": "yes", "voltage": "750"}}, {"type": "way", "id": 315772942, "nodes": [3219063427, 3219063425, 3172524363, 7661131375, 7661131376, 7661131377, 3219063423, 3219063421, 253422322, 3219063418], "tags": {"electrified": "rail", "frequency": "0", "gauge": "1435", "layer": "-1", "level": "-2", "operator": "TL", "railway": "subway", "railway:cbtc": "uto", "start_date": "2008-08", "tracks": "1", "tunnel": "yes", "voltage": "750"}}, {"type": "way", "id": 315772943, "nodes": [572307581, 3219060226], "tags": {"covered": "yes", "electrified": "rail", "frequency": "0", "gauge": "1435", "indoor": "yes", "operator": "TL", "railway": "subway", "ref": "G", "service": "yard", "tracks": "1", "voltage": "750"}}, {"type": "way", "id": 315772944, "nodes": [572307536, 3219060224], "tags": {"covered": "yes", "electrified": "rail", "frequency": "0", "gauge": "1435", "indoor": "yes", "operator": "TL", "railway": "subway", "ref": "E", "service": "yard", "tracks": "1", "voltage": "750"}}, {"type": "way", "id": 315772946, "nodes": [3219063426, 7661131370, 7661131373, 7661131371, 3219063429], "tags": {"electrified": "rail", "frequency": "0", "gauge": "1435", "layer": "-1", "level": "-1", "operator": "TL", "railway": "subway", "railway:cbtc": "uto", "service": "siding", "start_date": "2008-08", "tunnel": "yes", "voltage": "750"}}, {"type": "way", "id": 315772949, "nodes": [3219063418, 7661131339, 7661131338, 3219063412], "tags": {"electrified": "rail", "frequency": "0", "gauge": "1435", "layer": "-1", "level": "-3", "operator": "TL", "railway": "subway", "service": "yard", "tracks": "1", "tunnel": "yes", "voltage": "750"}}, {"type": "way", "id": 315772952, "nodes": [3219060260, 7661131325, 7661131384, 7661131385, 7661131311, 7661131386, 7661131312, 3214217422], "tags": {"electrified": "rail", "frequency": "0", "gauge": "1435", "layer": "-1", "operator": "TL", "railway": "subway", "service": "yard", "tracks": "1", "tunnel": "yes", "voltage": "750"}}, {"type": "way", "id": 315772956, "nodes": [572307578, 3219060227], "tags": {"covered": "yes", "electrified": "rail", "frequency": "0", "gauge": "1435", "indoor": "yes", "operator": "TL", "railway": "subway", "ref": "H", "service": "yard", "tracks": "1", "voltage": "750"}}, {"type": "way", "id": 315772957, "nodes": [3219063427, 7661131369, 7661131373, 7661131372, 3219063428], "tags": {"electrified": "rail", "frequency": "0", "gauge": "1435", "layer": "-1", "level": "-1", "operator": "TL", "railway": "subway", "railway:cbtc": "uto", "service": "siding", "start_date": "2008-08", "tunnel": "yes", "voltage": "750"}}, {"type": "way", "id": 315772960, "nodes": [572307583, 3219060225], "tags": {"covered": "yes", "electrified": "rail", "frequency": "0", "gauge": "1435", "indoor": "yes", "operator": "TL", "railway": "subway", "ref": "F", "service": "yard", "tracks": "1", "voltage": "750"}}, {"type": "way", "id": 315772966, "nodes": [3219063426, 3219063428], "tags": {"electrified": "rail", "frequency": "0", "gauge": "1435", "layer": "-1", "level": "-1", "operator": "TL", "railway": "subway", "railway:cbtc": "uto", "start_date": "2008-08", "tunnel": "yes", "voltage": "750"}}, {"type": "way", "id": 315772975, "nodes": [3219063397, 3219063402, 3219063404, 3219063398, 3219063397], "tags": {"area": "yes", "covered": "yes", "layer": "-1", "level": "-3", "public_transport": "platform", "railway": "platform", "subway": "yes"}}, {"type": "way", "id": 315772980, "nodes": [3219063432, 3219063439, 7661131368, 3219063440, 3219063433, 3219063432], "tags": {"area": "yes", "covered": "yes", "layer": "-1", "level": "-1", "public_transport": "platform", "railway": "platform", "ref:sloid": "ch:1:sloid:79239:0:513", "ref_uic": "8579239", "subway": "yes", "uic_name": "Epalinges, Croisettes"}}, {"type": "way", "id": 315772982, "nodes": [3219063409, 3219063414, 3219063417, 3219063410, 3219063409], "tags": {"area": "yes", "covered": "yes", "layer": "-1", "level": "-3", "public_transport": "platform", "railway": "platform", "subway": "yes"}}, {"type": "way", "id": 315772984, "nodes": [3219063430, 3219063435, 7661131367, 3219063436, 3219063431, 3219063430], "tags": {"area": "yes", "covered": "yes", "layer": "-1", "level": "-1", "public_transport": "platform", "railway": "platform", "ref:sloid": "ch:1:sloid:79239:0:514", "ref_uic": "8579239", "subway": "yes", "uic_name": "Epalinges, Croisettes"}}, {"type": "way", "id": 315772985, "nodes": [3219063412, 3219063400, 7661131380, 3214239958, 3219063396], "tags": {"electrified": "rail", "frequency": "0", "gauge": "1435", "layer": "-1", "level": "-3", "operator": "TL", "railway": "subway", "service": "yard", "tracks": "1", "tunnel": "yes", "voltage": "750"}}, {"type": "way", "id": 315894397, "nodes": [3219063413, 13251214800, 3219063419, 3219063420, 3219063422, 7661131379, 7661131378, 3219063424, 7661131374, 3219063426], "tags": {"electrified": "rail", "frequency": "0", "gauge": "1435", "layer": "-1", "level": "-2", "operator": "TL", "railway": "subway", "railway:cbtc": "uto", "start_date": "2008-08", "tracks": "1", "tunnel": "yes", "voltage": "750"}}, {"type": "way", "id": 315909310, "nodes": [3219063429, 3219063427], "tags": {"electrified": "rail", "frequency": "0", "gauge": "1435", "layer": "-1", "level": "-1", "operator": "TL", "railway": "subway", "railway:cbtc": "uto", "start_date": "2008-08", "tunnel": "yes", "voltage": "750"}}, {"type": "way", "id": 315915250, "nodes": [3219063428, 3219063437], "tags": {"covered": "yes", "electrified": "rail", "frequency": "0", "gauge": "1435", "layer": "-1", "level": "-1", "operator": "TL", "railway": "subway", "railway:cbtc": "uto", "start_date": "2008-08", "tunnel": "yes", "voltage": "750"}}, {"type": "way", "id": 315915251, "nodes": [3219063396, 3214239957, 7661131381, 7661131382, 7661131383, 3214239956, 3219060260], "tags": {"electrified": "rail", "frequency": "0", "gauge": "1435", "layer": "-1", "level": "-3", "operator": "TL", "railway": "subway", "service": "yard", "tracks": "1", "tunnel": "yes", "voltage": "750"}}, {"type": "way", "id": 820452545, "nodes": [7661131335, 7661131310], "tags": {"covered": "yes", "electrified": "rail", "frequency": "0", "gauge": "1435", "indoor": "yes", "operator": "TL", "railway": "subway", "ref": "D", "service": "yard", "tracks": "1", "voltage": "750"}}, {"type": "way", "id": 820452546, "nodes": [7661131310, 7661131309, 7661131308, 7661131307, 7661131313], "tags": {"electrified": "rail", "frequency": "0", "gauge": "1435", "layer": "-1", "operator": "TL", "railway": "subway", "service": "yard", "tracks": "1", "tunnel": "yes", "voltage": "750"}}, {"type": "way", "id": 820452547, "nodes": [7661131334, 7661131317], "tags": {"covered": "yes", "electrified": "rail", "frequency": "0", "gauge": "1435", "indoor": "yes", "operator": "TL", "railway": "subway", "ref": "C", "service": "yard", "tracks": "1", "voltage": "750"}}, {"type": "way", "id": 820452548, "nodes": [7661131317, 7661131316, 7661131315, 7661131314, 7661131313, 7661131326], "tags": {"electrified": "rail", "frequency": "0", "gauge": "1435", "layer": "-1", "operator": "TL", "railway": "subway", "service": "yard", "tracks": "1", "tunnel": "yes", "voltage": "750"}}, {"type": "way", "id": 820452549, "nodes": [7661131331, 7661131336], "tags": {"covered": "yes", "electrified": "rail", "frequency": "0", "gauge": "1435", "indoor": "yes", "operator": "TL", "railway": "subway", "ref": "A", "service": "yard", "tracks": "1", "voltage": "750"}}, {"type": "way", "id": 820452550, "nodes": [7661131333, 7661131332], "tags": {"covered": "yes", "electrified": "rail", "frequency": "0", "gauge": "1435", "indoor": "yes", "operator": "TL", "railway": "subway", "ref": "B", "service": "yard", "tracks": "1", "voltage": "750"}}, {"type": "way", "id": 820452551, "nodes": [7661131332, 7661131324, 7661131323, 7661131321, 7661131322], "tags": {"electrified": "rail", "frequency": "0", "gauge": "1435", "layer": "-1", "operator": "TL", "railway": "subway", "service": "yard", "tracks": "1", "tunnel": "yes", "voltage": "750"}}, {"type": "way", "id": 820452552, "nodes": [7661131384, 7661131318, 7661131326, 7661131319, 7661131327, 7661131322, 7661131328, 7661131320, 7661131329, 7661131330, 7661131331], "tags": {"electrified": "rail", "frequency": "0", "gauge": "1435", "layer": "-1", "operator": "TL", "railway": "subway", "service": "yard", "tracks": "1", "tunnel": "yes", "voltage": "750"}}, {"type": "way", "id": 820452553, "nodes": [7661131393, 11959335819, 572307572, 572307574], "tags": {"electrified": "rail", "frequency": "0", "gauge": "1435", "operator": "TL", "railway": "subway", "ref": "I", "service": "yard", "tracks": "1", "voltage": "750"}}, {"type": "way", "id": 1007382804, "nodes": [9293696059, 9293696060, 9293696061, 9293696062, 9293696059], "tags": {"area": "yes", "bus": "yes", "public_transport": "platform"}}, {"type": "way", "id": 1007382806, "nodes": [9293696086, 9293696087, 9293696088, 9293696089, 9293696086], "tags": {"area": "yes", "bus": "yes", "public_transport": "platform"}}, {"type": "way", "id": 1275212942, "nodes": [11840830098, 11840830099], "tags": {"bus": "yes", "public_transport": "platform"}}, {"type": "way", "id": 1275212946, "nodes": [6712810105, 6712810106], "tags": {"bus": "yes", "incline": "10%", "public_transport": "platform", "smoothness": "good", "surface": "asphalt", "width": "1.5"}}, {"type": "way", "id": 1338018483, "nodes": [3219063418, 3219060211, 7661131291, 7661131292, 329185181, 7661131295, 10139224685, 253422325, 10139224686, 7661131296, 10139224689, 7661131290, 10139224691, 2074584199], "tags": {"electrified": "rail", "frequency": "0", "gauge": "1435", "layer": "-1", "level": "-3", "operator": "TL", "railway": "subway", "railway:cbtc": "uto", "start_date": "2008-08", "tracks": "1", "tunnel": "yes", "voltage": "750"}}, {"type": "way", "id": 1338018484, "nodes": [3219060235, 10139224690, 7661131289, 10139224688, 7661131297, 10139224687, 3219060259, 10139224684, 7661131294, 3219063364, 7661131293, 3219063388, 3219063396, 3219063407, 3219063413], "tags": {"electrified": "rail", "frequency": "0", "gauge": "1435", "layer": "-1", "level": "-3", "operator": "TL", "railway": "subway", "railway:cbtc": "uto", "start_date": "2008-08", "tracks": "1", "tunnel": "yes", "voltage": "750"}}, {"type": "relation", "id": 4250686, "members": [{"type": "node", "ref": 12130887787, "role": "stop"}, {"type": "node", "ref": 3220361520, "role": "platform"}, {"type": "node", "ref": 12130887788, "role": "stop"}, {"type": "node", "ref": 3220361521, "role": "platform"}, {"type": "node", "ref": 12130887790, "role": "stop"}, {"type": "node", "ref": 3220361522, "role": "platform"}, {"type": "node", "ref": 12130887789, "role": "stop"}, {"type": "node", "ref": 3220361523, "role": "platform"}, {"type": "node", "ref": 12130887792, "role": "stop"}, {"type": "node", "ref": 2520771154, "role": "platform"}, {"type": "node", "ref": 12130887791, "role": "stop"}, {"type": "node", "ref": 9969649056, "role": "platform"}, {"type": "way", "ref": 315772980, "role": "platform"}, {"type": "node", "ref": 3219063438, "role": "stop"}, {"type": "node", "ref": 3219063437, "role": "stop"}, {"type": "way", "ref": 315772984, "role": "platform"}, {"type": "node", "ref": 3219060209, "role": ""}, {"type": "node", "ref": 3476327411, "role": ""}], "tags": {"ele": "714", "name": "Croisettes", "network": "Mobilis", "operator": "TL", "public_transport": "stop_area", "type": "public_transport", "uic_name": "Epalinges, Croisettes", "uic_ref": "8579239"}}, {"type": "relation", "id": 4250693, "members": [{"type": "node", "ref": 418016500, "role": "platform"}, {"type": "node", "ref": 1942809324, "role": "platform"}], "tags": {"name": "Tuileries", "operator": "TL", "public_transport": "stop_area", "type": "public_transport", "uic_name": "Epalinges, Tuileries", "uic_ref": "8591971"}}, {"type": "relation", "id": 4250694, "members": [{"type": "way", "ref": 315772982, "role": "platform"}, {"type": "node", "ref": 3219060211, "role": "stop"}, {"type": "node", "ref": 3219063407, "role": "stop"}, {"type": "way", "ref": 315772975, "role": "platform"}, {"type": "node", "ref": 5644519812, "role": ""}, {"type": "node", "ref": 11090324314, "role": ""}, {"type": "node", "ref": 3219063411, "role": ""}], "tags": {"ele": "691", "name": "Vennes", "network": "Mobilis", "operator": "TL", "public_transport": "stop_area", "type": "public_transport", "uic_name": "Lausanne, Vennes", "uic_ref": "8592128"}}]}