{"version": 0.6, "generator": "Overpass API 0.7.62.8 e802775f", "osm3s": {"timestamp_osm_base": "2026-01-13T08:37:23Z", "copyright": "The data included in this document is from www.openstreetmap.org. The data is made available under ODbL."}, "elements": [{"type": "node", "id": 347168743, "lat": 19.0560779, "lon": 72.8267648}, {"type": "node", "id": 347168744, "lat": 19.0554778, "lon": 72.8267854}, {"type": "node", "id": 347168745, "lat": 19.0554818, "lon": 72.8271174}, {"type": "node", "id": 347168746, "lat": 19.0549057, "lon": 72.8271253}, {"type": "node", "id": 347168747, "lat": 19.0549122, "lon": 72.8275145}, {"type": "node", "id": 347168748, "lat": 19.0560954, "lon": 72.8274859}, {"type": "node", "id": 2449734759, "lat": 19.0549066, "lon": 72.827198, "tags": {"access": "private", "barrier": "gate", "name": "Gate 2"}}, {"type": "node", "id": 2449734760, "lat": 19.0549103, "lon": 72.8274255, "tags": {"access": "private", "barrier": "gate", "name": "Gate 1"}}, {"type": "node", "id": 2449734777, "lat": 19.055701, "lon": 72.8267823, "tags": {"access": "private", "barrier": "gate", "name": "Gate 3"}}, {"type": "node", "id": 3979327149, "lat": 19.1212448, "lon": 72.8270705}, {"type": "node", "id": 3979327151, "lat": 19.120928, "lon": 72.8268882}, {"type": "node", "id": 3979327152, "lat": 19.1209656, "lon": 72.8268108}, {"type": "node", "id": 3979327153, "lat": 19.1212949, "lon": 72.8269663}, {"type": "node", "id": 7066374709, "lat": 19.053611, "lon": 72.8246194, "tags": {"addr:district": "Mumbai", "addr:full": "13, Hill Road, Bandra (W)", "addr:postcode": "400050", "addr:state": "Maharashtra", "amenity": "hospital", "name": "Sushama Patkar Maternity ( and Surgical) Home - Bandra", "source": "OpenGovernmentData"}}, {"type": "node", "id": 7081965757, "lat": 19.0520436, "lon": 72.8238114, "tags": {"addr:district": "Mumbai", "addr:full": "Opp Mehboob Sutdio, Hill Road , Bandra West", "addr:postcode": "400050", "addr:state": "Maharashtra", "amenity": "hospital", "name": "Vision Laser Surgery Centre", "source": "OpenGovernmentData"}}, {"type": "node", "id": 9441680530, "lat": 19.0554479, "lon": 72.8271482, "tags": {"amenity": "hospital", "healthcare": "hospital"}}, {"type": "node", "id": 9507341378, "lat": 19.1210624, "lon": 72.8270276}, {"type": "node", "id": 10242737058, "lat": 19.0559475, "lon": 72.8267709, "tags": {"barrier": "gate", "name": "Gate 4"}}, {"type": "way", "id": 31213763, "nodes": [347168743, 10242737058, 2449734777, 347168744, 347168745, 347168746, 2449734759, 2449734760, 347168747, 347168748, 347168743], "tags": {"addr:district": "Mumbai", "addr:full": "St.Andrew's Road,Bandra West,Bandra", "addr:postcode": "400050", "addr:state": "Maharashtra", "addr:street": "St. Andrew Road", "amenity": "hospital", "healthcare": "hospital", "name": "Holy Family Hospital, Mumbai", "opening_hours": "Mo-Fr 08:00-17:00", "phone": "(022 30610555 )", "source": "OpenGovernmentData", "wikidata": "Q5885495", "wikipedia": "en:Holy Family Hospital, Mumbai"}}, {"type": "way", "id": 395048290, "nodes": [3979327153, 3979327152, 3979327151, 9507341378, 3979327149, 3979327153], "tags": {"addr:city": "mumbai", "addr:postcode": "400053", "addr:street": "N Dutta Road", "amenity": "hospital", "building": "yes", "healthcare": "hospital", "name": "Thunga"}}]}