{"version": 0.6, "generator": "Overpass API 0.7.62.8 e802775f", "osm3s": {"timestamp_osm_base": "2026-01-12T06:56:11Z", "copyright": "The data included in this document is from www.openstreetmap.org. The data is made available under ODbL."}, "elements": [{"type": "node", "id": 295552092, "lat": 13.0887983, "lon": 80.1994692, "tags": {"addr:district": "Chennai", "addr:full": "New No.4, Old No.1620-A, 16Th Main Road, Anna Nagar", "addr:postcode": "600040", "addr:state": "Tamil Nadu", "amenity": "hospital", "healthcare": "hospital", "name": "Sri Devi Speciality Hospial", "source": "OpenGovernmentData"}}, {"type": "node", "id": 540658116, "lat": 13.1181104, "lon": 80.1499411, "tags": {"addr:district": "Tiruvallur", "addr:full": "# 3/157, M.T.H.Road, ,Ambattur", "addr:postcode": "600053", "addr:state": "Tamil Nadu", "amenity": "hospital", "name": "B.M.Orthopaedic Hospital", "source": "OpenGovernmentData"}}, {"type": "node", "id": 618641795, "lat": 13.099355, "lon": 80.2131756}, {"type": "node", "id": 618641805, "lat": 13.1008133, "lon": 80.2138413}, {"type": "node", "id": 618641807, "lat": 13.0989693, "lon": 80.2140747}, {"type": "node", "id": 618641823, "lat": 13.1005152, "lon": 80.2145741}, {"type": "node", "id": 618736292, "lat": 13.0950952, "lon": 80.2187831}, {"type": "node", "id": 618736313, "lat": 13.0945646, "lon": 80.2205955}, {"type": "node", "id": 618736591, "lat": 13.0963249, "lon": 80.219226}, {"type": "node", "id": 618736596, "lat": 13.095839, "lon": 80.2206464}, {"type": "node", "id": 941621037, "lat": 13.0892073, "lon": 80.2178866, "tags": {"amenity": "hospital", "healthcare": "hospital", "name": "Appolo Clinic", "name:ta": "\u0b85\u0baa\u0bcd\u0baa\u0bb2\u0bcd\u0bb2\u0bcb \u0bae\u0bb0\u0bc1\u0ba4\u0bcd\u0ba4\u0bc1\u0bb5\u0bae\u0ba9\u0bc8"}}, {"type": "node", "id": 1516388617, "lat": 13.1241718, "lon": 80.1444714}, {"type": "node", "id": 1516388619, "lat": 13.1242658, "lon": 80.1463945}, {"type": "node", "id": 1516388625, "lat": 13.1245333, "lon": 80.1463648}, {"type": "node", "id": 1516388627, "lat": 13.1245478, "lon": 80.1460084}, {"type": "node", "id": 1516388638, "lat": 13.1254589, "lon": 80.146001}, {"type": "node", "id": 1516388640, "lat": 13.1254806, "lon": 80.1465727}, {"type": "node", "id": 1516388642, "lat": 13.1256903, "lon": 80.1419023}, {"type": "node", "id": 1516388644, "lat": 13.1257192, "lon": 80.1465875}, {"type": "node", "id": 1516388646, "lat": 13.1257554, "lon": 80.1463574}, {"type": "node", "id": 1516388649, "lat": 13.1260679, "lon": 80.1444769}, {"type": "node", "id": 1516388651, "lat": 13.1262109, "lon": 80.1453847}, {"type": "node", "id": 1516388652, "lat": 13.1262366, "lon": 80.1423295}, {"type": "node", "id": 1516388662, "lat": 13.1262673, "lon": 80.1433795}, {"type": "node", "id": 1516388664, "lat": 13.1262724, "lon": 80.1444506}, {"type": "node", "id": 1516388665, "lat": 13.1262905, "lon": 80.1412489}, {"type": "node", "id": 1516388666, "lat": 13.1263236, "lon": 80.1417204}, {"type": "node", "id": 1516388669, "lat": 13.1264423, "lon": 80.1412118}, {"type": "node", "id": 1516388675, "lat": 13.1265869, "lon": 80.1464465}, {"type": "node", "id": 1516388683, "lat": 13.1266014, "lon": 80.1454218}, {"type": "node", "id": 1621246558, "lat": 13.1187083, "lon": 80.1572422, "tags": {"addr:district": "Tiruvallur", "addr:full": "No.G4, Srivatsa Apartments, Plot No:196, Old Mth Road,Ambattur, Chennai", "addr:postcode": "600053", "addr:state": "Tamil Nadu", "amenity": "hospital", "emergency": "no", "name": "Ashwini Eye Care", "source": "OpenGovernmentData"}}, {"type": "node", "id": 1957904106, "lat": 13.0868667, "lon": 80.1991661, "tags": {"addr:district": "Chennai", "addr:full": "2/1911, J-Block, 15 Th Main Road, Anna Nagar", "addr:postcode": "600040", "addr:state": "Tamil Nadu", "amenity": "hospital", "healthcare": "hospital", "name": "I K Hospital", "source": "OpenGovernmentData"}}, {"type": "node", "id": 2394697635, "lat": 13.0921495, "lon": 80.218451}, {"type": "node", "id": 2394697636, "lat": 13.0921391, "lon": 80.2186817}, {"type": "node", "id": 2394697637, "lat": 13.0920241, "lon": 80.218675}, {"type": "node", "id": 2394697638, "lat": 13.0920293, "lon": 80.2184443}, {"type": "node", "id": 2559180846, "lat": 13.0929667, "lon": 80.2236256, "tags": {"addr:city": "Chennai", "addr:housename": "Dr. A. Aniz", "addr:housenumber": "158", "addr:neighbourhood": "O Block", "addr:postcode": "600102", "addr:street": "30th Street", "addr:suburb": "Anna Nagar East", "amenity": "hospital", "emergency": "yes", "healthcare": "hospital", "name": "Jaws Dental Foundation"}}, {"type": "node", "id": 3600223690, "lat": 13.0873604, "lon": 80.1858751}, {"type": "node", "id": 3600223694, "lat": 13.0873683, "lon": 80.1855803}, {"type": "node", "id": 3600223741, "lat": 13.0876803, "lon": 80.185884}, {"type": "node", "id": 3600223742, "lat": 13.0876882, "lon": 80.1855893}, {"type": "node", "id": 3702797921, "lat": 13.0859961, "lon": 80.1870589, "tags": {"addr:city": "Chennai", "addr:district": "Chennai", "addr:full": "4 - A, Dr.J.Jayalalitha Nagar, Mogappair", "addr:housenumber": "4-A", "addr:postcode": "600037", "addr:state": "Tamil Nadu", "addr:suburb": "Mogappair East", "amenity": "hospital", "email": "icvddoctors@mmm.org.in", "emergency": "yes", "healthcare": "hospital", "name": "Madras Medical Mission Hospital - Institute of Cardio Vascular Diseases", "operator:type": "private", "phone": "044 2656 5991", "source": "OpenGovernmentData", "website": "http://www.madrasmedicalmission.org/", "wheelchair": "yes", "wikidata": "Q14956788", "wikipedia": "en:Madras Medical Mission"}}, {"type": "node", "id": 6307353799, "lat": 13.1257306, "lon": 80.1465136}, {"type": "node", "id": 6914768063, "lat": 13.1026603, "lon": 80.2112943, "tags": {"addr:district": "Tiruvallur", "addr:full": "No.36, Ponnankinaru Street, Villivakkam", "addr:postcode": "600049", "addr:state": "Tamil Nadu", "amenity": "hospital", "healthcare": "hospital", "name": "Cauvery Trust Hospital", "source": "OpenGovernmentData"}}, {"type": "node", "id": 6926280322, "lat": 13.0924039, "lon": 80.2090184, "tags": {"addr:district": "Chennai", "addr:full": "1201, 6th Avenue", "addr:postcode": "600040", "addr:state": "Tamil Nadu", "addr:subdistrict": "Anna Nagar", "amenity": "hospital", "email": "info@aashianachennai.com", "healthcare": "hospital", "healthcare:speciality": "multi speciality", "name": "Aashiana Hospital", "operator:type": "private", "source": "OpenGovernmentData", "website": "http://www.aashianachennai.com/p/home.html"}}, {"type": "node", "id": 6928444701, "lat": 13.0896987, "lon": 80.1877418, "tags": {"addr:district": "Chennai", "addr:full": "959, Tvs Colony Annanagar West Extension", "addr:postcode": "600101", "addr:state": "Tamil Nadu", "amenity": "hospital", "name": "SKS Hospital, Chennai", "source": "OpenGovernmentData"}}, {"type": "node", "id": 6928800365, "lat": 13.1175413, "lon": 80.1539406, "tags": {"addr:district": "Tiruvallur", "addr:full": "Vijoya Complex,No.1.M.J.H.Road,Ambattur,Chennai", "addr:postcode": "600053", "addr:state": "Tamil Nadu", "amenity": "hospital", "name": "Dr.Bhats Eye Hospital", "source": "OpenGovernmentData"}}, {"type": "node", "id": 6929250392, "lat": 13.0973284, "lon": 80.1942193, "tags": {"addr:district": "Chennai", "addr:full": "W-27, Old No.18, North Main Road,Anna Nagar West Extn", "addr:postcode": "600101", "addr:state": "Tamil Nadu", "amenity": "hospital", "healthcare": "hospital", "name": "Dhanvantari Eye Care", "name:etymology:wikidata": "Q202011", "source": "OpenGovernmentData"}}, {"type": "node", "id": 6929599461, "lat": 13.1190773, "lon": 80.1504859, "tags": {"addr:district": "Chennai", "addr:full": "212 Mth Road, Ambattur", "addr:postcode": "600010", "addr:state": "Tamil Nadu", "amenity": "hospital", "name": "Dr Rabindran's Health Care Center", "source": "OpenGovernmentData"}}, {"type": "node", "id": 6932068862, "lat": 13.0850496, "lon": 80.215956, "tags": {"addr:district": "Chennai", "addr:full": "W-98, Second Avenue Anna Nagar", "addr:postcode": "600040", "addr:state": "Tamil Nadu", "amenity": "hospital", "healthcare": "hospital", "name": "West Madras Medical Centre", "source": "OpenGovernmentData"}}, {"type": "node", "id": 6932138889, "lat": 13.0916495, "lon": 80.2179844, "tags": {"addr:district": "Chennai", "addr:full": "63, Old No. 102, Q Block, 3Road Avenue , Annanagar", "addr:postcode": "600040", "addr:state": "Tamil Nadu", "amenity": "hospital", "healthcare": "hospital", "name": "Rathi Med Speciality Hospital", "source": "OpenGovernmentData"}}, {"type": "node", "id": 6932938090, "lat": 13.1368213, "lon": 80.2087516, "tags": {"addr:district": "Tiruvallur", "addr:full": "#100 A, Perambur -Redhills Road ,Near Secretariat Colony Bus Stop,Lakshmipuram", "addr:postcode": "600099", "addr:state": "Tamil Nadu", "amenity": "hospital", "healthcare": "hospital", "name": "Lake View Hospital, Tiruvallur", "source": "OpenGovernmentData"}}, {"type": "node", "id": 6933748976, "lat": 13.1232006, "lon": 80.1461421, "tags": {"addr:district": "Tiruvallur", "addr:full": "No.506,M.T.H.Road,Ambathur-Chennai", "addr:postcode": "600053", "addr:state": "Tamil Nadu", "amenity": "hospital", "name": "Essvee Hospital", "source": "OpenGovernmentData"}}, {"type": "node", "id": 6934326572, "lat": 13.1308907, "lon": 80.2138799, "tags": {"addr:block": "Madhavaram", "addr:district": "Thiruvallur", "addr:full": "No:1419, Chennai, 200 Feet,Retteri Junction,Kolathur", "addr:postcode": "600099", "addr:state": "Tamil Nadu", "addr:subdistrict": "Mathavaram", "amenity": "hospital", "healthcare": "hospital", "name": "Sri Kumaran Health Centre", "source": "OpenGovernmentData"}}, {"type": "node", "id": 6934340710, "lat": 13.1184222, "lon": 80.1507749, "tags": {"addr:district": "Tiruvallur", "addr:full": "No. 11, Old B.O.B. St. Secretariate Colony", "addr:postcode": "600053", "addr:state": "Tamil Nadu", "amenity": "hospital", "name": "Om Shakthi Hospital", "source": "OpenGovernmentData"}}, {"type": "node", "id": 6934884999, "lat": 13.1220029, "lon": 80.1469266, "tags": {"addr:district": "Tiruvallur", "addr:full": "471, Mth Road, , Ambattur", "addr:postcode": "600053", "addr:state": "Tamil Nadu", "amenity": "hospital", "name": "Teja Hospital", "source": "OpenGovernmentData"}}, {"type": "node", "id": 6936369001, "lat": 13.1217887, "lon": 80.1996361, "tags": {"addr:district": "Tiruvallur", "addr:full": "No: 9, 100 Feet Road, Nehru National Highway, Kolathur", "addr:postcode": "600099", "addr:state": "Tamil Nadu", "amenity": "hospital", "check_date": "2024-09-28", "name": "D R J Hospital P. Ltd.", "source": "OpenGovernmentData"}}, {"type": "node", "id": 6936994823, "lat": 13.1184203, "lon": 80.204346, "tags": {"addr:district": "Tiruvallur", "addr:full": "No.52, Dayalunagar, Kolathur, Near Villirakham Railway Station", "addr:postcode": "600049", "addr:state": "Tamil Nadu", "amenity": "hospital", "name": "B B Hospital", "source": "OpenGovernmentData"}}, {"type": "node", "id": 7252333347, "lat": 13.1153048, "lon": 80.2233851, "tags": {"addr:block": "Chennai Zone Xi", "addr:district": "Chennai", "addr:full": "Govt.Peripheral Hospital, Periyar Nagar, Shiva Vishnu Koil, Periyar Nagar, Jaganadhan Salai", "addr:postcode": "600082", "addr:state": "Tamil Nadu", "amenity": "hospital", "healthcare": "hospital", "name": "Govt Peripheral Hospital Periyar Nagar", "source": "OpenGovernmentData"}}, {"type": "node", "id": 7252333369, "lat": 13.09041, "lon": 80.175293, "tags": {"addr:district": "Thiruvallur", "addr:full": "Next To Kamarajar Illam, T. Nagar ,Chennai, Tamil Nadu, Ellora Apartments, Flat , 4D, 4Th Floor, 20 Tirumurthy Street", "addr:postcode": "600017", "addr:state": "Tamil Nadu", "addr:subdistrict": "Ambattur", "amenity": "hospital", "healthcare": "hospital", "name": "Tanker Dialysis Foundation Unit", "source": "OpenGovernmentData"}}, {"type": "node", "id": 7252333392, "lat": 13.1126809, "lon": 80.153358, "tags": {"addr:block": "Chennai Zone Vii", "addr:district": "Chennai", "addr:full": "Canara Bank, Varadharajapuram, Railway Station Road", "addr:postcode": "600050", "addr:state": "Tamil Nadu", "amenity": "hospital", "name": "Varadarajapuram Government Hospitals", "source": "OpenGovernmentData"}}, {"type": "node", "id": 7252333403, "lat": 13.0916464, "lon": 80.2139939, "tags": {"addr:district": "Thiruvallur", "addr:full": "No.65, Near K4 Police Station, Anna Nagar Chennai, R- Block, 12Th Street", "addr:postcode": "600040", "addr:state": "Tamil Nadu", "addr:subdistrict": "Ambattur", "amenity": "hospital", "healthcare": "hospital", "name": "Firm Hospital", "source": "OpenGovernmentData"}}, {"type": "node", "id": 7818702358, "lat": 13.1345397, "lon": 80.2058879, "tags": {"addr:district": "Tiruvallur", "addr:full": "Bharathi Nagar, Lakshmipuram", "addr:postcode": "600099", "addr:state": "Tamil Nadu", "amenity": "hospital", "healthcare": "hospital", "name": "Uma Hospital", "source": "Local Knowledge"}}, {"type": "node", "id": 7818702399, "lat": 13.1702776, "lon": 80.193567, "tags": {"addr:district": "Tiruvallur", "addr:full": "Kannappasamy Nagar, Puzhal", "addr:postcode": "600066", "addr:state": "Tamil Nadu", "amenity": "hospital", "name": "Md Hussain Hospital", "source": "Local Knowledge"}}, {"type": "node", "id": 7818702420, "lat": 13.161861, "lon": 80.204431, "tags": {"addr:district": "Tiruvallur", "addr:full": "Puzhal", "addr:postcode": "600066", "addr:state": "Tamil Nadu", "amenity": "hospital", "name": "St. Anthony's Hospital", "source": "Local Knowledge"}}, {"type": "node", "id": 7825002779, "lat": 13.1216771, "lon": 80.2236766, "tags": {"addr:district": "Chennai", "addr:full": "Santhi Nagar, Kolathur, Chennai", "addr:postcode": "600082", "addr:state": "Tamil Nadu", "amenity": "hospital", "healthcare": "hospital", "name": "V S Hospital", "source": "Local Knowledge"}}, {"type": "node", "id": 7825009787, "lat": 13.1297562, "lon": 80.2172747, "tags": {"addr:district": "Chennai", "addr:full": "Kolathur", "addr:postcode": "600099", "addr:state": "Tamil Nadu", "amenity": "hospital", "healthcare": "hospital", "name": "Bluemed Healthcare", "source": "Local Knowledge"}}, {"type": "node", "id": 7825009790, "lat": 13.1204837, "lon": 80.2243993, "tags": {"addr:district": "Chennai", "addr:full": "Perambur, Chennai", "addr:postcode": "600082", "addr:state": "Tamil Nadu", "amenity": "hospital", "check_date": "2024-08-11", "healthcare": "hospital", "name": "St. Joseph Cluny Hospital", "source": "Local Knowledge"}}, {"type": "node", "id": 7825009797, "lat": 13.1300779, "lon": 80.216941, "tags": {"addr:district": "Chennai", "addr:full": "Ponniammanmedu", "addr:postcode": "600099", "addr:state": "Tamil Nadu", "amenity": "hospital", "healthcare": "hospital", "name": "Bharathiraja Hospitals", "source": "Local Knowledge"}}, {"type": "node", "id": 7825009798, "lat": 13.1222839, "lon": 80.2160951, "tags": {"addr:district": "Chennai", "addr:full": "Kaveri Nagar, Kolathur, Chennai", "addr:postcode": "600099", "addr:state": "Tamil Nadu", "amenity": "hospital", "healthcare": "hospital", "name": "Kolathur Multi Speciality and Research Centre", "source": "Local Knowledge"}}, {"type": "node", "id": 7825009799, "lat": 13.1185, "lon": 80.2258076, "tags": {"addr:district": "Chennai", "addr:full": "Perambur, Chennai", "addr:postcode": "600082", "addr:state": "Tamil Nadu", "amenity": "hospital", "healthcare": "hospital", "name": "Arul Childs Hospital", "source": "Local Knowledge"}}, {"type": "node", "id": 7825009803, "lat": 13.129071, "lon": 80.2159086, "tags": {"addr:district": "Chennai", "addr:full": "Ponniammanmedu", "addr:postcode": "600099", "addr:state": "Tamil Nadu", "amenity": "hospital", "healthcare": "hospital", "name": "KCK Hospital", "source": "Local Knowledge"}}, {"type": "node", "id": 7825009805, "lat": 13.121994, "lon": 80.2236309, "tags": {"addr:district": "Chennai", "addr:full": "Kolathur, Chennai", "addr:postcode": "600099", "addr:state": "Tamil Nadu", "amenity": "hospital", "healthcare": "hospital", "name": "Sugar Hospital", "source": "Local Knowledge"}}, {"type": "node", "id": 7825009807, "lat": 13.129869, "lon": 80.214109, "tags": {"addr:district": "Chennai", "addr:full": "Kolathur", "addr:postcode": "600099", "addr:state": "Tamil Nadu", "amenity": "hospital", "healthcare": "hospital", "name": "Retteri Kumaran Hospital", "source": "Local Knowledge"}}, {"type": "node", "id": 7825009816, "lat": 13.129327, "lon": 80.2152624, "tags": {"addr:district": "Chennai", "addr:full": "Kolathur, Villivakkam", "addr:postcode": "600099", "addr:state": "Tamil Nadu", "amenity": "hospital", "healthcare": "hospital", "name": "K.H.M. Hospital", "source": "Local Knowledge"}}, {"type": "node", "id": 7825009819, "lat": 13.1101477, "lon": 80.2244516, "tags": {"addr:district": "Chennai", "addr:full": "Perambur, Chennai", "addr:postcode": "600082", "addr:state": "Tamil Nadu", "amenity": "hospital", "healthcare": "hospital", "name": "Niranjana Hospital", "source": "Local Knowledge"}}, {"type": "node", "id": 7825009823, "lat": 13.1263043, "lon": 80.2192658, "tags": {"addr:district": "Chennai", "addr:full": "Balakumaran Nagar, Kolathur", "addr:postcode": "600099", "addr:state": "Tamil Nadu", "amenity": "hospital", "healthcare": "hospital", "name": "U.S. Hospital", "source": "Local Knowledge"}}, {"type": "node", "id": 7843239851, "lat": 13.1247933, "lon": 80.1435476, "tags": {"amenity": "hospital", "healthcare": "hospital", "name": "Sir Ivan Stedford Hospital", "name:etymology:wikidata": "Q15971168"}}, {"type": "node", "id": 9980280804, "lat": 13.1266701, "lon": 80.2014392, "tags": {"amenity": "hospital", "healthcare": "hospital", "name": "Shreyas hospital"}}, {"type": "node", "id": 10261422409, "lat": 13.1180276, "lon": 80.2126037, "tags": {"addr:housenumber": "1279 B", "addr:postcode": "600099", "addr:street": "Poompuhar Nagar 1st Main Road", "alt_name": "WCF Hospital Kolathur", "amenity": "hospital", "description": "Gynecology hospital, all things pregnancy related.", "email": "wcfkolathur@gmail.com", "healthcare": "hospital", "healthcare:speciality": "gynaecology", "name": "Women And Children Foundation Hospital", "opening_hours": "24/7", "operator": "Women And Children Foundation Limited", "operator:type": "private", "phone": "04425508210, 8939957777, 8939917777", "website": "http://www.wcfkolathur.in/", "whatsapp": "8939957777"}}, {"type": "node", "id": 10271805421, "lat": 13.0972767, "lon": 80.1982422, "tags": {"addr:housenumber": "R/7a", "addr:street": "N Main Rd, Kailash Colony, Sector A, Anna Nagar West Extension, Chennai, Tamil Nadu 600101", "amenity": "hospital", "description": "A mental health centre and nonprofit organization based at Chennai, Tamil Nadu, offering a multidisciplinary, comprehensive range of psychiatric care and rehabilitation services", "email": "info@scarfindia.org; communications@scarfindia.org", "name": "Frame of Mind - SCARF Psychiatric Hospital", "opening_hours": "Mo, We-Sa 09:30-13:30", "phone": "+919150587361;04426151073; 04426153971", "speciality": "schizophrenia, psychiatry", "website": "https://www.scarfindia.org/"}}, {"type": "node", "id": 10742847096, "lat": 13.139868, "lon": 80.2173881}, {"type": "node", "id": 10742847097, "lat": 13.1402505, "lon": 80.2174062}, {"type": "node", "id": 10742847098, "lat": 13.1402205, "lon": 80.2179863}, {"type": "node", "id": 10742847099, "lat": 13.1398452, "lon": 80.2178267}, {"type": "node", "id": 10742847100, "lat": 13.1401893, "lon": 80.2179731, "tags": {"access": "private", "barrier": "gate"}}, {"type": "node", "id": 10742847103, "lat": 13.1398876, "lon": 80.2178447}, {"type": "node", "id": 11162390408, "lat": 13.0856699, "lon": 80.1797716, "tags": {"amenity": "hospital", "check_date": "2025-07-22", "healthcare": "hospital", "name": "Dr. Vijay's Hospital"}}, {"type": "node", "id": 11468740371, "lat": 13.0868727, "lon": 80.1697458, "tags": {"addr:street": "1st Avenue", "amenity": "hospital", "name": "SMF", "name:en": "Sundaram Medical Foundation Dr. Rangarajan Memorial Hospital"}}, {"type": "node", "id": 12581525295, "lat": 13.1363242, "lon": 80.2157688, "tags": {"amenity": "hospital", "check_date": "2025-02-12", "healthcare": "hospital", "name": "Meridian Hospitals"}}, {"type": "way", "id": 48741356, "nodes": [618641805, 618641795, 618641807, 618641823, 618641805], "tags": {"amenity": "hospital", "healthcare": "hospital", "name": "ICF Hospital"}}, {"type": "way", "id": 48753841, "nodes": [618736313, 618736292, 618736591, 618736596, 618736313], "tags": {"addr:district": "Chennai", "addr:full": "3rd Avenue Anna Nagar, Kilpauk", "addr:postcode": "600102", "addr:state": "Tamil Nadu", "amenity": "hospital", "healthcare": "hospital", "name": "Anna Nagar Government Hospital", "source": "OpenGovernmentData"}}, {"type": "way", "id": 138307630, "nodes": [1516388669, 1516388665, 1516388642, 1516388617, 1516388619, 1516388625, 1516388627, 1516388638, 1516388640, 1516388644, 6307353799, 1516388646, 1516388675, 1516388683, 1516388651, 1516388649, 1516388664, 1516388662, 1516388652, 1516388666, 1516388669], "tags": {"amenity": "hospital", "healthcare": "hospital", "name": "Sir Ivan Stedford Hospital", "name:etymology:wikidata": "Q15971168", "website": "https://stedefordhospital.org/", "wikidata": "Q7527346", "wikipedia": "en:Sir Ivan Stedeford Hospital"}}, {"type": "way", "id": 231052536, "nodes": [2394697635, 2394697636, 2394697637, 2394697638, 2394697635], "tags": {"amenity": "hospital", "building": "yes", "healthcare": "hospital", "name": "Vasan Dental Care"}}, {"type": "way", "id": 354278944, "nodes": [3600223742, 3600223741, 3600223690, 3600223694, 3600223742], "tags": {"addr:city": "Chennai", "addr:district": "Chennai", "addr:full": "R 30 C, Ambattur Industrial Estate Road, Mogappair", "addr:housenumber": "R 30 C", "addr:postcode": "600101", "addr:state": "Tamil Nadu", "addr:street": "Ambattur Industrial Estate Road", "addr:subdistrict": "Mogappair", "alt_name": "International Centre For Cardio Thoracic and Vascular Diseases", "amenity": "hospital", "building": "yes", "building:levels": "3", "contact:mobile": "9790840976", "contact:phone": "04442017575;04426564224", "email": "translab@frontierlifeline.com", "fax": "044 26565150", "healthcare": "hospital", "name": "Frontier Lifeline Hospital", "operator:type": "private", "phone": "044 4201 7575", "source": "OpenGovernmentData", "website": "https://www.frontierlifeline.com/", "wheelchair": "yes", "wikipedia": "en:K. M. Cherian"}}, {"type": "way", "id": 1155182281, "nodes": [10742847096, 10742847097, 10742847098, 10742847100, 10742847103, 10742847099, 10742847096], "tags": {"amenity": "hospital", "healthcare": "hospital", "name": "Prashanth Superspeciality Hospital Kolathur", "phone": "+914469177777", "website": "https://www.prashanthhospitals.org/kolathur"}}]}