{"version": 0.6, "generator": "Overpass API 0.7.62.8 e802775f", "osm3s": {"timestamp_osm_base": "2026-01-12T01:54:46Z", "copyright": "The data included in this document is from www.openstreetmap.org. The data is made available under ODbL."}, "elements": [{"type": "node", "id": 626897112, "lat": 17.3672265, "lon": 78.4859878, "tags": {"amenity": "hospital", "name": "Rahmat Ali hospital"}}, {"type": "node", "id": 634123949, "lat": 17.407574, "lon": 78.512174, "tags": {"amenity": "hospital", "name": "Satya Hospital"}}, {"type": "node", "id": 665132280, "lat": 17.4293162, "lon": 78.533452, "tags": {"addr:district": "Hyderabad", "addr:full": "12-5-30, Whith House, Moulali Road, Tarnaka", "addr:postcode": "500017", "addr:state": "Telangana", "amenity": "hospital", "contact:phone": "040 2700 7272 ; 9000991535", "name": "Innova Children's Heart Hospital", "source": "OpenGovernmentData", "website": "https://www.innovahospitals.in/"}}, {"type": "node", "id": 665132281, "lat": 17.4290954, "lon": 78.5333362, "tags": {"amenity": "hospital", "name": "Apollo Clinic"}}, {"type": "node", "id": 1447172221, "lat": 17.3980706, "lon": 78.4828738}, {"type": "node", "id": 1447172223, "lat": 17.3979894, "lon": 78.4830316}, {"type": "node", "id": 1504756065, "lat": 17.3688309, "lon": 78.5301893, "tags": {"amenity": "hospital", "healthcare": "hospital", "healthcare:speciality": "paediatrics", "name": "Lakshmi Childrens Hospital"}}, {"type": "node", "id": 1595794961, "lat": 17.3505362, "lon": 78.5563819}, {"type": "node", "id": 1595794963, "lat": 17.3525433, "lon": 78.5562478}, {"type": "node", "id": 1595794965, "lat": 17.3523795, "lon": 78.5560708}, {"type": "node", "id": 1595794967, "lat": 17.3524921, "lon": 78.5557114}, {"type": "node", "id": 1595794973, "lat": 17.3518316, "lon": 78.5572832}, {"type": "node", "id": 1595794974, "lat": 17.3514425, "lon": 78.5550623}, {"type": "node", "id": 1598149460, "lat": 17.3684777, "lon": 78.5387483, "tags": {"addr:district": "Hyderabad", "addr:full": "11-9-46, Sri Sai Shivani Complex, Opposite P.V.T Market, Kothapet 'X' Road, New Nagole Main Road, Dilsukhnagar, Laxmi Nagar Colony, Kothapet", "addr:postcode": "500060", "addr:state": "Telangana", "amenity": "hospital", "healthcare": "hospital", "healthcare:speciality": "multi speciality", "medical_system": "Allopathic", "name": "Omni Hospital", "operator:type": "private", "phone": "040 49871690;040 67369999", "source": "OpenGovernmentData", "website": "https://omnihospitals.in/"}}, {"type": "node", "id": 2217950153, "lat": 17.3594287, "lon": 78.5450683, "tags": {"addr:city": "Hyderabad", "addr:full": "H.No: 11-13-201/33, ROAD NO. 4, KOTHAPET, DILSUKHNAGAR, BESIDE CMR SHOPPING MALL, OPPOSITE WHITE HOUSE", "addr:postcode": "500065", "addr:state": "Telangana", "amenity": "hospital", "contact:phone": "4030108108", "name": "OZONE HOSPITALS", "operator:type": "private", "source": "OpenGovernmentData"}}, {"type": "node", "id": 2429955121, "lat": 17.3746556, "lon": 78.4998723, "tags": {"addr:district": "Hyderabad", "addr:full": "Nalgonda 'X' Roads, Malakpet", "addr:postcode": "500036", "addr:state": "Telangana", "amenity": "hospital", "contact:email": "malakpet@yashodamail.com", "contact:phone": "040 45674567; 040 2455 6257", "emergency": "yes", "fax": "040 24545690", "health_facility:type": "Surgical Suites;Trauma Center;Intensive Care Units;Surgical Observation Unit;Rehabilitation Services Department", "healthcare": "hospital", "healthcare:speciality": "multi specialty", "medical_system": "Allopathic", "name": "Yashoda Super Speciality Hospital", "name:ur": "\u06cc\u0627\u0634\u0648\u062f\u06c1 \u0627\u0633\u067e\u062a\u0627\u0644", "operator:type": "private", "source": "OpenGovernmentData", "website": "https://www.yashodahospitals.com/"}}, {"type": "node", "id": 2461282035, "lat": 17.4012592, "lon": 78.5102495}, {"type": "node", "id": 2461282040, "lat": 17.4019139, "lon": 78.5094778}, {"type": "node", "id": 2461282045, "lat": 17.4021591, "lon": 78.511088}, {"type": "node", "id": 2461282049, "lat": 17.4028138, "lon": 78.5103163}, {"type": "node", "id": 2583708951, "lat": 17.4255371, "lon": 78.5306786, "tags": {"amenity": "hospital", "name": "Tarnaka Flyover;TGSRTC Hospital", "place": "locality"}}, {"type": "node", "id": 2583734761, "lat": 17.4241623, "lon": 78.5297591}, {"type": "node", "id": 2583734762, "lat": 17.4250792, "lon": 78.529218}, {"type": "node", "id": 2583734763, "lat": 17.4264175, "lon": 78.5308078}, {"type": "node", "id": 2583734764, "lat": 17.4264585, "lon": 78.5310653}, {"type": "node", "id": 2583734772, "lat": 17.4253171, "lon": 78.5317868}, {"type": "node", "id": 2583734773, "lat": 17.4255961, "lon": 78.5324775}, {"type": "node", "id": 2593895374, "lat": 17.4011535, "lon": 78.5707964}, {"type": "node", "id": 2593895376, "lat": 17.4010382, "lon": 78.5707944}, {"type": "node", "id": 2593895378, "lat": 17.4010369, "lon": 78.5708786}, {"type": "node", "id": 2593895380, "lat": 17.4011522, "lon": 78.5708806}, {"type": "node", "id": 2706889270, "lat": 17.3645563, "lon": 78.5334923}, {"type": "node", "id": 2706889273, "lat": 17.3650319, "lon": 78.5335397}, {"type": "node", "id": 2706889276, "lat": 17.3650343, "lon": 78.5336571}, {"type": "node", "id": 2706889279, "lat": 17.3653157, "lon": 78.5337596}, {"type": "node", "id": 2706889282, "lat": 17.3647903, "lon": 78.534709}, {"type": "node", "id": 2706889285, "lat": 17.364488, "lon": 78.5346782}, {"type": "node", "id": 2712623077, "lat": 17.4089088, "lon": 78.4894972, "tags": {"amenity": "hospital", "name": "ramesh eye care"}}, {"type": "node", "id": 2712643411, "lat": 17.4102172, "lon": 78.4892646}, {"type": "node", "id": 2712643413, "lat": 17.4103021, "lon": 78.4894825}, {"type": "node", "id": 2712643415, "lat": 17.4101789, "lon": 78.4895351}, {"type": "node", "id": 2712643416, "lat": 17.4100941, "lon": 78.4893173}, {"type": "node", "id": 2712662990, "lat": 17.4118751, "lon": 78.4888572, "tags": {"addr:district": "Hyderabad", "addr:full": "Plot No.9, Near Sub-Register Office, Gandhi Nagar", "addr:postcode": "500080", "addr:state": "Telangana", "amenity": "hospital", "contact:phone": "27618442", "name": "Tapadia Medical Centre's Eashwar Lakshmi Hospital", "operator:type": "private", "source": "OpenGovernmentData"}}, {"type": "node", "id": 2712679814, "lat": 17.413596, "lon": 78.4904903}, {"type": "node", "id": 2712679815, "lat": 17.413586, "lon": 78.490587}, {"type": "node", "id": 2712679816, "lat": 17.4134914, "lon": 78.4905763}, {"type": "node", "id": 2712679817, "lat": 17.4135013, "lon": 78.4904796}, {"type": "node", "id": 2779844594, "lat": 17.4103854, "lon": 78.4852768, "tags": {"amenity": "hospital", "name": "Dental Care", "name:te": "\u0c21\u0c46\u0c02\u0c1f\u0c32\u0c4d \u0c15\u0c47\u0c30\u0c4d"}}, {"type": "node", "id": 2855014444, "lat": 17.3719495, "lon": 78.4984583}, {"type": "node", "id": 2855014445, "lat": 17.3722839, "lon": 78.4993543}, {"type": "node", "id": 2855014446, "lat": 17.373051, "lon": 78.4978259}, {"type": "node", "id": 2855014447, "lat": 17.3729746, "lon": 78.499051}, {"type": "node", "id": 3200948738, "lat": 17.345698, "lon": 78.549763, "tags": {"amenity": "hospital", "healthcare": "hospital", "name": "Healthcare Hospitals"}}, {"type": "node", "id": 3259917634, "lat": 17.4222219, "lon": 78.5042709}, {"type": "node", "id": 3259917635, "lat": 17.4223103, "lon": 78.5032185}, {"type": "node", "id": 3259917636, "lat": 17.4223984, "lon": 78.5032517}, {"type": "node", "id": 3259917637, "lat": 17.4225158, "lon": 78.5018861}, {"type": "node", "id": 3259917638, "lat": 17.4225866, "lon": 78.5046247}, {"type": "node", "id": 3259919819, "lat": 17.3953582, "lon": 78.5017416}, {"type": "node", "id": 3259919820, "lat": 17.395606, "lon": 78.5003677}, {"type": "node", "id": 3259919821, "lat": 17.3957086, "lon": 78.4993981}, {"type": "node", "id": 3259919822, "lat": 17.3956695, "lon": 78.5025333}, {"type": "node", "id": 3259919823, "lat": 17.3960319, "lon": 78.502881}, {"type": "node", "id": 3259919824, "lat": 17.3960992, "lon": 78.5029174}, {"type": "node", "id": 3259919825, "lat": 17.3961238, "lon": 78.4989226}, {"type": "node", "id": 3259919826, "lat": 17.3963094, "lon": 78.5029846}, {"type": "node", "id": 3259919827, "lat": 17.396476, "lon": 78.4994843}, {"type": "node", "id": 3259919828, "lat": 17.3966922, "lon": 78.5019221}, {"type": "node", "id": 3259919829, "lat": 17.3967925, "lon": 78.5018486}, {"type": "node", "id": 3259919830, "lat": 17.3968844, "lon": 78.4998427}, {"type": "node", "id": 3259919831, "lat": 17.3969712, "lon": 78.5008857}, {"type": "node", "id": 3259919832, "lat": 17.3970004, "lon": 78.5014588}, {"type": "node", "id": 3259919833, "lat": 17.397354, "lon": 78.5001583}, {"type": "node", "id": 3259919981, "lat": 17.423659, "lon": 78.5053207}, {"type": "node", "id": 3259919983, "lat": 17.4237189, "lon": 78.5019831}, {"type": "node", "id": 3259919985, "lat": 17.4239802, "lon": 78.5021885}, {"type": "node", "id": 3384203436, "lat": 17.3526774, "lon": 78.5542584, "tags": {"amenity": "hospital", "name": "hospital"}}, {"type": "node", "id": 3388737434, "lat": 17.3967128, "lon": 78.5191458}, {"type": "node", "id": 3388737435, "lat": 17.3965944, "lon": 78.5190767}, {"type": "node", "id": 3388737436, "lat": 17.3965549, "lon": 78.5191592}, {"type": "node", "id": 3388737437, "lat": 17.39667, "lon": 78.5192306}, {"type": "node", "id": 3390837564, "lat": 17.3940456, "lon": 78.5104248, "tags": {"amenity": "hospital"}}, {"type": "node", "id": 3533084115, "lat": 17.4289946, "lon": 78.5120703, "tags": {"addr:district": "Hyderabad", "addr:full": "H. No: 11-4-523, Near Gandhi Statue and Chilkalguda Bus Stop, Chilkalguda, Secunderabad", "addr:postcode": "500025", "addr:state": "Telangana", "amenity": "hospital", "contact:email": "info@lifespring.in", "contact:phone": "+91 7893851613", "healthcare": "hospital", "name": "Life Spring Hospitals", "source": "OpenGovernmentData"}}, {"type": "node", "id": 3595916783, "lat": 17.392895, "lon": 78.4978937}, {"type": "node", "id": 3595916819, "lat": 17.3930193, "lon": 78.4980126}, {"type": "node", "id": 3595916846, "lat": 17.3931291, "lon": 78.4976429}, {"type": "node", "id": 3595916861, "lat": 17.3932371, "lon": 78.4977391}, {"type": "node", "id": 3617245033, "lat": 17.4215739, "lon": 78.5043259}, {"type": "node", "id": 3617245040, "lat": 17.4215929, "lon": 78.5042069}, {"type": "node", "id": 3617245100, "lat": 17.421742, "lon": 78.5043554}, {"type": "node", "id": 3617245110, "lat": 17.421761, "lon": 78.5042364}, {"type": "node", "id": 3619549990, "lat": 17.4349313, "lon": 78.5065075}, {"type": "node", "id": 3619550003, "lat": 17.4350139, "lon": 78.5067982}, {"type": "node", "id": 3619550048, "lat": 17.4354726, "lon": 78.5063385}, {"type": "node", "id": 3619550068, "lat": 17.4355552, "lon": 78.5066292}, {"type": "node", "id": 3619697190, "lat": 17.3983707, "lon": 78.4832555}, {"type": "node", "id": 3619697192, "lat": 17.3984569, "lon": 78.4830904}, {"type": "node", "id": 3624411424, "lat": 17.3555144, "lon": 78.5216035}, {"type": "node", "id": 3624411425, "lat": 17.3555153, "lon": 78.521517}, {"type": "node", "id": 3624411435, "lat": 17.3556313, "lon": 78.5216049}, {"type": "node", "id": 3624411436, "lat": 17.3556323, "lon": 78.5215184}, {"type": "node", "id": 3625132960, "lat": 17.355383, "lon": 78.5659429}, {"type": "node", "id": 3625132964, "lat": 17.3553978, "lon": 78.5658441}, {"type": "node", "id": 3625132977, "lat": 17.3554645, "lon": 78.565855}, {"type": "node", "id": 3625132980, "lat": 17.3554733, "lon": 78.5657964}, {"type": "node", "id": 3625132992, "lat": 17.3555354, "lon": 78.565983}, {"type": "node", "id": 3625133193, "lat": 17.3555376, "lon": 78.5659682}, {"type": "node", "id": 3625133214, "lat": 17.3556445, "lon": 78.5660009}, {"type": "node", "id": 3625133218, "lat": 17.3556702, "lon": 78.5658288}, {"type": "node", "id": 3628246393, "lat": 17.4000225, "lon": 78.5407192}, {"type": "node", "id": 3628246395, "lat": 17.4000362, "lon": 78.5408232}, {"type": "node", "id": 3628246431, "lat": 17.4002331, "lon": 78.5406888}, {"type": "node", "id": 3628246433, "lat": 17.4002467, "lon": 78.5407928}, {"type": "node", "id": 3628743440, "lat": 17.3715116, "lon": 78.5006875}, {"type": "node", "id": 3628743443, "lat": 17.3715309, "lon": 78.5004317}, {"type": "node", "id": 3628743448, "lat": 17.371645, "lon": 78.5006985}, {"type": "node", "id": 3628743449, "lat": 17.3716643, "lon": 78.5004427}, {"type": "node", "id": 3628743723, "lat": 17.3725568, "lon": 78.5007803}, {"type": "node", "id": 3628743725, "lat": 17.3725764, "lon": 78.5005206}, {"type": "node", "id": 3628743739, "lat": 17.3726581, "lon": 78.5007887}, {"type": "node", "id": 3630403304, "lat": 17.3869267, "lon": 78.526213}, {"type": "node", "id": 3630403308, "lat": 17.3869682, "lon": 78.5261069}, {"type": "node", "id": 3630403309, "lat": 17.3869748, "lon": 78.5262337}, {"type": "node", "id": 3630403310, "lat": 17.3869876, "lon": 78.5262485}, {"type": "node", "id": 3630403312, "lat": 17.3870164, "lon": 78.5261276}, {"type": "node", "id": 3630403313, "lat": 17.3870272, "lon": 78.5261311}, {"type": "node", "id": 3630403314, "lat": 17.3870486, "lon": 78.5262711}, {"type": "node", "id": 3630403316, "lat": 17.3870883, "lon": 78.5261538}, {"type": "node", "id": 4121135796, "lat": 17.4110787, "lon": 78.483414}, {"type": "node", "id": 4121135800, "lat": 17.4110201, "lon": 78.483607}, {"type": "node", "id": 4121135808, "lat": 17.4108051, "lon": 78.4833228}, {"type": "node", "id": 4121135810, "lat": 17.4107465, "lon": 78.4835158}, {"type": "node", "id": 4178534337, "lat": 17.4108857, "lon": 78.4831688}, {"type": "node", "id": 4178534341, "lat": 17.4109203, "lon": 78.4830723}, {"type": "node", "id": 4178534358, "lat": 17.4110968, "lon": 78.483252}, {"type": "node", "id": 4178534365, "lat": 17.4111314, "lon": 78.4831554}, {"type": "node", "id": 4416373792, "lat": 17.4115391, "lon": 78.4904614, "tags": {"addr:district": "Hyderabad", "addr:full": "1-1-380/3, Gandhi Nagar, Ashok Nagar 'X' Roads", "addr:postcode": "500080", "addr:state": "Telangana", "amenity": "hospital", "name": "Jagadamba Hospitals", "source": "OpenGovernmentData"}}, {"type": "node", "id": 4417145293, "lat": 17.4045834, "lon": 78.4893402, "tags": {"amenity": "hospital", "name": "med plus", "name:en": "med plus"}}, {"type": "node", "id": 4431246690, "lat": 17.4044822, "lon": 78.4893121, "tags": {"amenity": "hospital", "name": "Med plus", "name:en": "Med plus"}}, {"type": "node", "id": 4436525395, "lat": 17.4009037, "lon": 78.4875706, "tags": {"addr:district": "Hyderabad", "addr:full": "3-6-611, Street Number 8, Himayath Nagar", "addr:postcode": "500029", "addr:state": "Telangana", "amenity": "hospital", "fax": "040 30008222", "health_facility:type": "Separate Divisions for Each Speciality;State Of The Art Operation Theatres;Post Op Lounge with Beds;Advanced Eye Care Equipment;Complete Range of Optical Frames and Lenses;Exclusive Childrens Eye Care;24 7 Pharmacy;Ambulance Services", "healthcare:speciality": "Cataract Services;Refractive Surgery;Cornea Services;Glaucoma Services;Retina Services;Paediatric Ophthalmology and Squint Services;Oculoplasty Services;UVEITIS;Neuro Ophthalmology;Vision Rehabilitation Services;Computer Vision Syndrome Clinic", "medical_system": "Allopathic", "name": "Vasan Healthcare Private Limited, Himayath Nagar", "name:en": "Vasan eye care", "name:te": "\u0c35\u0c3e\u0c38\u0c28\u0c4d \u0c39\u0c46\u0c32\u0c4d\u0c24\u0c4d \u0c15\u0c47\u0c30\u0c4d \u0c2a\u0c4d\u0c30\u0c48\u0c35\u0c47\u0c1f\u0c4d \u0c32\u0c3f\u0c2e\u0c3f\u0c1f\u0c46\u0c21\u0c4d, \u0c39\u0c3f\u0c2e\u0c3e\u0c2f\u0c24\u0c4d \u0c28\u0c17\u0c30\u0c4d", "operator:type": "private", "phone": "040 30008299", "source": "OpenGovernmentData", "website": "https://vasaneye.com/"}}, {"type": "node", "id": 4517094891, "lat": 17.3451071, "lon": 78.5537805, "tags": {"addr:district": "Hyderabad", "addr:full": "3-8-264&264/1&3, Opp VIJAYA LAXMI THEATRE, CHANDRAPURI COLONY, L.B NAGAR", "addr:postcode": "500074", "addr:state": "Telangana", "addr:street": "LB Nagar Junction", "amenity": "hospital", "emergency_telephone_code": "9966108108", "fax": "040 24114111", "health_facility:type": "ICU;Operation Theatres;Nuclear Medicine;Radiology;Pathology;Ambulance Service;Emergency Service", "healthcare": "hospital", "healthcare:speciality": "Cardiology;Neurology;Orthopedics;Gastroenterology;Hematology;Hematology;Joint Replacement;NeuroSurgery;ENT;Nephrology;Endocrinology;Cancer;Urology", "medical_system": "Allopathic", "name": "Shresta Orange Hospitals", "name:en": "Shresta Orange Hospitals", "name:te": "\u0c36\u0c4d\u0c30\u0c47\u0c37\u0c4d\u0c1f \u0c06\u0c30\u0c46\u0c02\u0c1c\u0c4d \u0c39\u0c3e\u0c38\u0c4d\u0c2a\u0c3f\u0c1f\u0c32\u0c4d\u0c38\u0c4d", "operator:type": "private", "phone": "040 24113111", "source": "OpenGovernmentData", "website": "http://orangehospitals.net"}}, {"type": "node", "id": 5118590649, "lat": 17.4153976, "lon": 78.4979892, "tags": {"addr:district": "Hyderabad", "addr:full": "1-4-908/7/1, Musheerabad", "addr:postcode": "500020", "addr:state": "Telangana", "amenity": "hospital", "contact:email": "info@carehospitals.com", "fax": "040 30219488", "healthcare:speciality": "multi speciality", "medical_system": "Allopathic", "name": "Guru Nanak Care Hospital", "operator:type": "private", "phone": "040 30219000;040 30219111;040 30219123", "source": "OpenGovernmentData", "website": "https://www.carehospitals.com/"}}, {"type": "node", "id": 5608460083, "lat": 17.4227862, "lon": 78.5165968, "tags": {"addr:district": "Hyderabad", "addr:full": "12-11-253, Prasad Hospitals, Warasiguda, Secunderabad", "addr:postcode": "500061", "addr:state": "Telangana", "amenity": "hospital", "health_facility:type": "ENT; General Surgery; General Medicine; Plastic Surgery; Dermatology; Obstetrics and Gynaecology; Infertility and IVF; Paediatrics; Orthopedics and Trauma; Anesthesia and Critical Care", "healthcare:speciality": "Ultrasound Workup; Human Embryo Biopsy; Intraterine Insemination IUI ; In Vitro Fertilization IVF ; Sperm Retrieval Assisted Hatching; Blastocyst Culture; Egg Donation; Embryo Donation", "medical_system": "Allopathic", "name": "Sri Devi Maternity & Nursing Home", "operator:type": "private", "phone": "040 27509124; 040 27500143", "source": "OpenGovernmentData"}}, {"type": "node", "id": 5637353960, "lat": 17.3506727, "lon": 78.5078608, "tags": {"addr:district": "Hyderabad", "addr:full": "Door No. 17-1-380/E/28 & 32, C. E. Colony, Saidabad, Santosh Nagar", "addr:postcode": "500059", "addr:state": "Telangana", "amenity": "hospital", "medical_system": "Allopathic", "name": "Sri Srinivasa Hospital", "operator:type": "private", "phone": "040 24530557", "source": "OpenGovernmentData", "website": "http://www.srisrinivasahospital.com"}}, {"type": "node", "id": 6308287072, "lat": 17.4103873, "lon": 78.4844653, "tags": {"amenity": "hospital", "name": "Sri Krishna", "name:te": "\u0c36\u0c4d\u0c30\u0c40 \u0c15\u0c43\u0c37\u0c4d\u0c23"}}, {"type": "node", "id": 6372428649, "lat": 17.3709786, "lon": 78.5425682, "tags": {"addr:city": "Hyderabad", "addr:full": "Plot No:10 B& C, ROAD NO. 2 B, LAXMI NAGAR COLONY, KOTHAPET", "addr:postcode": "500035", "addr:state": "Telangana", "amenity": "hospital", "healthcare": "hospital", "healthcare:speciality": "gynaecology", "name": "sri sai womens hospital", "operator:type": "private", "phone": "+91 40 24050020", "source": "OpenGovernmentData"}}, {"type": "node", "id": 6375038698, "lat": 17.3703144, "lon": 78.5276104, "tags": {"addr:district": "Hyderabad", "addr:full": "4-85/3, Vikas Nagar, Lane Beside Rajadhani Theatre, Dilsukhnagar", "addr:postcode": "500060", "addr:state": "Telangana", "amenity": "hospital", "healthcare": "hospital", "name": "Siva Eye Hospital", "source": "OpenGovernmentData"}}, {"type": "node", "id": 6400644686, "lat": 17.3682666, "lon": 78.5135597, "tags": {"amenity": "hospital", "healthcare": "hospital"}}, {"type": "node", "id": 6477150039, "lat": 17.3767587, "lon": 78.5583415}, {"type": "node", "id": 6477150040, "lat": 17.3767732, "lon": 78.5581735}, {"type": "node", "id": 6477150041, "lat": 17.3767476, "lon": 78.5584698}, {"type": "node", "id": 6477150042, "lat": 17.3769249, "lon": 78.5584866}, {"type": "node", "id": 6477150043, "lat": 17.3769505, "lon": 78.5581902}, {"type": "node", "id": 6477199878, "lat": 17.3455423, "lon": 78.5226305, "tags": {"addr:district": "Hyderabad", "addr:full": "Plot Number 15, 17-1-382/R/15, A.P.S.R.T.C. Officers Colony, Santosh Nagar, Saidabad", "addr:postcode": "500059", "addr:state": "Telangana", "amenity": "hospital", "health_facility:type": "Separate Divisions for Each Speciality; State Of The Art Operation Theatres; Post Op Lounge with Beds; Advanced Eye Care Equipment; Complete Range of Optical Frames and Lenses; Exclusive Childrens Eye Care; 24 7 Pharmacy; Ambulance Services", "healthcare:speciality": "Cataract Services; Refractive Surgery; Cornea Services; Glaucoma Services; Retina Services; Paediatric Ophthalmology and Squint Services; Oculoplasty Services; UVEITIS; Neuro Ophthalmology; Vision Rehabilitation Services; Computer Vision Syndrome Clinic", "medical_system": "Allopathic", "name": "Vasan Eye Care Hospital", "operator:type": "private", "phone": "040 33782700", "source": "OpenGovernmentData", "website": "https://vasaneye.com/"}}, {"type": "node", "id": 6480023416, "lat": 17.3503945, "lon": 78.5105337, "tags": {"addr:district": "Hyderabad", "addr:full": "Beside Bharath Gardens, Sagar Road, Champapet", "addr:postcode": "500059", "addr:state": "Telangana", "amenity": "hospital", "fax": "040-24530960", "healthcare": "hospital", "name": "Ankith Multi Speciality Hospital", "source": "OpenGovernmentData"}}, {"type": "node", "id": 6481946699, "lat": 17.3920174, "lon": 78.4961598, "tags": {"addr:district": "Hyderabad", "addr:full": "Street Number 6, Barkatpura", "addr:postcode": "500027", "addr:state": "Telangana", "amenity": "hospital", "contact:email": "contact@bristleconehospitals.com", "email": "info@bristleconehospitals.com", "emergency_telephone_code": "040 45999999", "fax": "040 45999901", "healthcare:speciality": "Neurology;Urology and Nephrology;Obstetrics and Gynecology;Endoscopy;Pediatrics and Neo Natology;Orthopedics;Plastic Surgery;General Surgery;Trauma;Endocrine;Skin and Aesthetics;ENT;Diagnostics", "medical_system": "Allopathic", "name": "Bristlecone Hospital", "operator:type": "private", "phone": "040 45999999", "source": "OpenGovernmentData", "website": "http://bristleconehospitals.com"}}, {"type": "node", "id": 6482035085, "lat": 17.3525175, "lon": 78.5551161, "tags": {"addr:district": "Hyderabad", "addr:full": "3-11-142/N, DVN Complex, Opposite to Kamineni Hospital, RTC Colony, LB Nagar", "addr:postcode": "500074", "addr:state": "Telangana", "amenity": "hospital", "medical_system": "Allopathic", "name": "Disha Children's Hospital", "operator:type": "private", "phone": "040 24038488", "source": "OpenGovernmentData", "website": "http://dishachildrenshospital.blogspot.in/"}}, {"type": "node", "id": 6482123642, "lat": 17.3676358, "lon": 78.5404511, "tags": {"addr:district": "Hyderabad", "addr:full": "11-9-1, Vimal Complex, Opposite Kothapet Bus Stop, Dilsukhnagar", "addr:postcode": "500035", "addr:state": "Telangana", "amenity": "hospital", "contact:tollfree": "1800 1033 363", "fax": "040 40045671", "health_facility:type": "Optical Dispensing Showroom;Pharmacy;Laboratory Services", "healthcare": "hospital", "healthcare:speciality": "Glaucoma Services;Retina Services;Oculoplasty Services;Strabismus and Neurophthalmology Services;Cornea Services;Contact Lens Clinic;Low Visual Aid Clinic", "medical_system": "Allopathic", "name": "Sree Netralaya Eye Hospital and Laser Centre", "operator:type": "private", "phone": "040 40045670", "source": "OpenGovernmentData", "website": "https://sreenetralaya.org/"}}, {"type": "node", "id": 6484704654, "lat": 17.3987452, "lon": 78.5069785, "tags": {"addr:district": "Hyderabad", "addr:full": "H.No.2-1-514/D, Nallakunta", "addr:postcode": "500044", "addr:state": "Telangana", "amenity": "hospital", "name": "Amar Maternity Nursing Home", "source": "OpenGovernmentData"}}, {"type": "node", "id": 6484754716, "lat": 17.391947, "lon": 78.4969578, "tags": {"addr:district": "Hyderabad", "addr:full": "3-4-828, Barkatpura", "addr:postcode": "500027", "addr:state": "Telangana", "amenity": "hospital", "name": "Geeta Clinic And Maternity Home", "source": "OpenGovernmentData"}}, {"type": "node", "id": 6484775841, "lat": 17.3452764, "lon": 78.5282483, "tags": {"addr:district": "Hyderabad", "addr:full": "8-8-112/1, Sriram Nagar Colony, Nagarjuna Sagar Road, Near Karmanghat 'X' Roads", "addr:postcode": "500035", "addr:state": "Telangana", "amenity": "hospital", "healthcare": "hospital", "name": "Kiran Hospital", "source": "OpenGovernmentData"}}, {"type": "node", "id": 6484888144, "lat": 17.4073263, "lon": 78.492862, "tags": {"addr:district": "Hyderabad", "addr:full": "1-10-189, Near RTC Cross Road, SBH Colony, Ashok Nagar", "addr:postcode": "500020", "addr:state": "Telangana", "amenity": "hospital", "name": "Praja Sai Hospital", "source": "OpenGovernmentData"}}, {"type": "node", "id": 6484947325, "lat": 17.3534936, "lon": 78.5068591, "tags": {"addr:district": "Hyderabad", "addr:full": "17-1-388/C/19&20, Vinay Nagar Colony, Saidabad", "addr:postcode": "500059", "addr:state": "Telangana", "amenity": "hospital", "healthcare": "hospital", "name": "Ratna Maternity and Nursing Home", "source": "OpenGovernmentData"}}, {"type": "node", "id": 6484965004, "lat": 17.3942993, "lon": 78.5079373, "tags": {"addr:district": "Hyderabad", "addr:full": "2-2-1167/11/1/A, Tilak Nagar Main Road", "addr:postcode": "500044", "addr:state": "Telangana", "amenity": "hospital", "name": "Kishan Rao Hospital", "source": "OpenGovernmentData"}}, {"type": "node", "id": 6485021712, "lat": 17.4142, "lon": 78.5021076, "tags": {"addr:district": "Hyderabad", "addr:full": "Dayara Market, Musheerabad", "addr:postcode": "500020", "addr:state": "Telangana", "amenity": "hospital", "name": "Sudarshan Hospital", "source": "OpenGovernmentData"}}, {"type": "node", "id": 6485066503, "lat": 17.4077787, "lon": 78.4975089, "tags": {"addr:district": "Hyderabad", "addr:full": "RTC 'X' Roads, Musheerbad", "addr:postcode": "500020", "addr:state": "Telangana", "amenity": "hospital", "name": "Dangoria Maternity and Nursing Home", "source": "OpenGovernmentData"}}, {"type": "node", "id": 6485092469, "lat": 17.3908042, "lon": 78.4965339, "tags": {"addr:district": "Hyderabad", "addr:full": "3-4-801, Barkatpura", "addr:postcode": "500027", "addr:state": "Telangana", "amenity": "hospital", "contact:email": "shroffhospital@yahoo.com; ccshroffhospital@gmail.com", "contact:phone": "+91 9848675666; +91 9848695953", "name": "C.C. Shroff Memorial Hospital", "source": "OpenGovernmentData", "website": "https://www.ccshroffhospital.com/"}}, {"type": "node", "id": 6485104985, "lat": 17.3717457, "lon": 78.5005935, "tags": {"addr:city": "Hyderabad", "addr:district": "Hyderabad", "addr:full": "D No: 16-2-674/12, Judges Colony, Malakpet", "addr:postcode": "500024", "addr:state": "Telangana", "amenity": "hospital", "healthcare": "hospital", "name": "Hyderabad Kidney And Laparoscopic Centre", "source": "OpenGovernmentData"}}, {"type": "node", "id": 6485458540, "lat": 17.4017218, "lon": 78.5756557, "tags": {"addr:district": "Hyderabad", "addr:full": "Survey Number 93/2 and 125, Opposite Bharath Petrol Pump, Warangal Highway Mainroad, Shanthi Nagar, Uppal", "addr:postcode": "500039", "addr:state": "Telangana", "amenity": "hospital", "email": "uppal@adityahospital.com", "fax": "040 33855644", "health_facility:type": "Clinical Services;Diagnostic Services;Laboratory Services and Transfusion Services;Pharmacy;Ambulance Services;Dietetics;Physiotherapy;Laboratory Service", "healthcare:speciality": "Cardiology;Nephrology;Orthopaedics;Internal Medicine;Critical Care;Radiology;General Medicine;Gastroenterology;Endocrinalogy;Dermatology;Pulmonology;Pediatrics", "medical_system": "Allopathic", "name": "Aditya Hospital, Uppal", "operator:type": "private", "phone": "040 33855555", "source": "OpenGovernmentData", "website": "https://www.adityahospital.com/"}}, {"type": "node", "id": 6485603800, "lat": 17.3925332, "lon": 78.4957641, "tags": {"addr:district": "Hyderabad", "addr:full": "H.No: 3-4-140, Barkathpura", "addr:postcode": "500027", "addr:state": "Telangana", "amenity": "hospital", "name": "Shalini Hospitals", "source": "OpenGovernmentData"}}, {"type": "node", "id": 6485621541, "lat": 17.3598544, "lon": 78.504485, "tags": {"addr:district": "Hyderabad", "addr:full": "17-2-549, Saidabad", "addr:postcode": "500059", "addr:state": "Telangana", "amenity": "hospital", "name": "Vivek Hospital", "source": "OpenGovernmentData"}}, {"type": "node", "id": 6485835298, "lat": 17.4226373, "lon": 78.4951296, "tags": {"addr:district": "Hyderabad", "addr:full": "Padmashali Colony, Kawadiguda, Near Praga Tools", "addr:postcode": "500080", "addr:state": "Telangana", "amenity": "hospital", "name": "Vasundhara Nursing Home", "source": "OpenGovernmentData"}}, {"type": "node", "id": 6486018651, "lat": 17.370373, "lon": 78.487161, "tags": {"addr:district": "Hyderabad", "addr:full": "22-2-403, Hussaini Mohalla, Noor Khan Bazar", "addr:postcode": "500024", "addr:state": "Telangana", "amenity": "hospital", "name": "Jaferia Hospital", "source": "OpenGovernmentData"}}, {"type": "node", "id": 6486039380, "lat": 17.3503388, "lon": 78.4916899, "tags": {"addr:district": "Hyderabad", "addr:full": "H. No. 18-8- 589/54, Kumarwadi Colony, Edi Bazar", "addr:postcode": "500023", "addr:state": "Telangana", "amenity": "hospital", "name": "Sravani Hospital", "source": "OpenGovernmentData"}}, {"type": "node", "id": 6486935781, "lat": 17.4255423, "lon": 78.5340929, "tags": {"addr:district": "Hyderabad", "addr:full": "401 to 404, 4th Floor, Tara Tycoon Tower, Opp. Aradhana Theatre, Tarnaka", "addr:postcode": "500017", "addr:state": "Telangana", "amenity": "hospital", "name": "Anand Vitreo Retina Institute Pvt Ltd", "source": "OpenGovernmentData"}}, {"type": "node", "id": 6487102159, "lat": 17.3760514, "lon": 78.5569091, "tags": {"addr:district": "Hyderabad", "addr:full": "Plot No. 21, Nagole", "addr:postcode": "500035", "addr:state": "Telangana", "amenity": "hospital", "fax": "24221935", "name": "SRI LAXMI MULTI SPECIALITY HOSPITAL, LAPROSCOPIC AND RESEARCH CENTRE", "source": "OpenGovernmentData"}}, {"type": "node", "id": 6487115764, "lat": 17.376873, "lon": 78.490338, "tags": {"addr:district": "Hyderabad", "addr:full": "16-6-104 To 109, Kamal Theatre Complex, Chaderghat, Opposite To Hotel Niagara", "addr:postcode": "500024", "addr:state": "Telangana", "amenity": "hospital", "name": "Thumbay Hospital New Life", "phone": "040 6723 5555; 040 6765 6565; 040 2460 0600", "source": "OpenGovernmentData", "website": "https://thumbayhospital.com"}}, {"type": "node", "id": 6487122129, "lat": 17.3974654, "lon": 78.5366464, "tags": {"addr:district": "Hyderabad", "addr:full": "3-9-9-10/14, Saradhanagar, Ramantapur", "addr:postcode": "500013", "addr:state": "Telangana", "amenity": "hospital", "name": "Anantha Lakshmi Kidney and Multi Specialty Hospital", "source": "OpenGovernmentData"}}, {"type": "node", "id": 6487288564, "lat": 17.345958, "lon": 78.5399126, "tags": {"addr:district": "Hyderabad", "addr:full": "Bairamlguda, Nagarjune Sagar Road;Ground Floor(North Block), Room No. 702 to 710, D.No: 08-16-01, Sowbhagya Nagar, Sagar Road, Saroor Nagar", "addr:postcode": "500035", "addr:state": "Telangana", "amenity": "hospital", "fax": "24031184; 24030077", "healthcare": "blood_bank", "healthcare:speciality": "multi specialty", "medical_system": "Allopathic", "name": "Aware gleneagles Global Hospital;Aware Gleneagles Global Hospital's Blood Bank", "operator:type": "private", "phone": "040 24111111;04024111111, Extn: 787", "source": "OpenGovernmentData", "website": "http://www.globalhospitalsindia.com/"}}, {"type": "node", "id": 6487326328, "lat": 17.4232391, "lon": 78.5163756, "tags": {"addr:district": "Hyderabad", "addr:full": "H.No.12-11-251, Namalagundu, Seethafalmandi", "addr:postcode": "500061", "addr:state": "Telangana", "amenity": "hospital", "name": "Sri Tirumala Maternity and Nursing Home", "source": "OpenGovernmentData"}}, {"type": "node", "id": 6487452726, "lat": 17.4034853, "lon": 78.4924355, "tags": {"addr:district": "Hyderabad", "addr:full": "1-1-336/36A, Vivek Nagar, Lane Opp To Sri Tyagaraya Gana Sabha , Chikkadpally", "addr:postcode": "500020", "addr:state": "Telangana", "amenity": "hospital", "name": "Akira Eye Surgical Annexe", "source": "OpenGovernmentData"}}, {"type": "node", "id": 6487635185, "lat": 17.3682886, "lon": 78.5220303, "tags": {"addr:city": "Hyderabad", "addr:district": "Hyderabad", "addr:full": "H.No: 16-11-739/1 & 2, Kamala Complex, Dilsukhnagar", "addr:postcode": "500060", "addr:state": "Telangana", "alt_name": "KAMALA HOSPITAL", "amenity": "hospital", "contact:phone": "04024152266 ; 24152277 ; 24150698;3753053", "healthcare": "hospital", "name": "SRESHTA SRI KAMALA HOSPITALS", "operator:type": "private", "source": "OpenGovernmentData"}}, {"type": "node", "id": 6487670477, "lat": 17.3751644, "lon": 78.4898807, "tags": {"addr:district": "Hyderabad", "addr:full": "#16-6-326, Osmanpura, Chaderghat", "addr:postcode": "500024", "addr:state": "Telangana", "amenity": "hospital", "contact:email": "muslimmaternityhospital@gmail.com", "contact:phone": "040-24522005", "name": "Muslim Maternity and Children's Hospital", "source": "OpenGovernmentData", "website": "https://www.muslimmaternityhospital.in/"}}, {"type": "node", "id": 6487677480, "lat": 17.3695416, "lon": 78.5213698, "tags": {"addr:district": "Hyderabad", "addr:full": "Near Andhra Bank ATM,Indira Nagar,Dilsukhnagar", "addr:postcode": "500036", "addr:state": "Telangana", "amenity": "hospital", "healthcare": "hospital", "name": "Shashi Hospital", "source": "OpenGovernmentData"}}, {"type": "node", "id": 6487777184, "lat": 17.3771559, "lon": 78.557005, "tags": {"addr:district": "Hyderabad", "addr:full": "Plot No. 65, Near Bank of Baroda, Nagole Cross Road", "addr:postcode": "500035", "addr:state": "Telangana", "amenity": "hospital", "fax": "040 24051203", "name": "Bhavya Hospital", "source": "OpenGovernmentData"}}, {"type": "node", "id": 6487920155, "lat": 17.421726, "lon": 78.5041333, "tags": {"addr:district": "Hyderabad", "addr:full": "6-1-103&109, Padmaraonagar, Secunderabad", "addr:postcode": "500025", "addr:state": "Telangana", "amenity": "hospital", "name": "Pulse Hospitals", "source": "OpenGovernmentData"}}, {"type": "node", "id": 6488483046, "lat": 17.3973433, "lon": 78.5603427, "tags": {"addr:district": "Hyderabad", "addr:full": "Adjacent to Raj Lakshmi Theatre, Rajnagar Colony, Uppal 'X' Roads", "addr:postcode": "500039", "addr:state": "Telangana", "amenity": "hospital", "name": "Krishna Multi Speciality Hospital", "source": "OpenGovernmentData"}}, {"type": "node", "id": 6488608462, "lat": 17.3930464, "lon": 78.4890948, "tags": {"addr:district": "Hyderabad", "addr:full": "3-5-1105, Beside Bata Show Room, Narayanguda", "addr:postcode": "500029", "addr:state": "Telangana", "amenity": "hospital", "name": "Sunrise Superspeciality Children's Hospital", "source": "OpenGovernmentData"}}, {"type": "node", "id": 6489610677, "lat": 17.4002374, "lon": 78.5405061, "tags": {"addr:district": "Hyderabad", "addr:full": "Plot Number 4, 5, 14 and 15, Pragati Nagar, Ramanthapur, Opposite Ramanthapur Lake", "addr:postcode": "500013", "addr:state": "Telangana", "amenity": "hospital", "email": "contact@matrixhospital.com", "healthcare:speciality": "Medical Specialities;Surgical Specialities;Plastic Surgery;Obstetrics and Gynaecology;Physiotherapy;Dietitics;Dentistry;Bariatric Surgery", "medical_system": "Allopathic", "name": "Matrix Hospital", "operator:type": "private", "phone": "040 27035678; 040 64647575; 040 27030101", "source": "OpenGovernmentData", "website": "http://matrixhospital.com"}}, {"type": "node", "id": 6489762038, "lat": 17.397102, "lon": 78.5319123, "tags": {"addr:district": "Hyderabad", "addr:full": "3-11-48, Opp. Govt Homeo College, Ramanthapur, Rangareddy", "addr:postcode": "500013", "addr:state": "Telangana", "amenity": "hospital", "name": "Shree Jaya Krishna Hospital", "source": "OpenGovernmentData"}}, {"type": "node", "id": 6489835094, "lat": 17.401288, "lon": 78.5648384, "tags": {"addr:district": "Hyderabad", "addr:full": "Near Gandhi Statue, Uppal Main Road", "addr:postcode": "500039", "addr:state": "Telangana", "amenity": "hospital", "name": "Sathya Hospital", "source": "OpenGovernmentData"}}, {"type": "node", "id": 6490016089, "lat": 17.373217, "lon": 78.5032857, "tags": {"addr:district": "Hyderabad", "addr:full": "H.No.16-2-701/51/1, Opposite Mahboob Mansion, Malakpet", "addr:postcode": "500036", "addr:state": "Telangana", "amenity": "hospital", "fax": "24540258", "healthcare": "hospital", "name": "Susrutha Hospital", "source": "OpenGovernmentData"}}, {"type": "node", "id": 6490029456, "lat": 17.390579, "lon": 78.4911588, "tags": {"addr:district": "Hyderabad", "addr:full": "3-4-259, Near Padmavathi Cineplex, Kachiguda Station Road", "addr:postcode": "500027", "addr:state": "Telangana", "amenity": "hospital", "name": "Venkatesh Borgaonker Nursing Home", "source": "OpenGovernmentData"}}, {"type": "node", "id": 6490143313, "lat": 17.3979338, "lon": 78.492064, "tags": {"addr:district": "Hyderabad", "addr:full": "3-5-1082/A,Jaiswal Lane, Narayanaguda", "addr:postcode": "500029", "addr:state": "Telangana", "amenity": "hospital", "fax": "040 23226153", "name": "Sri Sai Srinivasa Speciality Hospitals Pvt. Ltd", "source": "OpenGovernmentData"}}, {"type": "node", "id": 6490181234, "lat": 17.389948, "lon": 78.4959277, "tags": {"addr:district": "Hyderabad", "addr:full": "3-4-1, V.L.R Complex, Station Road, Kachiguda", "addr:postcode": "500027", "addr:state": "Telangana", "amenity": "hospital", "email": "info@sksneurohospital.com", "name": "Sai Krishna Neuro Hospital", "phone": "040 44778899 ; 040 2755 1414", "source": "OpenGovernmentData", "website": "https://www.sksneurohospitals.com/"}}, {"type": "node", "id": 6490329242, "lat": 17.4156652, "lon": 78.4988473, "tags": {"addr:district": "Hyderabad", "addr:full": "H.No 1-5-551, Musheerabad", "addr:postcode": "500020", "addr:state": "Telangana", "amenity": "hospital", "fax": "040 23445505", "health_facility:type": "Diagnostic Centre;Lab;Health Check Up;Physiotherapy;24 Hour Facility of Emergency care;Laboratory and Pharmacy;Digital X Ray;Sonography;DialysisFacility;Intensive Care Unit;Emergency and Trauma Care;Operation Theatre", "healthcare:speciality": "General Medicine;Cardiology;Surgery;Gynaecilogy;Obstetrics;Orthopedics;Paediatrics;Opthalmology;Dental;Urology;ENT;Oncology;Neurology;Psychiatry;Physiootheraphy;Plastic Surgery;Rediology;Dermatology;Gastroenterology", "medical_system": "Allopathic", "name": "Sagar Lal Memorial Hospital and Matadin Goel Research Center", "operator:type": "private", "phone": "040 23445501;040 23445502;040 23445503", "source": "OpenGovernmentData", "website": "http://www.sagarlalhospital.com"}}, {"type": "node", "id": 6490784114, "lat": 17.4111077, "lon": 78.482968, "tags": {"addr:district": "Hyderabad", "addr:full": "Door No: 1-2-365/36/5 & 9, Rama Krishna Mutt Road, Opposite Indira Park, Domalguda", "addr:postcode": "500029", "addr:state": "Telangana", "amenity": "hospital", "name": "Dr. Mohan's Diabetes Specialities Centre", "source": "OpenGovernmentData"}}, {"type": "node", "id": 6490857331, "lat": 17.4281006, "lon": 78.5170508, "tags": {"addr:district": "Hyderabad", "addr:full": "11-1-15, Seethaphalmandi", "addr:postcode": "500061", "addr:state": "Telangana", "amenity": "hospital", "healthcare": "hospital", "name": "Krishna Maternity And Nursing Home", "source": "OpenGovernmentData"}}, {"type": "node", "id": 6490864509, "lat": 17.3646867, "lon": 78.5441633, "tags": {"addr:district": "Hyderabad", "addr:full": "1-13-1383, Road No. 1, Margadarsi Colony, R.K. Puram", "addr:postcode": "500035", "addr:state": "Telangana", "amenity": "hospital", "fixme": "Please verify the accurate position of the hospital as I have mapped the facility based on the address provided in Open Government data", "name": "Sri Srinivasa Nursing Home", "source": "OpenGovernmentData"}}, {"type": "node", "id": 6491342836, "lat": 17.410791, "lon": 78.5434699, "tags": {"addr:district": "Hyderabad", "addr:full": "4-96/2, Street No. 8, Sneha Nagar Colony, Habsiguda", "addr:postcode": "500007", "addr:state": "Telangana", "amenity": "hospital", "fax": "040 27154758", "name": "Rajagiri Hospitals", "source": "OpenGovernmentData"}}, {"type": "node", "id": 6491362879, "lat": 17.3937202, "lon": 78.5095339, "tags": {"addr:district": "Hyderabad", "addr:full": "2-2-1105/10/A, Tilak Nagar", "addr:postcode": "500044", "addr:state": "Telangana", "amenity": "hospital", "name": "Ramana Maternity Nursing Home", "source": "OpenGovernmentData"}}, {"type": "node", "id": 6494269592, "lat": 17.3512003, "lon": 78.5094488, "tags": {"addr:district": "Hyderabad", "addr:full": "H. No. 17-1-383/N S/3&4, Shantosh Nagar 'X' Roads, Opp. Amber Biscuit Factory, Nagarjuna Sagar Road", "addr:postcode": "500059", "addr:state": "Telangana", "amenity": "hospital", "healthcare": "hospital", "name": "Nightingale Hospital", "phone": "040 24530085; +91 9989030085", "source": "OpenGovernmentData", "website": "www.nightingalehospitals.in"}}, {"type": "node", "id": 6494385067, "lat": 17.4173069, "lon": 78.5412021, "tags": {"addr:district": "Hyderabad", "addr:full": "Kakatiya Nagar, Habsiguda", "addr:postcode": "500007", "addr:state": "Telangana", "amenity": "hospital", "name": "Habsiguda Poly Clinic and Nursing Home", "source": "OpenGovernmentData"}}, {"type": "node", "id": 6494411875, "lat": 17.3962241, "lon": 78.4889916, "tags": {"addr:district": "Hyderabad", "addr:full": "3-5-170/G S, Near Shanti Theatre, Narayanaguda", "addr:postcode": "500029", "addr:state": "Telangana", "amenity": "hospital", "name": "Unity Centre For Orthopaedics And Trauma", "source": "OpenGovernmentData"}}, {"type": "node", "id": 6494447237, "lat": 17.3974917, "lon": 78.5339528, "tags": {"addr:district": "Hyderabad", "addr:full": "H.No. 3-10-4/B/1, Near St. Joseph's School, Lane Beside Bharat Petrol Pump, Gokhale Nagar, Ramantapur", "addr:postcode": "500013", "addr:state": "Telangana", "amenity": "hospital", "fax": "040 27035444", "name": "Ramantapur Hospital", "source": "OpenGovernmentData"}}, {"type": "node", "id": 6494458034, "lat": 17.3608928, "lon": 78.5432218, "tags": {"addr:district": "Hyderabad", "addr:full": "Plot No. V\u20137, NH 9, Narsimhapuri Colony, Kothapet, Saroornagar", "addr:postcode": "500035", "addr:state": "Telangana", "amenity": "hospital", "contact:mobile": "09248019460;08897161525", "fax": "040 24039017", "health_facility:type": "Information Desk;OPD Counter;24x7 Laboratory;Spiral CT Scan;Diagnostic Services;Radiology;Laboratory Services and Transfusion Services;Physiotherapy;Dietery;Housekeeping;Pharmacy", "healthcare:speciality": "multi specility", "medical_system": "Allopathic", "name": "Sai Sanjeevini Hospital", "operator:type": "private", "phone": "040 24039012;040 24039013;040 24039014;040 24039015;040 24039016", "source": "OpenGovernmentData", "website": "www.saisanjeevinihospitals.com"}}, {"type": "node", "id": 6494474204, "lat": 17.4097327, "lon": 78.5084336, "tags": {"addr:district": "Hyderabad", "addr:full": "1-9-49/B/1, Near E-Seva, Musheerabad, Ramnagar", "addr:postcode": "500020", "addr:state": "Telangana", "amenity": "hospital", "fax": "040-27628708", "name": "Sowmya Hospital", "source": "OpenGovernmentData"}}, {"type": "node", "id": 6495031117, "lat": 17.3995642, "lon": 78.4843923, "tags": {"addr:district": "Hyderabad", "addr:full": "3-6-217/1, Street Number 15, Near Vasavi Public School, Himayath Nagar", "addr:postcode": "500029", "addr:state": "Telangana", "amenity": "hospital", "emergency_telephone_code": "9849474173", "fax": "040 23228097", "healthcare:speciality": "Phacoemulsification Catract Surgery; LASIK Surgery; Age Related Macular Degenraration; Squint Correction; Glaucoma; Diabetic Retinopathy; Oculoplastic Clinic", "medical_system": "Allopathic", "name": "Hyderabad Eye Centre", "operator:type": "private", "phone": "040 23228181", "source": "OpenGovernmentData", "website": "https://www.hyderabadeyecentre.com/"}}, {"type": "node", "id": 6495303036, "lat": 17.39863, "lon": 78.4849159, "tags": {"addr:district": "Hyderabad", "addr:full": "3-6-272, NVK Towers, Near Old MLA Quarters, Opposite Telugu Academy, Himayathnagar", "addr:postcode": "500029", "addr:state": "Telangana", "amenity": "hospital", "contact:mobile": "8008888511", "email": "info@clearvision.co.in", "health_facility:type": "Operation Theate;Medical and Diagnostic Services;Pharmacy;Ambulance", "healthcare:speciality": "Comprehensive Eye Check up;Cataract Clinic;Lasik and Laser Clinic;Blade Free Lasik Surgery;Cornea Clinic;Glaucoma Clinic;Retinal Clinic;Pediatric Ophthalmology;Squint Clinic;Oculoplasty Clinic;Opticals and Contact Lens", "medical_system": "Allopathic", "name": "Clear Vision Eye Hospital", "operator:type": "private", "phone": "040 23225386;040 23221522", "source": "OpenGovernmentData", "website": "https://www.clearvision.co.in/"}}, {"type": "node", "id": 6495375554, "lat": 17.3601882, "lon": 78.5047261, "tags": {"addr:district": "Hyderabad", "addr:full": "Near Saidabad Bus Stop, Saidabad Main Road", "addr:postcode": "500059", "addr:state": "Telangana", "amenity": "hospital", "name": "Sai Nursing Home", "source": "OpenGovernmentData"}}, {"type": "node", "id": 6496578004, "lat": 17.4171112, "lon": 78.5440868, "tags": {"addr:district": "Hyderabad", "addr:full": "7-102/7, Sandhya Enclave, 1st Floor, Habsiguda", "addr:postcode": "500007", "addr:state": "Telangana", "amenity": "hospital", "fax": "040 27177618", "name": "Neo Vision Eye Care and Laser Center", "phone": "040-40122177", "source": "OpenGovernmentData", "website": "https://neovisioneyecare.in/"}}, {"type": "node", "id": 6496837455, "lat": 17.3863466, "lon": 78.4942286, "tags": {"addr:district": "Hyderabad", "addr:full": "Nimboliadda, Chappal Bazar, Kachiguda Railway Station", "addr:postcode": "500027", "addr:state": "Telangana", "amenity": "hospital", "fax": "040 55636395", "name": "Sri Rama Krishna Hospital", "source": "OpenGovernmentData"}}, {"type": "node", "id": 6496940849, "lat": 17.4348983, "lon": 78.5429897, "tags": {"addr:district": "Hyderabad", "addr:full": "Lalapet,Tarnaka", "addr:postcode": "500017", "addr:state": "Telangana", "amenity": "hospital", "name": "Manjary Multispeciality Hospital", "source": "OpenGovernmentData"}}, {"type": "node", "id": 6496972191, "lat": 17.3737769, "lon": 78.4958902, "tags": {"addr:district": "Hyderabad", "addr:full": "16-8-536, Beside Akbar Tower, Anjuman Road, New Malakpet", "addr:postcode": "500036", "addr:state": "Telangana", "amenity": "hospital", "contact:phone": "040-24502108; 040-24412525", "healthcare": "hospital", "name": "Dr. Zaibunnisa's Imtiyaz Hospital", "source": "OpenGovernmentData"}}, {"type": "node", "id": 6497172349, "lat": 17.3692242, "lon": 78.5189867, "tags": {"addr:district": "Hyderabad", "addr:full": "No. 16-11-741/10/G/1, Moosarambagh, Saidabad Mandal, Dilsukh Nagar", "addr:postcode": "500060", "addr:state": "Telangana", "amenity": "hospital", "fax": "040 27760225", "healthcare": "hospital", "medical_system": "Allopathic", "name": "Vasan Healthcare", "name:te": "\u0c35\u0c3e\u0c38\u0c28\u0c4d \u0c39\u0c46\u0c32\u0c4d\u0c24\u0c4d \u0c15\u0c47\u0c30\u0c4d", "operator:type": "private", "phone": "040 30141200", "source": "OpenGovernmentData", "website": "https://vasaneye.com/"}}, {"type": "node", "id": 6497354554, "lat": 17.4097647, "lon": 78.5441056, "tags": {"addr:district": "Hyderabad", "addr:full": "8-12-65, Street No 8, Habsiguda", "addr:postcode": "500007", "addr:state": "Telangana", "amenity": "hospital", "name": "Siris Hospital", "source": "OpenGovernmentData"}}, {"type": "node", "id": 6497366546, "lat": 17.3937938, "lon": 78.5302003, "tags": {"addr:district": "Hyderabad", "addr:full": "3-12-58/2, Srinivasapuram Road, Ganesh Nagar, Ramanthapur, Opp T. V. Studio", "addr:postcode": "500013", "addr:state": "Telangana", "amenity": "hospital", "contact:phone": "+91 8686873245; 040 27033300", "name": "Janani Hospital", "source": "OpenGovernmentData", "website": "http://jananiihospital.com"}}, {"type": "node", "id": 6497571978, "lat": 17.3688485, "lon": 78.5343739, "tags": {"addr:district": "Hyderabad", "addr:full": "2-41/5, Prabhath Nagar Colony, Chaitanyapuri", "addr:postcode": "500060", "addr:state": "Telangana", "amenity": "hospital", "fax": "040 24054116", "healthcare": "hospital", "name": "Oarchid Hospital", "source": "OpenGovernmentData"}}, {"type": "node", "id": 6497913444, "lat": 17.3682105, "lon": 78.5203962, "tags": {"addr:district": "Rangareddy", "addr:full": "Gaddi Annaram Cross Road, Dilsukh Nagar", "addr:postcode": "500060", "addr:state": "Telangana", "amenity": "hospital", "healthcare": "hospital", "name": "Nikhil Hospital", "name:te": "\u0c28\u0c3f\u0c16\u0c3f\u0c32\u0c4d \u0c39\u0c3e\u0c38\u0c4d\u0c2a\u0c3f\u0c1f\u0c32\u0c4d", "source": "OpenGovernmentData"}}, {"type": "node", "id": 6502966455, "lat": 17.394801, "lon": 78.4990337, "tags": {"addr:district": "Hyderabad", "addr:full": "H.No: 3- 4- 759, Opp. HP Petrol Pump, Barkatpura 'X' Roads", "addr:postcode": "500027", "addr:state": "Telangana", "amenity": "hospital", "contact:email": "info@rukkusdentalhospitals.com", "contact:mobile": "+91 - 9440253019; +91 - 9100056155", "contact:phone": "040 27555453", "fax": "27555453", "name": "Rukkus Dental Hospital & Implant Center", "source": "OpenGovernmentData", "website": "www.rukkusdentalhospitals.com"}}, {"type": "node", "id": 6503081897, "lat": 17.3942462, "lon": 78.4989743, "tags": {"addr:district": "Hyderabad", "addr:full": "H.No. 3-4-875/B, Near HP Petrol Pump, Barkatpura", "addr:postcode": "500027", "addr:state": "Telangana", "amenity": "hospital", "fax": "040 27564379", "name": "Hyderabad Eye Hospital", "source": "OpenGovernmentData"}}, {"type": "node", "id": 6503145065, "lat": 17.3709739, "lon": 78.5147515, "tags": {"addr:district": "Hyderabad", "addr:full": "#16-11-310/8/B, MOOSARAMBAGH, MALAKPET, HYDERABAD", "addr:postcode": "500036", "addr:state": "Telangana", "amenity": "hospital", "email": "INFO@HEGDEHOSPITAL.COM", "healthcare": "hospital", "name": "Hedge Maternity and Nursing Home", "phone": "8880 74 74 74", "source": "OpenGovernmentData", "website": "HTTP://HEGDEHOSPITAL.COM/"}}, {"type": "node", "id": 6503195186, "lat": 17.3502416, "lon": 78.5121296, "tags": {"addr:district": "Hyderabad", "addr:full": "Opposite Rose Garden, Sagar Road, Santosh Nagar", "addr:postcode": "500059", "addr:state": "Telangana", "amenity": "hospital", "healthcare": "hospital", "name": "Sunita Children's Hospital", "source": "OpenGovernmentData"}}, {"type": "node", "id": 6503302425, "lat": 17.3674854, "lon": 78.5358477, "tags": {"addr:district": "Hyderabad", "addr:full": "Opposite Kothapet Fruit Market, Near Miraj Cinemas, Krishna Veni Nagar Colony, Kothapet, Sri Sai Shivani Complex, HUDA Complex, Saroornagar.", "addr:postcode": "500035", "addr:state": "Telangana", "amenity": "hospital", "fax": "040 65126514", "healthcare": "hospital", "name": "Induss Hospitals", "source": "OpenGovernmentData"}}, {"type": "node", "id": 6503660417, "lat": 17.4002489, "lon": 78.5665409, "tags": {"addr:district": "Hyderabad", "addr:full": "Vijayapuri Colony, Uppal", "addr:postcode": "500039", "addr:state": "Telangana", "amenity": "hospital", "healthcare": "hospital", "healthcare:speciality": "paediatrics", "name": "Ammaji Childrens Hospital", "source": "OpenGovernmentData"}}, {"type": "node", "id": 6503723809, "lat": 17.3920533, "lon": 78.4961564, "tags": {"addr:district": "Hyderabad", "addr:full": "3-4-136/A, Street Number 6, Beside SBI, Barkatpura", "addr:postcode": "500027", "addr:state": "Telangana", "amenity": "hospital", "name": "Ashok Kumar Hospital", "source": "OpenGovernmentData"}}, {"type": "node", "id": 6503794648, "lat": 17.3453352, "lon": 78.5492826, "tags": {"addr:district": "Hyderabad", "addr:full": "3-2-394, Near LB Nagar Circle, Towards Sagar Ring Road, L B Nagar", "addr:postcode": "500074", "addr:state": "Telangana", "amenity": "hospital", "healthcare": "hospital", "name": "Health Care Hospitals", "source": "OpenGovernmentData"}}, {"type": "node", "id": 6504077179, "lat": 17.3946084, "lon": 78.5304907, "tags": {"addr:district": "Hyderabad", "addr:full": "3-12-51, Ganesh Nagar, Opp. TV Studio, Ramanthapur", "addr:postcode": "500013", "addr:state": "Telangana", "amenity": "hospital", "name": "Sri Krishna Swathi Children's Hospital", "source": "OpenGovernmentData"}}, {"type": "node", "id": 6504123689, "lat": 17.398678, "lon": 78.5136256, "tags": {"addr:district": "Hyderabad", "addr:full": "#3-2-312, Central Excise Colony, Shivam Road, Bagh Amberpet", "addr:postcode": "500013", "addr:state": "Telangana", "amenity": "hospital", "name": "Shantilal Navodaya Multi Speciality Hospital", "source": "OpenGovernmentData"}}, {"type": "node", "id": 6504150659, "lat": 17.3941335, "lon": 78.5099286, "tags": {"addr:district": "Hyderabad", "addr:full": "2-2-1108/1/A/2, Tilak Nagar", "addr:postcode": "500044", "addr:state": "Telangana", "amenity": "hospital", "healthcare": "hospital", "name": "Tilaknagar ABHAYA-BBC HOSPITAL", "source": "OpenGovernmentData"}}, {"type": "node", "id": 6505167632, "lat": 17.4004716, "lon": 78.5666549, "tags": {"addr:city": "Hyderabad", "addr:district": "Hyderabad", "addr:full": "Uppal Main Road", "addr:postcode": "500039", "addr:state": "Telangana", "amenity": "hospital", "healthcare": "hospital", "name": "Shiva Sai Hospital", "source": "OpenGovernmentData"}}, {"type": "node", "id": 6505184710, "lat": 17.3978302, "lon": 78.4842937, "tags": {"addr:district": "Hyderabad", "addr:full": "3-5-886, Opposite Blue Dart Courier Office, Near Old MLA Quarters, Himayat Nagar", "addr:postcode": "500029", "addr:state": "Telangana", "amenity": "hospital", "name": "Dr. P. Siva Reddy Eye Hospital", "source": "OpenGovernmentData"}}, {"type": "node", "id": 6505187568, "lat": 17.3702559, "lon": 78.5005438, "tags": {"addr:district": "Hyderabad", "addr:full": "16-3-991/1/C, Government Printing Press Road, Malakpet", "addr:postcode": "500024", "addr:state": "Telangana", "amenity": "hospital", "healthcare": "hospital", "name": "KIMS BIBI Hospital", "phone": "040 24528122/33/34", "source": "OpenGovernmentData", "website": "https://hyderabad.kimsglobal.com/", "wikidata": "Q52856483"}}, {"type": "node", "id": 6505207797, "lat": 17.3727325, "lon": 78.509658, "tags": {"addr:district": "Hyderabad", "addr:full": "16-11-16-45/B, Beside HDFC Bank, Saleemnagar Colony, Malakpet", "addr:postcode": "500036", "addr:state": "Telangana", "amenity": "hospital", "contact:mobile": "9849018333", "contact:phone": "040 24546057; 040 66789424", "healthcare": "hospital", "name": "K.G.H The Family Hospital", "source": "OpenGovernmentData"}}, {"type": "node", "id": 6505303419, "lat": 17.3710405, "lon": 78.5008154, "tags": {"addr:district": "Hyderabad", "addr:full": "16-2-145/A/9, Judges Colony, Malakpet", "addr:postcode": "500036", "addr:state": "Telangana", "amenity": "hospital", "healthcare": "hospital", "name": "Pushpa Maternity and Nursing Home", "source": "OpenGovernmentData"}}, {"type": "node", "id": 6505370525, "lat": 17.3724317, "lon": 78.5077295, "tags": {"addr:district": "Hyderabad", "addr:full": "16-2-705/9/12/A-F, Beside Hanuman Temple, opp Reliance Trends, New Malakpet Ganj", "addr:postcode": "500036", "addr:state": "Telangana", "amenity": "hospital", "healthcare": "hospital", "name": "Spark Eye Care Hospital", "phone": "040 24542000", "source": "OpenGovernmentData", "website": "https://www.sparkhealth.in/"}}, {"type": "node", "id": 6505386986, "lat": 17.3719492, "lon": 78.5358806, "tags": {"addr:district": "Hyderabad", "addr:full": "1-54, Lane Beside Food World, Chaitanyapuri", "addr:postcode": "500060", "addr:state": "Telangana", "amenity": "hospital", "name": "Ganga Orthopaedic and Maternity Hospital", "source": "OpenGovernmentData"}}, {"type": "node", "id": 6505499664, "lat": 17.3689017, "lon": 78.5168678, "tags": {"addr:district": "Hyderabad", "addr:full": "H.No. 16-2-741 / 2, A.B. Colony, Asmangadh, Malakpet", "addr:postcode": "500036", "addr:state": "Telangana", "amenity": "hospital", "healthcare": "hospital", "name": "Midas ENT Head and Neck Super Speciality Hospital", "source": "OpenGovernmentData"}}, {"type": "node", "id": 6505528362, "lat": 17.3982154, "lon": 78.4843661, "tags": {"addr:district": "Hyderabad", "addr:full": "3-6-274, Near Telugu Academy, Opp. China Shop, MLA Quarters, Himayat Nagar", "addr:postcode": "500029", "addr:state": "Telangana", "amenity": "hospital", "fixme": "Please verify the accurate position of the hospital centre as I have mapped the facility based on the address provided in Open Government data", "name": "Desai Nursing Home", "source": "OpenGovernmentData"}}, {"type": "node", "id": 6505556901, "lat": 17.4030515, "lon": 78.5100617, "tags": {"addr:district": "Hyderabad", "addr:full": "S.K.Mall, Opposite Durga Bhai Deshmukh Hospital, Above Bata Showroom, Vidyanagar, O.U. Road", "addr:postcode": "500044", "addr:state": "Telangana", "amenity": "hospital", "contact:email": "neobbc@gmail.com", "contact:mobile": "8008804684", "emergency": "yes", "emergency_telephone_code": "08008804685; 08008804686; 040 27663232; 040 27663535", "fax": "040 27661020", "healthcare:speciality": "Pediatric Intensive Care Services;Neonatal Intensive Care Services;Pediatric Surgical Services", "medical_system": "Allopathic", "name": "NEO BBC Childrens Hospital", "opening_hours": "24/7", "operator:type": "private", "source": "OpenGovernmentData", "website": "www.neobbc.com/"}}, {"type": "node", "id": 6505593241, "lat": 17.3900901, "lon": 78.5314, "tags": {"addr:district": "Hyderabad", "addr:full": "Opposite Anand Jyothi Hogh School, Srinivasapuram", "addr:postcode": "500013", "addr:state": "Telangana", "amenity": "hospital", "name": "Sri Gayatri Hospital", "source": "OpenGovernmentData"}}, {"type": "node", "id": 6505613357, "lat": 17.4261322, "lon": 78.5324286, "tags": {"addr:district": "Hyderabad", "addr:full": "12-13-64, Beside Tarnaka Flyover, Tarnaka", "addr:postcode": "500017", "addr:state": "Telangana", "amenity": "hospital", "email": "info@surakshachildhospital.com", "emergency_telephone_code": "040 27016600;040 27016611;040 27016622", "fax": "040 2701 6623", "health_facility:type": "24 Hours Ambulance Services;Round The Clock Pharmacy;Imaging;Diagnostic Services;Antenatal Counselling;Neonatal and Paediatric Surgery;Neonatal Intensive Care Unit NICU ;Paediatric Intensive Care Unit PICU ;24 Hours Emergency Services;Out Patient Services", "healthcare:speciality": "multi specialty", "medical_system": "Allopathic", "name": "Suraksha Childrens Hospital", "operator:type": "private", "phone": "040 2706600;040 2706611;040 2706622", "source": "OpenGovernmentData", "website": "https://www.surakshachildrenshospital.com/"}}, {"type": "node", "id": 6507797498, "lat": 17.4004729, "lon": 78.4914961, "tags": {"addr:district": "Hyderabad", "addr:full": "3-6-756, Street No. 13, Himayatnagar", "addr:postcode": "500029", "addr:state": "Telangana", "amenity": "hospital", "name": "Mahesh Hospital And Research Foundation", "source": "OpenGovernmentData"}}, {"type": "node", "id": 6508501597, "lat": 17.3991381, "lon": 78.483151, "tags": {"addr:district": "Hyderabad", "addr:full": "3-6-287, Old MLA Quarters, Hyderguda", "addr:postcode": "500029", "addr:state": "Telangana", "amenity": "hospital", "name": "CDR Hospitals", "source": "OpenGovernmentData"}}, {"type": "node", "id": 6508963155, "lat": 17.3758914, "lon": 78.4971612, "tags": {"addr:district": "Hyderabad", "addr:full": "16-10-49, Nalgonda 'X' Road, New Malakpet", "addr:postcode": "500036", "addr:state": "Telangana", "amenity": "hospital", "healthcare": "hospital", "name": "Moosi Maternity and Genernal Hospital", "source": "OpenGovernmentData"}}, {"type": "node", "id": 6510205415, "lat": 17.3676268, "lon": 78.5508728, "tags": {"addr:district": "Hyderabad", "addr:full": "Road No. 5, Ramakrishnapuram, Kothapet", "addr:postcode": "500035", "addr:state": "Telangana", "amenity": "hospital", "name": "Hyma Children's Hospital", "source": "OpenGovernmentData"}}, {"type": "node", "id": 6511165512, "lat": 17.345084, "lon": 78.5288881, "tags": {"addr:district": "Hyderabad", "addr:full": "Plot No. 63, Opp. Andhra Bank, Near Megha Function Hall, Karmanghat", "addr:postcode": "500079", "addr:state": "Telangana", "amenity": "hospital", "healthcare": "hospital", "name": "Krishna Sai Multispeciality Hospital", "source": "OpenGovernmentData"}}, {"type": "node", "id": 6512969319, "lat": 17.3497321, "lon": 78.5151807, "tags": {"addr:district": "Hyderabad", "addr:full": "9-9-100, Reddy Colony, Champapet", "addr:postcode": "500059", "addr:state": "Telangana", "amenity": "hospital", "healthcare": "hospital", "name": "Maruthi Hospital", "source": "OpenGovernmentData"}}, {"type": "node", "id": 6513085407, "lat": 17.3512682, "lon": 78.5092865, "tags": {"addr:district": "Hyderabad", "addr:full": "17-1-383/S/1, Vinay Nagar, Sagar Road, Santoshnagar", "addr:postcode": "500059", "addr:state": "Telangana", "amenity": "hospital", "healthcare": "hospital", "name": "Himabindu Multi Speciality Hospital", "source": "OpenGovernmentData"}}, {"type": "node", "id": 6513406843, "lat": 17.4002182, "lon": 78.4840006, "tags": {"addr:district": "Hyderabad", "addr:full": "No. 3-6-191/1/82, Urdu Hall Lane, Hyderguda, Himayath Nagar", "addr:postcode": "500029", "addr:state": "Telangana", "amenity": "hospital", "name": "Lakshmi Maternity and Nursing Home", "name:te": "\u0c32\u0c15\u0c4d\u0c37\u0c4d\u0c2e\u0c3f \u0c2e\u0c46\u0c1f\u0c30\u0c4d\u0c28\u0c3f\u0c1f\u0c40 \u0c05\u0c02\u0c21\u0c4d \u0c28\u0c30\u0c4d\u0c38\u0c3f\u0c02\u0c17\u0c4d \u0c39\u0c4b\u0c2e\u0c4d", "source": "OpenGovernmentData"}}, {"type": "node", "id": 6527832466, "lat": 17.4174357, "lon": 78.5118319, "tags": {"addr:district": "Hyderabad", "addr:full": "Near Raghav Garden, Padmarao Nagar, Secunderabad", "addr:postcode": "500061", "addr:state": "Telangana", "amenity": "hospital", "name": "Akshaya Care Multi Speciality Hospital", "source": "OpenGovernmentData"}}, {"type": "node", "id": 6527839627, "lat": 17.4150148, "lon": 78.5452451, "tags": {"addr:district": "Hyderabad", "addr:full": "Street No. 7, Near TVS Show Room and Habsiguda Metro station, Habsiguda", "addr:postcode": "500007", "addr:state": "Telangana", "amenity": "hospital", "name": "Dr.Padmaja Fertility Centre and Nursing Home", "source": "OpenGovernmentData"}}, {"type": "node", "id": 6528257924, "lat": 17.3473217, "lon": 78.5195889, "tags": {"addr:district": "Hyderabad", "addr:full": "17-1-382/B/3&4, Bhanu Nagar, Opposite Indo American School, Champapet Road", "addr:postcode": "500079", "addr:state": "Telangana", "amenity": "hospital", "fax": "24079966", "healthcare": "hospital", "name": "Focus Hospital", "source": "OpenGovernmentData"}}, {"type": "node", "id": 6528552348, "lat": 17.370156, "lon": 78.5320289, "tags": {"addr:district": "Hyderabad", "addr:full": "1-7-90, Chaitanyapuri", "addr:postcode": "500060", "addr:state": "Telangana", "amenity": "hospital", "healthcare": "hospital", "name": "Geeta Multispeciality Hospital", "source": "OpenGovernmentData"}}, {"type": "node", "id": 6528604456, "lat": 17.3617057, "lon": 78.5620603, "tags": {"addr:district": "Hyderabad", "addr:full": "Plot No. 60-61, Rock Town Colony, L.B Nagar", "addr:postcode": "500068", "addr:state": "Telangana", "amenity": "hospital", "name": "Sri Sai Balaji Hospital", "source": "OpenGovernmentData"}}, {"type": "node", "id": 6528608362, "lat": 17.4227606, "lon": 78.5469769, "tags": {"addr:district": "Hyderabad", "addr:full": "Plot No. 7-44, Bapuji Nagar, Nacharam", "addr:postcode": "500076", "addr:state": "Telangana", "amenity": "hospital", "name": "Bapuji Maternity and Nursing Home", "source": "OpenGovernmentData"}}, {"type": "node", "id": 6528632311, "lat": 17.3700395, "lon": 78.5278568, "tags": {"addr:district": "Hyderabad", "addr:full": "Near Ganesh Function Hall, Beside Rajadhani Theatre Lane, Vikas Nagar", "addr:postcode": "500060", "addr:state": "Telangana", "amenity": "hospital", "healthcare": "hospital", "healthcare:speciality": "orthopaedics", "name": "Abinav Orthopedic Hospital", "source": "OpenGovernmentData"}}, {"type": "node", "id": 6530750454, "lat": 17.3891213, "lon": 78.4928083, "tags": {"addr:district": "Hyderabad", "addr:full": "Old Manjeera Hotel, Chappal Bazaar, Kachiguda", "addr:postcode": "500027", "addr:state": "Telangana", "amenity": "hospital", "contact:email": "info@svshospitals.com", "contact:phone": "040 41499999", "healthcare": "hospital", "name": "SVS Hospitals", "source": "OpenGovernmentData", "website": "http://www.svshospitals.com"}}, {"type": "node", "id": 6530758515, "lat": 17.3836896, "lon": 78.4897466, "tags": {"addr:district": "Hyderabad", "addr:full": "4-7-983, Behind Hotel Haridwar, Esamiah Bazar, Koti", "addr:postcode": "500027", "addr:state": "Telangana", "amenity": "hospital", "name": "Vishwa Medi Care and Diagnostic Centre", "source": "OpenGovernmentData"}}, {"type": "node", "id": 6531352585, "lat": 17.4273708, "lon": 78.5517687, "tags": {"addr:district": "Hyderabad", "addr:full": "Near St. Peter's School, Raghavendra Nagar, Nacharam", "addr:postcode": "500076", "addr:state": "Telangana", "amenity": "hospital", "healthcare": "hospital", "healthcare:speciality": "general", "name": "Chandamama Hospital", "operator": "xyz", "operator:type": "private", "source": "OpenGovernmentData;local knowledge"}}, {"type": "node", "id": 6531745861, "lat": 17.369612, "lon": 78.5302386, "tags": {"addr:district": "Hyderabad", "addr:full": "Pochamma Temple Lane, Near Chaitanyapuri Bridge, Dilsukhnagar", "addr:postcode": "500060", "addr:state": "Telangana", "amenity": "hospital", "fax": "040 24041789", "healthcare": "hospital", "healthcare:speciality": "paediatrics", "name": "Lakshmi Children's Hospital", "source": "OpenGovernmentData"}}, {"type": "node", "id": 6531874857, "lat": 17.3692696, "lon": 78.5346776, "tags": {"addr:district": "Hyderabad", "addr:full": "Beside Fruit Market Road, Prabath Nagar, Chaitanyapuri, Dilsukhnagar", "addr:postcode": "500060", "addr:state": "Telangana", "amenity": "hospital", "contact:email": "info@gbrfertility.com", "contact:mobile": "+91 9248009789", "healthcare": "hospital", "name": "G.B.R. Hospital", "opening_hours": "Mo-Sa 08:00-17:00", "source": "OpenGovernmentData", "website": "https://www.gbrfertility.com"}}, {"type": "node", "id": 6532116388, "lat": 17.3495087, "lon": 78.5128967, "tags": {"addr:district": "Hyderabad", "addr:full": "No: 9-6-1/2, Champapet, Sagar Road", "addr:postcode": "500079", "addr:state": "Telangana", "amenity": "hospital", "healthcare": "hospital", "name": "Sri Rohini Hospital", "source": "OpenGovernmentData"}}, {"type": "node", "id": 6532260599, "lat": 17.3696005, "lon": 78.5292421, "tags": {"addr:district": "Hyderabad", "addr:full": "H.No: 4-20/A, Near E Seva Lane, Vikas Nagar, Dilsukhnagar", "addr:postcode": "500060", "addr:state": "Telangana", "amenity": "hospital", "contact:phone": "040-24046464", "healthcare": "hospital", "name": "Manju Sudha Multispeciality Hospital", "source": "OpenGovernmentData"}}, {"type": "node", "id": 6532274757, "lat": 17.3693752, "lon": 78.5209313, "tags": {"addr:district": "Hyderabad", "addr:full": "#16-11-741/C/1/15, Near Reliance Fresh, Dilsukhnagar", "addr:postcode": "500036", "addr:state": "Telangana", "amenity": "hospital", "contact:email": "info@tkrikonhospital.com", "contact:phone": "040-66443355; 040-24058833", "healthcare": "hospital", "name": "TKR's IKON Hospital", "source": "OpenGovernmentData", "website": "http://www.tkrikonhospital.com"}}, {"type": "node", "id": 6532277404, "lat": 17.3665529, "lon": 78.535367, "tags": {"addr:district": "Hyderabad", "addr:full": "Lane Opposite Fruit Market, Dilsukhnagar", "addr:postcode": "500060", "addr:state": "Telangana", "amenity": "hospital", "healthcare": "hospital", "name": "Sri JRD Hospital", "source": "OpenGovernmentData"}}, {"type": "node", "id": 6532315949, "lat": 17.3716433, "lon": 78.5340057, "tags": {"addr:district": "Hyderabad", "addr:full": "2-45/1, Behind HP Petrol Bunk, Chaitanyapuri, Dilsukhnagar", "addr:postcode": "500060", "addr:state": "Telangana", "amenity": "hospital", "fax": "040 24045950", "name": "Raghava Hospital", "source": "OpenGovernmentData"}}, {"type": "node", "id": 6532327359, "lat": 17.3681674, "lon": 78.5267378, "tags": {"addr:district": "Hyderabad", "addr:full": "Beside R.S Brothers, Dilshuknagar", "addr:postcode": "500060", "addr:state": "Telangana", "amenity": "hospital", "healthcare": "hospital", "name": "Harsha Neuro and General Hospital", "source": "OpenGovernmentData"}}, {"type": "node", "id": 6532327920, "lat": 17.347104, "lon": 78.5213564, "tags": {"addr:district": "Hyderabad", "addr:full": "17-1- 386/1/18, Kesava Nagar Colony, Champapet", "addr:postcode": "500079", "addr:state": "Telangana", "amenity": "hospital", "contact:phone": "040-24077655", "healthcare": "hospital", "name": "Padmaja Hospital", "source": "OpenGovernmentData"}}, {"type": "node", "id": 6532335482, "lat": 17.3689234, "lon": 78.5299851, "tags": {"addr:district": "Hyderabad", "addr:full": "2-127, Badam Complex, Beside Lakshmi Childrens Hospital", "addr:postcode": "500060", "addr:state": "Telangana", "amenity": "hospital", "healthcare": "hospital", "healthcare:speciality": "orthopaedics", "name": "Anurag Orthopedic and Multispecial Hospital", "source": "OpenGovernmentData"}}, {"type": "node", "id": 6532348899, "lat": 17.36803, "lon": 78.5206215, "tags": {"addr:district": "Hyderabad", "addr:full": "16-11-740/3/14, P.No. 32, Near Narayana Junior College, Gaddi Annaram 'X' Roads, Dilsukhnagar", "addr:postcode": "500060", "addr:state": "Telangana", "amenity": "hospital", "fax": "040 66106660", "healthcare": "hospital", "name": "Sigma Hospitals", "name:te": "\u0c38\u0c3f\u0c17\u0c4d\u0c2e\u0c3e \u0c39\u0c3e\u0c38\u0c4d\u0c2a\u0c3f\u0c1f\u0c32\u0c4d\u0c38\u0c4d", "source": "OpenGovernmentData"}}, {"type": "node", "id": 6532379590, "lat": 17.3694424, "lon": 78.5314201, "tags": {"addr:district": "Hyderabad", "addr:full": "D.No. 1-7-309, Hanuman Nagar, Opp Jagini's Foodland, Chaitanyapuri 'X' Roads, Dilsukhnagar", "addr:postcode": "500060", "addr:state": "Telangana", "amenity": "hospital", "healthcare": "hospital", "name": "Goodlife Hospitals", "source": "OpenGovernmentData"}}, {"type": "node", "id": 6537138789, "lat": 17.3697132, "lon": 78.5319766, "tags": {"addr:district": "Hyderabad", "addr:full": "1-7-97, Khazana Jewellers Lane, Chaitanyapuri, Dilsukhnagar", "addr:postcode": "500060", "addr:state": "Telangana", "amenity": "hospital", "healthcare": "hospital", "name": "Swapna Hospital Private Limited", "source": "OpenGovernmentData"}}, {"type": "node", "id": 6537199550, "lat": 17.3597254, "lon": 78.5448767, "tags": {"addr:district": "Hyderabad", "addr:full": "Beside Karachi Bakery, Green Hills Colony, Kothapet Main Road", "addr:postcode": "500035", "addr:state": "Telangana", "amenity": "hospital", "contact:phone": "040 40 108 108", "fax": "040 24050239", "name": "Paramitha Children's Hospital", "source": "OpenGovernmentData"}}, {"type": "node", "id": 6537306558, "lat": 17.3740649, "lon": 78.5409902, "tags": {"addr:district": "Hyderabad", "addr:full": "1-5-22/3, Maruthi Nagar Bus Stop, Kothapet", "addr:postcode": "500060", "addr:state": "Telangana", "amenity": "hospital", "name": "Sai Nikith Speciality Hospital And Laproscopic Centre", "source": "OpenGovernmentData"}}, {"type": "node", "id": 6538849589, "lat": 17.3707739, "lon": 78.5275, "tags": {"addr:district": "Hyderabad", "addr:full": "4-85/1, Lane Beside Rajadhani Theatre, Dilsukhnagar", "addr:postcode": "500060", "addr:state": "Telangana", "amenity": "hospital", "fixme": "Please verify the accurate position of the hospital as I have mapped the facility based on the address provided in Open Government data", "healthcare": "hospital", "name": "The Doctors Multi Speciality Hospital", "source": "OpenGovernmentData"}}, {"type": "node", "id": 6539071275, "lat": 17.3587987, "lon": 78.5237382, "tags": {"addr:district": "Hyderabad", "addr:full": "17-1-462/3, Shankeswara Bazar, Saroornagar", "addr:postcode": "500060", "addr:state": "Telangana", "amenity": "hospital", "name": "Medi Sight Eye Care centre", "phone": "9440204696", "source": "OpenGovernmentData"}}, {"type": "node", "id": 6548789473, "lat": 17.3452377, "lon": 78.5276489, "tags": {"addr:city": "Hyderabad", "addr:full": "Plot No: A/529, Opp. Mega Function Hall, Karmanghat", "addr:postcode": "500079", "addr:state": "Telangana", "amenity": "hospital", "contact:phone": "040 2407 8717 / 9717", "email": "info@maaxlifehospitals.com", "healthcare": "hospital", "name": "MAAX LIFE HOSPITALS", "operator:type": "private", "source": "OpenGovernmentData", "website": "https://www.maaxlifehospitals.com/"}}, {"type": "node", "id": 6548833978, "lat": 17.3658656, "lon": 78.5522434, "tags": {"addr:full": "H.No: 11-13-123/1, Plot No: 14, NEAR SAI BABA TEMPLE, ALKAPURI SAROORNAGAR MANDAL", "addr:postcode": "500035", "addr:state": "Telangana", "amenity": "hospital", "contact:phone": "74610 94932", "email": "contact@avanieyehospital.com", "name": "AVANI LASER EYE HOSPITAL", "operator:type": "private", "source": "OpenGovernmentData", "website": "https://www.avanieyehospital.com/"}}, {"type": "node", "id": 6548846382, "lat": 17.3739165, "lon": 78.5521227, "tags": {"addr:city": "Hyderabad", "addr:full": "Road No.1, Beside Swathi Nivas Apt., Opp Heritage Fresh, New Nagole, Mohan Nagar", "addr:postcode": "500035", "addr:state": "Telangana", "amenity": "hospital", "contact:phone": "9849184513", "name": "SANJEEVANI HOSPITAL", "operator:type": "private", "source": "OpenGovernmentData"}}, {"type": "node", "id": 6548918441, "lat": 17.3623879, "lon": 78.5570419, "tags": {"addr:city": "Hyderabad", "addr:full": "Yadav Nagar Colony, Opp. Swagath Grand Hotel, Alkapuri 'X' Roads", "addr:postcode": "500035", "addr:state": "Telangana", "amenity": "hospital", "contact:phone": "040-2403-6663/7773/8883", "email": "contact@nakshatrahospitals.com", "healthcare": "hospital", "name": "Nakshatra Hospitals", "operator:type": "private", "source": "OpenGovernmentData", "website": "https://www.nakshatrahospitals.com/"}}, {"type": "node", "id": 6549172458, "lat": 17.426232, "lon": 78.5322033, "tags": {"addr:district": "Hyderabad", "addr:full": "Plot No: 12-13-67/2, Street No.5, Sadhashiva Nagar, Lane Adjacent to Sanman Hotel, Tarnaka", "addr:postcode": "500017", "addr:state": "Telangana", "amenity": "hospital", "contact:phone": "040 27007111", "name": "PADMVATI MEDICAL CENTRE", "operator:type": "private", "source": "OpenGovernmentData"}}, {"type": "node", "id": 6549197262, "lat": 17.4185789, "lon": 78.5179152, "tags": {"addr:city": "Hyderabad", "addr:full": "12-11-1256, BOUDHA NAGAR ROAD, SECUNDERABAD", "addr:postcode": "500061", "addr:state": "Telangana", "amenity": "hospital", "contact:phone": "27077484", "name": "B.V.K. REDDY HOSPITAL", "operator:type": "private", "source": "OpenGovernmentData"}}, {"type": "node", "id": 6549209512, "lat": 17.4183281, "lon": 78.5427846, "tags": {"addr:district": "Hyderabad", "addr:full": "#7-147/1, Nagendra Nagar Colony, Habsiguda Main Road", "addr:postcode": "500007", "addr:state": "Telangana", "amenity": "hospital", "contact:phone": "040-27151999", "fax": "040 27151999", "name": "ANAND EYE INSITUTE", "operator:type": "private", "source": "OpenGovernmentData"}}, {"type": "node", "id": 6549236738, "lat": 17.3985583, "lon": 78.4847268, "tags": {"addr:district": "Hyderabad", "addr:full": "3-6-273/274, III AND IV FLOOR, APURUPA L.N CHAMBERS, BESIDE RC REDDY IAS CIRCLE, NEAR OLD MLA QUARTERS, Opp TELANGANA TOURISM", "addr:postcode": "500029", "addr:state": "Telangana", "amenity": "hospital", "contact:phone": "23264353", "name": "RAMESH LASIK & LASER CENTRE", "operator:type": "private", "source": "OpenGovernmentData"}}, {"type": "node", "id": 6549292101, "lat": 17.3482504, "lon": 78.5520463, "tags": {"addr:district": "Hyderabad", "addr:full": "3-3-273, LB Nagar - Uppal Rd, Kamala Nagar, Suvidha Arcade, RTC Colony, LB Nagar", "addr:postcode": "500074", "addr:state": "Telangana", "amenity": "hospital", "contact:phone": "040 24031111;040 24031122", "name": "SHINE CHILDREN'S HOSPITAL", "operator:type": "private", "source": "OpenGovernmentData", "wheelchair": "yes"}}, {"type": "node", "id": 6549295174, "lat": 17.3690962, "lon": 78.5301608, "tags": {"addr:city": "Hyderabad", "addr:full": "H.No: 3-8, Chaitanayapuri 'X' roads, Dilshuknagar", "addr:postcode": "500060", "addr:state": "Telangana", "amenity": "hospital", "contact:phone": "040 66905566", "healthcare": "hospital", "name": "Saptagiri Hospital", "operator:type": "private", "source": "OpenGovernmentData"}}, {"type": "node", "id": 6549298910, "lat": 17.3542853, "lon": 78.5470426, "tags": {"addr:district": "Hyderabad", "addr:full": "Plot No: 1, CHITRA LAYOUT, BESIDE Rangareddy Court, L.B NAGAR", "addr:postcode": "500074", "addr:state": "Telangana", "amenity": "hospital", "contact:mobile": "8121033233", "contact:phone": "4024033233", "name": "DR RAJASHEKAR REDDY LAPAROSCOPY HOSPITAL", "operator:type": "private", "source": "OpenGovernmentData"}}, {"type": "node", "id": 6549301063, "lat": 17.3984982, "lon": 78.536071, "tags": {"addr:city": "Hyderabad", "addr:full": "H.No: 3-9-2, Plot No: 3, RAMANATHAPUR", "addr:postcode": "500013", "addr:state": "Telangana", "amenity": "hospital", "contact:phone": "27038744", "name": "ADRM HOSPITAL", "operator:type": "private", "source": "OpenGovernmentData"}}, {"type": "node", "id": 6549328982, "lat": 17.346624, "lon": 78.5211218, "tags": {"addr:city": "Hyderabad", "addr:full": "Sagar Road, Malla Reddy Nagar, Saroor Nagar East, Champapet", "addr:postcode": "500079", "addr:state": "Telangana", "amenity": "hospital", "contact:phone": "078420 91999", "healthcare": "hospital", "name": "SRI SIDDESHWARA HOSPITAL", "operator:type": "private", "source": "OpenGovernmentData"}}, {"type": "node", "id": 6549332628, "lat": 17.3726148, "lon": 78.5010025, "tags": {"addr:district": "Hyderabad", "addr:full": "16-2-661, LANE BESIDE BAJAJ ELECTRONICS, MALAKPET", "addr:postcode": "500036", "addr:state": "Telangana", "amenity": "hospital", "contact:phone": "24550100", "healthcare": "hospital", "name": "METRO CURE HOSPITAL", "operator:type": "private", "source": "OpenGovernmentData"}}, {"type": "node", "id": 6549341748, "lat": 17.4230318, "lon": 78.5470144, "tags": {"addr:city": "Hyderabad", "addr:full": "1-29, NACHARAM MALLAPUR ROAD, HMT NAGAR, TARNAKA", "addr:postcode": "500076", "addr:state": "Telangana", "amenity": "hospital", "contact:phone": "040 40121000", "name": "SHREE POOJA HOSPITAL", "operator:type": "private", "source": "OpenGovernmentData"}}, {"type": "node", "id": 6549364392, "lat": 17.3673811, "lon": 78.5358068, "tags": {"addr:city": "Hyderabad", "addr:full": "Plot No: 34, KRISNAVENI NAGAR, Opp. KOTHAPET FRUIT MARKET, NEAR GADDIANNARAM MUNICIPAL OFFICE", "addr:postcode": "500034", "addr:state": "Telangana", "amenity": "hospital", "contact:phone": "24050104", "healthcare": "hospital", "name": "SBR Pulse Hospital", "operator:type": "private", "source": "OpenGovernmentData"}}, {"type": "node", "id": 6549371813, "lat": 17.368126, "lon": 78.530836, "tags": {"addr:city": "Hyderabad", "addr:full": "H.No: 18-79, Manikanta Crown Complex, Beside Indian Bank, Chaitanyapuri 'X' Roads, Dilsukhnagar", "addr:postcode": "500060", "addr:state": "Telangana", "amenity": "hospital", "contact:phone": "4024059511", "healthcare": "hospital", "name": "Magnas ENT Hospital", "operator:type": "private", "source": "OpenGovernmentData"}}, {"type": "node", "id": 6549374700, "lat": 17.3739817, "lon": 78.4985831, "tags": {"addr:city": "Hyderabad", "addr:full": "H.No: 16-8-932/A, SAFA PLAZA, MALAKPET", "addr:postcode": "500036", "addr:state": "Telangana", "amenity": "hospital", "healthcare": "hospital", "name": "EYE CARE HYDERABAD", "operator:type": "private", "source": "OpenGovernmentData"}}, {"type": "node", "id": 6549378688, "lat": 17.3458905, "lon": 78.5292422, "tags": {"addr:city": "Hyderabad", "addr:full": "Plot No. 56, Sriram Nagar Colony, Karmanghat 'X' Roads", "addr:postcode": "500035", "addr:state": "Telangana", "amenity": "hospital", "contact:phone": "040 29803762", "healthcare": "hospital", "name": "SREE SREYAS HOSPITAL", "operator:type": "private", "source": "OpenGovernmentData"}}, {"type": "node", "id": 6549439100, "lat": 17.3960244, "lon": 78.559704, "tags": {"addr:city": "Hyderabad", "addr:full": "H.No: 1-30/F, Saraswathi Colony, Near Rajlakshmi Theatre, Beside Uppal Ring Road, Uppal", "addr:postcode": "500039", "addr:state": "Telangana", "amenity": "hospital", "contact:phone": "04027202741 ; 04027202742", "healthcare": "hospital", "name": "SUMITHRA HOSPITALS", "operator:type": "private", "source": "OpenGovernmentData"}}, {"type": "node", "id": 6559245433, "lat": 17.3722481, "lon": 78.5008469, "tags": {"addr:district": "Hyderabad", "addr:full": "16-2-705/5/5, Opposite Santhi Fire Works, Malakpet", "addr:postcode": "500036", "addr:state": "Telangana", "amenity": "hospital", "fax": "040 24557549", "fixme": "Please verify the accurate position of the hospital as I have mapped the facility based on the address provided in Open Government data", "healthcare": "hospital", "medical_system": "Allopathic", "name": "Apollo Emergency Centre", "operator:type": "private", "phone": "040 24557552", "source": "OpenGovernmentData", "website": "https://www.apollohospitals.com/"}}, {"type": "node", "id": 6561211170, "lat": 17.3455135, "lon": 78.5081814, "tags": {"addr:district": "Hyderabad", "addr:full": "Hanuman Towers, Number 9-7-214/1, 215, 217, Maruthi Nagar, Santhosh Nagar Main Road", "addr:postcode": "500059", "addr:state": "Telangana", "amenity": "hospital", "contact:mobile": "7702355512", "email": "santhoshnagar@dragarwal.com", "healthcare": "hospital", "healthcare:speciality": "Cataract Surgery;Cornea and Refractive;Retina;Oculoplastic;Glaucoma;Uvea;Neuro Ophthamology;Squint and Pediatric Opthalmology;Lasik", "medical_system": "Allopathic", "name": "Dr.Agarwal's Eye Hospital - Santhosh Nagar", "operator": "Dr. Agarwal's Eye Hospital", "operator:type": "private", "operator:wikidata": "Q17052044", "phone": "040 24535514;040 24535513", "source": "OpenGovernmentData", "website": "https://www.dragarwal.com/"}}, {"type": "node", "id": 6562374170, "lat": 17.3944702, "lon": 78.4889225, "tags": {"addr:district": "Hyderabad", "addr:full": "Venkateshwara Colony, Opp. Central Blood Bank, Narayanaguda", "addr:postcode": "500029", "addr:state": "Telangana", "amenity": "hospital", "name": "Sri Venkateshwara Nursing Home - Narayanguda", "source": "OpenGovernmentData"}}, {"type": "node", "id": 6563028513, "lat": 17.3678054, "lon": 78.5496034, "tags": {"addr:district": "Hyderabad", "addr:full": "Road No.3, Near S.R.K Puram Bus Stop, Rangareddy", "addr:postcode": "500035", "addr:state": "Telangana", "amenity": "hospital", "name": "Susheela Hospital - R.K Puram", "source": "OpenGovernmentData"}}, {"type": "node", "id": 6563256137, "lat": 17.3690898, "lon": 78.5224923, "tags": {"addr:district": "Hyderabad", "addr:full": "#16-11-477/7 to 26, Chikoti Green Building, Opp. Kamala Hospital, Gaddiannaram, Dilsukhnagar", "addr:postcode": "500060", "addr:state": "Telangana", "amenity": "hospital", "email": "Dilsukhnagar@dragarwal.com", "healthcare": "hospital", "healthcare:speciality": "Cataract Surgery;Cornea and Refractive;Retina;Oculoplastic;Glaucoma;Uvea;Neuro Ophthamology;Squint and Pediatric Opthalmology;Lasik", "medical_system": "Allopathic", "name": "Dr.Agarwal's Eye Hospital - Dilsukhnagar", "operator:type": "private", "phone": "040-42209153 ; 07702355510", "source": "OpenGovernmentData", "website": "https://www.dragarwal.com/"}}, {"type": "node", "id": 6567338346, "lat": 17.4186403, "lon": 78.5420912, "tags": {"addr:district": "Hyderabad", "addr:full": "4-7-75, Opposite Indian Petrol Pump, Habsiguda 'X' Roads", "addr:state": "Telangana", "amenity": "hospital", "fixme": "Please verify the accurate position of the hospital as I have mapped the facility based on the address provided in Open Data Government", "name": "Whitus Hospital (A Unit Of Sri Shikhara Hospitals India Pvt Ltd)", "source": "OpenGovernmentData"}}, {"type": "node", "id": 6573966514, "lat": 17.3696696, "lon": 78.5142714, "tags": {"addr:district": "Hyderabad", "addr:full": "16-2-741/D/5, BESIDE T.V TOWER, MOOSARAMBAGH X ROAD, MALAKPET", "addr:postcode": "500036", "addr:state": "Telangana", "amenity": "hospital", "contact:phone": "8466996364 ; 8466996365", "email": "safechildrenhospital@gmail.com", "healthcare": "hospital", "name": "SAFE CHLIDRENS HOSPITAL", "operator:type": "private", "source": "OpenGovernmentData", "website": "http://www.safechildrenshospital.com"}}, {"type": "node", "id": 6632844432, "lat": 17.4189151, "lon": 78.5654264, "tags": {"amenity": "hospital", "healthcare": "hospital", "healthcare:speciality": "laparascopic_surgery", "name": "Satya Multi Speciality Hospital", "phone": "+91 7093088502;+91 9030911252"}}, {"type": "node", "id": 6779797471, "lat": 17.3774807, "lon": 78.4996403, "tags": {"addr:city": "hyderabad", "addr:housenumber": "16-9-603", "addr:postcode": "500036", "amenity": "hospital", "healthcare": "hospital", "healthcare:speciality": "surgery", "name": "Dr.syed Ajaz hussain & Dr.syed mumtaz hussain"}}, {"type": "node", "id": 6811749024, "lat": 17.372487, "lon": 78.522991, "tags": {"addr:district": "Medchal Malkajgiri", "addr:full": "16-11-511/D/16, Shalivahana Nagar, Near Bhashyam School Dilsukhnagar", "addr:postcode": "500036", "addr:state": "Telangana", "amenity": "hospital", "contact:phone": "040 30091234", "healthcare": "hospital", "name": "Amma Hospitals", "source": "OpenGovernmentData"}}, {"type": "node", "id": 6811749029, "lat": 17.354892, "lon": 78.532407, "tags": {"addr:district": "Ranga Reddy", "addr:full": "Near Gandhi Statue, Saroornagar Cross Roads, Hyderabad", "addr:postcode": "500035", "addr:state": "Telangana", "amenity": "hospital", "name": "Saroornagar Hospital", "source": "OpenGovernmentData"}}, {"type": "node", "id": 6811749031, "lat": 17.367644, "lon": 78.529654, "tags": {"addr:district": "Medchal Malkajgiri", "addr:full": "Kamala Nagar, Lane opp. To Pulla Reddy Sweets, Dilsukhnagar", "addr:postcode": "500060", "addr:state": "Telangana", "amenity": "hospital", "healthcare": "hospital", "name": "Srihitha Hospital", "source": "OpenGovernmentData"}}, {"type": "node", "id": 6811749148, "lat": 17.4028303, "lon": 78.5741446, "tags": {"addr:district": "Hyderabad", "addr:full": "Opp. Aditya Hospital, Beside Petrol Bunk Lane , Uppal", "addr:state": "Telangana", "amenity": "hospital", "contact:mobile": "9246542348", "contact:phone": "040 64552348", "name": "Lakshmi Priya Nursing", "source": "OpenGovernmentData"}}, {"type": "node", "id": 6811749151, "lat": 17.4023438, "lon": 78.5670163, "tags": {"addr:district": "Medchal Malkajgiri", "addr:full": "2-6-71/A, Bharath Nagar Colony, Near Masjid, Uppal", "addr:postcode": "500039", "addr:state": "Telangana", "amenity": "hospital", "name": "SKIMS Hospital", "source": "OpenGovernmentData"}}, {"type": "node", "id": 6811749182, "lat": 17.3659362, "lon": 78.5255259, "tags": {"addr:district": "Hyderabad", "addr:full": "H.No: 7-78/1, Madhura Puri, Konark Theatre Lane, P & T Colony Road, Dilsukhnagar", "addr:state": "Telangana", "amenity": "hospital", "contact:mobile": "8341966249", "healthcare": "hospital", "name": "SAI RAM MULTI SPECIALITY HOSPITAL (ARK HEALTH CARE PVT LTD)", "operator:type": "private", "source": "OpenGovernmentData"}}, {"type": "node", "id": 6868572410, "lat": 17.4234633, "lon": 78.5478069, "tags": {"addr:city": "Hyderabad", "addr:street": "HMT colony", "amenity": "hospital", "healthcare": "hospital", "healthcare:speciality": "general;gynaecology;surgery", "name": "Durga prasad"}}, {"type": "node", "id": 6868777710, "lat": 17.4274323, "lon": 78.5191123}, {"type": "node", "id": 6868777711, "lat": 17.4272453, "lon": 78.5190814}, {"type": "node", "id": 6868777712, "lat": 17.427219, "lon": 78.5192361}, {"type": "node", "id": 6868777713, "lat": 17.427429, "lon": 78.5192637}, {"type": "node", "id": 6934778614, "lat": 17.3745451, "lon": 78.5455972, "tags": {"amenity": "hospital", "healthcare": "hospital"}}, {"type": "node", "id": 6935636792, "lat": 17.4324216, "lon": 78.5525978}, {"type": "node", "id": 7088814385, "lat": 17.4334334, "lon": 78.4873111}, {"type": "node", "id": 7088814386, "lat": 17.4333386, "lon": 78.4872987}, {"type": "node", "id": 7088814387, "lat": 17.4332882, "lon": 78.48757}, {"type": "node", "id": 7088814388, "lat": 17.4334008, "lon": 78.4875845}, {"type": "node", "id": 7238111065, "lat": 17.372369, "lon": 78.4981808}, {"type": "node", "id": 7238111066, "lat": 17.3723844, "lon": 78.4980024}, {"type": "node", "id": 7238111067, "lat": 17.3727504, "lon": 78.4979488}, {"type": "node", "id": 7238111068, "lat": 17.3723479, "lon": 78.4993251}, {"type": "node", "id": 7238111069, "lat": 17.3722797, "lon": 78.4991585}, {"type": "node", "id": 7238111070, "lat": 17.3728837, "lon": 78.4988884}, {"type": "node", "id": 7238111071, "lat": 17.3729505, "lon": 78.4990599}, {"type": "node", "id": 7238134284, "lat": 17.37296, "lon": 78.4990564, "tags": {"barrier": "gate"}}, {"type": "node", "id": 7238156785, "lat": 17.3723191, "lon": 78.4993435, "tags": {"access": "private", "barrier": "gate"}}, {"type": "node", "id": 7243974409, "lat": 17.3954186, "lon": 78.5014069}, {"type": "node", "id": 7244033607, "lat": 17.3685916, "lon": 78.5187388, "tags": {"amenity": "hospital", "healthcare": "hospital", "name": "konark diagonistic center", "name:te": "\u0c15\u0c4a\u0c28\u0c3e\u0c30\u0c4d\u0c15\u0c4d \u0c21\u0c3f\u0c2f\u0c3e\u0c17\u0c4b\u0c28\u0c3f\u0c38\u0c4d\u0c1f\u0c3f\u0c15\u0c4d \u0c38\u0c46\u0c02\u0c1f\u0c30\u0c4d"}}, {"type": "node", "id": 8044070777, "lat": 17.3590694, "lon": 78.4946319}, {"type": "node", "id": 8044070778, "lat": 17.3590048, "lon": 78.4945622}, {"type": "node", "id": 8044070779, "lat": 17.3592102, "lon": 78.4944311}, {"type": "node", "id": 8044070780, "lat": 17.3592269, "lon": 78.4944472}, {"type": "node", "id": 8044135701, "lat": 17.3726777, "lon": 78.500529}, {"type": "node", "id": 8044148228, "lat": 17.3591366, "lon": 78.4945773, "tags": {"addr:city": "Hyderabad", "addr:district": "Hyderabad", "addr:state": "Telangana", "amenity": "hospital", "contact:phone": "+91 040 2452 0797", "name": "FAITH HOSIPTAL", "name:ur": "\u0641\u06cc\u062a\u06be \u0627\u0633\u067e\u062a\u0627\u0644", "opening_hours": "24/7", "operator:type": "private", "website": "https://faithhospital.business.site/"}}, {"type": "node", "id": 8082315379, "lat": 17.4044163, "lon": 78.4838359, "tags": {"addr:city": "Hyderabad", "addr:housenumber": "3-6-459/A", "addr:postcode": "500029", "addr:street": "Street No.5, Himayathnagar", "amenity": "hospital", "emergency": "yes", "healthcare": "hospital", "healthcare:speciality": "orthopaedics;ayurveda;multi_speciality", "image": "https://www.google.com/imgres?imgurl=https%3A%2F%2Fcontent3.jdmagicbox.com%2Fcomp%2Fhyderabad%2Fq3%2F040pxx40.xx40.170919150703.x7q3%2Fcatalogue%2Fraaj-hospital-himayat-nagar-hyderabad-hospitals-g96u8.jpg%3Fclr%3D224422&imgrefurl=https%3A%2F%2Fwww.justdia", "name": "Raaj Hospital", "operator": "Dr.Rajesh Kumar Soni", "operator:type": "private", "website": "http://raajhospital.com/"}}, {"type": "node", "id": 8233811325, "lat": 17.3713436, "lon": 78.5018929, "tags": {"amenity": "hospital", "healthcare": "hospital", "name": "Osmania clinic"}}, {"type": "node", "id": 8387157871, "lat": 17.3914914, "lon": 78.5113902, "tags": {"amenity": "hospital", "name": "yashoda"}}, {"type": "node", "id": 8745836201, "lat": 17.3614317, "lon": 78.5539533, "tags": {"addr:district": "Rangareddy", "addr:full": "Haripuri Colony, Bharat Nagar, Bahadurguda", "addr:postcode": "500074", "addr:state": "Telangana", "amenity": "hospital", "name": "Kamineni Hospital", "source": "Local Knowledge"}}, {"type": "node", "id": 8752914428, "lat": 17.393868, "lon": 78.5226426, "tags": {"addr:district": "Hyderabad", "addr:full": "2-2-74 & 75, Amberpet Main Rd, opp. maruti suzuki service center, Hyderabad", "addr:postcode": "500013", "addr:state": "Telangana", "amenity": "hospital", "name": "Tricolour Hospital", "source": "Local Knowledge"}}, {"type": "node", "id": 8759154274, "lat": 17.3902616, "lon": 78.495225, "tags": {"addr:district": "Hyderabad", "addr:full": "3/4/3, Kachiguda Station Road, Barkatpura, Kachiguda", "addr:postcode": "500027", "addr:state": "Telangana", "amenity": "hospital", "name": "Prathima Hospitals", "source": "Local Knowledge"}}, {"type": "node", "id": 8759230773, "lat": 17.4012471, "lon": 78.5636616, "tags": {"addr:district": "Hyderabad", "addr:full": "Vijayapuri Colony, Uppal, Hyderabad", "addr:postcode": "500039", "addr:state": "Telangana", "amenity": "hospital", "name": "Tapadia Diagnostics Centre", "source": "Local Knowledge"}}, {"type": "node", "id": 8759335242, "lat": 17.3632288, "lon": 78.5449317, "tags": {"addr:district": "Hyderabad", "addr:full": "H.No: 11-13-1161, Kothapet, Hyderabad", "addr:postcode": "500035", "addr:state": "Telangana", "amenity": "hospital", "name": "Vasavi Hospital", "source": "Local Knowledge"}}, {"type": "node", "id": 8759531975, "lat": 17.3730487, "lon": 78.4838444, "tags": {"addr:district": "Hyderabad", "addr:full": "Imlibun, Malakpet", "addr:postcode": "500024", "addr:state": "Telangana", "amenity": "hospital", "name": "Mina multi speciality Hospital", "source": "Local Knowledge"}}, {"type": "node", "id": 8759707780, "lat": 17.3867056, "lon": 78.4950359, "tags": {"addr:district": "Hyderabad", "addr:full": "2-4-1108, Railway Quarters, Kachiguda", "addr:postcode": "500027", "addr:state": "Telangana", "amenity": "hospital", "name": "Railway Health Unit, Kachiguda", "source": "Local Knowledge"}}, {"type": "node", "id": 8761004351, "lat": 17.3582035, "lon": 78.5444422, "tags": {"addr:district": "Medchal", "addr:full": "Green Hills Colony,Kothapet, Doctors Colony Main Rd, Bahadurguda", "addr:postcode": "500074", "addr:state": "Telangana", "amenity": "hospital", "name": "Paramitha Children's Hospital", "source": "Local Knowledge"}}, {"type": "node", "id": 8763259938, "lat": 17.3931001, "lon": 78.5575394, "tags": {"addr:district": "Medchal", "addr:full": "Opposite Metro Rail Pillar No. NUP-9, Survey Colony, Industrial Development Area, Uppal, Hyderabad", "addr:postcode": "500039", "addr:state": "Telangana", "amenity": "hospital", "name": "Centre for DNA Fingerprinting and Diagnostics", "source": "Local Knowledge"}}, {"type": "node", "id": 9391261140, "lat": 17.4274216, "lon": 78.5517653, "tags": {"amenity": "hospital", "healthcare": "hospital"}}, {"type": "node", "id": 9527080374, "lat": 17.3532901, "lon": 78.5589741, "tags": {"amenity": "hospital", "healthcare": "hospital", "name": "kamineni"}}, {"type": "node", "id": 9903919151, "lat": 17.4287042, "lon": 78.5182344, "tags": {"amenity": "hospital", "healthcare": "hospital"}}, {"type": "node", "id": 10087214571, "lat": 17.3759689, "lon": 78.4973599, "tags": {"addr:city": "Hyderabad", "addr:place": "Malakpet", "addr:state": "Telangana", "amenity": "hospital", "contact:phone": "+91 92465 85883 ; +91 83411 48193", "name": "\u0622\u0626\u06cc \u06a9\u06cc\u0626\u0631 \u062d\u06cc\u062f\u0631\u0622\u0628\u0627\u062f (\u0633\u067e\u0631 \u0627\u0633\u067e\u06cc\u0634\u0644\u0679\u06cc \u0622\u0626\u06cc \u06c1\u0633\u067e\u062a\u0627\u0644)", "name:en": "Eye Care Hyderabad (Superspeciality Eye Hospital)", "opening_hours": "Mo-Sa 09:00-19:30", "website": "https://eyecarehyd.com/"}}, {"type": "node", "id": 10817244976, "lat": 17.362556, "lon": 78.5224832, "tags": {"amenity": "hospital", "healthcare": "hospital"}}, {"type": "node", "id": 10898562903, "lat": 17.400154, "lon": 78.5405264, "tags": {"amenity": "hospital", "healthcare": "hospital"}}, {"type": "node", "id": 10989359035, "lat": 17.3921953, "lon": 78.5178213, "tags": {"addr:district": "Hyderabad", "addr:place": "Amberpet", "addr:state": "Telangana", "addr:street": "MCH, colony", "addr:subdistrict": "Amberpet", "amenity": "hospital", "healthcare": "hospital", "name": "Community Health Centre, AMBERPET", "operational_status": "operational", "operator:type": "government", "source": "OpenDataTelangana"}}, {"type": "node", "id": 11001513668, "lat": 17.4265349, "lon": 78.5192979, "tags": {"addr:district": "Hyderabad", "addr:place": "Trt Quarters", "addr:state": "Telangana", "addr:street": "Seethaphalmandi", "addr:subdistrict": "Musheerabad", "amenity": "hospital", "healthcare": "hospital", "name": "Community Health Centre, Seethaphalmandi", "operational_status": "operational", "operator:type": "government", "source": "OpenDataTelangana"}}, {"type": "node", "id": 11001534025, "lat": 17.4137227, "lon": 78.4911923, "tags": {"addr:district": "Hyderabad", "addr:place": "Humayun Nagar, Hyderabad", "addr:state": "Telangana", "addr:street": "Humayun nagar", "addr:subdistrict": "Khairatabad", "amenity": "hospital", "healthcare": "hospital", "name": "Sarojini Devi EYE Hospital", "operational_status": "operational", "operator:type": "government", "source": "OpenDataTelangana"}}, {"type": "node", "id": 11005197974, "lat": 17.3979133, "lon": 78.5310178, "tags": {"addr:district": "Hyderabad", "addr:place": "Ramanthapur, Uppal Road", "addr:state": "Telangana", "addr:street": "Warangal Highway Road", "addr:subdistrict": "Amberpet", "amenity": "hospital", "healthcare": "hospital", "name": "DK Govt Homoeopathic Hospital, Ramanthapur, Hyd", "operational_status": "operational", "operator:type": "government", "source": "OpenDataTelangana"}}, {"type": "node", "id": 11098927505, "lat": 17.3934464, "lon": 78.5365962, "tags": {"addr:postcode": "500013", "addr:street": "RTC Colony", "amenity": "hospital", "name": "Susheela Hospital"}}, {"type": "node", "id": 12852366410, "lat": 17.3959816, "lon": 78.5299056, "tags": {"amenity": "hospital", "healthcare": "hospital", "name": "Sai charan Children's hospital"}}, {"type": "node", "id": 12852371077, "lat": 17.3943514, "lon": 78.5299096, "tags": {"amenity": "hospital", "healthcare": "hospital", "name": "Janani infertility center"}}, {"type": "node", "id": 12890299914, "lat": 17.4319353, "lon": 78.5522966}, {"type": "node", "id": 12890299915, "lat": 17.4314769, "lon": 78.5531095}, {"type": "node", "id": 12890299916, "lat": 17.4319634, "lon": 78.5534108}, {"type": "node", "id": 12949577900, "lat": 17.365035, "lon": 78.534275}, {"type": "node", "id": 12949589701, "lat": 17.3649201, "lon": 78.534507}, {"type": "node", "id": 12949589702, "lat": 17.3651591, "lon": 78.533683}, {"type": "node", "id": 12949589703, "lat": 17.3645297, "lon": 78.5338632}, {"type": "node", "id": 12953457947, "lat": 17.3898169, "lon": 78.4956809}, {"type": "node", "id": 12953457948, "lat": 17.3897935, "lon": 78.4960264}, {"type": "node", "id": 12953457949, "lat": 17.3900855, "lon": 78.4961134}, {"type": "node", "id": 12953457950, "lat": 17.3901253, "lon": 78.4959522}, {"type": "node", "id": 12953457951, "lat": 17.3903179, "lon": 78.49601}, {"type": "node", "id": 12953457952, "lat": 17.3903836, "lon": 78.4957403}, {"type": "node", "id": 12953457953, "lat": 17.3900964, "lon": 78.4956693}, {"type": "node", "id": 12953457954, "lat": 17.3899866, "lon": 78.4956445}, {"type": "node", "id": 12953457955, "lat": 17.3898695, "lon": 78.4956188}, {"type": "node", "id": 12953457956, "lat": 17.3898097, "lon": 78.4957385}, {"type": "node", "id": 13337356007, "lat": 17.349695, "lon": 78.5483858, "tags": {"amenity": "hospital", "healthcare": "hospital", "name": "Medicare Hospitals"}}, {"type": "node", "id": 13436948463, "lat": 17.3968148, "lon": 78.5014822, "tags": {"amenity": "hospital", "healthcare": "hospital", "name": "Dental clinic"}}, {"type": "node", "id": 13436948483, "lat": 17.4087884, "lon": 78.502354}, {"type": "node", "id": 13436948484, "lat": 17.408731, "lon": 78.5025094}, {"type": "node", "id": 13436948485, "lat": 17.4086722, "lon": 78.5024833}, {"type": "node", "id": 13436948486, "lat": 17.4087177, "lon": 78.5023244}, {"type": "node", "id": 13436972602, "lat": 17.4126071, "lon": 78.4901536, "tags": {"amenity": "hospital", "healthcare": "hospital", "name": "eyes specalist"}}, {"type": "way", "id": 131503627, "nodes": [1447172223, 1447172221, 3619697192, 3619697190, 1447172223], "tags": {"addr:district": "Hyderabad", "addr:full": "D.No: 3-6-282, Opp. Old MLA Quarters, Hyderguda", "addr:postcode": "500029", "addr:state": "Telangana", "amenity": "hospital", "building": "yes", "contact:phone": "040 - 40222397", "healthcare": "hospital", "name": "Fernandez Hospital", "source": "OpenGovernmentData", "website": "https://www.fernandezhospital.com"}}, {"type": "way", "id": 146312947, "nodes": [1595794974, 1595794961, 1595794973, 1595794963, 1595794965, 1595794967, 1595794974], "tags": {"addr:district": "Hyderabad", "addr:full": "Kamineni, L.B Nagar", "addr:housenumber": "10", "addr:postcode": "500068", "addr:state": "Telangana", "amenity": "hospital", "email": "ms.khl@kaminenihospitals.com", "emergency": "yes", "emergency_telephone_code": "040 66002200;040 24022222", "fax": "040 2402 2277", "healthcare:speciality": "multi specialty", "medical_system": "Allopathic", "name": "Kamineni Hospital", "opening_hours": "24/7", "operator:type": "private", "phone": "040 39879999", "source": "OpenGovernmentData", "website": "https://www.kaminenihospitals.com/"}}, {"type": "way", "id": 238282935, "nodes": [2461282040, 2461282035, 2461282045, 2461282049, 2461282040], "tags": {"addr:district": "Hyderabad", "addr:full": "2-1-569 , Vidyanaga, Osmainia University Road", "addr:postcode": "500044", "addr:state": "Telangana", "amenity": "hospital", "contact:email": "durgabaihospital@gmail.com", "contact:phone": "040-27681500; 040-27617801/802/803", "name": "Durgabai Deshmukh Hospital and Research Centre", "source": "OpenGovernmentData", "website": "http://durgabaideshmukhhospitals.com"}}, {"type": "way", "id": 252285892, "nodes": [2583734761, 2583734762, 2583734763, 2583734764, 2583734773, 2583734772, 2583734761], "tags": {"amenity": "hospital", "emergency": "yes"}}, {"type": "way", "id": 253465843, "nodes": [2593895374, 2593895376, 2593895378, 2593895380, 2593895374], "tags": {"addr:district": "Hyderabad", "addr:full": "Opposite Vegetable Market, Uppal Main Road", "addr:postcode": "500039", "addr:state": "Telangana", "amenity": "hospital", "building": "yes", "name": "Shreeda Children's Hospital", "source": "OpenGovernmentData"}}, {"type": "way", "id": 265036384, "nodes": [2706889270, 2706889273, 2706889276, 12949589702, 2706889279, 12949577900, 12949589701, 2706889282, 2706889285, 12949589703, 2706889270], "tags": {"amenity": "hospital", "healthcare": "hospital", "healthcare:speciality": "dentistry", "name": "pananeeya dental hospital"}}, {"type": "way", "id": 265627804, "nodes": [2712643411, 2712643413, 2712643415, 2712643416, 2712643411], "tags": {"addr:district": "Hyderabad", "addr:full": "D.No: 1-10-224/A, IAS Study Circle, Ashok Nagar 'X' Roads", "addr:postcode": "500020", "addr:state": "Telangana", "amenity": "hospital", "building": "yes", "contact:email": "info@sridevifertility.com", "contact:mobile": "+91 - 7032341439", "contact:phone": "040-27668427", "name": "Sridevi Fertility Center", "source": "OpenGovernmentData", "website": "https://www.sridevifertility.com"}}, {"type": "way", "id": 265632074, "nodes": [2712679814, 2712679815, 2712679816, 2712679817, 2712679814], "tags": {"addr:district": "Hyderabad", "addr:full": "H. No. 1-1-770/A/1/1, New Bakaram, Gandhi Nagar", "addr:postcode": "500080", "addr:state": "Telangana", "amenity": "hospital", "building": "yes", "healthcare": "hospital", "name": "Sri Narmada Hospital", "source": "OpenGovernmentData"}}, {"type": "way", "id": 281543243, "nodes": [2855014447, 2855014446, 7238111067, 7238111066, 7238111065, 2855014444, 2855014445, 7238156785, 7238111068, 7238111069, 7238111070, 7238111071, 7238134284, 2855014447], "tags": {"addr:city": "Hyderabad", "addr:district": "Hyderabad", "addr:full": "16-8-934, Malakpet, Near Nalgonda 'X' Roads", "addr:postcode": "500024", "addr:state": "Telangana", "addr:street": "Government Press Road", "addr:subdistrict": "Amberpet", "amenity": "hospital", "barrier": "wall", "contact:phone": "040-24527320", "dispensing": "no", "healthcare": "hospital", "name": "\u0645\u0627\u0645\u062f\u06cc\u067e\u06cc\u0688\u06cc \u0646\u06af\u0631\u062c\u0646\u06c1 \u0627\u06cc\u0631\u06cc\u0627 \u0627\u0633\u067e\u062a\u0627\u0644", "name:en": "Mamidipudi Nagarjunaa Area Hospital", "source": "OpenGovernmentData"}}, {"type": "way", "id": 319567707, "nodes": [3259919825, 3259919827, 3259919830, 3259919833, 3259919831, 3259919832, 3259919829, 3259919828, 3259919826, 3259919824, 3259919823, 3259919822, 3259919819, 7243974409, 3259919820, 3259919821, 3259919825], "tags": {"addr:district": "Hyderabad", "addr:full": "Government Fever Hospital, Nallakunta Main Road, Bagh Lingampally, Nallakunta", "addr:postcode": "500044", "addr:state": "Telangana", "addr:street": "Nallakunta Main Road", "addr:subdistrict": "Himayathnagar", "alt_name": "Government Fever Hospital", "amenity": "hospital", "contact:phone": "040 27667844", "healthcare": "hospital", "healthcare:speciality": "general;emergency;physiatry", "layer": "1", "name": "Sir Ronald Ross Institute of Tropical and Communicable Diseases (FEVER HOSPITAL)", "name:etymology:wikidata": "Q102034", "source": "OpenGovernmentData"}}, {"type": "way", "id": 319567708, "nodes": [3259917637, 3259917635, 3259917636, 3259917634, 3259917638, 3259919981, 3259919985, 3259919983, 3259917637], "tags": {"addr:district": "Hyderabad", "addr:full": "Gandhi Building, Musheerbad, Secunderabad", "addr:postcode": "500003", "addr:state": "Telangana", "amenity": "hospital", "contact:phone": "040-27505566", "health_facility:type": "Out Patient Services, Emergency Services, Blood Bank", "medical_system": "Allopathic", "name": "Gandhi Hospital", "operator:type": "public; government", "phone": "040 27505566", "source": "OpenGovernmentData", "website": "http://www.gandhihospital.in"}}, {"type": "way", "id": 331773168, "nodes": [3388737434, 3388737435, 3388737436, 3388737437, 3388737434], "tags": {"addr:district": "Hyderabad", "addr:full": "Near Ayyappa Temple, Somasunder Nagar, Bagh Amberpet", "addr:postcode": "500013", "addr:state": "Telangana", "addr:street": "CENTRAL EXCISE COLONY, AMBERPET", "amenity": "hospital", "building": "yes", "building:levels": "5", "name": "Sai Datta Hospital", "source": "OpenGovernmentData", "website": "www.saidattahospital.com"}}, {"type": "way", "id": 353782722, "nodes": [3595916861, 3595916846, 3595916783, 3595916819, 3595916861], "tags": {"addr:district": "Hyderabad", "addr:full": "3-4-852, Opp. EPF Office, Barkatpura", "addr:postcode": "500027", "addr:state": "Telangana", "amenity": "hospital", "name": "Woodlands Hospital", "source": "OpenGovernmentData"}}, {"type": "way", "id": 356253303, "nodes": [3617245110, 3617245100, 3617245033, 3617245040, 3617245110], "tags": {"addr:city": "Secunderabad", "addr:postcode": "500025", "amenity": "hospital", "emergency": "yes", "name": "Pulse hospital"}}, {"type": "way", "id": 356548444, "nodes": [3619550068, 3619550003, 3619549990, 3619550048, 3619550068], "tags": {"addr:city": "Hyderabad", "addr:full": "St. Johns Road, Opposite Railway Reservation Counter Lane, Beside Ramakrishna Hotel, Railway Colony, Chilakalguda, Secunderabad", "addr:postcode": "500025", "addr:state": "Telangana", "addr:street": "Station Road", "addr:unit": "1", "amenity": "hospital", "building": "yes", "building:levels": "3", "contact:phone": "040 27833388 ; 040 46460000", "healthcare": "hospital", "name": "SRIKARA HOSPITALS", "operator:type": "private", "source": "OpenGovernmentData", "website": "https://www.srikarahospitals.com/"}}, {"type": "way", "id": 357056659, "nodes": [3624411436, 3624411435, 3624411424, 3624411425, 3624411436], "tags": {"amenity": "hospital", "healthcare": "hospital", "name": "apollo pharmacy"}}, {"type": "way", "id": 357179813, "nodes": [3625133218, 3625133214, 3625132992, 3625133193, 3625132960, 3625132964, 3625132977, 3625132980, 3625133218], "tags": {"amenity": "hospital", "healthcare": "hospital", "name": "Urban health centre"}}, {"type": "way", "id": 357710710, "nodes": [3628743449, 3628743448, 3628743440, 3628743443, 3628743449], "tags": {"addr:full": "16-2-674/11, Judges Colony, New Malakpet, Hyderabad, Telangana 500024", "amenity": "hospital", "building": "yes", "healthcare": "hospital", "name": "\u062d\u06cc\u062f\u0631\u0622\u0628\u0627\u062f \u0645\u0644\u0679\u06cc \u0627\u0633\u067e\u06cc\u0634\u0644\u06cc\u0679\u06cc \u06c1\u0633\u067e\u062a\u0627\u0644", "name:en": "Hyderabad Multispeciality Hospital", "phone": "91 40 2455 2424", "website": "https://www.hmhcare.com/"}}, {"type": "way", "id": 357710826, "nodes": [8044135701, 3628743739, 3628743723, 3628743725, 8044135701], "tags": {"addr:city": "Hyderabad", "addr:district": "Hyderabad", "addr:full": "16-2, 661/3, Jamia Masjid St, Judges Colony, New Malakpet, Hyderabad, Telangana 500024", "addr:postcode": "500024", "addr:state": "Telangana", "amenity": "hospital", "building": "yes", "contact:phone": "+91 40 24555599", "healthcare": "hospital", "name": "\u0627\u0646\u0688\u0648 \u06cc\u0648 \u0627\u06cc\u0633 \u06c1\u0633\u067e\u062a\u0627\u0644", "name:en": "Indo-US Hospital", "name:ur": "\u0627\u0646\u0688\u0648 \u06cc\u0648 \u0627\u06cc\u0633 \u06c1\u0633\u067e\u062a\u0627\u0644", "opening_hours": "24/7", "operator:type": "private", "phone": "91 40 2455 5599", "website": "https://www.indoushospital.in/"}}, {"type": "way", "id": 357971564, "nodes": [3630403312, 3630403309, 3630403304, 3630403308, 3630403312], "tags": {"amenity": "hospital", "name": "Pharmacy"}}, {"type": "way", "id": 357971577, "nodes": [3630403316, 3630403314, 3630403310, 3630403313, 3630403316], "tags": {"amenity": "hospital", "name": "Vasudeva Rao Clinic"}}, {"type": "way", "id": 410283789, "nodes": [4121135808, 4121135796, 4121135800, 4121135810, 4121135808], "tags": {"addr:district": "Hyderabad", "addr:full": "1-2-365/36/6 and 7, Opposite Indira Park, Ramakrishna Math Road, Domalguda", "addr:postcode": "500029", "addr:state": "Telangana", "amenity": "hospital", "building": "yes", "medical_system": "Allopathic", "name": "Sai Vani Super Specialty Hospital", "operator:type": "Private", "source": "OpenGovernmentData", "website": "https://www.nabh.co/frmViewAccreditedHosp.aspx"}}, {"type": "way", "id": 417285596, "nodes": [4178534365, 4178534358, 4178534337, 4178534341, 4178534365], "tags": {"addr:district": "Hyderabad", "addr:full": "175, R K Matt Road, Indira Park, Domalaguda", "addr:postcode": "500029", "addr:state": "Telangana", "amenity": "hospital", "building": "yes", "contact:phone": "040-66445050", "fax": "040 27634566", "name": "Ravi Helios Hospital", "source": "OpenGovernmentData", "website": "http://www.ravihelioshospital.com"}}, {"type": "way", "id": 690384774, "nodes": [6477150043, 6477150042, 6477150041, 6477150039, 6477150040, 6477150043], "tags": {"addr:district": "Hyderabad", "addr:full": "Nagole 'X' Road", "addr:state": "Telangana", "amenity": "hospital", "building": "yes", "fax": "040 30979798", "healthcare:speciality": "Meditrina;Orthopedics;ENT;Spine;Neurology;Cancer Care", "medical_system": "Allopathic", "name": "Supraja Hospital", "operator:type": "private", "phone": "040 30979797", "source": "OpenGovernmentData"}}, {"type": "way", "id": 733458157, "nodes": [6868777710, 6868777711, 6868777712, 6868777713, 6868777710], "tags": {"amenity": "hospital", "healthcare": "hospital"}}, {"type": "way", "id": 758967948, "nodes": [7088814385, 7088814386, 7088814387, 7088814388, 7088814385], "tags": {"amenity": "hospital", "healthcare": "hospital"}}, {"type": "way", "id": 863515999, "nodes": [8044070780, 8044070779, 8044070778, 8044070777, 8044070780], "tags": {"amenity": "hospital", "building": "yes", "contact:phone": "091000 60797, 040 2452 0797", "name": "\u0641\u06cc\u062a\u06be \u0627\u0633\u067e\u062a\u0627\u0644", "name:en": "FAITH HOSPITAL", "opening_hours": "24/7", "website": "https://faithhospital.business.site/"}}, {"type": "way", "id": 1076262700, "nodes": [3628246431, 3628246393, 3628246395, 3628246433, 3628246431], "tags": {"amenity": "hospital", "healthcare": "hospital", "name": "ground"}}, {"type": "way", "id": 1392514385, "nodes": [6935636792, 12890299914, 12890299915, 12890299916, 6935636792], "tags": {"addr:city": "Hyderabad", "addr:postcode": "500076", "addr:street": "Nacharam", "amenity": "hospital", "emergency": "yes", "healthcare": "hospital", "name": "ESI Hospital", "operator": "Employees' State Insurance", "operator:short": "ESI", "operator:type": "private", "operator:wikidata": "Q3595726"}}, {"type": "way", "id": 1409678578, "nodes": [12953457947, 12953457956, 12953457948, 12953457949, 12953457950, 12953457951, 12953457952, 12953457953, 12953457954, 12953457955, 12953457947], "tags": {"amenity": "hospital", "healthcare": "hospital", "landuse": "Hospital", "name": "Sai Krishna Neuro Hospital"}}, {"type": "way", "id": 1465001202, "nodes": [13436948483, 13436948484, 13436948485, 13436948486, 13436948483], "tags": {"amenity": "hospital", "healthcare": "hospital", "name": "Eye Hospital"}}]}