{"version": 0.6, "generator": "Overpass API 0.7.62.8 e802775f", "osm3s": {"timestamp_osm_base": "2026-01-13T08:35:25Z", "copyright": "The data included in this document is from www.openstreetmap.org. The data is made available under ODbL."}, "elements": [{"type": "node", "id": 296357673, "lat": 19.0958706, "lon": 72.827149, "tags": {"barrier": "gate"}}, {"type": "node", "id": 296357688, "lat": 19.095982, "lon": 72.8279757}, {"type": "node", "id": 296357695, "lat": 19.0963098, "lon": 72.8278511}, {"type": "node", "id": 296357706, "lat": 19.0962642, "lon": 72.8271191}, {"type": "node", "id": 1514451610, "lat": 19.0750577, "lon": 72.8262477, "tags": {"bus": "yes", "highway": "bus_stop", "name": "Dandpada Bus Stop", "operator": "BEST Mumbai", "public_transport": "platform", "ref": "56,51,220."}}, {"type": "node", "id": 1641730250, "lat": 19.0747178, "lon": 72.8228706, "tags": {"bench": "yes", "bus": "yes", "highway": "bus_stop", "name": "Khardanda", "public_transport": "platform", "shelter": "yes", "tactile_paving": "no"}}, {"type": "node", "id": 1641769633, "lat": 19.0708221, "lon": 72.8229438, "tags": {"bus": "yes", "highway": "bus_stop", "name": "Sherli Gaon", "public_transport": "platform"}}, {"type": "node", "id": 1641769647, "lat": 19.0702925, "lon": 72.822447, "tags": {"bus": "yes", "highway": "bus_stop", "public_transport": "platform"}}, {"type": "node", "id": 2439495324, "lat": 19.0169158, "lon": 72.8200827, "tags": {"amenity": "bus_station", "bus": "yes", "name": "Worli Village", "name:mr": "\u0935\u0930\u0933\u0940 \u0917\u093e\u0935", "public_transport": "station"}}, {"type": "node", "id": 2446329348, "lat": 19.0132572, "lon": 72.8239996}, {"type": "node", "id": 2449757353, "lat": 19.0481917, "lon": 72.8250874, "tags": {"bench": "no", "bin": "no", "bus": "yes", "highway": "bus_stop", "name": "Mount Mary Steps", "name:en": "Mount Mary Steps", "public_transport": "platform", "shelter": "no"}}, {"type": "node", "id": 2449757414, "lat": 19.0474972, "lon": 72.8269878}, {"type": "node", "id": 2449757418, "lat": 19.0478369, "lon": 72.826277}, {"type": "node", "id": 2449757420, "lat": 19.0481586, "lon": 72.8271291}, {"type": "node", "id": 2449757421, "lat": 19.0483935, "lon": 72.8264524}, {"type": "node", "id": 2841960948, "lat": 19.0526477, "lon": 72.8241777, "tags": {"alt_name": "Mehboob Studio", "alt_name:en": "Mehboob Studio", "bench": "yes", "bin": "no", "bus": "yes", "highway": "bus_stop", "name": "Hill Road Garden", "name:en": "Hill Road Garden", "operator": "BEST", "public_transport": "platform", "shelter": "yes"}}, {"type": "node", "id": 2841960949, "lat": 19.0518136, "lon": 72.8241777, "tags": {"alt_name": "Mehboob Studio", "alt_name:en": "Mehboob Studio", "bench": "yes", "bin": "no", "bus": "yes", "highway": "bus_stop", "name": "Hill Road Garden", "name:en": "Hill Road Garden", "operator": "BEST", "public_transport": "platform", "shelter": "yes"}}, {"type": "node", "id": 2851477516, "lat": 19.0480965, "lon": 72.8258507, "tags": {"bench": "yes", "bin": "no", "bus": "yes", "highway": "bus_stop", "name": "St. Baptist House", "name:en": "St. Baptist House", "name:hi": "\u090f\u0938.\u091f\u0940 \u092c\u093e\u092a\u094d\u091f\u093f\u0938\u094d\u091f \u0939\u093e\u0909\u0938", "name:mr": "\u090f\u0938.\u091f\u0940 \u092c\u093e\u092a\u094d\u091f\u093f\u0938\u094d\u091f \u0939\u093e\u0909\u0938", "operator": "BEST", "public_transport": "platform", "shelter": "yes"}}, {"type": "node", "id": 4364457163, "lat": 19.0254695, "lon": 72.8406424}, {"type": "node", "id": 4811917222, "lat": 19.0446272, "lon": 72.8188582, "tags": {"bench": "yes", "bus": "yes", "highway": "bus_stop", "name": "Father Agnel Ashram", "operator": "BEST", "public_transport": "platform", "shelter": "yes"}}, {"type": "node", "id": 5221295391, "lat": 19.0463174, "lon": 72.8500722}, {"type": "node", "id": 5221295392, "lat": 19.0452726, "lon": 72.8452039}, {"type": "node", "id": 5221295393, "lat": 19.0438329, "lon": 72.8423063}, {"type": "node", "id": 5221295394, "lat": 19.015959, "lon": 72.8305616, "tags": {"name": "Siddhivinayak Temple", "name:mr": "\u0938\u093f\u0926\u094d\u0927\u093f\u0935\u093f\u0928\u093e\u092f\u0915 \u092e\u0902\u0926\u093f\u0930", "public_transport": "stop_position", "railway": "stop", "subway": "yes"}}, {"type": "node", "id": 5221295395, "lat": 19.0163008, "lon": 72.8293028}, {"type": "node", "id": 5221295396, "lat": 19.0163008, "lon": 72.828592}, {"type": "node", "id": 5221295397, "lat": 19.015991, "lon": 72.8280453}, {"type": "node", "id": 5221295398, "lat": 19.0153885, "lon": 72.8272293}, {"type": "node", "id": 5221295399, "lat": 19.0085959, "lon": 72.8192943, "tags": {"name": "Worli", "name:en": "Worli", "name:mr": "\u0935\u0930\u0933\u0940", "public_transport": "stop_position", "railway": "stop", "subway": "yes"}}, {"type": "node", "id": 5221295400, "lat": 19.0004051, "lon": 72.816574}, {"type": "node", "id": 5221297181, "lat": 19.0583279, "lon": 72.8560879}, {"type": "node", "id": 5221297182, "lat": 19.0566481, "lon": 72.8565813}, {"type": "node", "id": 5221297183, "lat": 19.05043, "lon": 72.8550449}, {"type": "node", "id": 5221297184, "lat": 19.0494006, "lon": 72.8545653}, {"type": "node", "id": 5221297185, "lat": 19.0485978, "lon": 72.8539098}, {"type": "node", "id": 5221297186, "lat": 19.0471421, "lon": 72.8522397}, {"type": "node", "id": 5221297187, "lat": 19.0466745, "lon": 72.8514801}, {"type": "node", "id": 5221297188, "lat": 19.0461519, "lon": 72.8494228, "tags": {"name": "Dharavi", "name:en": "Dharavi", "name:hi": "\u0927\u093e\u0930\u093e\u0935\u0940", "name:mr": "\u0927\u093e\u0930\u093e\u0935\u0940", "public_transport": "stop_position", "railway": "stop", "subway": "yes"}}, {"type": "node", "id": 5221297190, "lat": 19.0454958, "lon": 72.8465798}, {"type": "node", "id": 5221297191, "lat": 19.045104, "lon": 72.8438918}, {"type": "node", "id": 5221297192, "lat": 19.0447213, "lon": 72.8430444}, {"type": "node", "id": 5221297193, "lat": 19.042498, "lon": 72.8417004}, {"type": "node", "id": 5221297194, "lat": 19.0408624, "lon": 72.8414862}, {"type": "node", "id": 5221297195, "lat": 19.0398601, "lon": 72.8415409}, {"type": "node", "id": 5221297196, "lat": 19.0383201, "lon": 72.8420421, "tags": {"name": "Shitala Devi Mandir", "name:mr": "\u0936\u093f\u0924\u0932\u093e \u0926\u0947\u0935\u0940 \u092e\u0902\u0926\u093f\u0930", "public_transport": "stop_position", "railway": "stop", "subway": "yes"}}, {"type": "node", "id": 5221297197, "lat": 19.0373269, "lon": 72.8422516}, {"type": "node", "id": 5221297198, "lat": 19.036115, "lon": 72.8423701}, {"type": "node", "id": 5221297199, "lat": 19.0346753, "lon": 72.8423245}, {"type": "node", "id": 5221297200, "lat": 19.0322698, "lon": 72.8421787}, {"type": "node", "id": 5221297201, "lat": 19.0310943, "lon": 72.8419509}, {"type": "node", "id": 5221297202, "lat": 19.0291352, "lon": 72.8415227}, {"type": "node", "id": 5221297203, "lat": 19.025618, "lon": 72.8407664}, {"type": "node", "id": 5221297204, "lat": 19.0250895, "lon": 72.8405021}, {"type": "node", "id": 5221297205, "lat": 19.0233528, "lon": 72.8390467, "tags": {"name": "Dadar", "name:en": "Dadar", "name:hi": "\u0926\u093e\u0926\u0930", "name:mr": "\u0926\u093e\u0926\u0930", "public_transport": "stop_position", "railway": "stop", "subway": "yes"}}, {"type": "node", "id": 5221297206, "lat": 19.0226293, "lon": 72.8384064}, {"type": "node", "id": 5221297207, "lat": 19.021554, "lon": 72.837559}, {"type": "node", "id": 5221297208, "lat": 19.0200415, "lon": 72.8365931}, {"type": "node", "id": 5221297209, "lat": 19.0189753, "lon": 72.8360828}, {"type": "node", "id": 5221297210, "lat": 19.0171894, "lon": 72.8352354}, {"type": "node", "id": 5221297211, "lat": 19.0160868, "lon": 72.8344427}, {"type": "node", "id": 5221297212, "lat": 19.0156586, "lon": 72.8337228}, {"type": "node", "id": 5221297213, "lat": 19.0154854, "lon": 72.8325929}, {"type": "node", "id": 5221297214, "lat": 19.0157588, "lon": 72.8313263}, {"type": "node", "id": 5221297215, "lat": 19.0129159, "lon": 72.8234809}, {"type": "node", "id": 5221297216, "lat": 19.0122325, "lon": 72.8221323}, {"type": "node", "id": 5221297217, "lat": 19.0117313, "lon": 72.8214125}, {"type": "node", "id": 5221297218, "lat": 19.0111846, "lon": 72.8208293}, {"type": "node", "id": 5221297219, "lat": 19.010483, "lon": 72.8203646}, {"type": "node", "id": 5221297220, "lat": 19.009426, "lon": 72.8197723}, {"type": "node", "id": 5221297421, "lat": 19.0072755, "lon": 72.8185331}, {"type": "node", "id": 5221297422, "lat": 19.0036854, "lon": 72.8162915}, {"type": "node", "id": 5221297423, "lat": 19.0031022, "lon": 72.8160637}, {"type": "node", "id": 5221297424, "lat": 19.0025829, "lon": 72.8160455}, {"type": "node", "id": 5221297425, "lat": 18.9978264, "lon": 72.8177404, "tags": {"name": "Acharya Atre Chowk", "name:en": "Acharya Atre Chowk", "name:mr": "\u0906\u091a\u093e\u0930\u094d\u092f \u0905\u0924\u094d\u0930\u0947 \u091a\u094c\u0915", "public_transport": "stop_position", "railway": "stop", "subway": "yes"}}, {"type": "node", "id": 5234941334, "lat": 19.048694, "lon": 72.8212303, "tags": {"bus": "yes", "highway": "bus_stop", "name": "Sister Bungalow", "operator": "BEST", "public_transport": "platform"}}, {"type": "node", "id": 5257269335, "lat": 19.0452107, "lon": 72.8193366, "tags": {"bus": "yes", "highway": "bus_stop", "name": "Father Agnel Ashram", "operator": "BEST", "public_transport": "platform"}}, {"type": "node", "id": 5257269336, "lat": 19.0463299, "lon": 72.8195669, "tags": {"bench": "yes", "bin": "no", "bus": "yes", "highway": "bus_stop", "name": "Bandstand", "operator": "BEST", "public_transport": "platform", "shelter": "yes"}}, {"type": "node", "id": 5258276321, "lat": 19.0494007, "lon": 72.8208327, "tags": {"bus": "yes", "highway": "bus_stop", "name": "Sister Bungalow", "name:en": "Sister Bungalow", "operator": "BEST", "public_transport": "platform"}}, {"type": "node", "id": 5258276330, "lat": 19.0507712, "lon": 72.821807, "tags": {"bus": "yes", "highway": "bus_stop", "name": "Prarthnalaya", "operator": "BEST", "public_transport": "platform", "shelter": "no"}}, {"type": "node", "id": 5258276331, "lat": 19.0517004, "lon": 72.821692, "tags": {"bus": "yes", "highway": "bus_stop", "name": "Prarthnalaya", "operator": "BEST", "public_transport": "platform"}}, {"type": "node", "id": 5258276333, "lat": 19.0542349, "lon": 72.8231, "tags": {"bus": "yes", "highway": "bus_stop", "name": "Galaxy Apartments", "operator": "BEST", "public_transport": "platform"}}, {"type": "node", "id": 5258276336, "lat": 19.0528633, "lon": 72.8239857, "tags": {"alt_name": "Mehboob Studio", "alt_name:en": "Mehboob Studio", "bench": "yes", "bin": "no", "bus": "yes", "highway": "bus_stop", "name": "Hill Road Garden", "name:en": "Hill Road Garden", "operator": "BEST", "public_transport": "platform", "shelter": "yes"}}, {"type": "node", "id": 5270177962, "lat": 19.0547676, "lon": 72.8258007, "tags": {"addr:street": "Hill Road", "bench": "yes", "bin": "no", "bus": "yes", "highway": "bus_stop", "name": "St. Andrew's Church", "name:en": "St. Andrew's Church", "operator": "BEST", "public_transport": "platform", "shelter": "yes"}}, {"type": "node", "id": 5332861148, "lat": 19.0596961, "lon": 72.82622, "tags": {"bench": "yes", "bus": "yes", "highway": "bus_stop", "name": "D'Monte Park", "operator": "BEST", "public_transport": "platform", "shelter": "yes", "wheelchair": "no"}}, {"type": "node", "id": 5332861149, "lat": 19.059652, "lon": 72.8260794, "tags": {"bench": "yes", "bus": "yes", "highway": "bus_stop", "name": "D'Monte Park", "operator": "BEST", "public_transport": "platform", "shelter": "yes", "wheelchair": "no"}}, {"type": "node", "id": 5332861150, "lat": 19.0598893, "lon": 72.8239685, "tags": {"bench": "yes", "bus": "yes", "highway": "bus_stop", "name": "Perry Cross Rd", "operator": "BEST", "public_transport": "platform", "shelter": "yes", "wheelchair": "no"}}, {"type": "node", "id": 5332861151, "lat": 19.0599285, "lon": 72.8237263, "tags": {"bench": "yes", "bus": "yes", "highway": "bus_stop", "name": "Perry Cross Rd", "operator": "BEST", "public_transport": "platform", "shelter": "yes", "wheelchair": "no"}}, {"type": "node", "id": 5332861152, "lat": 19.0636621, "lon": 72.8228376, "tags": {"bench": "yes", "bus": "yes", "highway": "bus_stop", "name": "Additional Commissioner of Police", "operator": "BEST", "public_transport": "platform", "shelter": "yes", "wheelchair": "no"}}, {"type": "node", "id": 5332861153, "lat": 19.0625391, "lon": 72.8222696, "tags": {"bench": "yes", "bus": "yes", "highway": "bus_stop", "name": "Additional Commisioner of Police", "operator": "BEST", "public_transport": "platform", "shelter": "yes", "wheelchair": "no"}}, {"type": "node", "id": 5332918332, "lat": 19.0661453, "lon": 72.8231354, "tags": {"bench": "yes", "bus": "yes", "check_date:shelter": "2024-09-25", "highway": "bus_stop", "name": "Rizvi Complex", "operator": "BEST", "public_transport": "platform", "shelter": "yes", "wheelchair": "no"}}, {"type": "node", "id": 5332918333, "lat": 19.0662286, "lon": 72.822963, "tags": {"bench": "yes", "bus": "yes", "check_date:shelter": "2024-09-25", "highway": "bus_stop", "name": "Rizvi Complex", "operator": "BEST", "public_transport": "platform", "shelter": "yes", "wheelchair": "no"}}, {"type": "node", "id": 5472132423, "lat": 19.1033266, "lon": 72.826946, "tags": {"bus": "yes", "highway": "bus_stop", "name": "Juhu Hotel", "name:en": "Juhu Hotel", "name:hi": "\u091c\u0941\u0939\u0942 \u0939\u094b\u091f\u0932", "name:mr": "\u091c\u0941\u0939\u0942 \u0939\u094b\u091f\u0932", "public_transport": "platform", "shelter": "yes"}}, {"type": "node", "id": 5484401110, "lat": 19.0465417, "lon": 72.8511124}, {"type": "node", "id": 5494560190, "lat": 19.0477052, "lon": 72.8255723, "tags": {"bus": "yes", "highway": "bus_stop", "name": "John Baptist Road", "name:en": "John Baptist Road", "operator": "BEST", "public_transport": "platform"}}, {"type": "node", "id": 5494560213, "lat": 19.046883, "lon": 72.8200868, "tags": {"bus": "yes", "highway": "bus_stop", "name": "Bandstand", "operator": "BEST", "public_transport": "platform"}}, {"type": "node", "id": 5777542257, "lat": 19.0582819, "lon": 72.8560007}, {"type": "node", "id": 5777542258, "lat": 19.0566348, "lon": 72.856427}, {"type": "node", "id": 5777542259, "lat": 19.0504456, "lon": 72.8549973}, {"type": "node", "id": 5777542260, "lat": 19.0494242, "lon": 72.8545216}, {"type": "node", "id": 5777542261, "lat": 19.0486295, "lon": 72.853872}, {"type": "node", "id": 5777542262, "lat": 19.0471813, "lon": 72.8522108}, {"type": "node", "id": 5777542263, "lat": 19.046718, "lon": 72.8514598}, {"type": "node", "id": 5777542264, "lat": 19.0466006, "lon": 72.8510976}, {"type": "node", "id": 5777542265, "lat": 19.0463642, "lon": 72.8500638, "tags": {"name": "Dharavi", "name:en": "Dharavi", "name:hi": "\u0927\u093e\u0930\u093e\u0935\u0940", "name:mr": "\u0927\u093e\u0930\u093e\u0935\u0940", "public_transport": "stop_position", "railway": "stop", "subway": "yes"}}, {"type": "node", "id": 5777542266, "lat": 19.0461982, "lon": 72.8494119}, {"type": "node", "id": 5777542268, "lat": 19.0455423, "lon": 72.8465698}, {"type": "node", "id": 5777542269, "lat": 19.0453195, "lon": 72.8451963}, {"type": "node", "id": 5777542270, "lat": 19.04515, "lon": 72.8438773}, {"type": "node", "id": 5777542271, "lat": 19.0447593, "lon": 72.8430122}, {"type": "node", "id": 5777542272, "lat": 19.0438573, "lon": 72.8422628}, {"type": "node", "id": 5777542273, "lat": 19.0425105, "lon": 72.8416515}, {"type": "node", "id": 5777542274, "lat": 19.0408641, "lon": 72.8414359}, {"type": "node", "id": 5777542275, "lat": 19.0398518, "lon": 72.8414911}, {"type": "node", "id": 5777542276, "lat": 19.0383085, "lon": 72.8419934}, {"type": "node", "id": 5777542277, "lat": 19.0373201, "lon": 72.8422019}, {"type": "node", "id": 5777542278, "lat": 19.0361135, "lon": 72.8423199}, {"type": "node", "id": 5777542279, "lat": 19.0346774, "lon": 72.8422744}, {"type": "node", "id": 5777542280, "lat": 19.0322755, "lon": 72.8421288}, {"type": "node", "id": 5777542281, "lat": 19.0311034, "lon": 72.8419017}, {"type": "node", "id": 5777542282, "lat": 19.0291447, "lon": 72.8414736}, {"type": "node", "id": 5777542283, "lat": 19.0256331, "lon": 72.8407184}, {"type": "node", "id": 5777542284, "lat": 19.0251148, "lon": 72.8404593}, {"type": "node", "id": 5777542285, "lat": 19.0238526, "lon": 72.8393878, "tags": {"name": "Dadar", "name:en": "Dadar", "name:hi": "\u0926\u093e\u0926\u0930", "name:mr": "\u0926\u093e\u0926\u0930", "public_transport": "stop_position", "railway": "stop", "subway": "yes"}}, {"type": "node", "id": 5777542286, "lat": 19.0226584, "lon": 72.8383668}, {"type": "node", "id": 5777542287, "lat": 19.0215805, "lon": 72.8375173}, {"type": "node", "id": 5777542288, "lat": 19.0200636, "lon": 72.8365486}, {"type": "node", "id": 5777542289, "lat": 19.0189948, "lon": 72.8360371}, {"type": "node", "id": 5777542290, "lat": 19.0172126, "lon": 72.8351914}, {"type": "node", "id": 5777542291, "lat": 19.0161217, "lon": 72.8344071}, {"type": "node", "id": 5777542292, "lat": 19.0157039, "lon": 72.8337047}, {"type": "node", "id": 5777542293, "lat": 19.0155337, "lon": 72.8325945}, {"type": "node", "id": 5777542294, "lat": 19.0158047, "lon": 72.8313392, "tags": {"name": "Siddhivinayak Temple", "name:mr": "\u0938\u093f\u0926\u094d\u0927\u093f\u0935\u093f\u0928\u093e\u092f\u0915 \u092e\u0902\u0926\u093f\u0930", "public_transport": "stop_position", "railway": "stop", "subway": "yes"}}, {"type": "node", "id": 5777542295, "lat": 19.0160025, "lon": 72.8305747}, {"type": "node", "id": 5777542296, "lat": 19.0163482, "lon": 72.8293148}, {"type": "node", "id": 5777542297, "lat": 19.0163482, "lon": 72.8285781}, {"type": "node", "id": 5777542298, "lat": 19.016027, "lon": 72.8280113}, {"type": "node", "id": 5777542299, "lat": 19.0154233, "lon": 72.8271943}, {"type": "node", "id": 5777542300, "lat": 19.0129568, "lon": 72.8234552}, {"type": "node", "id": 5777542302, "lat": 19.0122724, "lon": 72.822105}, {"type": "node", "id": 5777542303, "lat": 19.0117674, "lon": 72.8213798}, {"type": "node", "id": 5777542304, "lat": 19.0112144, "lon": 72.8207899}, {"type": "node", "id": 5777542305, "lat": 19.0105067, "lon": 72.8203211}, {"type": "node", "id": 5777542306, "lat": 19.0094484, "lon": 72.8197281}, {"type": "node", "id": 5777542307, "lat": 19.0072989, "lon": 72.8184895}, {"type": "node", "id": 5777542308, "lat": 19.0037058, "lon": 72.816246}, {"type": "node", "id": 5777542309, "lat": 19.0031114, "lon": 72.8160138}, {"type": "node", "id": 5777542310, "lat": 19.0025783, "lon": 72.8159951}, {"type": "node", "id": 5777542311, "lat": 19.0003904, "lon": 72.8165261}, {"type": "node", "id": 5777542312, "lat": 18.9978062, "lon": 72.817695, "tags": {"name": "Acharya Atre Chowk", "name:en": "Acharya Atre Chowk", "name:mr": "\u0906\u091a\u093e\u0930\u094d\u092f \u0905\u0924\u094d\u0930\u0947 \u091a\u094c\u0915", "public_transport": "stop_position", "railway": "stop", "subway": "yes"}}, {"type": "node", "id": 6165604795, "lat": 19.02335, "lon": 72.8389373}, {"type": "node", "id": 7320270194, "lat": 19.0547078, "lon": 72.8274306, "tags": {"bench": "yes", "bin": "no", "bus": "yes", "highway": "bus_stop", "name": "Holy Family Bus Stop", "public_transport": "platform", "shelter": "yes"}}, {"type": "node", "id": 7361030396, "lat": 19.0386879, "lon": 72.8418699, "tags": {"name": "Shitala Devi Mandir", "name:mr": "\u0936\u093f\u0924\u0932\u093e \u0926\u0947\u0935\u0940 \u092e\u0902\u0926\u093f\u0930", "public_transport": "stop_position", "railway": "stop", "subway": "yes"}}, {"type": "node", "id": 7363659177, "lat": 19.0459557, "lon": 72.848415}, {"type": "node", "id": 7731605577, "lat": 19.0086178, "lon": 72.8192495, "tags": {"name": "Worli", "name:en": "Worli", "name:mr": "\u0935\u0930\u0933\u0940", "public_transport": "stop_position", "railway": "stop", "subway": "yes"}}, {"type": "node", "id": 8678998807, "lat": 19.0390338, "lon": 72.8418121}, {"type": "node", "id": 9139931199, "lat": 19.0971196, "lon": 72.826858, "tags": {"bench": "yes", "bin": "yes", "bus": "yes", "highway": "bus_stop", "lit": "yes", "name": "Juhu Beach", "name:en": "Juhu Beach", "name:hi": "\u091c\u0941\u0939\u0942 \u091a\u094c\u092a\u093e\u091f\u0940", "public_transport": "platform", "ref": "05065", "route_ref": "28;56;203;224;231;255;256;355", "shelter": "yes"}}, {"type": "node", "id": 9139946980, "lat": 19.0959763, "lon": 72.8274551, "tags": {"bench": "yes", "bus": "yes", "highway": "bus_stop", "name": "Juhu Chowpaty Bus Station", "name:hi": "\u091c\u0941\u0939\u0942 \u091a\u094c\u092a\u093e\u091f\u0940 \u092c\u0938 \u0938\u094d\u0925\u093e\u0928\u0915", "public_transport": "platform", "ref": "05055", "route_ref": "256", "shelter": "yes"}}, {"type": "node", "id": 9139966583, "lat": 19.0962978, "lon": 72.8274384, "tags": {"barrier": "entrance"}}, {"type": "node", "id": 9333636646, "lat": 19.0143437, "lon": 72.8256454}, {"type": "node", "id": 10265667959, "lat": 19.052119, "lon": 72.8559101}, {"type": "node", "id": 10265667960, "lat": 19.0520988, "lon": 72.8560066}, {"type": "node", "id": 10265667961, "lat": 19.0544515, "lon": 72.8564465}, {"type": "node", "id": 10265667962, "lat": 19.0544312, "lon": 72.8565323}, {"type": "node", "id": 10297892883, "lat": 19.0883297, "lon": 72.8271761, "tags": {"bus": "yes", "highway": "bus_stop", "public_transport": "platform", "shelter": "yes"}}, {"type": "node", "id": 11339568149, "lat": 19.048188, "lon": 72.8249936, "tags": {"bench": "no", "bin": "no", "bus": "yes", "highway": "bus_stop", "name": "Mount Mary Steps", "name:en": "Mount Mary Steps", "public_transport": "platform", "shelter": "no"}}, {"type": "node", "id": 11483837675, "lat": 19.0687139, "lon": 72.8229416, "tags": {"bench": "yes", "bus": "yes", "highway": "bus_stop", "name": "Rizvi College", "name:en": "Rizvi College", "public_transport": "platform", "shelter": "yes"}}, {"type": "node", "id": 11955399699, "lat": 19.0459285, "lon": 72.8483711}, {"type": "node", "id": 12433269414, "lat": 19.0143099, "lon": 72.8255577}, {"type": "node", "id": 12668986250, "lat": 19.0546492, "lon": 72.825898, "tags": {"addr:street": "Hill Road", "bench": "no", "bin": "no", "bus": "yes", "highway": "bus_stop", "name": "St. Andrew's Church", "operator": "BEST", "public_transport": "platform", "shelter": "no"}}, {"type": "node", "id": 13109066385, "lat": 19.0509207, "lon": 72.8275308, "tags": {"bench": "no", "bus": "yes", "highway": "bus_stop", "name": "Carmel Church", "name:en": "Carmel Church", "public_transport": "platform", "shelter": "no"}}, {"type": "node", "id": 13109066386, "lat": 19.0529554, "lon": 72.8240232, "tags": {"alt_name": "Mehboob Studio", "alt_name:en": "Mehboob Studio", "bench": "yes", "bin": "no", "bus": "yes", "highway": "bus_stop", "name": "Hill Road Garden", "name:en": "Hill Road Garden", "operator": "BEST", "public_transport": "platform", "shelter": "yes"}}, {"type": "node", "id": 13116555305, "lat": 19.0508979, "lon": 72.8274962, "tags": {"bench": "no", "bus": "yes", "highway": "bus_stop", "name": "Carmel Church", "name:en": "Carmel Church", "public_transport": "platform", "shelter": "no"}}, {"type": "node", "id": 13116555306, "lat": 19.0497115, "lon": 72.8264406, "tags": {"bench": "no", "bus": "yes", "highway": "bus_stop", "name": "Tobacco Company", "name:en": "Tobacco Company", "public_transport": "platform", "shelter": "no"}}, {"type": "way", "id": 27036772, "nodes": [296357673, 296357688, 296357695, 9139966583, 296357706, 296357673], "tags": {"amenity": "bus_station", "bus": "yes", "name": "Juhu Chowpati Bus Station", "name:en": "Juhu Chowpati Bus Station", "name:hi": "\u091c\u0941\u0939\u0942 \u091a\u094c\u092a\u093e\u091f\u0940 \u092c\u0938 \u0938\u094d\u0925\u093e\u0928\u0915", "public_transport": "station"}}, {"type": "way", "id": 237027559, "nodes": [2449757420, 2449757421, 2449757418, 2449757414, 2449757420], "tags": {"amenity": "bus_station", "bus": "yes", "name": "Bandra Reclamation Bus Station", "name:en": "Bandra Reclamation Bus Station", "operator": "BEST", "public_transport": "station"}}, {"type": "way", "id": 1385503862, "nodes": [5221297181, 5221297182, 10265667962, 10265667960, 5221297183, 5221297184, 5221297185, 5221297186, 5221297187, 5484401110, 5221295391, 5221297188, 5221297190, 5221295392, 5221297191, 5221297192, 5221295393, 5221297193, 5221297194, 5221297195, 8678998807, 5221297196, 5221297197, 5221297198, 5221297199, 5221297200, 5221297201, 5221297202, 5221297203, 5221297204, 5221297205, 5221297206, 5221297207, 5221297208, 5221297209, 5221297210, 5221297211, 5221297212, 5221297213, 5221297214, 5221295394, 5221295395, 5221295396, 5221295397, 5221295398, 9333636646, 2446329348, 5221297215, 5221297216, 5221297217, 5221297218, 5221297219, 5221297220, 5221295399, 5221297421, 5221297422, 5221297423, 5221297424, 5221295400, 5221297425], "tags": {"electrified": "contact_line", "frequency": "50", "gauge": "1435", "layer": "-1", "name": "Worli to SEEPZ (Line-3)", "railway": "subway", "start_date": "2025-05-10", "tunnel": "yes", "usage": "main", "voltage": "25000"}}, {"type": "way", "id": 1385503863, "nodes": [5777542312, 5777542311, 5777542310, 5777542309, 5777542308, 5777542307, 7731605577, 5777542306, 5777542305, 5777542304, 5777542303, 5777542302, 5777542300, 12433269414, 5777542299, 5777542298, 5777542297, 5777542296, 5777542295, 5777542294, 5777542293, 5777542292, 5777542291, 5777542290, 5777542289, 5777542288, 5777542287, 5777542286, 6165604795, 5777542285, 5777542284, 4364457163, 5777542283, 5777542282, 5777542281, 5777542280, 5777542279, 5777542278, 5777542277, 5777542276, 7361030396, 5777542275, 5777542274, 5777542273, 5777542272, 5777542271, 5777542270, 5777542269, 5777542268, 11955399699, 7363659177, 5777542266, 5777542265, 5777542264, 5777542263, 5777542262, 5777542261, 5777542260, 5777542259, 10265667959, 10265667961, 5777542258, 5777542257], "tags": {"electrified": "contact_line", "frequency": "50", "gauge": "1435", "layer": "-1", "name": "Worli to SEEPZ (Line-3)", "railway": "subway", "start_date": "2025-05-10", "tunnel": "yes", "usage": "main", "voltage": "25000"}}]}