{"version": 0.6, "generator": "Overpass API 0.7.62.8 e802775f", "osm3s": {"timestamp_osm_base": "2026-01-16T09:23:32Z", "copyright": "The data included in this document is from www.openstreetmap.org. The data is made available under ODbL."}, "elements": [{"type": "node", "id": 366720706, "lat": 58.953402, "lon": 5.683327, "tags": {"bench": "yes", "bin": "yes", "highway": "bus_stop", "lit": "yes", "name": "Madlakrossen (B)", "ref": "B", "ref:nsrq": "47245", "shelter": "yes", "tactile_paving": "no"}}, {"type": "node", "id": 366720747, "lat": 58.953544, "lon": 5.683877, "tags": {"bench": "yes", "bin": "yes", "check_date:shelter": "2025-08-14", "highway": "bus_stop", "lit": "yes", "name": "Madlakrossen (D)", "ref": "D", "ref:nsrq": "47249", "shelter": "yes", "tactile_paving": "yes"}}, {"type": "node", "id": 366720867, "lat": 58.953539, "lon": 5.682922, "tags": {"bench": "yes", "bin": "yes", "highway": "bus_stop", "name": "Madlakrossen (A)", "ref": "A", "ref:nsrq": "47247", "shelter": "yes"}}, {"type": "node", "id": 366720885, "lat": 58.953647, "lon": 5.683346, "tags": {"bench": "yes", "bin": "yes", "check_date:shelter": "2025-08-14", "highway": "bus_stop", "name": "Madlakrossen (C)", "ref": "C", "ref:nsrq": "47243", "shelter": "yes"}}, {"type": "node", "id": 370255100, "lat": 58.954365, "lon": 5.691968, "tags": {"highway": "bus_stop", "name": "Stavanger turnhall", "ref:nsrq": "47016", "shelter": "yes"}}, {"type": "node", "id": 370255107, "lat": 58.956277, "lon": 5.698578, "tags": {"bench": "yes", "bin": "yes", "covered": "yes", "highway": "bus_stop", "name": "Tjensvollkrysset (A)", "ref": "A", "ref:nsrq": "47943", "wheelchair": "yes"}}, {"type": "node", "id": 370261498, "lat": 58.951761, "lon": 5.655108, "tags": {"bench": "yes", "bin": "yes", "check_date:shelter": "2025-08-14", "highway": "bus_stop", "name": "Ragbakken (A)", "ref": "A", "ref:nsrq": "48513", "shelter": "yes"}}, {"type": "node", "id": 370358937, "lat": 58.969077, "lon": 5.709227, "tags": {"highway": "bus_stop", "name": "Birkebeinerveien", "ref:nsrq": "48791"}}, {"type": "node", "id": 370451772, "lat": 58.95161, "lon": 5.654791, "tags": {"bench": "yes", "bin": "yes", "highway": "bus_stop", "lit": "yes", "name": "Ragbakken (B)", "ref": "B", "ref:nsrq": "48511", "shelter": "yes"}}, {"type": "node", "id": 371883821, "lat": 58.957703, "lon": 5.699042, "tags": {"highway": "bus_stop", "name": "Eiganesveien (B)", "ref": "B", "ref:nsrq": "47942", "shelter": "yes"}}, {"type": "node", "id": 371883942, "lat": 58.961764, "lon": 5.701177, "tags": {"highway": "bus_stop", "name": "Erika Nissens vei (A)", "ref": "A", "ref:nsrq": "48343", "shelter": "yes"}}, {"type": "node", "id": 371884210, "lat": 58.960788, "lon": 5.691808, "tags": {"highway": "bus_stop", "name": "Stokka sykehjem", "ref:nsrq": "47109", "shelter": "yes"}}, {"type": "node", "id": 376534149, "lat": 58.952144, "lon": 5.665032, "tags": {"highway": "bus_stop", "name": "M\u00f8ldalsveien (A)", "ref": "A", "ref:nsrq": "46833"}}, {"type": "node", "id": 376534164, "lat": 58.952947, "lon": 5.669399, "tags": {"bench": "yes", "bin": "yes", "check_date:shelter": "2025-08-14", "highway": "bus_stop", "name": "Madlaforen (A)", "ref": "A", "ref:nsrq": "47242", "shelter": "yes"}}, {"type": "node", "id": 386933427, "lat": 58.949463, "lon": 5.691827, "tags": {"highway": "bus_stop", "name": "Sondre Norheims gate (A)", "ref": "A", "ref:nsrq": "46763"}}, {"type": "node", "id": 389996338, "lat": 58.970938, "lon": 5.656382, "tags": {"highway": "bus_stop", "name": "Friheim", "ref:nsrq": "48879"}}, {"type": "node", "id": 417615192, "lat": 58.9515859, "lon": 5.6755492}, {"type": "node", "id": 422215689, "lat": 58.952913, "lon": 5.67755, "tags": {"highway": "bus_stop", "name": "AMFI Madla (B)", "ref": "B", "ref:nsrq": "48371"}}, {"type": "node", "id": 422955715, "lat": 58.953074, "lon": 5.676871, "tags": {"highway": "bus_stop", "name": "AMFI Madla (A)", "ref": "A", "ref:nsrq": "48370", "wheelchair": "yes"}}, {"type": "node", "id": 457051174, "lat": 58.9428078, "lon": 5.6822588, "tags": {"highway": "bus_stop", "name": "Madlamark kirke (A)", "ref": "A", "ref:nsrq": "47264", "shelter": "yes"}}, {"type": "node", "id": 457051175, "lat": 58.942971, "lon": 5.681849, "tags": {"highway": "bus_stop", "name": "Madlamark kirke (B)", "ref": "B", "ref:nsrq": "47263", "shelter": "yes"}}, {"type": "node", "id": 457395009, "lat": 58.955236, "lon": 5.692887, "tags": {"highway": "bus_stop", "name": "Rektor Oldens gate", "ref:nsrq": "48858"}}, {"type": "node", "id": 461153639, "lat": 58.951959, "lon": 5.688409, "tags": {"highway": "bus_stop", "name": "Sonja Henies gate (B)", "ref": "B", "ref:nsrq": "46777", "shelter": "yes"}}, {"type": "node", "id": 473102227, "lat": 58.952128, "lon": 5.682812, "tags": {"highway": "bus_stop", "name": "Molkeholen (A)", "ref": "A", "ref:nsrq": "46574", "shelter": "yes"}}, {"type": "node", "id": 473102229, "lat": 58.951963, "lon": 5.682753, "tags": {"highway": "bus_stop", "name": "Molkeholen (B)", "ref": "B", "ref:nsrq": "46575", "shelter": "yes"}}, {"type": "node", "id": 516783564, "lat": 58.957052, "lon": 5.697564, "tags": {"highway": "bus_stop", "name": "Lassa skole", "ref:nsrq": "46642"}}, {"type": "node", "id": 516783567, "lat": 58.9568809, "lon": 5.6923829, "tags": {"highway": "bus_stop", "name": "Lassa", "ref:nsrq": "46638", "shelter": "yes"}}, {"type": "node", "id": 526564316, "lat": 58.945254, "lon": 5.692983, "tags": {"highway": "bus_stop", "name": "Jernalderveien (B)", "ref": "B", "ref:nsrq": "46401", "shelter": "yes"}}, {"type": "node", "id": 591104843, "lat": 58.960998, "lon": 5.711185, "tags": {"bench": "yes", "bin": "yes", "highway": "bus_stop", "name": "Mosvannsparken (A)", "ref": "A", "ref:nsrq": "46652", "shelter": "yes"}}, {"type": "node", "id": 617119001, "lat": 58.954038, "lon": 5.68984, "tags": {"bench": "yes", "bin": "yes", "highway": "bus_stop", "name": "DNB Arena", "ref:nsrq": "49387", "shelter": "yes"}}, {"type": "node", "id": 755803101, "lat": 58.955904, "lon": 5.698302, "tags": {"highway": "bus_stop", "name": "Tjensvollkrysset (B)", "ref": "B", "ref:nsrq": "47945", "shelter": "yes", "wheelchair": "yes"}}, {"type": "node", "id": 767261706, "lat": 58.952904, "lon": 5.671837, "tags": {"bench": "yes", "bin": "yes", "highway": "bus_stop", "lit": "yes", "name": "Madlaforen (B)", "ref": "B", "ref:nsrq": "47241", "shelter": "yes", "tactile_paving": "yes", "wheelchair": "yes"}}, {"type": "node", "id": 813614545, "lat": 58.95001, "lon": 5.712665, "tags": {"bench": "yes", "bin": "yes", "highway": "bus_stop", "lit": "no", "name": "Ullandhaugveien (B)", "ref": "B", "ref:nsrq": "45007", "shelter": "yes", "tactile_paving": "yes"}}, {"type": "node", "id": 813614549, "lat": 58.949589, "lon": 5.711595, "tags": {"bench": "yes", "bin": "yes", "highway": "bus_stop", "lit": "no", "name": "Ullandhaugveien (A)", "ref": "A", "ref:nsrq": "45005", "shelter": "yes", "tactile_paving": "yes"}}, {"type": "node", "id": 929066231, "lat": 58.939175, "lon": 5.693674, "tags": {"bench": "yes", "bin": "yes", "highway": "bus_stop", "lit": "yes", "name": "UiS nord (B)", "passenger_information_display": "timetable", "ref": "B", "ref:nsrq": "44969", "shelter": "yes", "tactile_paving": "yes"}}, {"type": "node", "id": 929066232, "lat": 58.93911, "lon": 5.696132, "tags": {"bench": "yes", "bin": "yes", "highway": "bus_stop", "lit": "yes", "name": "UiS nord (A)", "passenger_information_display": "timetable", "ref": "A", "ref:nsrq": "44970", "shelter": "yes"}}, {"type": "node", "id": 929104226, "lat": 58.938911, "lon": 5.69205, "tags": {"bench": "yes", "bin": "yes", "highway": "bus_stop", "lit": "yes", "name": "UiS vest (B)", "passenger_information_display": "timetable", "ref": "B", "ref:nsrq": "44976", "shelter": "yes"}}, {"type": "node", "id": 982440797, "lat": 58.945109, "lon": 5.681739, "tags": {"highway": "bus_stop", "name": "Bj\u00f8rn Farmanns gate", "ref:nsrq": "48909"}}, {"type": "node", "id": 1022809041, "lat": 58.9538566, "lon": 5.6841085}, {"type": "node", "id": 1023068439, "lat": 58.960648, "lon": 5.710697, "tags": {"bench": "yes", "bin": "yes", "highway": "bus_stop", "lit": "yes", "name": "Mosvannsparken (B)", "ref": "B", "ref:nsrq": "46651", "shelter": "yes", "tactile_paving": "no"}}, {"type": "node", "id": 1023068978, "lat": 58.959313, "lon": 5.706126, "tags": {"bench": "yes", "bin": "yes", "highway": "bus_stop", "name": "Gamle Madlaveien", "ref:nsrq": "47292", "shelter": "yes", "wheelchair": "yes"}}, {"type": "node", "id": 1028181278, "lat": 58.9435, "lon": 5.659751, "tags": {"highway": "bus_stop", "name": "Skytterlagsveien (A)", "ref": "A", "ref:nsrq": "45989", "shelter": "yes"}}, {"type": "node", "id": 1028181294, "lat": 58.943864, "lon": 5.664483, "tags": {"bench": "yes", "bin": "yes", "highway": "bus_stop", "name": "Kompani Linges vei (A)", "ref": "A", "ref:nsrq": "47697", "shelter": "yes"}}, {"type": "node", "id": 1028181403, "lat": 58.943357, "lon": 5.660585, "tags": {"highway": "bus_stop", "name": "Skytterlagsveien (B)", "ref": "B", "ref:nsrq": "45990", "shelter": "yes"}}, {"type": "node", "id": 1028920324, "lat": 58.9534343, "lon": 5.6835238}, {"type": "node", "id": 1028920383, "lat": 58.948946, "lon": 5.680422, "tags": {"highway": "bus_stop", "name": "Blancas gate (A)", "ref": "A", "ref:nsrq": "48925", "shelter": "yes"}}, {"type": "node", "id": 1028920524, "lat": 58.948968, "lon": 5.680197, "tags": {"highway": "bus_stop", "name": "Blancas gate (B)", "ref": "B", "ref:nsrq": "48926", "shelter": "yes"}}, {"type": "node", "id": 1044199027, "lat": 58.944896, "lon": 5.67034, "tags": {"amenity": "shelter", "bench": "yes", "bin": "yes", "highway": "bus_stop", "name": "Madlaleiren (A)", "ref": "A", "ref:nsrq": "47254", "shelter": "yes", "shelter_type": "public_transport", "tactile_paving": "yes", "wheelchair": "yes"}}, {"type": "node", "id": 1044199279, "lat": 58.94496, "lon": 5.670556, "tags": {"amenity": "shelter", "bench": "yes", "bin": "yes", "highway": "bus_stop", "name": "Madlaleiren (B)", "ref": "B", "ref:nsrq": "47253", "shelter": "yes", "shelter_type": "public_transport", "tactile_paving": "yes", "wheelchair": "yes"}}, {"type": "node", "id": 1046303259, "lat": 58.952087, "lon": 5.665496, "tags": {"highway": "bus_stop", "lit": "yes", "name": "M\u00f8ldalsveien (B)", "ref": "B", "ref:nsrq": "46831", "shelter": "yes"}}, {"type": "node", "id": 1105611814, "lat": 58.966256, "lon": 5.69098, "tags": {"highway": "bus_stop", "name": "Nedre Stokkavei", "ref:nsrq": "47030"}}, {"type": "node", "id": 1105611831, "lat": 58.9568409, "lon": 5.6924898, "tags": {"highway": "bus_stop", "name": "Lassa", "ref:nsrq": "46639"}}, {"type": "node", "id": 1105611835, "lat": 58.963857, "lon": 5.691302, "tags": {"highway": "bus_stop", "name": "Stokka kirke", "ref:nsrq": "47107"}}, {"type": "node", "id": 1130410593, "lat": 58.943456, "lon": 5.69643, "tags": {"highway": "bus_stop", "name": "Gangarstien (B)", "ref": "B", "ref:nsrq": "49043"}}, {"type": "node", "id": 1130411683, "lat": 58.944154, "lon": 5.695757, "tags": {"highway": "bus_stop", "name": "Gangarstien (A)", "ref": "A", "ref:nsrq": "49044"}}, {"type": "node", "id": 1137200014, "lat": 58.93947, "lon": 5.687791, "tags": {"highway": "bus_stop", "name": "Gosen (A)", "ref": "A", "ref:nsrq": "49201", "shelter": "yes"}}, {"type": "node", "id": 1137201508, "lat": 58.93983, "lon": 5.688673, "tags": {"highway": "bus_stop", "name": "Gosen (B)", "ref": "B", "ref:nsrq": "49205", "shelter": "yes"}}, {"type": "node", "id": 1209499329, "lat": 58.941118, "lon": 5.697371, "tags": {"bench": "yes", "bin": "yes", "highway": "bus_stop", "lit": "yes", "name": "Jernalderg\u00e5rden (B)", "passenger_information_display": "timetable", "ref": "B", "ref:nsrq": "46391", "shelter": "yes", "tactile_paving": "yes"}}, {"type": "node", "id": 1209499420, "lat": 58.946415, "lon": 5.707207, "tags": {"bench": "yes", "bin": "yes", "highway": "bus_stop", "lit": "yes", "name": "Tellusveien (B)", "ref": "B", "ref:nsrq": "47844", "shelter": "yes", "tactile_paving": "yes"}}, {"type": "node", "id": 1209499424, "lat": 58.946028, "lon": 5.706343, "tags": {"bench": "yes", "bin": "yes", "highway": "bus_stop", "lit": "no", "name": "Tellusveien (A)", "ref": "A", "ref:nsrq": "47843", "shelter": "yes", "tactile_paving": "no"}}, {"type": "node", "id": 1210012701, "lat": 58.94293, "lon": 5.68488, "tags": {"highway": "bus_stop", "name": "Sophus Bugges gate (A)", "ref": "A", "ref:nsrq": "46219"}}, {"type": "node", "id": 1210023374, "lat": 58.943159, "lon": 5.686315, "tags": {"highway": "bus_stop", "name": "Anton Br\u00f8ggers gate", "ref:nsrq": "48380"}}, {"type": "node", "id": 1251897762, "lat": 58.960203, "lon": 5.699815, "tags": {"highway": "bus_stop", "name": "Lassakroken", "ref:nsrq": "46644", "shelter": "yes"}}, {"type": "node", "id": 1261513256, "lat": 58.949625, "lon": 5.693155, "tags": {"highway": "bus_stop", "name": "Sondre Norheims gate (B)", "ref": "B", "ref:nsrq": "46764"}}, {"type": "node", "id": 1262469810, "lat": 58.954155, "lon": 5.685917, "tags": {"bench": "yes", "bin": "yes", "check_date:shelter": "2025-08-14", "highway": "bus_stop", "name": "Morgedalsveien", "ref:nsrq": "46609", "shelter": "yes", "tactile_paving": "no"}}, {"type": "node", "id": 1357225669, "lat": 58.960756, "lon": 5.697532, "tags": {"highway": "bus_stop", "name": "Lassaveien", "ref:nsrq": "46648", "shelter": "yes"}}, {"type": "node", "id": 1376535260, "lat": 58.966795, "lon": 5.711501, "tags": {"highway": "bus_stop", "name": "Steingata (B)", "ref": "B", "ref:nsrq": "47049"}}, {"type": "node", "id": 1376535261, "lat": 58.967073, "lon": 5.711402, "tags": {"highway": "bus_stop", "name": "Steingata (A)", "ref": "A", "ref:nsrq": "47048"}}, {"type": "node", "id": 1460565484, "lat": 58.947176, "lon": 5.680637, "tags": {"highway": "bus_stop", "name": "Skjalgs gate (A)", "ref": "A", "ref:nsrq": "45638", "shelter": "yes"}}, {"type": "node", "id": 1460565498, "lat": 58.94771, "lon": 5.705734, "tags": {"bench": "yes", "bin": "yes", "highway": "bus_stop", "lit": "yes", "name": "Jupiterveien (B)", "ref": "B", "ref:nsrq": "46432", "shelter": "yes", "tactile_paving": "yes"}}, {"type": "node", "id": 1460565505, "lat": 58.948308, "lon": 5.70537, "tags": {"bench": "yes", "bin": "yes", "highway": "bus_stop", "lit": "yes", "name": "Jupiterveien (A)", "ref": "A", "ref:nsrq": "46434", "shelter": "yes", "tactile_paving": "yes"}}, {"type": "node", "id": 2000248711, "lat": 58.968452, "lon": 5.697213, "tags": {"bench": "yes", "bin": "yes", "highway": "bus_stop", "name": "Gustav Vigelands vei", "ref:nsrq": "49370", "shelter": "yes"}}, {"type": "node", "id": 2163187087, "lat": 58.969289, "lon": 5.705686, "tags": {"highway": "bus_stop", "name": "Rikard Nordraaks vei", "ref:nsrq": "44770"}}, {"type": "node", "id": 2163187131, "lat": 58.965225, "lon": 5.703387, "tags": {"highway": "bus_stop", "name": "Stokka terrasse", "ref:nsrq": "47112"}}, {"type": "node", "id": 2163852670, "lat": 58.941881, "lon": 5.698788, "tags": {"bench": "no", "bin": "no", "highway": "bus_stop", "lit": "no", "name": "Jernalderg\u00e5rden (A)", "passenger_information_display": "timetable", "ref": "A", "ref:nsrq": "48715", "shelter": "no", "tactile_paving": "yes"}}, {"type": "node", "id": 2163852808, "lat": 58.941031, "lon": 5.650961, "tags": {"highway": "bus_stop", "name": "Grenaderveien", "ref:nsrq": "49259"}}, {"type": "node", "id": 2163852847, "lat": 58.948056, "lon": 5.672872, "tags": {"amenity": "shelter", "highway": "bus_stop", "name": "Gunhilds gate (A)", "ref": "A", "ref:nsrq": "49346", "shelter_type": "public_transport"}}, {"type": "node", "id": 2163852851, "lat": 58.949319, "lon": 5.674178, "tags": {"amenity": "shelter", "highway": "bus_stop", "name": "Gunhilds gate (B)", "ref": "B", "ref:nsrq": "49348", "shelter_type": "public_transport", "toilets:wheelchair": "yes", "wheelchair": "yes"}}, {"type": "node", "id": 2163853105, "lat": 58.945423, "lon": 5.692981, "tags": {"highway": "bus_stop", "name": "Jernalderveien (A)", "ref": "A", "ref:nsrq": "46400"}}, {"type": "node", "id": 2163853177, "lat": 58.943897, "lon": 5.66692, "tags": {"highway": "bus_stop", "name": "Kompani Linges vei (B)", "ref": "B", "ref:nsrq": "47695"}}, {"type": "node", "id": 2163853199, "lat": 58.967255, "lon": 5.709684, "tags": {"highway": "bus_stop", "name": "Konservator Helliesens gate", "ref:nsrq": "47717"}}, {"type": "node", "id": 2163853497, "lat": 58.9506, "lon": 5.674569, "tags": {"highway": "bus_stop", "name": "Madlastokken (A)", "ref": "A", "ref:nsrq": "47279", "wheelchair": "yes"}}, {"type": "node", "id": 2163853498, "lat": 58.951733, "lon": 5.675643, "tags": {"bench": "yes", "bin": "yes", "highway": "bus_stop", "lit": "yes", "name": "Madlastokken (B)", "ref": "B", "ref:nsrq": "47278", "shelter": "yes", "tactile_paving": "no", "wheelchair": "yes"}}, {"type": "node", "id": 2163853499, "lat": 58.944138, "lon": 5.656258, "tags": {"highway": "bus_stop", "name": "Madlast\u00f8 (A)", "ref": "A", "ref:nsrq": "47283"}}, {"type": "node", "id": 2163853500, "lat": 58.944387, "lon": 5.655845, "tags": {"highway": "bus_stop", "name": "Madlast\u00f8 (B)", "ref": "B", "ref:nsrq": "47284"}}, {"type": "node", "id": 2163853501, "lat": 58.939549, "lon": 5.647767, "tags": {"highway": "bus_stop", "name": "Madlatu\u00e5 (B)", "ref": "B", "ref:nsrq": "47288"}}, {"type": "node", "id": 2163853502, "lat": 58.94007, "lon": 5.648531, "tags": {"highway": "bus_stop", "name": "Madlatu\u00e5 (A)", "ref": "A", "ref:nsrq": "47287"}}, {"type": "node", "id": 2163853503, "lat": 58.944333, "lon": 5.688555, "tags": {"highway": "bus_stop", "name": "Madlavollkroken", "ref:nsrq": "47296"}}, {"type": "node", "id": 2163853591, "lat": 58.945444, "lon": 5.689781, "tags": {"highway": "bus_stop", "name": "Norvald Frafjords gate (A)", "ref": "A", "ref:nsrq": "47578"}}, {"type": "node", "id": 2163853592, "lat": 58.945556, "lon": 5.690647, "tags": {"highway": "bus_stop", "name": "Norvald Frafjords gate (B)", "ref": "B", "ref:nsrq": "47580"}}, {"type": "node", "id": 2163853666, "lat": 58.946411, "lon": 5.652536, "tags": {"highway": "bus_stop", "name": "Regimentveien (A)", "ref": "A", "ref:nsrq": "48793"}}, {"type": "node", "id": 2163853667, "lat": 58.946894, "lon": 5.65242, "tags": {"highway": "bus_stop", "name": "Regimentveien (B)", "ref": "B", "ref:nsrq": "48794"}}, {"type": "node", "id": 2163853668, "lat": 58.951685, "lon": 5.644301, "tags": {"bench": "yes", "bin": "yes", "highway": "bus_stop", "lit": "yes", "name": "Revheim kirke (B)", "ref": "B", "ref:nsrq": "48912", "shelter": "yes"}}, {"type": "node", "id": 2163853670, "lat": 58.950631, "lon": 5.645564, "tags": {"highway": "bus_stop", "name": "Revheimskrossen", "ref:nsrq": "48923"}}, {"type": "node", "id": 2163853804, "lat": 58.941838, "lon": 5.653657, "tags": {"highway": "bus_stop", "name": "Hafrsfjord skole (A)", "ref": "A", "ref:nsrq": "49401"}}, {"type": "node", "id": 2163853805, "lat": 58.942144, "lon": 5.655228, "tags": {"highway": "bus_stop", "name": "Hafrsfjord skole (B)", "ref": "B", "ref:nsrq": "49402"}}, {"type": "node", "id": 2163853834, "lat": 58.946396, "lon": 5.680825, "tags": {"highway": "bus_stop", "name": "Skjalgs gate (B)", "ref": "B", "ref:nsrq": "45637"}}, {"type": "node", "id": 2163853880, "lat": 58.942273, "lon": 5.682984, "tags": {"highway": "bus_stop", "name": "Sophus Bugges gate (B)", "ref": "B", "ref:nsrq": "46218"}}, {"type": "node", "id": 2163854012, "lat": 58.949694, "lon": 5.70052, "tags": {"highway": "bus_stop", "name": "Tjensvoll kirke (A)", "ref": "A", "ref:nsrq": "47936", "shelter": "yes"}}, {"type": "node", "id": 2163854013, "lat": 58.949924, "lon": 5.70243, "tags": {"highway": "bus_stop", "name": "Tjensvoll kirke (B)", "ref": "B", "ref:nsrq": "47935"}}, {"type": "node", "id": 2163854014, "lat": 58.949303, "lon": 5.696687, "tags": {"highway": "bus_stop", "name": "Tjensvolltorget (B)", "ref": "B", "ref:nsrq": "47948"}}, {"type": "node", "id": 2163854015, "lat": 58.949416, "lon": 5.696709, "tags": {"highway": "bus_stop", "name": "Tjensvolltorget (A)", "ref": "A", "ref:nsrq": "47949"}}, {"type": "node", "id": 2163854016, "lat": 58.9429821, "lon": 5.698216, "tags": {"bench": "no", "bin": "no", "highway": "bus_stop", "name": "Tjodveien", "passenger_information_display": "timetable", "ref:nsrq": "47956", "shelter": "no"}}, {"type": "node", "id": 2163854047, "lat": 58.947861, "lon": 5.651098, "tags": {"highway": "bus_stop", "name": "Tvarabergkroken", "ref:nsrq": "48243"}}, {"type": "node", "id": 2163854058, "lat": 58.93822, "lon": 5.690229, "tags": {"bench": "no", "bin": "no", "highway": "bus_stop", "lit": "yes", "name": "UiS vest (A)", "passenger_information_display": "timetable", "ref": "A", "ref:nsrq": "44977", "shelter": "no"}}, {"type": "node", "id": 5772010559, "lat": 58.9528853, "lon": 5.6774694}, {"type": "node", "id": 6373612721, "lat": 58.968046, "lon": 5.652466, "tags": {"highway": "bus_stop", "name": "Krossberg (B)", "ref": "B", "ref:nsrq": "101733"}}, {"type": "node", "id": 6373612725, "lat": 58.968294, "lon": 5.653584, "tags": {"highway": "bus_stop", "name": "Krossberg (A)", "ref": "A", "ref:nsrq": "101732"}}, {"type": "node", "id": 6373613013, "lat": 58.957932, "lon": 5.699273, "tags": {"highway": "bus_stop", "name": "Eiganesveien (A)", "ref": "A", "ref:nsrq": "47944"}}, {"type": "node", "id": 6373613758, "lat": 58.965331, "lon": 5.701601, "tags": {"highway": "bus_stop", "name": "\u00d8vre Stokkavei", "ref:nsrq": "46552"}}, {"type": "node", "id": 6373614406, "lat": 58.9531177, "lon": 5.6771717}, {"type": "node", "id": 6373614407, "lat": 58.9530782, "lon": 5.6768292}, {"type": "node", "id": 6657500387, "lat": 58.9520343, "lon": 5.6652431}, {"type": "node", "id": 6657500719, "lat": 58.9530123, "lon": 5.669698}, {"type": "node", "id": 6657860048, "lat": 58.9517874, "lon": 5.6552232}, {"type": "node", "id": 6660532806, "lat": 58.9517301, "lon": 5.675677}, {"type": "node", "id": 6660532807, "lat": 58.95158, "lon": 5.6755726}, {"type": "node", "id": 6660532808, "lat": 58.9517229, "lon": 5.6757061}, {"type": "node", "id": 6660532809, "lat": 58.9515929, "lon": 5.6755207}, {"type": "node", "id": 6660532810, "lat": 58.9517358, "lon": 5.6756542}, {"type": "node", "id": 6660532834, "lat": 58.9530272, "lon": 5.6696884}, {"type": "node", "id": 6660532835, "lat": 58.9529642, "lon": 5.6693243}, {"type": "node", "id": 6660532836, "lat": 58.9529995, "lon": 5.6697064}, {"type": "node", "id": 6660532837, "lat": 58.9529365, "lon": 5.6693423}, {"type": "node", "id": 6660532841, "lat": 58.9528963, "lon": 5.6718818}, {"type": "node", "id": 6660532842, "lat": 58.9528288, "lon": 5.6716358}, {"type": "node", "id": 6660532843, "lat": 58.952931, "lon": 5.6719252}, {"type": "node", "id": 6660532844, "lat": 58.9528466, "lon": 5.6716175}, {"type": "node", "id": 6660532845, "lat": 58.9528403, "lon": 5.6716776}, {"type": "node", "id": 6660532872, "lat": 58.9531307, "lon": 5.6771669}, {"type": "node", "id": 6660532873, "lat": 58.9530971, "lon": 5.6768223}, {"type": "node", "id": 6660532874, "lat": 58.9531049, "lon": 5.6771763}, {"type": "node", "id": 6660532875, "lat": 58.9530714, "lon": 5.6768317}, {"type": "node", "id": 6660532876, "lat": 58.9528916, "lon": 5.6775987}, {"type": "node", "id": 6660532877, "lat": 58.9528743, "lon": 5.67724}, {"type": "node", "id": 6660532878, "lat": 58.9529172, "lon": 5.6775941}, {"type": "node", "id": 6660532879, "lat": 58.9528999, "lon": 5.6772353}, {"type": "node", "id": 6660767856, "lat": 58.9539957, "lon": 5.6895474}, {"type": "node", "id": 6660767859, "lat": 58.9540016, "lon": 5.6899605}, {"type": "node", "id": 6660767860, "lat": 58.9539898, "lon": 5.6891371}, {"type": "node", "id": 6660767861, "lat": 58.9540407, "lon": 5.6899584}, {"type": "node", "id": 6660767862, "lat": 58.954029, "lon": 5.689135}, {"type": "node", "id": 6660767864, "lat": 58.9541855, "lon": 5.6859942}, {"type": "node", "id": 6660767865, "lat": 58.954196, "lon": 5.6862243}, {"type": "node", "id": 6660767866, "lat": 58.9541647, "lon": 5.6858565}, {"type": "node", "id": 6660767867, "lat": 58.9541783, "lon": 5.6859123}, {"type": "node", "id": 6660767868, "lat": 58.9541732, "lon": 5.6858537}, {"type": "node", "id": 6660767869, "lat": 58.9542053, "lon": 5.6862212}, {"type": "node", "id": 6660767870, "lat": 58.9541542, "lon": 5.68586}, {"type": "node", "id": 6660767871, "lat": 58.9541863, "lon": 5.6862275}, {"type": "node", "id": 6660767882, "lat": 58.9537527, "lon": 5.6837046}, {"type": "node", "id": 6660767883, "lat": 58.95365, "lon": 5.6832989}, {"type": "node", "id": 6660767884, "lat": 58.9535775, "lon": 5.6829655}, {"type": "node", "id": 6660772388, "lat": 58.9535461, "lon": 5.6828945}, {"type": "node", "id": 6660772390, "lat": 58.9536737, "lon": 5.6844373}, {"type": "node", "id": 6660772391, "lat": 58.9533243, "lon": 5.6830602}, {"type": "node", "id": 6660772392, "lat": 58.9534369, "lon": 5.6835812}, {"type": "node", "id": 6660772393, "lat": 58.9535446, "lon": 5.6839894}, {"type": "node", "id": 6660772394, "lat": 58.9534243, "lon": 5.6835333}, {"type": "node", "id": 6660772395, "lat": 58.9535665, "lon": 5.6839684}, {"type": "node", "id": 6660772396, "lat": 58.9534462, "lon": 5.6835124}, {"type": "node", "id": 6660772397, "lat": 58.9536597, "lon": 5.6832895}, {"type": "node", "id": 6660772398, "lat": 58.9537626, "lon": 5.6836948}, {"type": "node", "id": 6660772399, "lat": 58.9536396, "lon": 5.6833088}, {"type": "node", "id": 6660772400, "lat": 58.9537425, "lon": 5.683714}, {"type": "node", "id": 6660772401, "lat": 58.9535569, "lon": 5.6828843}, {"type": "node", "id": 6660772402, "lat": 58.9538655, "lon": 5.6841}, {"type": "node", "id": 6660772403, "lat": 58.9535367, "lon": 5.6829035}, {"type": "node", "id": 6660772404, "lat": 58.9538454, "lon": 5.6841192}, {"type": "node", "id": 6660772408, "lat": 58.9536631, "lon": 5.6844475}, {"type": "node", "id": 6660772409, "lat": 58.9533127, "lon": 5.6830713}, {"type": "node", "id": 6660772410, "lat": 58.953685, "lon": 5.6844265}, {"type": "node", "id": 6660772411, "lat": 58.9533346, "lon": 5.6830503}, {"type": "node", "id": 6830040778, "lat": 58.9515907, "lon": 5.6546196}, {"type": "node", "id": 6830040779, "lat": 58.9515992, "lon": 5.6548308}, {"type": "node", "id": 6830040781, "lat": 58.9515933, "lon": 5.654831}, {"type": "node", "id": 6830040782, "lat": 58.9515895, "lon": 5.6545152}, {"type": "node", "id": 6830040783, "lat": 58.9516123, "lon": 5.6548302}, {"type": "node", "id": 6830040784, "lat": 58.9516085, "lon": 5.6545144}, {"type": "node", "id": 6830071795, "lat": 58.9517896, "lon": 5.6554193}, {"type": "node", "id": 6830071796, "lat": 58.9517858, "lon": 5.6550733}, {"type": "node", "id": 6830071797, "lat": 58.9517659, "lon": 5.6554203}, {"type": "node", "id": 6830071798, "lat": 58.9517621, "lon": 5.6550743}, {"type": "node", "id": 6830071807, "lat": 58.9515961, "lon": 5.6545149}, {"type": "node", "id": 6830071815, "lat": 58.9520671, "lon": 5.6655578}, {"type": "node", "id": 6830071816, "lat": 58.9520242, "lon": 5.6652484}, {"type": "node", "id": 6830071817, "lat": 58.9520963, "lon": 5.6655426}, {"type": "node", "id": 6830071818, "lat": 58.9520534, "lon": 5.6652331}, {"type": "node", "id": 6830071820, "lat": 58.9520786, "lon": 5.6655518}, {"type": "node", "id": 6830071831, "lat": 58.9521918, "lon": 5.6652616}, {"type": "node", "id": 6830071832, "lat": 58.952157, "lon": 5.6649934}, {"type": "node", "id": 6830071833, "lat": 58.9521752, "lon": 5.6652697}, {"type": "node", "id": 6830071834, "lat": 58.9521404, "lon": 5.6650015}, {"type": "node", "id": 6830071837, "lat": 58.9521846, "lon": 5.6652651}, {"type": "node", "id": 6830071838, "lat": 58.9521617, "lon": 5.6650294}, {"type": "node", "id": 6844027038, "lat": 58.9497634, "lon": 5.7008433}, {"type": "node", "id": 6844027039, "lat": 58.9496956, "lon": 5.7004824}, {"type": "node", "id": 6844027040, "lat": 58.9497858, "lon": 5.7008277}, {"type": "node", "id": 6844027041, "lat": 58.9497187, "lon": 5.7004663}, {"type": "node", "id": 6844027042, "lat": 58.9497564, "lon": 5.7008482}, {"type": "node", "id": 6844027043, "lat": 58.9496893, "lon": 5.7004867}, {"type": "node", "id": 8867359213, "lat": 58.953757, "lon": 5.683783, "tags": {"bench": "yes", "bin": "yes", "highway": "bus_stop", "name": "Madlakrossen (E)", "ref": "E", "ref:nsrq": "47248", "shelter": "yes"}}, {"type": "node", "id": 9778612422, "lat": 58.951622, "lon": 5.688916, "tags": {"highway": "bus_stop", "name": "Sonja Henies gate (A)", "ref": "A", "ref:nsrq": "46778", "shelter": "yes"}}, {"type": "node", "id": 10252468073, "lat": 58.96366, "lon": 5.701513, "tags": {"highway": "bus_stop", "name": "Erika Nissens vei (B)", "ref": "B", "ref:nsrq": "48342"}}, {"type": "node", "id": 10252468074, "lat": 58.968504, "lon": 5.701121, "tags": {"highway": "bus_stop", "name": "Fartein Valens vei", "ref:nsrq": "48466"}}, {"type": "node", "id": 10938998400, "lat": 58.942115, "lon": 5.672086, "tags": {"bench": "no", "bin": "no", "highway": "bus_stop", "lit": "no", "name": "M\u00f8llebukta", "ref:nsrq": "46837", "shelter": "no", "tactile_paving": "no"}}, {"type": "node", "id": 10938998401, "lat": 58.941864, "lon": 5.672652, "tags": {"bench": "yes", "bin": "yes", "highway": "bus_stop", "lit": "yes", "name": "M\u00f8llebukta", "ref:nsrq": "46838", "shelter": "yes", "tactile_paving": "no"}}, {"type": "node", "id": 12160482835, "lat": 58.9539906, "lon": 5.68919}, {"type": "way", "id": 708805104, "nodes": [6660532810, 6660532806, 6660532808, 6660532807, 417615192, 6660532809, 6660532810], "tags": {"area": "yes", "bench": "yes", "bin": "yes", "public_transport": "platform", "shelter": "yes", "tactile_paving": "no"}}, {"type": "way", "id": 708805106, "nodes": [6660532837, 6660532835, 6660532834, 6657500719, 6660532836, 6660532837], "tags": {"area": "yes", "bench": "yes", "bin": "yes", "public_transport": "platform", "shelter": "yes"}}, {"type": "way", "id": 708805107, "nodes": [6660532844, 6660532842, 6660532845, 6660532841, 6660532843, 6660532844], "tags": {"area": "yes", "bench": "yes", "bin": "yes", "lit": "yes", "public_transport": "platform", "shelter": "yes", "tactile_paving": "yes"}}, {"type": "way", "id": 708805109, "nodes": [6660532875, 6373614407, 6660532873, 6660532872, 6373614406, 6660532874, 6660532875], "tags": {"area": "yes", "public_transport": "platform"}}, {"type": "way", "id": 708805110, "nodes": [6660532879, 6660532877, 5772010559, 6660532876, 6660532878, 6660532879], "tags": {"area": "yes", "public_transport": "platform"}}, {"type": "way", "id": 708834728, "nodes": [6660767862, 6660767860, 12160482835, 6660767856, 6660767859, 6660767861, 6660767862], "tags": {"area": "yes", "bench": "yes", "bin": "yes", "public_transport": "platform", "shelter": "yes", "surface": "asphalt"}}, {"type": "way", "id": 708834729, "nodes": [6660767871, 6660767865, 6660767869, 6660767864, 6660767867, 6660767868, 6660767866, 6660767870, 6660767871], "tags": {"area": "yes", "public_transport": "platform"}}, {"type": "way", "id": 708834731, "nodes": [6660772395, 6660772410, 6660772390, 6660772408, 6660772393, 6660772395], "tags": {"area": "yes", "bench": "yes", "bin": "yes", "lit": "yes", "public_transport": "platform", "shelter": "yes", "tactile_paving": "yes"}}, {"type": "way", "id": 708834732, "nodes": [6660772396, 6660772395, 6660772393, 6660772392, 6660772394, 1028920324, 6660772396], "tags": {"area": "yes", "bench": "yes", "bin": "yes", "lit": "yes", "public_transport": "platform", "shelter": "yes", "tactile_paving": "no"}}, {"type": "way", "id": 708834733, "nodes": [6660772411, 6660772396, 1028920324, 6660772394, 6660772409, 6660772391, 6660772411], "tags": {"area": "yes", "bench": "yes", "bin": "yes", "lit": "yes", "public_transport": "platform", "shelter": "yes", "tactile_paving": "no"}}, {"type": "way", "id": 708834734, "nodes": [6660772399, 6660772403, 6660772388, 6660772401, 6660767884, 6660772397, 6660767883, 6660772399], "tags": {"area": "yes", "bench": "yes", "bin": "yes", "public_transport": "platform", "shelter": "yes"}}, {"type": "way", "id": 708834735, "nodes": [6660772400, 6660772399, 6660767883, 6660772397, 6660772398, 6660767882, 6660772400], "tags": {"area": "yes", "bench": "yes", "bin": "yes", "public_transport": "platform", "shelter": "yes"}}, {"type": "way", "id": 708834736, "nodes": [6660772404, 6660772400, 6660767882, 6660772398, 6660772402, 1022809041, 6660772404], "tags": {"area": "yes", "bench": "yes", "bin": "yes", "public_transport": "platform", "shelter": "yes"}}, {"type": "way", "id": 729012935, "nodes": [6830040784, 6830071807, 6830040782, 6830040778, 6830040781, 6830040779, 6830040783, 6830040784], "tags": {"area": "yes", "public_transport": "platform"}}, {"type": "way", "id": 729012936, "nodes": [6830071798, 6830071796, 6657860048, 6830071795, 6830071797, 6830071798], "tags": {"area": "yes", "bench": "yes", "bin": "yes", "public_transport": "platform", "shelter": "yes"}}, {"type": "way", "id": 729012940, "nodes": [6830071818, 6657500387, 6830071816, 6830071815, 6830071820, 6830071817, 6830071818], "tags": {"area": "yes", "bench": "yes", "public_transport": "platform", "shelter": "yes"}}, {"type": "way", "id": 729012942, "nodes": [6830071834, 6830071832, 6830071838, 6830071831, 6830071837, 6830071833, 6830071834], "tags": {"area": "yes", "public_transport": "platform"}}, {"type": "way", "id": 730680752, "nodes": [6844027043, 6844027039, 6844027041, 6844027040, 6844027038, 6844027042, 6844027043], "tags": {"public_transport": "platform", "shelter": "yes"}}]}