{"version": 0.6, "generator": "Overpass API 0.7.62.8 e802775f", "osm3s": {"timestamp_osm_base": "2026-01-13T03:53:26Z", "copyright": "The data included in this document is from www.openstreetmap.org. The data is made available under ODbL."}, "elements": [{"type": "node", "id": 1595794961, "lat": 17.3505362, "lon": 78.5563819}, {"type": "node", "id": 1595794963, "lat": 17.3525433, "lon": 78.5562478}, {"type": "node", "id": 1595794965, "lat": 17.3523795, "lon": 78.5560708}, {"type": "node", "id": 1595794967, "lat": 17.3524921, "lon": 78.5557114}, {"type": "node", "id": 1595794973, "lat": 17.3518316, "lon": 78.5572832}, {"type": "node", "id": 1595794974, "lat": 17.3514425, "lon": 78.5550623}, {"type": "node", "id": 2217950153, "lat": 17.3594287, "lon": 78.5450683, "tags": {"addr:city": "Hyderabad", "addr:full": "H.No: 11-13-201/33, ROAD NO. 4, KOTHAPET, DILSUKHNAGAR, BESIDE CMR SHOPPING MALL, OPPOSITE WHITE HOUSE", "addr:postcode": "500065", "addr:state": "Telangana", "amenity": "hospital", "contact:phone": "4030108108", "name": "OZONE HOSPITALS", "operator:type": "private", "source": "OpenGovernmentData"}}, {"type": "node", "id": 2593895374, "lat": 17.4011535, "lon": 78.5707964}, {"type": "node", "id": 2593895376, "lat": 17.4010382, "lon": 78.5707944}, {"type": "node", "id": 2593895378, "lat": 17.4010369, "lon": 78.5708786}, {"type": "node", "id": 2593895380, "lat": 17.4011522, "lon": 78.5708806}, {"type": "node", "id": 2593908683, "lat": 17.4058981, "lon": 78.5913809}, {"type": "node", "id": 2593908685, "lat": 17.40581, "lon": 78.5914073}, {"type": "node", "id": 2593908687, "lat": 17.4058377, "lon": 78.5915092}, {"type": "node", "id": 2593908689, "lat": 17.4059258, "lon": 78.5914829}, {"type": "node", "id": 3200948738, "lat": 17.345698, "lon": 78.549763, "tags": {"amenity": "hospital", "healthcare": "hospital", "name": "Healthcare Hospitals"}}, {"type": "node", "id": 3384203436, "lat": 17.3526774, "lon": 78.5542584, "tags": {"amenity": "hospital", "name": "hospital"}}, {"type": "node", "id": 3625132960, "lat": 17.355383, "lon": 78.5659429}, {"type": "node", "id": 3625132964, "lat": 17.3553978, "lon": 78.5658441}, {"type": "node", "id": 3625132977, "lat": 17.3554645, "lon": 78.565855}, {"type": "node", "id": 3625132980, "lat": 17.3554733, "lon": 78.5657964}, {"type": "node", "id": 3625132992, "lat": 17.3555354, "lon": 78.565983}, {"type": "node", "id": 3625133193, "lat": 17.3555376, "lon": 78.5659682}, {"type": "node", "id": 3625133214, "lat": 17.3556445, "lon": 78.5660009}, {"type": "node", "id": 3625133218, "lat": 17.3556702, "lon": 78.5658288}, {"type": "node", "id": 4517094891, "lat": 17.3451071, "lon": 78.5537805, "tags": {"addr:district": "Hyderabad", "addr:full": "3-8-264&264/1&3, Opp VIJAYA LAXMI THEATRE, CHANDRAPURI COLONY, L.B NAGAR", "addr:postcode": "500074", "addr:state": "Telangana", "addr:street": "LB Nagar Junction", "amenity": "hospital", "emergency_telephone_code": "9966108108", "fax": "040 24114111", "health_facility:type": "ICU;Operation Theatres;Nuclear Medicine;Radiology;Pathology;Ambulance Service;Emergency Service", "healthcare": "hospital", "healthcare:speciality": "Cardiology;Neurology;Orthopedics;Gastroenterology;Hematology;Hematology;Joint Replacement;NeuroSurgery;ENT;Nephrology;Endocrinology;Cancer;Urology", "medical_system": "Allopathic", "name": "Shresta Orange Hospitals", "name:en": "Shresta Orange Hospitals", "name:te": "\u0c36\u0c4d\u0c30\u0c47\u0c37\u0c4d\u0c1f \u0c06\u0c30\u0c46\u0c02\u0c1c\u0c4d \u0c39\u0c3e\u0c38\u0c4d\u0c2a\u0c3f\u0c1f\u0c32\u0c4d\u0c38\u0c4d", "operator:type": "private", "phone": "040 24113111", "source": "OpenGovernmentData", "website": "http://orangehospitals.net"}}, {"type": "node", "id": 5538998266, "lat": 17.4027495, "lon": 78.5826543, "tags": {"addr:district": "Hyderabad", "addr:full": "Plot No 2&3,Beside Axis Bank, Peerzadiguda,Near Uppal.", "addr:postcode": "500039", "addr:state": "Telangana", "amenity": "hospital", "email": "info@sparkhospitals.com", "fax": "040 27206622", "name": "Spark Hospitals", "phone": "040-27206777/621", "source": "OpenGovernmentData", "website": "www.sparkhospitals.com"}}, {"type": "node", "id": 5539039096, "lat": 17.405751, "lon": 78.5871698, "tags": {"addr:district": "Hyderabad", "addr:full": "P. No. 6, H. No. 3-13/2, Mallikarjuna Nagar, Opposite Uppal Bus Depot, Peerzadiguda, Ghatkesar Mdl", "addr:postcode": "500092", "addr:state": "Telangana", "amenity": "hospital", "name": "Surya Hospital, Hyderabad", "source": "OpenGovernmentData"}}, {"type": "node", "id": 5608402071, "lat": 17.4080743, "lon": 78.5988119, "tags": {"addr:city": "Hyderabad", "addr:full": "Plot No: 50 & 51, MEDIPALLY, WARANGAL HIGHWAY, UPPAL", "addr:postcode": "500098", "addr:state": "Telangana", "amenity": "hospital", "contact:phone": "9100926436; 04027215252; 27209901", "name": "APEX HOSPITAL", "operator": "Private", "source": "OpenGovernmentData"}}, {"type": "node", "id": 5763499578, "lat": 17.4124431, "lon": 78.5839032}, {"type": "node", "id": 5763499579, "lat": 17.4123356, "lon": 78.5839002}, {"type": "node", "id": 5763499580, "lat": 17.4123381, "lon": 78.5838019}, {"type": "node", "id": 5763499581, "lat": 17.4124456, "lon": 78.583805}, {"type": "node", "id": 6477150039, "lat": 17.3767587, "lon": 78.5583415}, {"type": "node", "id": 6477150040, "lat": 17.3767732, "lon": 78.5581735}, {"type": "node", "id": 6477150041, "lat": 17.3767476, "lon": 78.5584698}, {"type": "node", "id": 6477150042, "lat": 17.3769249, "lon": 78.5584866}, {"type": "node", "id": 6477150043, "lat": 17.3769505, "lon": 78.5581902}, {"type": "node", "id": 6482035085, "lat": 17.3525175, "lon": 78.5551161, "tags": {"addr:district": "Hyderabad", "addr:full": "3-11-142/N, DVN Complex, Opposite to Kamineni Hospital, RTC Colony, LB Nagar", "addr:postcode": "500074", "addr:state": "Telangana", "amenity": "hospital", "medical_system": "Allopathic", "name": "Disha Children's Hospital", "operator:type": "private", "phone": "040 24038488", "source": "OpenGovernmentData", "website": "http://dishachildrenshospital.blogspot.in/"}}, {"type": "node", "id": 6485458540, "lat": 17.4017218, "lon": 78.5756557, "tags": {"addr:district": "Hyderabad", "addr:full": "Survey Number 93/2 and 125, Opposite Bharath Petrol Pump, Warangal Highway Mainroad, Shanthi Nagar, Uppal", "addr:postcode": "500039", "addr:state": "Telangana", "amenity": "hospital", "email": "uppal@adityahospital.com", "fax": "040 33855644", "health_facility:type": "Clinical Services;Diagnostic Services;Laboratory Services and Transfusion Services;Pharmacy;Ambulance Services;Dietetics;Physiotherapy;Laboratory Service", "healthcare:speciality": "Cardiology;Nephrology;Orthopaedics;Internal Medicine;Critical Care;Radiology;General Medicine;Gastroenterology;Endocrinalogy;Dermatology;Pulmonology;Pediatrics", "medical_system": "Allopathic", "name": "Aditya Hospital, Uppal", "operator:type": "private", "phone": "040 33855555", "source": "OpenGovernmentData", "website": "https://www.adityahospital.com/"}}, {"type": "node", "id": 6486957243, "lat": 17.4028902, "lon": 78.5828997, "tags": {"addr:district": "Hyderabad", "addr:full": "Beside ICICI Bank, Main Road, Peerzadiguda, Boduppal", "addr:state": "Telangana", "amenity": "hospital", "contact:mobile": "9849554545", "email": "boduppal@ankurahospital.com", "medical_system": "Allopathic", "name": "Ankura Hospital, Boduppal", "operator:type": "private", "phone": "040 49799999", "source": "OpenGovernmentData", "website": "https://www.ankurahospital.com/"}}, {"type": "node", "id": 6487102159, "lat": 17.3760514, "lon": 78.5569091, "tags": {"addr:district": "Hyderabad", "addr:full": "Plot No. 21, Nagole", "addr:postcode": "500035", "addr:state": "Telangana", "amenity": "hospital", "fax": "24221935", "name": "SRI LAXMI MULTI SPECIALITY HOSPITAL, LAPROSCOPIC AND RESEARCH CENTRE", "source": "OpenGovernmentData"}}, {"type": "node", "id": 6487777184, "lat": 17.3771559, "lon": 78.557005, "tags": {"addr:district": "Hyderabad", "addr:full": "Plot No. 65, Near Bank of Baroda, Nagole Cross Road", "addr:postcode": "500035", "addr:state": "Telangana", "amenity": "hospital", "fax": "040 24051203", "name": "Bhavya Hospital", "source": "OpenGovernmentData"}}, {"type": "node", "id": 6488483046, "lat": 17.3973433, "lon": 78.5603427, "tags": {"addr:district": "Hyderabad", "addr:full": "Adjacent to Raj Lakshmi Theatre, Rajnagar Colony, Uppal 'X' Roads", "addr:postcode": "500039", "addr:state": "Telangana", "amenity": "hospital", "name": "Krishna Multi Speciality Hospital", "source": "OpenGovernmentData"}}, {"type": "node", "id": 6489835094, "lat": 17.401288, "lon": 78.5648384, "tags": {"addr:district": "Hyderabad", "addr:full": "Near Gandhi Statue, Uppal Main Road", "addr:postcode": "500039", "addr:state": "Telangana", "amenity": "hospital", "name": "Sathya Hospital", "source": "OpenGovernmentData"}}, {"type": "node", "id": 6490864509, "lat": 17.3646867, "lon": 78.5441633, "tags": {"addr:district": "Hyderabad", "addr:full": "1-13-1383, Road No. 1, Margadarsi Colony, R.K. Puram", "addr:postcode": "500035", "addr:state": "Telangana", "amenity": "hospital", "fixme": "Please verify the accurate position of the hospital as I have mapped the facility based on the address provided in Open Government data", "name": "Sri Srinivasa Nursing Home", "source": "OpenGovernmentData"}}, {"type": "node", "id": 6491342836, "lat": 17.410791, "lon": 78.5434699, "tags": {"addr:district": "Hyderabad", "addr:full": "4-96/2, Street No. 8, Sneha Nagar Colony, Habsiguda", "addr:postcode": "500007", "addr:state": "Telangana", "amenity": "hospital", "fax": "040 27154758", "name": "Rajagiri Hospitals", "source": "OpenGovernmentData"}}, {"type": "node", "id": 6494458034, "lat": 17.3608928, "lon": 78.5432218, "tags": {"addr:district": "Hyderabad", "addr:full": "Plot No. V\u20137, NH 9, Narsimhapuri Colony, Kothapet, Saroornagar", "addr:postcode": "500035", "addr:state": "Telangana", "amenity": "hospital", "contact:mobile": "09248019460;08897161525", "fax": "040 24039017", "health_facility:type": "Information Desk;OPD Counter;24x7 Laboratory;Spiral CT Scan;Diagnostic Services;Radiology;Laboratory Services and Transfusion Services;Physiotherapy;Dietery;Housekeeping;Pharmacy", "healthcare:speciality": "multi specility", "medical_system": "Allopathic", "name": "Sai Sanjeevini Hospital", "operator:type": "private", "phone": "040 24039012;040 24039013;040 24039014;040 24039015;040 24039016", "source": "OpenGovernmentData", "website": "www.saisanjeevinihospitals.com"}}, {"type": "node", "id": 6496578004, "lat": 17.4171112, "lon": 78.5440868, "tags": {"addr:district": "Hyderabad", "addr:full": "7-102/7, Sandhya Enclave, 1st Floor, Habsiguda", "addr:postcode": "500007", "addr:state": "Telangana", "amenity": "hospital", "fax": "040 27177618", "name": "Neo Vision Eye Care and Laser Center", "phone": "040-40122177", "source": "OpenGovernmentData", "website": "https://neovisioneyecare.in/"}}, {"type": "node", "id": 6496940849, "lat": 17.4348983, "lon": 78.5429897, "tags": {"addr:district": "Hyderabad", "addr:full": "Lalapet,Tarnaka", "addr:postcode": "500017", "addr:state": "Telangana", "amenity": "hospital", "name": "Manjary Multispeciality Hospital", "source": "OpenGovernmentData"}}, {"type": "node", "id": 6497354554, "lat": 17.4097647, "lon": 78.5441056, "tags": {"addr:district": "Hyderabad", "addr:full": "8-12-65, Street No 8, Habsiguda", "addr:postcode": "500007", "addr:state": "Telangana", "amenity": "hospital", "name": "Siris Hospital", "source": "OpenGovernmentData"}}, {"type": "node", "id": 6503660417, "lat": 17.4002489, "lon": 78.5665409, "tags": {"addr:district": "Hyderabad", "addr:full": "Vijayapuri Colony, Uppal", "addr:postcode": "500039", "addr:state": "Telangana", "amenity": "hospital", "healthcare": "hospital", "healthcare:speciality": "paediatrics", "name": "Ammaji Childrens Hospital", "source": "OpenGovernmentData"}}, {"type": "node", "id": 6503794648, "lat": 17.3453352, "lon": 78.5492826, "tags": {"addr:district": "Hyderabad", "addr:full": "3-2-394, Near LB Nagar Circle, Towards Sagar Ring Road, L B Nagar", "addr:postcode": "500074", "addr:state": "Telangana", "amenity": "hospital", "healthcare": "hospital", "name": "Health Care Hospitals", "source": "OpenGovernmentData"}}, {"type": "node", "id": 6505167632, "lat": 17.4004716, "lon": 78.5666549, "tags": {"addr:city": "Hyderabad", "addr:district": "Hyderabad", "addr:full": "Uppal Main Road", "addr:postcode": "500039", "addr:state": "Telangana", "amenity": "hospital", "healthcare": "hospital", "name": "Shiva Sai Hospital", "source": "OpenGovernmentData"}}, {"type": "node", "id": 6510205415, "lat": 17.3676268, "lon": 78.5508728, "tags": {"addr:district": "Hyderabad", "addr:full": "Road No. 5, Ramakrishnapuram, Kothapet", "addr:postcode": "500035", "addr:state": "Telangana", "amenity": "hospital", "name": "Hyma Children's Hospital", "source": "OpenGovernmentData"}}, {"type": "node", "id": 6518192361, "lat": 17.4183783, "lon": 78.5835349, "tags": {"addr:city": "Hyderabad", "addr:postcode": "500092", "addr:street": "West Hanuman Nagar", "amenity": "hospital", "emergency": "yes", "healthcare": "hospital", "healthcare:speciality": "general", "name": "RBM Multi-Speciality Hospital"}}, {"type": "node", "id": 6518297217, "lat": 17.4090144, "lon": 78.5864131, "tags": {"addr:city": "Hyderabad", "addr:postcode": "500092", "addr:street": "Mallikarjuna Nagar, Boduppal", "amenity": "hospital", "healthcare": "hospital", "healthcare:speciality": "paediatrics", "name": "AVI Clinic", "operator": "Dr Suman"}}, {"type": "node", "id": 6518592570, "lat": 17.4124176, "lon": 78.5838042}, {"type": "node", "id": 6518592571, "lat": 17.4124076, "lon": 78.5838039}, {"type": "node", "id": 6527839627, "lat": 17.4150148, "lon": 78.5452451, "tags": {"addr:district": "Hyderabad", "addr:full": "Street No. 7, Near TVS Show Room and Habsiguda Metro station, Habsiguda", "addr:postcode": "500007", "addr:state": "Telangana", "amenity": "hospital", "name": "Dr.Padmaja Fertility Centre and Nursing Home", "source": "OpenGovernmentData"}}, {"type": "node", "id": 6528604456, "lat": 17.3617057, "lon": 78.5620603, "tags": {"addr:district": "Hyderabad", "addr:full": "Plot No. 60-61, Rock Town Colony, L.B Nagar", "addr:postcode": "500068", "addr:state": "Telangana", "amenity": "hospital", "name": "Sri Sai Balaji Hospital", "source": "OpenGovernmentData"}}, {"type": "node", "id": 6528608362, "lat": 17.4227606, "lon": 78.5469769, "tags": {"addr:district": "Hyderabad", "addr:full": "Plot No. 7-44, Bapuji Nagar, Nacharam", "addr:postcode": "500076", "addr:state": "Telangana", "amenity": "hospital", "name": "Bapuji Maternity and Nursing Home", "source": "OpenGovernmentData"}}, {"type": "node", "id": 6531352585, "lat": 17.4273708, "lon": 78.5517687, "tags": {"addr:district": "Hyderabad", "addr:full": "Near St. Peter's School, Raghavendra Nagar, Nacharam", "addr:postcode": "500076", "addr:state": "Telangana", "amenity": "hospital", "healthcare": "hospital", "healthcare:speciality": "general", "name": "Chandamama Hospital", "operator": "xyz", "operator:type": "private", "source": "OpenGovernmentData;local knowledge"}}, {"type": "node", "id": 6537199550, "lat": 17.3597254, "lon": 78.5448767, "tags": {"addr:district": "Hyderabad", "addr:full": "Beside Karachi Bakery, Green Hills Colony, Kothapet Main Road", "addr:postcode": "500035", "addr:state": "Telangana", "amenity": "hospital", "contact:phone": "040 40 108 108", "fax": "040 24050239", "name": "Paramitha Children's Hospital", "source": "OpenGovernmentData"}}, {"type": "node", "id": 6548833978, "lat": 17.3658656, "lon": 78.5522434, "tags": {"addr:full": "H.No: 11-13-123/1, Plot No: 14, NEAR SAI BABA TEMPLE, ALKAPURI SAROORNAGAR MANDAL", "addr:postcode": "500035", "addr:state": "Telangana", "amenity": "hospital", "contact:phone": "74610 94932", "email": "contact@avanieyehospital.com", "name": "AVANI LASER EYE HOSPITAL", "operator:type": "private", "source": "OpenGovernmentData", "website": "https://www.avanieyehospital.com/"}}, {"type": "node", "id": 6548846382, "lat": 17.3739165, "lon": 78.5521227, "tags": {"addr:city": "Hyderabad", "addr:full": "Road No.1, Beside Swathi Nivas Apt., Opp Heritage Fresh, New Nagole, Mohan Nagar", "addr:postcode": "500035", "addr:state": "Telangana", "amenity": "hospital", "contact:phone": "9849184513", "name": "SANJEEVANI HOSPITAL", "operator:type": "private", "source": "OpenGovernmentData"}}, {"type": "node", "id": 6548918441, "lat": 17.3623879, "lon": 78.5570419, "tags": {"addr:city": "Hyderabad", "addr:full": "Yadav Nagar Colony, Opp. Swagath Grand Hotel, Alkapuri 'X' Roads", "addr:postcode": "500035", "addr:state": "Telangana", "amenity": "hospital", "contact:phone": "040-2403-6663/7773/8883", "email": "contact@nakshatrahospitals.com", "healthcare": "hospital", "name": "Nakshatra Hospitals", "operator:type": "private", "source": "OpenGovernmentData", "website": "https://www.nakshatrahospitals.com/"}}, {"type": "node", "id": 6549292101, "lat": 17.3482504, "lon": 78.5520463, "tags": {"addr:district": "Hyderabad", "addr:full": "3-3-273, LB Nagar - Uppal Rd, Kamala Nagar, Suvidha Arcade, RTC Colony, LB Nagar", "addr:postcode": "500074", "addr:state": "Telangana", "amenity": "hospital", "contact:phone": "040 24031111;040 24031122", "name": "SHINE CHILDREN'S HOSPITAL", "operator:type": "private", "source": "OpenGovernmentData", "wheelchair": "yes"}}, {"type": "node", "id": 6549298910, "lat": 17.3542853, "lon": 78.5470426, "tags": {"addr:district": "Hyderabad", "addr:full": "Plot No: 1, CHITRA LAYOUT, BESIDE Rangareddy Court, L.B NAGAR", "addr:postcode": "500074", "addr:state": "Telangana", "amenity": "hospital", "contact:mobile": "8121033233", "contact:phone": "4024033233", "name": "DR RAJASHEKAR REDDY LAPAROSCOPY HOSPITAL", "operator:type": "private", "source": "OpenGovernmentData"}}, {"type": "node", "id": 6549341748, "lat": 17.4230318, "lon": 78.5470144, "tags": {"addr:city": "Hyderabad", "addr:full": "1-29, NACHARAM MALLAPUR ROAD, HMT NAGAR, TARNAKA", "addr:postcode": "500076", "addr:state": "Telangana", "amenity": "hospital", "contact:phone": "040 40121000", "name": "SHREE POOJA HOSPITAL", "operator:type": "private", "source": "OpenGovernmentData"}}, {"type": "node", "id": 6549439100, "lat": 17.3960244, "lon": 78.559704, "tags": {"addr:city": "Hyderabad", "addr:full": "H.No: 1-30/F, Saraswathi Colony, Near Rajlakshmi Theatre, Beside Uppal Ring Road, Uppal", "addr:postcode": "500039", "addr:state": "Telangana", "amenity": "hospital", "contact:phone": "04027202741 ; 04027202742", "healthcare": "hospital", "name": "SUMITHRA HOSPITALS", "operator:type": "private", "source": "OpenGovernmentData"}}, {"type": "node", "id": 6563028513, "lat": 17.3678054, "lon": 78.5496034, "tags": {"addr:district": "Hyderabad", "addr:full": "Road No.3, Near S.R.K Puram Bus Stop, Rangareddy", "addr:postcode": "500035", "addr:state": "Telangana", "amenity": "hospital", "name": "Susheela Hospital - R.K Puram", "source": "OpenGovernmentData"}}, {"type": "node", "id": 6632844432, "lat": 17.4189151, "lon": 78.5654264, "tags": {"amenity": "hospital", "healthcare": "hospital", "healthcare:speciality": "laparascopic_surgery", "name": "Satya Multi Speciality Hospital", "phone": "+91 7093088502;+91 9030911252"}}, {"type": "node", "id": 6811749054, "lat": 17.417667, "lon": 78.632292, "tags": {"addr:district": "Medchal Malkajgiri", "addr:full": "Korremula Cross Road, Narepally, Hyderabad", "addr:postcode": "501301", "addr:state": "Telangana", "amenity": "hospital", "name": "Vajra Hospitals", "source": "OpenGovernmentData"}}, {"type": "node", "id": 6811749148, "lat": 17.4028303, "lon": 78.5741446, "tags": {"addr:district": "Hyderabad", "addr:full": "Opp. Aditya Hospital, Beside Petrol Bunk Lane , Uppal", "addr:state": "Telangana", "amenity": "hospital", "contact:mobile": "9246542348", "contact:phone": "040 64552348", "name": "Lakshmi Priya Nursing", "source": "OpenGovernmentData"}}, {"type": "node", "id": 6811749151, "lat": 17.4023438, "lon": 78.5670163, "tags": {"addr:district": "Medchal Malkajgiri", "addr:full": "2-6-71/A, Bharath Nagar Colony, Near Masjid, Uppal", "addr:postcode": "500039", "addr:state": "Telangana", "amenity": "hospital", "name": "SKIMS Hospital", "source": "OpenGovernmentData"}}, {"type": "node", "id": 6868572410, "lat": 17.4234633, "lon": 78.5478069, "tags": {"addr:city": "Hyderabad", "addr:street": "HMT colony", "amenity": "hospital", "healthcare": "hospital", "healthcare:speciality": "general;gynaecology;surgery", "name": "Durga prasad"}}, {"type": "node", "id": 6934778614, "lat": 17.3745451, "lon": 78.5455972, "tags": {"amenity": "hospital", "healthcare": "hospital"}}, {"type": "node", "id": 6935636792, "lat": 17.4324216, "lon": 78.5525978}, {"type": "node", "id": 8745836201, "lat": 17.3614317, "lon": 78.5539533, "tags": {"addr:district": "Rangareddy", "addr:full": "Haripuri Colony, Bharat Nagar, Bahadurguda", "addr:postcode": "500074", "addr:state": "Telangana", "amenity": "hospital", "name": "Kamineni Hospital", "source": "Local Knowledge"}}, {"type": "node", "id": 8759230773, "lat": 17.4012471, "lon": 78.5636616, "tags": {"addr:district": "Hyderabad", "addr:full": "Vijayapuri Colony, Uppal, Hyderabad", "addr:postcode": "500039", "addr:state": "Telangana", "amenity": "hospital", "name": "Tapadia Diagnostics Centre", "source": "Local Knowledge"}}, {"type": "node", "id": 8759335242, "lat": 17.3632288, "lon": 78.5449317, "tags": {"addr:district": "Hyderabad", "addr:full": "H.No: 11-13-1161, Kothapet, Hyderabad", "addr:postcode": "500035", "addr:state": "Telangana", "amenity": "hospital", "name": "Vasavi Hospital", "source": "Local Knowledge"}}, {"type": "node", "id": 8760959031, "lat": 17.4058368, "lon": 78.5875386, "tags": {"addr:district": "Medchal", "addr:full": "H-NO, 3-13/3, Mallikarjuna Nagar Colony,Boduppal, Hyderabad", "addr:postcode": "500092", "addr:state": "Telangana", "amenity": "hospital", "name": "Save Hospitals", "source": "Local Knowledge"}}, {"type": "node", "id": 8761004351, "lat": 17.3582035, "lon": 78.5444422, "tags": {"addr:district": "Medchal", "addr:full": "Green Hills Colony,Kothapet, Doctors Colony Main Rd, Bahadurguda", "addr:postcode": "500074", "addr:state": "Telangana", "amenity": "hospital", "name": "Paramitha Children's Hospital", "source": "Local Knowledge"}}, {"type": "node", "id": 8763259938, "lat": 17.3931001, "lon": 78.5575394, "tags": {"addr:district": "Medchal", "addr:full": "Opposite Metro Rail Pillar No. NUP-9, Survey Colony, Industrial Development Area, Uppal, Hyderabad", "addr:postcode": "500039", "addr:state": "Telangana", "amenity": "hospital", "name": "Centre for DNA Fingerprinting and Diagnostics", "source": "Local Knowledge"}}, {"type": "node", "id": 8763598296, "lat": 17.4009873, "lon": 78.5794678, "tags": {"addr:district": "Medchal", "addr:full": "H.No.: 2-3-214/156/NR, beside kattamaisamma Temple, Hyderabad", "addr:postcode": "500039", "addr:state": "Telangana", "amenity": "hospital", "name": "Shree Healthcare Multi Specialty Hospital", "source": "Local Knowledge"}}, {"type": "node", "id": 9391261140, "lat": 17.4274216, "lon": 78.5517653, "tags": {"amenity": "hospital", "healthcare": "hospital"}}, {"type": "node", "id": 9527080374, "lat": 17.3532901, "lon": 78.5589741, "tags": {"amenity": "hospital", "healthcare": "hospital", "name": "kamineni"}}, {"type": "node", "id": 9870554869, "lat": 17.4113015, "lon": 78.5859926, "tags": {"amenity": "hospital", "healthcare": "hospital", "name": "Vijaya Diagnostics Center"}}, {"type": "node", "id": 12289411655, "lat": 17.3667392, "lon": 78.5811285, "tags": {"addr:city": "Hyderabad", "addr:country": "IN", "addr:district": "k.v.rangareddy", "addr:housenumber": "H.No. 12-1-468/2P/2F, 2nd floor", "addr:postcode": "500068", "addr:street": "beside ace ajanta apartments, bandlaguda, nagole", "amenity": "hospital", "email": "info@swasthyadental.in", "healthcare": "hospital", "healthcare:speciality": "dentist;dental_oral_maxillo_facial_surgery", "mobile": "+919676814469", "name": "Swasthya Dental Clinic", "operator": "Dr Ramya Surapaneni", "operator:type": "private", "payment:cash": "yes", "payment:credit_cards": "yes", "payment:debit_cards": "yes", "payment:wallets": "yes", "website": "https://swasthyadental.in", "wheelchair": "yes"}}, {"type": "node", "id": 12890299914, "lat": 17.4319353, "lon": 78.5522966}, {"type": "node", "id": 12890299915, "lat": 17.4314769, "lon": 78.5531095}, {"type": "node", "id": 12890299916, "lat": 17.4319634, "lon": 78.5534108}, {"type": "node", "id": 13181481501, "lat": 17.363751, "lon": 78.585004, "tags": {"amenity": "hospital", "name": "CGHS Bandlaguda"}}, {"type": "node", "id": 13337356007, "lat": 17.349695, "lon": 78.5483858, "tags": {"amenity": "hospital", "healthcare": "hospital", "name": "Medicare Hospitals"}}, {"type": "way", "id": 146312947, "nodes": [1595794974, 1595794961, 1595794973, 1595794963, 1595794965, 1595794967, 1595794974], "tags": {"addr:district": "Hyderabad", "addr:full": "Kamineni, L.B Nagar", "addr:housenumber": "10", "addr:postcode": "500068", "addr:state": "Telangana", "amenity": "hospital", "email": "ms.khl@kaminenihospitals.com", "emergency": "yes", "emergency_telephone_code": "040 66002200;040 24022222", "fax": "040 2402 2277", "healthcare:speciality": "multi specialty", "medical_system": "Allopathic", "name": "Kamineni Hospital", "opening_hours": "24/7", "operator:type": "private", "phone": "040 39879999", "source": "OpenGovernmentData", "website": "https://www.kaminenihospitals.com/"}}, {"type": "way", "id": 253465843, "nodes": [2593895374, 2593895376, 2593895378, 2593895380, 2593895374], "tags": {"addr:district": "Hyderabad", "addr:full": "Opposite Vegetable Market, Uppal Main Road", "addr:postcode": "500039", "addr:state": "Telangana", "amenity": "hospital", "building": "yes", "name": "Shreeda Children's Hospital", "source": "OpenGovernmentData"}}, {"type": "way", "id": 253467402, "nodes": [2593908683, 2593908685, 2593908687, 2593908689, 2593908683], "tags": {"addr:district": "Hyderabad", "addr:full": "H.No-9-1/3, Sri Ram Nagar Colony,Peerjadiguda (Village),Gatkeswar(Mandal)", "addr:postcode": "500039", "addr:state": "Telangana", "amenity": "hospital", "building": "yes", "emergency": "yes", "name": "Anitha Nursing Home", "source": "OpenGovernmentData"}}, {"type": "way", "id": 357179813, "nodes": [3625133218, 3625133214, 3625132992, 3625133193, 3625132960, 3625132964, 3625132977, 3625132980, 3625133218], "tags": {"amenity": "hospital", "healthcare": "hospital", "name": "Urban health centre"}}, {"type": "way", "id": 608308376, "nodes": [5763499581, 5763499578, 5763499579, 5763499580, 6518592571, 6518592570, 5763499581], "tags": {"addr:city": "Hyderabad", "addr:postcode": "500092", "addr:street": "Boduppal", "amenity": "hospital", "building:levels": "1", "emergency": "no", "healthcare": "hospital", "name": "Primary Healthcare Center", "operator": "Government"}}, {"type": "way", "id": 690384774, "nodes": [6477150043, 6477150042, 6477150041, 6477150039, 6477150040, 6477150043], "tags": {"addr:district": "Hyderabad", "addr:full": "Nagole 'X' Road", "addr:state": "Telangana", "amenity": "hospital", "building": "yes", "fax": "040 30979798", "healthcare:speciality": "Meditrina;Orthopedics;ENT;Spine;Neurology;Cancer Care", "medical_system": "Allopathic", "name": "Supraja Hospital", "operator:type": "private", "phone": "040 30979797", "source": "OpenGovernmentData"}}, {"type": "way", "id": 1392514385, "nodes": [6935636792, 12890299914, 12890299915, 12890299916, 6935636792], "tags": {"addr:city": "Hyderabad", "addr:postcode": "500076", "addr:street": "Nacharam", "amenity": "hospital", "emergency": "yes", "healthcare": "hospital", "name": "ESI Hospital", "operator": "Employees' State Insurance", "operator:short": "ESI", "operator:type": "private", "operator:wikidata": "Q3595726"}}]}