{"version": 0.6, "generator": "Overpass API 0.7.62.8 e802775f", "osm3s": {"timestamp_osm_base": "2026-01-15T21:23:44Z", "copyright": "The data included in this document is from www.openstreetmap.org. The data is made available under ODbL."}, "elements": [{"type": "node", "id": 269300103, "lat": 50.3729849, "lon": 4.4675236, "tags": {"bench": "yes", "bin": "no", "bus": "yes", "highway": "bus_stop", "name": "Loverval Notre-Dame", "network": "TECC;TECN", "network:wikidata": "Q3512073;Q3512080", "operator": "TEC", "operator:wikidata": "Q366922", "public_transport": "platform", "ref:TECC": "Clvndam2", "route_ref:TECC": "19", "route_ref:TECN": "451", "shelter": "yes", "tactile_paving": "no", "zone:TEC": "7102"}}, {"type": "node", "id": 269300106, "lat": 50.367936, "lon": 4.468609, "tags": {"bench": "yes", "bin": "no", "bus": "yes", "highway": "bus_stop", "name": "Loverval M\u00e9sanges", "network": "TECC;TECN", "network:wikidata": "Q3512073;Q3512080", "operator": "TEC", "operator:wikidata": "Q366922", "public_transport": "platform", "ref:TECC": "Clvmesa2", "route_ref:TECC": "19", "route_ref:TECN": "451", "shelter": "yes", "tactile_paving": "no", "zone:TEC": "7102"}}, {"type": "node", "id": 269300115, "lat": 50.3468365, "lon": 4.4727181, "tags": {"bench": "no", "bin": "no", "bus": "yes", "highway": "bus_stop", "lit": "no", "name": "Gerpinnes La clairi\u00e8re", "network": "TECN", "network:wikidata": "Q3512080", "operator": "TEC", "operator:wikidata": "Q366922", "public_transport": "platform", "ref:TECN": "NC14aea", "route_ref:TECN": "451", "shelter": "yes", "tactile_paving": "no", "zone:TEC": "7114"}}, {"type": "node", "id": 269300120, "lat": 50.3419603, "lon": 4.4734153, "tags": {"bus": "yes", "highway": "bus_stop", "name": "Nalinnes Bultia", "network": "TECC;TECN", "network:wikidata": "Q3512073;Q3512080", "operator": "TEC", "operator:wikidata": "Q366922", "public_transport": "platform", "ref:TECC": "Cnabult4", "route_ref:TECC": "19", "route_ref:TECN": "451", "zone:TEC": "7114"}}, {"type": "node", "id": 1936563981, "lat": 50.372985, "lon": 4.467203, "tags": {"bus": "yes", "highway": "bus_stop", "name": "Loverval Notre-Dame", "network": "TECC;TECN", "network:wikidata": "Q3512073;Q3512080", "operator": "TEC", "operator:wikidata": "Q366922", "public_transport": "platform", "ref:TECC": "Clvndam1", "route_ref:TECC": "19", "route_ref:TECN": "451", "zone:TEC": "7102"}}, {"type": "node", "id": 1936564036, "lat": 50.3754865, "lon": 4.4667206, "tags": {"bench": "no", "bin": "no", "bus": "yes", "highway": "bus_stop", "lit": "no", "name": "Loverval Cheniat", "network": "TECC", "network:wikidata": "Q3512073", "operator": "TEC", "operator:wikidata": "Q366922", "public_transport": "platform", "ref:TECC": "Clvchen1", "route_ref:TECC": "19", "shelter": "no", "tactile_paving": "no", "zone:TEC": "7102"}}, {"type": "node", "id": 2271535213, "lat": 50.346084, "lon": 4.4726327, "tags": {"bench": "no", "bin": "no", "bus": "yes", "highway": "bus_stop", "name": "Gerpinnes La clairi\u00e8re", "network": "TECN", "network:wikidata": "Q3512080", "operator": "TEC", "operator:wikidata": "Q366922", "public_transport": "platform", "ref:TECN": "NC14aeb", "route_ref:TECN": "451", "shelter": "no", "tactile_paving": "no", "zone:TEC": "7114"}}, {"type": "node", "id": 3009816835, "lat": 50.3703629, "lon": 4.4987943, "tags": {"bus": "yes", "highway": "bus_stop", "name": "Bouffioulx Bois de Bouffioulx", "network": "TECN", "network:wikidata": "Q3512080", "operator": "TEC", "operator:wikidata": "Q366922", "public_transport": "platform", "ref:TECN": "NC02aba", "route_ref:TECN": "138b", "zone:TEC": "7102"}}, {"type": "node", "id": 3009816836, "lat": 50.3703717, "lon": 4.4987019, "tags": {"bus": "yes", "highway": "bus_stop", "name": "Bouffioulx Bois de Bouffioulx", "network": "TECN", "network:wikidata": "Q3512080", "operator": "TEC", "operator:wikidata": "Q366922", "public_transport": "platform", "ref:TECN": "NC02abb", "route_ref:TECN": "138b", "zone:TEC": "7102"}}, {"type": "node", "id": 3009816839, "lat": 50.3738099, "lon": 4.4944121, "tags": {"bus": "yes", "highway": "bus_stop", "name": "Bouffioulx Rue Longue", "network": "TECN", "network:wikidata": "Q3512080", "operator": "TEC", "operator:wikidata": "Q366922", "public_transport": "platform", "ref:TECN": "NC02aab", "route_ref:TECN": "138b", "zone:TEC": "7102"}}, {"type": "node", "id": 3009816840, "lat": 50.3743405, "lon": 4.4938938, "tags": {"bus": "yes", "highway": "bus_stop", "name": "Bouffioulx Rue Longue", "network": "TECN", "network:wikidata": "Q3512080", "operator": "TEC", "operator:wikidata": "Q366922", "public_transport": "platform", "ref:TECN": "NC02aaa", "route_ref:TECN": "138b", "zone:TEC": "7102"}}, {"type": "node", "id": 3009816841, "lat": 50.3747031, "lon": 4.4945364, "tags": {"bus": "yes", "highway": "bus_stop", "name": "Bouffioulx Rue Longue", "network": "TECC", "network:wikidata": "Q3512073", "operator": "TEC", "operator:wikidata": "Q366922", "public_transport": "platform", "ref:TECC": "Cbflong1", "route_ref:TECC": "14;20", "zone:TEC": "7102"}}, {"type": "node", "id": 3009816842, "lat": 50.3747525, "lon": 4.4944534, "tags": {"bus": "yes", "highway": "bus_stop", "name": "Bouffioulx Rue Longue", "network": "TECC", "network:wikidata": "Q3512073", "operator": "TEC", "operator:wikidata": "Q366922", "public_transport": "platform", "ref:TECC": "Cbflong2", "route_ref:TECC": "14;20", "zone:TEC": "7102"}}, {"type": "node", "id": 3009816889, "lat": 50.3602217, "lon": 4.4698542, "tags": {"bus": "yes", "highway": "bus_stop", "name": "Gerpinnes Chemin de la Ferr\u00e9e", "network": "TECN", "network:wikidata": "Q3512080", "operator": "TEC", "operator:wikidata": "Q366922", "public_transport": "platform", "ref:TECN": "NC02bbb", "route_ref:TECN": "451", "shelter": "no", "zone:TEC": "7102"}}, {"type": "node", "id": 3009816890, "lat": 50.3608208, "lon": 4.4692022, "tags": {"bus": "yes", "highway": "bus_stop", "name": "Gerpinnes Chemin de la Ferr\u00e9e", "network": "TECC", "network:wikidata": "Q3512073", "operator": "TEC", "operator:wikidata": "Q366922", "public_transport": "platform", "ref:TECC": "Cgrchfe2", "route_ref:TECC": "19", "zone:TEC": "7102"}}, {"type": "node", "id": 3009816892, "lat": 50.368463, "lon": 4.4677821, "tags": {"bus": "yes", "highway": "bus_stop", "name": "Loverval Charon", "network": "TECC", "network:wikidata": "Q3512073", "operator": "TEC", "operator:wikidata": "Q366922", "public_transport": "platform", "ref:TECC": "Clvchar2", "route_ref:TECC": "19", "zone:TEC": "7102"}}, {"type": "node", "id": 3009816898, "lat": 50.3709539, "lon": 4.4673832, "tags": {"bus": "yes", "highway": "bus_stop", "name": "Loverval Loverval", "network": "TECC", "network:wikidata": "Q3512073", "network:wikipedia": "fr:TEC Charleroi", "operator": "TEC", "operator:wikidata": "Q366922", "operator:wikipedia": "fr:Op\u00e9rateur de transport de Wallonie", "public_transport": "platform", "ref:TECC": "Clvlove1", "route_ref:TECC": "19", "zone:TEC": "7102"}}, {"type": "node", "id": 3009816900, "lat": 50.356515, "lon": 4.4647034, "tags": {"bus": "yes", "highway": "bus_stop", "name": "Loverval Relais d'Orl\u00e9ans", "network": "TECC", "network:wikidata": "Q3512073", "operator": "TEC", "operator:wikidata": "Q366922", "public_transport": "platform", "ref:TECC": "Clvorle2", "route_ref:TECC": "19", "zone:TEC": "7102"}}, {"type": "node", "id": 3009816901, "lat": 50.3566362, "lon": 4.4646982, "tags": {"bus": "yes", "highway": "bus_stop", "name": "Loverval Relais d'Orl\u00e9ans", "network": "TECC", "network:wikidata": "Q3512073", "operator": "TEC", "operator:wikidata": "Q366922", "public_transport": "platform", "ref:TECC": "Clvorle1", "route_ref:TECC": "19", "zone:TEC": "7102"}}, {"type": "node", "id": 3015470356, "lat": 50.3624376, "lon": 4.5138422, "tags": {"bus": "yes", "highway": "bus_stop", "name": "Lausprelle Centre", "network": "TECN", "network:wikidata": "Q3512080", "operator": "TEC", "operator:wikidata": "Q366922", "public_transport": "platform", "ref:TECN": "NC24aja", "route_ref:TECN": "138b", "zone:TEC": "7124"}}, {"type": "node", "id": 3015470357, "lat": 50.3625389, "lon": 4.5136578, "tags": {"bus": "yes", "highway": "bus_stop", "name": "Lausprelle Centre", "network": "TECN", "network:wikidata": "Q3512080", "operator": "TEC", "operator:wikidata": "Q366922", "public_transport": "platform", "ref:TECN": "NC24ajb", "route_ref:TECN": "138b", "zone:TEC": "7124"}}, {"type": "node", "id": 3015470358, "lat": 50.3665736, "lon": 4.5050576, "tags": {"bus": "yes", "highway": "bus_stop", "name": "Lausprelle Rue de Villers", "network": "TECN", "network:wikidata": "Q3512080", "operator": "TEC", "operator:wikidata": "Q366922", "public_transport": "platform", "ref:TECN": "NC24aib", "route_ref:TECN": "138b", "zone:TEC": "7124"}}, {"type": "node", "id": 3015470359, "lat": 50.3666285, "lon": 4.5050464, "tags": {"bus": "yes", "highway": "bus_stop", "name": "Lausprelle Rue de Villers", "network": "TECN", "network:wikidata": "Q3512080", "operator": "TEC", "operator:wikidata": "Q366922", "public_transport": "platform", "ref:TECN": "NC24aia", "route_ref:TECN": "138b", "zone:TEC": "7124"}}, {"type": "node", "id": 3015470360, "lat": 50.3584321, "lon": 4.5164326, "tags": {"bus": "yes", "highway": "bus_stop", "name": "Lausprelle Village", "network": "TECN", "network:wikidata": "Q3512080", "operator": "TEC", "operator:wikidata": "Q366922", "public_transport": "platform", "ref:TECN": "NC24akb", "route_ref:TECN": "138b", "zone:TEC": "7124"}}, {"type": "node", "id": 3015470361, "lat": 50.3595277, "lon": 4.5155034, "tags": {"bus": "yes", "highway": "bus_stop", "name": "Lausprelle Village", "network": "TECN", "network:wikidata": "Q3512080", "operator": "TEC", "operator:wikidata": "Q366922", "public_transport": "platform", "ref:TECN": "NC24aka", "route_ref:TECN": "138b", "zone:TEC": "7124"}}, {"type": "node", "id": 3017130290, "lat": 50.3755111, "lon": 4.5011923, "tags": {"bus": "yes", "highway": "bus_stop", "name": "Bouffioulx Saint-Ry", "network": "TECC", "network:wikidata": "Q3512073", "operator": "TEC", "operator:wikidata": "Q366922", "public_transport": "platform", "ref:TECC": "Cbfstry1", "route_ref:TECC": "14;20", "zone:TEC": "7111"}}, {"type": "node", "id": 3017130291, "lat": 50.3756318, "lon": 4.5015004, "tags": {"bus": "yes", "highway": "bus_stop", "name": "Bouffioulx Saint-Ry", "network": "TECC", "network:wikidata": "Q3512073", "operator": "TEC", "operator:wikidata": "Q366922", "public_transport": "platform", "ref:TECC": "Cbfstry2", "route_ref:TECC": "14;20", "zone:TEC": "7111"}}, {"type": "node", "id": 3017130470, "lat": 50.3442422, "lon": 4.48628, "tags": {"bus": "yes", "highway": "bus_stop", "name": "Gerpinnes Basse des pauvres", "network": "TECN", "network:wikidata": "Q3512080", "operator": "TEC", "operator:wikidata": "Q366922", "public_transport": "platform", "ref:TECN": "NC14aha", "route_ref:TECN": "137d;451", "zone:TEC": "7114"}}, {"type": "node", "id": 3017130471, "lat": 50.34465, "lon": 4.485945, "tags": {"bus": "yes", "highway": "bus_stop", "name": "Gerpinnes Basse des pauvres", "network": "TECN", "network:wikidata": "Q3512080", "operator": "TEC", "operator:wikidata": "Q366922", "public_transport": "platform", "ref:TECN": "NC14ahb", "route_ref:TECN": "137d", "zone:TEC": "7114"}}, {"type": "node", "id": 3017130474, "lat": 50.3435354, "lon": 4.4988121, "tags": {"bus": "yes", "highway": "bus_stop", "name": "Gerpinnes Ch\u00e2teau d'Eau", "network": "TECC", "network:wikidata": "Q3512073", "operator": "TEC", "operator:wikidata": "Q366922", "public_transport": "platform", "ref:TECC": "Cgrchea1", "route_ref:TECC": "20", "zone:TEC": "7114"}}, {"type": "node", "id": 3017130475, "lat": 50.3436766, "lon": 4.4988414, "tags": {"bus": "yes", "highway": "bus_stop", "name": "Gerpinnes Ch\u00e2teau d'Eau", "network": "TECC", "network:wikidata": "Q3512073", "operator": "TEC", "operator:wikidata": "Q366922", "public_transport": "platform", "ref:TECC": "Cgrchea2", "route_ref:TECC": "20", "zone:TEC": "7114"}}, {"type": "node", "id": 3017130486, "lat": 50.3447403, "lon": 4.4795721, "tags": {"bus": "yes", "highway": "bus_stop", "name": "Gerpinnes Les liserons", "network": "TECN", "network:wikidata": "Q3512080", "operator": "TEC", "operator:wikidata": "Q366922", "public_transport": "platform", "ref:TECN": "NC14aga", "route_ref:TECN": "137d;451", "zone:TEC": "7114"}}, {"type": "node", "id": 3017130487, "lat": 50.3450835, "lon": 4.4805389, "tags": {"bus": "yes", "highway": "bus_stop", "name": "Gerpinnes Les liserons", "network": "TECN", "network:wikidata": "Q3512080", "operator": "TEC", "operator:wikidata": "Q366922", "public_transport": "platform", "ref:TECN": "NC14agb", "route_ref:TECN": "137d", "zone:TEC": "7114"}}, {"type": "node", "id": 3017130500, "lat": 50.3402127, "lon": 4.4939308, "tags": {"bus": "yes", "highway": "bus_stop", "name": "Gerpinnes \u00c9glise des Flaches", "network": "TECC", "network:wikidata": "Q3512073", "operator": "TEC", "operator:wikidata": "Q366922", "public_transport": "platform", "ref:TECC": "Cgregli2", "route_ref:TECC": "20", "zone:TEC": "7114"}}, {"type": "node", "id": 3017130501, "lat": 50.3404201, "lon": 4.4946092, "tags": {"bus": "yes", "highway": "bus_stop", "name": "Gerpinnes \u00c9glise des Flaches", "network": "TECC", "network:wikidata": "Q3512073", "operator": "TEC", "operator:wikidata": "Q366922", "public_transport": "platform", "ref:TECC": "Cgregli1", "route_ref:TECC": "20", "zone:TEC": "7114"}}, {"type": "node", "id": 3017130506, "lat": 50.3500617, "lon": 4.5069796, "tags": {"bus": "yes", "highway": "bus_stop", "name": "Joncret Chapelle", "network": "TECC", "network:wikidata": "Q3512073", "operator": "TEC", "operator:wikidata": "Q366922", "public_transport": "platform", "ref:TECC": "Cjochap1", "route_ref:TECC": "20", "zone:TEC": "7114"}}, {"type": "node", "id": 3017130507, "lat": 50.3501982, "lon": 4.5071526, "tags": {"bus": "yes", "highway": "bus_stop", "name": "Joncret Chapelle", "network": "TECC", "network:wikidata": "Q3512073", "operator": "TEC", "operator:wikidata": "Q366922", "public_transport": "platform", "ref:TECC": "Cjochap2", "route_ref:TECC": "20", "zone:TEC": "7114"}}, {"type": "node", "id": 3017130508, "lat": 50.3523574, "lon": 4.5110256, "tags": {"bus": "yes", "highway": "bus_stop", "name": "Joncret Joncret", "network": "TECC", "network:wikidata": "Q3512073", "operator": "TEC", "operator:wikidata": "Q366922", "public_transport": "platform", "ref:TECC": "Cjojonc2", "route_ref:TECC": "20", "zone:TEC": "7114"}}, {"type": "node", "id": 3017130509, "lat": 50.3531278, "lon": 4.5130056, "tags": {"bus": "yes", "highway": "bus_stop", "name": "Joncret Joncret", "network": "TECC", "network:wikidata": "Q3512073", "operator": "TEC", "operator:wikidata": "Q366922", "public_transport": "platform", "ref:TECC": "Cjojonc1", "route_ref:TECC": "20", "zone:TEC": "7114"}}, {"type": "node", "id": 3017131440, "lat": 50.3403227, "lon": 4.4659414, "tags": {"bus": "yes", "highway": "bus_stop", "name": "Nalinnes Housseroule", "network": "TECC", "network:wikidata": "Q3512073", "operator": "TEC", "operator:wikidata": "Q366922", "public_transport": "platform", "ref:TECC": "Cnahous1", "route_ref:TECC": "19;192", "zone:TEC": "7114"}}, {"type": "node", "id": 3017131441, "lat": 50.3403606, "lon": 4.4656234, "tags": {"bus": "yes", "highway": "bus_stop", "name": "Nalinnes Housseroule", "network": "TECC", "network:wikidata": "Q3512073", "operator": "TEC", "operator:wikidata": "Q366922", "public_transport": "platform", "ref:TECC": "Cnahous2", "route_ref:TECC": "19;192", "zone:TEC": "7114"}}, {"type": "node", "id": 3017131444, "lat": 50.3423033, "lon": 4.4705458, "tags": {"bus": "yes", "highway": "bus_stop", "name": "Place du Bultia - Nalinnes", "network": "TECC", "network:wikidata": "Q3512073", "operator": "TEC", "operator:wikidata": "Q366922", "public_transport": "platform", "ref:TECC": "Cnaplbu1", "route_ref:TECC": "19;192", "zone:TEC": "7114"}}, {"type": "node", "id": 3017131445, "lat": 50.3423115, "lon": 4.4703378, "tags": {"bus": "yes", "highway": "bus_stop", "name": "Place du Bultia - Nalinnes", "network": "TECC", "network:wikidata": "Q3512073", "operator": "TEC", "operator:wikidata": "Q366922", "public_transport": "platform", "ref:TECC": "Cnaplbu2", "route_ref:TECC": "19;192", "zone:TEC": "7114"}}, {"type": "node", "id": 3039203222, "lat": 50.3674423, "lon": 4.4684098, "tags": {"bus": "yes", "highway": "bus_stop", "name": "Loverval M\u00e9sanges", "network": "TECC;TECN", "network:wikidata": "Q3512073;Q3512080", "operator": "TEC", "operator:wikidata": "Q366922", "public_transport": "platform", "ref:TECC": "Clvmesa1", "route_ref:TECC": "19", "route_ref:TECN": "451", "shelter": "no", "zone:TEC": "7102"}}, {"type": "node", "id": 3039204187, "lat": 50.3424548, "lon": 4.4735901, "tags": {"bench": "no", "bin": "no", "bus": "yes", "highway": "bus_stop", "lit": "no", "name": "Nalinnes Bultia", "network": "TECC;TECN", "network:wikidata": "Q3512073;Q3512080", "operator": "TEC", "operator:wikidata": "Q366922", "public_transport": "platform", "ref:TECC": "Cnabult3", "route_ref:TECC": "19", "route_ref:TECN": "451", "shelter": "yes", "tactile_paving": "no", "zone:TEC": "7114"}}, {"type": "node", "id": 3089061857, "lat": 50.3622543, "lon": 4.4697046, "tags": {"bench": "no", "bin": "no", "bus": "yes", "highway": "bus_stop", "name": "Gerpinnes Chemin de la Ferr\u00e9e", "network": "TECC;TECN", "network:wikidata": "Q3512073;Q3512080", "operator": "TEC", "operator:wikidata": "Q366922", "public_transport": "platform", "ref:TECC": "Cgrchfe1", "route_ref:TECC": "19", "route_ref:TECN": "451", "shelter": "no", "zone:TEC": "7102"}}, {"type": "node", "id": 3089065107, "lat": 50.3434526, "lon": 4.4740493, "tags": {"bus": "yes", "highway": "bus_stop", "name": "Nalinnes Bultia", "network": "TECN", "network:wikidata": "Q3512080", "operator": "TEC", "operator:wikidata": "Q366922", "public_transport": "platform", "ref:TECN": "NC14afb", "route_ref:TECN": "137d", "zone:TEC": "7114"}}, {"type": "node", "id": 3089065108, "lat": 50.3435407, "lon": 4.4739074, "tags": {"bus": "yes", "highway": "bus_stop", "name": "Nalinnes Bultia", "network": "TECN", "network:wikidata": "Q3512080", "operator": "TEC", "operator:wikidata": "Q366922", "public_transport": "platform", "ref:TECN": "NC14afa", "route_ref:TECN": "137d;451", "zone:TEC": "7114"}}, {"type": "node", "id": 3191141909, "lat": 50.3418005, "lon": 4.4735344, "tags": {"bus": "yes", "public_transport": "stop_position"}}, {"type": "node", "id": 3191141910, "lat": 50.342564, "lon": 4.4735038, "tags": {"bus": "yes", "public_transport": "stop_position"}}, {"type": "relation", "id": 4202567, "members": [{"type": "node", "ref": 3039204187, "role": "platform"}, {"type": "node", "ref": 3191141910, "role": "stop"}], "tags": {"name": "Nalinnes Bultia", "public_transport": "stop_area", "type": "public_transport"}}, {"type": "relation", "id": 4202568, "members": [{"type": "node", "ref": 269300120, "role": "platform"}, {"type": "node", "ref": 3191141909, "role": "stop"}], "tags": {"name": "Nalinnes Bultia", "public_transport": "stop_area", "type": "public_transport"}}]}