{"version": 0.6, "generator": "Overpass API 0.7.62.8 e802775f", "osm3s": {"timestamp_osm_base": "2026-01-12T16:36:28Z", "copyright": "The data included in this document is from www.openstreetmap.org. The data is made available under ODbL."}, "elements": [{"type": "node", "id": 303924572, "lat": 12.9235041, "lon": 77.5857517, "tags": {"amenity": "hospital", "name": "Shanti Hospital", "name:kn": "\u0cb6\u0cbe\u0c82\u0ca4\u0cbf \u0c86\u0cb8\u0ccd\u0caa\u0ca4\u0ccd\u0cb0\u0cc6"}}, {"type": "node", "id": 364629422, "lat": 12.9207173, "lon": 77.5745968, "tags": {"addr:street": "Kanakapura Road", "amenity": "hospital", "name": "JBS Hospital", "name:kn": "\u0c9c\u0cc6 \u0cac\u0cbf \u0c8e\u0cb8\u0ccd \u0c86\u0cb8\u0ccd\u0caa\u0ca4\u0ccd\u0cb0\u0cc6"}}, {"type": "node", "id": 364629734, "lat": 12.9231684, "lon": 77.584433, "tags": {"amenity": "hospital", "check_date": "2025-01-11", "healthcare": "hospital", "name": "Jayanagar heart Centre"}}, {"type": "node", "id": 1228960966, "lat": 12.90306, "lon": 77.4974982, "tags": {"addr:district": "Bengaluru Urban", "addr:full": "67, Uttarahalli Road, Kengeri", "addr:postcode": "560060", "addr:state": "Karnataka", "amenity": "hospital", "email": "web.enquiries@globalhospitalsindia.com", "healthcare": "hospital", "healthcare:speciality": "multi speciality", "name": "BGS Gleneagles Hospitals", "name:kn": "\u0cac\u0cbf\u0c9c\u0cbf\u0c8e\u0cb8\u0ccd \u0c86\u0cb8\u0ccd\u0caa\u0ca4\u0ccd\u0cb0\u0cc6", "operator:type": "private", "source": "OpenGovernmentData", "website": "https://bgsgleneaglesglobalhospitalbengaluru.com/"}}, {"type": "node", "id": 1272424543, "lat": 12.9073391, "lon": 77.5830655, "tags": {"addr:street": "29 Main", "address": "593 14th cross 29th main", "amenity": "hospital", "designation": "Clinic", "emergency": "no", "name": "Srinivas Clinic", "name:kn": "\u0cb6\u0ccd\u0cb0\u0cc0\u0ca8\u0cbf\u0cb5\u0cbe\u0cb8\u0ccd \u0c95\u0ccd\u0cb2\u0cbf\u0ca8\u0cbf\u0c95\u0ccd"}}, {"type": "node", "id": 1318987638, "lat": 12.8915893, "lon": 77.560715, "tags": {"amenity": "hospital", "emergency": "yes", "name": "Metro Hospital"}}, {"type": "node", "id": 1331946750, "lat": 12.9111686, "lon": 77.5795767}, {"type": "node", "id": 1331946751, "lat": 12.9110875, "lon": 77.5799978}, {"type": "node", "id": 1331946769, "lat": 12.9108601, "lon": 77.5800058}, {"type": "node", "id": 1331946771, "lat": 12.9109254, "lon": 77.5795391}, {"type": "node", "id": 1462175435, "lat": 12.908504, "lon": 77.5139924}, {"type": "node", "id": 1462175436, "lat": 12.9084491, "lon": 77.5138596}, {"type": "node", "id": 1462175438, "lat": 12.9095733, "lon": 77.5134841}, {"type": "node", "id": 1462175439, "lat": 12.909345, "lon": 77.5142567}, {"type": "node", "id": 1462175441, "lat": 12.9090664, "lon": 77.5132532}, {"type": "node", "id": 1462175447, "lat": 12.9084727, "lon": 77.5130697}, {"type": "node", "id": 1462175448, "lat": 12.9081947, "lon": 77.5137658}, {"type": "node", "id": 1464035837, "lat": 12.9246977, "lon": 77.5004222}, {"type": "node", "id": 1464035839, "lat": 12.9244782, "lon": 77.5006593}, {"type": "node", "id": 1466576385, "lat": 12.9206648, "lon": 77.5598673, "tags": {"addr:district": "Bengaluru Urban", "addr:full": "274 / 275, M K Puttalingaiah Road, Padmanabhanagar", "addr:postcode": "560073", "addr:state": "Karnataka", "amenity": "hospital", "emergency": "yes", "name": "DG Hospital", "operator:type": "private", "source": "OpenGovernmentData", "website": "http://dpal.kar.nic.in/Kanunu%20padakosha%20PDF%20Files/Recognised%20Hospitals.pdf"}}, {"type": "node", "id": 1473997305, "lat": 12.9162804, "lon": 77.5798278}, {"type": "node", "id": 1473997310, "lat": 12.9162881, "lon": 77.5793963}, {"type": "node", "id": 1473997317, "lat": 12.9166469, "lon": 77.5794031}, {"type": "node", "id": 1474277938, "lat": 12.9135707, "lon": 77.5788941, "tags": {"addr:street": "Ayodhyarama Road", "amenity": "hospital", "name": "Parimala Clinic", "name:kn": "\u0caa\u0cb0\u0cbf\u0cae\u0cb3 \u0c9a\u0cbf\u0c95\u0cbf\u0ca4\u0ccd\u0cb8\u0cbe\u0cb2\u0caf"}}, {"type": "node", "id": 1812673570, "lat": 12.9202791, "lon": 77.5598033, "tags": {"addr:district": "Bengaluru Urban", "addr:full": "No. 277, M.K. Puttalingaiah Road, Padmanabha Nagar", "addr:postcode": "560070", "addr:state": "Karnataka", "amenity": "hospital", "emergency": "yes", "name": "Yogananda Medical and Research Centre", "source": "OpenGovernmentData"}}, {"type": "node", "id": 1835530203, "lat": 12.9089008, "lon": 77.5129805}, {"type": "node", "id": 2002686385, "lat": 12.8807554, "lon": 77.5841671, "tags": {"addr:district": "Bengaluru Urban", "addr:full": "Kothanur Dinne Main Road,Sapthagiri Layout,OppositeFabricana Factory,J.P.Ngar,8Th Phase", "addr:postcode": "560078", "addr:state": "Karnataka", "amenity": "hospital", "name": "T.R.Hospital", "source": "OpenGovernmentData"}}, {"type": "node", "id": 2012122119, "lat": 12.891484, "lon": 77.5816961, "tags": {"amenity": "hospital", "emergency": "yes", "healthcare": "hospital", "name": "Rainbow Clinic and Diagnostic Laboratory"}}, {"type": "node", "id": 2122595759, "lat": 12.8845448, "lon": 77.5701276, "tags": {"addr:district": "Bengaluru Rural", "addr:full": "#3, 6 th Cross, Old Bank Colony, Konanakunte", "addr:postcode": "560062", "addr:state": "Karnataka", "amenity": "hospital", "healthcare": "hospital", "name": "Rajnandani Hospital, Bangalore", "source": "OpenGovernmentData"}}, {"type": "node", "id": 2123564200, "lat": 12.915903, "lon": 77.5550223, "tags": {"addr:district": "Bengaluru Urban", "addr:full": "15Th Main, 17Th Cross Padmanabhanagar", "addr:postcode": "560070", "addr:state": "Karnataka", "amenity": "hospital", "emergency": "yes", "name": "Maharaja Agrasen Hospital, Bengaluru Urban", "source": "OpenGovernmentData"}}, {"type": "node", "id": 2123630630, "lat": 12.9231342, "lon": 77.5642974, "tags": {"addr:district": "Bengaluru Urban", "addr:full": "17Th, Main,27Th Cross, Banashankari 2nd Stage, South", "addr:postcode": "560070", "addr:state": "Karnataka", "amenity": "hospital", "healthcare": "hospital", "name": "Banashankari Referral Hospital", "source": "OpenGovernmentData"}}, {"type": "node", "id": 2124813862, "lat": 12.9179548, "lon": 77.555816, "tags": {"amenity": "hospital", "name": "Bangalore Kidney Foundation - NU Hospital"}}, {"type": "node", "id": 2649089255, "lat": 12.9172238, "lon": 77.5849242}, {"type": "node", "id": 2649089256, "lat": 12.9172158, "lon": 77.5852762}, {"type": "node", "id": 2649089257, "lat": 12.9174445, "lon": 77.5849295}, {"type": "node", "id": 2649089258, "lat": 12.9174365, "lon": 77.5852815}, {"type": "node", "id": 2932851733, "lat": 12.9169288, "lon": 77.5592568, "tags": {"addr:city": "Bangalore", "addr:district": "Bengaluru Urban", "addr:full": "No. 30, Pavana Dhama, 80 Feet Main Road,Opposite Nilgiris,Padmanabha Nagar", "addr:postcode": "560070", "addr:state": "Karnataka", "amenity": "hospital", "healthcare": "hospital", "name": "Dr.Agarwal's Eye Hospital Ltd, Padmanabha Nagar", "operator": "Dr. Agarwal's Eye Hospital", "operator:wikidata": "Q17052044", "source": "OpenGovernmentData"}}, {"type": "node", "id": 2984295033, "lat": 12.9184617, "lon": 77.5555842, "tags": {"addr:district": "Bengaluru Urban", "addr:full": "Thimmaiah Road, Padmanabhanagar, Bengaluru", "addr:postcode": "560070", "addr:state": "Karnataka", "amenity": "hospital", "name": "Shraddha Eye Care", "source": "Local Knowledge"}}, {"type": "node", "id": 3016090364, "lat": 12.9055088, "lon": 77.5858347, "tags": {"addr:city": "bangalore", "addr:housenumber": "250", "addr:postcode": "560078", "addr:street": "24th Main, 5th Phase, Opp Nandini Hotel, Puttenhalli, JP Nagar", "amenity": "hospital", "name": "Cloud Nine Fertility", "name:kn": "\u0c95\u0ccd\u0cb2\u0ccc\u0ca1\u0ccd \u0ca8\u0cc8\u0ca8\u0ccd \u0cab\u0cb0\u0ccd\u0c9f\u0cbf\u0cb2\u0cbf\u0c9f\u0cbf", "phone": "080 4350 0123", "source": "justdial", "website": "https://www.cloudninefertility.com/", "wheelchair": "limited"}}, {"type": "node", "id": 3037310855, "lat": 12.8827229, "lon": 77.5466715, "tags": {"addr:city": "Bangalore", "addr:housenumber": "28", "addr:postcode": "560062", "addr:street": "Kanakapura Road", "amenity": "hospital", "healthcare": "hospital", "name": "Aikya Healthcare"}}, {"type": "node", "id": 3100475907, "lat": 12.8840897, "lon": 77.5664029, "tags": {"addr:district": "Bangalore", "addr:full": "PARK, NEAR PARK", "addr:postcode": "560062", "addr:state": "Karnataka", "addr:subdistrict": "Bangalore South", "amenity": "hospital", "contact:phone": "8026323311", "healthcare": "hospital", "name": "Konanakunte Government Hospital", "source": "OpenGovernmentData"}}, {"type": "node", "id": 3121618244, "lat": 12.9218676, "lon": 77.5719475}, {"type": "node", "id": 3121618245, "lat": 12.9215947, "lon": 77.5718802}, {"type": "node", "id": 3121618246, "lat": 12.921477, "lon": 77.5723822}, {"type": "node", "id": 3121618247, "lat": 12.9217499, "lon": 77.5724495}, {"type": "node", "id": 3719549886, "lat": 12.9159249, "lon": 77.5856011, "tags": {"addr:district": "Bengaluru Urban", "addr:full": "Jayanagar, J P Nagar, Bengaluru", "addr:postcode": "560041", "addr:state": "Karnataka", "amenity": "hospital", "healthcare": "clinic", "healthcare:speciality": "fertility", "name": "Milann Fertility Center", "source": "Local Knowledge"}}, {"type": "node", "id": 4397421787, "lat": 12.9074635, "lon": 77.5651851}, {"type": "node", "id": 4397421788, "lat": 12.9074713, "lon": 77.565228}, {"type": "node", "id": 4397421789, "lat": 12.9074791, "lon": 77.5651261}, {"type": "node", "id": 4397421791, "lat": 12.9075079, "lon": 77.5653004}, {"type": "node", "id": 4397421798, "lat": 12.9077406, "lon": 77.5652227}, {"type": "node", "id": 4397421799, "lat": 12.9078033, "lon": 77.5650456}, {"type": "node", "id": 4397421803, "lat": 12.9079654, "lon": 77.5652093}, {"type": "node", "id": 4397421804, "lat": 12.9079837, "lon": 77.5650242}, {"type": "node", "id": 4397421812, "lat": 12.9082321, "lon": 77.5650698}, {"type": "node", "id": 4397421813, "lat": 12.9082504, "lon": 77.5652441}, {"type": "node", "id": 4397421814, "lat": 12.9082556, "lon": 77.56511}, {"type": "node", "id": 4397421815, "lat": 12.9082713, "lon": 77.5651798}, {"type": "node", "id": 4443301971, "lat": 12.9151071, "lon": 77.5624888, "tags": {"addr:city": "bangalore", "addr:housenumber": "5", "addr:postcode": "560050", "addr:street": "80 feet road,banashankari", "amenity": "hospital", "name": "NRS Medical & Dental Specialists Centre", "phone": "08026696054"}}, {"type": "node", "id": 4447156427, "lat": 12.9062193, "lon": 77.580682, "tags": {"addr:city": "Bengaluru", "addr:district": "Bengaluru Urban", "addr:full": "#726, 17Th Cross, 6Th Phase, J.P. Nagar", "addr:housenumber": "5", "addr:postcode": "560078", "addr:state": "Karnataka", "addr:street": "Outer Ring Rd, Rose Garden, JP Nagar Phase 6, JP Nagar,", "amenity": "hospital", "name": "Green City Hospital, Bengaluru Urban", "name:kn": "\u0c97\u0ccd\u0cb0\u0cc0\u0ca8\u0ccd \u0cb8\u0cbf\u0c9f\u0cbf \u0c86\u0cb8\u0ccd\u0caa\u0ca4\u0ccd\u0cb0\u0cc6", "phone": "080 2653 6222", "source": "OpenGovernmentData"}}, {"type": "node", "id": 4447383325, "lat": 12.9039905, "lon": 77.5859569, "tags": {"addr:city": "bangalore", "addr:housenumber": "9", "addr:postcode": "560078", "addr:street": "24th Main Rd, KR Layout, 1st Phase, JP Nagar", "amenity": "hospital", "name": "M N Speciality Clinic", "name:kn": "\u0c8e\u0cae\u0ccd \u0c8e\u0ca8\u0ccd \u0cb8\u0ccd\u0caa\u0cc6\u0cb6\u0cbe\u0cb2\u0cbf\u0c9f\u0cbf \u0c95\u0ccd\u0cb2\u0cbf\u0ca8\u0cbf\u0c95\u0ccd", "phone": "080 2653 0121"}}, {"type": "node", "id": 4448118314, "lat": 12.924274, "lon": 77.5680927, "tags": {"addr:city": "Bangalore", "addr:housenumber": "#3", "addr:postcode": "560068", "addr:street": "Ground Floor, 1st Phase, 2nd Stage, Oppo. Ias Colony Ground, BTM Layout, Mahadeshwara Nagar, Stage 2, BTM 2nd Stage", "amenity": "hospital", "emergency": "yes", "name": "Dr Lal PathLabs", "phone": "080 4091 6014", "source": "http://www.bangalorean.co.in/", "website": "https://www.lalpathlabs.com/"}}, {"type": "node", "id": 4456339090, "lat": 12.8943049, "lon": 77.5682821, "tags": {"addr:district": "Bengaluru Urban", "addr:full": "No.6 J.C.Industrial Area, Yelechenahalli", "addr:postcode": "560062", "addr:state": "Karnataka", "addr:street": "Kanakapura Road", "addr:subdistrict": "Kanakpura", "amenity": "hospital", "name": "Sri Sai Ram Hospital", "name:en": "Sri Sai Ram Hospital", "name:kn": "\u0cb6\u0ccd\u0cb0\u0cc0 \u0cb8\u0cbe\u0caf\u0cbf \u0cb0\u0cbe\u0cae \u0c86\u0cb8\u0ccd\u0caa\u0ca4\u0ccd\u0cb0\u0cc6", "operator:type": "private", "source": "OpenGovernmentData", "website": "http://www.srisairamhospital.com/"}}, {"type": "node", "id": 4547191103, "lat": 12.9056092, "lon": 77.5426964, "tags": {"addr:postcode": "560061", "addr:street": "Dr. Vishnuvardhan Road", "amenity": "hospital", "healthcare": "hospital", "name": "Nagarathna Hospital", "name:kn": "\u0ca8\u0cbe\u0c97\u0cb0\u0ca4\u0ccd\u0ca8"}}, {"type": "node", "id": 4609603646, "lat": 12.9168014, "lon": 77.5851878, "tags": {"addr:district": "Bengaluru Urban", "addr:full": "No.25, 46th Cross, 5th Block, Jayanagar", "addr:postcode": "560011", "addr:state": "Karnataka", "amenity": "hospital", "email": "contactus@apollocradle.com", "healthcare": "hospital", "name": "Apollo Bengaluru Cradle Limited, Jayanagar", "operator:type": "private", "source": "OpenGovernmentData", "website": "https://www.apollocradle.com/"}}, {"type": "node", "id": 5277512112, "lat": 12.9138086, "lon": 77.5273633, "tags": {"amenity": "hospital", "name": "Usha Vikranth Diagnostic Center and Hospital"}}, {"type": "node", "id": 6531332483, "lat": 12.9248001, "lon": 77.500522}, {"type": "node", "id": 6531332484, "lat": 12.9246684, "lon": 77.5006643}, {"type": "node", "id": 6531332485, "lat": 12.9247366, "lon": 77.5007308}, {"type": "node", "id": 6531332486, "lat": 12.9246489, "lon": 77.5008256}, {"type": "node", "id": 6852266953, "lat": 12.9158516, "lon": 77.5593919, "tags": {"addr:district": "Bengaluru Urban", "addr:full": "Padmanabhanagar, Bengaluru", "addr:postcode": "560070", "addr:state": "Karnataka", "amenity": "hospital", "healthcare": "hospital", "name": "Yogananda Multi Speciality Hospital", "name:kn": "\u0caf\u0ccb\u0c97\u0ca8\u0c82\u0ca6 \u0c86\u0cb8\u0ccd\u0caa\u0ca4\u0ccd\u0cb0\u0cc6", "source": "Local Knowledge"}}, {"type": "node", "id": 6938544594, "lat": 12.9166392, "lon": 77.5798346}, {"type": "node", "id": 6938692472, "lat": 12.8919509, "lon": 77.5799654, "tags": {"addr:district": "Bengaluru Urban", "addr:full": "No.2, Chandra Complex,J.P.Nagar, 7Th Phase,Puttenahalli,OppositeRbi Cly", "addr:postcode": "560078", "addr:state": "Karnataka", "amenity": "hospital", "healthcare": "hospital", "name": "Supra South City Hospital", "source": "OpenGovernmentData"}}, {"type": "node", "id": 6938708338, "lat": 12.9215013, "lon": 77.5655432, "tags": {"addr:district": "Bengaluru Urban", "addr:full": "No 154, 17 Th Main, 29 Th Cross, Near Bnm Institution", "addr:postcode": "560070", "addr:state": "Karnataka", "amenity": "hospital", "healthcare": "hospital", "name": "Sri Krishna Hospital", "source": "OpenGovernmentData"}}, {"type": "node", "id": 6938772336, "lat": 12.9118831, "lon": 77.5528805, "tags": {"addr:district": "Bengaluru Urban", "addr:full": "Dr.Gurappa Naidu Complex, Opposite Komarla Brigade Residency. Uttarahalli Main Road, Chikkalasandra", "addr:postcode": "560063", "addr:state": "Karnataka", "amenity": "hospital", "healthcare": "hospital", "name": "C.S. Hospital", "source": "OpenGovernmentData"}}, {"type": "node", "id": 6938777945, "lat": 12.9176216, "lon": 77.5550705, "tags": {"addr:district": "Bengaluru Urban", "addr:full": "Bkf Chand , Nephro- Urology Centre, Ca - 6,15Th, Main Street, 11Th Cross, Padmanabhanagar", "addr:postcode": "560070", "addr:state": "Karnataka", "amenity": "hospital", "name": "Nu Trust", "source": "OpenGovernmentData"}}, {"type": "node", "id": 6938876210, "lat": 12.9103393, "lon": 77.5732398, "tags": {"addr:district": "Bengaluru Urban", "addr:full": "Plot No.2(A-2) A Type Bbmp No.57-64-2, Shivana Arcade", "addr:postcode": "560078", "addr:state": "Karnataka", "amenity": "hospital", "healthcare": "hospital", "name": "Vasan Eye Care Hospital, Sarakki", "operator:type": "private", "source": "OpenGovernmentData", "website": "http://www.vasaneye.in/"}}, {"type": "node", "id": 6938995621, "lat": 12.9163994, "lon": 77.5847384, "tags": {"addr:district": "Bengaluru Urban", "addr:full": "909, 47Th Cross, 9Thmain, 5Th Block, Opposite Adarshapalace Apts And Near Raghavendra Matha, Jayanagar", "addr:postcode": "560041", "addr:state": "Karnataka", "amenity": "hospital", "healthcare": "hospital", "name": "Dr Kamini Rao Hospital(A Unit Of Bacc Health Care Pvt Ltd)", "source": "OpenGovernmentData"}}, {"type": "node", "id": 6939444286, "lat": 12.9246384, "lon": 77.5509238, "tags": {"addr:district": "Bengaluru Urban", "addr:full": "#271, 5Th Block, 100 Feet Road, 3Road Phase, Banashankari", "addr:postcode": "560085", "addr:state": "Karnataka", "amenity": "hospital", "name": "Abhilash Hospital And Sara Rehabilitation Centre", "source": "OpenGovernmentData"}}, {"type": "node", "id": 6944507653, "lat": 12.9207314, "lon": 77.5736019, "tags": {"addr:district": "Bengaluru Urban", "addr:full": "#3/2, 27Th Cross, Banashankari 2nd Stage,Near Brigade Software Park", "addr:postcode": "560070", "addr:state": "Karnataka", "amenity": "hospital", "healthcare": "hospital", "name": "Excel Care Hospital", "source": "OpenGovernmentData"}}, {"type": "node", "id": 6944507660, "lat": 12.9242515, "lon": 77.573217, "tags": {"addr:district": "Bengaluru Urban", "addr:full": "2269, 22nd Cross K R Road, K.R.Road", "addr:postcode": "560070", "addr:state": "Karnataka", "amenity": "hospital", "name": "Dr. Vidyananda's Surgery and Dia Centre", "source": "OpenGovernmentData"}}, {"type": "node", "id": 6944507682, "lat": 12.8443653, "lon": 77.583809, "tags": {"addr:district": "Bengaluru Urban", "addr:full": "Weavers Colony Main Road, Bannerghatta Road", "addr:postcode": "560083", "addr:state": "Karnataka", "amenity": "hospital", "name": "Banashankari Hospital", "source": "OpenGovernmentData"}}, {"type": "node", "id": 6944578226, "lat": 12.910823, "lon": 77.5207892, "tags": {"addr:district": "Bengaluru Urban", "addr:full": "No.886, Beml Layout,Near Police Station Main Road,Rajarajeshwari Nagar", "addr:postcode": "560098", "addr:state": "Karnataka", "amenity": "hospital", "name": "Unity Hospital, Bengaluru Urban", "source": "OpenGovernmentData"}}, {"type": "node", "id": 6945010490, "lat": 12.9067079, "lon": 77.5849275, "tags": {"addr:district": "Bengaluru Urban", "addr:full": "No. 4, Sarakki Industrial Estate, 3Road Phase, J.P.Nagar, Bannerghatta Road", "addr:postcode": "560076", "addr:state": "Karnataka", "amenity": "hospital", "name": "North Star Maternity and Nursing Home", "source": "OpenGovernmentData"}}, {"type": "node", "id": 6947375064, "lat": 12.89708, "lon": 77.5473364, "tags": {"addr:district": "Bengaluru Urban", "addr:full": "No.4, Sagar Complex,Gopalakrishna Layout,Vasanthapura Main Road,Subramanyapura Post,Uttarahalli Hobli", "addr:postcode": "560061", "addr:state": "Karnataka", "amenity": "hospital", "name": "Samastha Hospitals Pvt Ltd", "source": "OpenGovernmentData"}}, {"type": "node", "id": 6947556032, "lat": 12.9074269, "lon": 77.5716318, "tags": {"addr:district": "Bengaluru Urban", "addr:full": "11/2 8Th Cross, Gangadhar Nagar 100 Ring Road, J.P Nagar Post", "addr:postcode": "560078", "addr:state": "Karnataka", "amenity": "hospital", "name": "R.R. Hospital and Trauma Centre", "source": "OpenGovernmentData"}}, {"type": "node", "id": 6947750361, "lat": 12.9162753, "lon": 77.5589544, "tags": {"addr:district": "Bengaluru Urban", "addr:full": "No. 113, 4Th Cross, R. K. Layout, Padmanabhanagar", "addr:postcode": "560070", "addr:state": "Karnataka", "amenity": "hospital", "healthcare": "hospital", "name": "Hillside Hospital", "source": "OpenGovernmentData"}}, {"type": "node", "id": 6950185729, "lat": 12.8914666, "lon": 77.5612113, "tags": {"addr:district": "Bengaluru Rural", "addr:full": "No. 21/3 Vasanthpur Main Road Konanakunte Cross", "addr:postcode": "560062", "addr:state": "Karnataka", "amenity": "hospital", "name": "Metro Hospital, Bengaluru Rural", "source": "OpenGovernmentData"}}, {"type": "node", "id": 7579924715, "lat": 12.9215119, "lon": 77.5724702, "tags": {"addr:district": "Bengaluru Urban", "addr:full": "Banashankari, Bengaluru", "addr:postcode": "560070", "addr:state": "Karnataka", "amenity": "hospital", "healthcare": "hospital", "name": "Sevakshetra Hospital", "name:kn": "\u0cb8\u0cc7\u0cb5\u0cbe\u0c95\u0ccd\u0cb7\u0cc7\u0ca4\u0ccd\u0cb0 \u0c86\u0cb8\u0ccd\u0caa\u0ca4\u0ccd\u0cb0\u0cc6", "source": "Local Knowledge"}}, {"type": "node", "id": 7579924725, "lat": 12.9055752, "lon": 77.5425258, "tags": {"addr:district": "Bengaluru Urban", "addr:full": "Uttarahalli, Bengaluru", "addr:postcode": "560011", "addr:state": "Karnataka", "amenity": "hospital", "name": "Perfetual Help Hospital", "source": "Local Knowledge"}}, {"type": "node", "id": 7579924744, "lat": 12.924153, "lon": 77.565797, "tags": {"addr:district": "Bengaluru Urban", "addr:full": "Banashankari, Bengaluru", "addr:postcode": "560070", "addr:state": "Karnataka", "amenity": "hospital", "name": "Devagiri Hospital", "source": "Local Knowledge"}}, {"type": "node", "id": 7579924762, "lat": 12.920651, "lon": 77.5746118, "tags": {"addr:district": "Bengaluru Urban", "addr:full": "Jayanagar, Bengaluru", "addr:postcode": "560082", "addr:state": "Karnataka", "amenity": "hospital", "name": "Sahasra Hospital", "name:kn": "\u0cb8\u0cb9\u0cb8\u0ccd\u0cb0 \u0c86\u0cb8\u0ccd\u0caa\u0ca4\u0ccd\u0cb0\u0cc6", "source": "Local Knowledge"}}, {"type": "node", "id": 7579924768, "lat": 12.9202202, "lon": 77.5772991, "tags": {"addr:district": "Bengaluru Urban", "addr:full": "Jayanagar, Bengaluru", "addr:postcode": "560070", "addr:state": "Karnataka", "amenity": "hospital", "name": "Shanti Hospital", "name:kn": "\u0cb6\u0cbe\u0c82\u0ca4\u0cbf \u0c86\u0cb8\u0ccd\u0caa\u0ca4\u0ccd\u0cb0\u0cc6", "source": "Local Knowledge"}}, {"type": "node", "id": 7579924780, "lat": 12.916885, "lon": 77.585258, "tags": {"addr:district": "Bengaluru Urban", "addr:full": "TMC Layout, Jayanagar, Bengaluru", "addr:postcode": "560011", "addr:state": "Karnataka", "amenity": "hospital", "healthcare": "hospital", "name": "Apollo Cradle Maternity & Children's Hospital", "source": "Local Knowledge"}}, {"type": "node", "id": 7579924783, "lat": 12.906113, "lon": 77.542548, "tags": {"addr:district": "Bengaluru Urban", "addr:full": "Simhadri layout, Uttarahalli Hobli, Bengaluru", "addr:postcode": "560061", "addr:state": "Karnataka", "amenity": "hospital", "name": "St. Martha's Hospital", "source": "Local Knowledge"}}, {"type": "node", "id": 8776646948, "lat": 12.9128623, "lon": 77.5714903, "tags": {"addr:city": "Bangalore", "addr:housenumber": "64/2, Sarakki Main Rd, Sarakki Nagar,", "addr:postcode": "560078", "addr:street": "4th Cross Road", "amenity": "hospital", "healthcare": "hospital", "healthcare:speciality": "physiotherapy;physiotherapist", "name": "Healing Hands Advanced Physiotherapy Clinic", "operator": "www.hhphysio.com", "operator:type": "private"}}, {"type": "node", "id": 9884952776, "lat": 12.8832909, "lon": 77.5500857, "tags": {"addr:city": "Bengaluru", "addr:housenumber": "766", "addr:postcode": "560062", "addr:street": "Narayana Nagar, 1st Block, Doddakallasandra Village, Kanakapura Road", "amenity": "hospital", "check_date": "2024-10-19", "description": "Maternity & Kids Hospital", "emergency": "yes", "healthcare": "hospital", "healthcare:speciality": "gynaecology;pulmonology;paediatrics;dermatology;dentistry;physiotherapy;fertility", "name": "Cloudnine Hospital", "operator:type": "private", "phone": "9972999729", "website": "https://www.cloudninecare.com"}}, {"type": "node", "id": 10245038162, "lat": 12.9093485, "lon": 77.5133836}, {"type": "node", "id": 11299121541, "lat": 12.8784742, "lon": 77.5450234, "tags": {"amenity": "hospital", "healthcare": "hospital", "name": "Zymus Hospitals"}}, {"type": "node", "id": 11801601935, "lat": 12.9030689, "lon": 77.5607177}, {"type": "node", "id": 11801601936, "lat": 12.902942, "lon": 77.5606585}, {"type": "node", "id": 11801601937, "lat": 12.9031277, "lon": 77.5598988}, {"type": "node", "id": 11801601938, "lat": 12.9033643, "lon": 77.5599393}, {"type": "node", "id": 11813227397, "lat": 12.9075935, "lon": 77.5707809, "tags": {"amenity": "hospital", "name": "Bengaluru City Hospital"}}, {"type": "node", "id": 11869384815, "lat": 12.8835095, "lon": 77.550214, "tags": {"addr:street": "Kanakapura Road", "amenity": "hospital", "description": "Multi speciality hospital", "name": "Dhee Hospital", "website": "https://dheehospitals.com/"}}, {"type": "node", "id": 12155267775, "lat": 12.924584, "lon": 77.500545}, {"type": "node", "id": 13257391201, "lat": 12.9070989, "lon": 77.5460762, "tags": {"addr:postcode": "560061", "addr:street": "Dr. Vishnuvardhan Road", "amenity": "hospital", "name": "Nano Hospitals"}}, {"type": "way", "id": 118411722, "nodes": [1331946771, 1331946750, 1331946751, 1331946769, 1331946771], "tags": {"addr:city": "bangalore", "addr:district": "Bengaluru Urban", "addr:full": "No 21, 9Th Cross, B-78 Jp Nagar", "addr:housenumber": "21", "addr:postcode": "560078", "addr:state": "Karnataka", "addr:street": "9th Cross Road, Phase 1, Sarakki Layout, JP Nagar", "amenity": "hospital", "emergency": "yes", "healthcare": "hospital", "name": "Rajshekhar Hospital", "name:kn": "\u0cb0\u0cbe\u0c9c\u0cb6\u0cc7\u0c96\u0cb0 \u0c86\u0cb8\u0ccd\u0caa\u0ca4\u0ccd\u0cb0\u0cc6", "phone": "080 4252 7555", "source": "OpenGovernmentData", "website": "https://www.rajshekarhospital.com/"}}, {"type": "way", "id": 132913842, "nodes": [1462175438, 1462175439, 1462175435, 1462175436, 1462175448, 1462175447, 1835530203, 1462175441, 10245038162, 1462175438], "tags": {"alt_name": "Jayadev Memorial Rashtrotthana Hospital and Research Centre", "amenity": "hospital", "healthcare": "hospital", "name": "Manipal Speciality Hospital", "website": "https://www.rashtrotthanahospital.com/"}}, {"type": "way", "id": 133951786, "nodes": [1473997317, 1473997310, 1473997305, 6938544594, 1473997317], "tags": {"addr:district": "Bengaluru Urban", "addr:full": "VR Layout, J. P. Nagar, Bengaluru", "addr:postcode": "560078", "addr:state": "Karnataka", "amenity": "hospital", "healthcare": "hospital", "name": "Rajalakshmi Multispeciality Hospital", "name:kn": "\u0cb0\u0cbe\u0c9c\u0cbe\u0c9c\u0cbf\u0ca8\u0c97\u0cb0 \u0c86\u0cb8\u0ccd\u0caa\u0ca4\u0ccd\u0cb0\u0cc6"}}, {"type": "way", "id": 259487871, "nodes": [2649089257, 2649089258, 2649089256, 2649089255, 2649089257], "tags": {"addr:city": "Bangalore", "addr:district": "Bengaluru Urban", "addr:full": "#523, 10th Main,45th Cross, 5th Block, Jayanagar", "addr:housename": "523", "addr:postcode": "560041", "addr:state": "Karnataka", "amenity": "hospital", "building": "yes", "email": "admin@sksh.com", "healthcare": "hospital", "name": "Shri Krishna Sevashrama Hospital", "name:kn": "\u0cb6\u0ccd\u0cb0\u0cc0\u0c95\u0ccd\u0cb7\u0cc7\u0ca4\u0ccd\u0cb0 \u0cb8\u0cc7\u0cb5\u0cbe\u0cb6\u0ccd\u0cb0\u0cae \u0c86\u0cb8\u0ccd\u0caa\u0ca4\u0ccd\u0cb0\u0cc6", "operator:type": "private", "phone": "+918022441631", "source": "OpenGovernmentData", "website": "http://www.sks-hospital.org/"}}, {"type": "way", "id": 307097150, "nodes": [3121618244, 3121618247, 3121618246, 3121618245, 3121618244], "tags": {"addr:city": "Bangalore", "addr:district": "Bengaluru Urban", "addr:full": "B 70, 27Th Cross Banashankari 2nd Stage Banashankari", "addr:postcode": "560070", "addr:state": "Karnataka", "addr:street": "27th Cross", "amenity": "hospital", "emergency": "yes", "healthcare": "hospital", "name": "Sevakshetra Hospital, Bengaluru Urban", "name:kn": "\u0cb8\u0cc7\u0cb5\u0cbe\u0c95\u0ccd\u0cb7\u0cc7\u0ca4\u0ccd\u0cb0 \u0c86\u0cb8\u0ccd\u0caa\u0ca4\u0ccd\u0cb0\u0cc6", "source": "OpenGovernmentData"}}, {"type": "way", "id": 442048031, "nodes": [4397421813, 4397421803, 4397421798, 4397421791, 4397421788, 4397421787, 4397421789, 4397421799, 4397421804, 4397421812, 4397421814, 4397421815, 4397421813], "tags": {"amenity": "hospital", "building": "hospital", "name": "Sagar Hospital", "name:kn": "\u0cb8\u0cbe\u0c97\u0cb0 \u0c86\u0cb8\u0ccd\u0caa\u0ca4\u0ccd\u0cb0\u0cc6", "opening_hours": "Mo-Su 00:00-23:00"}}, {"type": "way", "id": 695545711, "nodes": [1464035837, 12155267775, 1464035839, 6531332486, 6531332485, 6531332484, 6531332483, 1464035837], "tags": {"amenity": "hospital", "healthcare": "hospital", "name": "Medical Centre"}}, {"type": "way", "id": 1270817507, "nodes": [11801601938, 11801601937, 11801601936, 11801601935, 11801601938], "tags": {"amenity": "hospital", "healthcare": "hospital", "name": "Vasavi Hospital", "name:kn": "\u0cb5\u0cbe\u0cb8\u0cb5\u0cbf \u0c86\u0cb8\u0ccd\u0caa\u0ca4\u0ccd\u0cb0\u0cc6"}}]}