{"version": 0.6, "generator": "Overpass API 0.7.62.8 e802775f", "osm3s": {"timestamp_osm_base": "2026-01-12T15:56:30Z", "copyright": "The data included in this document is from www.openstreetmap.org. The data is made available under ODbL."}, "elements": [{"type": "node", "id": 303924572, "lat": 12.9235041, "lon": 77.5857517, "tags": {"amenity": "hospital", "name": "Shanti Hospital", "name:kn": "\u0cb6\u0cbe\u0c82\u0ca4\u0cbf \u0c86\u0cb8\u0ccd\u0caa\u0ca4\u0ccd\u0cb0\u0cc6"}}, {"type": "node", "id": 364629422, "lat": 12.9207173, "lon": 77.5745968, "tags": {"addr:street": "Kanakapura Road", "amenity": "hospital", "name": "JBS Hospital", "name:kn": "\u0c9c\u0cc6 \u0cac\u0cbf \u0c8e\u0cb8\u0ccd \u0c86\u0cb8\u0ccd\u0caa\u0ca4\u0ccd\u0cb0\u0cc6"}}, {"type": "node", "id": 364629734, "lat": 12.9231684, "lon": 77.584433, "tags": {"amenity": "hospital", "check_date": "2025-01-11", "healthcare": "hospital", "name": "Jayanagar heart Centre"}}, {"type": "node", "id": 364642648, "lat": 12.9169001, "lon": 77.5985958}, {"type": "node", "id": 456209036, "lat": 12.9704823, "lon": 77.5844827}, {"type": "node", "id": 456209040, "lat": 12.969032, "lon": 77.5861597}, {"type": "node", "id": 456209041, "lat": 12.9698959, "lon": 77.5870036}, {"type": "node", "id": 456209042, "lat": 12.9716341, "lon": 77.5867497}, {"type": "node", "id": 456209045, "lat": 12.9715663, "lon": 77.5849896}, {"type": "node", "id": 456209046, "lat": 12.9713608, "lon": 77.5852082}, {"type": "node", "id": 456209054, "lat": 12.9726031, "lon": 77.5855842}, {"type": "node", "id": 458105013, "lat": 12.9412769, "lon": 77.5219293}, {"type": "node", "id": 459478506, "lat": 12.9685278, "lon": 77.5952876}, {"type": "node", "id": 459815979, "lat": 12.9685229, "lon": 77.5947891}, {"type": "node", "id": 459815980, "lat": 12.9686018, "lon": 77.5952952}, {"type": "node", "id": 493514796, "lat": 12.9252579, "lon": 77.5916365}, {"type": "node", "id": 493514797, "lat": 12.9252419, "lon": 77.5934322}, {"type": "node", "id": 493530644, "lat": 12.9275602, "lon": 77.5993228}, {"type": "node", "id": 493530647, "lat": 12.9275184, "lon": 77.6003371}, {"type": "node", "id": 493530781, "lat": 12.9408169, "lon": 77.592661}, {"type": "node", "id": 493530784, "lat": 12.9409395, "lon": 77.592126}, {"type": "node", "id": 493530786, "lat": 12.9410122, "lon": 77.5911668}, {"type": "node", "id": 493530788, "lat": 12.9402375, "lon": 77.5909079}, {"type": "node", "id": 493530789, "lat": 12.9397567, "lon": 77.588217}, {"type": "node", "id": 493530791, "lat": 12.9374, "lon": 77.5871527}, {"type": "node", "id": 493530796, "lat": 12.935562, "lon": 77.5900109}, {"type": "node", "id": 493530798, "lat": 12.9363409, "lon": 77.5901535}, {"type": "node", "id": 493530800, "lat": 12.9385991, "lon": 77.5924953}, {"type": "node", "id": 493530801, "lat": 12.9405242, "lon": 77.5924597}, {"type": "node", "id": 560379894, "lat": 12.8954839, "lon": 77.5978327}, {"type": "node", "id": 560379898, "lat": 12.8946243, "lon": 77.5981296}, {"type": "node", "id": 560379901, "lat": 12.8940183, "lon": 77.5990607}, {"type": "node", "id": 560379902, "lat": 12.8949854, "lon": 77.5993304}, {"type": "node", "id": 560379907, "lat": 12.8960595, "lon": 77.5971952}, {"type": "node", "id": 560379910, "lat": 12.8970191, "lon": 77.5976894}, {"type": "node", "id": 560379916, "lat": 12.895621, "lon": 77.5993219}, {"type": "node", "id": 578143351, "lat": 12.9838504, "lon": 77.6060501}, {"type": "node", "id": 578143354, "lat": 12.9840783, "lon": 77.6045075}, {"type": "node", "id": 578143356, "lat": 12.9839399, "lon": 77.603692}, {"type": "node", "id": 578143360, "lat": 12.9829684, "lon": 77.6033731}, {"type": "node", "id": 578143367, "lat": 12.9822078, "lon": 77.6035776}, {"type": "node", "id": 582384953, "lat": 12.9376734, "lon": 77.5802836, "tags": {"addr:district": "Bengaluru Urban", "addr:full": "202, R.V.Road", "addr:postcode": "560001", "addr:state": "Karnataka", "addr:street": "Rashtriya Vidyalaya Road", "amenity": "hospital", "email": "info@Bengaluruhospital.co.in", "healthcare": "hospital", "name": "Bengaluru Hospital, Susruta Medical Aid AndResearch Home Limited", "name:kn": "\u0cac\u0cc6\u0c82\u0c97\u0cb3\u0cc2\u0cb0\u0cc1 \u0c86\u0cb8\u0ccd\u0caa\u0ca4\u0ccd\u0cb0\u0cc6", "operator:type": "private", "source": "OpenGovernmentData", "website": "http://dpal.kar.nic.in/Kanunu%20padakosha%20PDF%20Files/Recognised%20Hospitals.pdf"}}, {"type": "node", "id": 663596614, "lat": 12.9842446, "lon": 77.599777}, {"type": "node", "id": 663596615, "lat": 12.9831904, "lon": 77.6002669}, {"type": "node", "id": 665727326, "lat": 12.9100629, "lon": 77.5924585, "tags": {"addr:district": "Bengaluru Urban", "addr:full": "220, 2nd phase, JP Nagar,Next to Nilgiris", "addr:postcode": "560078", "addr:state": "Karnataka", "amenity": "hospital", "check_date": "2025-06-21", "healthcare:speciality": "General Gynecology; Obstetrics; Prenatal Care; nulife clinic; Laboratory Testing and In-Office Surgery; Medical Spa for Women; Ophthalmology", "name": "Divakars speciality Hospital", "operator:type": "private", "source": "OpenGovernmentData", "website": "http://www.healthforher.in/"}}, {"type": "node", "id": 679886725, "lat": 12.9649071, "lon": 77.5681542}, {"type": "node", "id": 679886767, "lat": 12.9635035, "lon": 77.5674932}, {"type": "node", "id": 679886785, "lat": 12.9647552, "lon": 77.5672137}, {"type": "node", "id": 679886814, "lat": 12.9639958, "lon": 77.5681757}, {"type": "node", "id": 679886851, "lat": 12.9633987, "lon": 77.5673373}, {"type": "node", "id": 679886893, "lat": 12.9637968, "lon": 77.5680521}, {"type": "node", "id": 680004360, "lat": 12.9802166, "lon": 77.56574}, {"type": "node", "id": 680004373, "lat": 12.9794404, "lon": 77.564481}, {"type": "node", "id": 680004435, "lat": 12.9793627, "lon": 77.5656525}, {"type": "node", "id": 680004477, "lat": 12.9802981, "lon": 77.5645109}, {"type": "node", "id": 691930445, "lat": 12.9234317, "lon": 77.5923374, "tags": {"amenity": "hospital", "check_date": "2024-08-18", "name": "BMTC Hospital", "name:kn": "\u0cac\u0cbf\u0c8e\u0c82\u0c9f\u0cbf\u0cb8\u0cbf \u0c86\u0cb8\u0ccd\u0caa\u0ca4\u0ccd\u0cb0\u0cc6", "wheelchair": "yes"}}, {"type": "node", "id": 769216417, "lat": 12.9364329, "lon": 77.583477, "tags": {"amenity": "hospital", "healthcare": "hospital", "name": "Ramakrishna Nursing Home and Hospital"}}, {"type": "node", "id": 954623054, "lat": 12.939058, "lon": 77.5510802, "tags": {"addr:city": "bangalore", "addr:housenumber": "8/45", "addr:postcode": "560050", "addr:street": "80 Feet Road, SBM Colony, Near-Bank Colony Bus Stop, Banashankari 1st Stage", "amenity": "hospital", "name": "Sri Vinayaka Poly Clinic", "phone": "080 2672 8455", "source": "justdial"}}, {"type": "node", "id": 1005544881, "lat": 12.9815051, "lon": 77.6011944, "tags": {"addr:city": "Bangalore", "addr:housenumber": "55", "addr:postcode": "560001", "addr:street": "Infantry Road", "amenity": "hospital", "email": "bengaluru@medinovaindia.com", "fax": "+918022867244", "name": "Mallya Audikesh Diagnostics Center", "phone": "+918022868423", "website": "http://www.medinovaindia.com"}}, {"type": "node", "id": 1085786951, "lat": 12.9452313, "lon": 77.5861734, "tags": {"addr:street": "Siddapura Road", "amenity": "hospital", "name": "Lalbagh Nursing Home", "name:kn": "\u0cb2\u0cbe\u0cb2\u0ccd\u0cac\u0cbe\u0c97\u0ccd \u0ca8\u0cb0\u0ccd\u0cb8\u0cbf\u0c82\u0c97\u0ccd \u0cb9\u0ccb\u0c82"}}, {"type": "node", "id": 1108014134, "lat": 12.9681189, "lon": 77.54325, "tags": {"amenity": "hospital", "emergency": "no", "name": "Soujanya Clinic"}}, {"type": "node", "id": 1108040901, "lat": 12.967291, "lon": 77.5429164, "tags": {"amenity": "hospital", "name": "Kanva Diagnostics Collection Centre"}}, {"type": "node", "id": 1272424543, "lat": 12.9073391, "lon": 77.5830655, "tags": {"addr:street": "29 Main", "address": "593 14th cross 29th main", "amenity": "hospital", "designation": "Clinic", "emergency": "no", "name": "Srinivas Clinic", "name:kn": "\u0cb6\u0ccd\u0cb0\u0cc0\u0ca8\u0cbf\u0cb5\u0cbe\u0cb8\u0ccd \u0c95\u0ccd\u0cb2\u0cbf\u0ca8\u0cbf\u0c95\u0ccd"}}, {"type": "node", "id": 1307598703, "lat": 12.9833885, "lon": 77.5950608}, {"type": "node", "id": 1331946750, "lat": 12.9111686, "lon": 77.5795767}, {"type": "node", "id": 1331946751, "lat": 12.9110875, "lon": 77.5799978}, {"type": "node", "id": 1331946769, "lat": 12.9108601, "lon": 77.5800058}, {"type": "node", "id": 1331946771, "lat": 12.9109254, "lon": 77.5795391}, {"type": "node", "id": 1387523802, "lat": 12.9829748, "lon": 77.5949195}, {"type": "node", "id": 1387523809, "lat": 12.9832706, "lon": 77.5940109}, {"type": "node", "id": 1387523823, "lat": 12.9836942, "lon": 77.5941561}, {"type": "node", "id": 1438212033, "lat": 12.9367955, "lon": 77.5907094, "tags": {"amenity": "hospital", "designation": "Sanatorium", "emergency": "no", "name": "SDS Tuberculosis Research Centre and Rajiv Gandhi Institute of Chest diseases", "research": "medical"}}, {"type": "node", "id": 1440343668, "lat": 12.942614, "lon": 77.5854533, "tags": {"addr:district": "Bengaluru Urban", "addr:full": "34, 10Th Main 1st Block, Jayanagar", "addr:postcode": "560011", "addr:state": "Karnataka", "amenity": "hospital", "name": "Maiya Multispecialty Hospital", "source": "OpenGovernmentData", "wheelchair": "yes"}}, {"type": "node", "id": 1446213195, "lat": 12.9387662, "lon": 77.5924922}, {"type": "node", "id": 1446213202, "lat": 12.9387276, "lon": 77.5923334}, {"type": "node", "id": 1446213205, "lat": 12.9390167, "lon": 77.5924876}, {"type": "node", "id": 1446213220, "lat": 12.9389728, "lon": 77.5922685}, {"type": "node", "id": 1446581013, "lat": 12.9474657, "lon": 77.5923861}, {"type": "node", "id": 1448082584, "lat": 12.9375871, "lon": 77.5873956}, {"type": "node", "id": 1448082587, "lat": 12.936693, "lon": 77.5911016}, {"type": "node", "id": 1448082598, "lat": 12.93618, "lon": 77.5926361}, {"type": "node", "id": 1448082604, "lat": 12.937314, "lon": 77.5872788}, {"type": "node", "id": 1448082613, "lat": 12.9363336, "lon": 77.5918227}, {"type": "node", "id": 1448082615, "lat": 12.9387741, "lon": 77.5880107}, {"type": "node", "id": 1448082622, "lat": 12.9402148, "lon": 77.5884474}, {"type": "node", "id": 1448082624, "lat": 12.9364859, "lon": 77.5914554}, {"type": "node", "id": 1448082635, "lat": 12.9390354, "lon": 77.5882017}, {"type": "node", "id": 1448082643, "lat": 12.9391547, "lon": 77.5880671}, {"type": "node", "id": 1448082645, "lat": 12.9381828, "lon": 77.587907}, {"type": "node", "id": 1448082657, "lat": 12.9411746, "lon": 77.5895257}, {"type": "node", "id": 1448082660, "lat": 12.9386347, "lon": 77.5881681}, {"type": "node", "id": 1448082662, "lat": 12.9361363, "lon": 77.5906341}, {"type": "node", "id": 1448089236, "lat": 12.9405614, "lon": 77.5899032}, {"type": "node", "id": 1448634281, "lat": 12.9356233, "lon": 77.589596}, {"type": "node", "id": 1462175435, "lat": 12.908504, "lon": 77.5139924}, {"type": "node", "id": 1462175436, "lat": 12.9084491, "lon": 77.5138596}, {"type": "node", "id": 1462175438, "lat": 12.9095733, "lon": 77.5134841}, {"type": "node", "id": 1462175439, "lat": 12.909345, "lon": 77.5142567}, {"type": "node", "id": 1462175441, "lat": 12.9090664, "lon": 77.5132532}, {"type": "node", "id": 1462175447, "lat": 12.9084727, "lon": 77.5130697}, {"type": "node", "id": 1462175448, "lat": 12.9081947, "lon": 77.5137658}, {"type": "node", "id": 1463555571, "lat": 12.930936, "lon": 77.5153776, "tags": {"addr:district": "Bengaluru Urban", "addr:full": "No. 484/A, Ideal Homes Township, 18th Main Road, Rajarajeshwarinagar", "addr:postcode": "560098", "addr:state": "Karnataka", "amenity": "hospital", "name": "Rc Hospital", "source": "OpenGovernmentData"}}, {"type": "node", "id": 1463563608, "lat": 12.9263226, "lon": 77.5156579, "tags": {"amenity": "hospital", "name": "Veturi Child Health Centre"}}, {"type": "node", "id": 1464921265, "lat": 12.9126298, "lon": 77.5913594, "tags": {"addr:district": "Bengaluru Urban", "addr:full": "1635,17Th Main ( Near To Woody `S Hotel) 2nd Phase J.P. Nagar, Banglore", "addr:postcode": "560078", "addr:state": "Karnataka", "addr:street": "17th Main Road", "amenity": "hospital", "healthcare": "hospital", "name": "Chirag Hospital and Maternity Center", "source": "OpenGovernmentData"}}, {"type": "node", "id": 1466477036, "lat": 12.9256842, "lon": 77.5489346, "tags": {"addr:district": "Bengaluru Urban", "addr:full": "No:114, 100 Feet Ring Road, 3Road Stage Banashankari", "addr:postcode": "560085", "addr:state": "Karnataka", "amenity": "hospital", "emergency": "yes", "name": "Udhbhava Hospital", "name:kn": "\u0c89\u0ca6\u0ccd\u0cad\u0cb5 \u0c86\u0cb8\u0ccd\u0caa\u0ca4\u0ccd\u0cb0\u0cc6", "source": "OpenGovernmentData"}}, {"type": "node", "id": 1466576385, "lat": 12.9206648, "lon": 77.5598673, "tags": {"addr:district": "Bengaluru Urban", "addr:full": "274 / 275, M K Puttalingaiah Road, Padmanabhanagar", "addr:postcode": "560073", "addr:state": "Karnataka", "amenity": "hospital", "emergency": "yes", "name": "DG Hospital", "operator:type": "private", "source": "OpenGovernmentData", "website": "http://dpal.kar.nic.in/Kanunu%20padakosha%20PDF%20Files/Recognised%20Hospitals.pdf"}}, {"type": "node", "id": 1467778591, "lat": 12.9336501, "lon": 77.5660602, "tags": {"amenity": "hospital", "emergency": "yes", "name": "Kangila Clinic"}}, {"type": "node", "id": 1468296636, "lat": 12.9410014, "lon": 77.5454222}, {"type": "node", "id": 1468296638, "lat": 12.9408975, "lon": 77.5456958}, {"type": "node", "id": 1468296641, "lat": 12.9409341, "lon": 77.5454222}, {"type": "node", "id": 1468296642, "lat": 12.9410197, "lon": 77.545551}, {"type": "node", "id": 1468296644, "lat": 12.9410249, "lon": 77.5457012}, {"type": "node", "id": 1468296645, "lat": 12.9409184, "lon": 77.5455644}, {"type": "node", "id": 1470603498, "lat": 12.914434, "lon": 77.6050207, "tags": {"amenity": "hospital", "designation": "Kids Care Clinic", "healthcare": "hospital", "name": "Kids Care Clinic"}}, {"type": "node", "id": 1473296715, "lat": 12.9293288, "lon": 77.5877091, "tags": {"addr:district": "Bengaluru Urban", "addr:full": "24/1-1, 14Th Main, 4Th Block East Jayanagar", "addr:postcode": "560041", "addr:state": "Karnataka", "amenity": "hospital", "emergency": "no", "name": "Jayanagar Orthopaedic Centre", "source": "OpenGovernmentData"}}, {"type": "node", "id": 1473320992, "lat": 12.9282826, "lon": 77.5993229}, {"type": "node", "id": 1473921774, "lat": 12.9458714, "lon": 77.5675192, "tags": {"addr:district": "Bengaluru Urban", "addr:full": "No.81,Bulltemple Road,Near Ramakrishna Ashram", "addr:postcode": "560019", "addr:state": "Karnataka", "addr:street": "Shyamaraja Iyengar Road", "amenity": "hospital", "emergency": "no", "name": "Shekar Hospital", "name:en": "Shekhar Hospital", "name:hi": "\u0936\u0947\u0916\u0930 \u0939\u0949\u0938\u094d\u092a\u093f\u091f\u0932", "name:kn": "\u0cb6\u0cc7\u0c96\u0cb0\u0ccd \u0cb9\u0cbe\u0cb8\u0ccd\u0caa\u0cbf\u0c9f\u0cb2\u0ccd", "source": "OpenGovernmentData"}}, {"type": "node", "id": 1473997305, "lat": 12.9162804, "lon": 77.5798278}, {"type": "node", "id": 1473997310, "lat": 12.9162881, "lon": 77.5793963}, {"type": "node", "id": 1473997317, "lat": 12.9166469, "lon": 77.5794031}, {"type": "node", "id": 1474062996, "lat": 12.9266424, "lon": 77.5774782}, {"type": "node", "id": 1474062998, "lat": 12.9271858, "lon": 77.5774895}, {"type": "node", "id": 1474277938, "lat": 12.9135707, "lon": 77.5788941, "tags": {"addr:street": "Ayodhyarama Road", "amenity": "hospital", "name": "Parimala Clinic", "name:kn": "\u0caa\u0cb0\u0cbf\u0cae\u0cb3 \u0c9a\u0cbf\u0c95\u0cbf\u0ca4\u0ccd\u0cb8\u0cbe\u0cb2\u0caf"}}, {"type": "node", "id": 1474432217, "lat": 12.9442628, "lon": 77.5967219}, {"type": "node", "id": 1474472488, "lat": 12.9387115, "lon": 77.5937737, "tags": {"amenity": "hospital", "description": "Patients initally should come here to scrrened to refer to the appropriate department for their disorder", "emergency": "no", "healthcare": "hospital", "name": "NIMHANS Screening block"}}, {"type": "node", "id": 1474472859, "lat": 12.9388056, "lon": 77.5942994, "tags": {"amenity": "hospital", "healthcare": "hospital", "name": "NIMHANS OPD"}}, {"type": "node", "id": 1474511948, "lat": 12.9483598, "lon": 77.5940621, "tags": {"addr:district": "Bengaluru Urban", "addr:full": "87/2, 8Th Cross,Wilson Garden", "addr:postcode": "560027", "addr:state": "Karnataka", "amenity": "hospital", "healthcare": "hospital", "name": "Manjunath Hospital", "name:kn": "\u0cae\u0c82\u0c9c\u0cc1\u0ca8\u0cbe\u0ca5 \u0c86\u0cb8\u0ccd\u0caa\u0ca4\u0ccd\u0cb0\u0cc6", "source": "OpenGovernmentData"}}, {"type": "node", "id": 1474512442, "lat": 12.9484356, "lon": 77.5942592, "tags": {"addr:street": "8th Cross", "amenity": "hospital", "healthcare": "hospital", "name": "Karthik Hospital", "name:kn": "\u0c95\u0cbe\u0cb0\u0ccd\u0ca4\u0cbf\u0c95\u0ccd \u0c86\u0cb8\u0ccd\u0caa\u0ca4\u0ccd\u0cb0\u0cc6"}}, {"type": "node", "id": 1474827898, "lat": 12.973967, "lon": 77.5479135, "tags": {"amenity": "hospital", "name": "Shivakrupa Hospital", "name:kn": "\u0cb6\u0cbf\u0cb5\u0c95\u0cc3\u0caa \u0c86\u0cb8\u0ccd\u0caa\u0ca4\u0ccd\u0cb0\u0cc6"}}, {"type": "node", "id": 1517317433, "lat": 12.9825652, "lon": 77.603472}, {"type": "node", "id": 1517317453, "lat": 12.9823736, "lon": 77.6035481}, {"type": "node", "id": 1551996910, "lat": 12.9307467, "lon": 77.5415644}, {"type": "node", "id": 1551996911, "lat": 12.9311353, "lon": 77.5410146}, {"type": "node", "id": 1551996916, "lat": 12.9308423, "lon": 77.5408805}, {"type": "node", "id": 1551996934, "lat": 12.93049, "lon": 77.5414278}, {"type": "node", "id": 1632708776, "lat": 12.9635923, "lon": 77.5735617}, {"type": "node", "id": 1632708781, "lat": 12.9609064, "lon": 77.5720128}, {"type": "node", "id": 1632708784, "lat": 12.9610663, "lon": 77.5733989}, {"type": "node", "id": 1632708796, "lat": 12.9609362, "lon": 77.5720543}, {"type": "node", "id": 1632708808, "lat": 12.9613103, "lon": 77.5722069}, {"type": "node", "id": 1632708811, "lat": 12.9611323, "lon": 77.5719575}, {"type": "node", "id": 1632708861, "lat": 12.9618872, "lon": 77.5734058}, {"type": "node", "id": 1632708866, "lat": 12.961672, "lon": 77.5733164}, {"type": "node", "id": 1632708889, "lat": 12.9634706, "lon": 77.57357}, {"type": "node", "id": 1632708898, "lat": 12.9633993, "lon": 77.5735928}, {"type": "node", "id": 1632708906, "lat": 12.9616998, "lon": 77.5735952}, {"type": "node", "id": 1632708925, "lat": 12.9637386, "lon": 77.5737248}, {"type": "node", "id": 1632708928, "lat": 12.9619056, "lon": 77.573637}, {"type": "node", "id": 1632708934, "lat": 12.9636543, "lon": 77.5735268}, {"type": "node", "id": 1632708941, "lat": 12.9633974, "lon": 77.5736089}, {"type": "node", "id": 1632708947, "lat": 12.9615975, "lon": 77.5732888}, {"type": "node", "id": 1632708951, "lat": 12.9614968, "lon": 77.5732328}, {"type": "node", "id": 1632708968, "lat": 12.9634411, "lon": 77.5735601}, {"type": "node", "id": 1632708973, "lat": 12.9609748, "lon": 77.5720251}, {"type": "node", "id": 1632708976, "lat": 12.9611299, "lon": 77.5735103}, {"type": "node", "id": 1632709009, "lat": 12.9610084, "lon": 77.5726205}, {"type": "node", "id": 1632709017, "lat": 12.9615949, "lon": 77.5735579}, {"type": "node", "id": 1632709027, "lat": 12.9613888, "lon": 77.5741417}, {"type": "node", "id": 1632709048, "lat": 12.9633443, "lon": 77.5737318}, {"type": "node", "id": 1632709052, "lat": 12.9614382, "lon": 77.573406}, {"type": "node", "id": 1632709056, "lat": 12.9634811, "lon": 77.573582}, {"type": "node", "id": 1632709065, "lat": 12.9613965, "lon": 77.572327}, {"type": "node", "id": 1632709074, "lat": 12.960893, "lon": 77.5721517}, {"type": "node", "id": 1632709078, "lat": 12.9609988, "lon": 77.5720585}, {"type": "node", "id": 1632709079, "lat": 12.9611431, "lon": 77.5719724}, {"type": "node", "id": 1632709086, "lat": 12.9634018, "lon": 77.5736268}, {"type": "node", "id": 1632709091, "lat": 12.9619383, "lon": 77.5734103}, {"type": "node", "id": 1632709096, "lat": 12.9617719, "lon": 77.5735024}, {"type": "node", "id": 1632709098, "lat": 12.963528, "lon": 77.5738818}, {"type": "node", "id": 1632709106, "lat": 12.9611219, "lon": 77.5721183}, {"type": "node", "id": 1632709111, "lat": 12.9632805, "lon": 77.5739684}, {"type": "node", "id": 1632709127, "lat": 12.9634181, "lon": 77.5735675}, {"type": "node", "id": 1632709139, "lat": 12.9631721, "lon": 77.5737306}, {"type": "node", "id": 1632709141, "lat": 12.9632032, "lon": 77.5737886}, {"type": "node", "id": 1632709144, "lat": 12.9615532, "lon": 77.5734148}, {"type": "node", "id": 1632709146, "lat": 12.9608908, "lon": 77.572297}, {"type": "node", "id": 1632709151, "lat": 12.963591, "lon": 77.5737667}, {"type": "node", "id": 1632709163, "lat": 12.9632317, "lon": 77.5739593}, {"type": "node", "id": 1632709170, "lat": 12.9618173, "lon": 77.5741956}, {"type": "node", "id": 1632709175, "lat": 12.9632677, "lon": 77.573775}, {"type": "node", "id": 1632709181, "lat": 12.961012, "lon": 77.5724621}, {"type": "node", "id": 1632709198, "lat": 12.9634884, "lon": 77.5735951}, {"type": "node", "id": 1632709210, "lat": 12.9614134, "lon": 77.5734345}, {"type": "node", "id": 1632709213, "lat": 12.9618153, "lon": 77.5733792}, {"type": "node", "id": 1632709223, "lat": 12.9618579, "lon": 77.5737696}, {"type": "node", "id": 1632709230, "lat": 12.961258, "lon": 77.5738403}, {"type": "node", "id": 1632709263, "lat": 12.9634798, "lon": 77.5735144}, {"type": "node", "id": 1632709265, "lat": 12.9635149, "lon": 77.5735802}, {"type": "node", "id": 1632709272, "lat": 12.9615343, "lon": 77.5734966}, {"type": "node", "id": 1632709273, "lat": 12.9634065, "lon": 77.5735785}, {"type": "node", "id": 1632709285, "lat": 12.9632948, "lon": 77.5736392}, {"type": "node", "id": 1632709327, "lat": 12.9617111, "lon": 77.573562}, {"type": "node", "id": 1632709348, "lat": 12.9637216, "lon": 77.5736931}, {"type": "node", "id": 1632709354, "lat": 12.9616277, "lon": 77.5734424}, {"type": "node", "id": 1632709372, "lat": 12.9636224, "lon": 77.573467}, {"type": "node", "id": 1632709374, "lat": 12.9634077, "lon": 77.5736406}, {"type": "node", "id": 1632709375, "lat": 12.961969, "lon": 77.5733195}, {"type": "node", "id": 1632709376, "lat": 12.9633609, "lon": 77.5739231}, {"type": "node", "id": 1632709386, "lat": 12.9611334, "lon": 77.5739135}, {"type": "node", "id": 1632709394, "lat": 12.9612431, "lon": 77.5722834}, {"type": "node", "id": 1632709403, "lat": 12.9634257, "lon": 77.5735635}, {"type": "node", "id": 1632709422, "lat": 12.9612609, "lon": 77.5735601}, {"type": "node", "id": 1632709424, "lat": 12.9633727, "lon": 77.5736603}, {"type": "node", "id": 1632709425, "lat": 12.9612827, "lon": 77.5733848}, {"type": "node", "id": 1632709439, "lat": 12.9618438, "lon": 77.573529}, {"type": "node", "id": 1632709440, "lat": 12.9635468, "lon": 77.5734767}, {"type": "node", "id": 1632709442, "lat": 12.9638365, "lon": 77.5736696}, {"type": "node", "id": 1632709444, "lat": 12.9637036, "lon": 77.5734212}, {"type": "node", "id": 1632709474, "lat": 12.9608586, "lon": 77.5720489}, {"type": "node", "id": 1632709477, "lat": 12.9608893, "lon": 77.5720917}, {"type": "node", "id": 1632709511, "lat": 12.9610247, "lon": 77.573802}, {"type": "node", "id": 1632709513, "lat": 12.9611249, "lon": 77.573937}, {"type": "node", "id": 1632709549, "lat": 12.9617947, "lon": 77.5735918}, {"type": "node", "id": 1632709550, "lat": 12.9631549, "lon": 77.5738158}, {"type": "node", "id": 1632709559, "lat": 12.9618927, "lon": 77.573673}, {"type": "node", "id": 1632709561, "lat": 12.9617574, "lon": 77.5740375}, {"type": "node", "id": 1632709565, "lat": 12.9615834, "lon": 77.5731822}, {"type": "node", "id": 1632709569, "lat": 12.9619709, "lon": 77.5734219}, {"type": "node", "id": 1632709571, "lat": 12.9615515, "lon": 77.5734447}, {"type": "node", "id": 1632709574, "lat": 12.9614219, "lon": 77.5740498}, {"type": "node", "id": 1632709576, "lat": 12.9613585, "lon": 77.5735723}, {"type": "node", "id": 1632709577, "lat": 12.9634567, "lon": 77.5735624}, {"type": "node", "id": 1632709578, "lat": 12.9636238, "lon": 77.5738279}, {"type": "node", "id": 1632709594, "lat": 12.9608638, "lon": 77.572111}, {"type": "node", "id": 1632709611, "lat": 12.9614809, "lon": 77.5740678}, {"type": "node", "id": 1632709618, "lat": 12.9634922, "lon": 77.5738149}, {"type": "node", "id": 1632709626, "lat": 12.9633469, "lon": 77.5738968}, {"type": "node", "id": 1632709641, "lat": 12.9616069, "lon": 77.5735225}, {"type": "node", "id": 1632709654, "lat": 12.9613956, "lon": 77.573484}, {"type": "node", "id": 1632709661, "lat": 12.9615588, "lon": 77.5732549}, {"type": "node", "id": 1632709688, "lat": 12.9620052, "lon": 77.5736748}, {"type": "node", "id": 1632709691, "lat": 12.9609333, "lon": 77.5737673}, {"type": "node", "id": 1632709699, "lat": 12.9607496, "lon": 77.5722602}, {"type": "node", "id": 1632709701, "lat": 12.9614463, "lon": 77.5741635}, {"type": "node", "id": 1632709704, "lat": 12.9632273, "lon": 77.5736995}, {"type": "node", "id": 1632709707, "lat": 12.9618108, "lon": 77.5735443}, {"type": "node", "id": 1632709717, "lat": 12.9619168, "lon": 77.5735821}, {"type": "node", "id": 1632709722, "lat": 12.9632654, "lon": 77.5739403}, {"type": "node", "id": 1632709734, "lat": 12.963346, "lon": 77.5736104}, {"type": "node", "id": 1632709738, "lat": 12.9612522, "lon": 77.5734695}, {"type": "node", "id": 1739362236, "lat": 12.9647429, "lon": 77.5849317}, {"type": "node", "id": 1739362251, "lat": 12.9646929, "lon": 77.5842044}, {"type": "node", "id": 1739362285, "lat": 12.9639833, "lon": 77.5840472}, {"type": "node", "id": 1739362319, "lat": 12.9639525, "lon": 77.5849664}, {"type": "node", "id": 1739362370, "lat": 12.9643655, "lon": 77.585004}, {"type": "node", "id": 1739362385, "lat": 12.9645671, "lon": 77.5841174}, {"type": "node", "id": 1739366976, "lat": 12.9645699, "lon": 77.5842}, {"type": "node", "id": 1778854020, "lat": 12.9593144, "lon": 77.5265054, "tags": {"addr:district": "Bengaluru Urban", "addr:full": "No. 1558, Opposite Chandra Layout Bus Stand, Chandra Layout, Vijaynagar", "addr:postcode": "560048", "addr:state": "Karnataka", "amenity": "hospital", "designation": "Gurushree Multi speciality Hospital", "emergency": "yes", "name": "Gurushree Hitech Multispeciality Hospital", "source": "OpenGovernmentData"}}, {"type": "node", "id": 1778897704, "lat": 12.9755854, "lon": 77.5313495, "tags": {"addr:district": "Bengaluru Urban", "addr:full": "29 And 30, Nagarbhavi Road, Opp To Prashanthnagar Bus Stop, Vijaynagar", "addr:postcode": "560040", "addr:state": "Karnataka", "amenity": "hospital", "emergency": "no", "name": "Shobha Hospital, Bengaluru Urban", "name:kn": "\u0cb6\u0ccb\u0cad\u0cbe \u0c86\u0cb8\u0ccd\u0caa\u0ca4\u0ccd\u0cb0\u0cc6", "source": "OpenGovernmentData"}}, {"type": "node", "id": 1778953072, "lat": 12.9744053, "lon": 77.5426819, "tags": {"addr:district": "Bengaluru Urban", "addr:full": "# 91, Magadi Chord Road", "addr:postcode": "560040", "addr:state": "Karnataka", "amenity": "hospital", "designation": "Gayathri Nursing Home", "emergency": "yes", "name": "Gayathri Hospital, Bengaluru Urban", "operator:type": "private", "source": "OpenGovernmentData", "website": "http://dpal.kar.nic.in/Kanunu%20padakosha%20PDF%20Files/Recognised%20Hospitals.pdf", "wheelchair": "no"}}, {"type": "node", "id": 1780474089, "lat": 12.9736183, "lon": 77.5647794}, {"type": "node", "id": 1791567114, "lat": 12.9534505, "lon": 77.5705954}, {"type": "node", "id": 1809622904, "lat": 12.9799069, "lon": 77.5389254}, {"type": "node", "id": 1809622908, "lat": 12.9800265, "lon": 77.5387148}, {"type": "node", "id": 1809622909, "lat": 12.9807207, "lon": 77.539317}, {"type": "node", "id": 1809622910, "lat": 12.9808268, "lon": 77.5390417}, {"type": "node", "id": 1809622941, "lat": 12.9776656, "lon": 77.5430998}, {"type": "node", "id": 1809622942, "lat": 12.9770135, "lon": 77.5424279}, {"type": "node", "id": 1809622943, "lat": 12.9769482, "lon": 77.543187}, {"type": "node", "id": 1809622944, "lat": 12.9777715, "lon": 77.5425472}, {"type": "node", "id": 1809734261, "lat": 12.9761294, "lon": 77.5326369, "tags": {"addr:district": "Bengaluru Urban", "addr:full": "No.4, Nagarabhavi Main Road,Prashanth Nagar,Near Shopper City Shop", "addr:postcode": "560079", "addr:state": "Karnataka", "amenity": "hospital", "name": "Bharathy Hospital", "name:kn": "\u0cad\u0cbe\u0cb0\u0ca4\u0cbf \u0c86\u0cb8\u0ccd\u0caa\u0ca4\u0ccd\u0cb0\u0cc6", "source": "OpenGovernmentData"}}, {"type": "node", "id": 1812673570, "lat": 12.9202791, "lon": 77.5598033, "tags": {"addr:district": "Bengaluru Urban", "addr:full": "No. 277, M.K. Puttalingaiah Road, Padmanabha Nagar", "addr:postcode": "560070", "addr:state": "Karnataka", "amenity": "hospital", "emergency": "yes", "name": "Yogananda Medical and Research Centre", "source": "OpenGovernmentData"}}, {"type": "node", "id": 1835530203, "lat": 12.9089008, "lon": 77.5129805}, {"type": "node", "id": 1837634259, "lat": 12.9840698, "lon": 77.6038967}, {"type": "node", "id": 1851701912, "lat": 12.9567115, "lon": 77.6048938}, {"type": "node", "id": 1861737919, "lat": 12.8968855, "lon": 77.5980071}, {"type": "node", "id": 1861737976, "lat": 12.8962168, "lon": 77.5995039}, {"type": "node", "id": 1861737990, "lat": 12.8964455, "lon": 77.5987031}, {"type": "node", "id": 1905152108, "lat": 12.9411061, "lon": 77.5850591, "tags": {"amenity": "hospital", "emergency": "no", "name": "Kottakkal Arya Vaidya Sala", "source": "survey"}}, {"type": "node", "id": 2123564200, "lat": 12.915903, "lon": 77.5550223, "tags": {"addr:district": "Bengaluru Urban", "addr:full": "15Th Main, 17Th Cross Padmanabhanagar", "addr:postcode": "560070", "addr:state": "Karnataka", "amenity": "hospital", "emergency": "yes", "name": "Maharaja Agrasen Hospital, Bengaluru Urban", "source": "OpenGovernmentData"}}, {"type": "node", "id": 2123630630, "lat": 12.9231342, "lon": 77.5642974, "tags": {"addr:district": "Bengaluru Urban", "addr:full": "17Th, Main,27Th Cross, Banashankari 2nd Stage, South", "addr:postcode": "560070", "addr:state": "Karnataka", "amenity": "hospital", "healthcare": "hospital", "name": "Banashankari Referral Hospital", "source": "OpenGovernmentData"}}, {"type": "node", "id": 2124813862, "lat": 12.9179548, "lon": 77.555816, "tags": {"amenity": "hospital", "name": "Bangalore Kidney Foundation - NU Hospital"}}, {"type": "node", "id": 2385057300, "lat": 12.8963983, "lon": 77.5974175}, {"type": "node", "id": 2385057302, "lat": 12.8960344, "lon": 77.5974639}, {"type": "node", "id": 2385057303, "lat": 12.8962102, "lon": 77.5975133}, {"type": "node", "id": 2475117856, "lat": 12.9384822, "lon": 77.5983896}, {"type": "node", "id": 2475117859, "lat": 12.9373526, "lon": 77.5996754}, {"type": "node", "id": 2475117860, "lat": 12.9351044, "lon": 77.5966023}, {"type": "node", "id": 2475117870, "lat": 12.9378533, "lon": 77.5973517}, {"type": "node", "id": 2475117871, "lat": 12.9345698, "lon": 77.5988815}, {"type": "node", "id": 2475117938, "lat": 12.9350783, "lon": 77.5968001}, {"type": "node", "id": 2475118016, "lat": 12.9378865, "lon": 77.5989042}, {"type": "node", "id": 2480870848, "lat": 12.9744193, "lon": 77.5336479, "tags": {"addr:city": "Bangalore", "addr:postcode": "560040", "addr:street": "Vijayanagar Water Tank Road", "amenity": "hospital", "emergency": "no", "name": "Happy Tooth"}}, {"type": "node", "id": 2480884777, "lat": 12.9745812, "lon": 77.532699, "tags": {"addr:city": "Bangalore", "addr:housename": "Vijayanagar", "addr:postcode": "560040", "addr:street": "Vijayanagar Water Tank Road", "amenity": "hospital", "name": "Rishi Women and Child Clinic"}}, {"type": "node", "id": 2483779679, "lat": 12.9736894, "lon": 77.5369482, "tags": {"addr:city": "Bangalore", "addr:housename": "Near Ganapathi Temple", "addr:postcode": "560040", "addr:street": "Vijayanagar Water Tank Road", "amenity": "hospital", "name": "Penta Care Ayurvedic Hospital"}}, {"type": "node", "id": 2484900084, "lat": 12.9436624, "lon": 77.5419997, "tags": {"addr:city": "Bangalore", "addr:housename": "Near BDA Park", "addr:housenumber": "63", "addr:postcode": "560085", "addr:street": "6th Main Road", "amenity": "hospital", "name": "Shalini Nursing & MAternity Home"}}, {"type": "node", "id": 2487658338, "lat": 12.9729127, "lon": 77.5394723, "tags": {"addr:city": "Bangalore", "addr:housename": "Service Road, Near Park View, Vijayanagar", "addr:postcode": "560040", "addr:street": "6th Main", "amenity": "hospital", "name": "Shreya Poly Clinic"}}, {"type": "node", "id": 2514705828, "lat": 12.9612829, "lon": 77.5271683, "tags": {"addr:city": "Bangalore", "addr:housename": "Below Food World, Chandra Layout", "addr:street": "4th Main Road", "amenity": "hospital", "emergency": "no", "healthcare": "hospital", "name": "Anurag Medical Center"}}, {"type": "node", "id": 2554302512, "lat": 12.9843701, "lon": 77.555666, "tags": {"amenity": "hospital", "name": "Pragathi Ayurvedic Center", "wheelchair": "no"}}, {"type": "node", "id": 2623402149, "lat": 12.9644702, "lon": 77.5928447}, {"type": "node", "id": 2623402150, "lat": 12.9643526, "lon": 77.5928366}, {"type": "node", "id": 2623402151, "lat": 12.9643496, "lon": 77.5925022}, {"type": "node", "id": 2623402152, "lat": 12.9644937, "lon": 77.592445}, {"type": "node", "id": 2623402153, "lat": 12.9643578, "lon": 77.5924316}, {"type": "node", "id": 2649089255, "lat": 12.9172238, "lon": 77.5849242}, {"type": "node", "id": 2649089256, "lat": 12.9172158, "lon": 77.5852762}, {"type": "node", "id": 2649089257, "lat": 12.9174445, "lon": 77.5849295}, {"type": "node", "id": 2649089258, "lat": 12.9174365, "lon": 77.5852815}, {"type": "node", "id": 2705350740, "lat": 12.9361689, "lon": 77.5944231}, {"type": "node", "id": 2705350763, "lat": 12.9434673, "lon": 77.5971222}, {"type": "node", "id": 2705350771, "lat": 12.9349533, "lon": 77.5932473}, {"type": "node", "id": 2705350776, "lat": 12.9362071, "lon": 77.5927708}, {"type": "node", "id": 2705350781, "lat": 12.9349386, "lon": 77.5940938}, {"type": "node", "id": 2891385860, "lat": 12.8945307, "lon": 77.598287}, {"type": "node", "id": 2914260121, "lat": 12.9623406, "lon": 77.5342853, "tags": {"addr:district": "Bengaluru Urban", "addr:full": "No.1133/F,30 Ft.Service Road, R.P.C. Layout,Vijaynagar", "addr:postcode": "560040", "addr:state": "Karnataka", "amenity": "hospital", "healthcare": "hospital", "name": "Sharavathi Hospitals (P) Ltd.", "source": "OpenGovernmentData"}}, {"type": "node", "id": 2932851733, "lat": 12.9169288, "lon": 77.5592568, "tags": {"addr:city": "Bangalore", "addr:district": "Bengaluru Urban", "addr:full": "No. 30, Pavana Dhama, 80 Feet Main Road,Opposite Nilgiris,Padmanabha Nagar", "addr:postcode": "560070", "addr:state": "Karnataka", "amenity": "hospital", "healthcare": "hospital", "name": "Dr.Agarwal's Eye Hospital Ltd, Padmanabha Nagar", "operator": "Dr. Agarwal's Eye Hospital", "operator:wikidata": "Q17052044", "source": "OpenGovernmentData"}}, {"type": "node", "id": 2984295033, "lat": 12.9184617, "lon": 77.5555842, "tags": {"addr:district": "Bengaluru Urban", "addr:full": "Thimmaiah Road, Padmanabhanagar, Bengaluru", "addr:postcode": "560070", "addr:state": "Karnataka", "amenity": "hospital", "name": "Shraddha Eye Care", "source": "Local Knowledge"}}, {"type": "node", "id": 3004275434, "lat": 12.931334, "lon": 77.5154779, "tags": {"addr:district": "Bengaluru Urban", "addr:full": "#483, 16 Th Cross, 8 Th Main", "addr:postcode": "560098", "addr:state": "Karnataka", "addr:subdistrict": "Rajarajeswarinagar", "amenity": "hospital", "healthcare": "doctor", "healthcare:speciality": "ophthalmology", "name": "Vasan Eye Care Hospital, Rajarajeswari Nagar", "operator:type": "private", "source": "OpenGovernmentData", "website": "http://www.vasaneye.in/"}}, {"type": "node", "id": 3016090364, "lat": 12.9055088, "lon": 77.5858347, "tags": {"addr:city": "bangalore", "addr:housenumber": "250", "addr:postcode": "560078", "addr:street": "24th Main, 5th Phase, Opp Nandini Hotel, Puttenhalli, JP Nagar", "amenity": "hospital", "name": "Cloud Nine Fertility", "name:kn": "\u0c95\u0ccd\u0cb2\u0ccc\u0ca1\u0ccd \u0ca8\u0cc8\u0ca8\u0ccd \u0cab\u0cb0\u0ccd\u0c9f\u0cbf\u0cb2\u0cbf\u0c9f\u0cbf", "phone": "080 4350 0123", "source": "justdial", "website": "https://www.cloudninefertility.com/", "wheelchair": "limited"}}, {"type": "node", "id": 3039639118, "lat": 12.9417609, "lon": 77.5676447}, {"type": "node", "id": 3118322042, "lat": 12.9293654, "lon": 77.5639296}, {"type": "node", "id": 3118322043, "lat": 12.9293415, "lon": 77.5640447}, {"type": "node", "id": 3118322044, "lat": 12.9295056, "lon": 77.5640805}, {"type": "node", "id": 3118322045, "lat": 12.9295294, "lon": 77.5639654}, {"type": "node", "id": 3118790621, "lat": 12.9364674, "lon": 77.5841345}, {"type": "node", "id": 3118790622, "lat": 12.9361197, "lon": 77.5841318}, {"type": "node", "id": 3118790623, "lat": 12.9360962, "lon": 77.5845073}, {"type": "node", "id": 3118790624, "lat": 12.9362321, "lon": 77.5845529}, {"type": "node", "id": 3118790625, "lat": 12.9364595, "lon": 77.5845503}, {"type": "node", "id": 3121618244, "lat": 12.9218676, "lon": 77.5719475}, {"type": "node", "id": 3121618245, "lat": 12.9215947, "lon": 77.5718802}, {"type": "node", "id": 3121618246, "lat": 12.921477, "lon": 77.5723822}, {"type": "node", "id": 3121618247, "lat": 12.9217499, "lon": 77.5724495}, {"type": "node", "id": 3121629369, "lat": 12.9253799, "lon": 77.5772433}, {"type": "node", "id": 3121629370, "lat": 12.9252275, "lon": 77.5772421}, {"type": "node", "id": 3121629372, "lat": 12.9253774, "lon": 77.5775707}, {"type": "node", "id": 3302642056, "lat": 12.9189254, "lon": 77.5986561}, {"type": "node", "id": 3388805879, "lat": 12.9413723, "lon": 77.5220207}, {"type": "node", "id": 3394753831, "lat": 12.9425246, "lon": 77.6025303, "tags": {"addr:district": "Bengaluru Urban", "addr:full": "1, 1st Cross, Gupta Layout,Lakksandra, Near Dairy Circle", "addr:housenumber": "#1", "addr:postcode": "560030", "addr:state": "Karnataka", "addr:street": "Bannerghatta Road", "amenity": "hospital", "name": "Sree Venkateshwara Speciality Hospital", "name:kn": "\u0cb6\u0ccd\u0cb0\u0cc0 \u0cb5\u0cc6\u0c82\u0c95\u0c9f\u0cc6\u0cb6\u0ccd\u0cb5\u0cb0 \u0c86\u0cb8\u0ccd\u0caa\u0ca4\u0ccd\u0cb0\u0cc6"}}, {"type": "node", "id": 3400223541, "lat": 12.968031, "lon": 77.5878222, "tags": {"amenity": "hospital", "name": "Dr. Rajkumar Blood Bank"}}, {"type": "node", "id": 3401665452, "lat": 12.9104286, "lon": 77.600378}, {"type": "node", "id": 3401665453, "lat": 12.9102629, "lon": 77.600403}, {"type": "node", "id": 3401665454, "lat": 12.9102967, "lon": 77.6005699}, {"type": "node", "id": 3401665455, "lat": 12.9104542, "lon": 77.6005432}, {"type": "node", "id": 3415857085, "lat": 12.9354528, "lon": 77.5942138}, {"type": "node", "id": 3415857086, "lat": 12.935489, "lon": 77.5936333}, {"type": "node", "id": 3415857087, "lat": 12.935758, "lon": 77.5934435}, {"type": "node", "id": 3415857088, "lat": 12.9357868, "lon": 77.5933622}, {"type": "node", "id": 3415857089, "lat": 12.9359477, "lon": 77.5933598}, {"type": "node", "id": 3415857090, "lat": 12.9359789, "lon": 77.5927659}, {"type": "node", "id": 3415857091, "lat": 12.9360532, "lon": 77.5942533}, {"type": "node", "id": 3415857092, "lat": 12.936087, "lon": 77.5927708}, {"type": "node", "id": 3415857193, "lat": 12.9360894, "lon": 77.5936727}, {"type": "node", "id": 3415857197, "lat": 12.936183, "lon": 77.5936678}, {"type": "node", "id": 3415857201, "lat": 12.9363392, "lon": 77.5937713}, {"type": "node", "id": 3422041073, "lat": 12.9356054, "lon": 77.5897045}, {"type": "node", "id": 3422041295, "lat": 12.9361328, "lon": 77.5896621}, {"type": "node", "id": 3422041298, "lat": 12.9363913, "lon": 77.5895595}, {"type": "node", "id": 3422041315, "lat": 12.9369876, "lon": 77.5891528}, {"type": "node", "id": 3422041322, "lat": 12.937384, "lon": 77.5883535}, {"type": "node", "id": 3422041323, "lat": 12.9373909, "lon": 77.588732}, {"type": "node", "id": 3422041324, "lat": 12.937477, "lon": 77.5888911}, {"type": "node", "id": 3422041325, "lat": 12.9374874, "lon": 77.5891387}, {"type": "node", "id": 3422041327, "lat": 12.9377907, "lon": 77.5883359}, {"type": "node", "id": 3425328776, "lat": 12.9406537, "lon": 77.5678462}, {"type": "node", "id": 3425328780, "lat": 12.9414736, "lon": 77.5678339}, {"type": "node", "id": 3450573832, "lat": 12.9756047, "lon": 77.5643777}, {"type": "node", "id": 3450573833, "lat": 12.9743718, "lon": 77.5648704}, {"type": "node", "id": 3450573834, "lat": 12.9747892, "lon": 77.5630258}, {"type": "node", "id": 3450573835, "lat": 12.975074, "lon": 77.5650884}, {"type": "node", "id": 3450573836, "lat": 12.9733045, "lon": 77.5631586}, {"type": "node", "id": 3450573837, "lat": 12.9754479, "lon": 77.5629561}, {"type": "node", "id": 3450573838, "lat": 12.9754308, "lon": 77.5648577}, {"type": "node", "id": 3535000927, "lat": 12.9460615, "lon": 77.5948157}, {"type": "node", "id": 3535000952, "lat": 12.946203, "lon": 77.594594}, {"type": "node", "id": 3535000968, "lat": 12.9463265, "lon": 77.5949738}, {"type": "node", "id": 3535000988, "lat": 12.9464982, "lon": 77.5947615}, {"type": "node", "id": 3535301811, "lat": 12.9264501, "lon": 77.5807661}, {"type": "node", "id": 3535301812, "lat": 12.9264501, "lon": 77.5809123}, {"type": "node", "id": 3535301845, "lat": 12.926569, "lon": 77.5807661}, {"type": "node", "id": 3535301846, "lat": 12.926569, "lon": 77.5809123}, {"type": "node", "id": 3535553589, "lat": 12.9487525, "lon": 77.5967521}, {"type": "node", "id": 3535553599, "lat": 12.9493822, "lon": 77.5963574}, {"type": "node", "id": 3535553601, "lat": 12.9493222, "lon": 77.5972587}, {"type": "node", "id": 3535553615, "lat": 12.9496434, "lon": 77.5969043}, {"type": "node", "id": 3535630375, "lat": 12.9786302, "lon": 77.5744195}, {"type": "node", "id": 3535630381, "lat": 12.978641, "lon": 77.5745168}, {"type": "node", "id": 3535630510, "lat": 12.978747, "lon": 77.5744059}, {"type": "node", "id": 3535630517, "lat": 12.9787577, "lon": 77.5745031}, {"type": "node", "id": 3535696994, "lat": 12.9279073, "lon": 77.5893439}, {"type": "node", "id": 3535696995, "lat": 12.927909, "lon": 77.5894712}, {"type": "node", "id": 3535697090, "lat": 12.9280807, "lon": 77.5893415}, {"type": "node", "id": 3535697091, "lat": 12.9280823, "lon": 77.5894688}, {"type": "node", "id": 3543907506, "lat": 12.9051841, "lon": 77.6032595}, {"type": "node", "id": 3543907508, "lat": 12.9051848, "lon": 77.6031287}, {"type": "node", "id": 3543907564, "lat": 12.9053647, "lon": 77.6032604}, {"type": "node", "id": 3543907565, "lat": 12.9053654, "lon": 77.6031297}, {"type": "node", "id": 3544299986, "lat": 12.9391198, "lon": 77.5512468}, {"type": "node", "id": 3544300103, "lat": 12.9391862, "lon": 77.5514089}, {"type": "node", "id": 3544300106, "lat": 12.9391903, "lon": 77.5512164}, {"type": "node", "id": 3544300124, "lat": 12.9392567, "lon": 77.5513785}, {"type": "node", "id": 3570997782, "lat": 12.925225, "lon": 77.5775695}, {"type": "node", "id": 3570997943, "lat": 12.9261251, "lon": 77.5777697}, {"type": "node", "id": 3570997945, "lat": 12.9261338, "lon": 77.5772486}, {"type": "node", "id": 3570997969, "lat": 12.9263134, "lon": 77.577773}, {"type": "node", "id": 3570997970, "lat": 12.9263221, "lon": 77.5772519}, {"type": "node", "id": 3710210170, "lat": 12.9474222, "lon": 77.5986921, "tags": {"amenity": "hospital", "healthcare": "hospital", "name": "Krishna Nursing Home"}}, {"type": "node", "id": 3719549886, "lat": 12.9159249, "lon": 77.5856011, "tags": {"addr:district": "Bengaluru Urban", "addr:full": "Jayanagar, J P Nagar, Bengaluru", "addr:postcode": "560041", "addr:state": "Karnataka", "amenity": "hospital", "healthcare": "clinic", "healthcare:speciality": "fertility", "name": "Milann Fertility Center", "source": "Local Knowledge"}}, {"type": "node", "id": 3770161958, "lat": 12.9543778, "lon": 77.5714995}, {"type": "node", "id": 3773028057, "lat": 12.9603157, "lon": 77.5930493, "tags": {"addr:city": "Bengaluru", "addr:district": "Bengaluru Urban", "addr:full": "44-45/2, 2nd Cross Raja Rammohan Roy Extn Off Lalbagh Double Road", "addr:postcode": "560027", "addr:state": "Karnataka", "amenity": "hospital", "building": "hospital", "name": "HCG Cancer Hospital", "source": "OpenGovernmentData", "website": "https://www.hcgoncology.com/"}}, {"type": "node", "id": 3874223184, "lat": 12.89543, "lon": 77.5978513}, {"type": "node", "id": 3922280181, "lat": 12.9584755, "lon": 77.5919279, "tags": {"amenity": "hospital", "name": "Health Care Global"}}, {"type": "node", "id": 3942993142, "lat": 12.9819805, "lon": 77.6043112}, {"type": "node", "id": 3942993148, "lat": 12.9827887, "lon": 77.603376}, {"type": "node", "id": 4030269686, "lat": 12.9821131, "lon": 77.6056163}, {"type": "node", "id": 4030269688, "lat": 12.982526, "lon": 77.6056}, {"type": "node", "id": 4097027897, "lat": 12.9292418, "lon": 77.5893625, "tags": {"addr:city": "Bangalore", "addr:district": "Bengaluru Urban", "addr:housenumber": "32/29", "addr:postcode": "560011", "addr:street": "4th Cross Road, KV Layout, Jayanagar 4th Block", "amenity": "hospital", "healthcare": "hospital", "healthcare:speciality": "dental_oral_maxillo_facial_surgery", "mobile": "+919481404000", "name": "Gulecha Dental Care", "operator": "Dr. Preeti", "operator:type": "private", "website": "https://www.gulechadental.com/"}}, {"type": "node", "id": 4107785991, "lat": 12.9601534, "lon": 77.5840184}, {"type": "node", "id": 4107785992, "lat": 12.9602284, "lon": 77.583911}, {"type": "node", "id": 4127931135, "lat": 12.9542849, "lon": 77.5721857}, {"type": "node", "id": 4171032289, "lat": 12.9767055, "lon": 77.5424167, "tags": {"addr:street": "8th cross", "amenity": "hospital"}}, {"type": "node", "id": 4349307192, "lat": 12.9485535, "lon": 77.5748248, "tags": {"amenity": "hospital", "check_date": "2024-03-09", "healthcare:speciality": "gynaecology", "name": "Sagar Chandramma Hospitals", "name:en": "Sagar Chandramma Hospitals"}}, {"type": "node", "id": 4353504160, "lat": 12.9474781, "lon": 77.5924324}, {"type": "node", "id": 4353504182, "lat": 12.9476872, "lon": 77.5927462}, {"type": "node", "id": 4353504208, "lat": 12.9480113, "lon": 77.5928052}, {"type": "node", "id": 4397421787, "lat": 12.9074635, "lon": 77.5651851}, {"type": "node", "id": 4397421788, "lat": 12.9074713, "lon": 77.565228}, {"type": "node", "id": 4397421789, "lat": 12.9074791, "lon": 77.5651261}, {"type": "node", "id": 4397421791, "lat": 12.9075079, "lon": 77.5653004}, {"type": "node", "id": 4397421798, "lat": 12.9077406, "lon": 77.5652227}, {"type": "node", "id": 4397421799, "lat": 12.9078033, "lon": 77.5650456}, {"type": "node", "id": 4397421803, "lat": 12.9079654, "lon": 77.5652093}, {"type": "node", "id": 4397421804, "lat": 12.9079837, "lon": 77.5650242}, {"type": "node", "id": 4397421812, "lat": 12.9082321, "lon": 77.5650698}, {"type": "node", "id": 4397421813, "lat": 12.9082504, "lon": 77.5652441}, {"type": "node", "id": 4397421814, "lat": 12.9082556, "lon": 77.56511}, {"type": "node", "id": 4397421815, "lat": 12.9082713, "lon": 77.5651798}, {"type": "node", "id": 4397421851, "lat": 12.9198835, "lon": 77.5987694}, {"type": "node", "id": 4397421852, "lat": 12.9198736, "lon": 77.5993623}, {"type": "node", "id": 4397421853, "lat": 12.9201638, "lon": 77.5999123}, {"type": "node", "id": 4397421854, "lat": 12.920173, "lon": 77.5993676}, {"type": "node", "id": 4397421900, "lat": 12.9282225, "lon": 77.6003663}, {"type": "node", "id": 4397421901, "lat": 12.9282513, "lon": 77.6003019}, {"type": "node", "id": 4406333893, "lat": 12.9717049, "lon": 77.5493718, "tags": {"amenity": "hospital", "name": "Shiva Kumaraswamy Building", "name:en": "shiva kumaraswamy building"}}, {"type": "node", "id": 4443301971, "lat": 12.9151071, "lon": 77.5624888, "tags": {"addr:city": "bangalore", "addr:housenumber": "5", "addr:postcode": "560050", "addr:street": "80 feet road,banashankari", "amenity": "hospital", "name": "NRS Medical & Dental Specialists Centre", "phone": "08026696054"}}, {"type": "node", "id": 4444988626, "lat": 12.9060641, "lon": 77.6049776, "tags": {"addr:city": "bangalore", "addr:housenumber": "#349/352/6/1/1", "addr:postcode": "560070", "addr:street": "Main Road, Chandra Layout, Vijayanagar,", "amenity": "hospital", "healthcare": "hospital", "name": "Anurag Medical Centre"}}, {"type": "node", "id": 4444989840, "lat": 12.9390944, "lon": 77.5619057, "tags": {"addr:city": "bangalore", "addr:housenumber": "11/2", "addr:postcode": "560079", "addr:street": "Magadi Main Road", "amenity": "hospital", "name": "Sarvodaya Hospital", "name:kn": "\u0cb8\u0cb0\u0ccd\u0cb5\u0ccb\u0ca6\u0caf \u0c86\u0cb8\u0ccd\u0caa\u0ca4\u0ccd\u0cb0\u0cc6", "phone": "098440 74946"}}, {"type": "node", "id": 4445356902, "lat": 12.966771, "lon": 77.5349228, "tags": {"addr:city": "Bangalore", "addr:postcode": "560040", "addr:street": "17th Cross Rd, Service Road, Opp. Maruthi Mandir, TTMC Bus Stop, Govindaraja Nagar Ward, PF Layout, Vijayanagar", "amenity": "hospital", "healthcare": "hospital", "name": "Employees State Insurance Dispensary", "operator": "Employees' State Insurance", "operator:short": "ESI", "operator:type": "private", "operator:wikidata": "Q3595726", "phone": "080 2845 2785", "website": "globalhospitalsindia.com"}}, {"type": "node", "id": 4445973784, "lat": 12.9003193, "lon": 77.6008061, "tags": {"addr:city": "Bangalore", "addr:housenumber": "2nd Cross Rd", "addr:postcode": "560076", "addr:street": "Bannerghatta Road", "amenity": "hospital", "emergency": "yes", "name": "Parimala Health Care", "phone": "080 2658 3117"}}, {"type": "node", "id": 4446346449, "lat": 12.9705436, "lon": 77.5834769, "tags": {"addr:city": "Bangalore", "addr:housenumber": "5", "addr:postcode": "560001", "addr:street": "Nrupathunga Rd, RBI Colony, Sampangi Rama Nagar", "amenity": "hospital", "name": "St. Martha's Heart Centre", "phone": "+9195380 43453", "website": "locations.narayanahealth.org"}}, {"type": "node", "id": 4446852004, "lat": 12.9175511, "lon": 77.6039486, "tags": {"addr:city": "Bengaluru", "addr:housenumber": "57", "addr:postcode": "560029", "addr:street": "8th B Main Road, BTM Layout 1st Stage, KEB Colony, New Gurappana Palya, BTM Layout 1, Karnataka", "amenity": "hospital", "name": "Vedam Ayurveda Multispeciality Hospital", "phone": "080 4120 2911", "website": "https://vedamayurveda.co.in/"}}, {"type": "node", "id": 4446881168, "lat": 12.9378359, "lon": 77.5573329, "tags": {"addr:city": "Bangalore", "addr:housenumber": "5", "addr:postcode": "560050", "addr:street": "80 Feet Road, 1st Stage, Srinivasa Nagar, Banashankari", "amenity": "hospital", "name": "\" NRS Medical & Dental Specialists Centre\"", "phone": "080-26696054"}}, {"type": "node", "id": 4446891375, "lat": 12.9386994, "lon": 77.5518394, "tags": {"addr:city": "bangalore", "addr:district": "Bengaluru Urban", "addr:housenumber": "60", "addr:postcode": "560050", "addr:state": "Karnataka", "addr:street": "2nd Main, Bsk 1st Stage, 80 Feet Road, Srinivasa Nagar,Sree Manjunatha Temple Street", "amenity": "hospital", "name": "Chiranjeevi Hospital & Maternity Home", "phone": "080 2691 7676", "source": "OpenGovernmentData"}}, {"type": "node", "id": 4446893667, "lat": 12.9373748, "lon": 77.5494778, "tags": {"addr:city": "bangalore", "addr:district": "Bengaluru Urban", "addr:full": "110, 1st Main, Sbm Colony, Bsk 1st Stage Hanumantha Nagar", "addr:housenumber": "110", "addr:postcode": "560050", "addr:state": "Karnataka", "addr:street": "State Bank Of Mysore Colony, 1st Stage,80 Feet Road,, Banashankari", "amenity": "hospital", "name": "Vinayaka Hospital, Hanumantha Nagar", "operator:type": "private", "phone": "080 2679 6167", "source": "OpenGovernmentData", "website": "http://dpal.kar.nic.in/Kanunu%20padakosha%20PDF%20Files/Recognised%20Hospitals.pdf"}}, {"type": "node", "id": 4446894388, "lat": 12.9354293, "lon": 77.5477956, "tags": {"addr:city": "Banglore", "addr:housenumber": "788", "addr:postcode": "560050", "addr:street": "11th Cross, 2nd Main, 80ft Main Road, SBM Colony, Giri Nagar 4th Phase", "amenity": "hospital", "name": "Diavista Diabetes & Multispeciality Hospital", "phone": "080 4096 9392", "source": "justdail", "website": "diavista.co.in"}}, {"type": "node", "id": 4446897063, "lat": 12.9420715, "lon": 77.553698, "tags": {"addr:city": "Bengaluru", "addr:housenumber": "979/A", "addr:postcode": "560085", "addr:street": "50 Feet Road", "amenity": "hospital", "name": "Meenakshi Hospital", "name:kn": "\u0cae\u0cc0\u0ca8\u0cbe\u0c95\u0ccd\u0cb7\u0cbf \u0c86\u0cb8\u0ccd\u0caa\u0ca4\u0ccd\u0cb0\u0cc6", "phone": "+918026755800"}}, {"type": "node", "id": 4446899253, "lat": 12.9408667, "lon": 77.5603657, "tags": {"addr:city": "bangalore", "addr:district": "Bengaluru Urban", "addr:full": "#795/1, 9Th Main ,Bsk 1st, Stage,2nd Block,Hanumantha Nagar", "addr:housenumber": "795/1", "addr:postcode": "560050", "addr:state": "Karnataka", "addr:street": "9th Main, 2nd Block, Hanumantha Nagar, Near-Shaneshwara Temple Road, Banashankari 1st Stage", "amenity": "hospital", "name": "Medi-Tech Multi Speciality Hospital", "phone": "080 2660 2910", "source": "OpenGovernmentData"}}, {"type": "node", "id": 4446900247, "lat": 12.9420124, "lon": 77.5506918, "tags": {"addr:city": "bangalore", "addr:housenumber": "237/37", "addr:postcode": "560050", "addr:street": "Nagendra Block, 50ft Road, 10th Main Rd, Srinagar, Banashankari", "amenity": "hospital", "name": "Kusuma Hospital", "phone": "080 2642 1177", "source": "justdail"}}, {"type": "node", "id": 4446907220, "lat": 12.9274553, "lon": 77.5516293, "tags": {"addr:city": "Bangalore", "addr:housenumber": "165", "addr:postcode": "560085", "addr:street": "1st Main Road, Kathreguppe Cross Road, Kathreguppe, Banashankari 3rd Stage", "amenity": "hospital", "name": "Ring Road Hospital", "phone": "080 2679 7040", "source": "just dial"}}, {"type": "node", "id": 4446907712, "lat": 12.9389007, "lon": 77.5438808, "tags": {"addr:city": "bangalore", "addr:housenumber": "5/8/1", "addr:postcode": "560085", "addr:street": "20th Main Road, Muneshwara Block, Girinagar, 1st phase Girinagar, Kadavanthra, Banashankari", "amenity": "hospital", "name": "Pulse Multispecialty Hospital", "phone": "080 2672 4466", "source": "just dial"}}, {"type": "node", "id": 4446909294, "lat": 12.9316792, "lon": 77.5450887, "tags": {"addr:city": "bangalore", "addr:housenumber": "103,994", "addr:postcode": "560085", "addr:street": ",2nd Main,1st Block,4th Phase,Kathriguppe,BSK 3rd Stage, Water Tank Road, Banashankari", "amenity": "hospital", "name": "Surya Galaxy Hospital", "phone": "080 2642 1051", "source": "just dial"}}, {"type": "node", "id": 4447013195, "lat": 12.9575029, "lon": 77.5276466, "tags": {"addr:city": "Bangalore", "addr:district": "Bengaluru Urban", "addr:full": "#1222, 80, Feet Road, Chandra Layout", "addr:housenumber": "1222", "addr:postcode": "560040", "addr:state": "Karnataka", "addr:street": "14th Main Road", "amenity": "hospital", "healthcare": "hospital", "name": "Sri Vinayaka Hospital", "phone": "080 2339 8062", "source": "OpenGovernmentData"}}, {"type": "node", "id": 4447015118, "lat": 12.9573897, "lon": 77.5276882, "tags": {"addr:city": "Bangalore", "addr:postcode": "560040", "addr:street": "14th Main Road", "amenity": "hospital", "healthcare": "hospital", "name": "Shathayu Ayurveda Wellness Centre", "phone": "+91 8040999110"}}, {"type": "node", "id": 4447072265, "lat": 12.9594984, "lon": 77.5275515, "tags": {"addr:city": "Bangalore", "addr:housenumber": "1133/f", "addr:postcode": "560040", "addr:street": "30 Service Road Rpc Layout Vijaynagar, Chandra Layout", "amenity": "hospital", "name": "Hospital Sharavathi", "phone": "+918023300222"}}, {"type": "node", "id": 4447072624, "lat": 12.9735891, "lon": 77.5443283, "tags": {"addr:city": "Bangalore", "addr:postcode": "560040", "addr:street": "Adichunchangiri Shopping Complex Adichunchangirishpgcplx Vjyngrb40 Vijaynagar, Attiguppe", "amenity": "hospital", "name": "Arogya Kendra", "name:kn": "\u0c86\u0cb0\u0ccb\u0c97\u0ccd\u0caf \u0c95\u0cc7\u0c82\u0ca6\u0ccd\u0cb0", "phone": "+918023400463"}}, {"type": "node", "id": 4447075424, "lat": 12.9644231, "lon": 77.5333324, "tags": {"addr:city": "Bangalore", "addr:housenumber": "3437", "addr:postcode": "560040", "addr:street": "7 Subbanna Garden Vijaynagar, Attiguppe", "amenity": "hospital", "healthcare": "hospital", "name": "Venkat Charmalaya", "phone": "+918023392788"}}, {"type": "node", "id": 4447076167, "lat": 12.9787049, "lon": 77.5403581, "tags": {"addr:housenumber": "30/2", "addr:street": "S V Complex Magadi Main\u00a0Vijaynagar, Magadi Road", "amenity": "hospital", "name": "V Care\u00a0Medical\u00a0Systems P Ltd", "phone": "+918023110651"}}, {"type": "node", "id": 4447076314, "lat": 12.968821, "lon": 77.5246297, "tags": {"addr:city": "Bangalore", "addr:district": "Bengaluru Urban", "addr:full": "189, Shiva Complex, Shivananda Nagar, Near Vijay Bank, Moodalapalya", "addr:postcode": "560040", "addr:state": "Karnataka", "addr:street": "Nagarabhavi Road", "amenity": "hospital", "name": "Manasa Hospital", "name:kn": "\u0cae\u0cbe\u0ca8\u0cb8 \u0c86\u0cb8\u0ccd\u0caa\u0ca4\u0ccd\u0cb0\u0cc6", "phone": "+918023104640", "source": "OpenGovernmentData", "website": "http://www.manasa.in/"}}, {"type": "node", "id": 4447079172, "lat": 12.9691657, "lon": 77.5351921, "tags": {"addr:city": "Bangalore", "addr:district": "Vijayapura", "addr:full": "20th B Cross, Marenahalli Main Road, Vijayanagar", "addr:housenumber": "51/88", "addr:postcode": "560040", "addr:state": "Karnataka", "addr:street": "20th B Cross, Marenahalli Main Road, Govindaraja Nagar Ward, Vijayanagar", "amenity": "hospital", "name": "Saikrupa Hospital For Women's and Surgical Centre", "operator:type": "private", "phone": "+91080 2311 9592", "source": "OpenGovernmentData", "website": "http://dpal.kar.nic.in/Kanunu%20padakosha%20PDF%20Files/Recognised%20Hospitals.pdf"}}, {"type": "node", "id": 4447082866, "lat": 12.9768117, "lon": 77.5449094, "tags": {"addr:city": "Bangalore", "addr:housenumber": "5/1", "addr:postcode": "560040", "addr:street": "4th Main, MRCR Layout, Vijayanagar, Behind Godrej Interio, Near Veeresh Theatre, Govindaraja Nagar Ward, MC Layout, Vijayanagar", "amenity": "hospital", "healthcare": "hospital", "name": "Cutis Academy of Cutaneous Sciences", "phone": "080 4115 9049"}}, {"type": "node", "id": 4447083784, "lat": 12.9621516, "lon": 77.533401, "tags": {"addr:city": "Bangalore", "addr:postcode": "560040", "addr:street": "Chord Road", "amenity": "hospital", "healthcare": "hospital", "name": "Shreya Hearing Clinic", "phone": "\" 080 2318 0012\""}}, {"type": "node", "id": 4447088630, "lat": 12.9603312, "lon": 77.5300796, "tags": {"addr:city": "Bangalore", "addr:housenumber": "NO.105", "addr:postcode": "560040", "addr:street": "Widia Layout, Chandra Layout Main Road, Govindaraja Nagar Ward, Widia Layout, Vijayanagar", "amenity": "hospital", "name": "Prasad Nethralaya", "phone": "080 2339 2807"}}, {"type": "node", "id": 4447097087, "lat": 12.9717905, "lon": 77.5372864, "tags": {"addr:city": "Bangalore", "addr:housenumber": "46", "addr:postcode": "560040", "addr:street": "17th Cross, Near Main Bus Stand, M.C. Road, Vijayanagar", "amenity": "hospital", "name": "Vijayanagar Global Hospital", "phone": "080 4240 8200"}}, {"type": "node", "id": 4447100075, "lat": 12.9649703, "lon": 77.5389842, "tags": {"addr:city": "Bangalore", "addr:housenumber": "221", "addr:postcode": "560040", "addr:street": "1st Floor, Next to Sai Prasadam Hotel, 5th Main Rd, Hampi Nagar 2nd Stage, RPC Layout", "amenity": "hospital", "healthcare": "hospital", "name": "Blossom Infertility Center", "phone": "+91 99009 99116"}}, {"type": "node", "id": 4447105332, "lat": 12.958321, "lon": 77.5350434, "tags": {"addr:city": "Bangalore", "addr:housenumber": "30", "addr:postcode": "560040", "addr:street": "1108/30 10Th Main 4Th Cross, Rpc Layout, Vijayanagar", "amenity": "hospital", "name": "Padmashree Nursing Home and Maternity Home", "phone": "080 2311 8372"}}, {"type": "node", "id": 4447119911, "lat": 12.9639998, "lon": 77.5302683, "tags": {"addr:city": "Bangalore", "addr:housenumber": "17", "addr:postcode": "560040p", "addr:street": "1st Main Rd, Kaveri Layout, Govindaraja Nagar Ward, Anubhav Nagar, Vijayanagar", "amenity": "hospital", "healthcare": "hospital", "phone": "080 2335 2200"}}, {"type": "node", "id": 4447142720, "lat": 12.9706209, "lon": 77.5151893, "tags": {"addr:city": "Bangalore", "addr:housenumber": "63", "addr:postcode": "560072", "addr:street": ", Byraveshwara Nagar, 2nd Main, Moodalapalya, Nagarabhavi Main Road, 2nd Block, Govindaraja Nagar Ward", "amenity": "hospital", "name": "Dhanush Hospital", "name:kn": "\u0ca7\u0ca8\u0cc1\u0cb7\u0ccd \u0c86\u0cb8\u0ccd\u0caa\u0ca4\u0ccd\u0cb0\u0cc6", "phone": "080 2318 5544"}}, {"type": "node", "id": 4447155158, "lat": 12.957572, "lon": 77.5184436, "tags": {"addr:city": "Bangalore", "addr:district": "Bengaluru Urban", "addr:full": "No3 Ist Cross Janabharathi Road Nagarabhvi Circle", "addr:postcode": "560072", "addr:state": "Karnataka", "addr:street": "Nagarabhavi Road", "amenity": "hospital", "name": "S K Hospital, Bengaluru Urban", "phone": "080 2321 3699", "source": "OpenGovernmentData"}}, {"type": "node", "id": 4447156427, "lat": 12.9062193, "lon": 77.580682, "tags": {"addr:city": "Bengaluru", "addr:district": "Bengaluru Urban", "addr:full": "#726, 17Th Cross, 6Th Phase, J.P. Nagar", "addr:housenumber": "5", "addr:postcode": "560078", "addr:state": "Karnataka", "addr:street": "Outer Ring Rd, Rose Garden, JP Nagar Phase 6, JP Nagar,", "amenity": "hospital", "name": "Green City Hospital, Bengaluru Urban", "name:kn": "\u0c97\u0ccd\u0cb0\u0cc0\u0ca8\u0ccd \u0cb8\u0cbf\u0c9f\u0cbf \u0c86\u0cb8\u0ccd\u0caa\u0ca4\u0ccd\u0cb0\u0cc6", "phone": "080 2653 6222", "source": "OpenGovernmentData"}}, {"type": "node", "id": 4447213952, "lat": 12.9698405, "lon": 77.5327211, "tags": {"addr:city": "Bangalore", "addr:housenumber": "17", "addr:postcode": "560040", "addr:street": "1st Main Rd, Kaveri Layout, Govindaraja Nagar Ward, Anubhav Nagar, Vijayanagar,", "amenity": "hospital", "name": "Modern Family Doctor Pvt Ltd", "phone": "080 2335 2200"}}, {"type": "node", "id": 4447273084, "lat": 12.9312101, "lon": 77.5756907, "tags": {"addr:city": "Bangalore", "addr:postcode": "560078", "addr:street": "Mnr Arcade, Saraki Gate, Kanakapura Road, Saraki Gate", "amenity": "hospital", "healthcare": "hospital", "name": "Oxford Hospital", "phone": "080 2245 2500", "source": "justdial"}}, {"type": "node", "id": 4447316956, "lat": 12.9059465, "lon": 77.5904192, "tags": {"addr:city": "Bangalore", "addr:housenumber": "11/2", "addr:postcode": "560078", "addr:street": "8th cross, Gangadhar Nagar, 100 Feet Ring Road, J P Nagar,", "amenity": "hospital", "name": "R R Hospital & Trauma Centre", "phone": "080 2671 8785"}}, {"type": "node", "id": 4447383325, "lat": 12.9039905, "lon": 77.5859569, "tags": {"addr:city": "bangalore", "addr:housenumber": "9", "addr:postcode": "560078", "addr:street": "24th Main Rd, KR Layout, 1st Phase, JP Nagar", "amenity": "hospital", "name": "M N Speciality Clinic", "name:kn": "\u0c8e\u0cae\u0ccd \u0c8e\u0ca8\u0ccd \u0cb8\u0ccd\u0caa\u0cc6\u0cb6\u0cbe\u0cb2\u0cbf\u0c9f\u0cbf \u0c95\u0ccd\u0cb2\u0cbf\u0ca8\u0cbf\u0c95\u0ccd", "phone": "080 2653 0121"}}, {"type": "node", "id": 4447978869, "lat": 12.9009278, "lon": 77.5986641, "tags": {"addr:city": "Bangalore", "addr:postcode": "560076", "addr:street": "Bannerghatta Road, Near Kalyani Kala Mantap, Bilekahalli, 2nd Cross Rd,, Ram Shetty Nagar, Bilekahalli", "amenity": "hospital", "emergency": "yes", "name": "Parimala Health Care", "phone": "080 2658 3117", "source": "http://www.justdial.com/Bangalore/"}}, {"type": "node", "id": 4448075597, "lat": 12.9458746, "lon": 77.5877756, "tags": {"addr:city": "bangalore", "addr:housenumber": "58,59", "addr:postcode": "560029", "addr:street": "3rd Main,KEB Layout, BTM Layout  1", "amenity": "hospital", "emergency": "yes", "name": "Vijay Diagnostic Centre", "phone": "080 2668 4260", "source": "http://www.bangalorean.co.in/"}}, {"type": "node", "id": 4448118314, "lat": 12.924274, "lon": 77.5680927, "tags": {"addr:city": "Bangalore", "addr:housenumber": "#3", "addr:postcode": "560068", "addr:street": "Ground Floor, 1st Phase, 2nd Stage, Oppo. Ias Colony Ground, BTM Layout, Mahadeshwara Nagar, Stage 2, BTM 2nd Stage", "amenity": "hospital", "emergency": "yes", "name": "Dr Lal PathLabs", "phone": "080 4091 6014", "source": "http://www.bangalorean.co.in/", "website": "https://www.lalpathlabs.com/"}}, {"type": "node", "id": 4533735695, "lat": 12.9709463, "lon": 77.5451059, "tags": {"addr:district": "Bengaluru Urban", "addr:full": "No. 318, 6Th Main,2nd Cross,Vijayanagar", "addr:postcode": "560040", "addr:state": "Karnataka", "amenity": "hospital", "name": "Manasa Hospital, Vijayanagar", "source": "OpenGovernmentData"}}, {"type": "node", "id": 4547191103, "lat": 12.9056092, "lon": 77.5426964, "tags": {"addr:postcode": "560061", "addr:street": "Dr. Vishnuvardhan Road", "amenity": "hospital", "healthcare": "hospital", "name": "Nagarathna Hospital", "name:kn": "\u0ca8\u0cbe\u0c97\u0cb0\u0ca4\u0ccd\u0ca8"}}, {"type": "node", "id": 4578753189, "lat": 12.9306876, "lon": 77.5794541, "tags": {"addr:housenumber": "46", "addr:postcode": "560082", "addr:street": "3 Main Road", "amenity": "hospital", "email": "radiologylucid@gmail.com", "healthcare": "hospital", "internet_access": "wlan", "name": "Lucid Medical Diagnostics", "opening_hours": "24/7", "phone": "08049364444", "website": "https://luciddiagnostics.com/"}}, {"type": "node", "id": 4609603646, "lat": 12.9168014, "lon": 77.5851878, "tags": {"addr:district": "Bengaluru Urban", "addr:full": "No.25, 46th Cross, 5th Block, Jayanagar", "addr:postcode": "560011", "addr:state": "Karnataka", "amenity": "hospital", "email": "contactus@apollocradle.com", "healthcare": "hospital", "name": "Apollo Bengaluru Cradle Limited, Jayanagar", "operator:type": "private", "source": "OpenGovernmentData", "website": "https://www.apollocradle.com/"}}, {"type": "node", "id": 4676566777, "lat": 12.9842193, "lon": 77.5999264}, {"type": "node", "id": 4680014207, "lat": 12.9397588, "lon": 77.59445, "tags": {"amenity": "hospital", "healthcare": "yes", "name": "NIMHANS - Ashwini Block"}}, {"type": "node", "id": 4685633732, "lat": 12.9682031, "lon": 77.5952645}, {"type": "node", "id": 4729472422, "lat": 12.9400669, "lon": 77.5931597, "tags": {"addr:district": "Bangalore", "addr:full": "Lakkasandra, Wilson Garden, Bangalore, Karnataka, India", "addr:postcode": "560029", "addr:state": "Karnataka", "addr:subdistrict": "Bangalore East", "amenity": "hospital", "contact:phone": "08026995201;08026995000;08026995202", "description": "Medical Colleges Hospital", "healthcare": "hospital", "name": "National Institute of Mental Health and Neuro Sciences", "short_name": "NIMHANS", "source": "OpenGovernmentData"}}, {"type": "node", "id": 4729478014, "lat": 12.9404277, "lon": 77.5988406, "tags": {"amenity": "hospital", "name": "NBRC(National Brain Research Center)"}}, {"type": "node", "id": 4843104321, "lat": 12.9555357, "lon": 77.5918347, "tags": {"amenity": "hospital", "name": "Respigen healthcare", "name:en": "Respigen healthcare"}}, {"type": "node", "id": 4884890996, "lat": 12.9376934, "lon": 77.5694845}, {"type": "node", "id": 4884890997, "lat": 12.9379575, "lon": 77.5699754}, {"type": "node", "id": 4884890998, "lat": 12.93776, "lon": 77.5700872}, {"type": "node", "id": 4884890999, "lat": 12.9374959, "lon": 77.5695964}, {"type": "node", "id": 4988304263, "lat": 12.9645264, "lon": 77.5896245}, {"type": "node", "id": 4988304264, "lat": 12.964449, "lon": 77.5900145}, {"type": "node", "id": 4988304265, "lat": 12.963021, "lon": 77.5896489}, {"type": "node", "id": 4988304266, "lat": 12.9633509, "lon": 77.5893521}, {"type": "node", "id": 5018317958, "lat": 12.9269931, "lon": 77.5919621, "tags": {"access": "private", "barrier": "gate"}}, {"type": "node", "id": 5157373807, "lat": 12.9849537, "lon": 77.5569222, "tags": {"addr:district": "Bengaluru Urban", "addr:full": "6/63, 59Th Cross, 4Th Block, Rajajinagar Entrance, Mei Polytechnic, Rajajinagar", "addr:postcode": "560010", "addr:state": "Karnataka", "alt_name": "Altius Cancer Center", "amenity": "hospital", "healthcare": "hospital", "name": "Altius Hospital", "source": "OpenGovernmentData"}}, {"type": "node", "id": 5234723863, "lat": 12.9472091, "lon": 77.5966914, "tags": {"addr:district": "Bengaluru Urban", "addr:full": "196, 10Th Cross, Wilson Gardens", "addr:postcode": "560027", "addr:state": "Karnataka", "amenity": "hospital", "healthcare": "hospital", "name": "V. S. Achar Multispeciality Hospital", "source": "OpenGovernmentData"}}, {"type": "node", "id": 5234739990, "lat": 12.933223, "lon": 77.5842632, "tags": {"addr:city": "Bangalore", "addr:district": "Bengaluru Urban", "addr:full": "No.1537/1, 9th Main Road, 3rd Block, Jayanagar", "addr:housenumber": "1537/1", "addr:postcode": "560011", "addr:state": "Karnataka", "addr:street": "9th Main Road", "addr:suburb": "Jayanagar 3rd Block", "amenity": "hospital", "email": "infokpcpt@gmail.com", "healthcare": "hospital", "name": "Nature Cure Hospital", "opening_hours": "We-Mo 07:00-12:00,13:00-18:00", "operator:type": "private", "phone": "+91 80 2663 1945;+91 80 2244 6035", "source": "OpenGovernmentData", "website": "https://www.jayanagarnaturecure.in/"}}, {"type": "node", "id": 5259407821, "lat": 12.966103, "lon": 77.5549647, "tags": {"amenity": "hospital", "healthcare": "hospital", "name": "Government Hospital", "name:kn": "\u0cb8\u0cb0\u0ccd\u0c95\u0cbe\u0cb0\u0cbf \u0c86\u0cb8\u0ccd\u0caa\u0ca4\u0ccd\u0cb0\u0cc6"}}, {"type": "node", "id": 5265649228, "lat": 12.9403849, "lon": 77.5945391, "tags": {"amenity": "hospital", "emergency": "yes", "healthcare": "hospital", "name": "Emergency Block , NIMHANS"}}, {"type": "node", "id": 5277512112, "lat": 12.9138086, "lon": 77.5273633, "tags": {"amenity": "hospital", "name": "Usha Vikranth Diagnostic Center and Hospital"}}, {"type": "node", "id": 5306746595, "lat": 12.9495993, "lon": 77.5802119}, {"type": "node", "id": 5306746596, "lat": 12.9495944, "lon": 77.5803999}, {"type": "node", "id": 5306746597, "lat": 12.949704, "lon": 77.5804029}, {"type": "node", "id": 5306746598, "lat": 12.9497089, "lon": 77.5802149}, {"type": "node", "id": 5716797221, "lat": 12.9542624, "lon": 77.5709473, "tags": {"addr:district": "Bengaluru Urban", "addr:full": "1st Cross, Shankarapuram, Basavanaagudi", "addr:postcode": "560004", "addr:state": "Karnataka", "amenity": "hospital", "name": "Sri Shankara Cancer Hospital And Research Centre (A Service Unit Of Sscf)", "operator:type": "private", "phone": "080-26981000", "source": "OpenGovernmentData", "website": "http://shankaracancerfoundation.org/"}}, {"type": "node", "id": 5879132707, "lat": 12.9677607, "lon": 77.5413282, "tags": {"addr:district": "Bengaluru Urban", "addr:full": "No.14 , Maruthi Nagar , Near Maruthi Temple , Nagarbhavi Main Road", "addr:postcode": "560072", "addr:state": "Karnataka", "amenity": "hospital", "name": "Maruthi Hospital", "name:kn": "\u0cae\u0cbe\u0cb0\u0cc1\u0ca4\u0cbf \u0c86\u0cb8\u0ccd\u0caa\u0ca4\u0ccd\u0cb0\u0cc6", "source": "OpenGovernmentData"}}, {"type": "node", "id": 5919817658, "lat": 12.8950374, "lon": 77.5979869}, {"type": "node", "id": 6021739953, "lat": 12.9493031, "lon": 77.5976958}, {"type": "node", "id": 6021739954, "lat": 12.9492425, "lon": 77.5977682}, {"type": "node", "id": 6021739955, "lat": 12.9492994, "lon": 77.5978183}, {"type": "node", "id": 6021739956, "lat": 12.9492041, "lon": 77.5979323}, {"type": "node", "id": 6021739957, "lat": 12.9491008, "lon": 77.5978413}, {"type": "node", "id": 6021739958, "lat": 12.9492568, "lon": 77.597655}, {"type": "node", "id": 6311328128, "lat": 12.9361642, "lon": 77.5992302}, {"type": "node", "id": 6311328129, "lat": 12.9366861, "lon": 77.5995082}, {"type": "node", "id": 6442518238, "lat": 12.9416008, "lon": 77.5678464}, {"type": "node", "id": 6442518239, "lat": 12.9420317, "lon": 77.567355}, {"type": "node", "id": 6442518240, "lat": 12.9417076, "lon": 77.5670895}, {"type": "node", "id": 6442518241, "lat": 12.9415246, "lon": 77.5673389}, {"type": "node", "id": 6442518242, "lat": 12.940641, "lon": 77.5673336}, {"type": "node", "id": 6502980174, "lat": 12.9821954, "lon": 77.5493143, "tags": {"addr:district": "Bengaluru Urban", "addr:full": "1032, 5th Block Opp Ganesh Temple, Chor Road Rajajinagar", "addr:postcode": "560010", "addr:state": "Karnataka", "amenity": "hospital", "healthcare": "hospital", "name": "The Eye Surgical Centre"}}, {"type": "node", "id": 6518066791, "lat": 12.9269491, "lon": 77.5934615}, {"type": "node", "id": 6852266953, "lat": 12.9158516, "lon": 77.5593919, "tags": {"addr:district": "Bengaluru Urban", "addr:full": "Padmanabhanagar, Bengaluru", "addr:postcode": "560070", "addr:state": "Karnataka", "amenity": "hospital", "healthcare": "hospital", "name": "Yogananda Multi Speciality Hospital", "name:kn": "\u0caf\u0ccb\u0c97\u0ca8\u0c82\u0ca6 \u0c86\u0cb8\u0ccd\u0caa\u0ca4\u0ccd\u0cb0\u0cc6", "source": "Local Knowledge"}}, {"type": "node", "id": 6937814427, "lat": 12.9376087, "lon": 77.5666429, "tags": {"addr:district": "Bengaluru Urban", "addr:full": "#118, 5 Th Main , 7Th Cross, N R Colony , Bull Temple Road", "addr:postcode": "560019", "addr:state": "Karnataka", "amenity": "hospital", "name": "Balaji Hospital and Gastroenterology Center", "source": "OpenGovernmentData"}}, {"type": "node", "id": 6937898160, "lat": 12.9497745, "lon": 77.5802779, "tags": {"addr:district": "Bengaluru Urban", "addr:full": "#53/1 (45), Shalini,Susheela Road,Lalbagh Upparahalli ( Lalbagh West Gate)", "addr:postcode": "560004", "addr:state": "Karnataka", "amenity": "hospital", "healthcare": "hospital", "name": "South City Hospital, Bengaluru Urban", "source": "OpenGovernmentData"}}, {"type": "node", "id": 6938540502, "lat": 12.9829857, "lon": 77.5309655, "tags": {"addr:district": "Bengaluru Urban", "addr:full": "No. 2/3, 5Th Main Shiva Complex, Kamakshipalya, Nagadimain Road , Opp Vishal Theatre", "addr:postcode": "560043", "addr:state": "Karnataka", "amenity": "hospital", "name": "Shreyas Hospital, Bengaluru Urban", "source": "OpenGovernmentData"}}, {"type": "node", "id": 6938544594, "lat": 12.9166392, "lon": 77.5798346}, {"type": "node", "id": 6938690597, "lat": 12.9690441, "lon": 77.5688544, "tags": {"addr:district": "Bengaluru Urban", "addr:full": "No.71, Mill Road, Cottonpet", "addr:postcode": "560053", "addr:state": "Karnataka", "amenity": "hospital", "name": "Radha Maternity and Surgical Hospital", "source": "OpenGovernmentData"}}, {"type": "node", "id": 6938690600, "lat": 12.9822186, "lon": 77.5599374, "tags": {"addr:district": "Bengaluru Urban", "addr:full": "1033,4 Th Block Dr Rajdumar Road", "addr:postcode": "560010", "addr:state": "Karnataka", "amenity": "hospital", "name": "Sri Dhavantari Ayurveda Hoapital", "source": "OpenGovernmentData"}}, {"type": "node", "id": 6938690603, "lat": 12.9845512, "lon": 77.5528322, "tags": {"addr:district": "Bengaluru Urban", "addr:full": "No. 851/D , 5Th Block , Rajajinagar , 60Th Cross", "addr:postcode": "560040", "addr:state": "Karnataka", "amenity": "hospital", "name": "Vaidyam Hospital", "source": "OpenGovernmentData"}}, {"type": "node", "id": 6938708338, "lat": 12.9215013, "lon": 77.5655432, "tags": {"addr:district": "Bengaluru Urban", "addr:full": "No 154, 17 Th Main, 29 Th Cross, Near Bnm Institution", "addr:postcode": "560070", "addr:state": "Karnataka", "amenity": "hospital", "healthcare": "hospital", "name": "Sri Krishna Hospital", "source": "OpenGovernmentData"}}, {"type": "node", "id": 6938727983, "lat": 12.9256932, "lon": 77.5773127, "tags": {"addr:district": "Bengaluru Urban", "addr:full": "256/14, Kanakapura Main Road, 7th Block, Jayanagar", "addr:postcode": "560082", "addr:state": "Karnataka", "amenity": "hospital", "healthcare:speciality": "ophthalmology", "name": "Nethradhama Superspeciality Eye Hospital, Jayanagar", "operator:type": "private", "source": "OpenGovernmentData", "website": "https://www.nethradhama.org/"}}, {"type": "node", "id": 6938741378, "lat": 12.9122295, "lon": 77.5994906, "tags": {"addr:district": "Bengaluru Urban", "addr:full": "C K Emerald, No-10,N S Palya Kaveriappa Industrial Area, Bannergatta Road", "addr:postcode": "560076", "addr:state": "Karnataka", "amenity": "hospital", "healthcare": "hospital", "name": "Dr Agarwals Eye Hospital Ltd", "operator": "Dr. Agarwal's Eye Hospital", "operator:type": "private", "operator:wikidata": "Q17052044", "source": "OpenGovernmentData"}}, {"type": "node", "id": 6938772336, "lat": 12.9118831, "lon": 77.5528805, "tags": {"addr:district": "Bengaluru Urban", "addr:full": "Dr.Gurappa Naidu Complex, Opposite Komarla Brigade Residency. Uttarahalli Main Road, Chikkalasandra", "addr:postcode": "560063", "addr:state": "Karnataka", "amenity": "hospital", "healthcare": "hospital", "name": "C.S. Hospital", "source": "OpenGovernmentData"}}, {"type": "node", "id": 6938774143, "lat": 12.9650437, "lon": 77.5435022, "tags": {"addr:district": "Bengaluru Urban", "addr:full": "No.10, Pipeline Road, RPC Layout, Vijayanagar, 2nd Stage", "addr:postcode": "560104", "addr:state": "Karnataka", "amenity": "hospital", "email": "skamcBengaluru@gmail.com", "healthcare": "hospital", "name": "Sri Kalabyraveshwara Swamy Ayurvedic Medical College hospital", "operator:type": "private", "source": "OpenGovernmentData", "website": "http://skayurvediccollegeandhospital.com/"}}, {"type": "node", "id": 6938775801, "lat": 12.9765645, "lon": 77.5455876, "tags": {"addr:district": "Bengaluru Urban", "addr:full": "No 18/2, 1st Cross, M.C. Layout, Vijayanagar", "addr:postcode": "560079", "addr:state": "Karnataka", "amenity": "hospital", "name": "Anugraha Hospital, Vijayanagar", "name:kn": "\u0c85\u0ca8\u0cc1\u0c97\u0ccd\u0cb0\u0cb9 \u0c86\u0cb8\u0ccd\u0caa\u0ca4\u0ccd\u0cb0\u0cc6", "source": "OpenGovernmentData"}}, {"type": "node", "id": 6938775840, "lat": 12.9711822, "lon": 77.5781228, "tags": {"addr:district": "Bengaluru Urban", "addr:full": "7Th Cross, Rangaswamy Temple Street", "addr:postcode": "560053", "addr:state": "Karnataka", "amenity": "hospital", "name": "Amar Hospital", "name:kn": "\u0c85\u0cae\u0cb0\u0ccd \u0c86\u0cb8\u0ccd\u0caa\u0ca4\u0ccd\u0cb0\u0cc6", "source": "OpenGovernmentData"}}, {"type": "node", "id": 6938775845, "lat": 12.95727, "lon": 77.5640827, "tags": {"addr:district": "Bengaluru Urban", "addr:full": "# 122, 5th Main Road, Chamarajpet", "addr:postcode": "560018", "addr:state": "Karnataka", "amenity": "hospital", "email": "retinaKarnatakaa@gmail.com", "name": "Retina Institute Of Karnataka", "operator:type": "private", "source": "OpenGovernmentData", "website": "https://www.retinainstitute.org/"}}, {"type": "node", "id": 6938775846, "lat": 12.9572978, "lon": 77.5644522, "tags": {"addr:district": "Bengaluru Urban", "addr:full": "123, 5Th Main Road, Chamarajpet", "addr:postcode": "560018", "addr:state": "Karnataka", "amenity": "hospital", "name": "The Venlakh Hospital", "source": "OpenGovernmentData"}}, {"type": "node", "id": 6938775854, "lat": 12.9406698, "lon": 77.5644596, "tags": {"addr:district": "Bengaluru Urban", "addr:full": "No.10/4 & 10/5, 3Road Main Road, Hanumanthanagar", "addr:postcode": "560019", "addr:state": "Karnataka", "amenity": "hospital", "name": "Vishwabharathi Hospital Pvt. Ltd", "source": "OpenGovernmentData"}}, {"type": "node", "id": 6938775855, "lat": 12.9404548, "lon": 77.5578493, "tags": {"addr:district": "Bengaluru Urban", "addr:full": "No 519/34, 2nd Cross 10Th Main, Bsk 1st Stage Banashankari", "addr:postcode": "560050", "addr:state": "Karnataka", "amenity": "hospital", "name": "Sunetra Eye Hospital, Bengaluru Urban", "source": "OpenGovernmentData"}}, {"type": "node", "id": 6938775856, "lat": 12.9253299, "lon": 77.5711893, "tags": {"addr:district": "Bengaluru Urban", "addr:full": "No. 39, 8Th B Main Raod, Bsk 2nd Stage", "addr:postcode": "560070", "addr:state": "Karnataka", "amenity": "hospital", "name": "Sri Vivekananda Sevashrama", "source": "OpenGovernmentData"}}, {"type": "node", "id": 6938775857, "lat": 12.9276382, "lon": 77.568896, "tags": {"addr:district": "Bengaluru Urban", "addr:full": "# 39, 17Thc Cross, 8Thb Main, Banashankari Ii Stage", "addr:postcode": "560070", "addr:state": "Karnataka", "amenity": "hospital", "name": "Saraswathi Hospital", "name:kn": "\u0cb8\u0cb0\u0cb8\u0ccd\u0cb5\u0ca4\u0cbf \u0c86\u0cb8\u0ccd\u0caa\u0ca4\u0ccd\u0cb0\u0cc6", "source": "OpenGovernmentData"}}, {"type": "node", "id": 6938777910, "lat": 12.9386321, "lon": 77.5944105, "tags": {"addr:district": "Bengaluru Urban", "addr:full": "Hosur Road", "addr:postcode": "560029", "addr:state": "Karnataka", "amenity": "hospital", "email": "rmo@nimhans.kar.nic.in;ms@nimhans.kar.nic.in", "healthcare": "hospital", "name": "National Institute of Mental Health and Neuro Sciences", "operator:type": "government", "short_name": "NIMHANS", "source": "OpenGovernmentData", "website": "https://nimhans.ac.in/"}}, {"type": "node", "id": 6938777925, "lat": 12.9291283, "lon": 77.5461361, "tags": {"addr:district": "Bengaluru Urban", "addr:full": "No.160, 1st Floor,Rashi Complex,2nd Stage,2nd Block,Near Bda Complex, Nagarabhavi", "addr:postcode": "560072", "addr:state": "Karnataka", "amenity": "hospital", "name": "Netraspandana Healthcare and Research Pvt. Ltd", "source": "OpenGovernmentData"}}, {"type": "node", "id": 6938777945, "lat": 12.9176216, "lon": 77.5550705, "tags": {"addr:district": "Bengaluru Urban", "addr:full": "Bkf Chand , Nephro- Urology Centre, Ca - 6,15Th, Main Street, 11Th Cross, Padmanabhanagar", "addr:postcode": "560070", "addr:state": "Karnataka", "amenity": "hospital", "name": "Nu Trust", "source": "OpenGovernmentData"}}, {"type": "node", "id": 6938777957, "lat": 12.9817311, "lon": 77.5333714, "tags": {"addr:district": "Bengaluru Urban", "addr:full": "67/1, H V R Complex Magadi Main Road Kanakapura", "addr:postcode": "560079", "addr:state": "Karnataka", "amenity": "hospital", "name": "Padmavathi Hospital, Bengaluru Urban", "source": "OpenGovernmentData"}}, {"type": "node", "id": 6938783140, "lat": 12.9278657, "lon": 77.5519297, "tags": {"addr:district": "Bengaluru Urban", "addr:full": "#129, 1 Main Road, Kattriguppe, Banashankari Iii Stage", "addr:postcode": "560085", "addr:state": "Karnataka", "amenity": "hospital", "name": "Ring Road Hospital", "source": "OpenGovernmentData"}}, {"type": "node", "id": 6938863247, "lat": 12.917589, "lon": 77.5948906, "tags": {"addr:district": "Bengaluru Urban", "addr:full": "#942, 28Th Main, 9Th Block,Jayanagar", "addr:postcode": "560039", "addr:state": "Karnataka", "amenity": "hospital", "check_date": "2025-12-06", "healthcare": "hospital", "name": "Shekhar Hospital, Jayanagar", "name:kn": "\u0cb6\u0cc7\u0c96\u0cb0 \u0c86\u0cb8\u0ccd\u0caa\u0ca4\u0ccd\u0cb0\u0cc6", "source": "OpenGovernmentData"}}, {"type": "node", "id": 6938876210, "lat": 12.9103393, "lon": 77.5732398, "tags": {"addr:district": "Bengaluru Urban", "addr:full": "Plot No.2(A-2) A Type Bbmp No.57-64-2, Shivana Arcade", "addr:postcode": "560078", "addr:state": "Karnataka", "amenity": "hospital", "healthcare": "hospital", "name": "Vasan Eye Care Hospital, Sarakki", "operator:type": "private", "source": "OpenGovernmentData", "website": "http://www.vasaneye.in/"}}, {"type": "node", "id": 6938912267, "lat": 12.9255233, "lon": 77.5937748, "tags": {"addr:district": "Bengaluru Urban", "addr:full": "No.1156, 26th Main, 4th `T` Block, Jayanagar (Opposite 4th `T` BlockBus Depot)", "addr:postcode": "560041", "addr:state": "Karnataka", "amenity": "hospital", "email": "info@sunayanaeyehospital.com", "healthcare": "hospital", "name": "Sunayana Eye Hospital", "operator:type": "private", "source": "OpenGovernmentData", "website": "https://sunayanaeyehospital.com/"}}, {"type": "node", "id": 6938995621, "lat": 12.9163994, "lon": 77.5847384, "tags": {"addr:district": "Bengaluru Urban", "addr:full": "909, 47Th Cross, 9Thmain, 5Th Block, Opposite Adarshapalace Apts And Near Raghavendra Matha, Jayanagar", "addr:postcode": "560041", "addr:state": "Karnataka", "amenity": "hospital", "healthcare": "hospital", "name": "Dr Kamini Rao Hospital(A Unit Of Bacc Health Care Pvt Ltd)", "source": "OpenGovernmentData"}}, {"type": "node", "id": 6939048258, "lat": 12.9605309, "lon": 77.592659, "tags": {"addr:district": "Bengaluru Urban", "addr:full": "No 44-45/2, 2nd Cross, Raja Rammohan Roy Extension, Opposite Double Road", "addr:postcode": "560027", "addr:state": "Karnataka", "amenity": "hospital", "name": "HCG", "source": "OpenGovernmentData"}}, {"type": "node", "id": 6939319393, "lat": 12.9548208, "lon": 77.5672585, "tags": {"addr:district": "Bengaluru Urban", "addr:full": "127/1, Bull Temple Road", "addr:postcode": "560019", "addr:state": "Karnataka", "amenity": "hospital", "name": "Kalasa Maternity Home", "source": "OpenGovernmentData"}}, {"type": "node", "id": 6939438895, "lat": 12.982442, "lon": 77.5493681, "tags": {"addr:district": "Bengaluru Urban", "addr:full": "1031, 20Th Main Road, 5Th Block, Rajajinagar", "addr:postcode": "560010", "addr:state": "Karnataka", "amenity": "hospital", "name": "Sidvin Hospital Pvt Ltd", "source": "OpenGovernmentData"}}, {"type": "node", "id": 6939444286, "lat": 12.9246384, "lon": 77.5509238, "tags": {"addr:district": "Bengaluru Urban", "addr:full": "#271, 5Th Block, 100 Feet Road, 3Road Phase, Banashankari", "addr:postcode": "560085", "addr:state": "Karnataka", "amenity": "hospital", "name": "Abhilash Hospital And Sara Rehabilitation Centre", "source": "OpenGovernmentData"}}, {"type": "node", "id": 6939582677, "lat": 12.9275311, "lon": 77.5457901, "tags": {"addr:district": "Bengaluru Urban", "addr:full": "30, 2nd Cross Anjaneya Nagar, 3Road Stage Banashankari", "addr:postcode": "560085", "addr:state": "Karnataka", "amenity": "hospital", "name": "Sg Hospital", "source": "OpenGovernmentData"}}, {"type": "node", "id": 6939617697, "lat": 12.9272213, "lon": 77.5764289}, {"type": "node", "id": 6939719899, "lat": 12.9608027, "lon": 77.5911717, "tags": {"addr:district": "Bengaluru Urban", "addr:full": "26, 1st Main, 2nd Cross, Ckc Garden Off Mission Road", "addr:postcode": "560027", "addr:state": "Karnataka", "amenity": "hospital", "name": "Phoenix Hospital, Bengaluru Urban", "source": "OpenGovernmentData"}}, {"type": "node", "id": 6944128588, "lat": 12.9563016, "lon": 77.5747874, "tags": {"addr:district": "Bengaluru Urban", "addr:full": "K. R. Road, V. V. Puram", "addr:postcode": "560004", "addr:state": "Karnataka", "amenity": "hospital", "name": "Kims Hospital and Research Centre", "source": "OpenGovernmentData"}}, {"type": "node", "id": 6944138103, "lat": 12.9489406, "lon": 77.5949925, "tags": {"addr:district": "Bengaluru Urban", "addr:full": "56, 8Th Cross, Wilson Garden", "addr:postcode": "560027", "addr:state": "Karnataka", "amenity": "hospital", "healthcare": "hospital", "name": "Karthik Hospital, Bengaluru Urban", "source": "OpenGovernmentData"}}, {"type": "node", "id": 6944138105, "lat": 12.9670215, "lon": 77.5892667, "tags": {"addr:district": "Bengaluru Urban", "addr:full": "10, Vokkaligara Bhavana, Hudson Circle", "addr:postcode": "560027", "addr:state": "Karnataka", "amenity": "hospital", "name": "Bangalore Kidney Stones Hospital", "source": "OpenGovernmentData"}}, {"type": "node", "id": 6944201468, "lat": 12.9271131, "lon": 77.5471291, "tags": {"addr:district": "Bengaluru Urban", "addr:full": "# 77, 100 Ft.Ring Road, B.S.K.3rd Stage, 5th Block", "addr:postcode": "560085", "addr:state": "Karnataka", "amenity": "hospital", "email": "abhayaeye@yahoo.com", "healthcare:speciality": "Cataract", "name": "Abhaya Eye Hospital, Super Speciality Eye Care Centre", "operator:type": "private", "source": "OpenGovernmentData", "website": "http://www.abhayaeyehospital.com/"}}, {"type": "node", "id": 6944256036, "lat": 12.9424801, "lon": 77.5473283, "tags": {"addr:district": "Bengaluru Urban", "addr:full": "5/81, 50 Feet Road, 20Th Main Road, Muneshwara Block, Girinagar", "addr:postcode": "560085", "addr:state": "Karnataka", "amenity": "hospital", "name": "The Pulse Multi Speciality Hospital", "source": "OpenGovernmentData"}}, {"type": "node", "id": 6944256037, "lat": 12.9514854, "lon": 77.5703564, "tags": {"addr:city": "Bangaluru", "addr:district": "Bengaluru Urban", "addr:full": "No. 16, 3Road Cross, Shankarpuram", "addr:housenumber": "16", "addr:postcode": "560004", "addr:state": "Karnataka", "addr:street": "3rd Cross Road", "amenity": "hospital", "emergency": "yes", "healthcare": "hospital", "healthcare:speciality": "general", "name": "Popular Hospital", "operator": "Dr Lingham Murali", "operator:type": "private", "source": "local knowledge"}}, {"type": "node", "id": 6944269353, "lat": 12.9526505, "lon": 77.5548633, "tags": {"addr:district": "Bengaluru Urban", "addr:full": "Kempegoudanagara, Near Police Station, South", "addr:postcode": "560018", "addr:state": "Karnataka", "amenity": "hospital", "name": "Gavipuramguttahalli Maternity Home", "source": "OpenGovernmentData"}}, {"type": "node", "id": 6944276882, "lat": 12.9745134, "lon": 77.5493883, "tags": {"addr:district": "Bengaluru Urban", "addr:full": "No-170, 12th, Ist Main, Near Anjaneya Temple, Opposite Karnatakaa Bank", "addr:postcode": "560086", "addr:state": "Karnataka", "amenity": "hospital", "email": "info@bengaluruspinecare.com", "name": "Spine Care And Ortho Care Hospital", "operator:type": "private", "source": "OpenGovernmentData", "website": "https://www.bengaluruspinecare.com/"}}, {"type": "node", "id": 6944287716, "lat": 12.9733764, "lon": 77.5474034, "tags": {"addr:district": "Bengaluru Urban", "addr:full": "66 B/7, Pipe Line Road, Vijayanagara", "addr:postcode": "560040", "addr:state": "Karnataka", "amenity": "hospital", "name": "Tanmay Hospital", "source": "OpenGovernmentData"}}, {"type": "node", "id": 6944290483, "lat": 12.9144587, "lon": 77.6003156, "tags": {"addr:district": "Bengaluru Urban", "addr:full": "# 33, Bannerghatta Road (Service Road), B.T.M.Layout B.T.M. Layout 2nd Stage", "addr:postcode": "560076", "addr:state": "Karnataka", "amenity": "hospital", "name": "Sri Sai Ram Hospital - Bangalore", "source": "OpenGovernmentData"}}, {"type": "node", "id": 6944309977, "lat": 12.9645006, "lon": 77.5427189, "tags": {"addr:district": "Bengaluru Urban", "addr:full": "No. 1869, 5Th Main, 13Th Cross, R.P.C. Lay Out, Vijayanagar", "addr:postcode": "560040", "addr:state": "Karnataka", "amenity": "hospital", "healthcare": "hospital", "name": "Susheel Hospital", "source": "OpenGovernmentData"}}, {"type": "node", "id": 6944332151, "lat": 12.9654318, "lon": 77.52312, "tags": {"addr:district": "Bengaluru Urban", "addr:full": "#63, 2nd Main, Byraveshwara Nagar,2nd Main , Nagarbhavi Main Road", "addr:postcode": "560072", "addr:state": "Karnataka", "amenity": "hospital", "name": "Dhanush Hospital", "name:kn": "\u0ca7\u0ca8\u0cc1\u0cb7\u0ccd \u0c86\u0cb8\u0ccd\u0caa\u0ca4\u0ccd\u0cb0\u0cc6", "source": "OpenGovernmentData"}}, {"type": "node", "id": 6944392363, "lat": 12.938853, "lon": 77.5786096, "tags": {"addr:district": "Bengaluru Urban", "addr:full": "9, Patalamma Temple Street, Basavanagudi", "addr:postcode": "560004", "addr:state": "Karnataka", "amenity": "hospital", "name": "Av Hospital", "source": "OpenGovernmentData"}}, {"type": "node", "id": 6944392364, "lat": 12.9632506, "lon": 77.5602901, "tags": {"addr:district": "Bengaluru Urban", "addr:full": "No. 40/1, J.J.R. Nagar Main Road, K.H. Ranganath Colony, Behind Sadarshini Hotel", "addr:postcode": "560018", "addr:state": "Karnataka", "amenity": "hospital", "healthcare": "hospital", "name": "Balaji Hospital, K.H. Ranganath Colony", "source": "OpenGovernmentData"}}, {"type": "node", "id": 6944400815, "lat": 12.9670615, "lon": 77.5903161, "tags": {"addr:district": "Bengaluru Urban", "addr:full": "No.2 , 8Th A Main,S.R.Nagar,Near Corporation Offices", "addr:postcode": "560027", "addr:state": "Karnataka", "amenity": "hospital", "name": "Bhavatprabhu Hospitals Pvt Limited", "source": "OpenGovernmentData"}}, {"type": "node", "id": 6944464994, "lat": 12.9559644, "lon": 77.5485635, "tags": {"addr:district": "Bengaluru Urban", "addr:full": "Kasturabanagar, Mysore Road , South", "addr:postcode": "560026", "addr:state": "Karnataka", "amenity": "hospital", "name": "Azad Nagar Maternity Home", "source": "OpenGovernmentData"}}, {"type": "node", "id": 6944507652, "lat": 12.9403012, "lon": 77.5764705, "tags": {"addr:district": "Bengaluru Urban", "addr:full": "1,Dewan N, Madhava Rao Road, Basavanagudi", "addr:postcode": "560004", "addr:state": "Karnataka", "amenity": "hospital", "healthcare": "hospital", "name": "Gunasheela Surgical and Maternity Hospital", "source": "OpenGovernmentData"}}, {"type": "node", "id": 6944507653, "lat": 12.9207314, "lon": 77.5736019, "tags": {"addr:district": "Bengaluru Urban", "addr:full": "#3/2, 27Th Cross, Banashankari 2nd Stage,Near Brigade Software Park", "addr:postcode": "560070", "addr:state": "Karnataka", "amenity": "hospital", "healthcare": "hospital", "name": "Excel Care Hospital", "source": "OpenGovernmentData"}}, {"type": "node", "id": 6944507654, "lat": 12.9292015, "lon": 77.5819811, "tags": {"addr:district": "Bengaluru Urban", "addr:full": "No 28&29, 7Th Main Diagnal Road, Jayanagar 4Th Blook", "addr:postcode": "560011", "addr:state": "Karnataka", "amenity": "hospital", "name": "Vasan Eye Care Hospital, Jayanagar", "source": "OpenGovernmentData"}}, {"type": "node", "id": 6944507655, "lat": 12.9271389, "lon": 77.579028, "tags": {"addr:district": "Bengaluru Urban", "addr:full": "#240, 32nd Cross, 7 Th Block", "addr:postcode": "560001", "addr:state": "Karnataka", "addr:subdistrict": "Jayanagar", "amenity": "hospital", "email": "shridhar@hitechkidneystonehospital.org; suresh@hitechkidneystonehospital.org", "healthcare:speciality": "Dornier AlphaLithotripsy Treatment; X-Rays; US Scan; Urologist Consultation", "name": "Hi Tech Kidney Stone Hospital", "operator:type": "private", "source": "OpenGovernmentData", "website": "http://www.hitechkidneystonehospital.org/"}}, {"type": "node", "id": 6944507660, "lat": 12.9242515, "lon": 77.573217, "tags": {"addr:district": "Bengaluru Urban", "addr:full": "2269, 22nd Cross K R Road, K.R.Road", "addr:postcode": "560070", "addr:state": "Karnataka", "amenity": "hospital", "name": "Dr. Vidyananda's Surgery and Dia Centre", "source": "OpenGovernmentData"}}, {"type": "node", "id": 6944507681, "lat": 12.9004567, "lon": 77.6005474, "tags": {"addr:district": "Bengaluru Urban", "addr:full": "12/13, Bilekahalli, Bannerghatta Road", "addr:postcode": "560076", "addr:state": "Karnataka", "amenity": "hospital", "healthcare": "hospital", "name": "Parimala Speciality Hospital", "operator:type": "private", "source": "OpenGovernmentData", "website": "https://www.parimalahospital.com/"}}, {"type": "node", "id": 6944578226, "lat": 12.910823, "lon": 77.5207892, "tags": {"addr:district": "Bengaluru Urban", "addr:full": "No.886, Beml Layout,Near Police Station Main Road,Rajarajeshwari Nagar", "addr:postcode": "560098", "addr:state": "Karnataka", "amenity": "hospital", "name": "Unity Hospital, Bengaluru Urban", "source": "OpenGovernmentData"}}, {"type": "node", "id": 6944578930, "lat": 12.9188948, "lon": 77.6058905, "tags": {"addr:district": "Bengaluru Urban", "addr:full": "No.53, 3Road Main Road, Opposite To Maruti Layout, B.T.M Layout 1st Stage", "addr:postcode": "560029", "addr:state": "Karnataka", "amenity": "hospital", "healthcare": "hospital", "name": "Kareem E.N.T and Multispeciality Centre", "source": "OpenGovernmentData"}}, {"type": "node", "id": 6944888150, "lat": 12.9496114, "lon": 77.5790786, "tags": {"addr:district": "Bengaluru Urban", "addr:full": "37, M.N. Krishna Rao Road, Opp Lalbagh West Gate", "addr:postcode": "560004", "addr:state": "Karnataka", "amenity": "hospital", "healthcare": "hospital", "name": "Jyothi The Lasik Vision Centre", "source": "OpenGovernmentData"}}, {"type": "node", "id": 6944925493, "lat": 12.9563042, "lon": 77.5830996, "tags": {"addr:district": "Bengaluru Urban", "addr:full": "J.C.Road", "addr:postcode": "560002", "addr:state": "Karnataka", "amenity": "hospital", "name": "Bengaluru West Lions Hospital", "operator:type": "private", "source": "OpenGovernmentData", "website": "http://dpal.kar.nic.in/Kanunu%20padakosha%20PDF%20Files/Recognised%20Hospitals.pdf"}}, {"type": "node", "id": 6944983789, "lat": 12.9716291, "lon": 77.5371969, "tags": {"addr:district": "Bengaluru Urban", "addr:full": "17th Cross, Near Main Bus Stand, MC Road, Vijayanagar", "addr:postcode": "560040", "addr:state": "Karnataka", "amenity": "hospital", "check_date": "2024-12-21", "healthcare": "hospital", "name": "Vijayanagar Hospital", "operator:type": "private", "source": "OpenGovernmentData", "website": "http://dpal.kar.nic.in/Kanunu%20padakosha%20PDF%20Files/Recognised%20Hospitals.pdf"}}, {"type": "node", "id": 6945001435, "lat": 12.9550181, "lon": 77.5683897, "tags": {"addr:district": "Bengaluru Urban", "addr:full": "No. 36, Vagdevi, Shankara Park, Opposite Jnanodaya School", "addr:postcode": "560004", "addr:state": "Karnataka", "amenity": "hospital", "healthcare": "hospital", "name": "Abhinava Eye Hospital", "source": "OpenGovernmentData"}}, {"type": "node", "id": 6945010490, "lat": 12.9067079, "lon": 77.5849275, "tags": {"addr:district": "Bengaluru Urban", "addr:full": "No. 4, Sarakki Industrial Estate, 3Road Phase, J.P.Nagar, Bannerghatta Road", "addr:postcode": "560076", "addr:state": "Karnataka", "amenity": "hospital", "name": "North Star Maternity and Nursing Home", "source": "OpenGovernmentData"}}, {"type": "node", "id": 6945020140, "lat": 12.9685305, "lon": 77.5843965, "tags": {"addr:district": "Bengaluru Urban", "addr:full": "No 37, Next To Ganesha Temple Near Cubbonpet Market Near Cubbonpet Market", "addr:postcode": "560002", "addr:state": "Karnataka", "amenity": "hospital", "name": "Punarjyoti Eye Hospital, Bengaluru Urban", "source": "OpenGovernmentData"}}, {"type": "node", "id": 6945309984, "lat": 12.9601022, "lon": 77.5315556, "tags": {"addr:district": "Bengaluru Urban", "addr:full": "No.20/1, 2nd Cross, Widia Layout, Chandra Layout Main Road,Vijayanagar", "addr:postcode": "560040", "addr:state": "Karnataka", "amenity": "hospital", "healthcare": "hospital", "name": "A.M. Hospital", "source": "OpenGovernmentData"}}, {"type": "node", "id": 6945348721, "lat": 12.9586907, "lon": 77.5352668, "tags": {"addr:district": "Bengaluru Urban", "addr:full": "#966/ 22, Service Road, RPC Layout, Vijayanagar, Opposite Syndicate Bank", "addr:postcode": "560104", "addr:state": "Karnataka", "amenity": "hospital", "healthcare": "hospital", "healthcare:speciality": "Cataract Treatment; Cornea Clinic; Retina Clinic; Glaucoma Clinic", "name": "Divya Drishti Eye Hospital, Vijayanagar", "operator:type": "private", "source": "OpenGovernmentData", "website": "http://divyadrishtieyehospital.com/"}}, {"type": "node", "id": 6945398483, "lat": 12.9617045, "lon": 77.5217172, "tags": {"addr:district": "Bengaluru Urban", "addr:full": "No-14, Maruthi Nagar, Nagarabhavi Main Road", "addr:postcode": "560072", "addr:state": "Karnataka", "amenity": "hospital", "name": "Shridevi Hospital, Bengaluru Urban", "source": "OpenGovernmentData"}}, {"type": "node", "id": 6945768862, "lat": 12.9732706, "lon": 77.5725357, "tags": {"addr:district": "Bengaluru Urban", "addr:full": "No. 12, Park Road, Bale Peth", "addr:postcode": "560053", "addr:state": "Karnataka", "amenity": "hospital", "name": "Sreeniwasa Hospital", "name:kn": "\u0cb6\u0ccd\u0cb0\u0cc0\u0ca8\u0cbf\u0cb5\u0cbe\u0cb8 \u0ca6\u0cc7\u0cb5\u0cb8\u0ccd\u0ca5\u0cbe\u0ca8", "source": "OpenGovernmentData"}}, {"type": "node", "id": 6947003707, "lat": 12.9741253, "lon": 77.561823, "tags": {"addr:district": "Bengaluru Urban", "addr:full": "2nd Cross, Magadi Road", "addr:postcode": "560023", "addr:state": "Karnataka", "amenity": "hospital", "name": "Magadi Road Maternity Home", "source": "OpenGovernmentData"}}, {"type": "node", "id": 6947375064, "lat": 12.89708, "lon": 77.5473364, "tags": {"addr:district": "Bengaluru Urban", "addr:full": "No.4, Sagar Complex,Gopalakrishna Layout,Vasanthapura Main Road,Subramanyapura Post,Uttarahalli Hobli", "addr:postcode": "560061", "addr:state": "Karnataka", "amenity": "hospital", "name": "Samastha Hospitals Pvt Ltd", "source": "OpenGovernmentData"}}, {"type": "node", "id": 6947504038, "lat": 12.964162, "lon": 77.5982255, "tags": {"addr:district": "Bengaluru Urban", "addr:full": "No. 5, Langford Gardens, Near Richmond Circle", "addr:postcode": "560025", "addr:state": "Karnataka", "amenity": "hospital", "name": "Republic Hospital", "source": "OpenGovernmentData"}}, {"type": "node", "id": 6947556032, "lat": 12.9074269, "lon": 77.5716318, "tags": {"addr:district": "Bengaluru Urban", "addr:full": "11/2 8Th Cross, Gangadhar Nagar 100 Ring Road, J.P Nagar Post", "addr:postcode": "560078", "addr:state": "Karnataka", "amenity": "hospital", "name": "R.R. Hospital and Trauma Centre", "source": "OpenGovernmentData"}}, {"type": "node", "id": 6947682067, "lat": 12.9619528, "lon": 77.5728562, "tags": {"addr:district": "Bengaluru Urban", "addr:full": "Victoria Hospital Campus", "addr:postcode": "560002", "addr:state": "Karnataka", "amenity": "hospital", "healthcare": "hospital", "name": "Institute Of Nephro Urology hospital", "source": "OpenGovernmentData"}}, {"type": "node", "id": 6947716888, "lat": 12.9761802, "lon": 77.5261763, "tags": {"addr:district": "Bengaluru Urban", "addr:full": "No. 8, 60Ft. Road, Pattegara Palya, Vijayanagar", "addr:postcode": "560079", "addr:state": "Karnataka", "amenity": "hospital", "name": "Sandhyashree Hospital", "name:kn": "\u0cb8\u0c82\u0ca7\u0ccd\u0caf\u0cbe\u0cb6\u0ccd\u0cb0\u0cc0 \u0c86\u0cb8\u0ccd\u0caa\u0ca4\u0ccd\u0cb0\u0cc6", "source": "OpenGovernmentData"}}, {"type": "node", "id": 6947750361, "lat": 12.9162753, "lon": 77.5589544, "tags": {"addr:district": "Bengaluru Urban", "addr:full": "No. 113, 4Th Cross, R. K. Layout, Padmanabhanagar", "addr:postcode": "560070", "addr:state": "Karnataka", "amenity": "hospital", "healthcare": "hospital", "name": "Hillside Hospital", "source": "OpenGovernmentData"}}, {"type": "node", "id": 6947915400, "lat": 12.9646359, "lon": 77.5926509, "tags": {"addr:district": "Bengaluru Urban", "addr:full": "Sindhi Hospital Road Sampangiramnagar S R Nagar", "addr:postcode": "560027", "addr:state": "Karnataka", "amenity": "hospital", "name": "Pd Hinduja Sindhi Hospital", "source": "OpenGovernmentData"}}, {"type": "node", "id": 6948438892, "lat": 12.9817233, "lon": 77.5549364, "tags": {"addr:district": "Bengaluru Urban", "addr:full": "10Th, A Main, 68Th Cross, 5Th Block, Rajajinagar Near Bhasyam Circle", "addr:postcode": "560010", "addr:state": "Karnataka", "amenity": "hospital", "name": "Rotary Eye Hospital (A Unit Of Bangalore North Rotary Trust)", "source": "OpenGovernmentData"}}, {"type": "node", "id": 6950124308, "lat": 12.9543465, "lon": 77.5755649, "tags": {"addr:district": "Bengaluru Urban", "addr:full": "506, Aswathankatte Road V V Puram", "addr:postcode": "560004", "addr:state": "Karnataka", "amenity": "hospital", "name": "Venkateswara Hospital, Bengaluru Urban", "name:kn": "\u0cb5\u0cc6\u0c82\u0c95\u0c9f\u0cc7\u0cb6\u0ccd\u0cb5\u0cb0 \u0c86\u0cb8\u0ccd\u0caa\u0ca4\u0ccd\u0cb0\u0cc6", "source": "OpenGovernmentData"}}, {"type": "node", "id": 6950185730, "lat": 12.9783164, "lon": 77.5429603, "tags": {"addr:district": "Bengaluru Urban", "addr:full": "58, M. Muniyappa Complex Magadi Main Road, Agrahara Dasarahalli,", "addr:postcode": "560079", "addr:state": "Karnataka", "amenity": "hospital", "name": "Madhu Hospital, Bengaluru Urban", "source": "OpenGovernmentData"}}, {"type": "node", "id": 6952164952, "lat": 12.9408227, "lon": 77.5227942}, {"type": "node", "id": 6952164953, "lat": 12.9415717, "lon": 77.523348}, {"type": "node", "id": 6952164960, "lat": 12.9420357, "lon": 77.5225983}, {"type": "node", "id": 7007284257, "lat": 12.9848995, "lon": 77.5568087}, {"type": "node", "id": 7139631443, "lat": 12.9745983, "lon": 77.5436792, "tags": {"amenity": "hospital", "name": "Padmashree Diagnostics"}}, {"type": "node", "id": 7229958802, "lat": 12.9427937, "lon": 77.5256266}, {"type": "node", "id": 7229958803, "lat": 12.9428107, "lon": 77.5254495}, {"type": "node", "id": 7229958804, "lat": 12.9426696, "lon": 77.5254013}, {"type": "node", "id": 7229958805, "lat": 12.9426291, "lon": 77.5255233}, {"type": "node", "id": 7258378647, "lat": 12.931298, "lon": 77.5412566, "tags": {"amenity": "hospital", "healthcare": "hospital", "healthcare:speciality": "optometry;optometrist", "name": "Vittal Eye HOspital"}}, {"type": "node", "id": 7292235598, "lat": 12.9850791, "lon": 77.5569447}, {"type": "node", "id": 7292337020, "lat": 12.963623, "lon": 77.5673169}, {"type": "node", "id": 7293719494, "lat": 12.96384, "lon": 77.5898682}, {"type": "node", "id": 7293719495, "lat": 12.9638491, "lon": 77.5898319}, {"type": "node", "id": 7395562818, "lat": 12.9677564, "lon": 77.5952352}, {"type": "node", "id": 7395562819, "lat": 12.9677088, "lon": 77.594954}, {"type": "node", "id": 7572526686, "lat": 12.975501, "lon": 77.534972, "tags": {"addr:district": "Bengaluru Urban", "addr:full": "Govindarajanagar, Bengaluru", "addr:postcode": "560040", "addr:state": "Karnataka", "amenity": "hospital", "name": "Kamadhenu Hospital", "source": "Local Knowledge"}}, {"type": "node", "id": 7572526693, "lat": 12.9835824, "lon": 77.5289448, "tags": {"addr:district": "Bengaluru Urban", "addr:full": "Govindaraja Nagar Ward, Priyadarshini Layout, Kamakshipalya, Bengaluru", "addr:postcode": "560079", "addr:state": "Karnataka", "amenity": "hospital", "name": "Benaka Hospital", "source": "Local Knowledge"}}, {"type": "node", "id": 7572526698, "lat": 12.9744928, "lon": 77.5342045, "tags": {"addr:district": "Bengaluru Urban", "addr:full": "Stage 2, Vijayanagar, Bengaluru", "addr:postcode": "560040", "addr:state": "Karnataka", "amenity": "hospital", "name": "Goverment Hospital, Hosahalli", "source": "Local Knowledge"}}, {"type": "node", "id": 7572526700, "lat": 12.96767, "lon": 77.5226459, "tags": {"addr:district": "Bengaluru Urban", "addr:full": "Govindaraja Nagar Ward, Kalyan Nagar, Vijayanagar, Bengaluru", "addr:postcode": "560072", "addr:state": "Karnataka", "amenity": "hospital", "name": "Vijaya Hospital", "source": "Local Knowledge"}}, {"type": "node", "id": 7572526703, "lat": 12.9780731, "lon": 77.5251934, "tags": {"addr:district": "Bengaluru Urban", "addr:full": "Govindaraja Nagar Ward, Pattegarhpalya, Vijayanagar, Bengaluru", "addr:postcode": "560079", "addr:state": "Karnataka", "amenity": "hospital", "name": "Government Hospital", "name:kn": "\u0cb8\u0cb0\u0ccd\u0c95\u0cbe\u0cb0\u0cbf \u0c86\u0cb8\u0ccd\u0caa\u0ca4\u0ccd\u0cb0\u0cc6", "source": "Local Knowledge"}}, {"type": "node", "id": 7572526708, "lat": 12.9734087, "lon": 77.5462808, "tags": {"addr:district": "Bengaluru Urban", "addr:full": "Hoshalli Extension, Vijayanagar, Bengaluru", "addr:postcode": "560040", "addr:state": "Karnataka", "amenity": "hospital", "name": "Sriprasad Ayurveda", "source": "Local Knowledge"}}, {"type": "node", "id": 7572526709, "lat": 12.9707429, "lon": 77.5377684, "tags": {"addr:district": "Bengaluru Urban", "addr:full": "Near Vijayanagar Police Station, Vijaya Nagar, Bengaluru", "addr:postcode": "560040", "addr:state": "Karnataka", "amenity": "hospital", "healthcare": "hospital", "name": "Vidya Eye Hospital", "source": "Local Knowledge"}}, {"type": "node", "id": 7572526718, "lat": 12.9615606, "lon": 77.5222312, "tags": {"addr:district": "Bengaluru Urban", "addr:full": "Maruthi Nagar, Attiguppe, Bengaluru", "addr:postcode": "560040", "addr:state": "Karnataka", "amenity": "hospital", "name": "Shree Dhanvantari Ayurveda Hospital", "source": "Local Knowledge"}}, {"type": "node", "id": 7572526728, "lat": 12.961509, "lon": 77.523151, "tags": {"addr:district": "Bengaluru Urban", "addr:full": "Netravati Road, Maruthi Nagar, Bengaluru", "addr:postcode": "560072", "addr:state": "Karnataka", "amenity": "hospital", "name": "Srinivasam Cancer Care Multi Speciality Hospital", "source": "Local Knowledge"}}, {"type": "node", "id": 7572526752, "lat": 12.9802303, "lon": 77.5548818, "tags": {"addr:district": "Bengaluru Urban", "addr:full": "Rajajinagar, Bengaluru", "addr:postcode": "560010", "addr:state": "Karnataka", "amenity": "hospital", "name": "G.R. Hospital", "source": "Local Knowledge"}}, {"type": "node", "id": 7572526753, "lat": 12.9754301, "lon": 77.5358001, "tags": {"addr:district": "Bengaluru Urban", "addr:full": "Nagarabhavi Main Road, Govindaraja Nagar Ward, Vijayanagar, Bengaluru", "addr:postcode": "560040", "addr:state": "Karnataka", "amenity": "hospital", "name": "Sneha Horizon Hospital", "source": "Local Knowledge"}}, {"type": "node", "id": 7572526756, "lat": 12.968292, "lon": 77.524492, "tags": {"addr:district": "Bengaluru Urban", "addr:full": "Nagarabavi Main Road, Mudalapalya, Vijayanagar, Bengaluru", "addr:postcode": "560072", "addr:state": "Karnataka", "amenity": "hospital", "name": "Jagjeevanram Hospital", "source": "Local Knowledge"}}, {"type": "node", "id": 7572526757, "lat": 12.974339, "lon": 77.542325, "tags": {"addr:district": "Bengaluru Urban", "addr:full": "CHBS Layout, Vijayanagar, Bengaluru", "addr:postcode": "560040", "addr:state": "Karnataka", "amenity": "hospital", "name": "Kangroo Hospital", "source": "Local Knowledge"}}, {"type": "node", "id": 7572526762, "lat": 12.9757486, "lon": 77.553782, "tags": {"addr:district": "Bengaluru Urban", "addr:full": "Rajajinagar, Bengaluru", "addr:postcode": "560023", "addr:state": "Karnataka", "amenity": "hospital", "name": "Abhinav Hospital", "source": "Local Knowledge"}}, {"type": "node", "id": 7572526763, "lat": 12.969102, "lon": 77.534951, "tags": {"addr:district": "Bengaluru Urban", "addr:full": "Govindaraja Nagar Ward, PF Layout, Vijayanagar, Bengaluru", "addr:postcode": "560040", "addr:state": "Karnataka", "amenity": "hospital", "name": "Suhusannidhi Hospital", "source": "Local Knowledge"}}, {"type": "node", "id": 7572526766, "lat": 12.9745497, "lon": 77.5208943, "tags": {"addr:district": "Bengaluru Urban", "addr:full": "Govindaraja Nagar Ward, Panchasheel Nagar, Vijayanagar, Bengaluru", "addr:postcode": "560072", "addr:state": "Karnataka", "amenity": "hospital", "name": "Panchsheela Nagar Hospital", "source": "Local Knowledge"}}, {"type": "node", "id": 7572526776, "lat": 12.9698191, "lon": 77.5360801, "tags": {"addr:district": "Bengaluru Urban", "addr:full": "CHBS Layout, MC Layout, Vijayanagar, Bengaluru", "addr:postcode": "560040", "addr:state": "Karnataka", "amenity": "hospital", "name": "Sai Ortho and Dental Centre", "source": "Local Knowledge"}}, {"type": "node", "id": 7572526781, "lat": 12.9794315, "lon": 77.5441641, "tags": {"addr:district": "Bengaluru Urban", "addr:full": "Agrahara Dasarahalli, Rajajinagar, Bengaluru", "addr:postcode": "560010", "addr:state": "Karnataka", "amenity": "hospital", "name": "Ammashrees Hospital", "source": "Local Knowledge"}}, {"type": "node", "id": 7572526783, "lat": 12.9639829, "lon": 77.5188899, "tags": {"addr:district": "Bengaluru Urban", "addr:full": "Govindrajanagar, Anubhav Nagar, Mudalapalya, Vijayanagar, Bengaluru", "addr:postcode": "560072", "addr:state": "Karnataka", "amenity": "hospital", "name": "Government Hospital", "name:kn": "\u0cb8\u0cb0\u0ccd\u0c95\u0cbe\u0cb0\u0cbf \u0c86\u0cb8\u0ccd\u0caa\u0ca4\u0ccd\u0cb0\u0cc6", "source": "Local Knowledge"}}, {"type": "node", "id": 7572526787, "lat": 12.9637162, "lon": 77.5188263, "tags": {"addr:district": "Bengaluru Urban", "addr:full": "Govindaraja Nagar Ward, Garden Villas, Vijayanagar, Bengaluru", "addr:postcode": "560072", "addr:state": "Karnataka", "amenity": "hospital", "name": "Shanthakumari Hospital", "source": "Local Knowledge"}}, {"type": "node", "id": 7572526791, "lat": 12.9735574, "lon": 77.5461246, "tags": {"addr:district": "Bengaluru Urban", "addr:full": "Hans Complex, Manuvana, Vijayanagar, Bengaluru", "addr:postcode": "560040", "addr:state": "Karnataka", "amenity": "hospital", "name": "Bengaluru Child Neurology and Rehabilitaion Centre", "source": "Local Knowledge"}}, {"type": "node", "id": 7572526792, "lat": 12.976379, "lon": 77.524439, "tags": {"addr:district": "Bengaluru Urban", "addr:full": "Srinivasnagar, Amarajyothi Nagar, Vijayanagar, Bengaluru", "addr:postcode": "560072", "addr:state": "Karnataka", "amenity": "hospital", "name": "Sumati Hospital", "source": "Local Knowledge"}}, {"type": "node", "id": 7572526800, "lat": 12.975423, "lon": 77.540659, "tags": {"addr:district": "Bengaluru Urban", "addr:full": "Near SBI, Vijayanagar, Bengaluru", "addr:postcode": "560040", "addr:state": "Karnataka", "amenity": "hospital", "name": "Dr. Nothesh Child Specialist", "source": "Local Knowledge"}}, {"type": "node", "id": 7572526804, "lat": 12.9698787, "lon": 77.5332834, "tags": {"addr:district": "Bengaluru Urban", "addr:full": "Vijaya Nagar, Bengaluru", "addr:postcode": "560040", "addr:state": "Karnataka", "amenity": "hospital", "name": "Sastry Memorial Hospital", "source": "Local Knowledge"}}, {"type": "node", "id": 7576958025, "lat": 12.93753, "lon": 77.549675, "tags": {"addr:district": "Bengaluru Urban", "addr:full": "Srinivasnagar, Banashankari, Bengaluru", "addr:state": "Karnataka", "amenity": "hospital", "name": "Vinayaka Hospital", "source": "Local Knowledge"}}, {"type": "node", "id": 7576958028, "lat": 12.9633185, "lon": 77.5790145, "tags": {"addr:district": "Bengaluru Urban", "addr:full": "Near Jamia Masjid, NR Road, Bengaluru", "addr:postcode": "560002", "addr:state": "Karnataka", "amenity": "hospital", "name": "Unani Hospital", "source": "Local Knowledge"}}, {"type": "node", "id": 7576958033, "lat": 12.9405198, "lon": 77.5794387, "tags": {"addr:district": "Bengaluru Urban", "addr:full": "Basavanagudi, Bengaluru", "addr:postcode": "560004", "addr:state": "Karnataka", "amenity": "hospital", "name": "Bangaluru Unani Hospital", "source": "Local Knowledge"}}, {"type": "node", "id": 7576958037, "lat": 12.953049, "lon": 77.574203, "tags": {"addr:district": "Bengaluru Urban", "addr:full": "S.S. Temple Street, V V Puram, Bengaluru", "addr:postcode": "560004", "addr:state": "Karnataka", "amenity": "hospital", "name": "Medcare Hospital", "source": "Local Knowledge"}}, {"type": "node", "id": 7576958039, "lat": 12.9417439, "lon": 77.5601782, "tags": {"addr:district": "Bengaluru Urban", "addr:full": "50 Feet Road, Basavanagadi, Banashankari, Bengaluru", "addr:postcode": "560019", "addr:state": "Karnataka", "amenity": "hospital", "name": "Sumanjara Hospital", "source": "Local Knowledge"}}, {"type": "node", "id": 7576958043, "lat": 12.961345, "lon": 77.560893, "tags": {"addr:district": "Bengaluru Urban", "addr:full": "Mahaveer Arcade, Sirsi Road, Chamrajpet, Bengaluru", "addr:postcode": "560018", "addr:state": "Karnataka", "amenity": "hospital", "name": "Corporation Hospital", "source": "Local Knowledge"}}, {"type": "node", "id": 7576958045, "lat": 12.945591, "lon": 77.5712865, "tags": {"addr:district": "Bengaluru Urban", "addr:full": "DVG Road, Gandhi Bazaar, Basavanagudi, Bengaluru", "addr:postcode": "560004", "addr:state": "Karnataka", "amenity": "hospital", "name": "Mitralaya Hospital", "source": "Local Knowledge"}}, {"type": "node", "id": 7576958048, "lat": 12.942076, "lon": 77.553598, "tags": {"addr:district": "Bengaluru Urban", "addr:full": "Dasarhalli, Srinagar, Banashankari, Bengaluru", "addr:state": "Karnataka", "amenity": "hospital", "name": "People Tree Hospitals", "source": "Local Knowledge"}}, {"type": "node", "id": 7576958051, "lat": 12.936459, "lon": 77.584422, "tags": {"addr:district": "Bengaluru Urban", "addr:full": "Jaya Nagar East, Jayanagar, Bengaluru", "addr:postcode": "560011", "addr:state": "Karnataka", "amenity": "hospital", "healthcare": "hospital", "name": "Apollo Specialty Hospital", "source": "Local Knowledge"}}, {"type": "node", "id": 7576958052, "lat": 12.9609494, "lon": 77.5613939, "tags": {"addr:district": "Bengaluru Urban", "addr:full": "Sirsi Road, Chamrajpet, Bengaluru", "addr:postcode": "560018", "addr:state": "Karnataka", "amenity": "hospital", "name": "Government Hospital", "name:kn": "\u0c9a\u0cbe\u0cae\u0cb0\u0cbe\u0c9c\u0caa\u0cc7\u0c9f\u0cc6 \u0cb8\u0cb0\u0ccd\u0c95\u0cbe\u0cb0\u0cbf \u0c86\u0cb8\u0ccd\u0caa\u0ca4\u0ccd\u0cb0\u0cc6", "source": "Local Knowledge"}}, {"type": "node", "id": 7576958060, "lat": 12.940404, "lon": 77.5580361, "tags": {"addr:district": "Bengaluru Urban", "addr:full": "SBM Colony, Banashankari, Bengaluru", "addr:postcode": "560050", "addr:state": "Karnataka", "amenity": "hospital", "name": "Verna Hospital", "source": "Local Knowledge"}}, {"type": "node", "id": 7576958061, "lat": 12.9587464, "lon": 77.5573456, "tags": {"addr:district": "Bengaluru Urban", "addr:full": "Ramachandra Agrahara, Azad Nagar, Bengaluru", "addr:postcode": "560026", "addr:state": "Karnataka", "amenity": "hospital", "name": "Government Hospital, Banglore", "source": "Local Knowledge"}}, {"type": "node", "id": 7576958062, "lat": 12.960311, "lon": 77.568274, "tags": {"addr:district": "Bengaluru Urban", "addr:full": "Kamalanagar, Chamrajpet, Bengaluru", "addr:postcode": "560018", "addr:state": "Karnataka", "amenity": "hospital", "name": "Royan Maternity & Child Welfare Centre", "source": "Local Knowledge"}}, {"type": "node", "id": 7576958065, "lat": 12.945944, "lon": 77.567404, "tags": {"addr:district": "Bengaluru Urban", "addr:full": "Bull Temple Road, Hanumanthnagar, Bengaluru", "addr:postcode": "560019", "addr:state": "Karnataka", "amenity": "hospital", "name": "Shekhar Hospital", "source": "Local Knowledge"}}, {"type": "node", "id": 7576958066, "lat": 12.949104, "lon": 77.563226, "tags": {"addr:district": "Bengaluru Urban", "addr:full": "RK Mutt Layout, Kempegowda Nagar, Bengaluru", "addr:state": "Karnataka", "amenity": "hospital", "name": "Government Hospital", "name:kn": "\u0cb8\u0cb0\u0ccd\u0c95\u0cbe\u0cb0\u0cbf \u0c86\u0cb8\u0ccd\u0caa\u0ca4\u0ccd\u0cb0\u0cc6", "source": "Local Knowledge"}}, {"type": "node", "id": 7576958068, "lat": 12.9415883, "lon": 77.5641917, "tags": {"addr:district": "Bengaluru Urban", "addr:full": "Hanumanthnagar, Banashankari, Bengaluru", "addr:postcode": "560019", "addr:state": "Karnataka", "amenity": "hospital", "name": "Jeevini Sarvodaya Hospital", "source": "Local Knowledge"}}, {"type": "node", "id": 7576958070, "lat": 12.9569684, "lon": 77.5695045, "tags": {"addr:district": "Bengaluru Urban", "addr:full": "Shankar Mutt Road, Chikkanna Garden, Shankarapura, Bengaluru", "addr:postcode": "560004", "addr:state": "Karnataka", "amenity": "hospital", "name": "Mahaveer Ortho Care Speciality Centre", "source": "Local Knowledge"}}, {"type": "node", "id": 7576958071, "lat": 12.938787, "lon": 77.554296, "tags": {"addr:district": "Bengaluru Urban", "addr:full": "Banashankari, Bengaluru", "addr:state": "Karnataka", "amenity": "hospital", "name": "Raghavendra Hospital", "source": "Local Knowledge"}}, {"type": "node", "id": 7576958074, "lat": 12.938453, "lon": 77.551329, "tags": {"addr:district": "Bengaluru Urban", "addr:full": "Srinivasnagar, Banashankari, Bengaluru", "addr:state": "Karnataka", "amenity": "hospital", "name": "Apaara Multi Speciality", "source": "Local Knowledge"}}, {"type": "node", "id": 7576958078, "lat": 12.939882, "lon": 77.573989, "tags": {"addr:district": "Bengaluru Urban", "addr:full": "Krishna Rajendra Road, Basavanagudi, Bengaluru", "addr:postcode": "560004", "addr:state": "Karnataka", "amenity": "hospital", "healthcare": "hospital", "name": "Khincha Orthopaedic Centre", "source": "Local Knowledge"}}, {"type": "node", "id": 7576958080, "lat": 12.948971, "lon": 77.563543, "tags": {"addr:district": "Bengaluru Urban", "addr:full": "RK Mutt Layout, Gavipura, Kempegowda Nagar, Bengaluru", "addr:state": "Karnataka", "amenity": "hospital", "name": "Parameshwari Hospital", "source": "Local Knowledge"}}, {"type": "node", "id": 7576958083, "lat": 12.9422541, "lon": 77.5506328, "tags": {"addr:district": "Bengaluru Urban", "addr:full": "Giri Nagar, Banashankari, Bengaluru", "addr:state": "Karnataka", "amenity": "hospital", "name": "Drishti Nethralaya", "name:kn": "\u0ca6\u0cc3\u0cb7\u0ccd\u0c9f\u0cbf \u0ca8\u0cc7\u0ca4\u0ccd\u0cb0\u0cbe\u0cb2\u0caf", "source": "Local Knowledge"}}, {"type": "node", "id": 7576958084, "lat": 12.9654649, "lon": 77.5894756, "tags": {"addr:district": "Bengaluru Urban", "addr:full": "Sampangi Rama Nagar, Bengaluru", "addr:postcode": "560002", "addr:state": "Karnataka", "amenity": "hospital", "name": "Furtde Hospital", "source": "Local Knowledge"}}, {"type": "node", "id": 7576958086, "lat": 12.9702549, "lon": 77.5734571, "tags": {"addr:district": "Bengaluru Urban", "addr:full": "Santhusapet, Bengaluru", "addr:postcode": "560053", "addr:state": "Karnataka", "amenity": "hospital", "name": "Manavarthapet Pregnancy Hospital", "source": "Local Knowledge"}}, {"type": "node", "id": 7576958089, "lat": 12.9434996, "lon": 77.5796583, "tags": {"addr:district": "Bengaluru Urban", "addr:full": "Basavanagudi, Bengaluru", "addr:postcode": "560004", "addr:state": "Karnataka", "amenity": "hospital", "healthcare": "hospital", "name": "Trinity Hospital and Heart Foundation", "source": "Local Knowledge"}}, {"type": "node", "id": 7576958091, "lat": 12.957222, "lon": 77.566486, "tags": {"addr:district": "Bengaluru Urban", "addr:full": "Chamrajpet, Bengaluru", "addr:postcode": "560018", "addr:state": "Karnataka", "amenity": "hospital", "name": "Spandana Heart Centre", "source": "Local Knowledge"}}, {"type": "node", "id": 7576958093, "lat": 12.9420276, "lon": 77.575634, "tags": {"addr:district": "Bengaluru Urban", "addr:full": "M N Krishna Rao Park Road, Basavanagudi, Bengaluru", "addr:postcode": "560070", "addr:state": "Karnataka", "amenity": "hospital", "healthcare": "hospital", "name": "Matha Pitha Hospital", "source": "Local Knowledge"}}, {"type": "node", "id": 7576958095, "lat": 12.972126, "lon": 77.573351, "tags": {"addr:district": "Bengaluru Urban", "addr:full": "JM Road, Upparpete, Bengaluru", "addr:postcode": "560053", "addr:state": "Karnataka", "amenity": "hospital", "healthcare": "hospital", "name": "ESI Hospital", "operator": "Employees' State Insurance", "operator:short": "ESI", "operator:wikidata": "Q3595726", "source": "Local Knowledge"}}, {"type": "node", "id": 7576958096, "lat": 12.960972, "lon": 77.5609696, "tags": {"addr:district": "Bengaluru Urban", "addr:full": "Chamrajpet, Bengaluru", "addr:postcode": "560018", "addr:state": "Karnataka", "amenity": "hospital", "name": "Herige Hospital", "source": "Local Knowledge"}}, {"type": "node", "id": 7576958106, "lat": 12.9654497, "lon": 77.5999044, "tags": {"addr:district": "Bengaluru Urban", "addr:full": "Richmond Road, Shanthala Nagar, Ashok Nagar, Bengaluru", "addr:postcode": "560025", "addr:state": "Karnataka", "amenity": "hospital", "name": "Gleneagles Global Hospitals", "source": "Local Knowledge"}}, {"type": "node", "id": 7576958116, "lat": 12.9658901, "lon": 77.589928, "tags": {"addr:district": "Bengaluru Urban", "addr:full": "Ashwath Nagar, Sampangi Rama Nagara, Bengaluru", "addr:postcode": "560002", "addr:state": "Karnataka", "amenity": "hospital", "name": "Punarjyoti Eye Hospital", "source": "Local Knowledge"}}, {"type": "node", "id": 7576958117, "lat": 12.9479647, "lon": 77.5696395, "tags": {"addr:district": "Bengaluru Urban", "addr:full": "Vanivilas Road, Gandhi Bazaar, Basavanagudi, Bengaluru", "addr:postcode": "560004", "addr:state": "Karnataka", "amenity": "hospital", "name": "Swastik Eye Hospital", "source": "Local Knowledge"}}, {"type": "node", "id": 7576958118, "lat": 12.9458294, "lon": 77.5799015, "tags": {"addr:district": "Bengaluru Urban", "addr:full": "Rashtriya Vidyalaya Road, Basavanagudi, Bengaluru", "addr:postcode": "560004", "addr:state": "Karnataka", "amenity": "hospital", "healthcare": "hospital", "name": "Dave Gray Hospital", "source": "Local Knowledge"}}, {"type": "node", "id": 7576958120, "lat": 12.9650303, "lon": 77.5954946, "tags": {"addr:district": "Bengaluru Urban", "addr:full": "Sampangi Rama Nagara, Bengaluru", "addr:postcode": "560027", "addr:state": "Karnataka", "amenity": "hospital", "name": "Dr. Rudrappa's Hospital", "source": "Local Knowledge"}}, {"type": "node", "id": 7579924715, "lat": 12.9215119, "lon": 77.5724702, "tags": {"addr:district": "Bengaluru Urban", "addr:full": "Banashankari, Bengaluru", "addr:postcode": "560070", "addr:state": "Karnataka", "amenity": "hospital", "healthcare": "hospital", "name": "Sevakshetra Hospital", "name:kn": "\u0cb8\u0cc7\u0cb5\u0cbe\u0c95\u0ccd\u0cb7\u0cc7\u0ca4\u0ccd\u0cb0 \u0c86\u0cb8\u0ccd\u0caa\u0ca4\u0ccd\u0cb0\u0cc6", "source": "Local Knowledge"}}, {"type": "node", "id": 7579924725, "lat": 12.9055752, "lon": 77.5425258, "tags": {"addr:district": "Bengaluru Urban", "addr:full": "Uttarahalli, Bengaluru", "addr:postcode": "560011", "addr:state": "Karnataka", "amenity": "hospital", "name": "Perfetual Help Hospital", "source": "Local Knowledge"}}, {"type": "node", "id": 7579924731, "lat": 12.9136262, "lon": 77.6045369, "tags": {"addr:district": "Bengaluru Urban", "addr:floor": "3", "addr:full": "BTM, Bengaluru", "addr:postcode": "560076", "addr:state": "Karnataka", "amenity": "hospital", "check_date": "2023-12-27", "emergency": "no", "healthcare": "hospital", "internet_access": "no", "level": "3", "name": "Marigold Hospital", "operator:type": "private", "payment:cash": "yes", "payment:credit_cards": "yes", "payment:debit_cards": "yes", "source": "Local Knowledge", "wheelchair": "limited"}}, {"type": "node", "id": 7579924732, "lat": 12.9334096, "lon": 77.5622345, "tags": {"addr:district": "Bengaluru Urban", "addr:full": "Vidyapeeta Layout, Basavanagudi, Bengaluru", "addr:postcode": "560050", "addr:state": "Karnataka", "amenity": "hospital", "name": "Bharathi Hospitals", "source": "Local Knowledge"}}, {"type": "node", "id": 7579924744, "lat": 12.924153, "lon": 77.565797, "tags": {"addr:district": "Bengaluru Urban", "addr:full": "Banashankari, Bengaluru", "addr:postcode": "560070", "addr:state": "Karnataka", "amenity": "hospital", "name": "Devagiri Hospital", "source": "Local Knowledge"}}, {"type": "node", "id": 7579924753, "lat": 12.9159348, "lon": 77.6034098, "tags": {"addr:district": "Bengaluru Urban", "addr:full": "Bannerghatta Main Road, BTM, Bengaluru", "addr:postcode": "560076", "addr:state": "Karnataka", "amenity": "hospital", "healthcare": "hospital", "name": "Pothys Hospital", "source": "Local Knowledge"}}, {"type": "node", "id": 7579924754, "lat": 12.916234, "lon": 77.593019, "tags": {"addr:district": "Bengaluru Urban", "addr:full": "J.P. Nagar, Bengaluru", "addr:postcode": "560078", "addr:state": "Karnataka", "amenity": "hospital", "healthcare": "hospital", "name": "Center for Liver Disease Hospital", "source": "Local Knowledge"}}, {"type": "node", "id": 7579924760, "lat": 12.9254569, "lon": 77.5467101, "tags": {"addr:district": "Bengaluru Urban", "addr:full": "Banashankari, Bengaluru", "addr:postcode": "560085", "addr:state": "Karnataka", "amenity": "hospital", "name": "Sudha Prevention Centre", "source": "Local Knowledge"}}, {"type": "node", "id": 7579924762, "lat": 12.920651, "lon": 77.5746118, "tags": {"addr:district": "Bengaluru Urban", "addr:full": "Jayanagar, Bengaluru", "addr:postcode": "560082", "addr:state": "Karnataka", "amenity": "hospital", "name": "Sahasra Hospital", "name:kn": "\u0cb8\u0cb9\u0cb8\u0ccd\u0cb0 \u0c86\u0cb8\u0ccd\u0caa\u0ca4\u0ccd\u0cb0\u0cc6", "source": "Local Knowledge"}}, {"type": "node", "id": 7579924768, "lat": 12.9202202, "lon": 77.5772991, "tags": {"addr:district": "Bengaluru Urban", "addr:full": "Jayanagar, Bengaluru", "addr:postcode": "560070", "addr:state": "Karnataka", "amenity": "hospital", "name": "Shanti Hospital", "name:kn": "\u0cb6\u0cbe\u0c82\u0ca4\u0cbf \u0c86\u0cb8\u0ccd\u0caa\u0ca4\u0ccd\u0cb0\u0cc6", "source": "Local Knowledge"}}, {"type": "node", "id": 7579924780, "lat": 12.916885, "lon": 77.585258, "tags": {"addr:district": "Bengaluru Urban", "addr:full": "TMC Layout, Jayanagar, Bengaluru", "addr:postcode": "560011", "addr:state": "Karnataka", "amenity": "hospital", "healthcare": "hospital", "name": "Apollo Cradle Maternity & Children's Hospital", "source": "Local Knowledge"}}, {"type": "node", "id": 7579924783, "lat": 12.906113, "lon": 77.542548, "tags": {"addr:district": "Bengaluru Urban", "addr:full": "Simhadri layout, Uttarahalli Hobli, Bengaluru", "addr:postcode": "560061", "addr:state": "Karnataka", "amenity": "hospital", "name": "St. Martha's Hospital", "source": "Local Knowledge"}}, {"type": "node", "id": 7579924785, "lat": 12.9160818, "lon": 77.5884774}, {"type": "node", "id": 8188038786, "lat": 12.9844963, "lon": 77.5551801, "tags": {"addr:full": "20th Main Rd, 5 Block, 3rd Block, Rajajinagar, Bengaluru, Karnataka", "addr:state": "Karnataka", "amenity": "hospital", "name": "Government Hospital", "name:kn": "\u0cb8\u0cb0\u0ccd\u0c95\u0cbe\u0cb0\u0cbf \u0c86\u0cb8\u0ccd\u0caa\u0ca4\u0ccd\u0cb0\u0cc6"}}, {"type": "node", "id": 8776646948, "lat": 12.9128623, "lon": 77.5714903, "tags": {"addr:city": "Bangalore", "addr:housenumber": "64/2, Sarakki Main Rd, Sarakki Nagar,", "addr:postcode": "560078", "addr:street": "4th Cross Road", "amenity": "hospital", "healthcare": "hospital", "healthcare:speciality": "physiotherapy;physiotherapist", "name": "Healing Hands Advanced Physiotherapy Clinic", "operator": "www.hhphysio.com", "operator:type": "private"}}, {"type": "node", "id": 8873805759, "lat": 12.9288444, "lon": 77.5828703, "tags": {"amenity": "hospital", "name": "Narayan Multispeciality clinic"}}, {"type": "node", "id": 9161008293, "lat": 12.9835071, "lon": 77.5364935}, {"type": "node", "id": 9161008294, "lat": 12.9834692, "lon": 77.5364855}, {"type": "node", "id": 9161008295, "lat": 12.9834966, "lon": 77.5363889}, {"type": "node", "id": 9161008296, "lat": 12.9834182, "lon": 77.5363621}, {"type": "node", "id": 9161008297, "lat": 12.9835006, "lon": 77.5360242}, {"type": "node", "id": 9161008298, "lat": 12.9830589, "lon": 77.5358739}, {"type": "node", "id": 9161008299, "lat": 12.982889, "lon": 77.5363675}, {"type": "node", "id": 9161008300, "lat": 12.9828027, "lon": 77.5363407}, {"type": "node", "id": 9161008301, "lat": 12.9825603, "lon": 77.5371675}, {"type": "node", "id": 9161008302, "lat": 12.9826903, "lon": 77.5371808}, {"type": "node", "id": 9161008303, "lat": 12.9834169, "lon": 77.5369361}, {"type": "node", "id": 9276855256, "lat": 12.9395279, "lon": 77.586437, "tags": {"amenity": "hospital", "healthcare": "hospital", "name": "clinic"}}, {"type": "node", "id": 9296328828, "lat": 12.9700244, "lon": 77.5850201, "tags": {"access": "private", "barrier": "gate"}}, {"type": "node", "id": 9296328829, "lat": 12.9701892, "lon": 77.5869643, "tags": {"access": "private", "barrier": "gate"}}, {"type": "node", "id": 9296328875, "lat": 12.9723578, "lon": 77.5858792}, {"type": "node", "id": 9296328876, "lat": 12.9725562, "lon": 77.5856406}, {"type": "node", "id": 9730853893, "lat": 12.9355966, "lon": 77.5971575, "tags": {"amenity": "hospital", "healthcare": "hospital", "name": "Kidwai Cancer Institute Radiation Block"}}, {"type": "node", "id": 9872645096, "lat": 12.9848314, "lon": 77.5569034}, {"type": "node", "id": 9872645097, "lat": 12.9850109, "lon": 77.5570394}, {"type": "node", "id": 9906259186, "lat": 12.9406607, "lon": 77.5925329}, {"type": "node", "id": 9906259212, "lat": 12.9362011, "lon": 77.5929949}, {"type": "node", "id": 9906259215, "lat": 12.9362768, "lon": 77.5940101}, {"type": "node", "id": 9934012104, "lat": 12.9429852, "lon": 77.5460604, "tags": {"amenity": "hospital", "healthcare": "hospital", "healthcare:speciality": "dentist", "name": "My Dentist", "operator": "Dr Katta R Venkatesh", "operator:type": "public"}}, {"type": "node", "id": 10032117287, "lat": 12.9570886, "lon": 77.6046301}, {"type": "node", "id": 10032117288, "lat": 12.9570024, "lon": 77.6049713}, {"type": "node", "id": 10041139974, "lat": 12.9829636, "lon": 77.537095}, {"type": "node", "id": 10146603250, "lat": 12.9034102, "lon": 77.6013846}, {"type": "node", "id": 10146603251, "lat": 12.9031678, "lon": 77.6013273}, {"type": "node", "id": 10146603252, "lat": 12.9033714, "lon": 77.6001388}, {"type": "node", "id": 10146603254, "lat": 12.9036331, "lon": 77.6001647}, {"type": "node", "id": 10188080243, "lat": 12.9755907, "lon": 77.5642512, "tags": {"access": "private", "barrier": "gate"}}, {"type": "node", "id": 10245038162, "lat": 12.9093485, "lon": 77.5133836}, {"type": "node", "id": 10580572136, "lat": 12.9639533, "lon": 77.5846015, "tags": {"access": "private", "barrier": "gate"}}, {"type": "node", "id": 10632949336, "lat": 12.918923, "lon": 77.5987416}, {"type": "node", "id": 10691293984, "lat": 12.9567986, "lon": 77.6045496}, {"type": "node", "id": 10761493357, "lat": 12.983533, "lon": 77.5992254}, {"type": "node", "id": 10761493358, "lat": 12.9841666, "lon": 77.5993902}, {"type": "node", "id": 10792855174, "lat": 12.9823029, "lon": 77.6058903}, {"type": "node", "id": 10978269863, "lat": 12.9698589, "lon": 77.585217, "tags": {"access": "private", "barrier": "gate"}}, {"type": "node", "id": 10979388706, "lat": 12.926271, "lon": 77.5210091}, {"type": "node", "id": 10979388707, "lat": 12.9258632, "lon": 77.5221571}, {"type": "node", "id": 10979388708, "lat": 12.9266631, "lon": 77.5223475}, {"type": "node", "id": 10979388709, "lat": 12.9269742, "lon": 77.5211835}, {"type": "node", "id": 10996542240, "lat": 12.9837528, "lon": 77.603725, "tags": {"access": "destination", "barrier": "gate"}}, {"type": "node", "id": 10996542241, "lat": 12.9826988, "lon": 77.603454, "tags": {"access": "destination", "barrier": "gate"}}, {"type": "node", "id": 11009573409, "lat": 12.9542655, "lon": 77.5721858, "tags": {"access": "permissive", "barrier": "gate"}}, {"type": "node", "id": 11009573410, "lat": 12.9532977, "lon": 77.5706279, "tags": {"access": "permissive", "barrier": "gate"}}, {"type": "node", "id": 11009588219, "lat": 12.9533132, "lon": 77.5711327, "tags": {"access": "private", "barrier": "gate"}}, {"type": "node", "id": 11019492853, "lat": 12.9611542, "lon": 77.5840357}, {"type": "node", "id": 11028992215, "lat": 12.980308, "lon": 77.5647761}, {"type": "node", "id": 11174291857, "lat": 12.9607734, "lon": 77.5615429}, {"type": "node", "id": 11174291858, "lat": 12.9607666, "lon": 77.5608063}, {"type": "node", "id": 11174291859, "lat": 12.961076, "lon": 77.5608032}, {"type": "node", "id": 11174291860, "lat": 12.9610829, "lon": 77.5615398}, {"type": "node", "id": 11188815908, "lat": 12.9434204, "lon": 77.5968499}, {"type": "node", "id": 11215840017, "lat": 12.941992, "lon": 77.5673974}, {"type": "node", "id": 11279857425, "lat": 12.9164347, "lon": 77.589144}, {"type": "node", "id": 11279857426, "lat": 12.9164517, "lon": 77.5892432}, {"type": "node", "id": 11279857427, "lat": 12.9164424, "lon": 77.5895344}, {"type": "node", "id": 11279857428, "lat": 12.9159946, "lon": 77.5895527}, {"type": "node", "id": 11281453704, "lat": 12.9449539, "lon": 77.5964382}, {"type": "node", "id": 11281453705, "lat": 12.944717, "lon": 77.5966367}, {"type": "node", "id": 11295071515, "lat": 12.9400516, "lon": 77.5954768, "tags": {"amenity": "hospital", "check_date": "2023-10-28", "healthcare": "hospital", "name": "NIMHANS Department Of Psychiatric and Neuro Rehabilitation", "operator:type": "government", "wheelchair": "yes"}}, {"type": "node", "id": 11295217457, "lat": 12.9396498, "lon": 77.5967825, "tags": {"amenity": "hospital", "check_date": "2023-10-28", "healthcare": "hospital", "healthcare:speciality": "neurology", "name": "Nimhans Mr-pet Center", "operator:type": "government", "wheelchair": "yes"}}, {"type": "node", "id": 11295246682, "lat": 12.9402037, "lon": 77.5954721, "tags": {"amenity": "hospital", "check_date": "2023-10-28", "healthcare": "hospital", "name": "NIMHANS Physiotherapy Center", "operator:type": "government", "wheelchair": "yes"}}, {"type": "node", "id": 11303711371, "lat": 12.906071, "lon": 77.5869281, "tags": {"amenity": "hospital", "check_date": "2023-11-01", "healthcare": "hospital", "level": "0;1;2", "name": "Cadabam's Hospitals", "wheelchair": "yes"}}, {"type": "node", "id": 11330502270, "lat": 12.9384644, "lon": 77.5983603, "tags": {"access": "private", "barrier": "gate"}}, {"type": "node", "id": 11341218790, "lat": 12.9734141, "lon": 77.5638984}, {"type": "node", "id": 11342881119, "lat": 12.947665, "lon": 77.5922567}, {"type": "node", "id": 11342881121, "lat": 12.9481303, "lon": 77.5928025}, {"type": "node", "id": 11342881122, "lat": 12.9481892, "lon": 77.5927945}, {"type": "node", "id": 11342881123, "lat": 12.9478257, "lon": 77.5921561}, {"type": "node", "id": 11385161943, "lat": 12.9164428, "lon": 77.5894927, "tags": {"access": "private", "barrier": "gate"}}, {"type": "node", "id": 11542884418, "lat": 12.9199755, "lon": 77.5993641}, {"type": "node", "id": 11542884419, "lat": 12.919958, "lon": 77.5999059}, {"type": "node", "id": 11542884420, "lat": 12.9192816, "lon": 77.5998849}, {"type": "node", "id": 11542884429, "lat": 12.9194694, "lon": 77.5987574}, {"type": "node", "id": 11680844211, "lat": 12.9269873, "lon": 77.5916458}, {"type": "node", "id": 11757261198, "lat": 12.9411586, "lon": 77.5230597}, {"type": "node", "id": 11757261199, "lat": 12.9418461, "lon": 77.522475}, {"type": "node", "id": 11757924262, "lat": 12.9034811, "lon": 77.6009965}, {"type": "node", "id": 11799695217, "lat": 12.9269958, "lon": 77.5767958}, {"type": "node", "id": 11801601935, "lat": 12.9030689, "lon": 77.5607177}, {"type": "node", "id": 11801601936, "lat": 12.902942, "lon": 77.5606585}, {"type": "node", "id": 11801601937, "lat": 12.9031277, "lon": 77.5598988}, {"type": "node", "id": 11801601938, "lat": 12.9033643, "lon": 77.5599393}, {"type": "node", "id": 11813227397, "lat": 12.9075935, "lon": 77.5707809, "tags": {"amenity": "hospital", "name": "Bengaluru City Hospital"}}, {"type": "node", "id": 11881863274, "lat": 12.9772225, "lon": 77.5430381}, {"type": "node", "id": 11881863275, "lat": 12.9771899, "lon": 77.5432125}, {"type": "node", "id": 11946809268, "lat": 12.9058817, "lon": 77.6037517, "tags": {"amenity": "hospital", "healthcare": "hospital", "name": "Chirag Global Hospital"}}, {"type": "node", "id": 11956235455, "lat": 12.8948772, "lon": 77.5993046}, {"type": "node", "id": 11956235456, "lat": 12.8941265, "lon": 77.5990779}, {"type": "node", "id": 11991711393, "lat": 12.9609956, "lon": 77.5844209}, {"type": "node", "id": 11991711396, "lat": 12.9605387, "lon": 77.5842262}, {"type": "node", "id": 11992153785, "lat": 12.9405311, "lon": 77.5899973}, {"type": "node", "id": 12025600510, "lat": 12.9445249, "lon": 77.5963906}, {"type": "node", "id": 12025600511, "lat": 12.9447582, "lon": 77.5961961}, {"type": "node", "id": 12067529023, "lat": 12.9820285, "lon": 77.6047429}, {"type": "node", "id": 12067529024, "lat": 12.9819447, "lon": 77.6050474}, {"type": "node", "id": 12067529025, "lat": 12.9820807, "lon": 77.6050937}, {"type": "node", "id": 12067529026, "lat": 12.981955, "lon": 77.6055304}, {"type": "node", "id": 12067529031, "lat": 12.9824951, "lon": 77.6057117}, {"type": "node", "id": 12067529032, "lat": 12.9823675, "lon": 77.6056758}, {"type": "node", "id": 12112489582, "lat": 12.9841004, "lon": 77.599398}, {"type": "node", "id": 12112511977, "lat": 12.954204, "lon": 77.5721861, "tags": {"access": "permissive", "barrier": "gate"}}, {"type": "node", "id": 12112511980, "lat": 12.9544849, "lon": 77.5715125}, {"type": "node", "id": 12112511993, "lat": 12.9533256, "lon": 77.5715353}, {"type": "node", "id": 12112511994, "lat": 12.9537451, "lon": 77.5715192}, {"type": "node", "id": 12112511995, "lat": 12.9537726, "lon": 77.5721884}, {"type": "node", "id": 12112511996, "lat": 12.9544568, "lon": 77.5701039}, {"type": "node", "id": 12112511997, "lat": 12.9536023, "lon": 77.5701234}, {"type": "node", "id": 12112511998, "lat": 12.9536043, "lon": 77.5702191}, {"type": "node", "id": 12112511999, "lat": 12.9534424, "lon": 77.5702228}, {"type": "node", "id": 12112512000, "lat": 12.9532968, "lon": 77.5705989}, {"type": "node", "id": 12112512013, "lat": 12.9544853, "lon": 77.5714193}, {"type": "node", "id": 12135993276, "lat": 12.960193, "lon": 77.5840398}, {"type": "node", "id": 12135993283, "lat": 12.9604331, "lon": 77.5836597}, {"type": "node", "id": 12137671788, "lat": 12.963954, "lon": 77.5842459}, {"type": "node", "id": 12137671789, "lat": 12.9644672, "lon": 77.5849845}, {"type": "node", "id": 12160392616, "lat": 12.8941373, "lon": 77.5985424}, {"type": "node", "id": 12160392617, "lat": 12.8943705, "lon": 77.5985289}, {"type": "node", "id": 12160392618, "lat": 12.8941164, "lon": 77.5983292}, {"type": "node", "id": 12160392680, "lat": 12.8963799, "lon": 77.5989327}, {"type": "node", "id": 12160392681, "lat": 12.8951289, "lon": 77.5988993}, {"type": "node", "id": 12160392684, "lat": 12.89614, "lon": 77.5977297}, {"type": "node", "id": 12160392688, "lat": 12.8954584, "lon": 77.5979092}, {"type": "node", "id": 12168378235, "lat": 12.9377453, "lon": 77.5989421}, {"type": "node", "id": 12169987865, "lat": 12.9401325, "lon": 77.5884066}, {"type": "node", "id": 12179846004, "lat": 12.9691487, "lon": 77.5860213}, {"type": "node", "id": 12376783811, "lat": 12.9401185, "lon": 77.5887555}, {"type": "node", "id": 12438173201, "lat": 12.9754354, "lon": 77.5358965, "tags": {"amenity": "hospital", "check_date": "2024-12-21", "healthcare": "hospital", "name": "Hiremath Hospital"}}, {"type": "node", "id": 12498576269, "lat": 12.9826309, "lon": 77.6034871}, {"type": "node", "id": 12498576270, "lat": 12.982755, "lon": 77.6034267}, {"type": "node", "id": 12498576271, "lat": 12.9837207, "lon": 77.60362}, {"type": "node", "id": 12498576272, "lat": 12.9837175, "lon": 77.6036742}, {"type": "node", "id": 12498576273, "lat": 12.9837907, "lon": 77.6037794}, {"type": "node", "id": 12498576274, "lat": 12.9838266, "lon": 77.6037969}, {"type": "node", "id": 12498576310, "lat": 12.9840546, "lon": 77.6038183}, {"type": "node", "id": 12498576311, "lat": 12.9840109, "lon": 77.6053016}, {"type": "node", "id": 12498576312, "lat": 12.9821434, "lon": 77.6043621}, {"type": "node", "id": 12541779301, "lat": 12.9569057, "lon": 77.5824398, "tags": {"amenity": "hospital", "name": "H Siddiah Referral Hospital"}}, {"type": "node", "id": 12629746512, "lat": 12.9840951, "lon": 77.6002539}, {"type": "node", "id": 12629746513, "lat": 12.9839828, "lon": 77.6001491}, {"type": "node", "id": 12629746514, "lat": 12.9835548, "lon": 77.6000109}, {"type": "node", "id": 12629746515, "lat": 12.9834433, "lon": 77.6003587}, {"type": "node", "id": 12917083993, "lat": 12.9271997, "lon": 77.5764275}, {"type": "node", "id": 12917083995, "lat": 12.9269971, "lon": 77.5768886}, {"type": "node", "id": 12917083996, "lat": 12.9272219, "lon": 77.5768588}, {"type": "node", "id": 12917083997, "lat": 12.9269903, "lon": 77.5764275}, {"type": "node", "id": 12917083998, "lat": 12.9271847, "lon": 77.5771049}, {"type": "node", "id": 12917083999, "lat": 12.9267808, "lon": 77.5771431}, {"type": "node", "id": 12917084000, "lat": 12.9264082, "lon": 77.5771464}, {"type": "node", "id": 12917084002, "lat": 12.9264017, "lon": 77.5774733}, {"type": "node", "id": 12917084092, "lat": 12.9296701, "lon": 77.5764082, "tags": {"amenity": "hospital", "name": "AMC Multispeciality Hospital"}}, {"type": "node", "id": 12995318310, "lat": 12.9405054, "lon": 77.5848675, "tags": {"amenity": "hospital", "check_date": "2025-07-12", "healthcare": "hospital", "name": "Big Hospitals"}}, {"type": "node", "id": 13162427765, "lat": 12.9441916, "lon": 77.5967327}, {"type": "node", "id": 13162445628, "lat": 12.9443066, "lon": 77.5969633}, {"type": "node", "id": 13257391201, "lat": 12.9070989, "lon": 77.5460762, "tags": {"addr:postcode": "560061", "addr:street": "Dr. Vishnuvardhan Road", "amenity": "hospital", "name": "Nano Hospitals"}}, {"type": "node", "id": 13267415142, "lat": 12.9447416, "lon": 77.59621}, {"type": "node", "id": 13359198793, "lat": 12.9169038, "lon": 77.5993477, "tags": {"barrier": "turnstile"}}, {"type": "node", "id": 13359295722, "lat": 12.9173089, "lon": 77.5998236}, {"type": "node", "id": 13359295723, "lat": 12.9173112, "lon": 77.5997286}, {"type": "node", "id": 13359295724, "lat": 12.916989, "lon": 77.5997246}, {"type": "node", "id": 13359295725, "lat": 12.9169958, "lon": 77.5993521}, {"type": "node", "id": 13359295726, "lat": 12.9169837, "lon": 77.5993518}, {"type": "node", "id": 13359295727, "lat": 12.9168789, "lon": 77.5993464}, {"type": "node", "id": 13391186936, "lat": 12.9408397, "lon": 77.5900358}, {"type": "way", "id": 38542913, "nodes": [456209036, 9296328828, 10978269863, 12179846004, 456209040, 456209041, 9296328829, 456209042, 9296328875, 9296328876, 456209054, 456209045, 456209046, 456209036], "tags": {"addr:district": "Bengaluru Urban", "addr:full": "Office No-05, Nrupathunga Road", "addr:postcode": "560001", "addr:state": "Karnataka", "amenity": "hospital", "email": "info.sm@nhhospitals.org", "emergency": "yes", "healthcare": "hospital", "name": "St Marthas Hospital", "name:kn": "\u0cb8\u0cc6\u0c82\u0c9f\u0ccd \u0cae\u0cbe\u0cb0\u0ccd\u0ca5 \u0c86\u0cb8\u0ccd\u0caa\u0ca4\u0ccd\u0cb0\u0cc6", "operator:type": "private", "source": "OpenGovernmentData", "website": "https://www.narayanahealth.org/"}}, {"type": "way", "id": 38750705, "nodes": [7395562818, 7395562819, 459815979, 459815980, 459478506, 4685633732, 7395562818], "tags": {"addr:city": "Bengaluru", "addr:district": "Bengaluru Urban", "addr:full": "No.2 Vittal Mallya Road", "addr:housenumber": "2", "addr:postcode": "560001", "addr:state": "Karnataka", "addr:street": "Vittal Mallya Road", "amenity": "hospital", "check_date": "2024-08-18", "email": "info@vsshospital.com", "healthcare": "hospital", "healthcare:speciality": "multi speciality", "name": "Vydehi Superspeciality Hospital", "name:kn": "\u0cb5\u0cc8\u0ca6\u0cc7\u0cb9\u0cbf \u0c86\u0cb8\u0ccd\u0caa\u0ca4\u0ccd\u0cb0\u0cc6", "note": "Changed from Mallya Hospital to Vydehi Superspeciality Hospital in Q2 2022", "old_name": "Mallya Hospital", "operator:type": "private", "phone": "+9180 2227 7979", "source": "OpenGovernmentData", "website": "http://www.vsshospital.com/"}}, {"type": "way", "id": 40631131, "nodes": [493514796, 493514797, 6518066791, 5018317958, 11680844211, 493514796], "tags": {"addr:district": "Mysore", "addr:full": "Near Balodhyana school Mysore, Jayanagara town Mysore, Jayanagara Main Road Mysore", "addr:postcode": "570014", "addr:state": "Karnataka", "amenity": "hospital", "contact:phone": "0821-2461158", "healthcare": "hospital", "name": "Jayanagar General Hospital", "name:kn": "\u0cb8\u0c82\u0c9c\u0caf\u0ccd \u0c97\u0cbe\u0c82\u0ca7\u0cbf \u0c86\u0cb8\u0ccd\u0caa\u0ca4\u0ccd\u0cb0\u0cc6", "operator:type": "government", "source": "OpenGovernmentData"}}, {"type": "way", "id": 40631657, "nodes": [1446213195, 1446213202, 1446213220, 1446213205, 493530801, 9906259186, 493530781, 493530784, 493530786, 493530788, 11992153785, 1448089236, 13391186936, 1448082657, 12376783811, 1448082622, 12169987865, 493530789, 1448082643, 1448082635, 1448082615, 1448082660, 1448082645, 1448082584, 493530791, 1448082604, 3422041327, 3422041322, 3422041323, 3422041324, 3422041325, 3422041315, 3422041298, 3422041295, 1448634281, 3422041073, 493530796, 493530798, 1448082662, 1448082587, 1448082624, 1448082613, 1448082598, 493530800, 1446213195], "tags": {"amenity": "hospital", "comment": "land reserved for building hospitals", "healthcare": "hospital", "name": "Hospital Complex"}}, {"type": "way", "id": 40678727, "nodes": [13359295722, 13359295723, 13359295724, 13359295725, 13359295726, 13359198793, 13359295727, 364642648, 3302642056, 10632949336, 11542884429, 4397421851, 4397421852, 11542884418, 4397421854, 4397421853, 11542884419, 11542884420, 13359295722], "tags": {"addr:district": "Bengaluru Urban", "addr:full": "Jayanagar 9Th Block, B.G. Road, Banglore", "addr:postcode": "560041", "addr:state": "Karnataka", "addr:street": "Bannerghatta Road", "amenity": "hospital", "emergency": "yes", "healthcare": "hospital", "healthcare:speciality": "cardiology", "name": "Sri Jayadeva Institute Of Cardiology", "name:kn": "\u0c9c\u0caf\u0ca6\u0cc7\u0cb5 \u0cb9\u0cc3\u0ca6\u0ccd\u0cb0\u0ccb\u0c97 \u0cb8\u0c82\u0cb8\u0ccd\u0ca5\u0cc6", "name:ta": "\u0bb8\u0bcd\u0bb0\u0bc0 \u0b9c\u0bc6\u0baf\u0ba4\u0bc7\u0bb5\u0bbe \u0b87\u0bb0\u0bc1\u0ba4\u0baf \u0bae\u0bb0\u0bc1\u0ba4\u0bcd\u0ba4\u0bc1\u0bb5\u0bae\u0ba9\u0bc8", "source": "OpenGovernmentData"}}, {"type": "way", "id": 44091443, "nodes": [560379894, 3874223184, 5919817658, 560379898, 2891385860, 12160392618, 12160392616, 12160392617, 560379901, 11956235456, 11956235455, 560379902, 12160392681, 12160392688, 560379894], "tags": {"addr:district": "Bengaluru Urban", "addr:full": "154/9, Bannerghatta Road, OppositeIIM-B", "addr:postcode": "560076", "addr:state": "Karnataka", "amenity": "hospital", "email": "enquiries@fortishospitals.in", "emergency": "yes", "healthcare": "hospital", "healthcare:speciality": "multi speciality", "name": "Fortis Hospitals, Bannerghatta Road", "name:kn": "\u0cab\u0ccb\u0cb0\u0ccd\u0c9f\u0cbf\u0cb8\u0ccd \u0c86\u0cb8\u0ccd\u0caa\u0ca4\u0ccd\u0cb0\u0cc6", "operator:type": "private", "source": "OpenGovernmentData", "website": "www.fortishospitals.com", "wheelchair": "yes"}}, {"type": "way", "id": 44091445, "nodes": [560379907, 2385057300, 560379910, 1861737919, 1861737990, 12160392680, 1861737976, 560379916, 12160392684, 2385057303, 2385057302, 560379907], "tags": {"addr:city": "Bangalore", "addr:district": "Bengaluru Urban", "addr:full": "154/11, Opp, I.I.M, Bannerghatta Road", "addr:postcode": "560076", "addr:state": "Karnataka", "addr:street": "Bannerghatta Road", "amenity": "hospital", "email": "customercarebangalore@apollohospitals.com", "emergency": "yes", "healthcare": "hospital", "healthcare:speciality": "multi speciality", "name": "Apollo Hospital", "name:kn": "\u0c85\u0caa\u0ccb\u0cb2\u0ccb \u0c86\u0cb8\u0ccd\u0caa\u0ca4\u0ccd\u0cb0\u0cc6", "operator:type": "private", "source": "OpenGovernmentData", "website": "www.apollohospitalsbangalore.com", "wheelchair": "yes"}}, {"type": "way", "id": 45444044, "nodes": [12498576271, 578143360, 3942993148, 12498576270, 10996542241, 12498576269, 1517317433, 1517317453, 578143367, 3942993142, 12498576312, 12067529023, 12067529024, 12067529025, 12067529026, 4030269686, 10792855174, 12067529032, 12067529031, 4030269688, 578143351, 12498576311, 578143354, 1837634259, 12498576310, 578143356, 12498576274, 12498576273, 10996542240, 12498576272, 12498576271], "tags": {"addr:city": "Shivaji Nagar, Bangalore", "addr:district": "Bengaluru Urban", "addr:full": "Lady Curzon Road, Shivaji Nagar", "addr:postcode": "560001", "addr:state": "Karnataka", "addr:street": "Lady Curzon Road", "amenity": "hospital", "fax": "+91-80-25591325", "healthcare": "hospital", "healthcare:speciality": "Bio-Chemistry; Cardiology; Cardiothoracic Surgery; Dermatology; ENT; General Medicine; General Surgery; Micro-Biology; Neurology; Ophthalmology; Orthopedics Pathology; Pediatric Surgery; Plastic Surgery; Psychiatry; Pulmonology; Radio-Diagnosis;", "name": "Bowring and Lady Curzon Hospitals", "name:kn": "\u0cac\u0ccc\u0cb0\u0cbf\u0c82\u0c97\u0ccd \u0c86\u0cb8\u0ccd\u0caa\u0ca4\u0ccd\u0cb0\u0cc6", "official_name": "Shri Atal Bihari Vajpayee Medical College and Research Institution", "operator:type": "government", "phone": "+91-80-25591325", "source": "OpenGovernmentData", "website": "https://sabvmcri.karnataka.gov.in/"}}, {"type": "way", "id": 52063534, "nodes": [12629746512, 4676566777, 663596614, 10761493358, 12112489582, 10761493357, 663596615, 12629746515, 12629746514, 12629746513, 12629746512], "tags": {"addr:city": "Shivaji Nagar, Bangalore", "addr:street": "Venkataswamy Naidu Road", "amenity": "hospital", "healthcare": "hospital", "heritage": "2", "heritage:operator": "nmma", "heritage:website": "https://nmma.nic.in/nmma/exploreBuiltState.do?state=29", "name": "Sir Haji Ismail Gosha Sait Hospital", "name:etymology:wikidata": "Q6084847", "name:kn": "\u0cb8\u0cb0\u0ccd \u0cb9\u0cbe\u0c9c\u0cbf \u0c87\u0cb8\u0ccd\u0cae\u0cc8\u0cb2\u0ccd \u0c97\u0cca\u0cb6 \u0cb8\u0cc8\u0c9f\u0ccd \u0c86\u0cb8\u0ccd\u0caa\u0ca4\u0ccd\u0cb0\u0cc6", "ref:nmma": "KR20010684"}}, {"type": "way", "id": 53849361, "nodes": [679886785, 679886725, 679886814, 679886893, 679886767, 679886851, 7292337020, 679886785], "tags": {"amenity": "hospital", "healthcare": "hospital", "name": "Government Veterinary Hospital", "name:kn": "\u0cb8\u0cb0\u0ccd\u0c95\u0cbe\u0cb0\u0cbf \u0caa\u0cb6\u0cc1\u0cb5\u0cc8\u0ca6\u0ccd\u0caf \u0c86\u0cb8\u0ccd\u0caa\u0ca4\u0ccd\u0cb0\u0cc6"}}, {"type": "way", "id": 53859295, "nodes": [680004360, 11028992215, 680004477, 680004373, 680004435, 680004360], "tags": {"amenity": "hospital", "name": "Railways Hospital", "name:kn": "\u0cb0\u0cc8\u0cb2\u0ccd\u0cb5\u0cc7 \u0c86\u0cb8\u0ccd\u0caa\u0ca4\u0ccd\u0cb0\u0cc6"}}, {"type": "way", "id": 118411722, "nodes": [1331946771, 1331946750, 1331946751, 1331946769, 1331946771], "tags": {"addr:city": "bangalore", "addr:district": "Bengaluru Urban", "addr:full": "No 21, 9Th Cross, B-78 Jp Nagar", "addr:housenumber": "21", "addr:postcode": "560078", "addr:state": "Karnataka", "addr:street": "9th Cross Road, Phase 1, Sarakki Layout, JP Nagar", "amenity": "hospital", "emergency": "yes", "healthcare": "hospital", "name": "Rajshekhar Hospital", "name:kn": "\u0cb0\u0cbe\u0c9c\u0cb6\u0cc7\u0c96\u0cb0 \u0c86\u0cb8\u0ccd\u0caa\u0ca4\u0ccd\u0cb0\u0cc6", "phone": "080 4252 7555", "source": "OpenGovernmentData", "website": "https://www.rajshekarhospital.com/"}}, {"type": "way", "id": 124760551, "nodes": [1387523823, 1387523809, 1387523802, 1307598703, 1387523823], "tags": {"addr:city": "Bangalore", "addr:district": "Bengaluru Urban", "addr:full": "# 146, Infantry Road, Prestige Opal Building, Opp Police Commissioners Office", "addr:postcode": "560001", "addr:state": "Karnataka", "addr:street": "Infantry Road", "amenity": "hospital", "name": "Sparsh Hospital For Advanced Surgeries, Bengaluru Urban", "name:kn": "\u0cb8\u0ccd\u0caa\u0cb0\u0ccd\u0cb6\u0ccd \u0c86\u0cb8\u0ccd\u0caa\u0ca4\u0ccd\u0cb0\u0cc6", "source": "OpenGovernmentData", "website": "https://www.sparshhospital.com/", "wheelchair": "yes"}}, {"type": "way", "id": 132913842, "nodes": [1462175438, 1462175439, 1462175435, 1462175436, 1462175448, 1462175447, 1835530203, 1462175441, 10245038162, 1462175438], "tags": {"alt_name": "Jayadev Memorial Rashtrotthana Hospital and Research Centre", "amenity": "hospital", "healthcare": "hospital", "name": "Manipal Speciality Hospital", "website": "https://www.rashtrotthanahospital.com/"}}, {"type": "way", "id": 133379520, "nodes": [1468296644, 1468296642, 1468296636, 1468296641, 1468296645, 1468296638, 1468296644], "tags": {"addr:city": "bangalore", "addr:district": "Bengaluru Urban", "addr:full": "3/4, Sunrise Tower, J.P. Road, Girinagar", "addr:housenumber": "3-4", "addr:postcode": "560085", "addr:state": "Karnataka", "addr:street": "Sunrise Towers, 30th crs JP Rd. Girinagar.,opp Canara Bank", "amenity": "hospital", "emergency": "yes", "name": "Radhakrishna Multispeciality Hospital", "name:kn": "\u0cb0\u0cbe\u0ca7\u0cbe\u0c95\u0cc3\u0cb7\u0ccd\u0ca3 \u0c86\u0cb8\u0ccd\u0caa\u0ca4\u0ccd\u0cb0\u0cc6", "phone": "080 2642 2977", "source": "OpenGovernmentData"}}, {"type": "way", "id": 133951786, "nodes": [1473997317, 1473997310, 1473997305, 6938544594, 1473997317], "tags": {"addr:district": "Bengaluru Urban", "addr:full": "VR Layout, J. P. Nagar, Bengaluru", "addr:postcode": "560078", "addr:state": "Karnataka", "amenity": "hospital", "healthcare": "hospital", "name": "Rajalakshmi Multispeciality Hospital", "name:kn": "\u0cb0\u0cbe\u0c9c\u0cbe\u0c9c\u0cbf\u0ca8\u0c97\u0cb0 \u0c86\u0cb8\u0ccd\u0caa\u0ca4\u0ccd\u0cb0\u0cc6"}}, {"type": "way", "id": 141791769, "nodes": [1551996916, 1551996934, 1551996910, 1551996911, 1551996916], "tags": {"addr:district": "Bengaluru Urban", "addr:full": "#1,2nd Cross, 2nd Main,7Th Block, Banashankari 3Road Stage, Hosakerehalli", "addr:postcode": "560085", "addr:state": "Karnataka", "amenity": "hospital", "emergency": "yes", "name": "Vittala International Institute Of Ophthalmology, Hosakerehalli", "source": "OpenGovernmentData"}}, {"type": "way", "id": 150350446, "nodes": [1632709106, 1632709146, 1632709181, 1632709394, 1632709106]}, {"type": "way", "id": 150350462, "nodes": [1632708866, 1632708947, 1632709144, 1632709354, 1632708866]}, {"type": "way", "id": 150350476, "nodes": [1632709348, 1632708925, 1632709442, 1632709444, 1632709372, 1632708934, 1632708776, 1632709440, 1632709263, 1632709265, 1632709198, 1632709056, 1632708889, 1632709577, 1632708968, 1632709403, 1632709127, 1632709273, 1632708898, 1632708941, 1632709086, 1632709374, 1632709424, 1632709734, 1632709285, 1632709048, 1632709175, 1632709704, 1632709139, 1632709141, 1632709550, 1632709163, 1632709722, 1632709111, 1632709376, 1632709626, 1632709618, 1632709098, 1632709578, 1632709151, 1632709348], "tags": {"amenity": "hospital", "building": "hospital", "emergency": "yes", "healthcare": "hospital", "heritage": "2", "heritage:operator": "nmma", "heritage:website": "https://nmma.nic.in/nmma/exploreBuiltState.do?state=29", "name": "Victoria Hospital", "name:etymology:wikidata": "Q9439", "name:kn": "\u0cb5\u0cbf\u0c95\u0ccd\u0c9f\u0ccb\u0cb0\u0cbf\u0caf\u0cbe \u0c86\u0cb8\u0ccd\u0caa\u0ca4\u0ccd\u0cb0\u0cc6", "ref:nmma": "KR20011022", "wheelchair": "yes", "wikidata": "Q7926782", "wikimedia_commons": "Category:Victoria Hospital, Bangalore", "wikipedia": "en:Victoria Hospital (Bangalore Medical College)"}}, {"type": "way", "id": 150350482, "nodes": [1632709230, 1632709561, 1632709223, 1632709576, 1632709230]}, {"type": "way", "id": 150350483, "nodes": [1632708811, 1632709078, 1632708973, 1632708796, 1632708781, 1632709474, 1632709477, 1632709594, 1632709074, 1632709699, 1632709009, 1632709065, 1632708808, 1632709079, 1632708811]}, {"type": "way", "id": 150350484, "nodes": [1632708861, 1632709213, 1632709096, 1632709439, 1632708861]}, {"type": "way", "id": 150350487, "nodes": [1632708906, 1632709559, 1632708928, 1632709688, 1632709170, 1632709611, 1632709701, 1632709027, 1632709574, 1632709513, 1632709386, 1632709422, 1632708976, 1632709511, 1632709691, 1632708784, 1632709738, 1632709425, 1632709210, 1632709654, 1632709017, 1632709641, 1632709272, 1632709571, 1632709052, 1632708951, 1632709661, 1632709565, 1632709375, 1632709091, 1632709569, 1632709717, 1632709707, 1632709549, 1632709327, 1632708906]}, {"type": "way", "id": 161984945, "nodes": [1739362251, 1739366976, 1739362385, 1739362285, 12137671788, 10580572136, 1739362319, 1739362370, 12137671789, 1739362236, 1739362251], "tags": {"addr:district": "Bengaluru Urban", "addr:full": "Near Town Hall, Sjp Road , South", "addr:postcode": "560002", "addr:state": "Karnataka", "amenity": "hospital", "emergency": "yes", "healthcare": "hospital", "name": "Dasappa Maternity Hospital", "name:kn": "\u0ca6\u0cbe\u0cb8\u0caa\u0ccd\u0caa \u0ca4\u0cbf\u0cb0\u0cc1\u0cae\u0cb2\u0cae\u0ccd\u0cae \u0c86\u0cb8\u0ccd\u0caa\u0ca4\u0ccd\u0cb0\u0cc6", "source": "OpenGovernmentData"}}, {"type": "way", "id": 169801514, "nodes": [1809622910, 1809622909, 1809622904, 1809622908, 1809622910], "tags": {"addr:district": "Bengaluru Urban", "addr:full": "#11/2, Magadi Main Road ,Agrahara , Dasarahalli,Next To Raheja Park", "addr:postcode": "560079", "addr:state": "Karnataka", "amenity": "hospital", "emergency": "yes", "name": "Sarvodaya Hospital", "name:kn": "\u0cb8\u0cb0\u0ccd\u0cb5\u0ccb\u0ca6\u0caf \u0c86\u0cb8\u0ccd\u0caa\u0ca4\u0ccd\u0cb0\u0cc6", "source": "OpenGovernmentData"}}, {"type": "way", "id": 169801520, "nodes": [1809622944, 1809622941, 11881863274, 11881863275, 1809622943, 1809622942, 1809622944], "tags": {"addr:district": "Bengaluru Urban", "addr:full": "5th Main Road, 7th Cross Road, MC Layout, Vijaynagar", "addr:postcode": "560040", "addr:state": "Karnataka", "amenity": "hospital", "name": "Dasarahalli Referral Hospital", "name:kn": "\u0cb8\u0cb0\u0ccd\u0c95\u0cbe\u0cb0\u0cbf \u0c86\u0cb8\u0ccd\u0caa\u0ca4\u0ccd\u0cb0\u0cc6", "source": "OpenGovernmentData"}}, {"type": "way", "id": 239738408, "nodes": [2475117859, 6311328129, 6311328128, 2475117871, 2475117938, 2475117860, 2475117870, 11330502270, 2475117856, 2475118016, 12168378235, 2475117859], "tags": {"addr:district": "Bengaluru Urban", "addr:full": "Dr.M.H Marigowda Road", "addr:postcode": "560 029", "addr:state": "Karnataka", "amenity": "hospital", "emergency": "yes", "healthcare": "hospital", "healthcare:speciality": "oncology", "name": "Kidwai Memorial Institute of Oncology", "name:etymology:wikidata": "Q7282619", "operator:type": "private", "source": "OpenGovernmentData", "website": "https://www.kidwai.kar.nic.in/", "wikidata": "Q6405058", "wikipedia": "en:Kidwai Memorial Institute of Oncology"}}, {"type": "way", "id": 256703169, "nodes": [2623402152, 2623402149, 2623402150, 2623402151, 2623402153, 2623402152], "tags": {"addr:district": "Bengaluru Urban", "addr:full": "1215 A Cross Sindhi Hospital Road, Sampangiramnagar", "addr:postcode": "560027", "addr:state": "Karnataka", "amenity": "hospital", "emergency": "yes", "name": "P.D. Hinduja Sindhi Hospital", "name:kn": "\u0cb8\u0cbf\u0c82\u0ca7\u0cbf \u0c86\u0cb8\u0ccd\u0caa\u0ca4\u0ccd\u0cb0\u0cc6", "operator:type": "private", "source": "OpenGovernmentData", "website": "https://www.hindujasindhihospital.com/"}}, {"type": "way", "id": 259487871, "nodes": [2649089257, 2649089258, 2649089256, 2649089255, 2649089257], "tags": {"addr:city": "Bangalore", "addr:district": "Bengaluru Urban", "addr:full": "#523, 10th Main,45th Cross, 5th Block, Jayanagar", "addr:housename": "523", "addr:postcode": "560041", "addr:state": "Karnataka", "amenity": "hospital", "building": "yes", "email": "admin@sksh.com", "healthcare": "hospital", "name": "Shri Krishna Sevashrama Hospital", "name:kn": "\u0cb6\u0ccd\u0cb0\u0cc0\u0c95\u0ccd\u0cb7\u0cc7\u0ca4\u0ccd\u0cb0 \u0cb8\u0cc7\u0cb5\u0cbe\u0cb6\u0ccd\u0cb0\u0cae \u0c86\u0cb8\u0ccd\u0caa\u0ca4\u0ccd\u0cb0\u0cc6", "operator:type": "private", "phone": "+918022441631", "source": "OpenGovernmentData", "website": "http://www.sks-hospital.org/"}}, {"type": "way", "id": 306826547, "nodes": [3118322042, 3118322043, 3118322044, 3118322045, 3118322042], "tags": {"addr:district": "Bengaluru Urban", "addr:full": "Banashankari, Bengaluru", "addr:postcode": "560070", "addr:state": "Karnataka", "amenity": "hospital", "building": "hospital", "name": "Pro MED Hospital", "name:kn": "\u0caa\u0ccd\u0cb0\u0ccb\u0cae\u0cc6\u0ca1\u0ccd\u200c \u0c86\u0cb8\u0ccd\u0caa\u0ca4\u0ccd\u0cb0\u0cc6", "source": "Local Knowledge"}}, {"type": "way", "id": 306861065, "nodes": [3118790621, 3118790622, 3118790623, 3118790624, 3118790625, 3118790621], "tags": {"addr:district": "Bengaluru Urban", "addr:full": "21/2, 14th Cross, 3rd Block, Jayanagar", "addr:postcode": "560011", "addr:state": "Karnataka", "amenity": "hospital", "building": "yes", "building:levels": "6", "email": "customercarebengaluru@apollohospitals.com", "healthcare": "hospital", "healthcare:speciality": "Cardiac surgery; General and Gastro-intestinal surgery; Gynecology; Pediatric surgery; Thoracic surgery; Urology; Colorectal surgery; Cancer surgery; Orthopedics; Neurosurgery and Ear; Nose and Throat surgery", "name": "Apollo Speciality Hospital", "name:kn": "\u0c85\u0caa\u0ccb\u0cb2\u0ccb \u0c86\u0cb8\u0ccd\u0caa\u0ca4\u0ccd\u0cb0\u0cc6", "operator:type": "private", "source": "OpenGovernmentData", "website": "https://www.apollohospitals.com/"}}, {"type": "way", "id": 307097150, "nodes": [3121618244, 3121618247, 3121618246, 3121618245, 3121618244], "tags": {"addr:city": "Bangalore", "addr:district": "Bengaluru Urban", "addr:full": "B 70, 27Th Cross Banashankari 2nd Stage Banashankari", "addr:postcode": "560070", "addr:state": "Karnataka", "addr:street": "27th Cross", "amenity": "hospital", "emergency": "yes", "healthcare": "hospital", "name": "Sevakshetra Hospital, Bengaluru Urban", "name:kn": "\u0cb8\u0cc7\u0cb5\u0cbe\u0c95\u0ccd\u0cb7\u0cc7\u0ca4\u0ccd\u0cb0 \u0c86\u0cb8\u0ccd\u0caa\u0ca4\u0ccd\u0cb0\u0cc6", "source": "OpenGovernmentData"}}, {"type": "way", "id": 307098232, "nodes": [3121629369, 3121629372, 3570997782, 3121629370, 3121629369], "tags": {"addr:street": "Kanakapura Road", "amenity": "hospital", "emergency": "yes", "name": "Netradhama Hospital", "name:kn": "\u0ca8\u0cc7\u0ca4\u0ccd\u0cb0\u0ca7\u0cbe\u0cae \u0c86\u0cb8\u0ccd\u0caa\u0ca4\u0ccd\u0cb0\u0cc6"}}, {"type": "way", "id": 333052556, "nodes": [3401665452, 3401665453, 3401665454, 3401665455, 3401665452], "tags": {"amenity": "hospital", "building": "yes", "healthcare": "hospital", "name": "Dr. Agarwal's Eye Hospital", "operator": "Dr. Agarwal's Eye Hospital", "operator:type": "private", "operator:wikidata": "Q17052044"}}, {"type": "way", "id": 334493050, "nodes": [2705350771, 2705350781, 2705350740, 9906259215, 3415857201, 3415857197, 9906259212, 2705350776, 3415857092, 3415857090, 3415857089, 3415857088, 3415857087, 2705350771], "tags": {"amenity": "hospital", "emergency": "yes", "healthcare": "hospital", "name": "Sanjay Gandhi Accident and Trauma Hospital", "name:etymology:wikidata": "Q730045", "name:kn": "\u0cb8\u0c82\u0c9c\u0caf \u0c97\u0cbe\u0c82\u0ca7\u0cbf \u0c86\u0cb8\u0ccd\u0caa\u0ca4\u0ccd\u0cb0\u0cc6"}}, {"type": "way", "id": 334493056, "nodes": [3415857086, 3415857193, 3415857091, 3415857085, 3415857086], "tags": {"amenity": "hospital", "building": "yes", "emergency": "yes", "healthcare": "hospital", "name": "Sanjay Gandhi Accident and Trauma Hospital", "name:etymology:wikidata": "Q730045", "name:kn": "\u0cb8\u0c82\u0c9c\u0caf \u0c97\u0cbe\u0c82\u0ca7\u0cbf \u0c86\u0cb8\u0ccd\u0caa\u0ca4\u0ccd\u0cb0\u0cc6"}}, {"type": "way", "id": 337987686, "nodes": [3450573835, 3450573833, 1780474089, 11341218790, 3450573836, 3450573834, 3450573837, 10188080243, 3450573832, 3450573838, 3450573835], "tags": {"amenity": "hospital", "healthcare": "hospital", "name": "Leprosy Hospital"}}, {"type": "way", "id": 347074890, "nodes": [3535000988, 3535000968, 3535000927, 3535000952, 3535000988], "tags": {"addr:district": "Bengaluru Urban", "addr:full": "17, Dr.M.H.Mari Gowda Road, Opp Wilson Garden", "addr:postcode": "560027", "addr:state": "Karnataka", "amenity": "hospital", "healthcare": "hospital", "healthcare:speciality": "Neuro Psychiatry; Neuro Surgery; Oncology; Orthopaedics; Joint Replacements; General Surgery", "name": "Abhaya Hospital", "name:kn": "\u0c85\u0cad\u0caf \u0c86\u0cb8\u0ccd\u0caa\u0ca4\u0ccd\u0cb0\u0cc6", "operator:type": "private", "source": "OpenGovernmentData", "website": "https://www.abhayahospital.org/", "wheelchair": "yes"}}, {"type": "way", "id": 347120748, "nodes": [3535301845, 3535301846, 3535301812, 3535301811, 3535301845], "tags": {"addr:city": "Bengaluru", "addr:district": "Bengaluru Urban", "addr:housenumber": "175", "addr:postcode": "560011", "addr:street": "5th Main Road", "amenity": "hospital", "healthcare": "hospital", "healthcare:speciality": "general;emergency", "name": "Shashank Clinic", "operator": "Dr. Satish", "operator:type": "public"}}, {"type": "way", "id": 347167749, "nodes": [3535553615, 3535553601, 3535553589, 3535553599, 3535553615], "tags": {"amenity": "hospital", "healthcare": "hospital", "name": "BBMP Maternity Hospital", "name:kn": "\u0cb8\u0cb0\u0c95\u0cbe\u0cb0\u0cbf \u0cb9\u0cc6\u0cb0\u0cbf\u0c97\u0cc6 \u0c86\u0cb8\u0ccd\u0caa\u0ca4\u0ccd\u0cb0\u0cc6"}}, {"type": "way", "id": 347175871, "nodes": [3535630510, 3535630517, 3535630381, 3535630375, 3535630510], "tags": {"addr:city": "Gandhi Nagar, Bangalore", "addr:housename": "Near Gandhrava Uapahara", "addr:street": "4th Cross", "amenity": "hospital", "building": "yes", "emergency": "no", "healthcare": "hospital", "name": "Ramakrishna Clinic"}}, {"type": "way", "id": 347187836, "nodes": [3535697090, 3535697091, 3535696995, 3535696994, 3535697090], "tags": {"amenity": "hospital", "building": "yes", "name": "ESI Hospital", "name:kn": "\u0c87\u0c8e\u0cb8\u0ccd\u0c90 \u0c86\u0cb8\u0ccd\u0caa\u0ca4\u0ccd\u0cb0\u0cc6"}}, {"type": "way", "id": 348229715, "nodes": [3543907565, 3543907564, 3543907506, 3543907508, 3543907565], "tags": {"addr:district": "Bengaluru Urban", "addr:full": "123, 7 Th Cross Dollas Colony,Billekhalli,Off Bannerghatta Road,Btm Stage Ii", "addr:postcode": "560076", "addr:state": "Karnataka", "amenity": "hospital", "building": "yes", "healthcare": "hospital", "healthcare:speciality": "gynaecology", "name": "Sakhi Hospital (A Unit Of Prasad Healthcare Services)", "source": "OpenGovernmentData", "wheelchair": "yes"}}, {"type": "way", "id": 348287598, "nodes": [3544299986, 3544300106, 3544300124, 3544300103, 3544299986], "tags": {"addr:district": "Bengaluru Urban", "addr:full": "SBM Colony, Banashankari, Bengaluru", "addr:state": "Karnataka", "amenity": "hospital", "building": "yes", "name": "Prashanth Hospitals", "name:kn": "\u0caa\u0cbf\u0c87\u0c8e\u0cb8\u0ccd \u0cb5\u0cbf\u0cb6\u0ccd\u0cb5\u0cb5\u0cbf\u0ca6\u0ccd\u0caf\u0cbe\u0cb2\u0caf \u0c95\u0ccd\u0cb0\u0cbf\u0c95\u0cc6\u0c9f\u0ccd \u0cae\u0cc8\u0ca6\u0cbe\u0ca8", "source": "Local Knowledge"}}, {"type": "way", "id": 351326759, "nodes": [3570997970, 3570997969, 3570997943, 3570997945, 3570997970], "tags": {"amenity": "hospital", "building": "yes", "name": "Deepak Hospital"}}, {"type": "way", "id": 442048030, "nodes": [4397421901, 4397421900, 493530647, 493530644, 1473320992, 4397421901], "tags": {"addr:district": "Bengaluru Urban", "addr:full": "#44, 54, 30th Cross Rd, Bannerughatta Approach Road Layout, 4th T Block East, Tilak Nagar, Jayanagar,", "addr:postcode": "560041", "addr:state": "Karnataka", "amenity": "hospital", "email": "infojnr@sagarhospitals.in", "emergency": "yes", "healthcare": "hospital", "name": "Sagar Hospitals", "name:kn": "\u0cb8\u0cbe\u0c97\u0cb0\u0ccd \u0c86\u0cb8\u0ccd\u0caa\u0ca4\u0ccd\u0cb0\u0cc6", "operator:type": "private", "phone": "08042888888", "source": "OpenGovernmentData", "website": "http://www.sagarhospitals.in/"}}, {"type": "way", "id": 442048031, "nodes": [4397421813, 4397421803, 4397421798, 4397421791, 4397421788, 4397421787, 4397421789, 4397421799, 4397421804, 4397421812, 4397421814, 4397421815, 4397421813], "tags": {"amenity": "hospital", "building": "hospital", "name": "Sagar Hospital", "name:kn": "\u0cb8\u0cbe\u0c97\u0cb0 \u0c86\u0cb8\u0ccd\u0caa\u0ca4\u0ccd\u0cb0\u0cc6", "opening_hours": "Mo-Su 00:00-23:00"}}, {"type": "way", "id": 496821816, "nodes": [4884890999, 4884890996, 4884890997, 4884890998, 4884890999], "tags": {"amenity": "hospital", "building": "yes", "healthcare": "hospital", "name": "Government Maternity Hospital", "name:kn": "\u0cb8\u0cb0\u0c95\u0cbe\u0cb0\u0cbf \u0cb9\u0cc6\u0cb0\u0cbf\u0c97\u0cc6 \u0c86\u0cb8\u0ccd\u0caa\u0ca4\u0ccd\u0cb0\u0cc6"}}, {"type": "way", "id": 509638758, "nodes": [4988304263, 4988304264, 7293719494, 7293719495, 4988304265, 4988304266, 4988304263], "tags": {"addr:city": "Bengaluru", "addr:country": "IN", "addr:district": "Bengaluru Urban", "addr:full": "No 8, HCG Towers, P. Kalinga Rao Road, Sampangi Ram Nagar, Bengaluru", "addr:hamlet": "Sampangi Ram Nagar", "addr:housenumber": "8", "addr:postcode": "560027", "addr:state": "Karnataka", "addr:street": "P. Kalinga Rao Road", "amenity": "hospital", "fax": "+918022485962", "name": "HCG Cancer Hospital", "name:bn": "\u098f\u0987\u099a\u09b8\u09bf\u099c\u09bf \u0995\u09cd\u09af\u09be\u09a8\u09cd\u09b8\u09be\u09b0 \u09b9\u09be\u09b8\u09aa\u09be\u09a4\u09be\u09b2", "name:en": "HealthCare Global Enterprises Ltd", "operator:type": "private", "phone": "+918040206000", "source": "OpenGovernmentData", "website": "https://www.hcgoncology.com/"}}, {"type": "way", "id": 549373054, "nodes": [5306746598, 5306746597, 5306746596, 5306746595, 5306746598], "tags": {"amenity": "hospital", "building": "yes", "healthcare": "hospital", "name": "South City Hospital"}}, {"type": "way", "id": 639010019, "nodes": [6021739953, 6021739954, 6021739955, 6021739956, 6021739957, 6021739958, 6021739953], "tags": {"addr:district": "Bengaluru Urban", "addr:full": "35, Siddiah Road, Wilson Garden", "addr:postcode": "560027", "addr:state": "Karnataka", "amenity": "hospital", "building": "hospital", "healthcare": "hospital", "name": "Agadi Hospital", "name:kn": "\u0c85\u0c97\u0ca1\u0cbf \u0c86\u0cb8\u0ccd\u0caa\u0ca4\u0ccd\u0cb0\u0cc6", "source": "OpenGovernmentData"}}, {"type": "way", "id": 687319732, "nodes": [3425328776, 6442518242, 6442518241, 6442518240, 6442518239, 11215840017, 3039639118, 6442518238, 3425328780, 3425328776], "tags": {"addr:district": "Bengaluru Urban", "addr:full": "618, Sri Mallikarjuna Swamy Temple St, N.R. Colony", "addr:postcode": "560019", "addr:state": "Karnataka", "amenity": "hospital", "name": "BMS Hospital", "source": "OpenGovernmentData"}}, {"type": "way", "id": 742634558, "nodes": [6952164953, 11757261198, 6952164952, 458105013, 3388805879, 11757261199, 6952164960, 6952164953], "tags": {"amenity": "hospital", "name": "Puneeth Rajkumar Multispeciality Hospital", "name:etymology:wikidata": "Q3351697", "operator": "BBMP"}}, {"type": "way", "id": 774947265, "nodes": [7229958805, 7229958804, 7229958803, 7229958802, 7229958805], "tags": {"amenity": "hospital", "name": "Natus Woman and Children Hospital"}}, {"type": "way", "id": 991531036, "nodes": [9161008303, 10041139974, 9161008302, 9161008301, 9161008300, 9161008299, 9161008298, 9161008297, 9161008296, 9161008295, 9161008294, 9161008293, 9161008303], "tags": {"addr:full": "Stage 1, KHB Colony, Basaveshwar Nagar, Bengaluru, Karnataka", "addr:state": "Karnataka", "amenity": "hospital", "healthcare": "hospital", "name": "Government Homeopathic Hospital"}}, {"type": "way", "id": 1076618915, "nodes": [7292235598, 9872645097, 9872645096, 7007284257, 7292235598], "tags": {"amenity": "hospital"}}, {"type": "way", "id": 1108934944, "nodes": [10146603250, 10146603251, 10146603252, 10146603254, 11757924262, 10146603250], "tags": {"addr:city": "Bengaluru", "addr:housenumber": "178/1 & 178/2", "addr:postcode": "560076", "addr:street": "Bannerghatta Road", "amenity": "hospital", "beds": "77", "emergency": "yes", "healthcare": "hospital", "healthcare:speciality": "paediatrics;gynaecology", "name": "Rainbow Children's Hospital", "operator": "Rainbow Hospitals", "operator:type": "private", "phone:mobile": "9355400341", "website": "https://www.rainbowhospitals.in/our-centre/bengaluru/bannerghatta", "wheelchair": "yes"}}, {"type": "way", "id": 1149213001, "nodes": [10032117288, 1851701912, 10691293984, 10032117287, 10032117288], "tags": {"addr:district": "Bengaluru Urban", "addr:full": "15, Eagle Street Langford Town Shanti Nagar", "addr:postcode": "560025", "addr:state": "Karnataka", "amenity": "hospital", "emergency": "no", "name": "Dr Agarwal's Eye Hospital", "source": "OpenGovernmentData"}}, {"type": "way", "id": 1182315656, "nodes": [10979388709, 10979388708, 10979388707, 10979388706, 10979388709], "tags": {"amenity": "hospital", "name": "SS Sparsh Hospital"}}, {"type": "way", "id": 1205832181, "nodes": [11174291860, 11174291859, 11174291858, 11174291857, 11174291860], "tags": {"amenity": "hospital"}}, {"type": "way", "id": 1217375998, "nodes": [7579924785, 11279857428, 11279857427, 11385161943, 11279857426, 11279857425, 7579924785], "tags": {"addr:district": "Bengaluru Urban", "addr:full": "JP Nagar, Bengaluru", "addr:postcode": "560078", "addr:state": "Karnataka", "amenity": "hospital", "healthcare": "hospital", "name": "Jnana Sanjeevini", "name:kn": "\u0c9c\u0ccd\u0c9e\u0cbe\u0ca8 \u0cb8\u0c82\u0c9c\u0cc0\u0cb5\u0cbf\u0ca8\u0cbf", "source": "Local Knowledge"}}, {"type": "way", "id": 1257327546, "nodes": [4353504160, 1446581013, 11342881119, 11342881123, 11342881122, 11342881121, 4353504208, 4353504182, 4353504160], "tags": {"alt_name": "Truelife Maha Bodhi Hospital", "amenity": "hospital", "name": "Brains Super Speciality Hospital", "official_name": "Maha Bodhi Mallige Hospital", "old_name": "Mallige Hospital", "old_name:kn": "\u0cae\u0cb2\u0ccd\u0cb2\u0cbf\u0c97\u0cc6 \u0c86\u0cb8\u0ccd\u0caa\u0ca4\u0ccd\u0cb0\u0cc6"}}, {"type": "way", "id": 1270817507, "nodes": [11801601938, 11801601937, 11801601936, 11801601935, 11801601938], "tags": {"amenity": "hospital", "healthcare": "hospital", "name": "Vasavi Hospital", "name:kn": "\u0cb5\u0cbe\u0cb8\u0cb5\u0cbf \u0c86\u0cb8\u0ccd\u0caa\u0ca4\u0ccd\u0cb0\u0cc6"}}, {"type": "way", "id": 1298074067, "nodes": [11281453705, 11281453704, 12025600511, 13267415142, 12025600510, 11281453705], "tags": {"amenity": "hospital", "name": "Safa Medicure Hospital"}}, {"type": "way", "id": 1307949928, "nodes": [12112512000, 1791567114, 12112511999, 12112511998, 12112511997, 12112511996, 12112512013, 12112511980, 3770161958, 4127931135, 11009573409, 12112511977, 12112511995, 12112511994, 12112511993, 11009588219, 11009573410, 12112512000], "tags": {"addr:district": "Bengaluru Urban", "addr:full": "1st Cross, Shankarapuram, Basavanagudi", "addr:postcode": "560004", "addr:state": "Karnataka", "addr:street": "DV Gundappa Road", "amenity": "hospital", "emergency": "yes", "healthcare": "hospital", "name": "Rangadore Memorial Hospital", "source": "OpenGovernmentData", "wheelchair": "yes"}}, {"type": "way", "id": 1311064558, "nodes": [11019492853, 12135993283, 4107785992, 4107785991, 12135993276, 11991711396, 11991711393, 11019492853], "tags": {"addr:district": "Bengaluru Urban", "addr:full": "Chandrika Tower, JC Road, Bengaluru", "addr:postcode": "560002", "addr:state": "Karnataka", "addr:street": "Jayachamaraja Wodeyar Road", "amenity": "hospital", "healthcare": "hospital", "name": "Trustwell Hospitals", "source": "Local Knowledge", "website": "https://trustwellhospitals.com/"}}, {"type": "way", "id": 1395462349, "nodes": [12917083997, 12917083993, 6939617697, 12917083996, 12917083995, 11799695217, 12917083997], "tags": {"addr:district": "Bengaluru Rural", "addr:full": "7Th Main, 4Th Cross, Kanakpura Main Road , Bangalore North", "addr:postcode": "560082", "addr:state": "Karnataka", "amenity": "hospital", "name": "Yadiyuru Maternity Hospital", "name:kn": "\u0caf\u0ca1\u0cbf\u0caf\u0cc2\u0cb0\u0cc1 \u0cb9\u0cc6\u0cb0\u0cbf\u0c97\u0cc6 \u0c86\u0cb8\u0ccd\u0caa\u0ca4\u0ccd\u0cb0\u0cc6", "source": "OpenGovernmentData"}}, {"type": "way", "id": 1395462350, "nodes": [12917084002, 12917084000, 12917083999, 12917083998, 1474062998, 1474062996, 12917084002], "tags": {"amenity": "hospital", "name": "Ayurveda Prathisthana Hospital"}}, {"type": "way", "id": 1432018658, "nodes": [11188815908, 13162427765, 1474432217, 13162445628, 2705350763, 11188815908], "tags": {"amenity": "hospital", "healthcare": "hospital", "name": "Vignan Hospital", "website": "https://bidsinstitution.com/"}}, {"type": "relation", "id": 2025893, "members": [{"type": "way", "ref": 150350487, "role": "outer"}, {"type": "way", "ref": 150350482, "role": "inner"}, {"type": "way", "ref": 150350484, "role": "inner"}, {"type": "way", "ref": 150350462, "role": "inner"}], "tags": {"addr:district": "Bengaluru Urban", "addr:postcode": "560002", "addr:state": "Karnataka", "amenity": "hospital", "building": "yes", "emergency": "yes", "healthcare": "hospital", "heritage": "2", "heritage:operator": "nmma", "heritage:website": "https://nmma.nic.in/nmma/exploreBuiltState.do?state=29", "name": "Vanivilas Women and Children Hospital", "name:kn": "\u0cb5\u0cbe\u0ca3\u0cbf \u0cb5\u0cbf\u0cb2\u0cbe\u0cb8 \u0cae\u0cb9\u0cbf\u0cb3\u0cc6 \u0cae\u0ca4\u0ccd\u0ca4\u0cc1 \u0cae\u0c95\u0ccd\u0c95\u0cb3 \u0c86\u0cb8\u0ccd\u0caa\u0ca4\u0ccd\u0cb0\u0cc6", "ref:nmma": "KR20010691", "source": "OpenGovernmentData", "type": "multipolygon"}}, {"type": "relation", "id": 2025895, "members": [{"type": "way", "ref": 150350483, "role": "outer"}, {"type": "way", "ref": 150350446, "role": "inner"}], "tags": {"alt_name": "Minto Opthalmic Hospital", "amenity": "hospital", "building": "yes", "emergency": "yes", "heritage": "2", "heritage:operator": "nmma", "heritage:website": "https://nmma.nic.in/nmma/exploreBuiltState.do?state=29", "name": "Minto Eye Hospital", "name:kn": "\u0cae\u0cbf\u0c82\u0c9f\u0ccb \u0c95\u0ca3\u0ccd\u0ca3\u0cbf\u0ca8 \u0c86\u0cb8\u0ccd\u0caa\u0ca4\u0ccd\u0cb0\u0cc6", "ref:nmma": "KR20010694", "type": "multipolygon", "wikidata": "Q6869655"}}]}