{"version": 0.6, "generator": "Overpass API 0.7.62.8 e802775f", "osm3s": {"timestamp_osm_base": "2026-01-15T12:41:28Z", "copyright": "The data included in this document is from www.openstreetmap.org. The data is made available under ODbL."}, "elements": [{"type": "node", "id": 1109299667, "lat": 52.0877683, "lon": 4.3490212}, {"type": "node", "id": 1109331592, "lat": 52.0873009, "lon": 4.3479883}, {"type": "node", "id": 1114754702, "lat": 52.091809, "lon": 4.3541335}, {"type": "node", "id": 1114760503, "lat": 52.0916594, "lon": 4.3541456}, {"type": "node", "id": 1114765580, "lat": 52.0972739, "lon": 4.3640874}, {"type": "node", "id": 1114776896, "lat": 52.0969174, "lon": 4.3631728}, {"type": "node", "id": 1114811105, "lat": 52.0972697, "lon": 4.3640499}, {"type": "node", "id": 1114812955, "lat": 52.0890292, "lon": 4.3480122}, {"type": "node", "id": 1114859700, "lat": 52.0969283, "lon": 4.3640645}, {"type": "node", "id": 1114972863, "lat": 52.0880483, "lon": 4.3492623}, {"type": "node", "id": 2008964483, "lat": 52.0972604, "lon": 4.3629022}, {"type": "node", "id": 2709967965, "lat": 52.0891576, "lon": 4.3406342, "tags": {"addr:city": "'s-Gravenhage", "addr:housenumber": "21", "addr:postcode": "2593RM", "addr:street": "Spaarwaterstraat", "amenity": "school", "denomination": "protestant", "name": "Van Hoogstratenschool", "operator": "Stichting Christelijk Onderwijs Haaglanden", "religion": "christian", "source": "BAG", "source:date": "2014-02-11", "website": "https://www.vanhoogstratenschool.nl/"}}, {"type": "node", "id": 2710004271, "lat": 52.0878971, "lon": 4.3491941}, {"type": "node", "id": 2710048755, "lat": 52.091744, "lon": 4.3622455, "tags": {"addr:city": "'s-Gravenhage", "addr:housenumber": "25", "addr:postcode": "2591BR", "addr:street": "Walenburg", "amenity": "school", "email": "info@obsleeuwerikhoeve.nl", "isced:level": "0;1", "name": "De Leeuwerikhoeve", "official_name": "Openbare Basisschool De Leeuwerikhoeve", "operator": "De Haagse Scholen", "operator:website": "https://www.dehaagsescholen.nl/", "operator:wikidata": "Q121872400", "phone": "+31 70 385 6563", "school": "primary", "source": "BAG", "source:date": "2014-02-11", "website": "https://obsleeuwerikhoeve.nl/", "wikidata": "Q22805923"}}, {"type": "node", "id": 3313057782, "lat": 52.0890358, "lon": 4.3409107}, {"type": "node", "id": 3313057784, "lat": 52.0885558, "lon": 4.3413735}, {"type": "node", "id": 3533981577, "lat": 52.0958379, "lon": 4.3667282}, {"type": "node", "id": 3533981578, "lat": 52.0954638, "lon": 4.3671545}, {"type": "node", "id": 3533981579, "lat": 52.0957895, "lon": 4.3679196}, {"type": "node", "id": 3533981580, "lat": 52.096165, "lon": 4.3674885}, {"type": "node", "id": 3670965707, "lat": 52.0910765, "lon": 4.361603}, {"type": "node", "id": 3670965711, "lat": 52.0913766, "lon": 4.3612406}, {"type": "node", "id": 3670965713, "lat": 52.0915986, "lon": 4.3628349}, {"type": "node", "id": 3670965714, "lat": 52.0917989, "lon": 4.3625932}, {"type": "node", "id": 3670965715, "lat": 52.0919086, "lon": 4.3628149}, {"type": "node", "id": 3670965716, "lat": 52.0920264, "lon": 4.3626184}, {"type": "node", "id": 3819766215, "lat": 52.0916257, "lon": 4.361736}, {"type": "node", "id": 3927975885, "lat": 52.0884195, "lon": 4.3410142}, {"type": "node", "id": 3927975886, "lat": 52.0885038, "lon": 4.3407744}, {"type": "node", "id": 3927975887, "lat": 52.088537, "lon": 4.3408692}, {"type": "node", "id": 3927975890, "lat": 52.0890591, "lon": 4.3409745}, {"type": "node", "id": 3927975891, "lat": 52.0890421, "lon": 4.3401268}, {"type": "node", "id": 3927975892, "lat": 52.0892967, "lon": 4.3406984}, {"type": "node", "id": 5423268237, "lat": 52.1142707, "lon": 4.3630944}, {"type": "node", "id": 5423268238, "lat": 52.1142737, "lon": 4.3631608}, {"type": "node", "id": 5423268239, "lat": 52.1147941, "lon": 4.3641948}, {"type": "node", "id": 5423268240, "lat": 52.115086, "lon": 4.3637965}, {"type": "node", "id": 5423268241, "lat": 52.1144853, "lon": 4.3625452}, {"type": "node", "id": 5423268242, "lat": 52.1220614, "lon": 4.3600179}, {"type": "node", "id": 5423268243, "lat": 52.1215335, "lon": 4.3608226}, {"type": "node", "id": 5423268244, "lat": 52.1218345, "lon": 4.3613302}, {"type": "node", "id": 5423268245, "lat": 52.1223541, "lon": 4.3604873}, {"type": "node", "id": 5624766239, "lat": 52.0886685, "lon": 4.3472745}, {"type": "node", "id": 5624777100, "lat": 52.0883834, "lon": 4.3466823}, {"type": "node", "id": 5624777101, "lat": 52.0889967, "lon": 4.3479564}, {"type": "node", "id": 7340610074, "lat": 52.0879904, "lon": 4.3493401}, {"type": "node", "id": 7340610079, "lat": 52.0877894, "lon": 4.3490634}, {"type": "node", "id": 7340610083, "lat": 52.0878368, "lon": 4.3490623}, {"type": "node", "id": 7340631587, "lat": 52.0878041, "lon": 4.3490448}, {"type": "node", "id": 7340631588, "lat": 52.0877849, "lon": 4.349069}, {"type": "node", "id": 7954659009, "lat": 52.0972512, "lon": 4.3640507}, {"type": "node", "id": 8614565505, "lat": 52.0939944, "lon": 4.3609736}, {"type": "node", "id": 8614565506, "lat": 52.0943099, "lon": 4.3616803}, {"type": "node", "id": 8614565507, "lat": 52.0939276, "lon": 4.3621484}, {"type": "node", "id": 8614565508, "lat": 52.0936145, "lon": 4.3614282}, {"type": "node", "id": 8695429685, "lat": 52.0877636, "lon": 4.3490267}, {"type": "node", "id": 8695429686, "lat": 52.0878206, "lon": 4.3490243}, {"type": "node", "id": 8695429687, "lat": 52.0879752, "lon": 4.3493593}, {"type": "node", "id": 8738525528, "lat": 52.092348, "lon": 4.3551857}, {"type": "node", "id": 8738525529, "lat": 52.0920102, "lon": 4.3557856}, {"type": "node", "id": 8738525531, "lat": 52.0923941, "lon": 4.3552827}, {"type": "node", "id": 8764936198, "lat": 52.1142637, "lon": 4.3631333}, {"type": "node", "id": 9264322833, "lat": 52.0939633, "lon": 4.3613028, "tags": {"addr:city": "'s-Gravenhage", "addr:housenumber": "421", "addr:postcode": "2592HN", "addr:street": "Ametisthorst", "amenity": "school", "name": "Waalse Louise de Colignyschool", "operator": "Stichting Christelijk Onderwijs Haaglanden (SCOH)", "religion": "christian", "source": "BAG", "source:date": "2021-11-18", "website": "https://www.dewlc.nl/"}}, {"type": "node", "id": 9663451221, "lat": 52.0948862, "lon": 4.3571072}, {"type": "node", "id": 9663451222, "lat": 52.0945055, "lon": 4.35759}, {"type": "node", "id": 9663451223, "lat": 52.0940285, "lon": 4.3566746}, {"type": "node", "id": 9663451224, "lat": 52.0943362, "lon": 4.3562622}, {"type": "node", "id": 9663451225, "lat": 52.0939028, "lon": 4.3564386}, {"type": "node", "id": 9663451226, "lat": 52.0938649, "lon": 4.3564876}, {"type": "node", "id": 9663451227, "lat": 52.0936964, "lon": 4.3561811}, {"type": "node", "id": 9663451229, "lat": 52.0940177, "lon": 4.3557413}, {"type": "node", "id": 9765881113, "lat": 52.094084, "lon": 4.3560071, "tags": {"addr:city": "'s-Gravenhage", "addr:housenumber": "181", "addr:postcode": "2592GD", "addr:street": "Diamanthorst", "amenity": "school", "name": "Diamant Basisonderwijs", "operator": "Lucas Onderwijs", "source": "BAG", "source:date": "2022-05-24", "website": "https://www.kcdiamant.nl/nl/basisschool/voor-kinderen-van-4-13-jaar"}}, {"type": "node", "id": 9883366419, "lat": 52.097598, "lon": 4.3638211}, {"type": "node", "id": 9914982804, "lat": 52.0938081, "lon": 4.3535755}, {"type": "node", "id": 9914982805, "lat": 52.0934151, "lon": 4.3539188}, {"type": "node", "id": 9914982806, "lat": 52.0935288, "lon": 4.3542568, "tags": {"entrance": "main"}}, {"type": "node", "id": 9914982807, "lat": 52.093748, "lon": 4.3548227}, {"type": "node", "id": 9914982808, "lat": 52.09401, "lon": 4.3543855}, {"type": "node", "id": 10308855893, "lat": 52.1147113, "lon": 4.3630021}, {"type": "node", "id": 10726157784, "lat": 52.0915032, "lon": 4.3614628}, {"type": "node", "id": 10726157785, "lat": 52.0914786, "lon": 4.3614644}, {"type": "node", "id": 10728227725, "lat": 52.0923498, "lon": 4.3623667}, {"type": "node", "id": 10728227726, "lat": 52.0919365, "lon": 4.3630359}, {"type": "node", "id": 10728227727, "lat": 52.0920433, "lon": 4.3632156}, {"type": "node", "id": 10728227728, "lat": 52.0924606, "lon": 4.3628977}, {"type": "node", "id": 10728227729, "lat": 52.0924919, "lon": 4.3628427}, {"type": "node", "id": 10728227730, "lat": 52.092398, "lon": 4.3626785}, {"type": "node", "id": 10728227731, "lat": 52.092468, "lon": 4.3625557}, {"type": "node", "id": 10737852184, "lat": 52.0913006, "lon": 4.3543421}, {"type": "node", "id": 10784993604, "lat": 52.0914714, "lon": 4.3541682}, {"type": "node", "id": 12300082718, "lat": 52.0972753, "lon": 4.3634988, "tags": {"addr:city": "'s-Gravenhage", "addr:housenumber": "5", "addr:postcode": "2591HB", "addr:street": "Gradaland", "amenity": "school", "name": "John F. Kennedy montessorischool", "operator": "Lucas Onderwijs", "source": "BAG", "source:date": "2024-10-30", "website": "https://www.kennedymontessori.nl/"}}, {"type": "node", "id": 13179750877, "lat": 52.1144678, "lon": 4.3625899}, {"type": "node", "id": 13179750878, "lat": 52.1147048, "lon": 4.3640173}, {"type": "way", "id": 190294780, "nodes": [2008964483, 9883366419, 1114765580, 1114811105, 7954659009, 1114859700, 1114776896, 2008964483], "tags": {"amenity": "school", "name": "Montessori Kindcentrum John F. Kennedy", "opening_date": "2025-06-19", "operator": "Lucas Onderwijs", "website": "https://www.kennedymontessori.nl/"}}, {"type": "way", "id": 346956548, "nodes": [3533981577, 3533981578, 3533981579, 3533981580, 3533981577], "tags": {"addr:city": "'s-Gravenhage", "addr:housenumber": "259", "addr:postcode": "2591SG", "addr:street": "Isabellaland", "amenity": "school", "landuse": "education", "name": "College St.Paul", "phone": "+31 70 374 2204", "website": "https://collegestpaul.nl/"}}, {"type": "way", "id": 362850172, "nodes": [3670965711, 10726157785, 10726157784, 3819766215, 3670965716, 3670965715, 3670965714, 3670965713, 3670965707, 3670965711], "tags": {"amenity": "school", "landuse": "education", "name": "Kindcentrum De Leeuwerikhoeve"}}, {"type": "way", "id": 389630882, "nodes": [3927975885, 3313057784, 3313057782, 3927975890, 3927975892, 3927975891, 3927975886, 3927975887, 3927975885], "tags": {"amenity": "school", "landuse": "education"}}, {"type": "way", "id": 562573028, "nodes": [5423268241, 10308855893, 5423268240, 5423268239, 13179750878, 5423268238, 8764936198, 5423268237, 13179750877, 5423268241], "tags": {"amenity": "school", "capacity": "420", "isced": "1", "max_age": "12", "min_age": "4", "name": "Bloemcampschool", "operator": "Stichting Openbaar Primair Onderwijs Wassenaar", "website": "https://www.bloemcampschool.nl/"}}, {"type": "way", "id": 562573030, "nodes": [5423268245, 5423268244, 5423268243, 5423268242, 5423268245], "tags": {"amenity": "school", "capacity": "200", "isced": "1", "max_age": "12", "min_age": "4", "name": "Kievietschool", "operator": "Stichting Kievietschool", "website": "https://www.kievietschool.nl/", "wheelchair": "yes"}}, {"type": "way", "id": 928822772, "nodes": [8614565505, 8614565506, 8614565507, 8614565508, 8614565505], "tags": {"addr:city": "'s-Gravenhage", "addr:housenumber": "421", "addr:postcode": "2592HN", "addr:street": "Ametisthorst", "amenity": "school", "landuse": "education", "source": "BAG", "source:date": "2021-11-18"}}, {"type": "way", "id": 938625794, "nodes": [5624777100, 5624766239, 5624777101, 1114812955, 1114972863, 7340610074, 8695429687, 2710004271, 7340610083, 8695429686, 7340631587, 7340610079, 7340631588, 8695429685, 1109299667, 1109331592, 5624777100], "tags": {"amenity": "school", "isced": "1", "language": "english", "max_age": "10", "min_age": "3", "name": "The British School in The Netherlands - Junior School Vlaskamp", "operator": "The British School in The Netherlands", "website": "https://www.britishschool.nl/"}}, {"type": "way", "id": 943804482, "nodes": [10737852184, 10784993604, 1114760503, 1114754702, 8738525528, 8738525531, 8738525529, 10737852184], "tags": {"addr:city": "'s-Gravenhage", "addr:housenumber": "20", "addr:postcode": "2592TD", "addr:street": "Robijnhorst", "amenity": "school", "contact:facebook": "https://m.facebook.com/francoisvateldenhaag/", "contact:instagram": "francoisvateldenhaag", "description": "vmbo", "email": "info@vatel.nl", "isced:level": "2", "name": "Fran\u00e7ois Vatelschool", "operator": "Scholengroep Spinoza", "operator:type": "public", "operator:website": "https://scholengroepspinoza.nl/", "operator:wikidata": "Q121834214", "phone": "+31 70 344 0000", "school": "secondary", "website": "https://www.vatel.nl/"}}, {"type": "way", "id": 1051548895, "nodes": [9663451221, 9663451222, 9663451223, 9663451224, 9663451221], "tags": {"amenity": "school", "check_date": "2025-08-16", "name": "Diamant college", "website": "https://diamantcollege.nl/"}}, {"type": "way", "id": 1051548896, "nodes": [9663451224, 9663451223, 9663451225, 9663451226, 9663451227, 9663451229, 9663451224], "tags": {"amenity": "school", "name": "Diamant Onderwijs & Kinderopvang", "website": "https://www.kcdiamant.nl/nl/"}}, {"type": "way", "id": 1081827534, "nodes": [9914982804, 9914982805, 9914982806, 9914982807, 9914982808, 9914982804], "tags": {"amenity": "school", "landuse": "education"}}, {"type": "way", "id": 1153576611, "nodes": [10728227725, 10728227726, 10728227727, 10728227728, 10728227729, 10728227730, 10728227731, 10728227725], "tags": {"amenity": "school", "name": "Diamant Oekra\u00efne School", "note": "Tijdelijke huisvesting t/m zomer 2023.", "operator": "Lucas Onderwijs", "website": "https://www.bsvuurvlinder.nl"}}]}