{"version": 0.6, "generator": "Overpass API 0.7.62.8 e802775f", "osm3s": {"timestamp_osm_base": "2026-01-12T05:56:52Z", "copyright": "The data included in this document is from www.openstreetmap.org. The data is made available under ODbL."}, "elements": [{"type": "node", "id": 248560797, "lat": 13.122775, "lon": 80.2960584, "tags": {"amenity": "hospital", "healthcare": "hospital", "name": "Kasimedu", "name:ta": "\u0b95\u0bbe\u0b9a\u0bbf\u0bae\u0bc7\u0b9f\u0bc1"}}, {"type": "node", "id": 390853441, "lat": 13.130072, "lon": 80.2927358}, {"type": "node", "id": 390853442, "lat": 13.1298169, "lon": 80.2942918}, {"type": "node", "id": 390853443, "lat": 13.1273607, "lon": 80.2936487}, {"type": "node", "id": 390853444, "lat": 13.1276951, "lon": 80.2926359}, {"type": "node", "id": 390853445, "lat": 13.1281962, "lon": 80.2907687}, {"type": "node", "id": 390853446, "lat": 13.1288653, "lon": 80.2910523}, {"type": "node", "id": 390853447, "lat": 13.1286981, "lon": 80.2916574}, {"type": "node", "id": 390853448, "lat": 13.128999, "lon": 80.2917604}, {"type": "node", "id": 390853449, "lat": 13.1288653, "lon": 80.2924213}, {"type": "node", "id": 2271764926, "lat": 13.1279485, "lon": 80.2907494}, {"type": "node", "id": 6930080547, "lat": 13.1512288, "lon": 80.2998984, "tags": {"addr:district": "Tiruvallur", "addr:full": "#98/1031, T H Road Kaladipet Chennai Chennai", "addr:postcode": "600019", "addr:state": "Tamil Nadu", "amenity": "hospital", "healthcare": "hospital", "name": "Rohit Hospital, Tiruvallur", "source": "OpenGovernmentData"}}, {"type": "node", "id": 6933130958, "lat": 13.1119458, "lon": 80.2952072, "tags": {"addr:district": "Chennai", "addr:full": "No.4, West Mada Church Street", "addr:postcode": "600013", "addr:state": "Tamil Nadu", "addr:subdistrict": "Royapuram", "amenity": "hospital", "email": "drvijay@mvdiabetes.com; appointments@mvdiabetes.com", "healthcare": "hospital", "name": "Diabetes Research Centre and M.V.Hospital For Diabetes", "operator:type": "private", "source": "OpenGovernmentData", "website": "https://www.mvdiabetes.com/", "wikidata": "Q30270047"}}, {"type": "node", "id": 6934271106, "lat": 13.1121574, "lon": 80.2956927, "tags": {"addr:district": "Chennai", "addr:full": "No-4, West Mada Church Street, Royapuram", "addr:postcode": "600013", "addr:state": "Tamil Nadu", "amenity": "hospital", "name": "M V Hospital For Diabetes Pvt Ltd", "source": "OpenGovernmentData"}}, {"type": "node", "id": 6934340665, "lat": 13.111251, "lon": 80.2940284, "tags": {"addr:district": "Chennai", "addr:full": "10, Arthoon Road Royapuram", "addr:postcode": "600013", "addr:state": "Tamil Nadu", "amenity": "hospital", "healthcare": "hospital", "name": "Nichani Health Centre", "source": "OpenGovernmentData"}}, {"type": "node", "id": 7252333354, "lat": 13.1129012, "lon": 80.2957982, "tags": {"addr:district": "Chennai", "addr:full": "E Kal Mandapam Rd, Panaimarathotti, Pudumani Kuppam, Royapuram, Chennai", "addr:postcode": "600013", "addr:state": "Tamil Nadu", "amenity": "hospital", "healthcare": "hospital", "name": "Government Unani Hospital", "source": "OpenGovernmentData"}}, {"type": "node", "id": 7818702367, "lat": 13.1503301, "lon": 80.2984201, "tags": {"addr:district": "Tiruvallur", "addr:full": "Rajakadai, Tiruvottiyur", "addr:postcode": "600019", "addr:state": "Tamil Nadu", "amenity": "hospital", "healthcare": "hospital", "name": "Suman Hospital", "source": "Local Knowledge"}}, {"type": "node", "id": 7818702395, "lat": 13.1537616, "lon": 80.3006482, "tags": {"addr:district": "Tiruvallur", "addr:full": "Kaladipet, Tiruvottiyur, Chennai", "addr:postcode": "600019", "addr:state": "Tamil Nadu", "amenity": "hospital", "healthcare": "hospital", "name": "G S Hospital", "source": "Local Knowledge"}}, {"type": "node", "id": 7818702406, "lat": 13.1521728, "lon": 80.3002146, "tags": {"addr:district": "Tiruvallur", "addr:full": "Thyagarajapuram, Tiruvottiyur", "addr:postcode": "600019", "addr:state": "Tamil Nadu", "amenity": "hospital", "healthcare": "hospital", "name": "Esha Hospital", "source": "Local Knowledge"}}, {"type": "node", "id": 7818702409, "lat": 13.1486276, "lon": 80.2982812, "tags": {"addr:district": "Tiruvallur", "addr:full": "Vasantha Nagar, Rajakadai", "addr:postcode": "600019", "addr:state": "Tamil Nadu", "amenity": "hospital", "healthcare": "hospital", "name": "Annai Hospital", "source": "Local Knowledge"}}, {"type": "node", "id": 7818702419, "lat": 13.1523333, "lon": 80.2998808, "tags": {"addr:district": "Tiruvallur", "addr:full": "Rajakadai, Tiruvottiyur", "addr:postcode": "600019", "addr:state": "Tamil Nadu", "amenity": "hospital", "healthcare": "hospital", "name": "Sekar Hospital", "source": "Local Knowledge"}}, {"type": "node", "id": 8430636725, "lat": 13.1480919, "lon": 80.3000754}, {"type": "node", "id": 8430636726, "lat": 13.1485307, "lon": 80.2986377}, {"type": "node", "id": 8430636727, "lat": 13.1490374, "lon": 80.2988738}, {"type": "node", "id": 8430636728, "lat": 13.1486561, "lon": 80.3002953}, {"type": "way", "id": 34097016, "nodes": [390853441, 390853442, 390853443, 390853444, 2271764926, 390853445, 390853446, 390853447, 390853448, 390853449, 390853441], "tags": {"addr:district": "Chennai", "addr:full": "Tiruvottiyur Road, Tondiarpet, Chennai", "addr:postcode": "600081", "addr:state": "Tamil Nadu", "amenity": "hospital", "healthcare": "hospital", "landuse": "hospital", "name": "Communicable Diseases Hospital", "source": "OpenGovernmentData"}}, {"type": "way", "id": 907941484, "nodes": [8430636728, 8430636727, 8430636726, 8430636725, 8430636728], "tags": {"amenity": "hospital", "healthcare": "hospital"}}]}