{"version": 0.6, "generator": "Overpass API 0.7.62.8 e802775f", "osm3s": {"timestamp_osm_base": "2026-01-13T02:46:58Z", "copyright": "The data included in this document is from www.openstreetmap.org. The data is made available under ODbL."}, "elements": [{"type": "node", "id": 1830862113, "lat": 17.3328694, "lon": 78.5687059, "tags": {"amenity": "school", "name": "Lotus Lap School"}}, {"type": "node", "id": 2710749446, "lat": 17.3304618, "lon": 78.5694074, "tags": {"amenity": "school", "name": "siddhartha High School"}}, {"type": "node", "id": 2710750541, "lat": 17.3303492, "lon": 78.5693859, "tags": {"amenity": "school", "name": "Loyola Montessori House"}}, {"type": "node", "id": 3627030257, "lat": 17.3311625, "lon": 78.5790187}, {"type": "node", "id": 5826309133, "lat": 17.3311282, "lon": 78.5791879, "tags": {"addr:city": "Hyderabad, Telangana.", "addr:postcode": "500070", "addr:street": "huda sai nagar", "amenity": "school", "name": "siddhartha model high school"}}, {"type": "node", "id": 5826347929, "lat": 17.3313955, "lon": 78.5791131}, {"type": "node", "id": 5826347930, "lat": 17.3310215, "lon": 78.5793303}, {"type": "node", "id": 5826347931, "lat": 17.3312518, "lon": 78.5794556}, {"type": "node", "id": 7002646167, "lat": 17.281297, "lon": 78.5405164, "tags": {"amenity": "school", "name": "MVSR Cricket Ground"}}, {"type": "node", "id": 7088336248, "lat": 17.3529531, "lon": 78.507007, "tags": {"amenity": "school", "name": "Angel's Convent High School"}}, {"type": "node", "id": 7244207444, "lat": 17.3270095, "lon": 78.5748358, "tags": {"addr:city": "Vansthalipuram,Hyderabad", "addr:postcode": "500070", "addr:street": "kamalanagar", "amenity": "school", "name": "Ravindra Bharati High School"}}, {"type": "node", "id": 7246554981, "lat": 17.3456568, "lon": 78.5466962}, {"type": "node", "id": 7246554982, "lat": 17.345467, "lon": 78.546625}, {"type": "node", "id": 7246554983, "lat": 17.34527, "lon": 78.5472439}, {"type": "node", "id": 7246554984, "lat": 17.3454956, "lon": 78.5473152}, {"type": "node", "id": 7246583485, "lat": 17.3455708, "lon": 78.5473152}, {"type": "node", "id": 7246583486, "lat": 17.345621, "lon": 78.5470414}, {"type": "node", "id": 7527829347, "lat": 17.348503, "lon": 78.5097698, "tags": {"addr:street": "Durga Bhavani Nagar, Road No 1", "amenity": "school", "description": "Nursery to Class-1", "name": "Vidya Dayini Pre-Primary School", "phone": "04024531653, 04024530353"}}, {"type": "node", "id": 9708882625, "lat": 17.3485722, "lon": 78.5088044, "tags": {"amenity": "school", "name": "bhashyam high school"}}, {"type": "node", "id": 10171040905, "lat": 17.3272568, "lon": 78.5542394, "tags": {"amenity": "school"}}, {"type": "node", "id": 10279596183, "lat": 17.327024, "lon": 78.5265784}, {"type": "node", "id": 10279596184, "lat": 17.3270338, "lon": 78.5266916}, {"type": "node", "id": 10279596185, "lat": 17.3267833, "lon": 78.526707}, {"type": "node", "id": 10279596186, "lat": 17.3267857, "lon": 78.5265809}, {"type": "node", "id": 11009821053, "lat": 17.3500344, "lon": 78.5598827, "tags": {"amenity": "school", "name": "kakathiya techno School"}}, {"type": "way", "id": 616220205, "nodes": [5826347929, 3627030257, 5826347930, 5826347931, 5826347929], "tags": {"addr:city": "Hyderabad, Telangana.", "addr:postcode": "500070", "amenity": "school", "name": "siddhartha model high school"}}, {"type": "way", "id": 776657250, "nodes": [7246554981, 7246554982, 7246554983, 7246554984, 7246583485, 7246583486, 7246554981], "tags": {"amenity": "school", "name": "little flower school"}}, {"type": "way", "id": 1124074494, "nodes": [10279596183, 10279596184, 10279596185, 10279596186, 10279596183], "tags": {"amenity": "school"}}]}