{"version": 0.6, "generator": "Overpass API 0.7.62.8 e802775f", "osm3s": {"timestamp_osm_base": "2026-01-12T06:09:11Z", "copyright": "The data included in this document is from www.openstreetmap.org. The data is made available under ODbL."}, "elements": [{"type": "node", "id": 1182739082, "lat": 13.1635998, "lon": 80.2435516, "tags": {"amenity": "hospital", "name": "MMC Govenment Hospital"}}, {"type": "node", "id": 3982078512, "lat": 13.1260907, "lon": 80.2488406, "tags": {"addr:city": "Chennai", "addr:district": "Chennai", "addr:full": "No.7, Ethiraiswami Salai, Erukkenchery", "addr:housenumber": "7", "addr:postcode": "600118", "addr:state": "Tamil Nadu", "addr:street": "Ethiraj Samy Salai", "amenity": "hospital", "healthcare": "hospital", "name": "Pavithra Hospital", "source": "OpenGovernmentData"}}, {"type": "node", "id": 4642017100, "lat": 13.1235215, "lon": 80.2660768}, {"type": "node", "id": 4642017101, "lat": 13.123515, "lon": 80.2663585}, {"type": "node", "id": 4642017102, "lat": 13.1235999, "lon": 80.2663585}, {"type": "node", "id": 4642017103, "lat": 13.1236038, "lon": 80.2660782}, {"type": "node", "id": 5263563022, "lat": 13.1131363, "lon": 80.2429369, "tags": {"addr:district": "Chennai", "addr:full": "Siruvallur, Perambur, Chennai", "addr:postcode": "600011", "addr:state": "Tamil Nadu", "amenity": "hospital", "healthcare": "hospital", "name:en": "J.M Hoapital", "source": "Local Knowledge"}}, {"type": "node", "id": 6914768001, "lat": 13.1105649, "lon": 80.2418775, "tags": {"addr:district": "Chennai", "addr:full": "New No. 51, 18,Bunder Garden Street,Perambur,Opposite Lourdes Girls School", "addr:postcode": "600011", "addr:state": "Tamil Nadu", "amenity": "hospital", "healthcare": "hospital", "name": "Sen Hospital", "source": "OpenGovernmentData"}}, {"type": "node", "id": 6916178396, "lat": 13.1418442, "lon": 80.2485046, "tags": {"addr:district": "Chennai", "addr:full": "No.13, Seetharam Nagar, Vii Street, Munsif Garden,Chinnakodungaiyur", "addr:postcode": "600118", "addr:state": "Tamil Nadu", "amenity": "hospital", "healthcare": "hospital", "name": "Noor`S Hospital", "source": "OpenGovernmentData"}}, {"type": "node", "id": 6916205172, "lat": 13.1177888, "lon": 80.2287099, "tags": {"addr:district": "Chennai", "addr:full": "#289/149, D.No.149, ,Paper Mills Road, Opp To 70 Feet Road,Perambur", "addr:postcode": "600082", "addr:state": "Tamil Nadu", "amenity": "hospital", "healthcare": "hospital", "name": "Vasan Eye Care Hospital, Perambur", "source": "OpenGovernmentData"}}, {"type": "node", "id": 6929255218, "lat": 13.1183119, "lon": 80.2318051, "tags": {"addr:district": "Chennai", "addr:full": "46, S.R.P. Kil Street(North) T.V.K.Nagar", "addr:postcode": "600082", "addr:state": "Tamil Nadu", "amenity": "hospital", "healthcare": "hospital", "name": "Sri Bala Nursing Home", "source": "OpenGovernmentData"}}, {"type": "node", "id": 6929257550, "lat": 13.1638346, "lon": 80.2581659, "tags": {"addr:district": "Tiruvallur", "addr:full": "201, Kamarajar Salai Manali Chennai", "addr:postcode": "600068", "addr:state": "Tamil Nadu", "amenity": "hospital", "healthcare": "hospital", "name": "Anand Hospital, Chennai", "source": "OpenGovernmentData"}}, {"type": "node", "id": 6932938090, "lat": 13.1368213, "lon": 80.2087516, "tags": {"addr:district": "Tiruvallur", "addr:full": "#100 A, Perambur -Redhills Road ,Near Secretariat Colony Bus Stop,Lakshmipuram", "addr:postcode": "600099", "addr:state": "Tamil Nadu", "amenity": "hospital", "healthcare": "hospital", "name": "Lake View Hospital, Tiruvallur", "source": "OpenGovernmentData"}}, {"type": "node", "id": 6933523232, "lat": 13.1282303, "lon": 80.2421558, "tags": {"addr:block": "Chennai Zone Iv", "addr:district": "Chennai", "addr:full": "Moolakadai Junction, Moolkadai, Gnt Road, Moolakadai", "addr:postcode": "600060", "addr:state": "Tamil Nadu", "amenity": "hospital", "healthcare": "hospital", "name": "Kvt Health Centre", "source": "OpenGovernmentData"}}, {"type": "node", "id": 6934098007, "lat": 13.1160177, "lon": 80.2328438, "tags": {"addr:district": "Chennai", "addr:full": "No.22/2, E.S.I.Hospital Road", "addr:postcode": "600011", "addr:state": "Tamil Nadu", "addr:subdistrict": "Peravallur", "amenity": "hospital", "healthcare": "hospital", "healthcare:speciality": "multi speciality", "name": "Abhijay Hospital", "operator:type": "private", "source": "OpenGovernmentData", "website": "https://www.abhijayhospital.com/"}}, {"type": "node", "id": 6934246102, "lat": 13.1100467, "lon": 80.2466847, "tags": {"addr:district": "Chennai", "addr:full": "Old No.89,& New No.106 Pate Road Perambur, (Near Perambur Railway Station), Patel Road", "addr:postcode": "600011", "addr:state": "Tamil Nadu", "amenity": "hospital", "healthcare": "hospital", "name": "Srinivas Priya Hospital (P) Ltd", "source": "OpenGovernmentData"}}, {"type": "node", "id": 6934325848, "lat": 13.1122162, "lon": 80.2309737, "tags": {"addr:district": "Chennai", "addr:full": "7(1/1A)1st Main Road Jawahar Nagar", "addr:postcode": "600082", "addr:state": "Tamil Nadu", "amenity": "hospital", "healthcare": "hospital", "name": "N.R. Hospital", "source": "OpenGovernmentData"}}, {"type": "node", "id": 6934325876, "lat": 13.1184216, "lon": 80.2610184, "tags": {"addr:district": "Chennai", "addr:full": "10A/3 I Cross Street, M K B Nagar", "addr:postcode": "600039", "addr:state": "Tamil Nadu", "amenity": "hospital", "healthcare": "hospital", "name": "Nalamm Hospital Pvt Ltd", "source": "OpenGovernmentData"}}, {"type": "node", "id": 6934326572, "lat": 13.1308907, "lon": 80.2138799, "tags": {"addr:block": "Madhavaram", "addr:district": "Thiruvallur", "addr:full": "No:1419, Chennai, 200 Feet,Retteri Junction,Kolathur", "addr:postcode": "600099", "addr:state": "Tamil Nadu", "addr:subdistrict": "Mathavaram", "amenity": "hospital", "healthcare": "hospital", "name": "Sri Kumaran Health Centre", "source": "OpenGovernmentData"}}, {"type": "node", "id": 6936275517, "lat": 13.1135903, "lon": 80.2270764, "tags": {"addr:district": "Chennai", "addr:full": "B-63, Siva Elango Salai (70 Feet Road), Periyar Nagar", "addr:postcode": "600082", "addr:state": "Tamil Nadu", "amenity": "hospital", "healthcare": "hospital", "name": "Dr Agarwal Eye Hospital Ltd", "source": "OpenGovernmentData"}}, {"type": "node", "id": 6936369001, "lat": 13.1217887, "lon": 80.1996361, "tags": {"addr:district": "Tiruvallur", "addr:full": "No: 9, 100 Feet Road, Nehru National Highway, Kolathur", "addr:postcode": "600099", "addr:state": "Tamil Nadu", "amenity": "hospital", "check_date": "2024-09-28", "name": "D R J Hospital P. Ltd.", "source": "OpenGovernmentData"}}, {"type": "node", "id": 6936994823, "lat": 13.1184203, "lon": 80.204346, "tags": {"addr:district": "Tiruvallur", "addr:full": "No.52, Dayalunagar, Kolathur, Near Villirakham Railway Station", "addr:postcode": "600049", "addr:state": "Tamil Nadu", "amenity": "hospital", "name": "B B Hospital", "source": "OpenGovernmentData"}}, {"type": "node", "id": 6937111102, "lat": 13.1450072, "lon": 80.2398249, "tags": {"addr:district": "Chennai", "addr:full": "# 8 & 9 Annai Velakanni Nagar,Madhavaram Milk Colony", "addr:postcode": "600081", "addr:state": "Tamil Nadu", "amenity": "hospital", "healthcare": "hospital", "name": "K.M. Multi Speciality Hospital", "source": "OpenGovernmentData"}}, {"type": "node", "id": 7252256158, "lat": 13.163539, "lon": 80.2430669, "tags": {"addr:block": "Madhavaram", "addr:district": "Thiruvallur", "addr:full": "Government Hospital, Madhavaram, Madhavaram, Manjambakkam, Milk Colony", "addr:postcode": "600051", "addr:state": "Tamil Nadu", "addr:subdistrict": "Mathavaram", "amenity": "hospital", "name": "Madhavaram Government Hospital", "source": "OpenGovernmentData"}}, {"type": "node", "id": 7252256177, "lat": 13.1297134, "lon": 80.2506039, "tags": {"addr:block": "Chennai Zone I", "addr:district": "Chennai", "addr:full": "Near M.R. Nagar, Bus Stop, Moolakadai, Perambur, Ist Main Road", "addr:postcode": "0:00", "addr:state": "Tamil Nadu", "amenity": "hospital", "healthcare": "hospital", "name": "Swasthik Health Care center", "source": "OpenGovernmentData"}}, {"type": "node", "id": 7252256184, "lat": 13.13468, "lon": 80.243196, "tags": {"addr:block": "Chennai Zone I", "addr:district": "Chennai", "addr:full": "86/A, Pandian Cinema Theatre, Kodungaiyur, Kamarajar Salai", "addr:postcode": "600081", "addr:state": "Tamil Nadu", "amenity": "hospital", "healthcare": "hospital", "name": "NRV Hospital", "source": "OpenGovernmentData"}}, {"type": "node", "id": 7252333347, "lat": 13.1153048, "lon": 80.2233851, "tags": {"addr:block": "Chennai Zone Xi", "addr:district": "Chennai", "addr:full": "Govt.Peripheral Hospital, Periyar Nagar, Shiva Vishnu Koil, Periyar Nagar, Jaganadhan Salai", "addr:postcode": "600082", "addr:state": "Tamil Nadu", "amenity": "hospital", "healthcare": "hospital", "name": "Govt Peripheral Hospital Periyar Nagar", "source": "OpenGovernmentData"}}, {"type": "node", "id": 7252333396, "lat": 13.1267531, "lon": 80.2489796, "tags": {"addr:block": "Madhavaram", "addr:district": "Thiruvallur", "addr:full": "Near Pavithra Hospital, Chennai, Plot No 1,2,3 , Ethirajaswamy Salai, Erukkanchery", "addr:postcode": "600118", "addr:state": "Tamil Nadu", "addr:subdistrict": "Mathavaram", "amenity": "hospital", "healthcare": "hospital", "name": "Kvt Health Speciality Hospital", "source": "OpenGovernmentData"}}, {"type": "node", "id": 7818702358, "lat": 13.1345397, "lon": 80.2058879, "tags": {"addr:district": "Tiruvallur", "addr:full": "Bharathi Nagar, Lakshmipuram", "addr:postcode": "600099", "addr:state": "Tamil Nadu", "amenity": "hospital", "healthcare": "hospital", "name": "Uma Hospital", "source": "Local Knowledge"}}, {"type": "node", "id": 7818702393, "lat": 13.165259, "lon": 80.25871, "tags": {"addr:district": "Tiruvallur", "addr:full": "Vimlapuram, Chinnasekkadu, Manali", "addr:postcode": "600068", "addr:state": "Tamil Nadu", "amenity": "hospital", "healthcare": "hospital", "name": "Sankara Eye Hospital", "source": "Local Knowledge"}}, {"type": "node", "id": 7818702399, "lat": 13.1702776, "lon": 80.193567, "tags": {"addr:district": "Tiruvallur", "addr:full": "Kannappasamy Nagar, Puzhal", "addr:postcode": "600066", "addr:state": "Tamil Nadu", "amenity": "hospital", "name": "Md Hussain Hospital", "source": "Local Knowledge"}}, {"type": "node", "id": 7818702420, "lat": 13.161861, "lon": 80.204431, "tags": {"addr:district": "Tiruvallur", "addr:full": "Puzhal", "addr:postcode": "600066", "addr:state": "Tamil Nadu", "amenity": "hospital", "name": "St. Anthony's Hospital", "source": "Local Knowledge"}}, {"type": "node", "id": 7825002779, "lat": 13.1216771, "lon": 80.2236766, "tags": {"addr:district": "Chennai", "addr:full": "Santhi Nagar, Kolathur, Chennai", "addr:postcode": "600082", "addr:state": "Tamil Nadu", "amenity": "hospital", "healthcare": "hospital", "name": "V S Hospital", "source": "Local Knowledge"}}, {"type": "node", "id": 7825002781, "lat": 13.1160443, "lon": 80.2454243, "tags": {"addr:district": "Chennai", "addr:full": "Perambur, Chennai", "addr:postcode": "600039", "addr:state": "Tamil Nadu", "amenity": "hospital", "healthcare": "hospital", "name": "Iyyappa Multi Speciality Hospitals", "source": "Local Knowledge"}}, {"type": "node", "id": 7825002782, "lat": 13.113594, "lon": 80.2394367, "tags": {"addr:district": "Chennai", "addr:full": "Perambur, Chennai", "addr:postcode": "600011", "addr:state": "Tamil Nadu", "amenity": "hospital", "healthcare": "hospital", "name": "GK Hospital", "source": "Local Knowledge"}}, {"type": "node", "id": 7825009786, "lat": 13.1155627, "lon": 80.2457851, "tags": {"addr:district": "Chennai", "addr:full": "Chinnaiyan Colony, Perambur, Chennai", "addr:postcode": "600039", "addr:state": "Tamil Nadu", "amenity": "hospital", "healthcare": "hospital", "name": "Dr. Kleela Hospital", "source": "Local Knowledge"}}, {"type": "node", "id": 7825009787, "lat": 13.1297562, "lon": 80.2172747, "tags": {"addr:district": "Chennai", "addr:full": "Kolathur", "addr:postcode": "600099", "addr:state": "Tamil Nadu", "amenity": "hospital", "healthcare": "hospital", "name": "Bluemed Healthcare", "source": "Local Knowledge"}}, {"type": "node", "id": 7825009790, "lat": 13.1204837, "lon": 80.2243993, "tags": {"addr:district": "Chennai", "addr:full": "Perambur, Chennai", "addr:postcode": "600082", "addr:state": "Tamil Nadu", "amenity": "hospital", "check_date": "2024-08-11", "healthcare": "hospital", "name": "St. Joseph Cluny Hospital", "source": "Local Knowledge"}}, {"type": "node", "id": 7825009792, "lat": 13.1102652, "lon": 80.2418486, "tags": {"addr:district": "Chennai", "addr:full": "Perambur, Chennai", "addr:postcode": "600011", "addr:state": "Tamil Nadu", "amenity": "hospital", "healthcare": "hospital", "name": "Dr. A C Aruldas Hospital", "source": "Local Knowledge"}}, {"type": "node", "id": 7825009797, "lat": 13.1300779, "lon": 80.216941, "tags": {"addr:district": "Chennai", "addr:full": "Ponniammanmedu", "addr:postcode": "600099", "addr:state": "Tamil Nadu", "amenity": "hospital", "healthcare": "hospital", "name": "Bharathiraja Hospitals", "source": "Local Knowledge"}}, {"type": "node", "id": 7825009798, "lat": 13.1222839, "lon": 80.2160951, "tags": {"addr:district": "Chennai", "addr:full": "Kaveri Nagar, Kolathur, Chennai", "addr:postcode": "600099", "addr:state": "Tamil Nadu", "amenity": "hospital", "healthcare": "hospital", "name": "Kolathur Multi Speciality and Research Centre", "source": "Local Knowledge"}}, {"type": "node", "id": 7825009799, "lat": 13.1185, "lon": 80.2258076, "tags": {"addr:district": "Chennai", "addr:full": "Perambur, Chennai", "addr:postcode": "600082", "addr:state": "Tamil Nadu", "amenity": "hospital", "healthcare": "hospital", "name": "Arul Childs Hospital", "source": "Local Knowledge"}}, {"type": "node", "id": 7825009803, "lat": 13.129071, "lon": 80.2159086, "tags": {"addr:district": "Chennai", "addr:full": "Ponniammanmedu", "addr:postcode": "600099", "addr:state": "Tamil Nadu", "amenity": "hospital", "healthcare": "hospital", "name": "KCK Hospital", "source": "Local Knowledge"}}, {"type": "node", "id": 7825009805, "lat": 13.121994, "lon": 80.2236309, "tags": {"addr:district": "Chennai", "addr:full": "Kolathur, Chennai", "addr:postcode": "600099", "addr:state": "Tamil Nadu", "amenity": "hospital", "healthcare": "hospital", "name": "Sugar Hospital", "source": "Local Knowledge"}}, {"type": "node", "id": 7825009807, "lat": 13.129869, "lon": 80.214109, "tags": {"addr:district": "Chennai", "addr:full": "Kolathur", "addr:postcode": "600099", "addr:state": "Tamil Nadu", "amenity": "hospital", "healthcare": "hospital", "name": "Retteri Kumaran Hospital", "source": "Local Knowledge"}}, {"type": "node", "id": 7825009815, "lat": 13.1093369, "lon": 80.2312849, "tags": {"addr:district": "Chennai", "addr:full": "Perambur, Chennai", "addr:postcode": "600082", "addr:state": "Tamil Nadu", "amenity": "hospital", "healthcare": "hospital", "name": "Government Hospital", "source": "Local Knowledge"}}, {"type": "node", "id": 7825009816, "lat": 13.129327, "lon": 80.2152624, "tags": {"addr:district": "Chennai", "addr:full": "Kolathur, Villivakkam", "addr:postcode": "600099", "addr:state": "Tamil Nadu", "amenity": "hospital", "healthcare": "hospital", "name": "K.H.M. Hospital", "source": "Local Knowledge"}}, {"type": "node", "id": 7825009817, "lat": 13.1131038, "lon": 80.2404022, "tags": {"addr:district": "Chennai", "addr:full": "Perambur, Chennai", "addr:postcode": "600011", "addr:state": "Tamil Nadu", "amenity": "hospital", "healthcare": "hospital", "name": "Sankar Eye Hospital", "source": "Local Knowledge"}}, {"type": "node", "id": 7825009819, "lat": 13.1101477, "lon": 80.2244516, "tags": {"addr:district": "Chennai", "addr:full": "Perambur, Chennai", "addr:postcode": "600082", "addr:state": "Tamil Nadu", "amenity": "hospital", "healthcare": "hospital", "name": "Niranjana Hospital", "source": "Local Knowledge"}}, {"type": "node", "id": 7825009820, "lat": 13.1148422, "lon": 80.2441515, "tags": {"addr:district": "Chennai", "addr:full": "Perambur, Chennai", "addr:postcode": "600039", "addr:state": "Tamil Nadu", "amenity": "hospital", "healthcare": "hospital", "name": "Parvatham Hospital", "source": "Local Knowledge"}}, {"type": "node", "id": 7825009823, "lat": 13.1263043, "lon": 80.2192658, "tags": {"addr:district": "Chennai", "addr:full": "Balakumaran Nagar, Kolathur", "addr:postcode": "600099", "addr:state": "Tamil Nadu", "amenity": "hospital", "healthcare": "hospital", "name": "U.S. Hospital", "source": "Local Knowledge"}}, {"type": "node", "id": 7825009824, "lat": 13.1106227, "lon": 80.2374461, "tags": {"addr:district": "Chennai", "addr:full": "Amrithammal Colony, Perambur, Chennai", "addr:postcode": "600011", "addr:state": "Tamil Nadu", "amenity": "hospital", "healthcare": "hospital", "name": "Bharani Hospital", "source": "Local Knowledge"}}, {"type": "node", "id": 7953367285, "lat": 13.1183857, "lon": 80.2606286, "tags": {"amenity": "hospital", "healthcare": "hospital", "name:en": "Nalam marithuvamanai"}}, {"type": "node", "id": 9980280804, "lat": 13.1266701, "lon": 80.2014392, "tags": {"amenity": "hospital", "healthcare": "hospital", "name": "Shreyas hospital"}}, {"type": "node", "id": 10261422409, "lat": 13.1180276, "lon": 80.2126037, "tags": {"addr:housenumber": "1279 B", "addr:postcode": "600099", "addr:street": "Poompuhar Nagar 1st Main Road", "alt_name": "WCF Hospital Kolathur", "amenity": "hospital", "description": "Gynecology hospital, all things pregnancy related.", "email": "wcfkolathur@gmail.com", "healthcare": "hospital", "healthcare:speciality": "gynaecology", "name": "Women And Children Foundation Hospital", "opening_hours": "24/7", "operator": "Women And Children Foundation Limited", "operator:type": "private", "phone": "04425508210, 8939957777, 8939917777", "website": "http://www.wcfkolathur.in/", "whatsapp": "8939957777"}}, {"type": "node", "id": 10742847096, "lat": 13.139868, "lon": 80.2173881}, {"type": "node", "id": 10742847097, "lat": 13.1402505, "lon": 80.2174062}, {"type": "node", "id": 10742847098, "lat": 13.1402205, "lon": 80.2179863}, {"type": "node", "id": 10742847099, "lat": 13.1398452, "lon": 80.2178267}, {"type": "node", "id": 10742847100, "lat": 13.1401893, "lon": 80.2179731, "tags": {"access": "private", "barrier": "gate"}}, {"type": "node", "id": 10742847103, "lat": 13.1398876, "lon": 80.2178447}, {"type": "node", "id": 12581525295, "lat": 13.1363242, "lon": 80.2157688, "tags": {"amenity": "hospital", "check_date": "2025-02-12", "healthcare": "hospital", "name": "Meridian Hospitals"}}, {"type": "node", "id": 12581658601, "lat": 13.1396018, "lon": 80.2377389, "tags": {"amenity": "hospital", "check_date": "2025-02-12", "healthcare": "hospital", "name": "St Anthony's Hospital"}}, {"type": "way", "id": 469945922, "nodes": [4642017100, 4642017101, 4642017102, 4642017103, 4642017100], "tags": {"amenity": "hospital", "healthcare": "hospital"}}, {"type": "way", "id": 1155182281, "nodes": [10742847096, 10742847097, 10742847098, 10742847100, 10742847103, 10742847099, 10742847096], "tags": {"amenity": "hospital", "healthcare": "hospital", "name": "Prashanth Superspeciality Hospital Kolathur", "phone": "+914469177777", "website": "https://www.prashanthhospitals.org/kolathur"}}]}