{"version": 0.6, "generator": "Overpass API 0.7.62.8 e802775f", "osm3s": {"timestamp_osm_base": "2026-01-13T07:47:28Z", "copyright": "The data included in this document is from www.openstreetmap.org. The data is made available under ODbL."}, "elements": [{"type": "node", "id": 1356234984, "lat": 19.0698454, "lon": 72.9873953, "tags": {"addr:district": "Thane", "addr:full": "On Sion-Panvel Exprsssway Sector - 7 Vashi Navi Mumbai", "addr:housenumber": "Sector 7", "addr:postcode": "400703", "addr:state": "Maharashtra", "addr:street": "Sion Panvel Highway", "amenity": "hospital", "emergency": "yes", "healthcare": "hospital", "name": "Dr Kasbekar Sterling Hospital", "name:en": "Dr Kasbekar Sterling Hospital", "opening_hours": "24/7", "phone": "02266804444", "source": "OpenGovernmentData", "website": "http://www.navimumbai.wockhardthospitals.com"}}, {"type": "node", "id": 1644114470, "lat": 19.1036326, "lon": 73.0124359}, {"type": "node", "id": 2629911301, "lat": 19.0821345, "lon": 72.9960687}, {"type": "node", "id": 2629911303, "lat": 19.0827854, "lon": 72.9950919}, {"type": "node", "id": 2629911308, "lat": 19.0833514, "lon": 72.9969617}, {"type": "node", "id": 2629911326, "lat": 19.0839364, "lon": 72.9960826}, {"type": "node", "id": 2913810856, "lat": 19.1085023, "lon": 73.0017953, "tags": {"addr:district": "Thane", "addr:full": "Plot 12-13, Sector-20, Koparkhairane", "addr:postcode": "400709", "addr:state": "Maharashtra", "amenity": "hospital", "building": "hospital", "name": "Sai Snehdeep Hospital KK", "source": "OpenGovernmentData"}}, {"type": "node", "id": 2953156267, "lat": 19.1000303, "lon": 73.009298}, {"type": "node", "id": 2953156269, "lat": 19.1001344, "lon": 73.0096615}, {"type": "node", "id": 3595978146, "lat": 19.0730277, "lon": 72.9985548}, {"type": "node", "id": 3595978151, "lat": 19.0730657, "lon": 72.9981327}, {"type": "node", "id": 3595978327, "lat": 19.0732863, "lon": 72.9985808}, {"type": "node", "id": 3595978336, "lat": 19.0733243, "lon": 72.9981587}, {"type": "node", "id": 3596277926, "lat": 19.0871471, "lon": 73.0003864}, {"type": "node", "id": 3596277927, "lat": 19.0871823, "lon": 73.0002639}, {"type": "node", "id": 3596277928, "lat": 19.0872528, "lon": 73.0004203}, {"type": "node", "id": 3596277929, "lat": 19.087288, "lon": 73.0002979}, {"type": "node", "id": 3643855725, "lat": 19.0731464, "lon": 72.9984228}, {"type": "node", "id": 3643855738, "lat": 19.0731716, "lon": 72.9981433}, {"type": "node", "id": 3643855747, "lat": 19.0731939, "lon": 72.9984275}, {"type": "node", "id": 3643855753, "lat": 19.073219, "lon": 72.9981481}, {"type": "node", "id": 3644144091, "lat": 19.0406373, "lon": 73.0247588}, {"type": "node", "id": 3644144092, "lat": 19.0406502, "lon": 73.025205}, {"type": "node", "id": 3644144294, "lat": 19.0405874, "lon": 73.0245712}, {"type": "node", "id": 3644144295, "lat": 19.0407204, "lon": 73.0247554}, {"type": "node", "id": 3644144296, "lat": 19.0407267, "lon": 73.0248384}, {"type": "node", "id": 3644144297, "lat": 19.0407737, "lon": 73.0248384}, {"type": "node", "id": 3644144298, "lat": 19.0407779, "lon": 73.0249161}, {"type": "node", "id": 3644144299, "lat": 19.0407035, "lon": 73.0243078}, {"type": "node", "id": 3644144300, "lat": 19.0408284, "lon": 73.0248848}, {"type": "node", "id": 3644144301, "lat": 19.0407255, "lon": 73.0244239}, {"type": "node", "id": 3644144302, "lat": 19.0407641, "lon": 73.0247474}, {"type": "node", "id": 3644144303, "lat": 19.040783, "lon": 73.024727}, {"type": "node", "id": 3644144304, "lat": 19.0408428, "lon": 73.0245352}, {"type": "node", "id": 3644144305, "lat": 19.0409473, "lon": 73.0252144}, {"type": "node", "id": 3644144306, "lat": 19.040876, "lon": 73.0242693}, {"type": "node", "id": 3644144307, "lat": 19.0408799, "lon": 73.0247653}, {"type": "node", "id": 3644144308, "lat": 19.0408839, "lon": 73.0243673}, {"type": "node", "id": 3644144309, "lat": 19.0408991, "lon": 73.02461}, {"type": "node", "id": 3644144310, "lat": 19.0408932, "lon": 73.0243555}, {"type": "node", "id": 3644144311, "lat": 19.0409046, "lon": 73.0245181}, {"type": "node", "id": 3644144312, "lat": 19.0410002, "lon": 73.0249696}, {"type": "node", "id": 3644144313, "lat": 19.040898, "lon": 73.0244254}, {"type": "node", "id": 3644144314, "lat": 19.0409309, "lon": 73.0244179}, {"type": "node", "id": 3644144315, "lat": 19.0409317, "lon": 73.0243607}, {"type": "node", "id": 3644144316, "lat": 19.0410278, "lon": 73.0245602}, {"type": "node", "id": 3644144317, "lat": 19.0410293, "lon": 73.0246465}, {"type": "node", "id": 3644144318, "lat": 19.041054, "lon": 73.0247823}, {"type": "node", "id": 3644144320, "lat": 19.0411029, "lon": 73.0245587}, {"type": "node", "id": 3644144321, "lat": 19.0411045, "lon": 73.024645}, {"type": "node", "id": 3644144324, "lat": 19.0411708, "lon": 73.0243686}, {"type": "node", "id": 3644144326, "lat": 19.0411865, "lon": 73.0244259}, {"type": "node", "id": 3644144327, "lat": 19.0412193, "lon": 73.024542}, {"type": "node", "id": 3644144328, "lat": 19.0412237, "lon": 73.0245942}, {"type": "node", "id": 3644144329, "lat": 19.0412194, "lon": 73.02443}, {"type": "node", "id": 3644144330, "lat": 19.0412235, "lon": 73.0243497}, {"type": "node", "id": 3644144331, "lat": 19.0412245, "lon": 73.0248884}, {"type": "node", "id": 3644144333, "lat": 19.0412569, "lon": 73.0245337}, {"type": "node", "id": 3644144334, "lat": 19.0412652, "lon": 73.0245759}, {"type": "node", "id": 3644144336, "lat": 19.0412701, "lon": 73.0247632}, {"type": "node", "id": 3644144337, "lat": 19.0412711, "lon": 73.0242593}, {"type": "node", "id": 3644144340, "lat": 19.0413087, "lon": 73.0252163}, {"type": "node", "id": 3644144341, "lat": 19.041334, "lon": 73.0247247}, {"type": "node", "id": 3644144343, "lat": 19.0413565, "lon": 73.0247476}, {"type": "node", "id": 3644144345, "lat": 19.0413723, "lon": 73.0248498}, {"type": "node", "id": 3644144348, "lat": 19.0414208, "lon": 73.0244359}, {"type": "node", "id": 3644144349, "lat": 19.0414297, "lon": 73.0249269}, {"type": "node", "id": 3644144350, "lat": 19.0414468, "lon": 73.0242958}, {"type": "node", "id": 3644144352, "lat": 19.0414675, "lon": 73.0246779}, {"type": "node", "id": 3644144354, "lat": 19.0414858, "lon": 73.024736}, {"type": "node", "id": 3644144355, "lat": 19.0414883, "lon": 73.0251693}, {"type": "node", "id": 3644144356, "lat": 19.0414943, "lon": 73.0245996}, {"type": "node", "id": 3644144357, "lat": 19.041499, "lon": 73.0243599}, {"type": "node", "id": 3644144358, "lat": 19.0415057, "lon": 73.0246738}, {"type": "node", "id": 3644144360, "lat": 19.0415091, "lon": 73.0248568}, {"type": "node", "id": 3644144361, "lat": 19.0415529, "lon": 73.0249307}, {"type": "node", "id": 3644144364, "lat": 19.0416161, "lon": 73.0244949}, {"type": "node", "id": 3644144368, "lat": 19.0417592, "lon": 73.0249314}, {"type": "node", "id": 3644144370, "lat": 19.041758, "lon": 73.0247349}, {"type": "node", "id": 3674854453, "lat": 19.0364365, "lon": 73.0098341}, {"type": "node", "id": 3958000626, "lat": 19.0391617, "lon": 72.9488101, "tags": {"amenity": "hospital", "name": "Aryan Hospital"}}, {"type": "node", "id": 3981483033, "lat": 19.1046246, "lon": 73.0120678}, {"type": "node", "id": 3981483042, "lat": 19.1059327, "lon": 73.0116448}, {"type": "node", "id": 4167472230, "lat": 19.100388, "lon": 73.0091833}, {"type": "node", "id": 4167472231, "lat": 19.1004921, "lon": 73.0095467}, {"type": "node", "id": 4812725189, "lat": 19.0730116, "lon": 72.993445}, {"type": "node", "id": 4812725190, "lat": 19.0729355, "lon": 72.994357}, {"type": "node", "id": 4812725191, "lat": 19.0722815, "lon": 72.9942926}, {"type": "node", "id": 4812725192, "lat": 19.0723373, "lon": 72.9933914}, {"type": "node", "id": 5414139578, "lat": 19.040935, "lon": 73.0233369, "tags": {"access": "private", "barrier": "gate"}}, {"type": "node", "id": 5414139589, "lat": 19.0403561, "lon": 73.0240311}, {"type": "node", "id": 5430804028, "lat": 19.0419405, "lon": 73.0243458}, {"type": "node", "id": 5430804033, "lat": 19.0415121, "lon": 73.0252371}, {"type": "node", "id": 5430804034, "lat": 19.0410878, "lon": 73.0255201}, {"type": "node", "id": 5430804036, "lat": 19.0403628, "lon": 73.0250895}, {"type": "node", "id": 5430804038, "lat": 19.0403799, "lon": 73.0245153}, {"type": "node", "id": 5430804040, "lat": 19.0411684, "lon": 73.0235666}, {"type": "node", "id": 5496386517, "lat": 19.0749895, "lon": 72.9893399}, {"type": "node", "id": 5496386518, "lat": 19.074902, "lon": 72.9903494}, {"type": "node", "id": 5496386519, "lat": 19.0738369, "lon": 72.9902459}, {"type": "node", "id": 5496386520, "lat": 19.0739245, "lon": 72.9892366}, {"type": "node", "id": 5541844974, "lat": 19.0361858, "lon": 73.0096072}, {"type": "node", "id": 5541844975, "lat": 19.0364455, "lon": 73.0096193}, {"type": "node", "id": 5541844976, "lat": 19.0361769, "lon": 73.009822}, {"type": "node", "id": 5624316682, "lat": 19.1051956, "lon": 73.0119088}, {"type": "node", "id": 5679399669, "lat": 19.0400289, "lon": 73.0254775}, {"type": "node", "id": 5679399676, "lat": 19.0406077, "lon": 73.0242436}, {"type": "node", "id": 6197071879, "lat": 19.1063162, "lon": 73.0125956}, {"type": "node", "id": 6197071880, "lat": 19.1050177, "lon": 73.0133396}, {"type": "node", "id": 6197071881, "lat": 19.1041424, "lon": 73.0137475}, {"type": "node", "id": 6691178212, "lat": 19.0414803, "lon": 73.0238815}, {"type": "node", "id": 6691178215, "lat": 19.0416305, "lon": 73.0240347}, {"type": "node", "id": 6691219929, "lat": 19.0402495, "lon": 73.0256891}, {"type": "node", "id": 6691219930, "lat": 19.0406018, "lon": 73.0252597}, {"type": "node", "id": 7043182325, "lat": 19.0624707, "lon": 73.0060434, "tags": {"addr:district": "Thane", "addr:full": "Plot No.-1&1A, Sun Palm View Bldg., Sanapada, Sector-15, Navi Mumbai", "addr:postcode": "400705", "addr:state": "Maharashtra", "amenity": "hospital", "name": "Dr. R.N. Patil's Suraj Neurologiacal and Multispeciality Hospital", "source": "OpenGovernmentData"}}, {"type": "node", "id": 7043399089, "lat": 19.081001, "lon": 72.9988839, "tags": {"addr:district": "Thane", "addr:full": "F2/D2 Sector 9 Vashi, Navi Mumbai", "addr:postcode": "400703", "addr:state": "Maharashtra", "amenity": "hospital", "name": "Dr. Kunnure Hospital and Iccu", "source": "OpenGovernmentData"}}, {"type": "node", "id": 7047301433, "lat": 19.0823723, "lon": 72.9998548, "tags": {"addr:district": "Thane", "addr:full": "F-7/A-1,Sector-10,(Above Hotel Trimurti),Near Vijaya Bank,Vashi,Navi Mumbai", "addr:postcode": "400703", "addr:state": "Maharashtra", "amenity": "hospital", "name": "Uma Hospital", "source": "OpenGovernmentData"}}, {"type": "node", "id": 7048131891, "lat": 19.1006081, "lon": 72.9986988, "tags": {"addr:district": "Thane", "addr:full": "1st Floor, Natasha Towers, Plot No.84, Sector No.17,OppositeMmmc Hospital,Khairane,Navi Mumbai", "addr:postcode": "400709", "addr:state": "Maharashtra", "amenity": "hospital", "name": "Vedaant Multispeciality Hospital", "source": "OpenGovernmentData"}}, {"type": "node", "id": 7048131904, "lat": 19.0360934, "lon": 73.0231659, "tags": {"addr:district": "Thane", "addr:full": "Plot No.21-B, Sec-11, Near Ayyappa Temple, Nerul(E), Navi Mumbai", "addr:postcode": "400706", "addr:state": "Maharashtra", "amenity": "hospital", "name": "Surya Hospital and Iccu", "source": "OpenGovernmentData"}}, {"type": "node", "id": 7048504206, "lat": 19.0410522, "lon": 73.014902, "tags": {"addr:district": "Thane", "addr:full": "Sai Prasad Shopping Complex,Plot, No.17, Sec-8,Nerul, Navi Mumbai", "addr:postcode": "400706", "addr:state": "Maharashtra", "amenity": "hospital", "name": "Aryan Hospital", "source": "OpenGovernmentData"}}, {"type": "node", "id": 7049253111, "lat": 19.0805599, "lon": 73.0030265, "tags": {"addr:district": "Thane", "addr:full": "Plot No:57, Sector 15-A,Vashi", "addr:postcode": "400705", "addr:state": "Maharashtra", "amenity": "hospital", "name": "Pkc Hospital", "source": "OpenGovernmentData"}}, {"type": "node", "id": 7049597126, "lat": 19.0432478, "lon": 73.0096382, "tags": {"addr:district": "Thane", "addr:full": "Plot No 22A, Palm Beach Road Nerul (W) , Sector 6 Navi Mumbai", "addr:postcode": "400705", "addr:state": "Maharashtra", "amenity": "hospital", "name": "Sushrusha Heart Care Center and Speciality Hospital", "source": "OpenGovernmentData"}}, {"type": "node", "id": 7049696525, "lat": 19.0409539, "lon": 73.0145547, "tags": {"addr:district": "Thane", "addr:full": "Sangharsha Bldg., Plot No. 53A 1st Floor, Near Sarsole Bus Depot, Phase Iii, Nerul", "addr:postcode": "400706", "addr:state": "Maharashtra", "amenity": "hospital", "name": "Sanjivani Hospital and Iccu", "source": "OpenGovernmentData"}}, {"type": "node", "id": 7050247346, "lat": 19.0994752, "lon": 73.005757, "tags": {"addr:district": "Thane", "addr:full": "Giriraj Dham Plot. No11, Sector -10,1st Floor, Nxt 2 Pancharatna Hotel,Koparkhairane,Navi Mumbai", "addr:postcode": "400709", "addr:state": "Maharashtra", "amenity": "hospital", "name": "Vidhi Eye and Skin Care Centre", "source": "OpenGovernmentData"}}, {"type": "node", "id": 7050371648, "lat": 19.0434152, "lon": 73.0155337, "tags": {"addr:district": "Thane", "addr:full": "Ambika Shopping Complex, Plot No. 23 , Sector 8, Nerul, Navi Mumbai", "addr:postcode": "400706", "addr:state": "Maharashtra", "amenity": "hospital", "name": "Kamlesh Mother and Child Hospital", "source": "OpenGovernmentData"}}, {"type": "node", "id": 7050525480, "lat": 19.0739489, "lon": 72.9993063, "tags": {"addr:district": "Thane", "addr:full": "New Bombay", "addr:postcode": "400705", "addr:state": "Maharashtra", "amenity": "hospital", "name": "Thanawala Maternity Home", "source": "OpenGovernmentData"}}, {"type": "node", "id": 7050593685, "lat": 19.0980824, "lon": 73.0056068, "tags": {"addr:district": "Thane", "addr:full": "A/42, Sagar Co.Ophousing Society, Sector-10, Koparkhairane, Navi Mumbai", "addr:postcode": "400709", "addr:state": "Maharashtra", "amenity": "hospital", "name": "Saraswati Skin and Eye Care Centre", "source": "OpenGovernmentData"}}, {"type": "node", "id": 7051344976, "lat": 19.1024207, "lon": 73.0037589, "tags": {"addr:district": "Thane", "addr:full": "102, Shubham Cooperative Society, Sector-18, Plot-77, Near Kotak Mahindra Bank, Koparkhairane", "addr:postcode": "400709", "addr:state": "Maharashtra", "amenity": "hospital", "name": "Om Gagangiri Hospital, Thane, NAVI MUMBAI", "source": "OpenGovernmentData"}}, {"type": "node", "id": 7051759654, "lat": 19.0737816, "lon": 72.9997086, "tags": {"addr:district": "Thane", "addr:full": "Rosewood, Sector 2, Airoli Navi Mumbai", "addr:postcode": "400708", "addr:state": "Maharashtra", "amenity": "hospital", "name": "Thanawalas Maternity Home & IVF Clinic", "source": "OpenGovernmentData"}}, {"type": "node", "id": 7051990083, "lat": 19.0817095, "lon": 72.9966067, "tags": {"addr:district": "Thane", "addr:full": "Plot 6B, Sector 9, Vashi, Navi Mumbai", "addr:postcode": "400703", "addr:state": "Maharashtra", "amenity": "hospital", "name": "Dr Yewale Multispeciality Hospital For Children", "source": "OpenGovernmentData"}}, {"type": "node", "id": 7052244354, "lat": 19.0434063, "lon": 73.0204596, "tags": {"addr:district": "Thane", "addr:full": "Sec-3, Plot-22, Near Rajiv Gandhi Bridge, Nerul (E) Navi Mumbai", "addr:postcode": "400706", "addr:state": "Maharashtra", "amenity": "hospital", "name": "Harish Hospital and Iccu", "source": "OpenGovernmentData"}}, {"type": "node", "id": 7052505337, "lat": 19.0634121, "lon": 73.0124558, "tags": {"addr:district": "Thane", "addr:full": "1st Floor, Priyanka Palace, Sector -10,Sanpada Navi Mumbai", "addr:postcode": "400705", "addr:state": "Maharashtra", "amenity": "hospital", "name": "Sanpada General Hopital", "source": "OpenGovernmentData"}}, {"type": "node", "id": 7052946842, "lat": 19.0432833, "lon": 73.017892, "tags": {"addr:district": "Mumbai", "addr:full": "Plot No. 2, Sector - 8, Phase Ii, Near Rajiv Gandhi Bridge, Nerul(W)", "addr:postcode": "400053", "addr:state": "Maharashtra", "amenity": "hospital", "name": "Manak Healthcare Hospital", "source": "OpenGovernmentData"}}, {"type": "node", "id": 7054152139, "lat": 19.1152368, "lon": 72.9335748, "tags": {"addr:district": "Mumbai", "addr:full": "No. 199/2952, Group No. 08/B,Opposite Old Tagore Nagar Post Office,Vikhroli East", "addr:postcode": "400083", "addr:state": "Maharashtra", "amenity": "hospital", "name": "Yashwant Hospital, Mumbai", "source": "OpenGovernmentData"}}, {"type": "node", "id": 7055034735, "lat": 19.1206928, "lon": 73.0028686, "tags": {"addr:district": "Thane", "addr:full": "Plot No.21 , Sector 6, Ghansoli, Navi Mumbai", "addr:postcode": "400701", "addr:state": "Maharashtra", "amenity": "hospital", "name": "Divine Multispecialty Hospital and Research Centre", "source": "OpenGovernmentData"}}, {"type": "node", "id": 7055082976, "lat": 19.0897992, "lon": 73.0047123, "tags": {"addr:district": "Thane", "addr:full": "A-01, Mahavir Dham Plot No 112, Sector 12, Vashi, Navi Mumbai", "addr:postcode": "400703", "addr:state": "Maharashtra", "amenity": "hospital", "name": "Ashirwad Hospital Maternity Surgical and General", "source": "OpenGovernmentData"}}, {"type": "node", "id": 7055110020, "lat": 19.1013786, "lon": 73.0046265, "tags": {"addr:district": "Thane", "addr:full": "Amar House, 1st Floor,Plot No.98, Sector - 7, Kopar Khairne Main Road", "addr:postcode": "400601", "addr:state": "Maharashtra", "amenity": "hospital", "name": "Aakashdeep Hospital and I.C.U", "source": "OpenGovernmentData"}}, {"type": "node", "id": 7059215459, "lat": 19.0420029, "lon": 73.0169338, "tags": {"addr:district": "Thane", "addr:full": "Plot No 8-1, Sector 8, Near M G M School & L Market Nerul", "addr:postcode": "400706", "addr:state": "Maharashtra", "amenity": "hospital", "name": "Chaitanya Child Care Centre", "source": "OpenGovernmentData"}}, {"type": "node", "id": 7063805560, "lat": 19.1190712, "lon": 72.9344156, "tags": {"addr:district": "Mumbai", "addr:full": "139/2447, Group Vii, Tagore Nagar, Vikhroli (E)", "addr:postcode": "400083", "addr:state": "Maharashtra", "amenity": "hospital", "name": "Atul - Lok Hospital", "source": "OpenGovernmentData"}}, {"type": "node", "id": 7064346355, "lat": 19.0705622, "lon": 72.998676, "tags": {"addr:district": "Thane", "addr:full": "Archana Jyoti, 1st Floor, Plot No. 18, Sector 17 Dbc, Vashi, , Navi Mumbai", "addr:postcode": "400705", "addr:state": "Maharashtra", "amenity": "hospital", "healthcare": "hospital", "name": "Navjeevan Hospital", "source": "OpenGovernmentData"}}, {"type": "node", "id": 7064400808, "lat": 19.0719742, "lon": 72.9999232, "tags": {"addr:district": "Thane", "addr:full": "102/A, Anand Sagar, Abhyudaya Bank Marg, Sector-17, Vashi, Navi Mumbai", "addr:postcode": "400705", "addr:state": "Maharashtra", "amenity": "hospital", "healthcare": "hospital", "healthcare:speciality": "maternity", "name": "Dr. Tilwe Maternity and Nursing Home", "source": "OpenGovernmentData"}}, {"type": "node", "id": 7065817370, "lat": 19.0990443, "lon": 73.0046439, "tags": {"addr:district": "Thane", "addr:full": "Plot No.12, Sec-14, Opposite D-Mart Circle, Koparkhairane, Navi Mumbai", "addr:postcode": "400709", "addr:state": "Maharashtra", "amenity": "hospital", "name": "Satyam Multispeciality Hospital and Trauma Centre", "source": "OpenGovernmentData"}}, {"type": "node", "id": 7067113507, "lat": 19.0814104, "lon": 73.0005576, "tags": {"addr:district": "Thane", "addr:full": "Plot No.:51, Sector -15, Near Maratha Bhavan, Opposite Cidco Samaj Mandir, Vashi, Navi Mumbaai", "addr:postcode": "400705", "addr:state": "Maharashtra", "amenity": "hospital", "name": "Mohanlal Jivandas Hospital managed by Krishnai Hospital", "source": "OpenGovernmentData"}}, {"type": "node", "id": 7070857457, "lat": 19.0738577, "lon": 72.9993036, "tags": {"addr:district": "Thane", "addr:full": "20,30 & 31, Mahavir Centre, Sector 17", "addr:postcode": "400703", "addr:state": "Maharashtra", "amenity": "hospital", "name": "Dr. Parikhs Nursing Home and Iccu - Vashi", "source": "OpenGovernmentData"}}, {"type": "node", "id": 7072544639, "lat": 19.0995664, "lon": 73.006162, "tags": {"addr:district": "Thane", "addr:full": "Plot 13, Sector 10, D - Mart, Kopar Khairane, Navi Mumbai", "addr:postcode": "400709", "addr:state": "Maharashtra", "amenity": "hospital", "email": "info@rajpaloldagehome.com", "name": "Rajpal Hospital and I.C.U.", "source": "OpenGovernmentData", "website": "https://www.rajpaloldagehome.com/"}}, {"type": "node", "id": 7072544640, "lat": 19.0797703, "lon": 72.9981503, "tags": {"addr:district": "Thane", "addr:full": "F-2/D-1, Aditi Apartments, F-Type Building, Main Road, Sector No 9, Near Shabri Hotel, Vashi, Navi Mumbai", "addr:postcode": "400703", "addr:state": "Maharashtra", "amenity": "hospital", "email": "global5health@gmail.com", "name": "Global 5 Health Care Centre", "source": "OpenGovernmentData", "website": "https://www.global5hospital.com/"}}, {"type": "node", "id": 7073944650, "lat": 19.0787817, "lon": 73.0014119, "tags": {"addr:district": "Thane", "addr:full": "Unit 8-8A, Balaji Sadan, Plot 20-D, Sector-15, Opposite Icl School Ground,Near Modern College", "addr:postcode": "400705", "addr:state": "Maharashtra", "amenity": "hospital", "name": "Lotus Multispeciality Hospital and Icu", "source": "OpenGovernmentData"}}, {"type": "node", "id": 7080229647, "lat": 19.0599009, "lon": 73.0143441, "tags": {"addr:district": "Thane", "addr:full": "1st Floor Priyanka Palace Sec-10 Sanpada Navi Mumbai", "addr:postcode": "400705", "addr:state": "Maharashtra", "amenity": "hospital", "name": "Millennium Life Line Hospital and Research Centre", "source": "OpenGovernmentData"}}, {"type": "node", "id": 7085422788, "lat": 19.1166953, "lon": 72.9370737, "tags": {"addr:district": "Mumbai", "addr:full": "Sambhaji Maidan Circle,Sai Prasad Shopping Centre", "addr:postcode": "400083", "addr:state": "Maharashtra", "amenity": "hospital", "name": "Sai Hospital, Mumbai", "source": "OpenGovernmentData"}}, {"type": "node", "id": 7225067275, "lat": 19.1180038, "lon": 72.9394753, "tags": {"addr:district": "Mumbai", "addr:full": "Krantiveer Mahatma Jyotiba Phule Hospital, Vikas College Road, Kannamwar Nagar - 2", "addr:postcode": "400083", "addr:state": "Maharashtra", "amenity": "hospital", "description": "Sub District Hospital", "name": "Krantiveer Mahatma Jyotiba Phule Hospital, Vikhroli", "source": "OpenGovernmentData"}}, {"type": "node", "id": 7540589984, "lat": 19.0412847, "lon": 73.0254162}, {"type": "node", "id": 7540597140, "lat": 19.0419461, "lon": 73.0244912}, {"type": "node", "id": 7540614885, "lat": 19.0409286, "lon": 73.0255219}, {"type": "node", "id": 7540614886, "lat": 19.0408157, "lon": 73.025435}, {"type": "node", "id": 8816437186, "lat": 19.1043782, "lon": 73.0037038, "tags": {"addr:district": "Thane", "addr:full": "Kopar Khairane, Navi Mumbai", "addr:postcode": "400709", "addr:state": "Maharashtra", "amenity": "hospital", "name": "Mathadi Hospital KK", "source": "Local Knowledge"}}, {"type": "node", "id": 8816579299, "lat": 19.0875015, "lon": 73.0030788, "tags": {"addr:district": "Thane", "addr:full": "plot 108, 109, Juhu ,Vashi, Navi Mumbai", "addr:postcode": "400703", "addr:state": "Maharashtra", "amenity": "hospital", "name": "Vinamra Swaraj Hospital", "source": "Local Knowledge"}}, {"type": "node", "id": 8817467502, "lat": 19.1124807, "lon": 72.9345149}, {"type": "node", "id": 9685155714, "lat": 19.0401092, "lon": 73.0248394}, {"type": "node", "id": 9896935398, "lat": 19.0934199, "lon": 73.0109264}, {"type": "node", "id": 9896935399, "lat": 19.0934631, "lon": 73.0103128}, {"type": "node", "id": 9896935405, "lat": 19.0932772, "lon": 73.0101883}, {"type": "node", "id": 9896935406, "lat": 19.0929354, "lon": 73.0101614}, {"type": "node", "id": 9896935407, "lat": 19.0928846, "lon": 73.0108842}, {"type": "node", "id": 9896935408, "lat": 19.0932696, "lon": 73.0102975}, {"type": "node", "id": 10097650697, "lat": 19.0419271, "lon": 73.0248206}, {"type": "node", "id": 10276589054, "lat": 19.1119105, "lon": 72.9342708}, {"type": "node", "id": 10276589055, "lat": 19.1117736, "lon": 72.9346356}, {"type": "node", "id": 10276589056, "lat": 19.1122932, "lon": 72.9349655}, {"type": "node", "id": 10561900742, "lat": 19.0419568, "lon": 73.0247885}, {"type": "node", "id": 11024471318, "lat": 19.0401276, "lon": 73.0248174}, {"type": "node", "id": 11024471319, "lat": 19.0404173, "lon": 73.0244703}, {"type": "node", "id": 11024471334, "lat": 19.0405506, "lon": 73.0243116}, {"type": "node", "id": 12307080607, "lat": 19.0373306, "lon": 73.0189494, "tags": {"amenity": "hospital", "healthcare": "hospital", "healthcare:speciality": "general;dentist;internal;physiotherapy;fertility", "level": "1", "name": "Sai Asha Hospital"}}, {"type": "node", "id": 12964338469, "lat": 19.0400543, "lon": 73.025448}, {"type": "node", "id": 12964338470, "lat": 19.0403287, "lon": 73.0255986}, {"type": "way", "id": 257479165, "nodes": [2629911308, 2629911326, 2629911303, 2629911301, 2629911308], "tags": {"addr:district": "Mumbai", "addr:full": "Vashi", "addr:postcode": "400703", "addr:state": "Maharashtra", "amenity": "hospital", "emergency": "yes", "name": "L H Fortis Hospital", "source": "OpenGovernmentData"}}, {"type": "way", "id": 353789941, "nodes": [3595978336, 3595978327, 3595978146, 3595978151, 3643855738, 3643855725, 3643855747, 3643855753, 3595978336], "tags": {"addr:district": "Thane", "addr:full": "207-210, Nirman Vyapur Kendra, Plot No-10, Sector-17, Vashi, Navi Mumbai", "addr:postcode": "400703", "addr:state": "Maharashtra", "amenity": "hospital", "building": "yes", "name": "Jaydish Nursing Home", "source": "OpenGovernmentData"}}, {"type": "way", "id": 359762753, "nodes": [3644144304, 3644144309, 3644144311, 3644144304]}, {"type": "way", "id": 359762754, "nodes": [3644144320, 3644144321, 3644144317, 3644144316, 3644144320]}, {"type": "way", "id": 359762755, "nodes": [3644144333, 3644144334, 3644144328, 3644144327, 3644144333]}, {"type": "way", "id": 359762758, "nodes": [3644144305, 3644144092, 3644144091, 3644144295, 3644144296, 3644144297, 3644144298, 3644144300, 3644144312, 3644144305]}, {"type": "way", "id": 359762780, "nodes": [3644144356, 3644144358, 3644144352, 3644144354, 3644144370, 3644144368, 3644144361, 3644144360, 3644144349, 3644144355, 3644144340, 3644144331, 3644144345, 3644144343, 3644144341, 3644144336, 3644144318, 3644144307, 3644144303, 3644144302, 3644144294, 3644144301, 3644144299, 3644144306, 3644144310, 3644144308, 3644144313, 3644144314, 3644144315, 3644144324, 3644144326, 3644144329, 3644144330, 3644144337, 3644144350, 3644144348, 3644144357, 3644144364, 3644144356]}, {"type": "way", "id": 415784678, "nodes": [4167472230, 4167472231, 2953156269, 2953156267, 4167472230], "tags": {"addr:district": "Thane", "addr:full": "Plot No 6, Sector-9 Opp: Rf Naik School Ground, Koparkhairane Khairane Navi Mumbai", "addr:postcode": "400709", "addr:state": "Maharashtra", "amenity": "hospital", "healthcare": "hospital", "name": "Dr Ajayan's Multispeciality Hospital", "source": "OpenGovernmentData"}}, {"type": "way", "id": 488981959, "nodes": [4812725189, 4812725190, 4812725191, 4812725192, 4812725189], "tags": {"addr:district": "Thane", "addr:full": "Plot - 35, Sector - 3, Vashi, Navi Mumbai", "addr:postcode": "400703", "addr:state": "Maharashtra", "alt_name": "MGM Hospital", "alt_name:en": "MGM Hospital", "amenity": "hospital", "healthcare": "hospital", "name": "Mahatma Gandhi Mission's New Bombay Hospital", "name:etymology:wikidata": "Q1001", "source": "OpenGovernmentData"}}, {"type": "way", "id": 561501151, "nodes": [5414139578, 5430804040, 6691178212, 6691178215, 5430804028, 7540597140, 10561900742, 10097650697, 5430804033, 7540589984, 5430804034, 7540614885, 7540614886, 6691219930, 12964338470, 6691219929, 5679399669, 12964338469, 5430804036, 9685155714, 11024471318, 5430804038, 11024471319, 11024471334, 5679399676, 5414139589, 5414139578], "tags": {"addr:district": "Thane", "addr:full": "Sector-05, Nerul, Navi Mumbai", "addr:postcode": "400706", "addr:state": "Maharashtra", "amenity": "hospital", "healthcare": "hospital", "name": "Dr. D.Y. Patil Hospital", "name:etymology:wikidata": "Q301947", "source": "OpenGovernmentData"}}, {"type": "way", "id": 572046185, "nodes": [5496386517, 5496386518, 5496386519, 5496386520, 5496386517], "tags": {"amenity": "hospital", "healthcare": "hospital", "name": "ESIC Hospital"}}, {"type": "way", "id": 578325215, "nodes": [5541844975, 3674854453, 5541844976, 5541844974, 5541844975], "tags": {"amenity": "hospital", "healthcare": "hospital", "name": "Sunshine Hospital"}}, {"type": "way", "id": 661924838, "nodes": [3981483042, 6197071879, 6197071880, 6197071881, 1644114470, 3981483033, 5624316682, 3981483042], "tags": {"amenity": "hospital", "healthcare": "hospital", "name": "Reliance Hospital"}}, {"type": "way", "id": 1079698802, "nodes": [9896935405, 9896935406, 9896935407, 9896935398, 9896935399, 9896935408, 9896935405], "tags": {"amenity": "hospital", "healthcare": "hospital"}}, {"type": "way", "id": 1123726002, "nodes": [10276589056, 10276589055, 10276589054, 8817467502, 10276589056], "tags": {"addr:district": "Thane", "addr:full": "Vikhroli, Mumbai", "addr:postcode": "400083", "addr:state": "Maharashtra", "amenity": "hospital", "name": "Shushrusha Hospital", "source": "Local Knowledge"}}, {"type": "way", "id": 1360696541, "nodes": [3596277929, 3596277928, 3596277926, 3596277927, 3596277929], "tags": {"amenity": "hospital", "healthcare": "hospital", "name": "JUHUGAON NMMC"}}, {"type": "relation", "id": 5354962, "members": [{"type": "way", "ref": 359762780, "role": "outer"}, {"type": "way", "ref": 359762758, "role": "outer"}, {"type": "way", "ref": 359762753, "role": "inner"}, {"type": "way", "ref": 359762755, "role": "inner"}, {"type": "way", "ref": 359762754, "role": "inner"}], "tags": {"addr:district": "Thane", "addr:full": "Sector- 05, Nerul, Navi Mumbai", "addr:postcode": "400706", "addr:state": "Maharashtra", "amenity": "hospital", "building": "yes", "name": "Dr D Y Patil Hospital and Research Center", "name:etymology:wikidata": "Q301947", "source": "OpenGovernmentData", "type": "multipolygon"}}]}