{"version": 0.6, "generator": "Overpass API 0.7.62.8 e802775f", "osm3s": {"timestamp_osm_base": "2026-01-13T02:36:42Z", "copyright": "The data included in this document is from www.openstreetmap.org. The data is made available under ODbL."}, "elements": [{"type": "node", "id": 2199508162, "lat": 17.3327985, "lon": 78.5895099, "tags": {"bus": "yes", "highway": "bus_stop", "name": "Bhagyalatha", "public_transport": "platform"}}, {"type": "node", "id": 2199508163, "lat": 17.3301662, "lon": 78.5941849, "tags": {"bus": "yes", "highway": "bus_stop", "name": "Hayathnagar Bus Depot", "public_transport": "platform"}}, {"type": "node", "id": 2199508164, "lat": 17.3283254, "lon": 78.5995869, "tags": {"highway": "bus_stop", "name": "RTC Colony"}}, {"type": "node", "id": 2199524806, "lat": 17.3348161, "lon": 78.5847838, "tags": {"bus": "yes", "highway": "bus_stop", "name": "High Court Colony", "public_transport": "platform"}}, {"type": "node", "id": 2217950117, "lat": 17.3307424, "lon": 78.6076925, "tags": {"highway": "bus_stop"}}, {"type": "node", "id": 2217950118, "lat": 17.3331355, "lon": 78.6114941, "tags": {"highway": "bus_stop"}}, {"type": "node", "id": 2217960523, "lat": 17.3327498, "lon": 78.5890542, "tags": {"bus": "yes", "highway": "bus_stop", "name": "Bhagyalatha", "public_transport": "platform"}}, {"type": "node", "id": 4596525092, "lat": 17.3246469, "lon": 78.5661745, "tags": {"highway": "bus_stop", "name": "NGO'S bus stop", "name:en": "NGO'S bus stop"}}, {"type": "node", "id": 4867334021, "lat": 17.3324953, "lon": 78.5303283, "tags": {"amenity": "bus_station", "bus": "yes", "name": "Emlibun", "name:hi": "Emlibun", "public_transport": "station"}}, {"type": "node", "id": 5826355255, "lat": 17.3297742, "lon": 78.5791414, "tags": {"bench": "no", "bus": "yes", "highway": "bus_stop", "lit": "no", "name": "kamala nagar bus stop", "public_transport": "platform", "ref": "tsrtc", "shelter": "no"}}, {"type": "node", "id": 6246310248, "lat": 17.3274768, "lon": 78.6048385, "tags": {"bus": "yes", "highway": "bus_stop", "name": "TSRTC BUS STAND , HAYATNAGAR", "public_transport": "platform"}}, {"type": "node", "id": 7171247795, "lat": 17.3091766, "lon": 78.5331199, "tags": {"bus": "yes", "highway": "bus_stop", "name": "almasguda bus stop", "public_transport": "platform"}}, {"type": "node", "id": 7244134464, "lat": 17.3287721, "lon": 78.5835166, "tags": {"bus": "yes", "highway": "bus_stop", "name": "Subhadranagar Bus Stop", "public_transport": "platform"}}, {"type": "node", "id": 7432609392, "lat": 17.3294749, "lon": 78.5536367, "tags": {"bus": "yes", "highway": "bus_stop", "public_transport": "platform"}}, {"type": "node", "id": 10992518094, "lat": 17.3249083, "lon": 78.5664619, "tags": {"amenity": "bus_station", "bus": "yes", "name": "TSRTC BUS STAND , N.G.O\"S COLONY", "public_transport": "station"}}, {"type": "node", "id": 10992544223, "lat": 17.3262276, "lon": 78.5934396, "tags": {"amenity": "bus_station", "bus": "yes", "name": "TSRTC BUS DEPOT , HAYATNAGR 1", "public_transport": "station"}}, {"type": "node", "id": 10992544224, "lat": 17.3250571, "lon": 78.5940827, "tags": {"amenity": "bus_station", "bus": "yes", "name": "TSRTC BUS DEPOT , HAYATNAGR 2", "public_transport": "station"}}, {"type": "node", "id": 11385065570, "lat": 17.3208011, "lon": 78.6137856, "tags": {"highway": "bus_stop", "name": "Word & Deed Colony"}}]}