{"version": 0.6, "generator": "Overpass API 0.7.62.8 e802775f", "osm3s": {"timestamp_osm_base": "2026-01-13T03:46:21Z", "copyright": "The data included in this document is from www.openstreetmap.org. The data is made available under ODbL."}, "elements": [{"type": "node", "id": 1504756065, "lat": 17.3688309, "lon": 78.5301893, "tags": {"amenity": "hospital", "healthcare": "hospital", "healthcare:speciality": "paediatrics", "name": "Lakshmi Childrens Hospital"}}, {"type": "node", "id": 1595794961, "lat": 17.3505362, "lon": 78.5563819}, {"type": "node", "id": 1595794963, "lat": 17.3525433, "lon": 78.5562478}, {"type": "node", "id": 1595794965, "lat": 17.3523795, "lon": 78.5560708}, {"type": "node", "id": 1595794967, "lat": 17.3524921, "lon": 78.5557114}, {"type": "node", "id": 1595794973, "lat": 17.3518316, "lon": 78.5572832}, {"type": "node", "id": 1595794974, "lat": 17.3514425, "lon": 78.5550623}, {"type": "node", "id": 1598149460, "lat": 17.3684777, "lon": 78.5387483, "tags": {"addr:district": "Hyderabad", "addr:full": "11-9-46, Sri Sai Shivani Complex, Opposite P.V.T Market, Kothapet 'X' Road, New Nagole Main Road, Dilsukhnagar, Laxmi Nagar Colony, Kothapet", "addr:postcode": "500060", "addr:state": "Telangana", "amenity": "hospital", "healthcare": "hospital", "healthcare:speciality": "multi speciality", "medical_system": "Allopathic", "name": "Omni Hospital", "operator:type": "private", "phone": "040 49871690;040 67369999", "source": "OpenGovernmentData", "website": "https://omnihospitals.in/"}}, {"type": "node", "id": 2217950153, "lat": 17.3594287, "lon": 78.5450683, "tags": {"addr:city": "Hyderabad", "addr:full": "H.No: 11-13-201/33, ROAD NO. 4, KOTHAPET, DILSUKHNAGAR, BESIDE CMR SHOPPING MALL, OPPOSITE WHITE HOUSE", "addr:postcode": "500065", "addr:state": "Telangana", "amenity": "hospital", "contact:phone": "4030108108", "name": "OZONE HOSPITALS", "operator:type": "private", "source": "OpenGovernmentData"}}, {"type": "node", "id": 2706889270, "lat": 17.3645563, "lon": 78.5334923}, {"type": "node", "id": 2706889273, "lat": 17.3650319, "lon": 78.5335397}, {"type": "node", "id": 2706889276, "lat": 17.3650343, "lon": 78.5336571}, {"type": "node", "id": 2706889279, "lat": 17.3653157, "lon": 78.5337596}, {"type": "node", "id": 2706889282, "lat": 17.3647903, "lon": 78.534709}, {"type": "node", "id": 2706889285, "lat": 17.364488, "lon": 78.5346782}, {"type": "node", "id": 3200948738, "lat": 17.345698, "lon": 78.549763, "tags": {"amenity": "hospital", "healthcare": "hospital", "name": "Healthcare Hospitals"}}, {"type": "node", "id": 3200948976, "lat": 17.3348812, "lon": 78.5372101, "tags": {"amenity": "hospital", "healthcare": "hospital"}}, {"type": "node", "id": 3384203436, "lat": 17.3526774, "lon": 78.5542584, "tags": {"amenity": "hospital", "name": "hospital"}}, {"type": "node", "id": 3512164352, "lat": 17.3424972, "lon": 78.5082561}, {"type": "node", "id": 3512164353, "lat": 17.3417993, "lon": 78.5079716}, {"type": "node", "id": 3512164354, "lat": 17.341866, "lon": 78.5075736}, {"type": "node", "id": 3512164355, "lat": 17.3418343, "lon": 78.5073185}, {"type": "node", "id": 3512164357, "lat": 17.3417357, "lon": 78.5065391}, {"type": "node", "id": 3512164358, "lat": 17.3429869, "lon": 78.5066809}, {"type": "node", "id": 3624411424, "lat": 17.3555144, "lon": 78.5216035}, {"type": "node", "id": 3624411425, "lat": 17.3555153, "lon": 78.521517}, {"type": "node", "id": 3624411435, "lat": 17.3556313, "lon": 78.5216049}, {"type": "node", "id": 3624411436, "lat": 17.3556323, "lon": 78.5215184}, {"type": "node", "id": 3625132960, "lat": 17.355383, "lon": 78.5659429}, {"type": "node", "id": 3625132964, "lat": 17.3553978, "lon": 78.5658441}, {"type": "node", "id": 3625132977, "lat": 17.3554645, "lon": 78.565855}, {"type": "node", "id": 3625132980, "lat": 17.3554733, "lon": 78.5657964}, {"type": "node", "id": 3625132992, "lat": 17.3555354, "lon": 78.565983}, {"type": "node", "id": 3625133193, "lat": 17.3555376, "lon": 78.5659682}, {"type": "node", "id": 3625133214, "lat": 17.3556445, "lon": 78.5660009}, {"type": "node", "id": 3625133218, "lat": 17.3556702, "lon": 78.5658288}, {"type": "node", "id": 3689001544, "lat": 17.3405991, "lon": 78.5065084}, {"type": "node", "id": 3689001545, "lat": 17.3406815, "lon": 78.5071887}, {"type": "node", "id": 3689001547, "lat": 17.3406119, "lon": 78.5067831}, {"type": "node", "id": 3689001548, "lat": 17.340636, "lon": 78.5062474}, {"type": "node", "id": 3689001549, "lat": 17.3406481, "lon": 78.5065059}, {"type": "node", "id": 3689001550, "lat": 17.3406625, "lon": 78.5067805}, {"type": "node", "id": 3689001562, "lat": 17.3410145, "lon": 78.5062244}, {"type": "node", "id": 3689001563, "lat": 17.341017, "lon": 78.5064011}, {"type": "node", "id": 3689001564, "lat": 17.3410176, "lon": 78.5062903}, {"type": "node", "id": 3689001565, "lat": 17.3410232, "lon": 78.5065358}, {"type": "node", "id": 3689001566, "lat": 17.3410446, "lon": 78.5062889}, {"type": "node", "id": 3689001567, "lat": 17.3410636, "lon": 78.5068864}, {"type": "node", "id": 3689001568, "lat": 17.3410497, "lon": 78.5063994}, {"type": "node", "id": 3689001569, "lat": 17.341077, "lon": 78.5071741}, {"type": "node", "id": 3689001570, "lat": 17.3410781, "lon": 78.5068856}, {"type": "node", "id": 3689001571, "lat": 17.3410796, "lon": 78.5072818}, {"type": "node", "id": 3689001572, "lat": 17.3410803, "lon": 78.5069318}, {"type": "node", "id": 3689001573, "lat": 17.3410826, "lon": 78.5073469}, {"type": "node", "id": 3689001574, "lat": 17.3411012, "lon": 78.5071729}, {"type": "node", "id": 3689001575, "lat": 17.3411062, "lon": 78.5072805}, {"type": "node", "id": 3689001576, "lat": 17.3412267, "lon": 78.5065254}, {"type": "node", "id": 3689001577, "lat": 17.3412453, "lon": 78.5069234}, {"type": "node", "id": 3689001595, "lat": 17.3429703, "lon": 78.5067351}, {"type": "node", "id": 4517094891, "lat": 17.3451071, "lon": 78.5537805, "tags": {"addr:district": "Hyderabad", "addr:full": "3-8-264&264/1&3, Opp VIJAYA LAXMI THEATRE, CHANDRAPURI COLONY, L.B NAGAR", "addr:postcode": "500074", "addr:state": "Telangana", "addr:street": "LB Nagar Junction", "amenity": "hospital", "emergency_telephone_code": "9966108108", "fax": "040 24114111", "health_facility:type": "ICU;Operation Theatres;Nuclear Medicine;Radiology;Pathology;Ambulance Service;Emergency Service", "healthcare": "hospital", "healthcare:speciality": "Cardiology;Neurology;Orthopedics;Gastroenterology;Hematology;Hematology;Joint Replacement;NeuroSurgery;ENT;Nephrology;Endocrinology;Cancer;Urology", "medical_system": "Allopathic", "name": "Shresta Orange Hospitals", "name:en": "Shresta Orange Hospitals", "name:te": "\u0c36\u0c4d\u0c30\u0c47\u0c37\u0c4d\u0c1f \u0c06\u0c30\u0c46\u0c02\u0c1c\u0c4d \u0c39\u0c3e\u0c38\u0c4d\u0c2a\u0c3f\u0c1f\u0c32\u0c4d\u0c38\u0c4d", "operator:type": "private", "phone": "040 24113111", "source": "OpenGovernmentData", "website": "http://orangehospitals.net"}}, {"type": "node", "id": 4576289992, "lat": 17.3412305, "lon": 78.5581563, "tags": {"addr:district": "Hyderabad", "addr:full": "Chintalkunta Checkpost, opp:bharath petrol pump, L.B.Nagar", "addr:postcode": "500074", "addr:state": "Telangana", "addr:street": "chinthalkunta Singal", "amenity": "hospital", "contact:phone": "04024026244;9246446244", "email": "ammaeyecarehospital@gmail.com", "healthcare": "hospital", "name": "AMMA EYE CARE HOSPITAL", "name:te": "\u0c05\u0c2e\u0c4d\u0c2e \u0c15\u0c02\u0c1f\u0c3f \u0c15\u0c47\u0c30\u0c4d \u0c39\u0c3e\u0c38\u0c4d\u0c2a\u0c3f\u0c1f\u0c32\u0c4d", "operator:type": "private", "source": "OpenGovernmentData", "website": "http://ammaeyecarehospital.com/"}}, {"type": "node", "id": 4576325189, "lat": 17.3416722, "lon": 78.5576405, "tags": {"amenity": "hospital", "healthcare": "hospital", "name": "OXYGEN AND Medicity Hospital", "name:en": "OXYGEN AND Medicity Hospital", "name:te": "\u0c06\u0c15\u0c4d\u0c38\u0c3f\u0c1c\u0c28\u0c4d \u0c05\u0c02\u0c21\u0c4d \u0c2e\u0c46\u0c21\u0c3f\u0c38\u0c3f\u0c1f\u0c40 \u0c39\u0c3e\u0c38\u0c4d\u0c2a\u0c3f\u0c1f\u0c32\u0c4d"}}, {"type": "node", "id": 4625163789, "lat": 17.3418162, "lon": 78.5588085, "tags": {"addr:street": "Chinthalkunta old check post", "amenity": "hospital", "healthcare": "hospital", "name": "Rainbow children Hospital", "name:en": "Rainbow children Hospital", "name:te": "\u0c30\u0c47\u0c28\u0c4d\u200c\u0c2c\u0c4b \u0c1a\u0c3f\u0c32\u0c4d\u0c21\u0c4d\u0c30\u0c28\u0c4d \u0c39\u0c3e\u0c38\u0c4d\u0c2a\u0c3f\u0c1f\u0c32\u0c4d"}}, {"type": "node", "id": 4711614465, "lat": 17.3289104, "lon": 78.563899, "tags": {"addr:block": "Hayatnagar", "addr:district": "Hyderabad", "addr:full": "Near Red Tank, Vanasthalipuram", "addr:postcode": "500070", "addr:state": "Telangana", "addr:street": "NGO's Colony", "addr:subdistrict": "Hayathnagar", "amenity": "hospital", "name": "Area Hospital, Vanasthalipuram", "source": "OpenGovernmentData"}}, {"type": "node", "id": 5636923030, "lat": 17.3136981, "lon": 78.5087313, "tags": {"amenity": "hospital", "name": "OM Sai Hospital"}}, {"type": "node", "id": 5637353960, "lat": 17.3506727, "lon": 78.5078608, "tags": {"addr:district": "Hyderabad", "addr:full": "Door No. 17-1-380/E/28 & 32, C. E. Colony, Saidabad, Santosh Nagar", "addr:postcode": "500059", "addr:state": "Telangana", "amenity": "hospital", "medical_system": "Allopathic", "name": "Sri Srinivasa Hospital", "operator:type": "private", "phone": "040 24530557", "source": "OpenGovernmentData", "website": "http://www.srisrinivasahospital.com"}}, {"type": "node", "id": 6372428649, "lat": 17.3709786, "lon": 78.5425682, "tags": {"addr:city": "Hyderabad", "addr:full": "Plot No:10 B& C, ROAD NO. 2 B, LAXMI NAGAR COLONY, KOTHAPET", "addr:postcode": "500035", "addr:state": "Telangana", "amenity": "hospital", "healthcare": "hospital", "healthcare:speciality": "gynaecology", "name": "sri sai womens hospital", "operator:type": "private", "phone": "+91 40 24050020", "source": "OpenGovernmentData"}}, {"type": "node", "id": 6375038698, "lat": 17.3703144, "lon": 78.5276104, "tags": {"addr:district": "Hyderabad", "addr:full": "4-85/3, Vikas Nagar, Lane Beside Rajadhani Theatre, Dilsukhnagar", "addr:postcode": "500060", "addr:state": "Telangana", "amenity": "hospital", "healthcare": "hospital", "name": "Siva Eye Hospital", "source": "OpenGovernmentData"}}, {"type": "node", "id": 6400644686, "lat": 17.3682666, "lon": 78.5135597, "tags": {"amenity": "hospital", "healthcare": "hospital"}}, {"type": "node", "id": 6477199878, "lat": 17.3455423, "lon": 78.5226305, "tags": {"addr:district": "Hyderabad", "addr:full": "Plot Number 15, 17-1-382/R/15, A.P.S.R.T.C. Officers Colony, Santosh Nagar, Saidabad", "addr:postcode": "500059", "addr:state": "Telangana", "amenity": "hospital", "health_facility:type": "Separate Divisions for Each Speciality; State Of The Art Operation Theatres; Post Op Lounge with Beds; Advanced Eye Care Equipment; Complete Range of Optical Frames and Lenses; Exclusive Childrens Eye Care; 24 7 Pharmacy; Ambulance Services", "healthcare:speciality": "Cataract Services; Refractive Surgery; Cornea Services; Glaucoma Services; Retina Services; Paediatric Ophthalmology and Squint Services; Oculoplasty Services; UVEITIS; Neuro Ophthalmology; Vision Rehabilitation Services; Computer Vision Syndrome Clinic", "medical_system": "Allopathic", "name": "Vasan Eye Care Hospital", "operator:type": "private", "phone": "040 33782700", "source": "OpenGovernmentData", "website": "https://vasaneye.com/"}}, {"type": "node", "id": 6480023416, "lat": 17.3503945, "lon": 78.5105337, "tags": {"addr:district": "Hyderabad", "addr:full": "Beside Bharath Gardens, Sagar Road, Champapet", "addr:postcode": "500059", "addr:state": "Telangana", "amenity": "hospital", "fax": "040-24530960", "healthcare": "hospital", "name": "Ankith Multi Speciality Hospital", "source": "OpenGovernmentData"}}, {"type": "node", "id": 6482035085, "lat": 17.3525175, "lon": 78.5551161, "tags": {"addr:district": "Hyderabad", "addr:full": "3-11-142/N, DVN Complex, Opposite to Kamineni Hospital, RTC Colony, LB Nagar", "addr:postcode": "500074", "addr:state": "Telangana", "amenity": "hospital", "medical_system": "Allopathic", "name": "Disha Children's Hospital", "operator:type": "private", "phone": "040 24038488", "source": "OpenGovernmentData", "website": "http://dishachildrenshospital.blogspot.in/"}}, {"type": "node", "id": 6482123642, "lat": 17.3676358, "lon": 78.5404511, "tags": {"addr:district": "Hyderabad", "addr:full": "11-9-1, Vimal Complex, Opposite Kothapet Bus Stop, Dilsukhnagar", "addr:postcode": "500035", "addr:state": "Telangana", "amenity": "hospital", "contact:tollfree": "1800 1033 363", "fax": "040 40045671", "health_facility:type": "Optical Dispensing Showroom;Pharmacy;Laboratory Services", "healthcare": "hospital", "healthcare:speciality": "Glaucoma Services;Retina Services;Oculoplasty Services;Strabismus and Neurophthalmology Services;Cornea Services;Contact Lens Clinic;Low Visual Aid Clinic", "medical_system": "Allopathic", "name": "Sree Netralaya Eye Hospital and Laser Centre", "operator:type": "private", "phone": "040 40045670", "source": "OpenGovernmentData", "website": "https://sreenetralaya.org/"}}, {"type": "node", "id": 6482139683, "lat": 17.344919, "lon": 78.5087555, "tags": {"addr:district": "Hyderabad", "addr:full": "7-99, Near Yadagiri Theatre, New Santosh Nagar", "addr:postcode": "500059", "addr:state": "Telangana", "amenity": "hospital", "healthcare": "hospital", "name": "Sridhar Multi Speciality Hospital", "source": "OpenGovernmentData"}}, {"type": "node", "id": 6484775841, "lat": 17.3452764, "lon": 78.5282483, "tags": {"addr:district": "Hyderabad", "addr:full": "8-8-112/1, Sriram Nagar Colony, Nagarjuna Sagar Road, Near Karmanghat 'X' Roads", "addr:postcode": "500035", "addr:state": "Telangana", "amenity": "hospital", "healthcare": "hospital", "name": "Kiran Hospital", "source": "OpenGovernmentData"}}, {"type": "node", "id": 6484947325, "lat": 17.3534936, "lon": 78.5068591, "tags": {"addr:district": "Hyderabad", "addr:full": "17-1-388/C/19&20, Vinay Nagar Colony, Saidabad", "addr:postcode": "500059", "addr:state": "Telangana", "amenity": "hospital", "healthcare": "hospital", "name": "Ratna Maternity and Nursing Home", "source": "OpenGovernmentData"}}, {"type": "node", "id": 6485500890, "lat": 17.3403283, "lon": 78.5495599, "tags": {"addr:district": "Hyderabad", "addr:full": "L.B. Nagar Road, Near sri nilayam function hall", "addr:postcode": "500074", "addr:state": "Telangana", "amenity": "hospital", "name": "Medicare Hospital", "source": "OpenGovernmentData"}}, {"type": "node", "id": 6485621541, "lat": 17.3598544, "lon": 78.504485, "tags": {"addr:district": "Hyderabad", "addr:full": "17-2-549, Saidabad", "addr:postcode": "500059", "addr:state": "Telangana", "amenity": "hospital", "name": "Vivek Hospital", "source": "OpenGovernmentData"}}, {"type": "node", "id": 6487288564, "lat": 17.345958, "lon": 78.5399126, "tags": {"addr:district": "Hyderabad", "addr:full": "Bairamlguda, Nagarjune Sagar Road;Ground Floor(North Block), Room No. 702 to 710, D.No: 08-16-01, Sowbhagya Nagar, Sagar Road, Saroor Nagar", "addr:postcode": "500035", "addr:state": "Telangana", "amenity": "hospital", "fax": "24031184; 24030077", "healthcare": "blood_bank", "healthcare:speciality": "multi specialty", "medical_system": "Allopathic", "name": "Aware gleneagles Global Hospital;Aware Gleneagles Global Hospital's Blood Bank", "operator:type": "private", "phone": "040 24111111;04024111111, Extn: 787", "source": "OpenGovernmentData", "website": "http://www.globalhospitalsindia.com/"}}, {"type": "node", "id": 6487635185, "lat": 17.3682886, "lon": 78.5220303, "tags": {"addr:city": "Hyderabad", "addr:district": "Hyderabad", "addr:full": "H.No: 16-11-739/1 & 2, Kamala Complex, Dilsukhnagar", "addr:postcode": "500060", "addr:state": "Telangana", "alt_name": "KAMALA HOSPITAL", "amenity": "hospital", "contact:phone": "04024152266 ; 24152277 ; 24150698;3753053", "healthcare": "hospital", "name": "SRESHTA SRI KAMALA HOSPITALS", "operator:type": "private", "source": "OpenGovernmentData"}}, {"type": "node", "id": 6487677480, "lat": 17.3695416, "lon": 78.5213698, "tags": {"addr:district": "Hyderabad", "addr:full": "Near Andhra Bank ATM,Indira Nagar,Dilsukhnagar", "addr:postcode": "500036", "addr:state": "Telangana", "amenity": "hospital", "healthcare": "hospital", "name": "Shashi Hospital", "source": "OpenGovernmentData"}}, {"type": "node", "id": 6490016089, "lat": 17.373217, "lon": 78.5032857, "tags": {"addr:district": "Hyderabad", "addr:full": "H.No.16-2-701/51/1, Opposite Mahboob Mansion, Malakpet", "addr:postcode": "500036", "addr:state": "Telangana", "amenity": "hospital", "fax": "24540258", "healthcare": "hospital", "name": "Susrutha Hospital", "source": "OpenGovernmentData"}}, {"type": "node", "id": 6490864509, "lat": 17.3646867, "lon": 78.5441633, "tags": {"addr:district": "Hyderabad", "addr:full": "1-13-1383, Road No. 1, Margadarsi Colony, R.K. Puram", "addr:postcode": "500035", "addr:state": "Telangana", "amenity": "hospital", "fixme": "Please verify the accurate position of the hospital as I have mapped the facility based on the address provided in Open Government data", "name": "Sri Srinivasa Nursing Home", "source": "OpenGovernmentData"}}, {"type": "node", "id": 6494269592, "lat": 17.3512003, "lon": 78.5094488, "tags": {"addr:district": "Hyderabad", "addr:full": "H. No. 17-1-383/N S/3&4, Shantosh Nagar 'X' Roads, Opp. Amber Biscuit Factory, Nagarjuna Sagar Road", "addr:postcode": "500059", "addr:state": "Telangana", "amenity": "hospital", "healthcare": "hospital", "name": "Nightingale Hospital", "phone": "040 24530085; +91 9989030085", "source": "OpenGovernmentData", "website": "www.nightingalehospitals.in"}}, {"type": "node", "id": 6494458034, "lat": 17.3608928, "lon": 78.5432218, "tags": {"addr:district": "Hyderabad", "addr:full": "Plot No. V\u20137, NH 9, Narsimhapuri Colony, Kothapet, Saroornagar", "addr:postcode": "500035", "addr:state": "Telangana", "amenity": "hospital", "contact:mobile": "09248019460;08897161525", "fax": "040 24039017", "health_facility:type": "Information Desk;OPD Counter;24x7 Laboratory;Spiral CT Scan;Diagnostic Services;Radiology;Laboratory Services and Transfusion Services;Physiotherapy;Dietery;Housekeeping;Pharmacy", "healthcare:speciality": "multi specility", "medical_system": "Allopathic", "name": "Sai Sanjeevini Hospital", "operator:type": "private", "phone": "040 24039012;040 24039013;040 24039014;040 24039015;040 24039016", "source": "OpenGovernmentData", "website": "www.saisanjeevinihospitals.com"}}, {"type": "node", "id": 6495284151, "lat": 17.3393852, "lon": 78.5572883, "tags": {"addr:district": "Hyderabad", "addr:full": "Plot No 92, Jahangir Nagar Colony, Chintalkunta Check Post, L B Nagar", "addr:postcode": "500070", "addr:state": "Telangana", "amenity": "hospital", "name": "Sai Sharan Hospital", "source": "OpenGovernmentData"}}, {"type": "node", "id": 6495375554, "lat": 17.3601882, "lon": 78.5047261, "tags": {"addr:district": "Hyderabad", "addr:full": "Near Saidabad Bus Stop, Saidabad Main Road", "addr:postcode": "500059", "addr:state": "Telangana", "amenity": "hospital", "name": "Sai Nursing Home", "source": "OpenGovernmentData"}}, {"type": "node", "id": 6496877818, "lat": 17.3446309, "lon": 78.5546158, "tags": {"addr:district": "Hyderabad", "addr:full": "Road No.4, Chandrapuri Colony, Opp. Vijaya Laxmi Theatre, L.B Nagar", "addr:postcode": "500074", "addr:state": "Telangana", "amenity": "hospital", "healthcare": "hospital", "healthcare:speciality": "Maternity;Medical;Surgical", "name": "Aruna Hospital", "name:te": "\u0c05\u0c30\u0c41\u0c23 \u0c39\u0c3e\u0c38\u0c4d\u0c2a\u0c3f\u0c1f\u0c32\u0c4d", "source": "OpenGovernmentData"}}, {"type": "node", "id": 6497172349, "lat": 17.3692242, "lon": 78.5189867, "tags": {"addr:district": "Hyderabad", "addr:full": "No. 16-11-741/10/G/1, Moosarambagh, Saidabad Mandal, Dilsukh Nagar", "addr:postcode": "500060", "addr:state": "Telangana", "amenity": "hospital", "fax": "040 27760225", "healthcare": "hospital", "medical_system": "Allopathic", "name": "Vasan Healthcare", "name:te": "\u0c35\u0c3e\u0c38\u0c28\u0c4d \u0c39\u0c46\u0c32\u0c4d\u0c24\u0c4d \u0c15\u0c47\u0c30\u0c4d", "operator:type": "private", "phone": "040 30141200", "source": "OpenGovernmentData", "website": "https://vasaneye.com/"}}, {"type": "node", "id": 6497571978, "lat": 17.3688485, "lon": 78.5343739, "tags": {"addr:district": "Hyderabad", "addr:full": "2-41/5, Prabhath Nagar Colony, Chaitanyapuri", "addr:postcode": "500060", "addr:state": "Telangana", "amenity": "hospital", "fax": "040 24054116", "healthcare": "hospital", "name": "Oarchid Hospital", "source": "OpenGovernmentData"}}, {"type": "node", "id": 6497577133, "lat": 17.3446513, "lon": 78.5167946, "tags": {"addr:district": "Hyderabad", "addr:full": "Near Karmanghat 'X' Road, Sagar Road", "addr:postcode": "500079", "addr:state": "Telangana", "amenity": "hospital", "fax": "040-24072910", "fixme": "Please verify the accurate position of the hospital as I have mapped the facility based on the address provided in Open Government data", "healthcare": "hospital", "name": "Sri Venkateswara Multi Speciality Hospital", "source": "OpenGovernmentData"}}, {"type": "node", "id": 6497913444, "lat": 17.3682105, "lon": 78.5203962, "tags": {"addr:district": "Rangareddy", "addr:full": "Gaddi Annaram Cross Road, Dilsukh Nagar", "addr:postcode": "500060", "addr:state": "Telangana", "amenity": "hospital", "healthcare": "hospital", "name": "Nikhil Hospital", "name:te": "\u0c28\u0c3f\u0c16\u0c3f\u0c32\u0c4d \u0c39\u0c3e\u0c38\u0c4d\u0c2a\u0c3f\u0c1f\u0c32\u0c4d", "source": "OpenGovernmentData"}}, {"type": "node", "id": 6503145065, "lat": 17.3709739, "lon": 78.5147515, "tags": {"addr:district": "Hyderabad", "addr:full": "#16-11-310/8/B, MOOSARAMBAGH, MALAKPET, HYDERABAD", "addr:postcode": "500036", "addr:state": "Telangana", "amenity": "hospital", "email": "INFO@HEGDEHOSPITAL.COM", "healthcare": "hospital", "name": "Hedge Maternity and Nursing Home", "phone": "8880 74 74 74", "source": "OpenGovernmentData", "website": "HTTP://HEGDEHOSPITAL.COM/"}}, {"type": "node", "id": 6503195186, "lat": 17.3502416, "lon": 78.5121296, "tags": {"addr:district": "Hyderabad", "addr:full": "Opposite Rose Garden, Sagar Road, Santosh Nagar", "addr:postcode": "500059", "addr:state": "Telangana", "amenity": "hospital", "healthcare": "hospital", "name": "Sunita Children's Hospital", "source": "OpenGovernmentData"}}, {"type": "node", "id": 6503302425, "lat": 17.3674854, "lon": 78.5358477, "tags": {"addr:district": "Hyderabad", "addr:full": "Opposite Kothapet Fruit Market, Near Miraj Cinemas, Krishna Veni Nagar Colony, Kothapet, Sri Sai Shivani Complex, HUDA Complex, Saroornagar.", "addr:postcode": "500035", "addr:state": "Telangana", "amenity": "hospital", "fax": "040 65126514", "healthcare": "hospital", "name": "Induss Hospitals", "source": "OpenGovernmentData"}}, {"type": "node", "id": 6503794648, "lat": 17.3453352, "lon": 78.5492826, "tags": {"addr:district": "Hyderabad", "addr:full": "3-2-394, Near LB Nagar Circle, Towards Sagar Ring Road, L B Nagar", "addr:postcode": "500074", "addr:state": "Telangana", "amenity": "hospital", "healthcare": "hospital", "name": "Health Care Hospitals", "source": "OpenGovernmentData"}}, {"type": "node", "id": 6505207797, "lat": 17.3727325, "lon": 78.509658, "tags": {"addr:district": "Hyderabad", "addr:full": "16-11-16-45/B, Beside HDFC Bank, Saleemnagar Colony, Malakpet", "addr:postcode": "500036", "addr:state": "Telangana", "amenity": "hospital", "contact:mobile": "9849018333", "contact:phone": "040 24546057; 040 66789424", "healthcare": "hospital", "name": "K.G.H The Family Hospital", "source": "OpenGovernmentData"}}, {"type": "node", "id": 6505329556, "lat": 17.3398185, "lon": 78.5575941, "tags": {"addr:district": "Hyderabad", "addr:full": "Opp. Shabnam Petrol Bunk, Bharat Gas Lane,Jahangir Nagar, Chinthalkunta Check Post, LB Nagar", "addr:postcode": "500074", "addr:state": "Telangana", "amenity": "hospital", "name": "Raksha Multi Speciality Hospital", "source": "OpenGovernmentData"}}, {"type": "node", "id": 6505370525, "lat": 17.3724317, "lon": 78.5077295, "tags": {"addr:district": "Hyderabad", "addr:full": "16-2-705/9/12/A-F, Beside Hanuman Temple, opp Reliance Trends, New Malakpet Ganj", "addr:postcode": "500036", "addr:state": "Telangana", "amenity": "hospital", "healthcare": "hospital", "name": "Spark Eye Care Hospital", "phone": "040 24542000", "source": "OpenGovernmentData", "website": "https://www.sparkhealth.in/"}}, {"type": "node", "id": 6505386986, "lat": 17.3719492, "lon": 78.5358806, "tags": {"addr:district": "Hyderabad", "addr:full": "1-54, Lane Beside Food World, Chaitanyapuri", "addr:postcode": "500060", "addr:state": "Telangana", "amenity": "hospital", "name": "Ganga Orthopaedic and Maternity Hospital", "source": "OpenGovernmentData"}}, {"type": "node", "id": 6505499664, "lat": 17.3689017, "lon": 78.5168678, "tags": {"addr:district": "Hyderabad", "addr:full": "H.No. 16-2-741 / 2, A.B. Colony, Asmangadh, Malakpet", "addr:postcode": "500036", "addr:state": "Telangana", "amenity": "hospital", "healthcare": "hospital", "name": "Midas ENT Head and Neck Super Speciality Hospital", "source": "OpenGovernmentData"}}, {"type": "node", "id": 6507837294, "lat": 17.3403386, "lon": 78.5072333, "tags": {"addr:district": "Hyderabad", "addr:full": "P.O. Kanchanbagh, DMRL \u2018X\u2019 Road , Santhosh Nagar", "addr:postcode": "500058", "addr:state": "Telangana", "amenity": "hospital", "contact:email": "principal@deccancollegeofmedicalsciences.com", "contact:phone": "040-24340225; 040-24340547", "healthcare": "hospital", "name": "Deccan College Of Medical Sciences", "source": "OpenGovernmentData", "website": "https://www.deccancollegeofmedicalsciences.com/"}}, {"type": "node", "id": 6510205415, "lat": 17.3676268, "lon": 78.5508728, "tags": {"addr:district": "Hyderabad", "addr:full": "Road No. 5, Ramakrishnapuram, Kothapet", "addr:postcode": "500035", "addr:state": "Telangana", "amenity": "hospital", "name": "Hyma Children's Hospital", "source": "OpenGovernmentData"}}, {"type": "node", "id": 6511165512, "lat": 17.345084, "lon": 78.5288881, "tags": {"addr:district": "Hyderabad", "addr:full": "Plot No. 63, Opp. Andhra Bank, Near Megha Function Hall, Karmanghat", "addr:postcode": "500079", "addr:state": "Telangana", "amenity": "hospital", "healthcare": "hospital", "name": "Krishna Sai Multispeciality Hospital", "source": "OpenGovernmentData"}}, {"type": "node", "id": 6512969319, "lat": 17.3497321, "lon": 78.5151807, "tags": {"addr:district": "Hyderabad", "addr:full": "9-9-100, Reddy Colony, Champapet", "addr:postcode": "500059", "addr:state": "Telangana", "amenity": "hospital", "healthcare": "hospital", "name": "Maruthi Hospital", "source": "OpenGovernmentData"}}, {"type": "node", "id": 6513085407, "lat": 17.3512682, "lon": 78.5092865, "tags": {"addr:district": "Hyderabad", "addr:full": "17-1-383/S/1, Vinay Nagar, Sagar Road, Santoshnagar", "addr:postcode": "500059", "addr:state": "Telangana", "amenity": "hospital", "healthcare": "hospital", "name": "Himabindu Multi Speciality Hospital", "source": "OpenGovernmentData"}}, {"type": "node", "id": 6528257924, "lat": 17.3473217, "lon": 78.5195889, "tags": {"addr:district": "Hyderabad", "addr:full": "17-1-382/B/3&4, Bhanu Nagar, Opposite Indo American School, Champapet Road", "addr:postcode": "500079", "addr:state": "Telangana", "amenity": "hospital", "fax": "24079966", "healthcare": "hospital", "name": "Focus Hospital", "source": "OpenGovernmentData"}}, {"type": "node", "id": 6528552348, "lat": 17.370156, "lon": 78.5320289, "tags": {"addr:district": "Hyderabad", "addr:full": "1-7-90, Chaitanyapuri", "addr:postcode": "500060", "addr:state": "Telangana", "amenity": "hospital", "healthcare": "hospital", "name": "Geeta Multispeciality Hospital", "source": "OpenGovernmentData"}}, {"type": "node", "id": 6528554861, "lat": 17.3210258, "lon": 78.5201099, "tags": {"addr:district": "Ranga Reddy", "addr:full": "H No: 6-156 ,Slns Colony, Balapur Cross Roads, Near Sairaghavendra Bakers", "addr:postcode": "500079", "addr:state": "Telangana", "amenity": "hospital", "fax": "0841 5240393", "name": "SV Multispeciality Hospital", "source": "OpenGovernmentData"}}, {"type": "node", "id": 6528602779, "lat": 17.3320827, "lon": 78.5732733, "tags": {"addr:district": "Hyderabad", "addr:full": "C-84, Near SBI, Vanasthalipuram", "addr:postcode": "500070", "addr:state": "Telangana", "amenity": "hospital", "healthcare": "hospital", "name": "Lakshmi Health Care Hospital", "source": "OpenGovernmentData"}}, {"type": "node", "id": 6528604456, "lat": 17.3617057, "lon": 78.5620603, "tags": {"addr:district": "Hyderabad", "addr:full": "Plot No. 60-61, Rock Town Colony, L.B Nagar", "addr:postcode": "500068", "addr:state": "Telangana", "amenity": "hospital", "name": "Sri Sai Balaji Hospital", "source": "OpenGovernmentData"}}, {"type": "node", "id": 6528632311, "lat": 17.3700395, "lon": 78.5278568, "tags": {"addr:district": "Hyderabad", "addr:full": "Near Ganesh Function Hall, Beside Rajadhani Theatre Lane, Vikas Nagar", "addr:postcode": "500060", "addr:state": "Telangana", "amenity": "hospital", "healthcare": "hospital", "healthcare:speciality": "orthopaedics", "name": "Abinav Orthopedic Hospital", "source": "OpenGovernmentData"}}, {"type": "node", "id": 6531656648, "lat": 17.3208562, "lon": 78.5613281, "tags": {"addr:district": "Hyderabad", "addr:full": "Near B.N. Reddy Nagar Bus Stand", "addr:postcode": "500070", "addr:state": "Telangana", "amenity": "hospital", "name": "Jaya Hospital", "source": "OpenGovernmentData"}}, {"type": "node", "id": 6531706878, "lat": 17.331248, "lon": 78.5882561, "tags": {"addr:district": "Hyderabad", "addr:full": "Shivalayam Temple Road, Vanasthalipuram, Hayathnagar", "addr:postcode": "500070", "addr:state": "Telangana", "amenity": "hospital", "healthcare": "hospital", "name": "Bhagyalatha Hospital", "source": "OpenGovernmentData"}}, {"type": "node", "id": 6531743149, "lat": 17.3309842, "lon": 78.5780563, "tags": {"addr:district": "Hyderabad", "addr:full": "Plot No.22, Kamla Nagar, Behind Sampoorna Theatre, Vanasthalipuram", "addr:postcode": "500070", "addr:state": "Telangana", "amenity": "hospital", "healthcare": "hospital", "name": "Anusha Maternity and Nursing Home", "source": "OpenGovernmentData"}}, {"type": "node", "id": 6531745861, "lat": 17.369612, "lon": 78.5302386, "tags": {"addr:district": "Hyderabad", "addr:full": "Pochamma Temple Lane, Near Chaitanyapuri Bridge, Dilsukhnagar", "addr:postcode": "500060", "addr:state": "Telangana", "amenity": "hospital", "fax": "040 24041789", "healthcare": "hospital", "healthcare:speciality": "paediatrics", "name": "Lakshmi Children's Hospital", "source": "OpenGovernmentData"}}, {"type": "node", "id": 6531874857, "lat": 17.3692696, "lon": 78.5346776, "tags": {"addr:district": "Hyderabad", "addr:full": "Beside Fruit Market Road, Prabath Nagar, Chaitanyapuri, Dilsukhnagar", "addr:postcode": "500060", "addr:state": "Telangana", "amenity": "hospital", "contact:email": "info@gbrfertility.com", "contact:mobile": "+91 9248009789", "healthcare": "hospital", "name": "G.B.R. Hospital", "opening_hours": "Mo-Sa 08:00-17:00", "source": "OpenGovernmentData", "website": "https://www.gbrfertility.com"}}, {"type": "node", "id": 6531924300, "lat": 17.3369064, "lon": 78.5699487, "tags": {"addr:district": "Hyderabad", "addr:full": "H.No: 5-5-148/1, Plot No:3, Vanasthali Hills, Near Panama Godowns, Vanasthalipuram,Opposite Narayana Junior College", "addr:postcode": "500070", "addr:state": "Telangana", "amenity": "hospital", "healthcare": "hospital", "name": "Sri Mahalaxmi Eye Hospital", "source": "OpenGovernmentData"}}, {"type": "node", "id": 6531941189, "lat": 17.3362996, "lon": 78.5692929, "tags": {"addr:district": "Hyderabad", "addr:full": "Plot No. 357 & 358, Prashanth Nagar,Vanasthalipuram", "addr:postcode": "500070", "addr:state": "Telangana", "amenity": "hospital", "contact:email": "cmsh2000@gmail.com", "contact:phone": "9348989820", "healthcare": "hospital", "name": "Chaithanya Multi Speciality Hospital", "source": "OpenGovernmentData"}}, {"type": "node", "id": 6532116388, "lat": 17.3495087, "lon": 78.5128967, "tags": {"addr:district": "Hyderabad", "addr:full": "No: 9-6-1/2, Champapet, Sagar Road", "addr:postcode": "500079", "addr:state": "Telangana", "amenity": "hospital", "healthcare": "hospital", "name": "Sri Rohini Hospital", "source": "OpenGovernmentData"}}, {"type": "node", "id": 6532260599, "lat": 17.3696005, "lon": 78.5292421, "tags": {"addr:district": "Hyderabad", "addr:full": "H.No: 4-20/A, Near E Seva Lane, Vikas Nagar, Dilsukhnagar", "addr:postcode": "500060", "addr:state": "Telangana", "amenity": "hospital", "contact:phone": "040-24046464", "healthcare": "hospital", "name": "Manju Sudha Multispeciality Hospital", "source": "OpenGovernmentData"}}, {"type": "node", "id": 6532261279, "lat": 17.3295126, "lon": 78.5261227, "tags": {"addr:district": "Hyderabad", "addr:full": "H No:2-165/1, Jillelguda Main Road, Saroornagar (M), R.R", "addr:postcode": "500097", "addr:state": "Telangana", "amenity": "hospital", "healthcare:speciality": "Maternity; Medical; Surgical", "name": "Aruna Hospital", "source": "OpenGovernmentData"}}, {"type": "node", "id": 6532267718, "lat": 17.3444401, "lon": 78.529845, "tags": {"addr:district": "Ranga Reddy", "addr:full": "D.No. 10-1-80/1/2, Nagarjuna Sagar Main Road, Karmanghat", "addr:postcode": "500079", "addr:state": "Telangana", "amenity": "hospital", "fax": "040 30486761", "healthcare": "hospital", "name": "Sai Venkateshwara Hospital", "source": "OpenGovernmentData"}}, {"type": "node", "id": 6532274757, "lat": 17.3693752, "lon": 78.5209313, "tags": {"addr:district": "Hyderabad", "addr:full": "#16-11-741/C/1/15, Near Reliance Fresh, Dilsukhnagar", "addr:postcode": "500036", "addr:state": "Telangana", "amenity": "hospital", "contact:email": "info@tkrikonhospital.com", "contact:phone": "040-66443355; 040-24058833", "healthcare": "hospital", "name": "TKR's IKON Hospital", "source": "OpenGovernmentData", "website": "http://www.tkrikonhospital.com"}}, {"type": "node", "id": 6532277404, "lat": 17.3665529, "lon": 78.535367, "tags": {"addr:district": "Hyderabad", "addr:full": "Lane Opposite Fruit Market, Dilsukhnagar", "addr:postcode": "500060", "addr:state": "Telangana", "amenity": "hospital", "healthcare": "hospital", "name": "Sri JRD Hospital", "source": "OpenGovernmentData"}}, {"type": "node", "id": 6532315949, "lat": 17.3716433, "lon": 78.5340057, "tags": {"addr:district": "Hyderabad", "addr:full": "2-45/1, Behind HP Petrol Bunk, Chaitanyapuri, Dilsukhnagar", "addr:postcode": "500060", "addr:state": "Telangana", "amenity": "hospital", "fax": "040 24045950", "name": "Raghava Hospital", "source": "OpenGovernmentData"}}, {"type": "node", "id": 6532327359, "lat": 17.3681674, "lon": 78.5267378, "tags": {"addr:district": "Hyderabad", "addr:full": "Beside R.S Brothers, Dilshuknagar", "addr:postcode": "500060", "addr:state": "Telangana", "amenity": "hospital", "healthcare": "hospital", "name": "Harsha Neuro and General Hospital", "source": "OpenGovernmentData"}}, {"type": "node", "id": 6532327920, "lat": 17.347104, "lon": 78.5213564, "tags": {"addr:district": "Hyderabad", "addr:full": "17-1- 386/1/18, Kesava Nagar Colony, Champapet", "addr:postcode": "500079", "addr:state": "Telangana", "amenity": "hospital", "contact:phone": "040-24077655", "healthcare": "hospital", "name": "Padmaja Hospital", "source": "OpenGovernmentData"}}, {"type": "node", "id": 6532335482, "lat": 17.3689234, "lon": 78.5299851, "tags": {"addr:district": "Hyderabad", "addr:full": "2-127, Badam Complex, Beside Lakshmi Childrens Hospital", "addr:postcode": "500060", "addr:state": "Telangana", "amenity": "hospital", "healthcare": "hospital", "healthcare:speciality": "orthopaedics", "name": "Anurag Orthopedic and Multispecial Hospital", "source": "OpenGovernmentData"}}, {"type": "node", "id": 6532342640, "lat": 17.3334758, "lon": 78.531298, "tags": {"addr:district": "Ranga Reddy", "addr:full": "Gayatrinagar X Roads ,Kamanghat", "addr:postcode": "500079", "addr:state": "Telangana", "amenity": "hospital", "healthcare": "hospital", "name": "Krishna Hospital", "source": "OpenGovernmentData"}}, {"type": "node", "id": 6532347117, "lat": 17.3358644, "lon": 78.5747552, "tags": {"addr:district": "Hyderabad", "addr:full": "Near Sushma Centre Bus Stop, Vanasthalipuram", "addr:postcode": "500070", "addr:state": "Telangana", "amenity": "hospital", "fax": "040 24126996", "healthcare": "hospital", "name": "Rajya Lakshmi Hospital", "source": "OpenGovernmentData"}}, {"type": "node", "id": 6532348899, "lat": 17.36803, "lon": 78.5206215, "tags": {"addr:district": "Hyderabad", "addr:full": "16-11-740/3/14, P.No. 32, Near Narayana Junior College, Gaddi Annaram 'X' Roads, Dilsukhnagar", "addr:postcode": "500060", "addr:state": "Telangana", "amenity": "hospital", "fax": "040 66106660", "healthcare": "hospital", "name": "Sigma Hospitals", "name:te": "\u0c38\u0c3f\u0c17\u0c4d\u0c2e\u0c3e \u0c39\u0c3e\u0c38\u0c4d\u0c2a\u0c3f\u0c1f\u0c32\u0c4d\u0c38\u0c4d", "source": "OpenGovernmentData"}}, {"type": "node", "id": 6532378061, "lat": 17.3286133, "lon": 78.5685231, "tags": {"addr:district": "Hyderabad", "addr:full": "Plot No. C - 708, Opposite E-Seva, Beside, Red Water Tank, Vanasthalipuram", "addr:postcode": "500070", "addr:state": "Telangana", "amenity": "hospital", "fax": "040 24025966", "name": "Sri Ramadevi Orthopaedic Hospital", "source": "OpenGovernmentData"}}, {"type": "node", "id": 6532379590, "lat": 17.3694424, "lon": 78.5314201, "tags": {"addr:district": "Hyderabad", "addr:full": "D.No. 1-7-309, Hanuman Nagar, Opp Jagini's Foodland, Chaitanyapuri 'X' Roads, Dilsukhnagar", "addr:postcode": "500060", "addr:state": "Telangana", "amenity": "hospital", "healthcare": "hospital", "name": "Goodlife Hospitals", "source": "OpenGovernmentData"}}, {"type": "node", "id": 6537106287, "lat": 17.3389598, "lon": 78.5226278, "tags": {"addr:district": "Hyderabad", "addr:full": "9-2-11/1, Champapet 'X' Roads, Sagar Road", "addr:postcode": "500079", "addr:state": "Telangana", "amenity": "hospital", "healthcare": "hospital", "name": "Sri Sai Orthopaedic and Multi Speciality Hospital", "source": "OpenGovernmentData"}}, {"type": "node", "id": 6537138789, "lat": 17.3697132, "lon": 78.5319766, "tags": {"addr:district": "Hyderabad", "addr:full": "1-7-97, Khazana Jewellers Lane, Chaitanyapuri, Dilsukhnagar", "addr:postcode": "500060", "addr:state": "Telangana", "amenity": "hospital", "healthcare": "hospital", "name": "Swapna Hospital Private Limited", "source": "OpenGovernmentData"}}, {"type": "node", "id": 6537199550, "lat": 17.3597254, "lon": 78.5448767, "tags": {"addr:district": "Hyderabad", "addr:full": "Beside Karachi Bakery, Green Hills Colony, Kothapet Main Road", "addr:postcode": "500035", "addr:state": "Telangana", "amenity": "hospital", "contact:phone": "040 40 108 108", "fax": "040 24050239", "name": "Paramitha Children's Hospital", "source": "OpenGovernmentData"}}, {"type": "node", "id": 6537210759, "lat": 17.344506, "lon": 78.5296565, "tags": {"addr:district": "Hyderabad", "addr:full": "H No:10-1-80, V R R Complex, Kharmanghat", "addr:postcode": "500079", "addr:state": "Telangana", "amenity": "hospital", "healthcare": "hospital", "name": "Padmavathi Hospital", "source": "OpenGovernmentData"}}, {"type": "node", "id": 6537306558, "lat": 17.3740649, "lon": 78.5409902, "tags": {"addr:district": "Hyderabad", "addr:full": "1-5-22/3, Maruthi Nagar Bus Stop, Kothapet", "addr:postcode": "500060", "addr:state": "Telangana", "amenity": "hospital", "name": "Sai Nikith Speciality Hospital And Laproscopic Centre", "source": "OpenGovernmentData"}}, {"type": "node", "id": 6537308259, "lat": 17.3314886, "lon": 78.5721809, "tags": {"addr:district": "Hyderabad", "addr:full": "Plot no. 25 & 26, Ganesh Temple - SBI Complex Road, Opposite HUDA Open Auditorium, Vanasthalipuram", "addr:postcode": "500070", "addr:state": "Telangana", "amenity": "hospital", "contact:mobile": "+91 8801002678; +91 8099915566", "fax": "24023322", "name": "Jeevan Sai Hospitals", "source": "OpenGovernmentData"}}, {"type": "node", "id": 6538849589, "lat": 17.3707739, "lon": 78.5275, "tags": {"addr:district": "Hyderabad", "addr:full": "4-85/1, Lane Beside Rajadhani Theatre, Dilsukhnagar", "addr:postcode": "500060", "addr:state": "Telangana", "amenity": "hospital", "fixme": "Please verify the accurate position of the hospital as I have mapped the facility based on the address provided in Open Government data", "healthcare": "hospital", "name": "The Doctors Multi Speciality Hospital", "source": "OpenGovernmentData"}}, {"type": "node", "id": 6539071275, "lat": 17.3587987, "lon": 78.5237382, "tags": {"addr:district": "Hyderabad", "addr:full": "17-1-462/3, Shankeswara Bazar, Saroornagar", "addr:postcode": "500060", "addr:state": "Telangana", "amenity": "hospital", "name": "Medi Sight Eye Care centre", "phone": "9440204696", "source": "OpenGovernmentData"}}, {"type": "node", "id": 6547206093, "lat": 17.3411496, "lon": 78.557759, "tags": {"addr:city": "Hyderabad", "addr:district": "Rangareddy", "addr:full": "Plot no. 1-5, New Mallikarjuna Nagar, National Highway 65, Near Chintalakunta Check post, LB Nagar", "addr:postcode": "500074", "addr:state": "Telangana", "amenity": "hospital", "email": "info@medisyshospitals.com", "fax": "27840020", "healthcare": "hospital", "name": "MEDISYS HOSPITALS (A UNIT OF OXYEN MEDICARE CANCER CARE PVT LTD )", "name:te": "\u0c2e\u0c46\u0c21\u0c3f\u0c38\u0c3f\u0c38\u0c4d \u0c39\u0c3e\u0c38\u0c4d\u0c2a\u0c3f\u0c1f\u0c32\u0c4d\u0c38\u0c4d", "operator:type": "private", "phone": "9100277722;9100277733", "source": "OpenGovernmentData", "website": "https://www.medisyshospitals.com/"}}, {"type": "node", "id": 6548789473, "lat": 17.3452377, "lon": 78.5276489, "tags": {"addr:city": "Hyderabad", "addr:full": "Plot No: A/529, Opp. Mega Function Hall, Karmanghat", "addr:postcode": "500079", "addr:state": "Telangana", "amenity": "hospital", "contact:phone": "040 2407 8717 / 9717", "email": "info@maaxlifehospitals.com", "healthcare": "hospital", "name": "MAAX LIFE HOSPITALS", "operator:type": "private", "source": "OpenGovernmentData", "website": "https://www.maaxlifehospitals.com/"}}, {"type": "node", "id": 6548797464, "lat": 17.3253704, "lon": 78.5576025, "tags": {"addr:district": "Hyderabad", "addr:full": "H.No: 8-6-772/N/206/A/1/NR, NAGAGRJUNA COLONY, BESIDE SBH, HASTHINAPURAM", "addr:postcode": "500070", "addr:state": "Telangana", "amenity": "hospital", "name": "DELTA HOSPITALS", "operator:type": "private", "source": "OpenGovernmentData"}}, {"type": "node", "id": 6548833978, "lat": 17.3658656, "lon": 78.5522434, "tags": {"addr:full": "H.No: 11-13-123/1, Plot No: 14, NEAR SAI BABA TEMPLE, ALKAPURI SAROORNAGAR MANDAL", "addr:postcode": "500035", "addr:state": "Telangana", "amenity": "hospital", "contact:phone": "74610 94932", "email": "contact@avanieyehospital.com", "name": "AVANI LASER EYE HOSPITAL", "operator:type": "private", "source": "OpenGovernmentData", "website": "https://www.avanieyehospital.com/"}}, {"type": "node", "id": 6548846382, "lat": 17.3739165, "lon": 78.5521227, "tags": {"addr:city": "Hyderabad", "addr:full": "Road No.1, Beside Swathi Nivas Apt., Opp Heritage Fresh, New Nagole, Mohan Nagar", "addr:postcode": "500035", "addr:state": "Telangana", "amenity": "hospital", "contact:phone": "9849184513", "name": "SANJEEVANI HOSPITAL", "operator:type": "private", "source": "OpenGovernmentData"}}, {"type": "node", "id": 6548891585, "lat": 17.3360462, "lon": 78.5762921, "tags": {"addr:city": "Hyderabad", "addr:full": "NH-9, SUSHMA THEATER, VANASTHALIPURAM", "addr:state": "Telangana", "amenity": "hospital", "contact:phone": "4024024249", "healthcare": "hospital", "name": "LEGEND HOSPITAL", "operator:type": "private", "source": "OpenGovernmentData"}}, {"type": "node", "id": 6548918441, "lat": 17.3623879, "lon": 78.5570419, "tags": {"addr:city": "Hyderabad", "addr:full": "Yadav Nagar Colony, Opp. Swagath Grand Hotel, Alkapuri 'X' Roads", "addr:postcode": "500035", "addr:state": "Telangana", "amenity": "hospital", "contact:phone": "040-2403-6663/7773/8883", "email": "contact@nakshatrahospitals.com", "healthcare": "hospital", "name": "Nakshatra Hospitals", "operator:type": "private", "source": "OpenGovernmentData", "website": "https://www.nakshatrahospitals.com/"}}, {"type": "node", "id": 6548950430, "lat": 17.3392197, "lon": 78.570819, "tags": {"addr:city": "Hyderabad", "addr:full": "H.No: 5-5-1211, Opp. Panama Arch Godowns, Ganesh Nagar, Vanasthalipuram", "addr:postcode": "500070", "addr:state": "Telangana", "amenity": "hospital", "contact:phone": "4024123456", "healthcare": "hospital", "name": "EVYA HOSPITALS AND DIABETIC RESERACH CENTER", "operator:type": "private", "source": "OpenGovernmentData"}}, {"type": "node", "id": 6549145505, "lat": 17.344755, "lon": 78.5269153, "tags": {"addr:city": "Hyderabad", "addr:full": "H.No: 8-4-21/5, Beside Mega Function Hall, Sagar Road, Karman Ghat, Saroor Nagar", "addr:postcode": "500079", "addr:state": "Telangana", "amenity": "hospital", "contact:phone": "040-24079991/92/93/94", "healthcare": "hospital", "name": "JEEVAN HOSPITAL", "operator:type": "private", "source": "OpenGovernmentData"}}, {"type": "node", "id": 6549158450, "lat": 17.3203965, "lon": 78.5173801, "tags": {"addr:district": "Hyderabad", "addr:full": "6-208/3/1, Triveninagar, Balapur 'X' Road, Meerpet, Saroornagar", "addr:postcode": "500005", "addr:state": "Telangana", "amenity": "hospital", "contact:phone": "04029805557", "name": "SRI RADHIKA MULTI SPECIALITY HOSPITAL", "operator:type": "Private", "source": "OpenGovernmentData"}}, {"type": "node", "id": 6549206565, "lat": 17.3230275, "lon": 78.557235, "tags": {"addr:city": "Hyderabad", "addr:full": "Plot No: 52, Panchayat Raj, Teacher Colony, B.N.Reddy Nagar", "addr:postcode": "500079", "addr:state": "Telangana", "amenity": "hospital", "contact:phone": "4024094108", "name": "SHYAM HOSPITAL", "operator:type": "private", "source": "OpenGovernmentData"}}, {"type": "node", "id": 6549210041, "lat": 17.344508, "lon": 78.5484628, "tags": {"addr:city": "Hyderabad", "addr:full": "Plot No: 50, Sri Durga Enclave, SBH Colony, LB Nagar Road", "addr:postcode": "500074", "addr:state": "Telangana", "amenity": "hospital", "contact:phone": "040 6600 0108", "name": "SRI KARA HOSPITAL", "operator:type": "private", "source": "OpenGovernmentData"}}, {"type": "node", "id": 6549292101, "lat": 17.3482504, "lon": 78.5520463, "tags": {"addr:district": "Hyderabad", "addr:full": "3-3-273, LB Nagar - Uppal Rd, Kamala Nagar, Suvidha Arcade, RTC Colony, LB Nagar", "addr:postcode": "500074", "addr:state": "Telangana", "amenity": "hospital", "contact:phone": "040 24031111;040 24031122", "name": "SHINE CHILDREN'S HOSPITAL", "operator:type": "private", "source": "OpenGovernmentData", "wheelchair": "yes"}}, {"type": "node", "id": 6549295174, "lat": 17.3690962, "lon": 78.5301608, "tags": {"addr:city": "Hyderabad", "addr:full": "H.No: 3-8, Chaitanayapuri 'X' roads, Dilshuknagar", "addr:postcode": "500060", "addr:state": "Telangana", "amenity": "hospital", "contact:phone": "040 66905566", "healthcare": "hospital", "name": "Saptagiri Hospital", "operator:type": "private", "source": "OpenGovernmentData"}}, {"type": "node", "id": 6549298910, "lat": 17.3542853, "lon": 78.5470426, "tags": {"addr:district": "Hyderabad", "addr:full": "Plot No: 1, CHITRA LAYOUT, BESIDE Rangareddy Court, L.B NAGAR", "addr:postcode": "500074", "addr:state": "Telangana", "amenity": "hospital", "contact:mobile": "8121033233", "contact:phone": "4024033233", "name": "DR RAJASHEKAR REDDY LAPAROSCOPY HOSPITAL", "operator:type": "private", "source": "OpenGovernmentData"}}, {"type": "node", "id": 6549324353, "lat": 17.3355392, "lon": 78.5708083, "tags": {"addr:city": "Hyderabad", "addr:full": "Plot No: 101, VANASTHALI HILLS COLONY, VANASTHALIPURAM, NEAR MJM FUNCTION and ADITYA SCHOOL", "addr:postcode": "500070", "addr:state": "Telangana", "amenity": "hospital", "contact:phone": "04065192333", "healthcare": "hospital", "name": "SHARADA EYE CARE", "operator:type": "private", "source": "OpenGovernmentData"}}, {"type": "node", "id": 6549328982, "lat": 17.346624, "lon": 78.5211218, "tags": {"addr:city": "Hyderabad", "addr:full": "Sagar Road, Malla Reddy Nagar, Saroor Nagar East, Champapet", "addr:postcode": "500079", "addr:state": "Telangana", "amenity": "hospital", "contact:phone": "078420 91999", "healthcare": "hospital", "name": "SRI SIDDESHWARA HOSPITAL", "operator:type": "private", "source": "OpenGovernmentData"}}, {"type": "node", "id": 6549356692, "lat": 17.3198217, "lon": 78.519841, "tags": {"addr:district": "Hyderabad", "addr:full": "BALAPUR X ROAD, BALAPUR CENTRAL", "addr:postcode": "500097", "addr:state": "Telangana", "amenity": "hospital", "contact:phone": "09502455566", "name": "HIRANYAA MULTI SPECIALITY & CHILDREN'S HOSPITAL", "operator:type": "Private", "source": "OpenGovernmentData"}}, {"type": "node", "id": 6549364392, "lat": 17.3673811, "lon": 78.5358068, "tags": {"addr:city": "Hyderabad", "addr:full": "Plot No: 34, KRISNAVENI NAGAR, Opp. KOTHAPET FRUIT MARKET, NEAR GADDIANNARAM MUNICIPAL OFFICE", "addr:postcode": "500034", "addr:state": "Telangana", "amenity": "hospital", "contact:phone": "24050104", "healthcare": "hospital", "name": "SBR Pulse Hospital", "operator:type": "private", "source": "OpenGovernmentData"}}, {"type": "node", "id": 6549371813, "lat": 17.368126, "lon": 78.530836, "tags": {"addr:city": "Hyderabad", "addr:full": "H.No: 18-79, Manikanta Crown Complex, Beside Indian Bank, Chaitanyapuri 'X' Roads, Dilsukhnagar", "addr:postcode": "500060", "addr:state": "Telangana", "amenity": "hospital", "contact:phone": "4024059511", "healthcare": "hospital", "name": "Magnas ENT Hospital", "operator:type": "private", "source": "OpenGovernmentData"}}, {"type": "node", "id": 6549378688, "lat": 17.3458905, "lon": 78.5292422, "tags": {"addr:city": "Hyderabad", "addr:full": "Plot No. 56, Sriram Nagar Colony, Karmanghat 'X' Roads", "addr:postcode": "500035", "addr:state": "Telangana", "amenity": "hospital", "contact:phone": "040 29803762", "healthcare": "hospital", "name": "SREE SREYAS HOSPITAL", "operator:type": "private", "source": "OpenGovernmentData"}}, {"type": "node", "id": 6561169422, "lat": 17.3349862, "lon": 78.5706618, "tags": {"addr:district": "Hyderabad", "addr:full": "5-5-23/5/13, Near Bachpan Play School, Vanasthalipuram", "addr:postcode": "500070", "addr:state": "Telangana", "amenity": "hospital", "healthcare": "hospital", "name": "Vijaya Nursing Home - Vanasthalipuram", "source": "OpenGovernmentData"}}, {"type": "node", "id": 6561211170, "lat": 17.3455135, "lon": 78.5081814, "tags": {"addr:district": "Hyderabad", "addr:full": "Hanuman Towers, Number 9-7-214/1, 215, 217, Maruthi Nagar, Santhosh Nagar Main Road", "addr:postcode": "500059", "addr:state": "Telangana", "amenity": "hospital", "contact:mobile": "7702355512", "email": "santhoshnagar@dragarwal.com", "healthcare": "hospital", "healthcare:speciality": "Cataract Surgery;Cornea and Refractive;Retina;Oculoplastic;Glaucoma;Uvea;Neuro Ophthamology;Squint and Pediatric Opthalmology;Lasik", "medical_system": "Allopathic", "name": "Dr.Agarwal's Eye Hospital - Santhosh Nagar", "operator": "Dr. Agarwal's Eye Hospital", "operator:type": "private", "operator:wikidata": "Q17052044", "phone": "040 24535514;040 24535513", "source": "OpenGovernmentData", "website": "https://www.dragarwal.com/"}}, {"type": "node", "id": 6561351099, "lat": 17.3316717, "lon": 78.5336658, "tags": {"addr:district": "Ranga Reddy", "addr:full": "Plot No. 128, Street Number17, New Gayatri Nagar, Ranga Reddy", "addr:postcode": "500079", "addr:state": "Telangana", "amenity": "hospital", "healthcare": "hospital", "name": "Vijaya Hospital - Ranga Reddy", "source": "OpenGovernmentData"}}, {"type": "node", "id": 6563028513, "lat": 17.3678054, "lon": 78.5496034, "tags": {"addr:district": "Hyderabad", "addr:full": "Road No.3, Near S.R.K Puram Bus Stop, Rangareddy", "addr:postcode": "500035", "addr:state": "Telangana", "amenity": "hospital", "name": "Susheela Hospital - R.K Puram", "source": "OpenGovernmentData"}}, {"type": "node", "id": 6563256137, "lat": 17.3690898, "lon": 78.5224923, "tags": {"addr:district": "Hyderabad", "addr:full": "#16-11-477/7 to 26, Chikoti Green Building, Opp. Kamala Hospital, Gaddiannaram, Dilsukhnagar", "addr:postcode": "500060", "addr:state": "Telangana", "amenity": "hospital", "email": "Dilsukhnagar@dragarwal.com", "healthcare": "hospital", "healthcare:speciality": "Cataract Surgery;Cornea and Refractive;Retina;Oculoplastic;Glaucoma;Uvea;Neuro Ophthamology;Squint and Pediatric Opthalmology;Lasik", "medical_system": "Allopathic", "name": "Dr.Agarwal's Eye Hospital - Dilsukhnagar", "operator:type": "private", "phone": "040-42209153 ; 07702355510", "source": "OpenGovernmentData", "website": "https://www.dragarwal.com/"}}, {"type": "node", "id": 6566862238, "lat": 17.3369525, "lon": 78.5507843, "tags": {"addr:district": "Hyderabad", "addr:full": "7-4-25/S/N, Beside IOC Petrol Pump, Sagar Road", "addr:postcode": "500074", "addr:state": "Telangana", "amenity": "hospital", "fixme": "Please verify the accurate position of the hospital as I have mapped the facility based on the address provided in Open Data Government", "name": "S.S Multi Speciality Hospital", "source": "OpenGovernmentData"}}, {"type": "node", "id": 6573966514, "lat": 17.3696696, "lon": 78.5142714, "tags": {"addr:district": "Hyderabad", "addr:full": "16-2-741/D/5, BESIDE T.V TOWER, MOOSARAMBAGH X ROAD, MALAKPET", "addr:postcode": "500036", "addr:state": "Telangana", "amenity": "hospital", "contact:phone": "8466996364 ; 8466996365", "email": "safechildrenhospital@gmail.com", "healthcare": "hospital", "name": "SAFE CHLIDRENS HOSPITAL", "operator:type": "private", "source": "OpenGovernmentData", "website": "http://www.safechildrenshospital.com"}}, {"type": "node", "id": 6811748985, "lat": 17.3429186, "lon": 78.541484, "tags": {"addr:district": "Ranga Reddy", "addr:full": "Sagar Ring Road, Near Bairamalguda Bus stop, Karmanghat, Hyderabad", "addr:postcode": "500079", "addr:state": "Telangana", "amenity": "hospital", "name": "Apex Hospital", "source": "OpenGovernmentData"}}, {"type": "node", "id": 6811749024, "lat": 17.372487, "lon": 78.522991, "tags": {"addr:district": "Medchal Malkajgiri", "addr:full": "16-11-511/D/16, Shalivahana Nagar, Near Bhashyam School Dilsukhnagar", "addr:postcode": "500036", "addr:state": "Telangana", "amenity": "hospital", "contact:phone": "040 30091234", "healthcare": "hospital", "name": "Amma Hospitals", "source": "OpenGovernmentData"}}, {"type": "node", "id": 6811749029, "lat": 17.354892, "lon": 78.532407, "tags": {"addr:district": "Ranga Reddy", "addr:full": "Near Gandhi Statue, Saroornagar Cross Roads, Hyderabad", "addr:postcode": "500035", "addr:state": "Telangana", "amenity": "hospital", "name": "Saroornagar Hospital", "source": "OpenGovernmentData"}}, {"type": "node", "id": 6811749031, "lat": 17.367644, "lon": 78.529654, "tags": {"addr:district": "Medchal Malkajgiri", "addr:full": "Kamala Nagar, Lane opp. To Pulla Reddy Sweets, Dilsukhnagar", "addr:postcode": "500060", "addr:state": "Telangana", "amenity": "hospital", "healthcare": "hospital", "name": "Srihitha Hospital", "source": "OpenGovernmentData"}}, {"type": "node", "id": 6811749075, "lat": 17.321219, "lon": 78.568712, "tags": {"addr:city": "Hyderabad", "addr:district": "Ranga Reddy", "addr:full": "Vydehi Nagar, Opp. Sri Indu PG College,Vanasthalipuram", "addr:postcode": "500070", "addr:state": "Telangana", "amenity": "hospital", "contact:mobile": "8885011321", "name": "Nadipathy Hospital", "source": "OpenGovernmentData", "website": "http://www.nadipathy.in/"}}, {"type": "node", "id": 6811749160, "lat": 17.324086, "lon": 78.556886, "tags": {"addr:district": "Ranga Reddy", "addr:full": "Plot No. 91, Panchayat Raj Teachers Colony, Hastinapuram, Hyderabad", "addr:postcode": "500079", "addr:state": "Telangana", "amenity": "hospital", "contact:mobile": "7075747574", "name": "Sri Nitya Hospital", "source": "OpenGovernmentData"}}, {"type": "node", "id": 6811749178, "lat": 17.3293045, "lon": 78.5645447, "tags": {"addr:city": "Hyderabad", "addr:district": "Ranga Reddy", "addr:full": "MIG -235, Government Hospital Rod, Phase 4, TV Colony, Vanasthalipuram", "addr:postcode": "500079", "addr:state": "Telangana", "amenity": "hospital", "contact:mobile": "9246209171", "name": "Sakhi Hospital", "source": "OpenGovernmentData"}}, {"type": "node", "id": 6811749182, "lat": 17.3659362, "lon": 78.5255259, "tags": {"addr:district": "Hyderabad", "addr:full": "H.No: 7-78/1, Madhura Puri, Konark Theatre Lane, P & T Colony Road, Dilsukhnagar", "addr:state": "Telangana", "amenity": "hospital", "contact:mobile": "8341966249", "healthcare": "hospital", "name": "SAI RAM MULTI SPECIALITY HOSPITAL (ARK HEALTH CARE PVT LTD)", "operator:type": "private", "source": "OpenGovernmentData"}}, {"type": "node", "id": 6934778614, "lat": 17.3745451, "lon": 78.5455972, "tags": {"amenity": "hospital", "healthcare": "hospital"}}, {"type": "node", "id": 7244033607, "lat": 17.3685916, "lon": 78.5187388, "tags": {"amenity": "hospital", "healthcare": "hospital", "name": "konark diagonistic center", "name:te": "\u0c15\u0c4a\u0c28\u0c3e\u0c30\u0c4d\u0c15\u0c4d \u0c21\u0c3f\u0c2f\u0c3e\u0c17\u0c4b\u0c28\u0c3f\u0c38\u0c4d\u0c1f\u0c3f\u0c15\u0c4d \u0c38\u0c46\u0c02\u0c1f\u0c30\u0c4d"}}, {"type": "node", "id": 7246495528, "lat": 17.3364058, "lon": 78.569899, "tags": {"amenity": "hospital", "healthcare": "hospital", "name": "Vijaya diagnostics"}}, {"type": "node", "id": 8230992868, "lat": 17.2996609, "lon": 78.5854994, "tags": {"amenity": "hospital", "healthcare": "hospital"}}, {"type": "node", "id": 8745836201, "lat": 17.3614317, "lon": 78.5539533, "tags": {"addr:district": "Rangareddy", "addr:full": "Haripuri Colony, Bharat Nagar, Bahadurguda", "addr:postcode": "500074", "addr:state": "Telangana", "amenity": "hospital", "name": "Kamineni Hospital", "source": "Local Knowledge"}}, {"type": "node", "id": 8747916250, "lat": 17.3347442, "lon": 78.5530454, "tags": {"addr:district": "Rangareddy", "addr:full": "Nagarjuna Sagar Road, Brindavan Colony, Lingojiguda", "addr:postcode": "500035", "addr:state": "Telangana", "amenity": "hospital", "name": "Aware Global Hospitals", "source": "Local Knowledge"}}, {"type": "node", "id": 8751748313, "lat": 17.3137197, "lon": 78.560974, "tags": {"addr:district": "Rangareddy", "addr:full": "5-8-50/93, Nagarjuna Sagar Road, Sripuram Colony, Highway, B N Reddy Nagar", "addr:postcode": "844118", "addr:state": "Telangana", "amenity": "hospital", "name": "Bhrungi Hospitals", "source": "Local Knowledge"}}, {"type": "node", "id": 8751762404, "lat": 17.3138528, "lon": 78.5084604, "tags": {"addr:district": "Rangareddy", "addr:full": "8-7/20, RCI Road,Sai Nagar Colony Balapur", "addr:postcode": "500005", "addr:state": "Telangana", "amenity": "hospital", "name": "Chavan Hospitals", "source": "Local Knowledge"}}, {"type": "node", "id": 8751844086, "lat": 17.3401158, "lon": 78.52185, "tags": {"addr:district": "Rangareddy", "addr:full": "New Maruthi Nagar, Virat Nagar, Kanchan Bagh", "addr:postcode": "500079", "addr:state": "Telangana", "amenity": "hospital", "healthcare": "hospital", "name": "Viswas Hospital", "source": "Local Knowledge"}}, {"type": "node", "id": 8759335242, "lat": 17.3632288, "lon": 78.5449317, "tags": {"addr:district": "Hyderabad", "addr:full": "H.No: 11-13-1161, Kothapet, Hyderabad", "addr:postcode": "500035", "addr:state": "Telangana", "amenity": "hospital", "name": "Vasavi Hospital", "source": "Local Knowledge"}}, {"type": "node", "id": 8761004351, "lat": 17.3582035, "lon": 78.5444422, "tags": {"addr:district": "Medchal", "addr:full": "Green Hills Colony,Kothapet, Doctors Colony Main Rd, Bahadurguda", "addr:postcode": "500074", "addr:state": "Telangana", "amenity": "hospital", "name": "Paramitha Children's Hospital", "source": "Local Knowledge"}}, {"type": "node", "id": 9527080374, "lat": 17.3532901, "lon": 78.5589741, "tags": {"amenity": "hospital", "healthcare": "hospital", "name": "kamineni"}}, {"type": "node", "id": 10817244976, "lat": 17.362556, "lon": 78.5224832, "tags": {"amenity": "hospital", "healthcare": "hospital"}}, {"type": "node", "id": 10993267945, "lat": 17.3314694, "lon": 78.5652052, "tags": {"addr:district": "Rangareddy", "addr:place": "Vanasthalipuram", "addr:state": "Telangana", "addr:street": "NGO's Colony", "addr:subdistrict": "Hayathnagar", "amenity": "hospital", "healthcare": "hospital", "name": "Area Hospital", "operational_status": "operational", "operator:type": "government", "source": "OpenDataTelangana"}}, {"type": "node", "id": 11041643045, "lat": 17.3429785, "lon": 78.5067084, "tags": {"access": "military", "entrance": "yes"}}, {"type": "node", "id": 12289411655, "lat": 17.3667392, "lon": 78.5811285, "tags": {"addr:city": "Hyderabad", "addr:country": "IN", "addr:district": "k.v.rangareddy", "addr:housenumber": "H.No. 12-1-468/2P/2F, 2nd floor", "addr:postcode": "500068", "addr:street": "beside ace ajanta apartments, bandlaguda, nagole", "amenity": "hospital", "email": "info@swasthyadental.in", "healthcare": "hospital", "healthcare:speciality": "dentist;dental_oral_maxillo_facial_surgery", "mobile": "+919676814469", "name": "Swasthya Dental Clinic", "operator": "Dr Ramya Surapaneni", "operator:type": "private", "payment:cash": "yes", "payment:credit_cards": "yes", "payment:debit_cards": "yes", "payment:wallets": "yes", "website": "https://swasthyadental.in", "wheelchair": "yes"}}, {"type": "node", "id": 12949577900, "lat": 17.365035, "lon": 78.534275}, {"type": "node", "id": 12949589701, "lat": 17.3649201, "lon": 78.534507}, {"type": "node", "id": 12949589702, "lat": 17.3651591, "lon": 78.533683}, {"type": "node", "id": 12949589703, "lat": 17.3645297, "lon": 78.5338632}, {"type": "node", "id": 13181481501, "lat": 17.363751, "lon": 78.585004, "tags": {"amenity": "hospital", "name": "CGHS Bandlaguda"}}, {"type": "node", "id": 13337356007, "lat": 17.349695, "lon": 78.5483858, "tags": {"amenity": "hospital", "healthcare": "hospital", "name": "Medicare Hospitals"}}, {"type": "node", "id": 13348420174, "lat": 17.3409127, "lon": 78.5076423}, {"type": "node", "id": 13348420175, "lat": 17.3411537, "lon": 78.5076663}, {"type": "node", "id": 13348420176, "lat": 17.3427379, "lon": 78.5075379}, {"type": "node", "id": 13348420241, "lat": 17.3427056, "lon": 78.5061526}, {"type": "node", "id": 13348420243, "lat": 17.3417466, "lon": 78.505093}, {"type": "node", "id": 13348420244, "lat": 17.3419557, "lon": 78.5049907}, {"type": "node", "id": 13348420245, "lat": 17.3428057, "lon": 78.5063703}, {"type": "node", "id": 13348420253, "lat": 17.3428089, "lon": 78.5064241}, {"type": "node", "id": 13348420256, "lat": 17.3418678, "lon": 78.5076236}, {"type": "node", "id": 13348420258, "lat": 17.3414732, "lon": 78.5078174}, {"type": "node", "id": 13348420261, "lat": 17.3427647, "lon": 78.5074158}, {"type": "node", "id": 13348450110, "lat": 17.3409042, "lon": 78.5054467}, {"type": "node", "id": 13348450138, "lat": 17.3429781, "lon": 78.5068033}, {"type": "node", "id": 13348450143, "lat": 17.3430493, "lon": 78.5066024}, {"type": "node", "id": 13348450144, "lat": 17.3430303, "lon": 78.5066482}, {"type": "node", "id": 13348450145, "lat": 17.3430378, "lon": 78.5064634}, {"type": "node", "id": 13348450146, "lat": 17.3430072, "lon": 78.5064286}, {"type": "node", "id": 13348450147, "lat": 17.3406132, "lon": 78.5055997}, {"type": "node", "id": 13348450148, "lat": 17.3406102, "lon": 78.5056823}, {"type": "node", "id": 13348450149, "lat": 17.339296, "lon": 78.5058323}, {"type": "node", "id": 13348450150, "lat": 17.339269, "lon": 78.505896}, {"type": "node", "id": 13348450151, "lat": 17.3393202, "lon": 78.5064971}, {"type": "node", "id": 13348450152, "lat": 17.339353, "lon": 78.5065295}, {"type": "node", "id": 13348450153, "lat": 17.339901, "lon": 78.5065198}, {"type": "node", "id": 13348450154, "lat": 17.3399179, "lon": 78.5067525}, {"type": "node", "id": 13348450155, "lat": 17.3400468, "lon": 78.5067379}, {"type": "node", "id": 13348450156, "lat": 17.3400269, "lon": 78.5075108}, {"type": "node", "id": 13348450157, "lat": 17.3414356, "lon": 78.5077996}, {"type": "node", "id": 13348450167, "lat": 17.3398404, "lon": 78.505666}, {"type": "way", "id": 146312947, "nodes": [1595794974, 1595794961, 1595794973, 1595794963, 1595794965, 1595794967, 1595794974], "tags": {"addr:district": "Hyderabad", "addr:full": "Kamineni, L.B Nagar", "addr:housenumber": "10", "addr:postcode": "500068", "addr:state": "Telangana", "amenity": "hospital", "email": "ms.khl@kaminenihospitals.com", "emergency": "yes", "emergency_telephone_code": "040 66002200;040 24022222", "fax": "040 2402 2277", "healthcare:speciality": "multi specialty", "medical_system": "Allopathic", "name": "Kamineni Hospital", "opening_hours": "24/7", "operator:type": "private", "phone": "040 39879999", "source": "OpenGovernmentData", "website": "https://www.kaminenihospitals.com/"}}, {"type": "way", "id": 265036384, "nodes": [2706889270, 2706889273, 2706889276, 12949589702, 2706889279, 12949577900, 12949589701, 2706889282, 2706889285, 12949589703, 2706889270], "tags": {"amenity": "hospital", "healthcare": "hospital", "healthcare:speciality": "dentistry", "name": "pananeeya dental hospital"}}, {"type": "way", "id": 344478708, "nodes": [3512164352, 3512164353, 13348420256, 3512164354, 3512164355, 3512164357, 13348420253, 13348450146, 13348450145, 13348450143, 13348450144, 3512164358, 11041643045, 3689001595, 13348450138, 13348420261, 13348420176, 3512164352], "tags": {"addr:district": "Hyderabad", "addr:full": "DMRL X Roads,Santosh Nagar, Kanchanbagh", "addr:postcode": "500058", "addr:state": "Telangana", "amenity": "hospital", "email": "apollohospitalsdrdo@gmail.com", "fax": "040 24342255", "healthcare": "hospital", "medical_system": "Allopathic", "name": "Apollo DRDO Hospital", "operator:type": "private", "phone": "040 24342222", "source": "OpenGovernmentData", "website": "https://www.apollohospitals.com"}}, {"type": "way", "id": 357056659, "nodes": [3624411436, 3624411435, 3624411424, 3624411425, 3624411436], "tags": {"amenity": "hospital", "healthcare": "hospital", "name": "apollo pharmacy"}}, {"type": "way", "id": 357179813, "nodes": [3625133218, 3625133214, 3625132992, 3625133193, 3625132960, 3625132964, 3625132977, 3625132980, 3625133218], "tags": {"amenity": "hospital", "healthcare": "hospital", "name": "Urban health centre"}}, {"type": "way", "id": 364871053, "nodes": [3689001548, 3689001562, 3689001564, 3689001566, 3689001568, 3689001563, 3689001565, 3689001576, 3689001577, 3689001572, 3689001570, 3689001567, 3689001569, 3689001574, 3689001575, 3689001571, 3689001573, 3689001545, 3689001550, 3689001547, 3689001544, 3689001549, 3689001548], "tags": {"addr:district": "Hyderabad", "addr:full": "D.M.R.L.X Road, Santosh Nagar, Kanchanbagh", "addr:postcode": "500058", "addr:state": "Telangana", "amenity": "hospital", "emergency": "yes", "healthcare": "hospital", "name": "Owaisi Hospital and Research Centre", "source": "OpenGovernmentData"}}, {"type": "way", "id": 1455535745, "nodes": [13348420253, 13348420245, 13348420241, 13348420244, 13348420243, 13348450110, 13348450147, 13348450148, 13348450167, 13348450149, 13348450150, 13348450151, 13348450152, 13348450153, 13348450154, 13348450155, 13348450156, 13348420174, 13348420175, 13348450157, 13348420258, 3512164353, 3512164354, 3512164355, 3512164357, 13348420253], "tags": {"amenity": "hospital", "healthcare": "hospital"}}]}