{"version": 0.6, "generator": "Overpass API 0.7.62.8 e802775f", "osm3s": {"timestamp_osm_base": "2026-01-12T18:00:19Z", "copyright": "The data included in this document is from www.openstreetmap.org. The data is made available under ODbL."}, "elements": [{"type": "node", "id": 1464742684, "lat": 13.0425433, "lon": 77.5155377, "tags": {"amenity": "hospital", "name": "Ragavendra Hospital", "name:kn": "\u0cb0\u0cbe\u0c98\u0cb5\u0cc7\u0c82\u0ca6\u0ccd\u0cb0 \u0c86\u0cb8\u0ccd\u0caa\u0ca4\u0ccd\u0cb0\u0cc6"}}, {"type": "node", "id": 1794166166, "lat": 13.003447, "lon": 77.504284, "tags": {"addr:district": "Bangalore", "addr:full": "Hegganahalli", "addr:postcode": "560091", "addr:state": "Karnataka", "addr:subdistrict": "Bangalore North", "amenity": "hospital", "emergency": "no", "healthcare": "centre", "name": "Government Primary Health Centre", "name:kn": "\u0cb8\u0cb0\u0ccd\u0c95\u0cbe\u0cb0\u0cbf \u0caa\u0ccd\u0cb0\u0cbe\u0ca5\u0cae\u0cbf\u0c95 \u0c86\u0cb0\u0ccb\u0c97\u0ccd\u0caf \u0c95\u0cc7\u0c82\u0ca6\u0ccd\u0cb0", "source": "OpenGovernmentData"}}, {"type": "node", "id": 3834145549, "lat": 13.0485382, "lon": 77.4806507}, {"type": "node", "id": 3834145560, "lat": 13.0487739, "lon": 77.4804445}, {"type": "node", "id": 3834145562, "lat": 13.0489207, "lon": 77.4801629}, {"type": "node", "id": 3834145563, "lat": 13.0489941, "lon": 77.4801352}, {"type": "node", "id": 3834145564, "lat": 13.0491447, "lon": 77.4801946}, {"type": "node", "id": 3834145577, "lat": 13.0499019, "lon": 77.4803652}, {"type": "node", "id": 3834145585, "lat": 13.0501897, "lon": 77.4805357}, {"type": "node", "id": 3834145590, "lat": 13.0504698, "lon": 77.4808153}, {"type": "node", "id": 3834145596, "lat": 13.0506745, "lon": 77.4810809}, {"type": "node", "id": 3834145608, "lat": 13.0509874, "lon": 77.4817967}, {"type": "node", "id": 3834145618, "lat": 13.0515553, "lon": 77.4819078}, {"type": "node", "id": 3834145620, "lat": 13.051621, "lon": 77.4818602}, {"type": "node", "id": 3834145622, "lat": 13.0516983, "lon": 77.4818721}, {"type": "node", "id": 3834145624, "lat": 13.0517601, "lon": 77.4819276}, {"type": "node", "id": 3834145641, "lat": 13.0525906, "lon": 77.4819514}, {"type": "node", "id": 4447020601, "lat": 13.0226079, "lon": 77.4748015, "tags": {"addr:city": "bangalore", "addr:housenumber": "138", "addr:postcode": "560050", "addr:street": "NICE Peripheral Ring Road", "amenity": "hospital", "name": "Shri Vishnu Ent Speciality Center", "phone": "+91 80 2672 4211", "source": "www.justdial.com"}}, {"type": "node", "id": 4518518893, "lat": 12.9838763, "lon": 77.4788534, "tags": {"amenity": "hospital", "name": "Anupama Hospital", "name:en": "Anupama hospital", "name:kn": "\u0c85\u0ca8\u0cc1\u0caa\u0cae \u0c86\u0cb8\u0ccd\u0caa\u0ca4\u0ccd\u0cb0\u0cc6"}}, {"type": "node", "id": 5689372192, "lat": 13.0538314, "lon": 77.4822429}, {"type": "node", "id": 5689372193, "lat": 13.0526539, "lon": 77.4819059}, {"type": "node", "id": 6808389338, "lat": 13.0571444, "lon": 77.5086082}, {"type": "node", "id": 6808389339, "lat": 13.0571535, "lon": 77.5084004}, {"type": "node", "id": 6808389340, "lat": 13.0569784, "lon": 77.508399}, {"type": "node", "id": 6808389341, "lat": 13.056985, "lon": 77.508623}, {"type": "node", "id": 6808989940, "lat": 13.0483861, "lon": 77.5079625}, {"type": "node", "id": 6808989941, "lat": 13.0483561, "lon": 77.5080788}, {"type": "node", "id": 6808989942, "lat": 13.0483283, "lon": 77.5080757}, {"type": "node", "id": 6808989943, "lat": 13.0483201, "lon": 77.5081096}, {"type": "node", "id": 6808989944, "lat": 13.0483103, "lon": 77.5080911}, {"type": "node", "id": 6808989945, "lat": 13.0482976, "lon": 77.5080942}, {"type": "node", "id": 6808989946, "lat": 13.0482998, "lon": 77.5081081}, {"type": "node", "id": 6808989947, "lat": 13.0482811, "lon": 77.5081034}, {"type": "node", "id": 6808989948, "lat": 13.0482893, "lon": 77.5080564}, {"type": "node", "id": 6808989949, "lat": 13.0482518, "lon": 77.5080503}, {"type": "node", "id": 6808989950, "lat": 13.0482751, "lon": 77.508011}, {"type": "node", "id": 6808989951, "lat": 13.0482713, "lon": 77.5079925}, {"type": "node", "id": 6808989952, "lat": 13.0482608, "lon": 77.5079856}, {"type": "node", "id": 6808989953, "lat": 13.0482585, "lon": 77.5079648}, {"type": "node", "id": 6938777962, "lat": 12.9957177, "lon": 77.5031644, "tags": {"addr:district": "Bengaluru Rural", "addr:full": "# 1/3, Heggenanalli Main Road, Opposite Ganesh Temple, Near Peenya 2nd Stage, , Last Bus Stop", "addr:postcode": "560091", "addr:state": "Karnataka", "amenity": "hospital", "name": "Panchamukhi Specialityu Hospital", "source": "OpenGovernmentData"}}, {"type": "node", "id": 6938779562, "lat": 12.9881868, "lon": 77.5087273, "tags": {"addr:district": "Bengaluru Urban", "addr:full": "No. 127/1, Sri Gandhanda Kaval, Sunkadakatte, Viswaneedam Post, Magadi Main Road", "addr:postcode": "560054", "addr:state": "Karnataka", "amenity": "hospital", "name": "Sri Lakshmi Multi Speciality Hospital", "source": "OpenGovernmentData"}}, {"type": "node", "id": 6944525393, "lat": 12.9819768, "lon": 77.5108275, "tags": {"addr:district": "Bengaluru Urban", "addr:full": "No 193, So Feet Road, 2nd Block 2nd Stage", "addr:postcode": "560072", "addr:state": "Karnataka", "amenity": "hospital", "name": "Unity Lifline Hospital Pvt Ltd", "source": "OpenGovernmentData"}}, {"type": "node", "id": 6944895084, "lat": 12.9868695, "lon": 77.4794832, "tags": {"addr:district": "Bengaluru Rural", "addr:full": "116/2, Herohalli, Anjananagar, Opposite Petrol Bunk", "addr:postcode": "560091", "addr:state": "Karnataka", "amenity": "hospital", "name": "S.S.G. Hospital", "source": "OpenGovernmentData"}}, {"type": "node", "id": 6945050485, "lat": 13.0423919, "lon": 77.5136653, "tags": {"addr:district": "Bengaluru Urban", "addr:full": "No. 15, Drls Plaza, 1st Floor, Nh-4, Above Andhra Bank, T. Dasarahalli", "addr:postcode": "560057", "addr:state": "Karnataka", "amenity": "hospital", "name": "Sri Venkateshwara Eye Hospital", "source": "OpenGovernmentData"}}, {"type": "node", "id": 6946978667, "lat": 12.988865, "lon": 77.5078006, "tags": {"addr:district": "Bengaluru Rural", "addr:full": "Magadi Main Road, Sunkadakatte", "addr:postcode": "560091", "addr:state": "Karnataka", "amenity": "hospital", "name": "Ashraya Medinova Pvt Ltd", "source": "OpenGovernmentData"}}, {"type": "node", "id": 6947226705, "lat": 13.0004769, "lon": 77.5054027, "tags": {"addr:district": "Bengaluru Rural", "addr:full": "Ktg Educational Campus, Sy No. 93, Srigandadakaval, Sunkadakatte Road, Vishwaneedam Post", "addr:postcode": "560091", "addr:state": "Karnataka", "amenity": "hospital", "name": "K.T.G. Hospital", "source": "OpenGovernmentData"}}, {"type": "node", "id": 6947682046, "lat": 13.0068811, "lon": 77.5055636, "tags": {"addr:district": "Bengaluru Rural", "addr:full": "208, 210, Hegganahalli Main Road, Near Peenya 2nd Stage, Hegganahalli", "addr:postcode": "560091", "addr:state": "Karnataka", "amenity": "hospital", "name": "Jai Maruthi Hospital", "source": "OpenGovernmentData"}}, {"type": "node", "id": 6948059664, "lat": 12.978053, "lon": 77.5115959, "tags": {"addr:district": "Bengaluru Urban", "addr:full": "No.4, 5Th Block,2nd Stage Nagarabhavi", "addr:postcode": "560072", "addr:state": "Karnataka", "amenity": "hospital", "name": "Brinda Hospital", "source": "OpenGovernmentData"}}, {"type": "node", "id": 6950185719, "lat": 13.0093599, "lon": 77.5222108, "tags": {"addr:district": "Bengaluru Urban", "addr:full": "No.12, Laggere Main Road, Laggere, Bengaluru", "addr:postcode": "560058", "addr:state": "Karnataka", "amenity": "hospital", "name": "Sai Baba Hospital", "name:kn": "\u0cb8\u0cbe\u0caf\u0cbf\u0cac\u0cbe\u0cac \u0c86\u0cb8\u0ccd\u0caa\u0ca4\u0ccd\u0cb0\u0cc6", "source": "OpenGovernmentData"}}, {"type": "node", "id": 7202935749, "lat": 13.031132, "lon": 77.483923, "tags": {"addr:district": "Bangalore", "addr:full": "Thippenahalli", "addr:postcode": "560073", "addr:state": "Karnataka", "addr:subdistrict": "Bangalore North", "amenity": "hospital", "name": "Thippenalli Government Hospital", "source": "OpenGovernmentData"}}, {"type": "node", "id": 7202935803, "lat": 13.009817, "lon": 77.5231852, "tags": {"addr:district": "Bangalore", "addr:full": "Peenya Post, Muneshwara Badavane", "addr:postcode": "560058", "addr:state": "Karnataka", "addr:subdistrict": "Bangalore North", "amenity": "hospital", "name": "Laggere Government Hospital", "name:kn": "\u0cb2\u0c97\u0ccd\u0c97\u0cc6\u0cb0\u0cc6 \u0cb8\u0cb0\u0ccd\u0c95\u0cbe\u0cb0\u0cbf \u0c86\u0cb8\u0ccd\u0caa\u0ca4\u0ccd\u0cb0\u0cc6", "source": "OpenGovernmentData"}}, {"type": "node", "id": 7202935849, "lat": 13.049152, "lon": 77.510442, "tags": {"addr:district": "Bangalore", "addr:full": "Nelamaheshwarinagar T DASARAHALLI", "addr:postcode": "560057", "addr:state": "Karnataka", "addr:subdistrict": "Bangalore North", "amenity": "hospital", "name": "NELAMAHESHWARI Government Hospital", "source": "OpenGovernmentData"}}, {"type": "node", "id": 7339722928, "lat": 13.0484436, "lon": 77.4825704}, {"type": "node", "id": 7339722929, "lat": 13.0476649, "lon": 77.4852365}, {"type": "node", "id": 7339722930, "lat": 13.0501185, "lon": 77.4857408}, {"type": "node", "id": 7339722931, "lat": 13.0503641, "lon": 77.4849442}, {"type": "node", "id": 7339722932, "lat": 13.0506019, "lon": 77.4850032}, {"type": "node", "id": 7339722933, "lat": 13.0510304, "lon": 77.4850085}, {"type": "node", "id": 7339722934, "lat": 13.0510931, "lon": 77.4856496}, {"type": "node", "id": 7339722935, "lat": 13.0514458, "lon": 77.4856603}, {"type": "node", "id": 7339722936, "lat": 13.0513936, "lon": 77.4861753}, {"type": "node", "id": 7339722937, "lat": 13.0523682, "lon": 77.4864301}, {"type": "node", "id": 7489451098, "lat": 13.0468499, "lon": 77.5063696}, {"type": "node", "id": 7489626471, "lat": 13.0413777, "lon": 77.5050224, "tags": {"amenity": "hospital", "healthcare": "hospital", "name": "naveen clinc"}}, {"type": "node", "id": 7572526703, "lat": 12.9780731, "lon": 77.5251934, "tags": {"addr:district": "Bengaluru Urban", "addr:full": "Govindaraja Nagar Ward, Pattegarhpalya, Vijayanagar, Bengaluru", "addr:postcode": "560079", "addr:state": "Karnataka", "amenity": "hospital", "name": "Government Hospital", "name:kn": "\u0cb8\u0cb0\u0ccd\u0c95\u0cbe\u0cb0\u0cbf \u0c86\u0cb8\u0ccd\u0caa\u0ca4\u0ccd\u0cb0\u0cc6", "source": "Local Knowledge"}}, {"type": "node", "id": 7572526792, "lat": 12.976379, "lon": 77.524439, "tags": {"addr:district": "Bengaluru Urban", "addr:full": "Srinivasnagar, Amarajyothi Nagar, Vijayanagar, Bengaluru", "addr:postcode": "560072", "addr:state": "Karnataka", "amenity": "hospital", "name": "Sumati Hospital", "source": "Local Knowledge"}}, {"type": "node", "id": 8188038499, "lat": 13.0621628, "lon": 77.5177637, "tags": {"addr:full": "342, 6th Cross, Brindavan Layout, Shetty Halli, Jalahalli West, Bengaluru, Karnataka", "addr:state": "Karnataka", "amenity": "hospital", "name": "Dr Saju George Kottakkal"}}, {"type": "node", "id": 8188038553, "lat": 13.0439933, "lon": 77.5065494, "tags": {"addr:full": "Vidya Nagar, Peenya, Bengaluru, Karnataka", "addr:state": "Karnataka", "amenity": "hospital", "name": "Esi Dispensary"}}, {"type": "node", "id": 8188038578, "lat": 13.0313399, "lon": 77.5055985, "tags": {"addr:full": "Bengaluru, Nalagadderanahalli, Peenya, Bengaluru, Karnataka", "addr:state": "Karnataka", "amenity": "hospital", "name": "Ashwini Hospital", "name:kn": "\u0c85\u0cb6\u0ccd\u0cb5\u0cbf\u0ca8\u0cbf \u0c86\u0cb8\u0ccd\u0caa\u0ca4\u0ccd\u0cb0\u0cc6"}}, {"type": "node", "id": 8188038584, "lat": 13.0280728, "lon": 77.5231858, "tags": {"addr:full": "KIADB Housing Complex, Peenya, Yeshwanthpur Suburb II Stage, KIADB Housing Complex, Peenya, Bengaluru, Karnataka", "addr:state": "Karnataka", "amenity": "hospital", "name": "Esi Hospital Peenya 1st Stage"}}, {"type": "node", "id": 8188038795, "lat": 12.9831814, "lon": 77.4787872, "tags": {"addr:full": "72/3 CIIQ, Magadi Main Road, Bel Layout, 2nd Phase, Near Karnataka Bank, Byadarahalli, Balaji Layout, Bedarahalli, Bengaluru, Karnataka", "addr:state": "Karnataka", "amenity": "hospital", "name": "Anupama Hospital", "name:kn": "\u0c85\u0ca8\u0cc1\u0caa\u0cae \u0c86\u0cb8\u0ccd\u0caa\u0ca4\u0ccd\u0cb0\u0cc6"}}, {"type": "node", "id": 9844348521, "lat": 13.0467086, "lon": 77.5069261}, {"type": "node", "id": 9844348522, "lat": 13.0458243, "lon": 77.5066895}, {"type": "node", "id": 9844348523, "lat": 13.0459656, "lon": 77.506133}, {"type": "node", "id": 12820381031, "lat": 13.0477867, "lon": 77.4848194}, {"type": "node", "id": 12820381032, "lat": 13.0485317, "lon": 77.4807817}, {"type": "way", "id": 726190880, "nodes": [6808389338, 6808389339, 6808389340, 6808389341, 6808389338], "tags": {"addr:district": "Bengaluru Urban", "addr:full": "#18-23, Maliasandra Main Road,4Th & 5Th Cross, Bagalagunte,Hesaraghatta Road", "addr:postcode": "560057", "addr:state": "Karnataka", "amenity": "hospital", "building": "commercial", "name": "Arunodaya Hospitals", "name:kn": "\u0c85\u0cb0\u0cc1\u0ca3\u0ccb\u0ca6\u0caf \u0c86\u0cb8\u0ccd\u0caa\u0ca4\u0ccd\u0cb0\u0cc6", "source": "OpenGovernmentData"}}, {"type": "way", "id": 726342145, "nodes": [6808989940, 6808989941, 6808989942, 6808989943, 6808989944, 6808989945, 6808989946, 6808989947, 6808989948, 6808989949, 6808989950, 6808989951, 6808989952, 6808989953, 6808989940], "tags": {"addr:district": "Bengaluru Urban", "addr:full": "No.30 Hesaraghatta Road , T Dasarahalli", "addr:postcode": "560057", "addr:state": "Karnataka", "amenity": "hospital", "building": "commercial", "name": "Dr Ramachandra Hospital", "name:kn": "\u0cb0\u0cbe\u0cae\u0c9a\u0c82\u0ca6\u0ccd\u0cb0 \u0c86\u0cb8\u0ccd\u0caa\u0ca4\u0ccd\u0cb0\u0cc6", "source": "OpenGovernmentData"}}, {"type": "way", "id": 785273431, "nodes": [5689372192, 7339722937, 7339722936, 7339722935, 7339722934, 7339722933, 7339722932, 7339722931, 7339722930, 7339722929, 12820381031, 7339722928, 12820381032, 3834145549, 3834145560, 3834145562, 3834145563, 3834145564, 3834145577, 3834145585, 3834145590, 3834145596, 3834145608, 3834145618, 3834145620, 3834145622, 3834145624, 3834145641, 5689372193, 5689372192], "tags": {"addr:district": "Bengaluru Urban", "addr:full": "Jindal Nagar Tumkur Road", "addr:postcode": "560073", "addr:state": "Karnataka", "amenity": "hospital", "fixme": "Boundaries and Size of polygon", "name": "Jindal Naturecure Institute hospital", "source": "OpenGovernmentData"}}, {"type": "way", "id": 1073073120, "nodes": [7489451098, 9844348521, 9844348522, 9844348523, 7489451098], "tags": {"amenity": "hospital", "healthcare": "hospital", "name": "Prakriya Hospital", "wheelchair": "yes"}}]}