{"version": 0.6, "generator": "Overpass API 0.7.62.8 e802775f", "osm3s": {"timestamp_osm_base": "2026-01-12T06:23:25Z", "copyright": "The data included in this document is from www.openstreetmap.org. The data is made available under ODbL."}, "elements": [{"type": "node", "id": 1182739082, "lat": 13.1635998, "lon": 80.2435516, "tags": {"amenity": "hospital", "name": "MMC Govenment Hospital"}}, {"type": "node", "id": 6914911759, "lat": 13.1990395, "lon": 80.1760313, "tags": {"addr:district": "Tiruvallur", "addr:full": "#4/198 & 199, M.A.Koil St,M.A.Nagar,Redhills", "addr:postcode": "600052", "addr:state": "Tamil Nadu", "amenity": "hospital", "name": "Vanaja Hospital", "source": "OpenGovernmentData"}}, {"type": "node", "id": 7210899888, "lat": 13.1992282, "lon": 80.1786155, "tags": {"addr:district": "Chennai", "addr:full": "MA Nagar, Padiyanallur, Thiruvallur, NH-5, Great Northern Trunk Road, Thiruvallu", "addr:postcode": "600052", "addr:state": "Tamil Nadu", "addr:subdistrict": "Thiruvottiyur", "amenity": "hospital", "name": "Sree Sanjeevi Rayan Hospital", "operator:type": "private", "source": "OpenGovernmentData"}}, {"type": "node", "id": 7252256158, "lat": 13.163539, "lon": 80.2430669, "tags": {"addr:block": "Madhavaram", "addr:district": "Thiruvallur", "addr:full": "Government Hospital, Madhavaram, Madhavaram, Manjambakkam, Milk Colony", "addr:postcode": "600051", "addr:state": "Tamil Nadu", "addr:subdistrict": "Mathavaram", "amenity": "hospital", "name": "Madhavaram Government Hospital", "source": "OpenGovernmentData"}}, {"type": "node", "id": 7818702399, "lat": 13.1702776, "lon": 80.193567, "tags": {"addr:district": "Tiruvallur", "addr:full": "Kannappasamy Nagar, Puzhal", "addr:postcode": "600066", "addr:state": "Tamil Nadu", "amenity": "hospital", "name": "Md Hussain Hospital", "source": "Local Knowledge"}}, {"type": "node", "id": 7818702420, "lat": 13.161861, "lon": 80.204431, "tags": {"addr:district": "Tiruvallur", "addr:full": "Puzhal", "addr:postcode": "600066", "addr:state": "Tamil Nadu", "amenity": "hospital", "name": "St. Anthony's Hospital", "source": "Local Knowledge"}}, {"type": "node", "id": 9717766098, "lat": 13.2086279, "lon": 80.1698455, "tags": {"amenity": "hospital", "healthcare": "hospital", "name": "Chamdhi Netralayam Eye Hospital"}}]}