{"version": 0.6, "generator": "Overpass API 0.7.62.8 e802775f", "osm3s": {"timestamp_osm_base": "2026-01-12T06:10:15Z", "copyright": "The data included in this document is from www.openstreetmap.org. The data is made available under ODbL."}, "elements": [{"type": "node", "id": 303590777, "lat": 13.0336624, "lon": 80.2572467, "tags": {"amenity": "hospital", "healthcare": "hospital", "name": "Corporation Hospital"}}, {"type": "node", "id": 315888313, "lat": 13.0529957, "lon": 80.2639651}, {"type": "node", "id": 315888314, "lat": 13.052887, "lon": 80.2651409}, {"type": "node", "id": 315888315, "lat": 13.0536646, "lon": 80.2652268}, {"type": "node", "id": 315888316, "lat": 13.0537649, "lon": 80.2641367}, {"type": "node", "id": 315888317, "lat": 13.0533552, "lon": 80.2639994}, {"type": "node", "id": 315901212, "lat": 13.0539238, "lon": 80.2646088}, {"type": "node", "id": 315901213, "lat": 13.0542415, "lon": 80.2646345}, {"type": "node", "id": 315901215, "lat": 13.0554575, "lon": 80.264628}, {"type": "node", "id": 315901216, "lat": 13.0553786, "lon": 80.2658877}, {"type": "node", "id": 315901217, "lat": 13.054208, "lon": 80.2657074}, {"type": "node", "id": 315901219, "lat": 13.0538402, "lon": 80.2654671}, {"type": "node", "id": 315901284, "lat": 13.054201, "lon": 80.2654981}, {"type": "node", "id": 319489495, "lat": 12.9928553, "lon": 80.255116}, {"type": "node", "id": 319489505, "lat": 12.9928054, "lon": 80.2549327}, {"type": "node", "id": 319489509, "lat": 12.99188, "lon": 80.2549043}, {"type": "node", "id": 319493745, "lat": 12.994073, "lon": 80.2561934}, {"type": "node", "id": 319493746, "lat": 12.9941283, "lon": 80.2583655}, {"type": "node", "id": 319493747, "lat": 12.9920327, "lon": 80.2580356}, {"type": "node", "id": 319493748, "lat": 12.9922576, "lon": 80.2561948}, {"type": "node", "id": 321842947, "lat": 13.0434718, "lon": 80.2734934}, {"type": "node", "id": 413916094, "lat": 13.0374124, "lon": 80.2620475}, {"type": "node", "id": 413916095, "lat": 13.0377526, "lon": 80.2620903}, {"type": "node", "id": 413916096, "lat": 13.0378214, "lon": 80.2615657}, {"type": "node", "id": 413916097, "lat": 13.0392332, "lon": 80.2616044}, {"type": "node", "id": 413916098, "lat": 13.0394894, "lon": 80.2624353}, {"type": "node", "id": 413916099, "lat": 13.039021, "lon": 80.2624309}, {"type": "node", "id": 413916100, "lat": 13.0389935, "lon": 80.2629292}, {"type": "node", "id": 413916101, "lat": 13.0383403, "lon": 80.2626774}, {"type": "node", "id": 413916102, "lat": 13.0383791, "lon": 80.2621884}, {"type": "node", "id": 413916103, "lat": 13.0374298, "lon": 80.2621481}, {"type": "node", "id": 413916390, "lat": 13.0378235, "lon": 80.2621827}, {"type": "node", "id": 1451948599, "lat": 12.9695957, "lon": 80.2602286}, {"type": "node", "id": 1451948622, "lat": 12.9697751, "lon": 80.2595768}, {"type": "node", "id": 1451948692, "lat": 12.9712879, "lon": 80.2606555}, {"type": "node", "id": 1451948712, "lat": 12.9714366, "lon": 80.2600077}, {"type": "node", "id": 1560720462, "lat": 13.0015307, "lon": 80.2552541, "tags": {"amenity": "hospital", "designation": "Hospital", "emergency": "no", "healthcare": "hospital", "name": "Vasan Eye Care Hospital", "source": "survey"}}, {"type": "node", "id": 1685049551, "lat": 13.0389642, "lon": 80.2571974}, {"type": "node", "id": 1685049552, "lat": 13.0389417, "lon": 80.2569596}, {"type": "node", "id": 1685049570, "lat": 13.0389904, "lon": 80.2572463}, {"type": "node", "id": 1685049581, "lat": 13.0391142, "lon": 80.2573123}, {"type": "node", "id": 1685049586, "lat": 13.0391297, "lon": 80.2572573}, {"type": "node", "id": 1685049590, "lat": 13.0392797, "lon": 80.2573596}, {"type": "node", "id": 1685049619, "lat": 13.0393452, "lon": 80.2572597}, {"type": "node", "id": 1685049623, "lat": 13.0393631, "lon": 80.2571559}, {"type": "node", "id": 1685049624, "lat": 13.0393786, "lon": 80.2570349}, {"type": "node", "id": 1685124281, "lat": 13.0445783, "lon": 80.2562825}, {"type": "node", "id": 1685124282, "lat": 13.0445308, "lon": 80.2560431}, {"type": "node", "id": 1685124285, "lat": 13.0446339, "lon": 80.256323}, {"type": "node", "id": 1685124292, "lat": 13.0448454, "lon": 80.256001}, {"type": "node", "id": 1685124293, "lat": 13.0448831, "lon": 80.2562825}, {"type": "node", "id": 1685124308, "lat": 13.0458546, "lon": 80.2558262}, {"type": "node", "id": 1685124309, "lat": 13.0459335, "lon": 80.2555097}, {"type": "node", "id": 1685124313, "lat": 13.046188, "lon": 80.2559311}, {"type": "node", "id": 1685124315, "lat": 13.0462866, "lon": 80.2556219}, {"type": "node", "id": 1990726958, "lat": 13.0359858, "lon": 80.2573828}, {"type": "node", "id": 1990726968, "lat": 13.0360146, "lon": 80.2571237}, {"type": "node", "id": 2196313615, "lat": 13.0374141, "lon": 80.2620816, "tags": {"access": "no", "barrier": "gate"}}, {"type": "node", "id": 2196313670, "lat": 13.0384268, "lon": 80.2576888}, {"type": "node", "id": 2196313671, "lat": 13.0384531, "lon": 80.2580462}, {"type": "node", "id": 2196313682, "lat": 13.0386696, "lon": 80.2580149}, {"type": "node", "id": 2196313691, "lat": 13.0386848, "lon": 80.2576888}, {"type": "node", "id": 2196313693, "lat": 13.038689, "lon": 80.2579921}, {"type": "node", "id": 2196313733, "lat": 13.0390082, "lon": 80.2627216}, {"type": "node", "id": 2196313744, "lat": 13.0394195, "lon": 80.2622032, "tags": {"access": "customers", "barrier": "gate"}}, {"type": "node", "id": 2197093192, "lat": 13.0385867, "lon": 80.262901}, {"type": "node", "id": 2212976264, "lat": 13.0427725, "lon": 80.2733652}, {"type": "node", "id": 2212976269, "lat": 13.0430971, "lon": 80.2713099}, {"type": "node", "id": 2212976312, "lat": 13.0438889, "lon": 80.2714519}, {"type": "node", "id": 2214392243, "lat": 13.0420942, "lon": 80.2708754}, {"type": "node", "id": 2214392247, "lat": 13.0421441, "lon": 80.2704737}, {"type": "node", "id": 2214392255, "lat": 13.0423857, "lon": 80.2714065}, {"type": "node", "id": 2214392260, "lat": 13.0425538, "lon": 80.2704737}, {"type": "node", "id": 2214392265, "lat": 13.0426011, "lon": 80.2713876}, {"type": "node", "id": 2214530298, "lat": 13.0523474, "lon": 80.280994}, {"type": "node", "id": 2214530299, "lat": 13.0525176, "lon": 80.2802174}, {"type": "node", "id": 2214530300, "lat": 13.0529424, "lon": 80.2810606}, {"type": "node", "id": 2214530301, "lat": 13.05316, "lon": 80.2805003}, {"type": "node", "id": 2270288820, "lat": 13.0167431, "lon": 80.2598155}, {"type": "node", "id": 2270288824, "lat": 13.0167534, "lon": 80.2591789}, {"type": "node", "id": 2270288828, "lat": 13.0169898, "lon": 80.2592164}, {"type": "node", "id": 2270288873, "lat": 13.0170173, "lon": 80.2588263}, {"type": "node", "id": 2270289004, "lat": 13.017843, "lon": 80.2606142}, {"type": "node", "id": 2270289070, "lat": 13.0184055, "lon": 80.2609755}, {"type": "node", "id": 2270289073, "lat": 13.0184889, "lon": 80.260983}, {"type": "node", "id": 2270289077, "lat": 13.0185523, "lon": 80.2587927}, {"type": "node", "id": 2270289079, "lat": 13.018576, "lon": 80.2595564}, {"type": "node", "id": 2270289083, "lat": 13.0186087, "lon": 80.2608675}, {"type": "node", "id": 2274279925, "lat": 13.0271936, "lon": 80.2568375}, {"type": "node", "id": 2274279928, "lat": 13.0271948, "lon": 80.2566659}, {"type": "node", "id": 2274279932, "lat": 13.027507, "lon": 80.2568397}, {"type": "node", "id": 2274279934, "lat": 13.0275081, "lon": 80.256668}, {"type": "node", "id": 2274387995, "lat": 13.0098993, "lon": 80.2584864}, {"type": "node", "id": 2274387996, "lat": 13.009897, "lon": 80.2589176}, {"type": "node", "id": 2274387997, "lat": 13.0101944, "lon": 80.2581998}, {"type": "node", "id": 2274387998, "lat": 13.010192, "lon": 80.2584562}, {"type": "node", "id": 2274387999, "lat": 13.0102206, "lon": 80.2589286}, {"type": "node", "id": 2274388000, "lat": 13.0102254, "lon": 80.2587147}, {"type": "node", "id": 2274388001, "lat": 13.010378, "lon": 80.2581995}, {"type": "node", "id": 2274388002, "lat": 13.010424, "lon": 80.2587339}, {"type": "node", "id": 2480866163, "lat": 13.0551626, "lon": 80.264564, "tags": {"access": "private", "barrier": "gate"}}, {"type": "node", "id": 2587530810, "lat": 13.0205681, "lon": 80.2594702, "tags": {"amenity": "hospital", "healthcare": "hospital", "name": "Chennai Skin Foundation"}}, {"type": "node", "id": 3118864398, "lat": 13.0381705, "lon": 80.2573008, "tags": {"addr:city": "Chennai", "addr:housenumber": "#199", "addr:postcode": "60004", "addr:street": "Luz Church Road", "amenity": "hospital", "emergency": "yes", "healthcare": "hospital", "name": "Kauvery Hospital", "note": "The building is shared by Lifestyle Home Center and the hospital", "phone": "+914440006000", "website": "https://www.kauveryhospital.com/", "wheelchair": "yes"}}, {"type": "node", "id": 3602114947, "lat": 13.0523986, "lon": 80.2807473}, {"type": "node", "id": 3606770663, "lat": 12.9918751, "lon": 80.2550607}, {"type": "node", "id": 3606770665, "lat": 12.99192, "lon": 80.2550872}, {"type": "node", "id": 3606770666, "lat": 12.9919207, "lon": 80.2550621}, {"type": "node", "id": 3606770674, "lat": 12.9920617, "lon": 80.2550916}, {"type": "node", "id": 3606770675, "lat": 12.9920624, "lon": 80.2550681}, {"type": "node", "id": 3606770680, "lat": 12.9920898, "lon": 80.2550924}, {"type": "node", "id": 3606770681, "lat": 12.9920904, "lon": 80.255069}, {"type": "node", "id": 3606770689, "lat": 12.9921717, "lon": 80.2549821}, {"type": "node", "id": 3606770690, "lat": 12.9921737, "lon": 80.2549133}, {"type": "node", "id": 3606770696, "lat": 12.9923138, "lon": 80.2549864}, {"type": "node", "id": 3606770697, "lat": 12.9923158, "lon": 80.2549177}, {"type": "node", "id": 3606770804, "lat": 12.9928027, "lon": 80.2550198}, {"type": "node", "id": 3606770836, "lat": 12.9928582, "lon": 80.2550215}, {"type": "node", "id": 3774527657, "lat": 12.9977206, "lon": 80.2573263}, {"type": "node", "id": 3774527658, "lat": 12.9976776, "lon": 80.257603}, {"type": "node", "id": 3774527659, "lat": 12.9978182, "lon": 80.2576261}, {"type": "node", "id": 3774527660, "lat": 12.9978613, "lon": 80.2573493}, {"type": "node", "id": 4006923518, "lat": 12.9920711, "lon": 80.2568853}, {"type": "node", "id": 4006923523, "lat": 12.992239, "lon": 80.2568853}, {"type": "node", "id": 4580960018, "lat": 12.9847632, "lon": 80.2572158}, {"type": "node", "id": 4580960020, "lat": 12.984625, "lon": 80.257465}, {"type": "node", "id": 4580960021, "lat": 12.9847396, "lon": 80.257476}, {"type": "node", "id": 5336542921, "lat": 13.0527235, "lon": 80.2727336, "tags": {"addr:block": "Chennai Zone Ix", "addr:district": "Chennai", "addr:full": "New No:91, Old No: 46, Royapettah, Dr. Besant Road", "addr:postcode": "600014", "addr:state": "Tamil Nadu", "amenity": "hospital", "healthcare": "hospital", "name": "The Cresent Hospital", "name:en": "The Crescent Hospital", "opening_hours": "Mo-Sa 08:00-13:00; Su 08:00-12:00", "source": "OpenGovernmentData"}}, {"type": "node", "id": 6914880546, "lat": 13.0268492, "lon": 80.2558082, "tags": {"addr:district": "Chennai", "addr:full": "#52, Raja Annamalai Puram", "addr:postcode": "600028", "addr:state": "Tamil Nadu", "amenity": "hospital", "healthcare": "hospital", "name": "Chennai Kaliappa Hospital", "source": "OpenGovernmentData"}}, {"type": "node", "id": 6926437416, "lat": 13.0477722, "lon": 80.2744473, "tags": {"addr:block": "Chennai Zone Ix", "addr:district": "Chennai", "addr:full": "New No: 119, Old No: 56, Ice House Police Station, Triplicane, Dr. Natesan St;Sudandira Nagar", "addr:postcode": "600005;600014", "addr:state": "Tamil Nadu", "amenity": "hospital", "healthcare": "hospital", "name": "Fousiya Hospital", "source": "OpenGovernmentData;Local Knowledge"}}, {"type": "node", "id": 6926808792, "lat": 12.9864526, "lon": 80.2601581, "tags": {"addr:district": "Chennai", "addr:full": "Old No 3, New 11, North Mada Street, Near Marundeeswarar Temple, Near Thiruvanmiyur Bus Terminus", "addr:postcode": "600041", "addr:state": "Tamil Nadu", "amenity": "hospital", "healthcare": "hospital", "name": "Starlight Hospitals Pvt Ltd", "source": "OpenGovernmentData"}}, {"type": "node", "id": 6926953017, "lat": 13.0274616, "lon": 80.2566481, "tags": {"addr:district": "Chennai", "addr:full": "No.43,Second Main Road,R A Puram", "addr:postcode": "600028", "addr:state": "Tamil Nadu", "amenity": "hospital", "healthcare": "hospital", "name": "Kaliappa Renal Center", "source": "OpenGovernmentData"}}, {"type": "node", "id": 6927380447, "lat": 13.0476871, "lon": 80.2646568, "tags": {"addr:district": "Chennai", "addr:full": "No.159 Lloyds Road , Siva .Ent Hospital Building", "addr:postcode": "600014", "addr:state": "Tamil Nadu", "amenity": "hospital", "healthcare": "hospital", "name": "Santhigiri Ayurveda and Siddha Hospital, Chennai", "source": "OpenGovernmentData"}}, {"type": "node", "id": 6927769046, "lat": 12.995229, "lon": 80.2691898, "tags": {"addr:district": "Chennai", "addr:full": "No. 1, 7Th Avenue, Besant Nagar. Near Velankanni Church", "addr:postcode": "600020", "addr:state": "Tamil Nadu", "amenity": "hospital", "healthcare": "hospital", "name": "Santosh Hospital Pvt Ltd", "source": "OpenGovernmentData"}}, {"type": "node", "id": 6928384708, "lat": 13.0407013, "lon": 80.2618016, "tags": {"addr:district": "Chennai", "addr:full": "No. 03 2nd Link Street. Cit Colony", "addr:postcode": "600004", "addr:state": "Tamil Nadu", "amenity": "hospital", "healthcare": "hospital", "name": "Dr. K Ravi Eye Care", "source": "OpenGovernmentData"}}, {"type": "node", "id": 6928727073, "lat": 13.0268688, "lon": 80.2541439, "tags": {"addr:district": "Chennai", "addr:full": "15, P.S.Sivasamy Salai, Off Dr.Radhakrishnan Raod) Mylapore", "addr:postcode": "600004", "addr:state": "Tamil Nadu", "amenity": "hospital", "healthcare": "hospital", "name": "Madras Ent Research Foundation", "source": "OpenGovernmentData"}}, {"type": "node", "id": 6928752799, "lat": 13.0541946, "lon": 80.257671, "tags": {"addr:district": "Chennai", "addr:full": "6B, Conran Smith Road, Gopalapuram", "addr:postcode": "600086", "addr:state": "Tamil Nadu", "amenity": "hospital", "healthcare": "hospital", "healthcare:speciality": "multi speciality", "name": "Dr. Mohans Mv Diabetes Specialities Centre - Chennai", "source": "OpenGovernmentData"}}, {"type": "node", "id": 6929398895, "lat": 13.0382607, "lon": 80.2582785, "tags": {"addr:block": "Chennai Zone Ix", "addr:district": "Chennai", "addr:full": "No:33, Near Alwarpet Signal, Mylapore, Desikan Road", "addr:postcode": "600004", "addr:state": "Tamil Nadu", "amenity": "hospital", "healthcare": "hospital", "name": "Trinity Acute Care Hospital - Chennai", "source": "OpenGovernmentData"}}, {"type": "node", "id": 6929625895, "lat": 13.026013, "lon": 80.2655232, "tags": {"addr:district": "Chennai", "addr:full": "200, Ramakrishnan Mutt Road, Mandaveli", "addr:postcode": "600028", "addr:state": "Tamil Nadu", "amenity": "hospital", "check_date": "2024-05-21", "emergency": "yes", "healthcare": "hospital", "internet_access": "no", "name": "B.S.S. Hospital", "name:en": "B.S.S. Hospital", "payment:cash": "yes", "payment:credit_cards": "yes", "payment:debit_cards": "yes", "source": "OpenGovernmentData", "wheelchair": "yes"}}, {"type": "node", "id": 6929731466, "lat": 13.037303, "lon": 80.2558136, "tags": {"addr:district": "Chennai", "addr:full": "Old No 32, New No 12, Conran Smith Road, Gopalapuram", "addr:postcode": "600086", "addr:state": "Tamil Nadu", "amenity": "hospital", "healthcare": "hospital", "name": "Harvey Healthcare Limited", "source": "OpenGovernmentData"}}, {"type": "node", "id": 6930163175, "lat": 13.0376198, "lon": 80.2619625, "tags": {"addr:district": "Chennai", "addr:full": "148, Luz Church Road Mylapore", "addr:postcode": "600004", "addr:state": "Tamil Nadu", "amenity": "hospital", "healthcare": "hospital", "name": "Chennai Meenakshi Multispeciality Hospital Ltd", "source": "OpenGovernmentData"}}, {"type": "node", "id": 6930188138, "lat": 13.0210394, "lon": 80.2592924, "tags": {"addr:district": "Chennai", "addr:full": "No:12/2, Bagirathi Ammal Street, C P Ramasamy Road, R.A.Puram", "addr:postcode": "600028", "addr:state": "Tamil Nadu", "amenity": "hospital", "healthcare": "hospital", "name": "Chennai Skin Foundation and Yesudian Research Institute", "source": "OpenGovernmentData"}}, {"type": "node", "id": 6932103990, "lat": 13.0390564, "lon": 80.2568208, "tags": {"addr:district": "Chennai", "addr:full": "#81, Ttk Road,Alwarpet", "addr:postcode": "600018", "addr:state": "Tamil Nadu", "amenity": "hospital", "healthcare": "hospital", "name": "Kauvery Hospital, Chennai", "source": "OpenGovernmentData"}}, {"type": "node", "id": 6932938089, "lat": 13.0435469, "lon": 80.2636349, "tags": {"addr:district": "Chennai", "addr:full": "No.15, P.S.Sivasamy Salai Road, P.S.Sivasamy Salai", "addr:postcode": "600004", "addr:state": "Tamil Nadu", "addr:subdistrict": "Mylapore", "amenity": "hospital", "email": "admin@lakshahospitals.com; stemcell@lakshahospitals.com", "healthcare": "hospital", "name": "Laksha Hospital", "operator:type": "private", "source": "OpenGovernmentData", "website": "http://www.lakshahospitals.com/"}}, {"type": "node", "id": 6933010451, "lat": 13.0269457, "lon": 80.2623196, "tags": {"addr:block": "Chennai Zone Ix", "addr:district": "Chennai", "addr:full": "38/56, Near Bank Of Baroda, Venkata Krishna Road, Jeth Nagar, Mandaveli", "addr:postcode": "600028", "addr:state": "Tamil Nadu", "amenity": "hospital", "check_date": "2024-05-22", "name": "Janamma Hospital", "name:en": "Janamma Hospital", "source": "OpenGovernmentData"}}, {"type": "node", "id": 6933038566, "lat": 13.0222055, "lon": 80.2622388, "tags": {"addr:district": "Chennai", "addr:full": "No 5 School View Road R K Nagar", "addr:postcode": "600028", "addr:state": "Tamil Nadu", "amenity": "hospital", "healthcare": "hospital", "name": "Indira Eye Hospital", "source": "OpenGovernmentData"}}, {"type": "node", "id": 6933510877, "lat": 12.9958562, "lon": 80.2603345, "tags": {"addr:district": "Chennai", "addr:full": "No-58, M G Road, Thiruvanmiyur", "addr:postcode": "600041", "addr:state": "Tamil Nadu", "amenity": "hospital", "healthcare": "hospital", "name": "Jayam Polyclinc", "source": "OpenGovernmentData"}}, {"type": "node", "id": 6933833923, "lat": 13.0535505, "lon": 80.2576911, "tags": {"addr:block": "Chennai Zone Ix", "addr:district": "Chennai", "addr:full": "32/12, Next To Gopalapuram Boys High School Play Ground, Gopalapuram, Conran Smith Road", "addr:postcode": "600086", "addr:state": "Tamil Nadu", "amenity": "hospital", "healthcare": "hospital", "name": "Life Medhospital", "source": "OpenGovernmentData"}}, {"type": "node", "id": 6934146446, "lat": 13.0350623, "lon": 80.2778479, "tags": {"addr:district": "Chennai", "addr:full": "35 A, Santhome High Road, Marina Beach", "addr:postcode": "600004", "addr:state": "Tamil Nadu", "amenity": "hospital", "healthcare": "hospital", "name": "Sinus And Nose Hospital - Mylapore, Chennai", "source": "OpenGovernmentData"}}, {"type": "node", "id": 6934271111, "lat": 12.996767, "lon": 80.2603599, "tags": {"addr:district": "Chennai", "addr:full": "33, Mahatma Gandhi Road, Sastri Nagar, 2nd Avenue, Adyar", "addr:postcode": "600020", "addr:state": "Tamil Nadu", "amenity": "hospital", "healthcare": "hospital", "healthcare:speciality": "ophthalmology", "name": "M N Eye Hospital", "source": "OpenGovernmentData"}}, {"type": "node", "id": 6934325882, "lat": 13.0328516, "lon": 80.2615173, "tags": {"addr:district": "Chennai", "addr:full": "Thoppu New No.2,(Old No.64),Dr.Ranga Road, Abiramapuram", "addr:postcode": "600018", "addr:state": "Tamil Nadu", "amenity": "hospital", "healthcare": "hospital", "name": "Nandalala Medical Foundation", "source": "OpenGovernmentData"}}, {"type": "node", "id": 6934340623, "lat": 13.0265108, "lon": 80.2607878, "tags": {"addr:district": "Chennai", "addr:full": "73 Venkatakrishna Road, Ra Puram", "addr:postcode": "600028", "addr:state": "Tamil Nadu", "amenity": "hospital", "check_date": "2024-05-22", "healthcare": "hospital", "name": "Navasuja Sankara Nethralaya", "name:en": "Navasuja Sankara Nethralaya", "source": "OpenGovernmentData"}}, {"type": "node", "id": 6936339822, "lat": 13.0441485, "lon": 80.2637114, "tags": {"addr:district": "Chennai", "addr:full": "3, P S Sivasami Salai Mylapore", "addr:postcode": "600004", "addr:state": "Tamil Nadu", "addr:subdistrict": "Mylapore", "amenity": "hospital", "email": "avmmerf@sify.com;ravikv@mail.com", "healthcare": "hospital", "name": "Avm Medical Ent Research Foundation Pvt Ltd", "operator:type": "private", "source": "OpenGovernmentData", "website": "https://avmmerf.in/contact.php"}}, {"type": "node", "id": 6936391765, "lat": 13.0177957, "lon": 80.2711008, "tags": {"addr:district": "Chennai", "addr:full": "No.41/42, 53/54, Sathyadev Avenue, Mrc Nagar", "addr:postcode": "600028", "addr:state": "Tamil Nadu", "amenity": "hospital", "name": "Apollo Specialty Hospitals Private Limited", "operator:type": "private", "source": "OpenGovernmentData"}}, {"type": "node", "id": 6936695126, "lat": 13.0427786, "lon": 80.2706811, "tags": {"addr:district": "Chennai", "addr:full": "4Second Street Dr Radhakrishnan Road Mylapore", "addr:postcode": "600004", "addr:state": "Tamil Nadu", "amenity": "hospital", "healthcare": "hospital", "name": "E V Kalyani Medical Centre", "source": "OpenGovernmentData"}}, {"type": "node", "id": 6936695172, "lat": 13.0269877, "lon": 80.2631588, "tags": {"addr:block": "Chennai Zone Ix", "addr:district": "Chennai", "addr:full": "Near Central Bank (Bus Stop), Mandaveli, Devanathan St", "addr:postcode": "600028", "addr:state": "Tamil Nadu", "amenity": "hospital", "name": "Yogi Vedha Kumari Hospital", "source": "OpenGovernmentData"}}, {"type": "node", "id": 7181711080, "lat": 13.0476113, "lon": 80.2650954, "tags": {"addr:district": "Chennai", "addr:full": "194, Old No 289, Lloyd's Road, Avvai Sanmugam Salai, Royapettah", "addr:postcode": "600014", "addr:state": "Tamil Nadu", "amenity": "hospital", "healthcare": "hospital", "name": "Vinayagam Laser Hospital, Chennai", "source": "OpenGovernmentData"}}, {"type": "node", "id": 7181721033, "lat": 13.0524884, "lon": 80.2736449, "tags": {"addr:district": "Chennai", "addr:full": "No: 290, Triplicane High Road, Triplicane", "addr:postcode": "600014", "addr:state": "Tamil Nadu", "amenity": "hospital", "healthcare": "hospital", "name": "Dr Agarwals Eye Hospital, Triplicane", "source": "OpenGovernmentData"}}, {"type": "node", "id": 7181722911, "lat": 13.0432085, "lon": 80.259169, "tags": {"addr:district": "Chennai", "addr:full": "No-19, Cathedral Road", "addr:postcode": "600086", "addr:state": "Tamil Nadu", "addr:subdistrict": "Gopala Puram", "amenity": "hospital", "email": "dragarwal@vsnl.com", "healthcare": "hospital", "name": "Dr.Agarwal's Eye Hospital Ltd., Gopala Puram", "operator": "Dr. Agarwal's Eye Hospital", "operator:type": "private", "operator:wikidata": "Q17052044", "source": "OpenGovernmentData", "website": "https://www.dragarwal.com/"}}, {"type": "node", "id": 7210911300, "lat": 13.0290525, "lon": 80.2636265, "tags": {"addr:district": "Chennai", "addr:full": "No.06, Chokkalingam St, Jeth Nagar, Mandaveli", "addr:postcode": "600028", "addr:state": "Tamil Nadu", "amenity": "hospital", "healthcare": "hospital", "name": "Sri Ranga Hospitals", "source": "OpenGovernmentData"}}, {"type": "node", "id": 7213449202, "lat": 13.003026, "lon": 80.2540981, "tags": {"addr:district": "Chennai", "addr:full": "3/2, 3/2, Adyar 3rd St, Bakthavatchalam Nagar, Baktavatsalm Nagar, Adyar, Chennai", "addr:postcode": "600020", "addr:state": "Tamil Nadu", "amenity": "hospital", "healthcare": "hospital", "name": "Gas Hospital", "source": "OpenGovernmentData"}}, {"type": "node", "id": 7252333372, "lat": 13.0508818, "lon": 80.2735131, "tags": {"addr:block": "Chennai Zone Ix", "addr:district": "Chennai", "addr:full": "Muthiah Street, Dr. Natesan Road, Ice House, Mirsahibpet, Royapettah", "addr:postcode": "600005", "addr:state": "Tamil Nadu", "amenity": "hospital", "healthcare": "hospital", "name": "A.R.A Hospital For Women", "source": "OpenGovernmentData"}}, {"type": "node", "id": 7252333394, "lat": 13.0487028, "lon": 80.2645448, "tags": {"addr:block": "Chennai Zone Ix", "addr:district": "Chennai", "addr:full": "128/241, (Opp) To Provident Fund Office, Royapettah", "addr:postcode": "600014", "addr:state": "Tamil Nadu", "amenity": "hospital", "healthcare": "hospital", "name": "Seethapathy clinic & Hospital", "source": "OpenGovernmentData", "wikidata": "Q61932788"}}, {"type": "node", "id": 7257421559, "lat": 12.9979497, "lon": 80.2562121, "tags": {"addr:block": "Chennai Zone Xiii", "addr:district": "Chennai", "addr:full": "Near Adiyar Police Station, Shastri Nagar, Adyar", "addr:postcode": "600020", "addr:state": "Tamil Nadu", "amenity": "hospital", "healthcare": "hospital", "name": "Government Hospital, Adyar", "source": "OpenGovernmentData"}}, {"type": "node", "id": 7257421601, "lat": 13.038362, "lon": 80.2572398, "tags": {"addr:block": "Chennai Zone Ix", "addr:district": "Chennai", "addr:full": "Cit Colony, Alwarpet", "addr:postcode": "600018", "addr:state": "Tamil Nadu", "amenity": "hospital", "healthcare": "hospital", "name": "Kavery Hospital", "source": "OpenGovernmentData"}}, {"type": "node", "id": 7823212559, "lat": 12.9753651, "lon": 80.2543198, "tags": {"addr:district": "Chengalpattu", "addr:full": "Valmiki Nagar, Kannappa Nagar, Thiruvanmiyur", "addr:postcode": "600041", "addr:state": "Tamil Nadu", "amenity": "hospital", "healthcare": "hospital", "name": "Shakthi Hospital", "source": "Local Knowledge"}}, {"type": "node", "id": 7823212570, "lat": 12.9757686, "lon": 80.2590077, "tags": {"addr:district": "Chengalpattu", "addr:full": "Thiruvanmiyur", "addr:postcode": "600041", "addr:state": "Tamil Nadu", "amenity": "hospital", "healthcare": "hospital", "name": "Hale and Healthy Hospitals", "source": "Local Knowledge"}}, {"type": "node", "id": 7823212607, "lat": 12.9751423, "lon": 80.2582571, "tags": {"addr:district": "Chengalpattu", "addr:full": "Kottivakkam, Near Tiruvanmiyur", "addr:postcode": "600041", "addr:state": "Tamil Nadu", "amenity": "hospital", "healthcare": "hospital", "name": "Promed Hospital", "source": "Local Knowledge"}}, {"type": "node", "id": 7823212610, "lat": 12.9693629, "lon": 80.2566138, "tags": {"addr:district": "Chengalpattu", "addr:full": "Kottivakkam", "addr:postcode": "600041", "addr:state": "Tamil Nadu", "amenity": "hospital", "healthcare": "hospital", "name": "Happy Clinic Hospital", "source": "Local Knowledge"}}, {"type": "node", "id": 7823415020, "lat": 12.9915347, "lon": 80.2615046, "tags": {"addr:district": "Chennai", "addr:full": "Radhakrishnan Nagar, Thiruvanmiyur", "addr:postcode": "600041", "addr:state": "Tamil Nadu", "amenity": "hospital", "healthcare": "hospital", "name": "Corporation Hospital", "source": "Local Knowledge"}}, {"type": "node", "id": 7823415021, "lat": 12.978253, "lon": 80.258947, "tags": {"addr:district": "Chennai", "addr:full": "Thiruvanmiyur", "addr:postcode": "600041", "addr:state": "Tamil Nadu", "amenity": "hospital", "healthcare": "hospital", "name": "Relief Dental Hospitals", "source": "Local Knowledge"}}, {"type": "node", "id": 7823415033, "lat": 13.041251, "lon": 80.267354, "tags": {"addr:district": "Chennai", "addr:full": "Mylapore, Chennai", "addr:postcode": "600004", "addr:state": "Tamil Nadu", "amenity": "hospital", "healthcare": "hospital", "name": "Accu Hospital", "source": "Local Knowledge"}}, {"type": "node", "id": 7823415037, "lat": 13.0512111, "lon": 80.273209, "tags": {"addr:district": "Chennai", "addr:full": "Sudandira Nagar, Royapettah", "addr:postcode": "600014", "addr:state": "Tamil Nadu", "amenity": "hospital", "healthcare": "hospital", "name": "Kalyani Hospital", "source": "Local Knowledge"}}, {"type": "node", "id": 7823415048, "lat": 13.0385371, "lon": 80.2581929, "tags": {"addr:district": "Chennai", "addr:full": "Mylapore, Chennai", "addr:postcode": "600004", "addr:state": "Tamil Nadu", "amenity": "hospital", "healthcare": "hospital", "name": "Triveni Hospital", "source": "Local Knowledge"}}, {"type": "node", "id": 7823415049, "lat": 12.986383, "lon": 80.260187, "tags": {"addr:district": "Chennai", "addr:full": "Kamaraj Nagar, Thiruvanmiyur", "addr:postcode": "600041", "addr:state": "Tamil Nadu", "amenity": "hospital", "healthcare": "hospital", "name": "SMK Hospital", "source": "Local Knowledge"}}, {"type": "node", "id": 7823415056, "lat": 12.9916719, "lon": 80.2624479, "tags": {"addr:district": "Chennai", "addr:full": "Radhakrishnan Nagar, Thiruvanmiyur", "addr:postcode": "600041", "addr:state": "Tamil Nadu", "amenity": "hospital", "healthcare": "hospital", "name": "Uma Sankaran Siddha Hospital", "source": "Local Knowledge"}}, {"type": "node", "id": 7823415059, "lat": 13.0490602, "lon": 80.2747953, "tags": {"addr:district": "Chennai", "addr:postcode": "600014", "addr:state": "Tamil Nadu", "amenity": "hospital", "healthcare": "hospital", "name": "Vasantha Hospital", "source": "Local Knowledge"}}, {"type": "node", "id": 7823415061, "lat": 13.0454703, "lon": 80.2668731, "tags": {"addr:district": "Chennai", "addr:full": "Royapettah, Chennai", "addr:postcode": "600004", "addr:state": "Tamil Nadu", "amenity": "hospital", "healthcare": "hospital", "name": "Orthomed Hospital", "source": "Local Knowledge"}}, {"type": "node", "id": 7823415065, "lat": 13.0013494, "lon": 80.258796, "tags": {"addr:district": "Chennai", "addr:full": "Shastri Nagar, Adyar", "addr:postcode": "600020", "addr:state": "Tamil Nadu", "amenity": "hospital", "healthcare": "hospital", "name": "Mint Hospitals", "source": "Local Knowledge"}}, {"type": "node", "id": 7823415083, "lat": 13.0436591, "lon": 80.2639406, "tags": {"addr:district": "Chennai", "addr:postcode": "600004", "addr:state": "Tamil Nadu", "amenity": "hospital", "healthcare": "hospital", "name": "Saanvi Fertility Centre Urology and Stone Centre", "source": "Local Knowledge"}}, {"type": "node", "id": 7823415084, "lat": 13.0528771, "lon": 80.2727865, "tags": {"addr:district": "Chennai", "addr:full": "Mirsahibpet, Royapettah", "addr:postcode": "600014", "addr:state": "Tamil Nadu", "amenity": "hospital", "healthcare": "hospital", "name": "The Crescent Hospital", "source": "Local Knowledge"}}, {"type": "node", "id": 7823415087, "lat": 13.0546321, "lon": 80.2774772, "tags": {"addr:district": "Chennai", "addr:full": "Narayana Krishnaraja Puram", "addr:postcode": "600005", "addr:state": "Tamil Nadu", "amenity": "hospital", "healthcare": "hospital", "name": "Syma Hospital", "source": "Local Knowledge"}}, {"type": "node", "id": 7823415088, "lat": 13.0547617, "lon": 80.2756509, "tags": {"addr:district": "Chennai", "addr:full": "Narayana Krishnaraja Puram, Triplicane", "addr:postcode": "600005", "addr:state": "Tamil Nadu", "amenity": "hospital", "healthcare": "hospital", "name": "Sri Parthasarathy Hospital", "source": "Local Knowledge"}}, {"type": "node", "id": 7823415091, "lat": 12.9890173, "lon": 80.2599586, "tags": {"addr:district": "Chennai", "addr:full": "Kamaraj Nagar, Thiruvanmiyur", "addr:postcode": "600041", "addr:state": "Tamil Nadu", "amenity": "hospital", "healthcare": "hospital", "name": "Ashwini Hospital", "source": "Local Knowledge"}}, {"type": "node", "id": 10161954838, "lat": 13.0393953, "lon": 80.2621409}, {"type": "node", "id": 10296799091, "lat": 13.0102417, "lon": 80.2586949}, {"type": "node", "id": 10296799092, "lat": 13.0103036, "lon": 80.2586966}, {"type": "node", "id": 10296799093, "lat": 13.010303, "lon": 80.2587121}, {"type": "node", "id": 10296799094, "lat": 13.0103202, "lon": 80.2587281}, {"type": "node", "id": 10296799095, "lat": 13.0101595, "lon": 80.2584897}, {"type": "node", "id": 10296799096, "lat": 13.0101597, "lon": 80.2589259, "tags": {"access": "private", "barrier": "gate"}}, {"type": "node", "id": 10296799097, "lat": 13.0099407, "lon": 80.2589187, "tags": {"access": "private", "barrier": "gate"}}, {"type": "node", "id": 10296799098, "lat": 13.0103209, "lon": 80.2581996}, {"type": "node", "id": 10296799100, "lat": 13.0101938, "lon": 80.2582684}, {"type": "node", "id": 11032908313, "lat": 13.0547671, "lon": 80.2644809}, {"type": "node", "id": 11032908314, "lat": 13.0547329, "lon": 80.2645496}, {"type": "node", "id": 11032908315, "lat": 13.0542494, "lon": 80.2645469}, {"type": "node", "id": 11633690559, "lat": 13.0362086, "lon": 80.2571464}, {"type": "node", "id": 11633690560, "lat": 13.0361798, "lon": 80.2574055}, {"type": "node", "id": 11757871795, "lat": 12.9846385, "lon": 80.2572089}, {"type": "node", "id": 13047649501, "lat": 13.0386137, "lon": 80.2626954}, {"type": "way", "id": 28730499, "nodes": [315888313, 315888314, 315888315, 315888316, 315888317, 315888313], "tags": {"source": "OpenGovernmentData"}}, {"type": "way", "id": 28732032, "nodes": [11032908313, 2480866163, 315901215, 315901216, 315901217, 315901284, 315901219, 315901212, 315901213, 11032908315, 11032908314, 11032908313], "tags": {"source": "OpenGovernmentData"}}, {"type": "way", "id": 29046387, "nodes": [319489495, 3606770836, 3606770804, 319489505, 3606770697, 3606770696, 3606770689, 3606770690, 319489509, 3606770663, 3606770666, 3606770665, 3606770674, 3606770675, 3606770681, 3606770680, 319489495], "tags": {"addr:district": "Chennai", "addr:full": "17,Iv Main Road,Indira Nagar", "addr:postcode": "600020", "addr:state": "Tamil Nadu", "amenity": "hospital", "building": "hospital", "healthcare": "hospital", "name": "Tt Ranganathan Clinical Research Foundation", "source": "OpenGovernmentData"}}, {"type": "way", "id": 29046742, "nodes": [319493745, 319493746, 319493747, 4006923518, 4006923523, 319493748, 319493745], "tags": {"addr:district": "Chennai", "addr:full": "34-37, Kalki Krishnamurthy Salai", "addr:postcode": "600041", "addr:state": "Tamil Nadu", "addr:subdistrict": "Thiruvanmiyur", "amenity": "hospital", "email": "contact@impcops.org", "healthcare": "hospital", "name": "IMPCOPS Traditional Hospital", "operator:type": "private", "source": "OpenGovernmentData", "website": "https://impcops.org/"}}, {"type": "way", "id": 35312695, "nodes": [413916094, 413916095, 413916096, 413916097, 10161954838, 2196313744, 413916098, 413916099, 2196313733, 413916100, 2197093192, 13047649501, 413916101, 413916102, 413916390, 413916103, 2196313615, 413916094], "tags": {"addr:district": "Chennai", "addr:full": "Near Vivekananda College, Myloapore, Oliver Road", "addr:postcode": "600004", "addr:state": "Tamil Nadu", "addr:suburb": "Mylapore", "amenity": "hospital", "healthcare": "hospital", "name": "\u0baa\u0bc1\u0ba9\u0bbf\u0ba4 \u0b87\u0bb8\u0bcd\u0baa\u0bc7\u0bb2\u0bcd \u0bae\u0bb0\u0bc1\u0ba4\u0bcd\u0ba4\u0bc1\u0bb5\u0bae\u0ba9\u0bc8", "name:en": "St. Isabel's Hospital", "source": "OpenGovernmentData"}}, {"type": "way", "id": 131961841, "nodes": [1451948712, 1451948622, 1451948599, 1451948692, 1451948712], "tags": {"amenity": "hospital", "healthcare": "hospital", "name": "Ayurveda Hospital"}}, {"type": "way", "id": 156240637, "nodes": [1685049623, 1685049624, 1685049552, 1685049551, 1685049570, 1685049581, 1685049586, 1685049590, 1685049619, 1685049623], "tags": {"addr:district": "Chennai", "addr:full": "No. 9, Murrays Gate Road, Alwarpet,Next To Jevnampet Post Office", "addr:postcode": "600018", "addr:state": "Tamil Nadu", "amenity": "hospital", "healthcare": "hospital", "name": "Udhi Eye Hospitals", "source": "OpenGovernmentData"}}, {"type": "way", "id": 156250603, "nodes": [1685124308, 1685124313, 1685124315, 1685124309, 1685124308], "tags": {"amenity": "hospital", "healthcare": "hospital", "name": "Agarwal Eye Hospital"}}, {"type": "way", "id": 156250608, "nodes": [1685124293, 1685124285, 1685124281, 1685124282, 1685124292, 1685124293], "tags": {"addr:district": "Chennai", "addr:full": "24, Kasturi Rangan Road,Near Hotel Citola Sheraton, Teynampet", "addr:postcode": "600018", "addr:state": "Tamil Nadu", "amenity": "hospital", "healthcare": "hospital", "name": "Aswene Soundarya Hospital", "source": "OpenGovernmentData"}}, {"type": "way", "id": 188445646, "nodes": [11633690559, 11633690560, 1990726958, 1990726968, 11633690559], "tags": {"addr:district": "Chennai", "addr:full": "12, C P Ramasamy Road, Alwarpet", "addr:postcode": "600018", "addr:state": "Tamil Nadu", "amenity": "hospital", "building": "yes", "healthcare": "hospital", "name": "Apollo Clinic & Pharmacy", "source": "OpenGovernmentData"}}, {"type": "way", "id": 209413524, "nodes": [2196313693, 2196313682, 2196313671, 2196313670, 2196313691, 2196313693], "tags": {"amenity": "hospital", "healthcare": "hospital", "name": "Trinity Acute Care"}}, {"type": "way", "id": 211274279, "nodes": [321842947, 2212976312, 2212976269, 2212976264, 321842947], "tags": {"addr:district": "Chennai", "addr:full": "# 15, Dr. Radhakrishnan Salai, Mylapore", "addr:postcode": "600004", "addr:state": "Tamil Nadu", "addr:street": "Dr Radhakrishnan Salai", "amenity": "hospital", "email": "csikalyanihospital@rocketmail.com", "healthcare": "hospital", "name": "CSI Kalyani Hospital", "source": "OpenGovernmentData", "website": "http://www.csikalyanihospital.com/"}}, {"type": "way", "id": 211423255, "nodes": [2214392247, 2214392260, 2214392265, 2214392255, 2214392243, 2214392247], "tags": {"amenity": "hospital", "healthcare": "hospital", "name": "EV Kalyani Hospital"}}, {"type": "way", "id": 211436948, "nodes": [2214530298, 3602114947, 2214530299, 2214530301, 2214530300, 2214530298], "tags": {"amenity": "hospital", "healthcare": "hospital"}}, {"type": "way", "id": 217726810, "nodes": [2270289077, 2270288873, 2270288828, 2270288824, 2270288820, 2270289004, 2270289070, 2270289073, 2270289083, 2270289079, 2270289077], "tags": {"addr:district": "Chennai", "addr:full": "No 11, 12, Dr Durgabai Deshmukh Road,R. A .Puram", "addr:postcode": "600028", "addr:state": "Tamil Nadu", "alt_name": "Durgabai Deshmukh General Hospital and Research Centre", "amenity": "hospital", "healthcare": "hospital", "name": "\u0b86\u0ba8\u0bcd\u0ba4\u0bbf\u0bb0 \u0bae\u0bbe\u0ba8\u0bbf\u0bb2 \u0b9a\u0baa\u0bbe", "name:en": "Andhra Mahila Sabha", "source": "OpenGovernmentData"}}, {"type": "way", "id": 218149507, "nodes": [2274279925, 2274279932, 2274279934, 2274279928, 2274279925], "tags": {"addr:block": "Chennai Zone Ix", "addr:district": "Chennai", "addr:full": "52, 2Nd Main Road, R.A. Puram, Trustpakkam, Raja Annamalai Puram", "addr:postcode": "600028", "addr:state": "Tamil Nadu", "addr:subdistrict": "Rajaannamalaipuram", "amenity": "hospital", "emergency": "yes", "healthcare": "hospital", "name": "Billroth Hospital", "operator:type": "private", "source": "OpenGovernmentData", "website": "https://www.billrothhospitals.com/"}}, {"type": "way", "id": 218163938, "nodes": [2274388002, 10296799094, 10296799093, 10296799092, 10296799091, 2274388000, 2274387999, 10296799096, 10296799097, 2274387996, 2274387995, 10296799095, 2274387998, 10296799100, 2274387997, 10296799098, 2274388001, 2274388002], "tags": {"amenity": "hospital", "healthcare": "hospital", "name": "Fortis Malar Hospital", "name:tn": "\u0b83\u0baa\u0bcb\u0bb0\u0bcd\u0b9f\u0bbf\u0bb8\u0bcd \u0bae\u0bb2\u0bb0\u0bcd \u0bae\u0bb0\u0bc1\u0ba4\u0bcd\u0ba4\u0bc1\u0bb5\u0bae\u0ba9\u0bc8 \u0b9a\u0bc6\u0ba9\u0bcd\u0ba9\u0bc8", "wikidata": "Q5472672", "wikipedia": "en:Fortis Malar Hospital"}}, {"type": "way", "id": 374048313, "nodes": [3774527657, 3774527658, 3774527659, 3774527660, 3774527657], "tags": {"addr:city": "Chennai", "addr:district": "Chennai", "addr:full": "28, First Cross Street, Shastri Nagar Adya (Behind Of Adyas Depot)", "addr:housenumber": "28", "addr:postcode": "600020", "addr:state": "Tamil Nadu", "addr:street": "Shastri Nagar 1st Cross Street", "amenity": "hospital", "emergency": "yes", "healthcare": "hospital", "name": "Shivasundar Hospital"}}, {"type": "way", "id": 462740006, "nodes": [4580960018, 11757871795, 4580960020, 4580960021, 4580960018], "tags": {"amenity": "hospital", "healthcare": "hospital", "name": "corporation hospital"}}, {"type": "relation", "id": 14377391, "members": [{"type": "way", "ref": 28732032, "role": "outer"}, {"type": "way", "ref": 28730499, "role": "outer"}], "tags": {"addr:block": "Chennai Zone Ix", "addr:district": "Chennai", "addr:full": "Royapettah Police Station, Royapettah, Ammaiappan Lane", "addr:postcode": "600014", "addr:state": "Tamil Nadu", "amenity": "hospital", "healthcare": "hospital", "name": "Royapettah Government Hospital", "type": "multipolygon", "wikidata": "Q14956845", "wikipedia": "en:Government Royapettah Hospital"}}]}