{"version": 0.6, "generator": "Overpass API 0.7.62.8 e802775f", "osm3s": {"timestamp_osm_base": "2026-01-13T07:32:05Z", "copyright": "The data included in this document is from www.openstreetmap.org. The data is made available under ODbL."}, "elements": [{"type": "node", "id": 462257802, "lat": 18.9679263, "lon": 72.8061792}, {"type": "node", "id": 469871436, "lat": 18.9723999, "lon": 72.803795}, {"type": "node", "id": 469871437, "lat": 18.9723187, "lon": 72.8041555}, {"type": "node", "id": 469871439, "lat": 18.972619, "lon": 72.8043958}, {"type": "node", "id": 469871440, "lat": 18.9727408, "lon": 72.8048336}, {"type": "node", "id": 469871442, "lat": 18.9728706, "lon": 72.8047992}, {"type": "node", "id": 469871451, "lat": 18.9727408, "lon": 72.80431}, {"type": "node", "id": 469871456, "lat": 18.9724486, "lon": 72.8040954}, {"type": "node", "id": 469871460, "lat": 18.9725135, "lon": 72.8038294}, {"type": "node", "id": 5206554121, "lat": 18.9645402, "lon": 72.8054881, "tags": {"addr:housenumber": "7", "addr:street": "August Kranti Marg", "amenity": "hospital", "healthcare": "hospital", "name:en": "Dr. Sunil n. vasani", "opening_hours": "Mo-Su 16:00-18:00"}}, {"type": "node", "id": 7664032220, "lat": 18.957089, "lon": 72.807333, "tags": {"addr:district": "Mumbai City", "addr:full": "Rambha Bhavan, Near Babulnath Temple, Khareghat Colony, Malabar Hill, Mumbai", "addr:postcode": "400007", "addr:state": "Maharastra", "amenity": "hospital", "name": "Hospital For Women Care", "source": "Local Knowledge"}}, {"type": "node", "id": 10561467200, "lat": 18.969953, "lon": 72.8064769}, {"type": "node", "id": 10561467202, "lat": 18.9691997, "lon": 72.8063482}, {"type": "node", "id": 10785298037, "lat": 18.967781, "lon": 72.8053241, "tags": {"access": "private", "barrier": "gate"}}, {"type": "node", "id": 10785298040, "lat": 18.9683068, "lon": 72.804755}, {"type": "node", "id": 10785298041, "lat": 18.9681419, "lon": 72.8050634}, {"type": "node", "id": 10785298042, "lat": 18.9680734, "lon": 72.8051358}, {"type": "node", "id": 10785298043, "lat": 18.9676955, "lon": 72.8053531}, {"type": "node", "id": 10785298044, "lat": 18.9676371, "lon": 72.8059298}, {"type": "node", "id": 10785298045, "lat": 18.967665, "lon": 72.8060344}, {"type": "node", "id": 10785298046, "lat": 18.9691703, "lon": 72.8065335}, {"type": "node", "id": 10785298047, "lat": 18.9700088, "lon": 72.8057635}, {"type": "node", "id": 10785298048, "lat": 18.9697678, "lon": 72.8057018}, {"type": "node", "id": 10785298049, "lat": 18.9697729, "lon": 72.8050205}, {"type": "node", "id": 10785298051, "lat": 18.9683626, "lon": 72.8047121}, {"type": "node", "id": 10956481065, "lat": 18.9689029, "lon": 72.8047201}, {"type": "way", "id": 39223162, "nodes": [469871436, 469871437, 469871439, 469871440, 469871442, 469871451, 469871456, 469871460, 469871436], "tags": {"amenity": "hospital", "building:levels": "10", "emergency": "yes", "healthcare": "hospital", "name": "\u092c\u094d\u0930\u0940\u091a \u0915\u0901\u0921\u0940 \u0939\u0949\u0938\u094d\u092a\u093f\u091f\u0932", "name:en": "Breach Candy Hospital", "name:hi": "\u092c\u094d\u0930\u0940\u091a \u0915\u0948\u0902\u0921\u0940 \u0905\u0938\u094d\u092a\u0924\u093e\u0932", "source": "Yahoo", "wikidata": "Q4959103", "wikipedia": "en:Breach Candy Hospital"}}, {"type": "way", "id": 1159753733, "nodes": [10785298051, 10956481065, 10785298049, 10785298048, 10785298047, 10561467200, 10561467202, 10785298046, 462257802, 10785298045, 10785298044, 10785298043, 10785298037, 10785298042, 10785298041, 10785298040, 10785298051], "tags": {"addr:district": "Mumbai", "addr:full": "Bomanjee Petit Road, Cumballa Hill", "addr:postcode": "400036", "addr:state": "Maharashtra", "amenity": "hospital", "email": "ceo@bdppgh.org; contact@bdppgh.org", "name": "The B.D.Petit Parsee General Hospital", "operator:type": "private", "source": "OpenGovernmentData", "website": "https://www.bdpetitparseegeneralhospital.org/", "wikidata": "Q60765656", "wikipedia": "en:B.D. Petit Parsee General Hospital"}}]}