{"version": 0.6, "generator": "Overpass API 0.7.62.8 e802775f", "osm3s": {"timestamp_osm_base": "2026-01-15T06:26:57Z", "copyright": "The data included in this document is from www.openstreetmap.org. The data is made available under ODbL."}, "elements": [{"type": "node", "id": 4157120941, "lat": 40.817932, "lon": 14.211656, "tags": {"bench": "no", "bus": "yes", "covered": "no", "highway": "bus_stop", "name": "Posillipo - Villa de Martino", "network": "ANM", "network:wikidata": "Q3601071", "operator": "Azienda Napoletana Mobilit\u00e0", "public_transport": "platform", "shelter": "no"}}, {"type": "node", "id": 4157120942, "lat": 40.8177758, "lon": 14.211717, "tags": {"bench": "no", "bus": "yes", "covered": "no", "highway": "bus_stop", "name": "Posillipo - Villa de Martino", "network": "ANM", "network:wikidata": "Q3601071", "operator": "Azienda Napoletana Mobilit\u00e0", "public_transport": "platform", "shelter": "no"}}, {"type": "node", "id": 4157495338, "lat": 40.8189968, "lon": 14.2127672, "tags": {"bench": "no", "bus": "yes", "covered": "no", "highway": "bus_stop", "name": "Posillipo", "network": "ANM", "network:wikidata": "Q3601071", "operator": "Azienda Napoletana Mobilit\u00e0", "public_transport": "platform", "shelter": "no"}}, {"type": "node", "id": 4157495340, "lat": 40.8199729, "lon": 14.2138673, "tags": {"bench": "yes", "bus": "yes", "covered": "yes", "highway": "bus_stop", "name": "Posillipo - Palazzo Donn'Anna - Pausilya Therme", "network": "ANM", "network:wikidata": "Q3601071", "operator": "Azienda Napoletana Mobilit\u00e0", "public_transport": "platform", "shelter": "yes"}}, {"type": "node", "id": 4157495341, "lat": 40.8189995, "lon": 14.2124803, "tags": {"bench": "no", "bus": "yes", "covered": "no", "highway": "bus_stop", "name": "Posillipo", "network": "ANM", "network:wikidata": "Q3601071", "operator": "Azienda Napoletana Mobilit\u00e0", "public_transport": "platform", "shelter": "no"}}]}