{"version": 0.6, "generator": "Overpass API 0.7.62.8 e802775f", "osm3s": {"timestamp_osm_base": "2026-01-13T09:37:45Z", "copyright": "The data included in this document is from www.openstreetmap.org. The data is made available under ODbL."}, "elements": [{"type": "node", "id": 347120067, "lat": 19.0571185, "lon": 72.8338596}, {"type": "node", "id": 347168743, "lat": 19.0560779, "lon": 72.8267648}, {"type": "node", "id": 347168744, "lat": 19.0554778, "lon": 72.8267854}, {"type": "node", "id": 347168745, "lat": 19.0554818, "lon": 72.8271174}, {"type": "node", "id": 347168746, "lat": 19.0549057, "lon": 72.8271253}, {"type": "node", "id": 347168747, "lat": 19.0549122, "lon": 72.8275145}, {"type": "node", "id": 347168748, "lat": 19.0560954, "lon": 72.8274859}, {"type": "node", "id": 1575266020, "lat": 19.1031903, "lon": 72.8470399}, {"type": "node", "id": 1575266022, "lat": 19.1033044, "lon": 72.8470264}, {"type": "node", "id": 1575266023, "lat": 19.1031718, "lon": 72.8469488}, {"type": "node", "id": 1575266025, "lat": 19.1032884, "lon": 72.8469193}, {"type": "node", "id": 1633985121, "lat": 19.13054, "lon": 72.8255553}, {"type": "node", "id": 1633985122, "lat": 19.1316825, "lon": 72.8243029}, {"type": "node", "id": 1633985123, "lat": 19.1310439, "lon": 72.8242331}, {"type": "node", "id": 1633985126, "lat": 19.1308995, "lon": 72.8244504}, {"type": "node", "id": 1633985129, "lat": 19.1315457, "lon": 72.8233868}, {"type": "node", "id": 1633985153, "lat": 19.1308964, "lon": 72.8240667}, {"type": "node", "id": 1633985155, "lat": 19.1310693, "lon": 72.8241768}, {"type": "node", "id": 1633985162, "lat": 19.1309476, "lon": 72.8244102}, {"type": "node", "id": 1633985170, "lat": 19.1308615, "lon": 72.8240561}, {"type": "node", "id": 1633985191, "lat": 19.130717, "lon": 72.8255608}, {"type": "node", "id": 1633985199, "lat": 19.1318871, "lon": 72.8234588}, {"type": "node", "id": 1633985202, "lat": 19.131355, "lon": 72.8241463}, {"type": "node", "id": 1633985205, "lat": 19.1309983, "lon": 72.8243431}, {"type": "node", "id": 1787854399, "lat": 19.116234, "lon": 72.8339632, "tags": {"addr:district": "Mumbai", "addr:full": "25, Gulmohar Park Gulmohar Road, Juhu Scheme Vile Parle - West", "addr:housenumber": "25", "addr:postcode": "400049", "addr:state": "Maharashtra", "addr:street": "Gulmohar Road", "amenity": "hospital", "emergency": "yes", "healthcare": "hospital", "name": "Sujay Hospital", "opening_hours": "24/7", "source": "OpenGovernmentData"}}, {"type": "node", "id": 2148673069, "lat": 19.1383055, "lon": 72.8099298}, {"type": "node", "id": 2148673071, "lat": 19.138164, "lon": 72.8094627}, {"type": "node", "id": 2148673121, "lat": 19.1376757, "lon": 72.8102108}, {"type": "node", "id": 2148673123, "lat": 19.1379854, "lon": 72.8091461}, {"type": "node", "id": 2148673134, "lat": 19.1376703, "lon": 72.8087569}, {"type": "node", "id": 2148673135, "lat": 19.137511, "lon": 72.8095858}, {"type": "node", "id": 2148673136, "lat": 19.1375056, "lon": 72.8098539}, {"type": "node", "id": 2148673144, "lat": 19.1373108, "lon": 72.8090762}, {"type": "node", "id": 2186668978, "lat": 19.132483, "lon": 72.8274922, "tags": {"amenity": "hospital", "designation": "Dental Clinic", "name": "Dr Manveen Gill"}}, {"type": "node", "id": 2449734759, "lat": 19.0549066, "lon": 72.827198, "tags": {"access": "private", "barrier": "gate", "name": "Gate 2"}}, {"type": "node", "id": 2449734760, "lat": 19.0549103, "lon": 72.8274255, "tags": {"access": "private", "barrier": "gate", "name": "Gate 1"}}, {"type": "node", "id": 2449734777, "lat": 19.055701, "lon": 72.8267823, "tags": {"access": "private", "barrier": "gate", "name": "Gate 3"}}, {"type": "node", "id": 2947820875, "lat": 19.0616337, "lon": 72.8451297, "tags": {"amenity": "hospital", "healthcare": "hospital"}}, {"type": "node", "id": 3589607622, "lat": 19.0833696, "lon": 72.8396091}, {"type": "node", "id": 3589607625, "lat": 19.0834084, "lon": 72.8393662}, {"type": "node", "id": 3589607628, "lat": 19.0834806, "lon": 72.8396289}, {"type": "node", "id": 3589607630, "lat": 19.0835193, "lon": 72.839386}, {"type": "node", "id": 3591988751, "lat": 19.0797777, "lon": 72.8401094}, {"type": "node", "id": 3591988753, "lat": 19.0797871, "lon": 72.8402171}, {"type": "node", "id": 3591988758, "lat": 19.0798166, "lon": 72.8402035}, {"type": "node", "id": 3591988762, "lat": 19.0798445, "lon": 72.8403563}, {"type": "node", "id": 3591988763, "lat": 19.0798478, "lon": 72.8400771}, {"type": "node", "id": 3591988766, "lat": 19.0798602, "lon": 72.8401071}, {"type": "node", "id": 3591988786, "lat": 19.0799358, "lon": 72.8400723}, {"type": "node", "id": 3591988795, "lat": 19.0800196, "lon": 72.8402754}, {"type": "node", "id": 3627071289, "lat": 19.068504, "lon": 72.8371295}, {"type": "node", "id": 3627071291, "lat": 19.0685152, "lon": 72.836917}, {"type": "node", "id": 3627071313, "lat": 19.0686166, "lon": 72.8371362}, {"type": "node", "id": 3627071318, "lat": 19.0686278, "lon": 72.8369236}, {"type": "node", "id": 3767106111, "lat": 19.1289988, "lon": 72.8316764, "tags": {"addr:district": "Mumbai", "addr:full": "1st Floor, The Link, Link Road Extension, Opposite Star Bazaar, Next To Audi Showroom, Andheri (W)", "addr:postcode": "400053", "addr:state": "Maharashtra", "amenity": "hospital", "healthcare": "hospital", "name": "Bellevue Multispeciality Hospital", "source": "OpenGovernmentData"}}, {"type": "node", "id": 3951526714, "lat": 19.0959684, "lon": 72.8400115, "tags": {"addr:district": "Mumbai", "addr:full": "S V Road , Vile Parle", "addr:postcode": "400056", "addr:state": "Maharashtra", "addr:street": "Swami Vivekanand Road", "amenity": "hospital", "contact:phone": "2226267500", "email": "info@nanavatihospital.org", "healthcare": "hospital", "name": "Nanavati Hospital, Mumbai", "opening_hours": "24/7", "operator:type": "government", "source": "OpenGovernmentData", "website": "https://www.nanavatihospital.org/", "wikidata": "Q6962443", "wikipedia": "en:Nanavati hospital"}}, {"type": "node", "id": 3951538079, "lat": 19.0857296, "lon": 72.8377345, "tags": {"amenity": "hospital", "name": "Surya Mother And Child Speciality Hospital"}}, {"type": "node", "id": 3951538080, "lat": 19.0855132, "lon": 72.837945, "tags": {"addr:district": "Mumbai", "addr:full": "101/102 Mangal Ashirwad, June S.V. Road & Dattatray Road, T.P.S. Ii Santacruz (W)", "addr:postcode": "400054", "addr:state": "Maharashtra", "amenity": "hospital", "name": "Surya Childrens Hospital", "source": "OpenGovernmentData"}}, {"type": "node", "id": 3979081599, "lat": 19.1140839, "lon": 72.8417197, "tags": {"addr:district": "Mumbai", "addr:full": "2-A,Manubharti Chs,Azad Lane,S V Road,Andheri", "addr:postcode": "400059", "addr:state": "Maharashtra", "amenity": "hospital", "name": "Nutan Mammography and Sonography Centre", "source": "OpenGovernmentData"}}, {"type": "node", "id": 3979327149, "lat": 19.1212448, "lon": 72.8270705}, {"type": "node", "id": 3979327151, "lat": 19.120928, "lon": 72.8268882}, {"type": "node", "id": 3979327152, "lat": 19.1209656, "lon": 72.8268108}, {"type": "node", "id": 3979327153, "lat": 19.1212949, "lon": 72.8269663}, {"type": "node", "id": 4352387478, "lat": 19.0750197, "lon": 72.8356392, "tags": {"addr:city": "Santa Cruz", "addr:district": "Mumbai", "addr:full": "12Th Road, Khar", "addr:postcode": "400052", "addr:state": "Maharashtra", "addr:street": "South Avenue", "amenity": "hospital", "check_date": "2025-06-12", "healthcare": "hospital", "name": "Ramakrishna Mission Hospital, Mumbai", "source": "OpenGovernmentData"}}, {"type": "node", "id": 4998848423, "lat": 19.1117839, "lon": 72.8283425, "tags": {"addr:district": "Mumbai", "addr:full": "N. S. Road No. 13, Juhu Scheme, Vile Parle (W), Nxt To Utpal Sanghvi School", "addr:postcode": "400049", "addr:state": "Maharashtra", "addr:street": "N S Road No. 13", "amenity": "hospital", "healthcare": "hospital", "name": "Bharatiya Arogya Nidhi Sheth Kantilal C. Parikh General Hospital", "name:en": "Bharatiya Arogya Nidhi Sheth Kantilal C. Parikh General Hospital", "opening_hours": "24/7", "phone": "02226206021", "source": "OpenGovernmentData"}}, {"type": "node", "id": 5201099224, "lat": 19.1372375, "lon": 72.8366102, "tags": {"addr:street": "Hanuman Mandir road", "amenity": "hospital", "healthcare": "hospital", "name:en": "R G Stone"}}, {"type": "node", "id": 6228730399, "lat": 19.0577092, "lon": 72.8337577}, {"type": "node", "id": 6228730400, "lat": 19.0576712, "lon": 72.8330362}, {"type": "node", "id": 6228730401, "lat": 19.0570577, "lon": 72.8330576}, {"type": "node", "id": 6228730402, "lat": 19.0576636, "lon": 72.8338301}, {"type": "node", "id": 6228754300, "lat": 19.0570865, "lon": 72.833438}, {"type": "node", "id": 7043174029, "lat": 19.1181601, "lon": 72.844288, "tags": {"addr:district": "Mumbai", "addr:full": "11, GangaVihar Residency, 174 S.V.Road", "addr:postcode": "400058", "addr:state": "Maharashtra", "amenity": "hospital", "email": "drsamir@gynaecexpert.com", "healthcare": "hospital", "name": "Sangita Maternity Surgical and Diagnostic Centre", "operator:type": "private", "source": "OpenGovernmentData", "website": "https://gynaecexpert.com/"}}, {"type": "node", "id": 7043174030, "lat": 19.0632283, "lon": 72.834439, "tags": {"addr:district": "Mumbai", "addr:full": "8 Roseland Bulding, 180, Opposite National College, Junction Of Linking And Waterfield Road, Bandra West", "addr:postcode": "400050", "addr:state": "Maharashtra", "amenity": "hospital", "email": "info@ojaseyehospital.com", "healthcare": "hospital", "name": "Ojas Eye Hospital", "source": "OpenGovernmentData", "website": "https://www.ojaseyehospital.com/"}}, {"type": "node", "id": 7043182324, "lat": 19.0803279, "lon": 72.8421846, "tags": {"addr:district": "Mumbai", "addr:full": "Qureshi House, 6Th Nehru Road,Near Santacruz Railway Station, Santacruz (East)", "addr:postcode": "400055", "addr:state": "Maharashtra", "amenity": "hospital", "healthcare": "hospital", "name": "R. K. Hospital, Mumbai", "source": "OpenGovernmentData"}}, {"type": "node", "id": 7043230046, "lat": 19.1284312, "lon": 72.8468965, "tags": {"addr:district": "Mumbai", "addr:full": "202, Bonaza Residency, Behind : Laxmi Auto S V Road, Amboli", "addr:postcode": "400058", "addr:state": "Maharashtra", "amenity": "hospital", "healthcare": "hospital", "healthcare:speciality": "chiropractic", "name": "Prime Orthopedic Speciality Hospital, Mumbai", "operator": "abv", "operator:type": "public", "source": "OpenGovernmentData"}}, {"type": "node", "id": 7043348148, "lat": 19.0797908, "lon": 72.8427047, "tags": {"addr:district": "Mumbai", "addr:full": "Shri Sadashiv Chs, 6Th Road, Santacruz(E)", "addr:postcode": "400055", "addr:state": "Maharashtra", "amenity": "hospital", "healthcare": "hospital", "name": "Nandan Maternity and Surgical Home", "source": "OpenGovernmentData"}}, {"type": "node", "id": 7043376493, "lat": 19.0784905, "lon": 72.8380749, "tags": {"addr:district": "Mumbai", "addr:full": "101, Kirti Manor, S V Road, Phiroz Dastoor & Sons, Santacruz West", "addr:postcode": "400054", "addr:state": "Maharashtra", "amenity": "hospital", "healthcare": "hospital", "name": "Mumbai Retina Centre", "source": "OpenGovernmentData"}}, {"type": "node", "id": 7043388690, "lat": 19.0879436, "lon": 72.8376687, "tags": {"addr:district": "Mumbai", "addr:full": "G-6, Chirag Housing Society, B-1, S.V.Road, Santacruz(W)", "addr:postcode": "400054", "addr:state": "Maharashtra", "amenity": "hospital", "name": "Malpani Eye Hospital and Laser Centre", "source": "OpenGovernmentData"}}, {"type": "node", "id": 7043397894, "lat": 19.089509, "lon": 72.8385763, "tags": {"addr:district": "Mumbai", "addr:full": "102 D Wing Rizvi Nagar 1 St Floor S.V.Road Milan , , Corner Santacruz", "addr:postcode": "400054", "addr:state": "Maharashtra", "amenity": "hospital", "name": "Kenias Eye Hospital", "source": "OpenGovernmentData"}}, {"type": "node", "id": 7043397906, "lat": 19.1129534, "lon": 72.8379245, "tags": {"addr:district": "Mumbai", "addr:full": "B201, Dhruv, OppositeGagandeep, Main Road, Juhu, Vile Parle (West)", "addr:postcode": "400056", "addr:state": "Maharashtra", "amenity": "hospital", "email": "info@lasersformedicine.com", "name": "Centre For Sight, Juhu", "operator:type": "private", "source": "OpenGovernmentData", "website": "https://www.centreforsight.net/"}}, {"type": "node", "id": 7043548005, "lat": 19.0604187, "lon": 72.8369254, "tags": {"addr:district": "Mumbai", "addr:full": "# 222, S.V. Road, Bandra- West", "addr:postcode": "400050", "addr:state": "Maharashtra", "amenity": "hospital", "healthcare": "hospital", "name": "Shroff Eye Hospital", "source": "OpenGovernmentData"}}, {"type": "node", "id": 7045282445, "lat": 19.1305947, "lon": 72.8184403, "tags": {"addr:district": "Mumbai", "addr:full": "5/6-C, Janakdeep Bldg, 7 Bungalow, J.P.Road, Andheri West", "addr:postcode": "400061", "addr:state": "Maharashtra", "amenity": "hospital", "name": "Mahima Hospital and Polyclinic", "source": "OpenGovernmentData"}}, {"type": "node", "id": 7045315311, "lat": 19.1344091, "lon": 72.8243659, "tags": {"addr:district": "Mumbai", "addr:full": "32, Behind Blases Church, Ceasors Road, Hamboli, Andheriw)", "addr:postcode": "400053", "addr:state": "Maharashtra", "amenity": "hospital", "healthcare": "hospital", "name": "Indu Child Care Center", "source": "OpenGovernmentData"}}, {"type": "node", "id": 7047711117, "lat": 19.1274074, "lon": 72.8314617, "tags": {"addr:district": "Mumbai", "addr:full": "D.N.Nagar, Link Road, J.P.Road Junction, Andheri (W)", "addr:postcode": "400053", "addr:state": "Maharashtra", "amenity": "hospital", "healthcare": "hospital", "name": "Siddhivinayak Surgical Centre", "source": "OpenGovernmentData"}}, {"type": "node", "id": 7048131897, "lat": 19.1293511, "lon": 72.8221216, "tags": {"addr:district": "Mumbai", "addr:full": "F-3, Evershine Apartment, Four Bunglow, J. P. Road, Andheri(W)", "addr:postcode": "400058", "addr:state": "Maharashtra", "amenity": "hospital", "check_date": "2025-10-18", "name": "Purandare Hospital, Mumbai", "source": "OpenGovernmentData"}}, {"type": "node", "id": 7048433674, "lat": 19.127861, "lon": 72.8333795, "tags": {"addr:district": "Mumbai", "addr:full": "Andheri Mumbai", "addr:postcode": "400005", "addr:state": "Maharashtra", "amenity": "hospital", "bench": "yes", "bus": "yes", "highway": "bus_stop", "name": "Sujata Medicare (Sujata Gyanaecology Clinic);Dhake Colony", "name:hi": "\u0927\u093e\u0915\u0947 \u0915\u094c\u0932\u0928\u0940", "public_transport": "platform", "shelter": "yes", "source": "OpenGovernmentData"}}, {"type": "node", "id": 7048747818, "lat": 19.1352084, "lon": 72.8140642, "tags": {"addr:district": "Mumbai", "addr:full": "Flat No 7, Near Police Officer progressive HSG, SOC near Agha Khan Baugh", "addr:postcode": "400061", "addr:state": "Maharashtra", "amenity": "hospital", "name": "Saket Maternity and Nursing Home", "source": "OpenGovernmentData"}}, {"type": "node", "id": 7049336179, "lat": 19.1156879, "lon": 72.8353295, "tags": {"addr:district": "Mumbai", "addr:full": "Plot No38/39, Opposite Juhu Supreme Shopping Centre, Main Gulmohar Road, Andheri (W),", "addr:postcode": "400049", "addr:state": "Maharashtra", "amenity": "hospital", "email": "info@criticarehospital.in", "name": "Criticare Multispeciality Hospital and Research Centre", "operator:type": "private", "source": "OpenGovernmentData", "website": "https://www.criticarehospital.in/"}}, {"type": "node", "id": 7049344773, "lat": 19.1433248, "lon": 72.8427203, "tags": {"addr:district": "Mumbai", "addr:full": "1st Floor, Aftab Classic, Opposite City Hospital, S.V Road, Jogeshwari(West)", "addr:postcode": "400102", "addr:state": "Maharashtra", "amenity": "hospital", "contact:phone": "2226771188", "email": "info@orbiteyehospital.in", "healthcare": "hospital", "name": "Orbit Eye Hospital, Mumbai", "operator:type": "private", "source": "OpenGovernmentData", "website": "https://orbiteyehospital.in/"}}, {"type": "node", "id": 7049584815, "lat": 19.0740757, "lon": 72.8329611, "tags": {"addr:district": "Mumbai", "addr:full": "21 - A, Sita Bhavan, 14Th A Road, Ahimsa Marg, Khar (West)", "addr:postcode": "400052", "addr:state": "Maharashtra", "amenity": "hospital", "email": "info@rghospital.com", "healthcare": "hospital", "healthcare:speciality": "urology;clinical_pathology", "name": "RG Stone Urology and Laparoscopy Hospital, Khar", "operator:type": "private", "source": "OpenGovernmentData", "website": "https://www.rghospitals.com/"}}, {"type": "node", "id": 7049712542, "lat": 19.1312947, "lon": 72.8246301, "tags": {"addr:city": "Mumbai", "addr:district": "Mumbai", "addr:full": "Rao Saheb Achutrao Patwardhan Marg, Four Bungalows, Andheri West", "addr:housenumber": "madha near gyan kendra school", "addr:postcode": "400053", "addr:state": "Maharashtra", "addr:street": "Jai Prakash Road", "amenity": "hospital", "emergency": "yes", "healthcare": "hospital", "healthcare:speciality": "general;chiropractic;gynaecology", "name": "Kokilaben Dhirubhai Ambani Hospital, Mumbai", "opening_hours": "24/7", "operator": "sathya", "operator:type": "public", "source": "OpenGovernmentData"}}, {"type": "node", "id": 7049755583, "lat": 19.1188723, "lon": 72.8433318, "tags": {"addr:district": "Mumbai", "addr:full": "Om Nikentan V P Road S V Road Behind Hotel Alpha , Andher (West)", "addr:postcode": "400001", "addr:state": "Maharashtra", "amenity": "hospital", "healthcare": "hospital", "name": "Dr Telangs Dhanvantari Hospital", "source": "OpenGovernmentData"}}, {"type": "node", "id": 7049822998, "lat": 19.1235929, "lon": 72.8423361, "tags": {"addr:district": "Mumbai", "addr:full": "110-A, Jaiprakash Road, OppositeNavrang Theatre, Andheri(W)", "addr:postcode": "400058", "addr:state": "Maharashtra", "amenity": "hospital", "healthcare": "hospital", "name": "Patil Hospital, Mumbai", "source": "OpenGovernmentData"}}, {"type": "node", "id": 7049847480, "lat": 19.114371, "lon": 72.8334123, "tags": {"addr:district": "Mumbai", "addr:full": "101, Juhu Sheetal,Jvpd Scheme, 9Th Gulmohar Cross Road ,Vile Parle(W)", "addr:postcode": "400049", "addr:state": "Maharashtra", "amenity": "hospital", "name": "Oculus Eye Hospital Pvt. Ltd", "source": "OpenGovernmentData"}}, {"type": "node", "id": 7051070842, "lat": 19.1373789, "lon": 72.8466645, "tags": {"addr:district": "Mumbai", "addr:full": "Sharma Estate, Next To Dlwan Shopping Centre,S.V.Road, Jogeswari (W)", "addr:postcode": "400102", "addr:state": "Maharashtra", "amenity": "hospital", "name": "Mallika Hospital and Envision Eye Centre", "source": "OpenGovernmentData"}}, {"type": "node", "id": 7051342865, "lat": 19.1288557, "lon": 72.8294756, "tags": {"addr:district": "Mumbai", "addr:full": "Yashodhan Apt. No.1,Next To Four Bunglows Signal, Andheri (W)", "addr:postcode": "400053", "addr:state": "Maharashtra", "amenity": "hospital", "healthcare": "hospital", "name": "Dr. Pareeks Deafness Clinic and Ent Hospital - andheri", "source": "OpenGovernmentData"}}, {"type": "node", "id": 7052185493, "lat": 19.0744458, "lon": 72.8344122, "tags": {"addr:district": "Mumbai", "addr:full": "1 Milton Tower, 290-291, Linking Road, Khar West", "addr:postcode": "400052", "addr:state": "Maharashtra", "amenity": "hospital", "healthcare": "hospital", "healthcare:speciality": "pathology", "name": "Khar Clinico-Pathology Laboratory", "source": "OpenGovernmentData"}}, {"type": "node", "id": 7052813761, "lat": 19.1273593, "lon": 72.8315811, "tags": {"addr:district": "Mumbai", "addr:full": "15/16, A-Wing, Doctors Corner, Sitladevi Chs,Opp Indian Oil Nagar, D.N.Nagar, Andheri Link Road", "addr:postcode": "400058", "addr:state": "Maharashtra", "amenity": "hospital", "healthcare": "hospital", "name": "Dr. Vaidya Eye Hospital", "source": "OpenGovernmentData"}}, {"type": "node", "id": 7053184769, "lat": 19.1293815, "lon": 72.815854, "tags": {"addr:district": "Mumbai", "addr:full": "Vishwashanti, Juhu - 7 Bungalows, Link Road, 7, Bungalows Garden", "addr:postcode": "400061", "addr:state": "Maharashtra", "amenity": "hospital", "name": "Mamta Maternity and Nursing Home", "source": "OpenGovernmentData"}}, {"type": "node", "id": 7054456795, "lat": 19.1169678, "lon": 72.8443725, "tags": {"addr:district": "Mumbai", "addr:full": "Alka Building Opp M A High School S V Road Andheri W", "addr:postcode": "400058", "addr:state": "Maharashtra", "amenity": "hospital", "healthcare": "hospital", "name": "Vibha Maternity and Surgical Nursing Home", "source": "OpenGovernmentData"}}, {"type": "node", "id": 7054682098, "lat": 19.055927, "lon": 72.8368556, "tags": {"addr:district": "Mumbai", "addr:full": "Opp,Lake.S.V Road,Bandra(West)", "addr:postcode": "400050", "addr:state": "Maharashtra", "amenity": "hospital", "healthcare": "hospital", "name": "Mahatma Gandhi Seva Mandir", "source": "OpenGovernmentData"}}, {"type": "node", "id": 7055036505, "lat": 19.1291496, "lon": 72.825176, "tags": {"addr:district": "Mumbai", "addr:full": "003, Yashodhan Building II, JP Road, Four Bungalows, Andheri West", "addr:postcode": "400053", "addr:state": "Maharashtra", "amenity": "hospital", "check_date": "2025-10-18", "healthcare": "hospital", "name": "Sehgal Path Lab", "source": "OpenGovernmentData", "website": "https://sehgalpathlab.com/"}}, {"type": "node", "id": 7055144633, "lat": 19.0880933, "lon": 72.8363293, "tags": {"addr:district": "Mumbai", "addr:full": "B-9/G-2 & 3, Ground Floor, Khira Nagar, S V Road, Santacruz West", "addr:postcode": "400054", "addr:state": "Maharashtra", "amenity": "hospital", "healthcare": "hospital", "name": "Malhaar Maternity and Nursing Home", "source": "OpenGovernmentData"}}, {"type": "node", "id": 7055276698, "lat": 19.1148073, "lon": 72.8432044, "tags": {"addr:district": "Mumbai", "addr:full": "Viral Apartments, I Floor, Shoppers Shop,S.V.Road, Andheri (W)", "addr:postcode": "400058", "addr:state": "Maharashtra", "amenity": "hospital", "name": "Doctor Eye Hospital", "source": "OpenGovernmentData"}}, {"type": "node", "id": 7055330884, "lat": 19.1386865, "lon": 72.8321403, "tags": {"addr:district": "Mumbai", "addr:full": "Spenta Mansion, S.V.Road, Andheri(W)", "addr:postcode": "400058", "addr:state": "Maharashtra", "amenity": "hospital", "healthcare": "hospital", "name": "Dr Eye Institute Pvt Ltd", "source": "OpenGovernmentData"}}, {"type": "node", "id": 7055441837, "lat": 19.07045, "lon": 72.8370246, "tags": {"addr:district": "Mumbai", "addr:full": "Naseeb Plot No.115,1st Floor, S.V.Road, Khar (West)", "addr:postcode": "400052", "addr:state": "Maharashtra", "amenity": "hospital", "healthcare": "hospital", "name": "G.M.Medical Centre - Khar", "source": "OpenGovernmentData"}}, {"type": "node", "id": 7055460057, "lat": 19.0660316, "lon": 72.8319771, "tags": {"addr:district": "Mumbai", "addr:full": "Shyamkripa Bldg,Ground Floor 15Th Road, Khar (W)", "addr:postcode": "400052", "addr:state": "Maharashtra", "amenity": "hospital", "healthcare": "hospital", "name": "Tulip Womens Healthcare Centre - Khar (W)", "source": "OpenGovernmentData"}}, {"type": "node", "id": 7055476546, "lat": 19.1309793, "lon": 72.8468147, "tags": {"addr:district": "Mumbai", "addr:full": "Gokul Apt. Kevanipada, Next To Farooq High School, S. V Road Jogeshwari (W)", "addr:postcode": "400102", "addr:state": "Maharashtra", "amenity": "hospital", "healthcare": "hospital", "name": "Mother Care Maternity and Surgical Nursing Home - Mumbai", "source": "OpenGovernmentData"}}, {"type": "node", "id": 7055590161, "lat": 19.0554466, "lon": 72.8357264, "tags": {"addr:district": "Mumbai", "addr:full": "1st Floor , Diamond Palace , 15 - A , Hill Road , Opposite Bandra , Police Station , Bandra (West )", "addr:postcode": "400050", "addr:state": "Maharashtra", "amenity": "hospital", "healthcare": "hospital", "name": "Parekh Eye Hospital", "source": "OpenGovernmentData"}}, {"type": "node", "id": 7062228611, "lat": 19.0713778, "lon": 72.8377193, "tags": {"addr:district": "Mumbai", "addr:full": "Mumbai", "addr:postcode": "400052", "addr:state": "Maharashtra", "amenity": "hospital", "name": "I Sight Eyecare and Surgery", "source": "OpenGovernmentData"}}, {"type": "node", "id": 7064405838, "lat": 19.0716358, "lon": 72.837663, "tags": {"addr:district": "Mumbai", "addr:full": "No. 81, Swami Vivekanand Road, Above State Bank Of India, Khar West", "addr:postcode": "400052", "addr:state": "Maharashtra", "amenity": "hospital", "name": "Dr Gupte Lying-In Surgical Hospital", "source": "OpenGovernmentData"}}, {"type": "node", "id": 7065572990, "lat": 19.1126049, "lon": 72.8425607, "tags": {"addr:district": "Mumbai", "addr:full": "Andheri", "addr:postcode": "400053", "addr:state": "Maharashtra", "amenity": "hospital", "name": "Dr. Joshi Surgical and Maternity Hospital", "source": "OpenGovernmentData"}}, {"type": "node", "id": 7068429399, "lat": 19.119331, "lon": 72.845019, "tags": {"addr:district": "Mumbai", "addr:full": "S.V Road, Opp Railway Station, Andheri West", "addr:postcode": "400058", "addr:state": "Maharashtra", "amenity": "hospital", "healthcare": "hospital", "name": "Bses Mg Hospital (Managed By)Brahma Kumari Global Hospital and Res Center", "source": "OpenGovernmentData"}}, {"type": "node", "id": 7069814015, "lat": 19.0605379, "lon": 72.8456949, "tags": {"addr:district": "Mumbai", "addr:full": "Bldg.No.3,Kher Nagar Kala Co-Op Hsg Soc., Ram Mandir Road, Bandra (E)", "addr:postcode": "400051", "addr:state": "Maharashtra", "amenity": "hospital", "healthcare": "hospital", "name": "Nandini Eye Care Centre", "source": "OpenGovernmentData"}}, {"type": "node", "id": 7070050990, "lat": 19.1274049, "lon": 72.8313719, "tags": {"addr:district": "Mumbai", "addr:full": "Docors Comer, Sitladevi C.H.S.,D.N.Nagar, New Link Road, Andheri (W)", "addr:postcode": "400053", "addr:state": "Maharashtra", "amenity": "hospital", "healthcare": "hospital", "name": "Eva Medicare Center - andheri", "source": "OpenGovernmentData"}}, {"type": "node", "id": 7070857458, "lat": 19.0895432, "lon": 72.8379983, "tags": {"addr:district": "Mumbai", "addr:full": "C-Wing 1st Floor Rizvi Park,At Milan Subway Signal S V Road Santacruz(W)", "addr:postcode": "400054", "addr:state": "Maharashtra", "amenity": "hospital", "name": "Life Line Hospital and Diagnostics Pvt Ltd", "source": "OpenGovernmentData"}}, {"type": "node", "id": 7070857483, "lat": 19.1439215, "lon": 72.8430556, "tags": {"addr:district": "Mumbai", "addr:full": "Hafizi House, S.V. Road, Oshiwara Jogeshwari(W)", "addr:postcode": "400102", "addr:state": "Maharashtra", "amenity": "hospital", "healthcare": "hospital", "name": "Shivam Netram Eye Hospital", "source": "OpenGovernmentData"}}, {"type": "node", "id": 7070859097, "lat": 19.1031325, "lon": 72.8392227, "tags": {"addr:district": "Mumbai", "addr:full": "D-31, Navmangal Chs, 1st Floor,Above Venilal Saree Shop, S. V. Road", "addr:postcode": "400056", "addr:state": "Maharashtra", "amenity": "hospital", "name": "Khandwala Eye Hospital and Polyclinic", "source": "OpenGovernmentData"}}, {"type": "node", "id": 7070859138, "lat": 19.1095535, "lon": 72.8376684, "tags": {"addr:district": "Mumbai", "addr:full": "2nd Floor , Shri Mumbadevi Homeopathic Hospital , Natakkar Ram , Ganesh Gadkari Road , Irla , Vile Parle ( West )", "addr:postcode": "400056", "addr:state": "Maharashtra", "amenity": "hospital", "healthcare": "hospital", "name": "Life Care Iccu , Medical and Surgical Emergencies", "source": "OpenGovernmentData"}}, {"type": "node", "id": 7072801164, "lat": 19.0857328, "lon": 72.8367229, "tags": {"addr:district": "Mumbai", "addr:full": "5-D, Dattaray Road, Santacruz (West)", "addr:postcode": "400054", "addr:state": "Maharashtra", "amenity": "hospital", "name": "Sarla Hospital and Icu", "source": "OpenGovernmentData"}}, {"type": "node", "id": 7072837154, "lat": 19.0679055, "lon": 72.8353534, "tags": {"addr:district": "Mumbai", "addr:full": "724, 11Th Road , Khar West-Bhandara", "addr:postcode": "400052", "addr:state": "Maharashtra", "amenity": "hospital", "healthcare": "hospital", "name": "Hinduja Healthcare", "source": "OpenGovernmentData"}}, {"type": "node", "id": 7073099556, "lat": 19.139644, "lon": 72.8435008, "tags": {"addr:district": "Mumbai", "addr:full": "105, First Floor , Markaz View, Opposite Excel Industries , S.V Road, Jogeshwari(W)", "addr:postcode": "400059", "addr:state": "Maharashtra", "amenity": "hospital", "healthcare": "hospital", "name": "Diamond Hospital", "source": "OpenGovernmentData"}}, {"type": "node", "id": 7073651578, "lat": 19.1366428, "lon": 72.8364225, "tags": {"addr:district": "Mumbai", "addr:full": "C Wing, Dhananjay Apt Behind Balaji Studio, Opp Veera Desai Road Andheri", "addr:postcode": "400059", "addr:state": "Maharashtra", "amenity": "hospital", "healthcare": "hospital", "name": "Rg Stone Urology and Laparoscopy Hospital, Mumbai", "source": "OpenGovernmentData"}}, {"type": "node", "id": 7073765630, "lat": 19.062597, "lon": 72.8358504, "tags": {"addr:district": "Mumbai", "addr:full": "Renuka, Gr Flr 269-D, Nr National College , Linking Road Bandra W)", "addr:postcode": "400050", "addr:state": "Maharashtra", "amenity": "hospital", "healthcare": "hospital", "name": "Dr A K Chandiramani Hospital", "source": "OpenGovernmentData"}}, {"type": "node", "id": 7073895614, "lat": 19.1285722, "lon": 72.8269772, "tags": {"addr:city": "Mumbai", "addr:district": "Mumbai", "addr:full": "#6, Manish Tower , Manish Nagar,J.R. Road ,Near Manish Shopping Centre", "addr:housenumber": "four bungalows", "addr:postcode": "400053", "addr:state": "Maharashtra", "addr:street": "jp road", "amenity": "hospital", "emergency": "no", "healthcare": "hospital", "healthcare:speciality": "gynaecology", "name": "Akanksha Maternity and Surgical Hospital", "opening_hours": "24/7", "source": "OpenGovernmentData;gps"}}, {"type": "node", "id": 7079665770, "lat": 19.0880071, "lon": 72.8367417, "tags": {"addr:district": "Mumbai", "addr:full": "103, Parasurampuria Apt, 2 Tps 6 2nd Road , Santacruz West", "addr:postcode": "400054", "addr:state": "Maharashtra", "amenity": "hospital", "name": "Netrapuja Research Centre", "source": "OpenGovernmentData"}}, {"type": "node", "id": 7080269989, "lat": 19.0970597, "lon": 72.847386, "tags": {"addr:district": "Mumbai", "addr:full": "199, Dixit Cross Road, Near Chetan School, Vile Parle (East)", "addr:postcode": "400057", "addr:state": "Maharashtra", "amenity": "hospital", "healthcare": "hospital", "name": "Ashish Maternity and Nursing Home - Vile Parle (E)", "source": "OpenGovernmentData"}}, {"type": "node", "id": 7080878125, "lat": 19.0828996, "lon": 72.8376549, "tags": {"addr:district": "Mumbai", "addr:full": "Santacruz (W)", "addr:postcode": "400054", "addr:state": "Maharashtra", "amenity": "hospital", "name": "Radiance Laser Vision Centre", "source": "OpenGovernmentData"}}, {"type": "node", "id": 7082370226, "lat": 19.1069165, "lon": 72.8356406, "tags": {"addr:district": "Mumbai", "addr:full": "Flat 1, Ridhhi, E W Road 2, 41, Vallabhnagar Society, Opposite Cooper Casualy, Jvpd Scheme", "addr:postcode": "400056", "addr:state": "Maharashtra", "amenity": "hospital", "healthcare": "hospital", "name": "Dr Sanjay Soni Dental Clinic", "source": "OpenGovernmentData"}}, {"type": "node", "id": 7082370250, "lat": 19.1284059, "lon": 72.832253, "tags": {"addr:district": "Mumbai", "addr:full": "Eversun Soc., Sahakar Nagar, Jp Road, Andheri West", "addr:postcode": "400053", "addr:state": "Maharashtra", "amenity": "hospital", "healthcare": "hospital", "name": "Parijat Surgical and General Hospital", "source": "OpenGovernmentData"}}, {"type": "node", "id": 7082499146, "lat": 19.0918193, "lon": 72.8436054, "tags": {"addr:district": "Mumbai", "addr:full": "Veer Makrand Ghanekar Marg, Navpada, Vile Parle East, Vile Parle", "addr:postcode": "400057", "addr:state": "Maharashtra", "amenity": "hospital", "healthcare": "hospital", "name": "Shree Ramnath Eye Care", "source": "OpenGovernmentData"}}, {"type": "node", "id": 7082518991, "lat": 19.1352453, "lon": 72.8381807, "tags": {"addr:district": "Mumbai", "addr:full": "Andheri", "addr:postcode": "400102", "addr:state": "Maharashtra", "amenity": "hospital", "healthcare": "hospital", "name": "Society Of The Helpers Of Mary Shraddha Vihar Hospital", "source": "OpenGovernmentData"}}, {"type": "node", "id": 7082519016, "lat": 19.1424177, "lon": 72.8234661, "tags": {"addr:district": "Mumbai", "addr:full": "17-B/007-008, Girnar Swami Samarth Nagar,Off Four Bungalows, Andheri (W)", "addr:postcode": "400053", "addr:state": "Maharashtra", "amenity": "hospital", "healthcare": "hospital", "name": "Ameya Maternity and Nursing Home", "source": "OpenGovernmentData"}}, {"type": "node", "id": 7085742085, "lat": 19.0721453, "lon": 72.8343692, "tags": {"addr:district": "Mumbai", "addr:full": "No. 7, Rajsarovar Nikethan, No. 315. A Working Road, Above Punjab Sindhi Bank, Khar West", "addr:postcode": "400054", "addr:state": "Maharashtra", "amenity": "hospital", "name": "Zen Eye Center", "source": "OpenGovernmentData"}}, {"type": "node", "id": 7085742120, "lat": 19.1069728, "lon": 72.8358773, "tags": {"addr:district": "Mumbai", "addr:full": "Heena Smruti, Road No 2, Juhu Scheme, Opposite Cooper Hospital Casualty, Vile Parle(W)", "addr:postcode": "400056", "addr:state": "Maharashtra", "amenity": "hospital", "healthcare": "hospital", "name": "Iris Eye Center", "source": "OpenGovernmentData"}}, {"type": "node", "id": 7663961397, "lat": 19.10982, "lon": 72.82763, "tags": {"addr:district": "Mumbai Suburban", "addr:full": "Bus Terminus, North South Road, Opp Juhu, Vithal Nagar, Juhu, Mumbai", "addr:postcode": "400049", "addr:state": "Maharastra", "amenity": "hospital", "name": "Lotus Eye Hospital", "source": "Local Knowledge"}}, {"type": "node", "id": 7663961414, "lat": 19.1433169, "lon": 72.8431331, "tags": {"addr:district": "Mumbai Suburban", "addr:full": "Ripon Apartment, 176, 1st Floor, Tulsi Pipe Road, Mumbai", "addr:postcode": "400102", "addr:state": "Maharastra", "amenity": "hospital", "healthcare": "hospital", "name": "City Hospital", "source": "Local Knowledge"}}, {"type": "node", "id": 7663961419, "lat": 19.064667, "lon": 72.835138, "tags": {"addr:district": "Mumbai Suburban", "addr:full": "513, Linking Road, Khar, Pali Village, Khar West, Mumbai", "addr:postcode": "400050", "addr:state": "Maharastra", "amenity": "hospital", "healthcare": "hospital", "name": "Kohinoor Hospital", "source": "Local Knowledge"}}, {"type": "node", "id": 7663961426, "lat": 19.1358754, "lon": 72.8446193, "tags": {"addr:district": "Mumbai Suburban", "addr:full": "Anmol Apartment, Ground Floor, Sankar Road, Jogeshwari West, Mumbai", "addr:postcode": "400102", "addr:state": "Maharastra", "amenity": "hospital", "healthcare": "hospital", "name": "Jogeshwari Hospital", "source": "Local Knowledge"}}, {"type": "node", "id": 7663961459, "lat": 19.0834657, "lon": 72.8395008, "tags": {"addr:district": "Mumbai Suburban", "addr:full": "Harihar Niwas, Besant Road, Santacruz West, Mumbai", "addr:postcode": "400054", "addr:state": "Maharastra", "amenity": "hospital", "healthcare": "hospital", "name": "Mangal Multispeciality Hospital", "source": "Local Knowledge"}}, {"type": "node", "id": 7663961465, "lat": 19.103219, "lon": 72.834862, "tags": {"addr:district": "Mumbai Suburban", "addr:full": "V. L Vaikunthlal Mehta Road, JVPD Scheme, Vile Parle", "addr:postcode": "400056", "addr:state": "Maharastra", "amenity": "hospital", "healthcare": "hospital", "name": "Sunridges Speciality Hospital", "operator": "Private", "operator:type": "private", "source": "Local Knowledge"}}, {"type": "node", "id": 7663961473, "lat": 19.1447706, "lon": 72.8431122, "tags": {"addr:district": "Mumbai Suburban", "addr:full": "Sufi Sayed Kamal Ahmed Marg, Khoja Society, Vaishali Nagar, Jogeshwari, Mumbai", "addr:postcode": "400102", "addr:state": "Maharastra", "amenity": "hospital", "healthcare": "hospital", "name": "Ruby Hospital", "source": "Local Knowledge"}}, {"type": "node", "id": 7663961477, "lat": 19.1437117, "lon": 72.8426357, "tags": {"addr:district": "Mumbai Suburban", "addr:full": "Mathra Apartment, Swami Vivekanand Marg, Beside Jain Mandir, Jogeshwari, Mumbai", "addr:postcode": "400102", "addr:state": "Maharastra", "amenity": "hospital", "healthcare": "hospital", "name": "Noor Nursing Home", "source": "Local Knowledge"}}, {"type": "node", "id": 8797130860, "lat": 19.1401815, "lon": 72.842786, "tags": {"addr:district": "Mumbai", "addr:full": "Shastri Nagar, Jogeshwari West, Mumbai", "addr:postcode": "400062", "addr:state": "Maharashtra", "amenity": "hospital", "healthcare": "hospital", "name": "Millat Dialysis Center", "source": "Local Knowledge"}}, {"type": "node", "id": 8798161108, "lat": 19.0899538, "lon": 72.8376684, "tags": {"addr:district": "Mumbai", "addr:full": "BEST Colony, Santacruz West, Mumbai", "addr:postcode": "400054", "addr:state": "Maharashtra", "amenity": "hospital", "name": "Surya Hospital", "source": "Local Knowledge"}}, {"type": "node", "id": 8801598781, "lat": 19.0997223, "lon": 72.8463493, "tags": {"addr:district": "Mumbai", "addr:full": "Plot No. 77, Vile Parle, Mumbai", "addr:postcode": "400057", "addr:state": "Maharashtra", "amenity": "hospital", "name": "Babasaheb Gawde Hospital", "source": "Local Knowledge"}}, {"type": "node", "id": 9215424189, "lat": 19.1362893, "lon": 72.8273781, "tags": {"addr:district": "Mumbai", "addr:full": "Suresh Nagar, Andheri West, Mumbai", "addr:postcode": "400047", "addr:state": "Maharashtra", "amenity": "hospital", "description": "Private Hospital", "healthcare": "hospital", "name": "Axis Orthopaedic Hospital", "source": "Local Knowledge"}}, {"type": "node", "id": 9215451400, "lat": 19.136067, "lon": 72.8122383, "tags": {"addr:district": "Mumbai", "addr:full": "Jeet Nagar, Versova, Andheri West", "addr:postcode": "400061", "addr:state": "Maharashtra", "amenity": "hospital", "description": "Private Hospital", "name": "AL Kaleskar Hospital", "source": "Local Knowledge"}}, {"type": "node", "id": 9441680530, "lat": 19.0554479, "lon": 72.8271482, "tags": {"amenity": "hospital", "healthcare": "hospital"}}, {"type": "node", "id": 9507341378, "lat": 19.1210624, "lon": 72.8270276}, {"type": "node", "id": 9533834652, "lat": 19.131246, "lon": 72.824559, "tags": {"amenity": "hospital", "healthcare": "hospital", "name": "Kokilaben Dhirubhai Ambani Hospital"}}, {"type": "node", "id": 10242737058, "lat": 19.0559475, "lon": 72.8267709, "tags": {"barrier": "gate", "name": "Gate 4"}}, {"type": "node", "id": 10273976408, "lat": 19.1198836, "lon": 72.8348356}, {"type": "node", "id": 10273979009, "lat": 19.1198581, "lon": 72.8358176}, {"type": "node", "id": 10273979010, "lat": 19.1197415, "lon": 72.8359196}, {"type": "node", "id": 10273979011, "lat": 19.1188571, "lon": 72.8359169}, {"type": "node", "id": 10273979012, "lat": 19.1188903, "lon": 72.8348451}, {"type": "node", "id": 11384605285, "lat": 19.0694671, "lon": 72.8305428}, {"type": "node", "id": 11384605286, "lat": 19.0693505, "lon": 72.8305354}, {"type": "node", "id": 11384605287, "lat": 19.0693376, "lon": 72.8307641}, {"type": "node", "id": 11384605288, "lat": 19.0694542, "lon": 72.8307715}, {"type": "node", "id": 11426731276, "lat": 19.1079187, "lon": 72.8408635, "tags": {"amenity": "hospital", "name": "KLS Memorial Hospital"}}, {"type": "node", "id": 12413297718, "lat": 19.0722491, "lon": 72.8450037, "tags": {"amenity": "hospital", "healthcare": "hospital"}}, {"type": "node", "id": 12415386367, "lat": 19.0726487, "lon": 72.8443905, "tags": {"addr:city": "mumbai santacruz", "addr:housenumber": "2", "addr:postcode": "400055", "addr:street": "golibar road", "amenity": "hospital", "healthcare": "hospital", "name": "sanjivani hospital", "opening_hours": "24/7"}}, {"type": "node", "id": 12688155437, "lat": 19.1059731, "lon": 72.8414741, "tags": {"addr:city": "Mumbai", "addr:country": "IN", "addr:district": "Mumbai", "addr:housenumber": "201, Sapphire Plaza", "addr:postcode": "400053", "addr:street": "Dadabhai Road", "amenity": "hospital", "description": "Centre for Dermatology & Lasers", "emergency": "no", "healthcare": "hospital", "healthcare:speciality": "dermatology;dermatovenereology", "level": "2", "mobile": "+91-9136095925", "name": "Auro Skin Clinic", "opening_hours": "Mo-Sa 10:00-18:00", "operator": "Dr Avina Jain", "operator:type": "business", "payment:american_express": "yes", "payment:cash": "yes", "payment:contactless": "yes", "payment:credit_cards": "yes", "payment:debit_cards": "yes", "payment:google_pay": "yes", "payment:mastercard": "yes", "payment:visa": "yes", "website": "https://www.auroskin.in"}}, {"type": "node", "id": 13232407990, "lat": 19.0784545, "lon": 72.8447091}, {"type": "node", "id": 13232407991, "lat": 19.0783943, "lon": 72.8452213}, {"type": "node", "id": 13232407992, "lat": 19.078462, "lon": 72.845296}, {"type": "node", "id": 13232407993, "lat": 19.0788047, "lon": 72.8454487}, {"type": "node", "id": 13232407994, "lat": 19.0789204, "lon": 72.8454869}, {"type": "node", "id": 13232407995, "lat": 19.0790557, "lon": 72.8451338}, {"type": "node", "id": 13232407996, "lat": 19.0790768, "lon": 72.8447568}, {"type": "node", "id": 13312852815, "lat": 19.1105125, "lon": 72.8417026}, {"type": "node", "id": 13312852816, "lat": 19.1104281, "lon": 72.841681}, {"type": "node", "id": 13312852817, "lat": 19.1103582, "lon": 72.8417642}, {"type": "node", "id": 13312852818, "lat": 19.1103524, "lon": 72.8424051}, {"type": "node", "id": 13312852819, "lat": 19.1106828, "lon": 72.8421339}, {"type": "way", "id": 31213763, "nodes": [347168743, 10242737058, 2449734777, 347168744, 347168745, 347168746, 2449734759, 2449734760, 347168747, 347168748, 347168743], "tags": {"addr:district": "Mumbai", "addr:full": "St.Andrew's Road,Bandra West,Bandra", "addr:postcode": "400050", "addr:state": "Maharashtra", "addr:street": "St. Andrew Road", "amenity": "hospital", "healthcare": "hospital", "name": "Holy Family Hospital, Mumbai", "opening_hours": "Mo-Fr 08:00-17:00", "phone": "(022 30610555 )", "source": "OpenGovernmentData", "wikidata": "Q5885495", "wikipedia": "en:Holy Family Hospital, Mumbai"}}, {"type": "way", "id": 143950812, "nodes": [1575266025, 1575266022, 1575266020, 1575266023, 1575266025], "tags": {"amenity": "hospital", "healthcare": "hospital", "name": "Karbhari"}}, {"type": "way", "id": 150491113, "nodes": [1633985199, 1633985129, 1633985202, 1633985153, 1633985170, 1633985121, 1633985191, 1633985126, 1633985162, 1633985205, 1633985123, 1633985155, 1633985122, 1633985199], "tags": {"addr:city": "Mumbai", "addr:housenumber": "Kokilaben Dhirubhai Ambani Hospital,madha near gyan kendra schhool", "addr:postcode": "400053", "addr:street": "Jai Prakash Road", "amenity": "hospital", "emergency": "yes", "healthcare": "hospital", "name": "sathya udaiyar", "operator": "sathya", "operator:type": "public"}}, {"type": "way", "id": 204886718, "nodes": [2148673134, 2148673144, 2148673135, 2148673136, 2148673121, 2148673069, 2148673071, 2148673123, 2148673134], "tags": {"amenity": "hospital", "building": "yes", "name": "Vimala Dermatological Centra"}}, {"type": "way", "id": 353418036, "nodes": [3591988763, 3591988766, 3591988786, 3591988795, 3591988762, 3591988753, 3591988758, 3591988751, 3591988763], "tags": {"amenity": "hospital", "healthcare": "hospital"}}, {"type": "way", "id": 357472226, "nodes": [3627071291, 3627071318, 3627071313, 3627071289, 3627071291], "tags": {"addr:city": "Mumbai", "addr:housenumber": "301-302 Prabath Chambers, Plot No 92", "addr:postcode": "400052", "addr:street": "Swami Vivekanand Road", "amenity": "hospital", "building": "commercial", "description": "The Vein Center is a chain vascular clinic located in Mumbai, India that specializes in the diagnosis and treatment of varicose vein related disorders. As a vascular interventional radiology center, it offers a range of services for the non-surgical treat", "emergency": "yes", "healthcare": "hospital", "healthcare:speciality": "vascular_surgery", "image": "https://tvcm.in/wp-content/uploads/2023/03/The-Vein-Center-Mumbai-Khar-West-Clinic-Building.png", "name": "The Vein Center Mumbai", "operator": "Dr Joshi Vein Center LLP", "operator:type": "private", "phone": "+91 8080866266", "start_date": "2008-01-03", "website": "https://tvcm.in"}}, {"type": "way", "id": 395048290, "nodes": [3979327153, 3979327152, 3979327151, 9507341378, 3979327149, 3979327153], "tags": {"addr:city": "mumbai", "addr:postcode": "400053", "addr:street": "N Dutta Road", "amenity": "hospital", "building": "yes", "healthcare": "hospital", "name": "Thunga"}}, {"type": "way", "id": 665481038, "nodes": [6228730402, 347120067, 6228754300, 6228730401, 6228730400, 6228730399, 6228730402], "tags": {"addr:district": "Mumbai", "addr:full": "K.B.Bhabha Municipal General Hospital, Waterfield Road, Bandra (W)", "addr:postcode": "400050", "addr:state": "Maharashtra", "amenity": "hospital", "full_name": "Khurshitji Beharamji Bhabha Municipal General Hospital", "full_name:en": "Khurshitji Beharamji Bhabha Municipal General Hospital", "healthcare": "hospital", "name": "K B Bhabha Municipal General Hospital", "official_name": "K B Bhabha Municipal General Hospital", "official_name:en": "K B Bhabha Municipal General Hospital", "phone": "+912226422775", "short_name": "Bhabha Hospital", "short_name:en": "Bhabha Hospital", "source": "OpenGovernmentData", "wikidata": "Q4900481", "wikipedia": "en:Bhabha Hospital"}}, {"type": "way", "id": 1123412924, "nodes": [10273976408, 10273979012, 10273979011, 10273979010, 10273979009, 10273976408], "tags": {"addr:district": "Mumbai Suburban", "addr:full": "Gulmohar Road, Gulmohar Colony, Andheri West, Mumbai", "addr:postcode": "400058", "addr:state": "Maharastra", "amenity": "hospital", "name": "Khubchandani Hospital", "source": "Local Knowledge"}}, {"type": "way", "id": 1227680040, "nodes": [11384605285, 11384605286, 11384605287, 11384605288, 11384605285], "tags": {"amenity": "hospital", "building": "hospital", "healthcare": "hospital", "mobile": "+91 98202 54545", "name": "Women's Hospital", "name:en": "Women's Hospital", "operator": "Dr. Rakesh Sinha", "operator:type": "private", "website": "https://www.womenshospital.com/"}}, {"type": "way", "id": 1442093565, "nodes": [13232407990, 13232407991, 13232407992, 13232407993, 13232407994, 13232407995, 13232407996, 13232407990], "tags": {"addr:full": "11th Road, Golibar, Santacruz East", "addr:postcode": "400055", "addr:state": "Maharashtra", "amenity": "hospital", "healthcare": "hospital", "name": "V.N. Desai Hospital", "name:en": "V.N. Desai Hospital", "operator": "BMC", "operator:type": "government", "website": "https://mumbaisuburban.gov.in/en/public-utility/v-n-desai-municipal-general-hospital/"}}, {"type": "way", "id": 1447315313, "nodes": [3589607630, 3589607625, 3589607622, 3589607628, 3589607630], "tags": {"addr:city": "Mumbai", "addr:postcode": "400054", "addr:street": "Besant Road", "amenity": "hospital", "description": "it is a nursing home", "healthcare": "hospital", "healthcare:speciality": "general", "name": "Mangal nursing home", "website": "https://www.justdial.com/Mumbai/Mangal-Multispeciality-Hospital-ICU-Near-Santacurz-Station-Santacruz-West/022PXX22-XX22-121008193335-N5M5_BZDET"}}, {"type": "way", "id": 1451543691, "nodes": [13312852815, 13312852816, 13312852817, 13312852818, 13312852819, 13312852815], "tags": {"addr:district": "Mumbai", "addr:housenumber": "1234", "addr:postcode": "400058", "addr:street": "Swami Vivekanand Road", "amenity": "hospital", "emergency": "yes", "healthcare": "hospital", "healthcare:speciality": "general;psychiatry", "name": "hehehe", "operator": "wert"}}]}