{"version": 0.6, "generator": "Overpass API 0.7.62.8 e802775f", "osm3s": {"timestamp_osm_base": "2026-01-13T02:11:03Z", "copyright": "The data included in this document is from www.openstreetmap.org. The data is made available under ODbL."}, "elements": [{"type": "node", "id": 308971546, "lat": 17.4473271, "lon": 78.3634745, "tags": {"bus": "yes", "highway": "bus_stop", "name": "Chhota Anjaiah Nagar", "public_transport": "platform", "shelter": "no"}}, {"type": "node", "id": 310213788, "lat": 17.4376926, "lon": 78.440259}, {"type": "node", "id": 349267769, "lat": 17.4411141, "lon": 78.3914668, "tags": {"bus": "yes", "highway": "bus_stop", "name": "Madhapur Petrol Pump", "public_transport": "platform"}}, {"type": "node", "id": 349267780, "lat": 17.440965, "lon": 78.3913097, "tags": {"bus": "yes", "highway": "bus_stop", "name": "Madhapur Petrol Pump", "public_transport": "platform"}}, {"type": "node", "id": 655158856, "lat": 17.450675, "lon": 78.3801434, "tags": {"bus": "yes", "highway": "bus_stop", "name": "Cyber Towers", "public_transport": "platform"}}, {"type": "node", "id": 655158870, "lat": 17.4507134, "lon": 78.3821189, "tags": {"bus": "yes", "highway": "bus_stop", "name": "Cyber Towers Bus Stop", "name:te": "\u0c38\u0c48\u0c2c\u0c30\u0c4d \u0c1f\u0c35\u0c30\u0c4d\u0c38\u0c4d \u0c2c\u0c38\u0c4d\u0c38\u0c41 \u0c38\u0c4d\u0c1f\u0c3e\u0c2a\u0c4d", "public_transport": "platform"}}, {"type": "node", "id": 655158946, "lat": 17.4342977, "lon": 78.3843417, "tags": {"bench": "yes", "bin": "no", "bus": "yes", "highway": "bus_stop", "lit": "yes", "name": "V IT Park", "public_transport": "platform", "shelter": "yes", "source": "Maxar"}}, {"type": "node", "id": 655159062, "lat": 17.4340492, "lon": 78.3840991, "tags": {"bench": "yes", "bin": "no", "bus": "yes", "highway": "bus_stop", "lit": "yes", "name": "V IT Park", "public_transport": "platform", "shelter": "no", "source": "Maxar"}}, {"type": "node", "id": 655159152, "lat": 17.4414196, "lon": 78.3769845, "tags": {"bus": "yes", "highway": "bus_stop", "name": "Mindspace", "public_transport": "platform"}}, {"type": "node", "id": 660916026, "lat": 17.4318264, "lon": 78.4068998, "tags": {"bus": "yes", "highway": "bus_stop", "public_transport": "platform"}}, {"type": "node", "id": 660916027, "lat": 17.4315449, "lon": 78.4071305, "tags": {"bus": "yes", "highway": "bus_stop", "public_transport": "platform"}}, {"type": "node", "id": 660916060, "lat": 17.4235017, "lon": 78.4276065, "tags": {"bench": "yes", "bus": "yes", "highway": "bus_stop", "name": "L V Prasad", "name:te": "\u0c0e\u0c32\u0c4d \u0c35\u0c40 \u0c2a\u0c4d\u0c30\u0c38\u0c3e\u0c26\u0c4d \u0c2c\u0c38\u0c4d\u0c38\u0c41 \u0c38\u0c4d\u0c1f\u0c3e\u0c2a\u0c4d", "public_transport": "platform", "shelter": "yes"}}, {"type": "node", "id": 1215782332, "lat": 17.4445422, "lon": 78.3536778, "tags": {"bus": "yes", "highway": "bus_stop", "name": "DLF Bus stop near JNIB", "public_transport": "platform"}}, {"type": "node", "id": 1224549888, "lat": 17.439503, "lon": 78.3635448, "tags": {"bench": "yes", "bin": "yes", "bus": "yes", "highway": "bus_stop", "lit": "yes", "name": "Gachibowli", "public_transport": "platform", "shelter": "yes"}}, {"type": "node", "id": 1224549897, "lat": 17.441046, "lon": 78.3603475, "tags": {"bus": "yes", "highway": "bus_stop", "name": "Indra Nagar", "public_transport": "platform"}}, {"type": "node", "id": 1365115101, "lat": 17.4390017, "lon": 78.3970577, "tags": {"bus": "yes", "highway": "bus_stop", "local_ref": "Kavuri Hills", "public_transport": "platform"}}, {"type": "node", "id": 1499692385, "lat": 17.4141424, "lon": 78.423745, "tags": {"bench": "yes", "bin": "yes", "highway": "bus_stop", "lit": "yes", "name": "VLCC Bus Stop", "shelter": "yes"}}, {"type": "node", "id": 1699091338, "lat": 17.4413689, "lon": 78.3627758, "tags": {"bus": "yes", "highway": "bus_stop", "name": "Rajiv Gandhi Nagar", "public_transport": "platform"}}, {"type": "node", "id": 1720122633, "lat": 17.4409616, "lon": 78.360012, "tags": {"bus": "yes", "highway": "bus_stop", "name": "Indra Nagar", "public_transport": "platform"}}, {"type": "node", "id": 1802668812, "lat": 17.4472459, "lon": 78.3778986, "tags": {"bus": "yes", "highway": "bus_stop", "local_ref": "Cyber Gateway", "name": "Cyber Gateway", "public_transport": "platform", "shelter": "yes"}}, {"type": "node", "id": 1883488178, "lat": 17.4258368, "lon": 78.4359253, "tags": {"bus": "yes", "highway": "bus_stop", "name": "Banjara Hills Road No.2 Lumbini Mall", "public_transport": "platform", "shelter": "yes"}}, {"type": "node", "id": 1967910698, "lat": 17.4385641, "lon": 78.3643036, "tags": {"bench": "yes", "bin": "yes", "bus": "yes", "highway": "bus_stop", "lit": "yes", "name": "Gachibowli", "public_transport": "platform", "shelter": "yes"}}, {"type": "node", "id": 1967910702, "lat": 17.439004, "lon": 78.3629707, "tags": {"bench": "yes", "bin": "no", "bus": "yes", "highway": "bus_stop", "lit": "yes", "name": "Gachibowli", "public_transport": "platform", "shelter": "yes"}}, {"type": "node", "id": 1985561804, "lat": 17.4400243, "lon": 78.3557675, "tags": {"amenity": "bus_station", "bus": "yes", "name": "GPR Quarters", "public_transport": "station"}}, {"type": "node", "id": 1985561809, "lat": 17.4382485, "lon": 78.3580736, "tags": {"bench": "yes", "bus": "yes", "highway": "bus_stop", "name": "GPRA Quarters Enterance", "public_transport": "platform", "shelter": "yes"}}, {"type": "node", "id": 2166591605, "lat": 17.3959377, "lon": 78.4270188, "tags": {"alt_name": "Rethibowli", "highway": "bus_stop", "name": "Nanalnagar"}}, {"type": "node", "id": 2166591609, "lat": 17.3960184, "lon": 78.4307445, "tags": {"bus": "yes", "highway": "bus_stop", "name": "Rethibowli", "public_transport": "platform"}}, {"type": "node", "id": 2166591614, "lat": 17.4494087, "lon": 78.3484676, "tags": {"bus": "yes", "highway": "bus_stop", "name": "Gachibowli Stadium", "public_transport": "platform"}}, {"type": "node", "id": 2166591615, "lat": 17.4281236, "lon": 78.3753876, "tags": {"alt_name": "HITEX Cross Roads", "bus": "yes", "highway": "bus_stop", "name": "Roda Mistry College", "public_transport": "platform"}}, {"type": "node", "id": 2166591616, "lat": 17.4099224, "lon": 78.3985713, "tags": {"bus": "yes", "highway": "bus_stop", "name": "Narayanamma College", "public_transport": "platform"}}, {"type": "node", "id": 2166591618, "lat": 17.4132032, "lon": 78.3945807, "tags": {"alt_name": "Dargah", "highway": "bus_stop", "name": "Shaikpet Dargah"}}, {"type": "node", "id": 2166591622, "lat": 17.4226931, "lon": 78.3822849, "tags": {"alt_name": "Dhaba", "bus": "yes", "highway": "bus_stop", "name": "Khajaguda X Roads", "public_transport": "platform", "shelter": "yes", "tactile_paving": "yes"}}, {"type": "node", "id": 2166591623, "lat": 17.3986352, "lon": 78.4168535, "tags": {"bus": "yes", "highway": "bus_stop", "name": "Tolichowki", "public_transport": "platform"}}, {"type": "node", "id": 2166591626, "lat": 17.4062572, "lon": 78.4031042, "tags": {"highway": "bus_stop", "name": "Sheikpet Nala"}}, {"type": "node", "id": 2166591638, "lat": 17.422995, "lon": 78.3812764, "tags": {"alt_name": "Dhaba", "bus": "yes", "highway": "bus_stop", "name": "Khajaguda X Roads", "public_transport": "platform"}}, {"type": "node", "id": 2166591647, "lat": 17.3969305, "lon": 78.4223255, "tags": {"highway": "bus_stop", "name": "Salarjung Colony"}}, {"type": "node", "id": 2166591650, "lat": 17.4350994, "lon": 78.3680692, "tags": {"bus": "yes", "fixme": "yes", "highway": "bus_stop", "name": "Telecom Nagar", "public_transport": "platform"}}, {"type": "node", "id": 2166591660, "lat": 17.4028251, "lon": 78.4100567, "tags": {"highway": "bus_stop", "name": "Galaxy"}}, {"type": "node", "id": 2166591663, "lat": 17.3989449, "lon": 78.4154157, "tags": {"bus": "yes", "highway": "bus_stop", "name": "Tolichowki", "public_transport": "platform"}}, {"type": "node", "id": 2166591667, "lat": 17.3957045, "lon": 78.4308438, "tags": {"highway": "bus_stop", "name": "Rethibowli"}}, {"type": "node", "id": 2166591669, "lat": 17.4034981, "lon": 78.4092359, "tags": {"bus": "yes", "highway": "bus_stop", "name": "Galaxy", "public_transport": "platform"}}, {"type": "node", "id": 2166591674, "lat": 17.4062472, "lon": 78.4035656, "tags": {"bus": "yes", "highway": "bus_stop", "name": "Sheikpet Nala", "public_transport": "platform"}}, {"type": "node", "id": 2166591675, "lat": 17.3966902, "lon": 78.422105, "tags": {"highway": "bus_stop", "name": "Salarjung Colony"}}, {"type": "node", "id": 2166591677, "lat": 17.4279875, "lon": 78.3751237, "tags": {"alt_name": "HITEX Cross Roads", "bus": "yes", "highway": "bus_stop", "name": "Roda Mistry College", "public_transport": "platform"}}, {"type": "node", "id": 2166591685, "lat": 17.3962507, "lon": 78.4270607, "tags": {"alt_name": "Rethibowli", "bus": "yes", "highway": "bus_stop", "name": "Nanalnagar", "public_transport": "platform"}}, {"type": "node", "id": 2166591688, "lat": 17.4098968, "lon": 78.3982655, "tags": {"highway": "bus_stop", "name": "Narayanamma College"}}, {"type": "node", "id": 2166860253, "lat": 17.4351458, "lon": 78.367504, "tags": {"addr:street": "Telecom nagar", "bus": "yes", "description": "Bus stop, Airport (Pushpak) bus stop", "fixme": "yes", "highway": "bus_stop", "name": "Telecom Nagar", "phone": "7382925897", "public_transport": "platform"}}, {"type": "node", "id": 2166860258, "lat": 17.4499788, "lon": 78.3471358, "tags": {"bus": "yes", "highway": "bus_stop", "name": "Gachibowli Stadium", "public_transport": "platform"}}, {"type": "node", "id": 2170579980, "lat": 17.4325045, "lon": 78.3701881, "tags": {"bus": "yes", "highway": "bus_stop", "name": "Cyberabad Police Commissionerate", "public_transport": "platform"}}, {"type": "node", "id": 2170766680, "lat": 17.4319465, "lon": 78.3714355, "tags": {"bus": "yes", "highway": "bus_stop", "name": "Cyberabad Police Commissionerate", "public_transport": "platform"}}, {"type": "node", "id": 2422172978, "lat": 17.4306371, "lon": 78.4083638, "tags": {"name": "Peddamma Gudi", "name:te": "\u0c2a\u0c46\u0c26\u0c4d\u0c26\u0c2e\u0c4d\u0c2e \u0c17\u0c41\u0c21\u0c3f", "network": "Hyderabad Metro", "note": "Contributors are requested to not edit the \"network\" and the \"operator\" tags. (2023/11/08)", "operator": "Hyderabad Metro Rail Limited", "public_transport": "stop_position", "railway": "stop", "subway": "yes"}}, {"type": "node", "id": 2422172980, "lat": 17.4307565, "lon": 78.4195921}, {"type": "node", "id": 2422172983, "lat": 17.4489916, "lon": 78.3831192, "tags": {"name": "HITEC City", "name:te": "\u0c39\u0c48\u0c1f\u0c46\u0c15\u0c4d \u0c38\u0c3f\u0c1f\u0c3f", "network": "Hyderabad Metro", "note": "Contributors are requested to not edit the \"network\" and the \"operator\" tags. (2023/11/08)", "operator": "Hyderabad Metro Rail Limited", "public_transport": "stop_position", "railway": "stop", "subway": "yes"}}, {"type": "node", "id": 2422172989, "lat": 17.436951, "lon": 78.4391108, "tags": {"alt_name": "Taruni Madhura Nagar", "name": "Madhura Nagar", "name:te": "\u0c2e\u0c27\u0c41\u0c30 \u0c28\u0c17\u0c30\u0c4d", "network": "Hyderabad Metro", "note": "Contributors are requested to not edit the \"network\" and the \"operator\" tags. (2023/11/08)", "operator": "Hyderabad Metro Rail Limited", "public_transport": "stop_position", "railway": "stop", "subway": "yes"}}, {"type": "node", "id": 2422173006, "lat": 17.4305185, "lon": 78.4193319}, {"type": "node", "id": 2422173008, "lat": 17.4372512, "lon": 78.4004097, "tags": {"name": "Madhapur", "name:te": "\u0c2e\u0c3e\u0c27\u0c3e\u0c2a\u0c42\u0c30\u0c4d", "network": "Hyderabad Metro", "note": "Contributors are requested to not edit the \"network\" and the \"operator\" tags. (2023/11/08)", "operator": "Hyderabad Metro Rail Limited", "platforms": "2", "public_transport": "stop_position", "public_transport:version": "2", "railway": "stop", "subway": "yes", "wheelchair": "yes"}}, {"type": "node", "id": 2422173013, "lat": 17.4307334, "lon": 78.4209171}, {"type": "node", "id": 2422173051, "lat": 17.4297442, "lon": 78.4247766}, {"type": "node", "id": 2422173054, "lat": 17.4276291, "lon": 78.4165123}, {"type": "node", "id": 2422173081, "lat": 17.4306516, "lon": 78.4212604}, {"type": "node", "id": 2422173105, "lat": 17.4421814, "lon": 78.3772038, "tags": {"name": "Raidurg", "network": "Hyderabad Metro", "note": "Contributors are requested to not edit the \"network\" and the \"operator\" tags. (2023/11/08)", "operator": "Hyderabad Metro Rail Limited", "public_transport": "stop_position", "railway": "stop", "subway": "yes"}}, {"type": "node", "id": 2422173126, "lat": 17.4321144, "lon": 78.4261389}, {"type": "node", "id": 2422173127, "lat": 17.4299146, "lon": 78.4251751}, {"type": "node", "id": 2422173139, "lat": 17.4282098, "lon": 78.4136829, "tags": {"name": "Jubilee Hills Checkpost", "network": "Hyderabad Metro", "note": "Contributors are requested to not edit the \"network\" and the \"operator\" tags. (2023/11/08)", "operator": "Hyderabad Metro Rail Limited", "platforms": "2", "public_transport": "stop_position", "public_transport:version": "2", "railway": "stop", "subway": "yes", "wheelchair": "yes"}}, {"type": "node", "id": 2422235311, "lat": 17.4498706, "lon": 78.3824355}, {"type": "node", "id": 2422988944, "lat": 17.4532621, "lon": 78.4353465}, {"type": "node", "id": 2422989021, "lat": 17.4570724, "lon": 78.4335941, "tags": {"addr:city": "Hyderabad", "addr:city:ar": "\u062d\u064a\u062f\u0631 \u0622\u0628\u0627\u062f", "addr:city:ur": "\u062d\u06cc\u062f\u0631\u0622\u0628\u0627\u062f", "name": "Erragadda", "name:ml": "\u0d0e\u0d31\u0d17\u0d22", "name:te": "\u0c0e\u0c30\u0c4d\u0c30\u0c17\u0c21\u0c4d\u0c21", "network": "Hyderabad Metro", "note": "Contributors are requested to not edit the \"network\" and the \"operator\" tags. (2023/11/08)", "operator": "Hyderabad Metro Rail Limited", "public_transport": "stop_position", "public_transport:version": "2", "railway": "stop", "subway": "yes"}}, {"type": "node", "id": 2422989235, "lat": 17.4499269, "lon": 78.4370723}, {"type": "node", "id": 2422989250, "lat": 17.4542732, "lon": 78.4348297}, {"type": "node", "id": 2425474186, "lat": 17.4470156, "lon": 78.438567, "tags": {"addr:city": "Hyderabad", "addr:city:ar": "\u062d\u064a\u062f\u0631 \u0622\u0628\u0627\u062f", "addr:city:ur": "\u062d\u06cc\u062f\u0631\u0622\u0628\u0627\u062f", "name": "ESI Hospital", "name:ml": "\u0d07.\u0d0e\u0d38\u0d4d.\u0d10 \u0d06\u0d36\u0d41\u0d2a\u0d24\u0d4d\u0d30\u0d3f", "name:te": "\u0c08.\u0c0e\u0c38\u0c4d.\u0c10 \u0c06\u0c38\u0c4d\u0c2a\u0c24\u0c4d\u0c30\u0c3f", "network": "Hyderabad Metro", "note": "Contributors are requested to not edit the \"network\" and the \"operator\" tags. (2023/11/08)", "operator": "Hyderabad Metro Rail Limited", "public_transport": "stop_position", "public_transport:version": "2", "railway": "stop", "subway": "yes"}}, {"type": "node", "id": 2676394796, "lat": 17.4510189, "lon": 78.3814538}, {"type": "node", "id": 2706499729, "lat": 17.4366898, "lon": 78.4328757, "tags": {"bus": "yes", "highway": "bus_stop", "note": "This stop is not used anymore", "public_transport": "platform"}}, {"type": "node", "id": 2714172218, "lat": 17.4521229, "lon": 78.3637319, "tags": {"bus": "yes", "highway": "bus_stop", "name": "Anjaya Nagar", "public_transport": "platform"}}, {"type": "node", "id": 2822568661, "lat": 17.4497433, "lon": 78.4371559}, {"type": "node", "id": 2822568678, "lat": 17.4501336, "lon": 78.4369723}, {"type": "node", "id": 2822568833, "lat": 17.4510643, "lon": 78.4364741}, {"type": "node", "id": 2822568899, "lat": 17.4540806, "lon": 78.4349198}, {"type": "node", "id": 2822568913, "lat": 17.4555638, "lon": 78.4342524}, {"type": "node", "id": 3146877623, "lat": 17.4293513, "lon": 78.4125403}, {"type": "node", "id": 3146877624, "lat": 17.4288728, "lon": 78.4130178}, {"type": "node", "id": 3155691531, "lat": 17.4365057, "lon": 78.4339221, "tags": {"bus": "yes", "highway": "bus_stop", "name": "Yousufguda basti", "operator": "APSRTC", "public_transport": "platform", "shelter": "no"}}, {"type": "node", "id": 3155691532, "lat": 17.4367359, "lon": 78.4321998, "tags": {"bus": "yes", "highway": "bus_stop", "name": "Yousufguda Basti stop", "name:en": "Yousufguda Basti Bus Stop", "name:hi": "\u092f\u0942\u0938\u0941\u092b\u0917\u0941\u0921\u093e \u092c\u0938\u094d\u0924\u0940 \u092c\u0938 \u0938\u094d\u091f\u0949\u092a", "operator": "APSRTC", "public_transport": "platform", "shelter": "no"}}, {"type": "node", "id": 3155693783, "lat": 17.4365545, "lon": 78.4282035, "tags": {"bus": "yes", "highway": "bus_stop", "name": "Yousufguda checkpost", "operator": "APSRTC", "public_transport": "platform", "shelter": "no"}}, {"type": "node", "id": 3155693784, "lat": 17.4365604, "lon": 78.427961, "tags": {"bus": "yes", "highway": "bus_stop", "name": "Yousufguda checkpost", "name:en": "Yousufguda Checkpost Bus Stop", "operator": "APSRTC", "public_transport": "platform", "shelter": "no"}}, {"type": "node", "id": 3164043320, "lat": 17.4410568, "lon": 78.3913963}, {"type": "node", "id": 3164043360, "lat": 17.4495856, "lon": 78.3826608}, {"type": "node", "id": 3164047361, "lat": 17.4501586, "lon": 78.3822324}, {"type": "node", "id": 3164047362, "lat": 17.4505895, "lon": 78.3819531}, {"type": "node", "id": 3164158709, "lat": 17.4521903, "lon": 78.4359147}, {"type": "node", "id": 3166221993, "lat": 17.4442963, "lon": 78.4331967, "tags": {"bus": "yes", "departures_board": "yes", "highway": "bus_stop", "name": "Kalyan Nagar Jn Bustop", "network": "RTC buses", "operator": "TS RTC", "public_transport": "platform", "shelter": "yes"}}, {"type": "node", "id": 3166260338, "lat": 17.4305963, "lon": 78.4209562, "tags": {"bus": "yes", "highway": "bus_stop", "operator": "A.P.S.R.T.C", "public_transport": "platform", "shelter": "no"}}, {"type": "node", "id": 3384147270, "lat": 17.4262292, "lon": 78.4153658, "tags": {"bus": "yes", "highway": "bus_stop", "public_transport": "platform"}}, {"type": "node", "id": 3384148486, "lat": 17.427057, "lon": 78.4157649, "tags": {"bus": "yes", "highway": "bus_stop", "public_transport": "platform"}}, {"type": "node", "id": 3384155183, "lat": 17.4309126, "lon": 78.420884, "tags": {"bus": "yes", "highway": "bus_stop", "public_transport": "platform"}}, {"type": "node", "id": 3480706231, "lat": 17.4482799, "lon": 78.3837173}, {"type": "node", "id": 3509615301, "lat": 17.3943895, "lon": 78.434545, "tags": {"highway": "bus_stop"}}, {"type": "node", "id": 3602302032, "lat": 17.436509, "lon": 78.4292619}, {"type": "node", "id": 3970065519, "lat": 17.3940987, "lon": 78.4311053, "tags": {"name": "bus stop", "public_transport": "platform"}}, {"type": "node", "id": 4158652390, "lat": 17.4026879, "lon": 78.3657916, "tags": {"highway": "bus_stop", "name": "Greenspace Prime"}}, {"type": "node", "id": 4331884710, "lat": 17.4503484, "lon": 78.3795626}, {"type": "node", "id": 4331884715, "lat": 17.4484685, "lon": 78.3789728}, {"type": "node", "id": 4407581196, "lat": 17.42008, "lon": 78.4308367, "tags": {"amenity": "bus_station", "bus": "yes", "name": "Nandi Nagar bus stand", "name:en": "Nandi Nagar bus stand", "public_transport": "station"}}, {"type": "node", "id": 4706061589, "lat": 17.4395401, "lon": 78.3959296, "tags": {"bus": "yes", "highway": "bus_stop", "name": "Madhapur-Hi Tech city-Kondapur", "name:en": "Madhapur-Hi Tech city-Kondapur", "public_transport": "platform"}}, {"type": "node", "id": 5405052395, "lat": 17.4455592, "lon": 78.3519362, "tags": {"bench": "no", "bus": "yes", "highway": "bus_stop", "name": "Bustop", "public_transport": "platform", "shelter": "no"}}, {"type": "node", "id": 5405054116, "lat": 17.4322281, "lon": 78.3785652, "tags": {"bus": "yes", "highway": "bus_stop", "name": "Bus stop 2", "public_transport": "platform"}}, {"type": "node", "id": 5405055292, "lat": 17.4462582, "lon": 78.351225, "tags": {"bench": "yes", "bin": "yes", "bus": "yes", "description": "Opp of police station", "highway": "bus_stop", "name": "IIIT Bus stop1", "public_transport": "platform", "shelter": "no"}}, {"type": "node", "id": 5405055553, "lat": 17.4408024, "lon": 78.3607926, "tags": {"bus": "yes", "highway": "bus_stop", "name": "Gachibowli flyover bustop", "public_transport": "platform"}}, {"type": "node", "id": 5405059602, "lat": 17.439886, "lon": 78.363404, "tags": {"bus": "yes", "highway": "bus_stop", "public_transport": "platform"}}, {"type": "node", "id": 5425191914, "lat": 17.3959857, "lon": 78.4307454, "tags": {"bus": "yes", "public_transport": "stop_position"}}, {"type": "node", "id": 5425191915, "lat": 17.4129007, "lon": 78.3951039, "tags": {"alt_name": "Dargah", "bus": "yes", "highway": "bus_stop", "name": "Shaikpet Dargah", "public_transport": "platform"}}, {"type": "node", "id": 5678695721, "lat": 17.4064622, "lon": 78.3762297, "tags": {"highway": "bus_stop", "wheelchair": "yes"}}, {"type": "node", "id": 5774457980, "lat": 17.4459783, "lon": 78.3774079}, {"type": "node", "id": 5787787842, "lat": 17.4490794, "lon": 78.3791691}, {"type": "node", "id": 5787787843, "lat": 17.4500874, "lon": 78.3794006}, {"type": "node", "id": 5787787844, "lat": 17.4507439, "lon": 78.3799081}, {"type": "node", "id": 5787787845, "lat": 17.4510349, "lon": 78.3815177}, {"type": "node", "id": 5787787847, "lat": 17.450851, "lon": 78.3817872}, {"type": "node", "id": 5787787848, "lat": 17.4506772, "lon": 78.3819454}, {"type": "node", "id": 5787787849, "lat": 17.4502047, "lon": 78.3822566}, {"type": "node", "id": 5787787850, "lat": 17.4498333, "lon": 78.3825122}, {"type": "node", "id": 5787787851, "lat": 17.4496098, "lon": 78.3826931}, {"type": "node", "id": 5787787852, "lat": 17.4490132, "lon": 78.3831555, "tags": {"name": "HITEC City", "name:te": "\u0c39\u0c48\u0c1f\u0c46\u0c15\u0c4d \u0c38\u0c3f\u0c1f\u0c3f", "network": "Hyderabad Metro", "note": "Contributors are requested to not edit the \"network\" and the \"operator\" tags. (2023/11/08)", "operator": "Hyderabad Metro Rail Limited", "public_transport": "stop_position", "railway": "stop", "subway": "yes"}}, {"type": "node", "id": 5787787870, "lat": 17.4410919, "lon": 78.3914041}, {"type": "node", "id": 5787787896, "lat": 17.4372693, "lon": 78.4004421, "tags": {"name": "Madhapur", "name:te": "\u0c2e\u0c3e\u0c27\u0c3e\u0c2a\u0c42\u0c30\u0c4d", "network": "Hyderabad Metro", "note": "Contributors are requested to not edit the \"network\" and the \"operator\" tags. (2023/11/08)", "operator": "Hyderabad Metro Rail Limited", "platforms": "2", "public_transport": "stop_position", "public_transport:version": "2", "railway": "stop", "subway": "yes", "wheelchair": "yes"}}, {"type": "node", "id": 5787787921, "lat": 17.4288975, "lon": 78.4130476}, {"type": "node", "id": 5787787929, "lat": 17.4276532, "lon": 78.4164843}, {"type": "node", "id": 5787787930, "lat": 17.4305499, "lon": 78.4192983}, {"type": "node", "id": 5787787931, "lat": 17.4307928, "lon": 78.4195638}, {"type": "node", "id": 5787787932, "lat": 17.4309465, "lon": 78.4198492}, {"type": "node", "id": 5787787933, "lat": 17.4309602, "lon": 78.4200675}, {"type": "node", "id": 5787787934, "lat": 17.4309339, "lon": 78.42036}, {"type": "node", "id": 5787787935, "lat": 17.4308457, "lon": 78.420678}, {"type": "node", "id": 5787787936, "lat": 17.4307768, "lon": 78.4209293}, {"type": "node", "id": 5787787937, "lat": 17.4306947, "lon": 78.4212737}, {"type": "node", "id": 5787787938, "lat": 17.4300702, "lon": 78.4232137, "tags": {"name": "Road No 5 Jubilee Hills", "name:te": "\u0c30\u0c4b\u0c21\u0c4d \u0c28\u0c02 5 \u0c1c\u0c42\u0c2c\u0c3f\u0c32\u0c40 \u0c39\u0c3f\u0c32\u0c4d\u0c38\u0c4d", "network": "Hyderabad Metro", "note": "Contributors are requested to not edit the \"network\" and the \"operator\" tags. (2023/11/08)", "operator": "Hyderabad Metro Rail Limited", "public_transport": "stop_position", "railway": "stop", "subway": "yes"}}, {"type": "node", "id": 5787787939, "lat": 17.4298243, "lon": 78.4240104}, {"type": "node", "id": 5787787940, "lat": 17.4297373, "lon": 78.4243063}, {"type": "node", "id": 5787787941, "lat": 17.4297507, "lon": 78.4245314}, {"type": "node", "id": 5787787942, "lat": 17.4297877, "lon": 78.4247635}, {"type": "node", "id": 5787787943, "lat": 17.4298723, "lon": 78.424976}, {"type": "node", "id": 5787787944, "lat": 17.4299476, "lon": 78.4251387}, {"type": "node", "id": 5787787945, "lat": 17.4321303, "lon": 78.4261034}, {"type": "node", "id": 5787787948, "lat": 17.4359551, "lon": 78.4276498}, {"type": "node", "id": 5787787977, "lat": 17.4374665, "lon": 78.441527}, {"type": "node", "id": 5787787978, "lat": 17.437026, "lon": 78.4431991}, {"type": "node", "id": 5787787982, "lat": 17.4353528, "lon": 78.4446353, "tags": {"name": "Ameerpet", "name:te": "\u0c05\u0c2e\u0c40\u0c30\u0c4d\u200c\u0c2a\u0c47\u0c1f\u0c4d", "network": "Hyderabad Metro", "note": "Contributors are requested to not edit the \"network\" and the \"operator\" tags. (2023/11/08)", "operator": "Hyderabad Metro Rail Limited", "public_transport": "stop_position", "public_transport:version": "2", "railway": "stop", "subway": "yes", "wikidata": "Q56701862", "wikipedia": "en:Ameerpet metro station"}}, {"type": "node", "id": 5787787986, "lat": 17.4341738, "lon": 78.4458556}, {"type": "node", "id": 5787787987, "lat": 17.4421818, "lon": 78.3771643, "tags": {"name": "Raidurg", "network": "Hyderabad Metro", "note": "Contributors are requested to not edit the \"network\" and the \"operator\" tags. (2023/11/08)", "operator": "Hyderabad Metro Rail Limited", "public_transport": "stop_position", "railway": "stop", "subway": "yes"}}, {"type": "node", "id": 5787787993, "lat": 17.4431312, "lon": 78.4407689, "tags": {"addr:city": "Hyderabad", "addr:city:ar": "\u062d\u064a\u062f\u0631 \u0622\u0628\u0627\u062f", "addr:city:ur": "\u062d\u06cc\u062f\u0631\u0622\u0628\u0627\u062f", "name": "S. R. Nagar", "network": "Hyderabad Metro", "note": "Contributors are requested to not edit the \"network\" and the \"operator\" tags. (2023/11/08)", "operator": "Hyderabad Metro Rail Limited", "public_transport": "stop_position", "public_transport:version": "2", "railway": "stop", "subway": "yes"}}, {"type": "node", "id": 5787788705, "lat": 17.4508018, "lon": 78.3817787}, {"type": "node", "id": 5787788708, "lat": 17.4309023, "lon": 78.419863}, {"type": "node", "id": 5787788709, "lat": 17.4309151, "lon": 78.4200668}, {"type": "node", "id": 5787788710, "lat": 17.4308895, "lon": 78.4203511}, {"type": "node", "id": 5787788711, "lat": 17.4308025, "lon": 78.420665}, {"type": "node", "id": 5787788712, "lat": 17.4300272, "lon": 78.4231997, "tags": {"name": "Road No 5 Jubilee Hills", "name:te": "\u0c30\u0c4b\u0c21\u0c4d \u0c28\u0c02 5 \u0c1c\u0c42\u0c2c\u0c3f\u0c32\u0c40 \u0c39\u0c3f\u0c32\u0c4d\u0c38\u0c4d", "network": "Hyderabad Metro", "note": "Contributors are requested to not edit the \"network\" and the \"operator\" tags. (2023/11/08)", "operator": "Hyderabad Metro Rail Limited", "public_transport": "stop_position", "railway": "stop", "subway": "yes"}}, {"type": "node", "id": 5787788713, "lat": 17.4297815, "lon": 78.4239963}, {"type": "node", "id": 5787788714, "lat": 17.4296919, "lon": 78.4243007}, {"type": "node", "id": 5787788715, "lat": 17.429706, "lon": 78.4245367}, {"type": "node", "id": 5787788716, "lat": 17.4298314, "lon": 78.4249954}, {"type": "node", "id": 5787788719, "lat": 17.435108, "lon": 78.4273374, "tags": {"name": "Yusufguda", "name:te": "\u0c2f\u0c42\u0c38\u0c41\u0c2b\u0c4d\u200c\u0c17\u0c42\u0c21", "network": "Hyderabad Metro", "note": "Contributors are requested to not edit the \"network\" and the \"operator\" tags. (2023/11/08)", "operator": "Hyderabad Metro Rail Limited", "public_transport": "stop_position", "railway": "stop", "subway": "yes"}}, {"type": "node", "id": 5942734589, "lat": 17.4462587, "lon": 78.3853261, "tags": {"bus": "yes", "highway": "bus_stop", "name": "Madhapur Image Gardens", "operator": "Govt Of Telangana", "public_transport": "platform", "shelter": "yes", "tactile_paving": "yes"}}, {"type": "node", "id": 5942740806, "lat": 17.4461737, "lon": 78.3850424, "tags": {"bus": "yes", "highway": "bus_stop", "name": "Madhapur Image Gardens", "public_transport": "platform", "shelter": "yes", "tactile_paving": "yes"}}, {"type": "node", "id": 5994099503, "lat": 17.4484132, "lon": 78.3835495}, {"type": "node", "id": 5994099504, "lat": 17.4485532, "lon": 78.3837315}, {"type": "node", "id": 5994099505, "lat": 17.4495201, "lon": 78.3829146}, {"type": "node", "id": 5994099506, "lat": 17.4493802, "lon": 78.3827326}, {"type": "node", "id": 6444553239, "lat": 17.4490055, "lon": 78.3831376, "tags": {"name": "HITEC City", "name:fa": "\u0634\u0647\u0631 \u0647\u0627\u06cc\u062a\u06a9", "name:ml": "\u0d39\u0d48\u0d1f\u0d46\u0d15\u0d4d \u0d38\u0d3f\u0d31\u0d4d\u0d31\u0d3f", "name:te": "\u0c39\u0c48\u0c1f\u0c46\u0c15\u0c4d \u0c38\u0c3f\u0c1f\u0c3f", "network": "Hyderabad Metro", "note": "Contributors are requested to not edit the \"network\" and the \"operator\" tags. (2023/11/08)", "operator": "Hyderabad Metro Rail Limited", "public_transport": "station", "railway": "station", "station": "subway", "subway": "yes", "wikidata": "Q56701859"}}, {"type": "node", "id": 6445283673, "lat": 17.4451321, "lon": 78.3772829}, {"type": "node", "id": 6445283674, "lat": 17.4444662, "lon": 78.377175}, {"type": "node", "id": 6445283675, "lat": 17.4447744, "lon": 78.3772202}, {"type": "node", "id": 6445283676, "lat": 17.4469618, "lon": 78.377884}, {"type": "node", "id": 6445283677, "lat": 17.4464819, "lon": 78.3775969}, {"type": "node", "id": 6445283678, "lat": 17.4462083, "lon": 78.3774657}, {"type": "node", "id": 6445283679, "lat": 17.4475981, "lon": 78.3782755}, {"type": "node", "id": 6445283680, "lat": 17.4491002, "lon": 78.3792146}, {"type": "node", "id": 6445283681, "lat": 17.448836, "lon": 78.3791421}, {"type": "node", "id": 6445283682, "lat": 17.4499522, "lon": 78.3794067}, {"type": "node", "id": 6445283683, "lat": 17.4505439, "lon": 78.3797212}, {"type": "node", "id": 6445283684, "lat": 17.4511225, "lon": 78.3807698}, {"type": "node", "id": 6445284985, "lat": 17.4511193, "lon": 78.38115}, {"type": "node", "id": 6445284986, "lat": 17.451134, "lon": 78.3810415}, {"type": "node", "id": 6445284987, "lat": 17.4511734, "lon": 78.3809999}, {"type": "node", "id": 6445284988, "lat": 17.4503513, "lon": 78.3795225}, {"type": "node", "id": 6445284989, "lat": 17.4511661, "lon": 78.3808085}, {"type": "node", "id": 6445284990, "lat": 17.4505491, "lon": 78.3796719}, {"type": "node", "id": 6445284991, "lat": 17.4499513, "lon": 78.3793666}, {"type": "node", "id": 6445284992, "lat": 17.4484535, "lon": 78.3789192}, {"type": "node", "id": 6445284993, "lat": 17.4481471, "lon": 78.3786986}, {"type": "node", "id": 6445284994, "lat": 17.447016, "lon": 78.3778703}, {"type": "node", "id": 6445284995, "lat": 17.4475096, "lon": 78.3781698}, {"type": "node", "id": 6445284996, "lat": 17.4461747, "lon": 78.3774126}, {"type": "node", "id": 6445284997, "lat": 17.445751, "lon": 78.377332}, {"type": "node", "id": 6445284998, "lat": 17.4448148, "lon": 78.3771886}, {"type": "node", "id": 6445284999, "lat": 17.4443853, "lon": 78.3771309}, {"type": "node", "id": 6445285000, "lat": 17.4434905, "lon": 78.3771812, "tags": {"railway": "switch"}}, {"type": "node", "id": 6451675812, "lat": 17.4429466, "lon": 78.3875721, "tags": {"internet_access": "no", "name": "Durgam Cheruvu", "name:fa": "\u062f\u0631\u06af\u0627\u0645 \u0686\u0631\u0648\u0648", "name:ml": "\u0d26\u0d41\u0d7c\u0d17\u0d4d\u0d17\u0d02 \u0d1a\u0d46\u0d30\u0d41\u0d35\u0d4d", "name:te": "\u0c26\u0c41\u0c30\u0c4d\u0c17\u0c02 \u0c1a\u0c46\u0c30\u0c41\u0c35\u0c41", "network": "Hyderabad Metro", "note": "Contributors are requested to not edit the \"network\" and the \"operator\" tags. (2023/11/08)", "operator": "Hyderabad Metro Rail Limited", "public_transport": "station", "railway": "station", "station": "Metro", "subway": "yes", "website": "https://hmrl.co.in", "wheelchair": "yes", "wikidata": "Q83554384"}}, {"type": "node", "id": 6453519084, "lat": 17.4429159, "lon": 78.3875922, "tags": {"internet_access": "no", "name": "Durgam Cheruvu", "name:te": "\u0c26\u0c41\u0c30\u0c4d\u0c17\u0c02 \u0c1a\u0c46\u0c30\u0c41\u0c35\u0c41", "network": "Hyderabad Metro", "note": "Contributors are requested to not edit the \"network\" and the \"operator\" tags. (2023/11/08)", "operator": "Hyderabad Metro Rail Limited", "public_transport": "stop_position", "railway": "stop", "subway": "yes"}}, {"type": "node", "id": 6453520185, "lat": 17.442903, "lon": 78.387557, "tags": {"internet_access": "no", "name": "Durgam Cheruvu", "name:en": "Durgam Cheruvu Metro Station", "name:te": "\u0c26\u0c41\u0c30\u0c4d\u0c17\u0c02 \u0c1a\u0c46\u0c30\u0c41\u0c35\u0c41 \u0c2e\u0c46\u0c1f\u0c4d\u0c30\u0c4b \u0c38\u0c4d\u0c1f\u0c47\u0c37\u0c28\u0c4d", "network": "Hyderabad Metro", "note": "Contributors are requested to not edit the \"network\" and the \"operator\" tags. (2023/11/08)", "operator": "Hyderabad Metro Rail Limited", "public_transport": "stop_position", "railway": "stop", "subway": "yes"}}, {"type": "node", "id": 6672440858, "lat": 17.4351132, "lon": 78.4273216, "tags": {"name": "Yusufguda", "name:fa": "\u06cc\u0648\u0633\u0641 \u06af\u0648\u062f\u0627", "name:ml": "\u0d2f\u0d42\u0d38\u0d41\u0d2b\u0d4d\u0d17\u0d41\u0d21", "name:te": "\u0c2f\u0c42\u0c38\u0c41\u0c2b\u0c4d\u200c\u0c17\u0c42\u0c21", "name:ur": "\u06cc\u0648\u0633\u0641 \u06af\u0648\u0691\u06c1", "network": "Hyderabad Metro", "note": "Contributors are requested to not edit the \"network\" and the \"operator\" tags. (2023/11/08)", "operator": "Hyderabad Metro Rail Limited", "public_transport": "station", "railway": "station", "station": "subway", "subway": "yes", "wikidata": "Q85518572"}}, {"type": "node", "id": 6777017020, "lat": 17.4369501, "lon": 78.4434047}, {"type": "node", "id": 6777017021, "lat": 17.4367948, "lon": 78.4436226}, {"type": "node", "id": 6777017022, "lat": 17.4366839, "lon": 78.4437388}, {"type": "node", "id": 6777017023, "lat": 17.4365184, "lon": 78.4438727}, {"type": "node", "id": 6777017024, "lat": 17.4361047, "lon": 78.4441528}, {"type": "node", "id": 6777017025, "lat": 17.4349532, "lon": 78.4448917}, {"type": "node", "id": 6777017026, "lat": 17.4346129, "lon": 78.4451226}, {"type": "node", "id": 6777017027, "lat": 17.434488, "lon": 78.4452379}, {"type": "node", "id": 6777017028, "lat": 17.4344025, "lon": 78.4453399}, {"type": "node", "id": 6777017029, "lat": 17.4343389, "lon": 78.4454338}, {"type": "node", "id": 6777017030, "lat": 17.4342434, "lon": 78.445615}, {"type": "node", "id": 6777017031, "lat": 17.4341952, "lon": 78.4457568}, {"type": "node", "id": 6777038049, "lat": 17.4361729, "lon": 78.4441066, "tags": {"railway": "switch"}}, {"type": "node", "id": 6777060869, "lat": 17.4300909, "lon": 78.4093217}, {"type": "node", "id": 6777060870, "lat": 17.441045, "lon": 78.3916612}, {"type": "node", "id": 6777060871, "lat": 17.4409941, "lon": 78.3920691}, {"type": "node", "id": 6777060872, "lat": 17.4409563, "lon": 78.3924258}, {"type": "node", "id": 6777060873, "lat": 17.4409157, "lon": 78.3926834}, {"type": "node", "id": 6777060874, "lat": 17.4408537, "lon": 78.3929675}, {"type": "node", "id": 6777060875, "lat": 17.4407615, "lon": 78.3932825}, {"type": "node", "id": 6777060876, "lat": 17.4406523, "lon": 78.3935789}, {"type": "node", "id": 6777060877, "lat": 17.4405283, "lon": 78.3939138}, {"type": "node", "id": 6777060878, "lat": 17.4404283, "lon": 78.3942001}, {"type": "node", "id": 6777060879, "lat": 17.4402269, "lon": 78.3949081}, {"type": "node", "id": 6777060880, "lat": 17.4401605, "lon": 78.3951118}, {"type": "node", "id": 6777060881, "lat": 17.4401027, "lon": 78.3952664}, {"type": "node", "id": 6777060882, "lat": 17.440027, "lon": 78.3954238}, {"type": "node", "id": 6777060883, "lat": 17.4399227, "lon": 78.3955987}, {"type": "node", "id": 6777060884, "lat": 17.4398042, "lon": 78.3957556}, {"type": "node", "id": 6777060892, "lat": 17.4499654, "lon": 78.3824194}, {"type": "node", "id": 6777060893, "lat": 17.4499511, "lon": 78.3823788}, {"type": "node", "id": 6777063522, "lat": 17.4387559, "lon": 78.3991335}, {"type": "node", "id": 6777063523, "lat": 17.4386957, "lon": 78.3992931}, {"type": "node", "id": 6777063524, "lat": 17.4386151, "lon": 78.3994353}, {"type": "node", "id": 6777063525, "lat": 17.4385326, "lon": 78.3995513}, {"type": "node", "id": 6777063526, "lat": 17.4384213, "lon": 78.3996693}, {"type": "node", "id": 6777063527, "lat": 17.4383183, "lon": 78.3997491}, {"type": "node", "id": 6777063528, "lat": 17.438047, "lon": 78.3999208}, {"type": "node", "id": 6777063529, "lat": 17.4368354, "lon": 78.4006651}, {"type": "node", "id": 6777063530, "lat": 17.4360805, "lon": 78.4011345}, {"type": "node", "id": 6777063531, "lat": 17.4359218, "lon": 78.4012431}, {"type": "node", "id": 6777063532, "lat": 17.4357888, "lon": 78.4013544}, {"type": "node", "id": 6777063533, "lat": 17.4356787, "lon": 78.4014697}, {"type": "node", "id": 6777063534, "lat": 17.4355879, "lon": 78.4015784}, {"type": "node", "id": 6777063535, "lat": 17.4354932, "lon": 78.4017259}, {"type": "node", "id": 6777063536, "lat": 17.4353256, "lon": 78.4020384}, {"type": "node", "id": 6777063537, "lat": 17.4351695, "lon": 78.4023133}, {"type": "node", "id": 6777063538, "lat": 17.4350659, "lon": 78.4024769}, {"type": "node", "id": 6777063539, "lat": 17.4348688, "lon": 78.4027572}, {"type": "node", "id": 6777063540, "lat": 17.4347229, "lon": 78.4029718}, {"type": "node", "id": 6777063541, "lat": 17.4346219, "lon": 78.4031394}, {"type": "node", "id": 6777063542, "lat": 17.4344709, "lon": 78.403417}, {"type": "node", "id": 6777063543, "lat": 17.4343644, "lon": 78.4036413}, {"type": "node", "id": 6777063544, "lat": 17.4342815, "lon": 78.4038401}, {"type": "node", "id": 6777063545, "lat": 17.4341024, "lon": 78.4043397}, {"type": "node", "id": 6777063546, "lat": 17.4340077, "lon": 78.4045824}, {"type": "node", "id": 6777063547, "lat": 17.4338977, "lon": 78.4048178}, {"type": "node", "id": 6777063548, "lat": 17.4330609, "lon": 78.4062816}, {"type": "node", "id": 6777063549, "lat": 17.4329099, "lon": 78.4065351}, {"type": "node", "id": 6777063550, "lat": 17.4328075, "lon": 78.4066638}, {"type": "node", "id": 6777063551, "lat": 17.4326757, "lon": 78.4067926}, {"type": "node", "id": 6777063552, "lat": 17.432512, "lon": 78.4069066}, {"type": "node", "id": 6777063553, "lat": 17.4323725, "lon": 78.4069723}, {"type": "node", "id": 6777063554, "lat": 17.4322663, "lon": 78.4070072}, {"type": "node", "id": 6777063555, "lat": 17.4319106, "lon": 78.4070662}, {"type": "node", "id": 6777063556, "lat": 17.4317532, "lon": 78.4071037}, {"type": "node", "id": 6777063557, "lat": 17.4316099, "lon": 78.4071567}, {"type": "node", "id": 6777063558, "lat": 17.4314634, "lon": 78.4072365}, {"type": "node", "id": 6777063559, "lat": 17.4313527, "lon": 78.4073223}, {"type": "node", "id": 6777063560, "lat": 17.4312453, "lon": 78.4074242}, {"type": "node", "id": 6777063561, "lat": 17.4311608, "lon": 78.4075235}, {"type": "node", "id": 6777063562, "lat": 17.4310572, "lon": 78.4076804}, {"type": "node", "id": 6777063563, "lat": 17.4300604, "lon": 78.4093018}, {"type": "node", "id": 6777074285, "lat": 17.4394147, "lon": 78.3962002}, {"type": "node", "id": 6777074286, "lat": 17.4392242, "lon": 78.3964278}, {"type": "node", "id": 6777074287, "lat": 17.439106, "lon": 78.3966017}, {"type": "node", "id": 6777074288, "lat": 17.439007, "lon": 78.3967831}, {"type": "node", "id": 6777074289, "lat": 17.4389263, "lon": 78.3969879}, {"type": "node", "id": 6777074290, "lat": 17.4387392, "lon": 78.3975362}, {"type": "node", "id": 6777074291, "lat": 17.4386981, "lon": 78.397723}, {"type": "node", "id": 6777074292, "lat": 17.4386883, "lon": 78.3978618}, {"type": "node", "id": 6777074293, "lat": 17.4387019, "lon": 78.398016}, {"type": "node", "id": 6777074294, "lat": 17.4387575, "lon": 78.3982862}, {"type": "node", "id": 6777074295, "lat": 17.4388258, "lon": 78.3985389}, {"type": "node", "id": 6777074296, "lat": 17.4388391, "lon": 78.3986644}, {"type": "node", "id": 6777074297, "lat": 17.4388417, "lon": 78.3988247}, {"type": "node", "id": 6777074298, "lat": 17.4388311, "lon": 78.3989911}, {"type": "node", "id": 6777074299, "lat": 17.43879, "lon": 78.3991455}, {"type": "node", "id": 6777074300, "lat": 17.4387281, "lon": 78.3993098}, {"type": "node", "id": 6777074301, "lat": 17.4386451, "lon": 78.3994562}, {"type": "node", "id": 6777074302, "lat": 17.4385599, "lon": 78.3995759}, {"type": "node", "id": 6777074303, "lat": 17.4384449, "lon": 78.3996979}, {"type": "node", "id": 6777074304, "lat": 17.4383383, "lon": 78.3997804}, {"type": "node", "id": 6777074305, "lat": 17.4380654, "lon": 78.3999531}, {"type": "node", "id": 6777074306, "lat": 17.4368536, "lon": 78.4006975}, {"type": "node", "id": 6777074307, "lat": 17.4360995, "lon": 78.4011664}, {"type": "node", "id": 6777074308, "lat": 17.4359429, "lon": 78.4012736}, {"type": "node", "id": 6777074309, "lat": 17.4358127, "lon": 78.4013825}, {"type": "node", "id": 6777074310, "lat": 17.435705, "lon": 78.4014955}, {"type": "node", "id": 6777074311, "lat": 17.4356164, "lon": 78.4016014}, {"type": "node", "id": 6777074312, "lat": 17.4355238, "lon": 78.4017457}, {"type": "node", "id": 6777074313, "lat": 17.4353567, "lon": 78.4020572}, {"type": "node", "id": 6777074314, "lat": 17.4351999, "lon": 78.4023333}, {"type": "node", "id": 6777074315, "lat": 17.4350953, "lon": 78.4024985}, {"type": "node", "id": 6777074316, "lat": 17.4348979, "lon": 78.4027793}, {"type": "node", "id": 6777074317, "lat": 17.4347528, "lon": 78.4029928}, {"type": "node", "id": 6777074318, "lat": 17.4346527, "lon": 78.4031588}, {"type": "node", "id": 6777074319, "lat": 17.4345026, "lon": 78.4034348}, {"type": "node", "id": 6777074320, "lat": 17.4343969, "lon": 78.4036573}, {"type": "node", "id": 6777074321, "lat": 17.4343148, "lon": 78.4038543}, {"type": "node", "id": 6777074322, "lat": 17.4341358, "lon": 78.4043535}, {"type": "node", "id": 6777074323, "lat": 17.4340405, "lon": 78.4045979}, {"type": "node", "id": 6777074324, "lat": 17.4339293, "lon": 78.4048358}, {"type": "node", "id": 6777074325, "lat": 17.4330915, "lon": 78.4063013}, {"type": "node", "id": 6777074326, "lat": 17.4329391, "lon": 78.4065572}, {"type": "node", "id": 6777074327, "lat": 17.4328337, "lon": 78.4066898}, {"type": "node", "id": 6777074328, "lat": 17.4326981, "lon": 78.4068222}, {"type": "node", "id": 6777074329, "lat": 17.4325294, "lon": 78.4069397}, {"type": "node", "id": 6777074330, "lat": 17.4323853, "lon": 78.4070076}, {"type": "node", "id": 6777074331, "lat": 17.4322745, "lon": 78.4070439}, {"type": "node", "id": 6777074332, "lat": 17.4319174, "lon": 78.4071032, "tags": {"description": "Call 9703057624 for International Courier Booking Services in Hyderabad. Visit http://www.internationalcourierservices.in", "name": "International Courier Company", "website": "http://www.internationalcourierservices.in"}}, {"type": "node", "id": 6777074333, "lat": 17.4317632, "lon": 78.40714}, {"type": "node", "id": 6777074334, "lat": 17.4316242, "lon": 78.4071913}, {"type": "node", "id": 6777074335, "lat": 17.4314825, "lon": 78.4072685}, {"type": "node", "id": 6777074336, "lat": 17.4313755, "lon": 78.4073515}, {"type": "node", "id": 6777074337, "lat": 17.4312708, "lon": 78.4074508}, {"type": "node", "id": 6777074338, "lat": 17.4311891, "lon": 78.4075468}, {"type": "node", "id": 6777074339, "lat": 17.4310867, "lon": 78.4077018}, {"type": "node", "id": 6777074340, "lat": 17.4410095, "lon": 78.3916552}, {"type": "node", "id": 6777074341, "lat": 17.4409584, "lon": 78.3920646}, {"type": "node", "id": 6777074342, "lat": 17.4409207, "lon": 78.3924206}, {"type": "node", "id": 6777074343, "lat": 17.4408804, "lon": 78.3926761}, {"type": "node", "id": 6777074344, "lat": 17.440819, "lon": 78.3929577}, {"type": "node", "id": 6777074345, "lat": 17.4407275, "lon": 78.3932702}, {"type": "node", "id": 6777074346, "lat": 17.4406188, "lon": 78.3935653}, {"type": "node", "id": 6777074347, "lat": 17.4404946, "lon": 78.3939005}, {"type": "node", "id": 6777074348, "lat": 17.4403942, "lon": 78.3941882}, {"type": "node", "id": 6777074349, "lat": 17.4401927, "lon": 78.3948966}, {"type": "node", "id": 6777074350, "lat": 17.4401268, "lon": 78.3950988}, {"type": "node", "id": 6777074351, "lat": 17.4400699, "lon": 78.395251}, {"type": "node", "id": 6777074352, "lat": 17.4399957, "lon": 78.3954053}, {"type": "node", "id": 6777074353, "lat": 17.4398933, "lon": 78.3955769}, {"type": "node", "id": 6777074354, "lat": 17.4397769, "lon": 78.3957311}, {"type": "node", "id": 6777074355, "lat": 17.4393879, "lon": 78.3961751}, {"type": "node", "id": 6777074356, "lat": 17.439196, "lon": 78.3964044}, {"type": "node", "id": 6777074357, "lat": 17.4390757, "lon": 78.3965814}, {"type": "node", "id": 6777074358, "lat": 17.4389747, "lon": 78.3967665}, {"type": "node", "id": 6777074359, "lat": 17.4388928, "lon": 78.3969744}, {"type": "node", "id": 6777074360, "lat": 17.4387047, "lon": 78.3975255}, {"type": "node", "id": 6777074361, "lat": 17.4386625, "lon": 78.3977173}, {"type": "node", "id": 6777074362, "lat": 17.4386522, "lon": 78.3978622}, {"type": "node", "id": 6777074363, "lat": 17.4386663, "lon": 78.3980218}, {"type": "node", "id": 6777074364, "lat": 17.4387226, "lon": 78.3982953}, {"type": "node", "id": 6777074365, "lat": 17.4387904, "lon": 78.3985461}, {"type": "node", "id": 6777074366, "lat": 17.4388032, "lon": 78.3986668}, {"type": "node", "id": 6777074367, "lat": 17.4388058, "lon": 78.3988237}, {"type": "node", "id": 6777074368, "lat": 17.4387955, "lon": 78.3989847}, {"type": "node", "id": 6777140608, "lat": 17.4412955, "lon": 78.3904003}, {"type": "node", "id": 6777140609, "lat": 17.4413223, "lon": 78.3902016}, {"type": "node", "id": 6777140610, "lat": 17.4413398, "lon": 78.3900133}, {"type": "node", "id": 6777140611, "lat": 17.4413469, "lon": 78.3890723}, {"type": "node", "id": 6777140612, "lat": 17.4413544, "lon": 78.3889185}, {"type": "node", "id": 6777140613, "lat": 17.4413741, "lon": 78.3887981}, {"type": "node", "id": 6777140614, "lat": 17.4414189, "lon": 78.3886378}, {"type": "node", "id": 6777140615, "lat": 17.4414742, "lon": 78.3885107}, {"type": "node", "id": 6777140616, "lat": 17.4415281, "lon": 78.3884068}, {"type": "node", "id": 6777140617, "lat": 17.4416087, "lon": 78.3882918}, {"type": "node", "id": 6777140618, "lat": 17.4416966, "lon": 78.3881907}, {"type": "node", "id": 6777140619, "lat": 17.4417932, "lon": 78.3881075}, {"type": "node", "id": 6777140620, "lat": 17.4418954, "lon": 78.3880331}, {"type": "node", "id": 6777140621, "lat": 17.4419856, "lon": 78.3879813}, {"type": "node", "id": 6777140622, "lat": 17.4422649, "lon": 78.3878549}, {"type": "node", "id": 6777140623, "lat": 17.4435274, "lon": 78.3873454}, {"type": "node", "id": 6777140624, "lat": 17.4437427, "lon": 78.3872535}, {"type": "node", "id": 6777140625, "lat": 17.443903, "lon": 78.3871688}, {"type": "node", "id": 6777140626, "lat": 17.4440539, "lon": 78.3870679}, {"type": "node", "id": 6777140627, "lat": 17.4442182, "lon": 78.3869418}, {"type": "node", "id": 6777140628, "lat": 17.4462211, "lon": 78.3851965}, {"type": "node", "id": 6777140629, "lat": 17.4464631, "lon": 78.3849937}, {"type": "node", "id": 6777140630, "lat": 17.4466432, "lon": 78.3848304}, {"type": "node", "id": 6777140631, "lat": 17.4468333, "lon": 78.384679}, {"type": "node", "id": 6777140632, "lat": 17.4470216, "lon": 78.3845479}, {"type": "node", "id": 6777140633, "lat": 17.4471826, "lon": 78.3844575}, {"type": "node", "id": 6777140634, "lat": 17.4475564, "lon": 78.3842454}, {"type": "node", "id": 6777140635, "lat": 17.4478122, "lon": 78.3840972}, {"type": "node", "id": 6777140636, "lat": 17.4480841, "lon": 78.3839136}, {"type": "node", "id": 6777140637, "lat": 17.4412601, "lon": 78.3903937}, {"type": "node", "id": 6777140638, "lat": 17.4412866, "lon": 78.3901971}, {"type": "node", "id": 6777140639, "lat": 17.4413039, "lon": 78.3900113}, {"type": "node", "id": 6777140640, "lat": 17.4413109, "lon": 78.3890712}, {"type": "node", "id": 6777140641, "lat": 17.4413186, "lon": 78.3889143}, {"type": "node", "id": 6777140642, "lat": 17.4413391, "lon": 78.3887896}, {"type": "node", "id": 6777140643, "lat": 17.4413851, "lon": 78.3886246}, {"type": "node", "id": 6777140644, "lat": 17.4414421, "lon": 78.3884939}, {"type": "node", "id": 6777140645, "lat": 17.4414977, "lon": 78.3883866}, {"type": "node", "id": 6777140646, "lat": 17.4415809, "lon": 78.3882679}, {"type": "node", "id": 6777140647, "lat": 17.4416717, "lon": 78.3881633}, {"type": "node", "id": 6777140648, "lat": 17.4417715, "lon": 78.3880775}, {"type": "node", "id": 6777140649, "lat": 17.4418765, "lon": 78.388001}, {"type": "node", "id": 6777140650, "lat": 17.4419699, "lon": 78.3879474}, {"type": "node", "id": 6777140651, "lat": 17.4422513, "lon": 78.38782}, {"type": "node", "id": 6777140652, "lat": 17.4435141, "lon": 78.3873104}, {"type": "node", "id": 6777140653, "lat": 17.4437278, "lon": 78.3872192}, {"type": "node", "id": 6777140654, "lat": 17.4438852, "lon": 78.387136}, {"type": "node", "id": 6777140655, "lat": 17.4440336, "lon": 78.3870368}, {"type": "node", "id": 6777140656, "lat": 17.4441961, "lon": 78.386912}, {"type": "node", "id": 6777140657, "lat": 17.4461984, "lon": 78.3851673}, {"type": "node", "id": 6777140658, "lat": 17.4464402, "lon": 78.3849648}, {"type": "node", "id": 6777140659, "lat": 17.4466206, "lon": 78.3848011}, {"type": "node", "id": 6777140660, "lat": 17.4468125, "lon": 78.3846483}, {"type": "node", "id": 6777140661, "lat": 17.4470031, "lon": 78.3845155}, {"type": "node", "id": 6777140662, "lat": 17.4471656, "lon": 78.3844243}, {"type": "node", "id": 6777140663, "lat": 17.4475392, "lon": 78.3842124}, {"type": "node", "id": 6777140664, "lat": 17.4477938, "lon": 78.3840649}, {"type": "node", "id": 6777140665, "lat": 17.4480637, "lon": 78.3838825}, {"type": "node", "id": 6777140666, "lat": 17.4483426, "lon": 78.3837135}, {"type": "node", "id": 6777140667, "lat": 17.4483183, "lon": 78.383688}, {"type": "node", "id": 6777154650, "lat": 17.4274144, "lon": 78.4162585}, {"type": "node", "id": 6777154651, "lat": 17.4272932, "lon": 78.4161131}, {"type": "node", "id": 6777154652, "lat": 17.4272027, "lon": 78.4159714}, {"type": "node", "id": 6777154653, "lat": 17.4271371, "lon": 78.4158223}, {"type": "node", "id": 6777154654, "lat": 17.4270909, "lon": 78.41566}, {"type": "node", "id": 6777154655, "lat": 17.4270599, "lon": 78.4155108}, {"type": "node", "id": 6777154656, "lat": 17.4270575, "lon": 78.4153599}, {"type": "node", "id": 6777154657, "lat": 17.4270737, "lon": 78.4152035}, {"type": "node", "id": 6777154658, "lat": 17.4271097, "lon": 78.4150353}, {"type": "node", "id": 6777154659, "lat": 17.4271618, "lon": 78.414895}, {"type": "node", "id": 6777154660, "lat": 17.4272262, "lon": 78.4147651}, {"type": "node", "id": 6777154661, "lat": 17.427303, "lon": 78.4146535}, {"type": "node", "id": 6777154662, "lat": 17.4274057, "lon": 78.4145314}, {"type": "node", "id": 6777154663, "lat": 17.4273887, "lon": 78.4162849}, {"type": "node", "id": 6777154664, "lat": 17.4272646, "lon": 78.4161361}, {"type": "node", "id": 6777154665, "lat": 17.4271712, "lon": 78.4159899}, {"type": "node", "id": 6777154666, "lat": 17.4271034, "lon": 78.4158356}, {"type": "node", "id": 6777154667, "lat": 17.4270561, "lon": 78.4156694}, {"type": "node", "id": 6777154668, "lat": 17.4270241, "lon": 78.4155151}, {"type": "node", "id": 6777154669, "lat": 17.4270215, "lon": 78.4153582}, {"type": "node", "id": 6777154670, "lat": 17.4270382, "lon": 78.4151973}, {"type": "node", "id": 6777154671, "lat": 17.4270753, "lon": 78.4150243}, {"type": "node", "id": 6777154672, "lat": 17.427129, "lon": 78.4148794}, {"type": "node", "id": 6777154673, "lat": 17.4271955, "lon": 78.4147453}, {"type": "node", "id": 6777154674, "lat": 17.4272749, "lon": 78.41463}, {"type": "node", "id": 6777154675, "lat": 17.4273798, "lon": 78.4145053}, {"type": "node", "id": 6777154676, "lat": 17.429693, "lon": 78.4122615}, {"type": "node", "id": 6777154677, "lat": 17.4298169, "lon": 78.412122}, {"type": "node", "id": 6777154678, "lat": 17.4299108, "lon": 78.4119876}, {"type": "node", "id": 6777154679, "lat": 17.4299896, "lon": 78.4118237}, {"type": "node", "id": 6777154680, "lat": 17.4300387, "lon": 78.4116915}, {"type": "node", "id": 6777154681, "lat": 17.4300691, "lon": 78.411531}, {"type": "node", "id": 6777154682, "lat": 17.4300836, "lon": 78.4113856}, {"type": "node", "id": 6777154683, "lat": 17.4300758, "lon": 78.4112186}, {"type": "node", "id": 6777154684, "lat": 17.4300559, "lon": 78.4110745}, {"type": "node", "id": 6777165085, "lat": 17.4300163, "lon": 78.410939}, {"type": "node", "id": 6777165086, "lat": 17.4298728, "lon": 78.4105534}, {"type": "node", "id": 6777165087, "lat": 17.429839, "lon": 78.4104525}, {"type": "node", "id": 6777165088, "lat": 17.4298074, "lon": 78.4103142}, {"type": "node", "id": 6777165089, "lat": 17.4297919, "lon": 78.410137}, {"type": "node", "id": 6777165090, "lat": 17.429798, "lon": 78.4099876}, {"type": "node", "id": 6777165091, "lat": 17.4298362, "lon": 78.4098204}, {"type": "node", "id": 6777165092, "lat": 17.4298834, "lon": 78.409702}, {"type": "node", "id": 6777165093, "lat": 17.4299448, "lon": 78.4095667}, {"type": "node", "id": 6777165094, "lat": 17.4293756, "lon": 78.412568}, {"type": "node", "id": 6777165095, "lat": 17.4296676, "lon": 78.4122348}, {"type": "node", "id": 6777165096, "lat": 17.4297892, "lon": 78.412098}, {"type": "node", "id": 6777165097, "lat": 17.42988, "lon": 78.4119679}, {"type": "node", "id": 6777165098, "lat": 17.4299568, "lon": 78.4118083}, {"type": "node", "id": 6777165099, "lat": 17.4300041, "lon": 78.4116809}, {"type": "node", "id": 6777165100, "lat": 17.4300335, "lon": 78.4115253}, {"type": "node", "id": 6777165101, "lat": 17.4300476, "lon": 78.4113845}, {"type": "node", "id": 6777165102, "lat": 17.4300399, "lon": 78.4112222}, {"type": "node", "id": 6777165103, "lat": 17.4300208, "lon": 78.4110828}, {"type": "node", "id": 6777165104, "lat": 17.4299824, "lon": 78.4109513}, {"type": "node", "id": 6777165105, "lat": 17.4298391, "lon": 78.4105664}, {"type": "node", "id": 6777165106, "lat": 17.4298045, "lon": 78.4104632}, {"type": "node", "id": 6777165107, "lat": 17.4297719, "lon": 78.4103204}, {"type": "node", "id": 6777165108, "lat": 17.4297559, "lon": 78.410138}, {"type": "node", "id": 6777165109, "lat": 17.4297623, "lon": 78.4099824}, {"type": "node", "id": 6777165110, "lat": 17.429802, "lon": 78.4098087}, {"type": "node", "id": 6777165111, "lat": 17.4298506, "lon": 78.4096867}, {"type": "node", "id": 6777165112, "lat": 17.4299133, "lon": 78.4095485}, {"type": "node", "id": 6777165113, "lat": 17.4291907, "lon": 78.4127006}, {"type": "node", "id": 6777165114, "lat": 17.4275896, "lon": 78.4143457}, {"type": "node", "id": 6777165115, "lat": 17.4275615, "lon": 78.4143242}, {"type": "node", "id": 6777782857, "lat": 17.4282348, "lon": 78.4137054, "tags": {"name": "Jubilee Hills Checkpost", "network": "Hyderabad Metro", "note": "Contributors are requested to not edit the \"network\" and the \"operator\" tags. (2023/11/08)", "operator": "Hyderabad Metro Rail Limited", "platforms": "2", "public_transport": "stop_position", "public_transport:version": "2", "railway": "stop", "subway": "yes", "wheelchair": "yes"}}, {"type": "node", "id": 6777782858, "lat": 17.4281969, "lon": 78.4137145, "tags": {"layer": "1", "lit": "yes", "name": "Jubilee Hills Checkpost", "name:fa": "\u0627\u06cc\u0633\u062a \u0628\u0627\u0632\u0631\u0633\u06cc \u062c\u0648\u0628\u06cc\u0644\u06cc \u0647\u06cc\u0644\u0632", "name:ml": "\u0d1c\u0d42\u0d2c\u0d3f\u0d32\u0d3f \u0d39\u0d3f\u0d7d\u0d38\u0d4d \u0d1a\u0d46\u0d15\u0d4d\u0d15\u0d4d\u0d2a\u0d4b\u0d38\u0d4d\u0d31\u0d4d\u0d31\u0d4d", "name:te": "\u0c1c\u0c42\u0c2c\u0c4d\u0c32\u0c40 \u0c39\u0c3f\u0c32\u0c4d\u0c38\u0c4d \u0c1a\u0c46\u0c15\u0c4d\u200c\u0c2a\u0c4b\u0c38\u0c4d\u0c1f\u0c4d", "network": "Hyderabad Metro", "note": "Contributors are requested to not edit the \"network\" and the \"operator\" tags. (2023/11/08)", "operator": "Hyderabad Metro Rail Limited", "platforms": "2", "public_transport": "station", "public_transport:version": "2", "railway": "station", "shelter": "yes", "station": "subway", "subway": "yes", "wheelchair": "yes", "wikidata": "Q64038090"}}, {"type": "node", "id": 6779401791, "lat": 17.4364685, "lon": 78.4384983}, {"type": "node", "id": 6779401792, "lat": 17.4363704, "lon": 78.4383708}, {"type": "node", "id": 6779401793, "lat": 17.4362687, "lon": 78.4382205}, {"type": "node", "id": 6779401794, "lat": 17.4361799, "lon": 78.4380491}, {"type": "node", "id": 6779401795, "lat": 17.436137, "lon": 78.437933}, {"type": "node", "id": 6779401796, "lat": 17.4361013, "lon": 78.4377812}, {"type": "node", "id": 6779401797, "lat": 17.4360861, "lon": 78.4376248}, {"type": "node", "id": 6779401798, "lat": 17.4360887, "lon": 78.4374584}, {"type": "node", "id": 6779401799, "lat": 17.436117, "lon": 78.4371024}, {"type": "node", "id": 6779401800, "lat": 17.4361722, "lon": 78.4366195}, {"type": "node", "id": 6779401801, "lat": 17.4363252, "lon": 78.4356538}, {"type": "node", "id": 6779401802, "lat": 17.4363776, "lon": 78.4353139}, {"type": "node", "id": 6779401803, "lat": 17.4364132, "lon": 78.4350161}, {"type": "node", "id": 6779401804, "lat": 17.4364311, "lon": 78.4348134}, {"type": "node", "id": 6779401805, "lat": 17.4365001, "lon": 78.4336485}, {"type": "node", "id": 6779401806, "lat": 17.4365436, "lon": 78.4329328}, {"type": "node", "id": 6779401807, "lat": 17.4365524, "lon": 78.4326969}, {"type": "node", "id": 6779401808, "lat": 17.4365388, "lon": 78.4325359}, {"type": "node", "id": 6779401809, "lat": 17.4365029, "lon": 78.4323841}, {"type": "node", "id": 6779401810, "lat": 17.4364469, "lon": 78.4322302}, {"type": "node", "id": 6779401811, "lat": 17.4363751, "lon": 78.43209}, {"type": "node", "id": 6779401812, "lat": 17.4361766, "lon": 78.4318126}, {"type": "node", "id": 6779401813, "lat": 17.4360826, "lon": 78.4316663}, {"type": "node", "id": 6779401814, "lat": 17.4360108, "lon": 78.4315157}, {"type": "node", "id": 6779401815, "lat": 17.435975, "lon": 78.4313682}, {"type": "node", "id": 6779401816, "lat": 17.4359486, "lon": 78.4312137}, {"type": "node", "id": 6779401817, "lat": 17.435946, "lon": 78.431038}, {"type": "node", "id": 6779401818, "lat": 17.4359605, "lon": 78.4308962}, {"type": "node", "id": 6779401819, "lat": 17.4359842, "lon": 78.4307623}, {"type": "node", "id": 6779401820, "lat": 17.436072, "lon": 78.430474}, {"type": "node", "id": 6779401821, "lat": 17.4365193, "lon": 78.4291149}, {"type": "node", "id": 6779401822, "lat": 17.43656, "lon": 78.4289326}, {"type": "node", "id": 6779401823, "lat": 17.4365735, "lon": 78.4288025}, {"type": "node", "id": 6779401824, "lat": 17.4365645, "lon": 78.4286442}, {"type": "node", "id": 6779401825, "lat": 17.4365324, "lon": 78.4284518}, {"type": "node", "id": 6779401826, "lat": 17.4364846, "lon": 78.4282963}, {"type": "node", "id": 6779401827, "lat": 17.4364095, "lon": 78.4281292}, {"type": "node", "id": 6779401828, "lat": 17.4363273, "lon": 78.4280077}, {"type": "node", "id": 6779401829, "lat": 17.4362247, "lon": 78.427885}, {"type": "node", "id": 6779401830, "lat": 17.4361012, "lon": 78.4277866}, {"type": "node", "id": 6779401831, "lat": 17.4376536, "lon": 78.440807}, {"type": "node", "id": 6779401832, "lat": 17.4376869, "lon": 78.4406628}, {"type": "node", "id": 6779401833, "lat": 17.437708, "lon": 78.44051}, {"type": "node", "id": 6779401834, "lat": 17.4377041, "lon": 78.440345}, {"type": "node", "id": 6779401835, "lat": 17.4376849, "lon": 78.4402018}, {"type": "node", "id": 6779401836, "lat": 17.4376469, "lon": 78.4400355}, {"type": "node", "id": 6779401837, "lat": 17.437596, "lon": 78.4399105}, {"type": "node", "id": 6779401838, "lat": 17.4375176, "lon": 78.4397708}, {"type": "node", "id": 6779401839, "lat": 17.4364963, "lon": 78.4384745}, {"type": "node", "id": 6779401840, "lat": 17.4363991, "lon": 78.4383481}, {"type": "node", "id": 6779401841, "lat": 17.4362993, "lon": 78.4382006}, {"type": "node", "id": 6779401842, "lat": 17.4362126, "lon": 78.4380333}, {"type": "node", "id": 6779401843, "lat": 17.4361713, "lon": 78.4379216}, {"type": "node", "id": 6779401844, "lat": 17.4361368, "lon": 78.4377748}, {"type": "node", "id": 6779401845, "lat": 17.4361221, "lon": 78.4376232}, {"type": "node", "id": 6779401846, "lat": 17.4361246, "lon": 78.4374603}, {"type": "node", "id": 6779401847, "lat": 17.4361528, "lon": 78.4371062}, {"type": "node", "id": 6779401848, "lat": 17.4362078, "lon": 78.4366248}, {"type": "node", "id": 6779401849, "lat": 17.4363607, "lon": 78.4356599}, {"type": "node", "id": 6779401850, "lat": 17.4364132, "lon": 78.4353192}, {"type": "node", "id": 6779401851, "lat": 17.436449, "lon": 78.4350201}, {"type": "node", "id": 6779401852, "lat": 17.4364669, "lon": 78.4348163}, {"type": "node", "id": 6779401853, "lat": 17.436536, "lon": 78.4336509}, {"type": "node", "id": 6779401854, "lat": 17.4365795, "lon": 78.4329347}, {"type": "node", "id": 6779401855, "lat": 17.4365884, "lon": 78.432696}, {"type": "node", "id": 6779401856, "lat": 17.4365744, "lon": 78.4325297}, {"type": "node", "id": 6779401857, "lat": 17.4365373, "lon": 78.4323728}, {"type": "node", "id": 6779401858, "lat": 17.4364797, "lon": 78.4322146}, {"type": "node", "id": 6779401859, "lat": 17.4364055, "lon": 78.4320697}, {"type": "node", "id": 6779401860, "lat": 17.4362059, "lon": 78.4317908}, {"type": "node", "id": 6779401861, "lat": 17.4361138, "lon": 78.4316473}, {"type": "node", "id": 6779401862, "lat": 17.4360447, "lon": 78.4315024}, {"type": "node", "id": 6779401863, "lat": 17.4360101, "lon": 78.4313603}, {"type": "node", "id": 6779401864, "lat": 17.4359845, "lon": 78.4312101}, {"type": "node", "id": 6779401865, "lat": 17.435982, "lon": 78.4310397}, {"type": "node", "id": 6779401866, "lat": 17.435996, "lon": 78.4309016}, {"type": "node", "id": 6779401867, "lat": 17.4360191, "lon": 78.4307715}, {"type": "node", "id": 6779401868, "lat": 17.4361061, "lon": 78.4304859}, {"type": "node", "id": 6779401869, "lat": 17.4365539, "lon": 78.4291253}, {"type": "node", "id": 6779401870, "lat": 17.4365955, "lon": 78.4289389}, {"type": "node", "id": 6779401871, "lat": 17.4366096, "lon": 78.4288035}, {"type": "node", "id": 6779401872, "lat": 17.4366003, "lon": 78.4286398}, {"type": "node", "id": 6779401873, "lat": 17.4365673, "lon": 78.4284427}, {"type": "node", "id": 6779401874, "lat": 17.4365181, "lon": 78.4282824}, {"type": "node", "id": 6779401875, "lat": 17.4364407, "lon": 78.4281101}, {"type": "node", "id": 6779401876, "lat": 17.4363556, "lon": 78.4279844}, {"type": "node", "id": 6779401877, "lat": 17.4362494, "lon": 78.4278573}, {"type": "node", "id": 6779401878, "lat": 17.4361214, "lon": 78.4277554}, {"type": "node", "id": 6779401879, "lat": 17.435712, "lon": 78.4275408}, {"type": "node", "id": 6779401880, "lat": 17.4359474, "lon": 78.4276924}, {"type": "node", "id": 6779401881, "lat": 17.4356966, "lon": 78.427581}, {"type": "node", "id": 7052069769, "lat": 17.4369785, "lon": 78.4390865, "tags": {"alt_name": "Taruni Madhura Nagar", "name": "Madhura Nagar", "name:te": "\u0c2e\u0c27\u0c41\u0c30 \u0c28\u0c17\u0c30\u0c4d", "network": "Hyderabad Metro", "note": "Contributors are requested to not edit the \"network\" and the \"operator\" tags. (2023/11/08)", "operator": "Hyderabad Metro Rail Limited", "public_transport": "stop_position", "railway": "stop", "subway": "yes"}}, {"type": "node", "id": 7052069771, "lat": 17.4351156, "lon": 78.4273014, "tags": {"name": "Yusufguda", "name:te": "\u0c2f\u0c42\u0c38\u0c41\u0c2b\u0c4d\u200c\u0c17\u0c42\u0c21", "network": "Hyderabad Metro", "note": "Contributors are requested to not edit the \"network\" and the \"operator\" tags. (2023/11/08)", "operator": "Hyderabad Metro Rail Limited", "public_transport": "stop_position", "railway": "stop", "subway": "yes"}}, {"type": "node", "id": 7052069772, "lat": 17.4300489, "lon": 78.4232069, "tags": {"name": "Road No 5 Jubilee Hills", "name:fa": "\u062c\u0627\u062f\u0647 \u0634\u0645\u0627\u0631\u0647 \u06f5 \u062c\u0648\u0628\u06cc\u0644\u06cc \u0647\u06cc\u0644\u0632", "name:ml": "\u0d31\u0d4b\u0d21\u0d4d \u0d28\u0d2e\u0d4d\u0d2a\u0d7c 5 \u0d1c\u0d42\u0d2c\u0d3f\u0d32\u0d3f \u0d39\u0d3f\u0d7d\u0d38\u0d4d", "name:te": "\u0c30\u0c4b\u0c21\u0c4d \u0c28\u0c02 5 \u0c1c\u0c42\u0c2c\u0c3f\u0c32\u0c40 \u0c39\u0c3f\u0c32\u0c4d\u0c38\u0c4d", "network": "Hyderabad Metro", "note": "Contributors are requested to not edit the \"network\" and the \"operator\" tags. (2023/11/08)", "operator": "Hyderabad Metro Rail Limited", "public_transport": "station", "railway": "station", "station": "subway", "subway": "yes", "wikidata": "Q108874431"}}, {"type": "node", "id": 7052069773, "lat": 17.4306677, "lon": 78.4083833, "tags": {"name": "Peddamma Gudi", "name:te": "\u0c2a\u0c46\u0c26\u0c4d\u0c26\u0c2e\u0c4d\u0c2e \u0c17\u0c41\u0c21\u0c3f", "network": "Hyderabad Metro", "note": "Contributors are requested to not edit the \"network\" and the \"operator\" tags. (2023/11/08)", "operator": "Hyderabad Metro Rail Limited", "public_transport": "stop_position", "railway": "stop", "subway": "yes"}}, {"type": "node", "id": 7052069774, "lat": 17.4306512, "lon": 78.4083721, "tags": {"name": "Peddamma Gudi", "name:fa": "\u067e\u062f\u0627\u0645\u0627 \u06af\u0648\u062f\u06cc", "name:ml": "\u0d2a\u0d46\u0d26\u0d4d\u0d26\u0d2e\u0d4d\u0d2e \u0d17\u0d41\u0d21\u0d3f", "name:te": "\u0c2a\u0c46\u0c26\u0c4d\u0c26\u0c2e\u0c4d\u0c2e \u0c17\u0c41\u0c21\u0c3f", "name:ur": "\u067e\u06cc\u062f\u0645\u0627 \u06af\u0688\u06cc", "network": "Hyderabad Metro", "note": "Contributors are requested to not edit the \"network\" and the \"operator\" tags. (2023/11/08)", "operator": "Hyderabad Metro Rail Limited", "public_transport": "station", "railway": "station", "station": "subway", "subway": "yes", "wikidata": "Q84028775"}}, {"type": "node", "id": 7052069775, "lat": 17.44218, "lon": 78.3771819, "tags": {"name": "Raidurg", "name:fa": "\u0631\u0627\u06cc\u062f\u0648\u0631\u06af", "name:ml": "\u0d31\u0d3e\u0d2f\u0d4d\u0d26\u0d41\u0d7c\u0d17\u0d4d", "name:te": "\u0c30\u0c3e\u0c2f\u0c26\u0c41\u0c30\u0c4d\u0c17\u0c4d", "network": "Hyderabad Metro", "note": "Contributors are requested to not edit the \"network\" and the \"operator\" tags. (2023/11/08)", "operator": "Hyderabad Metro Rail Limited", "public_transport": "station", "railway": "station", "station": "subway", "subway": "yes", "wikidata": "Q58814837"}}, {"type": "node", "id": 7055911919, "lat": 17.4412973, "lon": 78.3771798}, {"type": "node", "id": 7055911920, "lat": 17.4413013, "lon": 78.3772198}, {"type": "node", "id": 7180083268, "lat": 17.4368702, "lon": 78.4234752}, {"type": "node", "id": 7180083269, "lat": 17.4367873, "lon": 78.4236925}, {"type": "node", "id": 7180083270, "lat": 17.4368426, "lon": 78.4237142}, {"type": "node", "id": 7180083271, "lat": 17.4369232, "lon": 78.4235307}, {"type": "node", "id": 7180083272, "lat": 17.4368679, "lon": 78.4235911, "tags": {"bus": "yes", "highway": "bus_stop", "name": "police line bus stop", "public_transport": "platform"}}, {"type": "node", "id": 7243921392, "lat": 17.3952865, "lon": 78.4352397, "tags": {"bus": "yes", "highway": "bus_stop", "name": "medipatnam bus stop", "public_transport": "platform"}}, {"type": "node", "id": 9144573053, "lat": 17.4372637, "lon": 78.4004257, "tags": {"layer": "1", "lit": "yes", "name": "Madhapur", "name:fa": "\u0645\u0627\u062f\u0647\u0627\u067e\u0648\u0631", "name:ml": "\u0d2e\u0d3e\u0d27\u0d3e\u0d2a\u0d42\u0d7c", "name:te": "\u0c2e\u0c3e\u0c27\u0c3e\u0c2a\u0c42\u0c30\u0c4d", "network": "Hyderabad Metro", "note": "Contributors are requested to not edit the \"network\" and the \"operator\" tags. (2023/11/08)", "operator": "Hyderabad Metro Rail Limited", "platforms": "2", "public_transport": "station", "public_transport:version": "2", "railway": "station", "shelter": "yes", "station": "subway", "subway": "yes", "wheelchair": "yes", "wikidata": "Q83637027"}}, {"type": "node", "id": 9660169717, "lat": 17.3854116, "lon": 78.3545048, "tags": {"highway": "bus_stop", "name": "Narsingi Bus Stop"}}, {"type": "node", "id": 10944262027, "lat": 17.4971182, "lon": 78.3764986}, {"type": "node", "id": 10944262028, "lat": 17.4970082, "lon": 78.3758697}, {"type": "node", "id": 10944262029, "lat": 17.4969691, "lon": 78.3756869}, {"type": "node", "id": 10944262030, "lat": 17.4969272, "lon": 78.3755207}, {"type": "node", "id": 10944262031, "lat": 17.4968765, "lon": 78.3753538}, {"type": "node", "id": 10944262032, "lat": 17.4968266, "lon": 78.3751892, "tags": {"railway": "switch"}}, {"type": "node", "id": 10944262033, "lat": 17.4966262, "lon": 78.3745656}, {"type": "node", "id": 10944262034, "lat": 17.4965755, "lon": 78.3744093}, {"type": "node", "id": 10944262035, "lat": 17.4965466, "lon": 78.3742925}, {"type": "node", "id": 10944262036, "lat": 17.4965285, "lon": 78.3741923}, {"type": "node", "id": 10944262037, "lat": 17.4965162, "lon": 78.3740861}, {"type": "node", "id": 10944262038, "lat": 17.4965097, "lon": 78.3739511}, {"type": "node", "id": 10944262039, "lat": 17.4965111, "lon": 78.3736848}, {"type": "node", "id": 10944710597, "lat": 17.4728475, "lon": 78.4254148, "tags": {"railway": "switch"}}, {"type": "node", "id": 10944722023, "lat": 17.4882532, "lon": 78.4094362}, {"type": "node", "id": 10944722024, "lat": 17.4880446, "lon": 78.4095865}, {"type": "node", "id": 10944722026, "lat": 17.4881489, "lon": 78.409512}, {"type": "node", "id": 10944722027, "lat": 17.4862579, "lon": 78.4107592}, {"type": "node", "id": 10944722028, "lat": 17.4859229, "lon": 78.4110038}, {"type": "node", "id": 10944722029, "lat": 17.4856679, "lon": 78.4111975}, {"type": "node", "id": 10944727046, "lat": 17.4985487, "lon": 78.3895213}, {"type": "node", "id": 10944727047, "lat": 17.4984508, "lon": 78.3902708}, {"type": "node", "id": 10944731229, "lat": 17.4971593, "lon": 78.3767275}, {"type": "node", "id": 10944731230, "lat": 17.4971955, "lon": 78.3769028}, {"type": "node", "id": 10944731231, "lat": 17.4972317, "lon": 78.3770416}, {"type": "node", "id": 10944731232, "lat": 17.49727, "lon": 78.3771781}, {"type": "node", "id": 10944731233, "lat": 17.4973395, "lon": 78.3773716}, {"type": "node", "id": 10944731234, "lat": 17.4973865, "lon": 78.3774907}, {"type": "node", "id": 10944731235, "lat": 17.4974364, "lon": 78.377603}, {"type": "node", "id": 10944731236, "lat": 17.4974835, "lon": 78.3777092}, {"type": "node", "id": 10944731241, "lat": 17.4975558, "lon": 78.3778526}, {"type": "node", "id": 10944731242, "lat": 17.4983266, "lon": 78.3794212}, {"type": "node", "id": 10944736560, "lat": 17.4462039, "lon": 78.4389605}, {"type": "node", "id": 10944736561, "lat": 17.4457901, "lon": 78.4391981}, {"type": "node", "id": 10944736562, "lat": 17.445088, "lon": 78.4396117}, {"type": "node", "id": 10944736563, "lat": 17.4448964, "lon": 78.4397326}, {"type": "node", "id": 10944736564, "lat": 17.4446895, "lon": 78.4398754}, {"type": "node", "id": 10944736565, "lat": 17.4444386, "lon": 78.4400567}, {"type": "node", "id": 10944736566, "lat": 17.444321, "lon": 78.4401355}, {"type": "node", "id": 10944736567, "lat": 17.4441819, "lon": 78.4402273}, {"type": "node", "id": 10944736568, "lat": 17.4440248, "lon": 78.4403198}, {"type": "node", "id": 10944736569, "lat": 17.4438727, "lon": 78.440398}, {"type": "node", "id": 10944736570, "lat": 17.4435805, "lon": 78.4405372}, {"type": "node", "id": 10944736571, "lat": 17.4433047, "lon": 78.4406747}, {"type": "node", "id": 10944737031, "lat": 17.4793167, "lon": 78.4184093}, {"type": "node", "id": 10944737032, "lat": 17.4791363, "lon": 78.4186337}, {"type": "node", "id": 10944737033, "lat": 17.4775191, "lon": 78.4208779}, {"type": "node", "id": 10944737034, "lat": 17.4771624, "lon": 78.4214148}, {"type": "node", "id": 10944741285, "lat": 17.4984017, "lon": 78.3906141}, {"type": "node", "id": 10944741286, "lat": 17.4983761, "lon": 78.3907842}, {"type": "node", "id": 10944741287, "lat": 17.4983311, "lon": 78.3909859}, {"type": "node", "id": 10944741288, "lat": 17.4982738, "lon": 78.3911774}, {"type": "node", "id": 10944741289, "lat": 17.4982103, "lon": 78.3913614}, {"type": "node", "id": 10944741290, "lat": 17.4981418, "lon": 78.3915213}, {"type": "node", "id": 10944741291, "lat": 17.4980523, "lon": 78.3917203}, {"type": "node", "id": 10944741292, "lat": 17.4979726, "lon": 78.3918805}, {"type": "node", "id": 10944741293, "lat": 17.4978555, "lon": 78.3920776}, {"type": "node", "id": 10944741294, "lat": 17.4970387, "lon": 78.3932888}, {"type": "node", "id": 10944741295, "lat": 17.4969436, "lon": 78.3934449}, {"type": "node", "id": 10944741296, "lat": 17.4968689, "lon": 78.3935801}, {"type": "node", "id": 10944741297, "lat": 17.4967906, "lon": 78.3937443}, {"type": "node", "id": 10944741298, "lat": 17.4967231, "lon": 78.39391}, {"type": "node", "id": 10944741299, "lat": 17.496612, "lon": 78.3942158}, {"type": "node", "id": 10944741300, "lat": 17.4966609, "lon": 78.3940701}, {"type": "node", "id": 10944741302, "lat": 17.495923, "lon": 78.3968241}, {"type": "node", "id": 10944741303, "lat": 17.4958271, "lon": 78.3971696}, {"type": "node", "id": 10944741304, "lat": 17.4957513, "lon": 78.3974006}, {"type": "node", "id": 10944748663, "lat": 17.4986006, "lon": 78.3799789}, {"type": "node", "id": 10944748664, "lat": 17.4986967, "lon": 78.3801767}, {"type": "node", "id": 10944748665, "lat": 17.4987819, "lon": 78.3803642}, {"type": "node", "id": 10944748666, "lat": 17.4988555, "lon": 78.3805378}, {"type": "node", "id": 10944748667, "lat": 17.4989243, "lon": 78.3807145}, {"type": "node", "id": 10944748668, "lat": 17.4990088, "lon": 78.3809403}, {"type": "node", "id": 10944748669, "lat": 17.4991788, "lon": 78.3814068}, {"type": "node", "id": 10944748670, "lat": 17.4992866, "lon": 78.3817201}, {"type": "node", "id": 10944748671, "lat": 17.499338, "lon": 78.3819052}, {"type": "node", "id": 10944748672, "lat": 17.4993944, "lon": 78.3821798}, {"type": "node", "id": 10944748673, "lat": 17.4994212, "lon": 78.3823983}, {"type": "node", "id": 10944748674, "lat": 17.4994357, "lon": 78.3826039}, {"type": "node", "id": 10944748675, "lat": 17.4994393, "lon": 78.3827822}, {"type": "node", "id": 10944748676, "lat": 17.4994306, "lon": 78.3829802}, {"type": "node", "id": 10944748677, "lat": 17.4994082, "lon": 78.3831994}, {"type": "node", "id": 10944748678, "lat": 17.49927, "lon": 78.3841789}, {"type": "node", "id": 10944748679, "lat": 17.4990457, "lon": 78.3857887}, {"type": "node", "id": 10944748680, "lat": 17.498888, "lon": 78.3869858}, {"type": "node", "id": 10944748681, "lat": 17.4987252, "lon": 78.3882065}, {"type": "node", "id": 10944756880, "lat": 17.4715219, "lon": 78.4263149}, {"type": "node", "id": 10944756881, "lat": 17.4712628, "lon": 78.4264926, "tags": {"railway": "switch"}}, {"type": "node", "id": 10944756882, "lat": 17.469526, "lon": 78.4277031}, {"type": "node", "id": 10944757182, "lat": 17.4693156, "lon": 78.4278489}, {"type": "node", "id": 10944757183, "lat": 17.4691541, "lon": 78.4279503}, {"type": "node", "id": 10944757184, "lat": 17.4690326, "lon": 78.428019}, {"type": "node", "id": 10944757185, "lat": 17.4689047, "lon": 78.4280902}, {"type": "node", "id": 10944757186, "lat": 17.4687201, "lon": 78.4281824}, {"type": "node", "id": 10944757187, "lat": 17.4674708, "lon": 78.4287664}, {"type": "node", "id": 10944757188, "lat": 17.4672902, "lon": 78.4288444}, {"type": "node", "id": 10944757189, "lat": 17.4671215, "lon": 78.4289064}, {"type": "node", "id": 10944757190, "lat": 17.467032, "lon": 78.4289365}, {"type": "node", "id": 10944757191, "lat": 17.4669033, "lon": 78.4289767}, {"type": "node", "id": 10944757192, "lat": 17.4667115, "lon": 78.4290279}, {"type": "node", "id": 10944757193, "lat": 17.4663638, "lon": 78.4291075}, {"type": "node", "id": 10944757194, "lat": 17.466152, "lon": 78.4291561}, {"type": "node", "id": 10944757195, "lat": 17.4660009, "lon": 78.4291971}, {"type": "node", "id": 10944757196, "lat": 17.465841, "lon": 78.429244}, {"type": "node", "id": 10944757197, "lat": 17.465714, "lon": 78.4292876}, {"type": "node", "id": 10944757198, "lat": 17.4656045, "lon": 78.4293287}, {"type": "node", "id": 10944757199, "lat": 17.4654398, "lon": 78.429394}, {"type": "node", "id": 10944757200, "lat": 17.4646229, "lon": 78.4297736}, {"type": "node", "id": 10944757201, "lat": 17.4634479, "lon": 78.4303158}, {"type": "node", "id": 10944757202, "lat": 17.4628892, "lon": 78.4305764}, {"type": "node", "id": 10944757203, "lat": 17.4622809, "lon": 78.4308554}, {"type": "node", "id": 10944757204, "lat": 17.4618413, "lon": 78.4310565}, {"type": "node", "id": 10944759605, "lat": 17.4956567, "lon": 78.397649}, {"type": "node", "id": 10944759606, "lat": 17.4955826, "lon": 78.3978236}, {"type": "node", "id": 10944759607, "lat": 17.4940624, "lon": 78.401141}, {"type": "node", "id": 10944761127, "lat": 17.4935141, "lon": 78.4023455}, {"type": "node", "id": 10944761128, "lat": 17.492705, "lon": 78.4040984}, {"type": "node", "id": 10944761129, "lat": 17.4916573, "lon": 78.4063086}, {"type": "node", "id": 10944761130, "lat": 17.4915818, "lon": 78.4064654}, {"type": "node", "id": 10944761131, "lat": 17.4915175, "lon": 78.4065827}, {"type": "node", "id": 10944761132, "lat": 17.491449, "lon": 78.4066992}, {"type": "node", "id": 10944761133, "lat": 17.4913565, "lon": 78.40684}, {"type": "node", "id": 10944761134, "lat": 17.4912766, "lon": 78.4069447}, {"type": "node", "id": 10944761135, "lat": 17.4911949, "lon": 78.4070396}, {"type": "node", "id": 10944761136, "lat": 17.4910938, "lon": 78.4071438}, {"type": "node", "id": 10944761137, "lat": 17.4909892, "lon": 78.4072381}, {"type": "node", "id": 10944761138, "lat": 17.4894522, "lon": 78.4084773}, {"type": "node", "id": 10944761139, "lat": 17.4884513, "lon": 78.4092833}, {"type": "node", "id": 10944766864, "lat": 17.4846181, "lon": 78.4119616}, {"type": "node", "id": 10944766865, "lat": 17.4841924, "lon": 78.4122838}, {"type": "node", "id": 10944766866, "lat": 17.4840921, "lon": 78.4123688}, {"type": "node", "id": 10944766867, "lat": 17.4840061, "lon": 78.4124445}, {"type": "node", "id": 10944766868, "lat": 17.4839447, "lon": 78.412501}, {"type": "node", "id": 10944766869, "lat": 17.4838149, "lon": 78.412632}, {"type": "node", "id": 10944766870, "lat": 17.4837218, "lon": 78.4127316}, {"type": "node", "id": 10944766871, "lat": 17.4835939, "lon": 78.4128792}, {"type": "node", "id": 10944766872, "lat": 17.4833673, "lon": 78.4131781}, {"type": "node", "id": 10944766873, "lat": 17.4832248, "lon": 78.4133956}, {"type": "node", "id": 10944766874, "lat": 17.4824387, "lon": 78.414725}, {"type": "node", "id": 10944766875, "lat": 17.4819403, "lon": 78.4155643}, {"type": "node", "id": 10944766876, "lat": 17.481838, "lon": 78.4157282}, {"type": "node", "id": 10944766877, "lat": 17.4817369, "lon": 78.4158786}, {"type": "node", "id": 10944766878, "lat": 17.4816311, "lon": 78.4160216}, {"type": "node", "id": 10944766879, "lat": 17.4815124, "lon": 78.4161639}, {"type": "node", "id": 10944766880, "lat": 17.4813642, "lon": 78.4163241}, {"type": "node", "id": 10944766881, "lat": 17.4806166, "lon": 78.4170285}, {"type": "node", "id": 10944766882, "lat": 17.4804361, "lon": 78.4172007}, {"type": "node", "id": 10944766883, "lat": 17.4802692, "lon": 78.4173708}, {"type": "node", "id": 10944766884, "lat": 17.4798914, "lon": 78.4177659}, {"type": "node", "id": 10944766885, "lat": 17.4795522, "lon": 78.4181328}, {"type": "node", "id": 10944774625, "lat": 17.4764441, "lon": 78.422519}, {"type": "node", "id": 10944774626, "lat": 17.4762837, "lon": 78.4227711}, {"type": "node", "id": 10944774627, "lat": 17.4761483, "lon": 78.4229563}, {"type": "node", "id": 10944774628, "lat": 17.476067, "lon": 78.4230644}, {"type": "node", "id": 10944774629, "lat": 17.4759145, "lon": 78.4232328}, {"type": "node", "id": 10944774631, "lat": 17.4758226, "lon": 78.4233283}, {"type": "node", "id": 10944774632, "lat": 17.4757251, "lon": 78.4234172}, {"type": "node", "id": 10944774633, "lat": 17.475642, "lon": 78.4234892}, {"type": "node", "id": 10944774634, "lat": 17.4755469, "lon": 78.423563}, {"type": "node", "id": 10944774635, "lat": 17.4753463, "lon": 78.4237071}, {"type": "node", "id": 10944774636, "lat": 17.472596, "lon": 78.4255866}, {"type": "node", "id": 10944778707, "lat": 17.4479418, "lon": 78.4380668}, {"type": "node", "id": 10944778708, "lat": 17.4485478, "lon": 78.4377207}, {"type": "node", "id": 10944778709, "lat": 17.4487246, "lon": 78.4376227}, {"type": "node", "id": 10944778710, "lat": 17.448938, "lon": 78.4375083}, {"type": "node", "id": 10944778711, "lat": 17.4491145, "lon": 78.4374205}, {"type": "node", "id": 10944778712, "lat": 17.4503302, "lon": 78.4368701}, {"type": "node", "id": 10944778713, "lat": 17.4520182, "lon": 78.4360051}, {"type": "node", "id": 10944778714, "lat": 17.4524238, "lon": 78.4357894}, {"type": "node", "id": 10944778715, "lat": 17.4527074, "lon": 78.4356392}, {"type": "node", "id": 10944778716, "lat": 17.4538446, "lon": 78.4350365}, {"type": "node", "id": 10944778717, "lat": 17.4550612, "lon": 78.4344783}, {"type": "node", "id": 10944778718, "lat": 17.4560936, "lon": 78.434023}, {"type": "node", "id": 10944778719, "lat": 17.4564135, "lon": 78.4338837}, {"type": "node", "id": 10944778720, "lat": 17.4566369, "lon": 78.4337858}, {"type": "node", "id": 10944781604, "lat": 17.4701652, "lon": 78.4272391}, {"type": "node", "id": 10944786094, "lat": 17.4520011, "lon": 78.4359673}, {"type": "node", "id": 10944786095, "lat": 17.4510498, "lon": 78.436436}, {"type": "node", "id": 10944786096, "lat": 17.4506145, "lon": 78.4366623}, {"type": "node", "id": 10944786097, "lat": 17.4506353, "lon": 78.4367011}, {"type": "node", "id": 10944786098, "lat": 17.4503144, "lon": 78.4368312}, {"type": "node", "id": 10944786099, "lat": 17.450116, "lon": 78.4369367}, {"type": "node", "id": 10944786100, "lat": 17.4499142, "lon": 78.437035}, {"type": "node", "id": 10944786101, "lat": 17.4497345, "lon": 78.437115}, {"type": "node", "id": 10944786102, "lat": 17.4491007, "lon": 78.4373812}, {"type": "node", "id": 10944786104, "lat": 17.4489474, "lon": 78.437458}, {"type": "node", "id": 10944786305, "lat": 17.4615288, "lon": 78.4311964}, {"type": "node", "id": 10944786306, "lat": 17.4603346, "lon": 78.4317495}, {"type": "node", "id": 10944786307, "lat": 17.4600852, "lon": 78.4318861}, {"type": "node", "id": 10944786308, "lat": 17.4598659, "lon": 78.4320096}, {"type": "node", "id": 10944786309, "lat": 17.4596573, "lon": 78.4321212}, {"type": "node", "id": 10944786310, "lat": 17.4592656, "lon": 78.4323884}, {"type": "node", "id": 10944786311, "lat": 17.4590552, "lon": 78.432543}, {"type": "node", "id": 10944786312, "lat": 17.4588937, "lon": 78.4326569}, {"type": "node", "id": 10944786313, "lat": 17.4587141, "lon": 78.4327715}, {"type": "node", "id": 10944786314, "lat": 17.4585378, "lon": 78.4328751}, {"type": "node", "id": 10944786315, "lat": 17.4584089, "lon": 78.4329462}, {"type": "node", "id": 10944786316, "lat": 17.4582129, "lon": 78.4330436}, {"type": "node", "id": 10944786317, "lat": 17.457824, "lon": 78.4332213}, {"type": "node", "id": 10944786318, "lat": 17.4566232, "lon": 78.4337487}, {"type": "node", "id": 10944786319, "lat": 17.4560812, "lon": 78.4339862}, {"type": "node", "id": 10944786320, "lat": 17.4555467, "lon": 78.4342175}, {"type": "node", "id": 10944786321, "lat": 17.4550516, "lon": 78.4344357}, {"type": "node", "id": 10944786322, "lat": 17.4542637, "lon": 78.4347882}, {"type": "node", "id": 10944786323, "lat": 17.4540676, "lon": 78.4348801}, {"type": "node", "id": 10944786324, "lat": 17.4538336, "lon": 78.434995}, {"type": "node", "id": 10944786325, "lat": 17.453248, "lon": 78.4353096}, {"type": "node", "id": 10944786326, "lat": 17.452698, "lon": 78.4355982}, {"type": "node", "id": 10944786327, "lat": 17.4524143, "lon": 78.4357493}, {"type": "node", "id": 10944786328, "lat": 17.452178, "lon": 78.4358767}, {"type": "node", "id": 10944787405, "lat": 17.4487068, "lon": 78.4375841}, {"type": "node", "id": 10944787406, "lat": 17.4485307, "lon": 78.4376842}, {"type": "node", "id": 10944787407, "lat": 17.4482452, "lon": 78.4378538}, {"type": "node", "id": 10944787408, "lat": 17.4482636, "lon": 78.43789}, {"type": "node", "id": 10944787409, "lat": 17.4479139, "lon": 78.4380326}, {"type": "node", "id": 10944787410, "lat": 17.4467702, "lon": 78.4386518}, {"type": "node", "id": 11037699533, "lat": 17.443028, "lon": 78.3771486, "tags": {"railway": "switch"}}, {"type": "node", "id": 11037699534, "lat": 17.4436436, "lon": 78.3771784, "tags": {"railway": "switch"}}, {"type": "node", "id": 11037699535, "lat": 17.4440966, "lon": 78.3771302, "tags": {"railway": "switch"}}, {"type": "node", "id": 11037699536, "lat": 17.4442742, "lon": 78.377128}, {"type": "node", "id": 11037699537, "lat": 17.4445166, "lon": 78.3771416}, {"type": "node", "id": 11037699538, "lat": 17.4446603, "lon": 78.3771606}, {"type": "node", "id": 11037699539, "lat": 17.4452991, "lon": 78.3772675}, {"type": "node", "id": 11037699540, "lat": 17.4459334, "lon": 78.3773571}, {"type": "node", "id": 11037699541, "lat": 17.4460831, "lon": 78.3773864}, {"type": "node", "id": 11037699542, "lat": 17.4462843, "lon": 78.3774518}, {"type": "node", "id": 11037699543, "lat": 17.4464049, "lon": 78.377507}, {"type": "node", "id": 11037699544, "lat": 17.4473448, "lon": 78.3780679}, {"type": "node", "id": 11037699545, "lat": 17.4476123, "lon": 78.3782416}, {"type": "node", "id": 11037699546, "lat": 17.4477168, "lon": 78.3783219}, {"type": "node", "id": 11037699547, "lat": 17.4482394, "lon": 78.3787709}, {"type": "node", "id": 11037699548, "lat": 17.448343, "lon": 78.3788474}, {"type": "node", "id": 11037699549, "lat": 17.4485452, "lon": 78.3789695}, {"type": "node", "id": 11037699550, "lat": 17.4486629, "lon": 78.3790288}, {"type": "node", "id": 11037699551, "lat": 17.4489432, "lon": 78.3791371}, {"type": "node", "id": 11037699552, "lat": 17.4493399, "lon": 78.3792294, "tags": {"railway": "switch"}}, {"type": "node", "id": 11037699553, "lat": 17.4497877, "lon": 78.37937, "tags": {"railway": "switch"}}, {"type": "node", "id": 11037699631, "lat": 17.4487952, "lon": 78.3790842}, {"type": "node", "id": 11037703488, "lat": 17.450661, "lon": 78.3819054}, {"type": "node", "id": 11037703489, "lat": 17.4507403, "lon": 78.3818378}, {"type": "node", "id": 11037703490, "lat": 17.4508716, "lon": 78.3816968}, {"type": "node", "id": 11037703491, "lat": 17.4509303, "lon": 78.3816177}, {"type": "node", "id": 11037703492, "lat": 17.4509842, "lon": 78.3815261}, {"type": "node", "id": 11037703493, "lat": 17.4510766, "lon": 78.3813234}, {"type": "node", "id": 11037703494, "lat": 17.4511016, "lon": 78.3812438}, {"type": "node", "id": 11037703495, "lat": 17.4511377, "lon": 78.3809529}, {"type": "node", "id": 11037703496, "lat": 17.451131, "lon": 78.3808444}, {"type": "node", "id": 11037703497, "lat": 17.4511081, "lon": 78.3806724}, {"type": "node", "id": 11037703498, "lat": 17.4510847, "lon": 78.3805913}, {"type": "node", "id": 11037703499, "lat": 17.451054, "lon": 78.3804926}, {"type": "node", "id": 11037703500, "lat": 17.4510028, "lon": 78.3803862}, {"type": "node", "id": 11037703501, "lat": 17.4509304, "lon": 78.3802639}, {"type": "node", "id": 11037703502, "lat": 17.4507744, "lon": 78.3800216}, {"type": "node", "id": 11037703503, "lat": 17.4507079, "lon": 78.3799246}, {"type": "node", "id": 11037703504, "lat": 17.4506507, "lon": 78.3798422}, {"type": "node", "id": 11037723909, "lat": 17.4501935, "lon": 78.3794398}, {"type": "node", "id": 11037723910, "lat": 17.4502669, "lon": 78.3794746}, {"type": "node", "id": 11037723911, "lat": 17.4504144, "lon": 78.3795607}, {"type": "node", "id": 11037723912, "lat": 17.4504831, "lon": 78.3796112}, {"type": "node", "id": 11037723916, "lat": 17.450614, "lon": 78.3797386}, {"type": "node", "id": 11037723917, "lat": 17.4506808, "lon": 78.3798206}, {"type": "node", "id": 11037723918, "lat": 17.4509663, "lon": 78.3802499}, {"type": "node", "id": 11037723919, "lat": 17.4510306, "lon": 78.3803683}, {"type": "node", "id": 11037723920, "lat": 17.4510837, "lon": 78.3804747}, {"type": "node", "id": 11037723921, "lat": 17.4511195, "lon": 78.3805836}, {"type": "node", "id": 11037723922, "lat": 17.4511457, "lon": 78.3806928}, {"type": "node", "id": 11037723923, "lat": 17.4511736, "lon": 78.3809154}, {"type": "node", "id": 11037723924, "lat": 17.4511672, "lon": 78.3810882}, {"type": "node", "id": 11037723925, "lat": 17.4511478, "lon": 78.3812036}, {"type": "node", "id": 11037723926, "lat": 17.4511177, "lon": 78.3813136}, {"type": "node", "id": 11037723927, "lat": 17.4510809, "lon": 78.3814138}, {"type": "node", "id": 11037723928, "lat": 17.4509878, "lon": 78.3816023}, {"type": "node", "id": 11037723929, "lat": 17.4509251, "lon": 78.3816926}, {"type": "node", "id": 11037723930, "lat": 17.450761, "lon": 78.3818744}, {"type": "node", "id": 11037723931, "lat": 17.450571, "lon": 78.3820173}, {"type": "node", "id": 11037723932, "lat": 17.4504058, "lon": 78.3821235}, {"type": "node", "id": 11037733557, "lat": 17.4489906, "lon": 78.3791889}, {"type": "node", "id": 11037733559, "lat": 17.4486819, "lon": 78.3790791}, {"type": "node", "id": 11037733560, "lat": 17.448567, "lon": 78.3790257}, {"type": "node", "id": 11037733561, "lat": 17.4483769, "lon": 78.3789141}, {"type": "node", "id": 11037733562, "lat": 17.4482893, "lon": 78.3788569}, {"type": "node", "id": 11037733563, "lat": 17.4482115, "lon": 78.3788008}, {"type": "node", "id": 11037733564, "lat": 17.4481199, "lon": 78.3787235}, {"type": "node", "id": 11037733565, "lat": 17.4476837, "lon": 78.3783418}, {"type": "node", "id": 11037733566, "lat": 17.4474965, "lon": 78.3782045}, {"type": "node", "id": 11037733567, "lat": 17.4474135, "lon": 78.3781523}, {"type": "node", "id": 11037733568, "lat": 17.4463933, "lon": 78.3775474}, {"type": "node", "id": 11037733569, "lat": 17.446297, "lon": 78.3775017}, {"type": "node", "id": 11037733570, "lat": 17.4460903, "lon": 78.377433}, {"type": "node", "id": 11037733571, "lat": 17.4453282, "lon": 78.3773139}, {"type": "node", "id": 11037733572, "lat": 17.4457513, "lon": 78.3773745}, {"type": "node", "id": 11037733573, "lat": 17.4446083, "lon": 78.3771918}, {"type": "node", "id": 11037733574, "lat": 17.4443615, "lon": 78.3771673}, {"type": "node", "id": 11037733575, "lat": 17.4442258, "lon": 78.3771677}, {"type": "node", "id": 11037736005, "lat": 17.4505904, "lon": 78.3797699}, {"type": "node", "id": 11037736006, "lat": 17.4504988, "lon": 78.3796773}, {"type": "node", "id": 11037736007, "lat": 17.4504294, "lon": 78.3796215}, {"type": "node", "id": 11037736008, "lat": 17.4502674, "lon": 78.3795127}, {"type": "node", "id": 11037736009, "lat": 17.4501565, "lon": 78.3794648}, {"type": "node", "id": 11037736010, "lat": 17.4500528, "lon": 78.3794301}, {"type": "node", "id": 11037754155, "lat": 17.4497269, "lon": 78.3825962}, {"type": "node", "id": 11037754156, "lat": 17.4496984, "lon": 78.3825683}, {"type": "node", "id": 11082659161, "lat": 17.4400524, "lon": 78.3952874}, {"type": "node", "id": 11598852391, "lat": 17.4197999, "lon": 78.3481785}, {"type": "node", "id": 11598852392, "lat": 17.4197609, "lon": 78.3481682}, {"type": "node", "id": 11598852393, "lat": 17.4197413, "lon": 78.348245}, {"type": "node", "id": 11598852394, "lat": 17.4197853, "lon": 78.3482553}, {"type": "node", "id": 11737669093, "lat": 17.498637, "lon": 78.3888634, "tags": {"addr:city": "Hyderabad", "addr:city:ar": "\u062d\u064a\u062f\u0631 \u0622\u0628\u0627\u062f", "addr:city:ur": "\u062d\u06cc\u062f\u0631\u0622\u0628\u0627\u062f", "name": "JNTU College", "name:ml": "\u0d1c\u0d46 \u0d0e\u0d7b \u0d1f\u0d3f \u0d2f\u0d41 \u0d15\u0d4b\u0d33\u0d47\u0d1c\u0d4d", "name:te": "\u0c1c\u0c46.\u0c0e\u0c28\u0c4d.\u0c1f\u0c3f.\u0c2f\u0c42 \u0c15\u0c3e\u0c32\u0c47\u0c1c\u0c3f", "network": "Hyderabad Metro", "note": "Contributors are requested to not edit the \"network\" and the \"operator\" tags. (2023/11/08)", "operator": "Hyderabad Metro Rail Limited", "public_transport": "stop_position", "railway": "stop", "subway": "yes"}}, {"type": "node", "id": 11737669095, "lat": 17.4937841, "lon": 78.4017525, "tags": {"addr:city": "Hyderabad", "addr:city:ar": "\u062d\u064a\u062f\u0631 \u0622\u0628\u0627\u062f", "addr:city:ur": "\u062d\u06cc\u062f\u0631\u0622\u0628\u0627\u062f", "name": "KPHB Colony", "name:ml": "\u0d15\u0d46 \u0d2a\u0d3f \u0d0e\u0d1a\u0d4d\u0d1a\u0d4d \u0d2c\u0d3f \u0d15\u0d4b\u0d33\u0d28\u0d3f", "name:te": "\u0c15\u0c46.\u0c2a\u0c3f.\u0c39\u0c46\u0c1a\u0c4d.\u0c2c\u0c3f \u0c15\u0c3e\u0c32\u0c28\u0c40", "network": "Hyderabad Metro", "note": "Contributors are requested to not edit the \"network\" and the \"operator\" tags. (2023/11/08)", "operator": "Hyderabad Metro Rail Limited", "public_transport": "stop_position", "public_transport:version": "2", "railway": "stop", "subway": "yes"}}, {"type": "node", "id": 11738179205, "lat": 17.485523, "lon": 78.411303, "tags": {"addr:city": "Hyderabad", "addr:city:ar": "\u062d\u064a\u062f\u0631 \u0622\u0628\u0627\u062f", "addr:city:ur": "\u062d\u06cc\u062f\u0631\u0622\u0628\u0627\u062f", "name": "Kukatpally", "name:ml": "\u0d15\u0d41\u0d15\u0d4d\u0d15\u0d1f\u0d4d\u0d1f\u0d4d\u0d2a\u0d33\u0d4d\u0d33\u0d3f", "name:te": "\u0c15\u0c42\u0c15\u0c4d\u0c15\u0c1f\u0c4d\u200c\u0c2a\u0c32\u0c4d\u0c32\u0c3f", "network": "Hyderabad Metro", "note": "Contributors are requested to not edit the \"network\" and the \"operator\" tags. (2023/11/08)", "operator": "Hyderabad Metro Rail Limited", "public_transport": "stop_position", "railway": "stop", "subway": "yes"}}, {"type": "node", "id": 11738179206, "lat": 17.4770298, "lon": 78.4216187, "tags": {"addr:city": "Hyderabad", "addr:city:ar": "\u062d\u064a\u062f\u0631 \u0622\u0628\u0627\u062f", "addr:city:ur": "\u062d\u06cc\u062f\u0631\u0622\u0628\u0627\u062f", "name": "Balanagar", "name:ml": "\u0d2c\u0d3e\u0d32\u0d3e\u0d28\u0d17\u0d7c", "name:te": "\u0c2c\u0c3e\u0c32\u0c3e\u0c28\u0c17\u0c30\u0c4d", "network": "Hyderabad Metro", "note": "Contributors are requested to not edit the \"network\" and the \"operator\" tags. (2023/11/08)", "operator": "Hyderabad Metro Rail Limited", "public_transport": "stop_position", "public_transport:version": "2", "railway": "stop", "subway": "yes"}}, {"type": "node", "id": 11738179207, "lat": 17.4723848, "lon": 78.4257298, "tags": {"addr:city": "Hyderabad", "addr:city:ar": "\u062d\u064a\u062f\u0631 \u0622\u0628\u0627\u062f", "addr:city:ur": "\u062d\u06cc\u062f\u0631\u0622\u0628\u0627\u062f", "name": "Moosapet", "name:ml": "\u0d2e\u0d42\u0d38\u0d3e\u0d2a\u0d4d\u0d2a\u0d47\u0d1f\u0d4d\u0d1f\u0d4d", "name:te": "\u0c2e\u0c42\u0c38\u0c3e\u0c2a\u0c47\u0c1f\u0c4d", "network": "Hyderabad Metro", "note": "Contributors are requested to not edit the \"network\" and the \"operator\" tags. (2023/11/08)", "operator": "Hyderabad Metro Rail Limited", "public_transport": "stop_position", "public_transport:version": "2", "railway": "stop", "subway": "yes"}}, {"type": "node", "id": 11738179208, "lat": 17.4644365, "lon": 78.4298596, "tags": {"addr:city": "Hyderabad", "addr:city:ar": "\u062d\u064a\u062f\u0631 \u0622\u0628\u0627\u062f", "addr:city:ur": "\u062d\u06cc\u062f\u0631\u0622\u0628\u0627\u062f", "name": "Bharat Nagar", "name:ml": "\u0d2d\u0d30\u0d24\u0d4d \u0d28\u0d17\u0d7c", "name:te": "\u0c2d\u0c30\u0c24\u0c4d \u0c28\u0c17\u0c30\u0c4d", "network": "Hyderabad Metro", "note": "Contributors are requested to not edit the \"network\" and the \"operator\" tags. (2023/11/08)", "operator": "Hyderabad Metro Rail Limited", "public_transport": "stop_position", "public_transport:version": "2", "railway": "stop", "subway": "yes", "wikidata": "Q4901137"}}, {"type": "node", "id": 11738179209, "lat": 17.4577203, "lon": 78.4332668, "tags": {"addr:city": "Hyderabad", "addr:city:ar": "\u062d\u064a\u062f\u0631 \u0622\u0628\u0627\u062f", "addr:city:ur": "\u062d\u06cc\u062f\u0631\u0622\u0628\u0627\u062f", "name": "Erragadda", "name:ml": "\u0d0e\u0d31\u0d17\u0d22", "name:te": "\u0c0e\u0c30\u0c4d\u0c30\u0c17\u0c21\u0c4d\u0c21", "network": "Hyderabad Metro", "note": "Contributors are requested to not edit the \"network\" and the \"operator\" tags. (2023/11/08)", "operator": "Hyderabad Metro Rail Limited", "public_transport": "stop_position", "public_transport:version": "2", "railway": "stop", "subway": "yes"}}, {"type": "node", "id": 11738179216, "lat": 17.4477279, "lon": 78.4381333, "tags": {"addr:city": "Hyderabad", "addr:city:ar": "\u062d\u064a\u062f\u0631 \u0622\u0628\u0627\u062f", "addr:city:ur": "\u062d\u06cc\u062f\u0631\u0622\u0628\u0627\u062f", "name": "ESI Hospital", "name:ml": "\u0d07.\u0d0e\u0d38\u0d4d.\u0d10 \u0d06\u0d36\u0d41\u0d2a\u0d24\u0d4d\u0d30\u0d3f", "name:te": "\u0c08.\u0c0e\u0c38\u0c4d.\u0c10 \u0c06\u0c38\u0c4d\u0c2a\u0c24\u0c4d\u0c30\u0c3f", "network": "Hyderabad Metro", "note": "Contributors are requested to not edit the \"network\" and the \"operator\" tags. (2023/11/08)", "operator": "Hyderabad Metro Rail Limited", "public_transport": "stop_position", "public_transport:version": "2", "railway": "stop", "subway": "yes"}}, {"type": "node", "id": 11770988840, "lat": 17.4343964, "lon": 78.3688876, "tags": {"bus": "yes", "highway": "bus_stop", "public_transport": "platform"}}, {"type": "node", "id": 11770988842, "lat": 17.4308354, "lon": 78.3724103, "tags": {"bus": "yes", "highway": "bus_stop", "public_transport": "platform"}}, {"type": "node", "id": 11770988859, "lat": 17.442626, "lon": 78.3774021, "tags": {"bus": "yes", "highway": "bus_stop", "public_transport": "platform"}}, {"type": "node", "id": 11770993387, "lat": 17.4263581, "lon": 78.4166031, "tags": {"bus": "yes", "highway": "bus_stop", "name": "Jubilee Hills - Checkpost", "public_transport": "platform"}}, {"type": "node", "id": 11771783688, "lat": 17.4222531, "lon": 78.3832381, "tags": {"bus": "yes", "highway": "bus_stop", "public_transport": "platform"}}, {"type": "node", "id": 11771783711, "lat": 17.4121581, "lon": 78.4321338, "tags": {"bus": "yes", "highway": "bus_stop", "public_transport": "platform"}}, {"type": "node", "id": 13272710064, "lat": 17.4209535, "lon": 78.4113173, "tags": {"highway": "bus_stop"}}, {"type": "node", "id": 13272714577, "lat": 17.4185971, "lon": 78.4130492, "tags": {"highway": "bus_stop"}}, {"type": "node", "id": 13308030563, "lat": 17.4461896, "lon": 78.3775642, "tags": {"highway": "bus_stop", "name": "Opp. Cyber Gateway Bus Stop"}}, {"type": "node", "id": 13308034675, "lat": 17.4474811, "lon": 78.3842208, "tags": {"highway": "bus_stop"}}, {"type": "node", "id": 13308059287, "lat": 17.4411436, "lon": 78.3903966, "tags": {"highway": "bus_stop"}}, {"type": "node", "id": 13308064098, "lat": 17.441156, "lon": 78.3893805, "tags": {"highway": "bus_stop"}}, {"type": "node", "id": 13308091901, "lat": 17.4520621, "lon": 78.3814529, "tags": {"highway": "bus_stop", "name": "Hitech City 'X' Roads"}}, {"type": "node", "id": 13368585997, "lat": 17.375228, "lon": 78.3959336, "tags": {"bus": "yes", "highway": "bus_stop", "name": "Ramdev Guda", "public_transport": "platform"}}, {"type": "node", "id": 13368619690, "lat": 17.3752166, "lon": 78.3969025, "tags": {"bus": "yes", "highway": "bus_stop", "name": "Ramdev Guda", "public_transport": "platform"}}, {"type": "node", "id": 13399710689, "lat": 17.4221695, "lon": 78.3811563, "tags": {"bench": "yes", "bus": "yes", "highway": "bus_stop", "name": "Khajaguda X Road", "public_transport": "platform", "shelter": "yes"}}, {"type": "node", "id": 13437031504, "lat": 17.368353, "lon": 78.4009289}, {"type": "node", "id": 13437031505, "lat": 17.3683733, "lon": 78.4009262}, {"type": "node", "id": 13437031506, "lat": 17.3683779, "lon": 78.401008}, {"type": "node", "id": 13437031507, "lat": 17.3683558, "lon": 78.4010104}, {"type": "way", "id": 233901290, "nodes": [2422172978, 6777063562, 6777063561, 6777063560, 6777063559, 6777063558, 6777063557, 6777063556, 6777063555, 6777063554, 6777063553, 6777063552, 6777063551, 6777063550, 6777063549, 6777063548, 6777063547, 6777063546, 6777063545, 6777063544, 6777063543, 6777063542, 6777063541, 6777063540, 6777063539, 6777063538, 6777063537, 6777063536, 6777063535, 6777063534, 6777063533, 6777063532, 6777063531, 6777063530, 6777063529, 2422173008], "tags": {"bridge": "yes", "check_date": "2016-08-02", "electrified": "rail", "layer": "2", "name": "Hyderabad Metro Line 3 (blue)", "network": "Hyderabad Metro", "note": "Contributors are requested to not edit the \"network\" and the \"operator\" tags. (2023/11/08)", "opening_date": "2017-08-15", "operator": "Hyderabad Metro Rail Limited", "railway": "subway", "subway": "yes"}}, {"type": "way", "id": 310911036, "nodes": [2425474186, 10944778707, 10944787408, 10944778708, 10944778709, 10944778710, 10944778711, 2822568661, 2422989235, 2822568678, 10944778712, 10944786097, 2822568833, 10944778713, 3164158709, 10944778714, 10944778715, 2422988944, 10944778716, 2822568899, 2422989250, 10944778717, 2822568913, 10944778718, 10944778719, 10944778720, 2422989021], "tags": {"bridge": "viaduct", "check_date": "2017-11-28", "electrified": "rail", "layer": "1", "name": "Hyderabad Metro Line 1 (red)", "network": "Hyderabad Metro", "note": "Contributors are requested to not edit the \"network\" and the \"operator\" tags. (2023/11/08)", "opening_date": "2017-11-28", "operator": "Hyderabad Metro Rail Limited", "railway": "subway", "subway": "yes"}}, {"type": "way", "id": 611277269, "nodes": [5787787851, 5787787852, 6777140666, 6777140636, 6777140635, 6777140634, 6777140633, 6777140632, 6777140631, 6777140630, 6777140629, 6777140628, 6777140627, 6777140626, 6777140625, 6777140624, 6777140623, 6453519084, 6777140622, 6777140621, 6777140620, 6777140619, 6777140618, 6777140617, 6777140616, 6777140615, 6777140614, 6777140613, 6777140612, 6777140611, 6777140610, 6777140609, 6777140608, 5787787870, 6777060870, 6777060871, 6777060872, 6777060873, 6777060874, 6777060875, 6777060876, 6777060877, 6777060878, 6777060879, 6777060880, 6777060881, 6777060882, 6777060883, 6777060884, 6777074285, 6777074286, 6777074287, 6777074288, 6777074289, 6777074290, 6777074291, 6777074292, 6777074293, 6777074294, 6777074295, 6777074296, 6777074297, 6777074298, 6777074299, 6777074300, 6777074301, 6777074302, 6777074303, 6777074304, 6777074305, 5787787896, 6777074306, 6777074307, 6777074308, 6777074309, 6777074310, 6777074311, 6777074312, 6777074313, 6777074314, 6777074315, 6777074316, 6777074317, 6777074318, 6777074319, 6777074320, 6777074321, 6777074322, 6777074323, 6777074324, 6777074325, 6777074326, 6777074327, 6777074328, 6777074329, 6777074330, 6777074331, 6777074332, 6777074333, 6777074334, 6777074335, 6777074336, 6777074337, 6777074338, 6777074339, 7052069773, 6777060869, 6777165093, 6777165092, 6777165091, 6777165090, 6777165089, 6777165088, 6777165087, 6777165086, 6777165085, 6777154684, 6777154683, 6777154682, 6777154681, 6777154680, 6777154679, 6777154678, 6777154677, 6777154676, 6777165094, 5787787921, 6777782857, 6777165114, 6777154662, 6777154661, 6777154660, 6777154659, 6777154658, 6777154657, 6777154656, 6777154655, 6777154654, 6777154653, 6777154652, 6777154651, 6777154650, 5787787929, 5787787930, 5787787931, 5787787932, 5787787933, 5787787934, 5787787935, 5787787936, 5787787937, 5787787938, 5787787939, 5787787940, 5787787941, 5787787942, 5787787943, 5787787944, 5787787945, 7052069771, 6779401879, 5787787948, 6779401878, 6779401877, 6779401876, 6779401875, 6779401874, 6779401873, 6779401872, 6779401871, 6779401870, 6779401869, 3602302032, 6779401868, 6779401867, 6779401866, 6779401865, 6779401864, 6779401863, 6779401862, 6779401861, 6779401860, 6779401859, 6779401858, 6779401857, 6779401856, 6779401855, 6779401854, 6779401853, 6779401852, 6779401851, 6779401850, 6779401849, 6779401848, 6779401847, 6779401846, 6779401845, 6779401844, 6779401843, 6779401842, 6779401841, 6779401840, 6779401839, 7052069769, 6779401838, 6779401837, 6779401836, 6779401835, 310213788, 6779401834, 6779401833, 6779401832, 6779401831, 5787787977, 5787787978, 6777017020, 6777017021, 6777017022, 6777017023, 6777038049, 6777017024, 5787787982, 6777017025, 6777017026, 6777017027, 6777017028, 6777017029, 6777017030, 6777017031, 5787787986], "tags": {"bridge": "yes", "check_date": "2016-08-02", "electrified": "rail", "layer": "2", "name": "Hyderabad Metro Line 3 (blue)", "network": "Hyderabad Metro", "note": "Contributors are requested to not edit the \"network\" and the \"operator\" tags. (2023/11/08)", "opening_date": "2019-03-20", "operator": "Hyderabad Metro Rail Limited", "railway": "subway", "subway": "yes"}}, {"type": "way", "id": 635428041, "nodes": [5994099506, 5994099505, 5994099504, 5994099503, 5994099506], "tags": {"layer": "1", "name": "HITEC City", "network": "Hyderabad Metro", "network:wikidata": "Q646209", "public_transport": "station", "railway": "station", "source": "survey", "station": "subway", "subway": "yes"}}, {"type": "way", "id": 678467538, "nodes": [5787787987, 11037699533, 11037699535, 11037699536, 6445284999, 11037699537, 11037699538, 6445284998, 11037699539, 6445284997, 11037699540, 11037699541, 6445284996, 11037699542, 11037699543, 6445284994, 11037699544, 6445284995, 11037699545, 11037699546, 6445284993, 11037699547, 11037699548, 6445284992, 11037699549, 11037699550, 11037699631, 11037699551, 5787787842, 11037699552, 6445284991, 5787787843, 11037723909, 11037723910, 6445284988, 11037723911, 11037723912, 6445284990, 11037723916, 11037723917, 5787787844, 11037723918, 11037723919, 11037723920, 11037723921, 11037723922, 6445284989, 11037723923, 6445284987, 11037723924, 11037723925, 11037723926, 11037723927, 5787787845, 11037723928, 11037723929, 5787787847], "tags": {"bridge": "yes", "check_date": "2019-05-03", "electrified": "rail", "layer": "2", "name": "Hyderabad Metro Line 3 (blue)", "network": "Hyderabad Metro", "note": "Contributors are requested to not edit the \"network\" and the \"operator\" tags. (2023/11/08)", "opening_date": "2019-11-29", "operator": "Hyderabad Metro Rail Limited", "railway": "subway", "subway": "yes"}}, {"type": "way", "id": 678467540, "nodes": [5787788705, 11037703490, 11037703491, 11037703492, 2676394796, 11037703493, 11037703494, 6445284985, 6445284986, 11037703495, 11037703496, 6445283684, 11037703497, 11037703498, 11037703499, 11037703500, 11037703501, 11037703502, 11037703503, 11037703504, 11037736005, 6445283683, 11037736006, 11037736007, 4331884710, 11037736008, 11037736009, 11037736010, 6445283682, 11037699553, 6445283680, 11037733557, 6445283681, 11037733559, 11037733560, 4331884715, 11037733561, 11037733562, 11037733563, 11037733564, 11037733565, 6445283679, 11037733566, 11037733567, 6445283676, 6445283677, 11037733568, 11037733569, 6445283678, 11037733570, 5774457980, 11037733572, 11037733571, 6445283673, 6445283675, 11037733573, 6445283674, 11037733574, 11037733575, 11037699534, 6445285000, 2422173105], "tags": {"bridge": "yes", "check_date": "2019-05-03", "electrified": "rail", "layer": "2", "name": "Hyderabad Metro Line 3 (blue)", "network": "Hyderabad Metro", "note": "Contributors are requested to not edit the \"network\" and the \"operator\" tags. (2023/11/08)", "opening_date": "2019-11-29", "operator": "Hyderabad Metro Rail Limited", "railway": "subway", "subway": "yes"}}, {"type": "way", "id": 687489415, "nodes": [2422172983, 3164043360], "tags": {"bridge": "yes", "check_date": "2016-08-02", "electrified": "rail", "layer": "2", "name": "Hyderabad Metro Line 3 (blue)", "network": "Hyderabad Metro", "note": "Contributors are requested to not edit the \"network\" and the \"operator\" tags. (2023/11/08)", "opening_date": "2017-08-15", "operator": "Hyderabad Metro Rail Limited", "railway": "subway", "subway": "yes"}}, {"type": "way", "id": 687489418, "nodes": [2422173008, 6777063528, 6777063527, 6777063526, 6777063525, 6777063524, 6777063523, 6777063522, 6777074368, 6777074367, 6777074366, 6777074365, 6777074364, 6777074363, 6777074362, 6777074361, 6777074360, 6777074359, 6777074358, 6777074357, 6777074356, 6777074355, 6777074354, 6777074353, 6777074352, 11082659161, 6777074351, 6777074350, 6777074349, 6777074348, 6777074347, 6777074346, 6777074345, 6777074344, 6777074343, 6777074342, 6777074341, 6777074340, 3164043320, 6777140637, 6777140638, 6777140639, 6777140640, 6777140641, 6777140642, 6777140643, 6777140644, 6777140645, 6777140646, 6777140647, 6777140648, 6777140649, 6777140650, 6777140651, 6453520185], "tags": {"bridge": "yes", "check_date": "2016-08-02", "electrified": "rail", "layer": "2", "name": "Hyderabad Metro Line 3 (blue)", "network": "Hyderabad Metro", "note": "Contributors are requested to not edit the \"network\" and the \"operator\" tags. (2023/11/08)", "opening_date": "2017-08-15", "operator": "Hyderabad Metro Rail Limited", "railway": "subway", "subway": "yes"}}, {"type": "way", "id": 687489421, "nodes": [2422173139, 3146877624, 6777165113, 3146877623, 6777165095, 6777165096, 6777165097, 6777165098, 6777165099, 6777165100, 6777165101, 6777165102, 6777165103, 6777165104, 6777165105, 6777165106, 6777165107, 6777165108, 6777165109, 6777165110, 6777165111, 6777165112, 6777063563, 2422172978], "tags": {"bridge": "yes", "check_date": "2016-08-02", "electrified": "rail", "layer": "2", "name": "Hyderabad Metro Line 3 (blue)", "network": "Hyderabad Metro", "note": "Contributors are requested to not edit the \"network\" and the \"operator\" tags. (2023/11/08)", "opening_date": "2017-08-15", "operator": "Hyderabad Metro Rail Limited", "railway": "subway", "subway": "yes"}}, {"type": "way", "id": 687489425, "nodes": [5787788712, 2422173081, 2422173013, 5787788711, 5787788710, 5787788709, 5787788708, 2422172980, 2422173006, 2422173054, 6777154663, 6777154664, 6777154665, 6777154666, 6777154667, 6777154668, 6777154669, 6777154670, 6777154671, 6777154672, 6777154673, 6777154674, 6777154675, 6777165115, 2422173139], "tags": {"bridge": "yes", "check_date": "2016-08-02", "electrified": "rail", "layer": "2", "name": "Hyderabad Metro Line 3 (blue)", "network": "Hyderabad Metro", "note": "Contributors are requested to not edit the \"network\" and the \"operator\" tags. (2023/11/08)", "opening_date": "2017-08-15", "operator": "Hyderabad Metro Rail Limited", "railway": "subway", "subway": "yes"}}, {"type": "way", "id": 687489426, "nodes": [6779401880, 6779401881, 5787788719, 2422173126, 2422173127, 5787788716, 2422173051, 5787788715, 5787788714, 5787788713, 5787788712], "tags": {"bridge": "yes", "check_date": "2016-08-02", "electrified": "rail", "layer": "2", "name": "Hyderabad Metro Line 3 (blue)", "network": "Hyderabad Metro", "note": "Contributors are requested to not edit the \"network\" and the \"operator\" tags. (2023/11/08)", "opening_date": "2017-08-15", "operator": "Hyderabad Metro Rail Limited", "railway": "subway", "subway": "yes"}}, {"type": "way", "id": 687489427, "nodes": [2422172989, 6779401791, 6779401792, 6779401793, 6779401794, 6779401795, 6779401796, 6779401797, 6779401798, 6779401799, 6779401800, 6779401801, 6779401802, 6779401803, 6779401804, 6779401805, 6779401806, 6779401807, 6779401808, 6779401809, 6779401810, 6779401811, 6779401812, 6779401813, 6779401814, 6779401815, 6779401816, 6779401817, 6779401818, 6779401819, 6779401820, 6779401821, 6779401822, 6779401823, 6779401824, 6779401825, 6779401826, 6779401827, 6779401828, 6779401829, 6779401830, 6779401880], "tags": {"bridge": "yes", "check_date": "2016-08-02", "electrified": "rail", "layer": "2", "name": "Hyderabad Metro Line 3 (blue)", "network": "Hyderabad Metro", "note": "Contributors are requested to not edit the \"network\" and the \"operator\" tags. (2023/11/08)", "opening_date": "2017-08-15", "operator": "Hyderabad Metro Rail Limited", "railway": "subway", "subway": "yes"}}, {"type": "way", "id": 688267871, "nodes": [6453520185, 6777140652, 6777140653, 6777140654, 6777140655, 6777140656, 6777140657, 6777140658, 6777140659, 6777140660, 6777140661, 6777140662, 6777140663, 6777140664, 6777140665, 3480706231, 6777140667, 2422172983], "tags": {"bridge": "yes", "check_date": "2016-08-02", "electrified": "rail", "layer": "2", "name": "Hyderabad Metro Line 3 (blue)", "network": "Hyderabad Metro", "note": "Contributors are requested to not edit the \"network\" and the \"operator\" tags. (2023/11/08)", "opening_date": "2017-08-15", "operator": "Hyderabad Metro Rail Limited", "railway": "subway", "subway": "yes"}}, {"type": "way", "id": 722495016, "nodes": [3164043360, 11037754156, 2422235311, 6777060893, 3164047361, 3164047362, 11037703488, 11037703489, 5787788705], "tags": {"bridge": "yes", "check_date": "2019-05-03", "electrified": "rail", "layer": "2", "name": "Hyderabad Metro Line 3 (blue)", "network": "Hyderabad Metro", "note": "Contributors are requested to not edit the \"network\" and the \"operator\" tags. (2023/11/08)", "opening_date": "2017-08-15", "operator": "Hyderabad Metro Rail Limited", "railway": "subway", "subway": "yes"}}, {"type": "way", "id": 722495017, "nodes": [5787787847, 11037723930, 5787787848, 11037723931, 11037723932, 5787787849, 6777060892, 5787787850, 11037754155, 5787787851], "tags": {"bridge": "yes", "check_date": "2019-05-03", "electrified": "rail", "layer": "2", "name": "Hyderabad Metro Line 3 (blue)", "network": "Hyderabad Metro", "note": "Contributors are requested to not edit the \"network\" and the \"operator\" tags. (2023/11/08)", "opening_date": "2017-08-15", "operator": "Hyderabad Metro Rail Limited", "railway": "subway", "subway": "yes"}}, {"type": "way", "id": 722502341, "nodes": [5787787921, 6777165113], "tags": {"bridge": "yes", "electrified": "contact_line", "frequency": "50", "gauge": "1435", "layer": "2", "network": "Hyderabad Metro", "note": "Contributors are requested to not edit the \"network\" and the \"operator\" tags. (2023/11/08)", "operator": "Hyderabad Metro Rail Limited", "railway": "subway", "subway": "yes", "voltage": "25000"}}, {"type": "way", "id": 755364262, "nodes": [2422173105, 7055911920], "tags": {"bridge": "yes", "check_date": "2019-05-03", "electrified": "rail", "layer": "2", "name": "Hyderabad Metro Line 3 (blue)", "network": "Hyderabad Metro", "note": "Contributors are requested to not edit the \"network\" and the \"operator\" tags. (2023/11/08)", "opening_date": "2019-11-29", "operator": "Hyderabad Metro Rail Limited", "railway": "subway", "subway": "yes"}}, {"type": "way", "id": 755364263, "nodes": [7055911919, 5787787987], "tags": {"bridge": "yes", "check_date": "2019-05-03", "electrified": "rail", "layer": "2", "name": "Hyderabad Metro Line 3 (blue)", "network": "Hyderabad Metro", "note": "Contributors are requested to not edit the \"network\" and the \"operator\" tags. (2023/11/08)", "opening_date": "2019-11-29", "operator": "Hyderabad Metro Rail Limited", "railway": "subway", "subway": "yes"}}, {"type": "way", "id": 769175013, "nodes": [7180083268, 7180083269, 7180083270, 7180083271, 7180083268], "tags": {"amenity": "bus_station", "building": "yes", "bus": "yes", "name": "police line bus stop", "public_transport": "station"}}, {"type": "way", "id": 1178126883, "nodes": [10944262039, 10944262038, 10944262037, 10944262036, 10944262035, 10944262034, 10944262033, 10944262032, 10944262031, 10944262030, 10944262029, 10944262028, 10944262027, 10944731229, 10944731230, 10944731231, 10944731232, 10944731233, 10944731234, 10944731235, 10944731236, 10944731241, 10944731242, 10944748663, 10944748664, 10944748665, 10944748666, 10944748667, 10944748668, 10944748669, 10944748670, 10944748671, 10944748672, 10944748673, 10944748674, 10944748675, 10944748676, 10944748677, 10944748678, 10944748679, 10944748680, 10944748681, 11737669093, 10944727046, 10944727047, 10944741285, 10944741286, 10944741287, 10944741288, 10944741289, 10944741290, 10944741291, 10944741292, 10944741293, 10944741294, 10944741295, 10944741296, 10944741297, 10944741298, 10944741300, 10944741299, 10944741302, 10944741303, 10944741304, 10944759605, 10944759606, 10944759607, 11737669095, 10944761127, 10944761128, 10944761129, 10944761130, 10944761131, 10944761132, 10944761133, 10944761134, 10944761135, 10944761136, 10944761137, 10944761138, 10944761139, 10944722023, 10944722026, 10944722024, 10944722027, 10944722028, 10944722029, 11738179205, 10944766864, 10944766865, 10944766866, 10944766867, 10944766868, 10944766869, 10944766870, 10944766871, 10944766872, 10944766873, 10944766874, 10944766875, 10944766876, 10944766877, 10944766878, 10944766879, 10944766880, 10944766881, 10944766882, 10944766883, 10944766884, 10944766885, 10944737031, 10944737032, 10944737033, 10944737034, 11738179206, 10944774625, 10944774626, 10944774627, 10944774628, 10944774629, 10944774631, 10944774632, 10944774633, 10944774634, 10944774635, 10944710597, 10944774636, 11738179207, 10944756880, 10944756881, 10944781604, 10944756882, 10944757182, 10944757183, 10944757184, 10944757185, 10944757186, 10944757187, 10944757188, 10944757189, 10944757190, 10944757191, 10944757192, 10944757193, 10944757194, 10944757195, 10944757196, 10944757197, 10944757198, 10944757199, 10944757200, 11738179208, 10944757201, 10944757202, 10944757203, 10944757204, 10944786305, 10944786306, 10944786307, 10944786308, 10944786309, 10944786310, 10944786311, 10944786312, 10944786313, 10944786314, 10944786315, 10944786316, 10944786317, 11738179209, 10944786318, 10944786319, 10944786320, 10944786321, 10944786322, 10944786323, 10944786324, 10944786325, 10944786326, 10944786327, 10944786328, 10944786094, 10944786095, 10944786096, 10944786098, 10944786099, 10944786100, 10944786101, 10944786102, 10944786104, 10944787405, 10944787406, 10944787407, 10944787409, 11738179216, 10944787410, 10944736560, 10944736561, 10944736562, 10944736563, 10944736564, 10944736565, 10944736566, 10944736567, 10944736568, 10944736569, 10944736570, 10944736571, 5787787993], "tags": {"bridge": "yes", "check_date": "2023-06-01", "electrified": "contact_line", "frequency": "50", "gauge": "1435", "layer": "2", "name": "Hyderabad Metro Line 1 (red)", "network": "Hyderabad Metro", "note": "Contributors are requested to not edit the \"network\" and the \"operator\" tags. (2023/11/08)", "opening_date": "2017-11-28", "operator": "Hyderabad Metro Rail Limited", "railway": "subway", "source": "Mapbox Satellite (2016-08-09);esri", "subway": "yes", "voltage": "25000"}}, {"type": "way", "id": 1188691922, "nodes": [6445285000, 11037699533], "tags": {"bridge": "yes", "check_date": "2019-05-03", "electrified": "rail", "layer": "2", "name": "Hyderabad Metro Line 3 (blue)", "network": "Hyderabad Metro", "note": "Contributors are requested to not edit the \"network\" and the \"operator\" tags. (2023/11/08)", "opening_date": "2019-11-29", "operator": "Hyderabad Metro Rail Limited", "railway": "subway", "subway": "yes"}}, {"type": "way", "id": 1188691923, "nodes": [11037699535, 11037699534], "tags": {"bridge": "yes", "check_date": "2019-05-03", "electrified": "rail", "layer": "2", "name": "Hyderabad Metro Line 3 (blue)", "network": "Hyderabad Metro", "note": "Contributors are requested to not edit the \"network\" and the \"operator\" tags. (2023/11/08)", "opening_date": "2019-11-29", "operator": "Hyderabad Metro Rail Limited", "railway": "subway", "subway": "yes"}}, {"type": "way", "id": 1188691924, "nodes": [11037699552, 11037699553], "tags": {"bridge": "yes", "check_date": "2019-05-03", "electrified": "rail", "layer": "2", "name": "Hyderabad Metro Line 3 (blue)", "network": "Hyderabad Metro", "note": "Contributors are requested to not edit the \"network\" and the \"operator\" tags. (2023/11/08)", "opening_date": "2019-11-29", "operator": "Hyderabad Metro Rail Limited", "railway": "subway", "subway": "yes"}}, {"type": "way", "id": 1247721914, "nodes": [11598852391, 11598852392, 11598852393, 11598852394, 11598852391], "tags": {"bench": "yes", "bus": "yes", "public_transport": "platform", "shelter": "yes"}}, {"type": "way", "id": 1465008222, "nodes": [13437031504, 13437031505, 13437031506, 13437031507, 13437031504], "tags": {"amenity": "bus_station", "bus": "yes", "public_transport": "station"}}, {"type": "relation", "id": 9538475, "members": [{"type": "node", "ref": 6444553239, "role": ""}, {"type": "node", "ref": 2422172983, "role": "stop"}, {"type": "node", "ref": 5787787852, "role": "stop"}], "tags": {"colour": "blue", "name": "HITEC City", "name:te": "\u0c39\u0c48\u0c1f\u0c46\u0c15\u0c4d \u0c38\u0c3f\u0c1f\u0c3f", "public_transport": "stop_area", "type": "public_transport"}}, {"type": "relation", "id": 9565585, "members": [{"type": "node", "ref": 6451675812, "role": ""}, {"type": "node", "ref": 6453520185, "role": "stop"}, {"type": "node", "ref": 6453519084, "role": "stop"}], "tags": {"colour": "blue", "name": "Durgam Cheruvu", "name:te": "\u0c26\u0c41\u0c30\u0c4d\u0c17\u0c02 \u0c1a\u0c46\u0c30\u0c41\u0c35\u0c41", "network": "Hyderabad Metro", "operator": "HMRL", "public_transport": "stop_area", "type": "public_transport"}}, {"type": "relation", "id": 9873091, "members": [{"type": "node", "ref": 6672440858, "role": ""}, {"type": "node", "ref": 5787788719, "role": "stop"}, {"type": "node", "ref": 7052069771, "role": "stop"}], "tags": {"colour": "blue", "name": "Yusufguda", "name:te": "\u0c2f\u0c42\u0c38\u0c41\u0c2b\u0c4d\u200c\u0c17\u0c42\u0c21", "public_transport": "stop_area", "type": "public_transport"}}, {"type": "relation", "id": 10011782, "members": [{"type": "node", "ref": 6777782858, "role": ""}, {"type": "node", "ref": 6777782857, "role": "stop"}, {"type": "node", "ref": 2422173139, "role": "stop"}], "tags": {"colour": "blue", "name": "Jubilee Hills Checkpost", "network": "Hyderabad Metro", "note": "Contributors are requested to not edit the \"network\" and the \"operator\" tags. (2023/11/08)", "operator": "Hyderabad Metro Rail Limited", "public_transport": "stop_area", "public_transport:version": "2", "subway": "yes", "type": "public_transport"}}, {"type": "relation", "id": 10011783, "members": [{"type": "node", "ref": 9144573053, "role": ""}, {"type": "node", "ref": 5787787896, "role": "stop"}, {"type": "node", "ref": 2422173008, "role": "stop"}], "tags": {"colour": "blue", "name": "Madhapur", "name:te": "\u0c2e\u0c3e\u0c27\u0c3e\u0c2a\u0c42\u0c30\u0c4d", "network": "Hyderabad Metro", "note": "Contributors are requested to not edit the \"network\" and the \"operator\" tags. (2023/11/08)", "operator": "Hyderabad Metro Rail Limited", "public_transport": "stop_area", "public_transport:version": "2", "subway": "yes", "type": "public_transport"}}, {"type": "relation", "id": 10402714, "members": [{"type": "node", "ref": 7052069772, "role": ""}, {"type": "node", "ref": 5787787938, "role": "stop"}, {"type": "node", "ref": 5787788712, "role": "stop"}], "tags": {"colour": "blue", "name": "Road No 5 Jubilee Hills", "name:te": "\u0c30\u0c4b\u0c21\u0c4d \u0c28\u0c02 5 \u0c1c\u0c42\u0c2c\u0c3f\u0c32\u0c40 \u0c39\u0c3f\u0c32\u0c4d\u0c38\u0c4d", "public_transport": "stop_area", "type": "public_transport"}}, {"type": "relation", "id": 10402715, "members": [{"type": "node", "ref": 7052069774, "role": ""}, {"type": "node", "ref": 2422172978, "role": "stop"}, {"type": "node", "ref": 7052069773, "role": "stop"}], "tags": {"colour": "blue", "name": "Peddamma Gudi", "name:te": "\u0c2a\u0c46\u0c26\u0c4d\u0c26\u0c2e\u0c4d\u0c2e \u0c17\u0c41\u0c21\u0c3f", "public_transport": "stop_area", "type": "public_transport"}}, {"type": "relation", "id": 10402716, "members": [{"type": "node", "ref": 7052069775, "role": ""}, {"type": "node", "ref": 2422173105, "role": "stop"}, {"type": "node", "ref": 5787787987, "role": "stop"}], "tags": {"colour": "blue", "name": "Raidurg", "public_transport": "stop_area", "type": "public_transport"}}]}