{"version": 0.6, "generator": "Overpass API 0.7.62.8 e802775f", "osm3s": {"timestamp_osm_base": "2026-01-16T09:53:08Z", "copyright": "The data included in this document is from www.openstreetmap.org. The data is made available under ODbL."}, "elements": [{"type": "node", "id": 1213531090, "lat": 59.008601, "lon": 5.652257, "tags": {"highway": "bus_stop", "name": "Torvmyrveien (A)", "ref": "A", "ref:nsrq": "48104"}}, {"type": "node", "id": 1213531232, "lat": 59.00848, "lon": 5.652106, "tags": {"highway": "bus_stop", "name": "Torvmyrveien (B)", "ref": "B", "ref:nsrq": "48103", "shelter": "yes"}}, {"type": "node", "id": 1223373978, "lat": 59.006219, "lon": 5.655009, "tags": {"highway": "bus_stop", "name": "Hagafjell (B)", "ref": "B", "ref:nsrq": "44791"}}, {"type": "node", "id": 1822420471, "lat": 59.01043, "lon": 5.644057, "tags": {"bench": "yes", "highway": "bus_stop", "name": "Bronseveien (B)", "ref": "B", "ref:nsrq": "49179", "shelter": "yes"}}, {"type": "node", "id": 2163186918, "lat": 59.010246, "lon": 5.64771, "tags": {"highway": "bus_stop", "name": "Klokkarhaugen (B)", "ref": "B", "ref:nsrq": "47600"}}, {"type": "node", "id": 2163186919, "lat": 59.010283, "lon": 5.647549, "tags": {"highway": "bus_stop", "name": "Klokkarhaugen (A)", "ref": "A", "ref:nsrq": "47601"}}, {"type": "node", "id": 2163186924, "lat": 58.99971, "lon": 5.653158, "tags": {"highway": "bus_stop", "name": "Barlindveien (A)", "ref": "A", "ref:nsrq": "48664"}}, {"type": "node", "id": 2163186925, "lat": 58.999148, "lon": 5.653523, "tags": {"highway": "bus_stop", "name": "Barlindveien (B)", "ref": "B", "ref:nsrq": "48663"}}, {"type": "node", "id": 2163186964, "lat": 59.001612, "lon": 5.655255, "tags": {"highway": "bus_stop", "name": "Fjellheimveien", "ref:nsrq": "48615"}}, {"type": "node", "id": 2163186965, "lat": 59.002599, "lon": 5.655609, "tags": {"highway": "bus_stop", "name": "Fjellprydveien (B)", "ref": "B", "ref:nsrq": "48624"}}, {"type": "node", "id": 2163186966, "lat": 59.0027552, "lon": 5.6556705, "tags": {"bus": "yes", "highway": "bus_stop", "name": "Fjellprydveien (A)", "network": "Kolumbus", "network:wikidata": "Q6427938", "operator": "Kolumbus", "public_transport": "platform", "ref": "A", "ref:nsrq": "48622"}}, {"type": "node", "id": 2163186989, "lat": 59.006269, "lon": 5.655035, "tags": {"highway": "bus_stop", "name": "Hagafjell (A)", "ref": "A", "ref:nsrq": "44792"}}, {"type": "node", "id": 2163187098, "lat": 59.000908, "lon": 5.652498, "tags": {"highway": "bus_stop", "name": "Ryggveien (B)", "ref": "B", "ref:nsrq": "44911"}}, {"type": "node", "id": 2163187099, "lat": 59.001478, "lon": 5.653311, "tags": {"highway": "bus_stop", "name": "Ryggveien (A)", "ref": "A", "ref:nsrq": "44909"}}, {"type": "node", "id": 2163852533, "lat": 59.010497, "lon": 5.644038, "tags": {"highway": "bus_stop", "name": "Bronseveien (A)", "ref": "A", "ref:nsrq": "49180"}}]}