{"version": 0.6, "generator": "Overpass API 0.7.62.8 e802775f", "osm3s": {"timestamp_osm_base": "2026-01-12T19:22:08Z", "copyright": "The data included in this document is from www.openstreetmap.org. The data is made available under ODbL."}, "elements": [{"type": "node", "id": 521157737, "lat": 13.0489776, "lon": 77.5507923}, {"type": "node", "id": 521157739, "lat": 13.0489776, "lon": 77.5502073}, {"type": "node", "id": 521157742, "lat": 13.0494033, "lon": 77.5516365}, {"type": "node", "id": 521157744, "lat": 13.0490281, "lon": 77.5511922}, {"type": "node", "id": 521157746, "lat": 13.0500886, "lon": 77.5506812}, {"type": "node", "id": 521157748, "lat": 13.0501823, "lon": 77.5510737}, {"type": "node", "id": 529453448, "lat": 13.0498518, "lon": 77.5561492}, {"type": "node", "id": 529453449, "lat": 13.0498678, "lon": 77.5573932}, {"type": "node", "id": 529453453, "lat": 13.0508256, "lon": 77.5573802}, {"type": "node", "id": 529453454, "lat": 13.0508096, "lon": 77.5561362}, {"type": "node", "id": 959499253, "lat": 13.1038325, "lon": 77.5824316}, {"type": "node", "id": 959499269, "lat": 13.1034444, "lon": 77.5832071}, {"type": "node", "id": 959499350, "lat": 13.1040823, "lon": 77.583561}, {"type": "node", "id": 959499421, "lat": 13.1047783, "lon": 77.5829508}, {"type": "node", "id": 959499456, "lat": 13.0989794, "lon": 77.5860213}, {"type": "node", "id": 1462232206, "lat": 13.0806193, "lon": 77.5482263, "tags": {"amenity": "hospital", "name": "London Hospital"}}, {"type": "node", "id": 1463452754, "lat": 13.0829889, "lon": 77.5489026, "tags": {"addr:district": "Bengaluru Urban", "addr:full": "M S Palya, Bharath Nagar,Hesaraghatta Main Road,Vidyaranyapura Post", "addr:postcode": "560097", "addr:state": "Karnataka", "amenity": "hospital", "name": "Nagappa Hadli Hospital", "name:kn": "\u0ca8\u0cbe\u0c97\u0caa\u0ccd\u0caa \u0cb9\u0ca6\u0ccd\u0cb2\u0cbf", "source": "OpenGovernmentData"}}, {"type": "node", "id": 1463656830, "lat": 13.0686568, "lon": 77.5582571, "tags": {"addr:district": "Bengaluru Urban", "addr:full": "# 50/2, Vidyaranyapura, Nanjappa Main Road", "addr:postcode": "560097", "addr:state": "Karnataka", "amenity": "hospital", "check_date": "2025-08-09", "name": "Ketham's Hospital Pvt. Ltd", "source": "OpenGovernmentData"}}, {"type": "node", "id": 1464742684, "lat": 13.0425433, "lon": 77.5155377, "tags": {"amenity": "hospital", "name": "Ragavendra Hospital", "name:kn": "\u0cb0\u0cbe\u0c98\u0cb5\u0cc7\u0c82\u0ca6\u0ccd\u0cb0 \u0c86\u0cb8\u0ccd\u0caa\u0ca4\u0ccd\u0cb0\u0cc6"}}, {"type": "node", "id": 1467969120, "lat": 13.0989833, "lon": 77.5862714}, {"type": "node", "id": 1467969121, "lat": 13.0991728, "lon": 77.5862721}, {"type": "node", "id": 1467969122, "lat": 13.0991754, "lon": 77.5860222}, {"type": "node", "id": 1871539757, "lat": 13.0372438, "lon": 77.5648754, "tags": {"addr:district": "Bengaluru Urban", "addr:full": "No 519 2nd Nain Netravathystreet, Devasandra, New Bel Road", "addr:postcode": "560054", "addr:state": "Karnataka", "amenity": "hospital", "emergency": "yes", "name": "Shirdi Sai Hospital", "name:kn": "\u0cb6\u0cbf\u0cb0\u0ca1\u0cbf \u0cb8\u0cbe\u0caf\u0cbf \u0c86\u0cb8\u0ccd\u0caa\u0ca4\u0ccd\u0cb0\u0cc6", "operator:type": "private", "source": "OpenGovernmentData", "website": "http://shirdisaihospital.in/"}}, {"type": "node", "id": 2343099977, "lat": 13.0774744, "lon": 77.5587548, "tags": {"addr:district": "Bengaluru Urban", "addr:full": "17, Nti Layout, Vidyaranyapura", "addr:postcode": "560097", "addr:state": "Karnataka", "amenity": "hospital", "healthcare": "hospital", "name": "Soukya Hospital", "source": "OpenGovernmentData"}}, {"type": "node", "id": 3371482289, "lat": 13.1252201, "lon": 77.5458002}, {"type": "node", "id": 3371482291, "lat": 13.1264609, "lon": 77.5459021}, {"type": "node", "id": 3371482292, "lat": 13.1263798, "lon": 77.5478601}, {"type": "node", "id": 3371493794, "lat": 13.1247708, "lon": 77.547667}, {"type": "node", "id": 3462836043, "lat": 13.0385872, "lon": 77.5273397}, {"type": "node", "id": 3462836044, "lat": 13.0388933, "lon": 77.5275031}, {"type": "node", "id": 3462836045, "lat": 13.0388203, "lon": 77.5276472}, {"type": "node", "id": 3462836053, "lat": 13.0386396, "lon": 77.5277282}, {"type": "node", "id": 3462836054, "lat": 13.0385605, "lon": 77.5278845}, {"type": "node", "id": 3462836055, "lat": 13.0384211, "lon": 77.5278102}, {"type": "node", "id": 3462836056, "lat": 13.038191, "lon": 77.5282644}, {"type": "node", "id": 3462836057, "lat": 13.0380418, "lon": 77.5281848}, {"type": "node", "id": 3462836058, "lat": 13.0383495, "lon": 77.5275774}, {"type": "node", "id": 3462836059, "lat": 13.0385573, "lon": 77.5275069}, {"type": "node", "id": 3462836060, "lat": 13.0384418, "lon": 77.5276267}, {"type": "node", "id": 3462836061, "lat": 13.0384866, "lon": 77.5276465}, {"type": "node", "id": 3462850452, "lat": 13.0386215, "lon": 77.527358, "tags": {"entrance": "yes"}}, {"type": "node", "id": 3525489541, "lat": 13.0942398, "lon": 77.5807063}, {"type": "node", "id": 3525489544, "lat": 13.094258, "lon": 77.580793}, {"type": "node", "id": 3525489556, "lat": 13.0942896, "lon": 77.5807347}, {"type": "node", "id": 3525489558, "lat": 13.0942961, "lon": 77.5806021}, {"type": "node", "id": 3525489560, "lat": 13.0943019, "lon": 77.580818}, {"type": "node", "id": 3525489697, "lat": 13.0943898, "lon": 77.5806555}, {"type": "node", "id": 3527585504, "lat": 13.1076045, "lon": 77.5717993}, {"type": "node", "id": 3527585511, "lat": 13.1076135, "lon": 77.5716453}, {"type": "node", "id": 3527585642, "lat": 13.1078492, "lon": 77.5718146}, {"type": "node", "id": 3527585649, "lat": 13.1078583, "lon": 77.5716606}, {"type": "node", "id": 3527811650, "lat": 13.1055233, "lon": 77.577329}, {"type": "node", "id": 3527811679, "lat": 13.1055739, "lon": 77.5772033}, {"type": "node", "id": 3527811740, "lat": 13.1056818, "lon": 77.5773962}, {"type": "node", "id": 3527811771, "lat": 13.1057324, "lon": 77.5772704}, {"type": "node", "id": 3670144843, "lat": 13.0701645, "lon": 77.5022256}, {"type": "node", "id": 3670144844, "lat": 13.0701971, "lon": 77.5027371}, {"type": "node", "id": 3670144845, "lat": 13.0702546, "lon": 77.5021479}, {"type": "node", "id": 3670144846, "lat": 13.0702591, "lon": 77.5022193}, {"type": "node", "id": 3670144847, "lat": 13.0704132, "lon": 77.5020941}, {"type": "node", "id": 3670144848, "lat": 13.0704159, "lon": 77.502137}, {"type": "node", "id": 3670144849, "lat": 13.0704721, "lon": 77.5020619}, {"type": "node", "id": 3670144850, "lat": 13.0704739, "lon": 77.50209}, {"type": "node", "id": 3670144851, "lat": 13.0705369, "lon": 77.5020272}, {"type": "node", "id": 3670144852, "lat": 13.0705386, "lon": 77.5020575}, {"type": "node", "id": 3670144853, "lat": 13.0705837, "lon": 77.5020965}, {"type": "node", "id": 3670144854, "lat": 13.0705895, "lon": 77.5021871}, {"type": "node", "id": 3670144855, "lat": 13.0705973, "lon": 77.502406}, {"type": "node", "id": 3670144856, "lat": 13.0705997, "lon": 77.5024426}, {"type": "node", "id": 3670144857, "lat": 13.0706155, "lon": 77.5026786}, {"type": "node", "id": 3670144858, "lat": 13.0706175, "lon": 77.5027089}, {"type": "node", "id": 3670144859, "lat": 13.0707326, "lon": 77.5023349}, {"type": "node", "id": 3670144860, "lat": 13.0707365, "lon": 77.5023966}, {"type": "node", "id": 3670144861, "lat": 13.0708575, "lon": 77.5020796}, {"type": "node", "id": 3670144862, "lat": 13.0708605, "lon": 77.5021299}, {"type": "node", "id": 3670144863, "lat": 13.0708875, "lon": 77.5019716}, {"type": "node", "id": 3670144864, "lat": 13.0708893, "lon": 77.5020053}, {"type": "node", "id": 3670144865, "lat": 13.070894, "lon": 77.5021278}, {"type": "node", "id": 3670144866, "lat": 13.070896, "lon": 77.5021665}, {"type": "node", "id": 3670144867, "lat": 13.0709042, "lon": 77.5023233}, {"type": "node", "id": 3670144868, "lat": 13.0709094, "lon": 77.5024227}, {"type": "node", "id": 3670144869, "lat": 13.0709235, "lon": 77.5026588}, {"type": "node", "id": 3670144870, "lat": 13.0709246, "lon": 77.5026789}, {"type": "node", "id": 3670144871, "lat": 13.070952, "lon": 77.501968}, {"type": "node", "id": 3670144872, "lat": 13.0709891, "lon": 77.5026753}, {"type": "node", "id": 6380900077, "lat": 13.0711049, "lon": 77.5781394, "tags": {"amenity": "hospital", "check_date": "2024-07-21", "healthcare": "hospital", "healthcare:speciality": "general", "name": "Medical Center", "operator": "NCBS/InStem"}}, {"type": "node", "id": 6630713206, "lat": 13.1001877, "lon": 77.5813432, "tags": {"addr:district": "Bengaluru Urban", "addr:full": "Yelahanka New Town, Bengaluru", "addr:postcode": "560064", "addr:state": "Karnataka", "amenity": "hospital", "healthcare": "hospital", "name": "Omega Multispeciality Hospital", "source": "Local Knowledge"}}, {"type": "node", "id": 6630713207, "lat": 13.0957808, "lon": 77.5792872, "tags": {"amenity": "hospital", "healthcare": "hospital", "name": "NDR Hospital"}}, {"type": "node", "id": 6807793492, "lat": 13.0727251, "lon": 77.5032965}, {"type": "node", "id": 6807793493, "lat": 13.0727811, "lon": 77.5038082}, {"type": "node", "id": 6807793494, "lat": 13.0722993, "lon": 77.5038785}, {"type": "node", "id": 6807793495, "lat": 13.0722674, "lon": 77.5034994}, {"type": "node", "id": 6808389338, "lat": 13.0571444, "lon": 77.5086082}, {"type": "node", "id": 6808389339, "lat": 13.0571535, "lon": 77.5084004}, {"type": "node", "id": 6808389340, "lat": 13.0569784, "lon": 77.508399}, {"type": "node", "id": 6808389341, "lat": 13.056985, "lon": 77.508623}, {"type": "node", "id": 6808989940, "lat": 13.0483861, "lon": 77.5079625}, {"type": "node", "id": 6808989941, "lat": 13.0483561, "lon": 77.5080788}, {"type": "node", "id": 6808989942, "lat": 13.0483283, "lon": 77.5080757}, {"type": "node", "id": 6808989943, "lat": 13.0483201, "lon": 77.5081096}, {"type": "node", "id": 6808989944, "lat": 13.0483103, "lon": 77.5080911}, {"type": "node", "id": 6808989945, "lat": 13.0482976, "lon": 77.5080942}, {"type": "node", "id": 6808989946, "lat": 13.0482998, "lon": 77.5081081}, {"type": "node", "id": 6808989947, "lat": 13.0482811, "lon": 77.5081034}, {"type": "node", "id": 6808989948, "lat": 13.0482893, "lon": 77.5080564}, {"type": "node", "id": 6808989949, "lat": 13.0482518, "lon": 77.5080503}, {"type": "node", "id": 6808989950, "lat": 13.0482751, "lon": 77.508011}, {"type": "node", "id": 6808989951, "lat": 13.0482713, "lon": 77.5079925}, {"type": "node", "id": 6808989952, "lat": 13.0482608, "lon": 77.5079856}, {"type": "node", "id": 6808989953, "lat": 13.0482585, "lon": 77.5079648}, {"type": "node", "id": 6938637677, "lat": 13.0965172, "lon": 77.5787745, "tags": {"addr:district": "Bengaluru Urban", "addr:full": "2118, 12Th Main RoadB Sector, 3Road Phase Yalahanka New Toen", "addr:postcode": "560064", "addr:state": "Karnataka", "amenity": "hospital", "name": "N.D.R. Hospital", "source": "OpenGovernmentData"}}, {"type": "node", "id": 6938775815, "lat": 13.103924, "lon": 77.5837862, "tags": {"addr:district": "Bengaluru Urban", "addr:full": "No.32/1, Maruthi Complex,M S Nagar Bus Stop,Banaswadi Road", "addr:postcode": "560083", "addr:state": "Karnataka", "amenity": "hospital", "name": "Apple Hospital", "source": "OpenGovernmentData"}}, {"type": "node", "id": 6938864290, "lat": 13.0842019, "lon": 77.5308891, "tags": {"addr:district": "Bengaluru Urban", "addr:full": "#21/1, Lakshmipura Main Road,Vidyaranyapura,Opposite Lakshmipura Lake", "addr:postcode": "560097", "addr:state": "Karnataka", "amenity": "hospital", "name": "Rajalakshmi Hospital", "source": "OpenGovernmentData"}}, {"type": "node", "id": 6944464768, "lat": 13.0983472, "lon": 77.5773677, "tags": {"addr:district": "Bengaluru Urban", "addr:full": "2069/2074, 16Th B Cross, (Near Mother Dairy Cross), Yelahanka New Town", "addr:postcode": "560064", "addr:state": "Karnataka", "amenity": "hospital", "check_date": "2024-10-18", "name": "Prasad Hospital, Bengaluru Urban", "source": "OpenGovernmentData"}}, {"type": "node", "id": 6945050485, "lat": 13.0423919, "lon": 77.5136653, "tags": {"addr:district": "Bengaluru Urban", "addr:full": "No. 15, Drls Plaza, 1st Floor, Nh-4, Above Andhra Bank, T. Dasarahalli", "addr:postcode": "560057", "addr:state": "Karnataka", "amenity": "hospital", "name": "Sri Venkateshwara Eye Hospital", "source": "OpenGovernmentData"}}, {"type": "node", "id": 6947504016, "lat": 13.0377564, "lon": 77.5744454, "tags": {"addr:district": "Bengaluru Rural", "addr:full": "12, D Rajgopal Road, Next To Food World, Nagashettyhalli, Sanjaynagar", "addr:postcode": "560091", "addr:state": "Karnataka", "amenity": "hospital", "healthcare": "hospital", "name": "Mamta Hospital, Bengaluru Rural", "source": "OpenGovernmentData"}}, {"type": "node", "id": 6947504017, "lat": 13.0360827, "lon": 77.575065, "tags": {"addr:district": "Bengaluru Urban", "addr:full": "No.2, Ngef Layout, Sanjaynagar Main Road", "addr:postcode": "560094", "addr:state": "Karnataka", "amenity": "hospital", "name": "S. J. Hospital", "source": "OpenGovernmentData"}}, {"type": "node", "id": 7160738534, "lat": 13.1251406, "lon": 77.5766411}, {"type": "node", "id": 7160738535, "lat": 13.1247623, "lon": 77.5768435}, {"type": "node", "id": 7160738536, "lat": 13.1244278, "lon": 77.5761846}, {"type": "node", "id": 7160738537, "lat": 13.1248061, "lon": 77.5759822}, {"type": "node", "id": 7202935849, "lat": 13.049152, "lon": 77.510442, "tags": {"addr:district": "Bangalore", "addr:full": "Nelamaheshwarinagar T DASARAHALLI", "addr:postcode": "560057", "addr:state": "Karnataka", "addr:subdistrict": "Bangalore North", "amenity": "hospital", "name": "NELAMAHESHWARI Government Hospital", "source": "OpenGovernmentData"}}, {"type": "node", "id": 7220757461, "lat": 13.10366, "lon": 77.583583}, {"type": "node", "id": 7220757462, "lat": 13.1034046, "lon": 77.5838561}, {"type": "node", "id": 7220757463, "lat": 13.1035651, "lon": 77.5840143}, {"type": "node", "id": 7220757464, "lat": 13.1038205, "lon": 77.5837412}, {"type": "node", "id": 7489451098, "lat": 13.0468499, "lon": 77.5063696}, {"type": "node", "id": 7489626471, "lat": 13.0413777, "lon": 77.5050224, "tags": {"amenity": "hospital", "healthcare": "hospital", "name": "naveen clinc"}}, {"type": "node", "id": 7577248184, "lat": 13.081777, "lon": 77.54091, "tags": {"addr:district": "Bengaluru Urban", "addr:full": "Varadharaja Nagar, Varadarajaswamy Layout, Singapura, Bengaluru", "addr:postcode": "560097", "addr:state": "Karnataka", "amenity": "hospital", "name": "Aveksha Hospital", "source": "Local Knowledge"}}, {"type": "node", "id": 7577248239, "lat": 13.0866852, "lon": 77.5535728, "tags": {"addr:district": "Bengaluru Urban", "addr:full": "Abbasia Colony, Adityanagar, Vidyaranyapura, Bengaluru", "addr:postcode": "560097", "addr:state": "Karnataka", "amenity": "hospital", "name": "Santhamma Hospital", "source": "Local Knowledge"}}, {"type": "node", "id": 7577248262, "lat": 13.0885791, "lon": 77.5455057, "tags": {"addr:district": "Bengaluru Urban", "addr:full": "Vinayak Nagar, Vidyaranyapura, Bengaluru", "addr:postcode": "560097", "addr:state": "Karnataka", "amenity": "hospital", "name": "Shree Sai Hospital", "source": "Local Knowledge"}}, {"type": "node", "id": 7579683203, "lat": 13.1039081, "lon": 77.5754898, "tags": {"addr:district": "Bengaluru Urban", "addr:full": "Yelahanka New Town, Bengaluru", "addr:postcode": "560064", "addr:state": "Karnataka", "amenity": "hospital", "name": "Bengalure Hospital", "source": "Local Knowledge"}}, {"type": "node", "id": 7579683215, "lat": 13.098943, "lon": 77.576716, "tags": {"addr:district": "Bengaluru Urban", "addr:full": "Udaya Layout, Yelahanka New Town, Bengaluru", "addr:postcode": "560106", "addr:state": "Karnataka", "amenity": "hospital", "name": "Rangalakshmi Netralaya", "source": "Local Knowledge"}}, {"type": "node", "id": 7579683228, "lat": 13.0997321, "lon": 77.5760891, "tags": {"addr:district": "Bengaluru Urban", "addr:full": "Yelahanka New Town, Bengaluru", "addr:postcode": "560064", "addr:state": "Karnataka", "amenity": "hospital", "name": "Rainbow Health Care", "source": "Local Knowledge"}}, {"type": "node", "id": 7579683252, "lat": 13.0938081, "lon": 77.5804166, "tags": {"addr:district": "Bengaluru Urban", "addr:full": "Chikka Bommasandra, Yelahanka, Bengaluru", "addr:postcode": "560065", "addr:state": "Karnataka", "amenity": "hospital", "name": "Kushi Hospital", "source": "Local Knowledge"}}, {"type": "node", "id": 7579683261, "lat": 13.098668, "lon": 77.5826843, "tags": {"addr:district": "Bengaluru Urban", "addr:full": "Yelahanka New Town, Bengaluru", "addr:postcode": "560064", "addr:state": "Karnataka", "amenity": "hospital", "name": "Just Smiles", "source": "Local Knowledge"}}, {"type": "node", "id": 8188038448, "lat": 13.0903942, "lon": 77.4966765, "tags": {"addr:full": "Dwarka Road, Dwaraka Nagar Layout, Kempe Gowda Nagar, Bengaluru, Karnataka", "addr:state": "Karnataka", "amenity": "hospital", "name": "Government Hospital", "name:kn": "\u0cb8\u0cb0\u0ccd\u0c95\u0cbe\u0cb0\u0cbf \u0c86\u0cb8\u0ccd\u0caa\u0ca4\u0ccd\u0cb0\u0cc6"}}, {"type": "node", "id": 8188038457, "lat": 13.0803204, "lon": 77.5535057, "tags": {"addr:full": "Jamia Masjid Rd, Mohammed Sab Palya, Vidyaranyapura, Bengaluru, Karnataka", "addr:state": "Karnataka", "amenity": "hospital", "name": "Government Hospital", "name:kn": "\u0cb8\u0cb0\u0ccd\u0c95\u0cbe\u0cb0\u0cbf \u0c86\u0cb8\u0ccd\u0caa\u0ca4\u0ccd\u0cb0\u0cc6"}}, {"type": "node", "id": 8188038463, "lat": 13.0770012, "lon": 77.5581038, "tags": {"addr:full": "OPP HDFC BANK,VIDYARANYAPURA Main Road, Opposite HDFC Bank, Vidyaranyapura Main Road Near NTI Ground, NTI Layout, Vidyaranyapura, Bengaluru, Karnataka", "addr:state": "Karnataka", "amenity": "hospital", "name": "Bangalore Healthcare Center Pranav Ayurveda Hospital"}}, {"type": "node", "id": 8188038473, "lat": 13.070554, "lon": 77.5388968, "tags": {"addr:full": "KVP Nagar, Jalahalli, Bengaluru, Karnataka", "addr:state": "Karnataka", "amenity": "hospital", "name": "Government Hospital", "name:kn": "\u0cb8\u0cb0\u0ccd\u0c95\u0cbe\u0cb0\u0cbf \u0c86\u0cb8\u0ccd\u0caa\u0ca4\u0ccd\u0cb0\u0cc6"}}, {"type": "node", "id": 8188038495, "lat": 13.0650144, "lon": 77.5041964, "tags": {"addr:full": "Bus Stop, Bus Stop, Bonemill, Hesarghatta Main Rd, Soundarya Layout, Bengaluru, Karnataka", "addr:state": "Karnataka", "amenity": "hospital", "healthcare": "hospital", "name": "Kruthika Hospital"}}, {"type": "node", "id": 8188038499, "lat": 13.0621628, "lon": 77.5177637, "tags": {"addr:full": "342, 6th Cross, Brindavan Layout, Shetty Halli, Jalahalli West, Bengaluru, Karnataka", "addr:state": "Karnataka", "amenity": "hospital", "name": "Dr Saju George Kottakkal"}}, {"type": "node", "id": 8188038523, "lat": 13.0559513, "lon": 77.5329456, "tags": {"addr:full": "144, Kammagondana Halli Main Rd, Kammagondahalli, Jalahalli, Bengaluru, Karnataka", "addr:state": "Karnataka", "amenity": "hospital", "name": "Fathima Hospital"}}, {"type": "node", "id": 8188038553, "lat": 13.0439933, "lon": 77.5065494, "tags": {"addr:full": "Vidya Nagar, Peenya, Bengaluru, Karnataka", "addr:state": "Karnataka", "amenity": "hospital", "name": "Esi Dispensary"}}, {"type": "node", "id": 8911141972, "lat": 13.1112066, "lon": 77.5543597}, {"type": "node", "id": 8911141973, "lat": 13.1109323, "lon": 77.5554755}, {"type": "node", "id": 8911141974, "lat": 13.1116219, "lon": 77.5557625}, {"type": "node", "id": 8911141975, "lat": 13.1119615, "lon": 77.5546065}, {"type": "node", "id": 9844348521, "lat": 13.0467086, "lon": 77.5069261}, {"type": "node", "id": 9844348522, "lat": 13.0458243, "lon": 77.5066895}, {"type": "node", "id": 9844348523, "lat": 13.0459656, "lon": 77.506133}, {"type": "node", "id": 10980119323, "lat": 13.0489776, "lon": 77.550451, "tags": {"barrier": "gate"}}, {"type": "node", "id": 10983994604, "lat": 13.1166292, "lon": 77.5803097}, {"type": "node", "id": 10984067905, "lat": 13.1164816, "lon": 77.5799363}, {"type": "node", "id": 10984067906, "lat": 13.1167293, "lon": 77.5798331}, {"type": "node", "id": 10984067907, "lat": 13.1168769, "lon": 77.5802064}, {"type": "node", "id": 11407254183, "lat": 13.058128, "lon": 77.5860405, "tags": {"amenity": "hospital", "name": "MEDSTAR Speciality Hospital"}}, {"type": "node", "id": 11554414414, "lat": 13.1255736, "lon": 77.5477633}, {"type": "node", "id": 11932360089, "lat": 13.098072, "lon": 77.567378, "tags": {"amenity": "hospital", "check_date": "2024-05-25", "healthcare": "hospital", "name": "Esha Hospital"}}, {"type": "node", "id": 12089081037, "lat": 13.1044566, "lon": 77.5832328}, {"type": "node", "id": 12113992514, "lat": 13.0495421, "lon": 77.5515362}, {"type": "node", "id": 12177765801, "lat": 13.1255995, "lon": 77.5458347}, {"type": "way", "id": 42014454, "nodes": [521157742, 521157744, 521157737, 10980119323, 521157739, 521157746, 521157748, 12113992514, 521157742], "tags": {"amenity": "hospital", "name": "HMT Hospital", "name:kn": "\u0c8e\u0c9a\u0ccd\u0c8e\u0c82\u0c9f\u0cbf \u0c86\u0cb8\u0ccd\u0caa\u0ca4\u0ccd\u0cb0\u0cc6", "wheelchair": "limited"}}, {"type": "way", "id": 42407828, "nodes": [529453448, 529453449, 529453453, 529453454, 529453448], "tags": {"addr:district": "Bengaluru Urban", "addr:full": "Jalahalli Post", "addr:postcode": "560013", "addr:state": "Karnataka", "amenity": "hospital", "name": "BEL Hospital", "name:etymology:wikidata": "Q3630918", "name:kn": "\u0cac\u0cc0 \u0c88 \u0c8e\u0cb2\u0ccd \u0c86\u0cb8\u0ccd\u0caa\u0ca4\u0ccd\u0cb0\u0cc6", "source": "OpenGovernmentData", "wheelchair": "limited"}}, {"type": "way", "id": 82432632, "nodes": [959499253, 959499421, 12089081037, 959499350, 959499269, 959499253], "tags": {"addr:district": "Bengaluru Urban", "addr:full": "Yelahanka", "addr:postcode": "560064", "addr:state": "Karnataka", "amenity": "hospital", "healthcare": "hospital", "name": "Railways Hospital", "name:kn": "\u0cb0\u0cc8\u0cb2\u0ccd\u0cb5\u0cc7 \u0c86\u0cb8\u0ccd\u0caa\u0ca4\u0ccd\u0cb0\u0cc6", "source": "OpenGovernmentData"}}, {"type": "way", "id": 133352357, "nodes": [1467969121, 1467969122, 959499456, 1467969120, 1467969121], "tags": {"amenity": "hospital", "name": "Chaitanya Nursing Home"}}, {"type": "way", "id": 330196978, "nodes": [3371482289, 12177765801, 3371482291, 3371482292, 11554414414, 3371493794, 3371482289], "tags": {"amenity": "hospital", "healthcare": "hospital", "name": "Institute of Ayurveda and Integrative Medicine (I-AIM)", "note": "Only first aid Available here", "website": "http://iaimhealthcare.com/"}}, {"type": "way", "id": 339095607, "nodes": [3462836060, 3462836043, 3462850452, 3462836044, 3462836045, 3462836059, 3462836061, 3462836053, 3462836054, 3462836055, 3462836056, 3462836057, 3462836058, 3462836060], "tags": {"addr:district": "Bengaluru Urban", "addr:full": "19, 2nd Main Road, 1st Phase Peenya Industrial Area", "addr:postcode": "560058", "addr:state": "Karnataka", "amenity": "hospital", "building": "hospital", "emergency": "yes", "healthcare": "hospital", "name": "Ravi Kirloskar Memorial Hospital", "name:kn": "\u0cb0\u0cb5\u0cbf \u0c95\u0cbf\u0cb0\u0ccd\u0cb2\u0cca\u0cb8\u0ccd\u0c95\u0cb0\u0ccd \u0c86\u0cb8\u0ccd\u0caa\u0ca4\u0ccd\u0cb0\u0cc6", "source": "OpenGovernmentData"}}, {"type": "way", "id": 345926542, "nodes": [3525489697, 3525489560, 3525489544, 3525489556, 3525489541, 3525489558, 3525489697], "tags": {"amenity": "hospital", "building": "hospital", "check_date": "2024-07-16", "name": "Dr. Agarwal Eye Hospital"}}, {"type": "way", "id": 346156811, "nodes": [3527585649, 3527585642, 3527585504, 3527585511, 3527585649], "tags": {"addr:district": "Bengaluru Urban", "addr:full": "# 8, V Phase, 6th Cross, New Town", "addr:postcode": "560064", "addr:state": "Karnataka", "addr:subdistrict": "Yelahanka", "amenity": "hospital", "building": "hospital", "email": "shobha217@gmail.com", "name": "Neha Prakash Hospital, Bengaluru Urban", "name:kn": "\u0ca8\u0cc7\u0cb9\u0cbe \u0caa\u0ccd\u0cb0\u0c95\u0cbe\u0cb6\u0ccd \u0c86\u0cb8\u0ccd\u0caa\u0ca4\u0ccd\u0cb0\u0cc6", "operator:type": "private", "source": "OpenGovernmentData", "website": "https://www.nehaprakashhospital.com/"}}, {"type": "way", "id": 346190765, "nodes": [3527811740, 3527811650, 3527811679, 3527811771, 3527811740], "tags": {"alt_name": "SLV Prasad Hospital (A Unit of Sri Lakshmi Venkateshwara Hospitals Pvt Ltd)", "amenity": "hospital", "building": "yes", "healthcare": "hospital", "name": "Sri Lakshmi Venkateshwara Hospital", "name:kn": "\u0cb6\u0ccd\u0cb0\u0cc0 \u0cb2\u0c95\u0ccd\u0cb7\u0ccd\u0cae\u0cc0 \u0cb5\u0cc6\u0c82\u0c95\u0c9f\u0cc7\u0cb6\u0ccd\u0cb5\u0cb0 \u0c86\u0cb8\u0ccd\u0caa\u0ca4\u0ccd\u0cb0\u0cc6"}}, {"type": "way", "id": 362755622, "nodes": [3670144857, 3670144858, 3670144844, 3670144843, 3670144846, 3670144845, 3670144848, 3670144847, 3670144850, 3670144849, 3670144852, 3670144851, 3670144864, 3670144863, 3670144871, 3670144872, 3670144870, 3670144869, 3670144857]}, {"type": "way", "id": 362755626, "nodes": [3670144866, 3670144865, 3670144862, 3670144861, 3670144853, 3670144854, 3670144866]}, {"type": "way", "id": 362755627, "nodes": [3670144868, 3670144867, 3670144859, 3670144860, 3670144855, 3670144856, 3670144868]}, {"type": "way", "id": 726119799, "nodes": [6807793492, 6807793493, 6807793494, 6807793495, 6807793492], "tags": {"addr:district": "Bengaluru Rural", "addr:full": "No.3 & 3A, Hesarghatta Main Road,Chikkasandra,Next To Janapriya Apartment,Near Chikkabanavara Railway Station", "addr:postcode": "560090", "addr:state": "Karnataka", "amenity": "hospital", "healthcare": "hospital", "name": "Nrr Hospital", "source": "OpenGovernmentData"}}, {"type": "way", "id": 726190880, "nodes": [6808389338, 6808389339, 6808389340, 6808389341, 6808389338], "tags": {"addr:district": "Bengaluru Urban", "addr:full": "#18-23, Maliasandra Main Road,4Th & 5Th Cross, Bagalagunte,Hesaraghatta Road", "addr:postcode": "560057", "addr:state": "Karnataka", "amenity": "hospital", "building": "commercial", "name": "Arunodaya Hospitals", "name:kn": "\u0c85\u0cb0\u0cc1\u0ca3\u0ccb\u0ca6\u0caf \u0c86\u0cb8\u0ccd\u0caa\u0ca4\u0ccd\u0cb0\u0cc6", "source": "OpenGovernmentData"}}, {"type": "way", "id": 726342145, "nodes": [6808989940, 6808989941, 6808989942, 6808989943, 6808989944, 6808989945, 6808989946, 6808989947, 6808989948, 6808989949, 6808989950, 6808989951, 6808989952, 6808989953, 6808989940], "tags": {"addr:district": "Bengaluru Urban", "addr:full": "No.30 Hesaraghatta Road , T Dasarahalli", "addr:postcode": "560057", "addr:state": "Karnataka", "amenity": "hospital", "building": "commercial", "name": "Dr Ramachandra Hospital", "name:kn": "\u0cb0\u0cbe\u0cae\u0c9a\u0c82\u0ca6\u0ccd\u0cb0 \u0c86\u0cb8\u0ccd\u0caa\u0ca4\u0ccd\u0cb0\u0cc6", "source": "OpenGovernmentData"}}, {"type": "way", "id": 766720021, "nodes": [7160738537, 7160738536, 7160738535, 7160738534, 7160738537], "tags": {"amenity": "hospital", "name": "CRPF Hospital", "name:kn": "\u0c95\u0cc7\u0c82\u0ca6\u0ccd\u0cb0 \u0cae\u0cc0\u0cb8\u0cb2\u0cc1 \u0caa\u0ca1\u0cc6 \u0c86\u0cb8\u0ccd\u0caa\u0ca4\u0ccd\u0cb0\u0cc6", "wheelchair": "yes"}}, {"type": "way", "id": 773577275, "nodes": [7220757464, 7220757463, 7220757462, 7220757461, 7220757464], "tags": {"addr:postcode": "560064", "addr:state": "Karnataka", "addr:street": "3rd B Cross Road", "amenity": "hospital", "building": "hospital", "check_date": "2024-12-25", "name": "Navachethana Hospital", "source": "local knowledge", "wheelchair": "yes"}}, {"type": "way", "id": 963357010, "nodes": [8911141975, 8911141974, 8911141973, 8911141972, 8911141975], "tags": {"amenity": "hospital", "name": "NIKISA Dementia Village", "website": "https://carefordementia.in/"}}, {"type": "way", "id": 1073073120, "nodes": [7489451098, 9844348521, 9844348522, 9844348523, 7489451098], "tags": {"amenity": "hospital", "healthcare": "hospital", "name": "Prakriya Hospital", "wheelchair": "yes"}}, {"type": "way", "id": 1182880586, "nodes": [10984067907, 10984067906, 10984067905, 10983994604, 10984067907], "tags": {"amenity": "hospital", "name": "KPTCL Hospital Yelahanka"}}, {"type": "relation", "id": 5397008, "members": [{"type": "way", "ref": 362755627, "role": "inner"}, {"type": "way", "ref": 362755626, "role": "inner"}, {"type": "way", "ref": 362755622, "role": "outer"}], "tags": {"addr:district": "Bengaluru Rural", "addr:full": "#15, Chikkasandra, Hesaraghatta Main Road", "addr:postcode": "560090", "addr:state": "Karnataka", "amenity": "hospital", "building": "hospital", "healthcare": "hospital", "name": "Sapthagiri Hospital", "name:kn": "\u0cb8\u0caa\u0ccd\u0ca4\u0c97\u0cbf\u0cb0\u0cbf \u0c86\u0cb8\u0ccd\u0caa\u0ca4\u0ccd\u0cb0\u0cc6", "source": "OpenGovernmentData", "type": "multipolygon"}}]}