{"version": 0.6, "generator": "Overpass API 0.7.62.8 e802775f", "osm3s": {"timestamp_osm_base": "2026-01-15T08:49:44Z", "copyright": "The data included in this document is from www.openstreetmap.org. The data is made available under ODbL."}, "elements": [{"type": "node", "id": 918569845, "lat": 37.3781683, "lon": -6.045396, "tags": {"bench": "yes", "bin": "yes", "bus": "yes", "highway": "bus_stop", "lit": "yes", "name": "Rotonda del Torero", "public_transport": "platform", "ref": "3081", "shelter": "yes", "tactile_paving": "no"}}, {"type": "node", "id": 966242476, "lat": 37.4087364, "lon": -6.059589, "tags": {"bus": "yes", "highway": "bus_stop", "public_transport": "platform"}}, {"type": "node", "id": 1098709905, "lat": 37.3806543, "lon": -6.0451896, "tags": {"bench": "yes", "bin": "yes", "bus": "yes", "highway": "bus_stop", "lit": "yes", "public_transport": "platform", "shelter": "yes", "tactile_paving": "no"}}, {"type": "node", "id": 1098710397, "lat": 37.3837499, "lon": -6.0460468, "tags": {"bench": "yes", "bin": "no", "bus": "yes", "highway": "bus_stop", "lit": "yes", "public_transport": "platform", "shelter": "yes", "tactile_paving": "no"}}, {"type": "node", "id": 1123969070, "lat": 37.3805131, "lon": -6.0455588, "tags": {"bench": "yes", "bin": "yes", "bus": "yes", "highway": "bus_stop", "lit": "yes", "name": "Rta Entrada Parque (Frente)", "public_transport": "platform", "ref": "3080", "shelter": "yes", "source": "PNOA", "tactile_paving": "no"}}, {"type": "node", "id": 1233023370, "lat": 37.385382, "lon": -6.0369497, "tags": {"bench": "yes", "bin": "yes", "bus": "yes", "highway": "bus_stop", "lit": "yes", "name": "Coca de la Pi\u00f1era", "public_transport": "platform", "shelter": "yes", "tactile_paving": "yes"}}, {"type": "node", "id": 1236596113, "lat": 37.3792262, "lon": -6.0395136, "tags": {"bus": "yes", "highway": "bus_stop", "name": "Urbanizaci\u00f3n Villares Altos", "public_transport": "platform"}}, {"type": "node", "id": 1313457046, "lat": 37.4123286, "lon": -6.0363119}, {"type": "node", "id": 1834804800, "lat": 37.3873142, "lon": -6.0479703, "tags": {"bench": "no", "bus": "yes", "covered": "no", "highway": "bus_stop", "name": "Los Maristas", "operator": "Consorcio de Transportes \u00c1rea de Sevilla", "operator:type": "consortium", "public_transport": "platform", "shelter": "no"}}, {"type": "node", "id": 1835446049, "lat": 37.3870747, "lon": -6.0487422, "tags": {"bench": "yes", "bus": "yes", "covered": "yes", "highway": "bus_stop", "name": "Los Maristas", "operator": "Consorcio de Transportes \u00c1rea de Sevilla", "operator:type": "consortium", "public_transport": "platform", "shelter": "yes"}}, {"type": "node", "id": 2190490645, "lat": 37.3862644, "lon": -6.0527252, "tags": {"bench": "yes", "bus": "yes", "covered": "yes", "highway": "bus_stop", "name": "Irlandesas", "operator": "Consorcio de Transportes \u00c1rea de Sevilla", "operator:type": "consortium", "public_transport": "platform", "shelter": "yes"}}, {"type": "node", "id": 2190490667, "lat": 37.386426, "lon": -6.052195, "tags": {"bench": "yes", "bus": "yes", "covered": "yes", "highway": "bus_stop", "name": "Irlandesas", "operator": "Consorcio de Transportes \u00c1rea de Sevilla", "operator:type": "consortium", "public_transport": "platform", "shelter": "yes"}}, {"type": "node", "id": 2190490753, "lat": 37.388043, "lon": -6.0413158, "tags": {"bench": "yes", "bin": "yes", "bus": "yes", "highway": "bus_stop", "name": "El Carambolo", "operator": "Consorcio de Transportes \u00c1rea de Sevilla", "operator:type": "consortium", "public_transport": "platform", "shelter": "yes"}}, {"type": "node", "id": 2190490758, "lat": 37.3883384, "lon": -6.0416404, "tags": {"bench": "yes", "bin": "yes", "bus": "yes", "check_date:bench": "2023-01-19", "covered": "yes", "highway": "bus_stop", "name": "El Carambolo", "operator": "Consorcio de Transportes \u00c1rea de Sevilla", "operator:type": "consortium", "public_transport": "platform", "shelter": "yes"}}, {"type": "node", "id": 2190490769, "lat": 37.3887999, "lon": -6.031946, "tags": {"bench": "yes", "bin": "yes", "bus": "yes", "covered": "yes", "highway": "bus_stop", "name": "La Pa\u00f1oleta", "operator": "Consorcio de Transportes \u00c1rea de Sevilla", "operator:type": "consortium", "public_transport": "platform", "ref": "2320", "shelter": "yes"}}, {"type": "node", "id": 2497077009, "lat": 37.4004744, "lon": -6.0368322, "tags": {"bus": "yes", "highway": "bus_stop", "name": "Apeadero de Autobuses", "public_transport": "platform", "ref": "2310"}}, {"type": "node", "id": 2968627233, "lat": 37.399873, "lon": -6.0473896, "tags": {"bench": "yes", "bin": "yes", "bus": "yes", "check_date:shelter": "2024-07-16", "highway": "bus_stop", "lit": "no", "name": "Ca\u00f1oronco", "public_transport": "platform", "shelter": "yes", "source": "survey", "tactile_paving": "yes"}}, {"type": "node", "id": 3280700222, "lat": 37.4153296, "lon": -6.0386146}, {"type": "node", "id": 3382140642, "lat": 37.3781159, "lon": -6.0456453, "tags": {"bench": "yes", "bin": "yes", "bus": "yes", "highway": "bus_stop", "lit": "yes", "public_transport": "platform", "shelter": "yes", "tactile_paving": "no"}}, {"type": "node", "id": 3382140643, "lat": 37.3784401, "lon": -6.0616508, "tags": {"bus": "yes", "highway": "bus_stop", "name": "Avd Juan Carlos I Farmacia", "public_transport": "platform", "ref": "2383"}}, {"type": "node", "id": 3382140644, "lat": 37.3799779, "lon": -6.0624267, "tags": {"bus": "yes", "highway": "bus_stop", "name": "Avd Juan Carlos I ONCE", "public_transport": "platform", "ref": "2382"}}, {"type": "node", "id": 3731558179, "lat": 37.3902827, "lon": -6.0551232, "tags": {"bench": "no", "bus": "yes", "highway": "bus_stop", "name": "Parque Los Olivos", "operator": "Consorcio de Transportes del \u00c1rea de Sevilla", "operator:type": "consortium", "public_transport": "platform", "shelter": "no"}}, {"type": "node", "id": 3731558180, "lat": 37.3904019, "lon": -6.0551252, "tags": {"bench": "no", "bus": "yes", "highway": "bus_stop", "name": "Parque Los Olivos", "operator": "Consorcio de Transportes del \u00c1rea de Sevilla", "operator:type": "consortium", "public_transport": "platform", "shelter": "no"}}, {"type": "node", "id": 3837978680, "lat": 37.3847679, "lon": -6.0665737, "tags": {"bus": "yes", "highway": "bus_stop", "name": "Hotel Gines", "operator": "Consorcio de Transportes \u00c1rea de Sevilla", "operator:type": "consortium", "public_transport": "platform"}}, {"type": "node", "id": 3837978681, "lat": 37.3847429, "lon": -6.0634892, "tags": {"bench": "yes", "bin": "yes", "bus": "yes", "highway": "bus_stop", "name": "Muebles Castellano", "operator": "Consorcio de Transportes \u00c1rea de Sevilla", "operator:type": "consortium", "public_transport": "platform", "shelter": "yes"}}, {"type": "node", "id": 3837978682, "lat": 37.3848093, "lon": -6.0600361, "tags": {"bus": "yes", "highway": "bus_stop", "name": "Hacienda San Ignacio", "operator": "Consorcio de Transportes \u00c1rea de Sevilla", "operator:type": "consortium", "public_transport": "platform"}}, {"type": "node", "id": 3837978683, "lat": 37.3847597, "lon": -6.0596788, "tags": {"bus": "yes", "highway": "bus_stop", "name": "Hacienda San Ignacio", "operator": "Consorcio de Transportes \u00c1rea de Sevilla", "operator:type": "consortium", "public_transport": "platform"}}, {"type": "node", "id": 3837978684, "lat": 37.3845955, "lon": -6.0625331, "tags": {"bus": "yes", "highway": "bus_stop", "name": "Muebles Castellano", "operator": "Consorcio de Transportes \u00c1rea de Sevilla", "operator:type": "consortium", "public_transport": "platform"}}, {"type": "node", "id": 3837978685, "lat": 37.3846221, "lon": -6.0669931, "tags": {"bench": "yes", "bus": "yes", "highway": "bus_stop", "name": "Hotel Gines", "operator": "Consorcio de Transportes \u00c1rea de Sevilla", "operator:type": "consortium", "public_transport": "platform", "shelter": "yes"}}, {"type": "node", "id": 3837995696, "lat": 37.3854823, "lon": -6.0563793, "tags": {"bench": "yes", "bus": "yes", "covered": "yes", "highway": "bus_stop", "name": "Opencor", "operator": "Consorcio de Transportes \u00c1rea de Sevilla", "operator:type": "consortium", "public_transport": "platform", "shelter": "yes"}}, {"type": "node", "id": 3837995697, "lat": 37.3857329, "lon": -6.0557578, "tags": {"bench": "no", "bus": "yes", "covered": "no", "highway": "bus_stop", "operator": "Consorcio de Transportes \u00c1rea de Sevilla", "operator:type": "consortium", "public_transport": "platform", "shelter": "no"}}, {"type": "node", "id": 3964580149, "lat": 37.4087164, "lon": -6.0363567}, {"type": "node", "id": 3964580150, "lat": 37.4100571, "lon": -6.0361371}, {"type": "node", "id": 3964580154, "lat": 37.4112852, "lon": -6.0360084}, {"type": "node", "id": 3964580155, "lat": 37.4119413, "lon": -6.0361376}, {"type": "node", "id": 3964580156, "lat": 37.4126266, "lon": -6.0364735}, {"type": "node", "id": 3964580357, "lat": 37.4134126, "lon": -6.0370266}, {"type": "node", "id": 3964580358, "lat": 37.4137176, "lon": -6.0372259}, {"type": "node", "id": 3964580359, "lat": 37.4159401, "lon": -6.0392115}, {"type": "node", "id": 4117735071, "lat": 37.3910387, "lon": -6.0338154, "tags": {"bench": "yes", "bin": "yes", "bus": "yes", "check_date:bench": "2025-01-25", "covered": "yes", "highway": "bus_stop", "lit": "no", "name": "El Chato", "operator": "Consorcio de Transportes \u00c1rea de Sevilla", "operator:type": "consortium", "public_transport": "platform", "ref": "2321", "shelter": "yes", "tactile_paving": "no"}}, {"type": "node", "id": 4238190163, "lat": 37.4053677, "lon": -6.0366776}, {"type": "node", "id": 4301232015, "lat": 37.3877656, "lon": -6.0458274, "tags": {"bench": "no", "bus": "yes", "covered": "no", "highway": "bus_stop", "lit": "yes", "name": "Camino del Agua", "operator": "Consorcio de Transportes del \u00c1rea de Sevilla", "operator:type": "consortium", "public_transport": "platform", "shelter": "no", "tactile_paving": "no"}}, {"type": "node", "id": 4301232018, "lat": 37.3883893, "lon": -6.0488162, "tags": {"bus": "yes", "highway": "bus_stop", "name": "Centro Discapacitados", "operator": "Consorcio de Transportes del \u00c1rea de Sevilla", "operator:type": "consortium", "public_transport": "platform"}}, {"type": "node", "id": 4301232019, "lat": 37.3895416, "lon": -6.0517543, "tags": {"bus": "yes", "highway": "bus_stop", "name": "Piscina Municipal", "operator": "Consorcio de Transportes del \u00c1rea de Sevilla", "operator:type": "consortium", "public_transport": "platform"}}, {"type": "node", "id": 4301232020, "lat": 37.3914717, "lon": -6.0610588, "tags": {"bus": "yes", "highway": "bus_stop", "name": "Hospital Nisa", "operator": "Consorcio de Transportes del \u00c1rea de Sevilla", "operator:type": "consortium", "public_transport": "platform"}}, {"type": "node", "id": 4301232021, "lat": 37.386956, "lon": -6.0606215, "tags": {"bench": "no", "bus": "yes", "covered": "no", "highway": "bus_stop", "name": "Pl\u00e1cido Fern\u00e1ndez", "operator": "Consorcio de Transportes del \u00c1rea de Sevilla", "operator:type": "consortium", "public_transport": "platform", "shelter": "no"}}, {"type": "node", "id": 4301232022, "lat": 37.3853906, "lon": -6.060573, "tags": {"bus": "yes", "highway": "bus_stop", "name": "Virgen del Roc\u00edo - Geranio", "operator": "Consorcio de Transportes del \u00c1rea de Sevilla", "operator:type": "consortium", "public_transport": "platform"}}, {"type": "node", "id": 4301232023, "lat": 37.3883725, "lon": -6.0452181, "tags": {"bench": "no", "bin": "no", "bus": "yes", "highway": "bus_stop", "lit": "yes", "name": "Camino del Agua", "operator": "Consorcio de Transportes del \u00c1rea de Sevilla", "operator:type": "consortium", "public_transport": "platform", "shelter": "no", "tactile_paving": "no"}}, {"type": "node", "id": 4301232024, "lat": 37.3883015, "lon": -6.0488553, "tags": {"bus": "yes", "highway": "bus_stop", "name": "Centro Discapacitados", "operator": "Consorcio de Transportes del \u00c1rea de Sevilla", "operator:type": "consortium", "public_transport": "platform"}}, {"type": "node", "id": 4301232025, "lat": 37.3894537, "lon": -6.051782, "tags": {"bus": "yes", "highway": "bus_stop", "name": "Piscina Municipal", "operator": "Consorcio de Transportes del \u00c1rea de Sevilla", "operator:type": "consortium", "public_transport": "platform"}}, {"type": "node", "id": 4301232026, "lat": 37.3920048, "lon": -6.0612504, "tags": {"bus": "yes", "highway": "bus_stop", "name": "Hospital Nisa", "operator": "Consorcio de Transportes del \u00c1rea de Sevilla", "operator:type": "consortium", "public_transport": "platform"}}, {"type": "node", "id": 4301232027, "lat": 37.386385, "lon": -6.0607478, "tags": {"bus": "yes", "highway": "bus_stop", "name": "Virgen del Roc\u00edo - 1\u00aa", "operator": "Consorcio de Transportes del \u00c1rea de Sevilla", "operator:type": "consortium", "public_transport": "platform"}}, {"type": "node", "id": 4301232028, "lat": 37.3853261, "lon": -6.0607114, "tags": {"bus": "yes", "highway": "bus_stop", "name": "Virgen del Roc\u00edo - 2\u00aa", "operator": "Consorcio de Transportes del \u00c1rea de Sevilla", "operator:type": "consortium", "public_transport": "platform"}}, {"type": "node", "id": 5041891595, "lat": 37.4094707, "lon": -6.0362377}, {"type": "node", "id": 5041891596, "lat": 37.4165583, "lon": -6.0399116}, {"type": "node", "id": 5041891597, "lat": 37.4161139, "lon": -6.0394093}, {"type": "node", "id": 5528348762, "lat": 37.4102299, "lon": -6.0361003}, {"type": "node", "id": 5528348763, "lat": 37.4103904, "lon": -6.036042}, {"type": "node", "id": 5528348764, "lat": 37.4105539, "lon": -6.0360129}, {"type": "node", "id": 5528348765, "lat": 37.4107197, "lon": -6.035999}, {"type": "node", "id": 5528348766, "lat": 37.4108884, "lon": -6.0359972}, {"type": "node", "id": 5528348767, "lat": 37.4111002, "lon": -6.0359922}, {"type": "node", "id": 5528348768, "lat": 37.4114205, "lon": -6.0360269}, {"type": "node", "id": 5531926631, "lat": 37.4071331, "lon": -6.0364883}, {"type": "node", "id": 5557118515, "lat": 37.4022545, "lon": -6.0372624}, {"type": "node", "id": 5557118516, "lat": 37.4021285, "lon": -6.0372547}, {"type": "node", "id": 5557118517, "lat": 37.4021268, "lon": -6.0372985}, {"type": "node", "id": 5557118518, "lat": 37.4019969, "lon": -6.0372905}, {"type": "node", "id": 5557118519, "lat": 37.4019989, "lon": -6.0372393}, {"type": "node", "id": 5557118520, "lat": 37.4018922, "lon": -6.0372328}, {"type": "node", "id": 5557119621, "lat": 37.4018968, "lon": -6.0371144}, {"type": "node", "id": 5557119622, "lat": 37.4022594, "lon": -6.0371367}, {"type": "node", "id": 5887329043, "lat": 37.3909641, "lon": -6.0395893, "tags": {"bench": "no", "bus": "yes", "highway": "bus_stop", "name": "M-173 Camas Circular", "network": "Consorcio de Transportes", "passenger_information_display": "yes", "public_transport": "platform", "shelter": "no"}}, {"type": "node", "id": 6543296352, "lat": 37.3811984, "lon": -6.0486291, "tags": {"bench": "yes", "bin": "yes", "bus": "yes", "highway": "bus_stop", "public_transport": "platform", "shelter": "yes"}}, {"type": "node", "id": 6543296353, "lat": 37.3797189, "lon": -6.0514784, "tags": {"bench": "yes", "bus": "yes", "highway": "bus_stop", "name": "Calle Pablo Picasso", "public_transport": "platform", "ref": "3104", "shelter": "yes"}}, {"type": "node", "id": 6543299526, "lat": 37.3781316, "lon": -6.0418969, "tags": {"bus": "yes", "highway": "bus_stop", "public_transport": "platform"}}, {"type": "node", "id": 6594341947, "lat": 37.3973961, "lon": -6.0343608, "tags": {"bus": "yes", "highway": "bus_stop", "name": "Mercadona", "public_transport": "platform", "ref": "2308"}}, {"type": "node", "id": 6594341948, "lat": 37.3963477, "lon": -6.0345612, "tags": {"bus": "yes", "highway": "bus_stop", "name": "Barriada la Extreme\u00f1a", "public_transport": "platform", "ref": "2305", "shelter": "yes"}}, {"type": "node", "id": 6594369996, "lat": 37.3985058, "lon": -6.0347436, "tags": {"bench": "yes", "bin": "yes", "bus": "yes", "highway": "bus_stop", "name": "Calle Jos\u00e9 Pay\u00e1n", "public_transport": "platform", "ref": "2296", "shelter": "yes"}}, {"type": "node", "id": 6678079706, "lat": 37.4082322, "lon": -6.0364011}, {"type": "node", "id": 7399957170, "lat": 37.3920937, "lon": -6.0330523, "tags": {"bench": "yes", "bin": "yes", "bus": "yes", "check_date:shelter": "2023-01-20", "departures_board": "timetable", "highway": "bus_stop", "name": "Carrefour Camas", "operator": "Consorcio de Transpores del \u00c1rea de Sevilla", "operator:type": "consortium", "public_transport": "platform", "ref": "2316", "shelter": "yes"}}, {"type": "node", "id": 8515752915, "lat": 37.3825762, "lon": -6.0450842, "tags": {"bench": "yes", "bin": "yes", "bus": "yes", "departures_board": "timetable", "highway": "bus_stop", "lit": "yes", "name": "Airesur-IKEA (Colina Blanca)", "operator": "Consorcio de Transportes de \u00c1rea de Sevilla", "operator:type": "consortium", "public_transport": "platform", "ref": "2381", "shelter": "yes", "tactile_paving": "no"}}, {"type": "node", "id": 9034676325, "lat": 37.3798981, "lon": -6.0625219, "tags": {"bus": "yes", "highway": "bus_stop", "name": "Avd Juan Carlos I ONCE", "public_transport": "platform", "ref": "2388"}}, {"type": "node", "id": 9034676326, "lat": 37.3784296, "lon": -6.061846, "tags": {"bus": "yes", "highway": "bus_stop", "name": "Avd Juan Carlos I Farmacia", "public_transport": "platform", "ref": "2389"}}, {"type": "node", "id": 9950841923, "lat": 37.4015151, "lon": -6.0434572, "tags": {"bus": "yes", "departures_board": "timetable", "highway": "bus_stop", "operator": "Consorcio de Transporte Metropolitano del \u00c1rea de Sevilla", "operator:type": "consortium", "public_transport": "platform", "shelter": "yes"}}, {"type": "node", "id": 10709086505, "lat": 37.4072184, "lon": -6.0364781}, {"type": "node", "id": 12529790478, "lat": 37.3813509, "lon": -6.0391158, "tags": {"bench": "no", "bin": "no", "bus": "yes", "highway": "bus_stop", "lit": "yes", "public_transport": "platform", "shelter": "no", "tactile_paving": "no"}}, {"type": "node", "id": 12529792257, "lat": 37.3809545, "lon": -6.034973, "tags": {"bench": "no", "bin": "yes", "bus": "yes", "highway": "bus_stop", "lit": "yes", "public_transport": "platform", "shelter": "no", "tactile_paving": "no"}}, {"type": "node", "id": 12529813424, "lat": 37.3807567, "lon": -6.0348474, "tags": {"bench": "yes", "bin": "yes", "bus": "yes", "highway": "bus_stop", "lit": "yes", "public_transport": "platform", "shelter": "yes", "tactile_paving": "yes"}}, {"type": "node", "id": 12529820928, "lat": 37.3779933, "lon": -6.034, "tags": {"bench": "yes", "bin": "no", "bus": "yes", "highway": "bus_stop", "lit": "yes", "public_transport": "platform", "shelter": "yes", "tactile_paving": "no"}}, {"type": "node", "id": 12529843259, "lat": 37.3781618, "lon": -6.0338544, "tags": {"bench": "no", "bin": "no", "bus": "yes", "highway": "bus_stop", "lit": "yes", "public_transport": "platform", "shelter": "no", "tactile_paving": "no"}}, {"type": "node", "id": 12539073473, "lat": 37.3794399, "lon": -6.0650634, "tags": {"bench": "no", "bin": "yes", "bus": "yes", "highway": "bus_stop", "public_transport": "platform", "shelter": "no"}}, {"type": "way", "id": 393245338, "nodes": [3964580150, 5528348762, 5528348763, 5528348764, 5528348765, 5528348766, 5528348767, 3964580154, 5528348768, 3964580155, 1313457046], "tags": {"highway": "cycleway", "railway": "abandoned", "surface": "paved"}}, {"type": "way", "id": 424393058, "nodes": [10709086505, 6678079706, 3964580149], "tags": {"highway": "cycleway", "railway": "abandoned", "surface": "ground"}}, {"type": "way", "id": 516488262, "nodes": [5041891595, 3964580150], "tags": {"bridge": "yes", "highway": "cycleway", "layer": "1", "railway": "abandoned", "surface": "paved"}}, {"type": "way", "id": 580540779, "nodes": [5557118515, 5557118516, 5557118517, 5557118518, 5557118519, 5557118520, 5557119621, 5557119622, 5557118515], "tags": {"building": "yes", "disused:railway": "station", "name": "Antigua estaci\u00f3n de Camas", "public_transport": "station", "wikidata": "Q97922894", "wikimedia_commons": "Category:Antigua estaci\u00f3n de Camas", "wikipedia": "es:Antigua estaci\u00f3n de Camas"}}, {"type": "way", "id": 1151188638, "nodes": [4238190163, 5531926631], "tags": {"highway": "cycleway", "railway": "abandoned", "surface": "paved"}}, {"type": "way", "id": 1296427277, "nodes": [3964580149, 5041891595], "tags": {"highway": "cycleway", "railway": "abandoned", "surface": "ground"}}, {"type": "way", "id": 1346393559, "nodes": [5531926631, 10709086505], "tags": {"highway": "cycleway", "railway": "abandoned", "surface": "paved"}}, {"type": "way", "id": 1346393560, "nodes": [1313457046, 3964580156, 3964580357, 3964580358, 3280700222, 3964580359, 5041891597, 5041891596], "tags": {"highway": "cycleway", "railway": "abandoned", "surface": "paved"}}]}