{"version": 0.6, "generator": "Overpass API 0.7.62.8 e802775f", "osm3s": {"timestamp_osm_base": "2026-01-12T05:59:53Z", "copyright": "The data included in this document is from www.openstreetmap.org. The data is made available under ODbL."}, "elements": [{"type": "node", "id": 313027845, "lat": 13.0375371, "lon": 80.1386465}, {"type": "node", "id": 313027846, "lat": 13.0414008, "lon": 80.1392685}, {"type": "node", "id": 313027847, "lat": 13.042607, "lon": 80.1398808}, {"type": "node", "id": 313027848, "lat": 13.0437319, "lon": 80.1455092}, {"type": "node", "id": 313027850, "lat": 13.0373772, "lon": 80.1452797}, {"type": "node", "id": 313027851, "lat": 13.0372001, "lon": 80.1464013}, {"type": "node", "id": 313027852, "lat": 13.0363943, "lon": 80.1464057}, {"type": "node", "id": 313027868, "lat": 13.0380979, "lon": 80.1428047, "tags": {"amenity": "hospital", "healthcare": "hospital", "name": "Sri Ramachandra Medical Centre and Hospital"}}, {"type": "node", "id": 364650995, "lat": 13.0211808, "lon": 80.1858412, "tags": {"addr:district": "Chennai", "addr:full": "Manapakkam, 4/112, Mount Poonamalle Road", "addr:postcode": "600089", "addr:state": "Tamil Nadu", "addr:street": "4/112, Mount Poonamalle High Rd, Sathya Nagar, Manapakkam, Chennai, Tamil Nadu 600089", "amenity": "hospital", "email": "enq@miothospitals.com", "healthcare": "hospital", "name": "MIOT International", "opening_hours": "24/7", "operator:type": "private", "phone": "044 4200 2288", "source": "OpenGovernmentData", "website": "https://www.miotinternational.com/"}}, {"type": "node", "id": 384726702, "lat": 13.0506465, "lon": 80.099335}, {"type": "node", "id": 384726703, "lat": 13.050379, "lon": 80.0993092}, {"type": "node", "id": 384726704, "lat": 13.0502368, "lon": 80.099601}, {"type": "node", "id": 384726705, "lat": 13.0506382, "lon": 80.0996268}, {"type": "node", "id": 1015571498, "lat": 13.0331325, "lon": 80.1810857, "tags": {"addr:district": "Tiruvallur", "addr:full": "50 Bharathi Street, Ramapuram", "addr:postcode": "600089", "addr:state": "Tamil Nadu", "amenity": "hospital", "healthcare": "hospital", "name": "Srm Speciality Hospital", "source": "OpenGovernmentData"}}, {"type": "node", "id": 1015571601, "lat": 13.0321291, "lon": 80.1801201, "tags": {"amenity": "hospital", "healthcare": "hospital", "name": "SRM Dental Hospital"}}, {"type": "node", "id": 1833926660, "lat": 13.0575206, "lon": 80.127824, "tags": {"amenity": "hospital", "emergency": "yes", "name": "ACS Medical College And Hospital", "name:etymology:wikidata": "Q4647623"}}, {"type": "node", "id": 2072479943, "lat": 13.0358564, "lon": 80.1644897, "tags": {"amenity": "hospital", "emergency": "no", "name": "JK Hospital"}}, {"type": "node", "id": 2794348661, "lat": 13.0405941, "lon": 80.1784622, "tags": {"addr:block": "Chennai Zone Xi", "addr:district": "Chennai", "addr:full": "81-85, Near Indian Bank & Andhra Meals Hotel, Valasaravakkam", "addr:postcode": "600087", "addr:state": "Tamil Nadu", "amenity": "hospital", "emergency": "yes", "healthcare:speciality": "Cataract; Cornea and Refractive; Cornea; Lasik; Refractive; Contact Lens; Retina; Orbit and Oculoplasty; Glaucoma; Uvea; Neuro Ophthalmology; Squint and Pediatric Ophthalmolog", "name": "A.N.N Hospital", "source": "OpenGovernmentData"}}, {"type": "node", "id": 2966142809, "lat": 13.0705042, "lon": 80.150612, "tags": {"addr:full": "Plot No 64, Vanagaram-Ambattur Rd, Ayanambakkam", "addr:postcode": "600095", "addr:state": "Tamil Nadu", "addr:subdistrict": "Ambattur", "amenity": "hospital", "name": "Appolo Speciality Hospital Vanagram", "source": "OpenGovernmentData"}}, {"type": "node", "id": 3606759079, "lat": 13.0307626, "lon": 80.1719283}, {"type": "node", "id": 3606759497, "lat": 13.0308788, "lon": 80.1715273}, {"type": "node", "id": 3606759519, "lat": 13.0308533, "lon": 80.171956}, {"type": "node", "id": 3606759539, "lat": 13.0309696, "lon": 80.171555}, {"type": "node", "id": 4411855589, "lat": 13.026489, "lon": 80.1829882, "tags": {"amenity": "hospital"}}, {"type": "node", "id": 4936671730, "lat": 13.0038364, "lon": 80.1119097}, {"type": "node", "id": 4936671731, "lat": 13.0038388, "lon": 80.1119297}, {"type": "node", "id": 4936671732, "lat": 13.0037711, "lon": 80.111948}, {"type": "node", "id": 4936671733, "lat": 13.0037613, "lon": 80.1119097}, {"type": "node", "id": 4936671734, "lat": 13.0036471, "lon": 80.1117961}, {"type": "node", "id": 4936671735, "lat": 13.0037069, "lon": 80.1117988}, {"type": "node", "id": 4936671736, "lat": 13.0037085, "lon": 80.1117605}, {"type": "node", "id": 4936671737, "lat": 13.0036488, "lon": 80.1117578}, {"type": "node", "id": 4936671738, "lat": 13.0037137, "lon": 80.1120266}, {"type": "node", "id": 4936671739, "lat": 13.0037115, "lon": 80.1121054}, {"type": "node", "id": 4936671740, "lat": 13.0036531, "lon": 80.1121037}, {"type": "node", "id": 4936671741, "lat": 13.0036553, "lon": 80.1120248}, {"type": "node", "id": 4936671742, "lat": 13.0037359, "lon": 80.1119024}, {"type": "node", "id": 4936671743, "lat": 13.0037318, "lon": 80.1119903}, {"type": "node", "id": 4936671744, "lat": 13.0036328, "lon": 80.1119854}, {"type": "node", "id": 4936671745, "lat": 13.0036369, "lon": 80.1118976}, {"type": "node", "id": 4936671746, "lat": 13.0037097, "lon": 80.1116911}, {"type": "node", "id": 4936671747, "lat": 13.0037097, "lon": 80.1117106}, {"type": "node", "id": 4936671748, "lat": 13.0038345, "lon": 80.1117159}, {"type": "node", "id": 4936671749, "lat": 13.0038332, "lon": 80.1116965}, {"type": "node", "id": 4936671750, "lat": 13.0039619, "lon": 80.1117019}, {"type": "node", "id": 4936671751, "lat": 13.0039658, "lon": 80.1116442}, {"type": "node", "id": 4936671752, "lat": 13.0040893, "lon": 80.1116522}, {"type": "node", "id": 4936671753, "lat": 13.0040945, "lon": 80.1116221}, {"type": "node", "id": 4936671754, "lat": 13.004169, "lon": 80.1116274}, {"type": "node", "id": 4936671755, "lat": 13.0041677, "lon": 80.111661}, {"type": "node", "id": 4936671756, "lat": 13.0043238, "lon": 80.1116697}, {"type": "node", "id": 4936671757, "lat": 13.0043245, "lon": 80.1116985}, {"type": "node", "id": 4936671758, "lat": 13.004365, "lon": 80.1117012}, {"type": "node", "id": 4936671759, "lat": 13.0043617, "lon": 80.1117984}, {"type": "node", "id": 4936671760, "lat": 13.0044081, "lon": 80.1117977}, {"type": "node", "id": 4936671761, "lat": 13.0044068, "lon": 80.1116978}, {"type": "node", "id": 4936671762, "lat": 13.0046133, "lon": 80.1117099}, {"type": "node", "id": 4936671763, "lat": 13.0045983, "lon": 80.1120029}, {"type": "node", "id": 4936671764, "lat": 13.0045244, "lon": 80.1120713}, {"type": "node", "id": 4936671765, "lat": 13.0041468, "lon": 80.1120593}, {"type": "node", "id": 4936671766, "lat": 13.0041494, "lon": 80.1119547}, {"type": "node", "id": 4936671767, "lat": 13.004054, "lon": 80.1118333}, {"type": "node", "id": 4936671768, "lat": 13.0039736, "lon": 80.1118608}, {"type": "node", "id": 4936671769, "lat": 13.0040089, "lon": 80.1119131}, {"type": "node", "id": 4936671770, "lat": 13.0039462, "lon": 80.1119359}, {"type": "node", "id": 4936671771, "lat": 13.0039606, "lon": 80.1119681}, {"type": "node", "id": 4936671772, "lat": 13.0039815, "lon": 80.1119587}, {"type": "node", "id": 4936671773, "lat": 13.0039919, "lon": 80.1120096}, {"type": "node", "id": 4936671774, "lat": 13.0038247, "lon": 80.1120512}, {"type": "node", "id": 4936671775, "lat": 13.0038456, "lon": 80.1121344}, {"type": "node", "id": 4936671776, "lat": 13.0037842, "lon": 80.1121531}, {"type": "node", "id": 4936671777, "lat": 13.0037803, "lon": 80.1121947}, {"type": "node", "id": 4936671778, "lat": 13.0035176, "lon": 80.1121786}, {"type": "node", "id": 4936671779, "lat": 13.0035307, "lon": 80.1119815}, {"type": "node", "id": 4936671780, "lat": 13.0035646, "lon": 80.1119842}, {"type": "node", "id": 4936671781, "lat": 13.0035777, "lon": 80.1116878}, {"type": "node", "id": 6755994529, "lat": 13.0437189, "lon": 80.145925}, {"type": "node", "id": 6755994530, "lat": 13.0437214, "lon": 80.1457728}, {"type": "node", "id": 6755994531, "lat": 13.0437281, "lon": 80.1456042}, {"type": "node", "id": 6914280093, "lat": 13.042307, "lon": 80.177473, "tags": {"addr:district": "Tiruvallur", "addr:full": "153, Arcot Road, Sai Square Complex Valasaravakkam Chennai Chennai", "addr:postcode": "600087", "addr:state": "Tamil Nadu", "amenity": "hospital", "name": "Rakshith Hospitals", "source": "OpenGovernmentData"}}, {"type": "node", "id": 6914768069, "lat": 13.0229098, "lon": 80.1670808, "tags": {"addr:city": "\u0b9a\u0bc6\u0ba9\u0bcd\u0ba9\u0bc8 - Chennai", "addr:district": "Kanchipuram", "addr:full": "19, Vinayagapuram, Mugalivakkam Main Road Porur", "addr:housenumber": "19", "addr:postcode": "600125", "addr:state": "Tamil Nadu", "addr:street": "Mugalivakkam Main Road", "amenity": "hospital", "healthcare": "hospital", "healthcare:speciality": "general;paediatrics", "name": "Kedar Hospital", "source": "OpenGovernmentData", "wheelchair": "yes"}}, {"type": "node", "id": 6914937617, "lat": 13.0378713, "lon": 80.1402023, "tags": {"addr:district": "Kanchipuram", "addr:full": "No.1, Ramchandra Nagar", "addr:postcode": "600016", "addr:state": "Tamil Nadu", "amenity": "hospital", "name": "Sri Ramachandra Hospital", "source": "OpenGovernmentData"}}, {"type": "node", "id": 6915520031, "lat": 13.0459064, "lon": 80.1136042, "tags": {"addr:district": "Tiruvallur", "addr:full": "399, Trunk Road, Karayanchavadi, Poonamallee", "addr:postcode": "600056", "addr:state": "Tamil Nadu", "amenity": "hospital", "name": "D.R.R. Eye Hospital", "source": "OpenGovernmentData"}}, {"type": "node", "id": 6927054448, "lat": 13.050709, "lon": 80.0960022, "tags": {"addr:district": "Tiruvallur", "addr:full": "No.1, J.C.N. Street, Poonamallee", "addr:postcode": "600056", "addr:state": "Tamil Nadu", "amenity": "hospital", "healthcare": "hospital", "name": "Mangalam Hospital, Tiruvallur", "source": "OpenGovernmentData"}}, {"type": "node", "id": 6927359623, "lat": 13.0099884, "lon": 80.1223294, "tags": {"addr:district": "Kanchipuram", "addr:full": "No:3/225 Kundrathur Main Road Kovur", "addr:postcode": "600122", "addr:state": "Tamil Nadu", "amenity": "hospital", "healthcare": "hospital", "name": "Kanaga Hospital", "source": "OpenGovernmentData"}}, {"type": "node", "id": 6930464973, "lat": 13.0459338, "lon": 80.1131429, "tags": {"addr:district": "Tiruvallur", "addr:full": "No 387 Drr Complex 1st Floor,Opposite Indian Oil Petrol Pump,Trunk Road,Karaiyanchavadi,Chennai", "addr:postcode": "600056", "addr:state": "Tamil Nadu", "amenity": "hospital", "name": "Chinnammal Ent Hospital", "source": "OpenGovernmentData"}}, {"type": "node", "id": 6933831617, "lat": 13.0411063, "lon": 80.1747546, "tags": {"addr:district": "Tiruvallur", "addr:full": "No 50, Arcot Road, Valasaravakkam", "addr:postcode": "600087", "addr:state": "Tamil Nadu", "amenity": "hospital", "name": "Vasan Eye Care Hospital, Valasaravakkam", "source": "OpenGovernmentData"}}, {"type": "node", "id": 6934186203, "lat": 12.9857914, "lon": 80.185987, "tags": {"addr:district": "Chennai", "addr:full": "No.1, 47th Street, 5th Main Road", "addr:postcode": "600 061", "addr:state": "Tamil Nadu", "addr:subdistrict": "Nanganallur", "amenity": "hospital", "email": "info@cmhospital.in", "healthcare": "hospital", "name": "Sri Venkateshwara`s C.M. Hospital", "operator:type": "private", "source": "OpenGovernmentData", "website": "https://cmhospital.in/"}}, {"type": "node", "id": 6936244762, "lat": 13.0449677, "lon": 80.1846506, "tags": {"addr:district": "Tiruvallur", "addr:full": "1, Jawaharlal Nehru Street, Valasarawakkam, Alwarthirunagar", "addr:postcode": "600087", "addr:state": "Tamil Nadu", "amenity": "hospital", "healthcare": "hospital", "name": "Royal Hospital - Chennai", "source": "OpenGovernmentData"}}, {"type": "node", "id": 6936264375, "lat": 13.0309126, "lon": 80.1715896, "tags": {"addr:district": "Kanchipuram", "addr:full": "36, Poothapedu Main Road, Vengadeswar Nagar, Perur", "addr:postcode": "600116", "addr:state": "Tamil Nadu", "amenity": "hospital", "name": "Viganesh Hospital", "source": "OpenGovernmentData"}}, {"type": "node", "id": 6936386662, "lat": 13.0381353, "lon": 80.1619336, "tags": {"addr:district": "Kanchipuram", "addr:full": "No 49, Aruot Road Porur Porur Chennai", "addr:postcode": "600116", "addr:state": "Tamil Nadu", "amenity": "hospital", "name": "Dr Agarwals Eye Hospital Ltd, Chennai", "source": "OpenGovernmentData"}}, {"type": "node", "id": 6936434314, "lat": 13.0353484, "lon": 80.1822808, "tags": {"addr:district": "Kanchipuram", "addr:full": "No.1, Padmavathy Street, Thirumalai, Ramapuram", "addr:postcode": "600089", "addr:state": "Tamil Nadu", "amenity": "hospital", "name": "Srushti Hospital, Kanchipuram", "source": "OpenGovernmentData"}}, {"type": "node", "id": 6937398987, "lat": 13.0345893, "lon": 80.1836944, "tags": {"addr:district": "Kanchipuram", "addr:full": "No: 3/49, Valluvar Salai, Ramapuram", "addr:postcode": "600089", "addr:state": "Tamil Nadu", "amenity": "hospital", "name": "Roy's Heart Foundation", "source": "OpenGovernmentData"}}, {"type": "node", "id": 7252333346, "lat": 13.0692631, "lon": 80.1799109, "tags": {"addr:block": "Chennai Zone Xi", "addr:district": "Chennai", "addr:full": "No: 36, Near Dayasadan Agarwal Vidyalaya, Maduravoyal, V.G.P Amudha Nagar", "addr:postcode": "600095", "addr:state": "Tamil Nadu", "amenity": "hospital", "name": "Srisaihospital With Matrinity Facility", "source": "OpenGovernmentData"}}, {"type": "node", "id": 7252333399, "lat": 13.05562, "lon": 80.124419, "tags": {"addr:district": "Thiruvallur", "addr:full": "Saveetha Dental College, Chennai, 162,Saveetha Dental College Campus Velappanchavadi, Poonamallee High Road", "addr:postcode": "600077", "addr:state": "Tamil Nadu", "addr:subdistrict": "Ambattur", "amenity": "hospital", "name": "Dr.Rai Cbcc Centre", "source": "OpenGovernmentData"}}, {"type": "node", "id": 7257421533, "lat": 13.01822, "lon": 80.108873, "tags": {"addr:district": "Kancheepuram", "addr:full": "Chikkarayapuram, Mangadu, Kundrathur Road", "addr:postcode": "600069", "addr:state": "Tamil Nadu", "addr:subdistrict": "Sriperumbudur", "amenity": "hospital", "name": "Sri Muthukumaran Medical College Hospital & Research Institute", "source": "OpenGovernmentData"}}, {"type": "node", "id": 7257421544, "lat": 13.0374439, "lon": 80.1444537, "tags": {"addr:block": "Chennai Zone Xi", "addr:district": "Chennai", "addr:full": "Near Porur Lake, Porur, Ramachandra Nagar", "addr:postcode": "600116", "addr:state": "Tamil Nadu", "amenity": "hospital", "name": "Sriramachandra Hospital", "source": "OpenGovernmentData"}}, {"type": "node", "id": 7257421549, "lat": 13.0369528, "lon": 80.169935, "tags": {"addr:district": "Thiruvallur", "addr:full": "Hospital Rd, Sairam Avenue, Valasaravakkam, Chennai", "addr:postcode": "600089", "addr:state": "Tamil Nadu", "addr:subdistrict": "Ambattur", "amenity": "hospital", "name": "Chinna Porur Government Hospital", "source": "OpenGovernmentData"}}, {"type": "node", "id": 7257421589, "lat": 13.036525, "lon": 80.1567342, "tags": {"addr:block": "Chennai Zone Xi", "addr:district": "Chennai", "addr:full": "Back Side Of Hotel Grand Residence, Karapakkam", "addr:postcode": "600116", "addr:state": "Tamil Nadu", "amenity": "hospital", "name": "Parvathy Hospital", "source": "OpenGovernmentData"}}, {"type": "node", "id": 7652446229, "lat": 13.0239396, "lon": 80.116819, "tags": {"amenity": "hospital", "healthcare": "hospital", "name": "Taj Hospital"}}, {"type": "node", "id": 7819840741, "lat": 13.0509177, "lon": 80.0994192, "tags": {"addr:district": "Tiruvallur", "addr:full": "Nambi Nagar, Poonamallee", "addr:postcode": "600056", "addr:state": "Tamil Nadu", "amenity": "hospital", "healthcare": "hospital", "name": "DPS Hospital", "source": "Local Knowledge"}}, {"type": "node", "id": 7819840745, "lat": 13.0471845, "lon": 80.184358, "tags": {"addr:district": "Tiruvallur", "addr:full": "Alwartirunagar, Valasaravakkam, Chennai", "addr:postcode": "600087", "addr:state": "Tamil Nadu", "amenity": "hospital", "healthcare": "hospital", "name": "Kannimaram Hospital", "source": "Local Knowledge"}}, {"type": "node", "id": 7819840748, "lat": 13.0401817, "lon": 80.1803453, "tags": {"addr:district": "Tiruvallur", "addr:full": "Valasaravakkam", "addr:postcode": "600087", "addr:state": "Tamil Nadu", "amenity": "hospital", "name": "Vasanthi Dental Hospital", "source": "Local Knowledge"}}, {"type": "node", "id": 7819840767, "lat": 13.0532913, "lon": 80.1249542, "tags": {"addr:city": "Chennai", "addr:district": "Tiruvallur", "addr:full": "Poonamallee", "addr:housenumber": "10", "addr:postcode": "600077", "addr:state": "Tamil Nadu", "addr:street": "Mount Poonamallee Highway", "amenity": "hospital", "brand:wikidata": "Q3261955", "brand:wikipedia": "en:Aravind Eye Hospitals", "check_date": "2025-04-19", "email": "info.chennai@aravind.org", "emergency": "yes", "healthcare": "hospital", "healthcare:speciality": "ophthalmology", "name": "Aravind Eye Hospital", "opening_hours": "Mo-Sa 7:30-18:00; Su off", "operator": "Aravind Eye Hospitals", "operator:type": "private", "operator:wikidata": "Q3261955", "operator:wikipedia": "en:Aravind Eye Hospitals", "phone": "+91 44 4095 6100", "source": "Local Knowledge", "website": "https://aravind.org/"}}, {"type": "node", "id": 7819840775, "lat": 13.0506409, "lon": 80.0986929, "tags": {"addr:district": "Tiruvallur", "addr:full": "Mahalakshmi Nagar, Poonamallee", "addr:postcode": "600056", "addr:state": "Tamil Nadu", "amenity": "hospital", "healthcare": "hospital", "name": "Be Well Hospital", "source": "Local Knowledge"}}, {"type": "node", "id": 7819840797, "lat": 13.0472622, "lon": 80.1815603, "tags": {"addr:district": "Tiruvallur", "addr:full": "Madurai", "addr:postcode": "625020", "addr:state": "Tamil Nadu", "amenity": "hospital", "name": "Meenakshi Mission Hospital", "source": "Local Knowledge"}}, {"type": "node", "id": 7819840806, "lat": 13.0470409, "lon": 80.1841129, "tags": {"addr:district": "Tiruvallur", "addr:full": "Alwarthirunagar, Chennai", "addr:postcode": "600087", "addr:state": "Tamil Nadu", "amenity": "hospital", "healthcare": "hospital", "name": "Shanthi Hospital", "source": "Local Knowledge"}}, {"type": "node", "id": 7823212569, "lat": 12.9981038, "lon": 80.0955575, "tags": {"addr:district": "Chengalpattu", "addr:full": "Kundrathur", "addr:postcode": "600069", "addr:state": "Tamil Nadu", "amenity": "hospital", "healthcare": "hospital", "name": "Sri Jaya Hospital", "source": "Local Knowledge"}}, {"type": "node", "id": 7823212575, "lat": 13.034339, "lon": 80.1104925, "tags": {"addr:district": "Chengalpattu", "addr:full": "Sriram Nagar, Poonamallee", "addr:postcode": "600056", "addr:state": "Tamil Nadu", "amenity": "hospital", "name": "Deen Hospital", "source": "Local Knowledge"}}, {"type": "node", "id": 7823212577, "lat": 12.997158, "lon": 80.0965483, "tags": {"addr:district": "Chengalpattu", "addr:full": "Kundrathur, Sikkarayapuram", "addr:postcode": "600069", "addr:state": "Tamil Nadu", "amenity": "hospital", "healthcare": "hospital", "name": "Sivanthi Heart Care", "source": "Local Knowledge"}}, {"type": "node", "id": 7823212581, "lat": 13.0164671, "lon": 80.1772853, "tags": {"addr:district": "Chengalpattu", "addr:full": "Ambedkar Nagar, Manapakkam", "addr:postcode": "600116", "addr:state": "Tamil Nadu", "amenity": "hospital", "name": "Nalam Hospital", "source": "Local Knowledge"}}, {"type": "node", "id": 7823212608, "lat": 12.9971757, "lon": 80.0978782, "tags": {"addr:district": "Chengalpattu", "addr:full": "Kundrathur", "addr:postcode": "600069", "addr:state": "Tamil Nadu", "amenity": "hospital", "healthcare": "hospital", "name": "Dr. JRK Hospital", "source": "Local Knowledge"}}, {"type": "node", "id": 7823212624, "lat": 13.0441663, "lon": 80.1364773, "tags": {"addr:district": "Chengalpattu", "addr:full": "Subbiah Nagar, Iyyappanthangal", "addr:postcode": "600056", "addr:state": "Tamil Nadu", "amenity": "hospital", "name": "Kedar Hospital", "source": "Local Knowledge"}}, {"type": "node", "id": 7823212630, "lat": 13.0372175, "lon": 80.1136836, "tags": {"addr:district": "Chengalpattu", "addr:full": "Kamatchiamman Nagar, Poonamallee", "addr:postcode": "600122", "addr:state": "Tamil Nadu", "amenity": "hospital", "name": "Sai Nursing Home and Maternity Hospital", "source": "Local Knowledge"}}, {"type": "node", "id": 8869350452, "lat": 13.0381458, "lon": 80.1619363, "tags": {"amenity": "hospital", "healthcare": "hospital"}}, {"type": "node", "id": 9876450779, "lat": 13.0400446, "lon": 80.1452891}, {"type": "node", "id": 9876450783, "lat": 13.0440917, "lon": 80.1405164}, {"type": "node", "id": 9876450784, "lat": 13.044419, "lon": 80.1406068}, {"type": "node", "id": 9876450785, "lat": 13.045171, "lon": 80.1406863}, {"type": "node", "id": 9876450786, "lat": 13.0455787, "lon": 80.1420884}, {"type": "node", "id": 9876450787, "lat": 13.0456715, "lon": 80.1407318}, {"type": "node", "id": 9876450788, "lat": 13.0456009, "lon": 80.1430699}, {"type": "node", "id": 9876450789, "lat": 13.0454427, "lon": 80.1439924}, {"type": "node", "id": 9876450790, "lat": 13.0454965, "lon": 80.1449574}, {"type": "node", "id": 9876450791, "lat": 13.0453384, "lon": 80.1456831}, {"type": "node", "id": 9876450792, "lat": 13.0452475, "lon": 80.1458523}, {"type": "node", "id": 9876450793, "lat": 13.043719, "lon": 80.1459804}, {"type": "node", "id": 9876450794, "lat": 13.0383768, "lon": 80.1453958}, {"type": "node", "id": 11038567667, "lat": 13.0455982, "lon": 80.142949}, {"type": "node", "id": 11038567669, "lat": 13.0455348, "lon": 80.1434553}, {"type": "node", "id": 11039623683, "lat": 13.0622198, "lon": 80.1354331, "tags": {"access": "private", "barrier": "gate"}}, {"type": "node", "id": 11959665384, "lat": 13.0625984, "lon": 80.1355893}, {"type": "node", "id": 11959665385, "lat": 13.061961, "lon": 80.1353268}, {"type": "node", "id": 11959665386, "lat": 13.0619091, "lon": 80.1354789}, {"type": "node", "id": 11959665387, "lat": 13.0609494, "lon": 80.1350681}, {"type": "node", "id": 11959665388, "lat": 13.0611865, "lon": 80.1359088}, {"type": "node", "id": 11959665389, "lat": 13.0623723, "lon": 80.136255}, {"type": "node", "id": 13039257141, "lat": 13.0384169, "lon": 80.1451365}, {"type": "node", "id": 13039375863, "lat": 13.0372262, "lon": 80.1462358}, {"type": "node", "id": 13039375868, "lat": 13.0401557, "lon": 80.1452957}, {"type": "way", "id": 28493363, "nodes": [313027845, 313027846, 313027847, 9876450783, 9876450784, 9876450785, 9876450787, 9876450786, 11038567667, 9876450788, 11038567669, 9876450789, 9876450790, 9876450791, 9876450792, 9876450793, 6755994529, 6755994530, 6755994531, 313027848, 13039375868, 9876450779, 13039257141, 9876450794, 313027850, 13039375863, 313027851, 313027852, 313027845], "tags": {"amenity": "hospital", "healthcare": "hospital", "name": "Sri Ramachandra Institute of Higher Education and Research"}}, {"type": "way", "id": 33630155, "nodes": [384726702, 384726703, 384726704, 384726705, 384726702], "tags": {"addr:block": "Poonamallee Mpty", "addr:district": "Thiruvallur", "addr:full": "Government Taluk Hospital, Poonamallee Bus Stand, Poonamallee, Trunk Road", "addr:postcode": "600056", "addr:state": "Tamil Nadu", "addr:subdistrict": "Poonamallee", "amenity": "hospital", "healthcare": "hospital", "name": "Government Hospital, Poonamallee", "source": "OpenGovernmentData"}}, {"type": "way", "id": 355052484, "nodes": [3606759539, 3606759519, 3606759079, 3606759497, 3606759539], "tags": {"addr:district": "Kanchipuram", "addr:full": "36, Poothapedu Main Road, Vengadeswar Nagar, Perur", "addr:postcode": "600116", "addr:state": "Tamil Nadu", "amenity": "hospital", "building": "yes", "name": "Viganesh Hospital", "source": "OpenGovernmentData"}}, {"type": "way", "id": 503337819, "nodes": [4936671733, 4936671732, 4936671731, 4936671730, 4936671733]}, {"type": "way", "id": 503337820, "nodes": [4936671737, 4936671736, 4936671735, 4936671734, 4936671737]}, {"type": "way", "id": 503337821, "nodes": [4936671741, 4936671740, 4936671739, 4936671738, 4936671741]}, {"type": "way", "id": 503337822, "nodes": [4936671745, 4936671744, 4936671743, 4936671742, 4936671745]}, {"type": "way", "id": 503337823, "nodes": [4936671781, 4936671780, 4936671779, 4936671778, 4936671777, 4936671776, 4936671775, 4936671774, 4936671773, 4936671772, 4936671771, 4936671770, 4936671769, 4936671768, 4936671767, 4936671766, 4936671765, 4936671764, 4936671763, 4936671762, 4936671761, 4936671760, 4936671759, 4936671758, 4936671757, 4936671756, 4936671755, 4936671754, 4936671753, 4936671752, 4936671751, 4936671750, 4936671749, 4936671748, 4936671747, 4936671746, 4936671781]}, {"type": "way", "id": 1289802426, "nodes": [11959665384, 11039623683, 11959665385, 11959665386, 11959665387, 11959665388, 11959665389, 11959665384], "tags": {"alt_name": "Mehta Hospitals", "amenity": "hospital", "healthcare": "hospital", "name": "Dr. Mehta's Hospitals - Global Campus"}}, {"type": "relation", "id": 7357637, "members": [{"type": "way", "ref": 503337823, "role": "outer"}, {"type": "way", "ref": 503337820, "role": "inner"}, {"type": "way", "ref": 503337822, "role": "inner"}, {"type": "way", "ref": 503337821, "role": "inner"}, {"type": "way", "ref": 503337819, "role": "inner"}], "tags": {"addr:block": "Kundrathur", "addr:district": "Kancheepuram", "addr:full": "Kovoor, Kundrathur Main Road", "addr:postcode": "600122", "addr:state": "Tamil Nadu", "addr:subdistrict": "Sriperumbudur", "amenity": "hospital", "building": "yes", "name": "Madha Medical College Hospital", "source": "OpenGovernmentData", "type": "multipolygon"}}]}