{"version": 0.6, "generator": "Overpass API 0.7.62.8 e802775f", "osm3s": {"timestamp_osm_base": "2026-01-13T07:48:30Z", "copyright": "The data included in this document is from www.openstreetmap.org. The data is made available under ODbL."}, "elements": [{"type": "node", "id": 2148673069, "lat": 19.1383055, "lon": 72.8099298}, {"type": "node", "id": 2148673071, "lat": 19.138164, "lon": 72.8094627}, {"type": "node", "id": 2148673121, "lat": 19.1376757, "lon": 72.8102108}, {"type": "node", "id": 2148673123, "lat": 19.1379854, "lon": 72.8091461}, {"type": "node", "id": 2148673134, "lat": 19.1376703, "lon": 72.8087569}, {"type": "node", "id": 2148673135, "lat": 19.137511, "lon": 72.8095858}, {"type": "node", "id": 2148673136, "lat": 19.1375056, "lon": 72.8098539}, {"type": "node", "id": 2148673144, "lat": 19.1373108, "lon": 72.8090762}, {"type": "node", "id": 4498900764, "lat": 19.2007076, "lon": 72.8221715, "tags": {"addr:district": "Mumbai", "addr:full": "Bafhira Nagar Road, Near Jankalyan Nagar Police Chowky, Malad", "addr:postcode": "400095", "addr:state": "Maharashtra", "amenity": "hospital", "name": "Government General Hospital, Malwani Malad", "source": "OpenGovernmentData"}}, {"type": "node", "id": 7048747817, "lat": 19.215374, "lon": 72.8153551, "tags": {"addr:district": "Mumbai", "addr:full": "Plot No 6,R.S.C.7, Building Charkop Sector 8 ,Kandivali W,Behind Sai Prem", "addr:postcode": "400067", "addr:state": "Maharashtra", "amenity": "hospital", "name": "Dr.Reena Mokal Nursing Home and Polyclinic", "phone": "9324385177,9323409140.", "source": "OpenGovernmentData"}}, {"type": "node", "id": 7048747818, "lat": 19.1352084, "lon": 72.8140642, "tags": {"addr:district": "Mumbai", "addr:full": "Flat No 7, Near Police Officer progressive HSG, SOC near Agha Khan Baugh", "addr:postcode": "400061", "addr:state": "Maharashtra", "amenity": "hospital", "name": "Saket Maternity and Nursing Home", "source": "OpenGovernmentData"}}, {"type": "node", "id": 7051345894, "lat": 19.2106923, "lon": 72.8257466, "tags": {"addr:district": "Mumbai", "addr:full": "Ground Floor, Gharkul, Charkop Modern Society, Sector No.1, Charkop, Kandivali West", "addr:postcode": "400067", "addr:state": "Maharashtra", "amenity": "hospital", "name": "Shakuntala Maternity Home", "source": "OpenGovernmentData"}}, {"type": "node", "id": 7054965709, "lat": 19.2078566, "lon": 72.8266338, "tags": {"addr:district": "Mumbai", "addr:full": "1st Floor, Kesar Plaza, Charkop Market Above Noble Medical Store, Kandivali(W)", "addr:postcode": "400067", "addr:state": "Maharashtra", "amenity": "hospital", "name": "Matushree Maternity, Surgical and General Nursing Home", "source": "OpenGovernmentData"}}, {"type": "node", "id": 7055739367, "lat": 19.1453506, "lon": 72.8230691, "tags": {"addr:district": "Mumbai", "addr:full": "33 Nebula 4Th Cross Road Lokhandwala Complex Andheri W", "addr:postcode": "400053", "addr:state": "Maharashtra", "amenity": "hospital", "name": "Pushpa Maternity Home", "source": "OpenGovernmentData"}}, {"type": "node", "id": 7082519016, "lat": 19.1424177, "lon": 72.8234661, "tags": {"addr:district": "Mumbai", "addr:full": "17-B/007-008, Girnar Swami Samarth Nagar,Off Four Bungalows, Andheri (W)", "addr:postcode": "400053", "addr:state": "Maharashtra", "amenity": "hospital", "healthcare": "hospital", "name": "Ameya Maternity and Nursing Home", "source": "OpenGovernmentData"}}, {"type": "node", "id": 7082733171, "lat": 19.1455229, "lon": 72.8230771, "tags": {"addr:district": "Mumbai", "addr:full": "Nebula Apartment, Lokhandwala, Andheri West", "addr:housename": "Nebula Apartment", "addr:place": "Lokhandwala", "addr:postcode": "400053", "addr:state": "Maharashtra", "addr:suburb": "Andheri West", "amenity": "hospital", "name": "Sanghvi Clinic", "name:hi": "\u0938\u093e\u0902\u0918\u0935\u0940 \u0915\u094d\u0932\u093f\u0928\u093f\u0915", "source": "OpenGovernmentData"}}, {"type": "node", "id": 7210907978, "lat": 19.1941028, "lon": 72.8213186, "tags": {"addr:district": "Mumbai", "addr:full": "Rose Apts Near Fire Brigade, Malvani Rd, BMC Colony, Malad West", "addr:postcode": "400095", "addr:state": "Maharashtra", "amenity": "hospital", "name": "Mangalmurti Hospital", "source": "OpenGovernmentData"}}, {"type": "node", "id": 7622282442, "lat": 19.2037678, "lon": 72.8244846, "tags": {"addr:district": "Mumbai", "addr:full": "Kandivali, Babrekar Nagar", "addr:postcode": "400095", "addr:state": "Maharashtra", "amenity": "hospital", "name": "BMC Hospital", "source": "Local Knowledge"}}, {"type": "node", "id": 8260890189, "lat": 19.2130035, "lon": 72.8235436, "tags": {"addr:city": "Mumbai", "addr:housenumber": "sector2 charkop, 122", "addr:postcode": "400067", "addr:street": "RSC Rd Number 11, Kandivali west", "amenity": "hospital", "emergency": "yes", "healthcare": "hospital", "healthcare:speciality": "general;orthopaedics;physician;diabetologist", "name": "Oscar hospital charkop naka", "opening_hours": "24/7"}}, {"type": "node", "id": 8802125729, "lat": 19.188038, "lon": 72.8179488, "tags": {"addr:district": "Mumbai", "addr:full": "Malad, Azad Nagar, Malvani", "addr:postcode": "400095", "addr:state": "Maharashtra", "amenity": "hospital", "name": "Government Hospital, Malvani", "source": "Local Knowledge"}}, {"type": "node", "id": 9215424189, "lat": 19.1362893, "lon": 72.8273781, "tags": {"addr:district": "Mumbai", "addr:full": "Suresh Nagar, Andheri West, Mumbai", "addr:postcode": "400047", "addr:state": "Maharashtra", "amenity": "hospital", "description": "Private Hospital", "healthcare": "hospital", "name": "Axis Orthopaedic Hospital", "source": "Local Knowledge"}}, {"type": "node", "id": 9215451400, "lat": 19.136067, "lon": 72.8122383, "tags": {"addr:district": "Mumbai", "addr:full": "Jeet Nagar, Versova, Andheri West", "addr:postcode": "400061", "addr:state": "Maharashtra", "amenity": "hospital", "description": "Private Hospital", "name": "AL Kaleskar Hospital", "source": "Local Knowledge"}}, {"type": "node", "id": 11301648369, "lat": 19.2073234, "lon": 72.8181432}, {"type": "node", "id": 11301648370, "lat": 19.2073322, "lon": 72.818267}, {"type": "node", "id": 11301648371, "lat": 19.2069331, "lon": 72.8182833}, {"type": "node", "id": 11301648372, "lat": 19.2069419, "lon": 72.8181105}, {"type": "node", "id": 11301648373, "lat": 19.2070809, "lon": 72.8181105}, {"type": "node", "id": 11301648374, "lat": 19.2070831, "lon": 72.8181526}, {"type": "node", "id": 12487546421, "lat": 19.1856384, "lon": 72.8189267}, {"type": "node", "id": 12487546422, "lat": 19.1855307, "lon": 72.8194536}, {"type": "node", "id": 12487546423, "lat": 19.1852353, "lon": 72.8194058}, {"type": "node", "id": 12487546424, "lat": 19.1853488, "lon": 72.8188543}, {"type": "node", "id": 13294133382, "lat": 19.2068922, "lon": 72.8185123, "tags": {"addr:city": "Mumbai", "addr:district": "Charkop Village", "addr:housenumber": "Shop 1", "addr:postcode": "400067", "addr:street": "Charkop Gaon", "amenity": "hospital", "emergency": "yes", "healthcare": "hospital", "healthcare:speciality": "community", "name": "Sirvi Medical", "operator": "Suresh", "operator:type": "private"}}, {"type": "way", "id": 204886718, "nodes": [2148673134, 2148673144, 2148673135, 2148673136, 2148673121, 2148673069, 2148673071, 2148673123, 2148673134], "tags": {"amenity": "hospital", "building": "yes", "name": "Vimala Dermatological Centra"}}, {"type": "way", "id": 1219694090, "nodes": [11301648369, 11301648370, 11301648371, 11301648372, 11301648373, 11301648374, 11301648369], "tags": {"amenity": "hospital", "healthcare": "hospital", "name": "Lifelline"}}, {"type": "way", "id": 1349894554, "nodes": [12487546421, 12487546422, 12487546423, 12487546424, 12487546421], "tags": {"amenity": "hospital", "healthcare": "hospital", "name": "Government Hospita"}}]}