{"version": 0.6, "generator": "Overpass API 0.7.62.8 e802775f", "osm3s": {"timestamp_osm_base": "2026-01-13T03:26:00Z", "copyright": "The data included in this document is from www.openstreetmap.org. The data is made available under ODbL."}, "elements": [{"type": "node", "id": 2593908683, "lat": 17.4058981, "lon": 78.5913809}, {"type": "node", "id": 2593908685, "lat": 17.40581, "lon": 78.5914073}, {"type": "node", "id": 2593908687, "lat": 17.4058377, "lon": 78.5915092}, {"type": "node", "id": 2593908689, "lat": 17.4059258, "lon": 78.5914829}, {"type": "node", "id": 3387370912, "lat": 17.4762089, "lon": 78.5629604}, {"type": "node", "id": 3387370913, "lat": 17.4762324, "lon": 78.5631948}, {"type": "node", "id": 3387370914, "lat": 17.4765437, "lon": 78.563271}, {"type": "node", "id": 3387370915, "lat": 17.4765269, "lon": 78.5630336}, {"type": "node", "id": 3616927598, "lat": 17.4692052, "lon": 78.5649072}, {"type": "node", "id": 3616927631, "lat": 17.4692827, "lon": 78.5647678}, {"type": "node", "id": 3616927643, "lat": 17.4693068, "lon": 78.5649694}, {"type": "node", "id": 3616927674, "lat": 17.4693843, "lon": 78.5648299}, {"type": "node", "id": 4703894689, "lat": 17.4899292, "lon": 78.601832, "tags": {"amenity": "hospital", "name": "SUDHA Hospital", "name:en": "SUDHA Hospital", "source": "OpenGovernmentData"}}, {"type": "node", "id": 5539039096, "lat": 17.405751, "lon": 78.5871698, "tags": {"addr:district": "Hyderabad", "addr:full": "P. No. 6, H. No. 3-13/2, Mallikarjuna Nagar, Opposite Uppal Bus Depot, Peerzadiguda, Ghatkesar Mdl", "addr:postcode": "500092", "addr:state": "Telangana", "amenity": "hospital", "name": "Surya Hospital, Hyderabad", "source": "OpenGovernmentData"}}, {"type": "node", "id": 5608402071, "lat": 17.4080743, "lon": 78.5988119, "tags": {"addr:city": "Hyderabad", "addr:full": "Plot No: 50 & 51, MEDIPALLY, WARANGAL HIGHWAY, UPPAL", "addr:postcode": "500098", "addr:state": "Telangana", "amenity": "hospital", "contact:phone": "9100926436; 04027215252; 27209901", "name": "APEX HOSPITAL", "operator": "Private", "source": "OpenGovernmentData"}}, {"type": "node", "id": 5763499578, "lat": 17.4124431, "lon": 78.5839032}, {"type": "node", "id": 5763499579, "lat": 17.4123356, "lon": 78.5839002}, {"type": "node", "id": 5763499580, "lat": 17.4123381, "lon": 78.5838019}, {"type": "node", "id": 5763499581, "lat": 17.4124456, "lon": 78.583805}, {"type": "node", "id": 6246261938, "lat": 17.4817165, "lon": 78.5951467, "tags": {"addr:district": "Hyderabad", "addr:full": "S.V.Nagar, Nagaram Main Road, Keesara Mandal, Nagavaram", "addr:postcode": "500083", "addr:state": "Telangana", "amenity": "hospital", "fax": "27123487; 27123744", "healthcare": "hospital", "name": "Vijaya Hospital", "source": "OpenGovernmentData"}}, {"type": "node", "id": 6480099631, "lat": 17.4760702, "lon": 78.5640143, "tags": {"addr:district": "Hyderabad", "addr:full": "1-7-43-457/206, Near Asian Radhika Multiplex, Maheshnagar, ECIL Post, Kapra", "addr:postcode": "500062", "addr:state": "Telangana", "amenity": "hospital", "name": "Aruna Hospital", "source": "OpenGovernmentData"}}, {"type": "node", "id": 6482100116, "lat": 17.4878467, "lon": 78.5647274, "tags": {"addr:district": "Hyderabad", "addr:full": "1-1-211, Sai Priya Colony, Beside Old Municipal Kapra Office, Kapra", "addr:postcode": "500062", "addr:state": "Telangana", "amenity": "hospital", "contact:phone": "040-64621340", "name": "New Life Line Multi Specialty Hospital", "source": "OpenGovernmentData"}}, {"type": "node", "id": 6484905715, "lat": 17.4738034, "lon": 78.5692647, "tags": {"addr:district": "Hyderabad", "addr:full": "D.No. 1-7-226, Kamala Nagar, Opposite Water Tank, ECIL Post", "addr:postcode": "500062", "addr:state": "Telangana", "amenity": "hospital", "name": "Soorya Orthopaedic Hospital", "source": "OpenGovernmentData"}}, {"type": "node", "id": 6488677506, "lat": 17.4747705, "lon": 78.5678552, "tags": {"addr:district": "Hyderabad", "addr:full": "1-7-100, Kamala Nagar, ECIL 'X' Road", "addr:postcode": "500062", "addr:state": "Telangana", "amenity": "hospital", "name": "Raghavendra Hospital", "source": "OpenGovernmentData"}}, {"type": "node", "id": 6489613991, "lat": 17.4571396, "lon": 78.5631077, "tags": {"addr:district": "Hyderabad", "addr:full": "APHB Colony, Meerpet, Moula-Ali", "addr:postcode": "500040", "addr:state": "Telangana", "amenity": "hospital", "name": "M S Reddy Lions Eye Hospital", "source": "OpenGovernmentData"}}, {"type": "node", "id": 6503446084, "lat": 17.4727007, "lon": 78.5713568, "tags": {"addr:district": "Hyderabad", "addr:full": "Plot Number 43, EC Extension, ECIL 'X' Roads", "addr:postcode": "500062", "addr:state": "Telangana", "amenity": "hospital", "contact:email": "info@xeniahospitals.com", "contact:mobile": "9000681166", "fax": "040 27134666", "healthcare:speciality": "Internal Medicine;Neurology;Gastroenterology;Anesthesiology;Cardiology;Trauma Care;Neurophysiology;Plastic Surgery", "medical_system": "Allopathic", "name": "Xenia Multi Speciality Hospital", "operator:type": "private", "phone": "040 27144000;040 27144777", "source": "OpenGovernmentData", "website": "www.xeniahospitals.in"}}, {"type": "node", "id": 6503669088, "lat": 17.4748831, "lon": 78.5709384, "tags": {"addr:district": "Hyderabad", "addr:full": "A-12, Electronic Complex, Beside SBI, Kushaiguda, ECIL 'X' Roads", "addr:postcode": "500062", "addr:state": "Telangana", "amenity": "hospital", "contact:email": "info@tulasihospials.com", "contact:mobile": "+91 9505108108", "name": "Tulasi Hospitals", "source": "OpenGovernmentData", "website": "http://thulasihospitals.com"}}, {"type": "node", "id": 6505447806, "lat": 17.4776666, "lon": 78.5630205, "tags": {"addr:district": "Hyderabad", "addr:full": "D.No.1-1-256/7, Srinivas Nagar Colony, Kapra Circle, Kesara Mandal, A.S.Rao Nagar", "addr:postcode": "500062", "addr:state": "Telangana", "amenity": "hospital", "medical_system": "Allopathic", "name": "Vasan Eye Care", "operator:type": "private", "phone": "040 39890600", "source": "OpenGovernmentData", "website": "https://vasaneye.com/"}}, {"type": "node", "id": 6518192361, "lat": 17.4183783, "lon": 78.5835349, "tags": {"addr:city": "Hyderabad", "addr:postcode": "500092", "addr:street": "West Hanuman Nagar", "amenity": "hospital", "emergency": "yes", "healthcare": "hospital", "healthcare:speciality": "general", "name": "RBM Multi-Speciality Hospital"}}, {"type": "node", "id": 6518297217, "lat": 17.4090144, "lon": 78.5864131, "tags": {"addr:city": "Hyderabad", "addr:postcode": "500092", "addr:street": "Mallikarjuna Nagar, Boduppal", "amenity": "hospital", "healthcare": "hospital", "healthcare:speciality": "paediatrics", "name": "AVI Clinic", "operator": "Dr Suman"}}, {"type": "node", "id": 6518592570, "lat": 17.4124176, "lon": 78.5838042}, {"type": "node", "id": 6518592571, "lat": 17.4124076, "lon": 78.5838039}, {"type": "node", "id": 6530772004, "lat": 17.4524815, "lon": 78.5685701, "tags": {"addr:district": "Hyderabad", "addr:full": "3-5-85, Road No. 4, Krishna Nagar Colony, NFC Main Road, H B Colony, Moula Ali", "addr:postcode": "500040", "addr:state": "Telangana", "amenity": "hospital", "fixme": "Please verify the accurate position of the hospital as I have mapped the facility based on the address provided in Open Government Data", "name": "Dhanunjaya Nursing Home", "source": "OpenGovernmentData"}}, {"type": "node", "id": 6536327470, "lat": 17.4455011, "lon": 78.5678539, "tags": {"addr:district": "Hyderabad", "addr:full": "M.V. Rama Rao Complex, Opposite Sai Towers, Mallapur Main Road", "addr:postcode": "500076", "addr:state": "Telangana", "amenity": "hospital", "name": "Aashritha Hospital", "source": "OpenGovernmentData"}}, {"type": "node", "id": 6548874152, "lat": 17.473687, "lon": 78.571436, "tags": {"addr:city": "Hyderabad", "addr:full": "Plot No: 13, SVK Towers, Kushaiguda Main Road, Near A.S Rao Nagar, ECIL Cross Road, Secunderabad", "addr:postcode": "500062", "addr:state": "Telangana", "amenity": "hospital", "email": "info@soliseyecare.com", "name": "SOLIS EYE CARE HOSPITALS PVT LTD", "operator:type": "private", "phone": "040-40068855; 040-40028855", "source": "OpenGovernmentData", "website": "http://www.soliseyecare.com"}}, {"type": "node", "id": 6549320016, "lat": 17.4714919, "lon": 78.5676406, "tags": {"addr:district": "Hyderabad", "addr:full": "1-7-181, KAMALA NAGAR, Opp. DAE Colony ('D' Sector Gate), KAPRA, ECIL", "addr:postcode": "500062", "addr:state": "Telangana", "amenity": "hospital", "contact:phone": "4027135842", "name": "ARC HOSPITAL", "operator:type": "private", "source": "OpenGovernmentData"}}, {"type": "node", "id": 6632844432, "lat": 17.4189151, "lon": 78.5654264, "tags": {"amenity": "hospital", "healthcare": "hospital", "healthcare:speciality": "laparascopic_surgery", "name": "Satya Multi Speciality Hospital", "phone": "+91 7093088502;+91 9030911252"}}, {"type": "node", "id": 6811749006, "lat": 17.4898215, "lon": 78.6018077, "tags": {"addr:district": "Medchal Malkajgiri", "addr:full": "Dammaiguda Cross Roads, Aravind Nagar, Secunderabad", "addr:postcode": "500083", "addr:state": "Telangana", "amenity": "hospital", "contact:mobile": "9505333155", "name": "Pooja Hospital", "source": "OpenGovernmentData"}}, {"type": "node", "id": 6811749027, "lat": 17.4932248, "lon": 78.6045666, "tags": {"addr:district": "Medchal Malkajgiri", "addr:full": "Near HP Petrol Pump, Rampally Cross Roads, Nagaram", "addr:postcode": "500083", "addr:state": "Telangana", "amenity": "hospital", "name": "Keerthi Hospital", "source": "OpenGovernmentData"}}, {"type": "node", "id": 6811749041, "lat": 17.493471, "lon": 78.604817, "tags": {"addr:district": "Medchal Malkajgiri", "addr:full": "Nagaram, Secunderabad", "addr:postcode": "500083", "addr:state": "Telangana", "amenity": "hospital", "name": "Lifeline Hospital", "source": "OpenGovernmentData"}}, {"type": "node", "id": 6811749054, "lat": 17.417667, "lon": 78.632292, "tags": {"addr:district": "Medchal Malkajgiri", "addr:full": "Korremula Cross Road, Narepally, Hyderabad", "addr:postcode": "501301", "addr:state": "Telangana", "amenity": "hospital", "name": "Vajra Hospitals", "source": "OpenGovernmentData"}}, {"type": "node", "id": 6811749056, "lat": 17.4897271, "lon": 78.6017722, "tags": {"addr:district": "Medchal Malkajgiri", "addr:full": "Near Pooja Hospital, Dammaiguda Cross Roads, Aravind Nagar, Secunderabad", "addr:postcode": "500083", "addr:state": "Telangana", "amenity": "hospital", "name": "Janani Hospital for Women and Children", "source": "OpenGovernmentData"}}, {"type": "node", "id": 8760959031, "lat": 17.4058368, "lon": 78.5875386, "tags": {"addr:district": "Medchal", "addr:full": "H-NO, 3-13/3, Mallikarjuna Nagar Colony,Boduppal, Hyderabad", "addr:postcode": "500092", "addr:state": "Telangana", "amenity": "hospital", "name": "Save Hospitals", "source": "Local Knowledge"}}, {"type": "node", "id": 8763392113, "lat": 17.4897846, "lon": 78.601926, "tags": {"addr:district": "Medchal", "addr:full": "NAGARAM \"X\" ROADS, Hyderabad", "addr:postcode": "500083", "addr:state": "Telangana", "amenity": "hospital", "name": "Sri Dharani Multispeciality Hospital", "source": "Local Knowledge"}}, {"type": "node", "id": 9369549952, "lat": 17.4527375, "lon": 78.5648775, "tags": {"amenity": "hospital", "healthcare": "hospital", "name": "Rahul Meidials"}}, {"type": "node", "id": 9369555762, "lat": 17.4527443, "lon": 78.5647251, "tags": {"amenity": "hospital", "healthcare": "hospital", "name": "Nandini"}}, {"type": "node", "id": 9679093983, "lat": 17.4366107, "lon": 78.6038388, "tags": {"amenity": "hospital", "healthcare": "hospital", "name": "Rikshith medical"}}, {"type": "node", "id": 9870554869, "lat": 17.4113015, "lon": 78.5859926, "tags": {"amenity": "hospital", "healthcare": "hospital", "name": "Vijaya Diagnostics Center"}}, {"type": "node", "id": 10810253919, "lat": 17.4913757, "lon": 78.5991521, "tags": {"amenity": "hospital", "healthcare": "hospital", "name": "Trinity Hospital"}}, {"type": "node", "id": 10959100965, "lat": 17.4410992, "lon": 78.5720791, "tags": {"addr:city": "Hyderabad", "addr:postcode": "500076", "addr:street": "sv nagar", "amenity": "hospital", "healthcare": "hospital", "name": "Sri rama clinic"}}, {"type": "node", "id": 12536226054, "lat": 17.4754498, "lon": 78.5681603, "tags": {"amenity": "hospital", "name": "SK + Diagnostics"}}, {"type": "way", "id": 253467402, "nodes": [2593908683, 2593908685, 2593908687, 2593908689, 2593908683], "tags": {"addr:district": "Hyderabad", "addr:full": "H.No-9-1/3, Sri Ram Nagar Colony,Peerjadiguda (Village),Gatkeswar(Mandal)", "addr:postcode": "500039", "addr:state": "Telangana", "amenity": "hospital", "building": "yes", "emergency": "yes", "name": "Anitha Nursing Home", "source": "OpenGovernmentData"}}, {"type": "way", "id": 331633380, "nodes": [3387370912, 3387370913, 3387370914, 3387370915, 3387370912], "tags": {"amenity": "hospital", "name": "lucid diagnostics"}}, {"type": "way", "id": 356200125, "nodes": [3616927674, 3616927643, 3616927598, 3616927631, 3616927674], "tags": {"addr:district": "Hyderabad", "addr:full": "Plot No. 25, Green Hills Colony, S.P Nagar", "addr:postcode": "500040", "addr:state": "Telangana", "amenity": "hospital", "contact:phone": "040 27131591; 9059098664; 9160900966", "healthcare": "hospital", "name": "Bhaskara Orthopaedic Centre", "source": "OpenGovernmentData"}}, {"type": "way", "id": 608308376, "nodes": [5763499581, 5763499578, 5763499579, 5763499580, 6518592571, 6518592570, 5763499581], "tags": {"addr:city": "Hyderabad", "addr:postcode": "500092", "addr:street": "Boduppal", "amenity": "hospital", "building:levels": "1", "emergency": "no", "healthcare": "hospital", "name": "Primary Healthcare Center", "operator": "Government"}}]}