{"version": 0.6, "generator": "Overpass API 0.7.62.8 e802775f", "osm3s": {"timestamp_osm_base": "2026-01-12T18:54:30Z", "copyright": "The data included in this document is from www.openstreetmap.org. The data is made available under ODbL."}, "elements": [{"type": "node", "id": 446053937, "lat": 13.015694, "lon": 77.563702}, {"type": "node", "id": 446053938, "lat": 13.015691, "lon": 77.5639031}, {"type": "node", "id": 446053939, "lat": 13.0158506, "lon": 77.5639056}, {"type": "node", "id": 446053940, "lat": 13.0158535, "lon": 77.5637044}, {"type": "node", "id": 458105013, "lat": 12.9412769, "lon": 77.5219293}, {"type": "node", "id": 519549595, "lat": 12.9981215, "lon": 77.5404836, "tags": {"addr:city": "Basaveshwara Nagar, Bangalore", "addr:district": "Bengaluru Urban", "addr:full": "#100/101, Lic Colony West Of Chord, Basaveshwaranagar", "addr:housenumber": "100", "addr:postcode": "560079", "addr:state": "Karnataka", "addr:street": "West of Chord Road (LIC Colony)", "amenity": "hospital", "email": "chordroadhospital100@yahoo.co.in", "healthcare:speciality": "multi speciality", "name": "Chord Road Hospital Pvt Ltd", "name:kn": "\u0c95\u0cca\u0cb0\u0ccd\u0ca1\u0ccd \u0cb0\u0cb8\u0ccd\u0ca4\u0cc6 \u0c86\u0cb8\u0ccd\u0caa\u0ca4\u0ccd\u0cb0\u0cc6", "operator:type": "private", "phone": "+91-80-23225858;+91-80-23225868;+91-80-23225878", "source": "OpenGovernmentData", "website": "http://www.chordroadhospitalent.com/", "wheelchair": "yes"}}, {"type": "node", "id": 529488722, "lat": 13.013826, "lon": 77.556496}, {"type": "node", "id": 530353033, "lat": 12.9978931, "lon": 77.5436127, "tags": {"addr:city": "Basaveshwara Nagar, Bangalore", "addr:housenumber": "877", "addr:postcode": "560079", "addr:street": "Modi Hospital Road (West of Chord Road)", "amenity": "hospital", "email": "pristinehospitals@pristinehospitals.com", "fax": "+91-80-41354455", "healthcare": "hospital", "name": "Pristline Hospital", "name:kn": "\u0caa\u0ccd\u0cb0\u0cbf\u0cb8\u0ccd\u0c9f\u0cc0\u0ca8\u0ccd \u0c86\u0cb8\u0ccd\u0caa\u0ca4\u0ccd\u0cb0\u0cc6", "phone": "+91-80-41354444;+91-80-51270776", "website": "http://www.pristinehospitals.com/"}}, {"type": "node", "id": 625856709, "lat": 13.0011275, "lon": 77.5639285, "tags": {"addr:city": "bangalore", "addr:district": "Bengaluru Urban", "addr:full": "71, 11Th Main Road, Opposite Malleshwaram Railway Station, Malleshwaram", "addr:housenumber": "71", "addr:postcode": "560003", "addr:state": "Karnataka", "addr:street": "11th Main Road, Opp Railway Station, Malleswaram", "amenity": "hospital", "name": "Manipal Northside Hospital", "phone": "080 2222 1111", "source": "OpenGovernmentData", "wheelchair": "yes"}}, {"type": "node", "id": 680004360, "lat": 12.9802166, "lon": 77.56574}, {"type": "node", "id": 680004373, "lat": 12.9794404, "lon": 77.564481}, {"type": "node", "id": 680004435, "lat": 12.9793627, "lon": 77.5656525}, {"type": "node", "id": 680004477, "lat": 12.9802981, "lon": 77.5645109}, {"type": "node", "id": 954623054, "lat": 12.939058, "lon": 77.5510802, "tags": {"addr:city": "bangalore", "addr:housenumber": "8/45", "addr:postcode": "560050", "addr:street": "80 Feet Road, SBM Colony, Near-Bank Colony Bus Stop, Banashankari 1st Stage", "amenity": "hospital", "name": "Sri Vinayaka Poly Clinic", "phone": "080 2672 8455", "source": "justdial"}}, {"type": "node", "id": 1096956219, "lat": 13.0147677, "lon": 77.5563618}, {"type": "node", "id": 1108014134, "lat": 12.9681189, "lon": 77.54325, "tags": {"amenity": "hospital", "emergency": "no", "name": "Soujanya Clinic"}}, {"type": "node", "id": 1108040901, "lat": 12.967291, "lon": 77.5429164, "tags": {"amenity": "hospital", "name": "Kanva Diagnostics Collection Centre"}}, {"type": "node", "id": 1118254826, "lat": 12.9883175, "lon": 77.5596746}, {"type": "node", "id": 1118258254, "lat": 13.0066402, "lon": 77.554223}, {"type": "node", "id": 1290125198, "lat": 13.0043642, "lon": 77.5652959, "tags": {"amenity": "hospital"}}, {"type": "node", "id": 1463507632, "lat": 12.9746134, "lon": 77.5129757, "tags": {"addr:district": "Bengaluru Urban", "addr:full": "No-5, 20 Th Cross, Malagala Under Pass Ring Road", "addr:postcode": "560091", "addr:state": "Karnataka", "addr:subdistrict": "Nagarbhavi", "amenity": "hospital", "name": "Vasan Eye Care Hospital, Nagarabhavi", "name:kn": "\u0cb5\u0cbf\u0c9c\u0caf \u0ca8\u0cc7\u0ca4\u0ccd\u0cb0\u0cbe\u0cb2\u0caf", "operator:type": "private", "source": "OpenGovernmentData", "website": "http://www.vasaneye.in/"}}, {"type": "node", "id": 1468296636, "lat": 12.9410014, "lon": 77.5454222}, {"type": "node", "id": 1468296638, "lat": 12.9408975, "lon": 77.5456958}, {"type": "node", "id": 1468296641, "lat": 12.9409341, "lon": 77.5454222}, {"type": "node", "id": 1468296642, "lat": 12.9410197, "lon": 77.545551}, {"type": "node", "id": 1468296644, "lat": 12.9410249, "lon": 77.5457012}, {"type": "node", "id": 1468296645, "lat": 12.9409184, "lon": 77.5455644}, {"type": "node", "id": 1471737564, "lat": 13.0079383, "lon": 77.5469059, "tags": {"amenity": "hospital", "name": "Suprabha Hospital", "wheelchair": "yes"}}, {"type": "node", "id": 1471738635, "lat": 13.0083564, "lon": 77.5469273, "tags": {"amenity": "hospital", "name": "Sangolli Nursing Home"}}, {"type": "node", "id": 1471781028, "lat": 13.0037682, "lon": 77.5498337, "tags": {"addr:district": "Bengaluru Urban", "addr:full": "359 / 360, 19Th Main 1 St Block Rajajinagar Near Indian Bank", "addr:postcode": "560010", "addr:state": "Karnataka", "amenity": "hospital", "healthcare": "hospital", "name": "Diacon Hospital", "source": "OpenGovernmentData", "wheelchair": "yes"}}, {"type": "node", "id": 1472808792, "lat": 13.0047859, "lon": 77.543073, "tags": {"amenity": "hospital", "name": "Namratha Hospital", "name:kn": "\u0ca8\u0cae\u0ccd\u0cb0\u0ca4 \u0c86\u0cb8\u0ccd\u0caa\u0ca4\u0ccd\u0cb0\u0cc6"}}, {"type": "node", "id": 1473002847, "lat": 13.0214364, "lon": 77.5535277}, {"type": "node", "id": 1474001855, "lat": 13.0011459, "lon": 77.5359798, "tags": {"amenity": "hospital", "emergency": "yes", "healthcare": "hospital", "name": "Punya Hospital"}}, {"type": "node", "id": 1474819886, "lat": 13.0022409, "lon": 77.5490879, "tags": {"addr:district": "Bengaluru Urban", "addr:full": "111, West Of Chord Road, Mahalakshmipuram, Rajajinagar I Block", "addr:postcode": "560086", "addr:state": "Karnataka", "alt_name": "Fortis Hospitals Limited, Rajajinagar", "amenity": "hospital", "healthcare": "hospital", "name": "Fortis Hospital", "name:kn": "\u0cab\u0ccb\u0cb0\u0ccd\u0c9f\u0cbf\u0cb8\u0ccd \u0c86\u0cb8\u0ccd\u0caa\u0ca4\u0ccd\u0cb0\u0cc6", "source": "OpenGovernmentData"}}, {"type": "node", "id": 1474819896, "lat": 12.9956506, "lon": 77.5510696, "tags": {"addr:city": "Bangalore", "addr:district": "Bengaluru Urban", "addr:full": "25/91, Chord Road, Iind Block, Rajajinagar", "addr:housenumber": "25/91", "addr:postcode": "560010", "addr:state": "Karnataka", "addr:street": "Chord Road", "amenity": "hospital", "name": "Citi Hospital", "opening_hours": "24/7", "phone": "+(91)-80-23131778", "phone_1": "23131777", "phone_2": "23526910", "source": "OpenGovernmentData"}}, {"type": "node", "id": 1474819897, "lat": 12.9995223, "lon": 77.5505328, "tags": {"addr:city": "Bengaluru", "addr:country": "IN", "addr:district": "Bengaluru Urban", "addr:full": "Old 389, New 46, 19th Main, 1st Block, Rajaji Nagar", "addr:hamlet": "Rajajinagar 1st Block", "addr:housenumber": "46", "addr:postcode": "560010", "addr:state": "Karnataka", "addr:street": "19th Cross Road", "amenity": "hospital", "healthcare": "hospital", "name": "Vasan Eye Care Hospital, Rajaji Nagar", "source": "OpenGovernmentData", "wheelchair": "no"}}, {"type": "node", "id": 1474819898, "lat": 12.9998205, "lon": 77.55045, "tags": {"addr:district": "Bengaluru Urban", "addr:full": "No.389/44, 19th Main, 1st Block, Rajajinagar", "addr:postcode": "560010", "addr:state": "Karnataka", "amenity": "hospital", "contact:email": "enquiries@ananyahospital.org", "emergency_telephone_code": "080 23527411;09980783835", "healthcare": "hospital", "healthcare:speciality": "Cardiology;Cosmetology;Dermatology;Diabetology;Emergency Medicine;ENT;Gastroenterology;General Medicine;General Surgery;Internal Medicine;Laparoscopic Surgery;Medical Oncology;Nephrology;Obesity;Obstetricsand Gynaecology", "medical_system": "Allopathic", "name": "Ananya Hospital", "name:kn": "\u0c85\u0ca8\u0ca8\u0ccd\u0caf \u0c86\u0cb8\u0ccd\u0caa\u0ca4\u0ccd\u0cb0\u0cc6", "operator:type": "private", "source": "https://data.gov.in", "website": "www.ananyahospital.org"}}, {"type": "node", "id": 1474827898, "lat": 12.973967, "lon": 77.5479135, "tags": {"amenity": "hospital", "name": "Shivakrupa Hospital", "name:kn": "\u0cb6\u0cbf\u0cb5\u0c95\u0cc3\u0caa \u0c86\u0cb8\u0ccd\u0caa\u0ca4\u0ccd\u0cb0\u0cc6"}}, {"type": "node", "id": 1520843420, "lat": 12.9900817, "lon": 77.5525369}, {"type": "node", "id": 1520843445, "lat": 12.9918867, "lon": 77.5526093}, {"type": "node", "id": 1520843455, "lat": 12.990019, "lon": 77.5543434}, {"type": "node", "id": 1624836124, "lat": 13.0145733, "lon": 77.5556655}, {"type": "node", "id": 1624836198, "lat": 13.0146362, "lon": 77.5564812}, {"type": "node", "id": 1778854020, "lat": 12.9593144, "lon": 77.5265054, "tags": {"addr:district": "Bengaluru Urban", "addr:full": "No. 1558, Opposite Chandra Layout Bus Stand, Chandra Layout, Vijaynagar", "addr:postcode": "560048", "addr:state": "Karnataka", "amenity": "hospital", "designation": "Gurushree Multi speciality Hospital", "emergency": "yes", "name": "Gurushree Hitech Multispeciality Hospital", "source": "OpenGovernmentData"}}, {"type": "node", "id": 1778897704, "lat": 12.9755854, "lon": 77.5313495, "tags": {"addr:district": "Bengaluru Urban", "addr:full": "29 And 30, Nagarbhavi Road, Opp To Prashanthnagar Bus Stop, Vijaynagar", "addr:postcode": "560040", "addr:state": "Karnataka", "amenity": "hospital", "emergency": "no", "name": "Shobha Hospital, Bengaluru Urban", "name:kn": "\u0cb6\u0ccb\u0cad\u0cbe \u0c86\u0cb8\u0ccd\u0caa\u0ca4\u0ccd\u0cb0\u0cc6", "source": "OpenGovernmentData"}}, {"type": "node", "id": 1778953072, "lat": 12.9744053, "lon": 77.5426819, "tags": {"addr:district": "Bengaluru Urban", "addr:full": "# 91, Magadi Chord Road", "addr:postcode": "560040", "addr:state": "Karnataka", "amenity": "hospital", "designation": "Gayathri Nursing Home", "emergency": "yes", "name": "Gayathri Hospital, Bengaluru Urban", "operator:type": "private", "source": "OpenGovernmentData", "website": "http://dpal.kar.nic.in/Kanunu%20padakosha%20PDF%20Files/Recognised%20Hospitals.pdf", "wheelchair": "no"}}, {"type": "node", "id": 1780474089, "lat": 12.9736183, "lon": 77.5647794}, {"type": "node", "id": 1794166166, "lat": 13.003447, "lon": 77.504284, "tags": {"addr:district": "Bangalore", "addr:full": "Hegganahalli", "addr:postcode": "560091", "addr:state": "Karnataka", "addr:subdistrict": "Bangalore North", "amenity": "hospital", "emergency": "no", "healthcare": "centre", "name": "Government Primary Health Centre", "name:kn": "\u0cb8\u0cb0\u0ccd\u0c95\u0cbe\u0cb0\u0cbf \u0caa\u0ccd\u0cb0\u0cbe\u0ca5\u0cae\u0cbf\u0c95 \u0c86\u0cb0\u0ccb\u0c97\u0ccd\u0caf \u0c95\u0cc7\u0c82\u0ca6\u0ccd\u0cb0", "source": "OpenGovernmentData"}}, {"type": "node", "id": 1809622904, "lat": 12.9799069, "lon": 77.5389254}, {"type": "node", "id": 1809622908, "lat": 12.9800265, "lon": 77.5387148}, {"type": "node", "id": 1809622909, "lat": 12.9807207, "lon": 77.539317}, {"type": "node", "id": 1809622910, "lat": 12.9808268, "lon": 77.5390417}, {"type": "node", "id": 1809622941, "lat": 12.9776656, "lon": 77.5430998}, {"type": "node", "id": 1809622942, "lat": 12.9770135, "lon": 77.5424279}, {"type": "node", "id": 1809622943, "lat": 12.9769482, "lon": 77.543187}, {"type": "node", "id": 1809622944, "lat": 12.9777715, "lon": 77.5425472}, {"type": "node", "id": 1809734261, "lat": 12.9761294, "lon": 77.5326369, "tags": {"addr:district": "Bengaluru Urban", "addr:full": "No.4, Nagarabhavi Main Road,Prashanth Nagar,Near Shopper City Shop", "addr:postcode": "560079", "addr:state": "Karnataka", "amenity": "hospital", "name": "Bharathy Hospital", "name:kn": "\u0cad\u0cbe\u0cb0\u0ca4\u0cbf \u0c86\u0cb8\u0ccd\u0caa\u0ca4\u0ccd\u0cb0\u0cc6", "source": "OpenGovernmentData"}}, {"type": "node", "id": 2019362244, "lat": 13.0078742, "lon": 77.5625316, "tags": {"addr:city": "Bangalore", "addr:street": "11th Main Road,17th Cross", "amenity": "hospital", "dispensing": "yes", "name": "Cloud Nine Hospital", "note": "Only for pregnency", "phone": "9972999729"}}, {"type": "node", "id": 2026076836, "lat": 12.9993857, "lon": 77.5606403, "tags": {"addr:district": "Bengaluru Urban", "addr:full": "No 3367,5Th Cross, Gayathri Nagar", "addr:postcode": "560021", "addr:state": "Karnataka", "amenity": "hospital", "emergency": "yes", "name": "Nayak Hospital, Gayathri Nagar", "source": "OpenGovernmentData"}}, {"type": "node", "id": 2212459207, "lat": 12.9613237, "lon": 77.511726, "tags": {"addr:district": "Bengaluru Urban", "addr:full": "# 611 /612, Nagarabhavi Main Road", "addr:postcode": "560072", "addr:state": "Karnataka", "addr:subdistrict": "Nagarbhavi", "amenity": "hospital", "name": "Panacea Hospital, Nagarabhavi", "operator:type": "private", "source": "OpenGovernmentData", "website": "http://www.panaceahospital.com/"}}, {"type": "node", "id": 2249069522, "lat": 12.9856882, "lon": 77.5435424, "tags": {"addr:district": "Bengaluru Urban", "addr:full": "#6, Thimmaiah Layout, 1st Main 3rd D Cross, 3rd Stage, 2nd Block", "addr:postcode": "560079", "addr:state": "Karnataka", "addr:subdistrict": "Basaveshwaranagar", "amenity": "hospital", "name": "Shanbhag Hospital", "operator:type": "private", "source": "OpenGovernmentData", "website": "http://snsvo7.seekandsource.com/shanbhag/", "wheelchair": "yes"}}, {"type": "node", "id": 2268407035, "lat": 12.9946566, "lon": 77.5397544, "tags": {"addr:district": "Bengaluru Urban", "addr:full": "No. 463, 1st Block, 3Road Stage, Dr.Siddaiah Puranika Road, Basaveshwaranagear", "addr:postcode": "560079", "addr:state": "Karnataka", "amenity": "hospital", "healthcare": "hospital", "name": "Trupti Nursing Home", "source": "OpenGovernmentData"}}, {"type": "node", "id": 2296630617, "lat": 12.998445, "lon": 77.5463468}, {"type": "node", "id": 2296638505, "lat": 13.000431, "lon": 77.5411664, "tags": {"amenity": "hospital", "emergency": "no", "healthcare": "hospital", "name": "Krupa Medical center"}}, {"type": "node", "id": 2480870848, "lat": 12.9744193, "lon": 77.5336479, "tags": {"addr:city": "Bangalore", "addr:postcode": "560040", "addr:street": "Vijayanagar Water Tank Road", "amenity": "hospital", "emergency": "no", "name": "Happy Tooth"}}, {"type": "node", "id": 2480884777, "lat": 12.9745812, "lon": 77.532699, "tags": {"addr:city": "Bangalore", "addr:housename": "Vijayanagar", "addr:postcode": "560040", "addr:street": "Vijayanagar Water Tank Road", "amenity": "hospital", "name": "Rishi Women and Child Clinic"}}, {"type": "node", "id": 2483779679, "lat": 12.9736894, "lon": 77.5369482, "tags": {"addr:city": "Bangalore", "addr:housename": "Near Ganapathi Temple", "addr:postcode": "560040", "addr:street": "Vijayanagar Water Tank Road", "amenity": "hospital", "name": "Penta Care Ayurvedic Hospital"}}, {"type": "node", "id": 2484900084, "lat": 12.9436624, "lon": 77.5419997, "tags": {"addr:city": "Bangalore", "addr:housename": "Near BDA Park", "addr:housenumber": "63", "addr:postcode": "560085", "addr:street": "6th Main Road", "amenity": "hospital", "name": "Shalini Nursing & MAternity Home"}}, {"type": "node", "id": 2487658338, "lat": 12.9729127, "lon": 77.5394723, "tags": {"addr:city": "Bangalore", "addr:housename": "Service Road, Near Park View, Vijayanagar", "addr:postcode": "560040", "addr:street": "6th Main", "amenity": "hospital", "name": "Shreya Poly Clinic"}}, {"type": "node", "id": 2514705828, "lat": 12.9612829, "lon": 77.5271683, "tags": {"addr:city": "Bangalore", "addr:housename": "Below Food World, Chandra Layout", "addr:street": "4th Main Road", "amenity": "hospital", "emergency": "no", "healthcare": "hospital", "name": "Anurag Medical Center"}}, {"type": "node", "id": 2554302512, "lat": 12.9843701, "lon": 77.555666, "tags": {"amenity": "hospital", "name": "Pragathi Ayurvedic Center", "wheelchair": "no"}}, {"type": "node", "id": 2767224739, "lat": 12.9905166, "lon": 77.5647289}, {"type": "node", "id": 2767224740, "lat": 12.99098, "lon": 77.5647436}, {"type": "node", "id": 2767224741, "lat": 12.9905063, "lon": 77.5650728}, {"type": "node", "id": 2767224743, "lat": 12.9905093, "lon": 77.5649713}, {"type": "node", "id": 2767224744, "lat": 12.9909697, "lon": 77.5650875}, {"type": "node", "id": 2914260121, "lat": 12.9623406, "lon": 77.5342853, "tags": {"addr:district": "Bengaluru Urban", "addr:full": "No.1133/F,30 Ft.Service Road, R.P.C. Layout,Vijaynagar", "addr:postcode": "560040", "addr:state": "Karnataka", "amenity": "hospital", "healthcare": "hospital", "name": "Sharavathi Hospitals (P) Ltd.", "source": "OpenGovernmentData"}}, {"type": "node", "id": 3388805879, "lat": 12.9413723, "lon": 77.5220207}, {"type": "node", "id": 3391834193, "lat": 13.0116947, "lon": 77.5437623}, {"type": "node", "id": 3391834194, "lat": 13.0118449, "lon": 77.543884}, {"type": "node", "id": 3391834195, "lat": 13.0117815, "lon": 77.5439493}, {"type": "node", "id": 3391834196, "lat": 13.0117236, "lon": 77.5439225}, {"type": "node", "id": 3391834197, "lat": 13.0117024, "lon": 77.5439502}, {"type": "node", "id": 3391834198, "lat": 13.0116773, "lon": 77.5439284}, {"type": "node", "id": 3391834199, "lat": 13.0116195, "lon": 77.5439838}, {"type": "node", "id": 3391834200, "lat": 13.0115386, "lon": 77.5439225}, {"type": "node", "id": 3450573832, "lat": 12.9756047, "lon": 77.5643777}, {"type": "node", "id": 3450573833, "lat": 12.9743718, "lon": 77.5648704}, {"type": "node", "id": 3450573834, "lat": 12.9747892, "lon": 77.5630258}, {"type": "node", "id": 3450573835, "lat": 12.975074, "lon": 77.5650884}, {"type": "node", "id": 3450573836, "lat": 12.9733045, "lon": 77.5631586}, {"type": "node", "id": 3450573837, "lat": 12.9754479, "lon": 77.5629561}, {"type": "node", "id": 3450573838, "lat": 12.9754308, "lon": 77.5648577}, {"type": "node", "id": 3537864040, "lat": 12.9927273, "lon": 77.5387084}, {"type": "node", "id": 3537864045, "lat": 12.9927873, "lon": 77.5385401}, {"type": "node", "id": 3537864051, "lat": 12.9928589, "lon": 77.5387518}, {"type": "node", "id": 3537864052, "lat": 12.9929001, "lon": 77.5385824}, {"type": "node", "id": 3537864054, "lat": 12.9929167, "lon": 77.5385897}, {"type": "node", "id": 3537864061, "lat": 12.9930336, "lon": 77.5386336}, {"type": "node", "id": 3544299986, "lat": 12.9391198, "lon": 77.5512468}, {"type": "node", "id": 3544300103, "lat": 12.9391862, "lon": 77.5514089}, {"type": "node", "id": 3544300106, "lat": 12.9391903, "lon": 77.5512164}, {"type": "node", "id": 3544300124, "lat": 12.9392567, "lon": 77.5513785}, {"type": "node", "id": 3602104364, "lat": 12.9954824, "lon": 77.535466}, {"type": "node", "id": 3602104369, "lat": 12.9954992, "lon": 77.5353546}, {"type": "node", "id": 3602104516, "lat": 12.995634, "lon": 77.5354901}, {"type": "node", "id": 3602104521, "lat": 12.9956509, "lon": 77.5353788}, {"type": "node", "id": 3602433012, "lat": 12.9882971, "lon": 77.5343608}, {"type": "node", "id": 3602433030, "lat": 12.988331, "lon": 77.534258}, {"type": "node", "id": 3602433054, "lat": 12.9883934, "lon": 77.5343943}, {"type": "node", "id": 3602433072, "lat": 12.9884273, "lon": 77.5342914}, {"type": "node", "id": 4008910190, "lat": 13.0082293, "lon": 77.5633515}, {"type": "node", "id": 4008910191, "lat": 13.0081174, "lon": 77.5633492}, {"type": "node", "id": 4008910192, "lat": 13.008116, "lon": 77.5635795}, {"type": "node", "id": 4008910193, "lat": 13.0082315, "lon": 77.563504}, {"type": "node", "id": 4171032289, "lat": 12.9767055, "lon": 77.5424167, "tags": {"addr:street": "8th cross", "amenity": "hospital"}}, {"type": "node", "id": 4343881190, "lat": 12.9850421, "lon": 77.5460481, "tags": {"addr:district": "Bengaluru Urban", "addr:full": "No 370.371,I Stage West Of Cord Road", "addr:postcode": "560079", "addr:state": "Karnataka", "amenity": "hospital", "name": "Dr Raos Maternity Hospital", "source": "OpenGovernmentData"}}, {"type": "node", "id": 4406333893, "lat": 12.9717049, "lon": 77.5493718, "tags": {"amenity": "hospital", "name": "Shiva Kumaraswamy Building", "name:en": "shiva kumaraswamy building"}}, {"type": "node", "id": 4444989840, "lat": 12.9390944, "lon": 77.5619057, "tags": {"addr:city": "bangalore", "addr:housenumber": "11/2", "addr:postcode": "560079", "addr:street": "Magadi Main Road", "amenity": "hospital", "name": "Sarvodaya Hospital", "name:kn": "\u0cb8\u0cb0\u0ccd\u0cb5\u0ccb\u0ca6\u0caf \u0c86\u0cb8\u0ccd\u0caa\u0ca4\u0ccd\u0cb0\u0cc6", "phone": "098440 74946"}}, {"type": "node", "id": 4445356902, "lat": 12.966771, "lon": 77.5349228, "tags": {"addr:city": "Bangalore", "addr:postcode": "560040", "addr:street": "17th Cross Rd, Service Road, Opp. Maruthi Mandir, TTMC Bus Stop, Govindaraja Nagar Ward, PF Layout, Vijayanagar", "amenity": "hospital", "healthcare": "hospital", "name": "Employees State Insurance Dispensary", "operator": "Employees' State Insurance", "operator:short": "ESI", "operator:type": "private", "operator:wikidata": "Q3595726", "phone": "080 2845 2785", "website": "globalhospitalsindia.com"}}, {"type": "node", "id": 4446664412, "lat": 12.9881648, "lon": 77.5548179, "tags": {"addr:city": "bangalore", "addr:housenumber": "111", "addr:postcode": "560010", "addr:street": "West of Chord Road,, Opp Rajajinagar 1st Block Junction", "amenity": "hospital", "name": "Fortis Hospital", "name:kn": "\u0cab\u0ccb\u0cb0\u0ccd\u0c9f\u0cbf\u0cb8\u0ccd \u0c86\u0cb8\u0ccd\u0caa\u0ca4\u0ccd\u0cb0\u0cc6", "phone": "080-2300-4444", "website": "fortisbangalore.com"}}, {"type": "node", "id": 4446881168, "lat": 12.9378359, "lon": 77.5573329, "tags": {"addr:city": "Bangalore", "addr:housenumber": "5", "addr:postcode": "560050", "addr:street": "80 Feet Road, 1st Stage, Srinivasa Nagar, Banashankari", "amenity": "hospital", "name": "\" NRS Medical & Dental Specialists Centre\"", "phone": "080-26696054"}}, {"type": "node", "id": 4446891375, "lat": 12.9386994, "lon": 77.5518394, "tags": {"addr:city": "bangalore", "addr:district": "Bengaluru Urban", "addr:housenumber": "60", "addr:postcode": "560050", "addr:state": "Karnataka", "addr:street": "2nd Main, Bsk 1st Stage, 80 Feet Road, Srinivasa Nagar,Sree Manjunatha Temple Street", "amenity": "hospital", "name": "Chiranjeevi Hospital & Maternity Home", "phone": "080 2691 7676", "source": "OpenGovernmentData"}}, {"type": "node", "id": 4446893667, "lat": 12.9373748, "lon": 77.5494778, "tags": {"addr:city": "bangalore", "addr:district": "Bengaluru Urban", "addr:full": "110, 1st Main, Sbm Colony, Bsk 1st Stage Hanumantha Nagar", "addr:housenumber": "110", "addr:postcode": "560050", "addr:state": "Karnataka", "addr:street": "State Bank Of Mysore Colony, 1st Stage,80 Feet Road,, Banashankari", "amenity": "hospital", "name": "Vinayaka Hospital, Hanumantha Nagar", "operator:type": "private", "phone": "080 2679 6167", "source": "OpenGovernmentData", "website": "http://dpal.kar.nic.in/Kanunu%20padakosha%20PDF%20Files/Recognised%20Hospitals.pdf"}}, {"type": "node", "id": 4446894388, "lat": 12.9354293, "lon": 77.5477956, "tags": {"addr:city": "Banglore", "addr:housenumber": "788", "addr:postcode": "560050", "addr:street": "11th Cross, 2nd Main, 80ft Main Road, SBM Colony, Giri Nagar 4th Phase", "amenity": "hospital", "name": "Diavista Diabetes & Multispeciality Hospital", "phone": "080 4096 9392", "source": "justdail", "website": "diavista.co.in"}}, {"type": "node", "id": 4446897063, "lat": 12.9420715, "lon": 77.553698, "tags": {"addr:city": "Bengaluru", "addr:housenumber": "979/A", "addr:postcode": "560085", "addr:street": "50 Feet Road", "amenity": "hospital", "name": "Meenakshi Hospital", "name:kn": "\u0cae\u0cc0\u0ca8\u0cbe\u0c95\u0ccd\u0cb7\u0cbf \u0c86\u0cb8\u0ccd\u0caa\u0ca4\u0ccd\u0cb0\u0cc6", "phone": "+918026755800"}}, {"type": "node", "id": 4446899253, "lat": 12.9408667, "lon": 77.5603657, "tags": {"addr:city": "bangalore", "addr:district": "Bengaluru Urban", "addr:full": "#795/1, 9Th Main ,Bsk 1st, Stage,2nd Block,Hanumantha Nagar", "addr:housenumber": "795/1", "addr:postcode": "560050", "addr:state": "Karnataka", "addr:street": "9th Main, 2nd Block, Hanumantha Nagar, Near-Shaneshwara Temple Road, Banashankari 1st Stage", "amenity": "hospital", "name": "Medi-Tech Multi Speciality Hospital", "phone": "080 2660 2910", "source": "OpenGovernmentData"}}, {"type": "node", "id": 4446900247, "lat": 12.9420124, "lon": 77.5506918, "tags": {"addr:city": "bangalore", "addr:housenumber": "237/37", "addr:postcode": "560050", "addr:street": "Nagendra Block, 50ft Road, 10th Main Rd, Srinagar, Banashankari", "amenity": "hospital", "name": "Kusuma Hospital", "phone": "080 2642 1177", "source": "justdail"}}, {"type": "node", "id": 4446907712, "lat": 12.9389007, "lon": 77.5438808, "tags": {"addr:city": "bangalore", "addr:housenumber": "5/8/1", "addr:postcode": "560085", "addr:street": "20th Main Road, Muneshwara Block, Girinagar, 1st phase Girinagar, Kadavanthra, Banashankari", "amenity": "hospital", "name": "Pulse Multispecialty Hospital", "phone": "080 2672 4466", "source": "just dial"}}, {"type": "node", "id": 4447009524, "lat": 12.9984229, "lon": 77.5403887, "tags": {"addr:city": "Bangalore", "addr:housenumber": "877", "addr:postcode": "560010", "addr:street": "Dr. Modi Hospital Road, 2nd stage extension", "amenity": "hospital", "name": "Pristine Hospital", "name:kn": "\u0caa\u0ccd\u0cb0\u0cbf\u0cb8\u0ccd\u0c9f\u0cc0\u0ca8\u0ccd \u0c86\u0cb8\u0ccd\u0caa\u0ca4\u0ccd\u0cb0\u0cc6", "phone": "+9180 4135 4444", "source": "www.justdial.com", "website": "pristinehospitals.com"}}, {"type": "node", "id": 4447013195, "lat": 12.9575029, "lon": 77.5276466, "tags": {"addr:city": "Bangalore", "addr:district": "Bengaluru Urban", "addr:full": "#1222, 80, Feet Road, Chandra Layout", "addr:housenumber": "1222", "addr:postcode": "560040", "addr:state": "Karnataka", "addr:street": "14th Main Road", "amenity": "hospital", "healthcare": "hospital", "name": "Sri Vinayaka Hospital", "phone": "080 2339 8062", "source": "OpenGovernmentData"}}, {"type": "node", "id": 4447015118, "lat": 12.9573897, "lon": 77.5276882, "tags": {"addr:city": "Bangalore", "addr:postcode": "560040", "addr:street": "14th Main Road", "amenity": "hospital", "healthcare": "hospital", "name": "Shathayu Ayurveda Wellness Centre", "phone": "+91 8040999110"}}, {"type": "node", "id": 4447020601, "lat": 13.0226079, "lon": 77.4748015, "tags": {"addr:city": "bangalore", "addr:housenumber": "138", "addr:postcode": "560050", "addr:street": "NICE Peripheral Ring Road", "amenity": "hospital", "name": "Shri Vishnu Ent Speciality Center", "phone": "+91 80 2672 4211", "source": "www.justdial.com"}}, {"type": "node", "id": 4447072265, "lat": 12.9594984, "lon": 77.5275515, "tags": {"addr:city": "Bangalore", "addr:housenumber": "1133/f", "addr:postcode": "560040", "addr:street": "30 Service Road Rpc Layout Vijaynagar, Chandra Layout", "amenity": "hospital", "name": "Hospital Sharavathi", "phone": "+918023300222"}}, {"type": "node", "id": 4447072624, "lat": 12.9735891, "lon": 77.5443283, "tags": {"addr:city": "Bangalore", "addr:postcode": "560040", "addr:street": "Adichunchangiri Shopping Complex Adichunchangirishpgcplx Vjyngrb40 Vijaynagar, Attiguppe", "amenity": "hospital", "name": "Arogya Kendra", "name:kn": "\u0c86\u0cb0\u0ccb\u0c97\u0ccd\u0caf \u0c95\u0cc7\u0c82\u0ca6\u0ccd\u0cb0", "phone": "+918023400463"}}, {"type": "node", "id": 4447073029, "lat": 13.0029689, "lon": 77.5526666, "tags": {"addr:city": "bangalore", "addr:postcode": "560010", "addr:street": "10A Crossroad", "amenity": "hospital", "healthcare": "hospital", "name": "The Family Doctor Malleswaram", "phone": "+9180 2337 6262", "source": "www.yellowpages.co.in", "website": "https://thefamilydoctor.co.in/"}}, {"type": "node", "id": 4447075424, "lat": 12.9644231, "lon": 77.5333324, "tags": {"addr:city": "Bangalore", "addr:housenumber": "3437", "addr:postcode": "560040", "addr:street": "7 Subbanna Garden Vijaynagar, Attiguppe", "amenity": "hospital", "healthcare": "hospital", "name": "Venkat Charmalaya", "phone": "+918023392788"}}, {"type": "node", "id": 4447076167, "lat": 12.9787049, "lon": 77.5403581, "tags": {"addr:housenumber": "30/2", "addr:street": "S V Complex Magadi Main\u00a0Vijaynagar, Magadi Road", "amenity": "hospital", "name": "V Care\u00a0Medical\u00a0Systems P Ltd", "phone": "+918023110651"}}, {"type": "node", "id": 4447076314, "lat": 12.968821, "lon": 77.5246297, "tags": {"addr:city": "Bangalore", "addr:district": "Bengaluru Urban", "addr:full": "189, Shiva Complex, Shivananda Nagar, Near Vijay Bank, Moodalapalya", "addr:postcode": "560040", "addr:state": "Karnataka", "addr:street": "Nagarabhavi Road", "amenity": "hospital", "name": "Manasa Hospital", "name:kn": "\u0cae\u0cbe\u0ca8\u0cb8 \u0c86\u0cb8\u0ccd\u0caa\u0ca4\u0ccd\u0cb0\u0cc6", "phone": "+918023104640", "source": "OpenGovernmentData", "website": "http://www.manasa.in/"}}, {"type": "node", "id": 4447079172, "lat": 12.9691657, "lon": 77.5351921, "tags": {"addr:city": "Bangalore", "addr:district": "Vijayapura", "addr:full": "20th B Cross, Marenahalli Main Road, Vijayanagar", "addr:housenumber": "51/88", "addr:postcode": "560040", "addr:state": "Karnataka", "addr:street": "20th B Cross, Marenahalli Main Road, Govindaraja Nagar Ward, Vijayanagar", "amenity": "hospital", "name": "Saikrupa Hospital For Women's and Surgical Centre", "operator:type": "private", "phone": "+91080 2311 9592", "source": "OpenGovernmentData", "website": "http://dpal.kar.nic.in/Kanunu%20padakosha%20PDF%20Files/Recognised%20Hospitals.pdf"}}, {"type": "node", "id": 4447082866, "lat": 12.9768117, "lon": 77.5449094, "tags": {"addr:city": "Bangalore", "addr:housenumber": "5/1", "addr:postcode": "560040", "addr:street": "4th Main, MRCR Layout, Vijayanagar, Behind Godrej Interio, Near Veeresh Theatre, Govindaraja Nagar Ward, MC Layout, Vijayanagar", "amenity": "hospital", "healthcare": "hospital", "name": "Cutis Academy of Cutaneous Sciences", "phone": "080 4115 9049"}}, {"type": "node", "id": 4447083784, "lat": 12.9621516, "lon": 77.533401, "tags": {"addr:city": "Bangalore", "addr:postcode": "560040", "addr:street": "Chord Road", "amenity": "hospital", "healthcare": "hospital", "name": "Shreya Hearing Clinic", "phone": "\" 080 2318 0012\""}}, {"type": "node", "id": 4447088630, "lat": 12.9603312, "lon": 77.5300796, "tags": {"addr:city": "Bangalore", "addr:housenumber": "NO.105", "addr:postcode": "560040", "addr:street": "Widia Layout, Chandra Layout Main Road, Govindaraja Nagar Ward, Widia Layout, Vijayanagar", "amenity": "hospital", "name": "Prasad Nethralaya", "phone": "080 2339 2807"}}, {"type": "node", "id": 4447097087, "lat": 12.9717905, "lon": 77.5372864, "tags": {"addr:city": "Bangalore", "addr:housenumber": "46", "addr:postcode": "560040", "addr:street": "17th Cross, Near Main Bus Stand, M.C. Road, Vijayanagar", "amenity": "hospital", "name": "Vijayanagar Global Hospital", "phone": "080 4240 8200"}}, {"type": "node", "id": 4447100075, "lat": 12.9649703, "lon": 77.5389842, "tags": {"addr:city": "Bangalore", "addr:housenumber": "221", "addr:postcode": "560040", "addr:street": "1st Floor, Next to Sai Prasadam Hotel, 5th Main Rd, Hampi Nagar 2nd Stage, RPC Layout", "amenity": "hospital", "healthcare": "hospital", "name": "Blossom Infertility Center", "phone": "+91 99009 99116"}}, {"type": "node", "id": 4447105332, "lat": 12.958321, "lon": 77.5350434, "tags": {"addr:city": "Bangalore", "addr:housenumber": "30", "addr:postcode": "560040", "addr:street": "1108/30 10Th Main 4Th Cross, Rpc Layout, Vijayanagar", "amenity": "hospital", "name": "Padmashree Nursing Home and Maternity Home", "phone": "080 2311 8372"}}, {"type": "node", "id": 4447119911, "lat": 12.9639998, "lon": 77.5302683, "tags": {"addr:city": "Bangalore", "addr:housenumber": "17", "addr:postcode": "560040p", "addr:street": "1st Main Rd, Kaveri Layout, Govindaraja Nagar Ward, Anubhav Nagar, Vijayanagar", "amenity": "hospital", "healthcare": "hospital", "phone": "080 2335 2200"}}, {"type": "node", "id": 4447142720, "lat": 12.9706209, "lon": 77.5151893, "tags": {"addr:city": "Bangalore", "addr:housenumber": "63", "addr:postcode": "560072", "addr:street": ", Byraveshwara Nagar, 2nd Main, Moodalapalya, Nagarabhavi Main Road, 2nd Block, Govindaraja Nagar Ward", "amenity": "hospital", "name": "Dhanush Hospital", "name:kn": "\u0ca7\u0ca8\u0cc1\u0cb7\u0ccd \u0c86\u0cb8\u0ccd\u0caa\u0ca4\u0ccd\u0cb0\u0cc6", "phone": "080 2318 5544"}}, {"type": "node", "id": 4447155158, "lat": 12.957572, "lon": 77.5184436, "tags": {"addr:city": "Bangalore", "addr:district": "Bengaluru Urban", "addr:full": "No3 Ist Cross Janabharathi Road Nagarabhvi Circle", "addr:postcode": "560072", "addr:state": "Karnataka", "addr:street": "Nagarabhavi Road", "amenity": "hospital", "name": "S K Hospital, Bengaluru Urban", "phone": "080 2321 3699", "source": "OpenGovernmentData"}}, {"type": "node", "id": 4447213952, "lat": 12.9698405, "lon": 77.5327211, "tags": {"addr:city": "Bangalore", "addr:housenumber": "17", "addr:postcode": "560040", "addr:street": "1st Main Rd, Kaveri Layout, Govindaraja Nagar Ward, Anubhav Nagar, Vijayanagar,", "amenity": "hospital", "name": "Modern Family Doctor Pvt Ltd", "phone": "080 2335 2200"}}, {"type": "node", "id": 4484938764, "lat": 13.0044499, "lon": 77.5530755, "tags": {"addr:city": "bangalore", "addr:housenumber": "34/3", "addr:postcode": "560010", "addr:street": "Vidhya Vardhaka Sangha Road", "amenity": "hospital", "healthcare": "hospital", "name": "Tamara Hospital & IVF Centre", "phone": "+91 80 2337 0780", "website": "https://tamarahealthcare.com/"}}, {"type": "node", "id": 4509817152, "lat": 12.995573, "lon": 77.5354215, "tags": {"amenity": "hospital", "healthcare": "hospital", "name": "ChanRe Rheumatology and Immunology Center and Research", "name_1": "Chan re hospital", "name_2": "Chanre hospital"}}, {"type": "node", "id": 4518518893, "lat": 12.9838763, "lon": 77.4788534, "tags": {"amenity": "hospital", "name": "Anupama Hospital", "name:en": "Anupama hospital", "name:kn": "\u0c85\u0ca8\u0cc1\u0caa\u0cae \u0c86\u0cb8\u0ccd\u0caa\u0ca4\u0ccd\u0cb0\u0cc6"}}, {"type": "node", "id": 4533735695, "lat": 12.9709463, "lon": 77.5451059, "tags": {"addr:district": "Bengaluru Urban", "addr:full": "No. 318, 6Th Main,2nd Cross,Vijayanagar", "addr:postcode": "560040", "addr:state": "Karnataka", "amenity": "hospital", "name": "Manasa Hospital, Vijayanagar", "source": "OpenGovernmentData"}}, {"type": "node", "id": 4597833389, "lat": 12.9984887, "lon": 77.5504219, "tags": {"addr:district": "Bengaluru Urban", "addr:full": "No. 408, 20Th Main, 1st Block,Opp Swathi Hotel, Woc Road, Rajajinagar", "addr:postcode": "560010", "addr:state": "Karnataka", "amenity": "hospital", "healthcare": "hospital", "healthcare:speciality": "orthopaedics", "name": "Cauvery Orthopaedic Centre", "source": "OpenGovernmentData"}}, {"type": "node", "id": 4623723101, "lat": 12.997613, "lon": 77.5509423, "tags": {"addr:district": "Bengaluru Urban", "addr:full": "No.607/77, 1st Main, Dr.Rajkumar Road, Rajajinagar 2nd Block", "addr:postcode": "560021", "addr:state": "Karnataka", "amenity": "hospital", "healthcare": "hospital", "name": "Nethradhama Superspeciality Eye Hospital, Rajajinagar", "name:en": "Nethradhama", "name:kn": "\u0ca8\u0cc7\u0ca4\u0ccd\u0cb0\u0ca7\u0cbe\u0cae", "source": "OpenGovernmentData"}}, {"type": "node", "id": 5019525996, "lat": 13.0054254, "lon": 77.5524929}, {"type": "node", "id": 5019525997, "lat": 13.0058201, "lon": 77.551624}, {"type": "node", "id": 5157373807, "lat": 12.9849537, "lon": 77.5569222, "tags": {"addr:district": "Bengaluru Urban", "addr:full": "6/63, 59Th Cross, 4Th Block, Rajajinagar Entrance, Mei Polytechnic, Rajajinagar", "addr:postcode": "560010", "addr:state": "Karnataka", "alt_name": "Altius Cancer Center", "amenity": "hospital", "healthcare": "hospital", "name": "Altius Hospital", "source": "OpenGovernmentData"}}, {"type": "node", "id": 5174994725, "lat": 13.011845, "lon": 77.5526061, "tags": {"amenity": "hospital", "healthcare": "hospital", "name": "NU Hospitals"}}, {"type": "node", "id": 5259407821, "lat": 12.966103, "lon": 77.5549647, "tags": {"amenity": "hospital", "healthcare": "hospital", "name": "Government Hospital", "name:kn": "\u0cb8\u0cb0\u0ccd\u0c95\u0cbe\u0cb0\u0cbf \u0c86\u0cb8\u0ccd\u0caa\u0ca4\u0ccd\u0cb0\u0cc6"}}, {"type": "node", "id": 5825292845, "lat": 12.9939752, "lon": 77.5391801, "tags": {"addr:district": "Bengaluru Urban", "addr:full": "565 Iii Stage 4Th Block", "addr:postcode": "560079", "addr:state": "Karnataka", "amenity": "hospital", "healthcare": "hospital", "healthcare:speciality": "gynaecology", "name": "Vathsalya Speciality Hospital", "source": "OpenGovernmentData"}}, {"type": "node", "id": 5879132707, "lat": 12.9677607, "lon": 77.5413282, "tags": {"addr:district": "Bengaluru Urban", "addr:full": "No.14 , Maruthi Nagar , Near Maruthi Temple , Nagarbhavi Main Road", "addr:postcode": "560072", "addr:state": "Karnataka", "amenity": "hospital", "name": "Maruthi Hospital", "name:kn": "\u0cae\u0cbe\u0cb0\u0cc1\u0ca4\u0cbf \u0c86\u0cb8\u0ccd\u0caa\u0ca4\u0ccd\u0cb0\u0cc6", "source": "OpenGovernmentData"}}, {"type": "node", "id": 6345494316, "lat": 12.9900436, "lon": 77.5537173, "tags": {"access": "private", "barrier": "gate"}}, {"type": "node", "id": 6502980174, "lat": 12.9821954, "lon": 77.5493143, "tags": {"addr:district": "Bengaluru Urban", "addr:full": "1032, 5th Block Opp Ganesh Temple, Chor Road Rajajinagar", "addr:postcode": "560010", "addr:state": "Karnataka", "amenity": "hospital", "healthcare": "hospital", "name": "The Eye Surgical Centre"}}, {"type": "node", "id": 6546893768, "lat": 12.9975999, "lon": 77.5456096}, {"type": "node", "id": 6546893769, "lat": 12.9983899, "lon": 77.5454543}, {"type": "node", "id": 6656628403, "lat": 13.0158522, "lon": 77.563794, "tags": {"entrance": "yes"}}, {"type": "node", "id": 6807542967, "lat": 13.0182102, "lon": 77.540004, "tags": {"amenity": "hospital", "healthcare": "hospital", "name": "Lourdes High School"}}, {"type": "node", "id": 6807544239, "lat": 13.0178339, "lon": 77.5416911}, {"type": "node", "id": 6807544240, "lat": 13.0177215, "lon": 77.5416428}, {"type": "node", "id": 6807544241, "lat": 13.0177006, "lon": 77.5417153}, {"type": "node", "id": 6807544242, "lat": 13.0178156, "lon": 77.5417689}, {"type": "node", "id": 6807551928, "lat": 13.016705, "lon": 77.539386, "tags": {"amenity": "hospital", "healthcare": "hospital", "name": "Boregowda Lingamma Hospital", "name:kn": "\u0cac\u0ccb\u0cb0\u0cc6\u0c97\u0ccc\u0ca1 \u0cb2\u0cbf\u0c82\u0c97\u0cae\u0ccd\u0cae \u0c86\u0cb8\u0ccd\u0caa\u0ca4\u0ccd\u0cb0\u0cc6"}}, {"type": "node", "id": 6807551937, "lat": 13.0175606, "lon": 77.5394308, "tags": {"amenity": "hospital", "healthcare": "hospital", "name": "Kanva Hospital"}}, {"type": "node", "id": 6854592430, "lat": 13.0057054, "lon": 77.5518793}, {"type": "node", "id": 6855409793, "lat": 12.9998982, "lon": 77.5501121, "tags": {"addr:district": "Bengaluru Urban", "addr:full": "Laxmi, No.20, Shankarmutt Main Road", "addr:postcode": "560004", "addr:state": "Karnataka", "amenity": "hospital", "healthcare": "hospital", "name": "Dr. Agrawal's Eye Hospital", "source": "OpenGovernmentData"}}, {"type": "node", "id": 6900054522, "lat": 13.0039532, "lon": 77.5499571}, {"type": "node", "id": 6937748988, "lat": 12.9948905, "lon": 77.5347984, "tags": {"addr:district": "Bengaluru Urban", "addr:full": "No.65,N.H.C.S. Layout,3Road Stage,4Th Block,Basaveshwar Nagar,Kamalanagar Main Road", "addr:postcode": "560079", "addr:state": "Karnataka", "amenity": "hospital", "healthcare": "hospital", "name": "Ashok Hospital", "source": "OpenGovernmentData"}}, {"type": "node", "id": 6937844482, "lat": 12.9517481, "lon": 77.4939886, "tags": {"addr:district": "Bengaluru Urban", "addr:full": "#43/2, 3Road Cross, OppositeSaroja Memorial School, Jnanajyothi Nagar, Ullal Main Road", "addr:postcode": "560056", "addr:state": "Karnataka", "amenity": "hospital", "name": "Abhay Hospital", "name:kn": "\u0c85\u0cad\u0caf \u0c86\u0cb8\u0ccd\u0caa\u0ca4\u0ccd\u0cb0\u0cc6", "source": "OpenGovernmentData"}}, {"type": "node", "id": 6938540502, "lat": 12.9829857, "lon": 77.5309655, "tags": {"addr:district": "Bengaluru Urban", "addr:full": "No. 2/3, 5Th Main Shiva Complex, Kamakshipalya, Nagadimain Road , Opp Vishal Theatre", "addr:postcode": "560043", "addr:state": "Karnataka", "amenity": "hospital", "name": "Shreyas Hospital, Bengaluru Urban", "source": "OpenGovernmentData"}}, {"type": "node", "id": 6938690600, "lat": 12.9822186, "lon": 77.5599374, "tags": {"addr:district": "Bengaluru Urban", "addr:full": "1033,4 Th Block Dr Rajdumar Road", "addr:postcode": "560010", "addr:state": "Karnataka", "amenity": "hospital", "name": "Sri Dhavantari Ayurveda Hoapital", "source": "OpenGovernmentData"}}, {"type": "node", "id": 6938690603, "lat": 12.9845512, "lon": 77.5528322, "tags": {"addr:district": "Bengaluru Urban", "addr:full": "No. 851/D , 5Th Block , Rajajinagar , 60Th Cross", "addr:postcode": "560040", "addr:state": "Karnataka", "amenity": "hospital", "name": "Vaidyam Hospital", "source": "OpenGovernmentData"}}, {"type": "node", "id": 6938690604, "lat": 12.9897745, "lon": 77.5551014, "tags": {"addr:district": "Bengaluru Urban", "addr:full": "723 / B Main E S I Hospital Raod, 3Road Block, Rajajinagar", "addr:postcode": "560010", "addr:state": "Karnataka", "amenity": "hospital", "name": "Suresh Hospital - Bangalore", "source": "OpenGovernmentData"}}, {"type": "node", "id": 6938690629, "lat": 13.0089953, "lon": 77.5406188, "tags": {"addr:district": "Bengaluru Urban", "addr:full": "41-42/5 7Th Cross, Saraswathipuram, Nandini Layout, Main Road", "addr:postcode": "560096", "addr:state": "Karnataka", "amenity": "hospital", "name": "Shankara Nethralaya Eye Hospital", "source": "OpenGovernmentData"}}, {"type": "node", "id": 6938695148, "lat": 12.9992083, "lon": 77.550269, "tags": {"addr:district": "Bengaluru Urban", "addr:full": "No. 414/65, 20th Main, West of Chord road, 1st Block, Rajajinagar, Bangalore", "addr:postcode": "560010", "addr:state": "Karnataka", "amenity": "hospital", "contact:email": "info@chanrericr.com", "contact:phone": "080 - 42516699", "healthcare": "hospital", "name": "ChanRe Rheumatology and Immunology Center and Research", "source": "OpenGovernmentData", "website": "https://www.chanrericr.com/"}}, {"type": "node", "id": 6938695149, "lat": 12.9579894, "lon": 77.5114394, "tags": {"addr:district": "Bengaluru Urban", "addr:full": "54, 4th cross,4th main, NGEF Layout, Nrupathunganagar, Nagarabhavi, Bengaluru, Karnataka 560072", "addr:postcode": "560072", "addr:state": "Karnataka", "amenity": "hospital", "name": "Chandana Hospital", "source": "OpenGovernmentData"}}, {"type": "node", "id": 6938774143, "lat": 12.9650437, "lon": 77.5435022, "tags": {"addr:district": "Bengaluru Urban", "addr:full": "No.10, Pipeline Road, RPC Layout, Vijayanagar, 2nd Stage", "addr:postcode": "560104", "addr:state": "Karnataka", "amenity": "hospital", "email": "skamcBengaluru@gmail.com", "healthcare": "hospital", "name": "Sri Kalabyraveshwara Swamy Ayurvedic Medical College hospital", "operator:type": "private", "source": "OpenGovernmentData", "website": "http://skayurvediccollegeandhospital.com/"}}, {"type": "node", "id": 6938775801, "lat": 12.9765645, "lon": 77.5455876, "tags": {"addr:district": "Bengaluru Urban", "addr:full": "No 18/2, 1st Cross, M.C. Layout, Vijayanagar", "addr:postcode": "560079", "addr:state": "Karnataka", "amenity": "hospital", "name": "Anugraha Hospital, Vijayanagar", "name:kn": "\u0c85\u0ca8\u0cc1\u0c97\u0ccd\u0cb0\u0cb9 \u0c86\u0cb8\u0ccd\u0caa\u0ca4\u0ccd\u0cb0\u0cc6", "source": "OpenGovernmentData"}}, {"type": "node", "id": 6938775845, "lat": 12.95727, "lon": 77.5640827, "tags": {"addr:district": "Bengaluru Urban", "addr:full": "# 122, 5th Main Road, Chamarajpet", "addr:postcode": "560018", "addr:state": "Karnataka", "amenity": "hospital", "email": "retinaKarnatakaa@gmail.com", "name": "Retina Institute Of Karnataka", "operator:type": "private", "source": "OpenGovernmentData", "website": "https://www.retinainstitute.org/"}}, {"type": "node", "id": 6938775846, "lat": 12.9572978, "lon": 77.5644522, "tags": {"addr:district": "Bengaluru Urban", "addr:full": "123, 5Th Main Road, Chamarajpet", "addr:postcode": "560018", "addr:state": "Karnataka", "amenity": "hospital", "name": "The Venlakh Hospital", "source": "OpenGovernmentData"}}, {"type": "node", "id": 6938775854, "lat": 12.9406698, "lon": 77.5644596, "tags": {"addr:district": "Bengaluru Urban", "addr:full": "No.10/4 & 10/5, 3Road Main Road, Hanumanthanagar", "addr:postcode": "560019", "addr:state": "Karnataka", "amenity": "hospital", "name": "Vishwabharathi Hospital Pvt. Ltd", "source": "OpenGovernmentData"}}, {"type": "node", "id": 6938775855, "lat": 12.9404548, "lon": 77.5578493, "tags": {"addr:district": "Bengaluru Urban", "addr:full": "No 519/34, 2nd Cross 10Th Main, Bsk 1st Stage Banashankari", "addr:postcode": "560050", "addr:state": "Karnataka", "amenity": "hospital", "name": "Sunetra Eye Hospital, Bengaluru Urban", "source": "OpenGovernmentData"}}, {"type": "node", "id": 6938777957, "lat": 12.9817311, "lon": 77.5333714, "tags": {"addr:district": "Bengaluru Urban", "addr:full": "67/1, H V R Complex Magadi Main Road Kanakapura", "addr:postcode": "560079", "addr:state": "Karnataka", "amenity": "hospital", "name": "Padmavathi Hospital, Bengaluru Urban", "source": "OpenGovernmentData"}}, {"type": "node", "id": 6938777962, "lat": 12.9957177, "lon": 77.5031644, "tags": {"addr:district": "Bengaluru Rural", "addr:full": "# 1/3, Heggenanalli Main Road, Opposite Ganesh Temple, Near Peenya 2nd Stage, , Last Bus Stop", "addr:postcode": "560091", "addr:state": "Karnataka", "amenity": "hospital", "name": "Panchamukhi Specialityu Hospital", "source": "OpenGovernmentData"}}, {"type": "node", "id": 6938779562, "lat": 12.9881868, "lon": 77.5087273, "tags": {"addr:district": "Bengaluru Urban", "addr:full": "No. 127/1, Sri Gandhanda Kaval, Sunkadakatte, Viswaneedam Post, Magadi Main Road", "addr:postcode": "560054", "addr:state": "Karnataka", "amenity": "hospital", "name": "Sri Lakshmi Multi Speciality Hospital", "source": "OpenGovernmentData"}}, {"type": "node", "id": 6938794412, "lat": 13.0223669, "lon": 77.5587304, "tags": {"addr:district": "Bengaluru Urban", "addr:full": "1105, 5Th Cross,Kn Extension, Yeshwanthpur", "addr:postcode": "560022", "addr:state": "Karnataka", "amenity": "hospital", "name": "Kala Hospital", "source": "OpenGovernmentData"}}, {"type": "node", "id": 6939075872, "lat": 12.9929043, "lon": 77.5588015, "tags": {"addr:district": "Bengaluru Urban", "addr:full": "15/1 Iyappaswamy Templestraight Road", "addr:postcode": "560021", "addr:state": "Karnataka", "amenity": "hospital", "healthcare": "hospital", "name": "Supriya Hospital, Bengaluru Urban", "source": "OpenGovernmentData"}}, {"type": "node", "id": 6939257334, "lat": 12.974865, "lon": 77.5096312, "tags": {"addr:district": "Bengaluru Urban", "addr:full": "42, 7Th Block,Ii Stage,Nagarabhavi Ring Road,Near Bhojana Shale Hotel", "addr:postcode": "560072", "addr:state": "Karnataka", "amenity": "hospital", "name": "Essential Hospital", "source": "OpenGovernmentData"}}, {"type": "node", "id": 6939438895, "lat": 12.982442, "lon": 77.5493681, "tags": {"addr:district": "Bengaluru Urban", "addr:full": "1031, 20Th Main Road, 5Th Block, Rajajinagar", "addr:postcode": "560010", "addr:state": "Karnataka", "amenity": "hospital", "name": "Sidvin Hospital Pvt Ltd", "source": "OpenGovernmentData"}}, {"type": "node", "id": 6944256035, "lat": 13.0045747, "lon": 77.5432728, "tags": {"addr:district": "Bengaluru Urban", "addr:full": "158, 6Th Main Road 4Th Stage, Ii Phase West Of Chord Road", "addr:postcode": "560086", "addr:state": "Karnataka", "amenity": "hospital", "name": "Namratha Nursing And Maternity Home", "source": "OpenGovernmentData"}}, {"type": "node", "id": 6944256036, "lat": 12.9424801, "lon": 77.5473283, "tags": {"addr:district": "Bengaluru Urban", "addr:full": "5/81, 50 Feet Road, 20Th Main Road, Muneshwara Block, Girinagar", "addr:postcode": "560085", "addr:state": "Karnataka", "amenity": "hospital", "name": "The Pulse Multi Speciality Hospital", "source": "OpenGovernmentData"}}, {"type": "node", "id": 6944269353, "lat": 12.9526505, "lon": 77.5548633, "tags": {"addr:district": "Bengaluru Urban", "addr:full": "Kempegoudanagara, Near Police Station, South", "addr:postcode": "560018", "addr:state": "Karnataka", "amenity": "hospital", "name": "Gavipuramguttahalli Maternity Home", "source": "OpenGovernmentData"}}, {"type": "node", "id": 6944276882, "lat": 12.9745134, "lon": 77.5493883, "tags": {"addr:district": "Bengaluru Urban", "addr:full": "No-170, 12th, Ist Main, Near Anjaneya Temple, Opposite Karnatakaa Bank", "addr:postcode": "560086", "addr:state": "Karnataka", "amenity": "hospital", "email": "info@bengaluruspinecare.com", "name": "Spine Care And Ortho Care Hospital", "operator:type": "private", "source": "OpenGovernmentData", "website": "https://www.bengaluruspinecare.com/"}}, {"type": "node", "id": 6944287716, "lat": 12.9733764, "lon": 77.5474034, "tags": {"addr:district": "Bengaluru Urban", "addr:full": "66 B/7, Pipe Line Road, Vijayanagara", "addr:postcode": "560040", "addr:state": "Karnataka", "amenity": "hospital", "name": "Tanmay Hospital", "source": "OpenGovernmentData"}}, {"type": "node", "id": 6944309977, "lat": 12.9645006, "lon": 77.5427189, "tags": {"addr:district": "Bengaluru Urban", "addr:full": "No. 1869, 5Th Main, 13Th Cross, R.P.C. Lay Out, Vijayanagar", "addr:postcode": "560040", "addr:state": "Karnataka", "amenity": "hospital", "healthcare": "hospital", "name": "Susheel Hospital", "source": "OpenGovernmentData"}}, {"type": "node", "id": 6944332151, "lat": 12.9654318, "lon": 77.52312, "tags": {"addr:district": "Bengaluru Urban", "addr:full": "#63, 2nd Main, Byraveshwara Nagar,2nd Main , Nagarbhavi Main Road", "addr:postcode": "560072", "addr:state": "Karnataka", "amenity": "hospital", "name": "Dhanush Hospital", "name:kn": "\u0ca7\u0ca8\u0cc1\u0cb7\u0ccd \u0c86\u0cb8\u0ccd\u0caa\u0ca4\u0ccd\u0cb0\u0cc6", "source": "OpenGovernmentData"}}, {"type": "node", "id": 6944392364, "lat": 12.9632506, "lon": 77.5602901, "tags": {"addr:district": "Bengaluru Urban", "addr:full": "No. 40/1, J.J.R. Nagar Main Road, K.H. Ranganath Colony, Behind Sadarshini Hotel", "addr:postcode": "560018", "addr:state": "Karnataka", "amenity": "hospital", "healthcare": "hospital", "name": "Balaji Hospital, K.H. Ranganath Colony", "source": "OpenGovernmentData"}}, {"type": "node", "id": 6944437383, "lat": 13.0195733, "lon": 77.5419559, "tags": {"addr:district": "Bengaluru Urban", "addr:full": "# 141/142, 1st Main, Krishnandanagar, Khb Colony", "addr:postcode": "560096", "addr:state": "Karnataka", "addr:subdistrict": "Nandini Layout", "amenity": "hospital", "email": "info@rakshahospital.in", "name": "Raksha Multispeciality Hospital", "operator:type": "private", "source": "OpenGovernmentData", "website": "http://www.rakshahospital.in/"}}, {"type": "node", "id": 6944449930, "lat": 13.0195955, "lon": 77.5419813, "tags": {"addr:district": "Bengaluru Urban", "addr:full": "18/17,Cambridge Road,Ulsoor", "addr:postcode": "560038", "addr:state": "Karnataka", "amenity": "hospital", "name": "Cambridge Hospital", "source": "OpenGovernmentData"}}, {"type": "node", "id": 6944464994, "lat": 12.9559644, "lon": 77.5485635, "tags": {"addr:district": "Bengaluru Urban", "addr:full": "Kasturabanagar, Mysore Road , South", "addr:postcode": "560026", "addr:state": "Karnataka", "amenity": "hospital", "name": "Azad Nagar Maternity Home", "source": "OpenGovernmentData"}}, {"type": "node", "id": 6944525393, "lat": 12.9819768, "lon": 77.5108275, "tags": {"addr:district": "Bengaluru Urban", "addr:full": "No 193, So Feet Road, 2nd Block 2nd Stage", "addr:postcode": "560072", "addr:state": "Karnataka", "amenity": "hospital", "name": "Unity Lifline Hospital Pvt Ltd", "source": "OpenGovernmentData"}}, {"type": "node", "id": 6944543261, "lat": 13.0098352, "lon": 77.5384723, "tags": {"addr:district": "Bengaluru Urban", "addr:full": "#4,Sfhs,Next To Nandini Layout", "addr:postcode": "560096", "addr:state": "Karnataka", "amenity": "hospital", "healthcare": "hospital", "healthcare:speciality": "blood_check;general", "name": "J.P.Nursing Home", "opening_hours": "24/7", "operator": "Jyothi Prakash", "operator:type": "public", "source": "OpenGovernmentData"}}, {"type": "node", "id": 6944895084, "lat": 12.9868695, "lon": 77.4794832, "tags": {"addr:district": "Bengaluru Rural", "addr:full": "116/2, Herohalli, Anjananagar, Opposite Petrol Bunk", "addr:postcode": "560091", "addr:state": "Karnataka", "amenity": "hospital", "name": "S.S.G. Hospital", "source": "OpenGovernmentData"}}, {"type": "node", "id": 6944983789, "lat": 12.9716291, "lon": 77.5371969, "tags": {"addr:district": "Bengaluru Urban", "addr:full": "17th Cross, Near Main Bus Stand, MC Road, Vijayanagar", "addr:postcode": "560040", "addr:state": "Karnataka", "amenity": "hospital", "check_date": "2024-12-21", "healthcare": "hospital", "name": "Vijayanagar Hospital", "operator:type": "private", "source": "OpenGovernmentData", "website": "http://dpal.kar.nic.in/Kanunu%20padakosha%20PDF%20Files/Recognised%20Hospitals.pdf"}}, {"type": "node", "id": 6945309984, "lat": 12.9601022, "lon": 77.5315556, "tags": {"addr:district": "Bengaluru Urban", "addr:full": "No.20/1, 2nd Cross, Widia Layout, Chandra Layout Main Road,Vijayanagar", "addr:postcode": "560040", "addr:state": "Karnataka", "amenity": "hospital", "healthcare": "hospital", "name": "A.M. Hospital", "source": "OpenGovernmentData"}}, {"type": "node", "id": 6945348721, "lat": 12.9586907, "lon": 77.5352668, "tags": {"addr:district": "Bengaluru Urban", "addr:full": "#966/ 22, Service Road, RPC Layout, Vijayanagar, Opposite Syndicate Bank", "addr:postcode": "560104", "addr:state": "Karnataka", "amenity": "hospital", "healthcare": "hospital", "healthcare:speciality": "Cataract Treatment; Cornea Clinic; Retina Clinic; Glaucoma Clinic", "name": "Divya Drishti Eye Hospital, Vijayanagar", "operator:type": "private", "source": "OpenGovernmentData", "website": "http://divyadrishtieyehospital.com/"}}, {"type": "node", "id": 6945398483, "lat": 12.9617045, "lon": 77.5217172, "tags": {"addr:district": "Bengaluru Urban", "addr:full": "No-14, Maruthi Nagar, Nagarabhavi Main Road", "addr:postcode": "560072", "addr:state": "Karnataka", "amenity": "hospital", "name": "Shridevi Hospital, Bengaluru Urban", "source": "OpenGovernmentData"}}, {"type": "node", "id": 6946978667, "lat": 12.988865, "lon": 77.5078006, "tags": {"addr:district": "Bengaluru Rural", "addr:full": "Magadi Main Road, Sunkadakatte", "addr:postcode": "560091", "addr:state": "Karnataka", "amenity": "hospital", "name": "Ashraya Medinova Pvt Ltd", "source": "OpenGovernmentData"}}, {"type": "node", "id": 6947003707, "lat": 12.9741253, "lon": 77.561823, "tags": {"addr:district": "Bengaluru Urban", "addr:full": "2nd Cross, Magadi Road", "addr:postcode": "560023", "addr:state": "Karnataka", "amenity": "hospital", "name": "Magadi Road Maternity Home", "source": "OpenGovernmentData"}}, {"type": "node", "id": 6947033494, "lat": 12.9980009, "lon": 77.5432779, "tags": {"addr:district": "Bengaluru Urban", "addr:full": "No.877, Modi Hospital Road, West of Chord Road, II Stage Extension", "addr:postcode": "560086", "addr:state": "Karnataka", "amenity": "hospital", "healthcare": "hospital", "name": "Pristine Hospital", "name:kn": "\u0caa\u0ccd\u0cb0\u0cbf\u0cb8\u0ccd\u0c9f\u0cc0\u0ca8\u0ccd \u0c86\u0cb8\u0ccd\u0caa\u0ca4\u0ccd\u0cb0\u0cc6", "operator:type": "private", "source": "OpenGovernmentData", "website": "http://pristinehospitals.com/"}}, {"type": "node", "id": 6947226705, "lat": 13.0004769, "lon": 77.5054027, "tags": {"addr:district": "Bengaluru Rural", "addr:full": "Ktg Educational Campus, Sy No. 93, Srigandadakaval, Sunkadakatte Road, Vishwaneedam Post", "addr:postcode": "560091", "addr:state": "Karnataka", "amenity": "hospital", "name": "K.T.G. Hospital", "source": "OpenGovernmentData"}}, {"type": "node", "id": 6947682046, "lat": 13.0068811, "lon": 77.5055636, "tags": {"addr:district": "Bengaluru Rural", "addr:full": "208, 210, Hegganahalli Main Road, Near Peenya 2nd Stage, Hegganahalli", "addr:postcode": "560091", "addr:state": "Karnataka", "amenity": "hospital", "name": "Jai Maruthi Hospital", "source": "OpenGovernmentData"}}, {"type": "node", "id": 6947707788, "lat": 13.0105038, "lon": 77.5502452, "tags": {"addr:district": "Bengaluru Urban", "addr:full": "Bengaluru Urban", "addr:postcode": "560002", "addr:state": "Karnataka", "amenity": "hospital", "name": "Aaroyha Mandir Hospital", "source": "OpenGovernmentData"}}, {"type": "node", "id": 6947707895, "lat": 12.9862161, "lon": 77.5374853, "tags": {"addr:district": "Bengaluru Urban", "addr:full": "# 52 /10 80 Ft Road, Khb Colony Basaveshwaranagar", "addr:postcode": "560079", "addr:state": "Karnataka", "amenity": "hospital", "email": "support@punyahospitals.com", "healthcare": "hospital", "name": "Punya Hospital, Bengaluru Urban", "operator:type": "private", "source": "OpenGovernmentData", "website": "https://punyahospitals.com/"}}, {"type": "node", "id": 6947707903, "lat": 12.9418827, "lon": 77.48376, "tags": {"addr:district": "Bengaluru Urban", "addr:full": "4,Kirloskar Colony, Basaveshwaranagar", "addr:postcode": "560079", "addr:state": "Karnataka", "amenity": "hospital", "name": "Vijaya Hospital, Bengaluru Urban", "source": "OpenGovernmentData"}}, {"type": "node", "id": 6947716888, "lat": 12.9761802, "lon": 77.5261763, "tags": {"addr:district": "Bengaluru Urban", "addr:full": "No. 8, 60Ft. Road, Pattegara Palya, Vijayanagar", "addr:postcode": "560079", "addr:state": "Karnataka", "amenity": "hospital", "name": "Sandhyashree Hospital", "name:kn": "\u0cb8\u0c82\u0ca7\u0ccd\u0caf\u0cbe\u0cb6\u0ccd\u0cb0\u0cc0 \u0c86\u0cb8\u0ccd\u0caa\u0ca4\u0ccd\u0cb0\u0cc6", "source": "OpenGovernmentData"}}, {"type": "node", "id": 6948030294, "lat": 12.9986239, "lon": 77.542782, "tags": {"addr:district": "Bengaluru Urban", "addr:full": "1078 11Th Main 9Th Cross Above Punjab National Bank Mahalakshmipura", "addr:postcode": "560086", "addr:state": "Karnataka", "amenity": "hospital", "healthcare": "hospital", "name": "Sri Ranga Arogyadhama", "source": "OpenGovernmentData"}}, {"type": "node", "id": 6948059664, "lat": 12.978053, "lon": 77.5115959, "tags": {"addr:district": "Bengaluru Urban", "addr:full": "No.4, 5Th Block,2nd Stage Nagarabhavi", "addr:postcode": "560072", "addr:state": "Karnataka", "amenity": "hospital", "name": "Brinda Hospital", "source": "OpenGovernmentData"}}, {"type": "node", "id": 6948187839, "lat": 12.95119, "lon": 77.4918039, "tags": {"addr:district": "Mysuru", "addr:full": "34/1, Ta.Ra.Su. Circla Yadavagiri", "addr:postcode": "570020", "addr:state": "Karnataka", "amenity": "hospital", "name": "Sankalpa Hospital", "name:kn": "\u0cb8\u0c82\u0c95\u0cb2\u0ccd\u0caa \u0c86\u0cb8\u0ccd\u0caa\u0ca4\u0ccd\u0cb0\u0cc6", "source": "OpenGovernmentData"}}, {"type": "node", "id": 6948391975, "lat": 12.9705902, "lon": 77.5108503, "tags": {"addr:district": "Bengaluru Urban", "addr:full": "No. 86, 2nd Main,16Th D Cross,Malagala,Inner Ring Road,Underpass, Nagarabhavi 2nd Stag", "addr:postcode": "560072", "addr:state": "Karnataka", "amenity": "hospital", "name": "Deepashri Hospital", "source": "OpenGovernmentData"}}, {"type": "node", "id": 6948438892, "lat": 12.9817233, "lon": 77.5549364, "tags": {"addr:district": "Bengaluru Urban", "addr:full": "10Th, A Main, 68Th Cross, 5Th Block, Rajajinagar Near Bhasyam Circle", "addr:postcode": "560010", "addr:state": "Karnataka", "amenity": "hospital", "name": "Rotary Eye Hospital (A Unit Of Bangalore North Rotary Trust)", "source": "OpenGovernmentData"}}, {"type": "node", "id": 6948459038, "lat": 13.0218344, "lon": 77.5567093, "tags": {"addr:district": "Bengaluru Urban", "addr:full": "No. 22/21, 6Th Cross, K N Extn, Yeshwanth Pur", "addr:postcode": "560022", "addr:state": "Karnataka", "amenity": "hospital", "name": "Acharya Tulsi Jain Hospital", "source": "OpenGovernmentData"}}, {"type": "node", "id": 6948604083, "lat": 13.0001802, "lon": 77.5461146, "tags": {"addr:district": "Bengaluru Urban", "addr:full": "No - 30,1st Cross, Opp Geleyara Balaga Bus Stop,Mahalakshmipuram,Banglore", "addr:postcode": "560086", "addr:state": "Karnataka", "amenity": "hospital", "name": "Gurukripa Hospital and Health Care Centre", "source": "OpenGovernmentData"}}, {"type": "node", "id": 6950185719, "lat": 13.0093599, "lon": 77.5222108, "tags": {"addr:district": "Bengaluru Urban", "addr:full": "No.12, Laggere Main Road, Laggere, Bengaluru", "addr:postcode": "560058", "addr:state": "Karnataka", "amenity": "hospital", "name": "Sai Baba Hospital", "name:kn": "\u0cb8\u0cbe\u0caf\u0cbf\u0cac\u0cbe\u0cac \u0c86\u0cb8\u0ccd\u0caa\u0ca4\u0ccd\u0cb0\u0cc6", "source": "OpenGovernmentData"}}, {"type": "node", "id": 6950185730, "lat": 12.9783164, "lon": 77.5429603, "tags": {"addr:district": "Bengaluru Urban", "addr:full": "58, M. Muniyappa Complex Magadi Main Road, Agrahara Dasarahalli,", "addr:postcode": "560079", "addr:state": "Karnataka", "amenity": "hospital", "name": "Madhu Hospital, Bengaluru Urban", "source": "OpenGovernmentData"}}, {"type": "node", "id": 6952164952, "lat": 12.9408227, "lon": 77.5227942}, {"type": "node", "id": 6952164953, "lat": 12.9415717, "lon": 77.523348}, {"type": "node", "id": 6952164960, "lat": 12.9420357, "lon": 77.5225983}, {"type": "node", "id": 7007284257, "lat": 12.9848995, "lon": 77.5568087}, {"type": "node", "id": 7139631443, "lat": 12.9745983, "lon": 77.5436792, "tags": {"amenity": "hospital", "name": "Padmashree Diagnostics"}}, {"type": "node", "id": 7201052011, "lat": 13.005837, "lon": 77.5531299}, {"type": "node", "id": 7201052012, "lat": 13.0052529, "lon": 77.5527906}, {"type": "node", "id": 7202935803, "lat": 13.009817, "lon": 77.5231852, "tags": {"addr:district": "Bangalore", "addr:full": "Peenya Post, Muneshwara Badavane", "addr:postcode": "560058", "addr:state": "Karnataka", "addr:subdistrict": "Bangalore North", "amenity": "hospital", "name": "Laggere Government Hospital", "name:kn": "\u0cb2\u0c97\u0ccd\u0c97\u0cc6\u0cb0\u0cc6 \u0cb8\u0cb0\u0ccd\u0c95\u0cbe\u0cb0\u0cbf \u0c86\u0cb8\u0ccd\u0caa\u0ca4\u0ccd\u0cb0\u0cc6", "source": "OpenGovernmentData"}}, {"type": "node", "id": 7202935821, "lat": 12.9629127, "lon": 77.4751834, "tags": {"addr:district": "Bangalore", "addr:full": "Sir M Vishweshwaraiah Layout 6th Block, Ullal Uppanagar", "addr:postcode": "560056", "addr:state": "Karnataka", "addr:subdistrict": "Bangalore North", "amenity": "hospital", "name": "Ullalu Government Hospital", "source": "OpenGovernmentData"}}, {"type": "node", "id": 7213514086, "lat": 12.9358669, "lon": 77.4927128, "tags": {"addr:district": "Bengaluru Rural", "addr:full": "Mutharayana Nagar, Gnana Bharathi, Bengaluru", "addr:postcode": "560056", "addr:state": "Karnataka", "amenity": "hospital", "name": "Sree Ranga Hospital", "source": "OpenGovernmentData"}}, {"type": "node", "id": 7229958802, "lat": 12.9427937, "lon": 77.5256266}, {"type": "node", "id": 7229958803, "lat": 12.9428107, "lon": 77.5254495}, {"type": "node", "id": 7229958804, "lat": 12.9426696, "lon": 77.5254013}, {"type": "node", "id": 7229958805, "lat": 12.9426291, "lon": 77.5255233}, {"type": "node", "id": 7235403686, "lat": 12.9853993, "lon": 77.5454024, "tags": {"amenity": "hospital", "name": "Yashas Neurocare"}}, {"type": "node", "id": 7235403985, "lat": 12.9870634, "lon": 77.549951, "tags": {"amenity": "hospital", "name": "Focus Diagnostic Center"}}, {"type": "node", "id": 7292235598, "lat": 12.9850791, "lon": 77.5569447}, {"type": "node", "id": 7413376528, "lat": 12.9984165, "lon": 77.5458615}, {"type": "node", "id": 7413376529, "lat": 12.9980263, "lon": 77.5463388}, {"type": "node", "id": 7413376530, "lat": 12.9980298, "lon": 77.5462056}, {"type": "node", "id": 7413376531, "lat": 12.9975687, "lon": 77.546189}, {"type": "node", "id": 7572526686, "lat": 12.975501, "lon": 77.534972, "tags": {"addr:district": "Bengaluru Urban", "addr:full": "Govindarajanagar, Bengaluru", "addr:postcode": "560040", "addr:state": "Karnataka", "amenity": "hospital", "name": "Kamadhenu Hospital", "source": "Local Knowledge"}}, {"type": "node", "id": 7572526693, "lat": 12.9835824, "lon": 77.5289448, "tags": {"addr:district": "Bengaluru Urban", "addr:full": "Govindaraja Nagar Ward, Priyadarshini Layout, Kamakshipalya, Bengaluru", "addr:postcode": "560079", "addr:state": "Karnataka", "amenity": "hospital", "name": "Benaka Hospital", "source": "Local Knowledge"}}, {"type": "node", "id": 7572526698, "lat": 12.9744928, "lon": 77.5342045, "tags": {"addr:district": "Bengaluru Urban", "addr:full": "Stage 2, Vijayanagar, Bengaluru", "addr:postcode": "560040", "addr:state": "Karnataka", "amenity": "hospital", "name": "Goverment Hospital, Hosahalli", "source": "Local Knowledge"}}, {"type": "node", "id": 7572526700, "lat": 12.96767, "lon": 77.5226459, "tags": {"addr:district": "Bengaluru Urban", "addr:full": "Govindaraja Nagar Ward, Kalyan Nagar, Vijayanagar, Bengaluru", "addr:postcode": "560072", "addr:state": "Karnataka", "amenity": "hospital", "name": "Vijaya Hospital", "source": "Local Knowledge"}}, {"type": "node", "id": 7572526703, "lat": 12.9780731, "lon": 77.5251934, "tags": {"addr:district": "Bengaluru Urban", "addr:full": "Govindaraja Nagar Ward, Pattegarhpalya, Vijayanagar, Bengaluru", "addr:postcode": "560079", "addr:state": "Karnataka", "amenity": "hospital", "name": "Government Hospital", "name:kn": "\u0cb8\u0cb0\u0ccd\u0c95\u0cbe\u0cb0\u0cbf \u0c86\u0cb8\u0ccd\u0caa\u0ca4\u0ccd\u0cb0\u0cc6", "source": "Local Knowledge"}}, {"type": "node", "id": 7572526708, "lat": 12.9734087, "lon": 77.5462808, "tags": {"addr:district": "Bengaluru Urban", "addr:full": "Hoshalli Extension, Vijayanagar, Bengaluru", "addr:postcode": "560040", "addr:state": "Karnataka", "amenity": "hospital", "name": "Sriprasad Ayurveda", "source": "Local Knowledge"}}, {"type": "node", "id": 7572526709, "lat": 12.9707429, "lon": 77.5377684, "tags": {"addr:district": "Bengaluru Urban", "addr:full": "Near Vijayanagar Police Station, Vijaya Nagar, Bengaluru", "addr:postcode": "560040", "addr:state": "Karnataka", "amenity": "hospital", "healthcare": "hospital", "name": "Vidya Eye Hospital", "source": "Local Knowledge"}}, {"type": "node", "id": 7572526718, "lat": 12.9615606, "lon": 77.5222312, "tags": {"addr:district": "Bengaluru Urban", "addr:full": "Maruthi Nagar, Attiguppe, Bengaluru", "addr:postcode": "560040", "addr:state": "Karnataka", "amenity": "hospital", "name": "Shree Dhanvantari Ayurveda Hospital", "source": "Local Knowledge"}}, {"type": "node", "id": 7572526728, "lat": 12.961509, "lon": 77.523151, "tags": {"addr:district": "Bengaluru Urban", "addr:full": "Netravati Road, Maruthi Nagar, Bengaluru", "addr:postcode": "560072", "addr:state": "Karnataka", "amenity": "hospital", "name": "Srinivasam Cancer Care Multi Speciality Hospital", "source": "Local Knowledge"}}, {"type": "node", "id": 7572526752, "lat": 12.9802303, "lon": 77.5548818, "tags": {"addr:district": "Bengaluru Urban", "addr:full": "Rajajinagar, Bengaluru", "addr:postcode": "560010", "addr:state": "Karnataka", "amenity": "hospital", "name": "G.R. Hospital", "source": "Local Knowledge"}}, {"type": "node", "id": 7572526753, "lat": 12.9754301, "lon": 77.5358001, "tags": {"addr:district": "Bengaluru Urban", "addr:full": "Nagarabhavi Main Road, Govindaraja Nagar Ward, Vijayanagar, Bengaluru", "addr:postcode": "560040", "addr:state": "Karnataka", "amenity": "hospital", "name": "Sneha Horizon Hospital", "source": "Local Knowledge"}}, {"type": "node", "id": 7572526756, "lat": 12.968292, "lon": 77.524492, "tags": {"addr:district": "Bengaluru Urban", "addr:full": "Nagarabavi Main Road, Mudalapalya, Vijayanagar, Bengaluru", "addr:postcode": "560072", "addr:state": "Karnataka", "amenity": "hospital", "name": "Jagjeevanram Hospital", "source": "Local Knowledge"}}, {"type": "node", "id": 7572526757, "lat": 12.974339, "lon": 77.542325, "tags": {"addr:district": "Bengaluru Urban", "addr:full": "CHBS Layout, Vijayanagar, Bengaluru", "addr:postcode": "560040", "addr:state": "Karnataka", "amenity": "hospital", "name": "Kangroo Hospital", "source": "Local Knowledge"}}, {"type": "node", "id": 7572526762, "lat": 12.9757486, "lon": 77.553782, "tags": {"addr:district": "Bengaluru Urban", "addr:full": "Rajajinagar, Bengaluru", "addr:postcode": "560023", "addr:state": "Karnataka", "amenity": "hospital", "name": "Abhinav Hospital", "source": "Local Knowledge"}}, {"type": "node", "id": 7572526763, "lat": 12.969102, "lon": 77.534951, "tags": {"addr:district": "Bengaluru Urban", "addr:full": "Govindaraja Nagar Ward, PF Layout, Vijayanagar, Bengaluru", "addr:postcode": "560040", "addr:state": "Karnataka", "amenity": "hospital", "name": "Suhusannidhi Hospital", "source": "Local Knowledge"}}, {"type": "node", "id": 7572526764, "lat": 12.963967, "lon": 77.4973049, "tags": {"addr:district": "Bengaluru Urban", "addr:full": "Vishweshwaraiah Layout, Annapurneshwari Nagar, Bengaluru", "addr:postcode": "560056", "addr:state": "Karnataka", "amenity": "hospital", "name": "Abivrud Cancer Care & Research Centre", "source": "Local Knowledge"}}, {"type": "node", "id": 7572526766, "lat": 12.9745497, "lon": 77.5208943, "tags": {"addr:district": "Bengaluru Urban", "addr:full": "Govindaraja Nagar Ward, Panchasheel Nagar, Vijayanagar, Bengaluru", "addr:postcode": "560072", "addr:state": "Karnataka", "amenity": "hospital", "name": "Panchsheela Nagar Hospital", "source": "Local Knowledge"}}, {"type": "node", "id": 7572526776, "lat": 12.9698191, "lon": 77.5360801, "tags": {"addr:district": "Bengaluru Urban", "addr:full": "CHBS Layout, MC Layout, Vijayanagar, Bengaluru", "addr:postcode": "560040", "addr:state": "Karnataka", "amenity": "hospital", "name": "Sai Ortho and Dental Centre", "source": "Local Knowledge"}}, {"type": "node", "id": 7572526781, "lat": 12.9794315, "lon": 77.5441641, "tags": {"addr:district": "Bengaluru Urban", "addr:full": "Agrahara Dasarahalli, Rajajinagar, Bengaluru", "addr:postcode": "560010", "addr:state": "Karnataka", "amenity": "hospital", "name": "Ammashrees Hospital", "source": "Local Knowledge"}}, {"type": "node", "id": 7572526783, "lat": 12.9639829, "lon": 77.5188899, "tags": {"addr:district": "Bengaluru Urban", "addr:full": "Govindrajanagar, Anubhav Nagar, Mudalapalya, Vijayanagar, Bengaluru", "addr:postcode": "560072", "addr:state": "Karnataka", "amenity": "hospital", "name": "Government Hospital", "name:kn": "\u0cb8\u0cb0\u0ccd\u0c95\u0cbe\u0cb0\u0cbf \u0c86\u0cb8\u0ccd\u0caa\u0ca4\u0ccd\u0cb0\u0cc6", "source": "Local Knowledge"}}, {"type": "node", "id": 7572526785, "lat": 12.9679971, "lon": 77.5015759, "tags": {"addr:district": "Bengaluru Urban", "addr:full": "Radhakrishna Main Road, Mines &,Geology Layout, Mallathahalli, Bengaluru", "addr:postcode": "560056", "addr:state": "Karnataka", "amenity": "hospital", "name": "Revathi Hospital", "source": "Local Knowledge"}}, {"type": "node", "id": 7572526787, "lat": 12.9637162, "lon": 77.5188263, "tags": {"addr:district": "Bengaluru Urban", "addr:full": "Govindaraja Nagar Ward, Garden Villas, Vijayanagar, Bengaluru", "addr:postcode": "560072", "addr:state": "Karnataka", "amenity": "hospital", "name": "Shanthakumari Hospital", "source": "Local Knowledge"}}, {"type": "node", "id": 7572526791, "lat": 12.9735574, "lon": 77.5461246, "tags": {"addr:district": "Bengaluru Urban", "addr:full": "Hans Complex, Manuvana, Vijayanagar, Bengaluru", "addr:postcode": "560040", "addr:state": "Karnataka", "amenity": "hospital", "name": "Bengaluru Child Neurology and Rehabilitaion Centre", "source": "Local Knowledge"}}, {"type": "node", "id": 7572526792, "lat": 12.976379, "lon": 77.524439, "tags": {"addr:district": "Bengaluru Urban", "addr:full": "Srinivasnagar, Amarajyothi Nagar, Vijayanagar, Bengaluru", "addr:postcode": "560072", "addr:state": "Karnataka", "amenity": "hospital", "name": "Sumati Hospital", "source": "Local Knowledge"}}, {"type": "node", "id": 7572526800, "lat": 12.975423, "lon": 77.540659, "tags": {"addr:district": "Bengaluru Urban", "addr:full": "Near SBI, Vijayanagar, Bengaluru", "addr:postcode": "560040", "addr:state": "Karnataka", "amenity": "hospital", "name": "Dr. Nothesh Child Specialist", "source": "Local Knowledge"}}, {"type": "node", "id": 7572526804, "lat": 12.9698787, "lon": 77.5332834, "tags": {"addr:district": "Bengaluru Urban", "addr:full": "Vijaya Nagar, Bengaluru", "addr:postcode": "560040", "addr:state": "Karnataka", "amenity": "hospital", "name": "Sastry Memorial Hospital", "source": "Local Knowledge"}}, {"type": "node", "id": 7576958025, "lat": 12.93753, "lon": 77.549675, "tags": {"addr:district": "Bengaluru Urban", "addr:full": "Srinivasnagar, Banashankari, Bengaluru", "addr:state": "Karnataka", "amenity": "hospital", "name": "Vinayaka Hospital", "source": "Local Knowledge"}}, {"type": "node", "id": 7576958039, "lat": 12.9417439, "lon": 77.5601782, "tags": {"addr:district": "Bengaluru Urban", "addr:full": "50 Feet Road, Basavanagadi, Banashankari, Bengaluru", "addr:postcode": "560019", "addr:state": "Karnataka", "amenity": "hospital", "name": "Sumanjara Hospital", "source": "Local Knowledge"}}, {"type": "node", "id": 7576958043, "lat": 12.961345, "lon": 77.560893, "tags": {"addr:district": "Bengaluru Urban", "addr:full": "Mahaveer Arcade, Sirsi Road, Chamrajpet, Bengaluru", "addr:postcode": "560018", "addr:state": "Karnataka", "amenity": "hospital", "name": "Corporation Hospital", "source": "Local Knowledge"}}, {"type": "node", "id": 7576958048, "lat": 12.942076, "lon": 77.553598, "tags": {"addr:district": "Bengaluru Urban", "addr:full": "Dasarhalli, Srinagar, Banashankari, Bengaluru", "addr:state": "Karnataka", "amenity": "hospital", "name": "People Tree Hospitals", "source": "Local Knowledge"}}, {"type": "node", "id": 7576958052, "lat": 12.9609494, "lon": 77.5613939, "tags": {"addr:district": "Bengaluru Urban", "addr:full": "Sirsi Road, Chamrajpet, Bengaluru", "addr:postcode": "560018", "addr:state": "Karnataka", "amenity": "hospital", "name": "Government Hospital", "name:kn": "\u0c9a\u0cbe\u0cae\u0cb0\u0cbe\u0c9c\u0caa\u0cc7\u0c9f\u0cc6 \u0cb8\u0cb0\u0ccd\u0c95\u0cbe\u0cb0\u0cbf \u0c86\u0cb8\u0ccd\u0caa\u0ca4\u0ccd\u0cb0\u0cc6", "source": "Local Knowledge"}}, {"type": "node", "id": 7576958060, "lat": 12.940404, "lon": 77.5580361, "tags": {"addr:district": "Bengaluru Urban", "addr:full": "SBM Colony, Banashankari, Bengaluru", "addr:postcode": "560050", "addr:state": "Karnataka", "amenity": "hospital", "name": "Verna Hospital", "source": "Local Knowledge"}}, {"type": "node", "id": 7576958061, "lat": 12.9587464, "lon": 77.5573456, "tags": {"addr:district": "Bengaluru Urban", "addr:full": "Ramachandra Agrahara, Azad Nagar, Bengaluru", "addr:postcode": "560026", "addr:state": "Karnataka", "amenity": "hospital", "name": "Government Hospital, Banglore", "source": "Local Knowledge"}}, {"type": "node", "id": 7576958066, "lat": 12.949104, "lon": 77.563226, "tags": {"addr:district": "Bengaluru Urban", "addr:full": "RK Mutt Layout, Kempegowda Nagar, Bengaluru", "addr:state": "Karnataka", "amenity": "hospital", "name": "Government Hospital", "name:kn": "\u0cb8\u0cb0\u0ccd\u0c95\u0cbe\u0cb0\u0cbf \u0c86\u0cb8\u0ccd\u0caa\u0ca4\u0ccd\u0cb0\u0cc6", "source": "Local Knowledge"}}, {"type": "node", "id": 7576958068, "lat": 12.9415883, "lon": 77.5641917, "tags": {"addr:district": "Bengaluru Urban", "addr:full": "Hanumanthnagar, Banashankari, Bengaluru", "addr:postcode": "560019", "addr:state": "Karnataka", "amenity": "hospital", "name": "Jeevini Sarvodaya Hospital", "source": "Local Knowledge"}}, {"type": "node", "id": 7576958071, "lat": 12.938787, "lon": 77.554296, "tags": {"addr:district": "Bengaluru Urban", "addr:full": "Banashankari, Bengaluru", "addr:state": "Karnataka", "amenity": "hospital", "name": "Raghavendra Hospital", "source": "Local Knowledge"}}, {"type": "node", "id": 7576958074, "lat": 12.938453, "lon": 77.551329, "tags": {"addr:district": "Bengaluru Urban", "addr:full": "Srinivasnagar, Banashankari, Bengaluru", "addr:state": "Karnataka", "amenity": "hospital", "name": "Apaara Multi Speciality", "source": "Local Knowledge"}}, {"type": "node", "id": 7576958080, "lat": 12.948971, "lon": 77.563543, "tags": {"addr:district": "Bengaluru Urban", "addr:full": "RK Mutt Layout, Gavipura, Kempegowda Nagar, Bengaluru", "addr:state": "Karnataka", "amenity": "hospital", "name": "Parameshwari Hospital", "source": "Local Knowledge"}}, {"type": "node", "id": 7576958083, "lat": 12.9422541, "lon": 77.5506328, "tags": {"addr:district": "Bengaluru Urban", "addr:full": "Giri Nagar, Banashankari, Bengaluru", "addr:state": "Karnataka", "amenity": "hospital", "name": "Drishti Nethralaya", "name:kn": "\u0ca6\u0cc3\u0cb7\u0ccd\u0c9f\u0cbf \u0ca8\u0cc7\u0ca4\u0ccd\u0cb0\u0cbe\u0cb2\u0caf", "source": "Local Knowledge"}}, {"type": "node", "id": 7576958096, "lat": 12.960972, "lon": 77.5609696, "tags": {"addr:district": "Bengaluru Urban", "addr:full": "Chamrajpet, Bengaluru", "addr:postcode": "560018", "addr:state": "Karnataka", "amenity": "hospital", "name": "Herige Hospital", "source": "Local Knowledge"}}, {"type": "node", "id": 7658279911, "lat": 12.9918362, "lon": 77.5540454}, {"type": "node", "id": 7658279912, "lat": 12.9914957, "lon": 77.5540356}, {"type": "node", "id": 7658279913, "lat": 12.9914862, "lon": 77.5543788}, {"type": "node", "id": 8188038681, "lat": 13.004596, "lon": 77.5540033, "tags": {"addr:full": "8/3, E Block, I Block, I Stage, Rajajinagar, E block, 2nd Stage, Rajajinagar, Bengaluru, Karnataka", "addr:state": "Karnataka", "amenity": "hospital", "healthcare": "hospital", "name": "ESI Hospital", "operator": "Employees' State Insurance", "operator:short": "ESI", "operator:wikidata": "Q3595726"}}, {"type": "node", "id": 8188038684, "lat": 13.004314, "lon": 77.547749, "tags": {"addr:full": "233, 1st A Main Rd, West of Chord Road 2nd Stage, 2nd Stage, Mahalakshmipuram, Bengaluru, Karnataka", "addr:state": "Karnataka", "amenity": "hospital", "healthcare": "hospital", "name": "Atharva Ayurdhama Ayurvedic Hospital"}}, {"type": "node", "id": 8188038705, "lat": 12.998238, "lon": 77.551173, "tags": {"addr:full": "69/26, 19th Main, 19th Cross, Rajajinagar 1st Block, 1st Block, Rajajinagar, Bengaluru, Karnataka", "addr:state": "Karnataka", "amenity": "hospital", "healthcare": "hospital", "name": "Poornayu Ayurveda Hospital"}}, {"type": "node", "id": 8188038735, "lat": 12.9916924, "lon": 77.5539007, "tags": {"addr:full": "620/A/1, 12th Main Rd, 2nd Block, Rajajinagar, Bengaluru, Karnataka", "addr:state": "Karnataka", "amenity": "hospital", "healthcare": "hospital", "name": "ESIC Model Hospital"}}, {"type": "node", "id": 8188038742, "lat": 12.9905045, "lon": 77.5566355, "tags": {"addr:full": "172/A, 8th Main Rd, 2nd Block, Rajajinagar, Bengaluru, Karnataka", "addr:state": "Karnataka", "amenity": "hospital", "healthcare": "hospital", "name": "Government Hospital", "name:kn": "\u0cb8\u0cb0\u0ccd\u0c95\u0cbe\u0cb0\u0cbf \u0c86\u0cb8\u0ccd\u0caa\u0ca4\u0ccd\u0cb0\u0cc6"}}, {"type": "node", "id": 8188038743, "lat": 12.9904985, "lon": 77.5530924, "tags": {"addr:full": "3rd Block, Rajajinagar, Bengaluru, Karnataka", "addr:state": "Karnataka", "amenity": "hospital", "healthcare": "hospital", "name": "Esi Hospital Bangalore", "operator": "Employees' State Insurance", "operator:short": "ESI", "operator:wikidata": "Q3595726"}}, {"type": "node", "id": 8188038786, "lat": 12.9844963, "lon": 77.5551801, "tags": {"addr:full": "20th Main Rd, 5 Block, 3rd Block, Rajajinagar, Bengaluru, Karnataka", "addr:state": "Karnataka", "amenity": "hospital", "name": "Government Hospital", "name:kn": "\u0cb8\u0cb0\u0ccd\u0c95\u0cbe\u0cb0\u0cbf \u0c86\u0cb8\u0ccd\u0caa\u0ca4\u0ccd\u0cb0\u0cc6"}}, {"type": "node", "id": 8188038795, "lat": 12.9831814, "lon": 77.4787872, "tags": {"addr:full": "72/3 CIIQ, Magadi Main Road, Bel Layout, 2nd Phase, Near Karnataka Bank, Byadarahalli, Balaji Layout, Bedarahalli, Bengaluru, Karnataka", "addr:state": "Karnataka", "amenity": "hospital", "name": "Anupama Hospital", "name:kn": "\u0c85\u0ca8\u0cc1\u0caa\u0cae \u0c86\u0cb8\u0ccd\u0caa\u0ca4\u0ccd\u0cb0\u0cc6"}}, {"type": "node", "id": 8240881787, "lat": 12.9980688, "lon": 77.5463413, "tags": {"access": "private", "barrier": "gate"}}, {"type": "node", "id": 9161008293, "lat": 12.9835071, "lon": 77.5364935}, {"type": "node", "id": 9161008294, "lat": 12.9834692, "lon": 77.5364855}, {"type": "node", "id": 9161008295, "lat": 12.9834966, "lon": 77.5363889}, {"type": "node", "id": 9161008296, "lat": 12.9834182, "lon": 77.5363621}, {"type": "node", "id": 9161008297, "lat": 12.9835006, "lon": 77.5360242}, {"type": "node", "id": 9161008298, "lat": 12.9830589, "lon": 77.5358739}, {"type": "node", "id": 9161008299, "lat": 12.982889, "lon": 77.5363675}, {"type": "node", "id": 9161008300, "lat": 12.9828027, "lon": 77.5363407}, {"type": "node", "id": 9161008301, "lat": 12.9825603, "lon": 77.5371675}, {"type": "node", "id": 9161008302, "lat": 12.9826903, "lon": 77.5371808}, {"type": "node", "id": 9161008303, "lat": 12.9834169, "lon": 77.5369361}, {"type": "node", "id": 9350054881, "lat": 13.0140314, "lon": 77.555662, "tags": {"barrier": "gate"}}, {"type": "node", "id": 9350054882, "lat": 13.0142308, "lon": 77.5556633, "tags": {"access": "permissive", "barrier": "gate"}}, {"type": "node", "id": 9350054894, "lat": 13.0145788, "lon": 77.5563553}, {"type": "node", "id": 9350054897, "lat": 13.0145736, "lon": 77.5557049}, {"type": "node", "id": 9350054901, "lat": 13.0138207, "lon": 77.5556607}, {"type": "node", "id": 9574153227, "lat": 13.0036303, "lon": 77.5500007}, {"type": "node", "id": 9574153228, "lat": 13.0035917, "lon": 77.5496998}, {"type": "node", "id": 9574153229, "lat": 13.0039146, "lon": 77.5496562}, {"type": "node", "id": 9574153230, "lat": 13.0021052, "lon": 77.5492586}, {"type": "node", "id": 9574153231, "lat": 13.0020643, "lon": 77.5489828}, {"type": "node", "id": 9574153232, "lat": 13.0023382, "lon": 77.5492168}, {"type": "node", "id": 9574153233, "lat": 13.0023092, "lon": 77.5489437}, {"type": "node", "id": 9811397057, "lat": 13.0073486, "lon": 77.5542738}, {"type": "node", "id": 9811397058, "lat": 13.0073476, "lon": 77.5537683}, {"type": "node", "id": 9811397059, "lat": 13.0078782, "lon": 77.553767}, {"type": "node", "id": 9811397066, "lat": 13.0078784, "lon": 77.5536997}, {"type": "node", "id": 9811397071, "lat": 13.0071946, "lon": 77.5542634, "tags": {"access": "permissive", "barrier": "gate"}}, {"type": "node", "id": 9811397073, "lat": 13.0064256, "lon": 77.5541743, "tags": {"access": "permissive", "barrier": "gate"}}, {"type": "node", "id": 9811397075, "lat": 13.0061199, "lon": 77.5541096, "tags": {"access": "permissive", "barrier": "gate"}}, {"type": "node", "id": 9872645096, "lat": 12.9848314, "lon": 77.5569034}, {"type": "node", "id": 9872645097, "lat": 12.9850109, "lon": 77.5570394}, {"type": "node", "id": 9881508847, "lat": 13.0009266, "lon": 77.5638843}, {"type": "node", "id": 9881508848, "lat": 13.0009295, "lon": 77.5641845}, {"type": "node", "id": 9881508849, "lat": 13.001292, "lon": 77.5641808}, {"type": "node", "id": 9881508850, "lat": 13.0012737, "lon": 77.56371}, {"type": "node", "id": 9934012104, "lat": 12.9429852, "lon": 77.5460604, "tags": {"amenity": "hospital", "healthcare": "hospital", "healthcare:speciality": "dentist", "name": "My Dentist", "operator": "Dr Katta R Venkatesh", "operator:type": "public"}}, {"type": "node", "id": 9936581278, "lat": 13.0070307, "lon": 77.552047}, {"type": "node", "id": 9936921085, "lat": 13.0062583, "lon": 77.5517618, "tags": {"access": "no", "barrier": "gate"}}, {"type": "node", "id": 9967147496, "lat": 13.0075958, "lon": 77.5522093}, {"type": "node", "id": 9967147497, "lat": 13.0082479, "lon": 77.5536993}, {"type": "node", "id": 10032974874, "lat": 13.0149494, "lon": 77.5598985}, {"type": "node", "id": 10032974875, "lat": 13.0151277, "lon": 77.560204}, {"type": "node", "id": 10032974876, "lat": 13.0152903, "lon": 77.5601041}, {"type": "node", "id": 10032974877, "lat": 13.015112, "lon": 77.5597986}, {"type": "node", "id": 10032974985, "lat": 13.0061165, "lon": 77.5532703, "tags": {"barrier": "gate"}}, {"type": "node", "id": 10032975001, "lat": 13.0058786, "lon": 77.554048}, {"type": "node", "id": 10032975002, "lat": 13.0059605, "lon": 77.553492}, {"type": "node", "id": 10032975003, "lat": 13.006067, "lon": 77.5535075}, {"type": "node", "id": 10032975004, "lat": 13.0061323, "lon": 77.5531943}, {"type": "node", "id": 10041139974, "lat": 12.9829636, "lon": 77.537095}, {"type": "node", "id": 10188080243, "lat": 12.9755907, "lon": 77.5642512, "tags": {"access": "private", "barrier": "gate"}}, {"type": "node", "id": 10632697474, "lat": 12.9880155, "lon": 77.5598488}, {"type": "node", "id": 10632697475, "lat": 12.9880077, "lon": 77.560404}, {"type": "node", "id": 10632697476, "lat": 12.9884527, "lon": 77.560398}, {"type": "node", "id": 11028992215, "lat": 12.980308, "lon": 77.5647761}, {"type": "node", "id": 11031908387, "lat": 12.9918503, "lon": 77.5437825, "tags": {"addr:city": "Basaveshwara Nagar, Bangalore", "addr:housenumber": "629", "addr:postcode": "560079", "addr:street": "8th B Main Road, 3rd Stage, 2nd Block, Basaveshwaranagara", "amenity": "hospital", "healthcare": "hospital", "healthcare:speciality": "gynaecology;orthodontics;dentist;vaccination;plastic_surgery", "name": "Janani Clinics", "operator": "Dr. V. Jeevan Prakash", "operator:type": "private", "phone": "9036817877"}}, {"type": "node", "id": 11168817968, "lat": 12.9880423, "lon": 77.5598239}, {"type": "node", "id": 11174291857, "lat": 12.9607734, "lon": 77.5615429}, {"type": "node", "id": 11174291858, "lat": 12.9607666, "lon": 77.5608063}, {"type": "node", "id": 11174291859, "lat": 12.961076, "lon": 77.5608032}, {"type": "node", "id": 11174291860, "lat": 12.9610829, "lon": 77.5615398}, {"type": "node", "id": 11341218790, "lat": 12.9734141, "lon": 77.5638984}, {"type": "node", "id": 11385217932, "lat": 12.9596032, "lon": 77.5112481, "tags": {"addr:district": "Bengaluru Urban", "addr:full": "No 23, 80 Feet Road, Gurukrupa Layout", "addr:postcode": "560072", "addr:state": "Karnataka", "addr:subdistrict": "Nagarbhavi", "amenity": "hospital", "healthcare": "hospital", "healthcare:speciality": "multi speciality", "name": "Fortis Hospital, Nagarbhavi", "name:kn": "\u0cab\u0ccb\u0cb0\u0ccd\u0c9f\u0cbf\u0cb8\u0ccd \u0c86\u0cb8\u0ccd\u0caa\u0ca4\u0ccd\u0cb0\u0cc6", "operator:type": "private", "source": "OpenGovernmentData", "website": "https://www.fortishealthcare.com/"}}, {"type": "node", "id": 11757261198, "lat": 12.9411586, "lon": 77.5230597}, {"type": "node", "id": 11757261199, "lat": 12.9418461, "lon": 77.522475}, {"type": "node", "id": 11881863274, "lat": 12.9772225, "lon": 77.5430381}, {"type": "node", "id": 11881863275, "lat": 12.9771899, "lon": 77.5432125}, {"type": "node", "id": 11887013628, "lat": 13.0242754, "lon": 77.5300549}, {"type": "node", "id": 11887013629, "lat": 13.0239616, "lon": 77.5308877}, {"type": "node", "id": 11887013630, "lat": 13.0253074, "lon": 77.5318171}, {"type": "node", "id": 11887013631, "lat": 13.0260112, "lon": 77.5308311}, {"type": "node", "id": 11965775664, "lat": 13.0065047, "lon": 77.5545009, "tags": {"amenity": "hospital", "check_date": "2024-06-09", "healthcare": "hospital", "name": "PMC Hospital"}}, {"type": "node", "id": 11982389397, "lat": 12.9988382, "lon": 77.5550964, "tags": {"amenity": "hospital", "check_date": "2024-06-15", "healthcare": "hospital", "name": "New Varalakshmi Hospital"}}, {"type": "node", "id": 11990000678, "lat": 13.0057269, "lon": 77.5518302}, {"type": "node", "id": 12103684982, "lat": 13.002768, "lon": 77.5536287, "tags": {"amenity": "hospital", "check_date": "2024-08-11", "healthcare": "hospital", "name": "Apollo Cradle Children's Hospital"}}, {"type": "node", "id": 12240737170, "lat": 12.99743, "lon": 77.5510293, "tags": {"amenity": "hospital", "name": "Netradhama"}}, {"type": "node", "id": 12438173201, "lat": 12.9754354, "lon": 77.5358965, "tags": {"amenity": "hospital", "check_date": "2024-12-21", "healthcare": "hospital", "name": "Hiremath Hospital"}}, {"type": "node", "id": 12511734085, "lat": 13.0215287, "lon": 77.553432}, {"type": "node", "id": 12511734086, "lat": 13.0214974, "lon": 77.5534905}, {"type": "node", "id": 12511734087, "lat": 13.0214659, "lon": 77.5534727}, {"type": "node", "id": 12511734088, "lat": 13.0213924, "lon": 77.5535029}, {"type": "node", "id": 12511734089, "lat": 13.0213549, "lon": 77.5535728}, {"type": "node", "id": 12511734090, "lat": 13.0213191, "lon": 77.5535526}, {"type": "node", "id": 12511734091, "lat": 13.0212721, "lon": 77.5536404}, {"type": "node", "id": 12511734092, "lat": 13.0214944, "lon": 77.5537659}, {"type": "node", "id": 12511734093, "lat": 13.0216397, "lon": 77.5534947}, {"type": "node", "id": 12595807877, "lat": 12.9508188, "lon": 77.4804609}, {"type": "node", "id": 12595807878, "lat": 12.9506724, "lon": 77.4811569}, {"type": "node", "id": 12595807879, "lat": 12.9506397, "lon": 77.4814305}, {"type": "node", "id": 12595807880, "lat": 12.9506985, "lon": 77.4814291}, {"type": "node", "id": 12595807881, "lat": 12.9506881, "lon": 77.4816585}, {"type": "node", "id": 12595807882, "lat": 12.9514448, "lon": 77.4816558}, {"type": "node", "id": 12595807883, "lat": 12.9514919, "lon": 77.480548}, {"type": "node", "id": 12651764011, "lat": 12.9519863, "lon": 77.4989075, "tags": {"addr:city": "Bengaluru", "addr:postcode": "560056", "addr:street": "Ullal Main Road", "amenity": "hospital", "healthcare": "hospital", "healthcare:speciality": "gynaecology", "mobile": "09980816643", "name": "Shri Mokambika Women's Clinic, Child care and Nethralaya", "note": "Plus Code: XF2X+QJ Bengaluru, Karnataka"}}, {"type": "node", "id": 12651764012, "lat": 12.9519538, "lon": 77.4990341, "tags": {"addr:city": "Bengaluru", "addr:postcode": "560056", "addr:street": "Ullal Main Road", "amenity": "hospital", "healthcare": "hospital", "healthcare:speciality": "diagnostic_centre;blood_check;scanning;x-ray;ecg;laboratory", "mobile": "9972629415", "name": "Suraksha Diagnostic Centre", "opening_hours": "Mo-Sa 07:00-21:00,Su 07:00-14:00"}}, {"type": "node", "id": 12676261338, "lat": 12.9937247, "lon": 77.5539724, "tags": {"amenity": "hospital", "check_date": "2025-03-18", "healthcare": "hospital", "name": "Jindal Charitable Hospital"}}, {"type": "node", "id": 12809319202, "lat": 13.0010485, "lon": 77.5641833}, {"type": "node", "id": 13374340555, "lat": 12.9929758, "lon": 77.5387957}, {"type": "node", "id": 13374340556, "lat": 12.9928401, "lon": 77.5387508}, {"type": "way", "id": 37976777, "nodes": [446053937, 446053938, 446053939, 6656628403, 446053940, 446053937], "tags": {"amenity": "hospital", "building": "university", "name": "Health Centre", "name:kn": "\u0c86\u0cb0\u0ccb\u0c97\u0ccd\u0caf \u0c95\u0cc7\u0c82\u0ca6\u0ccd\u0cb0"}}, {"type": "way", "id": 53859295, "nodes": [680004360, 11028992215, 680004477, 680004373, 680004435, 680004360], "tags": {"amenity": "hospital", "name": "Railways Hospital", "name:kn": "\u0cb0\u0cc8\u0cb2\u0ccd\u0cb5\u0cc7 \u0c86\u0cb8\u0ccd\u0caa\u0ca4\u0ccd\u0cb0\u0cc6"}}, {"type": "way", "id": 133379520, "nodes": [1468296644, 1468296642, 1468296636, 1468296641, 1468296645, 1468296638, 1468296644], "tags": {"addr:city": "bangalore", "addr:district": "Bengaluru Urban", "addr:full": "3/4, Sunrise Tower, J.P. Road, Girinagar", "addr:housenumber": "3-4", "addr:postcode": "560085", "addr:state": "Karnataka", "addr:street": "Sunrise Towers, 30th crs JP Rd. Girinagar.,opp Canara Bank", "amenity": "hospital", "emergency": "yes", "name": "Radhakrishna Multispeciality Hospital", "name:kn": "\u0cb0\u0cbe\u0ca7\u0cbe\u0c95\u0cc3\u0cb7\u0ccd\u0ca3 \u0c86\u0cb8\u0ccd\u0caa\u0ca4\u0ccd\u0cb0\u0cc6", "phone": "080 2642 2977", "source": "OpenGovernmentData"}}, {"type": "way", "id": 138697265, "nodes": [7658279911, 7658279912, 7658279913, 1520843455, 6345494316, 1520843420, 1520843445, 7658279911], "tags": {"alt_name": "ESI Hospital", "amenity": "hospital", "emergency": "yes", "healthcare": "hospital", "int_name": "ESICMH", "name": "Employees' State Insurance Corporation Model Hospital", "operator": "Employees' State Insurance", "operator:short": "ESI", "operator:wikidata": "Q3595726", "wheelchair": "yes"}}, {"type": "way", "id": 169801514, "nodes": [1809622910, 1809622909, 1809622904, 1809622908, 1809622910], "tags": {"addr:district": "Bengaluru Urban", "addr:full": "#11/2, Magadi Main Road ,Agrahara , Dasarahalli,Next To Raheja Park", "addr:postcode": "560079", "addr:state": "Karnataka", "amenity": "hospital", "emergency": "yes", "name": "Sarvodaya Hospital", "name:kn": "\u0cb8\u0cb0\u0ccd\u0cb5\u0ccb\u0ca6\u0caf \u0c86\u0cb8\u0ccd\u0caa\u0ca4\u0ccd\u0cb0\u0cc6", "source": "OpenGovernmentData"}}, {"type": "way", "id": 169801520, "nodes": [1809622944, 1809622941, 11881863274, 11881863275, 1809622943, 1809622942, 1809622944], "tags": {"addr:district": "Bengaluru Urban", "addr:full": "5th Main Road, 7th Cross Road, MC Layout, Vijaynagar", "addr:postcode": "560040", "addr:state": "Karnataka", "amenity": "hospital", "name": "Dasarahalli Referral Hospital", "name:kn": "\u0cb8\u0cb0\u0ccd\u0c95\u0cbe\u0cb0\u0cbf \u0c86\u0cb8\u0ccd\u0caa\u0ca4\u0ccd\u0cb0\u0cc6", "source": "OpenGovernmentData"}}, {"type": "way", "id": 271786067, "nodes": [2767224739, 2767224740, 2767224744, 2767224741, 2767224743, 2767224739], "tags": {"addr:district": "Bengaluru Urban", "addr:full": "Bhashyam Circle,Rajajinagar 5Th Block", "addr:postcode": "560010", "addr:state": "Karnataka", "amenity": "hospital", "healthcare": "hospital", "name": "Sreerampura Referal Hospital", "name:kn": "\u0cb6\u0ccd\u0cb0\u0cc0\u0cb0\u0c82\u0caa\u0cc1\u0cb0 \u0cb0\u0cc6\u0cab\u0cb0\u0cb2\u0ccd \u0c86\u0cb8\u0ccd\u0caa\u0ca4\u0ccd\u0cb0\u0cc6", "source": "OpenGovernmentData"}}, {"type": "way", "id": 332071569, "nodes": [3391834193, 3391834194, 3391834195, 3391834196, 3391834197, 3391834198, 3391834199, 3391834200, 3391834193], "tags": {"addr:district": "Bengaluru Urban", "addr:full": "#761, 7th Main, Last Bus Stop, Near Swimming pool, Mahalakshmi Layout", "addr:postcode": "560086", "addr:state": "Karnataka", "amenity": "hospital", "building": "yes", "healthcare": "hospital", "name": "Sanjeevani Hospital", "name:kn": "\u0cb8\u0c82\u0c9c\u0cc0\u0cb5\u0ca8\u0cbf \u0c86\u0cb8\u0ccd\u0caa\u0ca4\u0ccd\u0cb0\u0cc6", "operator:type": "private", "source": "OpenGovernmentData", "website": "https://www.sanjeevinihospital.com/"}}, {"type": "way", "id": 337987686, "nodes": [3450573835, 3450573833, 1780474089, 11341218790, 3450573836, 3450573834, 3450573837, 10188080243, 3450573832, 3450573838, 3450573835], "tags": {"amenity": "hospital", "healthcare": "hospital", "name": "Leprosy Hospital"}}, {"type": "way", "id": 347497660, "nodes": [3537864045, 3537864052, 13374340556, 3537864040, 3537864045], "tags": {"addr:district": "Bengaluru Urban", "addr:full": "334, 3rd Stage, 4th Block, Basaveshwaranagar", "addr:postcode": "560079", "addr:state": "Karnataka", "amenity": "hospital", "building": "hospital", "healthcare": "hospital", "name": "Supra Hospital", "operator:type": "private", "website": "http://www.panaceahospital.com/"}}, {"type": "way", "id": 347497848, "nodes": [3537864054, 3537864061, 13374340555, 3537864051, 3537864054], "tags": {"addr:city": "Basaveshwara Nagar, Bangalore", "addr:housenumber": "334", "addr:postcode": "560079", "addr:street": "8th Main, 3rd Stage", "amenity": "hospital", "building": "yes", "emergency": "yes", "healthcare": "hospital", "name": "GM Hospital", "wheelchair": "yes"}}, {"type": "way", "id": 348287598, "nodes": [3544299986, 3544300106, 3544300124, 3544300103, 3544299986], "tags": {"addr:district": "Bengaluru Urban", "addr:full": "SBM Colony, Banashankari, Bengaluru", "addr:state": "Karnataka", "amenity": "hospital", "building": "yes", "name": "Prashanth Hospitals", "name:kn": "\u0caa\u0cbf\u0c87\u0c8e\u0cb8\u0ccd \u0cb5\u0cbf\u0cb6\u0ccd\u0cb5\u0cb5\u0cbf\u0ca6\u0ccd\u0caf\u0cbe\u0cb2\u0caf \u0c95\u0ccd\u0cb0\u0cbf\u0c95\u0cc6\u0c9f\u0ccd \u0cae\u0cc8\u0ca6\u0cbe\u0ca8", "source": "Local Knowledge"}}, {"type": "way", "id": 354497944, "nodes": [3602104521, 3602104516, 3602104364, 3602104369, 3602104521], "tags": {"amenity": "hospital", "healthcare": "hospital", "name": "ChanRe Rheumatology And Immunology Center And Research"}}, {"type": "way", "id": 354557914, "nodes": [3602433072, 3602433054, 3602433012, 3602433030, 3602433072], "tags": {"amenity": "hospital", "building": "yes", "name": "Gopala Eye Care Centre"}}, {"type": "way", "id": 398113412, "nodes": [4008910190, 4008910191, 4008910192, 4008910193, 4008910190], "tags": {"amenity": "hospital", "name": "The Fracture and Orthopaedic Clinic"}}, {"type": "way", "id": 513532062, "nodes": [10032975001, 9811397075, 9811397073, 1118258254, 9811397071, 9811397057, 9811397058, 9811397059, 9811397066, 9967147497, 9967147496, 9936581278, 9936921085, 5019525997, 11990000678, 6854592430, 5019525996, 7201052012, 7201052011, 10032975004, 10032974985, 10032975003, 10032975002, 10032975001], "tags": {"addr:district": "Bengaluru Urban", "addr:full": "#1, Dr. Rajkumar Road, I Block,Rajajinagar,Near Vivekananda College", "addr:postcode": "560010", "addr:state": "Karnataka", "addr:street": "Dr Rajkumar Road", "alt_name": "Gudde Hospital", "amenity": "hospital", "healthcare": "hospital", "name": "St. Theresa's Hospital", "name:kn": "\u0cb8\u0cc8\u0c82\u0c9f\u0ccd \u0ca4\u0cc6\u0cb0\u0cc7\u0cb8 \u0c86\u0cb8\u0ccd\u0caa\u0ca4\u0ccd\u0cb0\u0cc6", "old_name": "St Theresa's Tuberculosis Sanatorium", "source": "OpenGovernmentData"}}, {"type": "way", "id": 697081723, "nodes": [6546893769, 6546893768, 7413376531, 7413376530, 7413376529, 8240881787, 2296630617, 7413376528, 6546893769], "tags": {"addr:district": "Bengaluru Urban", "addr:full": "Modi Hospital Road, Mahalakshmipuram", "addr:postcode": "560086", "addr:state": "Karnataka", "amenity": "hospital", "email": "modihospital@hotmail.com", "healthcare": "hospital", "name": "M C Modi Eye Hospital", "name:etymology:wikidata": "Q1880759", "name:kn": "\u0cae\u0ccb\u0ca6\u0cbf \u0c95\u0ca3\u0ccd\u0ca3\u0cbf\u0ca8 \u0c86\u0cb8\u0ccd\u0caa\u0ca4\u0ccd\u0cb0\u0cc6", "operator:type": "private", "source": "OpenGovernmentData", "website": "http://www.modieyehospital.com/", "wheelchair": "yes"}}, {"type": "way", "id": 726095464, "nodes": [6807544239, 6807544240, 6807544241, 6807544242, 6807544239], "tags": {"amenity": "hospital", "healthcare": "hospital"}}, {"type": "way", "id": 742634558, "nodes": [6952164953, 11757261198, 6952164952, 458105013, 3388805879, 11757261199, 6952164960, 6952164953], "tags": {"amenity": "hospital", "name": "Puneeth Rajkumar Multispeciality Hospital", "name:etymology:wikidata": "Q3351697", "operator": "BBMP"}}, {"type": "way", "id": 774947265, "nodes": [7229958805, 7229958804, 7229958803, 7229958802, 7229958805], "tags": {"amenity": "hospital", "name": "Natus Woman and Children Hospital"}}, {"type": "way", "id": 991531036, "nodes": [9161008303, 10041139974, 9161008302, 9161008301, 9161008300, 9161008299, 9161008298, 9161008297, 9161008296, 9161008295, 9161008294, 9161008293, 9161008303], "tags": {"addr:full": "Stage 1, KHB Colony, Basaveshwar Nagar, Bengaluru, Karnataka", "addr:state": "Karnataka", "amenity": "hospital", "healthcare": "hospital", "name": "Government Homeopathic Hospital"}}, {"type": "way", "id": 1013443903, "nodes": [9350054901, 529488722, 1624836198, 1096956219, 9350054894, 9350054897, 1624836124, 9350054882, 9350054881, 9350054901], "tags": {"addr:city": "Bengaluru", "addr:district": "Bengaluru Urban", "addr:full": "26/4, Brigade Gateway, Beside Metro Cash and Carry, Malleshwaram", "addr:housenumber": "26/4", "addr:postcode": "560020", "addr:state": "Karnataka", "addr:street": "Brigade Gateway, Beside Metro Cash and Carry West, Malleshwaram", "amenity": "hospital", "emergency": "yes", "name": "Manipal Hospital Yeshwantpur", "old_name": "Columbia Asia Referral Hospital", "old_name:kn": "\u0c95\u0cca\u0cb2\u0c82\u0cac\u0cbf\u0caf \u0c8f\u0cb7\u0ccd\u0caf\u0cbe \u0c86\u0cb8\u0ccd\u0caa\u0ca4\u0ccd\u0cb0\u0cc6", "phone": "080 3989 8969", "source": "OpenGovernmentData", "website": "https://www.columbiaasia.com/"}}, {"type": "way", "id": 1039760096, "nodes": [9574153229, 9574153228, 9574153227, 6900054522, 9574153229], "tags": {"addr:district": "Bengaluru Urban", "addr:full": "359 / 360, 19Th Main 1 St Block Rajajinagar Near Indian Bank", "addr:postcode": "560010", "addr:state": "Karnataka", "amenity": "hospital", "healthcare": "hospital", "name": "Diacon Hospital", "source": "OpenGovernmentData", "wheelchair": "yes"}}, {"type": "way", "id": 1039760097, "nodes": [9574153232, 9574153230, 9574153231, 9574153233, 9574153232], "tags": {"addr:district": "Bengaluru Urban", "addr:full": "111, West Of Chord Road, Mahalakshmipuram, Rajajinagar I Block", "addr:postcode": "560086", "addr:state": "Karnataka", "alt_name": "Fortis Hospitals Limited, Rajajinagar", "amenity": "hospital", "healthcare": "hospital", "name": "Fortis Hospital", "name:kn": "\u0cab\u0ccb\u0cb0\u0ccd\u0c9f\u0cbf\u0cb8\u0ccd \u0c86\u0cb8\u0ccd\u0caa\u0ca4\u0ccd\u0cb0\u0cc6", "source": "OpenGovernmentData"}}, {"type": "way", "id": 1076618915, "nodes": [7292235598, 9872645097, 9872645096, 7007284257, 7292235598], "tags": {"amenity": "hospital"}}, {"type": "way", "id": 1077744680, "nodes": [9881508850, 9881508849, 12809319202, 9881508848, 9881508847, 9881508850], "tags": {"amenity": "hospital"}}, {"type": "way", "id": 1095561501, "nodes": [10032974877, 10032974876, 10032974875, 10032974874, 10032974877], "tags": {"amenity": "hospital", "healthcare": "hospital", "name": "ESI Hospital Malleshwaram Branch", "operator": "Employees' State Insurance", "operator:short": "ESI", "operator:wikidata": "Q3595726"}}, {"type": "way", "id": 1141353122, "nodes": [1118254826, 10632697476, 10632697475, 10632697474, 11168817968, 1118254826], "tags": {"addr:district": "Bengaluru Urban", "addr:full": "1A/87, Dr Rajkumar Road, 4th Block, Rajajinagar", "addr:postcode": "560010", "addr:state": "Karnataka", "addr:street": "Dr Rajkumar Road", "amenity": "hospital", "emergency": "yes", "name": "Suguna Hospital", "name:kn": "\u0cb8\u0cc1\u0c97\u0cc1\u0ca3 \u0c86\u0cb8\u0ccd\u0caa\u0ca4\u0ccd\u0cb0\u0cc6", "source": "OpenGovernmentData"}}, {"type": "way", "id": 1205832181, "nodes": [11174291860, 11174291859, 11174291858, 11174291857, 11174291860], "tags": {"amenity": "hospital"}}, {"type": "way", "id": 1280619026, "nodes": [11887013631, 11887013630, 11887013629, 11887013628, 11887013631], "tags": {"amenity": "hospital", "healthcare": "hospital", "name": "ESI Hospital Peenya", "operator": "Employees' State Insurance", "operator:short": "ESI", "operator:wikidata": "Q3595726"}}, {"type": "way", "id": 1352267564, "nodes": [12511734093, 12511734092, 12511734091, 12511734090, 12511734089, 12511734088, 1473002847, 12511734087, 12511734086, 12511734085, 12511734093], "tags": {"amenity": "hospital", "building": "yes", "name": "Government Maternity Hospital", "name:kn": "\u0cb8\u0cb0\u0ccd\u0c95\u0cbe\u0cb0\u0cbf \u0cb9\u0cc6\u0cb0\u0cbf\u0c97\u0cc6 \u0c86\u0cb8\u0ccd\u0caa\u0ca4\u0ccd\u0cb0\u0cc6", "wheelchair": "limited"}}, {"type": "way", "id": 1360644157, "nodes": [12595807883, 12595807882, 12595807881, 12595807880, 12595807879, 12595807878, 12595807877, 12595807883], "tags": {"amenity": "hospital", "name": "Government Multi-Speciality Hospital"}}]}