{"version": 0.6, "generator": "Overpass API 0.7.62.8 e802775f", "osm3s": {"timestamp_osm_base": "2026-01-13T09:32:44Z", "copyright": "The data included in this document is from www.openstreetmap.org. The data is made available under ODbL."}, "elements": [{"type": "node", "id": 245659703, "lat": 19.0043243, "lon": 72.8452288, "tags": {"source": "AND"}}, {"type": "node", "id": 346379239, "lat": 19.0508211, "lon": 72.8297569}, {"type": "node", "id": 346388855, "lat": 19.051578, "lon": 72.829257}, {"type": "node", "id": 346388856, "lat": 19.0510502, "lon": 72.8285763}, {"type": "node", "id": 346388857, "lat": 19.0503724, "lon": 72.8290228}, {"type": "node", "id": 346643796, "lat": 19.0516428, "lon": 72.8321317, "tags": {"amenity": "hospital", "created_by": "Potlatch 0.10f", "name": "National Centre for Training and Research into Cerebral Palsy"}}, {"type": "node", "id": 347120067, "lat": 19.0571185, "lon": 72.8338596}, {"type": "node", "id": 347168743, "lat": 19.0560779, "lon": 72.8267648}, {"type": "node", "id": 347168744, "lat": 19.0554778, "lon": 72.8267854}, {"type": "node", "id": 347168745, "lat": 19.0554818, "lon": 72.8271174}, {"type": "node", "id": 347168746, "lat": 19.0549057, "lon": 72.8271253}, {"type": "node", "id": 347168747, "lat": 19.0549122, "lon": 72.8275145}, {"type": "node", "id": 347168748, "lat": 19.0560954, "lon": 72.8274859}, {"type": "node", "id": 1287645846, "lat": 18.996905, "lon": 72.8431135}, {"type": "node", "id": 1287645873, "lat": 18.9967467, "lon": 72.8436316}, {"type": "node", "id": 1287645875, "lat": 18.9976802, "lon": 72.8418229}, {"type": "node", "id": 1287645899, "lat": 18.9972483, "lon": 72.8435429}, {"type": "node", "id": 1287645914, "lat": 18.9979121, "lon": 72.8419594}, {"type": "node", "id": 1287645917, "lat": 18.9961997, "lon": 72.842726}, {"type": "node", "id": 1287742548, "lat": 19.0055632, "lon": 72.8427964}, {"type": "node", "id": 1287742597, "lat": 19.0054595, "lon": 72.8433811}, {"type": "node", "id": 1287742602, "lat": 19.0055649, "lon": 72.842688}, {"type": "node", "id": 1287742739, "lat": 19.0031178, "lon": 72.8438994}, {"type": "node", "id": 1287742829, "lat": 19.0054586, "lon": 72.8434402}, {"type": "node", "id": 1289162623, "lat": 19.0334494, "lon": 72.8388383}, {"type": "node", "id": 1289162630, "lat": 19.0333038, "lon": 72.8394537}, {"type": "node", "id": 1289162738, "lat": 19.0329023, "lon": 72.8393222}, {"type": "node", "id": 1289162782, "lat": 19.0326962, "lon": 72.8391364}, {"type": "node", "id": 1289162838, "lat": 19.0337229, "lon": 72.8379976}, {"type": "node", "id": 1289162869, "lat": 19.033007, "lon": 72.8378025}, {"type": "node", "id": 1289162909, "lat": 19.0327661, "lon": 72.8377435}, {"type": "node", "id": 1625365308, "lat": 19.0327895, "lon": 72.8387426}, {"type": "node", "id": 1625365313, "lat": 19.0329452, "lon": 72.839232}, {"type": "node", "id": 1646529751, "lat": 19.0319324, "lon": 72.8393212}, {"type": "node", "id": 1646529753, "lat": 19.0318019, "lon": 72.839874}, {"type": "node", "id": 1646529811, "lat": 19.0319497, "lon": 72.8399255}, {"type": "node", "id": 1646529838, "lat": 19.0320669, "lon": 72.8393416}, {"type": "node", "id": 2128608094, "lat": 19.0468027, "lon": 72.8420002}, {"type": "node", "id": 2128608096, "lat": 19.046962, "lon": 72.8425878}, {"type": "node", "id": 2128608109, "lat": 19.0458668, "lon": 72.8422835}, {"type": "node", "id": 2128608120, "lat": 19.046047, "lon": 72.8429939}, {"type": "node", "id": 2449734759, "lat": 19.0549066, "lon": 72.827198, "tags": {"access": "private", "barrier": "gate", "name": "Gate 2"}}, {"type": "node", "id": 2449734760, "lat": 19.0549103, "lon": 72.8274255, "tags": {"access": "private", "barrier": "gate", "name": "Gate 1"}}, {"type": "node", "id": 2449734777, "lat": 19.055701, "lon": 72.8267823, "tags": {"access": "private", "barrier": "gate", "name": "Gate 3"}}, {"type": "node", "id": 2449757463, "lat": 19.0512777, "lon": 72.8285804}, {"type": "node", "id": 2947820875, "lat": 19.0616337, "lon": 72.8451297, "tags": {"amenity": "hospital", "healthcare": "hospital"}}, {"type": "node", "id": 3568776814, "lat": 19.0005585, "lon": 72.8462424, "tags": {"source": "AND"}}, {"type": "node", "id": 3568776823, "lat": 19.0020113, "lon": 72.8437904, "tags": {"source": "AND"}}, {"type": "node", "id": 3568776824, "lat": 19.0022389, "lon": 72.8468803}, {"type": "node", "id": 3568776826, "lat": 19.0028775, "lon": 72.8470324, "tags": {"source": "AND"}}, {"type": "node", "id": 3568776827, "lat": 19.0029646, "lon": 72.846798, "tags": {"source": "AND"}}, {"type": "node", "id": 3568776829, "lat": 19.0031813, "lon": 72.8466015}, {"type": "node", "id": 3568776832, "lat": 19.0034416, "lon": 72.8464655, "tags": {"source": "AND"}}, {"type": "node", "id": 3568776836, "lat": 19.0039163, "lon": 72.8463971}, {"type": "node", "id": 3568776837, "lat": 19.0041072, "lon": 72.8462465, "tags": {"source": "AND"}}, {"type": "node", "id": 3568776839, "lat": 19.0043242, "lon": 72.8459264, "tags": {"source": "AND"}}, {"type": "node", "id": 3568776846, "lat": 19.0053183, "lon": 72.8426836}, {"type": "node", "id": 3568776847, "lat": 19.0053064, "lon": 72.8434375}, {"type": "node", "id": 3568776849, "lat": 19.0059618, "lon": 72.84339}, {"type": "node", "id": 3568776850, "lat": 19.0059711, "lon": 72.8428036}, {"type": "node", "id": 3589607622, "lat": 19.0833696, "lon": 72.8396091}, {"type": "node", "id": 3589607625, "lat": 19.0834084, "lon": 72.8393662}, {"type": "node", "id": 3589607628, "lat": 19.0834806, "lon": 72.8396289}, {"type": "node", "id": 3589607630, "lat": 19.0835193, "lon": 72.839386}, {"type": "node", "id": 3591988751, "lat": 19.0797777, "lon": 72.8401094}, {"type": "node", "id": 3591988753, "lat": 19.0797871, "lon": 72.8402171}, {"type": "node", "id": 3591988758, "lat": 19.0798166, "lon": 72.8402035}, {"type": "node", "id": 3591988762, "lat": 19.0798445, "lon": 72.8403563}, {"type": "node", "id": 3591988763, "lat": 19.0798478, "lon": 72.8400771}, {"type": "node", "id": 3591988766, "lat": 19.0798602, "lon": 72.8401071}, {"type": "node", "id": 3591988786, "lat": 19.0799358, "lon": 72.8400723}, {"type": "node", "id": 3591988795, "lat": 19.0800196, "lon": 72.8402754}, {"type": "node", "id": 3595847281, "lat": 18.9981659, "lon": 72.8369918}, {"type": "node", "id": 3595847282, "lat": 18.9981669, "lon": 72.83706}, {"type": "node", "id": 3595847706, "lat": 18.9984289, "lon": 72.8369875}, {"type": "node", "id": 3595847707, "lat": 18.9984299, "lon": 72.8370557}, {"type": "node", "id": 3626442910, "lat": 19.0312671, "lon": 72.8440563}, {"type": "node", "id": 3626442917, "lat": 19.031304, "lon": 72.8438754}, {"type": "node", "id": 3626442946, "lat": 19.031531, "lon": 72.8441167}, {"type": "node", "id": 3626442953, "lat": 19.031568, "lon": 72.8439357}, {"type": "node", "id": 3627071289, "lat": 19.068504, "lon": 72.8371295}, {"type": "node", "id": 3627071291, "lat": 19.0685152, "lon": 72.836917}, {"type": "node", "id": 3627071313, "lat": 19.0686166, "lon": 72.8371362}, {"type": "node", "id": 3627071318, "lat": 19.0686278, "lon": 72.8369236}, {"type": "node", "id": 4292872567, "lat": 18.9960758, "lon": 72.8425819}, {"type": "node", "id": 4292872573, "lat": 18.9965141, "lon": 72.841729}, {"type": "node", "id": 4292872575, "lat": 18.9966368, "lon": 72.8415405}, {"type": "node", "id": 4292872582, "lat": 18.9971823, "lon": 72.8405206}, {"type": "node", "id": 4292873293, "lat": 18.9979736, "lon": 72.8410548}, {"type": "node", "id": 4292873310, "lat": 19.0018132, "lon": 72.8408291}, {"type": "node", "id": 4292873311, "lat": 19.002178, "lon": 72.8397502}, {"type": "node", "id": 4292873312, "lat": 19.0024887, "lon": 72.8411828}, {"type": "node", "id": 4292873313, "lat": 19.0028535, "lon": 72.8399753}, {"type": "node", "id": 4352387478, "lat": 19.0750197, "lon": 72.8356392, "tags": {"addr:city": "Santa Cruz", "addr:district": "Mumbai", "addr:full": "12Th Road, Khar", "addr:postcode": "400052", "addr:state": "Maharashtra", "addr:street": "South Avenue", "amenity": "hospital", "check_date": "2025-06-12", "healthcare": "hospital", "name": "Ramakrishna Mission Hospital, Mumbai", "source": "OpenGovernmentData"}}, {"type": "node", "id": 4672225593, "lat": 19.0401523, "lon": 72.844575, "tags": {"addr:street": "Mia Mohd Chhotani Road", "amenity": "hospital", "name:en": "Pikale Hospital", "name:hi": "\u092a\u093f\u0915\u093e\u0932\u0947 \u0905\u0938\u094d\u092a\u0924\u093e\u0932"}}, {"type": "node", "id": 5090930970, "lat": 19.0066529, "lon": 72.8179411, "tags": {"amenity": "hospital", "name": "Peoples Mobile Hospitals"}}, {"type": "node", "id": 5099872961, "lat": 18.9994432, "lon": 72.8405011, "tags": {"addr:district": "Mumbai", "addr:full": "35 Dr E Borges Road, Hospital Avenue, Opposite Shirodkar High School, Parel", "addr:postcode": "400012", "addr:state": "Maharashtra", "amenity": "hospital", "contact:phone": "8024242424", "email": "web.enquiries@globalhospitalsindia.com", "name": "Global Hospital Super Speciality and Transplant Center", "operator": "Global Hospital", "operator:type": "private", "source": "OpenGovernmentData", "website": "http://www.globalhospitalsindia.com/"}}, {"type": "node", "id": 5848596593, "lat": 19.0013768, "lon": 72.8447301}, {"type": "node", "id": 5848596594, "lat": 19.0047571, "lon": 72.8408459}, {"type": "node", "id": 5848596595, "lat": 19.0051988, "lon": 72.8410441}, {"type": "node", "id": 5848596596, "lat": 19.0051752, "lon": 72.8418314}, {"type": "node", "id": 5848596627, "lat": 19.0023236, "lon": 72.8433755}, {"type": "node", "id": 5921458148, "lat": 19.0008682, "lon": 72.8456701}, {"type": "node", "id": 6228730399, "lat": 19.0577092, "lon": 72.8337577}, {"type": "node", "id": 6228730400, "lat": 19.0576712, "lon": 72.8330362}, {"type": "node", "id": 6228730401, "lat": 19.0570577, "lon": 72.8330576}, {"type": "node", "id": 6228730402, "lat": 19.0576636, "lon": 72.8338301}, {"type": "node", "id": 6228754300, "lat": 19.0570865, "lon": 72.833438}, {"type": "node", "id": 6991331185, "lat": 19.0239187, "lon": 72.8407113, "tags": {"addr:housenumber": "400028", "addr:street": "D L Vaidya Marg", "amenity": "hospital", "healthcare": "hospital", "name:en": "DHANVANTARI HOSPITAL"}}, {"type": "node", "id": 7043174030, "lat": 19.0632283, "lon": 72.834439, "tags": {"addr:district": "Mumbai", "addr:full": "8 Roseland Bulding, 180, Opposite National College, Junction Of Linking And Waterfield Road, Bandra West", "addr:postcode": "400050", "addr:state": "Maharashtra", "amenity": "hospital", "email": "info@ojaseyehospital.com", "healthcare": "hospital", "name": "Ojas Eye Hospital", "source": "OpenGovernmentData", "website": "https://www.ojaseyehospital.com/"}}, {"type": "node", "id": 7043182324, "lat": 19.0803279, "lon": 72.8421846, "tags": {"addr:district": "Mumbai", "addr:full": "Qureshi House, 6Th Nehru Road,Near Santacruz Railway Station, Santacruz (East)", "addr:postcode": "400055", "addr:state": "Maharashtra", "amenity": "hospital", "healthcare": "hospital", "name": "R. K. Hospital, Mumbai", "source": "OpenGovernmentData"}}, {"type": "node", "id": 7043348148, "lat": 19.0797908, "lon": 72.8427047, "tags": {"addr:district": "Mumbai", "addr:full": "Shri Sadashiv Chs, 6Th Road, Santacruz(E)", "addr:postcode": "400055", "addr:state": "Maharashtra", "amenity": "hospital", "healthcare": "hospital", "name": "Nandan Maternity and Surgical Home", "source": "OpenGovernmentData"}}, {"type": "node", "id": 7043376493, "lat": 19.0784905, "lon": 72.8380749, "tags": {"addr:district": "Mumbai", "addr:full": "101, Kirti Manor, S V Road, Phiroz Dastoor & Sons, Santacruz West", "addr:postcode": "400054", "addr:state": "Maharashtra", "amenity": "hospital", "healthcare": "hospital", "name": "Mumbai Retina Centre", "source": "OpenGovernmentData"}}, {"type": "node", "id": 7043548005, "lat": 19.0604187, "lon": 72.8369254, "tags": {"addr:district": "Mumbai", "addr:full": "# 222, S.V. Road, Bandra- West", "addr:postcode": "400050", "addr:state": "Maharashtra", "amenity": "hospital", "healthcare": "hospital", "name": "Shroff Eye Hospital", "source": "OpenGovernmentData"}}, {"type": "node", "id": 7044064894, "lat": 19.0240308, "lon": 72.8368979, "tags": {"addr:district": "Mumbai", "addr:full": "Meghdoot, S.H.Paralkar Marg, Shivaji Park, Dadar (W)", "addr:postcode": "400028", "addr:state": "Maharashtra", "amenity": "hospital", "healthcare": "hospital", "name": "Dr.Vaze Hospital", "source": "OpenGovernmentData"}}, {"type": "node", "id": 7044071693, "lat": 19.0135345, "lon": 72.8283792, "tags": {"addr:district": "Mumbai", "addr:full": "Gyaneshwar Apts, 2nd Floor, Off Veer Savarkar Marg, Prabhadevi", "addr:postcode": "400025", "addr:state": "Maharashtra", "amenity": "hospital", "email": "hkkothawala@yahoo.com", "healthcare": "hospital", "name": "Asha Surgical and Maternity Home", "phone": "09821662821", "source": "OpenGovernmentData"}}, {"type": "node", "id": 7045291440, "lat": 19.0139586, "lon": 72.8325856, "tags": {"addr:district": "Mumbai", "addr:full": "Ishaan, 1st Floor, Khed Gully, Prabhadevi, Dadar West", "addr:postcode": "400025", "addr:state": "Maharashtra", "amenity": "hospital", "healthcare": "hospital", "name": "Siddivinayak Healthcare Pvt Ltd", "source": "OpenGovernmentData"}}, {"type": "node", "id": 7045980547, "lat": 19.0232828, "lon": 72.8379312, "tags": {"addr:district": "Mumbai", "addr:full": "698-B,Ranade Road, Dadar", "addr:postcode": "400028", "addr:state": "Maharashtra", "amenity": "hospital", "healthcare": "hospital", "name": "Shushrusha Citizens Co-Op Hospital Ltd.", "source": "OpenGovernmentData"}}, {"type": "node", "id": 7049124019, "lat": 19.0204668, "lon": 72.8383778, "tags": {"addr:district": "Mumbai", "addr:full": "12, Gyan Mandir Road, Dadar West Railway Station", "addr:postcode": "400028", "addr:state": "Maharashtra", "amenity": "hospital", "healthcare": "hospital", "name": "Shree Vardhaman Sthanakvasi Jain Shravak Sangh Dadar Sanchalit Navneet Jain Health Centre", "source": "OpenGovernmentData"}}, {"type": "node", "id": 7049584815, "lat": 19.0740757, "lon": 72.8329611, "tags": {"addr:district": "Mumbai", "addr:full": "21 - A, Sita Bhavan, 14Th A Road, Ahimsa Marg, Khar (West)", "addr:postcode": "400052", "addr:state": "Maharashtra", "amenity": "hospital", "email": "info@rghospital.com", "healthcare": "hospital", "healthcare:speciality": "urology;clinical_pathology", "name": "RG Stone Urology and Laparoscopy Hospital, Khar", "operator:type": "private", "source": "OpenGovernmentData", "website": "https://www.rghospitals.com/"}}, {"type": "node", "id": 7049812966, "lat": 19.0124701, "lon": 72.8343451, "tags": {"addr:district": "Mumbai", "addr:full": "101, Inder Tower Gokhale Road (S), Near Tilak Bhavan, Opposite Ashishind Estate, Dadar (West)", "addr:postcode": "400028", "addr:state": "Maharashtra", "amenity": "hospital", "email": "punamiya.hospital@gmail.com", "healthcare": "hospital", "name": "Punamiya Hospital, Mumbai", "operator:type": "private", "source": "OpenGovernmentData", "website": "http://punamiyahospital.in/"}}, {"type": "node", "id": 7051069996, "lat": 19.0250711, "lon": 72.8400777, "tags": {"addr:district": "Mumbai", "addr:full": "Vidya Bhuvan 121, Shivaji Park, Opp Shiv Sena Bhavan Dadar - West", "addr:postcode": "400028", "addr:state": "Maharashtra", "amenity": "hospital", "healthcare": "hospital", "name": "Dr Thakur Hospital", "source": "OpenGovernmentData"}}, {"type": "node", "id": 7051070010, "lat": 19.0050283, "lon": 72.8225555, "tags": {"addr:district": "Mumbai", "addr:full": "3Road Floor, Sadhana House Behind Mahindra Towers, Pandurang Budhkar Marg, Worli Mumbai", "addr:postcode": "400018", "addr:state": "Maharashtra", "amenity": "hospital", "name": "Reliance Life Sciences Pvt. Ltd", "source": "OpenGovernmentData"}}, {"type": "node", "id": 7051831014, "lat": 19.0130174, "lon": 72.8467025, "tags": {"addr:district": "Mumbai", "addr:full": "172 -A Naigaum, Dadar", "addr:postcode": "400014", "addr:state": "Maharashtra", "amenity": "hospital", "healthcare": "hospital", "name": "Dr. Karmarkar Hospital", "source": "OpenGovernmentData"}}, {"type": "node", "id": 7052185493, "lat": 19.0744458, "lon": 72.8344122, "tags": {"addr:district": "Mumbai", "addr:full": "1 Milton Tower, 290-291, Linking Road, Khar West", "addr:postcode": "400052", "addr:state": "Maharashtra", "amenity": "hospital", "healthcare": "hospital", "healthcare:speciality": "pathology", "name": "Khar Clinico-Pathology Laboratory", "source": "OpenGovernmentData"}}, {"type": "node", "id": 7052388277, "lat": 19.004984, "lon": 72.8432125, "tags": {"addr:district": "Mumbai", "addr:full": "Dr.E Borges Road, Parel", "addr:postcode": "400012", "addr:state": "Maharashtra", "amenity": "hospital", "email": "info@tmcmail.org; tmcit1@vsnl.com", "name": "Tata Memorial Hospital", "operator:type": "private", "source": "OpenGovernmentData", "website": "www.tmc.gov.in"}}, {"type": "node", "id": 7052963441, "lat": 19.0146877, "lon": 72.8318681, "tags": {"addr:district": "Mumbai", "addr:full": "Manoj Co-Op,Hsg,Society,Shankar Ghanekar Marg.Prabhedevi", "addr:postcode": "400025", "addr:state": "Maharashtra", "amenity": "hospital", "healthcare": "hospital", "healthcare:speciality": "maternity;pathology", "name": "Dr.Palep's Priyank Maternity Nursing Home", "source": "OpenGovernmentData"}}, {"type": "node", "id": 7053245833, "lat": 19.0154396, "lon": 72.8335994, "tags": {"addr:district": "Mumbai", "addr:full": "Shilpa Appts, 1st Floor, Shankar Ghanekar Marg, Off Gokhle Road (S)", "addr:postcode": "400028", "addr:state": "Maharashtra", "amenity": "hospital", "healthcare": "hospital", "healthcare:speciality": "general", "name": "Dev Nursing Home", "source": "OpenGovernmentData"}}, {"type": "node", "id": 7053265680, "lat": 19.0136391, "lon": 72.8451061, "tags": {"addr:district": "Mumbai", "addr:full": "15, First Floor, Vincent Court, Near Fire Brigade, Opposite Chitra Cinema, Dr.B.Ambedkar Road, Dadar (East)", "addr:postcode": "400014", "addr:state": "Maharashtra", "amenity": "hospital", "email": "info@daycaresurgery.com", "name": "Suprabha Surgicare", "operator:type": "private", "source": "OpenGovernmentData", "website": "http://www.daycaresurgery.com/"}}, {"type": "node", "id": 7053355770, "lat": 19.0241779, "lon": 72.8380385, "tags": {"addr:district": "Mumbai", "addr:full": "Udyam, Ranade Road Shivaji Park", "addr:postcode": "400028", "addr:state": "Maharashtra", "amenity": "hospital", "healthcare": "hospital", "name": "Well Spring Dr Avinash Phadke Pathlab Clinic", "source": "OpenGovernmentData"}}, {"type": "node", "id": 7054526793, "lat": 19.0307218, "lon": 72.8416521, "tags": {"addr:district": "Mumbai", "addr:full": "1st Fl., Shayog Society, L.J. Road, Next To City Light Cinema, Mahim", "addr:postcode": "400016", "addr:state": "Maharashtra", "amenity": "hospital", "healthcare": "hospital", "name": "Surlata Hospital", "source": "OpenGovernmentData"}}, {"type": "node", "id": 7054682098, "lat": 19.055927, "lon": 72.8368556, "tags": {"addr:district": "Mumbai", "addr:full": "Opp,Lake.S.V Road,Bandra(West)", "addr:postcode": "400050", "addr:state": "Maharashtra", "amenity": "hospital", "healthcare": "hospital", "name": "Mahatma Gandhi Seva Mandir", "source": "OpenGovernmentData"}}, {"type": "node", "id": 7055441837, "lat": 19.07045, "lon": 72.8370246, "tags": {"addr:district": "Mumbai", "addr:full": "Naseeb Plot No.115,1st Floor, S.V.Road, Khar (West)", "addr:postcode": "400052", "addr:state": "Maharashtra", "amenity": "hospital", "healthcare": "hospital", "name": "G.M.Medical Centre - Khar", "source": "OpenGovernmentData"}}, {"type": "node", "id": 7055460057, "lat": 19.0660316, "lon": 72.8319771, "tags": {"addr:district": "Mumbai", "addr:full": "Shyamkripa Bldg,Ground Floor 15Th Road, Khar (W)", "addr:postcode": "400052", "addr:state": "Maharashtra", "amenity": "hospital", "healthcare": "hospital", "name": "Tulip Womens Healthcare Centre - Khar (W)", "source": "OpenGovernmentData"}}, {"type": "node", "id": 7055590161, "lat": 19.0554466, "lon": 72.8357264, "tags": {"addr:district": "Mumbai", "addr:full": "1st Floor , Diamond Palace , 15 - A , Hill Road , Opposite Bandra , Police Station , Bandra (West )", "addr:postcode": "400050", "addr:state": "Maharashtra", "amenity": "hospital", "healthcare": "hospital", "name": "Parekh Eye Hospital", "source": "OpenGovernmentData"}}, {"type": "node", "id": 7062228611, "lat": 19.0713778, "lon": 72.8377193, "tags": {"addr:district": "Mumbai", "addr:full": "Mumbai", "addr:postcode": "400052", "addr:state": "Maharashtra", "amenity": "hospital", "name": "I Sight Eyecare and Surgery", "source": "OpenGovernmentData"}}, {"type": "node", "id": 7063077063, "lat": 19.0373922, "lon": 72.8397457, "tags": {"addr:district": "Mumbai", "addr:full": "Above Prabhat Bazar, 26, Kapad Bazar, Mahim", "addr:postcode": "400016", "addr:state": "Maharashtra", "amenity": "hospital", "healthcare": "hospital", "name": "Dr Haresh Shah Prabhat Maternity and Surgical Nursing Home", "source": "OpenGovernmentData"}}, {"type": "node", "id": 7064364272, "lat": 19.0128124, "lon": 72.8225863, "tags": {"addr:district": "Mumbai", "addr:full": "Pupala Sadan", "addr:postcode": "400030", "addr:state": "Maharashtra", "amenity": "hospital", "name": "Worli Hospital For Women", "source": "OpenGovernmentData"}}, {"type": "node", "id": 7064405838, "lat": 19.0716358, "lon": 72.837663, "tags": {"addr:district": "Mumbai", "addr:full": "No. 81, Swami Vivekanand Road, Above State Bank Of India, Khar West", "addr:postcode": "400052", "addr:state": "Maharashtra", "amenity": "hospital", "name": "Dr Gupte Lying-In Surgical Hospital", "source": "OpenGovernmentData"}}, {"type": "node", "id": 7064867159, "lat": 19.0030769, "lon": 72.8402299, "tags": {"addr:district": "Mumbai", "addr:full": "58-60 Jehangir Merwanji Street Parel", "addr:postcode": "400012", "addr:state": "Maharashtra", "amenity": "hospital", "name": "K B Haji Bachooali Charitable Ophthalmic and E N T H", "source": "OpenGovernmentData"}}, {"type": "node", "id": 7066371677, "lat": 19.0056262, "lon": 72.8449465, "tags": {"addr:district": "Mumbai", "addr:full": "96/97, Jerbai Wadia Road, Near Tata Hospital, Opp Vicco House, Bhoiwada, Parel", "addr:postcode": "400012", "addr:state": "Maharashtra", "amenity": "hospital", "name": "Parel Institute Of Orthopaedic Specialities", "source": "OpenGovernmentData"}}, {"type": "node", "id": 7066374709, "lat": 19.053611, "lon": 72.8246194, "tags": {"addr:district": "Mumbai", "addr:full": "13, Hill Road, Bandra (W)", "addr:postcode": "400050", "addr:state": "Maharashtra", "amenity": "hospital", "name": "Sushama Patkar Maternity ( and Surgical) Home - Bandra", "source": "OpenGovernmentData"}}, {"type": "node", "id": 7066505690, "lat": 19.0202665, "lon": 72.8339642, "tags": {"addr:district": "Mumbai", "addr:full": "104, Ramgiri Heights, Mtnl Marg, Dadari (W)", "addr:postcode": "400028", "addr:state": "Maharashtra", "amenity": "hospital", "healthcare": "hospital", "name": "Ashtavinayak Maternity Surgical and Eye Hospital", "source": "OpenGovernmentData"}}, {"type": "node", "id": 7066695543, "lat": 19.015612, "lon": 72.8451866, "tags": {"addr:district": "Mumbai", "addr:full": "Shilpa Apartment Dasturwadi Dadar E Mumbai", "addr:postcode": "400014", "addr:state": "Maharashtra", "amenity": "hospital", "healthcare": "hospital", "name": "G S B S Medical Trust", "source": "OpenGovernmentData"}}, {"type": "node", "id": 7066865609, "lat": 19.0346836, "lon": 72.8401695, "tags": {"addr:district": "Mumbai", "addr:full": "Rajdeep, 143, Lt. Dilip Gupte Road, Mahim", "addr:postcode": "400016", "addr:state": "Maharashtra", "amenity": "hospital", "healthcare": "hospital", "name": "Gupte Maternity and Surgical Home", "source": "OpenGovernmentData"}}, {"type": "node", "id": 7067050975, "lat": 19.0414249, "lon": 72.8453261, "tags": {"addr:district": "Mumbai", "addr:full": "3, Nitya Sahaya Building, Marinagar, Mahim West", "addr:postcode": "400016", "addr:state": "Maharashtra", "amenity": "hospital", "name": "Dr. Fonsecas Maternity and Surgical Home", "source": "OpenGovernmentData"}}, {"type": "node", "id": 7069814015, "lat": 19.0605379, "lon": 72.8456949, "tags": {"addr:district": "Mumbai", "addr:full": "Bldg.No.3,Kher Nagar Kala Co-Op Hsg Soc., Ram Mandir Road, Bandra (E)", "addr:postcode": "400051", "addr:state": "Maharashtra", "amenity": "hospital", "healthcare": "hospital", "name": "Nandini Eye Care Centre", "source": "OpenGovernmentData"}}, {"type": "node", "id": 7070711758, "lat": 19.0196078, "lon": 72.8337315, "tags": {"addr:district": "Mumbai", "addr:full": "Anil Apartment Ist Floor College Street Behind Prabhadevi Teleophone Exchange Agar Bazar Dadar", "addr:postcode": "400028", "addr:state": "Maharashtra", "amenity": "hospital", "healthcare": "hospital", "name": "Shreedhar Hospital", "source": "OpenGovernmentData"}}, {"type": "node", "id": 7072837154, "lat": 19.0679055, "lon": 72.8353534, "tags": {"addr:district": "Mumbai", "addr:full": "724, 11Th Road , Khar West-Bhandara", "addr:postcode": "400052", "addr:state": "Maharashtra", "amenity": "hospital", "healthcare": "hospital", "name": "Hinduja Healthcare", "source": "OpenGovernmentData"}}, {"type": "node", "id": 7073765630, "lat": 19.062597, "lon": 72.8358504, "tags": {"addr:district": "Mumbai", "addr:full": "Renuka, Gr Flr 269-D, Nr National College , Linking Road Bandra W)", "addr:postcode": "400050", "addr:state": "Maharashtra", "amenity": "hospital", "healthcare": "hospital", "name": "Dr A K Chandiramani Hospital", "source": "OpenGovernmentData"}}, {"type": "node", "id": 7080269652, "lat": 19.0363697, "lon": 72.8427344, "tags": {"addr:district": "Mumbai", "addr:full": "Ganesh Apt. Ground Floor, L. J. Road, Opposite Sitladevi Temple, Mahim", "addr:postcode": "400014", "addr:state": "Maharashtra", "amenity": "hospital", "healthcare": "hospital", "name": "Ashwini Accident Hospital and Poly Clinic", "source": "OpenGovernmentData"}}, {"type": "node", "id": 7080878125, "lat": 19.0828996, "lon": 72.8376549, "tags": {"addr:district": "Mumbai", "addr:full": "Santacruz (W)", "addr:postcode": "400054", "addr:state": "Maharashtra", "amenity": "hospital", "name": "Radiance Laser Vision Centre", "source": "OpenGovernmentData"}}, {"type": "node", "id": 7081965757, "lat": 19.0520436, "lon": 72.8238114, "tags": {"addr:district": "Mumbai", "addr:full": "Opp Mehboob Sutdio, Hill Road , Bandra West", "addr:postcode": "400050", "addr:state": "Maharashtra", "amenity": "hospital", "name": "Vision Laser Surgery Centre", "source": "OpenGovernmentData"}}, {"type": "node", "id": 7085742085, "lat": 19.0721453, "lon": 72.8343692, "tags": {"addr:district": "Mumbai", "addr:full": "No. 7, Rajsarovar Nikethan, No. 315. A Working Road, Above Punjab Sindhi Bank, Khar West", "addr:postcode": "400054", "addr:state": "Maharashtra", "amenity": "hospital", "name": "Zen Eye Center", "source": "OpenGovernmentData"}}, {"type": "node", "id": 7086283490, "lat": 19.0146725, "lon": 72.8275685, "tags": {"addr:district": "Mumbai", "addr:full": "14,Ground Floor Muljee House,Veer Savarkar Marg,Prabhadevi", "addr:postcode": "400025", "addr:state": "Maharashtra", "amenity": "hospital", "healthcare": "hospital", "name": "Varad Medical Centre", "source": "OpenGovernmentData"}}, {"type": "node", "id": 7225067153, "lat": 19.0017314, "lon": 72.816903, "tags": {"addr:district": "Mumbai", "addr:full": "BDD Chawls Worli, behind Poddar Hospital", "addr:postcode": "400018", "addr:state": "Maharashtra", "amenity": "hospital", "name": "ESIS Hospital WORLI", "source": "OpenGovernmentData"}}, {"type": "node", "id": 7225067192, "lat": 19.0022803, "lon": 72.8162624, "tags": {"addr:district": "Mumbai", "addr:full": "Dr Annie Besant Road, B Wing, BDD Chawls Worli", "addr:postcode": "400018", "addr:state": "Maharashtra", "amenity": "hospital", "name": "Poddar Hospital", "source": "OpenGovernmentData"}}, {"type": "node", "id": 7663961419, "lat": 19.064667, "lon": 72.835138, "tags": {"addr:district": "Mumbai Suburban", "addr:full": "513, Linking Road, Khar, Pali Village, Khar West, Mumbai", "addr:postcode": "400050", "addr:state": "Maharastra", "amenity": "hospital", "healthcare": "hospital", "name": "Kohinoor Hospital", "source": "Local Knowledge"}}, {"type": "node", "id": 7663961459, "lat": 19.0834657, "lon": 72.8395008, "tags": {"addr:district": "Mumbai Suburban", "addr:full": "Harihar Niwas, Besant Road, Santacruz West, Mumbai", "addr:postcode": "400054", "addr:state": "Maharastra", "amenity": "hospital", "healthcare": "hospital", "name": "Mangal Multispeciality Hospital", "source": "Local Knowledge"}}, {"type": "node", "id": 7664032192, "lat": 19.012455, "lon": 72.835058, "tags": {"addr:district": "Mumbai City", "addr:full": "R K Madani Building, Babasaheb Ambedkar Nagar, Mumbai", "addr:postcode": "400028", "addr:state": "Maharastra", "amenity": "hospital", "healthcare": "hospital", "name": "Gorai Naka Nalasopara Zoya Hospital", "source": "Local Knowledge"}}, {"type": "node", "id": 7664032202, "lat": 19.0146087, "lon": 72.8424841, "tags": {"addr:district": "Mumbai City", "addr:full": "Rupal Apartment, 1st Floor, Dadasaheb Phalke Road, Dadar East, Mumbai", "addr:postcode": "400014", "addr:state": "Maharastra", "amenity": "hospital", "name": "Ashvini Nursing Home", "source": "Local Knowledge"}}, {"type": "node", "id": 7664032211, "lat": 19.008175, "lon": 72.835476, "tags": {"addr:district": "Mumbai City", "addr:full": "Elphinstone Bridge, Babasaheb Ambedkar Nagar, Parel, Mumbai", "addr:postcode": "400012", "addr:state": "Maharastra", "amenity": "hospital", "name": "Laxmi Niwas General Hospital", "source": "Local Knowledge"}}, {"type": "node", "id": 7664032213, "lat": 19.0358599, "lon": 72.8386025, "tags": {"addr:district": "Mumbai City", "addr:full": "Sitladevi Temple Road, Mahim West, Mahim, Mumbai", "addr:postcode": "400016", "addr:state": "Maharastra", "amenity": "hospital", "healthcare": "hospital", "name": "New Ratna Hospital", "source": "Local Knowledge"}}, {"type": "node", "id": 7664032215, "lat": 19.012145, "lon": 72.833644, "tags": {"addr:district": "Mumbai City", "addr:full": "101, Inder Tower, Gokhale Road, Near Tilak Bhavan, Dadar West, Mumbai", "addr:postcode": "400028", "addr:state": "Maharastra", "amenity": "hospital", "healthcare": "hospital", "name": "Punamiya Hospital", "source": "Local Knowledge"}}, {"type": "node", "id": 7664032219, "lat": 19.015443, "lon": 72.8261774, "tags": {"addr:district": "Mumbai City", "addr:full": "Old Prabhadevi Road, G-South Ward, Dadar West, Prabhadevi, Mumbai", "addr:postcode": "400025", "addr:state": "Maharastra", "amenity": "hospital", "healthcare": "hospital", "healthcare:speciality": "general", "name": "BMC Hospital", "source": "Local Knowledge"}}, {"type": "node", "id": 7664032222, "lat": 19.047153, "lon": 72.84134, "tags": {"addr:district": "Mumbai City", "addr:full": "Building No.1, Ground Floor, New Mahim Police Colony, Mahim, Mumbai", "addr:postcode": "400016", "addr:state": "Maharastra", "amenity": "hospital", "name": "Mahim Police Hospital", "source": "Local Knowledge"}}, {"type": "node", "id": 7664032224, "lat": 19.03978, "lon": 72.840027, "tags": {"addr:district": "Mumbai City", "addr:full": "Welkarwadi BMC Building, LJ Cross Road, Opp.Darga Sarff, Mahim West, Mahim, Mumbai", "addr:postcode": "400016", "addr:state": "Maharastra", "amenity": "hospital", "healthcare": "hospital", "name": "Welkarwadi BMC Hospital", "source": "Local Knowledge"}}, {"type": "node", "id": 7664032231, "lat": 19.0363379, "lon": 72.8400357, "tags": {"addr:district": "Mumbai City", "addr:full": "Bobby Apartments, Near Mahim Bazar, P.O., Kapad Bazar, Mahim West, Mumbai", "addr:postcode": "400016", "addr:state": "Maharastra", "amenity": "hospital", "healthcare": "hospital", "name": "Raj Ratan Hospital", "source": "Local Knowledge"}}, {"type": "node", "id": 8797726541, "lat": 19.0115774, "lon": 72.8460141, "tags": {"addr:district": "Mumbai", "addr:full": "SS Wagh Marg, Old bdd chawl, Naigaon, Dadar, Mumbai", "addr:postcode": "400014", "addr:state": "Maharashtra", "amenity": "hospital", "healthcare": "hospital", "name": "Naigaon Municipal Maternity Home", "source": "Local Knowledge"}}, {"type": "node", "id": 9060925094, "lat": 19.0336282, "lon": 72.8386004, "tags": {"source": "AND"}}, {"type": "node", "id": 9215659357, "lat": 19.0207825, "lon": 72.8419304, "tags": {"addr:district": "Mumbai", "addr:full": "Dadar West", "addr:postcode": "400028", "addr:state": "Maharashtra", "amenity": "hospital", "description": "Private Hospital", "name": "Thyrocare Aarogyam Center - Dadar West", "source": "Local Knowledge"}}, {"type": "node", "id": 9441680530, "lat": 19.0554479, "lon": 72.8271482, "tags": {"amenity": "hospital", "healthcare": "hospital"}}, {"type": "node", "id": 10242737058, "lat": 19.0559475, "lon": 72.8267709, "tags": {"barrier": "gate", "name": "Gate 4"}}, {"type": "node", "id": 11023548671, "lat": 19.0332352, "lon": 72.8379419}, {"type": "node", "id": 11023548672, "lat": 19.0329157, "lon": 72.8387547}, {"type": "node", "id": 11023548673, "lat": 19.0327357, "lon": 72.8385025}, {"type": "node", "id": 11023575824, "lat": 19.0332123, "lon": 72.8385253}, {"type": "node", "id": 11384605285, "lat": 19.0694671, "lon": 72.8305428}, {"type": "node", "id": 11384605286, "lat": 19.0693505, "lon": 72.8305354}, {"type": "node", "id": 11384605287, "lat": 19.0693376, "lon": 72.8307641}, {"type": "node", "id": 11384605288, "lat": 19.0694542, "lon": 72.8307715}, {"type": "node", "id": 12413297718, "lat": 19.0722491, "lon": 72.8450037, "tags": {"amenity": "hospital", "healthcare": "hospital"}}, {"type": "node", "id": 12415386367, "lat": 19.0726487, "lon": 72.8443905, "tags": {"addr:city": "mumbai santacruz", "addr:housenumber": "2", "addr:postcode": "400055", "addr:street": "golibar road", "amenity": "hospital", "healthcare": "hospital", "name": "sanjivani hospital", "opening_hours": "24/7"}}, {"type": "node", "id": 12666389528, "lat": 19.031922, "lon": 72.8394263}, {"type": "node", "id": 12666389529, "lat": 19.031947, "lon": 72.8394753}, {"type": "node", "id": 12666389530, "lat": 19.0318651, "lon": 72.8395515}, {"type": "node", "id": 12666389531, "lat": 19.0318295, "lon": 72.8396044}, {"type": "node", "id": 12666389532, "lat": 19.0318692, "lon": 72.8396253}, {"type": "node", "id": 12666389533, "lat": 19.0318409, "lon": 72.8397602}, {"type": "node", "id": 13232407990, "lat": 19.0784545, "lon": 72.8447091}, {"type": "node", "id": 13232407991, "lat": 19.0783943, "lon": 72.8452213}, {"type": "node", "id": 13232407992, "lat": 19.078462, "lon": 72.845296}, {"type": "node", "id": 13232407993, "lat": 19.0788047, "lon": 72.8454487}, {"type": "node", "id": 13232407994, "lat": 19.0789204, "lon": 72.8454869}, {"type": "node", "id": 13232407995, "lat": 19.0790557, "lon": 72.8451338}, {"type": "node", "id": 13232407996, "lat": 19.0790768, "lon": 72.8447568}, {"type": "way", "id": 31144296, "nodes": [346379239, 346388855, 2449757463, 346388856, 346388857, 346379239], "tags": {"addr:city": "Mumbai", "addr:district": "Mumbai", "addr:full": "A-791, Bandra Reclamation, Bandra(W), Mumbai", "addr:postcode": "400050", "addr:state": "Maharashtra", "addr:street": "KC Marg", "alt_name": "Lilavati Hospital", "amenity": "hospital", "email": "info@lilavatihospital.com", "emergency": "yes", "healthcare": "hospital", "healthcare:speciality": "cardiology;oncology;psychiatry;paediatrics;emergency;surgery;dermatology;neurology;rheumatology;endocrinology;nephrology;gastroenterology", "loc_name": "Lilavati Hospital", "name": "Lilavati Hospital and Research Centre", "name:en": "Lilavati Hospital", "name:hi": "\u0932\u0940\u0932\u093e\u0935\u0924\u0940 \u0939\u0949\u0938\u094d\u092a\u093f\u091f\u0932", "operator": "Lilavati Kirtilal Mehta Medical Trust", "operator:type": "private", "phone": "+91226666666", "source": "OpenGovernmentData", "start_date": "1997", "website": "https://www.lilavatihospital.com/", "wikidata": "Q6547573", "wikimedia_commons": "Category:Lilavati Hospital", "wikipedia": "en:Lilavati Hospital and Research Centre"}}, {"type": "way", "id": 31213763, "nodes": [347168743, 10242737058, 2449734777, 347168744, 347168745, 347168746, 2449734759, 2449734760, 347168747, 347168748, 347168743], "tags": {"addr:district": "Mumbai", "addr:full": "St.Andrew's Road,Bandra West,Bandra", "addr:postcode": "400050", "addr:state": "Maharashtra", "addr:street": "St. Andrew Road", "amenity": "hospital", "healthcare": "hospital", "name": "Holy Family Hospital, Mumbai", "opening_hours": "Mo-Fr 08:00-17:00", "phone": "(022 30610555 )", "source": "OpenGovernmentData", "wikidata": "Q5885495", "wikipedia": "en:Holy Family Hospital, Mumbai"}}, {"type": "way", "id": 113561019, "nodes": [4292872567, 1287645917, 1287645846, 1287645873, 1287645899, 1287645914, 1287645875, 4292873293, 4292872582, 4292872575, 4292872573, 4292872567], "tags": {"amenity": "hospital", "healthcare": "hospital", "name": "Mahatma Gandhi Memorial Hospital", "name:etymology:wikidata": "Q1001"}}, {"type": "way", "id": 113570522, "nodes": [3568776849, 1287742597, 1287742829, 3568776847, 3568776846, 1287742602, 1287742548, 3568776850, 3568776849], "tags": {"addr:district": "Mumbai", "addr:full": "Mumbai", "addr:postcode": "400001", "addr:state": "Maharashtra", "amenity": "hospital", "healthcare": "hospital", "healthcare:speciality": "radiology", "name": "Tata Memorial Cancer Hospital", "source": "OpenGovernmentData"}}, {"type": "way", "id": 113576203, "nodes": [3568776823, 1287742739, 245659703, 3568776839, 3568776837, 3568776836, 3568776832, 3568776829, 3568776827, 3568776826, 3568776824, 3568776814, 5921458148, 5848596593, 3568776823], "tags": {"amenity": "hospital", "healthcare": "hospital", "historic": "public", "name": "Haffkine Institute", "old_name": "Government House"}}, {"type": "way", "id": 113716576, "nodes": [11023548672, 1625365308, 1289162782, 1625365313, 1289162738, 1289162630, 1289162623, 11023548672], "tags": {"amenity": "hospital", "healthcare": "hospital", "name": "Hinduja Clinic"}}, {"type": "way", "id": 113716578, "nodes": [1289162909, 11023548673, 11023575824, 9060925094, 1289162838, 11023548671, 1289162869, 1289162909], "tags": {"amenity": "hospital", "healthcare": "hospital", "name": "Hinduja Hospital"}}, {"type": "way", "id": 151806615, "nodes": [1646529838, 1646529751, 12666389528, 12666389529, 12666389530, 12666389531, 12666389532, 12666389533, 1646529753, 1646529811, 1646529838], "tags": {"addr:city": "Mumbai", "amenity": "hospital", "building": "apartments", "building:levels": "15", "healthcare": "hospital", "name": "Lalita Girdhar (Hinduja Hospital)"}}, {"type": "way", "id": 202918725, "nodes": [2128608109, 2128608120, 2128608096, 2128608094, 2128608109], "tags": {"addr:district": "Mumbai", "addr:full": "Raheja Rugnalaya Marg, Mahim (West)", "addr:postcode": "400016", "addr:state": "Maharashtra", "addr:street": "SL Raheja Hospital Marg", "amenity": "hospital", "healthcare": "hospital", "name": "S.L. Raheja Hospital", "name:en": "S.L. Raheja Hospital", "source": "OpenGovernmentData"}}, {"type": "way", "id": 353418036, "nodes": [3591988763, 3591988766, 3591988786, 3591988795, 3591988762, 3591988753, 3591988758, 3591988751, 3591988763], "tags": {"amenity": "hospital", "healthcare": "hospital"}}, {"type": "way", "id": 353772277, "nodes": [3595847706, 3595847707, 3595847282, 3595847281, 3595847706], "tags": {"amenity": "hospital", "healthcare": "hospital", "name": "Maru Hospital"}}, {"type": "way", "id": 357360289, "nodes": [3626442953, 3626442946, 3626442910, 3626442917, 3626442953], "tags": {"addr:city": "Mumbai", "addr:district": "Mumbai", "addr:housenumber": "43", "addr:postcode": "400016", "addr:street": "Takandas H. Kataria Marg", "amenity": "hospital", "emergency": "yes", "healthcare": "hospital", "healthcare:speciality": "general", "name": "smriti narvekar", "opening_hours": "Mo-Fr 08:00-17:00"}}, {"type": "way", "id": 357472226, "nodes": [3627071291, 3627071318, 3627071313, 3627071289, 3627071291], "tags": {"addr:city": "Mumbai", "addr:housenumber": "301-302 Prabath Chambers, Plot No 92", "addr:postcode": "400052", "addr:street": "Swami Vivekanand Road", "amenity": "hospital", "building": "commercial", "description": "The Vein Center is a chain vascular clinic located in Mumbai, India that specializes in the diagnosis and treatment of varicose vein related disorders. As a vascular interventional radiology center, it offers a range of services for the non-surgical treat", "emergency": "yes", "healthcare": "hospital", "healthcare:speciality": "vascular_surgery", "image": "https://tvcm.in/wp-content/uploads/2023/03/The-Vein-Center-Mumbai-Khar-West-Clinic-Building.png", "name": "The Vein Center Mumbai", "operator": "Dr Joshi Vein Center LLP", "operator:type": "private", "phone": "+91 8080866266", "start_date": "2008-01-03", "website": "https://tvcm.in"}}, {"type": "way", "id": 430029987, "nodes": [4292873312, 4292873313, 4292873311, 4292873310, 4292873312], "tags": {"addr:district": "Mumbai", "addr:full": "Parel", "addr:postcode": "400012", "addr:state": "Maharashtra", "amenity": "hospital", "name": "K B H B Charitable Ophthalmic and E.N.T Hospital", "source": "OpenGovernmentData"}}, {"type": "way", "id": 618791586, "nodes": [5848596594, 5848596595, 5848596596, 1287742739, 3568776823, 5848596627, 5848596594], "tags": {"addr:district": "Mumbai", "addr:full": "Acharya Donde Marg, Parel East, Parel", "addr:postcode": "400012", "addr:state": "Maharashtra", "amenity": "hospital", "healthcare": "hospital", "healthcare:speciality": "paediatrics", "name": "Nowrosjee Wadia Maternity Hospital", "source": "OpenGovernmentData"}}, {"type": "way", "id": 665481038, "nodes": [6228730402, 347120067, 6228754300, 6228730401, 6228730400, 6228730399, 6228730402], "tags": {"addr:district": "Mumbai", "addr:full": "K.B.Bhabha Municipal General Hospital, Waterfield Road, Bandra (W)", "addr:postcode": "400050", "addr:state": "Maharashtra", "amenity": "hospital", "full_name": "Khurshitji Beharamji Bhabha Municipal General Hospital", "full_name:en": "Khurshitji Beharamji Bhabha Municipal General Hospital", "healthcare": "hospital", "name": "K B Bhabha Municipal General Hospital", "official_name": "K B Bhabha Municipal General Hospital", "official_name:en": "K B Bhabha Municipal General Hospital", "phone": "+912226422775", "short_name": "Bhabha Hospital", "short_name:en": "Bhabha Hospital", "source": "OpenGovernmentData", "wikidata": "Q4900481", "wikipedia": "en:Bhabha Hospital"}}, {"type": "way", "id": 1227680040, "nodes": [11384605285, 11384605286, 11384605287, 11384605288, 11384605285], "tags": {"amenity": "hospital", "building": "hospital", "healthcare": "hospital", "mobile": "+91 98202 54545", "name": "Women's Hospital", "name:en": "Women's Hospital", "operator": "Dr. Rakesh Sinha", "operator:type": "private", "website": "https://www.womenshospital.com/"}}, {"type": "way", "id": 1442093565, "nodes": [13232407990, 13232407991, 13232407992, 13232407993, 13232407994, 13232407995, 13232407996, 13232407990], "tags": {"addr:full": "11th Road, Golibar, Santacruz East", "addr:postcode": "400055", "addr:state": "Maharashtra", "amenity": "hospital", "healthcare": "hospital", "name": "V.N. Desai Hospital", "name:en": "V.N. Desai Hospital", "operator": "BMC", "operator:type": "government", "website": "https://mumbaisuburban.gov.in/en/public-utility/v-n-desai-municipal-general-hospital/"}}, {"type": "way", "id": 1447315313, "nodes": [3589607630, 3589607625, 3589607622, 3589607628, 3589607630], "tags": {"addr:city": "Mumbai", "addr:postcode": "400054", "addr:street": "Besant Road", "amenity": "hospital", "description": "it is a nursing home", "healthcare": "hospital", "healthcare:speciality": "general", "name": "Mangal nursing home", "website": "https://www.justdial.com/Mumbai/Mangal-Multispeciality-Hospital-ICU-Near-Santacurz-Station-Santacruz-West/022PXX22-XX22-121008193335-N5M5_BZDET"}}]}