{"version": 0.6, "generator": "Overpass API 0.7.62.8 e802775f", "osm3s": {"timestamp_osm_base": "2026-01-09T09:07:34Z", "copyright": "The data included in this document is from www.openstreetmap.org. The data is made available under ODbL."}, "elements": [{"type": "node", "id": 289656763, "lat": 17.3924223, "lon": 78.4675956, "tags": {"internet_access": "no", "name": "Hyderabad Deccan Nampally", "name:fa": "\u062d\u06cc\u062f\u0631\u0622\u0628\u0627\u062f \u062f\u06a9\u0646", "name:te": "\u0c39\u0c48\u0c26\u0c30\u0c3e\u0c2c\u0c3e\u0c26\u0c4d \u0c26\u0c15\u0c4d\u0c15\u0c28\u0c4d \u0c28\u0c3e\u0c02\u0c2a\u0c32\u0c4d\u0c32\u0c3f", "name:ur": "\u062d\u06cc\u062f\u0631\u0622\u0628\u0627\u062f \u062f\u06a9\u0646", "network": "IR", "operator": "SCR", "platforms": "6", "railway": "station", "ref": "HYB", "train": "yes", "wheelchair": "limited", "wikidata": "Q3633967", "wikipedia": "en:Hyderabad Deccan railway station"}}, {"type": "node", "id": 307015337, "lat": 17.3765035, "lon": 78.4948263, "tags": {"alt_name:ur": "\u0645\u0644\u06a9 \u067e\u06cc\u0679", "internet_access": "no", "name": "Malakpet", "name:ar": "\u0645\u0627\u0644\u0643 \u0628\u064a\u062a", "name:fa": "\u0645\u0644\u06a9 \u067e\u06cc\u062a", "name:ur": "\u0645\u0627\u0644\u06a9 \u067e\u06cc\u0679", "network": "IR", "operator": "SCR", "platforms": "2", "public_transport": "station", "railway": "station", "ref": "MXT", "train": "yes", "wikidata": "Q6741191", "wikipedia": "en:Malakpet railway station"}}, {"type": "node", "id": 307015338, "lat": 17.3758726, "lon": 78.494705, "tags": {"name": "Malakpet", "public_transport": "stop_position", "ref": "1", "train": "yes"}}, {"type": "node", "id": 307015360, "lat": 17.3661232, "lon": 78.4904751, "tags": {"name": "Dabirpura", "public_transport": "stop_position", "ref": "1", "train": "yes"}}, {"type": "node", "id": 307023348, "lat": 17.389311, "lon": 78.4992403, "tags": {"historic": "yes", "internet_access": "wlan", "name": "Kacheguda", "name:ml": "\u0d15\u0d3e\u0d1a\u0d4d\u0d1a\u0d3f\u0d17\u0d41\u0d21", "name:te": "\u0c15\u0c3e\u0c1a\u0c3f\u0c17\u0c42\u0c21", "name:ur": "\u06a9\u0627\u0686\u06cc \u06af\u0648\u0691\u06c1", "network": "IR", "operator": "SCR", "public_transport": "station", "railway": "station", "ref": "KCG", "train": "yes", "wikidata": "Q6344674", "wikipedia": "en:Kacheguda railway station"}}, {"type": "node", "id": 315063655, "lat": 17.4102472, "lon": 78.4865248, "tags": {"bus": "yes", "highway": "bus_stop", "name": "Domalguada Bus top", "public_transport": "platform"}}, {"type": "node", "id": 626897247, "lat": 17.3665277, "lon": 78.4901244, "tags": {"alt_name": "Dabirpura", "internet_access": "no", "name": "Dabirpura", "name:fa": "\u062f\u0628\u06cc\u0631\u067e\u0648\u0631\u06c1", "network": "IR", "operator": "SCR", "platforms": "2", "public_transport": "halt", "railway": "halt", "ref": "DQR", "train": "yes", "wikidata": "Q5207493", "wikipedia": "en:Dabirpura railway station"}}, {"type": "node", "id": 626897410, "lat": 17.3730067, "lon": 78.4766562, "tags": {"amenity": "bus_station", "bus": "yes", "name": "Afzalgunj", "public_transport": "station"}}, {"type": "node", "id": 634123581, "lat": 17.4107475, "lon": 78.5075901, "tags": {"bus": "yes", "highway": "bus_stop", "name": "Ramnagar Cross Roads Bus Stop", "public_transport": "platform"}}, {"type": "node", "id": 634132021, "lat": 17.4018362, "lon": 78.5108121, "tags": {"internet_access": "no", "name": "Vidyanagar", "network": "IR", "operator": "SCR", "platforms": "2", "public_transport": "halt", "railway": "halt", "ref": "VAR", "train": "yes", "wikidata": "Q7928208", "wikipedia": "en:Vidyanagar railway station"}}, {"type": "node", "id": 1118754452, "lat": 17.3910429, "lon": 78.4672901}, {"type": "node", "id": 1118754466, "lat": 17.3912162, "lon": 78.4673762}, {"type": "node", "id": 1118754578, "lat": 17.3930214, "lon": 78.4675638}, {"type": "node", "id": 1118754606, "lat": 17.3912086, "lon": 78.4674641}, {"type": "node", "id": 1118754628, "lat": 17.3912005, "lon": 78.4669488}, {"type": "node", "id": 2174747681, "lat": 17.4047659, "lon": 78.4627335, "tags": {"name": "Lakdi-ka-pul", "public_transport": "stop_position", "railway": "stop", "ref": "1", "train": "yes"}}, {"type": "node", "id": 2181332979, "lat": 17.377189, "lon": 78.4945743}, {"type": "node", "id": 2183029321, "lat": 17.3729311, "lon": 78.5055031, "tags": {"bus": "yes", "highway": "bus_stop", "name": "Chermas", "public_transport": "platform"}}, {"type": "node", "id": 2183029326, "lat": 17.3753647, "lon": 78.4985746, "tags": {"bus": "yes", "highway": "bus_stop", "name": "Nalgonda X Roads", "public_transport": "platform"}}, {"type": "node", "id": 2183029335, "lat": 17.3743569, "lon": 78.5032335, "tags": {"alt_name": "Chermas", "bus": "yes", "highway": "bus_stop", "name": "Malakpet Market", "public_transport": "platform"}}, {"type": "node", "id": 2183029336, "lat": 17.3740315, "lon": 78.499935, "tags": {"bus": "yes", "fixme": "name", "highway": "bus_stop", "name": "Malakpet Bus Stop", "public_transport": "platform", "shelter": "no"}}, {"type": "node", "id": 2183029341, "lat": 17.3700425, "lon": 78.5139933, "tags": {"bus": "yes", "fixme": "name", "highway": "bus_stop", "public_transport": "platform"}}, {"type": "node", "id": 2185005230, "lat": 17.3772034, "lon": 78.4865157, "tags": {"bus": "yes", "highway": "bus_stop", "name": "Imlibun", "name:te": "\u0c07\u0c2e\u0c4d\u0c32\u0c3f\u0c2c\u0c28\u0c4d", "public_transport": "platform"}}, {"type": "node", "id": 2185005241, "lat": 17.3766708, "lon": 78.4862341, "tags": {"bus": "yes", "highway": "bus_stop", "name": "Imlibun", "name:te": "\u0c07\u0c2e\u0c4d\u0c32\u0c3f\u0c2c\u0c28\u0c4d", "public_transport": "platform"}}, {"type": "node", "id": 2185045487, "lat": 17.3784864, "lon": 78.4817136, "tags": {"bus": "yes", "highway": "bus_stop", "name": "TSRTC CBS BUS STAND", "public_transport": "platform"}}, {"type": "node", "id": 2185045507, "lat": 17.3779509, "lon": 78.4813912, "tags": {"bus": "yes", "highway": "bus_stop", "name": "TSRTC CBS BUS STAND", "public_transport": "platform"}}, {"type": "node", "id": 2197048423, "lat": 17.3850259, "lon": 78.4884201, "tags": {"highway": "bus_stop", "name": "Koti Women's College", "name:te": "\u0c15\u0c4b\u0c1f\u0c3f \u0c09\u0c2e\u0c46\u0c28\u0c4d\u0c38\u0c4d \u0c15\u0c3e\u0c32\u0c47\u0c1c\u0c4d"}}, {"type": "node", "id": 2199508157, "lat": 17.3724345, "lon": 78.5092099, "tags": {"alt_name": "Malakpet Super Bazaar", "bus": "yes", "highway": "bus_stop", "name": "Super Bazaar", "public_transport": "platform"}}, {"type": "node", "id": 2390894256, "lat": 17.4070448, "lon": 78.4967721, "tags": {"name": "RTC Cross Roads", "name:te": "\u0c06\u0c30\u0c4d \u0c1f\u0c40 \u0c38\u0c3f \u0c15\u0c4d\u0c30\u0c3e\u0c38\u0c4d \u0c30\u0c4b\u0c21\u0c4d\u0c38\u0c4d", "network": "Hyderabad Metro", "note": "Contributors are requested to not edit the \"network\" and the \"operator\" tags. (2023/11/08)", "operator": "Hyderabad Metro Rail Limited", "public_transport": "stop_position", "subway": "yes"}}, {"type": "node", "id": 2390894266, "lat": 17.4003684, "lon": 78.4948742, "tags": {"name": "Chikkadpally", "name:ml": "\u0d1a\u0d3f\u0d15\u0d4d\u0d15\u0d1f\u0d2a\u0d4d\u0d2a\u0d33\u0d4d\u0d33\u0d3f", "name:te": "\u0c1a\u0c3f\u0c15\u0c4d\u0c15\u0c21\u0c2a\u0c32\u0c4d\u0c32\u0c3f", "network": "Hyderabad Metro", "note": "Contributors are requested to not edit the \"network\" and the \"operator\" tags. (2023/11/08)", "operator": "Hyderabad Metro Rail Limited", "public_transport": "stop_position", "subway": "yes"}}, {"type": "node", "id": 2422989007, "lat": 17.3734454, "lon": 78.5031791, "tags": {"addr:city": "Hyderabad", "addr:city:ar": "\u062d\u064a\u062f\u0631 \u0622\u0628\u0627\u062f", "addr:city:ur": "\u062d\u06cc\u062f\u0631\u0622\u0628\u0627\u062f", "alt_name": "\u0645\u062d\u0628\u0648\u0628 \u06af\u0646\u062c", "name": "New Market", "name:ml": "\u0d28\u0d4d\u0d2f\u0d42\u0d2e\u0d3e\u0d7c\u0d15\u0d4d\u0d15\u0d31\u0d4d\u0d31\u0d4d", "name:te": "\u0c15\u0c4a\u0c24\u0c4d\u0c24 \u0c2e\u0c3e\u0c30\u0c4d\u0c15\u0c46\u0c1f\u0c4d", "name:ur": "\u0646\u0626\u06cc \u0645\u0627\u0631\u06a9\u06cc\u0679", "network": "Hyderabad Metro", "note": "Contributors are requested to not edit the \"network\" and the \"operator\" tags. (2023/11/08)", "operator": "Hyderabad Metro Rail Limited", "public_transport": "stop_position", "public_transport:version": "2", "railway": "stop", "subway": "yes"}}, {"type": "node", "id": 2422989049, "lat": 17.3821199, "lon": 78.4816145, "tags": {"addr:city": "Hyderabad", "addr:city:ar": "\u062d\u064a\u062f\u0631 \u0622\u0628\u0627\u062f", "addr:city:ur": "\u062d\u06cc\u062f\u0631\u0622\u0628\u0627\u062f", "alt_name": "OMC", "name": "Osmania Medical College", "name:ml": "\u0d09\u0d38\u0d4d\u0d2e\u0d3e\u0d28\u0d3f\u0d2f \u0d2e\u0d46\u0d21\u0d3f\u0d15\u0d4d\u0d15\u0d7d \u0d15\u0d4b\u0d33\u0d47\u0d1c\u0d4d", "name:te": "\u0c09\u0c38\u0c4d\u0c2e\u0c3e\u0c28\u0c3f\u0c2f\u0c3e \u0c35\u0c48\u0c26\u0c4d\u0c2f \u0c15\u0c33\u0c3e\u0c36\u0c3e\u0c32", "network": "Hyderabad Metro", "note": "Contributors are requested to not edit the \"network\" and the \"operator\" tags. (2023/11/08)", "operator": "Hyderabad Metro Rail Limited", "public_transport": "stop_position", "public_transport:version": "2", "railway": "stop", "subway": "yes"}}, {"type": "node", "id": 2422989058, "lat": 17.3772052, "lon": 78.4939044, "tags": {"addr:city": "Hyderabad", "addr:city:ar": "\u062d\u064a\u062f\u0631 \u0622\u0628\u0627\u062f", "addr:city:ur": "\u062d\u06cc\u062f\u0631\u0622\u0628\u0627\u062f", "addr:place": "Malakpet", "addr:place:ar": "\u0645\u0627\u0644\u0643 \u0628\u064a\u062a", "addr:place:ur": "\u0645\u0627\u0644\u06a9 \u067e\u06cc\u0679", "alt_name:ur": "\u0645\u0644\u06a9 \u067e\u06cc\u0679", "name": "Malakpet", "name:ar": "\u0645\u0627\u0644\u0643 \u0628\u064a\u062a", "name:te": "\u0c2e\u0c32\u0c15\u0c4d\u200c\u0c2a\u0c47\u0c1f\u0c4d", "name:ur": "\u0645\u0627\u0644\u06a9 \u067e\u06cc\u0679", "network": "Hyderabad Metro", "note": "Contributors are requested to not edit the \"network\" and the \"operator\" tags. (2023/11/08)", "operator": "Hyderabad Metro Rail Limited", "public_transport": "stop_position", "public_transport:version": "2", "railway": "stop", "subway": "yes"}}, {"type": "node", "id": 2422989068, "lat": 17.3979907, "lon": 78.4708797, "tags": {"addr:city": "Hyderabad", "addr:city:ar": "\u062d\u064a\u062f\u0631 \u0622\u0628\u0627\u062f", "addr:city:ur": "\u062d\u06cc\u062f\u0631\u0622\u0628\u0627\u062f", "name": "Assembly", "name:ml": "\u0d05\u0d38\u0d02\u0d2c\u0d4d\u0d32\u0d3f", "name:te": "\u0c05\u0c38\u0c46\u0c02\u0c2c\u0c4d\u0c32\u0c40", "network": "Hyderabad Metro", "note": "Contributors are requested to not edit the \"network\" and the \"operator\" tags. (2023/11/08)", "operator": "Hyderabad Metro Rail Limited", "public_transport": "stop_position", "public_transport:version": "2", "railway": "stop", "subway": "yes"}}, {"type": "node", "id": 2422989110, "lat": 17.3858253, "lon": 78.4733347, "tags": {"addr:city": "Hyderabad", "addr:city:ar": "\u062d\u064a\u062f\u0631 \u0622\u0628\u0627\u062f", "addr:city:ur": "\u062d\u06cc\u062f\u0631\u0622\u0628\u0627\u062f", "name": "Gandhi Bhavan", "name:ml": "\u0d17\u0d3e\u0d28\u0d4d\u0d27\u0d3f \u0d2d\u0d35\u0d7b", "name:te": "\u0c17\u0c3e\u0c02\u0c27\u0c40 \u0c2d\u0c35\u0c28\u0c4d", "network": "Hyderabad Metro", "note": "Contributors are requested to not edit the \"network\" and the \"operator\" tags. (2023/11/08)", "operator": "Hyderabad Metro Rail Limited", "public_transport": "stop_position", "public_transport:version": "2", "railway": "stop", "subway": "yes"}}, {"type": "node", "id": 2422989207, "lat": 17.392222, "lon": 78.4701612, "tags": {"addr:city": "Hyderabad", "addr:city:ar": "\u062d\u064a\u062f\u0631 \u0622\u0628\u0627\u062f", "addr:city:ur": "\u062d\u06cc\u062f\u0631\u0622\u0628\u0627\u062f", "name": "Nampally", "name:ml": "\u0d28\u0d3e\u0d2e\u0d4d\u0d2a\u0d33\u0d4d\u0d33\u0d3f", "name:te": "\u0c28\u0c3e\u0c02\u0c2a\u0c32\u0c4d\u0c32\u0c3f", "network": "Hyderabad Metro", "note": "Contributors are requested to not edit the \"network\" and the \"operator\" tags. (2023/11/08)", "operator": "Hyderabad Metro Rail Limited", "public_transport": "stop_position", "public_transport:version": "2", "railway": "stop", "subway": "yes"}}, {"type": "node", "id": 2422989260, "lat": 17.3798092, "lon": 78.486212, "tags": {"addr:city": "Hyderabad", "addr:city:ar": "\u062d\u064a\u062f\u0631 \u0622\u0628\u0627\u062f", "addr:city:ur": "\u062d\u06cc\u062f\u0631\u0622\u0628\u0627\u062f", "alt_name": "M. G. Bus Station (Red Line)", "name": "Mahatma Gandhi Bus Station (Red Line)", "name:te": "\u0c0e\u0c02.\u0c1c\u0c3f. \u0c2c\u0c38\u0c4d. \u0c38\u0c4d\u0c1f\u0c47\u0c37\u0c28\u0c4d", "name:ur": "\u0645\u06c1\u0627\u062a\u0645\u0627 \u06af\u0627\u0646\u062f\u06be\u06cc \u0628\u0633 \u0627\u0633\u0679\u06cc\u0634\u0646 (\u0631\u06cc\u0688 \u0644\u0627\u0626\u0646)", "network": "Hyderabad Metro", "note": "Contributors are requested to not edit the \"network\" and the \"operator\" tags. (2023/11/08)", "operator": "Hyderabad Metro Rail Limited", "public_transport": "stop_position", "public_transport:version": "2", "railway": "stop", "subway": "yes"}}, {"type": "node", "id": 2460409245, "lat": 17.3587239, "lon": 78.4739639}, {"type": "node", "id": 2460409246, "lat": 17.3587582, "lon": 78.4738584}, {"type": "node", "id": 2460409247, "lat": 17.3587703, "lon": 78.4737562}, {"type": "node", "id": 2460409253, "lat": 17.3588514, "lon": 78.4735888}, {"type": "node", "id": 2460409270, "lat": 17.3594296, "lon": 78.4737051}, {"type": "node", "id": 2460409274, "lat": 17.3594865, "lon": 78.4740936}, {"type": "node", "id": 2460409275, "lat": 17.3594941, "lon": 78.4737913}, {"type": "node", "id": 2460409278, "lat": 17.3595569, "lon": 78.4741069}, {"type": "node", "id": 2460493710, "lat": 17.3889614, "lon": 78.4990166}, {"type": "node", "id": 2460493725, "lat": 17.3895054, "lon": 78.4994973}, {"type": "node", "id": 2461282027, "lat": 17.4001075, "lon": 78.5095791}, {"type": "node", "id": 2461282028, "lat": 17.4001424, "lon": 78.5095326}, {"type": "node", "id": 2461282029, "lat": 17.4001867, "lon": 78.5094762}, {"type": "node", "id": 2461282030, "lat": 17.4002278, "lon": 78.5094298}, {"type": "node", "id": 2461282032, "lat": 17.4011017, "lon": 78.5104581}, {"type": "node", "id": 2461282036, "lat": 17.4013867, "lon": 78.5105344}, {"type": "node", "id": 2461282037, "lat": 17.401393, "lon": 78.5104614}, {"type": "node", "id": 2461282046, "lat": 17.4026662, "lon": 78.511906}, {"type": "node", "id": 2461282047, "lat": 17.4026979, "lon": 78.5118596}, {"type": "node", "id": 2461282048, "lat": 17.4027137, "lon": 78.51177}, {"type": "node", "id": 2461282050, "lat": 17.4027548, "lon": 78.5117136}, {"type": "node", "id": 2578026375, "lat": 17.4066792, "lon": 78.4986216, "tags": {"amenity": "bus_station", "bus": "yes", "name": "TSRTC BUS BHAVAN", "public_transport": "station"}}, {"type": "node", "id": 2712437769, "lat": 17.4038328, "lon": 78.4635019, "tags": {"internet_access": "no", "name": "Lakdi-ka-pul", "name:te": "\u0c32\u0c15\u0c4d\u0c21\u0c3f\u0c15\u0c2a\u0c42\u0c32\u0c4d", "name:ur": "\u0644\u06a9\u0691\u06cc \u06a9\u0627 \u067e\u0644", "network": "IR", "operator": "SCR", "platforms": "2", "public_transport": "station", "railway": "station", "ref": "LKPL", "train": "yes", "wikidata": "Q6474590", "wikipedia": "en:Lakdi-ka-pul railway station"}}, {"type": "node", "id": 2766428030, "lat": 17.3600834, "lon": 78.4921942, "tags": {"internet_access": "no", "name": "Yakutpura", "name:fa": "\u06cc\u0627\u0642\u0648\u062a \u067e\u0648\u0631\u06c1", "network": "IR", "operator": "SCR", "platforms": "2", "public_transport": "halt", "railway": "halt", "ref": "YKA", "train": "yes", "wikidata": "Q16930084", "wikipedia": "en:Yakutpura railway station"}}, {"type": "node", "id": 2766428060, "lat": 17.3586895, "lon": 78.4914075}, {"type": "node", "id": 2766428062, "lat": 17.3587519, "lon": 78.4915555}, {"type": "node", "id": 2766428063, "lat": 17.3587632, "lon": 78.4915193}, {"type": "node", "id": 2766428064, "lat": 17.3604232, "lon": 78.4922732}, {"type": "node", "id": 2766428065, "lat": 17.3604517, "lon": 78.4922103}, {"type": "node", "id": 2766428066, "lat": 17.3604701, "lon": 78.4921259}, {"type": "node", "id": 2766428067, "lat": 17.360557, "lon": 78.4921016}, {"type": "node", "id": 2766428069, "lat": 17.3605422, "lon": 78.4921509}, {"type": "node", "id": 2766428071, "lat": 17.3650235, "lon": 78.4910348}, {"type": "node", "id": 2766428072, "lat": 17.3650441, "lon": 78.4910746}, {"type": "node", "id": 2766428074, "lat": 17.3650489, "lon": 78.4911733}, {"type": "node", "id": 2766428075, "lat": 17.3650728, "lon": 78.4912133}, {"type": "node", "id": 2766428077, "lat": 17.3663389, "lon": 78.4902803}, {"type": "node", "id": 2766428078, "lat": 17.3663568, "lon": 78.4903339}, {"type": "node", "id": 2766428079, "lat": 17.3666256, "lon": 78.490326}, {"type": "node", "id": 2766428080, "lat": 17.3664221, "lon": 78.4904779}, {"type": "node", "id": 2766428081, "lat": 17.3668273, "lon": 78.4900867}, {"type": "node", "id": 2766428082, "lat": 17.3668408, "lon": 78.4901468}, {"type": "node", "id": 3157201754, "lat": 17.3844647, "lon": 78.484, "tags": {"name": "Sultan Bazar", "name:te": "\u0c38\u0c41\u0c32\u0c4d\u0c24\u0c3e\u0c28\u0c4d \u0c2c\u0c1c\u0c3e\u0c30\u0c4d", "network": "Hyderabad Metro", "note": "Contributors are requested to not edit the \"network\" and the \"operator\" tags. (2023/11/08)", "operator": "Hyderabad Metro Rail Limited", "public_transport": "stop_position", "subway": "yes"}}, {"type": "node", "id": 3205619987, "lat": 17.377086, "lon": 78.4945657}, {"type": "node", "id": 3462885678, "lat": 17.3666452, "lon": 78.4901553}, {"type": "node", "id": 3462997820, "lat": 17.4019813, "lon": 78.5112642, "tags": {"entrance": "yes"}}, {"type": "node", "id": 3612559409, "lat": 17.3764232, "lon": 78.4950585}, {"type": "node", "id": 3612573966, "lat": 17.4110069, "lon": 78.4733865, "tags": {"amenity": "ferry_terminal", "ferry": "yes", "name": "Boats to Budha Statue", "name:te": "\u0c2c\u0c41\u0c26\u0c4d\u0c27 \u0c35\u0c3f\u0c17\u0c4d\u0c30\u0c39\u0c02 \u0c15\u0c4a\u0c30\u0c15\u0c41 \u0c2c\u0c4b\u0c1f\u0c4d\u0c38\u0c4d", "public_transport": "station"}}, {"type": "node", "id": 3619319599, "lat": 17.3878883, "lon": 78.498054}, {"type": "node", "id": 3619319637, "lat": 17.3879516, "lon": 78.4980687}, {"type": "node", "id": 3619320006, "lat": 17.3881923, "lon": 78.4982828}, {"type": "node", "id": 3619320026, "lat": 17.3882257, "lon": 78.4983257}, {"type": "node", "id": 3619320098, "lat": 17.3883508, "lon": 78.4984352}, {"type": "node", "id": 3619320143, "lat": 17.3884493, "lon": 78.498518}, {"type": "node", "id": 3619320168, "lat": 17.3885293, "lon": 78.4985848}, {"type": "node", "id": 3619320194, "lat": 17.388614, "lon": 78.4986922}, {"type": "node", "id": 3619320266, "lat": 17.3888001, "lon": 78.4988747}, {"type": "node", "id": 3784358051, "lat": 17.3910572, "lon": 78.4672172}, {"type": "node", "id": 3784358052, "lat": 17.3911019, "lon": 78.46731}, {"type": "node", "id": 3784358053, "lat": 17.3911063, "lon": 78.4672274}, {"type": "node", "id": 3784358054, "lat": 17.3910419, "lon": 78.4673852}, {"type": "node", "id": 3784358055, "lat": 17.3910834, "lon": 78.4674573}, {"type": "node", "id": 3784358056, "lat": 17.3911727, "lon": 78.4671332}, {"type": "node", "id": 3784388057, "lat": 17.3911786, "lon": 78.4670413}, {"type": "node", "id": 3784388058, "lat": 17.3912039, "lon": 78.4670444}, {"type": "node", "id": 3784388059, "lat": 17.391211, "lon": 78.4669516}, {"type": "node", "id": 3784388062, "lat": 17.3913489, "lon": 78.4674057}, {"type": "node", "id": 3784388063, "lat": 17.3913503, "lon": 78.4673888}, {"type": "node", "id": 3784388065, "lat": 17.3929998, "lon": 78.4678142}, {"type": "node", "id": 3784388066, "lat": 17.3931034, "lon": 78.4676369}, {"type": "node", "id": 3784388067, "lat": 17.3931064, "lon": 78.4675637}, {"type": "node", "id": 3784388068, "lat": 17.3931429, "lon": 78.4678252}, {"type": "node", "id": 3784388069, "lat": 17.3931475, "lon": 78.4677732}, {"type": "node", "id": 3784388072, "lat": 17.3944685, "lon": 78.4678419}, {"type": "node", "id": 3784388074, "lat": 17.3947315, "lon": 78.4678496}, {"type": "node", "id": 3784388076, "lat": 17.3949573, "lon": 78.4678699}, {"type": "node", "id": 3784388078, "lat": 17.3950322, "lon": 78.4676899}, {"type": "node", "id": 3784388079, "lat": 17.3950541, "lon": 78.4676018}, {"type": "node", "id": 3784388081, "lat": 17.3951521, "lon": 78.4675178}, {"type": "node", "id": 3784388084, "lat": 17.3952848, "lon": 78.4677646}, {"type": "node", "id": 3784388087, "lat": 17.3954113, "lon": 78.4676228}, {"type": "node", "id": 3784388089, "lat": 17.3954155, "lon": 78.4677148}, {"type": "node", "id": 3784388091, "lat": 17.3954715, "lon": 78.4679174}, {"type": "node", "id": 3784388092, "lat": 17.3955047, "lon": 78.4678798}, {"type": "node", "id": 3784388093, "lat": 17.3955181, "lon": 78.4677817}, {"type": "node", "id": 3784388095, "lat": 17.3956522, "lon": 78.4679295}, {"type": "node", "id": 3784388097, "lat": 17.3956964, "lon": 78.4677148}, {"type": "node", "id": 3784388098, "lat": 17.3957013, "lon": 78.4676294}, {"type": "node", "id": 3784388099, "lat": 17.3957276, "lon": 78.4678861}, {"type": "node", "id": 3784388101, "lat": 17.3957439, "lon": 78.4677833}, {"type": "node", "id": 3784388102, "lat": 17.3958088, "lon": 78.4679284}, {"type": "node", "id": 3784388104, "lat": 17.3959326, "lon": 78.4678798}, {"type": "node", "id": 3784388105, "lat": 17.3959674, "lon": 78.4679218}, {"type": "node", "id": 3784388108, "lat": 17.3962424, "lon": 78.4676349}, {"type": "node", "id": 3784388109, "lat": 17.3962343, "lon": 78.467613}, {"type": "node", "id": 3784388113, "lat": 17.3961702, "lon": 78.4678954}, {"type": "node", "id": 3784388116, "lat": 17.3961997, "lon": 78.4678491}, {"type": "node", "id": 3784388122, "lat": 17.3962626, "lon": 78.4677108}, {"type": "node", "id": 3784388123, "lat": 17.3962794, "lon": 78.4677575}, {"type": "node", "id": 3784388124, "lat": 17.3963037, "lon": 78.4678348}, {"type": "node", "id": 3784388125, "lat": 17.3963121, "lon": 78.4678646}, {"type": "node", "id": 3784388166, "lat": 17.4047517, "lon": 78.4626985, "tags": {"name": "Lakdi-ka-pul", "public_transport": "stop_position", "railway": "stop", "ref": "2", "train": "yes"}}, {"type": "node", "id": 4035985094, "lat": 17.3876805, "lon": 78.4980634}, {"type": "node", "id": 4035985095, "lat": 17.3877172, "lon": 78.4982769}, {"type": "node", "id": 4035985096, "lat": 17.3877404, "lon": 78.4979905}, {"type": "node", "id": 4035985097, "lat": 17.387751, "lon": 78.4982416}, {"type": "node", "id": 4035985098, "lat": 17.3878368, "lon": 78.4984287}, {"type": "node", "id": 4035985099, "lat": 17.3878549, "lon": 78.4980953}, {"type": "node", "id": 4035985100, "lat": 17.387875, "lon": 78.4986338}, {"type": "node", "id": 4035985101, "lat": 17.3878905, "lon": 78.4986161}, {"type": "node", "id": 4035985102, "lat": 17.3879109, "lon": 78.4980277}, {"type": "node", "id": 4035985103, "lat": 17.3879945, "lon": 78.4988091}, {"type": "node", "id": 4035985104, "lat": 17.3880733, "lon": 78.4988961}, {"type": "node", "id": 4035985105, "lat": 17.3885158, "lon": 78.4986071}, {"type": "node", "id": 4035985106, "lat": 17.3905131, "lon": 78.5004768}, {"type": "node", "id": 4035985107, "lat": 17.3905348, "lon": 78.500454}, {"type": "node", "id": 4035985108, "lat": 17.3916138, "lon": 78.5015507}, {"type": "node", "id": 4035985109, "lat": 17.3916281, "lon": 78.5015313}, {"type": "node", "id": 4035985110, "lat": 17.3916301, "lon": 78.5021364}, {"type": "node", "id": 4035985111, "lat": 17.3918263, "lon": 78.5021967}, {"type": "node", "id": 4035985112, "lat": 17.3918778, "lon": 78.5021205}, {"type": "node", "id": 4035985113, "lat": 17.3919354, "lon": 78.5020542}, {"type": "node", "id": 4035985114, "lat": 17.3919821, "lon": 78.501984}, {"type": "node", "id": 4035985115, "lat": 17.3920264, "lon": 78.5019322}, {"type": "node", "id": 4342904903, "lat": 17.3772926, "lon": 78.4932643}, {"type": "node", "id": 5486709289, "lat": 17.4100351, "lon": 78.4865195, "tags": {"bus": "yes", "highway": "bus_stop", "name": "Domalguada Bus top", "public_transport": "platform"}}, {"type": "node", "id": 5536020505, "lat": 17.410965, "lon": 78.4729424, "tags": {"amenity": "ferry_terminal", "ferry": "yes", "name": "Boats to Budha Statue", "public_transport": "station"}}, {"type": "node", "id": 5787787745, "lat": 17.4070193, "lon": 78.4968324, "tags": {"name": "RTC Cross Roads", "name:te": "\u0c06\u0c30\u0c4d \u0c1f\u0c40 \u0c38\u0c3f \u0c15\u0c4d\u0c30\u0c3e\u0c38\u0c4d \u0c30\u0c4b\u0c21\u0c4d\u0c38\u0c4d", "network": "Hyderabad Metro", "note": "Contributors are requested to not edit the \"network\" and the \"operator\" tags. (2023/11/08)", "operator": "Hyderabad Metro Rail Limited", "public_transport": "stop_position", "subway": "yes"}}, {"type": "node", "id": 5787787751, "lat": 17.4003567, "lon": 78.4949221, "tags": {"name": "Chikkadpally", "name:ml": "\u0d1a\u0d3f\u0d15\u0d4d\u0d15\u0d1f\u0d2a\u0d4d\u0d2a\u0d33\u0d4d\u0d33\u0d3f", "name:te": "\u0c1a\u0c3f\u0c15\u0c4d\u0c15\u0c21\u0c2a\u0c32\u0c4d\u0c32\u0c3f", "network": "Hyderabad Metro", "note": "Contributors are requested to not edit the \"network\" and the \"operator\" tags. (2023/11/08)", "operator": "Hyderabad Metro Rail Limited", "public_transport": "stop_position", "subway": "yes"}}, {"type": "node", "id": 5936912539, "lat": 17.3661398, "lon": 78.490508, "tags": {"name": "Dabirpura", "public_transport": "stop_position", "ref": "2", "train": "yes"}}, {"type": "node", "id": 5936912549, "lat": 17.3660384, "lon": 78.4906813}, {"type": "node", "id": 5936912550, "lat": 17.366846, "lon": 78.4902965}, {"type": "node", "id": 5936912551, "lat": 17.3668371, "lon": 78.4902455}, {"type": "node", "id": 5936912552, "lat": 17.3666016, "lon": 78.4902348}, {"type": "node", "id": 5936912553, "lat": 17.3660166, "lon": 78.4904534}, {"type": "node", "id": 5936912554, "lat": 17.366064, "lon": 78.4904815}, {"type": "node", "id": 5936912555, "lat": 17.3658297, "lon": 78.490617}, {"type": "node", "id": 5936912556, "lat": 17.3663891, "lon": 78.4904212}, {"type": "node", "id": 5936912557, "lat": 17.3661241, "lon": 78.4905526}, {"type": "node", "id": 5936912558, "lat": 17.3658553, "lon": 78.4907041}, {"type": "node", "id": 5961188254, "lat": 17.4111614, "lon": 78.4609532, "tags": {"addr:city": "Hyderabad", "addr:city:ar": "\u062d\u064a\u062f\u0631 \u0622\u0628\u0627\u062f", "addr:city:ur": "\u062d\u06cc\u062f\u0631\u0622\u0628\u0627\u062f", "name": "Khairatabad", "name:ml": "\u0d16\u0d48\u0d30\u0d24\u0d3e\u0d2c\u0d3e\u0d26\u0d4d", "name:te": "\u0c16\u0c48\u0c30\u0c24\u0c3e\u0c2c\u0c3e\u0c26\u0c4d", "network": "Hyderabad Metro", "note": "Contributors are requested to not edit the \"network\" and the \"operator\" tags. (2023/11/08)", "operator": "Hyderabad Metro Rail Limited", "public_transport": "stop_position", "public_transport:version": "2", "railway": "stop", "subway": "yes"}}, {"type": "node", "id": 5968369025, "lat": 17.4036398, "lon": 78.4653197, "tags": {"addr:city": "Hyderabad", "addr:city:ar": "\u062d\u064a\u062f\u0631 \u0622\u0628\u0627\u062f", "addr:city:ur": "\u062d\u06cc\u062f\u0631\u0622\u0628\u0627\u062f", "name": "Lakdi-ka-pul", "name:ml": "\u0d32\u0d15\u0d4d\u0d21\u0d3f-\u0d15\u0d3e-\u0d2a\u0d41\u0d7d", "name:te": "\u0c32\u0c15\u0c4d\u0c21\u0c3f-\u0c15\u0c3e-\u0c2a\u0c41\u0c32\u0c4d", "network": "Hyderabad Metro", "note": "Contributors are requested to not edit the \"network\" and the \"operator\" tags. (2023/11/08)", "operator": "Hyderabad Metro Rail Limited", "public_transport": "stop_position", "public_transport:version": "2", "railway": "stop", "subway": "yes", "wheelchair": "yes"}}, {"type": "node", "id": 5993751673, "lat": 17.3772405, "lon": 78.4945786}, {"type": "node", "id": 5993751674, "lat": 17.3770345, "lon": 78.4945615}, {"type": "node", "id": 5993751676, "lat": 17.3771355, "lon": 78.4932274}, {"type": "node", "id": 5993751677, "lat": 17.3773415, "lon": 78.4932445}, {"type": "node", "id": 5993751682, "lat": 17.3706972, "lon": 78.5124795}, {"type": "node", "id": 5993751683, "lat": 17.3708739, "lon": 78.5125864}, {"type": "node", "id": 5993751684, "lat": 17.3714919, "lon": 78.5114646}, {"type": "node", "id": 5993752585, "lat": 17.3713151, "lon": 78.5113577}, {"type": "node", "id": 6624724948, "lat": 17.3758566, "lon": 78.4947456, "tags": {"name": "Malakpet", "public_transport": "stop_position", "ref": "2", "train": "yes"}}, {"type": "node", "id": 6799990962, "lat": 17.3772557, "lon": 78.4932374}, {"type": "node", "id": 6799990963, "lat": 17.3771547, "lon": 78.4945714}, {"type": "node", "id": 6800005107, "lat": 17.3710873, "lon": 78.5119545, "tags": {"addr:city": "Hyderabad", "addr:city:ar": "\u062d\u064a\u062f\u0631 \u0622\u0628\u0627\u062f", "addr:city:ur": "\u062d\u06cc\u062f\u0631\u0622\u0628\u0627\u062f", "name": "Musarambagh", "name:ml": "\u0d2e\u0d42\u0d38\u0d3e\u0d30\u0d3e\u0d02\u0d2c\u0d3e\u0d17\u0d4d", "name:te": "\u0c2e\u0c42\u0c38\u0c3e\u0c30\u0c02\u0c2c\u0c3e\u0c17\u0c4d", "name:ur": "\u0645\u0648\u0633\u06cc\u0670 \u0631\u0627\u0645 \u0628\u0627\u063a", "network": "Hyderabad Metro", "note": "Contributors are requested to not edit the \"network\" and the \"operator\" tags. (2023/11/08)", "operator": "Hyderabad Metro Rail Limited", "public_transport": "stop_position", "public_transport:version": "2", "railway": "stop", "subway": "yes"}}, {"type": "node", "id": 6800005227, "lat": 17.3772213, "lon": 78.4932345}, {"type": "node", "id": 6800005228, "lat": 17.3771203, "lon": 78.4945686}, {"type": "node", "id": 7127405514, "lat": 17.3587022, "lon": 78.4913683}, {"type": "node", "id": 7195061317, "lat": 17.394371, "lon": 78.4899387, "tags": {"name": "Narayanaguda", "name:te": "\u0c28\u0c3e\u0c30\u0c3e\u0c2f\u0c23\u0c17\u0c42\u0c21", "network": "Hyderabad Metro", "note": "Contributors are requested to not edit the \"network\" and the \"operator\" tags. (2023/11/08)", "operator": "Hyderabad Metro Rail Limited", "public_transport": "stop_position", "subway": "yes"}}, {"type": "node", "id": 7206794919, "lat": 17.4070321, "lon": 78.4968023, "tags": {"name": "RTC Cross Roads", "name:fa": "\u0622\u0631. \u062a\u06cc. \u0633\u06cc. \u06a9\u0631\u0627\u0633 \u0631\u0648\u062f\u0632", "name:ml": "\u0d06\u0d7c \u0d1f\u0d3f \u0d38\u0d3f \u0d15\u0d4d\u0d30\u0d4b\u0d38\u0d4d \u0d31\u0d4b\u0d21\u0d4d\u0d38\u0d4d", "name:te": "\u0c06\u0c30\u0c4d \u0c1f\u0c40 \u0c38\u0c3f \u0c15\u0c4d\u0c30\u0c3e\u0c38\u0c4d \u0c30\u0c4b\u0c21\u0c4d\u0c38\u0c4d", "network": "Hyderabad Metro", "note": "Contributors are requested to not edit the \"network\" and the \"operator\" tags. (2023/11/08)", "operator": "Hyderabad Metro Rail Limited", "public_transport": "station", "railway": "station", "station": "subway", "subway": "yes", "wikidata": "Q108874753"}}, {"type": "node", "id": 7206794923, "lat": 17.3773029, "lon": 78.4937551}, {"type": "node", "id": 7206794926, "lat": 17.3771211, "lon": 78.4934173}, {"type": "node", "id": 7206794927, "lat": 17.3772729, "lon": 78.4932388}, {"type": "node", "id": 7206794928, "lat": 17.3772042, "lon": 78.4932331}, {"type": "node", "id": 7206794929, "lat": 17.3772385, "lon": 78.493236}, {"type": "node", "id": 7206794930, "lat": 17.377187, "lon": 78.4932317}, {"type": "node", "id": 7206794931, "lat": 17.3771032, "lon": 78.4945672}, {"type": "node", "id": 7206794932, "lat": 17.3771718, "lon": 78.4945729}, {"type": "node", "id": 7206794933, "lat": 17.3771708, "lon": 78.4939016, "tags": {"addr:city": "Hyderabad", "addr:city:ar": "\u062d\u064a\u062f\u0631 \u0622\u0628\u0627\u062f", "addr:city:ur": "\u062d\u06cc\u062f\u0631\u0622\u0628\u0627\u062f", "addr:place": "Malakpet", "addr:place:ar": "\u0645\u0627\u0644\u0643 \u0628\u064a\u062a", "addr:place:ur": "\u0645\u0627\u0644\u06a9 \u067e\u06cc\u0679", "alt_name:ur": "\u0645\u0644\u06a9 \u067e\u06cc\u0679", "name": "Malakpet", "name:ar": "\u0645\u0627\u0644\u0643 \u0628\u064a\u062a", "name:te": "\u0c2e\u0c32\u0c15\u0c4d\u200c\u0c2a\u0c47\u0c1f\u0c4d", "name:ur": "\u0645\u0627\u0644\u06a9 \u067e\u06cc\u0679", "network": "Hyderabad Metro", "note": "Contributors are requested to not edit the \"network\" and the \"operator\" tags. (2023/11/08)", "operator": "Hyderabad Metro Rail Limited", "public_transport": "stop_position", "public_transport:version": "2", "railway": "stop", "subway": "yes"}}, {"type": "node", "id": 7206794945, "lat": 17.3797847, "lon": 78.4861805, "tags": {"addr:city": "Hyderabad", "addr:city:ar": "\u062d\u064a\u062f\u0631 \u0622\u0628\u0627\u062f", "addr:city:ur": "\u062d\u06cc\u062f\u0631\u0622\u0628\u0627\u062f", "alt_name": "M. G. Bus Station (Red Line)", "name": "Mahatma Gandhi Bus Station (Red Line)", "name:te": "\u0c0e\u0c02.\u0c1c\u0c3f. \u0c2c\u0c38\u0c4d. \u0c38\u0c4d\u0c1f\u0c47\u0c37\u0c28\u0c4d", "name:ur": "\u0645\u06c1\u0627\u062a\u0645\u0627 \u06af\u0627\u0646\u062f\u06be\u06cc \u0628\u0633 \u0627\u0633\u0679\u06cc\u0634\u0646 (\u0631\u06cc\u0688 \u0644\u0627\u0626\u0646)", "network": "Hyderabad Metro", "note": "Contributors are requested to not edit the \"network\" and the \"operator\" tags. (2023/11/08)", "operator": "Hyderabad Metro Rail Limited", "public_transport": "stop_position", "public_transport:version": "2", "railway": "stop", "subway": "yes"}}, {"type": "node", "id": 7206794947, "lat": 17.37987, "lon": 78.4855927}, {"type": "node", "id": 7206794961, "lat": 17.3801975, "lon": 78.4854244}, {"type": "node", "id": 7206794973, "lat": 17.3790482, "lon": 78.4860671}, {"type": "node", "id": 7206794974, "lat": 17.3792441, "lon": 78.4860864}, {"type": "node", "id": 7206794977, "lat": 17.3802464, "lon": 78.48555}, {"type": "node", "id": 7206794978, "lat": 17.3802172, "lon": 78.4854666}, {"type": "node", "id": 7206794979, "lat": 17.3803206, "lon": 78.4856816}, {"type": "node", "id": 7206794981, "lat": 17.3790285, "lon": 78.4860251}, {"type": "node", "id": 7208768626, "lat": 17.3798572, "lon": 78.4862022, "tags": {"alt_name": "M. G. Bus Station (Red Line)", "name": "Mahatma Gandhi Bus Station (Red Line)", "name:fa": "\u0627\u06cc\u0633\u062a\u06af\u0627\u0647 \u0627\u062a\u0648\u0628\u0648\u0633 \u0645\u0647\u0627\u062a\u0645\u0627 \u06af\u0627\u0646\u062f\u06cc (\u062e\u0637 \u0642\u0631\u0645\u0632)", "name:ml": "\u0d2e\u0d39\u0d3e\u0d24\u0d4d\u0d2e\u0d3e\u0d17\u0d3e\u0d28\u0d4d\u0d27\u0d3f \u0d2c\u0d38\u0d4d \u0d38\u0d4d\u0d31\u0d4d\u0d31\u0d47\u0d37\u0d7b", "name:te": "\u0c0e\u0c02.\u0c1c\u0c3f. \u0c2c\u0c38\u0c4d. \u0c38\u0c4d\u0c1f\u0c47\u0c37\u0c28\u0c4d", "name:ur": "\u0645\u06c1\u0627\u062a\u0645\u0627 \u06af\u0627\u0646\u062f\u06be\u06cc \u0628\u0633 \u0627\u0633\u0679\u06cc\u0634\u0646 (\u0631\u06cc\u0688 \u0644\u0627\u0626\u0646)", "network": "Hyderabad Metro", "note": "Contributors are requested to not edit the \"network\" and the \"operator\" tags. (2023/11/08)", "operator": "Hyderabad Metro Rail Limited", "public_transport": "station", "railway": "station", "station": "subway", "subway": "yes"}}, {"type": "node", "id": 7208768627, "lat": 17.3796948, "lon": 78.4858635, "tags": {"alt_name": "M. G. Bus Station (Green Line)", "name": "Mahatma Gandhi Bus Station (Green Line)", "name:fa": "\u0627\u06cc\u0633\u062a\u06af\u0627\u0647 \u0627\u062a\u0648\u0628\u0648\u0633 \u0645\u0647\u0627\u062a\u0645\u0627 \u06af\u0627\u0646\u062f\u06cc (\u062e\u0637 \u0633\u0628\u0632)", "name:ml": "\u0d2e\u0d39\u0d3e\u0d24\u0d4d\u0d2e\u0d3e\u0d17\u0d3e\u0d28\u0d4d\u0d27\u0d3f \u0d2c\u0d38\u0d4d \u0d38\u0d4d\u0d31\u0d4d\u0d31\u0d47\u0d37\u0d7b", "name:te": "\u0c0e\u0c02.\u0c1c\u0c3f. \u0c2c\u0c38\u0c4d. \u0c38\u0c4d\u0c1f\u0c47\u0c37\u0c28\u0c4d", "name:ur": "\u0645\u06c1\u0627\u062a\u0645\u0627 \u06af\u0627\u0646\u062f\u06be\u06cc \u0628\u0633 \u0627\u0633\u0679\u06cc\u0634\u0646 (\u06af\u0631\u06cc\u0646 \u0644\u0627\u0626\u0646", "network": "Hyderabad Metro", "note": "Contributors are requested to not edit the \"network\" and the \"operator\" tags. (2023/11/08)", "operator": "Hyderabad Metro Rail Limited", "public_transport": "station", "railway": "station", "station": "subway", "subway": "yes"}}, {"type": "node", "id": 7208768628, "lat": 17.3771888, "lon": 78.4939356, "tags": {"addr:city": "Hyderabad", "addr:city:ar": "\u062d\u064a\u062f\u0631 \u0622\u0628\u0627\u062f", "addr:city:ur": "\u062d\u06cc\u062f\u0631\u0622\u0628\u0627\u062f", "addr:place": "Malakpet", "addr:place:ar": "\u0645\u0627\u0644\u0643 \u0628\u064a\u062a", "addr:place:ur": "\u0645\u0627\u0644\u06a9 \u067e\u06cc\u0679", "alt_name:ur": "\u0645\u0644\u06a9 \u067e\u06cc\u0679", "name": "Malakpet", "name:ar": "\u0645\u0627\u0644\u0643 \u0628\u064a\u062a", "name:fa": "\u0645\u0644\u06a9 \u067e\u06cc\u062a", "name:ml": "\u0d2e\u0d32\u0d15\u0d4d\u0d2a\u0d47\u0d1f\u0d4d\u0d1f\u0d4d", "name:te": "\u0c2e\u0c32\u0c15\u0c4d\u200c\u0c2a\u0c47\u0c1f\u0c4d", "name:ur": "\u0645\u0627\u0644\u06a9 \u067e\u06cc\u0679", "network": "Hyderabad Metro", "note": "Contributors are requested to not edit the \"network\" and the \"operator\" tags. (2023/11/08)", "operator": "Hyderabad Metro Rail Limited", "public_transport": "station", "railway": "station", "station": "subway", "subway": "yes", "wheelchair": "yes"}}, {"type": "node", "id": 7244238197, "lat": 17.404087, "lon": 78.503738, "tags": {"bus": "yes", "highway": "bus_stop", "name": "VST Bus Stop", "public_transport": "platform"}}, {"type": "node", "id": 7244238208, "lat": 17.4090807, "lon": 78.5087684, "tags": {"bus": "yes", "highway": "bus_stop", "public_transport": "platform"}}, {"type": "node", "id": 7244243967, "lat": 17.4008542, "lon": 78.5080708, "tags": {"bus": "yes", "highway": "bus_stop", "name": "shanker mutt bus stop", "public_transport": "platform"}}, {"type": "node", "id": 7244267537, "lat": 17.409455, "lon": 78.5066988, "tags": {"bus": "yes", "highway": "bus_stop", "public_transport": "platform"}}, {"type": "node", "id": 7246815452, "lat": 17.3710728, "lon": 78.5119483, "tags": {"name": "Musarambagh", "name:fa": "\u0645\u0648\u0633\u06cc \u0631\u0627\u0645 \u0628\u0627\u063a", "name:te": "\u0c2e\u0c42\u0c38\u0c30\u0c02\u0c2c\u0c3e\u0c18\u0c4d", "name:ur": "\u0645\u0648\u0633\u06cc\u0670 \u0631\u0627\u0645 \u0628\u0627\u063a", "network": "Hyderabad Metro", "note": "Contributors are requested to not edit the \"network\" and the \"operator\" tags. (2023/11/08)", "operator": "Hyderabad Metro Rail Limited", "public_transport": "station", "railway": "station", "station": "subway", "subway": "yes", "wikidata": "Q81640785"}}, {"type": "node", "id": 7358663498, "lat": 17.3844258, "lon": 78.4840519, "tags": {"name": "Sultan Bazar", "name:te": "\u0c38\u0c41\u0c32\u0c4d\u0c24\u0c3e\u0c28\u0c4d \u0c2c\u0c1c\u0c3e\u0c30\u0c4d", "network": "Hyderabad Metro", "note": "Contributors are requested to not edit the \"network\" and the \"operator\" tags. (2023/11/08)", "operator": "Hyderabad Metro Rail Limited", "public_transport": "stop_position", "subway": "yes"}}, {"type": "node", "id": 7358663499, "lat": 17.3844473, "lon": 78.4840241, "tags": {"name": "Sultan Bazar", "name:fa": "\u0633\u0644\u0637\u0627\u0646 \u0628\u0627\u0632\u0627\u0631", "name:ml": "\u0d38\u0d41\u0d7d\u0d24\u0d4d\u0d24\u0d3e\u0d7b \u0d2c\u0d38\u0d3e\u0d7c", "name:te": "\u0c38\u0c41\u0c32\u0c4d\u0c24\u0c3e\u0c28\u0c4d \u0c2c\u0c1c\u0c3e\u0c30\u0c4d", "network": "Hyderabad Metro", "note": "Contributors are requested to not edit the \"network\" and the \"operator\" tags. (2023/11/08)", "operator": "Hyderabad Metro Rail Limited", "railway": "station", "station": "subway", "subway": "yes"}}, {"type": "node", "id": 7358663500, "lat": 17.3943607, "lon": 78.489976, "tags": {"name": "Narayanaguda", "name:te": "\u0c28\u0c3e\u0c30\u0c3e\u0c2f\u0c23\u0c17\u0c42\u0c21", "network": "Hyderabad Metro", "note": "Contributors are requested to not edit the \"network\" and the \"operator\" tags. (2023/11/08)", "operator": "Hyderabad Metro Rail Limited", "public_transport": "stop_position", "subway": "yes"}}, {"type": "node", "id": 7358663501, "lat": 17.3943658, "lon": 78.4899578, "tags": {"name": "Narayanaguda", "name:fa": "\u0646\u0627\u0631\u0627\u06cc\u0627\u0646\u0627\u06af\u0648\u062f\u0627", "name:ml": "\u0d28\u0d3e\u0d30\u0d3e\u0d2f\u0d23\u0d17\u0d41\u0d21", "name:te": "\u0c28\u0c3e\u0c30\u0c3e\u0c2f\u0c23\u0c17\u0c42\u0c21", "network": "Hyderabad Metro", "note": "Contributors are requested to not edit the \"network\" and the \"operator\" tags. (2023/11/08)", "operator": "Hyderabad Metro Rail Limited", "railway": "station", "station": "subway", "subway": "yes", "wikidata": "Q108874763"}}, {"type": "node", "id": 7358663502, "lat": 17.4003634, "lon": 78.4948964, "tags": {"name": "Chikkadpally", "name:fa": "\u0686\u06cc\u06a9\u0627\u062f\u067e\u0627\u0644\u06cc", "name:ml": "\u0d1a\u0d3f\u0d15\u0d4d\u0d15\u0d1f\u0d2a\u0d4d\u0d2a\u0d33\u0d4d\u0d33\u0d3f", "name:te": "\u0c1a\u0c3f\u0c15\u0c4d\u0c15\u0c21\u0c2a\u0c32\u0c4d\u0c32\u0c3f", "network": "Hyderabad Metro", "note": "Contributors are requested to not edit the \"network\" and the \"operator\" tags. (2023/11/08)", "operator": "Hyderabad Metro Rail Limited", "railway": "station", "station": "subway", "subway": "yes", "wikidata": "Q108874757"}}, {"type": "node", "id": 7632550173, "lat": 17.3795945, "lon": 78.4858221, "tags": {"alt_name": "M. G. Bus Station (Green Line)", "name": "Mahatma Gandhi Bus Station (Green Line)", "name:te": "\u0c0e\u0c02.\u0c1c\u0c3f. \u0c2c\u0c38\u0c4d. \u0c38\u0c4d\u0c1f\u0c47\u0c37\u0c28\u0c4d", "name:ur": "\u0645\u06c1\u0627\u062a\u0645\u0627 \u06af\u0627\u0646\u062f\u06be\u06cc \u0628\u0633 \u0627\u0633\u0679\u06cc\u0634\u0646 (\u06af\u0631\u06cc\u0646 \u0644\u0627\u0626\u0646", "network": "Hyderabad Metro", "note": "Contributors are requested to not edit the \"network\" and the \"operator\" tags. (2023/11/08)", "operator": "Hyderabad Metro Rail Limited", "public_transport": "stop_position", "railway": "stop", "subway": "yes"}}, {"type": "node", "id": 7632550174, "lat": 17.3796106, "lon": 78.4858581, "tags": {"alt_name": "M. G. Bus Station (Green Line)", "name": "Mahatma Gandhi Bus Station (Green Line)", "name:te": "\u0c0e\u0c02.\u0c1c\u0c3f. \u0c2c\u0c38\u0c4d. \u0c38\u0c4d\u0c1f\u0c47\u0c37\u0c28\u0c4d", "name:ur": "\u0645\u06c1\u0627\u062a\u0645\u0627 \u06af\u0627\u0646\u062f\u06be\u06cc \u0628\u0633 \u0627\u0633\u0679\u06cc\u0634\u0646 (\u06af\u0631\u06cc\u0646 \u0644\u0627\u0626\u0646", "network": "Hyderabad Metro", "note": "Contributors are requested to not edit the \"network\" and the \"operator\" tags. (2023/11/08)", "operator": "Hyderabad Metro Rail Limited", "public_transport": "stop_position", "railway": "stop", "subway": "yes"}}, {"type": "node", "id": 7633696913, "lat": 17.3917877, "lon": 78.5022544}, {"type": "node", "id": 7635652752, "lat": 17.3932537, "lon": 78.4673086, "tags": {"name": "Hyderabad Deccan Nampally", "name:ur": "\u062d\u06cc\u062f\u0631\u0622\u0628\u0627\u062f \u062f\u06a9\u0646", "public_transport": "stop_position", "railway": "stop", "ref": "6", "train": "yes"}}, {"type": "node", "id": 7635652753, "lat": 17.393247, "lon": 78.467451, "tags": {"name": "Hyderabad Deccan Nampally", "name:ur": "\u062d\u06cc\u062f\u0631\u0622\u0628\u0627\u062f \u062f\u06a9\u0646", "public_transport": "stop_position", "railway": "stop", "ref": "5", "train": "yes"}}, {"type": "node", "id": 7635652754, "lat": 17.3932459, "lon": 78.4674948, "tags": {"name": "Hyderabad Deccan Nampally", "name:ur": "\u062d\u06cc\u062f\u0631\u0622\u0628\u0627\u062f \u062f\u06a9\u0646", "public_transport": "stop_position", "railway": "stop", "ref": "4", "train": "yes"}}, {"type": "node", "id": 7635652755, "lat": 17.3932426, "lon": 78.4675952, "tags": {"name": "Hyderabad Deccan Nampally", "name:ur": "\u062d\u06cc\u062f\u0631\u0622\u0628\u0627\u062f \u062f\u06a9\u0646", "public_transport": "stop_position", "railway": "stop", "ref": "3", "train": "yes"}}, {"type": "node", "id": 7635652756, "lat": 17.3932435, "lon": 78.4676319, "tags": {"name": "Hyderabad Deccan Nampally", "name:ur": "\u062d\u06cc\u062f\u0631\u0622\u0628\u0627\u062f \u062f\u06a9\u0646", "public_transport": "stop_position", "railway": "stop", "ref": "2", "train": "yes"}}, {"type": "node", "id": 7635652757, "lat": 17.3932391, "lon": 78.46779, "tags": {"name": "Hyderabad Deccan Nampally", "name:ur": "\u062d\u06cc\u062f\u0631\u0622\u0628\u0627\u062f \u062f\u06a9\u0646", "public_transport": "stop_position", "railway": "stop", "ref": "1", "train": "yes"}}, {"type": "node", "id": 7636066538, "lat": 17.4057763, "lon": 78.4621464}, {"type": "node", "id": 7636066539, "lat": 17.4057927, "lon": 78.4621953}, {"type": "node", "id": 7636066540, "lat": 17.4055947, "lon": 78.4622134}, {"type": "node", "id": 7636066541, "lat": 17.4051603, "lon": 78.462411}, {"type": "node", "id": 7636066542, "lat": 17.4047216, "lon": 78.4626409}, {"type": "node", "id": 7636066543, "lat": 17.4042774, "lon": 78.4629096}, {"type": "node", "id": 7636066544, "lat": 17.4039938, "lon": 78.4630974}, {"type": "node", "id": 7636066545, "lat": 17.4056128, "lon": 78.4622616}, {"type": "node", "id": 7636066546, "lat": 17.4051812, "lon": 78.4624579}, {"type": "node", "id": 7636066547, "lat": 17.404745, "lon": 78.4626865}, {"type": "node", "id": 7636066548, "lat": 17.404303, "lon": 78.4629539}, {"type": "node", "id": 7636066549, "lat": 17.4040202, "lon": 78.4631411}, {"type": "node", "id": 7636066550, "lat": 17.4060244, "lon": 78.4622396}, {"type": "node", "id": 7636066551, "lat": 17.4056555, "lon": 78.4623756}, {"type": "node", "id": 7636066552, "lat": 17.4052306, "lon": 78.4625689}, {"type": "node", "id": 7636066553, "lat": 17.4048004, "lon": 78.4627943}, {"type": "node", "id": 7636066554, "lat": 17.4043634, "lon": 78.4630587}, {"type": "node", "id": 7636066555, "lat": 17.406084, "lon": 78.4622197}, {"type": "node", "id": 7636066556, "lat": 17.4040826, "lon": 78.4632446}, {"type": "node", "id": 7636066557, "lat": 17.4040586, "lon": 78.4632048}, {"type": "node", "id": 7636066558, "lat": 17.4043401, "lon": 78.4630184}, {"type": "node", "id": 7636066559, "lat": 17.4060703, "lon": 78.4621748}, {"type": "node", "id": 7636066560, "lat": 17.4060102, "lon": 78.4621949}, {"type": "node", "id": 7636066561, "lat": 17.405639, "lon": 78.4623317}, {"type": "node", "id": 7636066562, "lat": 17.4052116, "lon": 78.4625262}, {"type": "node", "id": 7636066563, "lat": 17.4047791, "lon": 78.4627528}, {"type": "node", "id": 8018502784, "lat": 17.3792887, "lon": 78.4861786}, {"type": "node", "id": 8018503085, "lat": 17.3794557, "lon": 78.4864248}, {"type": "node", "id": 8044154035, "lat": 17.3728388, "lon": 78.4993697, "tags": {"bus": "yes", "highway": "bus_stop", "public_transport": "platform", "shelter": "no"}}, {"type": "node", "id": 8044216497, "lat": 17.3721098, "lon": 78.4994461, "tags": {"bus": "yes", "highway": "bus_stop", "public_transport": "platform", "shelter": "yes"}}, {"type": "node", "id": 8387157856, "lat": 17.4099864, "lon": 78.5079415, "tags": {"bus": "yes", "highway": "bus_stop", "public_transport": "platform"}}, {"type": "node", "id": 8387157863, "lat": 17.4079329, "lon": 78.5135334, "tags": {"bus": "yes", "highway": "bus_stop", "name": "nallakunta busstop", "public_transport": "platform"}}, {"type": "node", "id": 10278298785, "lat": 17.3734093, "lon": 78.5031773, "tags": {"addr:city": "Hyderabad", "addr:city:ar": "\u062d\u064a\u062f\u0631 \u0622\u0628\u0627\u062f", "addr:city:ur": "\u062d\u06cc\u062f\u0631\u0622\u0628\u0627\u062f", "alt_name": "\u0645\u062d\u0628\u0648\u0628 \u06af\u0646\u062c", "name": "New Market", "name:ml": "\u0d28\u0d4d\u0d2f\u0d42\u0d2e\u0d3e\u0d7c\u0d15\u0d4d\u0d15\u0d31\u0d4d\u0d31\u0d4d", "name:te": "\u0c15\u0c4a\u0c24\u0c4d\u0c24 \u0c2e\u0c3e\u0c30\u0c4d\u0c15\u0c46\u0c1f\u0c4d", "name:ur": "\u0646\u0626\u06cc \u0645\u0627\u0631\u06a9\u06cc\u0679", "network": "Hyderabad Metro", "note": "Contributors are requested to not edit the \"network\" and the \"operator\" tags. (2023/11/08)", "operator": "Hyderabad Metro Rail Limited", "public_transport": "stop_position", "public_transport:version": "2", "railway": "stop", "subway": "yes"}}, {"type": "node", "id": 10279821749, "lat": 17.3734268, "lon": 78.5031775, "tags": {"alt_name": "\u0645\u062d\u0628\u0648\u0628 \u06af\u0646\u062c", "name": "New Market", "name:fa": "\u0628\u0627\u0632\u0627\u0631 \u062c\u062f\u06cc\u062f", "name:ml": "\u0d28\u0d4d\u0d2f\u0d42\u0d2e\u0d3e\u0d7c\u0d15\u0d4d\u0d15\u0d31\u0d4d\u0d31\u0d4d", "name:te": "\u0c15\u0c4a\u0c24\u0c4d\u0c24 \u0c2e\u0c3e\u0c30\u0c4d\u0c15\u0c46\u0c1f\u0c4d", "name:ur": "\u0646\u0626\u06cc \u0645\u0627\u0631\u06a9\u06cc\u0679", "network": "Hyderabad Metro", "note": "Contributors are requested to not edit the \"network\" and the \"operator\" tags. (2023/11/08)", "operator": "Hyderabad Metro Rail Limited", "public_transport": "station", "railway": "station", "station": "subway", "subway": "yes", "wikidata": "Q81483949"}}, {"type": "node", "id": 10279821750, "lat": 17.3710547, "lon": 78.5119383, "tags": {"addr:city": "Hyderabad", "addr:city:ar": "\u062d\u064a\u062f\u0631 \u0622\u0628\u0627\u062f", "addr:city:ur": "\u062d\u06cc\u062f\u0631\u0622\u0628\u0627\u062f", "name": "Musarambagh", "name:ml": "\u0d2e\u0d42\u0d38\u0d3e\u0d30\u0d3e\u0d02\u0d2c\u0d3e\u0d17\u0d4d", "name:te": "\u0c2e\u0c42\u0c38\u0c3e\u0c30\u0c02\u0c2c\u0c3e\u0c17\u0c4d", "name:ur": "\u0645\u0648\u0633\u06cc\u0670 \u0631\u0627\u0645 \u0628\u0627\u063a", "network": "Hyderabad Metro", "note": "Contributors are requested to not edit the \"network\" and the \"operator\" tags. (2023/11/08)", "operator": "Hyderabad Metro Rail Limited", "public_transport": "stop_position", "public_transport:version": "2", "railway": "stop", "subway": "yes"}}, {"type": "node", "id": 10992500541, "lat": 17.3921316, "lon": 78.5011455, "tags": {"amenity": "bus_station", "bus": "yes", "name": "TSRTC BUS DEPOT , BARKATPURA", "public_transport": "station"}}, {"type": "node", "id": 10992500542, "lat": 17.4063252, "lon": 78.5001204, "tags": {"amenity": "bus_station", "bus": "yes", "name": "TSRTC WORKSHOP , RTC X ROADS", "public_transport": "station"}}, {"type": "node", "id": 10992500543, "lat": 17.4081874, "lon": 78.5036561, "tags": {"amenity": "bus_station", "bus": "yes", "name": "TSRTC BUS DEPOT, MUSHEERABAD 2", "public_transport": "station"}}, {"type": "node", "id": 10992500544, "lat": 17.4077647, "lon": 78.5018495, "tags": {"amenity": "bus_station", "bus": "yes", "name": "TSRTC BUS DEPOT, HYDERABAD", "public_transport": "station"}}, {"type": "node", "id": 10992500569, "lat": 17.4043212, "lon": 78.5102865, "tags": {"amenity": "bus_station", "bus": "yes", "name": "VIDYANAGAR BUS STOP", "public_transport": "station"}}, {"type": "node", "id": 10992500570, "lat": 17.4043258, "lon": 78.5104757, "tags": {"amenity": "bus_station", "bus": "yes", "name": "VIDYANAGAR BUS STOP", "public_transport": "station"}}, {"type": "node", "id": 11037640729, "lat": 17.3794048, "lon": 78.4863626}, {"type": "node", "id": 11037640730, "lat": 17.3803724, "lon": 78.4857653}, {"type": "node", "id": 11037640731, "lat": 17.3804162, "lon": 78.4858215}, {"type": "node", "id": 11037640732, "lat": 17.3795682, "lon": 78.4865608}, {"type": "node", "id": 11037640733, "lat": 17.3795213, "lon": 78.4865073}, {"type": "node", "id": 11738179187, "lat": 17.3823471, "lon": 78.4811327, "tags": {"alt_name": "OMC", "internet_access": "no", "name": "Osmania Medical College", "name:fa": "\u06a9\u0627\u0644\u062c \u067e\u0632\u0634\u06a9\u06cc \u0639\u062b\u0645\u0627\u0646\u06cc\u0647", "name:ml": "\u0d09\u0d38\u0d4d\u0d2e\u0d3e\u0d28\u0d3f\u0d2f \u0d2e\u0d46\u0d21\u0d3f\u0d15\u0d4d\u0d15\u0d7d \u0d15\u0d4b\u0d33\u0d47\u0d1c\u0d4d", "name:te": "\u0c09\u0c38\u0c4d\u0c2e\u0c3e\u0c28\u0c3f\u0c2f\u0c3e \u0c35\u0c48\u0c26\u0c4d\u0c2f \u0c15\u0c33\u0c3e\u0c36\u0c3e\u0c32", "name:ur": "\u0639\u062b\u0645\u0627\u0646\u06cc\u06c1 \u0645\u06cc\u0688\u06cc\u06a9\u0644 \u06a9\u0627\u0644\u062c", "network": "Hyderabad Metro", "note": "Contributors are requested to not edit the \"network\" and the \"operator\" tags. (2023/11/08)", "operator": "Hyderabad Metro Rail Limited", "public_transport": "station", "railway": "station", "station": "subway", "subway": "yes", "website": "https://hmrl.co.in", "wheelchair": "yes", "wikidata": "Q83859784"}}, {"type": "node", "id": 11738179188, "lat": 17.3923995, "lon": 78.4701477, "tags": {"internet_access": "no", "name": "Nampally", "name:fa": "\u0646\u0627\u0645\u067e\u0627\u0644\u06cc", "name:ml": "\u0d28\u0d3e\u0d2e\u0d4d\u0d2a\u0d33\u0d4d\u0d33\u0d3f", "name:te": "\u0c28\u0c3e\u0c02\u0c2a\u0c32\u0c4d\u0c32\u0c3f", "name:ur": "\u0646\u0627\u0645\u067e\u0644\u0651\u06cc", "network": "Hyderabad Metro", "note": "Contributors are requested to not edit the \"network\" and the \"operator\" tags. (2023/11/08)", "operator": "Hyderabad Metro Rail Limited", "public_transport": "station", "railway": "station", "station": "subway", "subway": "yes", "website": "https://hmrl.co.in", "wheelchair": "yes", "wikidata": "Q63346685"}}, {"type": "node", "id": 11738179190, "lat": 17.4039063, "lon": 78.4650247, "tags": {"internet_access": "no", "name": "Lakdi-ka-pul", "name:fa": "\u0644\u06a9\u062f\u06cc-\u06a9\u0627-\u067e\u0644", "name:ml": "\u0d32\u0d15\u0d4d\u0d21\u0d3f-\u0d15\u0d3e-\u0d2a\u0d41\u0d7d", "name:te": "\u0c32\u0c15\u0c4d\u0c21\u0c3f-\u0c15\u0c3e-\u0c2a\u0c41\u0c32\u0c4d", "name:ur": "\u0644\u06a9\u0691\u06cc \u06a9\u0627 \u067e\u0644", "network": "Hyderabad Metro", "note": "Contributors are requested to not edit the \"network\" and the \"operator\" tags. (2023/11/08)", "operator": "Hyderabad Metro Rail Limited", "public_transport": "station", "railway": "station", "station": "subway", "subway": "yes", "website": "https://hmrl.co.in", "wheelchair": "yes"}}, {"type": "node", "id": 11738179191, "lat": 17.4115319, "lon": 78.4608458, "tags": {"internet_access": "no", "name": "Khairatabad", "name:fa": "\u062e\u06cc\u0631\u062a \u0622\u0628\u0627\u062f", "name:ml": "\u0d16\u0d48\u0d30\u0d24\u0d3e\u0d2c\u0d3e\u0d26\u0d4d", "name:te": "\u0c16\u0c48\u0c30\u0c24\u0c3e\u0c2c\u0c3e\u0c26\u0c4d", "name:ur": "\u062e\u06cc\u0631\u062a \u0622\u0628\u0627\u062f", "network": "Hyderabad Metro", "note": "Contributors are requested to not edit the \"network\" and the \"operator\" tags. (2023/11/08)", "operator": "Hyderabad Metro Rail Limited", "public_transport": "station", "railway": "station", "station": "subway", "subway": "yes", "website": "https://hmrl.co.in", "wheelchair": "yes"}}, {"type": "node", "id": 11738179194, "lat": 17.3861073, "lon": 78.4730995, "tags": {"internet_access": "no", "name": "Gandhi Bhavan", "name:fa": "\u06af\u0627\u0646\u062f\u06cc \u0628\u0647\u0627\u0648\u0627\u0646", "name:ml": "\u0d17\u0d3e\u0d28\u0d4d\u0d27\u0d3f \u0d2d\u0d35\u0d7b", "name:te": "\u0c17\u0c3e\u0c02\u0c27\u0c40 \u0c2d\u0c35\u0c28\u0c4d", "name:ur": "\u06af\u0627\u0646\u062f\u06be\u06cc \u0628\u06be\u0648\u0646", "network": "Hyderabad Metro", "note": "Contributors are requested to not edit the \"network\" and the \"operator\" tags. (2023/11/08)", "operator": "Hyderabad Metro Rail Limited", "public_transport": "station", "railway": "station", "station": "subway", "subway": "yes", "website": "https://hmrl.co.in", "wheelchair": "yes", "wikidata": "Q62860405"}}, {"type": "node", "id": 11738179200, "lat": 17.3981092, "lon": 78.4708176, "tags": {"internet_access": "no", "name": "Assembly", "name:fa": "\u0627\u0633\u0645\u0628\u0644\u06cc", "name:ml": "\u0d05\u0d38\u0d02\u0d2c\u0d4d\u0d32\u0d3f", "name:te": "\u0c05\u0c38\u0c46\u0c02\u0c2c\u0c4d\u0c32\u0c40", "name:ur": "\u0627\u0633\u0645\u0628\u0644\u06cc", "network": "Hyderabad Metro", "note": "Contributors are requested to not edit the \"network\" and the \"operator\" tags. (2023/11/08)", "operator": "Hyderabad Metro Rail Limited", "public_transport": "station", "railway": "station", "station": "subway", "subway": "yes", "website": "https://hmrl.co.in", "wheelchair": "yes", "wikidata": "Q83718950"}}, {"type": "node", "id": 11738179217, "lat": 17.4119664, "lon": 78.4607387, "tags": {"addr:city": "Hyderabad", "addr:city:ar": "\u062d\u064a\u062f\u0631 \u0622\u0628\u0627\u062f", "addr:city:ur": "\u062d\u06cc\u062f\u0631\u0622\u0628\u0627\u062f", "name": "Khairatabad", "name:ml": "\u0d16\u0d48\u0d30\u0d24\u0d3e\u0d2c\u0d3e\u0d26\u0d4d", "name:te": "\u0c16\u0c48\u0c30\u0c24\u0c3e\u0c2c\u0c3e\u0c26\u0c4d", "network": "Hyderabad Metro", "note": "Contributors are requested to not edit the \"network\" and the \"operator\" tags. (2023/11/08)", "operator": "Hyderabad Metro Rail Limited", "public_transport": "stop_position", "public_transport:version": "2", "railway": "stop", "subway": "yes"}}, {"type": "node", "id": 11738179218, "lat": 17.4042288, "lon": 78.4646895, "tags": {"addr:city": "Hyderabad", "addr:city:ar": "\u062d\u064a\u062f\u0631 \u0622\u0628\u0627\u062f", "addr:city:ur": "\u062d\u06cc\u062f\u0631\u0622\u0628\u0627\u062f", "name": "Lakdi-ka-pul", "name:ml": "\u0d32\u0d15\u0d4d\u0d21\u0d3f-\u0d15\u0d3e-\u0d2a\u0d41\u0d7d", "name:te": "\u0c32\u0c15\u0c4d\u0c21\u0c3f-\u0c15\u0c3e-\u0c2a\u0c41\u0c32\u0c4d", "network": "Hyderabad Metro", "note": "Contributors are requested to not edit the \"network\" and the \"operator\" tags. (2023/11/08)", "operator": "Hyderabad Metro Rail Limited", "public_transport": "stop_position", "public_transport:version": "2", "railway": "stop", "subway": "yes", "wheelchair": "yes"}}, {"type": "node", "id": 11738179219, "lat": 17.3982698, "lon": 78.4707738, "tags": {"addr:city": "Hyderabad", "addr:city:ar": "\u062d\u064a\u062f\u0631 \u0622\u0628\u0627\u062f", "addr:city:ur": "\u062d\u06cc\u062f\u0631\u0622\u0628\u0627\u062f", "name": "Assembly", "name:ml": "\u0d05\u0d38\u0d02\u0d2c\u0d4d\u0d32\u0d3f", "name:te": "\u0c05\u0c38\u0c46\u0c02\u0c2c\u0c4d\u0c32\u0c40", "network": "Hyderabad Metro", "note": "Contributors are requested to not edit the \"network\" and the \"operator\" tags. (2023/11/08)", "operator": "Hyderabad Metro Rail Limited", "public_transport": "stop_position", "public_transport:version": "2", "railway": "stop", "subway": "yes"}}, {"type": "node", "id": 11738179220, "lat": 17.3927365, "lon": 78.4701615, "tags": {"addr:city": "Hyderabad", "addr:city:ar": "\u062d\u064a\u062f\u0631 \u0622\u0628\u0627\u062f", "addr:city:ur": "\u062d\u06cc\u062f\u0631\u0622\u0628\u0627\u062f", "name": "Nampally", "name:ml": "\u0d28\u0d3e\u0d2e\u0d4d\u0d2a\u0d33\u0d4d\u0d33\u0d3f", "name:te": "\u0c28\u0c3e\u0c02\u0c2a\u0c32\u0c4d\u0c32\u0c3f", "network": "Hyderabad Metro", "note": "Contributors are requested to not edit the \"network\" and the \"operator\" tags. (2023/11/08)", "operator": "Hyderabad Metro Rail Limited", "public_transport": "stop_position", "public_transport:version": "2", "railway": "stop", "subway": "yes"}}, {"type": "node", "id": 11738179221, "lat": 17.3863645, "lon": 78.4728752, "tags": {"addr:city": "Hyderabad", "addr:city:ar": "\u062d\u064a\u062f\u0631 \u0622\u0628\u0627\u062f", "addr:city:ur": "\u062d\u06cc\u062f\u0631\u0622\u0628\u0627\u062f", "name": "Gandhi Bhavan", "name:ml": "\u0d17\u0d3e\u0d28\u0d4d\u0d27\u0d3f \u0d2d\u0d35\u0d7b", "name:te": "\u0c17\u0c3e\u0c02\u0c27\u0c40 \u0c2d\u0c35\u0c28\u0c4d", "network": "Hyderabad Metro", "note": "Contributors are requested to not edit the \"network\" and the \"operator\" tags. (2023/11/08)", "operator": "Hyderabad Metro Rail Limited", "public_transport": "stop_position", "public_transport:version": "2", "railway": "stop", "subway": "yes"}}, {"type": "node", "id": 11738179222, "lat": 17.3824963, "lon": 78.4807152, "tags": {"addr:city": "Hyderabad", "addr:city:ar": "\u062d\u064a\u062f\u0631 \u0622\u0628\u0627\u062f", "addr:city:ur": "\u062d\u06cc\u062f\u0631\u0622\u0628\u0627\u062f", "alt_name": "OMC", "name": "Osmania Medical College", "name:ml": "\u0d09\u0d38\u0d4d\u0d2e\u0d3e\u0d28\u0d3f\u0d2f \u0d2e\u0d46\u0d21\u0d3f\u0d15\u0d4d\u0d15\u0d7d \u0d15\u0d4b\u0d33\u0d47\u0d1c\u0d4d", "name:te": "\u0c09\u0c38\u0c4d\u0c2e\u0c3e\u0c28\u0c3f\u0c2f\u0c3e \u0c35\u0c48\u0c26\u0c4d\u0c2f \u0c15\u0c33\u0c3e\u0c36\u0c3e\u0c32", "network": "Hyderabad Metro", "note": "Contributors are requested to not edit the \"network\" and the \"operator\" tags. (2023/11/08)", "operator": "Hyderabad Metro Rail Limited", "public_transport": "stop_position", "public_transport:version": "2", "railway": "stop", "subway": "yes"}}, {"type": "node", "id": 12114475164, "lat": 17.4019659, "lon": 78.5111109, "tags": {"name": "Vidyanagar", "public_transport": "stop_position", "ref": "1", "train": "yes"}}, {"type": "node", "id": 12114475165, "lat": 17.4019337, "lon": 78.5111472, "tags": {"name": "Vidyanagar", "public_transport": "stop_position", "ref": "2", "train": "yes"}}, {"type": "node", "id": 12114475166, "lat": 17.3902919, "lon": 78.5002283}, {"type": "node", "id": 12114475167, "lat": 17.3900344, "lon": 78.5007123, "tags": {"name": "Kacheguda", "public_transport": "stop_position", "ref": "5", "train": "yes"}}, {"type": "node", "id": 12114475168, "lat": 17.3901182, "lon": 78.5006124, "tags": {"name": "Kacheguda", "public_transport": "stop_position", "ref": "4", "train": "yes"}}, {"type": "node", "id": 12114475169, "lat": 17.3901459, "lon": 78.5005747, "tags": {"name": "Kacheguda", "public_transport": "stop_position", "ref": "3", "train": "yes"}}, {"type": "node", "id": 12114475170, "lat": 17.3902324, "lon": 78.5004753, "tags": {"name": "Kacheguda", "public_transport": "stop_position", "ref": "2", "train": "yes"}}, {"type": "node", "id": 12114475171, "lat": 17.3902647, "lon": 78.5004391, "tags": {"name": "Kacheguda", "public_transport": "stop_position", "ref": "1", "train": "yes"}}, {"type": "node", "id": 12114475172, "lat": 17.3722102, "lon": 78.4922751}, {"type": "node", "id": 12114475173, "lat": 17.3723471, "lon": 78.4923772}, {"type": "node", "id": 12114475174, "lat": 17.3725671, "lon": 78.4925405}, {"type": "node", "id": 12114475175, "lat": 17.3727974, "lon": 78.4927125}, {"type": "node", "id": 12114475176, "lat": 17.3729821, "lon": 78.4928497}, {"type": "node", "id": 12114475177, "lat": 17.3731606, "lon": 78.4929838}, {"type": "node", "id": 12114475178, "lat": 17.3734359, "lon": 78.4931893}, {"type": "node", "id": 12114475179, "lat": 17.3738182, "lon": 78.4934727}, {"type": "node", "id": 12114475180, "lat": 17.374117, "lon": 78.4936942}, {"type": "node", "id": 12114475181, "lat": 17.3744691, "lon": 78.4939554}, {"type": "node", "id": 12114475182, "lat": 17.3747387, "lon": 78.4941475}, {"type": "node", "id": 12114475183, "lat": 17.3749657, "lon": 78.494301}, {"type": "node", "id": 12114475184, "lat": 17.3751865, "lon": 78.4944375}, {"type": "node", "id": 12114475185, "lat": 17.3753638, "lon": 78.4945383}, {"type": "node", "id": 12114475186, "lat": 17.3755304, "lon": 78.4946202}, {"type": "node", "id": 12114475187, "lat": 17.3757672, "lon": 78.4947301}, {"type": "node", "id": 12114475188, "lat": 17.3759937, "lon": 78.494824}, {"type": "node", "id": 12114475189, "lat": 17.376187, "lon": 78.4948938}, {"type": "node", "id": 12114475190, "lat": 17.3763636, "lon": 78.4949461}, {"type": "node", "id": 12114475191, "lat": 17.3765582, "lon": 78.495001}, {"type": "node", "id": 12114475192, "lat": 17.3765439, "lon": 78.4949017}, {"type": "node", "id": 12114475193, "lat": 17.3763969, "lon": 78.4948616}, {"type": "node", "id": 12114475194, "lat": 17.376187, "lon": 78.4947999}, {"type": "node", "id": 12114475195, "lat": 17.3759088, "lon": 78.4946967}, {"type": "node", "id": 12114475196, "lat": 17.3755758, "lon": 78.494548}, {"type": "node", "id": 12114475197, "lat": 17.3753773, "lon": 78.4944517}, {"type": "node", "id": 12114475198, "lat": 17.3751215, "lon": 78.4943146}, {"type": "node", "id": 12114475199, "lat": 17.3748907, "lon": 78.494159}, {"type": "node", "id": 12114475200, "lat": 17.3745922, "lon": 78.4939464}, {"type": "node", "id": 12114479601, "lat": 17.3741041, "lon": 78.4935875}, {"type": "node", "id": 12114479602, "lat": 17.3734248, "lon": 78.4930822}, {"type": "node", "id": 12114479603, "lat": 17.3728018, "lon": 78.4926219}, {"type": "node", "id": 12114479604, "lat": 17.3722546, "lon": 78.492206}, {"type": "node", "id": 12114479605, "lat": 17.3595901, "lon": 78.4919149}, {"type": "node", "id": 12114479606, "lat": 17.3591907, "lon": 78.4916822}, {"type": "node", "id": 12114479607, "lat": 17.3596095, "lon": 78.4918583}, {"type": "node", "id": 12114479608, "lat": 17.3585222, "lon": 78.4914672}, {"type": "node", "id": 12114479609, "lat": 17.358528, "lon": 78.4914418}, {"type": "node", "id": 12114479610, "lat": 17.3579197, "lon": 78.4912044}, {"type": "node", "id": 12114479611, "lat": 17.3579264, "lon": 78.491162}, {"type": "node", "id": 12114479612, "lat": 17.3582761, "lon": 78.4912858}, {"type": "node", "id": 12114479613, "lat": 17.3584999, "lon": 78.4913504}, {"type": "node", "id": 12114479614, "lat": 17.3580489, "lon": 78.491192}, {"type": "node", "id": 12114479615, "lat": 17.3582879, "lon": 78.491246}, {"type": "node", "id": 12114479616, "lat": 17.3585033, "lon": 78.4913073}, {"type": "node", "id": 12114479617, "lat": 17.358953, "lon": 78.4915034}, {"type": "node", "id": 12114479618, "lat": 17.3589641, "lon": 78.4914626}, {"type": "node", "id": 12114479619, "lat": 17.3592015, "lon": 78.4916003}, {"type": "node", "id": 12114479620, "lat": 17.3592171, "lon": 78.4915571}, {"type": "node", "id": 12114479621, "lat": 17.3597792, "lon": 78.4918777, "tags": {"name": "Yakutpura", "public_transport": "stop_position", "ref": "1", "train": "yes"}}, {"type": "node", "id": 12114479622, "lat": 17.3597712, "lon": 78.491905, "tags": {"name": "Yakutpura", "public_transport": "stop_position", "ref": "2", "train": "yes"}}, {"type": "node", "id": 12244653649, "lat": 17.3721666, "lon": 78.492341}, {"type": "node", "id": 12244653650, "lat": 17.37392, "lon": 78.4936594}, {"type": "node", "id": 12244653651, "lat": 17.3745858, "lon": 78.494164}, {"type": "node", "id": 12244653652, "lat": 17.3748674, "lon": 78.4943592}, {"type": "node", "id": 12244653653, "lat": 17.3751249, "lon": 78.4945227}, {"type": "node", "id": 12244653654, "lat": 17.3753353, "lon": 78.4946312}, {"type": "node", "id": 12244653655, "lat": 17.3755541, "lon": 78.4947354}, {"type": "node", "id": 12244653656, "lat": 17.3757635, "lon": 78.4948287}, {"type": "node", "id": 12244653657, "lat": 17.3759498, "lon": 78.4949011}, {"type": "node", "id": 12244653658, "lat": 17.3761571, "lon": 78.4949757}, {"type": "node", "id": 12244653659, "lat": 17.3763057, "lon": 78.4950239}, {"type": "node", "id": 12244653660, "lat": 17.3765392, "lon": 78.4950886}, {"type": "node", "id": 12244653661, "lat": 17.3765686, "lon": 78.4947969}, {"type": "node", "id": 12244653662, "lat": 17.3762917, "lon": 78.4947074}, {"type": "node", "id": 12244653663, "lat": 17.3760289, "lon": 78.4946224}, {"type": "node", "id": 12244653664, "lat": 17.3758518, "lon": 78.4945602}, {"type": "node", "id": 12244653665, "lat": 17.3757467, "lon": 78.4945183}, {"type": "node", "id": 12244653666, "lat": 17.3755286, "lon": 78.4944213}, {"type": "node", "id": 12244653667, "lat": 17.3753286, "lon": 78.494322}, {"type": "node", "id": 12244653668, "lat": 17.3753126, "lon": 78.4943591}, {"type": "node", "id": 12244653669, "lat": 17.3751447, "lon": 78.4942645}, {"type": "node", "id": 12244653670, "lat": 17.3749894, "lon": 78.4941724}, {"type": "node", "id": 12244653671, "lat": 17.3748363, "lon": 78.4940742}, {"type": "node", "id": 12244653672, "lat": 17.3746832, "lon": 78.4939677}, {"type": "node", "id": 12244653673, "lat": 17.3747095, "lon": 78.4939042}, {"type": "node", "id": 12244653674, "lat": 17.3746021, "lon": 78.493842}, {"type": "node", "id": 12244653675, "lat": 17.3744113, "lon": 78.4937223}, {"type": "node", "id": 12244653676, "lat": 17.3742799, "lon": 78.4936277}, {"type": "node", "id": 12244653677, "lat": 17.3741257, "lon": 78.4935164}, {"type": "node", "id": 12244653678, "lat": 17.3739966, "lon": 78.4934266}, {"type": "node", "id": 12244653679, "lat": 17.3740092, "lon": 78.4934063}, {"type": "node", "id": 12244653680, "lat": 17.3737704, "lon": 78.4932267}, {"type": "node", "id": 12244653681, "lat": 17.3735328, "lon": 78.49304}, {"type": "node", "id": 12244653682, "lat": 17.3732598, "lon": 78.4928341}, {"type": "node", "id": 12244653683, "lat": 17.3730347, "lon": 78.4926665}, {"type": "node", "id": 12244653684, "lat": 17.3727571, "lon": 78.4924583}, {"type": "node", "id": 12244653685, "lat": 17.3725309, "lon": 78.4922979}, {"type": "node", "id": 12244653686, "lat": 17.3725024, "lon": 78.492341}, {"type": "node", "id": 12244653687, "lat": 17.3723836, "lon": 78.4922596}, {"type": "node", "id": 12244653688, "lat": 17.3723002, "lon": 78.492147}, {"type": "node", "id": 13294455607, "lat": 17.4021954, "lon": 78.5111932, "tags": {"entrance": "yes"}}, {"type": "node", "id": 13294455612, "lat": 17.4018848, "lon": 78.5109982}, {"type": "node", "id": 13294455613, "lat": 17.401832, "lon": 78.5110712}, {"type": "node", "id": 13294455616, "lat": 17.4020082, "lon": 78.5112316}, {"type": "node", "id": 13294455617, "lat": 17.402153, "lon": 78.5112479}, {"type": "node", "id": 13295409602, "lat": 17.4060315, "lon": 78.4671352, "tags": {"bus": "yes", "highway": "bus_stop", "public_transport": "platform"}}, {"type": "node", "id": 13343264291, "lat": 17.3779414, "lon": 78.4837721}, {"type": "node", "id": 13343264292, "lat": 17.3774383, "lon": 78.4833393}, {"type": "node", "id": 13343264293, "lat": 17.3769754, "lon": 78.4839102}, {"type": "node", "id": 13343264294, "lat": 17.3771506, "lon": 78.484055}, {"type": "node", "id": 13343264295, "lat": 17.3769738, "lon": 78.4842976}, {"type": "node", "id": 13343264296, "lat": 17.3770285, "lon": 78.4843413}, {"type": "node", "id": 13343264297, "lat": 17.3769272, "lon": 78.4845047}, {"type": "node", "id": 13343264298, "lat": 17.3773178, "lon": 78.484823}, {"type": "node", "id": 13343264299, "lat": 17.3772792, "lon": 78.4848718}, {"type": "node", "id": 13343264300, "lat": 17.3773628, "lon": 78.4849324}, {"type": "node", "id": 13343267901, "lat": 17.3773387, "lon": 78.4849813}, {"type": "node", "id": 13343267902, "lat": 17.3783978, "lon": 78.4859227}, {"type": "node", "id": 13343267903, "lat": 17.3785425, "lon": 78.485894}, {"type": "node", "id": 13343267904, "lat": 17.3791773, "lon": 78.4850689}, {"type": "node", "id": 13343267905, "lat": 17.3791677, "lon": 78.4849661}, {"type": "node", "id": 13343267906, "lat": 17.379293, "lon": 78.4848129}, {"type": "node", "id": 13343267907, "lat": 17.3789201, "lon": 78.4844862}, {"type": "node", "id": 13343267908, "lat": 17.3790471, "lon": 78.4843116}, {"type": "node", "id": 13343267909, "lat": 17.378727, "lon": 78.4840338}, {"type": "node", "id": 13343267910, "lat": 17.3785975, "lon": 78.4842012}, {"type": "node", "id": 13343267911, "lat": 17.3783666, "lon": 78.4839996}, {"type": "node", "id": 13343267912, "lat": 17.3782248, "lon": 78.4841665}, {"type": "node", "id": 13343267913, "lat": 17.3787619, "lon": 78.4846241}, {"type": "node", "id": 13343267914, "lat": 17.3785946, "lon": 78.4845918}, {"type": "node", "id": 13343267915, "lat": 17.3785386, "lon": 78.4847935}, {"type": "node", "id": 13343267916, "lat": 17.3783898, "lon": 78.4847263}, {"type": "node", "id": 13343267917, "lat": 17.3783447, "lon": 78.484639}, {"type": "node", "id": 13343267918, "lat": 17.378058, "lon": 78.4844673}, {"type": "node", "id": 13343267919, "lat": 17.3776383, "lon": 78.4841839}, {"type": "way", "id": 238188556, "nodes": [2460409278, 2460409275, 2460409270, 2460409253, 2460409247, 2460409246, 2460409245, 2460409274, 2460409278], "tags": {"amenity": "bus_station", "bus": "yes", "name": "Charminar Bus Station", "name:te": "\u0c1a\u0c3e\u0c30\u0c4d\u0c2e\u0c3f\u0c28\u0c3e\u0c30\u0c4d \u0c2c\u0c38\u0c4d \u0c38\u0c4d\u0c1f\u0c47\u0c37\u0c28\u0c4d", "public_transport": "station"}}, {"type": "way", "id": 238282940, "nodes": [2461282047, 13294455616, 13294455613, 2461282028, 2461282027, 2461282032, 3462997820, 2461282046, 2461282047], "tags": {"area": "yes", "public_transport": "platform", "railway": "platform", "ref": "2"}}, {"type": "way", "id": 238282941, "nodes": [2461282030, 2461282029, 2461282036, 13294455612, 13294455617, 2461282048, 2461282050, 13294455607, 2461282037, 2461282030], "tags": {"area": "yes", "public_transport": "platform", "railway": "platform", "ref": "1"}}, {"type": "way", "id": 271692897, "nodes": [2766428074, 2766428075, 5936912549, 2766428080, 5936912550, 5936912551, 2766428079, 5936912556, 5936912557, 5936912558, 2766428074], "tags": {"area": "yes", "public_transport": "platform", "railway": "platform", "ref": "2"}}, {"type": "way", "id": 271692898, "nodes": [2766428071, 2766428072, 5936912555, 5936912554, 2766428078, 5936912552, 2766428082, 2766428081, 3462885678, 2766428077, 5936912553, 2766428071], "tags": {"area": "yes", "public_transport": "platform", "railway": "platform", "ref": "1"}}, {"type": "way", "id": 271692901, "nodes": [2766428063, 12114479609, 12114479608, 2766428062, 12114479605, 2766428064, 2766428065, 12114479607, 12114479606, 2766428063], "tags": {"area": "yes", "public_transport": "platform", "railway": "platform", "ref": "2", "train": "yes"}}, {"type": "way", "id": 271692904, "nodes": [7127405514, 12114479616, 12114479615, 12114479614, 12114479611, 12114479610, 12114479612, 12114479613, 2766428060, 12114479617, 12114479619, 2766428066, 2766428069, 2766428067, 12114479620, 12114479618, 7127405514], "tags": {"area": "yes", "public_transport": "platform", "railway": "platform", "ref": "1", "train": "yes"}}, {"type": "way", "id": 375053012, "nodes": [3784388069, 3784388068, 3784388065, 1118754578, 3784388062, 3784388063, 1118754466, 1118754606, 3784358055, 3784358054, 1118754452, 3784358051, 1118754628, 3784388059, 3784388058, 3784388057, 3784358056]}, {"type": "way", "id": 401144675, "nodes": [4035985094, 4035985114, 4035985115, 4035985108, 4035985109, 4035985106, 4035985107, 12114475166, 2460493725, 2460493710, 3619320266, 3619320194, 4035985105, 3619320168, 3619320143, 3619320098, 3619320026, 3619320006, 3619319637, 4035985102, 3619319599, 4035985099, 4035985096, 4035985094], "tags": {"area": "yes", "public_transport": "platform", "railway": "platform"}}, {"type": "way", "id": 401144676, "nodes": [4035985097, 4035985095, 4035985098, 4035985112, 4035985113, 4035985097], "tags": {"area": "yes", "public_transport": "platform", "railway": "platform"}}, {"type": "way", "id": 401144677, "nodes": [4035985101, 4035985100, 4035985103, 4035985104, 4035985110, 7633696913, 4035985111, 4035985101], "tags": {"area": "yes", "public_transport": "platform", "railway": "platform"}}, {"type": "way", "id": 635386165, "nodes": [5993751677, 4342904903, 7206794927, 6799990962, 7206794929, 6800005227, 7206794928, 7206794930, 5993751676, 7206794926, 5993751674, 3205619987, 7206794931, 6800005228, 6799990963, 7206794932, 2181332979, 5993751673, 7206794923, 5993751677], "tags": {"addr:city": "Hyderabad", "addr:city:ar": "\u062d\u064a\u062f\u0631 \u0622\u0628\u0627\u062f", "addr:city:ur": "\u062d\u06cc\u062f\u0631\u0622\u0628\u0627\u062f", "addr:place": "Malakpet", "addr:place:ar": "\u0645\u0627\u0644\u0643 \u0628\u064a\u062a", "addr:place:ur": "\u0645\u0627\u0644\u06a9 \u067e\u06cc\u0679", "alt_name:ur": "\u0645\u0644\u06a9 \u067e\u06cc\u0679", "building": "train_station", "name": "Malakpet", "name:ar": "\u0645\u0627\u0644\u0643 \u0628\u064a\u062a", "name:te": "\u0c2e\u0c32\u0c15\u0c4d\u200c\u0c2a\u0c47\u0c1f\u0c4d", "name:ur": "\u0645\u0627\u0644\u06a9 \u067e\u06cc\u0679", "network": "Hyderabad Metro", "operator": "HMRL"}}, {"type": "way", "id": 635386167, "nodes": [5993752585, 5993751684, 5993751683, 5993751682, 5993752585], "tags": {"building": "yes", "layer": "1", "name": "Moosarambagh", "network": "Hyderabad Metro", "note": "Contributors are requested to not edit the \"network\" and the \"operator\" tags. (2023/11/08)", "operator": "Hyderabad Metro Rail Limited", "public_transport": "stop_position", "station": "subway", "subway": "yes"}}, {"type": "way", "id": 771971557, "nodes": [7206794927, 7206794932, 2181332979, 5993751673, 7206794923, 5993751677, 4342904903, 7206794927], "tags": {"area": "yes", "layer": "2", "public_transport": "platform", "railway": "platform", "subway": "yes"}}, {"type": "way", "id": 771971558, "nodes": [7206794931, 7206794928, 7206794930, 5993751676, 7206794926, 5993751674, 3205619987, 7206794931], "tags": {"area": "yes", "layer": "2", "public_transport": "platform", "railway": "platform", "subway": "yes"}}, {"type": "way", "id": 771971566, "nodes": [7206794977, 7206794974, 8018502784, 11037640729, 8018503085, 7206794979, 7206794977], "tags": {"area": "yes", "public_transport": "platform", "railway": "platform"}}, {"type": "way", "id": 771971567, "nodes": [7206794978, 7206794973, 7206794981, 7206794947, 7206794961, 7206794978], "tags": {"area": "yes", "public_transport": "platform", "railway": "platform"}}, {"type": "way", "id": 817584054, "nodes": [3784388125, 3784388113, 3784388105, 3784388102, 3784388095, 3784388091, 3784388076, 3784388074, 3784388072, 3784388069], "tags": {"bench": "yes", "bin": "yes", "lit": "yes", "public_transport": "platform", "railway": "platform_edge", "ref": "1", "shelter": "yes"}}, {"type": "way", "id": 817584055, "nodes": [3784388067, 3784388066]}, {"type": "way", "id": 817584056, "nodes": [3784388123, 3784388101, 3784388093, 3784388084, 3784388067], "tags": {"bench": "yes", "bin": "yes", "lit": "yes", "public_transport": "platform", "railway": "platform_edge", "ref": "3", "shelter": "yes"}}, {"type": "way", "id": 817584057, "nodes": [3784388124, 3784388125]}, {"type": "way", "id": 817584058, "nodes": [3784388066, 3784388092, 3784388099, 3784388104, 3784388116, 3784388124], "tags": {"bench": "yes", "bin": "yes", "lit": "yes", "public_transport": "platform", "railway": "platform_edge", "ref": "2", "shelter": "yes"}}, {"type": "way", "id": 817584059, "nodes": [3784388122, 3784388123]}, {"type": "way", "id": 817584060, "nodes": [3784358052, 3784388078, 3784388089, 3784388097, 3784388122], "tags": {"bench": "yes", "bin": "yes", "lit": "yes", "public_transport": "platform", "railway": "platform_edge", "ref": "4", "shelter": "yes"}}, {"type": "way", "id": 817584061, "nodes": [3784388109, 3784388108]}, {"type": "way", "id": 817584062, "nodes": [3784358056, 3784388081, 3784388109], "tags": {"bench": "yes", "bin": "yes", "lit": "yes", "public_transport": "platform", "railway": "platform_edge", "ref": "6", "shelter": "yes"}}, {"type": "way", "id": 817584063, "nodes": [3784358053, 3784358052]}, {"type": "way", "id": 817584064, "nodes": [3784388108, 3784388098, 3784388087, 3784388079, 3784358053], "tags": {"bench": "yes", "bin": "yes", "lit": "yes", "public_transport": "platform", "railway": "platform_edge", "ref": "5", "shelter": "yes"}}, {"type": "way", "id": 817638547, "nodes": [7636066538, 7636066540, 7636066541, 7636066542, 7636066543, 7636066544, 7636066549, 7636066548, 7636066547, 7636066546, 7636066545, 7636066539, 7636066538], "tags": {"area": "yes", "public_transport": "platform", "railway": "platform"}}, {"type": "way", "id": 817638548, "nodes": [7636066555, 7636066559, 7636066560, 7636066561, 7636066562, 7636066563, 7636066558, 7636066557, 7636066556, 7636066554, 7636066553, 7636066552, 7636066551, 7636066550, 7636066555], "tags": {"area": "yes", "public_transport": "platform", "railway": "platform"}}, {"type": "way", "id": 1188681461, "nodes": [11037640730, 11037640731, 11037640732, 11037640733, 11037640730], "tags": {"area": "yes", "public_transport": "platform", "railway": "platform"}}, {"type": "way", "id": 1308132248, "nodes": [12114475191, 12114475190, 12114475189, 12114475188, 12114475187, 12114475186, 12114475185, 12114475184, 12114475183, 12114475182, 12114475181, 12114475180, 12114475179, 12114475178, 12114475177, 12114475176, 12114475175, 12114475174, 12114475173, 12114475172, 12244653649, 12244653650, 12244653651, 12244653652, 12244653653, 12244653654, 12244653655, 12244653656, 12244653657, 12244653658, 12244653659, 3612559409, 12244653660, 12114475191], "tags": {"area": "yes", "public_transport": "platform", "railway": "platform", "ref": "2", "train": "yes"}}, {"type": "way", "id": 1308132249, "nodes": [12114479604, 12114479603, 12114479602, 12114479601, 12114475200, 12114475199, 12114475198, 12114475197, 12114475196, 12114475195, 12114475194, 12114475193, 12114475192, 12244653661, 12244653662, 12244653663, 12244653664, 12244653665, 12244653666, 12244653667, 12244653668, 12244653669, 12244653670, 12244653671, 12244653672, 12244653673, 12244653674, 12244653675, 12244653676, 12244653677, 12244653678, 12244653679, 12244653680, 12244653681, 12244653682, 12244653683, 12244653684, 12244653685, 12244653686, 12244653687, 12244653688, 12114479604], "tags": {"area": "yes", "public_transport": "platform", "railway": "platform", "ref": "1", "train": "yes"}}, {"type": "way", "id": 1454992368, "nodes": [13343264291, 13343264292, 13343264293, 13343264294, 13343264295, 13343264296, 13343264297, 13343264298, 13343264299, 13343264300, 13343267901, 13343267902, 13343267903, 13343267904, 13343267905, 13343267906, 13343267907, 13343267908, 13343267909, 13343267910, 13343267911, 13343267912, 13343267913, 13343267914, 13343267915, 13343267916, 13343267917, 13343267918, 13343267919, 13343264291], "tags": {"amenity": "bus_station", "building": "yes", "bus": "yes", "layer": "1", "name": "Mahatma Gandhi Bus Station (MGBS)", "name:ar": "\u0645\u062d\u0637\u0629 \u062d\u0627\u0641\u0644\u0627\u062a \u0627\u0644\u0645\u0647\u0627\u062a\u0645\u0627 \u063a\u0627\u0646\u062f\u064a", "name:fa": "\u0627\u06cc\u0633\u062a\u06af\u0627\u0647 \u0627\u062a\u0648\u0628\u0648\u0633 \u0645\u0647\u0627\u062a\u0645\u0627 \u06af\u0627\u0646\u062f\u06cc", "name:te": "\u0c2e\u0c39\u0c3e\u0c24\u0c4d\u0c2e\u0c3e \u0c17\u0c3e\u0c02\u0c27\u0c40 \u0c2c\u0c38\u0c4d \u0c38\u0c4d\u0c1f\u0c47\u0c37\u0c28\u0c4d", "operator": "TSRTC", "public_transport": "station", "wikidata": "Q6733489", "wikipedia": "en:Mahatma Gandhi Bus Station"}}, {"type": "relation", "id": 2799793, "members": [{"type": "node", "ref": 2185005230, "role": ""}, {"type": "node", "ref": 2185005241, "role": ""}], "tags": {"name": "Imlibun", "public_transport": "stop_area", "type": "public_transport"}}, {"type": "relation", "id": 2799834, "members": [{"type": "node", "ref": 2185045487, "role": "platform"}, {"type": "node", "ref": 2185045507, "role": "platform"}], "tags": {"name": "CBS", "public_transport": "stop_area", "public_transport:version": "2", "type": "public_transport"}}, {"type": "relation", "id": 2814891, "members": [{"type": "node", "ref": 2197048423, "role": ""}], "tags": {"name": "Koti Women's College", "public_transport": "stop_area", "type": "public_transport"}}, {"type": "relation", "id": 10692237, "members": [{"type": "node", "ref": 7208768627, "role": ""}, {"type": "way", "ref": 771971566, "role": "platform"}, {"type": "way", "ref": 771971567, "role": "platform"}, {"type": "node", "ref": 7632550174, "role": "stop"}, {"type": "node", "ref": 7632550173, "role": "stop"}], "tags": {"alt_name": "M. G. Bus Station (Green Line)", "colour": "green", "name": "Mahatma Gandhi Bus Station (Green Line)", "name:te": "\u0c0e\u0c02.\u0c1c\u0c3f. \u0c2c\u0c38\u0c4d. \u0c38\u0c4d\u0c1f\u0c47\u0c37\u0c28\u0c4d", "network": "Hyderabad Metro", "operator": "HMRL", "public_transport": "stop_area", "type": "public_transport"}}, {"type": "relation", "id": 10692238, "members": [{"type": "node", "ref": 7208768626, "role": ""}, {"type": "node", "ref": 7206794945, "role": "stop"}, {"type": "node", "ref": 2422989260, "role": "stop"}], "tags": {"colour": "red", "name": "M. G. Bus Station (Red Line)", "network": "Hyderabad Metro", "operator": "HMRL", "public_transport": "stop_area", "type": "public_transport"}}, {"type": "relation", "id": 10705578, "members": [{"type": "node", "ref": 7206794919, "role": ""}, {"type": "node", "ref": 2390894256, "role": "stop"}, {"type": "node", "ref": 5787787745, "role": "stop"}], "tags": {"colour": "green", "name": "RTC Cross Roads", "name:te": "\u0c06\u0c30\u0c4d \u0c1f\u0c40 \u0c38\u0c3f \u0c15\u0c4d\u0c30\u0c3e\u0c38\u0c4d \u0c30\u0c4b\u0c21\u0c4d\u0c38\u0c4d", "operator": "HMRL", "public_transport": "stop_area", "public_transport:version": "2", "type": "public_transport"}}, {"type": "relation", "id": 10705579, "members": [{"type": "way", "ref": 635386165, "role": ""}, {"type": "node", "ref": 7206794933, "role": "stop"}, {"type": "node", "ref": 2422989058, "role": "stop"}, {"type": "node", "ref": 7208768628, "role": ""}], "tags": {"addr:city": "Hyderabad", "addr:city:ar": "\u062d\u064a\u062f\u0631 \u0622\u0628\u0627\u062f", "addr:city:ur": "\u062d\u06cc\u062f\u0631\u0622\u0628\u0627\u062f", "addr:place": "Malakpet", "addr:place:ar": "\u0645\u0627\u0644\u0643 \u0628\u064a\u062a", "addr:place:ur": "\u0645\u0627\u0644\u06a9 \u067e\u06cc\u0679", "alt_name:ur": "\u0645\u0644\u06a9 \u067e\u06cc\u0679", "colour": "red", "name": "Malakpet", "name:ar": "\u0645\u0627\u0644\u0643 \u0628\u064a\u062a", "name:te": "\u0c2e\u0c32\u0c15\u0c4d\u200c\u0c2a\u0c47\u0c1f\u0c4d", "name:ur": "\u0645\u0627\u0644\u06a9 \u067e\u06cc\u0679", "network": "Hyderabad Metro", "note": "Contributors are requested to not edit the \"network\" and the \"operator\" tags. (2023/11/08)", "operator": "Hyderabad Metro Rail Limited", "public_transport": "stop_area", "public_transport:version": "2", "subway": "yes", "type": "public_transport"}}, {"type": "relation", "id": 10950418, "members": [{"type": "node", "ref": 7358663499, "role": ""}, {"type": "node", "ref": 3157201754, "role": "stop"}, {"type": "node", "ref": 7358663498, "role": "stop"}], "tags": {"colour": "green", "name": "Sultan Bazar", "name:te": "\u0c38\u0c41\u0c32\u0c4d\u0c24\u0c3e\u0c28\u0c4d \u0c2c\u0c1c\u0c3e\u0c30\u0c4d", "public_transport": "stop_area", "type": "public_transport"}}, {"type": "relation", "id": 10950419, "members": [{"type": "node", "ref": 7358663501, "role": ""}, {"type": "node", "ref": 7195061317, "role": "stop"}, {"type": "node", "ref": 7358663500, "role": "stop"}], "tags": {"colour": "green", "name": "Narayanaguda", "name:te": "\u0c28\u0c3e\u0c30\u0c3e\u0c2f\u0c23\u0c17\u0c42\u0c21", "public_transport": "stop_area", "type": "public_transport"}}, {"type": "relation", "id": 10950420, "members": [{"type": "node", "ref": 7358663502, "role": ""}, {"type": "node", "ref": 2390894266, "role": "stop"}, {"type": "node", "ref": 5787787751, "role": "stop"}], "tags": {"colour": "green", "name": "Chikkadpally", "name:te": "\u0c1a\u0c3f\u0c15\u0c4d\u0c15\u0c21\u0c2a\u0c32\u0c4d\u0c32\u0c3f", "public_transport": "stop_area", "type": "public_transport"}}, {"type": "relation", "id": 11217580, "members": [{"type": "way", "ref": 375053012, "role": "outer"}, {"type": "way", "ref": 817584054, "role": "outer"}, {"type": "way", "ref": 817584057, "role": "outer"}, {"type": "way", "ref": 817584058, "role": "outer"}, {"type": "way", "ref": 817584055, "role": "outer"}, {"type": "way", "ref": 817584056, "role": "outer"}, {"type": "way", "ref": 817584059, "role": "outer"}, {"type": "way", "ref": 817584060, "role": "outer"}, {"type": "way", "ref": 817584063, "role": "outer"}, {"type": "way", "ref": 817584064, "role": "outer"}, {"type": "way", "ref": 817584061, "role": "outer"}, {"type": "way", "ref": 817584062, "role": "outer"}], "tags": {"bench": "yes", "bin": "yes", "lit": "yes", "public_transport": "platform", "railway": "platform", "shelter": "yes", "type": "multipolygon"}}, {"type": "relation", "id": 15034333, "members": [{"type": "node", "ref": 10279821749, "role": ""}, {"type": "node", "ref": 2422989007, "role": "stop"}, {"type": "node", "ref": 10278298785, "role": "stop"}], "tags": {"name": "New Market", "public_transport": "stop_area", "type": "public_transport"}}, {"type": "relation", "id": 15034334, "members": [{"type": "node", "ref": 7246815452, "role": ""}, {"type": "node", "ref": 6800005107, "role": "stop"}, {"type": "node", "ref": 10279821750, "role": "stop"}], "tags": {"name": "Musarambagh", "public_transport": "stop_area", "type": "public_transport"}}, {"type": "relation", "id": 17354145, "members": [{"type": "node", "ref": 11738179187, "role": ""}, {"type": "node", "ref": 11738179222, "role": "stop"}, {"type": "node", "ref": 2422989049, "role": "stop"}], "tags": {"colour": "red", "name": "Osmania Medical College", "name:te": "\u0c09\u0c38\u0c4d\u0c2e\u0c3e\u0c28\u0c3f\u0c2f\u0c3e \u0c35\u0c48\u0c26\u0c4d\u0c2f \u0c15\u0c33\u0c3e\u0c36\u0c3e\u0c32", "network": "Hyderabad Metro", "operator": "HMRL", "public_transport": "stop_area", "type": "public_transport"}}, {"type": "relation", "id": 17354146, "members": [{"type": "node", "ref": 11738179188, "role": ""}, {"type": "node", "ref": 11738179220, "role": "stop"}, {"type": "node", "ref": 2422989207, "role": "stop"}], "tags": {"colour": "red", "name": "Nampally", "name:te": "\u0c28\u0c3e\u0c02\u0c2a\u0c32\u0c4d\u0c32\u0c3f", "network": "Hyderabad Metro", "operator": "HMRL", "public_transport": "stop_area", "type": "public_transport"}}, {"type": "relation", "id": 17354148, "members": [{"type": "node", "ref": 11738179190, "role": ""}, {"type": "node", "ref": 11738179218, "role": "stop"}, {"type": "node", "ref": 5968369025, "role": "stop"}], "tags": {"colour": "red", "name": "Lakdi-ka-pul", "name:te": "\u0c32\u0c15\u0c4d\u0c21\u0c3f-\u0c15\u0c3e-\u0c2a\u0c41\u0c32\u0c4d", "network": "Hyderabad Metro", "operator": "HMRL", "public_transport": "stop_area", "type": "public_transport"}}, {"type": "relation", "id": 17354150, "members": [{"type": "node", "ref": 11738179191, "role": ""}, {"type": "node", "ref": 11738179217, "role": "stop"}, {"type": "node", "ref": 5961188254, "role": "stop"}], "tags": {"colour": "red", "name": "Khairatabad", "name:te": "\u0c16\u0c48\u0c30\u0c24\u0c3e\u0c2c\u0c3e\u0c26\u0c4d", "network": "Hyderabad Metro", "operator": "HMRL", "public_transport": "stop_area", "type": "public_transport"}}, {"type": "relation", "id": 17354152, "members": [{"type": "node", "ref": 11738179194, "role": ""}, {"type": "node", "ref": 11738179221, "role": "stop"}, {"type": "node", "ref": 2422989110, "role": "stop"}], "tags": {"colour": "red", "name": "Gandhi Bhavan", "name:te": "\u0c17\u0c3e\u0c02\u0c27\u0c40 \u0c2d\u0c35\u0c28\u0c4d", "network": "Hyderabad Metro", "operator": "HMRL", "public_transport": "stop_area", "type": "public_transport"}}, {"type": "relation", "id": 17354158, "members": [{"type": "node", "ref": 11738179200, "role": ""}, {"type": "node", "ref": 11738179219, "role": "stop"}, {"type": "node", "ref": 2422989068, "role": "stop"}], "tags": {"colour": "red", "name": "Assembly", "name:te": "\u0c05\u0c38\u0c46\u0c02\u0c2c\u0c4d\u0c32\u0c40", "network": "Hyderabad Metro", "operator": "HMRL", "public_transport": "stop_area", "type": "public_transport"}}, {"type": "relation", "id": 17943740, "members": [{"type": "node", "ref": 289656763, "role": ""}, {"type": "way", "ref": 817584054, "role": "platform"}, {"type": "way", "ref": 817584058, "role": "platform"}, {"type": "way", "ref": 817584056, "role": "platform"}, {"type": "way", "ref": 817584060, "role": "platform"}, {"type": "way", "ref": 817584064, "role": "platform"}, {"type": "way", "ref": 817584062, "role": "platform"}, {"type": "node", "ref": 7635652757, "role": "stop"}, {"type": "node", "ref": 7635652756, "role": "stop"}, {"type": "node", "ref": 7635652755, "role": "stop"}, {"type": "node", "ref": 7635652754, "role": "stop"}, {"type": "node", "ref": 7635652753, "role": "stop"}, {"type": "node", "ref": 7635652752, "role": "stop"}], "tags": {"alt_name": "Hyderabad;Deccan Nampally", "name": "Hyderabad Deccan Nampally", "operator": "South Central Railway", "public_transport": "stop_area", "train": "yes", "type": "public_transport"}}, {"type": "relation", "id": 17943741, "members": [{"type": "node", "ref": 2712437769, "role": ""}, {"type": "way", "ref": 817638547, "role": "platform"}, {"type": "way", "ref": 817638548, "role": "platform"}, {"type": "node", "ref": 2174747681, "role": "stop"}, {"type": "node", "ref": 3784388166, "role": "stop"}], "tags": {"name": "Lakdi-ka-pool", "operator": "South Central Railway", "public_transport": "stop_area", "train": "yes", "type": "public_transport"}}]}