{"version": 0.6, "generator": "Overpass API 0.7.62.8 e802775f", "osm3s": {"timestamp_osm_base": "2026-01-12T04:09:42Z", "copyright": "The data included in this document is from www.openstreetmap.org. The data is made available under ODbL."}, "elements": [{"type": "node", "id": 26654664, "lat": 52.381326, "lon": 4.9132037, "tags": {"amenity": "school", "isced:level": "0;1", "name": "OBS IJplein"}}, {"type": "node", "id": 31240605, "lat": 52.3668387, "lon": 4.8549605, "tags": {"addr:city": "Amsterdam", "addr:housenumber": "34", "addr:postcode": "1057VB", "addr:street": "Columbusplein", "alt_name": "Visserschool", "amenity": "school", "isced:level": "0;1", "name": "De Visserschool", "old_name": "Christelijke Basisschool Dr. J.T.H. de Visser", "operator": "AMOS", "website": "https://www.devisserschool.nl"}}, {"type": "node", "id": 364684428, "lat": 52.3635535, "lon": 4.9102233, "tags": {"barrier": "gate"}}, {"type": "node", "id": 472445682, "lat": 52.3738312, "lon": 4.8743934, "tags": {"addr:city": "Amsterdam", "addr:housenumber": "124", "addr:postcode": "1052EC", "addr:street": "Nassaukade", "amenity": "school", "name": "Dr. Rijk Kramerschool", "source": "BAG", "source:date": "2014-03-24", "website": "https://rijkkramer.nl/", "wikidata": "Q47462690", "wikipedia": "nl:Dr. Rijk Kramerschool"}}, {"type": "node", "id": 507056906, "lat": 52.365423, "lon": 4.8673517, "tags": {"addr:city": "Amsterdam", "addr:housenumber": "52A", "addr:postcode": "1053PV", "addr:street": "Borgerstraat", "amenity": "school", "name": "SOB", "school": "language", "source": "knowledge", "website": "https://sobamsterdam.nl", "wheelchair": "limited"}}, {"type": "node", "id": 565661528, "lat": 52.3642098, "lon": 4.8654023}, {"type": "node", "id": 565661529, "lat": 52.3642319, "lon": 4.8652927}, {"type": "node", "id": 565661530, "lat": 52.3642323, "lon": 4.8652945}, {"type": "node", "id": 565661535, "lat": 52.3642106, "lon": 4.8654018}, {"type": "node", "id": 565661536, "lat": 52.3644742, "lon": 4.8651438}, {"type": "node", "id": 565661537, "lat": 52.3645743, "lon": 4.8655782}, {"type": "node", "id": 565661550, "lat": 52.3643471, "lon": 4.8658303}, {"type": "node", "id": 565661551, "lat": 52.3644123, "lon": 4.8659034}, {"type": "node", "id": 565661552, "lat": 52.3643847, "lon": 4.8659203}, {"type": "node", "id": 565661553, "lat": 52.3643745, "lon": 4.8658135}, {"type": "node", "id": 565661554, "lat": 52.3645483, "lon": 4.8659326}, {"type": "node", "id": 565661555, "lat": 52.3642669, "lon": 4.8656445}, {"type": "node", "id": 565661556, "lat": 52.3644094, "lon": 4.8659538}, {"type": "node", "id": 565661557, "lat": 52.3644868, "lon": 4.8656314}, {"type": "node", "id": 565661559, "lat": 52.3645197, "lon": 4.8657725}, {"type": "node", "id": 565661560, "lat": 52.3642974, "lon": 4.8656254}, {"type": "node", "id": 565661998, "lat": 52.3649081, "lon": 4.8727293}, {"type": "node", "id": 565661999, "lat": 52.3643081, "lon": 4.8724698}, {"type": "node", "id": 565662000, "lat": 52.3646412, "lon": 4.8725223}, {"type": "node", "id": 568291324, "lat": 52.3817909, "lon": 4.9125984}, {"type": "node", "id": 568318209, "lat": 52.4192661, "lon": 4.9015953}, {"type": "node", "id": 568328094, "lat": 52.3955775, "lon": 4.9267909}, {"type": "node", "id": 568328366, "lat": 52.3952493, "lon": 4.927534}, {"type": "node", "id": 569190438, "lat": 52.3988258, "lon": 4.9458636}, {"type": "node", "id": 571162258, "lat": 52.3575302, "lon": 4.932231}, {"type": "node", "id": 571162262, "lat": 52.3576358, "lon": 4.9321735}, {"type": "node", "id": 679091166, "lat": 52.365241, "lon": 4.8614669, "tags": {"amenity": "school", "name": "Winterkoninkje"}}, {"type": "node", "id": 679091202, "lat": 52.3653131, "lon": 4.8626578, "tags": {"amenity": "school", "name": "Winterkoninkje"}}, {"type": "node", "id": 694172907, "lat": 52.3953287, "lon": 4.9501775}, {"type": "node", "id": 694174495, "lat": 52.3951527, "lon": 4.950916}, {"type": "node", "id": 694238441, "lat": 52.3958726, "lon": 4.9260103}, {"type": "node", "id": 694239852, "lat": 52.3952731, "lon": 4.9256162}, {"type": "node", "id": 694244385, "lat": 52.3964203, "lon": 4.9263843}, {"type": "node", "id": 694246272, "lat": 52.3968729, "lon": 4.9269163}, {"type": "node", "id": 694622610, "lat": 52.4082804, "lon": 4.9196603}, {"type": "node", "id": 694624432, "lat": 52.4082167, "lon": 4.9201715}, {"type": "node", "id": 694632441, "lat": 52.4082713, "lon": 4.9200542}, {"type": "node", "id": 694632971, "lat": 52.4083268, "lon": 4.9199543}, {"type": "node", "id": 717731250, "lat": 52.3956388, "lon": 4.8489088}, {"type": "node", "id": 717731508, "lat": 52.3734123, "lon": 4.8464017}, {"type": "node", "id": 717734993, "lat": 52.3690975, "lon": 4.8445328}, {"type": "node", "id": 717735520, "lat": 52.360124, "lon": 4.8408556}, {"type": "node", "id": 717735964, "lat": 52.3683647, "lon": 4.844048}, {"type": "node", "id": 717740746, "lat": 52.3776014, "lon": 4.8489418}, {"type": "node", "id": 717741370, "lat": 52.3594682, "lon": 4.8414479}, {"type": "node", "id": 717744271, "lat": 52.35947, "lon": 4.8416039}, {"type": "node", "id": 717748330, "lat": 52.3685566, "lon": 4.8445494}, {"type": "node", "id": 717754215, "lat": 52.3690803, "lon": 4.8430302}, {"type": "node", "id": 717756891, "lat": 52.3780631, "lon": 4.8495477}, {"type": "node", "id": 717759087, "lat": 52.3597029, "lon": 4.8417097}, {"type": "node", "id": 717767319, "lat": 52.3777761, "lon": 4.8494545}, {"type": "node", "id": 717767631, "lat": 52.395915, "lon": 4.8484058}, {"type": "node", "id": 717771954, "lat": 52.3598608, "lon": 4.8409072}, {"type": "node", "id": 717773031, "lat": 52.3734348, "lon": 4.8465812}, {"type": "node", "id": 717773232, "lat": 52.3737167, "lon": 4.8465579}, {"type": "node", "id": 717777127, "lat": 52.3780534, "lon": 4.8493111}, {"type": "node", "id": 717778505, "lat": 52.3598603, "lon": 4.840863}, {"type": "node", "id": 717779154, "lat": 52.3597818, "lon": 4.8409097}, {"type": "node", "id": 717780154, "lat": 52.3596921, "lon": 4.8407763}, {"type": "node", "id": 717781451, "lat": 52.3776259, "lon": 4.8487305}, {"type": "node", "id": 717781854, "lat": 52.368363, "lon": 4.8438966}, {"type": "node", "id": 717782859, "lat": 52.3597013, "lon": 4.8415757}, {"type": "node", "id": 717785437, "lat": 52.3736461, "lon": 4.8465815}, {"type": "node", "id": 717786889, "lat": 52.3596366, "lon": 4.8415991}, {"type": "node", "id": 717788649, "lat": 52.3601271, "lon": 4.8411406}, {"type": "node", "id": 717790557, "lat": 52.3779597, "lon": 4.8496027}, {"type": "node", "id": 717795164, "lat": 52.3596347, "lon": 4.8414639}, {"type": "node", "id": 717797146, "lat": 52.3780075, "lon": 4.8490828}, {"type": "node", "id": 717797430, "lat": 52.3598642, "lon": 4.8411478}, {"type": "node", "id": 717797529, "lat": 52.3685508, "lon": 4.8438908}, {"type": "node", "id": 717797535, "lat": 52.3598354, "lon": 4.8411312}, {"type": "node", "id": 717799255, "lat": 52.3781091, "lon": 4.8497759}, {"type": "node", "id": 717803627, "lat": 52.3596363, "lon": 4.8415777}, {"type": "node", "id": 717803720, "lat": 52.3597, "lon": 4.8414619}, {"type": "node", "id": 717808424, "lat": 52.3779037, "lon": 4.8493916}, {"type": "node", "id": 717817682, "lat": 52.3956307, "lon": 4.8484182}, {"type": "node", "id": 717817944, "lat": 52.3777075, "lon": 4.8494915}, {"type": "node", "id": 717819388, "lat": 52.3685508, "lon": 4.8440423}, {"type": "node", "id": 717820253, "lat": 52.3737153, "lon": 4.8465466}, {"type": "node", "id": 717823092, "lat": 52.3777322, "lon": 4.8492368}, {"type": "node", "id": 717823914, "lat": 52.3736375, "lon": 4.8465132}, {"type": "node", "id": 717824819, "lat": 52.3596345, "lon": 4.8414426}, {"type": "node", "id": 717825356, "lat": 52.3779652, "lon": 4.8495327}, {"type": "node", "id": 717825659, "lat": 52.3597802, "lon": 4.8407738}, {"type": "node", "id": 717827839, "lat": 52.3685412, "lon": 4.8430467}, {"type": "node", "id": 717828566, "lat": 52.3597845, "lon": 4.8411326}, {"type": "node", "id": 717829537, "lat": 52.3597912, "lon": 4.8417073}, {"type": "node", "id": 717834756, "lat": 52.3776978, "lon": 4.8492553}, {"type": "node", "id": 717836848, "lat": 52.3778707, "lon": 4.8491564}, {"type": "node", "id": 717837419, "lat": 52.3779486, "lon": 4.8495474}, {"type": "node", "id": 717838964, "lat": 52.3779354, "lon": 4.8495486}, {"type": "node", "id": 717839730, "lat": 52.3776148, "lon": 4.8486752}, {"type": "node", "id": 717845049, "lat": 52.3775656, "lon": 4.8487637}, {"type": "node", "id": 717846242, "lat": 52.3776312, "lon": 4.8489258}, {"type": "node", "id": 717849038, "lat": 52.3777985, "lon": 4.8499429}, {"type": "node", "id": 717849325, "lat": 52.3779663, "lon": 4.849538}, {"type": "node", "id": 734165817, "lat": 52.3704766, "lon": 4.9391123, "tags": {"addr:city": "Amsterdam", "addr:housenumber": "103", "addr:postcode": "1019KZ", "addr:street": "Borneokade", "amenity": "school", "name": "Achtste Montessorischool Zeeburg", "source": "BAG", "source:date": "2014-03-24", "website": "https://www.8emontessorischool.nl"}}, {"type": "node", "id": 734165819, "lat": 52.3733594, "lon": 4.9426116, "tags": {"addr:city": "Amsterdam", "addr:housenumber": "12", "addr:postcode": "1019TJ", "addr:street": "Baron G.A. Tindalplein", "amenity": "school", "check_date": "2025-05-20", "name": "Basisschool de Achthoek", "source": "BAG", "source:date": "2014-03-24", "website": "https://www.achthoek.nl/"}}, {"type": "node", "id": 734984755, "lat": 52.3552067, "lon": 4.8456694, "tags": {"amenity": "school", "check_date": "2025-03-03", "isced:level": "1", "max_age": "12", "min_age": "4", "name": "de Nautilus", "note": "oecumenische basissschool", "old_name": "Willem van Boeijenschool", "operator": "AMOS", "religion": "christian", "website": "https://www.denautilus.net/"}}, {"type": "node", "id": 774703293, "lat": 52.4358016, "lon": 4.8826776, "tags": {"amenity": "school", "name": "De Rietkraag"}}, {"type": "node", "id": 798746819, "lat": 52.3551919, "lon": 4.8463493, "tags": {"amenity": "school", "check_date": "2025-03-03", "isced:level": "1", "max_age": "12", "min_age": "4", "name": "de Notenkraker", "note": "openbare basissschool", "operator": "OOadA", "website": "https://www.bsdenotenkraker.nl/"}}, {"type": "node", "id": 1223057289, "lat": 52.3836013, "lon": 4.8853483, "tags": {"amenity": "school", "name": "Spirituele Akademie"}}, {"type": "node", "id": 1343137835, "lat": 52.3731727, "lon": 4.8551379, "tags": {"amenity": "school", "check_date": "2024-06-10", "name": "Rosa Boekdrukker"}}, {"type": "node", "id": 1343137837, "lat": 52.3717578, "lon": 4.8574232, "tags": {"amenity": "school", "check_date": "2024-06-06", "name": "As-Siddieq"}}, {"type": "node", "id": 1432277900, "lat": 52.3744342, "lon": 4.8606386, "tags": {"addr:city": "Amsterdam", "addr:housenumber": "12", "addr:postcode": "1056WB", "addr:street": "Reinier Claeszenplein", "alt_name": "Openbare Basisschool De Roos", "amenity": "school", "name": "De Roos"}}, {"type": "node", "id": 1584499574, "lat": 52.3768944, "lon": 4.8809826}, {"type": "node", "id": 1637833128, "lat": 52.3643181, "lon": 4.8724633, "tags": {"camera:type": "fixed", "man_made": "surveillance", "surveillance": "outdoor"}}, {"type": "node", "id": 1637833139, "lat": 52.3648974, "lon": 4.872686, "tags": {"camera:type": "fixed", "man_made": "surveillance", "surveillance": "outdoor"}}, {"type": "node", "id": 1794956609, "lat": 52.3620872, "lon": 4.852715}, {"type": "node", "id": 1794956610, "lat": 52.3621149, "lon": 4.8524759}, {"type": "node", "id": 1794956614, "lat": 52.3621206, "lon": 4.8529804}, {"type": "node", "id": 1794956618, "lat": 52.362117, "lon": 4.8526673}, {"type": "node", "id": 1794956632, "lat": 52.3621175, "lon": 4.8527141}, {"type": "node", "id": 1794956634, "lat": 52.3620846, "lon": 4.8524767}, {"type": "node", "id": 1794956636, "lat": 52.3620895, "lon": 4.8529305}, {"type": "node", "id": 1794956641, "lat": 52.3619763, "lon": 4.8522147}, {"type": "node", "id": 1794956643, "lat": 52.3619846, "lon": 4.852983}, {"type": "node", "id": 1803374515, "lat": 52.3982493, "lon": 4.9463787}, {"type": "node", "id": 1873459875, "lat": 52.440992, "lon": 4.8786389}, {"type": "node", "id": 1941544176, "lat": 52.3748348, "lon": 4.9310968, "tags": {"addr:city": "Amsterdam", "addr:housenumber": "6", "addr:postcode": "1019BM", "addr:street": "Oostelijke Handelskade", "amenity": "school", "name": "Basisschool Piet Hein", "source": "BAG", "source:date": "2014-03-24", "website": "https://www.basisschoolpiethein.nl"}}, {"type": "node", "id": 2047862832, "lat": 52.3734109, "lon": 4.8445265}, {"type": "node", "id": 2047862840, "lat": 52.3740256, "lon": 4.8445651}, {"type": "node", "id": 2047862847, "lat": 52.3740383, "lon": 4.8448704}, {"type": "node", "id": 2047862849, "lat": 52.3734009, "lon": 4.8450209}, {"type": "node", "id": 2300896415, "lat": 52.3779902, "lon": 4.8764839}, {"type": "node", "id": 2300896424, "lat": 52.3776514, "lon": 4.8763054}, {"type": "node", "id": 2300896426, "lat": 52.3780113, "lon": 4.8757453}, {"type": "node", "id": 2300896429, "lat": 52.3778074, "lon": 4.8756572}, {"type": "node", "id": 2492759886, "lat": 52.3706192, "lon": 4.9213573, "tags": {"addr:city": "Amsterdam", "addr:housenumber": "2", "addr:postcode": "1018LR", "addr:street": "Poolstraat", "amenity": "school", "designation": "basisschool", "email": "alanturing.info@as\u200bkoscholen.nl", "isced:level": "0;1", "name": "Alan Turing School", "note": "basisschool, nieuwe naam en nieuwe onderwijsmethode sinds 2016.", "note:en": "primary school, new name and approach since 2016.", "old_name": "Katholieke basisschool De Pool", "operator": "ASKO", "operator:website": "https://www.askoscholen.nl", "operator:wikidata": "Q137180905", "phone": "+31 20 622 4584", "school": "primary", "source": "BAG", "source:date": "2014-03-24", "website": "https://www.alanturingschool.nl"}}, {"type": "node", "id": 2545462272, "lat": 52.3725348, "lon": 4.9381439, "tags": {"addr:city": "Amsterdam", "addr:housenumber": "50", "addr:postcode": "1019JN", "addr:street": "C. van Eesterenlaan", "amenity": "school", "check_date": "2025-05-20", "name": "'t Gouden Ei", "website": "http://www.obsgoudenei.nl", "wheelchair": "no"}}, {"type": "node", "id": 2568815254, "lat": 52.3620823, "lon": 4.8522612}, {"type": "node", "id": 2679405520, "lat": 52.3549322, "lon": 4.8855985}, {"type": "node", "id": 2679405522, "lat": 52.3547229, "lon": 4.8862739}, {"type": "node", "id": 2679405524, "lat": 52.3548385, "lon": 4.8862718}, {"type": "node", "id": 2679405526, "lat": 52.3549851, "lon": 4.8862449}, {"type": "node", "id": 2679405527, "lat": 52.3554782, "lon": 4.8851662}, {"type": "node", "id": 2679405531, "lat": 52.3556102, "lon": 4.8851365}, {"type": "node", "id": 2679405534, "lat": 52.3556351, "lon": 4.8861757}, {"type": "node", "id": 2679405536, "lat": 52.3556406, "lon": 4.8858746}, {"type": "node", "id": 2713826551, "lat": 52.3750597, "lon": 4.8663808}, {"type": "node", "id": 2720810873, "lat": 52.3817207, "lon": 4.8846203, "tags": {"addr:city": "Amsterdam", "addr:housenumber": "11", "addr:postcode": "1015HP", "addr:street": "Palmstraat", "amenity": "school", "name": "Vinseschool", "source": "BAG", "source:date": "2014-02-11", "website": "https://vinseschool.nl/"}}, {"type": "node", "id": 2720882088, "lat": 52.3777035, "lon": 4.8804509, "tags": {"addr:city": "Amsterdam", "addr:housenumber": "297", "addr:postcode": "1015MH", "addr:street": "Westerstraat", "amenity": "school", "name": "Theo Thijssen School", "phone": "+31 20 622 4121", "source": "BAG", "source:date": "2014-02-11"}}, {"type": "node", "id": 2720894452, "lat": 52.3768872, "lon": 4.8806903}, {"type": "node", "id": 2720894540, "lat": 52.3769186, "lon": 4.8808382}, {"type": "node", "id": 2720894647, "lat": 52.3769485, "lon": 4.8812334}, {"type": "node", "id": 2720894849, "lat": 52.3770047, "lon": 4.8811979}, {"type": "node", "id": 2720895048, "lat": 52.3770621, "lon": 4.8812364}, {"type": "node", "id": 2720895086, "lat": 52.3770757, "lon": 4.8805752}, {"type": "node", "id": 2720895225, "lat": 52.3771195, "lon": 4.881483}, {"type": "node", "id": 2720895300, "lat": 52.3771416, "lon": 4.8806178}, {"type": "node", "id": 2720895383, "lat": 52.3771459, "lon": 4.881471}, {"type": "node", "id": 2720895487, "lat": 52.3771943, "lon": 4.8814428}, {"type": "node", "id": 2720895624, "lat": 52.37723, "lon": 4.8810298}, {"type": "node", "id": 2720895869, "lat": 52.3773059, "lon": 4.8813779}, {"type": "node", "id": 2721575710, "lat": 52.3811868, "lon": 4.8900415, "tags": {"addr:city": "Amsterdam", "addr:housenumber": "132", "addr:postcode": "1013EX", "addr:street": "Haarlemmerstraat", "amenity": "school", "check_date": "2024-10-24", "name": "Vinseschool", "source": "BAG", "source:date": "2014-02-11", "website": "https://www.vinseschool.nl/"}}, {"type": "node", "id": 2721830906, "lat": 52.3711391, "lon": 4.8817741, "tags": {"addr:city": "Amsterdam", "addr:housenumber": "7", "addr:postcode": "1016SL", "addr:street": "Konijnenstraat", "amenity": "school", "capacity": "70", "isced": "2", "max_age": "16", "min_age": "12", "name": "Altra College Centrum", "operator": "iHUB", "pedagogy": "Voortgezet speciaal onderwijs (VSO)", "source": "BAG", "source:date": "2014-02-11", "website": "https://www.altrahorizononderwijs.nl/altra-scholen/altra-college-centrum"}}, {"type": "node", "id": 2730040464, "lat": 52.3622581, "lon": 4.8851211}, {"type": "node", "id": 2730041460, "lat": 52.3625551, "lon": 4.884069}, {"type": "node", "id": 2730041824, "lat": 52.3626866, "lon": 4.8842338}, {"type": "node", "id": 2737866760, "lat": 52.3606912, "lon": 4.9010418}, {"type": "node", "id": 2737866870, "lat": 52.3607235, "lon": 4.9012581}, {"type": "node", "id": 2737866967, "lat": 52.3607592, "lon": 4.9010137}, {"type": "node", "id": 2737866970, "lat": 52.3607608, "lon": 4.9010234}, {"type": "node", "id": 2737867007, "lat": 52.3607775, "lon": 4.9010062}, {"type": "node", "id": 2737867015, "lat": 52.360779, "lon": 4.9010158}, {"type": "node", "id": 2737867252, "lat": 52.360945, "lon": 4.9011665}, {"type": "node", "id": 2737867296, "lat": 52.3609643, "lon": 4.9011582}, {"type": "node", "id": 2737867484, "lat": 52.3610032, "lon": 4.9009128}, {"type": "node", "id": 2737867532, "lat": 52.361027, "lon": 4.9010924}, {"type": "node", "id": 2737867535, "lat": 52.361031, "lon": 4.9010907}, {"type": "node", "id": 2737867546, "lat": 52.3610328, "lon": 4.9011302}, {"type": "node", "id": 2738249082, "lat": 52.3958835, "lon": 4.8488981}, {"type": "node", "id": 2738249084, "lat": 52.3958901, "lon": 4.8488867}, {"type": "node", "id": 2738249093, "lat": 52.3959153, "lon": 4.8488433}, {"type": "node", "id": 2738249094, "lat": 52.3959219, "lon": 4.848832}, {"type": "node", "id": 2741066971, "lat": 52.3708834, "lon": 4.9044929, "tags": {"addr:city": "Amsterdam", "addr:housenumber": "35", "addr:postcode": "1011KT", "addr:street": "Oudeschans", "amenity": "school", "description": "Dependance van basischool Witte Olifant", "isced:level": "0;1", "name": "De Witte Olifant", "phone": "+31 20 624 5000", "source": "BAG", "source:date": "2014-03-24", "website": "https://www.witteolifant.nl"}}, {"type": "node", "id": 2741071598, "lat": 52.3705677, "lon": 4.903657}, {"type": "node", "id": 2742822217, "lat": 52.3633901, "lon": 4.9103195}, {"type": "node", "id": 2742822890, "lat": 52.3634319, "lon": 4.910298}, {"type": "node", "id": 2742823079, "lat": 52.3634854, "lon": 4.9102707}, {"type": "node", "id": 2743100522, "lat": 52.3683431, "lon": 4.9285239, "tags": {"addr:city": "Amsterdam", "addr:housenumber": "10", "addr:postcode": "1018RK", "addr:street": "Kraijenhoffstraat", "amenity": "school", "check_date": "2025-02-26", "name": "BOE (Basisschool Oostelijke Eilanden)", "source": "BAG", "source:date": "2014-03-24"}}, {"type": "node", "id": 2745485974, "lat": 52.3867768, "lon": 4.8900567, "tags": {"addr:city": "Amsterdam", "addr:housenumber": "102", "addr:postcode": "1013KS", "addr:street": "Grote Bickersstraat", "amenity": "school", "check_date": "2024-09-11", "name": "Montessorischool de Eilanden", "source": "BAG", "source:date": "2014-03-24"}}, {"type": "node", "id": 2788449100, "lat": 52.3857157, "lon": 4.8669044, "tags": {"addr:city": "Amsterdam", "addr:housenumber": "26", "addr:postcode": "1014DA", "addr:street": "Polonceau-kade", "amenity": "school", "check_date": "2025-06-21", "name": "Vinseschool", "source": "BAG", "source:date": "2014-03-24", "website": "https://vinseschool.nl/"}}, {"type": "node", "id": 2788449105, "lat": 52.385721, "lon": 4.8660671, "tags": {"addr:city": "Amsterdam", "addr:housenumber": "28", "addr:postcode": "1014DA", "addr:street": "Polonceau-kade", "amenity": "school", "check_date": "2025-06-21", "name": "Vinseschool", "source": "BAG", "source:date": "2014-03-24", "website": "https://vinseschool.nl/"}}, {"type": "node", "id": 2795227575, "lat": 52.3668358, "lon": 4.8367683, "tags": {"addr:city": "Amsterdam", "addr:housenumber": "2", "addr:postcode": "1061SC", "addr:street": "Piet Mondriaanplein", "amenity": "school", "capacity": "540", "isced": "1", "isced:level": "0;1", "max_age": "12", "min_age": "4", "name": "Elkadisia", "official_name": "IBS Elkadisia", "operator": "Stichting El Amal", "religion": "muslim", "school": "primary", "source": "BAG", "source:date": "2014-03-24", "website": "https://www.elkadisia.nl/"}}, {"type": "node", "id": 2795229202, "lat": 52.3602839, "lon": 4.8397797, "tags": {"addr:city": "Amsterdam", "addr:housenumber": "3", "addr:postcode": "1062CG", "addr:street": "Theodoor van Hoytemastraat", "amenity": "school", "capacity": "70", "isced": "1", "max_age": "12", "min_age": "4", "name": "Alexander Roozendaalschool (sluiterstraat)", "operator": "Stichting VierTaal", "pedagogy": "voor slechthorende", "source": "BAG", "source:date": "2014-03-24", "website": "https://roozendaalschool.nl/"}}, {"type": "node", "id": 2795239973, "lat": 52.3595096, "lon": 4.8414413}, {"type": "node", "id": 2795239974, "lat": 52.3595097, "lon": 4.8414466}, {"type": "node", "id": 2795239975, "lat": 52.3595116, "lon": 4.8416027}, {"type": "node", "id": 2795239976, "lat": 52.3595116, "lon": 4.841608}, {"type": "node", "id": 2795239977, "lat": 52.3595122, "lon": 4.8414412}, {"type": "node", "id": 2795239978, "lat": 52.3595123, "lon": 4.8414465}, {"type": "node", "id": 2795239979, "lat": 52.3595141, "lon": 4.8416027}, {"type": "node", "id": 2795239980, "lat": 52.3595141, "lon": 4.8416079}, {"type": "node", "id": 2795239987, "lat": 52.35955, "lon": 4.84144}, {"type": "node", "id": 2795239988, "lat": 52.3595501, "lon": 4.8414453}, {"type": "node", "id": 2795239989, "lat": 52.3595519, "lon": 4.8416016}, {"type": "node", "id": 2795239990, "lat": 52.359552, "lon": 4.8416068}, {"type": "node", "id": 2795239991, "lat": 52.3595527, "lon": 4.8414399}, {"type": "node", "id": 2795239992, "lat": 52.3595527, "lon": 4.8414452}, {"type": "node", "id": 2795239993, "lat": 52.3595545, "lon": 4.8416015}, {"type": "node", "id": 2795239994, "lat": 52.3595546, "lon": 4.8416068}, {"type": "node", "id": 2795240002, "lat": 52.3595906, "lon": 4.8414387}, {"type": "node", "id": 2795240003, "lat": 52.3595906, "lon": 4.841444}, {"type": "node", "id": 2795240005, "lat": 52.3595924, "lon": 4.8416004}, {"type": "node", "id": 2795240006, "lat": 52.3595925, "lon": 4.8416057}, {"type": "node", "id": 2795240007, "lat": 52.3595931, "lon": 4.8414387}, {"type": "node", "id": 2795240008, "lat": 52.3595932, "lon": 4.8414439}, {"type": "node", "id": 2795240010, "lat": 52.359595, "lon": 4.8416003}, {"type": "node", "id": 2795240011, "lat": 52.359595, "lon": 4.8416056}, {"type": "node", "id": 2795240045, "lat": 52.3596353, "lon": 4.840781}, {"type": "node", "id": 2795240048, "lat": 52.3596398, "lon": 4.8411574}, {"type": "node", "id": 2795240088, "lat": 52.3596921, "lon": 4.8407792}, {"type": "node", "id": 2795240089, "lat": 52.3596965, "lon": 4.8411556}, {"type": "node", "id": 2795240121, "lat": 52.3598075, "lon": 4.8408722}, {"type": "node", "id": 2795240122, "lat": 52.3598079, "lon": 4.8409089}, {"type": "node", "id": 2795240123, "lat": 52.3598087, "lon": 4.8411782}, {"type": "node", "id": 2795240124, "lat": 52.3598113, "lon": 4.8414941}, {"type": "node", "id": 2795240134, "lat": 52.3598344, "lon": 4.8408714}, {"type": "node", "id": 2795240136, "lat": 52.3598349, "lon": 4.840908}, {"type": "node", "id": 2795240139, "lat": 52.3598359, "lon": 4.8411775}, {"type": "node", "id": 2795240141, "lat": 52.3598389, "lon": 4.8414945}, {"type": "node", "id": 2795240143, "lat": 52.3598404, "lon": 4.8416926}, {"type": "node", "id": 2795240155, "lat": 52.3598653, "lon": 4.8412218}, {"type": "node", "id": 2795240171, "lat": 52.359931, "lon": 4.84122}, {"type": "node", "id": 2795240172, "lat": 52.3599336, "lon": 4.8415816}, {"type": "node", "id": 2795240192, "lat": 52.3600327, "lon": 4.84158}, {"type": "node", "id": 2795240193, "lat": 52.3600336, "lon": 4.8416886}, {"type": "node", "id": 2808557821, "lat": 52.3809635, "lon": 4.8407844}, {"type": "node", "id": 2808558066, "lat": 52.3811203, "lon": 4.8407759}, {"type": "node", "id": 2808558085, "lat": 52.3813392, "lon": 4.8403293}, {"type": "node", "id": 2808558297, "lat": 52.3814471, "lon": 4.8403744}, {"type": "node", "id": 2808559001, "lat": 52.3816054, "lon": 4.8405426}, {"type": "node", "id": 2808559002, "lat": 52.3816055, "lon": 4.8404409}, {"type": "node", "id": 2808559024, "lat": 52.3816233, "lon": 4.8405502}, {"type": "node", "id": 2808710921, "lat": 52.3737042, "lon": 4.8450366}, {"type": "node", "id": 2808710923, "lat": 52.3737108, "lon": 4.8446978}, {"type": "node", "id": 2808710924, "lat": 52.3737133, "lon": 4.8445708}, {"type": "node", "id": 2808710925, "lat": 52.3737138, "lon": 4.8445422}, {"type": "node", "id": 2808711014, "lat": 52.3738853, "lon": 4.8447068}, {"type": "node", "id": 2808711017, "lat": 52.3738928, "lon": 4.8448866}, {"type": "node", "id": 2808711027, "lat": 52.3739109, "lon": 4.8445778}, {"type": "node", "id": 2808711028, "lat": 52.373911, "lon": 4.8445811}, {"type": "node", "id": 2808711059, "lat": 52.3739558, "lon": 4.8462194}, {"type": "node", "id": 2808711075, "lat": 52.3739827, "lon": 4.8464569}, {"type": "node", "id": 2808711079, "lat": 52.3739856, "lon": 4.846456}, {"type": "node", "id": 2808761856, "lat": 52.3777385, "lon": 4.8486086}, {"type": "node", "id": 2808761861, "lat": 52.3777423, "lon": 4.8496641}, {"type": "node", "id": 2808761871, "lat": 52.3777508, "lon": 4.8496595}, {"type": "node", "id": 2808761872, "lat": 52.3777525, "lon": 4.849715}, {"type": "node", "id": 2808761880, "lat": 52.3777611, "lon": 4.8497105}, {"type": "node", "id": 2808762007, "lat": 52.3777851, "lon": 4.8488382}, {"type": "node", "id": 2808762013, "lat": 52.3777914, "lon": 4.8495144}, {"type": "node", "id": 2808762030, "lat": 52.3778033, "lon": 4.8488283}, {"type": "node", "id": 2808762044, "lat": 52.3778129, "lon": 4.8496208}, {"type": "node", "id": 2808762060, "lat": 52.3778268, "lon": 4.8489379}, {"type": "node", "id": 2808762099, "lat": 52.3778566, "lon": 4.8494794}, {"type": "node", "id": 2808762131, "lat": 52.377878, "lon": 4.8495858}, {"type": "node", "id": 2808762197, "lat": 52.3779381, "lon": 4.8498678}, {"type": "node", "id": 2808857614, "lat": 52.3793737, "lon": 4.8605161, "tags": {"addr:city": "Amsterdam", "addr:housenumber": "41", "addr:postcode": "1055WC", "addr:street": "Jan Den Haenstraat", "amenity": "school", "name": "Kindcentrum de Vindplaats", "operator": "Kindcentrum de Vindplaats", "operator:type": "school", "source": "BAG", "source:date": "2014-03-24", "website": "https://www.devindplaats.amsterdam/"}}, {"type": "node", "id": 2809018661, "lat": 52.3846868, "lon": 4.8772808}, {"type": "node", "id": 2809018807, "lat": 52.3847102, "lon": 4.8773175}, {"type": "node", "id": 2809019053, "lat": 52.3848501, "lon": 4.8777054}, {"type": "node", "id": 2809019505, "lat": 52.3849497, "lon": 4.8768283}, {"type": "node", "id": 2809019521, "lat": 52.3849568, "lon": 4.8778728}, {"type": "node", "id": 2809019752, "lat": 52.3850315, "lon": 4.8777456}, {"type": "node", "id": 2809020360, "lat": 52.3851445, "lon": 4.8768193}, {"type": "node", "id": 2809020362, "lat": 52.3851478, "lon": 4.8770067}, {"type": "node", "id": 2809210415, "lat": 52.3716637, "lon": 4.868009, "tags": {"addr:city": "Amsterdam", "addr:housenumber": "18", "addr:postcode": "1052SC", "addr:street": "Bilderdijkpark", "amenity": "school", "isced:level": "1", "name": "Obs De Waterkant", "phone": "+31 20 612 0122", "source": "BAG", "source:date": "2014-03-24", "website": "https://www.dewaterkant.net/"}}, {"type": "node", "id": 2809428698, "lat": 52.3640427, "lon": 4.8763933, "tags": {"addr:city": "Amsterdam", "addr:housenumber": "19", "addr:postcode": "1054AH", "addr:street": "Alberdingk Thijmstraat", "amenity": "school", "name": "Muziekpakhuis", "school": "music", "source": "BAG", "source:date": "2014-03-24", "website": "https://muziekpakhuis.nl/"}}, {"type": "node", "id": 2809614811, "lat": 52.3776426, "lon": 4.8763417}, {"type": "node", "id": 2809614826, "lat": 52.3776791, "lon": 4.8761919}, {"type": "node", "id": 2809614829, "lat": 52.3776819, "lon": 4.8761938}, {"type": "node", "id": 2809614846, "lat": 52.3777329, "lon": 4.8763652}, {"type": "node", "id": 2809614850, "lat": 52.3777347, "lon": 4.8763577}, {"type": "node", "id": 2809614861, "lat": 52.3777498, "lon": 4.8763758}, {"type": "node", "id": 2809614865, "lat": 52.3777515, "lon": 4.8763683}, {"type": "node", "id": 2809615307, "lat": 52.3777801, "lon": 4.8757711}, {"type": "node", "id": 2809615310, "lat": 52.3777829, "lon": 4.8757729}, {"type": "node", "id": 2809615324, "lat": 52.3778176, "lon": 4.8764115}, {"type": "node", "id": 2809615325, "lat": 52.377818, "lon": 4.87641}, {"type": "node", "id": 2809615344, "lat": 52.3778442, "lon": 4.8764282}, {"type": "node", "id": 2809615347, "lat": 52.3778446, "lon": 4.8764267}, {"type": "node", "id": 2809615364, "lat": 52.3778715, "lon": 4.8764453}, {"type": "node", "id": 2809615365, "lat": 52.3778718, "lon": 4.8764438}, {"type": "node", "id": 2809615379, "lat": 52.3778984, "lon": 4.8764622}, {"type": "node", "id": 2809615381, "lat": 52.3778988, "lon": 4.8764607}, {"type": "node", "id": 2809616307, "lat": 52.3779332, "lon": 4.8751364}, {"type": "node", "id": 2809616313, "lat": 52.3779366, "lon": 4.8764844}, {"type": "node", "id": 2809616318, "lat": 52.3779433, "lon": 4.8764551}, {"type": "node", "id": 2809616320, "lat": 52.37813, "lon": 4.8758957}, {"type": "node", "id": 2809616331, "lat": 52.3780591, "lon": 4.8761892}, {"type": "node", "id": 2809616339, "lat": 52.3779757, "lon": 4.8765454}, {"type": "node", "id": 2809616342, "lat": 52.3779762, "lon": 4.8757652}, {"type": "node", "id": 2809616348, "lat": 52.377985, "lon": 4.8757285}, {"type": "node", "id": 2809616349, "lat": 52.3781052, "lon": 4.8759981}, {"type": "node", "id": 2809616362, "lat": 52.3780022, "lon": 4.8757835}, {"type": "node", "id": 2809616365, "lat": 52.3780131, "lon": 4.8763803}, {"type": "node", "id": 2809616366, "lat": 52.3780149, "lon": 4.8763815}, {"type": "node", "id": 2809616394, "lat": 52.3780705, "lon": 4.8758249}, {"type": "node", "id": 2809616400, "lat": 52.3780746, "lon": 4.8758077}, {"type": "node", "id": 2809616915, "lat": 52.3780996, "lon": 4.8752459}, {"type": "node", "id": 2809616919, "lat": 52.378107, "lon": 4.8759993}, {"type": "node", "id": 2809616920, "lat": 52.3781102, "lon": 4.8758302}, {"type": "node", "id": 2809616924, "lat": 52.3781147, "lon": 4.8758111}, {"type": "node", "id": 2809616933, "lat": 52.3781313, "lon": 4.8758965}, {"type": "node", "id": 2809616938, "lat": 52.3781454, "lon": 4.8758305}, {"type": "node", "id": 2809780090, "lat": 52.3641917, "lon": 4.8653198}, {"type": "node", "id": 2809780232, "lat": 52.3642965, "lon": 4.8656845}, {"type": "node", "id": 2809780236, "lat": 52.3643092, "lon": 4.8656767}, {"type": "node", "id": 2809780237, "lat": 52.3643096, "lon": 4.8657408}, {"type": "node", "id": 2809780247, "lat": 52.3643342, "lon": 4.8657742}, {"type": "node", "id": 2809780248, "lat": 52.3643371, "lon": 4.8657239}, {"type": "node", "id": 2809780252, "lat": 52.3643469, "lon": 4.8657664}, {"type": "node", "id": 2809780267, "lat": 52.3643717, "lon": 4.8658642}, {"type": "node", "id": 2809780277, "lat": 52.3643844, "lon": 4.8658564}, {"type": "node", "id": 2809780402, "lat": 52.3644169, "lon": 4.866043}, {"type": "node", "id": 2809780405, "lat": 52.3644221, "lon": 4.865946}, {"type": "node", "id": 2809780410, "lat": 52.3644271, "lon": 4.8660307}, {"type": "node", "id": 2809780411, "lat": 52.3644277, "lon": 4.8660369}, {"type": "node", "id": 2809780418, "lat": 52.3644369, "lon": 4.8661297}, {"type": "node", "id": 2809780477, "lat": 52.3645259, "lon": 4.8659933}, {"type": "node", "id": 2809780481, "lat": 52.3645323, "lon": 4.865604}, {"type": "node", "id": 2809780484, "lat": 52.3645353, "lon": 4.8659406}, {"type": "node", "id": 2809780492, "lat": 52.3645419, "lon": 4.8659684}, {"type": "node", "id": 2809780493, "lat": 52.3645424, "lon": 4.8660647}, {"type": "node", "id": 2809780496, "lat": 52.3645449, "lon": 4.8659816}, {"type": "node", "id": 2809780498, "lat": 52.3645469, "lon": 4.8659905}, {"type": "node", "id": 2809780602, "lat": 52.3645522, "lon": 4.8659493}, {"type": "node", "id": 2809780606, "lat": 52.3645553, "lon": 4.8659602}, {"type": "node", "id": 2809780610, "lat": 52.3645604, "lon": 4.8659822}, {"type": "node", "id": 2809780611, "lat": 52.3645617, "lon": 4.8659566}, {"type": "node", "id": 2809780617, "lat": 52.3645722, "lon": 4.86595}, {"type": "node", "id": 2809780634, "lat": 52.3645888, "lon": 4.8660223}, {"type": "node", "id": 2809780672, "lat": 52.3646428, "lon": 4.8656956}, {"type": "node", "id": 2809780692, "lat": 52.3646852, "lon": 4.8656492}, {"type": "node", "id": 2809780698, "lat": 52.3646893, "lon": 4.8656671}, {"type": "node", "id": 2809780818, "lat": 52.364725, "lon": 4.8659387}, {"type": "node", "id": 2809780824, "lat": 52.3647347, "lon": 4.8659436}, {"type": "node", "id": 2809780826, "lat": 52.3647369, "lon": 4.8659314}, {"type": "node", "id": 2809780880, "lat": 52.3648332, "lon": 4.8655583}, {"type": "node", "id": 2809780881, "lat": 52.3648343, "lon": 4.8655577}, {"type": "node", "id": 2809780884, "lat": 52.3648365, "lon": 4.8655573}, {"type": "node", "id": 2809780886, "lat": 52.3648387, "lon": 4.8655578}, {"type": "node", "id": 2809780887, "lat": 52.3648417, "lon": 4.8655601}, {"type": "node", "id": 2809780889, "lat": 52.3648432, "lon": 4.8655624}, {"type": "node", "id": 2809780890, "lat": 52.3648444, "lon": 4.8655653}, {"type": "node", "id": 2809780935, "lat": 52.3649049, "lon": 4.865828}, {"type": "node", "id": 2809973470, "lat": 52.3643711, "lon": 4.8727107}, {"type": "node", "id": 2809973625, "lat": 52.3646666, "lon": 4.8722192}, {"type": "node", "id": 2809973626, "lat": 52.3646804, "lon": 4.872548}, {"type": "node", "id": 2809973638, "lat": 52.3647556, "lon": 4.8728357}, {"type": "node", "id": 2809973640, "lat": 52.3647578, "lon": 4.8721565}, {"type": "node", "id": 2810053917, "lat": 52.3599707, "lon": 4.8601241}, {"type": "node", "id": 2810055310, "lat": 52.3604366, "lon": 4.8598205}, {"type": "node", "id": 2814119412, "lat": 52.3645339, "lon": 4.8592981, "tags": {"addr:city": "Amsterdam", "addr:country": "NL", "addr:housenumber": "1", "addr:postcode": "1057DT", "addr:street": "Postjesweg", "amenity": "school", "check_date": "2025-09-12", "heritage": "2", "heritage:operator": "rce", "name": "Het Sieraad", "old_name": "Ambachtsschool", "ref:rce": "527153", "source": "BAG", "source:date": "2014-03-24", "website": "https://het-sieraad.nl/", "wikidata": "Q1996061", "wikimedia_commons": "Category:Het Sieraad", "wikipedia": "nl:Het Sieraad"}}, {"type": "node", "id": 2814262597, "lat": 52.3621124, "lon": 4.852209}, {"type": "node", "id": 2814262599, "lat": 52.3621129, "lon": 4.8522603}, {"type": "node", "id": 2814262915, "lat": 52.3621198, "lon": 4.8529296}, {"type": "node", "id": 2814262917, "lat": 52.362121, "lon": 4.8529622}, {"type": "node", "id": 2816416386, "lat": 52.3588179, "lon": 4.8796852}, {"type": "node", "id": 2816416390, "lat": 52.3588283, "lon": 4.8796139}, {"type": "node", "id": 2816416394, "lat": 52.3588426, "lon": 4.8796677}, {"type": "node", "id": 2816416608, "lat": 52.3588882, "lon": 4.8799498}, {"type": "node", "id": 2816416612, "lat": 52.358902, "lon": 4.8800017}, {"type": "node", "id": 2816416623, "lat": 52.3589582, "lon": 4.879522}, {"type": "node", "id": 2816416637, "lat": 52.358985, "lon": 4.8796228}, {"type": "node", "id": 2816416644, "lat": 52.3589953, "lon": 4.8796155}, {"type": "node", "id": 2816416648, "lat": 52.3590081, "lon": 4.8799264}, {"type": "node", "id": 2816416666, "lat": 52.3590668, "lon": 4.8798848}, {"type": "node", "id": 2816524583, "lat": 52.3546178, "lon": 4.8857568}, {"type": "node", "id": 2816524822, "lat": 52.3549046, "lon": 4.8854671}, {"type": "node", "id": 2825128328, "lat": 52.3546624, "lon": 4.9087872}, {"type": "node", "id": 2825128351, "lat": 52.3547224, "lon": 4.9089965}, {"type": "node", "id": 2825128375, "lat": 52.3547854, "lon": 4.9092065}, {"type": "node", "id": 2825128614, "lat": 52.3548384, "lon": 4.9091727}, {"type": "node", "id": 2825128625, "lat": 52.3548614, "lon": 4.9092689}, {"type": "node", "id": 2825272168, "lat": 52.359756, "lon": 4.9133524}, {"type": "node", "id": 2825272451, "lat": 52.3598504, "lon": 4.9138374}, {"type": "node", "id": 2825272490, "lat": 52.3598986, "lon": 4.9132762}, {"type": "node", "id": 2825272492, "lat": 52.3598989, "lon": 4.9132782}, {"type": "node", "id": 2825272704, "lat": 52.359906, "lon": 4.9132723}, {"type": "node", "id": 2825272729, "lat": 52.3599329, "lon": 4.9142587}, {"type": "node", "id": 2825273005, "lat": 52.360078, "lon": 4.9141829}, {"type": "node", "id": 2826149630, "lat": 52.3584679, "lon": 4.9252139}, {"type": "node", "id": 2826149654, "lat": 52.3584951, "lon": 4.9253181}, {"type": "node", "id": 2826149760, "lat": 52.3585963, "lon": 4.9257058}, {"type": "node", "id": 2826149934, "lat": 52.3586504, "lon": 4.9250869}, {"type": "node", "id": 2826150141, "lat": 52.3587788, "lon": 4.9255787}, {"type": "node", "id": 2827641207, "lat": 52.3571001, "lon": 4.9318475}, {"type": "node", "id": 2827641208, "lat": 52.357114, "lon": 4.9318395}, {"type": "node", "id": 2827641228, "lat": 52.3571602, "lon": 4.9314144}, {"type": "node", "id": 2827641234, "lat": 52.3571842, "lon": 4.9322454}, {"type": "node", "id": 2827641245, "lat": 52.357267, "lon": 4.9313539}, {"type": "node", "id": 2827641301, "lat": 52.3574596, "lon": 4.9312447}, {"type": "node", "id": 2827641370, "lat": 52.3576191, "lon": 4.9319988}, {"type": "node", "id": 2827648505, "lat": 52.3604843, "lon": 4.9291027}, {"type": "node", "id": 2827648599, "lat": 52.360546, "lon": 4.9293461}, {"type": "node", "id": 2827650107, "lat": 52.3607761, "lon": 4.9289076}, {"type": "node", "id": 2827650143, "lat": 52.360838, "lon": 4.92915}, {"type": "node", "id": 2830042746, "lat": 52.3635599, "lon": 4.9439627, "tags": {"addr:city": "Amsterdam", "addr:housenumber": "61", "addr:postcode": "1095VX", "addr:street": "Soembawastraat", "amenity": "school", "check_date": "2025-03-24", "name": "Flevoparkschool", "source": "BAG", "source:date": "2014-03-24"}}, {"type": "node", "id": 2842100637, "lat": 52.3723584, "lon": 4.9701089, "tags": {"addr:city": "Amsterdam", "addr:housenumber": "451", "addr:postcode": "1095MD", "addr:street": "Faas Wilkesstraat", "amenity": "school", "email": "info@mkczbe.nl", "name": "MKC Zeeburgereiland", "phone": "+31 20 303 9559", "source": "BAG", "source:date": "2014-05-07", "website": "https://mkczeeburgereiland.nl/", "wheelchair": "yes"}}, {"type": "node", "id": 2842845837, "lat": 52.3609916, "lon": 4.9822018, "tags": {"addr:city": "Amsterdam", "addr:housenumber": "4", "addr:postcode": "1086WB", "addr:street": "John Hadleystraat", "amenity": "school", "contact:instagram": "montessorischool_steigereiland", "email": "info@obssteigereiland.nl", "name": "Montessorischool Steigereiland", "phone": "+31 20 416 1677", "source": "BAG", "source:date": "2014-05-07", "website": "https://obssteigereiland.nl/"}}, {"type": "node", "id": 2846548492, "lat": 52.4185766, "lon": 4.9033153}, {"type": "node", "id": 2846548499, "lat": 52.4185868, "lon": 4.9032399}, {"type": "node", "id": 2846548717, "lat": 52.4186039, "lon": 4.9033252}, {"type": "node", "id": 2846549052, "lat": 52.4187671, "lon": 4.9025263}, {"type": "node", "id": 2846549092, "lat": 52.4188116, "lon": 4.9021134}, {"type": "node", "id": 2846549327, "lat": 52.4188376, "lon": 4.9022424}, {"type": "node", "id": 2846550197, "lat": 52.4192821, "lon": 4.901511}, {"type": "node", "id": 2846975917, "lat": 52.4076948, "lon": 4.9036356}, {"type": "node", "id": 2846978593, "lat": 52.4082721, "lon": 4.9030161}, {"type": "node", "id": 2846978754, "lat": 52.4083183, "lon": 4.9031781}, {"type": "node", "id": 2846978758, "lat": 52.4083209, "lon": 4.9031749}, {"type": "node", "id": 2846978759, "lat": 52.4083221, "lon": 4.9031598}, {"type": "node", "id": 2846978760, "lat": 52.4083226, "lon": 4.9031702}, {"type": "node", "id": 2846978761, "lat": 52.408323, "lon": 4.903165}, {"type": "node", "id": 2847219573, "lat": 52.3977722, "lon": 4.9065365, "tags": {"addr:city": "Amsterdam", "addr:housenumber": "1", "addr:postcode": "1032LH", "addr:street": "Bosrankstraat", "amenity": "school", "description": "speciaal onderwijs", "name": "De Heldringschool", "school": "primary", "source": "BAG", "source:date": "2014-05-07", "website": "https://www.sodeheldring.nl/"}}, {"type": "node", "id": 2847282893, "lat": 52.4057877, "lon": 4.916392, "tags": {"addr:city": "Amsterdam", "addr:housenumber": "19", "addr:postcode": "1034JG", "addr:street": "Kopjachtplein", "amenity": "school", "capacity": "120", "check_date": "2025-09-07", "denomination": "protestant", "max_age": "12", "min_age": "4", "name": "PI-school Professor Waterink Noord", "operator": "Stichting Levvel PI-scholen", "pedagogy": "Speciaal onderwijs (SO)", "religion": "christian", "source": "BAG", "source:date": "2014-05-07", "website": "https://piwaterinknoord.nl"}}, {"type": "node", "id": 2847316997, "lat": 52.4039369, "lon": 4.9086986}, {"type": "node", "id": 2847317057, "lat": 52.4039865, "lon": 4.9085891}, {"type": "node", "id": 2847317097, "lat": 52.4040199, "lon": 4.9097024}, {"type": "node", "id": 2847317139, "lat": 52.4040678, "lon": 4.9094179}, {"type": "node", "id": 2847317174, "lat": 52.4041063, "lon": 4.9093326}, {"type": "node", "id": 2847317183, "lat": 52.4041198, "lon": 4.9094815}, {"type": "node", "id": 2847317379, "lat": 52.4042319, "lon": 4.909054}, {"type": "node", "id": 2847317413, "lat": 52.4042812, "lon": 4.9089449}, {"type": "node", "id": 2847347418, "lat": 52.4015677, "lon": 4.9312896}, {"type": "node", "id": 2847347424, "lat": 52.4015793, "lon": 4.9313044}, {"type": "node", "id": 2847347425, "lat": 52.4015797, "lon": 4.9313059}, {"type": "node", "id": 2847347426, "lat": 52.4015812, "lon": 4.9312606}, {"type": "node", "id": 2847347429, "lat": 52.4016202, "lon": 4.9311448}, {"type": "node", "id": 2847347430, "lat": 52.4016272, "lon": 4.9311238}, {"type": "node", "id": 2847347437, "lat": 52.4016641, "lon": 4.9314136}, {"type": "node", "id": 2847347438, "lat": 52.401665, "lon": 4.9314138}, {"type": "node", "id": 2847347439, "lat": 52.4016651, "lon": 4.9309991}, {"type": "node", "id": 2847347449, "lat": 52.4016813, "lon": 4.9314345}, {"type": "node", "id": 2847347450, "lat": 52.4016816, "lon": 4.931436}, {"type": "node", "id": 2847347452, "lat": 52.4016994, "lon": 4.9308712}, {"type": "node", "id": 2847347453, "lat": 52.4017004, "lon": 4.9308719}, {"type": "node", "id": 2847347456, "lat": 52.4017288, "lon": 4.9307538}, {"type": "node", "id": 2847347464, "lat": 52.4017637, "lon": 4.9305788}, {"type": "node", "id": 2847347466, "lat": 52.401766, "lon": 4.9315437}, {"type": "node", "id": 2847347467, "lat": 52.401767, "lon": 4.9315439}, {"type": "node", "id": 2847347480, "lat": 52.4017832, "lon": 4.9315646}, {"type": "node", "id": 2847347481, "lat": 52.4017836, "lon": 4.9315661}, {"type": "node", "id": 2847347500, "lat": 52.401868, "lon": 4.9316738}, {"type": "node", "id": 2847347502, "lat": 52.4018689, "lon": 4.931674}, {"type": "node", "id": 2847347509, "lat": 52.4018851, "lon": 4.9316947}, {"type": "node", "id": 2847347510, "lat": 52.4018855, "lon": 4.9316962}, {"type": "node", "id": 2847347517, "lat": 52.4019699, "lon": 4.9318039}, {"type": "node", "id": 2847347519, "lat": 52.4019709, "lon": 4.9318041}, {"type": "node", "id": 2847347521, "lat": 52.4019816, "lon": 4.9318178}, {"type": "node", "id": 2847347527, "lat": 52.4019961, "lon": 4.9306722}, {"type": "node", "id": 2847347528, "lat": 52.4020031, "lon": 4.931728}, {"type": "node", "id": 2847347529, "lat": 52.4020042, "lon": 4.9311033}, {"type": "node", "id": 2847347530, "lat": 52.4020165, "lon": 4.9317458}, {"type": "node", "id": 2847347532, "lat": 52.4020311, "lon": 4.9316695}, {"type": "node", "id": 2847347537, "lat": 52.4020447, "lon": 4.9316869}, {"type": "node", "id": 2847347544, "lat": 52.4020885, "lon": 4.9308011}, {"type": "node", "id": 2847347547, "lat": 52.402099, "lon": 4.9307141}, {"type": "node", "id": 2847347549, "lat": 52.4021046, "lon": 4.9315563}, {"type": "node", "id": 2847347553, "lat": 52.4021417, "lon": 4.9308157}, {"type": "node", "id": 2847347554, "lat": 52.4021505, "lon": 4.9314475}, {"type": "node", "id": 2847347556, "lat": 52.4021866, "lon": 4.9313567}, {"type": "node", "id": 2847767848, "lat": 52.4108863, "lon": 4.9181179, "tags": {"addr:city": "Amsterdam", "addr:housenumber": "1", "addr:postcode": "1034RR", "addr:street": "Overslag", "amenity": "school", "capacity": "170", "denomination": "catholic", "isced": "1", "max_age": "12", "min_age": "4", "name": "De Botteloef", "religion": "christian", "source": "BAG", "source:date": "2014-05-07", "website": "https://www.botteloef.nl/"}}, {"type": "node", "id": 2847774572, "lat": 52.4075011, "lon": 4.9215502}, {"type": "node", "id": 2847774805, "lat": 52.4075971, "lon": 4.9211357}, {"type": "node", "id": 2847774811, "lat": 52.4076136, "lon": 4.9212918}, {"type": "node", "id": 2847774812, "lat": 52.407616, "lon": 4.9212947}, {"type": "node", "id": 2847774828, "lat": 52.4076534, "lon": 4.921204}, {"type": "node", "id": 2847774835, "lat": 52.407669, "lon": 4.9209159}, {"type": "node", "id": 2847774842, "lat": 52.4076869, "lon": 4.9209376}, {"type": "node", "id": 2847774845, "lat": 52.4076945, "lon": 4.9208597}, {"type": "node", "id": 2847774856, "lat": 52.4077243, "lon": 4.9208959}, {"type": "node", "id": 2847774894, "lat": 52.4078372, "lon": 4.9206171}, {"type": "node", "id": 2847774897, "lat": 52.4078461, "lon": 4.9206273}, {"type": "node", "id": 2847774900, "lat": 52.4078492, "lon": 4.9205906}, {"type": "node", "id": 2847774908, "lat": 52.4078672, "lon": 4.9206123}, {"type": "node", "id": 2847774957, "lat": 52.4079885, "lon": 4.9203429}, {"type": "node", "id": 2848145592, "lat": 52.4032746, "lon": 4.9406652}, {"type": "node", "id": 2848145622, "lat": 52.403362, "lon": 4.9394538}, {"type": "node", "id": 2848145703, "lat": 52.4035256, "lon": 4.9396291}, {"type": "node", "id": 2848145713, "lat": 52.4035371, "lon": 4.9396002}, {"type": "node", "id": 2848145735, "lat": 52.4035911, "lon": 4.939658}, {"type": "node", "id": 2848145756, "lat": 52.4036682, "lon": 4.9394657}, {"type": "node", "id": 2848145767, "lat": 52.4037552, "lon": 4.9400449}, {"type": "node", "id": 2848281129, "lat": 52.3947124, "lon": 4.951095}, {"type": "node", "id": 2848281134, "lat": 52.3947458, "lon": 4.9510235}, {"type": "node", "id": 2848281141, "lat": 52.3947878, "lon": 4.9511079}, {"type": "node", "id": 2848281142, "lat": 52.3947949, "lon": 4.9510846}, {"type": "node", "id": 2848281145, "lat": 52.394831, "lon": 4.9515139}, {"type": "node", "id": 2848281146, "lat": 52.3948314, "lon": 4.9511434}, {"type": "node", "id": 2848281147, "lat": 52.3948384, "lon": 4.9511077}, {"type": "node", "id": 2848281148, "lat": 52.3948458, "lon": 4.9515268}, {"type": "node", "id": 2848281151, "lat": 52.3948615, "lon": 4.9514435}, {"type": "node", "id": 2848281153, "lat": 52.3948694, "lon": 4.951456}, {"type": "node", "id": 2848281154, "lat": 52.3948705, "lon": 4.9514503}, {"type": "node", "id": 2848281155, "lat": 52.3948728, "lon": 4.9514578}, {"type": "node", "id": 2848281157, "lat": 52.3948766, "lon": 4.9511391}, {"type": "node", "id": 2848281158, "lat": 52.3948786, "lon": 4.9511291}, {"type": "node", "id": 2848281159, "lat": 52.3948905, "lon": 4.9513562}, {"type": "node", "id": 2848281160, "lat": 52.3949028, "lon": 4.9513677}, {"type": "node", "id": 2848281161, "lat": 52.3949034, "lon": 4.9513661}, {"type": "node", "id": 2848281162, "lat": 52.3949057, "lon": 4.9513713}, {"type": "node", "id": 2848281165, "lat": 52.394917, "lon": 4.9511822}, {"type": "node", "id": 2848281167, "lat": 52.3949206, "lon": 4.9511624}, {"type": "node", "id": 2848281173, "lat": 52.3949521, "lon": 4.951266}, {"type": "node", "id": 2848281176, "lat": 52.3949626, "lon": 4.9512045}, {"type": "node", "id": 2848306152, "lat": 52.3962532, "lon": 4.9357902, "tags": {"addr:city": "Amsterdam", "addr:housenumber": "7", "addr:postcode": "1025PZ", "addr:street": "Breedveld", "amenity": "school", "check_date": "2025-09-08", "name": "De Buikslotermeer", "source": "BAG", "source:date": "2014-05-07", "website": "https://debuikslotermeer.nl/"}}, {"type": "node", "id": 2848310797, "lat": 52.3982988, "lon": 4.9462143}, {"type": "node", "id": 2848310979, "lat": 52.3984065, "lon": 4.9465069}, {"type": "node", "id": 2848311128, "lat": 52.3986397, "lon": 4.9464903}, {"type": "node", "id": 2848311136, "lat": 52.3986523, "lon": 4.9464473}, {"type": "node", "id": 2848311150, "lat": 52.3986677, "lon": 4.9463949}, {"type": "node", "id": 2848411918, "lat": 52.3894069, "lon": 4.9473452}, {"type": "node", "id": 2848411931, "lat": 52.3894186, "lon": 4.9473058}, {"type": "node", "id": 2848412114, "lat": 52.3895364, "lon": 4.947975}, {"type": "node", "id": 2848412151, "lat": 52.3895667, "lon": 4.9480184}, {"type": "node", "id": 2848412158, "lat": 52.3895713, "lon": 4.9480028}, {"type": "node", "id": 2848412181, "lat": 52.3895871, "lon": 4.9473587}, {"type": "node", "id": 2848412183, "lat": 52.3895874, "lon": 4.9480349}, {"type": "node", "id": 2848412191, "lat": 52.3895921, "lon": 4.9480194}, {"type": "node", "id": 2848412269, "lat": 52.3896464, "lon": 4.9480627}, {"type": "node", "id": 2848412312, "lat": 52.3896743, "lon": 4.9474282}, {"type": "node", "id": 2848412313, "lat": 52.3896749, "lon": 4.9479672}, {"type": "node", "id": 2848412343, "lat": 52.3896876, "lon": 4.9474878}, {"type": "node", "id": 2848412535, "lat": 52.3897928, "lon": 4.9475716}, {"type": "node", "id": 2848468473, "lat": 52.3947044, "lon": 4.9322309, "tags": {"addr:city": "Amsterdam", "addr:housenumber": "10", "addr:postcode": "1025KN", "addr:street": "Rode Kruisstraat", "amenity": "school", "name": "Basisschool de Capelle", "source": "BAG", "source:date": "2021-01-16", "website": "https://www.decapelle.nl/"}}, {"type": "node", "id": 2848628814, "lat": 52.3948792, "lon": 4.9272895}, {"type": "node", "id": 2848628820, "lat": 52.3950299, "lon": 4.9266766}, {"type": "node", "id": 2848628957, "lat": 52.3959868, "lon": 4.9274265}, {"type": "node", "id": 2848628967, "lat": 52.39606, "lon": 4.9264244}, {"type": "node", "id": 2848628974, "lat": 52.3960953, "lon": 4.9262815}, {"type": "node", "id": 2848628980, "lat": 52.3961717, "lon": 4.9275483}, {"type": "node", "id": 2848628985, "lat": 52.3961959, "lon": 4.9274503}, {"type": "node", "id": 2848629000, "lat": 52.3965855, "lon": 4.9277071}, {"type": "node", "id": 2848705982, "lat": 52.3816124, "lon": 4.912836, "tags": {"addr:city": "Amsterdam", "addr:housenumber": "82", "addr:postcode": "1021RB", "addr:street": "Gedempte Insteekhaven", "amenity": "school", "name": "OBS IJklein", "source": "BAG", "source:date": "2014-05-07"}}, {"type": "node", "id": 2848746569, "lat": 52.381224, "lon": 4.9133491}, {"type": "node", "id": 2848746570, "lat": 52.3812491, "lon": 4.9135489}, {"type": "node", "id": 2848746577, "lat": 52.3813442, "lon": 4.9135182}, {"type": "node", "id": 2848746578, "lat": 52.3813498, "lon": 4.9135649}, {"type": "node", "id": 2848746586, "lat": 52.3814277, "lon": 4.9133097}, {"type": "node", "id": 2848746598, "lat": 52.3816582, "lon": 4.9134655}, {"type": "node", "id": 2874122533, "lat": 52.4305882, "lon": 4.9157697, "tags": {"addr:city": "Landsmeer", "addr:housenumber": "15", "addr:postcode": "1121XA", "addr:street": "Calkoenstraat", "amenity": "school", "name": "De Hoeksteen", "phone": "+31 20 482 0660", "source": "BAG", "source:date": "2014-05-20", "website": "https://www.pcbdehoeksteen.nl/"}}, {"type": "node", "id": 2874134452, "lat": 52.4266258, "lon": 4.9130199}, {"type": "node", "id": 2874134491, "lat": 52.4266501, "lon": 4.9129131}, {"type": "node", "id": 2874135794, "lat": 52.4271489, "lon": 4.9136416}, {"type": "node", "id": 2874136028, "lat": 52.4271798, "lon": 4.913509}, {"type": "node", "id": 2874151845, "lat": 52.4316502, "lon": 4.9247597}, {"type": "node", "id": 2874151846, "lat": 52.4316506, "lon": 4.924984}, {"type": "node", "id": 2874250789, "lat": 52.4297344, "lon": 4.909786, "tags": {"addr:city": "Landsmeer", "addr:housenumber": "1", "addr:postcode": "1121JX", "addr:street": "Poortwachtersweg", "amenity": "school", "name": "OBS Ds JL de Wagemakerschool", "source": "BAG", "source:date": "2014-05-20"}}, {"type": "node", "id": 2874265938, "lat": 52.429445, "lon": 4.9098663}, {"type": "node", "id": 2874265958, "lat": 52.4294523, "lon": 4.9097201}, {"type": "node", "id": 2874265975, "lat": 52.4294621, "lon": 4.9096787}, {"type": "node", "id": 2874266605, "lat": 52.4294279, "lon": 4.9097045}, {"type": "node", "id": 2874267336, "lat": 52.4295407, "lon": 4.9098799}, {"type": "node", "id": 2874267453, "lat": 52.4295933, "lon": 4.9098867}, {"type": "node", "id": 2874267523, "lat": 52.4296277, "lon": 4.9095492}, {"type": "node", "id": 2874267621, "lat": 52.429674, "lon": 4.9099426}, {"type": "node", "id": 2874267709, "lat": 52.4297036, "lon": 4.9096024}, {"type": "node", "id": 2874267712, "lat": 52.4297047, "lon": 4.9095979}, {"type": "node", "id": 2874267758, "lat": 52.4297309, "lon": 4.9096189}, {"type": "node", "id": 2874267783, "lat": 52.4297437, "lon": 4.9095651}, {"type": "node", "id": 2874267794, "lat": 52.4297477, "lon": 4.9099884}, {"type": "node", "id": 2874267796, "lat": 52.4297487, "lon": 4.9099844}, {"type": "node", "id": 2874267876, "lat": 52.4297867, "lon": 4.9100969}, {"type": "node", "id": 2874267920, "lat": 52.4298048, "lon": 4.91002}, {"type": "node", "id": 2874268110, "lat": 52.4298502, "lon": 4.9096941}, {"type": "node", "id": 2874268138, "lat": 52.4298627, "lon": 4.9096408}, {"type": "node", "id": 2874268249, "lat": 52.429907, "lon": 4.9097298}, {"type": "node", "id": 2874268250, "lat": 52.4299084, "lon": 4.9097242}, {"type": "node", "id": 2874268306, "lat": 52.4299359, "lon": 4.9101907}, {"type": "node", "id": 2874268498, "lat": 52.4300284, "lon": 4.9097998}, {"type": "node", "id": 2874268580, "lat": 52.4301178, "lon": 4.9098647}, {"type": "node", "id": 2874268593, "lat": 52.4301244, "lon": 4.909945}, {"type": "node", "id": 2874268600, "lat": 52.43014, "lon": 4.9098796}, {"type": "node", "id": 2896082944, "lat": 52.437004, "lon": 4.8431207, "tags": {"addr:city": "Zaandam", "addr:housenumber": "2", "addr:postcode": "1504BZ", "addr:street": "Middelven", "amenity": "school", "name": "Pascal Zuid", "phone": "+31 75 616 7900", "source": "BAG", "source:date": "2014-06-02"}}, {"type": "node", "id": 2896087373, "lat": 52.4364369, "lon": 4.8448848, "tags": {"addr:city": "Zaandam", "addr:housenumber": "25", "addr:postcode": "1504AH", "addr:street": "De Weer", "amenity": "school", "denomination": "roman_catholic", "name": "Paus Johannesschool", "operator": "Agora", "phone": "+31 75 201 0114", "religion": "christian", "source": "BAG", "source:date": "2014-06-02"}}, {"type": "node", "id": 2896230042, "lat": 52.4363658, "lon": 4.8449185}, {"type": "node", "id": 2896233053, "lat": 52.4365247, "lon": 4.844808}, {"type": "node", "id": 2896233810, "lat": 52.4364826, "lon": 4.8453497}, {"type": "node", "id": 2896233867, "lat": 52.4364997, "lon": 4.8446386}, {"type": "node", "id": 2896234623, "lat": 52.4365421, "lon": 4.8447955}, {"type": "node", "id": 3510035124, "lat": 52.3818299, "lon": 4.9132094}, {"type": "node", "id": 3510035125, "lat": 52.3818473, "lon": 4.9131714}, {"type": "node", "id": 3510035126, "lat": 52.381826, "lon": 4.9131429}, {"type": "node", "id": 3699583662, "lat": 52.3686655, "lon": 4.8433293}, {"type": "node", "id": 3699583663, "lat": 52.3686704, "lon": 4.8438224}, {"type": "node", "id": 3699583664, "lat": 52.3686719, "lon": 4.8440043}, {"type": "node", "id": 3699583665, "lat": 52.3686743, "lon": 4.8442118}, {"type": "node", "id": 3699583666, "lat": 52.3689627, "lon": 4.8433214}, {"type": "node", "id": 3699583667, "lat": 52.3689676, "lon": 4.8438145}, {"type": "node", "id": 3699583668, "lat": 52.36897, "lon": 4.8439948}, {"type": "node", "id": 3699583669, "lat": 52.3689725, "lon": 4.8442024}, {"type": "node", "id": 3712468317, "lat": 52.4268034, "lon": 4.9086153}, {"type": "node", "id": 3754657263, "lat": 52.4269423, "lon": 4.9129537}, {"type": "node", "id": 3762911132, "lat": 52.4272282, "lon": 4.9132373}, {"type": "node", "id": 3762911133, "lat": 52.4271, "lon": 4.9131415}, {"type": "node", "id": 3770729222, "lat": 52.4264779, "lon": 4.9084199}, {"type": "node", "id": 3770729223, "lat": 52.4262612, "lon": 4.9093399}, {"type": "node", "id": 3770729224, "lat": 52.4265053, "lon": 4.9095421}, {"type": "node", "id": 3770729227, "lat": 52.4265639, "lon": 4.9096867}, {"type": "node", "id": 3773325523, "lat": 52.4268618, "lon": 4.9129051}, {"type": "node", "id": 3773325524, "lat": 52.4268483, "lon": 4.9129444}, {"type": "node", "id": 3773325525, "lat": 52.4267939, "lon": 4.912958}, {"type": "node", "id": 3773325526, "lat": 52.4266575, "lon": 4.9128787}, {"type": "node", "id": 3773325527, "lat": 52.4266013, "lon": 4.913009}, {"type": "node", "id": 3773325528, "lat": 52.4264988, "lon": 4.9134386}, {"type": "node", "id": 3773325530, "lat": 52.4266511, "lon": 4.9136021}, {"type": "node", "id": 3773325531, "lat": 52.427101, "lon": 4.9138472}, {"type": "node", "id": 3773325532, "lat": 52.427242, "lon": 4.9132491}, {"type": "node", "id": 3773325533, "lat": 52.4268652, "lon": 4.9137187, "tags": {"barrier": "gate"}}, {"type": "node", "id": 3773325534, "lat": 52.426705, "lon": 4.9136314, "tags": {"barrier": "gate"}}, {"type": "node", "id": 3773325535, "lat": 52.4264195, "lon": 4.9094717, "tags": {"barrier": "gate"}}, {"type": "node", "id": 3773325536, "lat": 52.4264642, "lon": 4.9084779, "tags": {"barrier": "gate"}}, {"type": "node", "id": 3773763556, "lat": 52.395897, "lon": 4.9261242}, {"type": "node", "id": 3773765558, "lat": 52.3954647, "lon": 4.926986}, {"type": "node", "id": 3773765560, "lat": 52.3955533, "lon": 4.9267749}, {"type": "node", "id": 3773765561, "lat": 52.3955021, "lon": 4.9269908}, {"type": "node", "id": 3773765562, "lat": 52.3956902, "lon": 4.9268572, "tags": {"barrier": "gate"}}, {"type": "node", "id": 3773765564, "lat": 52.3955434, "lon": 4.926817, "tags": {"barrier": "gate"}}, {"type": "node", "id": 3773765565, "lat": 52.3955082, "lon": 4.9269651, "tags": {"barrier": "gate"}}, {"type": "node", "id": 3773765567, "lat": 52.3953169, "lon": 4.9275787}, {"type": "node", "id": 3773765568, "lat": 52.3951787, "lon": 4.9260076}, {"type": "node", "id": 3773765573, "lat": 52.3951446, "lon": 4.9261494}, {"type": "node", "id": 3773765583, "lat": 52.3957518, "lon": 4.9272806}, {"type": "node", "id": 3773765586, "lat": 52.3964083, "lon": 4.9275903}, {"type": "node", "id": 3773765692, "lat": 52.3959764, "lon": 4.9263688}, {"type": "node", "id": 3773765694, "lat": 52.3958416, "lon": 4.926916, "tags": {"barrier": "gate"}}, {"type": "node", "id": 3776534776, "lat": 52.4267062, "lon": 4.9090334}, {"type": "node", "id": 3776534780, "lat": 52.4294166, "lon": 4.9098625}, {"type": "node", "id": 3776534781, "lat": 52.4295418, "lon": 4.9094696}, {"type": "node", "id": 3776534782, "lat": 52.4296339, "lon": 4.9095225}, {"type": "node", "id": 3776534784, "lat": 52.4308703, "lon": 4.9155196}, {"type": "node", "id": 3776534785, "lat": 52.4306275, "lon": 4.9155118}, {"type": "node", "id": 3776534786, "lat": 52.4304691, "lon": 4.915483}, {"type": "node", "id": 3776534787, "lat": 52.4304562, "lon": 4.9160964}, {"type": "node", "id": 3776534788, "lat": 52.4308635, "lon": 4.9161203}, {"type": "node", "id": 3776534789, "lat": 52.4317857, "lon": 4.9246212}, {"type": "node", "id": 3776534790, "lat": 52.431966, "lon": 4.9246228}, {"type": "node", "id": 3776534791, "lat": 52.4319576, "lon": 4.9255763}, {"type": "node", "id": 3776534792, "lat": 52.431641, "lon": 4.9255964}, {"type": "node", "id": 3776534793, "lat": 52.4316495, "lon": 4.9246243}, {"type": "node", "id": 3776534794, "lat": 52.4317538, "lon": 4.9246228}, {"type": "node", "id": 3883363064, "lat": 52.3818106, "lon": 4.9125691}, {"type": "node", "id": 3883363065, "lat": 52.3819898, "lon": 4.9128179}, {"type": "node", "id": 3883363066, "lat": 52.3816167, "lon": 4.9129258}, {"type": "node", "id": 3883363067, "lat": 52.3814068, "lon": 4.9131323}, {"type": "node", "id": 3883363068, "lat": 52.3814157, "lon": 4.913208}, {"type": "node", "id": 3890849130, "lat": 52.3553295, "lon": 4.9121181}, {"type": "node", "id": 3890849131, "lat": 52.3546805, "lon": 4.912321}, {"type": "node", "id": 3890849132, "lat": 52.3547125, "lon": 4.9126021}, {"type": "node", "id": 3890849133, "lat": 52.3548707, "lon": 4.9126901}, {"type": "node", "id": 3890849134, "lat": 52.3549151, "lon": 4.9130997}, {"type": "node", "id": 3890849135, "lat": 52.3553003, "lon": 4.9129876}, {"type": "node", "id": 3890849136, "lat": 52.3552743, "lon": 4.9127475}, {"type": "node", "id": 4007083453, "lat": 52.3636989, "lon": 4.8705277, "tags": {"addr:city": "Amsterdam", "addr:housenumber": "54", "addr:street": "Marius van Bouwdijk Bastiaansestraat", "amenity": "school", "name": "Theaterkamer", "website": "https://detheaterkamer.nl"}}, {"type": "node", "id": 4215920907, "lat": 52.406329, "lon": 4.9163547}, {"type": "node", "id": 4215920947, "lat": 52.4064447, "lon": 4.9164944}, {"type": "node", "id": 4215920948, "lat": 52.4064492, "lon": 4.9160887}, {"type": "node", "id": 4215920958, "lat": 52.4064865, "lon": 4.9164019}, {"type": "node", "id": 4215920982, "lat": 52.4065574, "lon": 4.9166306}, {"type": "node", "id": 4215920997, "lat": 52.4065992, "lon": 4.9165382}, {"type": "node", "id": 4215921033, "lat": 52.406746, "lon": 4.9168585}, {"type": "node", "id": 4215921035, "lat": 52.4067496, "lon": 4.9166925}, {"type": "node", "id": 4215921037, "lat": 52.4067702, "lon": 4.916647}, {"type": "node", "id": 4215921039, "lat": 52.4067879, "lon": 4.9167658}, {"type": "node", "id": 4215921043, "lat": 52.4068243, "lon": 4.9166853}, {"type": "node", "id": 4215921045, "lat": 52.4068662, "lon": 4.9165926}, {"type": "node", "id": 4268735860, "lat": 52.3748693, "lon": 4.8651885}, {"type": "node", "id": 4268735861, "lat": 52.374891, "lon": 4.8653454}, {"type": "node", "id": 4268735862, "lat": 52.3749013, "lon": 4.865436}, {"type": "node", "id": 4268735865, "lat": 52.3752177, "lon": 4.8662925}, {"type": "node", "id": 4268735866, "lat": 52.375344, "lon": 4.8651811}, {"type": "node", "id": 4268735867, "lat": 52.3754327, "lon": 4.8662265}, {"type": "node", "id": 4337412612, "lat": 52.3941814, "lon": 4.8730885, "tags": {"addr:city": "Amsterdam", "addr:housenumber": "4", "addr:postcode": "1013ZZ", "addr:street": "Archangelweg", "amenity": "school", "contact:website": "https://www.het4egymnasium.nl/home/contact", "name": "Het 4e Gymnasium", "source": "BAG", "source:date": "2016-08-05", "website": "https://www.het4egymnasium.nl/", "wikidata": "Q2076563", "wikimedia_commons": "Category:4e Gymnasium", "wikipedia": "nl:Het 4e Gymnasium"}}, {"type": "node", "id": 4350036290, "lat": 52.3713958, "lon": 4.9690576, "tags": {"addr:city": "Amsterdam", "addr:housenumber": "1", "addr:postcode": "1095MM", "addr:street": "Geertje Wielemaplein", "amenity": "school", "isced:level": "2;3", "name": "ALASCA", "source": "BAG", "source:date": "2017-05-09", "website": "https://www.alasca.espritscholen.nl"}}, {"type": "node", "id": 4362812618, "lat": 52.3560446, "lon": 4.882461, "tags": {"addr:city": "Amsterdam", "addr:housenumber": "7", "addr:postcode": "1071DZ", "addr:street": "Gabri\u00ebl Metsustraat", "alt_name": "Dansacademie Lucia Marthas", "amenity": "school", "name": "Lucia Marthas Institute for Performing Arts", "source": "BAG", "source:date": "2014-03-24", "website": "https://www.luciamarthas.nl/"}}, {"type": "node", "id": 4416679323, "lat": 52.3556043, "lon": 4.8818103}, {"type": "node", "id": 4416679326, "lat": 52.3645515, "lon": 4.8654791}, {"type": "node", "id": 4416679327, "lat": 52.3557313, "lon": 4.8824601}, {"type": "node", "id": 4416679337, "lat": 52.355253, "lon": 4.8822322}, {"type": "node", "id": 4416679340, "lat": 52.3558078, "lon": 4.8820386}, {"type": "node", "id": 4416679345, "lat": 52.3555842, "lon": 4.8819269}, {"type": "node", "id": 4416679355, "lat": 52.3648141, "lon": 4.86557}, {"type": "node", "id": 4416679360, "lat": 52.3553529, "lon": 4.8816873}, {"type": "node", "id": 4418253487, "lat": 52.3771311, "lon": 4.8805672}, {"type": "node", "id": 4418253488, "lat": 52.3771134, "lon": 4.8805512}, {"type": "node", "id": 4418253589, "lat": 52.3770441, "lon": 4.8811558}, {"type": "node", "id": 4418253590, "lat": 52.3771201, "lon": 4.8805513}, {"type": "node", "id": 4418253592, "lat": 52.3771351, "lon": 4.8805864}, {"type": "node", "id": 4418253594, "lat": 52.3770008, "lon": 4.8811816}, {"type": "node", "id": 4418253599, "lat": 52.3771268, "lon": 4.8805566}, {"type": "node", "id": 4438132369, "lat": 52.3798405, "lon": 4.9217425}, {"type": "node", "id": 4446826076, "lat": 52.3661817, "lon": 4.9058942, "tags": {"addr:city": "Amsterdam", "addr:housenumber": "1-2-3", "addr:postcode": "1018TZ", "addr:street": "Hortusplantsoen", "amenity": "school", "check_date": "2024-10-26", "name": "Reinwardt Academie", "operator": "AHK", "website": "https://ahk.nl/reinwardt", "wikidata": "Q2072098", "wikipedia": "nl:Reinwardt Academie"}}, {"type": "node", "id": 4519163053, "lat": 52.4200418, "lon": 4.8906315}, {"type": "node", "id": 4519163058, "lat": 52.4199952, "lon": 4.8899317}, {"type": "node", "id": 4519163067, "lat": 52.4197274, "lon": 4.8899577}, {"type": "node", "id": 4519163068, "lat": 52.4201784, "lon": 4.8904843}, {"type": "node", "id": 4519163069, "lat": 52.4197447, "lon": 4.8906457}, {"type": "node", "id": 4519163070, "lat": 52.4201658, "lon": 4.8899781}, {"type": "node", "id": 4519211051, "lat": 52.4199461, "lon": 4.8921043}, {"type": "node", "id": 4519211052, "lat": 52.4195666, "lon": 4.892056}, {"type": "node", "id": 4519211053, "lat": 52.4197138, "lon": 4.8918844}, {"type": "node", "id": 4519211054, "lat": 52.4196715, "lon": 4.8917551}, {"type": "node", "id": 4519211055, "lat": 52.4213758, "lon": 4.8891539}, {"type": "node", "id": 4519211056, "lat": 52.4213823, "lon": 4.8901302}, {"type": "node", "id": 4519211057, "lat": 52.4197696, "lon": 4.8915241}, {"type": "node", "id": 4519211058, "lat": 52.420041, "lon": 4.8919166}, {"type": "node", "id": 4519211059, "lat": 52.419969, "lon": 4.8915357}, {"type": "node", "id": 4519211060, "lat": 52.4201031, "lon": 4.8916322}, {"type": "node", "id": 4519211061, "lat": 52.4195895, "lon": 4.8922921}, {"type": "node", "id": 4519211062, "lat": 52.4197564, "lon": 4.8922545}, {"type": "node", "id": 4519211063, "lat": 52.4209838, "lon": 4.8893666}, {"type": "node", "id": 4519211064, "lat": 52.4209973, "lon": 4.8901471}, {"type": "node", "id": 4519211065, "lat": 52.4212061, "lon": 4.8891525}, {"type": "node", "id": 4548142613, "lat": 52.3750918, "lon": 4.8651865}, {"type": "node", "id": 4548142615, "lat": 52.3754373, "lon": 4.8659992}, {"type": "node", "id": 4571940319, "lat": 52.3616473, "lon": 4.8900889, "tags": {"addr:city": "Amsterdam", "addr:housenumber": "50-52", "addr:postcode": "1017TP", "addr:street": "Eerste Weteringdwarsstraat", "amenity": "school", "name": "Instituto Latino", "office": "educational_institution", "opening_hours": "09:00-22:00", "phone": "+31 20 337 0631", "website": "https://www.ilatino.nl/"}}, {"type": "node", "id": 4683710142, "lat": 52.4076294, "lon": 4.9036854}, {"type": "node", "id": 4683710152, "lat": 52.4081625, "lon": 4.9026918}, {"type": "node", "id": 4683710155, "lat": 52.4075628, "lon": 4.9024316}, {"type": "node", "id": 4721036192, "lat": 52.4380279, "lon": 4.8691758}, {"type": "node", "id": 4721036202, "lat": 52.4374357, "lon": 4.8686063}, {"type": "node", "id": 4721036207, "lat": 52.4376324, "lon": 4.8694299}, {"type": "node", "id": 4721036209, "lat": 52.4378313, "lon": 4.8683521}, {"type": "node", "id": 4723297190, "lat": 52.4416604, "lon": 4.8785395}, {"type": "node", "id": 4723297195, "lat": 52.44148, "lon": 4.8780271}, {"type": "node", "id": 4723297198, "lat": 52.4410883, "lon": 4.878725}, {"type": "node", "id": 4723297207, "lat": 52.4415331, "lon": 4.878044}, {"type": "node", "id": 4723297211, "lat": 52.4415776, "lon": 4.8781629}, {"type": "node", "id": 4723297213, "lat": 52.441144, "lon": 4.87828}, {"type": "node", "id": 4723297214, "lat": 52.4410196, "lon": 4.8787104}, {"type": "node", "id": 4723297216, "lat": 52.4411389, "lon": 4.8789064}, {"type": "node", "id": 4723297220, "lat": 52.440951, "lon": 4.8785053}, {"type": "node", "id": 4726162618, "lat": 52.3619846, "lon": 4.8529792}, {"type": "node", "id": 4735042843, "lat": 52.4266654, "lon": 4.9135367}, {"type": "node", "id": 4735042844, "lat": 52.4265867, "lon": 4.9095917}, {"type": "node", "id": 4735042849, "lat": 52.4265372, "lon": 4.9096674}, {"type": "node", "id": 4744023366, "lat": 52.3812447, "lon": 4.913514, "tags": {"artwork_type": "sculpture", "tourism": "artwork"}}, {"type": "node", "id": 4798937758, "lat": 52.3925618, "lon": 4.8786306}, {"type": "node", "id": 4798937759, "lat": 52.3927346, "lon": 4.8779544}, {"type": "node", "id": 4798937760, "lat": 52.3930069, "lon": 4.878467}, {"type": "node", "id": 4798937761, "lat": 52.3925985, "lon": 4.8790365}, {"type": "node", "id": 4888232708, "lat": 52.4267558, "lon": 4.908587}, {"type": "node", "id": 4888232712, "lat": 52.4266264, "lon": 4.909388}, {"type": "node", "id": 4924587438, "lat": 52.3924589, "lon": 4.8787723}, {"type": "node", "id": 5048385359, "lat": 52.3633512, "lon": 4.9102587}, {"type": "node", "id": 5048385360, "lat": 52.3637437, "lon": 4.9101194}, {"type": "node", "id": 5048385361, "lat": 52.3635245, "lon": 4.9102476}, {"type": "node", "id": 5048385362, "lat": 52.3631675, "lon": 4.9092666}, {"type": "node", "id": 5048385363, "lat": 52.3635467, "lon": 4.9090803}, {"type": "node", "id": 5349308933, "lat": 52.3922701, "lon": 4.9593535}, {"type": "node", "id": 5349308934, "lat": 52.3921256, "lon": 4.9587876}, {"type": "node", "id": 5349308935, "lat": 52.3915221, "lon": 4.9592194}, {"type": "node", "id": 5349308936, "lat": 52.3916661, "lon": 4.9598068}, {"type": "node", "id": 5421106047, "lat": 52.4192998, "lon": 4.9014209}, {"type": "node", "id": 5421106048, "lat": 52.419135, "lon": 4.9014129}, {"type": "node", "id": 5421106049, "lat": 52.4186066, "lon": 4.9031908}, {"type": "node", "id": 5421106050, "lat": 52.4186065, "lon": 4.9033307}, {"type": "node", "id": 5421106051, "lat": 52.4186335, "lon": 4.903363}, {"type": "node", "id": 5421106052, "lat": 52.4188951, "lon": 4.9033967}, {"type": "node", "id": 5421106053, "lat": 52.4192362, "lon": 4.9019718}, {"type": "node", "id": 5421106054, "lat": 52.4192477, "lon": 4.9014138}, {"type": "node", "id": 5508364459, "lat": 52.4081547, "lon": 4.9202621}, {"type": "node", "id": 5508364460, "lat": 52.4080706, "lon": 4.9204419}, {"type": "node", "id": 5508364461, "lat": 52.4074292, "lon": 4.9217388}, {"type": "node", "id": 5508364462, "lat": 52.4073559, "lon": 4.9217955}, {"type": "node", "id": 5508364463, "lat": 52.4070489, "lon": 4.9214278}, {"type": "node", "id": 5508364464, "lat": 52.4077515, "lon": 4.9199116}, {"type": "node", "id": 5508364465, "lat": 52.4078341, "lon": 4.9197411}, {"type": "node", "id": 5508364466, "lat": 52.4079424, "lon": 4.9197925}, {"type": "node", "id": 5508364467, "lat": 52.4080407, "lon": 4.9196033}, {"type": "node", "id": 5508364468, "lat": 52.4082529, "lon": 4.9195006}, {"type": "node", "id": 5508364469, "lat": 52.4076983, "lon": 4.9199775}, {"type": "node", "id": 5508364470, "lat": 52.4113317, "lon": 4.9221343}, {"type": "node", "id": 5508364471, "lat": 52.4109885, "lon": 4.9229632}, {"type": "node", "id": 5508364472, "lat": 52.4106481, "lon": 4.9225172}, {"type": "node", "id": 5508364473, "lat": 52.4106039, "lon": 4.9225966}, {"type": "node", "id": 5508364474, "lat": 52.4104244, "lon": 4.9224075}, {"type": "node", "id": 5508364475, "lat": 52.4104615, "lon": 4.9222837}, {"type": "node", "id": 5508364476, "lat": 52.4102934, "lon": 4.9220899}, {"type": "node", "id": 5508364477, "lat": 52.4102492, "lon": 4.922202}, {"type": "node", "id": 5508364478, "lat": 52.410141, "lon": 4.9220619}, {"type": "node", "id": 5508364479, "lat": 52.4102905, "lon": 4.9217187}, {"type": "node", "id": 5508364480, "lat": 52.410366, "lon": 4.9217957}, {"type": "node", "id": 5508364481, "lat": 52.4104686, "lon": 4.9215576}, {"type": "node", "id": 5508364482, "lat": 52.4104073, "lon": 4.9214455}, {"type": "node", "id": 5508364483, "lat": 52.4105697, "lon": 4.9210695}, {"type": "node", "id": 5508364484, "lat": 52.4111922, "lon": 4.9218121}, {"type": "node", "id": 5508364485, "lat": 52.411148, "lon": 4.9219148}, {"type": "node", "id": 5649943352, "lat": 52.4373248, "lon": 4.8436051, "tags": {"addr:city": "Zaandam", "addr:housenumber": "21", "addr:postcode": "1504AN", "addr:street": "Blooksven", "amenity": "school", "name": "Praktijkschool De Faam", "phone": "+31 75 631 2676", "source": "BAG", "source:date": "2018-05-08"}}, {"type": "node", "id": 5721905423, "lat": 52.3799449, "lon": 4.9227025}, {"type": "node", "id": 5737703285, "lat": 52.4017474, "lon": 4.9306604, "tags": {"barrier": "gate"}}, {"type": "node", "id": 5808390185, "lat": 52.3815329, "lon": 4.8510078}, {"type": "node", "id": 5808390187, "lat": 52.3818923, "lon": 4.8509894}, {"type": "node", "id": 5808390188, "lat": 52.381967, "lon": 4.8508511}, {"type": "node", "id": 5808390189, "lat": 52.3818819, "lon": 4.8506496}, {"type": "node", "id": 5808390190, "lat": 52.3818536, "lon": 4.850528}, {"type": "node", "id": 5808390193, "lat": 52.3818037, "lon": 4.8503265}, {"type": "node", "id": 5808390194, "lat": 52.3817812, "lon": 4.8501677}, {"type": "node", "id": 5808390195, "lat": 52.3815206, "lon": 4.8501884}, {"type": "node", "id": 5808390198, "lat": 52.3822711, "lon": 4.8482771}, {"type": "node", "id": 5808390199, "lat": 52.3828523, "lon": 4.8482417}, {"type": "node", "id": 5808390200, "lat": 52.3828423, "lon": 4.8470647}, {"type": "node", "id": 5808390201, "lat": 52.3822673, "lon": 4.8470919}, {"type": "node", "id": 5808390202, "lat": 52.3834256, "lon": 4.8504229}, {"type": "node", "id": 5808390203, "lat": 52.3836213, "lon": 4.8506486}, {"type": "node", "id": 5808390204, "lat": 52.3839699, "lon": 4.8498092}, {"type": "node", "id": 5808390205, "lat": 52.3837942, "lon": 4.8496073}, {"type": "node", "id": 5808395119, "lat": 52.3827343, "lon": 4.8518933}, {"type": "node", "id": 5808395120, "lat": 52.3826584, "lon": 4.8520341}, {"type": "node", "id": 5808395121, "lat": 52.3827377, "lon": 4.8521435}, {"type": "node", "id": 5808395122, "lat": 52.383229, "lon": 4.852126}, {"type": "node", "id": 5808395123, "lat": 52.3832785, "lon": 4.852123}, {"type": "node", "id": 5808395124, "lat": 52.3832782, "lon": 4.8521055}, {"type": "node", "id": 5808395125, "lat": 52.3832949, "lon": 4.852107}, {"type": "node", "id": 5808395126, "lat": 52.3832885, "lon": 4.8518428}, {"type": "node", "id": 5808395127, "lat": 52.3832157, "lon": 4.8517544}, {"type": "node", "id": 5808395128, "lat": 52.3832602, "lon": 4.8516246}, {"type": "node", "id": 5808395129, "lat": 52.3832151, "lon": 4.8515687}, {"type": "node", "id": 5808395130, "lat": 52.3831578, "lon": 4.8516985}, {"type": "node", "id": 5808395131, "lat": 52.3829566, "lon": 4.8514678}, {"type": "node", "id": 5869408105, "lat": 52.4268214, "lon": 4.9129587}, {"type": "node", "id": 5869408117, "lat": 52.4267215, "lon": 4.9136404}, {"type": "node", "id": 5869408122, "lat": 52.4272109, "lon": 4.9133774}, {"type": "node", "id": 5891849819, "lat": 52.4041811, "lon": 4.9091667, "tags": {"barrier": "gate"}}, {"type": "node", "id": 5891849820, "lat": 52.4037329, "lon": 4.9084662}, {"type": "node", "id": 5891849821, "lat": 52.4033311, "lon": 4.9096269}, {"type": "node", "id": 5891849822, "lat": 52.4038383, "lon": 4.910127}, {"type": "node", "id": 5891849823, "lat": 52.4039604, "lon": 4.9098329, "tags": {"barrier": "gate"}}, {"type": "node", "id": 5891849833, "lat": 52.3953986, "lon": 4.925694}, {"type": "node", "id": 5891849859, "lat": 52.3958964, "lon": 4.9260947}, {"type": "node", "id": 5891849860, "lat": 52.3958923, "lon": 4.9260639}, {"type": "node", "id": 5891849861, "lat": 52.3958849, "lon": 4.9260317}, {"type": "node", "id": 5922532239, "lat": 52.3790534, "lon": 4.8402038, "tags": {"amenity": "school", "name": "Openbare Basisschool (OBS) Bos en Lommer", "website": "https://obsbosenlommer.nl"}}, {"type": "node", "id": 6066644523, "lat": 52.4266583, "lon": 4.9085292}, {"type": "node", "id": 6071458150, "lat": 52.3617477, "lon": 4.9182722, "tags": {"amenity": "school", "check_date": "2025-04-14", "name": "Metis Montessori Lyceum", "operator": "Cosmicus", "religion": "muslim", "short_name": "MML", "website": "https://www.hetmml.nl/", "wheelchair": "limited"}}, {"type": "node", "id": 6071736339, "lat": 52.392187, "lon": 4.9059674}, {"type": "node", "id": 6071736340, "lat": 52.3917753, "lon": 4.9066283}, {"type": "node", "id": 6071736341, "lat": 52.3917299, "lon": 4.9065566}, {"type": "node", "id": 6071736342, "lat": 52.3913304, "lon": 4.9061784}, {"type": "node", "id": 6071736343, "lat": 52.3915432, "lon": 4.9053255}, {"type": "node", "id": 6071736344, "lat": 52.3917462, "lon": 4.9052343}, {"type": "node", "id": 6071736345, "lat": 52.3918237, "lon": 4.9056079}, {"type": "node", "id": 6113362549, "lat": 52.3950434, "lon": 4.9274023}, {"type": "node", "id": 6206311603, "lat": 52.3961184, "lon": 4.9261984}, {"type": "node", "id": 6206311604, "lat": 52.3969179, "lon": 4.9269718}, {"type": "node", "id": 6206311605, "lat": 52.3967957, "lon": 4.9273479}, {"type": "node", "id": 6283385960, "lat": 52.3573577, "lon": 4.9322377, "tags": {"barrier": "gate", "foot": "yes"}}, {"type": "node", "id": 6283385961, "lat": 52.3576389, "lon": 4.9320744, "tags": {"barrier": "gate", "foot": "yes"}}, {"type": "node", "id": 6283558676, "lat": 52.3849188, "lon": 4.8768329}, {"type": "node", "id": 6283558677, "lat": 52.3848754, "lon": 4.876857}, {"type": "node", "id": 6283558678, "lat": 52.3848443, "lon": 4.8768892}, {"type": "node", "id": 6283558679, "lat": 52.3846715, "lon": 4.8771923}, {"type": "node", "id": 6283558680, "lat": 52.3846519, "lon": 4.877226}, {"type": "node", "id": 6283558681, "lat": 52.3847329, "lon": 4.8773541}, {"type": "node", "id": 6283558682, "lat": 52.3846785, "lon": 4.8774444}, {"type": "node", "id": 6283558683, "lat": 52.3851522, "lon": 4.8775376}, {"type": "node", "id": 6805001523, "lat": 52.3573759, "lon": 4.9323211}, {"type": "node", "id": 6805001525, "lat": 52.3576569, "lon": 4.9321617}, {"type": "node", "id": 6805001526, "lat": 52.3575023, "lon": 4.9322473}, {"type": "node", "id": 6805001527, "lat": 52.3575917, "lon": 4.9326577}, {"type": "node", "id": 6805001528, "lat": 52.3574654, "lon": 4.9327315}, {"type": "node", "id": 6805001529, "lat": 52.3573401, "lon": 4.932157}, {"type": "node", "id": 6805001532, "lat": 52.3571307, "lon": 4.9312751}, {"type": "node", "id": 6805001533, "lat": 52.3570092, "lon": 4.9313439}, {"type": "node", "id": 6815863062, "lat": 52.4294648, "lon": 4.9096609}, {"type": "node", "id": 6815863066, "lat": 52.4296609, "lon": 4.9099339}, {"type": "node", "id": 6815868692, "lat": 52.4294933, "lon": 4.9095058}, {"type": "node", "id": 6815868693, "lat": 52.4294677, "lon": 4.9096448}, {"type": "node", "id": 6815868694, "lat": 52.4296507, "lon": 4.9099268}, {"type": "node", "id": 6815868700, "lat": 52.4299569, "lon": 4.91022}, {"type": "node", "id": 6815868702, "lat": 52.4301089, "lon": 4.910315}, {"type": "node", "id": 6815868704, "lat": 52.4299464, "lon": 4.9102053, "tags": {"barrier": "gate"}}, {"type": "node", "id": 6903237814, "lat": 52.380141, "lon": 4.9229863}, {"type": "node", "id": 6903237816, "lat": 52.380183, "lon": 4.9227252}, {"type": "node", "id": 6903237817, "lat": 52.3800416, "lon": 4.9214241}, {"type": "node", "id": 6903237818, "lat": 52.3798131, "lon": 4.9214907}, {"type": "node", "id": 6903237819, "lat": 52.3799677, "lon": 4.9229115}, {"type": "node", "id": 6923617796, "lat": 52.4047203, "lon": 4.9018612, "tags": {"addr:city": "Amsterdam", "addr:housenumber": "2", "addr:postcode": "1036LM", "addr:street": "Tuinderijlaan", "amenity": "school", "name": "Klein Amsterdam", "source": "BAG", "source:date": "2019-10-28", "website": "https://kleinamsterdam.school/"}}, {"type": "node", "id": 6935840090, "lat": 52.4340342, "lon": 4.84036}, {"type": "node", "id": 6935840091, "lat": 52.4344514, "lon": 4.8401832}, {"type": "node", "id": 6935840092, "lat": 52.4343752, "lon": 4.8397303}, {"type": "node", "id": 6935840093, "lat": 52.434446, "lon": 4.8396649}, {"type": "node", "id": 6935840094, "lat": 52.4343421, "lon": 4.8393284}, {"type": "node", "id": 6935840095, "lat": 52.4342626, "lon": 4.8393938}, {"type": "node", "id": 6935840096, "lat": 52.4342655, "lon": 4.8394854}, {"type": "node", "id": 6935840097, "lat": 52.4340894, "lon": 4.8396353}, {"type": "node", "id": 6935840098, "lat": 52.4340505, "lon": 4.839572}, {"type": "node", "id": 6935840099, "lat": 52.4338855, "lon": 4.8397155}, {"type": "node", "id": 6935840100, "lat": 52.4339642, "lon": 4.8399664}, {"type": "node", "id": 6935840101, "lat": 52.436601, "lon": 4.8431534}, {"type": "node", "id": 6935840102, "lat": 52.4371864, "lon": 4.8427224}, {"type": "node", "id": 6935840103, "lat": 52.4370528, "lon": 4.8444288}, {"type": "node", "id": 6935840104, "lat": 52.4369918, "lon": 4.8442196}, {"type": "node", "id": 6935840105, "lat": 52.4368896, "lon": 4.8442894}, {"type": "node", "id": 6935840106, "lat": 52.4375518, "lon": 4.8440576}, {"type": "node", "id": 7099916984, "lat": 52.4338798, "lon": 4.845066}, {"type": "node", "id": 7099942087, "lat": 52.4341655, "lon": 4.8461173}, {"type": "node", "id": 7099942088, "lat": 52.4345488, "lon": 4.8458456}, {"type": "node", "id": 7099942089, "lat": 52.4323884, "lon": 4.8472708}, {"type": "node", "id": 7099942090, "lat": 52.4317604, "lon": 4.8474559}, {"type": "node", "id": 7099942091, "lat": 52.43187, "lon": 4.8484939}, {"type": "node", "id": 7099942092, "lat": 52.4317555, "lon": 4.8485288}, {"type": "node", "id": 7099942093, "lat": 52.4317817, "lon": 4.8487782}, {"type": "node", "id": 7099942094, "lat": 52.4320352, "lon": 4.8487004}, {"type": "node", "id": 7099942095, "lat": 52.4320482, "lon": 4.8488024}, {"type": "node", "id": 7099942096, "lat": 52.4323606, "lon": 4.8486978}, {"type": "node", "id": 7099942097, "lat": 52.4322952, "lon": 4.8480674}, {"type": "node", "id": 7099942098, "lat": 52.4324702, "lon": 4.8480165}, {"type": "node", "id": 7099942099, "lat": 52.436806, "lon": 4.8444216}, {"type": "node", "id": 7099942100, "lat": 52.4370456, "lon": 4.8452846}, {"type": "node", "id": 7099942101, "lat": 52.436555, "lon": 4.8456494}, {"type": "node", "id": 7099942102, "lat": 52.4389203, "lon": 4.8425367}, {"type": "node", "id": 7099942103, "lat": 52.4391925, "lon": 4.8435506}, {"type": "node", "id": 7099942104, "lat": 52.4392604, "lon": 4.8435023}, {"type": "node", "id": 7099942105, "lat": 52.4392882, "lon": 4.8436083}, {"type": "node", "id": 7099942106, "lat": 52.4397125, "lon": 4.8432824}, {"type": "node", "id": 7099942107, "lat": 52.4396708, "lon": 4.8431335}, {"type": "node", "id": 7099942108, "lat": 52.4396503, "lon": 4.8431456}, {"type": "node", "id": 7099942109, "lat": 52.4395056, "lon": 4.842589}, {"type": "node", "id": 7099942110, "lat": 52.4396503, "lon": 4.8424858}, {"type": "node", "id": 7099942111, "lat": 52.4395923, "lon": 4.8422712}, {"type": "node", "id": 7099942112, "lat": 52.439423, "lon": 4.8423986}, {"type": "node", "id": 7099942113, "lat": 52.4393642, "lon": 4.8424455}, {"type": "node", "id": 7099942114, "lat": 52.4393094, "lon": 4.842247}, {"type": "node", "id": 7100031300, "lat": 52.4367829, "lon": 4.8430195}, {"type": "node", "id": 7100031307, "lat": 52.4369776, "lon": 4.8428761}, {"type": "node", "id": 7100031310, "lat": 52.4369305, "lon": 4.8429108}, {"type": "node", "id": 7100031311, "lat": 52.4371087, "lon": 4.8427796}, {"type": "node", "id": 7139868044, "lat": 52.4323105, "lon": 4.848063}, {"type": "node", "id": 7243279752, "lat": 52.3947039, "lon": 4.9509113}, {"type": "node", "id": 7243295286, "lat": 52.3949997, "lon": 4.9499086}, {"type": "node", "id": 7243295287, "lat": 52.3946613, "lon": 4.9510556}, {"type": "node", "id": 7243295288, "lat": 52.3948322, "lon": 4.9515746}, {"type": "node", "id": 7243295289, "lat": 52.3948777, "lon": 4.951614}, {"type": "node", "id": 7243295290, "lat": 52.3949767, "lon": 4.9512848}, {"type": "node", "id": 7243295291, "lat": 52.3950918, "lon": 4.9510952}, {"type": "node", "id": 7243295308, "lat": 52.3950205, "lon": 4.9512254}, {"type": "node", "id": 7243295314, "lat": 52.3952046, "lon": 4.9507349}, {"type": "node", "id": 7243295315, "lat": 52.3952139, "lon": 4.9505727}, {"type": "node", "id": 7243307505, "lat": 52.3950141, "lon": 4.9512329}, {"type": "node", "id": 7243307512, "lat": 52.3950248, "lon": 4.9512176}, {"type": "node", "id": 7243307519, "lat": 52.3951435, "lon": 4.9509412}, {"type": "node", "id": 7259618640, "lat": 52.4141227, "lon": 4.8863157}, {"type": "node", "id": 7259618641, "lat": 52.4136455, "lon": 4.8863892}, {"type": "node", "id": 7259618642, "lat": 52.4135027, "lon": 4.8868339}, {"type": "node", "id": 7259618643, "lat": 52.4135476, "lon": 4.8870613}, {"type": "node", "id": 7259618644, "lat": 52.4141839, "lon": 4.8879039}, {"type": "node", "id": 7259618645, "lat": 52.4144864, "lon": 4.8875499}, {"type": "node", "id": 7259618646, "lat": 52.4144709, "lon": 4.8868505}, {"type": "node", "id": 7259618647, "lat": 52.4142328, "lon": 4.8869008}, {"type": "node", "id": 7259618648, "lat": 52.4142165, "lon": 4.8866132}, {"type": "node", "id": 7259618649, "lat": 52.4141431, "lon": 4.88663}, {"type": "node", "id": 7323492392, "lat": 52.3719954, "lon": 4.9680779, "tags": {"addr:city": "Amsterdam", "addr:housenumber": "116", "addr:postcode": "1095MK", "addr:street": "Foekje Dillemastraat", "amenity": "school", "isced:level": "2", "name": "Cburg college", "source": "BAG", "source:date": "2020-03-23"}}, {"type": "node", "id": 7393583981, "lat": 52.4368965, "lon": 4.8442847}, {"type": "node", "id": 7629499604, "lat": 52.3800816, "lon": 4.8847404, "tags": {"addr:city": "Amsterdam", "addr:housenumber": "93", "addr:postcode": "1015KD", "addr:street": "Lindengracht", "amenity": "school", "name": "Theo Thijssen School", "phone": "+31 20 626 6674", "website": "https://theothijssenschoolamsterdam.nl"}}, {"type": "node", "id": 7884483093, "lat": 52.3550855, "lon": 4.9130501}, {"type": "node", "id": 7884483094, "lat": 52.3549369, "lon": 4.9130933}, {"type": "node", "id": 7932714584, "lat": 52.3896622, "lon": 4.9474691}, {"type": "node", "id": 7932714585, "lat": 52.3894406, "lon": 4.947232}, {"type": "node", "id": 7932714586, "lat": 52.3893993, "lon": 4.9473698}, {"type": "node", "id": 8396884648, "lat": 52.3732363, "lon": 4.9024791}, {"type": "node", "id": 8396884649, "lat": 52.373057, "lon": 4.9022097}, {"type": "node", "id": 8396884650, "lat": 52.3730562, "lon": 4.9021625}, {"type": "node", "id": 8396884651, "lat": 52.3732352, "lon": 4.9018442}, {"type": "node", "id": 8396884652, "lat": 52.3733324, "lon": 4.9019715}, {"type": "node", "id": 8396884653, "lat": 52.3733271, "lon": 4.9019835}, {"type": "node", "id": 8396884654, "lat": 52.3733542, "lon": 4.9020217}, {"type": "node", "id": 8396884655, "lat": 52.3733566, "lon": 4.9020174}, {"type": "node", "id": 8396884656, "lat": 52.3734013, "lon": 4.9020798}, {"type": "node", "id": 8396884657, "lat": 52.3733422, "lon": 4.9021826}, {"type": "node", "id": 8396884658, "lat": 52.3733445, "lon": 4.9022425}, {"type": "node", "id": 8396884659, "lat": 52.373354, "lon": 4.9022561}, {"type": "node", "id": 8396884660, "lat": 52.3733163, "lon": 4.9023264}, {"type": "node", "id": 8396884661, "lat": 52.3734147, "lon": 4.9024738}, {"type": "node", "id": 8396884662, "lat": 52.3733768, "lon": 4.9025398}, {"type": "node", "id": 8396884663, "lat": 52.3733751, "lon": 4.9025554}, {"type": "node", "id": 8396884664, "lat": 52.3733383, "lon": 4.9026198}, {"type": "node", "id": 8396884665, "lat": 52.3733107, "lon": 4.902624}, {"type": "node", "id": 8396884666, "lat": 52.3732714, "lon": 4.902564}, {"type": "node", "id": 8396884667, "lat": 52.3732715, "lon": 4.9025421}, {"type": "node", "id": 8396884668, "lat": 52.3732339, "lon": 4.9024841}, {"type": "node", "id": 8396898201, "lat": 52.3706716, "lon": 4.9039101}, {"type": "node", "id": 8396898202, "lat": 52.3706667, "lon": 4.9039643}, {"type": "node", "id": 8396898203, "lat": 52.3703218, "lon": 4.904352}, {"type": "node", "id": 8396898204, "lat": 52.3702041, "lon": 4.904074}, {"type": "node", "id": 8396898205, "lat": 52.3703523, "lon": 4.903904}, {"type": "node", "id": 8396898206, "lat": 52.3703621, "lon": 4.9039242}, {"type": "node", "id": 8443710974, "lat": 52.3959155, "lon": 4.8484388, "tags": {"door": "overhead", "entrance": "yes"}}, {"type": "node", "id": 8443710976, "lat": 52.3959047, "lon": 4.8488617, "tags": {"entrance": "main"}}, {"type": "node", "id": 8443711001, "lat": 52.3956552, "lon": 4.848908}, {"type": "node", "id": 8443711003, "lat": 52.395633, "lon": 4.8485767}, {"type": "node", "id": 8443739454, "lat": 52.3957048, "lon": 4.8489058, "tags": {"entrance": "yes"}}, {"type": "node", "id": 8443739494, "lat": 52.3956714, "lon": 4.8489073, "tags": {"door": "overhead", "entrance": "yes"}}, {"type": "node", "id": 8443739509, "lat": 52.3956883, "lon": 4.8489066}, {"type": "node", "id": 8443739514, "lat": 52.3956953, "lon": 4.8489063}, {"type": "node", "id": 8443739525, "lat": 52.3957155, "lon": 4.8489054}, {"type": "node", "id": 8443739526, "lat": 52.395887, "lon": 4.8488921}, {"type": "node", "id": 8443739560, "lat": 52.3959169, "lon": 4.8485245}, {"type": "node", "id": 8443739561, "lat": 52.3959161, "lon": 4.8484722}, {"type": "node", "id": 8443739589, "lat": 52.3956323, "lon": 4.8485264}, {"type": "node", "id": 8443739595, "lat": 52.395915, "lon": 4.8484083}, {"type": "node", "id": 8446946659, "lat": 52.3956327, "lon": 4.8485567, "tags": {"entrance": "emergency"}}, {"type": "node", "id": 8521991001, "lat": 52.3612999, "lon": 4.9820147}, {"type": "node", "id": 8521991002, "lat": 52.3607521, "lon": 4.9826084}, {"type": "node", "id": 8521991003, "lat": 52.3609189, "lon": 4.9830097}, {"type": "node", "id": 8521991004, "lat": 52.3611623, "lon": 4.9828015}, {"type": "node", "id": 8521991005, "lat": 52.3614954, "lon": 4.9824952}, {"type": "node", "id": 8635874487, "lat": 52.3883193, "lon": 4.9038001, "tags": {"addr:city": "Amsterdam", "addr:housenumber": "3", "addr:postcode": "1031HW", "addr:street": "Grasweg", "amenity": "school", "isced:level": "0;1", "name": "IKC Overhoeks", "opening_hours": "Mo-Fr 08:30-14:00", "phone": "+31 20 630 4770", "source": "BAG", "source:date": "2021-04-16", "website": "https://ikc-overhoeks.nl/"}}, {"type": "node", "id": 8869677850, "lat": 52.3607594, "lon": 4.843428}, {"type": "node", "id": 8869677851, "lat": 52.3607507, "lon": 4.843117}, {"type": "node", "id": 8869677852, "lat": 52.3603305, "lon": 4.8431755}, {"type": "node", "id": 8869677853, "lat": 52.3603116, "lon": 4.8434655}, {"type": "node", "id": 8869677854, "lat": 52.3604086, "lon": 4.844456}, {"type": "node", "id": 8869677855, "lat": 52.3604712, "lon": 4.8447558}, {"type": "node", "id": 8869677856, "lat": 52.3608315, "lon": 4.8447303}, {"type": "node", "id": 8869677857, "lat": 52.3608382, "lon": 4.8436783}, {"type": "node", "id": 8869677858, "lat": 52.3608234, "lon": 4.8434721}, {"type": "node", "id": 9007152624, "lat": 52.3749184, "lon": 4.8655453}, {"type": "node", "id": 9007152625, "lat": 52.3749606, "lon": 4.8657156}, {"type": "node", "id": 9007152626, "lat": 52.3749987, "lon": 4.8658785}, {"type": "node", "id": 9007152627, "lat": 52.3750314, "lon": 4.8660576}, {"type": "node", "id": 9007152628, "lat": 52.3750474, "lon": 4.8662272}, {"type": "node", "id": 9370609012, "lat": 52.362106, "lon": 4.8849272}, {"type": "node", "id": 9370609013, "lat": 52.3622937, "lon": 4.8845338}, {"type": "node", "id": 9370609014, "lat": 52.3623164, "lon": 4.8845628}, {"type": "node", "id": 9860340739, "lat": 52.4196305, "lon": 4.8919815}, {"type": "node", "id": 9860340742, "lat": 52.4197012, "lon": 4.8918991}, {"type": "node", "id": 9909564578, "lat": 52.407598, "lon": 4.9036543}, {"type": "node", "id": 9909564579, "lat": 52.4076155, "lon": 4.903688}, {"type": "node", "id": 9909564580, "lat": 52.407603, "lon": 4.9036723}, {"type": "node", "id": 9909564581, "lat": 52.4076092, "lon": 4.9036832}, {"type": "node", "id": 9909564582, "lat": 52.4075993, "lon": 4.9036644}, {"type": "node", "id": 9909564583, "lat": 52.4076236, "lon": 4.9036882}, {"type": "node", "id": 10039938976, "lat": 52.3682703, "lon": 4.9494233, "tags": {"addr:city": "Amsterdam", "addr:housenumber": "88", "addr:postcode": "1019AJ", "addr:street": "Cruquiusweg", "amenity": "school", "name": "DKC De Kleine Kapitein", "source": "BAG", "source:date": "2022-09-20", "website": "https://www.dkcdekleinekapitein.nl/"}}, {"type": "node", "id": 10076439557, "lat": 52.4270012, "lon": 4.9137928}, {"type": "node", "id": 10076439560, "lat": 52.4270833, "lon": 4.9138375}, {"type": "node", "id": 10315587400, "lat": 52.4186148, "lon": 4.9033407, "tags": {"barrier": "gate"}}, {"type": "node", "id": 10315595702, "lat": 52.4191725, "lon": 4.9014079, "tags": {"barrier": "gate"}}, {"type": "node", "id": 10315607126, "lat": 52.4191991, "lon": 4.9019413}, {"type": "node", "id": 10315607132, "lat": 52.4192825, "lon": 4.9015112}, {"type": "node", "id": 10315607133, "lat": 52.4191842, "lon": 4.9014068}, {"type": "node", "id": 10315607134, "lat": 52.419164, "lon": 4.9014086}, {"type": "node", "id": 10315607135, "lat": 52.4190447, "lon": 4.9014322}, {"type": "node", "id": 10315607136, "lat": 52.4187728, "lon": 4.9015218}, {"type": "node", "id": 10315607137, "lat": 52.4188038, "lon": 4.9020731}, {"type": "node", "id": 10315607138, "lat": 52.4187967, "lon": 4.9021043}, {"type": "node", "id": 10315607139, "lat": 52.4188263, "lon": 4.9022879}, {"type": "node", "id": 10315607140, "lat": 52.4187653, "lon": 4.9025251}, {"type": "node", "id": 10315607141, "lat": 52.4186264, "lon": 4.9032027}, {"type": "node", "id": 10315607142, "lat": 52.4186158, "lon": 4.9032504}, {"type": "node", "id": 10315607143, "lat": 52.4191978, "lon": 4.9019479}, {"type": "node", "id": 10315636699, "lat": 52.4189933, "lon": 4.9029864}, {"type": "node", "id": 10315636700, "lat": 52.4191249, "lon": 4.9024368}, {"type": "node", "id": 10315638415, "lat": 52.419182, "lon": 4.901407}, {"type": "node", "id": 10554938208, "lat": 52.4004079, "lon": 4.9261737}, {"type": "node", "id": 10554938209, "lat": 52.4001419, "lon": 4.9262425}, {"type": "node", "id": 10554938210, "lat": 52.4004064, "lon": 4.9261758}, {"type": "node", "id": 10554938211, "lat": 52.4005196, "lon": 4.9258914}, {"type": "node", "id": 10554938212, "lat": 52.4003685, "lon": 4.9260944}, {"type": "node", "id": 10554938213, "lat": 52.4001141, "lon": 4.9257507}, {"type": "node", "id": 10554938214, "lat": 52.4004851, "lon": 4.9258203}, {"type": "node", "id": 10554938217, "lat": 52.4001792, "lon": 4.925877}, {"type": "node", "id": 10554938219, "lat": 52.4002969, "lon": 4.9255033}, {"type": "node", "id": 10554938220, "lat": 52.4004019, "lon": 4.9257112}, {"type": "node", "id": 10554938221, "lat": 52.4000462, "lon": 4.9260551}, {"type": "node", "id": 10554938222, "lat": 52.4002286, "lon": 4.9264156}, {"type": "node", "id": 10554938223, "lat": 52.4005209, "lon": 4.9258897}, {"type": "node", "id": 10554938224, "lat": 52.4004185, "lon": 4.9256889}, {"type": "node", "id": 10559757668, "lat": 52.3985362, "lon": 4.9454241}, {"type": "node", "id": 10559757669, "lat": 52.3985379, "lon": 4.9466104}, {"type": "node", "id": 10559802929, "lat": 52.3989259, "lon": 4.9455186}, {"type": "node", "id": 10559802941, "lat": 52.3984271, "lon": 4.9457872}, {"type": "node", "id": 10559802942, "lat": 52.3984857, "lon": 4.9455921}, {"type": "node", "id": 10559802996, "lat": 52.3984216, "lon": 4.9465188, "tags": {"barrier": "gate"}}, {"type": "node", "id": 10559802997, "lat": 52.398592, "lon": 4.946653}, {"type": "node", "id": 10559803006, "lat": 52.3986632, "lon": 4.9464102}, {"type": "node", "id": 10559803026, "lat": 52.3986976, "lon": 4.9462953}, {"type": "node", "id": 10559803027, "lat": 52.3987391, "lon": 4.9461555}, {"type": "node", "id": 10559803030, "lat": 52.3985515, "lon": 4.9453731}, {"type": "node", "id": 10559803033, "lat": 52.3985281, "lon": 4.9454511, "tags": {"barrier": "gate"}}, {"type": "node", "id": 10559803034, "lat": 52.3985622, "lon": 4.9453373}, {"type": "node", "id": 10559803035, "lat": 52.3985555, "lon": 4.9453293}, {"type": "node", "id": 10559803036, "lat": 52.3985618, "lon": 4.9452955}, {"type": "node", "id": 10559803037, "lat": 52.3986218, "lon": 4.9450979}, {"type": "node", "id": 10559803038, "lat": 52.3987494, "lon": 4.945233}, {"type": "node", "id": 10559803039, "lat": 52.3987121, "lon": 4.9453434}, {"type": "node", "id": 10559803053, "lat": 52.3988043, "lon": 4.9454192}, {"type": "node", "id": 10559803056, "lat": 52.3988082, "lon": 4.9454218}, {"type": "node", "id": 10559803057, "lat": 52.3988714, "lon": 4.9454738}, {"type": "node", "id": 10559803060, "lat": 52.3989028, "lon": 4.9456033}, {"type": "node", "id": 10559803075, "lat": 52.3987973, "lon": 4.9459594}, {"type": "node", "id": 10559803076, "lat": 52.3988531, "lon": 4.9457656}, {"type": "node", "id": 10583888700, "lat": 52.3985196, "lon": 4.9454795}, {"type": "node", "id": 10587771606, "lat": 52.3619694, "lon": 4.8525579}, {"type": "node", "id": 10587771607, "lat": 52.3619668, "lon": 4.8525543}, {"type": "node", "id": 10587771608, "lat": 52.3619651, "lon": 4.8525495}, {"type": "node", "id": 10587771609, "lat": 52.3619645, "lon": 4.8525441}, {"type": "node", "id": 10587771610, "lat": 52.3619649, "lon": 4.8525387}, {"type": "node", "id": 10587771611, "lat": 52.3619665, "lon": 4.8525338}, {"type": "node", "id": 10587771612, "lat": 52.3619689, "lon": 4.85253}, {"type": "node", "id": 10587771613, "lat": 52.3619701, "lon": 4.8526671}, {"type": "node", "id": 10587771614, "lat": 52.3619677, "lon": 4.8526635}, {"type": "node", "id": 10587771615, "lat": 52.3619661, "lon": 4.8526589}, {"type": "node", "id": 10587771616, "lat": 52.3619661, "lon": 4.8526484}, {"type": "node", "id": 10587771617, "lat": 52.3619676, "lon": 4.8526437}, {"type": "node", "id": 10587771618, "lat": 52.36197, "lon": 4.8526401}, {"type": "node", "id": 10587771619, "lat": 52.361972, "lon": 4.8525277}, {"type": "node", "id": 10587771620, "lat": 52.3619725, "lon": 4.8525599}, {"type": "node", "id": 10587771621, "lat": 52.3619731, "lon": 4.8526692}, {"type": "node", "id": 10587771622, "lat": 52.361973, "lon": 4.8526379}, {"type": "node", "id": 10587771623, "lat": 52.3619656, "lon": 4.8526536}, {"type": "node", "id": 10587771624, "lat": 52.3619812, "lon": 4.8526692}, {"type": "node", "id": 10587771625, "lat": 52.3619809, "lon": 4.8526378}, {"type": "node", "id": 10587771626, "lat": 52.36198, "lon": 4.8525598}, {"type": "node", "id": 10587771627, "lat": 52.3619797, "lon": 4.8525275}, {"type": "node", "id": 10633389139, "lat": 52.3984118, "lon": 4.946511}, {"type": "node", "id": 10633389156, "lat": 52.3983962, "lon": 4.9458901}, {"type": "node", "id": 10767303499, "lat": 52.3548142, "lon": 4.846657}, {"type": "node", "id": 10767303500, "lat": 52.3548586, "lon": 4.8466534}, {"type": "node", "id": 10767303501, "lat": 52.3548694, "lon": 4.8477161}, {"type": "node", "id": 10767303502, "lat": 52.3549974, "lon": 4.8478851}, {"type": "node", "id": 10767303503, "lat": 52.3550137, "lon": 4.8478488}, {"type": "node", "id": 10767303504, "lat": 52.355032, "lon": 4.8478187}, {"type": "node", "id": 10767381005, "lat": 52.3550515, "lon": 4.8477966}, {"type": "node", "id": 10767381006, "lat": 52.355078, "lon": 4.847786}, {"type": "node", "id": 10767381007, "lat": 52.3551239, "lon": 4.8477754}, {"type": "node", "id": 10767381008, "lat": 52.3553298, "lon": 4.8477718}, {"type": "node", "id": 10767381009, "lat": 52.3553287, "lon": 4.8477214}, {"type": "node", "id": 10767381010, "lat": 52.3553655, "lon": 4.8476249}, {"type": "node", "id": 10767381011, "lat": 52.3553503, "lon": 4.8454236}, {"type": "node", "id": 10767381012, "lat": 52.3553465, "lon": 4.8454006}, {"type": "node", "id": 10767381013, "lat": 52.3553347, "lon": 4.8453837}, {"type": "node", "id": 10767381014, "lat": 52.355319, "lon": 4.8453705}, {"type": "node", "id": 10767381015, "lat": 52.3551617, "lon": 4.8453678}, {"type": "node", "id": 10767381016, "lat": 52.3551596, "lon": 4.8452634}, {"type": "node", "id": 10767381017, "lat": 52.3550411, "lon": 4.8452648}, {"type": "node", "id": 10767381018, "lat": 52.3550398, "lon": 4.8453707}, {"type": "node", "id": 10767381019, "lat": 52.3546553, "lon": 4.8453794}, {"type": "node", "id": 10767381020, "lat": 52.3546344, "lon": 4.8453901}, {"type": "node", "id": 10767381021, "lat": 52.35462, "lon": 4.845421}, {"type": "node", "id": 10767381022, "lat": 52.3546217, "lon": 4.8458696}, {"type": "node", "id": 10767381023, "lat": 52.3546229, "lon": 4.8460094}, {"type": "node", "id": 10767381024, "lat": 52.3547641, "lon": 4.8460152}, {"type": "node", "id": 10767381025, "lat": 52.3547962, "lon": 4.8460619}, {"type": "node", "id": 10767381026, "lat": 52.3548047, "lon": 4.8461051}, {"type": "node", "id": 10767381027, "lat": 52.354809, "lon": 4.8461588}, {"type": "node", "id": 10775929908, "lat": 52.4423611, "lon": 4.8457844}, {"type": "node", "id": 10775929909, "lat": 52.4423488, "lon": 4.8457767}, {"type": "node", "id": 10775929910, "lat": 52.4420899, "lon": 4.8458544}, {"type": "node", "id": 10775929911, "lat": 52.4420595, "lon": 4.8459268}, {"type": "node", "id": 10775929912, "lat": 52.4421318, "lon": 4.8466215}, {"type": "node", "id": 10775929913, "lat": 52.4426526, "lon": 4.8464637}, {"type": "node", "id": 10775929914, "lat": 52.4425767, "lon": 4.8457381}, {"type": "node", "id": 10779199678, "lat": 52.4003757, "lon": 4.9258642, "tags": {"amenity": "school", "isced": "1", "max_age": "12", "min_age": "4", "name": "Waldorf aan de Werf", "operator": "Stichting Geert Groote Scholen", "pedagogy": "waldorf", "website": "https://wadw.school/"}}, {"type": "node", "id": 10779199679, "lat": 52.3827125, "lon": 4.8794743}, {"type": "node", "id": 10779199680, "lat": 52.3829107, "lon": 4.8797808}, {"type": "node", "id": 10779199681, "lat": 52.3832369, "lon": 4.8792269}, {"type": "node", "id": 10779199682, "lat": 52.3830462, "lon": 4.8789186}, {"type": "node", "id": 10779199683, "lat": 52.3871869, "lon": 4.948538}, {"type": "node", "id": 10779199684, "lat": 52.3873798, "lon": 4.9493924}, {"type": "node", "id": 10779199685, "lat": 52.3875717, "lon": 4.9492913}, {"type": "node", "id": 10779199686, "lat": 52.3875669, "lon": 4.9492662}, {"type": "node", "id": 10779199687, "lat": 52.3876337, "lon": 4.9492321}, {"type": "node", "id": 10779199688, "lat": 52.3874538, "lon": 4.9483855}, {"type": "node", "id": 10779199689, "lat": 52.3605116, "lon": 4.9380135}, {"type": "node", "id": 10779199690, "lat": 52.3602274, "lon": 4.9381207}, {"type": "node", "id": 10779199691, "lat": 52.3602786, "lon": 4.9384797}, {"type": "node", "id": 10779199692, "lat": 52.360249, "lon": 4.9384938}, {"type": "node", "id": 10779199693, "lat": 52.3602614, "lon": 4.9385696}, {"type": "node", "id": 10779199694, "lat": 52.3602503, "lon": 4.9385753}, {"type": "node", "id": 10779199695, "lat": 52.3602984, "lon": 4.938899}, {"type": "node", "id": 10779199696, "lat": 52.3603082, "lon": 4.9388978}, {"type": "node", "id": 10779199697, "lat": 52.3603353, "lon": 4.9391389}, {"type": "node", "id": 10779199698, "lat": 52.3606469, "lon": 4.9390209}, {"type": "node", "id": 10875154381, "lat": 52.3661988, "lon": 4.8383423}, {"type": "node", "id": 10875154382, "lat": 52.3660412, "lon": 4.8366004}, {"type": "node", "id": 10875154383, "lat": 52.3659284, "lon": 4.8366034}, {"type": "node", "id": 10875154384, "lat": 52.3659436, "lon": 4.8383482}, {"type": "node", "id": 10875154387, "lat": 52.3666308, "lon": 4.8382746}, {"type": "node", "id": 10875154388, "lat": 52.366636, "lon": 4.8366346}, {"type": "node", "id": 10876077884, "lat": 52.3805175, "lon": 4.836221}, {"type": "node", "id": 10876077885, "lat": 52.3804466, "lon": 4.8366609}, {"type": "node", "id": 10876077886, "lat": 52.3804176, "lon": 4.8366484}, {"type": "node", "id": 10876077887, "lat": 52.3803933, "lon": 4.8367994}, {"type": "node", "id": 10876077888, "lat": 52.3808196, "lon": 4.8369836}, {"type": "node", "id": 10876077889, "lat": 52.3809148, "lon": 4.8363927}, {"type": "node", "id": 10893468134, "lat": 52.3702244, "lon": 4.9041211, "tags": {"historic": "memorial", "material": "metal", "memorial": "plaque", "memorial:website": "https://verdwenen-joodse-scholen.nl/wijk/oostelijke-binnenstad/", "name": "school nr. 2"}}, {"type": "node", "id": 10915608694, "lat": 52.410762, "lon": 4.9186275, "tags": {"amenity": "school", "capacity": "40", "isced": "1", "max_age": "12", "min_age": "4", "name": "BS ELIF AMSTERDAM NOORD", "operator": "stichting Islamitisch Onderwijs Noord\u00ad-Holland (SIO N-H)", "website": "https://www.elifnoord.nl/"}}, {"type": "node", "id": 10924033269, "lat": 52.3816733, "lon": 4.9129968}, {"type": "node", "id": 10931059273, "lat": 52.3594056, "lon": 4.8368295}, {"type": "node", "id": 10931059274, "lat": 52.3594202, "lon": 4.8382413}, {"type": "node", "id": 10931059275, "lat": 52.3599076, "lon": 4.8382175}, {"type": "node", "id": 10931059276, "lat": 52.3599052, "lon": 4.83682}, {"type": "node", "id": 10931059277, "lat": 52.360277, "lon": 4.8353202}, {"type": "node", "id": 10931059278, "lat": 52.3602862, "lon": 4.8363853}, {"type": "node", "id": 10931059279, "lat": 52.3603264, "lon": 4.8364228}, {"type": "node", "id": 10931059280, "lat": 52.3608256, "lon": 4.8363953}, {"type": "node", "id": 10931059281, "lat": 52.3608139, "lon": 4.8353038}, {"type": "node", "id": 10931059282, "lat": 52.3608373, "lon": 4.8353013}, {"type": "node", "id": 10931059283, "lat": 52.3608531, "lon": 4.8363953}, {"type": "node", "id": 10931059284, "lat": 52.3615339, "lon": 4.8363687}, {"type": "node", "id": 10931059285, "lat": 52.3615258, "lon": 4.8352955}, {"type": "node", "id": 10931236080, "lat": 52.359417, "lon": 4.8382899}, {"type": "node", "id": 10931236081, "lat": 52.3594345, "lon": 4.8398758}, {"type": "node", "id": 10931236082, "lat": 52.3599181, "lon": 4.8398603}, {"type": "node", "id": 10931236083, "lat": 52.3599057, "lon": 4.8382863}, {"type": "node", "id": 10933384287, "lat": 52.3636889, "lon": 4.8580577, "tags": {"amenity": "school", "capacity": "40", "isced": "2", "max_age": "17", "min_age": "12", "name": "Altra College Arkin", "operator": "iHUB", "pedagogy": "Voortgezet speciaal onderwijs (VSO)", "website": "https://www.altrahorizononderwijs.nl/altra-scholen/altra-college-arkin/introductie-1"}}, {"type": "node", "id": 11028032635, "lat": 52.3960053, "lon": 4.9530923, "tags": {"amenity": "school", "name": "De Amsterdamse Plus"}}, {"type": "node", "id": 11028032636, "lat": 52.3958, "lon": 4.9534062, "tags": {"addr:city": "Amsterdam", "addr:housenumber": "20", "addr:postcode": "1024VK", "addr:street": "Duinluststraat", "amenity": "school", "name": "Hogelant", "website": "https://hogelant.nl/"}}, {"type": "node", "id": 11035490559, "lat": 52.4049217, "lon": 4.9299678, "tags": {"amenity": "school", "name": "Abbs Elzenhagen", "operator": "ABSA", "operator:type": "private_non_profit", "website": "http://www.abbs-elzenhagen.nl", "wikidata": "Q22771455"}}, {"type": "node", "id": 11037259061, "lat": 52.3924581, "lon": 4.8784167}, {"type": "node", "id": 11037259062, "lat": 52.3925466, "lon": 4.8782222}, {"type": "node", "id": 11037259063, "lat": 52.3926171, "lon": 4.8781017}, {"type": "node", "id": 11037259064, "lat": 52.3926372, "lon": 4.8780715}, {"type": "node", "id": 11203006594, "lat": 52.3730143, "lon": 4.8407327, "tags": {"addr:city": "Amsterdam", "addr:housenumber": "2", "addr:postcode": "1061MA", "addr:street": "Laan van Spartaan", "amenity": "school", "name": "MBO College West", "operator": "ROCvA", "operator:type": "private_non_profit", "religion": "none", "school:type": "vocational", "website": "https://www.rocva.nl/MBO-onderwijs/MBO-Colleges/MBO-College-West/Laan-van-Spartaan-2"}}, {"type": "node", "id": 11393119760, "lat": 52.3819422, "lon": 4.9129123}, {"type": "node", "id": 11393121214, "lat": 52.3816846, "lon": 4.9130122}, {"type": "node", "id": 11393121238, "lat": 52.3819349, "lon": 4.9129268, "tags": {"barrier": "gate"}}, {"type": "node", "id": 11482734694, "lat": 52.3613279, "lon": 4.8924334, "tags": {"addr:housenumber": "6", "addr:postcode": "1017TV", "addr:street": "Noorderstraat", "amenity": "school", "check_date": "2024-01-03", "email": "info@dekleinereus.orh", "name": "IKC De Kleine Reus", "phone": "+31 20 320 7735", "website": "https://dekleinereus.org"}}, {"type": "node", "id": 12395644627, "lat": 52.4342662, "lon": 4.8447846}, {"type": "node", "id": 12420175387, "lat": 52.3549421, "lon": 4.9079346}, {"type": "node", "id": 12420175388, "lat": 52.3552013, "lon": 4.9090318}, {"type": "node", "id": 12420175389, "lat": 52.3546877, "lon": 4.9088886}, {"type": "node", "id": 12420175390, "lat": 52.3545759, "lon": 4.9084696}, {"type": "node", "id": 12420175393, "lat": 52.3549172, "lon": 4.9079322}, {"type": "node", "id": 12431877403, "lat": 52.3548236, "lon": 4.9127038}, {"type": "node", "id": 12431877404, "lat": 52.3548084, "lon": 4.9125738}, {"type": "node", "id": 12431877405, "lat": 52.3553584, "lon": 4.912723}, {"type": "node", "id": 12431877406, "lat": 52.3554139, "lon": 4.912575}, {"type": "node", "id": 12431877407, "lat": 52.3553815, "lon": 4.9122729}, {"type": "node", "id": 12431877408, "lat": 52.3553757, "lon": 4.9122214}, {"type": "node", "id": 12431877409, "lat": 52.3553415, "lon": 4.9122308}, {"type": "node", "id": 12431986319, "lat": 52.3552983, "lon": 4.9127391, "tags": {"barrier": "gate"}}, {"type": "node", "id": 12480767155, "lat": 52.3935352, "lon": 4.9152765}, {"type": "node", "id": 12480767156, "lat": 52.3933872, "lon": 4.9151591}, {"type": "node", "id": 12480767157, "lat": 52.3932965, "lon": 4.9151962}, {"type": "node", "id": 12480767158, "lat": 52.3931515, "lon": 4.9151019}, {"type": "node", "id": 12480767159, "lat": 52.3930575, "lon": 4.9159672}, {"type": "node", "id": 12480767160, "lat": 52.3930651, "lon": 4.9159949}, {"type": "node", "id": 12480767161, "lat": 52.3932533, "lon": 4.916143}, {"type": "node", "id": 12534190314, "lat": 52.3967638, "lon": 4.9561791, "tags": {"addr:city": "Amsterdam", "addr:housenumber": "2", "addr:postcode": "1024CL", "addr:street": "Wildrijkstraat", "amenity": "school", "denomination": "muslim", "grades": "1-8", "name": "IBS al Yaqoet", "religion": "muslim", "website": "https://www.ibsalyaqoet.nl/"}}, {"type": "node", "id": 12655795908, "lat": 52.3911504, "lon": 4.856146, "tags": {"addr:city": "Amsterdam", "addr:housenumber": "36", "addr:postcode": "1014AN", "addr:street": "Contactweg", "amenity": "school", "name": "MediaCollege Amsterdam", "source": "BAG", "source:date": "2025-03-12"}}, {"type": "node", "id": 12814457896, "lat": 52.3581283, "lon": 4.9284156}, {"type": "node", "id": 12814457897, "lat": 52.3583601, "lon": 4.9288769}, {"type": "node", "id": 12814457898, "lat": 52.3588691, "lon": 4.9297201}, {"type": "node", "id": 12814457899, "lat": 52.3586941, "lon": 4.9301158}, {"type": "node", "id": 12814457900, "lat": 52.358648, "lon": 4.9301419}, {"type": "node", "id": 12814488201, "lat": 52.3586771, "lon": 4.9303364}, {"type": "node", "id": 12814488202, "lat": 52.3581046, "lon": 4.9306643}, {"type": "node", "id": 12814488203, "lat": 52.3576017, "lon": 4.9283391}, {"type": "node", "id": 12814488204, "lat": 52.3579891, "lon": 4.9281232}, {"type": "node", "id": 12986632105, "lat": 52.3957234, "lon": 4.9268764}, {"type": "node", "id": 13099574585, "lat": 52.3750282, "lon": 4.8651231}, {"type": "node", "id": 13099574586, "lat": 52.3754151, "lon": 4.8660446}, {"type": "node", "id": 13196388815, "lat": 52.3564306, "lon": 4.9344679}, {"type": "node", "id": 13196388816, "lat": 52.3565154, "lon": 4.9346137}, {"type": "node", "id": 13196388817, "lat": 52.356346, "lon": 4.9348776}, {"type": "node", "id": 13196388818, "lat": 52.3560216, "lon": 4.9343195}, {"type": "node", "id": 13196388819, "lat": 52.3562148, "lon": 4.9340184}, {"type": "node", "id": 13196388820, "lat": 52.3562462, "lon": 4.9340724}, {"type": "node", "id": 13196388821, "lat": 52.3562739, "lon": 4.9340292}, {"type": "node", "id": 13196388822, "lat": 52.3563195, "lon": 4.9341076}, {"type": "node", "id": 13196388823, "lat": 52.3563291, "lon": 4.9340928}, {"type": "node", "id": 13196388824, "lat": 52.3564917, "lon": 4.9343727}, {"type": "node", "id": 13261643787, "lat": 52.4039056, "lon": 4.9397035}, {"type": "node", "id": 13261643788, "lat": 52.4036863, "lon": 4.9394673}, {"type": "node", "id": 13261643789, "lat": 52.40368, "lon": 4.9394848}, {"type": "node", "id": 13261643790, "lat": 52.403321, "lon": 4.9394126}, {"type": "node", "id": 13261643791, "lat": 52.4031063, "lon": 4.939945}, {"type": "node", "id": 13261643792, "lat": 52.4032433, "lon": 4.9400854}, {"type": "node", "id": 13261643793, "lat": 52.4030905, "lon": 4.9404687}, {"type": "node", "id": 13261643794, "lat": 52.4031648, "lon": 4.9409463}, {"type": "node", "id": 13261643795, "lat": 52.4032936, "lon": 4.9410654}, {"type": "node", "id": 13261643796, "lat": 52.4033282, "lon": 4.940971}, {"type": "node", "id": 13261643797, "lat": 52.4034167, "lon": 4.9410477}, {"type": "node", "id": 13261643798, "lat": 52.4036168, "lon": 4.9405369}, {"type": "node", "id": 13261643799, "lat": 52.4035769, "lon": 4.9404905}, {"type": "node", "id": 13261643800, "lat": 52.4037686, "lon": 4.9400627}, {"type": "node", "id": 13270498298, "lat": 52.3917199, "lon": 4.9065634}, {"type": "node", "id": 13270498299, "lat": 52.3916238, "lon": 4.9064211}, {"type": "node", "id": 13270498300, "lat": 52.3915316, "lon": 4.9063565}, {"type": "node", "id": 13270498301, "lat": 52.3915358, "lon": 4.9063356}, {"type": "node", "id": 13270498302, "lat": 52.3918927, "lon": 4.9064865}, {"type": "node", "id": 13270498303, "lat": 52.3919408, "lon": 4.9065603}, {"type": "node", "id": 13270498304, "lat": 52.3918917, "lon": 4.9066457}, {"type": "node", "id": 13270498305, "lat": 52.3918145, "lon": 4.9066332}, {"type": "node", "id": 13270498306, "lat": 52.3917919, "lon": 4.9065988}, {"type": "node", "id": 13277704815, "lat": 52.3810523, "lon": 4.8402088}, {"type": "node", "id": 13277704816, "lat": 52.3809486, "lon": 4.8407727}, {"type": "node", "id": 13277704817, "lat": 52.3815888, "lon": 4.8407468}, {"type": "node", "id": 13281875291, "lat": 52.3606348, "lon": 4.8606465}, {"type": "node", "id": 13281875292, "lat": 52.3601811, "lon": 4.8609371}, {"type": "node", "id": 13319166130, "lat": 52.3587575, "lon": 4.9116495}, {"type": "node", "id": 13319182023, "lat": 52.3563458, "lon": 4.91318}, {"type": "node", "id": 13319182024, "lat": 52.3564009, "lon": 4.9133884}, {"type": "node", "id": 13319182025, "lat": 52.3562886, "lon": 4.9119635}, {"type": "node", "id": 13319182026, "lat": 52.3561516, "lon": 4.9120516}, {"type": "node", "id": 13319182027, "lat": 52.3562349, "lon": 4.9123638}, {"type": "node", "id": 13319182028, "lat": 52.3561554, "lon": 4.9124181}, {"type": "node", "id": 13319182029, "lat": 52.355984, "lon": 4.9125372}, {"type": "node", "id": 13319182030, "lat": 52.3560243, "lon": 4.9126851}, {"type": "node", "id": 13319182031, "lat": 52.3560683, "lon": 4.9126536}, {"type": "node", "id": 13319182032, "lat": 52.3561586, "lon": 4.9129851}, {"type": "node", "id": 13319182033, "lat": 52.3561268, "lon": 4.9130081}, {"type": "node", "id": 13319182034, "lat": 52.3561842, "lon": 4.913219}, {"type": "node", "id": 13319182035, "lat": 52.3562007, "lon": 4.9132871}, {"type": "node", "id": 13319182036, "lat": 52.3562888, "lon": 4.9132236}, {"type": "node", "id": 13319182037, "lat": 52.3566179, "lon": 4.913239}, {"type": "node", "id": 13319182038, "lat": 52.3564365, "lon": 4.9125148}, {"type": "node", "id": 13319182039, "lat": 52.3564281, "lon": 4.9125205}, {"type": "node", "id": 13319198833, "lat": 52.358691, "lon": 4.9112874}, {"type": "node", "id": 13319198834, "lat": 52.3586811, "lon": 4.9112941}, {"type": "node", "id": 13319198835, "lat": 52.3586435, "lon": 4.9110771}, {"type": "node", "id": 13319198836, "lat": 52.3588607, "lon": 4.9109266}, {"type": "node", "id": 13319198837, "lat": 52.3587582, "lon": 4.9109887}, {"type": "node", "id": 13319198838, "lat": 52.3586504, "lon": 4.9110536}, {"type": "node", "id": 13319198839, "lat": 52.3588843, "lon": 4.9115769}, {"type": "node", "id": 13319198840, "lat": 52.3589879, "lon": 4.9115177}, {"type": "node", "id": 13319198843, "lat": 52.3599956, "lon": 4.9132235}, {"type": "node", "id": 13319198844, "lat": 52.3601364, "lon": 4.9139367}, {"type": "node", "id": 13319198845, "lat": 52.3601333, "lon": 4.9140733}, {"type": "node", "id": 13319198846, "lat": 52.3600753, "lon": 4.914169}, {"type": "node", "id": 13319225857, "lat": 52.3584998, "lon": 4.9253357}, {"type": "node", "id": 13319225858, "lat": 52.3584846, "lon": 4.9253498}, {"type": "node", "id": 13319225859, "lat": 52.3585786, "lon": 4.9257197}, {"type": "node", "id": 13321786221, "lat": 52.3615145, "lon": 4.926868}, {"type": "node", "id": 13321786222, "lat": 52.3617134, "lon": 4.9267509}, {"type": "node", "id": 13321804732, "lat": 52.3616038, "lon": 4.92554}, {"type": "node", "id": 13321804733, "lat": 52.3612521, "lon": 4.9257489}, {"type": "node", "id": 13321804734, "lat": 52.3613666, "lon": 4.9262349}, {"type": "node", "id": 13321804735, "lat": 52.3613753, "lon": 4.9262719, "tags": {"barrier": "gate"}}, {"type": "node", "id": 13321804736, "lat": 52.3613999, "lon": 4.9263819}, {"type": "node", "id": 13321804737, "lat": 52.3614149, "lon": 4.9264494}, {"type": "node", "id": 13321804738, "lat": 52.3617063, "lon": 4.9267119}, {"type": "node", "id": 13321804739, "lat": 52.3616305, "lon": 4.9263499}, {"type": "node", "id": 13321804740, "lat": 52.3617678, "lon": 4.9262734}, {"type": "node", "id": 13321805572, "lat": 52.3604762, "lon": 4.9290665}, {"type": "node", "id": 13321805573, "lat": 52.360766, "lon": 4.9288668}, {"type": "node", "id": 13413470706, "lat": 52.3779222, "lon": 4.8498763}, {"type": "node", "id": 13413470707, "lat": 52.3779837, "lon": 4.8498433}, {"type": "node", "id": 13414577270, "lat": 52.4341612, "lon": 4.8403062}, {"type": "node", "id": 13414577280, "lat": 52.4339935, "lon": 4.8401312}, {"type": "node", "id": 13414577302, "lat": 52.4339517, "lon": 4.8399265}, {"type": "node", "id": 13414577303, "lat": 52.4339793, "lon": 4.8400514}, {"type": "node", "id": 13424262299, "lat": 52.3778352, "lon": 4.875675}, {"type": "node", "id": 13424262300, "lat": 52.3779252, "lon": 4.8757326}, {"type": "node", "id": 13424266801, "lat": 52.3778424, "lon": 4.8756382}, {"type": "node", "id": 13424266802, "lat": 52.3779339, "lon": 4.8756961}, {"type": "node", "id": 13424266806, "lat": 52.3780027, "lon": 4.8764323, "tags": {"entrance": "main"}}, {"type": "node", "id": 13424266807, "lat": 52.3779303, "lon": 4.8757113}, {"type": "node", "id": 13430642513, "lat": 52.3782939, "lon": 4.8907346, "tags": {"addr:city": "Amsterdam", "addr:housenumber": "34", "addr:postcode": "1015BL", "addr:street": "Herengracht", "amenity": "school", "education": "school", "email": "burght@obsburght.nl", "name": "De Burght", "operator": "Openbaar Onderwijs aan de Amstel", "operator:website": "https://www.ooada.nl/", "phone": "+31 20  624 6947", "school": "primary", "website": "https://www.obsburght.nl"}}, {"type": "way", "id": 44532028, "nodes": [565662000, 2809973470, 565661999, 1637833128, 2809973625, 2809973640, 1637833139, 565661998, 2809973638, 2809973626, 565662000], "tags": {"addr:city": "Amsterdam", "addr:country": "NL", "amenity": "school", "building": "yes", "check_date": "2025-04-06", "name": "Huygens College", "ref:bag": "0363100012133077", "source": "BAG", "source:date": "2014-03-24", "start_date": "1990", "website": "https://www.huygens-college.nl/", "wheelchair": "limited"}}, {"type": "way", "id": 57859613, "nodes": [717829537, 717759087, 717782859, 717803627, 717786889, 2795240010, 2795240011, 2795240006, 2795240005, 2795239993, 2795239994, 2795239990, 2795239989, 2795239979, 2795239980, 2795239976, 2795239975, 717744271, 717741370, 2795239974, 2795239973, 2795239977, 2795239978, 2795239988, 2795239987, 2795239991, 2795239992, 2795240003, 2795240002, 2795240007, 2795240008, 717824819, 717795164, 717803720, 2795240089, 2795240048, 2795240045, 2795240088, 717780154, 717825659, 717779154, 2795240122, 2795240121, 2795240134, 2795240136, 717771954, 717778505, 717735520, 717788649, 717797430, 2795240155, 2795240171, 2795240172, 2795240192, 2795240193, 2795240143, 2795240141, 2795240124, 2795240123, 2795240139, 717797535, 717828566, 717829537], "tags": {"amenity": "school", "building": "yes", "name": "Lola Luid", "ref:bag": "0363100012133308", "source": "BAG", "source:date": "2014-03-24", "start_date": "1970"}}, {"type": "way", "id": 57861883, "nodes": [717773232, 717785437, 717823914, 717773031, 717731508, 2808711059, 2808711079, 2808711075, 717820253, 717773232], "tags": {"amenity": "school", "building": "yes", "name": "El Kadisia 2", "ref:bag": "0363100012097934", "source": "BAG", "source:date": "2014-03-24", "start_date": "1957", "wikidata": "Q115626202", "wikimedia_commons": "Category:Robert Scottstraat 28-34, Amsterdam", "wikipedia": "nl:Robert Scottstraat 28-34"}}, {"type": "way", "id": 57865893, "nodes": [2738249084, 8443739526, 2738249082, 8443739525, 8443739454, 8443739514, 8443739509, 8443739494, 8443711001, 717731250, 8443711003, 8446946659, 8443739589, 717817682, 717767631, 8443739595, 8443710974, 8443739561, 8443739560, 2738249094, 2738249093, 8443710976, 2738249084], "tags": {"amenity": "school", "building": "school", "capacity": "270", "isced": "2", "max_age": "17", "min_age": "12", "name": "VierTaal College", "operator": "Stichting VierTaal", "pedagogy": "voor slechthorende", "ref:bag": "0363100012117953", "source": "BAG", "source:date": "2014-02-11", "start_date": "1991", "website": "https://viertaalcollege-amsterdam.nl/"}}, {"type": "way", "id": 57866233, "nodes": [2808762197, 13413470706, 717849038, 2808761872, 2808761880, 2808761871, 2808761861, 717817944, 717767319, 717823092, 717834756, 717846242, 717740746, 717845049, 717781451, 717839730, 2808761856, 2808762007, 2808762030, 2808762060, 717836848, 717797146, 717777127, 717808424, 717838964, 717825356, 717849325, 717837419, 717790557, 717756891, 717799255, 13413470707, 2808762197]}, {"type": "way", "id": 168208939, "nodes": [1794956614, 1794956643, 4726162618, 10587771624, 10587771621, 10587771613, 10587771614, 10587771615, 10587771623, 10587771616, 10587771617, 10587771618, 10587771622, 10587771625, 10587771626, 10587771620, 10587771606, 10587771607, 10587771608, 10587771609, 10587771610, 10587771611, 10587771612, 10587771619, 10587771627, 1794956641, 2814262597, 2814262599, 2568815254, 1794956634, 1794956610, 1794956618, 1794956632, 1794956609, 1794956636, 2814262915, 2814262917, 1794956614], "tags": {"addr:city": "Amsterdam", "addr:housenumber": "2-4", "addr:postcode": "1058DD", "addr:street": "Corantijnstraat", "alt_name": "Corantijnschool", "amenity": "school", "architect": "Dienst Publieke Werken", "building": "school", "building:levels": "3", "email": "info@obscorantijn.nl", "grades": "0-6", "name": "Basisschool Corantijn", "phone": "+31 20 618 4430", "ref:bag": "0363100012080308", "religion": "none", "roof:levels": "0", "roof:shape": "dome", "source": "BAG;local knowledge", "source:date": "2014-03-24", "start_date": "1924", "website": "https://www.obscorantijn.nl/", "wheelchair": "no"}}, {"type": "way", "id": 194261933, "nodes": [2808710921, 2047862849, 2047862832, 2808710925, 2808710924, 2808711028, 2808711027, 2047862840, 2047862847, 2808711017, 2808711014, 2808710923, 2808710921], "tags": {"amenity": "school", "building": "yes", "name": "ROC Op Maat West", "ref:bag": "0363100012098213", "source": "BAG", "source:date": "2014-03-24", "start_date": "1960"}}, {"type": "way", "id": 221034001, "nodes": [2809615365, 2809615347, 2809615344, 2809615324, 2809615325, 2809614865, 2809614861, 2809614846, 2809614850, 2300896424, 2809614826, 2809614829, 2809615310, 2809615307, 2300896429, 13424262299, 13424266801, 13424266802, 13424266807, 13424262300, 2809616342, 2809616348, 2300896426, 2809616362, 2809616394, 2809616400, 2809616920, 2809616924, 2809616938, 2809616320, 2809616933, 2809616919, 2809616349, 2809616331, 2809616365, 2809616366, 13424266806, 2300896415, 2809616318, 2809616313, 2809615381, 2809615379, 2809615364, 2809615365], "tags": {"addr:city": "Amsterdam", "addr:housenumber": "7A", "addr:postcode": "1052XN", "addr:street": "Frederik Hendrikplantsoen", "amenity": "school", "building": "yes", "name": "Cartesius Lyceum", "operator": "Esprit Scholen", "operator:type": "public", "ref:bag": "0363100012163104", "source": "BAG", "source:date": "2014-03-24", "start_date": "1899", "wheelchair": "limited", "wikidata": "Q1934121", "wikimedia_commons": "Category:Cartesius Lyceum", "wikipedia": "nl:Cartesius Lyceum"}}, {"type": "way", "id": 261771417, "nodes": [565661553, 565661550, 2809780247, 2809780252, 2809780248, 2809780237, 2809780232, 2809780236, 565661560, 565661555, 565661528, 565661535, 2809780090, 565661530, 565661529, 565661536, 4416679326, 565661537, 2809780481, 565661557, 565661559, 2809780672, 2809780698, 2809780692, 4416679355, 2809780880, 2809780881, 2809780884, 2809780886, 2809780887, 2809780889, 2809780890, 2809780935, 2809780826, 2809780824, 2809780818, 2809780634, 2809780617, 2809780611, 2809780602, 565661554, 2809780484, 2809780492, 2809780606, 2809780610, 2809780498, 2809780496, 2809780477, 2809780493, 2809780418, 2809780402, 2809780411, 2809780410, 565661556, 2809780405, 565661551, 565661552, 2809780267, 2809780277, 565661553], "tags": {"addr:housenumber": "109", "addr:street": "Borgerstraat", "amenity": "school", "building": "yes", "check_date": "2025-08-17", "name": "Brede school De Kinkerbuurt", "ref:bag": "0363100012147717", "source": "BAG", "source:date": "2014-03-24", "start_date": "1982", "wheelchair": "yes"}}, {"type": "way", "id": 262278406, "nodes": [2679405531, 2679405527, 2816524822, 2679405520, 2816524583, 2679405522, 2679405524, 2679405526, 2679405534, 2679405536, 2679405531], "tags": {"amenity": "school", "isced:level": "2;3", "name": "Montessori Lyceum Amsterdam", "pedagogy": "montessori", "short_name": "MLA", "website": "https://www.montessorilyceumamsterdam.nl/", "wikidata": "Q3960588", "wikimedia_commons": "Category:Montessori Lyceum Amsterdam", "wikipedia": "nl:Montessori Lyceum Amsterdam"}}, {"type": "way", "id": 268453015, "nodes": [2737867252, 2737866870, 2737866760, 2737866967, 2737866970, 2737867015, 2737867007, 2737867484, 2737867535, 2737867532, 2737867546, 2737867296, 2737867252], "tags": {"amenity": "school", "building": "school", "name": "Asvo", "ref:bag": "0363100012182486", "source": "BAG", "source:date": "2014-02-11", "start_date": "1990", "website": "https://www.asvo.nl/"}}, {"type": "way", "id": 276253554, "nodes": [2808762099, 2808762013, 2808762044, 2808762131, 2808762099]}, {"type": "way", "id": 277094727, "nodes": [2816416648, 2816416612, 2816416608, 2816416386, 2816416394, 2816416390, 2816416623, 2816416637, 2816416644, 2816416666, 2816416648], "tags": {"amenity": "school", "building": "yes", "isced:level": "1", "name": "Christelijke basisschool Instituut Schreuder", "ref:bag": "0363100012071488", "source": "BAG", "source:date": "2014-03-24", "start_date": "1999"}}, {"type": "way", "id": 362231323, "nodes": [717754215, 717734993, 717748330, 717819388, 717735964, 717781854, 717797529, 717827839, 717754215]}, {"type": "way", "id": 365959577, "nodes": [3699583664, 3699583668, 3699583669, 3699583665, 3699583664]}, {"type": "way", "id": 365959578, "nodes": [3699583663, 3699583662, 3699583666, 3699583667, 3699583663]}, {"type": "way", "id": 373953853, "nodes": [3773763556, 5891849859, 5891849860, 5891849861, 694238441, 5891849833, 694239852, 3773765568, 3773765573, 2848628820, 2848628814, 6113362549, 568328366, 3773765567, 3773765558, 3773765561, 3773765565, 3773765564, 3773765560, 568328094, 3773765562, 12986632105, 3773763556], "tags": {"amenity": "school", "name": "Damstede Lyceum", "operator": "ZAAM"}}, {"type": "way", "id": 373953911, "nodes": [6206311603, 2848628974, 2848628967, 3773765692, 3773765694, 3773765583, 2848628957, 2848628980, 2848628985, 3773765586, 2848629000, 6206311605, 6206311604, 694246272, 694244385, 6206311603], "tags": {"amenity": "school", "name": "Clusius College"}}, {"type": "way", "id": 374296198, "nodes": [3773325523, 3773325524, 5869408105, 3773325525, 3773325526, 2874134491, 2874134452, 3773325527, 3773325528, 4735042843, 3773325530, 3773325534, 5869408117, 3773325533, 10076439557, 10076439560, 3773325531, 2874135794, 2874136028, 5869408122, 3773325532, 3762911132, 3762911133, 3754657263, 3773325523], "tags": {"amenity": "school", "name": "OBS De Stap", "note": "openbare basisschool", "website": "https://obsdestap.nl/"}}, {"type": "way", "id": 374296199, "nodes": [4735042844, 4888232712, 3776534776, 3712468317, 4888232708, 6066644523, 3770729222, 3773325536, 3770729223, 3773325535, 3770729224, 4735042849, 3770729227, 4735042844], "tags": {"alt_name": "Montessorischool Landsmeer", "amenity": "school", "name": "Montessori Landsmeer", "note": "basisschool", "operator": "Esprit Scholen", "website": "https://montessori-landsmeer.espritscholen.nl/"}}, {"type": "way", "id": 374296200, "nodes": [2874268600, 2874268593, 6815868702, 6815868700, 6815868704, 2874268306, 2874267876, 2874267920, 2874267796, 2874267794, 2874267621, 6815863066, 6815868694, 2874267453, 2874267336, 2874265938, 3776534780, 2874266605, 2874265958, 2874265975, 6815863062, 6815868693, 6815868692, 3776534781, 3776534782, 2874267523, 2874267712, 2874267709, 2874267758, 2874267783, 2874268138, 2874268110, 2874268249, 2874268250, 2874268498, 2874268580, 2874268600], "tags": {"amenity": "school"}}, {"type": "way", "id": 374296201, "nodes": [3776534784, 3776534785, 3776534786, 3776534787, 3776534788, 3776534784], "tags": {"amenity": "school", "landuse": "education"}}, {"type": "way", "id": 374296204, "nodes": [3776534790, 3776534789, 3776534794, 3776534793, 2874151845, 2874151846, 3776534792, 3776534791, 3776534790], "tags": {"amenity": "school"}}, {"type": "way", "id": 384984037, "nodes": [568291324, 3883363064, 3883363065, 11393119760, 11393121238, 3510035126, 3510035125, 3510035124, 11393121214, 10924033269, 3883363066, 568291324], "tags": {"amenity": "school"}}, {"type": "way", "id": 384984038, "nodes": [3883363067, 2848746598, 2848746578, 2848746577, 2848746570, 4744023366, 2848746569, 2848746586, 3883363068, 3883363067], "tags": {"amenity": "school"}}, {"type": "way", "id": 385748321, "nodes": [3890849130, 3890849131, 3890849132, 12431877404, 12431877403, 3890849133, 3890849134, 7884483094, 7884483093, 3890849135, 3890849136, 12431986319, 12431877405, 12431877406, 12431877407, 12431877408, 12431877409, 3890849130], "tags": {"addr:city": "Amsterdam", "addr:housenumber": "8", "addr:postcode": "1091VG", "addr:street": "Vrolikstraat", "amenity": "school", "name": "Cygnus Gymnasium", "operator": "ZAAM", "website": "https://www.cygnusgymnasium.nl", "wikidata": "Q1295526", "wikimedia_commons": "Category:Vrolikstraat 8 (building)", "wikipedia": "nl:Cygnus Gymnasium"}}, {"type": "way", "id": 421852127, "nodes": [4215920907, 4215920948, 4215921045, 4215921043, 4215921037, 4215921035, 4215921039, 4215921033, 4215920982, 4215920997, 4215920958, 4215920947, 4215920907], "tags": {"amenity": "school", "building": "school", "building:levels": "3", "check_date": "2025-03-25", "name": "IKC Zeven Zee\u00ebn", "ref:bag": "0363100012244420", "roof:levels": "0", "roof:shape": "many", "source": "BAG", "source:date": "2016-05-30", "start_date": "2016"}}, {"type": "way", "id": 427679639, "nodes": [2713826551, 9007152628, 9007152627, 9007152626, 9007152625, 9007152624, 4268735862, 4268735861, 4268735860, 13099574585, 4548142613, 4268735866, 4548142615, 13099574586, 4268735867, 4268735865, 2713826551], "tags": {"amenity": "school", "grades": "7-9", "name": "Marcanti College", "operator": "Esprit Scholen", "operator:type": "private_non_profit", "religion": "none", "website": "https://marcanti.espritscholen.nl", "wheelchair": "yes"}}, {"type": "way", "id": 444181408, "nodes": [4416679360, 4416679323, 4416679345, 4416679340, 4416679327, 4416679337, 4416679360], "tags": {"amenity": "school", "name": "Sweelink College", "operator": "ZAAM", "operator:type": "private_non_profit", "website": "https://www.sweelinckcollege.nl", "wikidata": "Q116353302", "wikimedia_commons": "Category:Moreelsestraat 21, Amsterdam"}}, {"type": "way", "id": 444339824, "nodes": [2720894647, 1584499574, 2720894540, 2720894452, 2720895086, 4418253488, 4418253590, 4418253599, 4418253487, 4418253592, 2720895300, 2720895624, 2720895869, 2720895487, 2720895383, 2720895225, 2720895048, 4418253589, 4418253594, 2720894849, 2720894647], "tags": {"amenity": "school", "check_date": "2023-06-11", "designation": "openbare basisschool", "grades": "1-12", "name": "Theo Thijssenschool", "operator:type": "public", "religion": "no", "source": "local knowledge", "start_date": "2023-06-11", "website": "https://www.theothijssenschoolamsterdam.nl"}}, {"type": "way", "id": 455518401, "nodes": [4519163070, 4519163068, 4519163053, 4519163069, 4519163067, 4519163058, 4519163070], "tags": {"amenity": "school", "name": "De Krijtmolen"}}, {"type": "way", "id": 455526687, "nodes": [4519211060, 4519211058, 4519211051, 4519211062, 4519211061, 4519211052, 9860340739, 9860340742, 4519211053, 4519211054, 4519211057, 4519211059, 4519211060], "tags": {"amenity": "school", "name": "De Krijtmolen"}}, {"type": "way", "id": 455526688, "nodes": [4519211055, 4519211056, 4519211064, 4519211063, 4519211065, 4519211055], "tags": {"amenity": "school", "check_date": "2025-04-11", "name": "De Bonkelaar"}}, {"type": "way", "id": 474405804, "nodes": [2846978593, 2846978759, 2846978761, 2846978760, 2846978758, 2846978754, 2846975917, 4683710142, 9909564583, 9909564579, 9909564581, 9909564580, 9909564582, 9909564578, 4683710155, 4683710152, 2846978593], "tags": {"addr:city": "Amsterdam", "addr:housenumber": "1", "addr:postcode": "1036LD", "addr:street": "Braeburnstraat", "alt_name": "Integraal Kind Centrum NoordRijk", "amenity": "school", "designation": "basisschool", "name": "IKC Noordrijk", "note": "primary school (basisschool) & daycare (kdv & bso).", "old_name": "de Bongerd", "toilets:wheelchair": "yes", "website": "https://www.ikcnoordrijk.nl", "wheelchair": "limited"}}, {"type": "way", "id": 478922321, "nodes": [4721036209, 4721036192, 4721036207, 4721036202, 4721036209], "tags": {"addr:city": "Oostzaan", "addr:housenumber": "2", "addr:postcode": "1511LK", "addr:street": "Paling", "amenity": "school", "designation": "openbare basisschool", "name": "OBS de Kweekvijver", "website": "https://www.dekweekvijver.nl/"}}, {"type": "way", "id": 479183953, "nodes": [4723297207, 4723297211, 4723297190, 4723297216, 4723297198, 4723297214, 1873459875, 4723297220, 4723297213, 4723297195, 4723297207], "tags": {"amenity": "school", "designation": "christelijke basisschool", "name": "De Korenaar", "website": "https://www.korenaar.nl"}}, {"type": "way", "id": 487437180, "nodes": [4798937760, 4798937761, 4924587438, 4798937758, 11037259061, 11037259062, 11037259063, 11037259064, 4798937759, 4798937760], "tags": {"addr:city": "Amsterdam", "addr:housenumber": "1B", "addr:postcode": "1014ZG", "addr:street": "Revaleiland", "amenity": "school", "name": "Brede School De Spaarndammerhout", "website": "https://www.despaarndammerhout.nl"}}, {"type": "way", "id": 517314391, "nodes": [5048385363, 5048385360, 364684428, 5048385361, 2742823079, 2742822890, 2742822217, 5048385359, 5048385362, 5048385363], "tags": {"alt_name": "Dr. E. Boekmanschool", "amenity": "school", "check_date": "2025-04-07", "name": "Boekmanschool", "website": "https://www.boekmanschool.nl/"}}, {"type": "way", "id": 554285503, "nodes": [10559803037, 10559803038, 10559803039, 10559803053, 10559803056, 10559803057, 10559802929, 10559803060, 10559803076, 569190438, 10559803075, 10559803027, 10559803026, 2848311150, 10559803006, 2848311136, 2848311128, 10559802997, 10559757669, 10559802996, 10633389139, 2848310979, 1803374515, 2848310797, 10633389156, 10559802941, 10559802942, 10583888700, 10559803033, 10559757668, 10559803030, 10559803034, 10559803035, 10559803036, 10559803037], "tags": {"amenity": "school", "name": "Basisschool Het Universum", "website": "https://www.sbo-universum.nl"}}, {"type": "way", "id": 554285504, "nodes": [5349308936, 5349308935, 5349308934, 5349308933, 5349308936], "tags": {"amenity": "school", "name": "Brede Mgr Bekkersschool", "website": "http://www.bekker\u200bsschool.nl"}}, {"type": "way", "id": 562317928, "nodes": [568318209, 10315607126, 10315607143, 5421106053, 10315636700, 10315636699, 5421106052, 5421106051, 10315587400, 5421106050, 2846548717, 2846548492, 2846548499, 10315607142, 10315607141, 5421106049, 10315607140, 2846549052, 10315607139, 2846549327, 2846549092, 10315607138, 10315607137, 10315607136, 10315607135, 5421106048, 10315607134, 10315595702, 10315638415, 10315607133, 5421106054, 5421106047, 10315607132, 2846550197, 568318209], "tags": {"amenity": "school", "name": "Twiskeschool"}}, {"type": "way", "id": 573590512, "nodes": [694632971, 694632441, 694624432, 5508364459, 5508364460, 2847774957, 2847774908, 2847774900, 2847774894, 2847774897, 2847774856, 2847774845, 2847774835, 2847774842, 2847774805, 2847774828, 2847774811, 2847774812, 2847774572, 5508364461, 5508364462, 5508364463, 5508364469, 5508364464, 5508364465, 5508364466, 5508364467, 5508364468, 694622610, 694632971], "tags": {"amenity": "school", "check_date": "2025-03-28", "name": "Driemaster"}}, {"type": "way", "id": 573590521, "nodes": [5508364470, 5508364471, 5508364472, 5508364473, 5508364474, 5508364475, 5508364476, 5508364477, 5508364478, 5508364479, 5508364480, 5508364481, 5508364482, 5508364483, 5508364484, 5508364485, 5508364470], "tags": {"amenity": "school", "name": "De Vier Windstreken"}}, {"type": "way", "id": 604765185, "nodes": [2847347464, 2847347527, 2847347547, 2847347544, 2847347553, 2847347529, 2847347556, 2847347554, 2847347549, 2847347537, 2847347532, 2847347528, 2847347530, 2847347521, 2847347519, 2847347517, 2847347510, 2847347509, 2847347502, 2847347500, 2847347481, 2847347480, 2847347467, 2847347466, 2847347450, 2847347449, 2847347438, 2847347437, 2847347425, 2847347424, 2847347418, 2847347426, 2847347429, 2847347430, 2847347439, 2847347452, 2847347453, 2847347456, 5737703285, 2847347464], "tags": {"amenity": "school", "name": "MBO College Noord (hoofdlocatie)", "operator": "ROC van Amsterdam"}}, {"type": "way", "id": 613983115, "nodes": [5808390195, 5808390194, 5808390193, 5808390190, 5808390189, 5808390188, 5808390187, 5808390185, 5808390195], "tags": {"amenity": "school", "name": "Catamaran Landlust", "old_name": "De Wiltzangh", "operator": "AMOS", "website": "https://landlust.decatamaran.eu"}}, {"type": "way", "id": 613983119, "nodes": [5808390201, 5808390200, 5808390199, 5808390198, 5808390201], "tags": {"amenity": "school", "name": "Multatulischool", "website": "https://www.obsmultatuli.nl/"}}, {"type": "way", "id": 613983123, "nodes": [5808390205, 5808390204, 5808390203, 5808390202, 5808390205], "tags": {"addr:city": "Amsterdam", "addr:housenumber": "61", "addr:postcode": "1055NK", "addr:street": "Gibraltarstraat", "amenity": "school", "branch": "Gibraltarstraat", "email": "boomgaard.info@askoscholen.nl", "full_name": "IKC De Boomgaard (locatie Gibraltarstraat)", "isced:level": "0;1", "name": "De Boomgaard", "official_name": "IKC De Boomgaard", "operator": "ASKO", "operator:website": "https://www.askoscholen.nl", "operator:wikidata": "Q137180905", "phone": "+31 20 682 2270", "school": "primary", "website": "https://www.ikcdeboomgaard.nl/contact"}}, {"type": "way", "id": 613983469, "nodes": [5808395131, 5808395130, 5808395129, 5808395128, 5808395127, 5808395126, 5808395125, 5808395124, 5808395123, 5808395122, 5808395121, 5808395120, 5808395119, 5808395131], "tags": {"addr:city": "Amsterdam", "addr:housenumber": "16A", "addr:postcode": "1055PE", "addr:street": "Van Gentstraat", "amenity": "school", "branch": "Van Gentstraat", "email": "boomgaard.info@askoscholen.nl", "full_name": "IKC De Boomgaard (locatie van Gentstraat)", "isced:level": "0;1", "name": "De Boomgaard", "official_name": "IKC De Boomgaard", "operator": "ASKO", "operator:website": "https://www.askoscholen.nl", "operator:wikidata": "Q137180905", "phone": "+31 20 682 2270", "school": "primary", "website": "https://www.ikcdeboomgaard.nl"}}, {"type": "way", "id": 623957806, "nodes": [2847317413, 2847317057, 2847316997, 5891849820, 5891849821, 5891849822, 5891849823, 2847317097, 2847317183, 2847317139, 2847317174, 5891849819, 2847317379, 2847317413], "tags": {"amenity": "school", "name": "Damstede 2 - Agora", "operator": "ZAAM", "website": "https://www.agoranow.nl/"}}, {"type": "way", "id": 646102712, "nodes": [6071736339, 13270498302, 13270498303, 13270498304, 13270498305, 13270498306, 6071736340, 6071736341, 13270498298, 13270498299, 13270498300, 13270498301, 6071736342, 6071736343, 6071736344, 6071736345, 6071736339], "tags": {"addr:city": "Amsterdam", "addr:housenumber": "26", "addr:postcode": "1031HT", "addr:street": "Chrysantenstraat", "amenity": "school", "education": "school", "name": "DKC De IJsbreker", "operator": "Asko Scholen", "website": "https://www.dkcdeijsbreker.nl/"}}, {"type": "way", "id": 670993791, "nodes": [6283558676, 6283558677, 6283558678, 6283558679, 6283558680, 2809018661, 2809018807, 6283558681, 6283558682, 2809019053, 2809019521, 2809019752, 6283558683, 2809020362, 2809020360, 2809019505, 6283558676], "tags": {"amenity": "school", "check_date": "2025-05-15", "name": "Westerparkschool", "operator": "AWBR", "website": "https://westerparkschool.nl/"}}, {"type": "way", "id": 725785398, "nodes": [6805001533, 6805001532, 2827641228, 2827641245, 2827641301, 2827641370, 6283385961, 6805001525, 571162262, 571162258, 6805001526, 6805001527, 6805001528, 6805001523, 6283385960, 6805001529, 2827641234, 2827641207, 2827641208, 6805001533], "tags": {"amenity": "school", "education": "school", "name": "Kunstmagneetschool De Kraal", "website": "kunstmagneetschooldekraal.nl"}}, {"type": "way", "id": 737341497, "nodes": [6903237814, 6903237816, 6903237817, 6903237818, 4438132369, 5721905423, 6903237819, 6903237814], "tags": {"amenity": "school"}}, {"type": "way", "id": 740823327, "nodes": [6935840090, 13414577270, 6935840091, 6935840092, 6935840093, 6935840094, 6935840095, 6935840096, 6935840097, 6935840098, 6935840099, 13414577302, 6935840100, 13414577303, 13414577280, 6935840090], "tags": {"addr:city": "Zaandam", "addr:housenumber": "73", "addr:postcode": "1505AC", "addr:street": "Wibautstraat", "amenity": "school", "name": "De Kernschool", "website": "https://www.kernschool.nl"}}, {"type": "way", "id": 740823328, "nodes": [6935840101, 7100031300, 7100031310, 7100031307, 7100031311, 6935840102, 6935840106, 6935840103, 6935840104, 7393583981, 6935840105, 6935840101], "tags": {"amenity": "school", "name": "Pascal Zuid"}}, {"type": "way", "id": 760033171, "nodes": [12395644627, 7099916984, 7099942087, 7099942088, 12395644627], "tags": {"addr:city": "Zaandam", "addr:housenumber": "2a", "addr:postcode": "1504AS", "addr:street": "Schaarsven", "alt_name": "CBS Tamarinde", "amenity": "school", "description": "Christelijke basisschool", "email": "info@tamarinde.nl", "name": "Tamarinde", "operator": "Stichting Agora", "phone": "+31 75 201 0134", "religion": "christian", "website": "https://www.tamarinde.nl"}}, {"type": "way", "id": 760033172, "nodes": [7099942089, 7099942090, 7099942091, 7099942092, 7099942093, 7099942094, 7099942095, 7099942096, 7099942097, 7139868044, 7099942098, 7099942089], "tags": {"addr:city": "Zaandam", "addr:housenumber": "2b", "addr:postcode": "1504BA", "addr:street": "Zuidervaart", "amenity": "school", "name": "IBS De Horizon", "religion": "muslim", "website": "https://www.ibsdehorizon.nl"}}, {"type": "way", "id": 760033173, "nodes": [7099942099, 7099942100, 7099942101, 2896233810, 2896230042, 2896233053, 2896234623, 2896233867, 7099942099], "tags": {"addr:city": "Zaandam", "addr:housenumber": "25", "addr:postcode": "1504AH", "addr:street": "De Weer", "amenity": "school", "denomination": "catholic", "name": "RK Paus Johannes", "religion": "christian", "website": "https://www.paus-joannes.nl"}}, {"type": "way", "id": 760033174, "nodes": [7099942102, 7099942103, 7099942104, 7099942105, 7099942106, 7099942107, 7099942108, 7099942109, 7099942110, 7099942111, 7099942112, 7099942113, 7099942114, 7099942102], "tags": {"addr:city": "Zaandam", "addr:housenumber": "6", "addr:postcode": "1504AL", "addr:street": "Noorderven", "amenity": "school", "name": "OBS De Gouw", "website": "https://www.obsdegouw.nl"}}, {"type": "way", "id": 777868900, "nodes": [7259618640, 7259618641, 7259618642, 7259618643, 7259618644, 7259618645, 7259618646, 7259618647, 7259618648, 7259618649, 7259618640], "tags": {"amenity": "school"}}, {"type": "way", "id": 814583522, "nodes": [7243295286, 694172907, 7243295315, 7243295314, 694174495, 7243307519, 7243295291, 7243307512, 7243295308, 7243307505, 7243295290, 7243295289, 7243295288, 2848281148, 2848281145, 2848281151, 2848281154, 2848281153, 2848281155, 2848281159, 2848281161, 2848281160, 2848281162, 2848281173, 2848281176, 2848281165, 2848281167, 2848281157, 2848281158, 2848281147, 2848281146, 2848281141, 2848281142, 2848281134, 2848281129, 7243295287, 7243279752, 7243295286], "tags": {"amenity": "school", "name": "OBS IJdoornschool", "website": "https://ijdoornschool.nl"}}, {"type": "way", "id": 850295217, "nodes": [2848412535, 2848412343, 7932714584, 2848412312, 2848412181, 7932714585, 2848411931, 2848411918, 7932714586, 2848412114, 2848412158, 2848412151, 2848412183, 2848412191, 2848412269, 2848412313, 2848412535], "tags": {"amenity": "school", "capacity": "25", "isced": "2", "max_age": "18", "min_age": "12", "name": "Purmer College", "operator": "iHUB", "pedagogy": "Voortgezet speciaal onderwijs (VSO)", "website": "https://www.altrahorizononderwijs.nl/altra-scholen/purmercollege/introductie-9"}}, {"type": "way", "id": 904127355, "nodes": [8396884668, 8396884667, 8396884666, 8396884665, 8396884664, 8396884663, 8396884662, 8396884661, 8396884660, 8396884659, 8396884658, 8396884657, 8396884656, 8396884655, 8396884654, 8396884653, 8396884652, 8396884651, 8396884650, 8396884649, 8396884648, 8396884668], "tags": {"amenity": "school", "description": "Basisschool", "isced:level": "0;1", "landuse": "education", "name": "Sint Antonius School", "wheelchair": "yes"}}, {"type": "way", "id": 904127931, "nodes": [2741071598, 8396898206, 8396898205, 8396898204, 10893468134, 8396898203, 8396898202, 8396898201, 2741071598], "tags": {"amenity": "school", "check_date": "2025-02-12", "description": "Basisschool", "isced:level": "0;1", "name": "De Witte Olifant", "phone": "+31 20 624 5000", "website": "https://www.witteolifant.nl"}}, {"type": "way", "id": 917554485, "nodes": [8521991001, 8521991002, 8521991003, 8521991004, 8521991005, 8521991001], "tags": {"amenity": "school"}}, {"type": "way", "id": 958603541, "nodes": [8869677858, 8869677857, 8869677856, 8869677855, 8869677854, 8869677853, 8869677852, 8869677851, 8869677850, 8869677858], "tags": {"amenity": "school", "capacity": "480", "isced:level": "1", "max_age": "12", "min_age": "4", "name": "7\u1d49 Montessorischool", "website": "https://www.7emontessori.nl"}}, {"type": "way", "id": 1015909065, "nodes": [9370609012, 2730040464, 2730041824, 2730041460, 9370609014, 9370609013, 9370609012], "tags": {"addr:city": "Amsterdam", "addr:housenumber": "29-31", "addr:postcode": "1017RV", "addr:street": "Weteringschans", "amenity": "school", "capacity": "850", "check_date": "2025-03-16", "email": "info@barlaeus.nl", "facebook": "barlaeusgymnasium", "isced:level": "2;3", "max_age": "18", "min_age": "12", "name": "Barlaeus Gymnasium", "operator": "Onderwijsstichting Zelfstandige Gymnasia (OSZG)", "phone": "+31 20 626 3396", "website": "https://www.barlaeus.nl", "wheelchair": "yes", "wikidata": "Q808313", "wikimedia_commons": "Category:Barlaeus Gymnasium", "wikipedia": "nl:Barlaeus Gymnasium"}}, {"type": "way", "id": 1131999174, "nodes": [10554938210, 10554938208, 10554938212, 10554938211, 10554938223, 10554938214, 10554938224, 10554938220, 10554938219, 10554938213, 10554938217, 10554938221, 10554938209, 10554938222, 10554938210], "tags": {"amenity": "school", "architect": "Berger Barnett architecten", "building": "school", "isced:level": "0;1", "min_age": "0", "name": "Kindercampus Mokum", "opening_date": "2022-10-15", "ref:bag": "0363100012254473", "source": "BAG", "source:date": "2023-12-24", "start_date": "2023"}}, {"type": "way", "id": 1157806918, "nodes": [10767303499, 10767303500, 10767303501, 10767303502, 10767303503, 10767303504, 10767381005, 10767381006, 10767381007, 10767381008, 10767381009, 10767381010, 10767381011, 10767381012, 10767381013, 10767381014, 10767381015, 10767381016, 10767381017, 10767381018, 10767381019, 10767381020, 10767381021, 10767381022, 10767381023, 10767381024, 10767381025, 10767381026, 10767381027, 10767303499], "tags": {"amenity": "school", "check_date": "2025-10-08", "name": "OBS De Notenkraker"}}, {"type": "way", "id": 1158742783, "nodes": [10775929914, 10775929913, 10775929912, 10775929911, 10775929910, 10775929909, 10775929908, 10775929914], "tags": {"addr:city": "Zaandam", "addr:housenumber": "111B", "addr:postcode": "1503AR", "addr:street": "Galjoenstraat", "amenity": "school", "capacity": "230", "email": "directie@vrijeschoolzaanstreek.nl", "isced:level": "0;1", "max_age": "12", "min_age": "4", "name": "Vrije School Zaanstreek", "operator": "Ithaka", "operator:website": "https://www.vsithaka.nl/", "operator:wikidata": "Q121884111", "pedagogy": "waldorf", "phone": "+31 75 617 4047", "school": "primary", "website": "https://www.vrijeschoolzaanstreek.nl/", "wikidata": "Q22764872"}}, {"type": "way", "id": 1159107433, "nodes": [10779199682, 10779199681, 10779199680, 10779199679, 10779199682], "tags": {"amenity": "school", "isced": "1", "max_age": "12", "min_age": "4", "name": "Vrijeschool Amsterdam West", "operator": "Stichting Geert Groote Scholen", "pedagogy": "waldorf", "website": "https://vrijeschoolamsterdamwest.nl/"}}, {"type": "way", "id": 1159107434, "nodes": [10779199688, 10779199687, 10779199686, 10779199685, 10779199684, 10779199683, 10779199688], "tags": {"amenity": "school", "isced": "1", "max_age": "12", "min_age": "4", "name": "Vrijeschool Kairos", "operator": "Stichting Geert Groote Scholen", "pedagogy": "waldorf", "website": "https://vrijeschoolkairos.nl/"}}, {"type": "way", "id": 1159107435, "nodes": [10779199698, 10779199697, 10779199696, 10779199695, 10779199694, 10779199693, 10779199692, 10779199691, 10779199690, 10779199689, 10779199698], "tags": {"amenity": "school", "isced": "1", "max_age": "12", "min_age": "4", "name": "Vrijeschool Thula", "operator": "Stichting Geert Groote Scholen", "pedagogy": "waldorf", "website": "https://vrijeschoolthula.nl/"}}, {"type": "way", "id": 1169540431, "nodes": [10875154388, 10875154387, 10875154381, 10875154384, 10875154383, 10875154382, 10875154388], "tags": {"addr:city": "Amsterdam", "addr:housenumber": "140", "addr:postcode": "1061TT", "addr:street": "Piet Mondriaanstraat", "amenity": "school", "capacity": "340", "email": "info@denise.espritscholen.nl", "isced:level": "0-4", "max_age": "18", "min_age": "4", "name": "Denise", "operator": "Esprit Scholen", "operator:website": "https://www.espritscholen.nl", "panoramax": "d01681d4-a605-407f-ab1b-89e2f3bb0792", "phone": "+31 20 480 2700", "website": "https://denise.espritscholen.nl"}}, {"type": "way", "id": 1169683987, "nodes": [10876077889, 10876077888, 10876077887, 10876077886, 10876077885, 10876077884, 10876077889], "tags": {"amenity": "school", "capacity": "180", "isced": "1", "max_age": "12", "min_age": "4", "name": "Al Wafa (dependance)", "operator": "Stichting El Amal", "religion": "muslim", "website": "https://www.alwafa.nl/"}}, {"type": "way", "id": 1176513849, "nodes": [10931059276, 10931059275, 10931059274, 10931059273, 10931059276], "tags": {"amenity": "school", "capacity": "90", "isced": "1", "max_age": "12", "min_age": "2", "name": "Kentalis Signis", "operator": "Koninklijke Kentalis", "pedagogy": "voor slechthorende", "website": "https://www.kentalis.nl/onze-scholen/kentalis-signis-amsterdam-so-voor-slechthorende-en-dove-leerlingen"}}, {"type": "way", "id": 1176513850, "nodes": [10931059281, 10931059280, 10931059279, 10931059278, 10931059277, 10931059281], "tags": {"amenity": "school", "isced": "1", "max_age": "13", "min_age": "4", "name": "Kentalis Signis SO/TOS Amsterdam/Assendelft", "operator": "Koninklijke Kentalis", "pedagogy": "voor slechthorende", "website": "https://www.kentalis.nl/onze-scholen/kentalis-signis-amsterdam-en-assendelft-so-voor-kinderen-met-tos"}}, {"type": "way", "id": 1176513851, "nodes": [10931059285, 10931059284, 10931059283, 10931059282, 10931059285], "tags": {"amenity": "school", "capacity": "270", "isced": "1", "max_age": "12", "min_age": "4", "name": "Alexander Roozendaalschool", "operator": "Stichting VierTaal", "pedagogy": "voor slechthorende", "website": "https://roozendaalschool.nl/"}}, {"type": "way", "id": 1176532483, "nodes": [10931236083, 10931236082, 10931236081, 10931236080, 10931236083], "tags": {"amenity": "school", "capacity": "70", "isced": "1", "max_age": "13", "min_age": "2", "name": "Professor H. Burgerschool", "operator": "Stichting VierTaal", "pedagogy": "voor slechthorende", "website": "https://burgerschool.nl/"}}, {"type": "way", "id": 1342437331, "nodes": [12420175387, 12420175388, 2825128625, 2825128614, 2825128375, 2825128351, 12420175389, 2825128328, 12420175390, 12420175393, 12420175387], "tags": {"addr:city": "Amsterdam", "addr:housenumber": "57", "addr:postcode": "1091EG", "addr:street": "Weesperzijde", "amenity": "school", "isced:level": "0;1", "name": "4e Montessorischool De Pinksterbloem", "source": "BAG", "source:date": "2014-03-24", "website": "https://depinksterbloem.nl/"}}, {"type": "way", "id": 1349249581, "nodes": [12480767155, 12480767156, 12480767157, 12480767158, 12480767159, 12480767160, 12480767161, 12480767155], "tags": {"amenity": "school", "name": "Oranje Nassauschool"}}, {"type": "way", "id": 1384061391, "nodes": [12814488204, 12814488203, 12814488202, 12814488201, 12814457900, 12814457899, 12814457898, 12814457897, 12814457896, 12814488204], "tags": {"addr:city": "Amsterdam", "addr:country": "NL", "addr:housenumber": "3", "addr:postcode": "1093KL", "addr:street": "Polderweg", "amenity": "school", "isced:level": "2;3", "name": "Montessori Lyceum Oostpoort", "pedagogy": "montessori", "school": "secondary", "website": "https://oostpoort.nl/"}}, {"type": "way", "id": 1435733816, "nodes": [13196388824, 13196388823, 13196388822, 13196388821, 13196388820, 13196388819, 13196388818, 13196388817, 13196388816, 13196388815, 13196388824], "tags": {"addr:city": "Amsterdam", "addr:housenumber": "61", "addr:postcode": "1098CA", "addr:street": "Hogeweg", "alt_name": "Frankendaelschool", "amenity": "school", "education": "school", "isced:level": "0;1", "name": "Bassischool Frankendael (locatie Hogeweg)", "operator": "AMOS", "operator:website": "https://amosonderwijs.nl", "phone": "+31 20 4638100", "school": "primary", "website": "https://www.frankendaelschool.nl"}}, {"type": "way", "id": 1445440354, "nodes": [13261643787, 13261643788, 13261643789, 2848145756, 2848145735, 2848145713, 2848145703, 2848145622, 13261643790, 13261643791, 13261643792, 13261643793, 2848145592, 13261643794, 13261643795, 13261643796, 13261643797, 13261643798, 13261643799, 2848145767, 13261643800, 13261643787], "tags": {"amenity": "school", "education": "school", "name": "Montessorischool Boven 't IJ"}}, {"type": "way", "id": 1447144969, "nodes": [13277704815, 13277704816, 2808557821, 2808558066, 13277704817, 2808559024, 2808559001, 2808559002, 2808558297, 2808558085, 13277704815], "tags": {"amenity": "school", "education": "school", "name": "IBS El Amien"}}, {"type": "way", "id": 1447577753, "nodes": [2810055310, 13281875291, 13281875292, 2810053917, 2810055310], "tags": {"amenity": "school", "education": "school", "name": "Brede School Annie M.G. Schmidt"}}, {"type": "way", "id": 1452334824, "nodes": [13319182025, 13319182026, 13319182027, 13319182028, 13319182029, 13319182030, 13319182031, 13319182032, 13319182033, 13319182034, 13319182035, 13319182036, 13319182023, 13319182024, 13319182037, 13319182038, 13319182039, 13319182025], "tags": {"amenity": "school", "education": "school", "name": "Kiem Montessori"}}, {"type": "way", "id": 1452336111, "nodes": [13319198836, 13319198837, 13319198838, 13319198835, 13319198833, 13319198834, 13319166130, 13319198839, 13319198840, 13319198836], "tags": {"amenity": "school", "education": "school", "name": "Daltonschool Aldoende 1"}}, {"type": "way", "id": 1452338125, "nodes": [2825272168, 2825272492, 2825272490, 2825272704, 13319198843, 13319198844, 13319198845, 13319198846, 2825273005, 2825272729, 2825272451, 2825272168], "tags": {"amenity": "school", "education": "school", "name": "Daltonschool Aldoende 2"}}, {"type": "way", "id": 1452340704, "nodes": [2826149934, 2826149630, 2826149654, 13319225857, 13319225858, 13319225859, 2826149760, 2826150141, 2826149934], "tags": {"amenity": "school", "education": "school", "name": "MML dependance"}}, {"type": "way", "id": 1452601666, "nodes": [13321804732, 13321804733, 13321804734, 13321804735, 13321804736, 13321804737, 13321786221, 13321786222, 13321804738, 13321804739, 13321804740, 13321804732], "tags": {"amenity": "school", "education": "school", "name": "De Dapper", "website": "https://obsdedapper.nl/"}}, {"type": "way", "id": 1452604953, "nodes": [2827650143, 2827648599, 2827648505, 13321805572, 13321805573, 2827650107, 2827650143], "tags": {"addr:city": "Amsterdam", "addr:housenumber": "315", "addr:postcode": "1093BS", "addr:street": "Dapperstraat", "amenity": "school", "check_date": "2025-06-04", "designation": "havo", "education": "school", "name": "Havo De Hof", "website": "https://www.havodehof.nl"}}, {"type": "way", "id": 1463902628, "nodes": [2809616938, 2809616339, 2809614811, 2809616307, 2809616915, 2809616342, 2809616348, 2300896426, 2809616362, 2809616394, 2809616400, 2809616920, 2809616924, 2809616938], "tags": {"amenity": "school", "education": "school", "name": "Cartesius Lyceum"}}, {"type": "relation", "id": 3673844, "members": [{"type": "way", "ref": 57866233, "role": "outer"}, {"type": "way", "ref": 276253554, "role": "inner"}], "tags": {"amenity": "school", "building": "yes", "education": "school", "name": "Tijl Uilenspiegelschool", "ref:bag": "363100012145399", "source": "BAG", "source:date": "2014-03-24", "start_date": "1978", "type": "multipolygon", "url": "http://www.tijluil.nl"}}, {"type": "relation", "id": 5442482, "members": [{"type": "way", "ref": 362231323, "role": "outer"}, {"type": "way", "ref": 365959578, "role": "inner"}, {"type": "way", "ref": 365959577, "role": "inner"}], "tags": {"addr:city": "Amsterdam", "addr:housenumber": "171", "addr:postcode": "1057BW", "addr:street": "Jan Evertsenstraat", "alt_name": "Hotelschool The Hague locatie Amsterdam", "amenity": "school", "designation": "hogeschool", "name": "Hotelschool", "old_name": "Hoge Hotelschool Amsterdam", "type": "multipolygon", "website": "https://hotelschool.nl/", "wikidata": "Q20775334", "wikimedia_commons": "File:Amsterdam Campus Hotelschool The Hague.jpg", "wikipedia": "nl:Hotelschool The Hague"}}]}