{"version": 0.6, "generator": "Overpass API 0.7.62.8 e802775f", "osm3s": {"timestamp_osm_base": "2026-01-15T15:04:45Z", "copyright": "The data included in this document is from www.openstreetmap.org. The data is made available under ODbL."}, "elements": [{"type": "node", "id": 996487545, "lat": 51.3948319, "lon": 5.4920984}, {"type": "node", "id": 996500053, "lat": 51.3952642, "lon": 5.492222}, {"type": "node", "id": 996783294, "lat": 51.4177707, "lon": 5.4404505}, {"type": "node", "id": 996871850, "lat": 51.4173696, "lon": 5.4405925}, {"type": "node", "id": 996889325, "lat": 51.4169566, "lon": 5.4407673}, {"type": "node", "id": 1240901560, "lat": 51.4231676, "lon": 5.4405895}, {"type": "node", "id": 1240901562, "lat": 51.4230917, "lon": 5.4406127}, {"type": "node", "id": 1240901581, "lat": 51.4230983, "lon": 5.440688}, {"type": "node", "id": 1240901582, "lat": 51.4228, "lon": 5.4407739}, {"type": "node", "id": 1240901584, "lat": 51.4227983, "lon": 5.4407405}, {"type": "node", "id": 1240901587, "lat": 51.4226137, "lon": 5.4407942, "tags": {"barrier": "gate", "entrance": "yes"}}, {"type": "node", "id": 1240901589, "lat": 51.4224941, "lon": 5.4408276}, {"type": "node", "id": 1240901593, "lat": 51.4225068, "lon": 5.4409362, "tags": {"barrier": "gate", "entrance": "yes"}}, {"type": "node", "id": 1240901596, "lat": 51.4225892, "lon": 5.4410447}, {"type": "node", "id": 1240901606, "lat": 51.4226606, "lon": 5.4416529}, {"type": "node", "id": 1240901618, "lat": 51.4232604, "lon": 5.4414802}, {"type": "node", "id": 1243761489, "lat": 51.4230768, "lon": 5.4406934, "tags": {"barrier": "gate", "entrance": "yes"}}, {"type": "node", "id": 1280214700, "lat": 51.3953766, "lon": 5.4918637, "tags": {"addr:city": "Waalre", "addr:housenumber": "1", "addr:postcode": "5583XG", "addr:street": "Maximiliaanlaan", "amenity": "school", "email": "infochristoffelschool@skozok.nl", "isced:level": "0;1", "name": "Christoffelschool", "operator": "SKOzoK", "operator:website": "https://www.skozok.nl/", "operator:wikidata": "Q121770112", "phone": "+31 40 221 3498", "school": "primary", "source": "BAG", "source:date": "2014-06-23", "website": "https://www.christoffelwaalre.nl/", "wikidata": "Q22754107"}}, {"type": "node", "id": 1844599339, "lat": 51.3958232, "lon": 5.4919815, "tags": {"addr:city": "Waalre", "addr:housenumber": "1", "addr:postcode": "5583XG", "addr:street": "Maximiliaanlaan", "amenity": "school", "email": "directie@obsekenrooi.nl", "isced:level": "0;1", "name": "Ekenrooi", "official_name": "Openbare Basisschool Ekenrooi", "operator": "RBOB De Kempen", "operator:website": "https://rbobdekempen.nl/", "operator:wikidata": "Q121782390", "phone": "+31 40 221 3644", "school": "primary", "website": "https://obsekenrooi.nl/", "wikidata": "Q22754539"}}, {"type": "node", "id": 2717571983, "lat": 51.4177212, "lon": 5.4410409}, {"type": "node", "id": 2717571992, "lat": 51.4177276, "lon": 5.4410848}, {"type": "node", "id": 2717572049, "lat": 51.4177928, "lon": 5.4410603}, {"type": "node", "id": 2717572053, "lat": 51.417805, "lon": 5.4406816}, {"type": "node", "id": 2717572059, "lat": 51.4178153, "lon": 5.4412137}, {"type": "node", "id": 2717572081, "lat": 51.4178507, "lon": 5.4409917}, {"type": "node", "id": 2719159482, "lat": 51.4225225, "lon": 5.4410708}, {"type": "node", "id": 2727533688, "lat": 51.4148712, "lon": 5.4487083, "tags": {"addr:city": "Eindhoven", "addr:housenumber": "5", "addr:postcode": "5654JB", "addr:street": "Locatellistraat", "amenity": "school", "name": "Yuverta vmbo Eindhoven", "source": "BAG", "source:date": "2014-02-11", "website": "https://www.yuverta.nl/"}}, {"type": "node", "id": 2738008865, "lat": 51.4163739, "lon": 5.4804889, "tags": {"addr:city": "Eindhoven", "addr:housenumber": "1A", "addr:postcode": "5644RX", "addr:street": "Antoon Coolenlaan", "amenity": "school", "name": "Opleidingscentrum Brabant Water", "office": "company", "operator": "Brabant Water", "operator:wikidata": "Q2458134", "phone": "+31 73 683 8000", "source": "BAG", "source:date": "2014-02-11", "website": "https://www.brabantwater.nl/"}}, {"type": "node", "id": 2739435218, "lat": 51.4211441, "lon": 5.4897226}, {"type": "node", "id": 2739435672, "lat": 51.4214504, "lon": 5.4909815}, {"type": "node", "id": 2739435680, "lat": 51.4214694, "lon": 5.4907362}, {"type": "node", "id": 2739435683, "lat": 51.421526, "lon": 5.4900254}, {"type": "node", "id": 2739435685, "lat": 51.4215434, "lon": 5.4898029}, {"type": "node", "id": 6806357785, "lat": 51.4153044, "lon": 5.4478961}, {"type": "node", "id": 6806357786, "lat": 51.4138908, "lon": 5.44954}, {"type": "node", "id": 6806357788, "lat": 51.4137313, "lon": 5.4485432}, {"type": "node", "id": 6806357790, "lat": 51.415456, "lon": 5.4488558}, {"type": "node", "id": 8997803587, "lat": 51.4144645, "lon": 5.4488496, "tags": {"amenity": "school", "name": "Yuverta het groene lyceum Eindhoven", "website": "https://www.yuverta.nl/"}}, {"type": "node", "id": 9031055321, "lat": 51.4214436, "lon": 5.49108}, {"type": "node", "id": 9031055322, "lat": 51.4207992, "lon": 5.4909625}, {"type": "node", "id": 9031055323, "lat": 51.4208981, "lon": 5.489669}, {"type": "node", "id": 9909991413, "lat": 51.416594, "lon": 5.4902921}, {"type": "node", "id": 9909991414, "lat": 51.4165878, "lon": 5.4903585}, {"type": "node", "id": 9909991415, "lat": 51.4168102, "lon": 5.4904168}, {"type": "node", "id": 9909991416, "lat": 51.4167291, "lon": 5.4914656}, {"type": "node", "id": 9910011217, "lat": 51.4161917, "lon": 5.4913677}, {"type": "node", "id": 9910011218, "lat": 51.4161416, "lon": 5.4912979}, {"type": "node", "id": 9910011219, "lat": 51.4162344, "lon": 5.490219}, {"type": "node", "id": 10218154952, "lat": 51.4230757, "lon": 5.4415334, "tags": {"barrier": "gate"}}, {"type": "node", "id": 10572938812, "lat": 51.4196316, "lon": 5.4597855}, {"type": "node", "id": 10572938813, "lat": 51.4194341, "lon": 5.4606889}, {"type": "node", "id": 10572938814, "lat": 51.4189192, "lon": 5.4604155}, {"type": "node", "id": 10572938815, "lat": 51.4189851, "lon": 5.4600936}, {"type": "node", "id": 10572938816, "lat": 51.4191319, "lon": 5.4594064}, {"type": "node", "id": 10968285978, "lat": 51.4149297, "lon": 5.438718}, {"type": "node", "id": 10968285979, "lat": 51.4151613, "lon": 5.4403452}, {"type": "node", "id": 10968285980, "lat": 51.4155896, "lon": 5.4401884}, {"type": "node", "id": 10968285981, "lat": 51.415358, "lon": 5.4385613}, {"type": "node", "id": 11033279673, "lat": 51.4170061, "lon": 5.4410617}, {"type": "node", "id": 11033279674, "lat": 51.41701, "lon": 5.4411274}, {"type": "node", "id": 11033279675, "lat": 51.4169566, "lon": 5.4414498}, {"type": "node", "id": 11033279676, "lat": 51.4173025, "lon": 5.4415935}, {"type": "node", "id": 11033279677, "lat": 51.4174798, "lon": 5.4416531}, {"type": "node", "id": 11033279678, "lat": 51.4176666, "lon": 5.4416301}, {"type": "node", "id": 11033279679, "lat": 51.4178638, "lon": 5.4415369}, {"type": "node", "id": 11138715388, "lat": 51.3949881, "lon": 5.49158}, {"type": "node", "id": 11138715389, "lat": 51.3953589, "lon": 5.4915539}, {"type": "node", "id": 11138715390, "lat": 51.3954088, "lon": 5.4914281}, {"type": "node", "id": 11138715391, "lat": 51.3959752, "lon": 5.4913971}, {"type": "node", "id": 11138715392, "lat": 51.3959884, "lon": 5.491691}, {"type": "node", "id": 11138715393, "lat": 51.3961545, "lon": 5.4918118}, {"type": "node", "id": 11138715394, "lat": 51.3959796, "lon": 5.4923714}, {"type": "node", "id": 11138762251, "lat": 51.3880242, "lon": 5.4390997}, {"type": "node", "id": 11138762252, "lat": 51.3878986, "lon": 5.4391109}, {"type": "node", "id": 11138762253, "lat": 51.3878986, "lon": 5.4390639}, {"type": "node", "id": 11138762254, "lat": 51.3882747, "lon": 5.4384174}, {"type": "node", "id": 11138762255, "lat": 51.3883464, "lon": 5.4386356}, {"type": "node", "id": 11138762256, "lat": 51.3884077, "lon": 5.4392296}, {"type": "node", "id": 11138762260, "lat": 51.3883228, "lon": 5.4402326}, {"type": "node", "id": 11138762264, "lat": 51.388498, "lon": 5.4393556}, {"type": "node", "id": 11138762265, "lat": 51.3885775, "lon": 5.4400813}, {"type": "node", "id": 11138762266, "lat": 51.3885227, "lon": 5.4401369}, {"type": "node", "id": 11138762267, "lat": 51.3884255, "lon": 5.4402209}, {"type": "node", "id": 11138762268, "lat": 51.3880552, "lon": 5.440263}, {"type": "node", "id": 11138786254, "lat": 51.3961284, "lon": 5.4704882}, {"type": "node", "id": 11138786255, "lat": 51.3960611, "lon": 5.4704604}, {"type": "node", "id": 11138786256, "lat": 51.3958982, "lon": 5.4700334}, {"type": "node", "id": 11138786257, "lat": 51.3957186, "lon": 5.4701982}, {"type": "node", "id": 11138786258, "lat": 51.3962059, "lon": 5.4714049}, {"type": "node", "id": 11138786259, "lat": 51.3963992, "lon": 5.4711833}, {"type": "node", "id": 11400169446, "lat": 51.4154544, "lon": 5.4488338}, {"type": "way", "id": 108111514, "nodes": [1240901560, 1240901562, 1240901581, 1243761489, 1240901582, 1240901584, 1240901587, 1240901589, 1240901593, 2719159482, 1240901596, 1240901606, 10218154952, 1240901618, 1240901560], "tags": {"addr:city": "Eindhoven", "addr:housenumber": "38", "addr:postcode": "5653PK", "addr:street": "Aldendriel", "amenity": "school", "email": "springplank@skpo.nl", "isced:level": "0;1", "name": "De Springplank", "official_name": "Basisschool De Springplank", "operator": "SKPO", "operator:website": "https://www.skpo.nl/", "operator:wikidata": "Q121792961", "phone": "+31 40 252 1905", "school": "primary", "website": "https://despringplank-eindhoven.nl/", "wikidata": "Q22754201"}}, {"type": "way", "id": 725949139, "nodes": [6806357785, 11400169446, 6806357790, 6806357786, 6806357788, 6806357785], "tags": {"amenity": "school", "landuse": "education"}}, {"type": "way", "id": 975885021, "nodes": [2739435685, 2739435683, 2739435680, 2739435672, 9031055321, 9031055322, 9031055323, 2739435218, 2739435685], "tags": {"addr:city": "Eindhoven", "addr:housenumber": "9", "addr:postcode": "5644PK", "addr:street": "Seringenstraat", "amenity": "school", "email": "talisman@skpo.nl", "isced:level": "0;1", "name": "De Talisman", "official_name": "Basisschool de Talisman", "operator": "SKPO", "operator:website": "https://www.skpo.nl/", "operator:wikidata": "Q121792961", "phone": "+31 40 211 2316", "school": "primary", "website": "https://bsdetalisman.nl/", "wikidata": "Q22754200"}}, {"type": "way", "id": 1081207899, "nodes": [9910011219, 9910011218, 9910011217, 9909991416, 9909991415, 9909991414, 9909991413, 9910011219], "tags": {"addr:city": "Eindhoven", "addr:housenumber": "264", "addr:postcode": "5644BN", "addr:street": "Floralaan West", "amenity": "school", "email": "info@bs-floralaan.nl", "isced:level": "0;1", "name": "Floralaan", "official_name": "SALTO-school Floralaan", "operator": "SALTO", "operator:website": "https://www.salto-eindhoven.nl/", "operator:wikidata": "Q121792966", "phone": "+31 40 211 2112", "school": "primary", "website": "https://www.bs-floralaan.nl/", "wikidata": "Q22754432"}}, {"type": "way", "id": 1134065629, "nodes": [10572938812, 10572938813, 10572938814, 10572938815, 10572938816, 10572938812], "tags": {"addr:city": "Eindhoven", "addr:housenumber": "135", "addr:postcode": "5654DD", "addr:street": "Bennekelstraat", "amenity": "school", "email": "kameleon@skpo.nl", "isced:level": "0;1", "name": "De Kameleon", "official_name": "Basisschool de Kameleon", "operator": "SKPO", "operator:website": "https://www.skpo.nl/", "operator:wikidata": "Q121792961", "phone": "+31 40 251 9520", "school": "primary", "website": "https://spilcentrumdebennekel.nl/", "wikidata": "Q22754198"}}, {"type": "way", "id": 1181032001, "nodes": [10968285981, 10968285980, 10968285979, 10968285978, 10968285981], "tags": {"addr:city": "Eindhoven", "addr:housenumber": "1B", "addr:postcode": "5655CP", "addr:street": "Oldengaarde", "amenity": "school", "email": "info@bs-hanevoet.nl", "isced:level": "0;1", "name": "Hanevoet", "official_name": "Saltoschool Hanevoet", "operator": "SALTO", "operator:website": "https://www.salto-eindhoven.nl/", "operator:wikidata": "Q121792966", "phone": "+31 40 251 8972", "school": "primary", "website": "https://www.bshanevoet.nl/", "wikidata": "Q22754430"}}, {"type": "way", "id": 1188172910, "nodes": [2717572053, 2717572081, 2717571983, 2717571992, 2717572049, 2717572059, 11033279679, 11033279678, 11033279677, 11033279676, 11033279675, 11033279674, 11033279673, 996889325, 996871850, 996783294, 2717572053], "tags": {"addr:city": "Eindhoven", "addr:housenumber": "3-5", "addr:postcode": "5655BA", "addr:street": "Keverberg", "amenity": "school", "email": "startblok@skpo.nl", "isced:level": "0;1", "name": "'t Startblok", "official_name": "Basisschool 't Startblok", "operator": "SKPO", "operator:website": "https://www.skpo.nl/", "operator:wikidata": "Q121792961", "phone": "+31 40 251 8710", "school": "primary", "website": "https://www.skpo-startblok.nl", "wikidata": "Q22754191"}}, {"type": "way", "id": 1201408553, "nodes": [11138715394, 11138715393, 11138715392, 11138715391, 11138715390, 11138715389, 11138715388, 996487545, 996500053, 11138715394], "tags": {"amenity": "school", "name": "Brede School Aalst"}}, {"type": "way", "id": 1201416338, "nodes": [11138786259, 11138786258, 11138786257, 11138786256, 11138786255, 11138786254, 11138786259], "tags": {"addr:city": "Waalre", "addr:housenumber": "5", "addr:postcode": "5582JJ", "addr:street": "Willem Smuldersplein", "amenity": "school", "email": "infodedrijfveer@skozok.nl", "isced:level": "0;1", "name": "De Drijfveer", "official_name": "Basisschool De Drijfveer", "operator": "SKOzoK", "operator:website": "https://www.skozok.nl/", "operator:wikidata": "Q121770112", "phone": "+31 40 223 3020", "school": "primary", "website": "https://www.dedrijfveer-waalre.nl/", "wikidata": "Q22754086"}}, {"type": "way", "id": 1201418075, "nodes": [11138762251, 11138762268, 11138762260, 11138762267, 11138762266, 11138762265, 11138762264, 11138762256, 11138762255, 11138762254, 11138762253, 11138762252, 11138762251], "tags": {"addr:city": "Waalre", "addr:housenumber": "1a", "addr:postcode": "5581AS", "addr:street": "Meester Slootsweg", "amenity": "school", "email": "infodewilderen@skozok.nl", "isced:level": "0;1", "name": "De Wilderen", "official_name": "Basisschool De Wilderen", "operator": "SKOzoK", "operator:website": "https://www.skozok.nl/", "operator:wikidata": "Q121770112", "phone": "+31 40 221 3535", "school": "primary", "website": "https://www.dewilderen.nl/", "wikidata": "Q22754106"}}]}