{"version": 0.6, "generator": "Overpass API 0.7.62.8 e802775f", "osm3s": {"timestamp_osm_base": "2026-01-15T04:57:26Z", "copyright": "The data included in this document is from www.openstreetmap.org. The data is made available under ODbL."}, "elements": [{"type": "node", "id": 37022249, "lat": 50.0803558, "lon": 8.7516768}, {"type": "node", "id": 37022254, "lat": 50.0782793, "lon": 8.7543141}, {"type": "node", "id": 37026572, "lat": 50.0774709, "lon": 8.7553841}, {"type": "node", "id": 37028617, "lat": 50.080158, "lon": 8.7500328}, {"type": "node", "id": 37028618, "lat": 50.0778553, "lon": 8.7539907}, {"type": "node", "id": 52746466, "lat": 50.0598415, "lon": 8.7525693}, {"type": "node", "id": 76470508, "lat": 50.0609337, "lon": 8.752741}, {"type": "node", "id": 94206867, "lat": 50.0892017, "lon": 8.752581}, {"type": "node", "id": 409013630, "lat": 50.080771, "lon": 8.7515134, "tags": {"addr:city": "Offenbach am Main", "addr:housenumber": "30", "addr:postcode": "63069", "addr:street": "Am Waldschwimmbad", "amenity": "school", "name": "Oswald-von-Nell-Breuning-Schule"}}, {"type": "node", "id": 760434826, "lat": 50.0890273, "lon": 8.7536787}, {"type": "node", "id": 760434837, "lat": 50.089101, "lon": 8.7537338}, {"type": "node", "id": 867332173, "lat": 50.0902755, "lon": 8.7533792}, {"type": "node", "id": 867332175, "lat": 50.0888952, "lon": 8.7545086}, {"type": "node", "id": 867332176, "lat": 50.0891313, "lon": 8.7537578}, {"type": "node", "id": 867332178, "lat": 50.0888873, "lon": 8.7535771}, {"type": "node", "id": 867332185, "lat": 50.0896058, "lon": 8.7550484}, {"type": "node", "id": 868559169, "lat": 50.0779827, "lon": 8.7557939}, {"type": "node", "id": 2013021454, "lat": 50.0890046, "lon": 8.7536618}, {"type": "node", "id": 2013021473, "lat": 50.0897669, "lon": 8.7549835}, {"type": "node", "id": 2904989751, "lat": 50.0889614, "lon": 8.7545589, "tags": {"access": "private", "barrier": "gate"}}, {"type": "node", "id": 2904989766, "lat": 50.0897676, "lon": 8.7530017, "tags": {"access": "private", "barrier": "gate"}}, {"type": "node", "id": 3392724393, "lat": 50.088962, "lon": 8.7533404}, {"type": "node", "id": 4581306950, "lat": 50.0601151, "lon": 8.7520404}, {"type": "node", "id": 4581306951, "lat": 50.0603269, "lon": 8.7523301}, {"type": "node", "id": 4581306952, "lat": 50.0605284, "lon": 8.7519546}, {"type": "node", "id": 4581306953, "lat": 50.0607367, "lon": 8.7522175}, {"type": "node", "id": 4581306954, "lat": 50.0606575, "lon": 8.7523891}, {"type": "node", "id": 4581306955, "lat": 50.0604888, "lon": 8.7535854}, {"type": "node", "id": 4581306956, "lat": 50.0601565, "lon": 8.7531616}, {"type": "node", "id": 8933104693, "lat": 50.0808502, "lon": 8.7504206}, {"type": "node", "id": 8933104694, "lat": 50.0808695, "lon": 8.75159}, {"type": "node", "id": 8933104695, "lat": 50.0803686, "lon": 8.7517181}, {"type": "way", "id": 73079549, "nodes": [94206867, 2904989766, 867332173, 2013021473, 867332185, 2904989751, 867332175, 867332176, 760434837, 760434826, 2013021454, 867332178, 3392724393, 94206867], "tags": {"addr:city": "Offenbach am Main", "addr:housenumber": "45", "addr:postcode": "63069", "addr:street": "Richard-Wagner-Stra\u00dfe", "amenity": "school", "isced:level": "3B", "name": "August-Bebel-Schule", "phone": "+49 69 8383420", "ref": "6311", "school:de": "Berufsschule", "website": "http://www.abs-of.de/", "wikidata": "Q28124916", "wikipedia": "de:August-Bebel-Schule (Offenbach am Main)"}}, {"type": "way", "id": 169954461, "nodes": [37022254, 868559169, 37026572, 37028618, 37022254], "tags": {"addr:city": "Offenbach am Main", "addr:housenumber": "55", "addr:postcode": "63069", "addr:street": "Auf der Rosenh\u00f6he", "amenity": "school", "contact:website": "http://www.marianne-frostig-schule.de", "isced:level": "1;2A", "name": "Marianne-Frostig-Schule", "ref": "4300", "school:de": "Grundschule;Hauptschule;Realschule", "source": "bs-hessen"}}, {"type": "way", "id": 462796999, "nodes": [52746466, 4581306956, 4581306955, 76470508, 4581306954, 4581306953, 4581306952, 4581306951, 4581306950, 52746466], "tags": {"addr:city": "Neu-Isenburg", "addr:country": "DE", "addr:housenumber": "3", "addr:postcode": "63263", "addr:street": "Dreiherrnsteinplatz", "addr:suburb": "Gravenbruch", "amenity": "school", "isced:level": "1", "name": "Ludwig-Uhland-Schule", "phone": "+49 6102 51823", "ref": "4053", "school:de": "Grundschule", "website": "https://www.ludwig-uhland-schule.de/", "wheelchair": "yes"}}, {"type": "way", "id": 965631792, "nodes": [37022249, 8933104695, 8933104694, 8933104693, 37028617, 37022249], "tags": {"addr:city": "Offenbach am Main", "addr:housenumber": "30", "addr:postcode": "63069", "addr:street": "Am Waldschwimmbad", "amenity": "school"}}]}