{"version": 0.6, "generator": "Overpass API 0.7.62.8 e802775f", "osm3s": {"timestamp_osm_base": "2026-01-12T12:26:30Z", "copyright": "The data included in this document is from www.openstreetmap.org. The data is made available under ODbL."}, "elements": [{"type": "node", "id": 959499253, "lat": 13.1038325, "lon": 77.5824316}, {"type": "node", "id": 959499269, "lat": 13.1034444, "lon": 77.5832071}, {"type": "node", "id": 959499350, "lat": 13.1040823, "lon": 77.583561}, {"type": "node", "id": 959499421, "lat": 13.1047783, "lon": 77.5829508}, {"type": "node", "id": 959499456, "lat": 13.0989794, "lon": 77.5860213}, {"type": "node", "id": 960168726, "lat": 13.097155, "lon": 77.589103}, {"type": "node", "id": 960168733, "lat": 13.0971259, "lon": 77.5896673}, {"type": "node", "id": 960168736, "lat": 13.0973536, "lon": 77.589464}, {"type": "node", "id": 960168756, "lat": 13.0969331, "lon": 77.5893311}, {"type": "node", "id": 1464782617, "lat": 13.0973922, "lon": 77.5964894, "tags": {"amenity": "hospital", "name": "Deeksha Orthopaedic Hospital"}}, {"type": "node", "id": 1464782936, "lat": 13.0993739, "lon": 77.5958636}, {"type": "node", "id": 1464783198, "lat": 13.0997316, "lon": 77.5980216, "tags": {"amenity": "hospital", "name": "Shushrusha Hospital"}}, {"type": "node", "id": 1467969120, "lat": 13.0989833, "lon": 77.5862714}, {"type": "node", "id": 1467969121, "lat": 13.0991728, "lon": 77.5862721}, {"type": "node", "id": 1467969122, "lat": 13.0991754, "lon": 77.5860222}, {"type": "node", "id": 1467969798, "lat": 13.0990911, "lon": 77.5861904, "tags": {"amenity": "hospital", "name": "Chaitanya Hospital", "name:kn": "\u0c9a\u0cc8\u0ca4\u0ca8\u0ccd\u0caf \u0c86\u0cb8\u0ccd\u0caa\u0ca4\u0ccd\u0cb0\u0cc6"}}, {"type": "node", "id": 1988322107, "lat": 13.0834023, "lon": 77.6348642, "tags": {"amenity": "hospital", "name": "Dhanavantri Hospital", "name:kn": "\u0ca7\u0ca8\u0cb5\u0c82\u0ca4\u0ccd\u0cb0\u0cbf \u0c86\u0cb8\u0ccd\u0caa\u0ca4\u0ccd\u0cb0\u0cc6"}}, {"type": "node", "id": 3525489541, "lat": 13.0942398, "lon": 77.5807063}, {"type": "node", "id": 3525489544, "lat": 13.094258, "lon": 77.580793}, {"type": "node", "id": 3525489556, "lat": 13.0942896, "lon": 77.5807347}, {"type": "node", "id": 3525489558, "lat": 13.0942961, "lon": 77.5806021}, {"type": "node", "id": 3525489560, "lat": 13.0943019, "lon": 77.580818}, {"type": "node", "id": 3525489697, "lat": 13.0943898, "lon": 77.5806555}, {"type": "node", "id": 3527811650, "lat": 13.1055233, "lon": 77.577329}, {"type": "node", "id": 3527811679, "lat": 13.1055739, "lon": 77.5772033}, {"type": "node", "id": 3527811740, "lat": 13.1056818, "lon": 77.5773962}, {"type": "node", "id": 3527811771, "lat": 13.1057324, "lon": 77.5772704}, {"type": "node", "id": 3527828448, "lat": 13.0649347, "lon": 77.5935834}, {"type": "node", "id": 3527828450, "lat": 13.0649374, "lon": 77.5936686}, {"type": "node", "id": 3527828730, "lat": 13.0650851, "lon": 77.5935786}, {"type": "node", "id": 3527828732, "lat": 13.0650847, "lon": 77.5935938}, {"type": "node", "id": 3527828768, "lat": 13.0651401, "lon": 77.5935799}, {"type": "node", "id": 3527828769, "lat": 13.0651399, "lon": 77.5935923}, {"type": "node", "id": 3527828802, "lat": 13.065233, "lon": 77.5935784}, {"type": "node", "id": 3527828803, "lat": 13.0652334, "lon": 77.5936504}, {"type": "node", "id": 3568486193, "lat": 13.0541456, "lon": 77.5918608}, {"type": "node", "id": 3568486194, "lat": 13.054307, "lon": 77.5907381}, {"type": "node", "id": 3568486195, "lat": 13.0549213, "lon": 77.592265}, {"type": "node", "id": 3568486196, "lat": 13.0550816, "lon": 77.5908673}, {"type": "node", "id": 4445179843, "lat": 13.0830463, "lon": 77.6347174, "tags": {"addr:city": "Bangalore", "addr:housenumber": "No.30", "addr:postcode": "560064", "addr:street": "Thanisandra Main Road, Chokkanahalli", "amenity": "hospital", "name": "Regal Hospital", "phone": "08033082383", "website": "https://regalhospital.com/"}}, {"type": "node", "id": 4544234694, "lat": 13.0957329, "lon": 77.6273067, "tags": {"addr:district": "Bengaluru Urban", "addr:full": "Agrahara Badavane, Bengaluru", "addr:postcode": "560064", "addr:state": "Karnataka", "amenity": "hospital", "name": "Agarahara Government Hospital", "name:kn": "\u0cb8\u0cb0\u0ccd\u0c95\u0cbe\u0cb0\u0cbf \u0c86\u0cb8\u0ccd\u0caa\u0ca4\u0ccd\u0cb0\u0cc6", "source": "Local Knowledge"}}, {"type": "node", "id": 4800411936, "lat": 13.0995076, "lon": 77.5967218}, {"type": "node", "id": 4800411937, "lat": 13.0991343, "lon": 77.596437}, {"type": "node", "id": 4800411938, "lat": 13.1000088, "lon": 77.596113}, {"type": "node", "id": 5112189133, "lat": 13.0669233, "lon": 77.6393713}, {"type": "node", "id": 5112189134, "lat": 13.0669011, "lon": 77.639487}, {"type": "node", "id": 5112189135, "lat": 13.0667751, "lon": 77.6394615}, {"type": "node", "id": 5112189136, "lat": 13.0667973, "lon": 77.6393458}, {"type": "node", "id": 5421065790, "lat": 13.0542005, "lon": 77.5919053}, {"type": "node", "id": 5421065791, "lat": 13.054239, "lon": 77.5917967}, {"type": "node", "id": 5421065792, "lat": 13.0541995, "lon": 77.5916858}, {"type": "node", "id": 5421065793, "lat": 13.0541407, "lon": 77.5917891}, {"type": "node", "id": 5421065794, "lat": 13.0542541, "lon": 77.5913406}, {"type": "node", "id": 5421065795, "lat": 13.0542127, "lon": 77.5913337}, {"type": "node", "id": 5421065796, "lat": 13.054567, "lon": 77.5912782}, {"type": "node", "id": 5421065797, "lat": 13.0546096, "lon": 77.5912854}, {"type": "node", "id": 5421065798, "lat": 13.0545416, "lon": 77.5914389}, {"type": "node", "id": 5421065799, "lat": 13.0546237, "lon": 77.5914526}, {"type": "node", "id": 5421065800, "lat": 13.0545876, "lon": 77.591681}, {"type": "node", "id": 5421065801, "lat": 13.0546233, "lon": 77.591199}, {"type": "node", "id": 5421065802, "lat": 13.0546848, "lon": 77.5912092}, {"type": "node", "id": 5421065803, "lat": 13.0546947, "lon": 77.5911464}, {"type": "node", "id": 5421065804, "lat": 13.0550028, "lon": 77.5917502}, {"type": "node", "id": 5421065805, "lat": 13.0550286, "lon": 77.5912021}, {"type": "node", "id": 5421065806, "lat": 13.054661, "lon": 77.5919066}, {"type": "node", "id": 5421065807, "lat": 13.0548592, "lon": 77.5921559}, {"type": "node", "id": 5421065808, "lat": 13.054844, "lon": 77.5922521}, {"type": "node", "id": 5421065809, "lat": 13.0546532, "lon": 77.5919938}, {"type": "node", "id": 5520252375, "lat": 13.0552027, "lon": 77.6028234, "tags": {"addr:district": "Bengaluru Urban", "addr:full": "Bhuvaneswari Nagar, Hebbal Kempapura, Bengaluru", "addr:postcode": "560024", "addr:state": "Karnataka", "amenity": "hospital", "healthcare": "yes", "name": "Care Health", "source": "Local Knowledge"}}, {"type": "node", "id": 5966255497, "lat": 13.066842, "lon": 77.6390545, "tags": {"amenity": "hospital", "name": "Bangalore Prime Hospital"}}, {"type": "node", "id": 5983331355, "lat": 13.118638, "lon": 77.6078781, "tags": {"amenity": "hospital", "name": "CyteCare", "name:ar": "\u0628\u062a\u064a \u0633\u0643\u0627\u0646"}}, {"type": "node", "id": 6380900077, "lat": 13.0711049, "lon": 77.5781394, "tags": {"amenity": "hospital", "check_date": "2024-07-21", "healthcare": "hospital", "healthcare:speciality": "general", "name": "Medical Center", "operator": "NCBS/InStem"}}, {"type": "node", "id": 6630713206, "lat": 13.1001877, "lon": 77.5813432, "tags": {"addr:district": "Bengaluru Urban", "addr:full": "Yelahanka New Town, Bengaluru", "addr:postcode": "560064", "addr:state": "Karnataka", "amenity": "hospital", "healthcare": "hospital", "name": "Omega Multispeciality Hospital", "source": "Local Knowledge"}}, {"type": "node", "id": 6630713207, "lat": 13.0957808, "lon": 77.5792872, "tags": {"amenity": "hospital", "healthcare": "hospital", "name": "NDR Hospital"}}, {"type": "node", "id": 6779119335, "lat": 13.0665572, "lon": 77.59647, "tags": {"amenity": "hospital", "name": "Venus Bone & Joint Centre", "opening_hours": "Mo-Su 10:00-21:00"}}, {"type": "node", "id": 6809569067, "lat": 13.0992387, "lon": 77.5970187}, {"type": "node", "id": 6809733828, "lat": 13.0981599, "lon": 77.5969292}, {"type": "node", "id": 6809733829, "lat": 13.0981441, "lon": 77.5971325}, {"type": "node", "id": 6809733830, "lat": 13.0983124, "lon": 77.597165}, {"type": "node", "id": 6809733831, "lat": 13.0983361, "lon": 77.5969496}, {"type": "node", "id": 6809739530, "lat": 13.0990243, "lon": 77.5969099}, {"type": "node", "id": 6809739537, "lat": 13.0993447, "lon": 77.5968756}, {"type": "node", "id": 6809739538, "lat": 13.0990763, "lon": 77.5967124}, {"type": "node", "id": 6856463341, "lat": 13.0552189, "lon": 77.5908995}, {"type": "node", "id": 6856463342, "lat": 13.0548361, "lon": 77.5931672}, {"type": "node", "id": 6856463344, "lat": 13.0550268, "lon": 77.5920718}, {"type": "node", "id": 6938637677, "lat": 13.0965172, "lon": 77.5787745, "tags": {"addr:district": "Bengaluru Urban", "addr:full": "2118, 12Th Main RoadB Sector, 3Road Phase Yalahanka New Toen", "addr:postcode": "560064", "addr:state": "Karnataka", "amenity": "hospital", "name": "N.D.R. Hospital", "source": "OpenGovernmentData"}}, {"type": "node", "id": 6938775815, "lat": 13.103924, "lon": 77.5837862, "tags": {"addr:district": "Bengaluru Urban", "addr:full": "No.32/1, Maruthi Complex,M S Nagar Bus Stop,Banaswadi Road", "addr:postcode": "560083", "addr:state": "Karnataka", "amenity": "hospital", "name": "Apple Hospital", "source": "OpenGovernmentData"}}, {"type": "node", "id": 6938777940, "lat": 13.0945892, "lon": 77.594104, "tags": {"addr:district": "Bengaluru Urban", "addr:full": "No 150/3 Jnrt Mansion B.B. Road", "addr:postcode": "560064", "addr:state": "Karnataka", "amenity": "hospital", "check_date": "2024-09-27", "name": "North City CT Scan", "source": "OpenGovernmentData"}}, {"type": "node", "id": 6944231456, "lat": 13.0555559, "lon": 77.6517145, "tags": {"addr:district": "Bengaluru Urban", "addr:full": "85 Byrathi, Hennur Main Road,Near Kothnur Police Station", "addr:postcode": "560077", "addr:state": "Karnataka", "amenity": "hospital", "name": "Medi Derma Hospital", "source": "OpenGovernmentData"}}, {"type": "node", "id": 6944464768, "lat": 13.0983472, "lon": 77.5773677, "tags": {"addr:district": "Bengaluru Urban", "addr:full": "2069/2074, 16Th B Cross, (Near Mother Dairy Cross), Yelahanka New Town", "addr:postcode": "560064", "addr:state": "Karnataka", "amenity": "hospital", "check_date": "2024-10-18", "name": "Prasad Hospital, Bengaluru Urban", "source": "OpenGovernmentData"}}, {"type": "node", "id": 6944464779, "lat": 13.1215236, "lon": 77.6126106, "tags": {"addr:district": "Bengaluru Urban", "addr:full": "Near Bagalur Cross Signal,International Airport Main Road,Yelahanka", "addr:postcode": "560063", "addr:state": "Karnataka", "amenity": "hospital", "name": "Saranalaya Hospital", "source": "OpenGovernmentData"}}, {"type": "node", "id": 6944577884, "lat": 13.0657486, "lon": 77.5992653, "tags": {"addr:district": "Bengaluru Urban", "addr:full": "No. 1, Near Water Tank Jakkur Main Road Amruthahalli", "addr:postcode": "560092", "addr:state": "Karnataka", "amenity": "hospital", "name": "Amrutha Hospital", "name:kn": "\u0c85\u0c82\u0cac\u0cc1\u0cb0\u0ccd \u0cac\u0cbf\u0cb0\u0cbf\u0caf\u0cbe\u0ca8\u0cbf", "source": "OpenGovernmentData"}}, {"type": "node", "id": 7160738534, "lat": 13.1251406, "lon": 77.5766411}, {"type": "node", "id": 7160738535, "lat": 13.1247623, "lon": 77.5768435}, {"type": "node", "id": 7160738536, "lat": 13.1244278, "lon": 77.5761846}, {"type": "node", "id": 7160738537, "lat": 13.1248061, "lon": 77.5759822}, {"type": "node", "id": 7213498681, "lat": 13.0701337, "lon": 77.6329103, "tags": {"addr:district": "Bengaluru Urban", "addr:full": "Sri Balaji Krupa Layout", "addr:postcode": "560077", "addr:state": "Karnataka", "amenity": "hospital", "name": "Sai Hospital", "source": "OpenGovernmentData"}}, {"type": "node", "id": 7220757461, "lat": 13.10366, "lon": 77.583583}, {"type": "node", "id": 7220757462, "lat": 13.1034046, "lon": 77.5838561}, {"type": "node", "id": 7220757463, "lat": 13.1035651, "lon": 77.5840143}, {"type": "node", "id": 7220757464, "lat": 13.1038205, "lon": 77.5837412}, {"type": "node", "id": 7228243337, "lat": 13.1187812, "lon": 77.607793}, {"type": "node", "id": 7228243338, "lat": 13.1185496, "lon": 77.607733}, {"type": "node", "id": 7481856921, "lat": 13.0651824, "lon": 77.5936535}, {"type": "node", "id": 7481856922, "lat": 13.0651839, "lon": 77.5936879}, {"type": "node", "id": 7481856923, "lat": 13.0651451, "lon": 77.5936901}, {"type": "node", "id": 7481856924, "lat": 13.0651442, "lon": 77.5936628}, {"type": "node", "id": 7577248265, "lat": 13.065863, "lon": 77.604213, "tags": {"addr:district": "Bengaluru Urban", "addr:full": "Swami Vivekananda Layout, Amrutahalli, Bengaluru", "addr:postcode": "560092", "addr:state": "Karnataka", "amenity": "hospital", "name": "Axis Hospital", "source": "Local Knowledge"}}, {"type": "node", "id": 7577248269, "lat": 13.0658472, "lon": 77.5992844, "tags": {"addr:district": "Bengaluru Urban", "addr:full": "Talacauvery Layout, Sneha Nagar, Byatarayanapura, Bengaluru", "addr:postcode": "560092", "addr:state": "Karnataka", "amenity": "hospital", "healthcare": "hospital", "name": "Eswar Women and Day Care Hospital", "source": "Local Knowledge"}}, {"type": "node", "id": 7579683177, "lat": 13.1051735, "lon": 77.6027864, "tags": {"addr:district": "Bengaluru Urban", "addr:full": "Kogilu Main Road, Maruthi Nagar, Yelahanka, Bengaluru", "addr:postcode": "560064", "addr:state": "Karnataka", "amenity": "hospital", "name": "NDR Multi Speciality Hospital", "source": "Local Knowledge"}}, {"type": "node", "id": 7579683193, "lat": 13.120977, "lon": 77.6176084, "tags": {"addr:district": "Bengaluru Urban", "addr:full": "Dwarka Nagar, Bengaluru", "addr:postcode": "560064", "addr:state": "Karnataka", "amenity": "hospital", "name": "Valens Hospitals", "source": "Local Knowledge"}}, {"type": "node", "id": 7579683203, "lat": 13.1039081, "lon": 77.5754898, "tags": {"addr:district": "Bengaluru Urban", "addr:full": "Yelahanka New Town, Bengaluru", "addr:postcode": "560064", "addr:state": "Karnataka", "amenity": "hospital", "name": "Bengalure Hospital", "source": "Local Knowledge"}}, {"type": "node", "id": 7579683207, "lat": 13.1179919, "lon": 77.6084693}, {"type": "node", "id": 7579683213, "lat": 13.102578, "lon": 77.627895, "tags": {"addr:district": "Bengaluru Urban", "addr:full": "Agrahara Badavane, Bengaluru", "addr:postcode": "560064", "addr:state": "Karnataka", "amenity": "hospital", "name": "Amruth Hospital", "name:kn": "\u0c85\u0cae\u0cc3\u0ca4 \u0c86\u0cb8\u0ccd\u0caa\u0ca4\u0ccd\u0cb0\u0cc6", "source": "Local Knowledge"}}, {"type": "node", "id": 7579683215, "lat": 13.098943, "lon": 77.576716, "tags": {"addr:district": "Bengaluru Urban", "addr:full": "Udaya Layout, Yelahanka New Town, Bengaluru", "addr:postcode": "560106", "addr:state": "Karnataka", "amenity": "hospital", "name": "Rangalakshmi Netralaya", "source": "Local Knowledge"}}, {"type": "node", "id": 7579683217, "lat": 13.121743, "lon": 77.629478, "tags": {"addr:district": "Bengaluru Urban", "addr:full": "Saralaya Layout, Kattigenahalli, Bengaluru", "addr:postcode": "560064", "addr:state": "Karnataka", "amenity": "hospital", "name": "Saralaya Hospital", "source": "Local Knowledge"}}, {"type": "node", "id": 7579683219, "lat": 13.101335, "lon": 77.59858, "tags": {"addr:district": "Bengaluru Urban", "addr:full": "BB Road, Yelahanka, Bengaluru", "addr:postcode": "560064", "addr:state": "Karnataka", "amenity": "hospital", "name": "Apurva Hospital", "source": "Local Knowledge"}}, {"type": "node", "id": 7579683220, "lat": 13.1215701, "lon": 77.6126077, "tags": {"addr:district": "Bengaluru Urban", "addr:full": "Vinayak Nagar, Kattigenahalli, Bengaluru", "addr:postcode": "560063", "addr:state": "Karnataka", "amenity": "hospital", "name": "Om Shakthi Hospital", "source": "Local Knowledge"}}, {"type": "node", "id": 7579683225, "lat": 13.1025229, "lon": 77.6278506, "tags": {"addr:district": "Bengaluru Urban", "addr:full": "Kogilu Layout, Srinivaspur, Bengaluru", "addr:postcode": "560064", "addr:state": "Karnataka", "amenity": "hospital", "name": "Shadab Hospital", "source": "Local Knowledge"}}, {"type": "node", "id": 7579683228, "lat": 13.0997321, "lon": 77.5760891, "tags": {"addr:district": "Bengaluru Urban", "addr:full": "Yelahanka New Town, Bengaluru", "addr:postcode": "560064", "addr:state": "Karnataka", "amenity": "hospital", "name": "Rainbow Health Care", "source": "Local Knowledge"}}, {"type": "node", "id": 7579683232, "lat": 13.098909, "lon": 77.596219, "tags": {"addr:district": "Bengaluru Urban", "addr:full": "Gandhi Nagar, Yelahanka, Bengaluru", "addr:postcode": "560064", "addr:state": "Karnataka", "amenity": "hospital", "name": "Jayalakshmi Hospital", "source": "Local Knowledge"}}, {"type": "node", "id": 7579683237, "lat": 13.10051, "lon": 77.595603, "tags": {"addr:district": "Bengaluru Urban", "addr:full": "Gandhi Nagar, Yelahanka, Bengaluru", "addr:postcode": "560064", "addr:state": "Karnataka", "amenity": "hospital", "name": "NDR Orthopaedic", "source": "Local Knowledge"}}, {"type": "node", "id": 7579683240, "lat": 13.1215659, "lon": 77.6250507, "tags": {"addr:district": "Bengaluru Urban", "addr:full": "Kattigenahalli, Bengaluru", "addr:postcode": "560064", "addr:state": "Karnataka", "amenity": "hospital", "name": "Sri Arogya Hospital", "source": "Local Knowledge"}}, {"type": "node", "id": 7579683247, "lat": 13.1213668, "lon": 77.6174817, "tags": {"addr:district": "Bengaluru Urban", "addr:full": "Bagalur Main Road, Vinayak Nagar, Kattigenahalli, Bengaluru", "addr:postcode": "560064", "addr:state": "Karnataka", "amenity": "hospital", "name": "Sapthagiri Hospital", "source": "Local Knowledge"}}, {"type": "node", "id": 7579683251, "lat": 13.0981485, "lon": 77.596139, "tags": {"addr:district": "Bengaluru Urban", "addr:full": "Gandhi Nagar, Yelahanka, Bengaluru", "addr:postcode": "560064", "addr:state": "Karnataka", "amenity": "hospital", "name": "Pavan Hospitals", "source": "Local Knowledge"}}, {"type": "node", "id": 7579683252, "lat": 13.0938081, "lon": 77.5804166, "tags": {"addr:district": "Bengaluru Urban", "addr:full": "Chikka Bommasandra, Yelahanka, Bengaluru", "addr:postcode": "560065", "addr:state": "Karnataka", "amenity": "hospital", "name": "Kushi Hospital", "source": "Local Knowledge"}}, {"type": "node", "id": 7579683258, "lat": 13.1026581, "lon": 77.6297932, "tags": {"addr:district": "Bengaluru Urban", "addr:full": "Kogilu Layout, Srinivaspur, Bengaluru", "addr:postcode": "560064", "addr:state": "Karnataka", "amenity": "hospital", "name": "Varsha Hospital", "source": "Local Knowledge"}}, {"type": "node", "id": 7579683261, "lat": 13.098668, "lon": 77.5826843, "tags": {"addr:district": "Bengaluru Urban", "addr:full": "Yelahanka New Town, Bengaluru", "addr:postcode": "560064", "addr:state": "Karnataka", "amenity": "hospital", "name": "Just Smiles", "source": "Local Knowledge"}}, {"type": "node", "id": 9583428982, "lat": 13.0546728, "lon": 77.5931793}, {"type": "node", "id": 9583428983, "lat": 13.0546388, "lon": 77.592718}, {"type": "node", "id": 9583428984, "lat": 13.0538393, "lon": 77.5925893}, {"type": "node", "id": 9583428985, "lat": 13.0541567, "lon": 77.5905622}, {"type": "node", "id": 9583428987, "lat": 13.0552242, "lon": 77.5907276}, {"type": "node", "id": 9583509829, "lat": 13.0654167, "lon": 77.5935557}, {"type": "node", "id": 9583509830, "lat": 13.0654309, "lon": 77.5939331}, {"type": "node", "id": 9583509831, "lat": 13.0657388, "lon": 77.5939209}, {"type": "node", "id": 9583509833, "lat": 13.0657246, "lon": 77.5935435}, {"type": "node", "id": 9895573793, "lat": 13.1185209, "lon": 77.6086074}, {"type": "node", "id": 10162630524, "lat": 13.0950516, "lon": 77.5992599}, {"type": "node", "id": 10162630525, "lat": 13.095194, "lon": 77.5981065}, {"type": "node", "id": 10310592617, "lat": 13.0970149, "lon": 77.6473961}, {"type": "node", "id": 10866713099, "lat": 13.0974777, "lon": 77.6481082}, {"type": "node", "id": 10866713100, "lat": 13.097691, "lon": 77.6475458}, {"type": "node", "id": 10866713101, "lat": 13.0968569, "lon": 77.6478758}, {"type": "node", "id": 10983994604, "lat": 13.1166292, "lon": 77.5803097}, {"type": "node", "id": 10984067905, "lat": 13.1164816, "lon": 77.5799363}, {"type": "node", "id": 10984067906, "lat": 13.1167293, "lon": 77.5798331}, {"type": "node", "id": 10984067907, "lat": 13.1168769, "lon": 77.5802064}, {"type": "node", "id": 11215500089, "lat": 13.054479, "lon": 77.5905717}, {"type": "node", "id": 11407254183, "lat": 13.058128, "lon": 77.5860405, "tags": {"amenity": "hospital", "name": "MEDSTAR Speciality Hospital"}}, {"type": "node", "id": 11446070477, "lat": 13.0937055, "lon": 77.5892875}, {"type": "node", "id": 11446070478, "lat": 13.0937773, "lon": 77.5894886}, {"type": "node", "id": 11446070479, "lat": 13.0938878, "lon": 77.589447}, {"type": "node", "id": 11446070480, "lat": 13.0938159, "lon": 77.5892459}, {"type": "node", "id": 11774879292, "lat": 13.054313, "lon": 77.5926656}, {"type": "node", "id": 11818074027, "lat": 13.0951049, "lon": 77.5988225}, {"type": "node", "id": 11818722309, "lat": 13.1184751, "lon": 77.6087174}, {"type": "node", "id": 11818722310, "lat": 13.1181186, "lon": 77.6076941}, {"type": "node", "id": 11949327621, "lat": 13.0624568, "lon": 77.592227, "tags": {"amenity": "hospital", "check_date": "2024-06-01", "healthcare": "hospital", "name": "Manipal Hospital OPD", "phone": "18001025555"}}, {"type": "node", "id": 12031533571, "lat": 13.092567, "lon": 77.5863893}, {"type": "node", "id": 12031533572, "lat": 13.0924148, "lon": 77.58639}, {"type": "node", "id": 12031533573, "lat": 13.0924143, "lon": 77.586276}, {"type": "node", "id": 12031533574, "lat": 13.0925665, "lon": 77.5862753}, {"type": "node", "id": 12056743550, "lat": 13.0988482, "lon": 77.5978974, "tags": {"amenity": "hospital", "name": "Ashwini Hospital"}}, {"type": "node", "id": 12089081037, "lat": 13.1044566, "lon": 77.5832328}, {"type": "node", "id": 12117952601, "lat": 13.0620051, "lon": 77.5930638, "tags": {"addr:street": "Bellary Road", "amenity": "hospital", "name": "Motherhood Children's Hospital", "opening_hours": "24/7"}}, {"type": "node", "id": 12564799787, "lat": 13.0551418, "lon": 77.5915325}, {"type": "node", "id": 12564799788, "lat": 13.0551287, "lon": 77.5914077}, {"type": "node", "id": 12784988443, "lat": 13.0947367, "lon": 77.5991305}, {"type": "node", "id": 12784988444, "lat": 13.0947682, "lon": 77.5989917}, {"type": "node", "id": 12784988445, "lat": 13.0948557, "lon": 77.5987362}, {"type": "node", "id": 12784988446, "lat": 13.0949705, "lon": 77.5980299}, {"type": "node", "id": 13119704697, "lat": 13.1150719, "lon": 77.6337691}, {"type": "node", "id": 13119704698, "lat": 13.1150331, "lon": 77.6340479}, {"type": "node", "id": 13119704699, "lat": 13.1152061, "lon": 77.6340733}, {"type": "node", "id": 13119704700, "lat": 13.1152449, "lon": 77.6337945}, {"type": "way", "id": 82432632, "nodes": [959499253, 959499421, 12089081037, 959499350, 959499269, 959499253], "tags": {"addr:district": "Bengaluru Urban", "addr:full": "Yelahanka", "addr:postcode": "560064", "addr:state": "Karnataka", "amenity": "hospital", "healthcare": "hospital", "name": "Railways Hospital", "name:kn": "\u0cb0\u0cc8\u0cb2\u0ccd\u0cb5\u0cc7 \u0c86\u0cb8\u0ccd\u0caa\u0ca4\u0ccd\u0cb0\u0cc6", "source": "OpenGovernmentData"}}, {"type": "way", "id": 82494617, "nodes": [960168736, 960168726, 960168756, 960168733, 960168736], "tags": {"addr:district": "Bengaluru Urban", "addr:full": "No: 9, A1, A2, Opp. MEC School, A-Sector Yelahanka", "addr:postcode": "560064", "addr:state": "Karnataka", "amenity": "hospital", "check_date": "2024-09-27", "healthcare": "hospital", "name": "KK Hospital", "source": "OpenGovernmentData"}}, {"type": "way", "id": 133352357, "nodes": [1467969121, 1467969122, 959499456, 1467969120, 1467969121], "tags": {"amenity": "hospital", "name": "Chaitanya Nursing Home"}}, {"type": "way", "id": 345926542, "nodes": [3525489697, 3525489560, 3525489544, 3525489556, 3525489541, 3525489558, 3525489697], "tags": {"amenity": "hospital", "building": "hospital", "check_date": "2024-07-16", "name": "Dr. Agarwal Eye Hospital"}}, {"type": "way", "id": 346190765, "nodes": [3527811740, 3527811650, 3527811679, 3527811771, 3527811740], "tags": {"alt_name": "SLV Prasad Hospital (A Unit of Sri Lakshmi Venkateshwara Hospitals Pvt Ltd)", "amenity": "hospital", "building": "yes", "healthcare": "hospital", "name": "Sri Lakshmi Venkateshwara Hospital", "name:kn": "\u0cb6\u0ccd\u0cb0\u0cc0 \u0cb2\u0c95\u0ccd\u0cb7\u0ccd\u0cae\u0cc0 \u0cb5\u0cc6\u0c82\u0c95\u0c9f\u0cc7\u0cb6\u0ccd\u0cb5\u0cb0 \u0c86\u0cb8\u0ccd\u0caa\u0ca4\u0ccd\u0cb0\u0cc6"}}, {"type": "way", "id": 346195951, "nodes": [3527828802, 3527828803, 7481856921, 7481856922, 7481856923, 7481856924, 3527828450, 3527828448, 3527828730, 3527828732, 3527828769, 3527828768, 3527828802], "tags": {"addr:district": "Bengaluru Urban", "addr:full": "Byatarayanapura, Bengaluru", "addr:postcode": "560092", "addr:state": "Karnataka", "amenity": "hospital", "building": "hospital", "healthcare": "hospital", "name": "Prolife Hospital", "source": "Local Knowledge"}}, {"type": "way", "id": 351121389, "nodes": [3568486196, 5421065805, 5421065803, 5421065802, 5421065801, 5421065797, 5421065796, 5421065798, 5421065799, 5421065800, 5421065804, 3568486195, 5421065808, 5421065807, 5421065806, 5421065809, 5421065790, 3568486193, 5421065793, 5421065791, 5421065792, 5421065794, 5421065795, 3568486194, 3568486196], "tags": {"amenity": "hospital", "building": "yes"}}, {"type": "way", "id": 487591672, "nodes": [4800411938, 1464782936, 4800411937, 4800411936, 4800411938], "tags": {"addr:district": "Bangalore", "addr:full": "Bagaluru Cross, Yelahanka, Armed Police Training School", "addr:postcode": "560063", "addr:state": "Karnataka", "addr:subdistrict": "Bangalore North", "amenity": "hospital", "healthcare": "hospital", "name": "Yelahanka Government Hospital", "name:kn": "\u0caf\u0cb2\u0cb9\u0c82\u0c95 \u0cb8\u0cb0\u0ccd\u0c95\u0cbe\u0cb0\u0cbf \u0c86\u0cb8\u0ccd\u0caa\u0ca4\u0ccd\u0cb0\u0cc6", "source": "OpenGovernmentData"}}, {"type": "way", "id": 525508983, "nodes": [5112189133, 5112189134, 5112189135, 5112189136, 5112189133], "tags": {"amenity": "hospital", "emergency": "yes", "name": "Shirdi Sai Hospital", "name:kn": "\u0cb6\u0cbf\u0cb0\u0ca1\u0cbf \u0cb8\u0cbe\u0caf\u0cbf \u0c86\u0cb8\u0ccd\u0caa\u0ca4\u0ccd\u0cb0\u0cc6"}}, {"type": "way", "id": 726497370, "nodes": [6809739530, 6809569067, 6809739537, 6809739538, 6809739530], "tags": {"amenity": "hospital", "healthcare": "hospital", "name": "Government Hospital", "name:kn": "\u0cb8\u0cb0\u0ccd\u0c95\u0cbe\u0cb0\u0cbf \u0c86\u0cb8\u0ccd\u0caa\u0ca4\u0ccd\u0cb0\u0cc6"}}, {"type": "way", "id": 726506664, "nodes": [6809733828, 6809733829, 6809733830, 6809733831, 6809733828], "tags": {"addr:district": "Bengaluru Urban", "addr:full": "387/347, Next To Post Office, B.B.Road Nehru Nagar, Yehlanka Old Town", "addr:postcode": "560064", "addr:state": "Karnataka", "amenity": "hospital", "healthcare": "hospital", "name": "Deeksha Hospital", "name:kn": "\u0ca6\u0cc0\u0c95\u0ccd\u0cb7 \u0c86\u0cb8\u0ccd\u0caa\u0ca4\u0ccd\u0cb0\u0cc6", "source": "OpenGovernmentData"}}, {"type": "way", "id": 766720021, "nodes": [7160738537, 7160738536, 7160738535, 7160738534, 7160738537], "tags": {"amenity": "hospital", "name": "CRPF Hospital", "name:kn": "\u0c95\u0cc7\u0c82\u0ca6\u0ccd\u0cb0 \u0cae\u0cc0\u0cb8\u0cb2\u0cc1 \u0caa\u0ca1\u0cc6 \u0c86\u0cb8\u0ccd\u0caa\u0ca4\u0ccd\u0cb0\u0cc6", "wheelchair": "yes"}}, {"type": "way", "id": 773577275, "nodes": [7220757464, 7220757463, 7220757462, 7220757461, 7220757464], "tags": {"addr:postcode": "560064", "addr:state": "Karnataka", "addr:street": "3rd B Cross Road", "amenity": "hospital", "building": "hospital", "check_date": "2024-12-25", "name": "Navachethana Hospital", "source": "local knowledge", "wheelchair": "yes"}}, {"type": "way", "id": 1040899005, "nodes": [6856463341, 9583428987, 11215500089, 9583428985, 9583428984, 11774879292, 9583428983, 9583428982, 6856463342, 6856463344, 12564799787, 12564799788, 6856463341], "tags": {"amenity": "hospital", "name": "Aster CMI Hospital"}}, {"type": "way", "id": 1040899015, "nodes": [9583509833, 9583509831, 9583509830, 9583509829, 9583509833], "tags": {"amenity": "hospital", "name": "Rainbow Children's Hospital"}}, {"type": "way", "id": 1110808778, "nodes": [12784988443, 12784988444, 12784988445, 12784988446, 10162630525, 11818074027, 10162630524, 12784988443], "tags": {"amenity": "hospital", "name": "Sparsh Hospital"}}, {"type": "way", "id": 1168448945, "nodes": [10866713099, 10866713100, 10310592617, 10866713101, 10866713099], "tags": {"addr:city": "Bengaluru", "addr:postcode": "562149", "addr:street": "Kannuru Main Road, Mitganahalli, Bellahalli", "amenity": "hospital", "healthcare": "hospital", "name": "Government Primary Health Centre", "name:kn": "\u0cb8\u0cb0\u0ccd\u0c95\u0cbe\u0cb0\u0cbf \u0caa\u0ccd\u0cb0\u0cbe\u0ca5\u0cae\u0cbf\u0c95 \u0c86\u0cb0\u0ccb\u0c97\u0ccd\u0caf \u0c95\u0cc7\u0c82\u0ca6\u0ccd\u0cb0", "operator": "Health and Family Welfare Development", "operator:type": "government"}}, {"type": "way", "id": 1182880586, "nodes": [10984067907, 10984067906, 10984067905, 10983994604, 10984067907], "tags": {"amenity": "hospital", "name": "KPTCL Hospital Yelahanka"}}, {"type": "way", "id": 1233498703, "nodes": [11446070480, 11446070479, 11446070478, 11446070477, 11446070480], "tags": {"amenity": "hospital", "building": "hospital", "healthcare": "hospital", "name": "Anupamaa Hospital"}}, {"type": "way", "id": 1272767220, "nodes": [7228243337, 7228243338, 11818722310, 7579683207, 11818722309, 9895573793, 7228243337], "tags": {"addr:district": "Bengaluru Urban", "addr:full": "BSF Campus, Yelahanka, Bengaluru", "addr:postcode": "560064", "addr:state": "Karnataka", "amenity": "hospital", "name": "Brains Hospital", "source": "Local Knowledge"}}, {"type": "way", "id": 1298823129, "nodes": [12031533574, 12031533571, 12031533572, 12031533573, 12031533574], "tags": {"addr:district": "Bengaluru Urban", "addr:housenumber": "971/24", "addr:postcode": "560064", "addr:state": "Karnataka", "addr:street": "15th A Cross", "amenity": "hospital", "building": "hospital", "building:colour": "#cccccc", "building:levels": "4", "name": "Chaitanya Medical Centre Maternity and Surgical Care", "opening_hours": "24/7", "roof:levels": "1", "roof:shape": "flat", "source": "OpenGovernmentData", "wheelchair": "yes"}}, {"type": "way", "id": 1427144679, "nodes": [13119704700, 13119704699, 13119704698, 13119704697, 13119704700], "tags": {"amenity": "hospital", "building": "hospital", "name": "Apex Hospital"}}]}