{"version": 0.6, "generator": "Overpass API 0.7.62.8 e802775f", "osm3s": {"timestamp_osm_base": "2026-01-13T07:26:00Z", "copyright": "The data included in this document is from www.openstreetmap.org. The data is made available under ODbL."}, "elements": [{"type": "node", "id": 590745336, "lat": 19.2409542, "lon": 72.8529236}, {"type": "node", "id": 590745339, "lat": 19.2410302, "lon": 72.8530201}, {"type": "node", "id": 590745342, "lat": 19.241091, "lon": 72.8529665}, {"type": "node", "id": 590745344, "lat": 19.2412024, "lon": 72.8530201}, {"type": "node", "id": 590745346, "lat": 19.241091, "lon": 72.8531167}, {"type": "node", "id": 590745348, "lat": 19.2411821, "lon": 72.8532508}, {"type": "node", "id": 590745355, "lat": 19.2412986, "lon": 72.8531489}, {"type": "node", "id": 590745357, "lat": 19.2413138, "lon": 72.8532776}, {"type": "node", "id": 590745359, "lat": 19.2412328, "lon": 72.8533313}, {"type": "node", "id": 590745361, "lat": 19.2413341, "lon": 72.8534654}, {"type": "node", "id": 590745364, "lat": 19.2414657, "lon": 72.8533527}, {"type": "node", "id": 590745366, "lat": 19.2414657, "lon": 72.8529987}, {"type": "node", "id": 590745368, "lat": 19.2414252, "lon": 72.8529343}, {"type": "node", "id": 590745371, "lat": 19.2410808, "lon": 72.8527948}, {"type": "node", "id": 1496182480, "lat": 19.2270454, "lon": 72.8605924, "tags": {"addr:district": "Mumbai", "addr:full": "No. B-4, Girirath, Carter Road Near Sai Baba Temple, Borivali (East)", "addr:postcode": "400066", "addr:state": "Maharashtra", "amenity": "hospital", "name": "Ankit Fracture, Maternity and Surgical Hospital", "source": "OpenGovernmentData"}}, {"type": "node", "id": 1856751380, "lat": 19.1622152, "lon": 72.9422933}, {"type": "node", "id": 2045673883, "lat": 19.1792628, "lon": 72.945241}, {"type": "node", "id": 2097757612, "lat": 19.2150169, "lon": 72.871778, "tags": {"amenity": "hospital", "healthcare": "hospital"}}, {"type": "node", "id": 2308143720, "lat": 19.1817598, "lon": 72.8532856}, {"type": "node", "id": 2411660992, "lat": 19.1806805, "lon": 72.8630713, "tags": {"amenity": "hospital", "emergency": "yes", "name": "Hyat Hosptal"}}, {"type": "node", "id": 3592053117, "lat": 19.181626, "lon": 72.8531471}, {"type": "node", "id": 3592053118, "lat": 19.1816398, "lon": 72.8531134}, {"type": "node", "id": 3592053119, "lat": 19.1816441, "lon": 72.8530842}, {"type": "node", "id": 3592053120, "lat": 19.18165, "lon": 72.8530433}, {"type": "node", "id": 3592053121, "lat": 19.1816537, "lon": 72.8531156}, {"type": "node", "id": 3592053122, "lat": 19.181658, "lon": 72.8530865}, {"type": "node", "id": 3592053124, "lat": 19.18171, "lon": 72.8531717}, {"type": "node", "id": 3592053126, "lat": 19.1818034, "lon": 72.8530683}, {"type": "node", "id": 3592053127, "lat": 19.1818125, "lon": 72.8529419}, {"type": "node", "id": 3592053130, "lat": 19.1818624, "lon": 72.8529768}, {"type": "node", "id": 3592053131, "lat": 19.1818646, "lon": 72.8529461}, {"type": "node", "id": 3592053133, "lat": 19.1818893, "lon": 72.8529789}, {"type": "node", "id": 3592053134, "lat": 19.1818915, "lon": 72.8529482}, {"type": "node", "id": 3592053135, "lat": 19.1819098, "lon": 72.8530942}, {"type": "node", "id": 3592053136, "lat": 19.1819201, "lon": 72.8529505}, {"type": "node", "id": 3592053137, "lat": 19.1819428, "lon": 72.853076}, {"type": "node", "id": 3592053138, "lat": 19.1819849, "lon": 72.8531616}, {"type": "node", "id": 3604756952, "lat": 19.1723225, "lon": 72.8738504}, {"type": "node", "id": 3604756953, "lat": 19.172337, "lon": 72.8740697}, {"type": "node", "id": 3604756954, "lat": 19.1723571, "lon": 72.8738478}, {"type": "node", "id": 3604756955, "lat": 19.172359, "lon": 72.8738764}, {"type": "node", "id": 3604756973, "lat": 19.1727354, "lon": 72.8738197}, {"type": "node", "id": 3604756974, "lat": 19.1727373, "lon": 72.8738483}, {"type": "node", "id": 3604756977, "lat": 19.172797, "lon": 72.8738151}, {"type": "node", "id": 3604756979, "lat": 19.1728116, "lon": 72.8740344}, {"type": "node", "id": 3638695753, "lat": 19.2204335, "lon": 72.8631359}, {"type": "node", "id": 3638695754, "lat": 19.2204122, "lon": 72.8628731}, {"type": "node", "id": 3638695763, "lat": 19.2205396, "lon": 72.8631314}, {"type": "node", "id": 3638695765, "lat": 19.2205314, "lon": 72.8628788}, {"type": "node", "id": 5859095486, "lat": 19.1627973, "lon": 72.9369083, "tags": {"addr:housenumber": "6 Mani Chawl", "addr:street": "Dargah Road", "amenity": "hospital", "healthcare": "hospital", "name:en": "NAAZ Polyclinic"}}, {"type": "node", "id": 5924793682, "lat": 19.1623824, "lon": 72.9418721}, {"type": "node", "id": 5924793684, "lat": 19.1618669, "lon": 72.9413749}, {"type": "node", "id": 5924793785, "lat": 19.1609914, "lon": 72.9410139}, {"type": "node", "id": 5924793786, "lat": 19.1609007, "lon": 72.9413036}, {"type": "node", "id": 5924793787, "lat": 19.1612371, "lon": 72.9414859}, {"type": "node", "id": 5924793788, "lat": 19.1610674, "lon": 72.9419526}, {"type": "node", "id": 5924793789, "lat": 19.1616425, "lon": 72.9421994}, {"type": "node", "id": 5924793790, "lat": 19.1616932, "lon": 72.9420599}, {"type": "node", "id": 5924793798, "lat": 19.1786675, "lon": 72.9448548}, {"type": "node", "id": 5924793799, "lat": 19.1784015, "lon": 72.9446134}, {"type": "node", "id": 5924793802, "lat": 19.1797213, "lon": 72.9422557}, {"type": "node", "id": 5924793803, "lat": 19.1818746, "lon": 72.943747}, {"type": "node", "id": 5924793804, "lat": 19.1813781, "lon": 72.9451525}, {"type": "node", "id": 5924793805, "lat": 19.1805472, "lon": 72.9452008}, {"type": "node", "id": 5924793806, "lat": 19.1801875, "lon": 72.9457694}, {"type": "node", "id": 7043038873, "lat": 19.2228876, "lon": 72.8574027, "tags": {"addr:district": "Mumbai", "addr:full": "A/6-9, Lilam Buld, Dattapada Road, Borivali(E)", "addr:postcode": "400066", "addr:state": "Maharashtra", "amenity": "hospital", "name": "Dr Parikhs Maternity, Gynaec, and General Hospital", "source": "OpenGovernmentData"}}, {"type": "node", "id": 7043038874, "lat": 19.2221415, "lon": 72.8550357, "tags": {"addr:district": "Mumbai", "addr:full": "Sidhivinayak Tower, Near Collecter Office, Natakwala Lane, Borivali(West)", "addr:postcode": "400092", "addr:state": "Maharashtra", "amenity": "hospital", "healthcare": "hospital", "name": "Dhanshri Hospital", "source": "OpenGovernmentData"}}, {"type": "node", "id": 7043060181, "lat": 19.1699191, "lon": 72.9321205, "tags": {"addr:district": "Mumbai", "addr:full": "E-5/03, Highland, Park, Jaishuskinagar, Mulundcolony, Mulund(W)", "addr:postcode": "400082", "addr:state": "Maharashtra", "amenity": "hospital", "name": "Sai Siddhi Hospital, Mumbai", "source": "OpenGovernmentData"}}, {"type": "node", "id": 7043123119, "lat": 19.1686019, "lon": 72.9450512, "tags": {"addr:district": "Mumbai", "addr:full": "104, Aroto House, P.K.Road, Saidham, Mulund (west)", "addr:postcode": "400080", "addr:state": "Maharashtra", "amenity": "hospital", "email": "suryaeye.india@gmail.com", "name": "Surya Eye Institute and Research Centre", "operator:type": "private", "source": "OpenGovernmentData", "website": "https://suryaeye.com/"}}, {"type": "node", "id": 7043397402, "lat": 19.1968922, "lon": 72.8736733, "tags": {"addr:district": "Mumbai", "addr:full": "No. 103 / B, Raj Tower, Lokhandwala Complex, Next To Alika Nagar, Akruli Road, Kandivali(E)", "addr:postcode": "400101", "addr:state": "Maharashtra", "amenity": "hospital", "name": "Shreeji Hospital (Kandivli)", "source": "OpenGovernmentData"}}, {"type": "node", "id": 7043399092, "lat": 19.2425422, "lon": 72.8675938, "tags": {"addr:district": "Mumbai", "addr:full": "K Wing, 1st Floor, Shankheshwar Nagar, Shiv Vallabh Road , Dahisar (E)", "addr:postcode": "400068", "addr:state": "Maharashtra", "amenity": "hospital", "name": "Total Woman Medical Centre - Dahisar", "source": "OpenGovernmentData"}}, {"type": "node", "id": 7043843797, "lat": 19.1857961, "lon": 72.8544543, "tags": {"addr:district": "Mumbai", "addr:full": "Gr. Floor, Ashmi Apartment , Bachani Nagar Road , Opposite Children's Academy School , Malad ( East )", "addr:postcode": "400097", "addr:state": "Maharashtra", "amenity": "hospital", "name": "Megha Surgical Hospital", "source": "OpenGovernmentData"}}, {"type": "node", "id": 7044023272, "lat": 19.2187787, "lon": 72.8523903, "tags": {"addr:district": "Mumbai", "addr:full": "C-113, Lancelot Building, SV Road, Shastri Nagar, Borivali West", "addr:postcode": "400092", "addr:state": "Maharashtra", "amenity": "hospital", "healthcare": "hospital", "name": "Shri Bala Hanuman Maternity & Surgical Hospital", "source": "OpenGovernmentData", "wheelchair": "yes"}}, {"type": "node", "id": 7044610739, "lat": 19.213646, "lon": 72.8670365, "tags": {"addr:district": "Mumbai", "addr:full": "Gokul Nagari No1, Near Sai Dham Temple , 90 Ft Road, Opp Hdfc Bank, Western Express Highway,Thakur Complex , Kandivali East", "addr:postcode": "400101", "addr:state": "Maharashtra", "amenity": "hospital", "name": "Shree Sai Hospital, Mumbai", "source": "OpenGovernmentData"}}, {"type": "node", "id": 7044797317, "lat": 19.2133896, "lon": 72.8636751, "tags": {"addr:district": "Mumbai", "addr:full": "90 Feet Road , Near Cambrige School", "addr:postcode": "400101", "addr:state": "Maharashtra", "amenity": "hospital", "name": "Surbhi Life Care Hospital", "source": "OpenGovernmentData"}}, {"type": "node", "id": 7045701178, "lat": 19.2149511, "lon": 72.8687109, "tags": {"addr:district": "Mumbai", "addr:full": "Kandivali(East)", "addr:postcode": "400101", "addr:state": "Maharashtra", "amenity": "hospital", "name": "Paramount Ganpati Health Care - Kandivali", "source": "OpenGovernmentData"}}, {"type": "node", "id": 7047423152, "lat": 19.1743945, "lon": 72.8613845, "tags": {"addr:district": "Mumbai", "addr:full": "Goregaon", "addr:postcode": "400051", "addr:state": "Maharashtra", "amenity": "hospital", "name": "Tushar Maternity and Surgical Nursing Home", "source": "OpenGovernmentData"}}, {"type": "node", "id": 7047813835, "lat": 19.1813262, "lon": 72.8634739, "tags": {"addr:district": "Mumbai", "addr:full": "4, Neelam Appartment, Near Triveni Nagar, Kokani Pada, Kurar, Malad East", "addr:postcode": "400097", "addr:state": "Maharashtra", "amenity": "hospital", "name": "Suvidha Hospital and Iccu", "source": "OpenGovernmentData"}}, {"type": "node", "id": 7048041081, "lat": 19.2005212, "lon": 72.8714374, "tags": {"addr:district": "Mumbai", "addr:full": "1st Floor, Whispering Palms Shopping Center,Next To Kokhandwala Sales Office, Akurli Road, Kandivali(E)", "addr:postcode": "400101", "addr:state": "Maharashtra", "amenity": "hospital", "name": "DNA Multispeciality Hospital - Mumbai", "source": "OpenGovernmentData", "website": "https://dnahospital.in/"}}, {"type": "node", "id": 7048261194, "lat": 19.2269461, "lon": 72.8549309, "tags": {"addr:district": "Mumbai", "addr:full": "Mangal Kunj 1st Floor, S.V. Road Borivli (W)", "addr:postcode": "400092", "addr:state": "Maharashtra", "amenity": "hospital", "healthcare": "hospital", "name": "Patel Nursing Home, Mumbai", "source": "OpenGovernmentData"}}, {"type": "node", "id": 7048261246, "lat": 19.1902469, "lon": 72.946963, "tags": {"addr:district": "Thane", "addr:full": "Akshi Bunglow, Sector 1, Plot No. 9&10 Shreenagar Wagle Estate", "addr:postcode": "400604", "addr:state": "Maharashtra", "amenity": "hospital", "name": "Shivani Maternity Home Thane", "source": "OpenGovernmentData"}}, {"type": "node", "id": 7048433640, "lat": 19.2033581, "lon": 72.8524567, "tags": {"addr:district": "Mumbai", "addr:full": "Sukhsagar Bldg, 1st Floor,Near Prem Ashram,Akurli Cross Road,No.1,Kandivli East", "addr:postcode": "400101", "addr:state": "Maharashtra", "amenity": "hospital", "name": "Dr. Masurkar Hospital", "source": "OpenGovernmentData"}}, {"type": "node", "id": 7048883830, "lat": 19.2347733, "lon": 72.8553515, "tags": {"addr:district": "Mumbai", "addr:full": "B-12/13,Laxmi Niwas, Painagar Gokul Hotel, Mandpeshwar Road , Borivli", "addr:postcode": "400092", "addr:state": "Maharashtra", "amenity": "hospital", "name": "Divyadrashti Eye Care Centre", "source": "OpenGovernmentData", "wheelchair": "no"}}, {"type": "node", "id": 7048956597, "lat": 19.2144825, "lon": 72.8671432, "tags": {"addr:district": "Mumbai", "addr:full": "Satyam Towers, 90 Feet.Road, Behind HDFC Bank, Kandivali (East)", "addr:postcode": "400101", "addr:state": "Maharashtra", "amenity": "hospital", "email": "doctor@enthospital.com", "name": "Speciality Ear Nose Throat Hospital", "operator:type": "private", "source": "OpenGovernmentData", "website": "http://www.enthospital.com/"}}, {"type": "node", "id": 7049059260, "lat": 19.2337078, "lon": 72.8533351, "tags": {"addr:district": "Mumbai", "addr:full": "A/6,Shroff Apartment, Sodawala Lane Off., S.V.P.Road, Borivali (West)", "addr:postcode": "400092", "addr:state": "Maharashtra", "amenity": "hospital", "healthcare": "hospital", "name": "Dr. Alok Shahs Iccu and Nursing Home", "source": "OpenGovernmentData", "wheelchair": "no"}}, {"type": "node", "id": 7049374148, "lat": 19.1745533, "lon": 72.8640358, "tags": {"addr:district": "Mumbai", "addr:full": "54 Yashodham Enclave Opp Royal Challenge Hotel Film City Road Goregaon East", "addr:postcode": "400063", "addr:state": "Maharashtra", "amenity": "hospital", "name": "Enclave Maternity Home", "source": "OpenGovernmentData"}}, {"type": "node", "id": 7049431620, "lat": 19.2262963, "lon": 72.8526716, "tags": {"addr:district": "Mumbai", "addr:full": "Vaibhav,A/102, Jambli Gully, Near M.K.High School, Borivali(W)", "addr:postcode": "400092", "addr:state": "Maharashtra", "amenity": "hospital", "healthcare:speciality": "ENT", "name": "Sai Krupa E.N.T. Nursing Home", "source": "OpenGovernmentData"}}, {"type": "node", "id": 7049684094, "lat": 19.2134884, "lon": 72.8641317, "tags": {"addr:district": "Mumbai", "addr:full": "90 Feet Road, Thakur Complex,Kandivali East", "addr:postcode": "400101", "addr:state": "Maharashtra", "amenity": "hospital", "email": "aditihospital@rediffmail.com", "name": "Aditi Hospital, Kandivali", "operator:type": "private", "source": "OpenGovernmentData", "website": "http://www.aditihospitals.com/"}}, {"type": "node", "id": 7049981401, "lat": 19.187962, "lon": 72.8593138, "tags": {"addr:district": "Mumbai", "addr:full": "Nalanda Soceity,Kurar Villege", "addr:postcode": "400097", "addr:state": "Maharashtra", "amenity": "hospital", "name": "Sai Swayam MatandNur Home", "source": "OpenGovernmentData"}}, {"type": "node", "id": 7050094778, "lat": 19.2284351, "lon": 72.8542954, "tags": {"addr:district": "Mumbai", "addr:full": "Bhakti Bldg B-Wing Gr Floor Opp Jain Temple Jambli Galli, Indrsprastha Shopping Center Borivali W)", "addr:postcode": "400092", "addr:state": "Maharashtra", "amenity": "hospital", "name": "Ashirwad Orthopaedic and Surgical Nursing Home", "source": "OpenGovernmentData"}}, {"type": "node", "id": 7050319630, "lat": 19.1853768, "lon": 72.853927, "tags": {"addr:district": "Mumbai", "addr:full": "201,202, Manish Mandir Co- Op. Hag.Soc.Mansa Apt, , 2nd Floor, Kedarmal Road, Malad (E)", "addr:postcode": "400097", "addr:state": "Maharashtra", "amenity": "hospital", "name": "Jeevan Maternity and General Hospital", "source": "OpenGovernmentData"}}, {"type": "node", "id": 7050410994, "lat": 19.1812375, "lon": 72.8573692, "tags": {"addr:district": "Mumbai", "addr:full": "1-2 Ashish Chs, Raheja Township, Rani Sati Road, Near Sai Baba Temple, Malad East", "addr:postcode": "400097", "addr:state": "Maharashtra", "amenity": "hospital", "name": "Sai Krupa Hospital, Mumbai", "source": "OpenGovernmentData"}}, {"type": "node", "id": 7051069998, "lat": 19.1951536, "lon": 72.8748706, "tags": {"addr:district": "Mumbai", "addr:full": "1st Floor, Green Gagan Bldg, Mhada Layout,Plot No-14,Lokhandwala Township,Akurli Road,Kandivali(Eas)", "addr:postcode": "400101", "addr:state": "Maharashtra", "amenity": "hospital", "name": "Medha Maternity and Nursing Home - Kandivali (E) Mumbai", "source": "OpenGovernmentData"}}, {"type": "node", "id": 7052220015, "lat": 19.2017598, "lon": 72.856767, "tags": {"addr:district": "Mumbai", "addr:full": "A-101, Nagvekar Apartment, Akurli Road, Kandivali East", "addr:postcode": "400101", "addr:state": "Maharashtra", "amenity": "hospital", "name": "Saibaba Maternity and Nursing Home", "source": "OpenGovernmentData"}}, {"type": "node", "id": 7052355305, "lat": 19.2337585, "lon": 72.864532, "tags": {"addr:district": "Mumbai", "addr:full": "Koyna, Shantivan Complex, Near National Park, Borivali East", "addr:postcode": "400066", "addr:state": "Maharashtra", "amenity": "hospital", "name": "Mohit Hospital", "source": "OpenGovernmentData"}}, {"type": "node", "id": 7052502073, "lat": 19.1845751, "lon": 72.8527451, "tags": {"addr:district": "Mumbai", "addr:full": "Bhavani Chambers, Kedarmal Road, Malad East", "addr:postcode": "400097", "addr:state": "Maharashtra", "amenity": "hospital", "name": "Sanjeevani Surgical and General Hospital", "source": "OpenGovernmentData"}}, {"type": "node", "id": 7052833529, "lat": 19.2014609, "lon": 72.8587666, "tags": {"addr:district": "Mumbai", "addr:full": "Shri Mira Co-Op Housing Societuy, Ankurli Road, Kandivali (E)", "addr:postcode": "400101", "addr:state": "Maharashtra", "amenity": "hospital", "name": "Sanchaiti Hospital", "source": "OpenGovernmentData"}}, {"type": "node", "id": 7053517508, "lat": 19.1639918, "lon": 72.9469208, "tags": {"addr:district": "Mumbai", "addr:full": "Sarvodaya Parshwanath Nagar Mulund W", "addr:postcode": "400080", "addr:state": "Maharashtra", "amenity": "hospital", "name": "Shree Sai Maternity and Surgical Nursing Home", "source": "OpenGovernmentData"}}, {"type": "node", "id": 7053870878, "lat": 19.1702287, "lon": 72.9322658, "tags": {"addr:district": "Mumbai", "addr:full": "Buiding No. E/5 , Highland Park , Guru Gobind Singh Road , Jai Shastri Nagar , Mulund Colony , Mulund ( West )", "addr:postcode": "400082", "addr:state": "Maharashtra", "amenity": "hospital", "name": "Ashirwad Maternity and Nursing Home, Mulund", "source": "OpenGovernmentData"}}, {"type": "node", "id": 7054209607, "lat": 19.2297146, "lon": 72.8544416, "tags": {"addr:city": "Mumbai", "addr:district": "Mumbai Suburban", "addr:full": "1 St Floor Arunoday Shopping Centre, Market Lane, Near Ajanta Talkies, Borivli ( West)", "addr:postcode": "400092", "addr:state": "Maharashtra", "addr:street": "Borivali", "amenity": "hospital", "healthcare": "hospital", "name": "Dr. Khatavs Mother and Child Hospital", "source": "OpenGovernmentData"}}, {"type": "node", "id": 7054513600, "lat": 19.2342561, "lon": 72.8585628, "tags": {"addr:district": "Mumbai", "addr:full": "Daulat Nagar, Road No. 5 & 7, Behind Punjab Bank, Borivali(E)", "addr:postcode": "400066", "addr:state": "Maharashtra", "amenity": "hospital", "healthcare": "hospital", "name": "Shri K V O Jain Manav Seva Kendra Navneet Hospital", "source": "OpenGovernmentData;local knowledge"}}, {"type": "node", "id": 7054692538, "lat": 19.2294557, "lon": 72.8543866, "tags": {"addr:district": "Mumbai", "addr:full": "Kahan Bhavan, Ground Floor, L.T. Road, Behind Diamond Cinema, Borivali West", "addr:postcode": "400092", "addr:state": "Maharashtra", "amenity": "hospital", "email": "mppurohit@yahoo.co.in", "healthcare": "hospital", "name": "Purohit Hospital", "source": "OpenGovernmentData", "website": "http://www.purohithospital.com/"}}, {"type": "node", "id": 7054810984, "lat": 19.235271, "lon": 72.8664377, "tags": {"addr:district": "Mumbai", "addr:full": "Plot No-161, Shree Krishna Nagar, Shantivan, Near Post Office, Kajupada Road,Near National Park, Borivali", "addr:postcode": "400066", "addr:state": "Maharashtra", "amenity": "hospital", "name": "Shree Krishna Hospital, Mumbai", "source": "OpenGovernmentData"}}, {"type": "node", "id": 7055122225, "lat": 19.1894712, "lon": 72.9456628, "tags": {"addr:district": "Thane", "addr:full": "Sukh Laxmi Building, 1st & 2nd Floor, Shree Nagar, Opposite Tata Vision , Wagle Estate, Thane West", "addr:postcode": "400604", "addr:state": "Maharashtra", "amenity": "hospital", "name": "Dr. Thakur's Shree Hospital", "source": "OpenGovernmentData"}}, {"type": "node", "id": 7059172358, "lat": 19.1681778, "lon": 72.9388078, "tags": {"addr:district": "Mumbai", "addr:full": "117-O, Hallmark, Vasant Oscar, Opp- Greenworld, Near Nirmal Life Style, Mulund", "addr:postcode": "400080", "addr:state": "Maharashtra", "amenity": "hospital", "name": "Anil Cancer Clinic", "source": "OpenGovernmentData"}}, {"type": "node", "id": 7063805509, "lat": 19.237523, "lon": 72.8559704, "tags": {"addr:district": "Mumbai", "addr:full": "B-104, Gomati Appartments,Above Mandpeshwar Hospital,Near Sudhir Phadke Flyover,S.V.P. Road, Borivali(W)", "addr:postcode": "400092", "addr:state": "Maharashtra", "amenity": "hospital", "name": "Arihant Eye Care Centre, Borivali", "source": "OpenGovernmentData"}}, {"type": "node", "id": 7063808926, "lat": 19.2182323, "lon": 72.8682885, "tags": {"addr:district": "Mumbai", "addr:full": "Shops No 7 8 9 Link Road Malad West", "addr:postcode": "400064", "addr:state": "Maharashtra", "amenity": "hospital", "name": "Navkar Child Care Centre and Nursing Home", "source": "OpenGovernmentData"}}, {"type": "node", "id": 7064921237, "lat": 19.2229393, "lon": 72.8534102, "tags": {"addr:district": "Mumbai", "addr:full": "Ratan Apartment S V Road Opp Shimpoli Roadbetween Flyover Bridge And Dattapada Phatak Borivili", "addr:postcode": "400092", "addr:state": "Maharashtra", "amenity": "hospital", "name": "Fracture Care Hospital and Diagnostic Centre", "source": "OpenGovernmentData"}}, {"type": "node", "id": 7066374648, "lat": 19.2394286, "lon": 72.864587, "tags": {"addr:district": "Mumbai", "addr:full": "Adinath Tower, D Wing, Nancy Colony", "addr:postcode": "400066", "addr:state": "Maharashtra", "amenity": "hospital", "name": "Elite Hospital - Mumbai - Borivali (W)", "source": "OpenGovernmentData"}}, {"type": "node", "id": 7066374795, "lat": 19.2374856, "lon": 72.856122, "tags": {"addr:city": "Mumbai", "addr:district": "Mumbai", "addr:full": "Gomti Apts, Near Punjab Nationl Bank, Mandpeshwar Oad, Borivali West", "addr:housenumber": "1", "addr:postcode": "400092", "addr:state": "Maharashtra", "addr:street": "Rokadia Lane", "amenity": "hospital", "healthcare:speciality": "general;eye_care_center", "name": "Mandapeshwar Hospital and Clinics", "opening_hours": "24/7", "source": "OpenGovernmentData"}}, {"type": "node", "id": 7066374806, "lat": 19.1684046, "lon": 72.9390344, "tags": {"addr:district": "Mumbai", "addr:full": "1st Flr, B Wing Hallmark Commercial Complex Vasant Oscar Layout Near Duncan Co, Mulud", "addr:postcode": "400080", "addr:state": "Maharashtra", "amenity": "hospital", "name": "Shivaani Mother and Child Care Hospital", "source": "OpenGovernmentData"}}, {"type": "node", "id": 7066374807, "lat": 19.2366619, "lon": 72.8607662, "tags": {"addr:district": "Mumbai", "addr:full": "Road No- 8, Daulat Nagar ,Borivali(E)", "addr:postcode": "400066", "addr:state": "Maharashtra", "amenity": "hospital", "name": "Purnima Hospital", "source": "OpenGovernmentData"}}, {"type": "node", "id": 7067050967, "lat": 19.24071, "lon": 72.8547446, "tags": {"addr:district": "Mumbai", "addr:full": "B-101, Kaustubh Park,Beside Bhagwati Hospital, S.V.P. Road, Borivali West", "addr:postcode": "400103", "addr:state": "Maharashtra", "amenity": "hospital", "email": "drwelingprashant@gmail.com", "name": "Ameya Orthopaedic Centre", "source": "OpenGovernmentData", "website": "http://www.drprashantweling.com/"}}, {"type": "node", "id": 7070157912, "lat": 19.231269, "lon": 72.8610344, "tags": {"addr:district": "Mumbai", "addr:full": "204, B Wing, 2nd Floor, Shivam Apartment, Above Bank Of India, Opposite S.T. Depot, Mahatma Gandhi Road, Borivali East", "addr:postcode": "400066", "addr:state": "Maharashtra", "amenity": "hospital", "name": "Shivam Eye Care Centre", "source": "OpenGovernmentData"}}, {"type": "node", "id": 7072544607, "lat": 19.2311682, "lon": 72.8615263, "tags": {"addr:district": "Mumbai", "addr:full": "Matru Ashish Building, 1st Floor, Next To Madhav Hall, Opposite Station Bus Depot, Mahatma Gandhi Road, Borivali East", "addr:postcode": "400066", "addr:state": "Maharashtra", "amenity": "hospital", "name": "National Hospital", "source": "OpenGovernmentData"}}, {"type": "node", "id": 7072544642, "lat": 19.2204968, "lon": 72.8584112, "tags": {"addr:district": "Mumbai", "addr:full": "17/120, Swagat Cooperative Housing Society Limited, Mhada Colony, F.C.I Road, Near Railway Flyover, Rajendra Nagar, Borivali East", "addr:postcode": "400066", "addr:state": "Maharashtra", "amenity": "hospital", "name": "Navjivan Global Heart Centre", "source": "OpenGovernmentData"}}, {"type": "node", "id": 7072826463, "lat": 19.1864066, "lon": 72.9470327, "tags": {"addr:district": "Mumbai", "addr:full": "101 / 102, Manisha Heights,Balrajeshwar Road", "addr:postcode": "400080", "addr:state": "Maharashtra", "amenity": "hospital", "name": "Anmmol Orthovision", "source": "OpenGovernmentData"}}, {"type": "node", "id": 7073537693, "lat": 19.1820019, "lon": 72.9467753, "tags": {"addr:district": "Mumbai", "addr:full": "A-10,Apurva Apartment,Govardhan Nagar,L.B.S.Marg,Mulund(W)", "addr:postcode": "400080", "addr:state": "Maharashtra", "amenity": "hospital", "name": "Dr.Redkar's Maternity and Nursing Home", "source": "OpenGovernmentData"}}, {"type": "node", "id": 7073765631, "lat": 19.2299407, "lon": 72.8620175, "tags": {"addr:district": "Mumbai", "addr:full": "63/C, Amita Apartment, 5Th Kastruba Road, Boravili East", "addr:postcode": "400066", "addr:state": "Maharashtra", "amenity": "hospital", "name": "Parmar Hospital", "source": "OpenGovernmentData"}}, {"type": "node", "id": 7073888629, "lat": 19.1755267, "lon": 72.9460879, "tags": {"addr:district": "Mumbai", "addr:full": "1st Floor, Bps Plaza, Bps Estates, Devidayal Road, Near Best Bus Depot", "addr:postcode": "400080", "addr:state": "Maharashtra", "amenity": "hospital", "name": "Anjali Maternity and Surgical Hospital - Mulund", "source": "OpenGovernmentData"}}, {"type": "node", "id": 7073949862, "lat": 19.2025146, "lon": 72.8553495, "tags": {"addr:district": "Mumbai", "addr:full": "2nd Flr, Shubh Bldg, Opp, Esis Hospital Akurli Road, Kandivali", "addr:postcode": "400101", "addr:state": "Maharashtra", "amenity": "hospital", "name": "Dhiraj Hospital", "source": "OpenGovernmentData"}}, {"type": "node", "id": 7074541584, "lat": 19.2420427, "lon": 72.8549686, "tags": {"addr:district": "Mumbai", "addr:full": "Madona Colony Road, Near Bhawati Hsp, Off Mandapeshwar Road, Borivali (W) Borivali", "addr:postcode": "400103", "addr:state": "Maharashtra", "amenity": "hospital", "name": "Netra Mandir", "source": "OpenGovernmentData"}}, {"type": "node", "id": 7076379938, "lat": 19.2304503, "lon": 72.8629918, "tags": {"addr:district": "Mumbai", "addr:full": "Seeta Mahal, Kasturba Road No. 5, Borivili (E)", "addr:postcode": "400066", "addr:state": "Maharashtra", "amenity": "hospital", "name": "Narendra Hospital, Mumbai", "source": "OpenGovernmentData"}}, {"type": "node", "id": 7076529384, "lat": 19.2018573, "lon": 72.8546427, "tags": {"addr:district": "Mumbai", "addr:full": "Pragnya Apartment, 1st Floor, Akurli Road, Kandivli", "addr:postcode": "400101", "addr:state": "Maharashtra", "amenity": "hospital", "name": "Laxmi Clinic - Kandivli - (Mumbai)", "source": "OpenGovernmentData"}}, {"type": "node", "id": 7076557583, "lat": 19.2330886, "lon": 72.853079, "tags": {"addr:district": "Mumbai", "addr:full": "Opposite Dr.S.S.Panya Chowk, Sodawala Lane, Borivli (W)", "addr:postcode": "400092", "addr:state": "Maharashtra", "amenity": "hospital", "name": "Pandya Surgical and Maternity Hospital", "source": "OpenGovernmentData", "wheelchair": "limited"}}, {"type": "node", "id": 7079392136, "lat": 19.2105098, "lon": 72.8651141, "tags": {"addr:district": "Mumbai", "addr:full": "Videocon Tower,Thakur Complex,Kandivali(E)", "addr:postcode": "400010", "addr:state": "Maharashtra", "amenity": "hospital", "name": "Gokul Hospital, Mumbai", "source": "OpenGovernmentData"}}, {"type": "node", "id": 7079411415, "lat": 19.2442338, "lon": 72.8676447, "tags": {"addr:district": "Mumbai", "addr:full": "Rajsatyam Building, Shiv Vallabh Road, Ashokvan ,Dahisar (E)", "addr:postcode": "400068", "addr:state": "Maharashtra", "amenity": "hospital", "name": "Vishwanath Hospital, Mumbai", "source": "OpenGovernmentData"}}, {"type": "node", "id": 7082499112, "lat": 19.2246868, "lon": 72.8575087, "tags": {"addr:district": "Mumbai", "addr:full": "Sheel Palace Near State Bank , Dattapada Borivali East", "addr:postcode": "400066", "addr:state": "Maharashtra", "amenity": "hospital", "name": "Crystal Hospitals", "source": "OpenGovernmentData"}}, {"type": "node", "id": 7082579559, "lat": 19.1748655, "lon": 72.9422598, "tags": {"addr:district": "Mumbai", "addr:full": "C-1, Shivkrishna Dham, Lal Bahadur Shastri Marg, Mulund West", "addr:postcode": "400080", "addr:state": "Maharashtra", "amenity": "hospital", "name": "Veena Nagar Health Care Center and Hospital", "source": "OpenGovernmentData"}}, {"type": "node", "id": 7085742119, "lat": 19.1907321, "lon": 72.8558276, "tags": {"addr:district": "Mumbai", "addr:full": "Vasant Vijay Mahal, Pushpa Park, Road No.2, Malad (E)", "addr:postcode": "400097", "addr:state": "Maharashtra", "amenity": "hospital", "name": "Shraddha Orthopedic and Surgical Hospital", "source": "OpenGovernmentData"}}, {"type": "node", "id": 7085988144, "lat": 19.2345359, "lon": 72.8650416, "tags": {"addr:district": "Mumbai", "addr:full": "B/102, 1st Floor, Goyal Trade Centre, Sona Talkies Building, Shantivan Colony", "addr:postcode": "400066", "addr:state": "Maharashtra", "amenity": "hospital", "name": "Ashtavinayak Hospital & Swami Samarth Health Clinic", "source": "OpenGovernmentData"}}, {"type": "node", "id": 7086409775, "lat": 19.1809728, "lon": 72.9425508, "tags": {"addr:district": "Mumbai", "addr:full": "Veena Nagar Phase Ii, Near Swapna Nagari Tulsi Pipe Line Road, Mulund(W)", "addr:postcode": "400080", "addr:state": "Maharashtra", "amenity": "hospital", "name": "Vertex Hospital", "source": "OpenGovernmentData"}}, {"type": "node", "id": 7086516380, "lat": 19.2422117, "lon": 72.8648673, "tags": {"addr:district": "Mumbai", "addr:full": "Umang Co-Op-Hsg Soc , C-3/4 Rukhason Nagar Sant Dnyneshwar Road Dahisar", "addr:postcode": "400001", "addr:state": "Maharashtra", "amenity": "hospital", "name": "Mauli Hospital, Mumbai", "source": "OpenGovernmentData"}}, {"type": "node", "id": 7086566892, "lat": 19.1888518, "lon": 72.9459263, "tags": {"addr:district": "Thane", "addr:full": "Shreenagar, Wagle Estate, Thane (West)", "addr:postcode": "400604", "addr:state": "Maharashtra", "amenity": "hospital", "name": "Modi Hospital - Thane", "source": "OpenGovernmentData"}}, {"type": "node", "id": 7087131476, "lat": 19.2375647, "lon": 72.85981, "tags": {"addr:district": "Mumbai", "addr:full": "Laxmi Nivas, OppositeAmba Mandir, Carter Road-3, Borivli(E)", "addr:postcode": "400066", "addr:state": "Maharashtra", "amenity": "hospital", "name": "Dr. Mehta's Maternity Home", "source": "OpenGovernmentData"}}, {"type": "node", "id": 7225067256, "lat": 19.2197564, "lon": 72.8708165, "tags": {"addr:district": "Mumbai", "addr:full": "BMC General Hospital, Kasturba Cross Road No.2, Boriwali (E)", "addr:postcode": "400066", "addr:state": "Maharashtra", "amenity": "hospital", "name": "BMC Maternity Hospital", "source": "OpenGovernmentData"}}, {"type": "node", "id": 7628258688, "lat": 19.1777529, "lon": 72.8724378, "tags": {"addr:district": "Mumbai", "addr:full": "Riddhi Gardens, Malad East, Mumbai", "addr:postcode": "400097", "addr:state": "Maharashtra", "amenity": "hospital", "name": "Savitri Bai Phule BMC Hospital ,Malad East", "source": "Local Knowledge"}}, {"type": "node", "id": 7663833082, "lat": 19.2354521, "lon": 72.85398, "tags": {"addr:district": "Mumbai Suburban", "addr:full": "Usha Nagar Road, Prem Nagar, Borivali West, Mumbai", "addr:postcode": "400092", "addr:state": "Maharastra", "amenity": "hospital", "emergency": "yes", "healthcare": "hospital", "name": "Dr. Usha Hospital", "source": "Local Knowledge"}}, {"type": "node", "id": 7663833089, "lat": 19.1941236, "lon": 72.873669, "tags": {"addr:district": "Mumbai Suburban", "addr:full": "Plot No: 39/D-5, Lokhandwala Complex, Mahada Colony Road, No: 3, Near Auto Stand, Kandivali East, Mumbai", "addr:postcode": "400101", "addr:state": "Maharastra", "amenity": "hospital", "name": "Sai Siddhi Hospital", "source": "Local Knowledge"}}, {"type": "node", "id": 7663833090, "lat": 19.188923, "lon": 72.855248, "tags": {"addr:district": "Mumbai Suburban", "addr:full": "Pooja Building, Daftary Road, Malkani Estate, Pushpa Park, Malad East, Mumbai", "addr:postcode": "400097", "addr:state": "Maharastra", "amenity": "hospital", "name": "Dr. Sharik's Asha Maternity & General Hospital", "source": "Local Knowledge"}}, {"type": "node", "id": 7663833097, "lat": 19.2346688, "lon": 72.8582934, "tags": {"addr:district": "Mumbai Suburban", "addr:full": "Gopalpuri Cooperative Housing Society, Swami Vivekananda Marg, Nehru Nagar, Daulat Nagar, Borivali East, Mumbai;S.V.Road, Above Uma Hotel, Pannalal Nagar, Borivali East, Mumbai", "addr:postcode": "400066;400068", "addr:state": "Maharastra", "amenity": "hospital", "name": "Shishubharti Hospital;Nandini Hospital", "source": "Local Knowledge"}}, {"type": "node", "id": 7663833102, "lat": 19.231639, "lon": 72.861197, "tags": {"addr:district": "Mumbai Suburban", "addr:full": "Riddhi Siddhi Complex, Near Sukurwadi S.T Depot, M.G Road, Borivali East, Mumbai", "addr:postcode": "400066", "addr:state": "Maharastra", "amenity": "hospital", "name": "Omkareshwar Nursing Home", "source": "Local Knowledge"}}, {"type": "node", "id": 7663833104, "lat": 19.1725519, "lon": 72.8739312, "tags": {"addr:district": "Mumbai Suburban", "addr:full": "Building D-2, Satellite Gardens-2, Film City Road, Near Hanuman Nagar, Goregaon, Mumbai", "addr:postcode": "400063", "addr:state": "Maharastra", "amenity": "hospital", "name": "Radha Krishna Hospital", "source": "Local Knowledge"}}, {"type": "node", "id": 7663833122, "lat": 19.1751156, "lon": 72.8778495, "tags": {"addr:city": "Goregaon.Mumbai", "addr:district": "Mumbai Suburban", "addr:full": "Nagri Niwara Cooperative Housing Society, Goregaon, Mumbai", "addr:postcode": "400065", "addr:state": "Maharastra", "addr:street": "General A K Vaidya Marg", "amenity": "hospital", "emergency": "yes", "levels": "3", "name": "Hospital Vedant", "source": "Local Knowledge"}}, {"type": "node", "id": 7663833125, "lat": 19.1794965, "lon": 72.8606797, "tags": {"addr:district": "Mumbai Suburban", "addr:full": "Pathanwadi Road, Malad, Tapovan Housing Complex, Pathan Wadi, Malad East, Mumbai", "addr:postcode": "400097", "addr:state": "Maharastra", "amenity": "hospital", "name": "New Nari Hospital", "source": "Local Knowledge"}}, {"type": "node", "id": 7663833130, "lat": 19.243269, "lon": 72.865954, "tags": {"addr:district": "Mumbai Suburban", "addr:full": "Panorama Park, Ground Floor, Ashok Van, Dahisar East, Mumbai", "addr:postcode": "400068", "addr:state": "Maharastra", "amenity": "hospital", "name": "Ashok Hospital", "source": "Local Knowledge"}}, {"type": "node", "id": 7663833131, "lat": 19.182718, "lon": 72.856724, "tags": {"addr:district": "Mumbai Suburban", "addr:full": "Rani Sati Marg, Near Passport Office, Malad East, Mumbai", "addr:postcode": "400097", "addr:state": "Maharastra", "amenity": "hospital", "name": "Balajee Hospital", "source": "Local Knowledge"}}, {"type": "node", "id": 7663833133, "lat": 19.2391561, "lon": 72.8545383, "tags": {"addr:district": "Mumbai Suburban", "addr:full": "Sardar Vallabhbhai Patel Road, Near Bhagwati Hospital, Borivali West, Mumbai", "addr:postcode": "400103", "addr:state": "Maharastra", "amenity": "hospital", "name": "Neerja Children's Hospital", "source": "Local Knowledge"}}, {"type": "node", "id": 7663833135, "lat": 19.1945255, "lon": 72.8743319, "tags": {"addr:district": "Mumbai Suburban", "addr:full": "Akurli Road, Mira Road, East, MHADA Colony, Lokhandwala Twp, Kandivali East, Mumbai", "addr:postcode": "400101", "addr:state": "Maharastra", "amenity": "hospital", "name": "Jeevan Jyoti Hospital", "source": "Local Knowledge"}}, {"type": "node", "id": 7663833136, "lat": 19.242229, "lon": 72.863637, "tags": {"addr:district": "Mumbai Suburban", "addr:full": "Ovaripada, Borivali East, Mumbai", "addr:postcode": "400068", "addr:state": "Maharastra", "amenity": "hospital", "name": "Sai Kripa Pediatric Hospital", "source": "Local Knowledge"}}, {"type": "node", "id": 7663833137, "lat": 19.243198, "lon": 72.865925, "tags": {"addr:district": "Mumbai Suburban", "addr:full": "D Wing, Ground Floor, Panorama Park, Shiv Vallabh Road, Ashok Van, Mumbai", "addr:postcode": "400068", "addr:state": "Maharastra", "amenity": "hospital", "name": "Chiranjeev Childrens Hospital", "source": "Local Knowledge"}}, {"type": "node", "id": 7663833141, "lat": 19.220425, "lon": 72.862857, "tags": {"addr:district": "Mumbai Suburban", "addr:full": "Dattapada Road, Next to Suswagat Restaurant, Borivali East, Mumbai", "addr:postcode": "400066", "addr:state": "Maharastra", "amenity": "hospital", "name": "Apex Multispeciality Hospitals", "source": "Local Knowledge"}}, {"type": "node", "id": 7663833143, "lat": 19.181414, "lon": 72.864334, "tags": {"addr:district": "Mumbai Suburban", "addr:full": "Bhoomi Residency, Next to Triveni Nagar, Kurar Village, Malad East, Mumbai", "addr:postcode": "400097", "addr:state": "Maharastra", "amenity": "hospital", "name": "Aastha Maternity", "source": "Local Knowledge"}}, {"type": "node", "id": 7663833151, "lat": 19.160433, "lon": 72.856244, "tags": {"addr:district": "Mumbai Suburban", "addr:full": "Sonawala Industry Estate, Goregaon, Mumbai", "addr:postcode": "400063", "addr:state": "Maharastra", "amenity": "hospital", "name": "Trauma Hospital", "source": "Local Knowledge"}}, {"type": "node", "id": 7663833153, "lat": 19.225163, "lon": 72.855001, "tags": {"addr:district": "Mumbai Suburban", "addr:full": "SV Road, Mhatre Wadi, Borivali West, Mumbai", "addr:postcode": "400092", "addr:state": "Maharastra", "amenity": "hospital", "name": "Anand Nursing Home", "source": "Local Knowledge"}}, {"type": "node", "id": 7663833154, "lat": 19.175132, "lon": 72.870689, "tags": {"addr:district": "Mumbai Suburban", "addr:full": "Shop No. 21, Heena Gaurav Jewels, Gokuldam Market, General AK Vaidya Marg, Film City Road, Mumbai", "addr:postcode": "400063", "addr:state": "Maharastra", "amenity": "hospital", "name": "Vidya Hospital", "source": "Local Knowledge"}}, {"type": "node", "id": 7663833159, "lat": 19.170783, "lon": 72.878466, "tags": {"addr:district": "Mumbai Suburban", "addr:full": "Muncipal Colony, General Arun Kumar Vaidya Marg, Santosh Nagar, Sector B, Goregaon, Mumbai", "addr:postcode": "400065", "addr:state": "Maharastra", "amenity": "hospital", "name": "Dr. Sudhir Patil Sai Siddhi Clinic", "source": "Local Knowledge"}}, {"type": "node", "id": 7663833168, "lat": 19.242916, "lon": 72.857353, "tags": {"addr:district": "Mumbai Suburban", "addr:full": "Rustomjee Complex, Jaywant Savant Road, Near Rustomjee School, Dahisar West, Mumbai", "addr:postcode": "400068", "addr:state": "Maharastra", "amenity": "hospital", "name": "Meeti Lifeline Hospital", "source": "Local Knowledge"}}, {"type": "node", "id": 8582767492, "lat": 19.1662744, "lon": 72.8543028}, {"type": "node", "id": 8582767493, "lat": 19.1662691, "lon": 72.8544}, {"type": "node", "id": 8582767494, "lat": 19.166134, "lon": 72.8544123}, {"type": "node", "id": 8582767495, "lat": 19.1661308, "lon": 72.854305}, {"type": "node", "id": 8796959391, "lat": 19.1884744, "lon": 72.8540218, "tags": {"addr:district": "Mumbai", "addr:full": "Malad East, Mumbai", "addr:postcode": "400097", "addr:state": "Maharashtra", "amenity": "hospital", "name": "S.K.Patil Hospital", "source": "Local Knowledge"}}, {"type": "node", "id": 8796983347, "lat": 19.209004, "lon": 72.85083}, {"type": "node", "id": 8797441441, "lat": 19.2076635, "lon": 72.877233, "tags": {"addr:district": "Mumbai", "addr:full": "A-901, Thakur, Kandivali East, Mumbai", "addr:postcode": "400101", "addr:state": "Maharashtra", "amenity": "hospital", "name": "Akurli Maternity Home", "source": "Local Knowledge"}}, {"type": "node", "id": 8797549260, "lat": 19.2071803, "lon": 72.8769761, "tags": {"addr:district": "Mumbai", "addr:full": "Thakur Village, Kandivali East, Mumbai", "addr:postcode": "400101", "addr:state": "Maharashtra", "amenity": "hospital", "name": "ESIC Hospital", "source": "Local Knowledge"}}, {"type": "node", "id": 9384322539, "lat": 19.2204739, "lon": 72.8631381}, {"type": "node", "id": 9384322540, "lat": 19.2204718, "lon": 72.8628753}, {"type": "node", "id": 9887624720, "lat": 19.1620682, "lon": 72.94173}, {"type": "node", "id": 10244258227, "lat": 19.242328, "lon": 72.8631801}, {"type": "node", "id": 10244258228, "lat": 19.2422973, "lon": 72.8631313}, {"type": "node", "id": 10244258229, "lat": 19.2422705, "lon": 72.8631984}, {"type": "node", "id": 10879569039, "lat": 19.2097841, "lon": 72.8510821}, {"type": "node", "id": 10879569040, "lat": 19.2094143, "lon": 72.8525788}, {"type": "node", "id": 10879569041, "lat": 19.2075349, "lon": 72.8522944}, {"type": "node", "id": 10879569042, "lat": 19.2079503, "lon": 72.8506154}, {"type": "node", "id": 11590822909, "lat": 19.2204634, "lon": 72.8583907, "tags": {"addr:city": "Mumbai", "addr:district": "Mumbai", "addr:housenumber": "123", "addr:street": "Dattapada Road", "amenity": "hospital", "healthcare": "hospital", "healthcare:speciality": "general;neurology", "name": "Navjeevan", "operator": "unknown", "operator:type": "private"}}, {"type": "node", "id": 11613055038, "lat": 19.2066191, "lon": 72.8650557, "tags": {"addr:city": "mumbai", "addr:district": "Mumbai", "addr:postcode": "400101", "addr:street": "Mahindra Flyover Western Express", "amenity": "hospital", "emergency": "yes", "healthcare": "hospital", "healthcare:speciality": "abortion;fertility", "name": "tirupathi metarnal and general hospital", "opening_hours": "Mo-Su 10:00-22:00", "operator": "tirupathi private limited", "operator:type": "private"}}, {"type": "node", "id": 12768025009, "lat": 19.1744736, "lon": 72.9423263}, {"type": "node", "id": 12768025010, "lat": 19.1746539, "lon": 72.942615}, {"type": "node", "id": 12768025011, "lat": 19.1744531, "lon": 72.9426068}, {"type": "node", "id": 12768025012, "lat": 19.1746473, "lon": 72.9423364}, {"type": "node", "id": 13239425002, "lat": 19.2372069, "lon": 72.8619335, "tags": {"addr:postcode": "400066", "addr:street": "Road No 10", "amenity": "hospital", "name": "Borivali Surgical Hospital LLP", "opening_hours": "24/7", "phone": "07977317163"}}, {"type": "way", "id": 46269216, "nodes": [590745336, 590745339, 590745342, 590745344, 590745346, 590745348, 590745355, 590745357, 590745359, 590745361, 590745364, 590745366, 590745368, 590745371, 590745336], "tags": {"amenity": "hospital", "area": "yes", "building": "yes", "healthcare": "hospital", "name": "Karuna Hospital", "source": "Yahoo"}}, {"type": "way", "id": 353426775, "nodes": [3592053136, 3592053135, 3592053137, 3592053138, 2308143720, 3592053124, 3592053117, 3592053118, 3592053121, 3592053122, 3592053119, 3592053120, 3592053126, 3592053127, 3592053131, 3592053130, 3592053133, 3592053134, 3592053136], "tags": {"addr:district": "Mumbai", "addr:full": "Ashoka Place, First Floor, Makranipada Road, Off Jitendra Road, Malad East", "addr:postcode": "400097", "addr:state": "Maharashtra", "amenity": "hospital", "building": "hospital", "emergency": "yes", "name": "Ashoka General Hospital I.C.C.U and Maternity Home", "source": "OpenGovernmentData"}}, {"type": "way", "id": 354802397, "nodes": [3604756977, 3604756979, 3604756953, 3604756952, 3604756954, 3604756955, 3604756974, 3604756973, 3604756977], "tags": {"addr:city": "Mumbai", "addr:district": "Mumbai Suburban", "addr:postcode": "400063", "addr:street": "Film City Road", "amenity": "hospital", "emergency": "yes", "healthcare": "hospital", "healthcare:speciality": "emergency;dental_oral_maxillo_facial_surgery;psychiatry", "name": "Radha Krishna Hospital"}}, {"type": "way", "id": 359075839, "nodes": [3638695765, 3638695763, 9384322539, 3638695753, 3638695754, 9384322540, 3638695765], "tags": {"amenity": "hospital", "healthcare": "hospital"}}, {"type": "way", "id": 627628780, "nodes": [1856751380, 5924793790, 5924793789, 5924793788, 5924793787, 5924793786, 5924793785, 5924793684, 9887624720, 5924793682, 1856751380], "tags": {"addr:district": "Mumbai", "addr:full": "Mulund Goregaon Link Road", "addr:postcode": "400078", "addr:state": "Maharashtra", "amenity": "hospital", "email": "enquiries@fortishospitals.in", "emergency": "yes", "name": "Fortis Hospitals", "operator:type": "private", "source": "OpenGovernmentData", "website": "www.fortishospitals.com"}}, {"type": "way", "id": 627628785, "nodes": [5924793806, 5924793805, 5924793804, 5924793803, 5924793802, 5924793799, 5924793798, 2045673883, 5924793806], "tags": {"addr:city": "Mulund (West)", "addr:postcode": "400080", "amenity": "hospital", "healthcare": "hospital", "landuse": "Hospital", "name": "ESIS Hospital"}}, {"type": "way", "id": 924798584, "nodes": [8582767492, 8582767493, 8582767494, 8582767495, 8582767492], "tags": {"addr:city": "Mumbai", "addr:postcode": "400063", "addr:street": "Aarey Road", "amenity": "hospital", "healthcare": "hospital", "healthcare:speciality": "maternity", "name": "Yashada Maternity and Nursing Home"}}, {"type": "way", "id": 1120066176, "nodes": [10244258227, 10244258228, 10244258229, 10244258227], "tags": {"amenity": "hospital", "healthcare": "hospital"}}, {"type": "way", "id": 1170399169, "nodes": [10879569042, 10879569041, 10879569040, 10879569039, 8796983347, 10879569042], "tags": {"addr:city": "Mumbai", "addr:full": "Fateh Baug, Kandivali West, Mumbai", "addr:postcode": "400067", "addr:state": "Maharashtra", "addr:street": "SV Road, Fateh Baug", "amenity": "hospital", "healthcare": "hospital", "name": "Dr.Babasaheb Ambedkar Bmc General Hospital", "name:etymology:wikidata": "Q231690", "source": "Local Knowledge", "website": "https://www.mcgm.gov.in/irj/portal/anonymous/qlratnambdhosp"}}, {"type": "way", "id": 1378841925, "nodes": [12768025012, 12768025009, 12768025011, 12768025010, 12768025012], "tags": {"addr:district": "Mumbai Suburban", "addr:full": "Devi Dayal Cross Road, Behind Fire Station, P&T Staff Colony, Mulund West, Mumbai", "addr:postcode": "400080", "addr:state": "Maharastra", "amenity": "hospital", "name": "Upasani Super Speciality Hospital", "source": "Local Knowledge"}}]}