{"version": 0.6, "generator": "Overpass API 0.7.62.8 e802775f", "osm3s": {"timestamp_osm_base": "2026-01-12T13:14:34Z", "copyright": "The data included in this document is from www.openstreetmap.org. The data is made available under ODbL."}, "elements": [{"type": "node", "id": 266737816, "lat": 12.8718058, "lon": 77.654025}, {"type": "node", "id": 266737817, "lat": 12.8705981, "lon": 77.6540177}, {"type": "node", "id": 266737832, "lat": 12.8705291, "lon": 77.6532434}, {"type": "node", "id": 1192791521, "lat": 12.8251205, "lon": 77.6829303}, {"type": "node", "id": 1311739551, "lat": 12.8395522, "lon": 77.7074334, "tags": {"amenity": "school", "name": "Ebenezer International School Bangalore", "website": "https://eisbangalore.edu.in/"}}, {"type": "node", "id": 1818493716, "lat": 12.8594794, "lon": 77.6344242, "tags": {"amenity": "school", "name": "Government Primary School, Vittasandra", "name:kn": "\u0cb8\u0cb0\u0ccd\u0c95\u0cbe\u0cb0\u0cbf \u0caa\u0ccd\u0cb0\u0cbe\u0ca5\u0cae\u0cbf\u0c95 \u0cb6\u0cbe\u0cb2\u0cc6", "source": "survey"}}, {"type": "node", "id": 1827508643, "lat": 12.8163535, "lon": 77.6527643}, {"type": "node", "id": 1827508645, "lat": 12.8167867, "lon": 77.6529056}, {"type": "node", "id": 1827508647, "lat": 12.8169344, "lon": 77.6533196}, {"type": "node", "id": 1827508649, "lat": 12.8171904, "lon": 77.6535316}, {"type": "node", "id": 1827508651, "lat": 12.8175645, "lon": 77.6537134}, {"type": "node", "id": 1827508653, "lat": 12.8179091, "lon": 77.6539052}, {"type": "node", "id": 2399188083, "lat": 12.8431833, "lon": 77.6391991}, {"type": "node", "id": 2399188093, "lat": 12.8435917, "lon": 77.6371468}, {"type": "node", "id": 2399188097, "lat": 12.8433359, "lon": 77.6397135}, {"type": "node", "id": 2399188099, "lat": 12.8435919, "lon": 77.6397724}, {"type": "node", "id": 2399188105, "lat": 12.844139, "lon": 77.6373097}, {"type": "node", "id": 2399188107, "lat": 12.8434446, "lon": 77.6392641}, {"type": "node", "id": 2550433504, "lat": 12.8346225, "lon": 77.6800993}, {"type": "node", "id": 2550433505, "lat": 12.8345571, "lon": 77.6821794}, {"type": "node", "id": 2550433506, "lat": 12.8338013, "lon": 77.682233}, {"type": "node", "id": 2550433508, "lat": 12.8328141, "lon": 77.6807069}, {"type": "node", "id": 2952008218, "lat": 12.8253489, "lon": 77.6826753}, {"type": "node", "id": 2952008221, "lat": 12.8259007, "lon": 77.6816292}, {"type": "node", "id": 3221284437, "lat": 12.8834412, "lon": 77.7246483}, {"type": "node", "id": 3221284439, "lat": 12.8835005, "lon": 77.7264834}, {"type": "node", "id": 3221284440, "lat": 12.8835575, "lon": 77.7265015}, {"type": "node", "id": 3221284441, "lat": 12.8836285, "lon": 77.7265256}, {"type": "node", "id": 3221284443, "lat": 12.8837309, "lon": 77.723521}, {"type": "node", "id": 3221284445, "lat": 12.8837563, "lon": 77.7267994}, {"type": "node", "id": 3221284446, "lat": 12.8837675, "lon": 77.7266457}, {"type": "node", "id": 3221284450, "lat": 12.8838793, "lon": 77.725079}, {"type": "node", "id": 3221284453, "lat": 12.8838955, "lon": 77.7235902}, {"type": "node", "id": 3221284454, "lat": 12.8839158, "lon": 77.7252569}, {"type": "node", "id": 3221284455, "lat": 12.8839341, "lon": 77.727017}, {"type": "node", "id": 3221284456, "lat": 12.8839386, "lon": 77.7248449}, {"type": "node", "id": 3221284582, "lat": 12.8843083, "lon": 77.7237401}, {"type": "node", "id": 3221284590, "lat": 12.8843772, "lon": 77.7265518}, {"type": "node", "id": 3221284607, "lat": 12.8845136, "lon": 77.7264085}, {"type": "node", "id": 3221284627, "lat": 12.8848878, "lon": 77.7257297}, {"type": "node", "id": 3221284628, "lat": 12.884938, "lon": 77.7249807}, {"type": "node", "id": 3221284630, "lat": 12.885011, "lon": 77.7242317}, {"type": "node", "id": 3221284631, "lat": 12.885011, "lon": 77.7252475}, {"type": "node", "id": 3240751149, "lat": 12.8766575, "lon": 77.724268, "tags": {"amenity": "school", "name": "JAAGA Bootcamp"}}, {"type": "node", "id": 4672348863, "lat": 12.8848495, "lon": 77.7092276}, {"type": "node", "id": 4672348864, "lat": 12.8841795, "lon": 77.7109387}, {"type": "node", "id": 4672348865, "lat": 12.8837479, "lon": 77.7107609}, {"type": "node", "id": 4672348866, "lat": 12.8844179, "lon": 77.7090498}, {"type": "node", "id": 5018250545, "lat": 12.8708486, "lon": 77.6536886}, {"type": "node", "id": 5018250563, "lat": 12.8718358, "lon": 77.6537258}, {"type": "node", "id": 5806622767, "lat": 12.8847562, "lon": 77.6788324}, {"type": "node", "id": 5806622768, "lat": 12.884683, "lon": 77.6794547}, {"type": "node", "id": 5806622769, "lat": 12.8843274, "lon": 77.6794278}, {"type": "node", "id": 5806622770, "lat": 12.8842333, "lon": 77.6802271}, {"type": "node", "id": 5806622771, "lat": 12.8831378, "lon": 77.6800448}, {"type": "node", "id": 5806622772, "lat": 12.8833443, "lon": 77.6785669}, {"type": "node", "id": 6347228492, "lat": 12.8673681, "lon": 77.6559799, "tags": {"addr:place": "Beratena Agrahara", "amenity": "school", "isced:level": "2", "name": "GHPS Beratena Agrahara", "name:kn": "\u0cb8\u0cb0\u0ccd\u0c95\u0cbe\u0cb0\u0cbf \u0cb9\u0cbf\u0cb0\u0cbf\u0caf \u0caa\u0ccd\u0cb0\u0cbe\u0ca5\u0cae\u0cbf\u0c95 \u0cb6\u0cbe\u0cb2\u0cc6 \u0cac\u0cc6\u0cb0\u0c9f\u0cc6\u0ca8 \u0c85\u0c97\u0ccd\u0cb0\u0cb9\u0cbe\u0cb0", "operator": "Department of Primary and Secondary Education", "operator:type": "government", "operator:wikidata": "Q111467381", "school": "Higher Primary"}}, {"type": "node", "id": 6348722007, "lat": 12.8733, "lon": 77.6392183, "tags": {"addr:place": "Subhash Nagar", "amenity": "school", "isced:level": "2", "name": "GUHPS Subhash Nagar", "name:kn": "\u0cb8\u0cb0\u0ccd\u0c95\u0cbe\u0cb0\u0cbf \u0c89\u0cb0\u0ccd\u0ca6\u0cc1 \u0cb9\u0cbf\u0cb0\u0cbf\u0caf \u0caa\u0ccd\u0cb0\u0cbe\u0ca5\u0cae\u0cbf\u0c95 \u0cb6\u0cbe\u0cb2\u0cc6 \u0cb8\u0cc1\u0cad\u0cbe\u0cb7\u0ccd \u0ca8\u0c97\u0cb0", "operator": "Department of Education", "school": "primary"}}, {"type": "node", "id": 6348765081, "lat": 12.8516643, "lon": 77.6559357, "tags": {"addr:place": "Doddathoguru", "amenity": "school", "isced:level": "2", "name": "GHPS Doddathoguru", "name:kn": "\u0cb8\u0cb0\u0ccd\u0c95\u0cbe\u0cb0\u0cbf \u0cb9\u0cbf\u0cb0\u0cbf\u0caf \u0caa\u0ccd\u0cb0\u0cbe\u0ca5\u0cae\u0cbf\u0c95 \u0cb6\u0cbe\u0cb2\u0cc6 \u0ca6\u0cca\u0ca1\u0ccd\u0ca1\u0ca4\u0ccb\u0c97\u0cc2\u0cb0\u0cc1", "operator": "Department of Primary and Secondary Education", "operator:type": "government", "operator:wikidata": "Q111467381", "school": "primary"}}, {"type": "node", "id": 6348771620, "lat": 12.8621626, "lon": 77.6750136, "tags": {"addr:place": "Doddanagamangala", "amenity": "school", "isced:level": "2", "name": "GHPS Doddanagamangala", "name:kn": "\u0cb8\u0cb0\u0ccd\u0c95\u0cbe\u0cb0\u0cbf \u0cb9\u0cbf\u0cb0\u0cbf\u0caf \u0caa\u0ccd\u0cb0\u0cbe\u0ca5\u0cae\u0cbf\u0c95 \u0cb6\u0cbe\u0cb2\u0cc6 \u0ca6\u0cca\u0ca1\u0ccd\u0ca1\u0ca8\u0cbe\u0c97\u0cae\u0c82\u0c97\u0cb2", "operator": "Department of Primary and Secondary Education", "operator:type": "government", "operator:wikidata": "Q111467381", "school": "primary"}}, {"type": "node", "id": 6349022511, "lat": 12.8814541, "lon": 77.6674463, "tags": {"addr:place": "Parappana Agrahara", "amenity": "school", "isced:level": "2", "name": "GHPS Parappana Agrahara Centra", "name:kn": "\u0cb8\u0cb0\u0ccd\u0c95\u0cbe\u0cb0\u0cbf \u0cb9\u0cbf\u0cb0\u0cbf\u0caf \u0caa\u0ccd\u0cb0\u0cbe\u0ca5\u0cae\u0cbf\u0c95 \u0cb6\u0cbe\u0cb2\u0cc6 \u0caa\u0cb0\u0caa\u0ccd\u0caa\u0ca8 \u0c85\u0c97\u0ccd\u0cb0\u0cb9\u0cbe\u0cb0", "operator": "Department of Education", "school": "primary"}}, {"type": "node", "id": 6349076476, "lat": 12.8774636, "lon": 77.6474284}, {"type": "node", "id": 6349440643, "lat": 12.8584295, "lon": 77.6354127, "tags": {"addr:place": "Vittasandra", "amenity": "school", "isced:level": "2", "name": "GHPS Vittasandra", "name:kn": "\u0cb8\u0cb0\u0ccd\u0c95\u0cbe\u0cb0\u0cbf \u0cb9\u0cbf\u0cb0\u0cbf\u0caf \u0caa\u0ccd\u0cb0\u0cbe\u0ca5\u0cae\u0cbf\u0c95 \u0cb6\u0cbe\u0cb2\u0cc6 \u0cb5\u0cbf\u0c9f\u0ccd\u0c9f\u0cb8\u0c82\u0ca6\u0ccd\u0cb0", "operator": "Department of Education", "school": "primary"}}, {"type": "node", "id": 6364133318, "lat": 12.8539353, "lon": 77.6717128, "tags": {"addr:place": "\u0c97\u0ccb\u0cb5\u0cbf\u0c82\u0ca6\u0cb6\u0cc6\u0c9f\u0ccd\u0c9f\u0cbf \u0caa\u0cbe\u0cb3\u0ccd\u0caf", "amenity": "school", "isced:level": "2", "name": "GHPS Govindashetty Palya", "name:kn": "\u0cb8\u0cb0\u0ccd\u0c95\u0cbe\u0cb0\u0cbf \u0cb9\u0cbf\u0cb0\u0cbf\u0caf \u0caa\u0ccd\u0cb0\u0cbe\u0ca5\u0cae\u0cbf\u0c95 \u0cb6\u0cbe\u0cb2\u0cc6 \u0c97\u0ccb\u0cb5\u0cbf\u0c82\u0ca6\u0cb6\u0cc6\u0c9f\u0ccd\u0c9f\u0cbf \u0caa\u0cbe\u0cb3\u0ccd\u0caf", "operator": "Department of Primary and Secondary Education", "operator:type": "government", "operator:wikidata": "Q111467381", "school": "primary"}}, {"type": "node", "id": 6422320802, "lat": 12.8661456, "lon": 77.6585897, "tags": {"addr:place": "Beratena Agrahara", "amenity": "school", "isced:level": "3", "name": "Act Secondary HPS , Beratena Agrahara", "name:kn": "\u0c86\u0c95\u0ccd\u0c9f\u0ccd \u0cb8\u0cc6\u0c95\u0cc6\u0c82\u0ca1\u0cb0\u0cbf \u0cb9\u0cbf\u0cb0\u0cbf\u0caf \u0caa\u0ccd\u0cb0\u0cbe\u0ca5\u0cae\u0cbf\u0c95 \u0cb6\u0cbe\u0cb2\u0cc6 \u0cac\u0cc6\u0cb0\u0c9f\u0cc6\u0ca8 \u0c85\u0c97\u0ccd\u0cb0\u0cb9\u0cbe\u0cb0", "operator": "Private Un-Aided", "school": "Higher Secondary"}}, {"type": "node", "id": 6422335745, "lat": 12.8685514, "lon": 77.6557291, "tags": {"addr:place": "Beratena Agrahara", "amenity": "school", "isced:level": "3", "name": "St Joseph Eng Sch Hosur Road, Beratena Agrahara", "name:kn": "\u0cb8\u0cc6\u0c82\u0c9f\u0ccd\u200c \u0c9c\u0ccb\u0cb8\u0cc6\u0cab\u0ccd \u0c86\u0c82\u0c97\u0ccd\u0cb2 \u0cb6\u0cbe\u0cb2\u0cc6 \u0cb9\u0cca\u0cb8\u0cc2\u0cb0\u0ccd \u0cb0\u0cb8\u0ccd\u0ca4\u0cc6,\u0cac\u0cc6\u0cb0\u0c9f\u0cc6\u0ca8 \u0c85\u0c97\u0ccd\u0cb0\u0cb9\u0cbe\u0cb0", "operator": "Private Un-Aided", "school": "Higher secondary"}}, {"type": "node", "id": 6422425448, "lat": 12.8757154, "lon": 77.6568415, "tags": {"addr:place": "Beratena Agrahara", "amenity": "school", "isced:level": "2", "name": "Oxford School, Beratena Agrahara", "name:kn": "\u0c86\u0c95\u0ccd\u0cb8\u0ccd\u0cab\u0cb0\u0ccd\u0ca1\u0ccd \u0cb6\u0cbe\u0cb2\u0cc6,\u0cac\u0cc6\u0cb0\u0c9f\u0cc6\u0ca8 \u0c85\u0c97\u0ccd\u0cb0\u0cb9\u0cbe\u0cb0", "operator": "Higher primary"}}, {"type": "node", "id": 6430517785, "lat": 12.8755953, "lon": 77.6388735, "tags": {"addr:place": "Begur", "amenity": "school", "isced:level": "3", "name": "Priyadarshini School, Begur", "name:kn": "\u0caa\u0ccd\u0cb0\u0cbf\u0caf\u0ca6\u0cb0\u0ccd\u0cb6\u0cbf\u0ca8\u0cbf,\u0cb6\u0cbe\u0cb2\u0cc6 \u0cac\u0cc7\u0c97\u0cc2\u0cb0\u0cc1", "operator": "Private Un-Aided", "school": "Higher Secondary"}}, {"type": "node", "id": 6430532645, "lat": 12.8714779, "lon": 77.6355626, "tags": {"addr:place": "Begur", "amenity": "school", "isced:level": "3", "name": "Cresent Eng School, Begur", "name:kn": "\u0c95\u0ccd\u0cb0\u0cc6\u0cb8\u0cc6\u0c82\u0c9f\u0ccd \u0c86\u0c82\u0c97\u0ccd\u0cb2 \u0cb6\u0cbe\u0cb2\u0cc6,\u0cac\u0cc7\u0c97\u0cc2\u0cb0\u0cc1", "operator": "Private Un-Aided", "school": "Higher Secondary"}}, {"type": "node", "id": 6437573479, "lat": 12.8706196, "lon": 77.638, "tags": {"addr:place": "Begur", "amenity": "school", "isced:level": "3", "name": "Little Angel Eng School, Begur", "name:kn": "\u0cb2\u0cbf\u0c9f\u0cb2\u0ccd \u0c8f\u0c82\u0c9c\u0cb2\u0ccd \u0c86\u0c82\u0c97\u0ccd\u0cb2 \u0cb6\u0cbe\u0cb2\u0cc6,\u0cac\u0cc7\u0c97\u0cc2\u0cb0\u0cc1", "operator": "Private Un-Aided", "school": "Higher Secondary"}}, {"type": "node", "id": 6437580355, "lat": 12.8707092, "lon": 77.6384891, "tags": {"addr:place": "Begur", "amenity": "school", "isced:level": "1", "name": "GLPS Subhash Nagar, Begur", "name:kn": "\u0cb8\u0cb0\u0ccd\u0c95\u0cbe\u0cb0\u0cbf \u0c95\u0cbf\u0cb0\u0cbf\u0caf \u0caa\u0ccd\u0cb0\u0cbe\u0ca5\u0cae\u0cbf\u0c95 \u0cb6\u0cbe\u0cb2\u0cc6 \u0cb8\u0cc1\u0cad\u0cbe\u0cb7\u0ccd \u0ca8\u0c97\u0cb0,\u0cac\u0cc7\u0c97\u0cc2\u0cb0\u0cc1", "operator": "Department of Education", "school": "Primary Only"}}, {"type": "node", "id": 6437760193, "lat": 12.8808502, "lon": 77.6370167, "tags": {"addr:place": "Begur", "amenity": "school", "isced:level": "2", "name": "Jnanajyothi Eng School, Begur", "name:kn": "\u0c9c\u0ccd\u0c9e\u0cbe\u0ca8\u0c9c\u0ccd\u0caf\u0ccb\u0ca4\u0cbf \u0c86\u0c82\u0c97\u0ccd\u0cb2 \u0cb6\u0cbe\u0cb2\u0cc6, \u0cac\u0cc7\u0c97\u0cc2\u0cb0\u0cc1", "operator": "Private Un-Aided", "school": "Higher Primary"}}, {"type": "node", "id": 6438094032, "lat": 12.8655289, "lon": 77.6471089, "tags": {"addr:place": "Basapura", "amenity": "school", "isced:level": "1", "name": "GLPS Basapura, Basapura", "name:kn": "\u0cb8\u0cb0\u0ccd\u0c95\u0cbe\u0cb0\u0cbf \u0c95\u0cbf\u0cb0\u0cbf\u0caf \u0caa\u0ccd\u0cb0\u0cbe\u0ca5\u0cae\u0cbf\u0c95 \u0cb6\u0cbe\u0cb2\u0cc6,\u0cac\u0cb8\u0cbe\u0caa\u0cc1\u0cb0", "operator": "Department of Education", "school": "primary"}}, {"type": "node", "id": 6438097400, "lat": 12.8657376, "lon": 77.645392, "tags": {"addr:place": "Basapura", "amenity": "school", "isced:level": "1", "name": "The Paradise Residential Sch, Basapura", "name:kn": "\u0caa\u0ccd\u0caf\u0cbe\u0cb0\u0ca1\u0cc8\u0cb8\u0ccd \u0cb5\u0cb8\u0ca4\u0cbf \u0cb6\u0cbe\u0cb2\u0cc6,\u0cac\u0cb8\u0cbe\u0caa\u0cc1\u0cb0", "operator": "Private Un-Aided", "school": "primary"}}, {"type": "node", "id": 6438105185, "lat": 12.8801561, "lon": 77.6341829, "tags": {"addr:place": "Chikkabegur", "amenity": "school", "isced:level": "1", "name": "GLPS Chikkabegur", "name:kn": "\u0cb8\u0cb0\u0ccd\u0c95\u0cbe\u0cb0\u0cbf \u0c95\u0cbf\u0cb0\u0cbf\u0caf \u0caa\u0ccd\u0cb0\u0cbe\u0ca5\u0cae\u0cbf\u0c95 \u0cb6\u0cbe\u0cb2\u0cc6 \u0c9a\u0cbf\u0c95\u0ccd\u0c95\u0cac\u0cc7\u0c97\u0cc2\u0cb0\u0cc1", "operator": "Department of Education", "school": "primary"}}, {"type": "node", "id": 6438107328, "lat": 12.8818317, "lon": 77.6358456, "tags": {"addr:place": "Chikkabegur", "amenity": "school", "isced:level": "3", "name": "Begur Channarayappa Ramiya, Chikkabegur", "name:kn": "\u0cac\u0cc7\u0c97\u0cc2\u0cb0\u0cc1 \u0c9a\u0ca8\u0ccd\u0ca8\u0cbe\u0cb0\u0cbe\u0caf\u0caa\u0ccd\u0caa \u0cb0\u0cbe\u0cae\u0caf,\u0c9a\u0cbf\u0c95\u0ccd\u0c95\u0cac\u0cc7\u0c97\u0cc2\u0cb0\u0cc1", "operator": "Private Un-Aided", "school": "Higher Secondary"}}, {"type": "node", "id": 6438110969, "lat": 12.8575245, "lon": 77.6534136, "tags": {"addr:place": "Chikkatoru", "amenity": "school", "isced:level": "1", "name": "GLPS Chikkatoru", "name:kn": "\u0cb8\u0cb0\u0ccd\u0c95\u0cbe\u0cb0\u0cbf \u0c95\u0cbf\u0cb0\u0cbf\u0caf \u0caa\u0ccd\u0cb0\u0cbe\u0ca5\u0cae\u0cbf\u0c95 \u0cb6\u0cbe\u0cb2\u0cc6 \u0c9a\u0cbf\u0c95\u0ccd\u0c95\u0ca4\u0ccb\u0cb0\u0cc1", "operator": "Department of Education", "school": "primary"}}, {"type": "node", "id": 6438128850, "lat": 12.8628345, "lon": 77.6508047, "tags": {"addr:place": "Chikkatoru", "amenity": "school", "isced:level": "1", "name": "Pragathi School, Chikkatoru", "name:kn": "\u0caa\u0ccd\u0cb0\u0c97\u0ca4\u0cbf \u0cb6\u0cbe\u0cb2\u0cc6,\u0c9a\u0cbf\u0c95\u0ccd\u0c95\u0ca4\u0ccb\u0cb0\u0cc1", "operator": "Private Un-Aided", "school": "primary"}}, {"type": "node", "id": 6469096365, "lat": 12.854687, "lon": 77.6592678, "tags": {"addr:place": "Doddathoru", "amenity": "school", "isced:level": "3", "name": "Mme Sch Konnappana Agrahara", "name:kn": "\u0c8e\u0c82.\u0c8e\u0c82.\u0c87. \u0c8e\u0cb8\u0ccd.\u0cb8\u0cbf.\u0c8e\u0c9a\u0ccd. \u0c95\u0cca\u0ca8\u0ccd\u0ca8\u0caa\u0ccd\u0caa\u0ca8 \u0c85\u0c97\u0ccd\u0cb0\u0cb9\u0cbe\u0cb0", "operator": "Private Un-Aided", "school": "Higher Secondary"}}, {"type": "node", "id": 6493888851, "lat": 12.8507072, "lon": 77.6529146, "tags": {"addr:place": "Doddathoru", "amenity": "school", "isced:level": "3", "name": "Sacretis School", "name:kn": "\u0cb8\u0cbe\u0c95\u0ccd\u0cb0\u0cc6\u0c9f\u0cbf\u0cb8\u0ccd \u0cb6\u0cbe\u0cb2\u0cc6,\u0ca6\u0cca\u0ca1\u0ccd\u0ca1\u0ca4\u0ccb\u0cb0\u0cc1", "operator": "Private Un-Aided", "school": "Higher Secondary"}}, {"type": "node", "id": 6494081758, "lat": 12.8506548, "lon": 77.6546922, "tags": {"addr:place": "Doddathoru", "amenity": "school", "isced:level": "3", "name": "New Horizon Eng School", "name:kn": "\u0ca8\u0ccd\u0caf\u0cc2 \u0cb9\u0cca\u0cb0\u0cc8\u0c9c\u0ca8\u0ccd \u0c86\u0c82\u0c97\u0ccd\u0cb2 \u0cb6\u0cbe\u0cb2\u0cc6, \u0ca6\u0cca\u0ca1\u0ccd\u0ca1\u0ca4\u0ccb\u0cb0\u0cc1", "operator": "Private Un-Aided", "school": "Higher Secondary"}}, {"type": "node", "id": 6494127493, "lat": 12.8625525, "lon": 77.6783059, "tags": {"addr:place": "Doddanagamangala", "amenity": "school", "isced:level": "3", "name": "St Gasper School", "name:kn": "\u0cb8\u0cc6\u0c82\u0c9f\u0ccd \u0c97\u0ccd\u0caf\u0cbe\u0cb8\u0ccd\u0caa\u0cb0\u0ccd \u0cb6\u0cbe\u0cb2\u0cc6 \u0ca1\u0cca\u0ca1\u0ccd\u0ca1\u0ca8\u0c97\u0cae\u0c82\u0c97\u0cb2", "operator": "Private Un-Aided", "school": "Higher Secondary"}}, {"type": "node", "id": 6494392041, "lat": 12.8775539, "lon": 77.6700895, "tags": {"addr:place": "Ellikunte", "amenity": "school", "isced": "2", "name": "New Shanthiniketan Eng Convent", "name:kn": "\u0ca8\u0ccd\u0caf\u0cc2 \u0cb6\u0cbe\u0c82\u0ca4\u0cbf\u0ca8\u0cbf\u0c95\u0cc7\u0ca4\u0ca8 \u0c86\u0c82\u0c97\u0ccd\u0cb2 \u0c95\u0cbe\u0ca8\u0ccd\u0cb5\u0cc6\u0c82\u0c9f\u0ccd, \u0c8e\u0cb3\u0ccd\u0cb3\u0cc1\u0c95\u0cc1\u0c82\u0c9f\u0cc6", "operator": "Private Un-Aided", "school": "Higher Primary"}}, {"type": "node", "id": 6494555050, "lat": 12.872912, "lon": 77.6581646, "tags": {"addr:place": "Ellikunate", "amenity": "school", "isced:level": "3", "name": "Sujana Convent", "name:kn": "\u0cb8\u0cc1\u0c9c\u0ca8\u0cbe \u0c95\u0cbe\u0ca8\u0ccd\u0cb5\u0cc6\u0c82\u0c9f\u0ccd,\u0c8e\u0cb3\u0ccd\u0cb3\u0cc1\u0c95\u0cc1\u0c82\u0c9f\u0cc6", "operator": "Private Un-Aided", "school": "Higher Secondary"}}, {"type": "node", "id": 6494585382, "lat": 12.8719195, "lon": 77.6590904, "tags": {"addr:place": "Ellikunate", "amenity": "school", "isced:level": "3", "name": "Blue Bel Public School", "name:kn": "\u0cac\u0ccd\u0cb2\u0cc2 \u0cac\u0cc6\u0cb2\u0ccd \u0caa\u0cac\u0ccd\u0cb2\u0cbf\u0c95\u0ccd \u0cb6\u0cbe\u0cb2\u0cc6,\u0c8e\u0cb3\u0ccd\u0cb3\u0cc1\u0c95\u0cc1\u0c82\u0c9f\u0cc6", "operator": "Private Un-Aided", "school": "Higher Secondary"}}, {"type": "node", "id": 6494646365, "lat": 12.8523461, "lon": 77.6709539, "tags": {"addr:place": "Ellikunate", "amenity": "school", "isced:level": "2", "name": "Infont Pub Sch", "name:kn": "\u0c87\u0ca8\u0ccd\u0cab\u0ccb\u0c82\u0c9f\u0ccd \u0caa\u0cac\u0ccd\u0cb2\u0cbf\u0c95\u0ccd \u0cb6\u0cbe\u0cb2\u0cc6,\u0c8e\u0cb3\u0ccd\u0cb3\u0cc1\u0c95\u0cc1\u0c82\u0c9f\u0cc6", "operator": "Private Un-Aided", "school": "Higher Primary"}}, {"type": "node", "id": 6496843480, "lat": 12.8552691, "lon": 77.6701683, "tags": {"addr:place": "Govindashetty Palya", "amenity": "school", "isced:level": "3", "name": "Sham's LPS Govindashetty Palya", "name:kn": "\u0cb6\u0cbe\u0cae\u0ccd\u0cb8\u0ccd \u0c95\u0cbf\u0cb0\u0cbf\u0caf \u0caa\u0ccd\u0cb0\u0cbe\u0ca5\u0cae\u0cbf\u0c95 \u0cb6\u0cbe\u0cb2\u0cc6 \u0c97\u0ccb\u0cb5\u0cbf\u0c82\u0ca6\u0cb6\u0cc6\u0c9f\u0ccd\u0c9f\u0cbf \u0caa\u0cbe\u0cb3\u0ccd\u0caf", "operator": "Private Un-Aided", "school": "Higher Secondary"}}, {"type": "node", "id": 6536665928, "lat": 12.8507016, "lon": 77.6709723, "tags": {"addr:place": "Konappana Agrahara", "amenity": "school", "isced:level": "3", "name": "Silicon Valley School, Konappana Agrahara", "name:kn": "\u0cb8\u0cbf\u0cb2\u0cbf\u0c95\u0cbe\u0ca8\u0ccd \u0cb5\u0ccd\u0caf\u0cbe\u0cb2\u0cbf \u0cb6\u0cbe\u0cb2\u0cc6, \u0c95\u0cca\u0ca8\u0cbe\u0caa\u0ccd\u0caa\u0ca8\u0cbe \u0c85\u0c97\u0ccd\u0cb0\u0cb9\u0cbe\u0cb0", "operator": "Private Un-Aided", "school": "Higher Secondary"}}, {"type": "node", "id": 6536695625, "lat": 12.8517345, "lon": 77.668652, "tags": {"addr:place": "Konappana Agrahara", "amenity": "school", "isced:level": "2", "name": "Arunodaya Vidya Samsthe, Konappana Agrahara", "name:kn": "\u0c85\u0cb0\u0cc1\u0ca8\u0cca\u0ca6\u0caf \u0cb5\u0cbf\u0ca6\u0ccd\u0caf\u0cbe \u0cb8\u0c82\u0cb8\u0ccd\u0ca5\u0cc6, \u0c95\u0cca\u0ca8\u0cbe\u0caa\u0ccd\u0caa \u0c85\u0c97\u0ccd\u0cb0\u0cb9\u0cbe\u0cb0", "operator": "Private Un-Aided", "school": "Higher Primary"}}, {"type": "node", "id": 6745433500, "lat": 12.8717726, "lon": 77.6714141, "tags": {"addr:place": "Naganathapura", "amenity": "school", "isced:level": "3", "name": "BES Naganathapura", "name:kn": "\u0cac\u0cbf.\u0c87.\u0c8e\u0cb8\u0ccd \u0ca8\u0cbe\u0c97\u0ca8\u0cbe\u0ca5\u0caa\u0cc1\u0cb0, \u0ca8\u0cbe\u0c97\u0ca8\u0cbe\u0ca5\u0caa\u0cc1\u0cb0", "operator": "Private Un-Aided", "school": "Higher Secondary"}}, {"type": "node", "id": 6745434171, "lat": 12.8717058, "lon": 77.6687097, "tags": {"addr:place": "Naganathapura", "amenity": "school", "isced:level": "2", "name": "Sahana Vidya Mandira", "name:kn": "\u0cb8\u0cb9\u0ca8\u0cbe \u0cb5\u0cbf\u0ca6\u0ccd\u0caf\u0cbe \u0cae\u0c82\u0ca6\u0cbf\u0cb0, \u0ca8\u0cbe\u0c97\u0ca8\u0cbe\u0ca5\u0caa\u0cc1\u0cb0", "operator": "Private Un-Aided", "school": "Higher Primary"}}, {"type": "node", "id": 6745841071, "lat": 12.8821255, "lon": 77.6559921, "tags": {"addr:place": "Parappana Agrahara", "amenity": "school", "isced:level": "3", "name": "Shree Vidyanikethan", "name:kn": "\u0cb6\u0ccd\u0cb0\u0cc0 \u0cb5\u0cbf\u0ca6\u0ccd\u0caf\u0cbe\u0ca8\u0cbf\u0c95\u0cc7\u0ca4\u0ca8, \u0caa\u0cb0\u0caa\u0ccd\u0caa\u0ca8 \u0c85\u0c97\u0ccd\u0cb0\u0cb9\u0cbe\u0cb0", "operator": "Private Un-Aided", "school": "Higher Secondary"}}, {"type": "node", "id": 6745848093, "lat": 12.8817347, "lon": 77.6597705, "tags": {"addr:place": "Parappana Agrahara", "amenity": "school", "isced:level": "1", "name": "GLPS Parappana Agrahara", "name:kn": "\u0cb8\u0cb0\u0ccd\u0c95\u0cbe\u0cb0\u0cbf \u0c95\u0cbf\u0cb0\u0cbf\u0caf \u0caa\u0ccd\u0cb0\u0cbe\u0ca5\u0cae\u0cbf\u0c95 \u0cb6\u0cbe\u0cb2\u0cc6 \u0caa\u0cb0\u0caa\u0ccd\u0caa\u0ca8 \u0c85\u0c97\u0ccd\u0cb0\u0cb9\u0cbe\u0cb0", "operator": "Department of Education", "school": "primary"}}, {"type": "node", "id": 7217870191, "lat": 12.8838392, "lon": 77.7248056}, {"type": "node", "id": 8416425760, "lat": 12.8251191, "lon": 77.6823602}, {"type": "node", "id": 9838468073, "lat": 12.8295361, "lon": 77.6816955}, {"type": "node", "id": 9838468074, "lat": 12.8291959, "lon": 77.6828644}, {"type": "node", "id": 9838468075, "lat": 12.8297347, "lon": 77.6830294}, {"type": "node", "id": 9838468076, "lat": 12.829991, "lon": 77.6815796}, {"type": "node", "id": 9970369532, "lat": 12.8450883, "lon": 77.701208}, {"type": "node", "id": 9970369533, "lat": 12.8450936, "lon": 77.7010256}, {"type": "node", "id": 9970369534, "lat": 12.8429178, "lon": 77.7010041}, {"type": "node", "id": 9970369535, "lat": 12.8429073, "lon": 77.7014548}, {"type": "node", "id": 9970369536, "lat": 12.8435664, "lon": 77.7015513}, {"type": "node", "id": 9970369537, "lat": 12.843786, "lon": 77.7023506}, {"type": "node", "id": 9970369538, "lat": 12.843786, "lon": 77.7031606}, {"type": "node", "id": 9970369539, "lat": 12.8443561, "lon": 77.7031392}, {"type": "node", "id": 9970369540, "lat": 12.844989, "lon": 77.7032465}, {"type": "node", "id": 9970369541, "lat": 12.8455643, "lon": 77.7013206}, {"type": "node", "id": 9970369542, "lat": 12.8409512, "lon": 77.7064383}, {"type": "node", "id": 9970369543, "lat": 12.8406165, "lon": 77.7064115}, {"type": "node", "id": 9970369544, "lat": 12.8405642, "lon": 77.7073932}, {"type": "node", "id": 9970369545, "lat": 12.840674, "lon": 77.7079242}, {"type": "node", "id": 9970369546, "lat": 12.8408205, "lon": 77.7096462}, {"type": "node", "id": 9970369547, "lat": 12.8401928, "lon": 77.7096462}, {"type": "node", "id": 9970369548, "lat": 12.8402347, "lon": 77.7086323}, {"type": "node", "id": 9970369549, "lat": 12.8395443, "lon": 77.7086323}, {"type": "node", "id": 9970369550, "lat": 12.8395861, "lon": 77.7061754}, {"type": "node", "id": 9970369551, "lat": 12.8399993, "lon": 77.7061808}, {"type": "node", "id": 9970369552, "lat": 12.8400203, "lon": 77.7058589}, {"type": "node", "id": 9970369553, "lat": 12.8409879, "lon": 77.7056283}, {"type": "node", "id": 10224145443, "lat": 12.826527, "lon": 77.7052833}, {"type": "node", "id": 10224145444, "lat": 12.8270366, "lon": 77.7053551}, {"type": "node", "id": 10285558609, "lat": 12.8175866, "lon": 77.650702}, {"type": "node", "id": 10307198783, "lat": 12.8617249, "lon": 77.7049971}, {"type": "node", "id": 10307198784, "lat": 12.861508, "lon": 77.7049976}, {"type": "node", "id": 10307198785, "lat": 12.8615072, "lon": 77.7045907}, {"type": "node", "id": 10307198786, "lat": 12.861724, "lon": 77.7045902}, {"type": "node", "id": 10947302031, "lat": 12.8499497, "lon": 77.6392436}, {"type": "node", "id": 10947302032, "lat": 12.849887, "lon": 77.641494}, {"type": "node", "id": 10947302033, "lat": 12.8503577, "lon": 77.6415047}, {"type": "node", "id": 10947302034, "lat": 12.8511971, "lon": 77.6399839}, {"type": "node", "id": 11027579060, "lat": 12.8831899, "lon": 77.6796718}, {"type": "node", "id": 11520696891, "lat": 12.8826565, "lon": 77.6849592}, {"type": "node", "id": 11520696895, "lat": 12.8837947, "lon": 77.6850608}, {"type": "node", "id": 11520696912, "lat": 12.8848031, "lon": 77.6836476}, {"type": "node", "id": 11520696913, "lat": 12.8844005, "lon": 77.6839104}, {"type": "node", "id": 11520696914, "lat": 12.8842906, "lon": 77.6845917}, {"type": "node", "id": 11520696915, "lat": 12.8842671, "lon": 77.6850852}, {"type": "node", "id": 11520696916, "lat": 12.8828526, "lon": 77.6829421}, {"type": "node", "id": 11520696917, "lat": 12.884926, "lon": 77.6831567}, {"type": "node", "id": 11521368790, "lat": 12.8704429, "lon": 77.6536337}, {"type": "node", "id": 11521368796, "lat": 12.8703071, "lon": 77.6534098}, {"type": "node", "id": 11521368797, "lat": 12.8703527, "lon": 77.6536967}, {"type": "node", "id": 11535743892, "lat": 12.8136766, "lon": 77.7132565}, {"type": "node", "id": 11553132823, "lat": 12.8306082, "lon": 77.6874858}, {"type": "node", "id": 11553132824, "lat": 12.8307429, "lon": 77.6867509}, {"type": "node", "id": 11553132825, "lat": 12.8314359, "lon": 77.6867831}, {"type": "node", "id": 11553132826, "lat": 12.8313548, "lon": 77.6875971}, {"type": "node", "id": 11553139556, "lat": 12.8337887, "lon": 77.6803791}, {"type": "node", "id": 11553139557, "lat": 12.8338341, "lon": 77.6806435}, {"type": "node", "id": 11553139558, "lat": 12.8339427, "lon": 77.6803273}, {"type": "node", "id": 11553139559, "lat": 12.8339069, "lon": 77.6822255}, {"type": "node", "id": 11553139560, "lat": 12.8327056, "lon": 77.6822193}, {"type": "node", "id": 11553139561, "lat": 12.8327448, "lon": 77.681125}, {"type": "node", "id": 11553139562, "lat": 12.8328756, "lon": 77.6811142}, {"type": "node", "id": 11623089946, "lat": 12.8792639, "lon": 77.6984628}, {"type": "node", "id": 11623089950, "lat": 12.8800522, "lon": 77.6983098}, {"type": "node", "id": 11623089951, "lat": 12.8798718, "lon": 77.6974073}, {"type": "node", "id": 11786087614, "lat": 12.8860768, "lon": 77.7226909}, {"type": "node", "id": 11786087620, "lat": 12.8820433, "lon": 77.7256617}, {"type": "node", "id": 11786087625, "lat": 12.8848764, "lon": 77.7249587}, {"type": "node", "id": 11786087626, "lat": 12.8849443, "lon": 77.7246532}, {"type": "node", "id": 11786087627, "lat": 12.8855561, "lon": 77.7247658}, {"type": "node", "id": 11786087628, "lat": 12.8855274, "lon": 77.7248839}, {"type": "node", "id": 11786087629, "lat": 12.8863981, "lon": 77.725195}, {"type": "node", "id": 11786087630, "lat": 12.886738, "lon": 77.7244037}, {"type": "node", "id": 11786087631, "lat": 12.8871092, "lon": 77.7229419}, {"type": "node", "id": 11786087632, "lat": 12.8870909, "lon": 77.7227139}, {"type": "node", "id": 11786087633, "lat": 12.884845, "lon": 77.722663}, {"type": "node", "id": 11921456283, "lat": 12.8340327, "lon": 77.7023232}, {"type": "node", "id": 11921456284, "lat": 12.8334588, "lon": 77.7018893}, {"type": "node", "id": 11921456285, "lat": 12.83394, "lon": 77.701377}, {"type": "node", "id": 11921456293, "lat": 12.8343166, "lon": 77.7018249}, {"type": "node", "id": 11936944791, "lat": 12.8165195, "lon": 77.6506484}, {"type": "node", "id": 11936944792, "lat": 12.8164515, "lon": 77.6526037}, {"type": "node", "id": 11936944793, "lat": 12.8180023, "lon": 77.6539371}, {"type": "node", "id": 11936944794, "lat": 12.8182247, "lon": 77.6523623}, {"type": "node", "id": 11936944795, "lat": 12.8174872, "lon": 77.6523891}, {"type": "node", "id": 11977430586, "lat": 12.8801553, "lon": 77.7172539}, {"type": "node", "id": 11977430587, "lat": 12.8800188, "lon": 77.7175921}, {"type": "node", "id": 11977430588, "lat": 12.878379, "lon": 77.7168959}, {"type": "node", "id": 11977430589, "lat": 12.8785154, "lon": 77.7165577}, {"type": "node", "id": 12109492011, "lat": 12.852706, "lon": 77.6811048}, {"type": "node", "id": 12109492012, "lat": 12.852179, "lon": 77.6805992}, {"type": "node", "id": 12109492013, "lat": 12.8527217, "lon": 77.6800749}, {"type": "node", "id": 12144442648, "lat": 12.7996113, "lon": 77.7163454}, {"type": "node", "id": 12145276488, "lat": 12.8827903, "lon": 77.683624}, {"type": "node", "id": 12145276514, "lat": 12.8793109, "lon": 77.6975388}, {"type": "node", "id": 12208348828, "lat": 12.7995836, "lon": 77.7166942}, {"type": "node", "id": 12213148599, "lat": 12.8789295, "lon": 77.7167335}, {"type": "node", "id": 12357458600, "lat": 12.7991606, "lon": 77.6657143}, {"type": "node", "id": 12357458601, "lat": 12.7989932, "lon": 77.6668087}, {"type": "node", "id": 12357458602, "lat": 12.7992129, "lon": 77.6668677}, {"type": "node", "id": 12357458603, "lat": 12.7991815, "lon": 77.6676536}, {"type": "node", "id": 12357458604, "lat": 12.7993306, "lon": 77.6676723}, {"type": "node", "id": 12357458605, "lat": 12.7994483, "lon": 77.6679164}, {"type": "node", "id": 12357458606, "lat": 12.7997753, "lon": 77.6678655}, {"type": "node", "id": 12357458607, "lat": 12.7997805, "lon": 77.66738}, {"type": "node", "id": 12357458608, "lat": 12.8000918, "lon": 77.6673585}, {"type": "node", "id": 12357458609, "lat": 12.8001519, "lon": 77.6662159}, {"type": "node", "id": 12357458610, "lat": 12.7998067, "lon": 77.6661341}, {"type": "node", "id": 12357458611, "lat": 12.7997727, "lon": 77.6662602}, {"type": "node", "id": 12357458612, "lat": 12.7996641, "lon": 77.6662575}, {"type": "node", "id": 12357458613, "lat": 12.799723, "lon": 77.6657572}, {"type": "node", "id": 12450827728, "lat": 12.8196266, "lon": 77.6573244}, {"type": "node", "id": 12487746610, "lat": 12.8612771, "lon": 77.6718722}, {"type": "node", "id": 12487746611, "lat": 12.8613393, "lon": 77.6717117}, {"type": "node", "id": 12487746612, "lat": 12.8608673, "lon": 77.6715066}, {"type": "node", "id": 12487746613, "lat": 12.8606581, "lon": 77.6721503}, {"type": "node", "id": 12487746614, "lat": 12.8610573, "lon": 77.6722691}, {"type": "node", "id": 12487746615, "lat": 12.8612164, "lon": 77.6718231}, {"type": "node", "id": 12509706262, "lat": 12.880868, "lon": 77.7276868}, {"type": "node", "id": 12509706263, "lat": 12.880732, "lon": 77.7283493}, {"type": "node", "id": 12509706264, "lat": 12.8807007, "lon": 77.7291003}, {"type": "node", "id": 12509706265, "lat": 12.8816184, "lon": 77.7289903}, {"type": "node", "id": 12509706266, "lat": 12.882544, "lon": 77.7283546}, {"type": "node", "id": 12509706267, "lat": 12.8809909, "lon": 77.7277029}, {"type": "node", "id": 12509706268, "lat": 12.8821466, "lon": 77.7257448}, {"type": "node", "id": 12525343930, "lat": 12.8844879, "lon": 77.7101512}, {"type": "node", "id": 12632670893, "lat": 12.8820812, "lon": 77.680158}, {"type": "node", "id": 12878810901, "lat": 12.8814976, "lon": 77.6352146, "tags": {"addr:street": "Begur Lake Road", "amenity": "school", "name": "BCR Public school"}}, {"type": "node", "id": 12912646241, "lat": 12.838752, "lon": 77.7000611}, {"type": "node", "id": 12912646242, "lat": 12.8387649, "lon": 77.6997649}, {"type": "node", "id": 12912646243, "lat": 12.8389635, "lon": 77.6990797}, {"type": "node", "id": 12912646244, "lat": 12.8388294, "lon": 77.6990268}, {"type": "node", "id": 12912646245, "lat": 12.8385625, "lon": 77.6990043}, {"type": "node", "id": 12912646246, "lat": 12.8381434, "lon": 77.6990321}, {"type": "node", "id": 12912646247, "lat": 12.8379913, "lon": 77.6990458}, {"type": "node", "id": 12912646248, "lat": 12.8377979, "lon": 77.6990546}, {"type": "node", "id": 12912646249, "lat": 12.8378236, "lon": 77.6996197}, {"type": "node", "id": 12912646250, "lat": 12.8378971, "lon": 77.6996565}, {"type": "node", "id": 12912646251, "lat": 12.8378954, "lon": 77.6996986}, {"type": "node", "id": 12912646252, "lat": 12.8378167, "lon": 77.6998162}, {"type": "node", "id": 12912646253, "lat": 12.8370765, "lon": 77.6999828}, {"type": "node", "id": 12912646254, "lat": 12.8371061, "lon": 77.7002389}, {"type": "node", "id": 13039719355, "lat": 12.8703911, "lon": 77.6534148, "tags": {"amenity": "school", "check_date": "2025-07-31", "name": "Sri Channakeshava English School", "name:en": "Sri Channakeshava English School"}}, {"type": "node", "id": 13046364776, "lat": 12.8345774, "lon": 77.6815341}, {"type": "node", "id": 13046364777, "lat": 12.8339201, "lon": 77.6815232}, {"type": "node", "id": 13046402621, "lat": 12.8345742, "lon": 77.6816342}, {"type": "node", "id": 13046403048, "lat": 12.8264368, "lon": 77.7060264}, {"type": "node", "id": 13046403049, "lat": 12.8276509, "lon": 77.706188}, {"type": "node", "id": 13046403051, "lat": 12.8279146, "lon": 77.7049311}, {"type": "node", "id": 13046403052, "lat": 12.8279335, "lon": 77.7048767}, {"type": "node", "id": 13046403053, "lat": 12.8279578, "lon": 77.7048246}, {"type": "node", "id": 13046403054, "lat": 12.8279873, "lon": 77.7047755}, {"type": "node", "id": 13046403055, "lat": 12.828063, "lon": 77.7046856}, {"type": "node", "id": 13046403056, "lat": 12.8281088, "lon": 77.7046465}, {"type": "node", "id": 13046403057, "lat": 12.8281586, "lon": 77.7046128}, {"type": "node", "id": 13046403058, "lat": 12.8282117, "lon": 77.704585}, {"type": "node", "id": 13046403059, "lat": 12.8279014, "lon": 77.7049872}, {"type": "node", "id": 13046403060, "lat": 12.8280217, "lon": 77.7047297}, {"type": "node", "id": 13046403061, "lat": 12.8282675, "lon": 77.7045634}, {"type": "node", "id": 13046403090, "lat": 12.8278504, "lon": 77.7056833}, {"type": "node", "id": 13046403091, "lat": 12.8276425, "lon": 77.7067105}, {"type": "node", "id": 13046403092, "lat": 12.8277458, "lon": 77.7068849}, {"type": "node", "id": 13046403113, "lat": 12.8279053, "lon": 77.7069761}, {"type": "node", "id": 13046403114, "lat": 12.8282375, "lon": 77.7068232}, {"type": "node", "id": 13046403115, "lat": 12.828448, "lon": 77.7058107}, {"type": "node", "id": 13046403173, "lat": 12.8444502, "lon": 77.7010192}, {"type": "node", "id": 13046403229, "lat": 12.8378656, "lon": 77.7034363}, {"type": "node", "id": 13046403242, "lat": 12.8379425, "lon": 77.7034383}, {"type": "node", "id": 13046403243, "lat": 12.8379321, "lon": 77.702879}, {"type": "node", "id": 13046403244, "lat": 12.837698, "lon": 77.7028884}, {"type": "node", "id": 13046403245, "lat": 12.8366532, "lon": 77.7034047}, {"type": "node", "id": 13046403286, "lat": 12.8274411, "lon": 77.7054056}, {"type": "node", "id": 13046403287, "lat": 12.8275954, "lon": 77.7044427}, {"type": "node", "id": 13046403288, "lat": 12.8277628, "lon": 77.7044696}, {"type": "node", "id": 13048237349, "lat": 12.8251205, "lon": 77.6829221}, {"type": "node", "id": 13048237350, "lat": 12.8258553, "lon": 77.6824193}, {"type": "node", "id": 13048237351, "lat": 12.8251571, "lon": 77.6815696}, {"type": "node", "id": 13049515370, "lat": 12.8682086, "lon": 77.6872163}, {"type": "node", "id": 13049515371, "lat": 12.8674515, "lon": 77.6870405}, {"type": "node", "id": 13049515372, "lat": 12.8681393, "lon": 77.6874429}, {"type": "node", "id": 13049515373, "lat": 12.8674071, "lon": 77.6872846}, {"type": "node", "id": 13049515443, "lat": 12.8830325, "lon": 77.6803335}, {"type": "node", "id": 13049515444, "lat": 12.8830849, "lon": 77.6800366}, {"type": "node", "id": 13049515445, "lat": 12.8821888, "lon": 77.6795412}, {"type": "node", "id": 13049791636, "lat": 12.8757045, "lon": 77.6519318}, {"type": "node", "id": 13049791637, "lat": 12.8757588, "lon": 77.6515174}, {"type": "node", "id": 13049791638, "lat": 12.8754934, "lon": 77.6514772}, {"type": "node", "id": 13049791639, "lat": 12.8754869, "lon": 77.6519023}, {"type": "node", "id": 13049793511, "lat": 12.8778408, "lon": 77.6478475}, {"type": "node", "id": 13049793512, "lat": 12.8778702, "lon": 77.6472057}, {"type": "node", "id": 13049793513, "lat": 12.8774519, "lon": 77.647533}, {"type": "node", "id": 13049793514, "lat": 12.8777016, "lon": 77.6479045}, {"type": "node", "id": 13058386233, "lat": 12.871281, "lon": 77.6540226}, {"type": "node", "id": 13062124983, "lat": 12.8576509, "lon": 77.7075809}, {"type": "node", "id": 13062124984, "lat": 12.857643, "lon": 77.70845}, {"type": "node", "id": 13062124985, "lat": 12.8583674, "lon": 77.7085116}, {"type": "node", "id": 13062124986, "lat": 12.8585766, "lon": 77.7082032}, {"type": "node", "id": 13062124987, "lat": 12.8588067, "lon": 77.7073771}, {"type": "node", "id": 13068311791, "lat": 12.8243342, "lon": 77.6715025}, {"type": "node", "id": 13068311792, "lat": 12.8245251, "lon": 77.6709017}, {"type": "node", "id": 13068311793, "lat": 12.8239981, "lon": 77.6708387}, {"type": "node", "id": 13068311794, "lat": 12.8239536, "lon": 77.6713845}, {"type": "node", "id": 13070299182, "lat": 12.8168785, "lon": 77.6939207}, {"type": "node", "id": 13070299183, "lat": 12.8165567, "lon": 77.693879}, {"type": "node", "id": 13070299184, "lat": 12.8165197, "lon": 77.6942849}, {"type": "node", "id": 13071317074, "lat": 12.8012791, "lon": 77.7164589}, {"type": "node", "id": 13071317085, "lat": 12.8009037, "lon": 77.7161683}, {"type": "node", "id": 13071340679, "lat": 12.7997289, "lon": 77.7055109}, {"type": "node", "id": 13071340680, "lat": 12.8010827, "lon": 77.7050557}, {"type": "node", "id": 13071340681, "lat": 12.8018151, "lon": 77.704775}, {"type": "node", "id": 13071340682, "lat": 12.8017004, "lon": 77.7042667}, {"type": "node", "id": 13071340683, "lat": 12.801083, "lon": 77.7042}, {"type": "node", "id": 13071340684, "lat": 12.801049, "lon": 77.7043878}, {"type": "node", "id": 13071340685, "lat": 12.7996863, "lon": 77.7052782}, {"type": "node", "id": 13071341253, "lat": 12.7995926, "lon": 77.7165815}, {"type": "node", "id": 13071341257, "lat": 12.7996292, "lon": 77.7160567}, {"type": "node", "id": 13071341258, "lat": 12.8010568, "lon": 77.7176852}, {"type": "node", "id": 13071341259, "lat": 12.8013194, "lon": 77.7162362}, {"type": "node", "id": 13071341260, "lat": 12.7999008, "lon": 77.7160044}, {"type": "node", "id": 13071341261, "lat": 12.799668, "lon": 77.7159534}, {"type": "node", "id": 13071341262, "lat": 12.7996314, "lon": 77.7160205}, {"type": "node", "id": 13071341263, "lat": 12.8000551, "lon": 77.716742}, {"type": "node", "id": 13071341264, "lat": 12.7999322, "lon": 77.7175762}, {"type": "node", "id": 13113991828, "lat": 12.8170544, "lon": 77.6700474}, {"type": "node", "id": 13113991829, "lat": 12.8168634, "lon": 77.6699921}, {"type": "node", "id": 13113991830, "lat": 12.8169365, "lon": 77.6696611}, {"type": "node", "id": 13113991831, "lat": 12.8162922, "lon": 77.6695113}, {"type": "node", "id": 13113991832, "lat": 12.8161949, "lon": 77.6699513}, {"type": "node", "id": 13113991833, "lat": 12.8164193, "lon": 77.6700035}, {"type": "node", "id": 13113991834, "lat": 12.8163907, "lon": 77.6701331}, {"type": "node", "id": 13113991835, "lat": 12.8169827, "lon": 77.6702707}, {"type": "node", "id": 13113991851, "lat": 12.8176293, "lon": 77.6676432}, {"type": "node", "id": 13113991852, "lat": 12.8172668, "lon": 77.6674725}, {"type": "node", "id": 13113991853, "lat": 12.8169192, "lon": 77.6673322}, {"type": "node", "id": 13113991854, "lat": 12.8167527, "lon": 77.6681439}, {"type": "node", "id": 13113991857, "lat": 12.8175748, "lon": 77.6683389}, {"type": "node", "id": 13113991964, "lat": 12.8182768, "lon": 77.6577156}, {"type": "node", "id": 13113991965, "lat": 12.8184245, "lon": 77.6582702}, {"type": "node", "id": 13113991966, "lat": 12.8196448, "lon": 77.6579023}, {"type": "node", "id": 13128101768, "lat": 12.81653, "lon": 77.6948498}, {"type": "node", "id": 13128101769, "lat": 12.8167471, "lon": 77.6948471}, {"type": "node", "id": 13128324558, "lat": 12.8202559, "lon": 77.7165541}, {"type": "node", "id": 13128324559, "lat": 12.8199656, "lon": 77.7166185}, {"type": "node", "id": 13128324560, "lat": 12.8199365, "lon": 77.7164805}, {"type": "node", "id": 13128324561, "lat": 12.8202268, "lon": 77.7164161}, {"type": "node", "id": 13190009045, "lat": 12.8374934, "lon": 77.7244721}, {"type": "node", "id": 13190009046, "lat": 12.8373293, "lon": 77.7245258}, {"type": "node", "id": 13190009047, "lat": 12.8373548, "lon": 77.7246391}, {"type": "node", "id": 13190009048, "lat": 12.8372802, "lon": 77.7246465}, {"type": "node", "id": 13190009049, "lat": 12.837277, "lon": 77.7247792}, {"type": "node", "id": 13190009050, "lat": 12.8369801, "lon": 77.7248208}, {"type": "node", "id": 13190009051, "lat": 12.8369174, "lon": 77.7243166}, {"type": "node", "id": 13190009052, "lat": 12.8372881, "lon": 77.7242589}, {"type": "node", "id": 13190304542, "lat": 12.8369216, "lon": 77.7243504}, {"type": "node", "id": 13190304719, "lat": 12.8201235, "lon": 77.7164966, "tags": {"amenity": "school"}}, {"type": "node", "id": 13191026697, "lat": 12.813742, "lon": 77.7140182}, {"type": "node", "id": 13191026698, "lat": 12.813857, "lon": 77.7141255}, {"type": "node", "id": 13191026699, "lat": 12.8141552, "lon": 77.7135649}, {"type": "node", "id": 13191026700, "lat": 12.8134412, "lon": 77.7136454}, {"type": "node", "id": 13245208777, "lat": 12.8507735, "lon": 77.6396996}, {"type": "node", "id": 13245208778, "lat": 12.850695, "lon": 77.6395681}, {"type": "node", "id": 13386770302, "lat": 12.8841688, "lon": 77.7236894}, {"type": "way", "id": 24530992, "nodes": [11521368796, 266737832, 5018250545, 5018250563, 266737816, 13058386233, 266737817, 11521368797, 11521368790, 11521368796], "tags": {"amenity": "school", "name": "CKN English Medium School"}}, {"type": "way", "id": 231552474, "nodes": [2399188105, 2399188093, 2399188083, 2399188107, 2399188097, 2399188099, 2399188105], "tags": {"amenity": "school", "name": "St. Xavier's School"}}, {"type": "way", "id": 248215991, "nodes": [11553139556, 11553139557, 2550433506, 11553139560, 11553139561, 11553139562, 2550433508, 11553139556], "tags": {"amenity": "school", "name": "SFS High School"}}, {"type": "way", "id": 291715226, "nodes": [1192791521, 13048237349, 8416425760, 13048237351, 2952008221, 13048237350, 2952008218, 13048237349], "tags": {"addr:place": "Hebbagodi", "amenity": "school", "check_date": "2025-01-27", "name": "Government Higher Primary School", "name:kn": "\u0cb8\u0cb0\u0ccd\u0c95\u0cbe\u0cb0\u0cbf \u0cb9\u0cbf\u0cb0\u0cbf\u0caf \u0caa\u0ccd\u0cb0\u0cbe\u0ca5\u0cae\u0cbf\u0c95 \u0cb6\u0cbe\u0cb2\u0cc6", "operator:type": "government", "source": "survey"}}, {"type": "way", "id": 316008898, "nodes": [11786087625, 11786087626, 11786087627, 11786087628, 11786087629, 11786087630, 11786087631, 11786087632, 11786087614, 11786087633, 3221284630, 3221284582, 13386770302, 3221284453, 3221284443, 3221284437, 7217870191, 3221284456, 3221284450, 3221284454, 3221284439, 3221284440, 3221284441, 3221284446, 3221284445, 3221284455, 3221284590, 3221284607, 3221284627, 3221284631, 3221284628, 11786087625], "tags": {"amenity": "school", "name": "Delhi Public School Bangalore East"}}, {"type": "way", "id": 473064249, "nodes": [4672348863, 12525343930, 4672348864, 4672348865, 4672348866, 4672348863], "tags": {"addr:city": "Bangalore", "addr:postcode": "560035", "amenity": "school", "name": "Harvest International School"}}, {"type": "way", "id": 613757688, "nodes": [11027579060, 5806622772, 5806622767, 5806622768, 5806622769, 5806622770, 5806622771, 13049515444, 13049515443, 12632670893, 13049515445, 11027579060], "tags": {"addr:city": "Bengaluru", "addr:postcode": "560099", "addr:street": "Notre Dame Nagar, Huskur, Choodasandra", "amenity": "school", "landuse": "education", "name": "Notre Dame Academy"}}, {"type": "way", "id": 1072261803, "nodes": [9838468073, 9838468076, 9838468075, 9838468074, 9838468073], "tags": {"amenity": "school", "check_date": "2025-01-22", "name": "National Public School, Hosur Road"}}, {"type": "way", "id": 1088209018, "nodes": [9970369541, 9970369540, 9970369539, 9970369538, 9970369537, 9970369536, 9970369535, 9970369534, 13046403173, 9970369533, 9970369532, 9970369541], "tags": {"amenity": "school"}}, {"type": "way", "id": 1088209019, "nodes": [9970369553, 9970369552, 9970369551, 9970369550, 9970369549, 9970369548, 9970369547, 9970369546, 9970369545, 9970369544, 9970369543, 9970369542, 9970369553], "tags": {"alt_name": "ESIB", "amenity": "school", "email": "info.eisb@eis.edu.in", "name": "Ebenezer International School Bangalore", "phone": "+91 80 4876 7722", "school:gender": "mixed", "website": "https://eisbangalore.edu.in/"}}, {"type": "way", "id": 1127316236, "nodes": [10307198786, 10307198785, 10307198784, 10307198783, 10307198786], "tags": {"amenity": "school"}}, {"type": "way", "id": 1178402483, "nodes": [10947302034, 10947302033, 10947302032, 10947302031, 13245208778, 13245208777, 10947302034], "tags": {"amenity": "school"}}, {"type": "way", "id": 1240048340, "nodes": [11520696917, 11520696916, 12145276488, 11520696891, 11520696895, 11520696915, 11520696914, 11520696913, 11520696912, 11520696917], "tags": {"amenity": "school", "name": "Amrita International Vidyalayam"}}, {"type": "way", "id": 1243090906, "nodes": [11553132826, 11553132825, 11553132824, 11553132823, 11553132826], "tags": {"amenity": "school", "name": "St. Augustine School"}}, {"type": "way", "id": 1243090929, "nodes": [11553139558, 2550433504, 13046364776, 13046402621, 2550433505, 11553139559, 13046364777, 11553139558], "tags": {"amenity": "school", "name": "SFS Kannada Medium School", "name:kn": "\u0c8e\u0cb8\u0ccd.\u0c8e\u0cab\u0ccd.\u0c8e\u0cb8\u0ccd \u0c95\u0ca8\u0ccd\u0ca8\u0ca1 \u0cae\u0cbe\u0ca7\u0ccd\u0caf\u0cae \u0cb6\u0cbe\u0cb2\u0cc6"}}, {"type": "way", "id": 1285068977, "nodes": [11921456293, 11921456285, 11921456284, 11921456283, 11921456293], "tags": {"amenity": "school"}}, {"type": "way", "id": 1287043461, "nodes": [10285558609, 11936944795, 11936944794, 11936944793, 1827508653, 1827508651, 1827508649, 1827508647, 1827508645, 1827508643, 11936944792, 11936944791, 10285558609], "tags": {"addr:postcode": "560105", "amenity": "school", "name": "Treamis World School"}}, {"type": "way", "id": 1291975990, "nodes": [11977430589, 11977430588, 11977430587, 11977430586, 12213148599, 11977430589], "tags": {"amenity": "school"}}, {"type": "way", "id": 1307630867, "nodes": [12109492013, 12109492012, 12109492011, 12109492013], "tags": {"amenity": "school"}}, {"type": "way", "id": 1335878734, "nodes": [12357458613, 12357458612, 12357458611, 12357458610, 12357458609, 12357458608, 12357458607, 12357458606, 12357458605, 12357458604, 12357458603, 12357458602, 12357458601, 12357458600, 12357458613], "tags": {"amenity": "school", "landuse": "education", "name": "Achiever's Academy"}}, {"type": "way", "id": 1346135001, "nodes": [13113991966, 13113991965, 13113991964, 12450827728, 13113991966], "tags": {"amenity": "school", "landuse": "education", "name": "EuroSchool Electronic City"}}, {"type": "way", "id": 1349913933, "nodes": [12487746614, 12487746613, 12487746612, 12487746611, 12487746610, 12487746615, 12487746614], "tags": {"amenity": "school"}}, {"type": "way", "id": 1352112089, "nodes": [12509706268, 12509706267, 12509706266, 12509706265, 12509706264, 12509706263, 12509706262, 11786087620, 12509706268], "tags": {"amenity": "school"}}, {"type": "way", "id": 1394991832, "nodes": [12912646241, 12912646242, 12912646243, 12912646244, 12912646245, 12912646246, 12912646247, 12912646248, 12912646249, 12912646250, 12912646251, 12912646252, 12912646253, 12912646254, 12912646241], "tags": {"addr:city": "Gulimangala", "addr:district": "Bengaluru", "addr:postcode": "560100", "addr:street": "Singena Agrahara Road", "amenity": "school", "mobile": "9243606247", "name": "Brookfield High School", "opening_hours": "Mo-Fr 09:00-15:00", "website": "https://www.brookfieldhigh.com/"}}, {"type": "way", "id": 1419688732, "nodes": [13046403048, 10224145443, 10224145444, 13046403286, 13046403287, 13046403288, 13046403061, 13046403058, 13046403057, 13046403056, 13046403055, 13046403060, 13046403054, 13046403053, 13046403052, 13046403051, 13046403059, 13046403049, 13046403048]}, {"type": "way", "id": 1419688740, "nodes": [13046403113, 13046403092, 13046403091, 13046403090, 13046403115, 13046403114, 13046403113]}, {"type": "way", "id": 1419688768, "nodes": [13046403245, 13046403244, 13046403243, 13046403242, 13046403229, 13046403245], "tags": {"amenity": "school", "landuse": "education", "name": "IGNOU Regional Centre"}}, {"type": "way", "id": 1420117071, "nodes": [11623089950, 11623089946, 12145276514, 11623089951, 11623089950], "tags": {"amenity": "school", "name": "Edenbridge International School"}}, {"type": "way", "id": 1420117223, "nodes": [13049515371, 13049515370, 13049515372, 13049515373, 13049515371], "tags": {"amenity": "school"}}, {"type": "way", "id": 1420149136, "nodes": [13049791639, 13049791638, 13049791637, 13049791636, 13049791639], "tags": {"amenity": "school"}}, {"type": "way", "id": 1420149566, "nodes": [13049793514, 13049793513, 6349076476, 13049793512, 13049793511, 13049793514], "tags": {"addr:place": "Singasandra", "amenity": "school", "check_date": "2025-03-11", "isced:level": "2", "name": "GHPS Singasandra", "name:kn": "\u0cb8\u0cb0\u0ccd\u0c95\u0cbe\u0cb0\u0cbf \u0cb9\u0cbf\u0cb0\u0cbf\u0caf \u0caa\u0ccd\u0cb0\u0cbe\u0ca5\u0cae\u0cbf\u0c95 \u0cb6\u0cbe\u0cb2\u0cc6 \u0cb8\u0cbf\u0c82\u0c97\u0cb8\u0c82\u0ca6\u0ccd\u0cb0", "operator": "Department of Education", "school": "primary"}}, {"type": "way", "id": 1421391192, "nodes": [13062124987, 13062124986, 13062124985, 13062124984, 13062124983, 13062124987], "tags": {"amenity": "school"}}, {"type": "way", "id": 1421987311, "nodes": [13068311794, 13068311793, 13068311792, 13068311791, 13068311794], "tags": {"amenity": "school"}}, {"type": "way", "id": 1422345975, "nodes": [13071340685, 13071340684, 13071340683, 13071340682, 13071340681, 13071340680, 13071340679, 13071340685], "tags": {"amenity": "school"}}, {"type": "way", "id": 1422346070, "nodes": [13071341264, 13071341263, 12208348828, 13071341253, 12144442648, 13071341257, 13071341262, 13071341261, 13071341260, 13071317085, 13071341259, 13071317074, 13071341258, 13071341264], "tags": {"amenity": "school", "name": "Nazareth School"}}, {"type": "way", "id": 1426561467, "nodes": [13113991835, 13113991834, 13113991833, 13113991832, 13113991831, 13113991830, 13113991829, 13113991828, 13113991835], "tags": {"amenity": "school", "name": "White Academy"}}, {"type": "way", "id": 1426561471, "nodes": [13113991854, 13113991853, 13113991852, 13113991851, 13113991857, 13113991854], "tags": {"amenity": "school", "name": "Government School"}}, {"type": "way", "id": 1427978938, "nodes": [13070299182, 13128101769, 13128101768, 13070299184, 13070299183, 13070299182], "tags": {"amenity": "school"}}, {"type": "way", "id": 1428009869, "nodes": [13128324561, 13128324558, 13128324559, 13128324560, 13128324561], "tags": {"amenity": "school", "building": "yes"}}, {"type": "way", "id": 1435007542, "nodes": [13190009052, 13190009051, 13190304542, 13190009050, 13190009049, 13190009048, 13190009047, 13190009046, 13190009045, 13190009052], "tags": {"amenity": "school", "name": "Poorna Pragathi Public School"}}, {"type": "way", "id": 1435133994, "nodes": [13191026700, 11535743892, 13191026699, 13191026698, 13191026697, 13191026700], "tags": {"amenity": "school", "check_date": "2024-01-21", "fee": "yes", "name": "Sri Chaitanya Techno School", "source": "survey"}}, {"type": "relation", "id": 19422826, "members": [{"type": "way", "ref": 1419688732, "role": "outer"}, {"type": "way", "ref": 1419688740, "role": "outer"}], "tags": {"addr:city": "Deepahalli, Andapura", "addr:district": "Bengaluru", "addr:postcode": "560099", "addr:street": "Hilalige Road", "amenity": "school", "contact:email": "info@stjosephchaminade.com", "landuse": "education", "name": "St. Joseph Chaminade Academy (ICSE)", "phone": "8971780078", "type": "multipolygon", "website": "https://stjosephchaminade.com/"}}]}