{"version": 0.6, "generator": "Overpass API 0.7.62.8 e802775f", "osm3s": {"timestamp_osm_base": "2026-01-15T14:30:17Z", "copyright": "The data included in this document is from www.openstreetmap.org. The data is made available under ODbL."}, "elements": [{"type": "node", "id": 857061124, "lat": 52.1234196, "lon": 5.1130506}, {"type": "node", "id": 858801052, "lat": 52.1201788, "lon": 5.0916196}, {"type": "node", "id": 858822625, "lat": 52.1210385, "lon": 5.0928273}, {"type": "node", "id": 1578080804, "lat": 52.1237946, "lon": 5.1136179}, {"type": "node", "id": 1578080807, "lat": 52.1239543, "lon": 5.1121436}, {"type": "node", "id": 1578080809, "lat": 52.1242537, "lon": 5.1126207}, {"type": "node", "id": 1583966034, "lat": 52.1205241, "lon": 5.0921982}, {"type": "node", "id": 1583966038, "lat": 52.1207327, "lon": 5.0914771}, {"type": "node", "id": 1583966039, "lat": 52.1212695, "lon": 5.0929863}, {"type": "node", "id": 1583966041, "lat": 52.1215627, "lon": 5.0922677}, {"type": "node", "id": 3004078879, "lat": 52.1488247, "lon": 5.1250464, "tags": {"addr:city": "Westbroek", "addr:housenumber": "4", "addr:postcode": "3615AG", "addr:street": "Prinses Christinastraat", "amenity": "school", "name": "School met de bijbel 't Kompas", "source": "BAG", "source:date": "2014-08-07"}}, {"type": "node", "id": 3041299895, "lat": 52.1205246, "lon": 5.1113702, "tags": {"addr:city": "Utrecht", "addr:housenumber": "2", "addr:postcode": "3564BJ", "addr:street": "Voortrekkersdreef", "amenity": "school", "name": "Ad Hoc voormalige school", "toilets:wheelchair": "no", "wheelchair": "limited", "wheelchair:description": "Voorzijde traptreden, achterzijde helling ca 40 cm hoog en 6 m lang + drempel ca 6 cm."}}, {"type": "node", "id": 3041435905, "lat": 52.1201503, "lon": 5.0983556, "tags": {"amenity": "school", "capacity": "110", "isced": "2", "max_age": "16", "min_age": "12", "name": "Kentalis College Utrecht", "operator": "Koninklijke Kentalis", "operator:type": "private", "pedagogy": "voor slechthorende", "toilets:wheelchair": "yes", "wheelchair": "yes", "wheelchair:description": "2,1 x 2,2 m."}}, {"type": "node", "id": 3041449676, "lat": 52.1200495, "lon": 5.0985176, "tags": {"addr:city": "Utrecht", "addr:housenumber": "2", "addr:postcode": "3563EP", "addr:street": "Boadreef", "amenity": "school", "name": "Lux", "source": "BAG", "source:date": "2014-08-25"}}, {"type": "node", "id": 3041466520, "lat": 52.120431, "lon": 5.0911845}, {"type": "node", "id": 3041474427, "lat": 52.1201943, "lon": 5.0915837}, {"type": "node", "id": 3041474497, "lat": 52.1203249, "lon": 5.0912794}, {"type": "node", "id": 3041474508, "lat": 52.1203478, "lon": 5.0913035}, {"type": "node", "id": 3041474523, "lat": 52.1203734, "lon": 5.0911656}, {"type": "node", "id": 3041474531, "lat": 52.1203863, "lon": 5.0911347}, {"type": "node", "id": 3041474537, "lat": 52.1203957, "lon": 5.091191}, {"type": "node", "id": 3041474645, "lat": 52.1204851, "lon": 5.0910593}, {"type": "node", "id": 3041474657, "lat": 52.1205019, "lon": 5.091077}, {"type": "node", "id": 3041474700, "lat": 52.120608, "lon": 5.090829}, {"type": "node", "id": 3417778461, "lat": 52.1227957, "lon": 5.1051197}, {"type": "node", "id": 3417778462, "lat": 52.123125, "lon": 5.1056508}, {"type": "node", "id": 3417778463, "lat": 52.1234577, "lon": 5.1050607}, {"type": "node", "id": 3417778464, "lat": 52.1231464, "lon": 5.1045242}, {"type": "node", "id": 4022359216, "lat": 52.1222316, "lon": 5.1106493}, {"type": "node", "id": 4022359218, "lat": 52.1225054, "lon": 5.1110831}, {"type": "node", "id": 4022359219, "lat": 52.1226554, "lon": 5.1099879}, {"type": "node", "id": 4022359220, "lat": 52.1229088, "lon": 5.1104146}, {"type": "node", "id": 4023403898, "lat": 52.1211037, "lon": 5.0918913}, {"type": "node", "id": 4023403899, "lat": 52.1211403, "lon": 5.0917994}, {"type": "node", "id": 4023424009, "lat": 52.1198615, "lon": 5.0912615}, {"type": "node", "id": 4023424011, "lat": 52.1203208, "lon": 5.0902356}, {"type": "node", "id": 4023424012, "lat": 52.1206491, "lon": 5.0906113}, {"type": "node", "id": 4408332048, "lat": 52.1216241, "lon": 5.1094388, "tags": {"addr:city": "Utrecht", "addr:housenumber": "2", "addr:postcode": "3564RA", "addr:street": "Bantoedreef", "amenity": "school", "name": "Matthe\u00fcs School (vastgoed gemeente)", "source": "BAG", "source:date": "2016-09-19", "toilets:wheelchair": "yes", "wheelchair": "limited", "wheelchair:description": "Drempel ca 8 cm."}}, {"type": "node", "id": 4759710206, "lat": 52.1217373, "lon": 5.1094252}, {"type": "node", "id": 4759710207, "lat": 52.1219874, "lon": 5.1098324}, {"type": "node", "id": 4759710208, "lat": 52.1221504, "lon": 5.1095686}, {"type": "node", "id": 4759710209, "lat": 52.1221075, "lon": 5.1094969}, {"type": "node", "id": 4759710210, "lat": 52.1221921, "lon": 5.1093553}, {"type": "node", "id": 4759710211, "lat": 52.1219867, "lon": 5.1090225}, {"type": "node", "id": 4760091137, "lat": 52.1220512, "lon": 5.1097291, "tags": {"barrier": "gate"}}, {"type": "node", "id": 4760091138, "lat": 52.1221455, "lon": 5.1092805, "tags": {"barrier": "gate"}}, {"type": "node", "id": 5505265022, "lat": 52.1203037, "lon": 5.1149652, "tags": {"addr:city": "Utrecht", "addr:housenumber": "2", "addr:postcode": "3562GN", "addr:street": "Stroyenborchdreef", "amenity": "school", "name": "Ithaka ISK - Stroyenborchdreef", "operator": "NUOVO scholen", "operator:type": "public", "toilets:wheelchair": "yes", "website": "https://www.ithaka-isk.nl/", "wheelchair": "no", "wheelchair:description": "Drempel ca 10 cm."}}, {"type": "node", "id": 5933669185, "lat": 52.1258643, "lon": 5.1011431, "tags": {"addr:city": "Utrecht", "addr:housenumber": "1", "addr:postcode": "3564XZ", "addr:street": "Eufraatdreef", "amenity": "school", "name": "School (vastgoed gemeente)", "toilets:wheelchair": "yes", "wheelchair": "yes"}}, {"type": "node", "id": 5933669985, "lat": 52.1256183, "lon": 5.1016608, "tags": {"addr:city": "Utrecht", "addr:housenumber": "3", "addr:postcode": "3564XZ", "addr:street": "Eufraatdreef", "amenity": "school", "name": "Johannesschool", "toilets:wheelchair": "yes", "wheelchair": "yes"}}, {"type": "node", "id": 7476481204, "lat": 52.1217875, "lon": 5.109507}, {"type": "node", "id": 8391174220, "lat": 52.1256742, "lon": 5.1019298}, {"type": "node", "id": 8391174221, "lat": 52.1253731, "lon": 5.101454}, {"type": "node", "id": 8391174222, "lat": 52.1258309, "lon": 5.1007238}, {"type": "node", "id": 8391174223, "lat": 52.1261264, "lon": 5.1012088}, {"type": "node", "id": 8826347832, "lat": 52.1205113, "lon": 5.0904545}, {"type": "node", "id": 10921806551, "lat": 52.1192166, "lon": 5.0976301}, {"type": "node", "id": 10921806552, "lat": 52.1195317, "lon": 5.0981282}, {"type": "node", "id": 10921806553, "lat": 52.1200635, "lon": 5.0972744}, {"type": "node", "id": 10921806554, "lat": 52.1197169, "lon": 5.0967188}, {"type": "node", "id": 12917928070, "lat": 52.1205702, "lon": 5.0907861}, {"type": "node", "id": 12917995267, "lat": 52.1206002, "lon": 5.091777}, {"type": "node", "id": 12917995269, "lat": 52.1209337, "lon": 5.0927109}, {"type": "node", "id": 12917995290, "lat": 52.1205848, "lon": 5.0918621}, {"type": "node", "id": 13413753038, "lat": 52.1206286, "lon": 5.0923844}, {"type": "way", "id": 144914348, "nodes": [1583966041, 4023403899, 4023403898, 1583966038, 12917995267, 12917995290, 1583966034, 13413753038, 12917995269, 858822625, 1583966039, 1583966041], "tags": {"amenity": "school", "name": "De Molenhorst"}}, {"type": "way", "id": 237712789, "nodes": [1578080807, 857061124, 1578080804, 1578080809, 1578080807], "tags": {"amenity": "school", "name": "LEF Montessori Kind Centrum"}}, {"type": "way", "id": 334715508, "nodes": [3417778461, 3417778462, 3417778463, 3417778464, 3417778461], "tags": {"addr:city": "Utrecht", "addr:housenumber": "2", "addr:postcode": "3564RA", "addr:street": "Bantoedreef", "amenity": "school", "name": "CBS de Schakel", "toilets:wheelchair": "yes", "wheelchair": "yes", "wheelchair:description": "Lift ca 1,1 x 1,5 m."}}, {"type": "way", "id": 399501805, "nodes": [4022359218, 4022359220, 4022359219, 4022359216, 4022359218], "tags": {"addr:city": "Utrecht", "addr:housenumber": "5", "addr:postcode": "3564CT", "addr:street": "Piramidedreef", "amenity": "school", "name": "Ad Hoc Voormalige school", "toilets:wheelchair": "no", "wheelchair": "no", "wheelchair:description": "Bordes met traptreden 2 x 18 cm + drempel ca 10 cm."}}, {"type": "way", "id": 399626091, "nodes": [3041474700, 12917928070, 4023424012, 8826347832, 4023424011, 4023424009, 858801052, 3041474427, 3041474497, 3041474508, 3041474537, 3041474523, 3041474531, 3041466520, 3041474645, 3041474657, 3041474700], "tags": {"amenity": "school", "capacity": "120", "isced": "1", "max_age": "12", "min_age": "4", "name": "Buitenschool De Schans", "operator": "Stichting De Kleine Prins", "pedagogy": "Speciaal onderwijs (SO)", "website": "https://www.dekleineprins.nl/Home/UTRECHT_NOORD"}}, {"type": "way", "id": 483215701, "nodes": [4759710211, 4760091138, 4759710210, 4759710209, 4759710208, 4760091137, 4759710207, 7476481204, 4759710206, 4759710211], "tags": {"amenity": "school", "name": "OBS \"de Gagel\" KBS \"Matheus\""}}, {"type": "way", "id": 903469451, "nodes": [8391174223, 8391174222, 8391174221, 8391174220, 8391174223], "tags": {"amenity": "school"}}, {"type": "way", "id": 1175343465, "nodes": [10921806554, 10921806553, 10921806552, 10921806551, 10921806554], "tags": {"amenity": "school", "capacity": "120", "isced": "1", "max_age": "12", "min_age": "4", "name": "Auris Fortaal (Agavedreef)", "operator": "Auris groep", "operator:type": "ngo", "operator:wikidata": "Q2421087", "pedagogy": "voor slechthorende", "toilets:wheelchair": "yes", "website": "https://fortaal.nl/", "wheelchair": "yes"}}]}