{"version": 0.6, "generator": "Overpass API 0.7.62.8 e802775f", "osm3s": {"timestamp_osm_base": "2026-01-13T06:50:14Z", "copyright": "The data included in this document is from www.openstreetmap.org. The data is made available under ODbL."}, "elements": [{"type": "node", "id": 827576106, "lat": 17.4301742, "lon": 78.3937323, "tags": {"amenity": "hospital", "healthcare": "hospital", "name": "Arogyasree Health care trust"}}, {"type": "node", "id": 1930607012, "lat": 17.3937118, "lon": 78.4269709}, {"type": "node", "id": 1930607014, "lat": 17.3935093, "lon": 78.4269808}, {"type": "node", "id": 1930607015, "lat": 17.3935375, "lon": 78.4276131}, {"type": "node", "id": 1930607016, "lat": 17.3937399, "lon": 78.4276032}, {"type": "node", "id": 2354679489, "lat": 17.4068493, "lon": 78.3922011, "tags": {"amenity": "hospital", "emergency": "no", "name": "Matpathy Clinic"}}, {"type": "node", "id": 2570465562, "lat": 17.4156793, "lon": 78.4123796}, {"type": "node", "id": 2570465566, "lat": 17.4156102, "lon": 78.4125285}, {"type": "node", "id": 2600832597, "lat": 17.417897, "lon": 78.3400705}, {"type": "node", "id": 2600832598, "lat": 17.4185739, "lon": 78.3389456}, {"type": "node", "id": 2600832599, "lat": 17.4174322, "lon": 78.3381909}, {"type": "node", "id": 2600832600, "lat": 17.4167552, "lon": 78.3393157}, {"type": "node", "id": 3541446144, "lat": 17.4160221, "lon": 78.3916108, "tags": {"amenity": "hospital", "name": "Saraswathi Nursing Home"}}, {"type": "node", "id": 3617123325, "lat": 17.4162842, "lon": 78.4175265}, {"type": "node", "id": 3617123350, "lat": 17.416392, "lon": 78.4176991}, {"type": "node", "id": 3617123367, "lat": 17.4164454, "lon": 78.417416}, {"type": "node", "id": 3617123384, "lat": 17.4165542, "lon": 78.4175879}, {"type": "node", "id": 3617125834, "lat": 17.4307005, "lon": 78.4172041}, {"type": "node", "id": 3617125854, "lat": 17.4307943, "lon": 78.4171111}, {"type": "node", "id": 3617125855, "lat": 17.4307945, "lon": 78.4173082}, {"type": "node", "id": 3617125872, "lat": 17.4308883, "lon": 78.4172153}, {"type": "node", "id": 3617313401, "lat": 17.4306351, "lon": 78.424363}, {"type": "node", "id": 3617313409, "lat": 17.4307088, "lon": 78.4241574}, {"type": "node", "id": 3617313413, "lat": 17.4307341, "lon": 78.4244019}, {"type": "node", "id": 3617313422, "lat": 17.4308078, "lon": 78.4241963}, {"type": "node", "id": 3617362236, "lat": 17.4133834, "lon": 78.4241087}, {"type": "node", "id": 3617362252, "lat": 17.4134153, "lon": 78.4238723}, {"type": "node", "id": 3619560208, "lat": 17.3516292, "lon": 78.373323}, {"type": "node", "id": 3619560211, "lat": 17.3517071, "lon": 78.3739591}, {"type": "node", "id": 3619560214, "lat": 17.3517538, "lon": 78.3739744}, {"type": "node", "id": 3619560215, "lat": 17.3517558, "lon": 78.3739532}, {"type": "node", "id": 3619560216, "lat": 17.3517562, "lon": 78.3739525}, {"type": "node", "id": 3619560217, "lat": 17.3517597, "lon": 78.3739947}, {"type": "node", "id": 3619560218, "lat": 17.3517726, "lon": 78.3740111}, {"type": "node", "id": 3619560219, "lat": 17.3517905, "lon": 78.3740211}, {"type": "node", "id": 3619560220, "lat": 17.3518107, "lon": 78.3740232}, {"type": "node", "id": 3619560223, "lat": 17.3518301, "lon": 78.374017}, {"type": "node", "id": 3619560224, "lat": 17.3518457, "lon": 78.3740035}, {"type": "node", "id": 3619560225, "lat": 17.351847, "lon": 78.3735084}, {"type": "node", "id": 3619560226, "lat": 17.3518488, "lon": 78.37394}, {"type": "node", "id": 3619560227, "lat": 17.3518514, "lon": 78.3739433}, {"type": "node", "id": 3619560228, "lat": 17.3518553, "lon": 78.3739848}, {"type": "node", "id": 3619560229, "lat": 17.3518573, "lon": 78.3739636}, {"type": "node", "id": 3619560231, "lat": 17.3518749, "lon": 78.3737366}, {"type": "node", "id": 3619560237, "lat": 17.3520298, "lon": 78.3736631}, {"type": "node", "id": 3619560238, "lat": 17.3520362, "lon": 78.373715}, {"type": "node", "id": 3619560243, "lat": 17.3521223, "lon": 78.3734714}, {"type": "node", "id": 3619560244, "lat": 17.3521266, "lon": 78.3739027}, {"type": "node", "id": 3619560245, "lat": 17.3521345, "lon": 78.3739668}, {"type": "node", "id": 3619560246, "lat": 17.3521439, "lon": 78.3736478}, {"type": "node", "id": 3619560251, "lat": 17.3521869, "lon": 78.373454}, {"type": "node", "id": 3619560252, "lat": 17.3522068, "lon": 78.3736162}, {"type": "node", "id": 3619560255, "lat": 17.352262, "lon": 78.3736088}, {"type": "node", "id": 3619560256, "lat": 17.3522713, "lon": 78.373685}, {"type": "node", "id": 3619560257, "lat": 17.3522812, "lon": 78.3738819}, {"type": "node", "id": 3619560258, "lat": 17.3522891, "lon": 78.3739461}, {"type": "node", "id": 3619560263, "lat": 17.3525107, "lon": 78.3732045}, {"type": "node", "id": 3619560264, "lat": 17.3525355, "lon": 78.3734071}, {"type": "node", "id": 3619560265, "lat": 17.3525647, "lon": 78.3736456}, {"type": "node", "id": 3619560266, "lat": 17.3525886, "lon": 78.3738406}, {"type": "node", "id": 4132325566, "lat": 17.4182315, "lon": 78.3395147}, {"type": "node", "id": 4413453793, "lat": 17.3983822, "lon": 78.4161649, "tags": {"addr:city": "TOLICHOWKI", "addr:postcode": "500008", "addr:street": "BADDAM BALREDDY NAGAR", "amenity": "hospital", "description": "RELIEF HOSPITAL", "emergency": "no", "healthcare": "hospital", "name": "RELIEF HOSPITAL"}}, {"type": "node", "id": 4422254585, "lat": 17.4249205, "lon": 78.4139937, "tags": {"amenity": "hospital", "healthcare": "hospital", "name": "Blood Bank"}}, {"type": "node", "id": 4452950392, "lat": 17.4309578, "lon": 78.3720084}, {"type": "node", "id": 5513214876, "lat": 17.4160447, "lon": 78.4151613, "tags": {"access": "private", "barrier": "gate", "bicycle": "yes", "foot": "yes", "horse": "no", "motor_vehicle": "yes"}}, {"type": "node", "id": 5513214877, "lat": 17.4160557, "lon": 78.4150789, "tags": {"access": "private", "barrier": "gate", "bicycle": "yes", "foot": "yes", "horse": "no", "motor_vehicle": "yes"}}, {"type": "node", "id": 5956425355, "lat": 17.4305631, "lon": 78.3717128}, {"type": "node", "id": 5956425356, "lat": 17.4301131, "lon": 78.3723728}, {"type": "node", "id": 5956425357, "lat": 17.4305078, "lon": 78.3726684}, {"type": "node", "id": 6186448328, "lat": 17.4254893, "lon": 78.4270947}, {"type": "node", "id": 6186448329, "lat": 17.4255039, "lon": 78.4279038}, {"type": "node", "id": 6186448330, "lat": 17.4240177, "lon": 78.4280445}, {"type": "node", "id": 6186448331, "lat": 17.4238469, "lon": 78.427289}, {"type": "node", "id": 6217853185, "lat": 17.4257981, "lon": 78.4207625, "tags": {"amenity": "hospital", "healthcare": "hospital", "name": "Red Cross Nature Cure Centre", "name:en": "Red Cross Instuite of Nature Cure and Yoga", "opening_hours": "Mo-Sa 00:00-24:00"}}, {"type": "node", "id": 6471883031, "lat": 17.4248083, "lon": 78.4225617, "tags": {"addr:district": "Hyderabad", "addr:full": "Ashoka Capitol Building, Road No 2, Banjara Hills", "addr:postcode": "500034", "addr:state": "Telangana", "amenity": "hospital", "contact:email": "cfshyd.appointment@centreforsight.net", "contact:mobile": "08500652020;08500552020;08500152020;08500252020", "healthcare": "hospital", "healthcare:speciality": "ophthalmology", "medical_system": "Allopathic", "name": "Centre For Sight Superspecialty Eye Hospital", "operator:type": "private", "phone": "040 40045500;040 40042115;040 40042116;040 40042117;040 40042118;040 40042119", "source": "OpenGovernmentData", "website": "https://www.centreforsight.net/"}}, {"type": "node", "id": 6480048646, "lat": 17.4033637, "lon": 78.4172847, "tags": {"addr:district": "Hyderabad", "addr:full": "Beside Limra Cafe, Hakeempet X Road, Toli Chowki", "addr:postcode": "500028", "addr:state": "Telangana", "amenity": "hospital", "name": "Al-Noor Hospital", "source": "OpenGovernmentData"}}, {"type": "node", "id": 6482049740, "lat": 17.4311263, "lon": 78.4266108, "tags": {"addr:district": "Hyderabad", "addr:full": "8-3-231/A/516,517,A-Block, Sri Krishna Nagar, Yousufguda", "addr:postcode": "500045", "addr:state": "Telangana", "amenity": "hospital", "healthcare": "hospital", "name": "Anvitha Hospital", "source": "OpenGovernmentData"}}, {"type": "node", "id": 6485264332, "lat": 17.3755381, "lon": 78.4190255, "tags": {"addr:district": "Hyderabad", "addr:full": "9-1-43/24, Langar House", "addr:postcode": "500008", "addr:state": "Telangana", "amenity": "hospital", "name": "Kosaraju Hospitals Private Ltd.", "source": "OpenGovernmentData"}}, {"type": "node", "id": 6485824573, "lat": 17.3915772, "lon": 78.4268716, "tags": {"addr:district": "Hyderabad", "addr:full": "12-2-718, Khader Bagh Road, Toli Chowki, Padmanabha Nagar, Mehdipatnam", "addr:postcode": "500028", "addr:state": "Telangana", "amenity": "hospital", "check_date": "2025-03-25", "contact:mobile": "+91 7702001163", "contact:phone": "040-2351 5100", "name": "Premier Hospital", "source": "OpenGovernmentData", "website": "https://www.premierhospital.in"}}, {"type": "node", "id": 6485852123, "lat": 17.3979236, "lon": 78.4175335, "tags": {"addr:district": "Hyderabad", "addr:full": "9-4-87/5/2, Lane Beside Andhra Bank, Tolichowki", "addr:postcode": "500008", "addr:state": "Telangana", "amenity": "hospital", "healthcare": "hospital", "name": "Shamshad Children's Hospital", "source": "OpenGovernmentData"}}, {"type": "node", "id": 6485889000, "lat": 17.376004, "lon": 78.4190007, "tags": {"addr:district": "Hyderabad", "addr:full": "9-1-43/8, Near Alankar Cinemas, Langar Houz", "addr:postcode": "500008", "addr:state": "Telangana", "amenity": "hospital", "name": "Vasu Hospital", "source": "OpenGovernmentData"}}, {"type": "node", "id": 6486047722, "lat": 17.3652026, "lon": 78.3969207, "tags": {"addr:district": "Hyderabad", "addr:full": "Hydershakote,Himagiri Nagar Colony,Near Shadan Medical College", "addr:postcode": "500008", "addr:state": "Telangana", "amenity": "hospital", "fax": "24190501", "name": "Sun City Nursing Home", "source": "OpenGovernmentData"}}, {"type": "node", "id": 6487116810, "lat": 17.4343967, "lon": 78.4173229, "tags": {"addr:district": "Hyderabad", "addr:full": "Plot No. 225/A, Road No 17, Jubilee Hills Check Post", "addr:postcode": "500033", "addr:state": "Telangana", "amenity": "hospital", "healthcare": "hospital", "name": "Srivision Super Speciality Eye Hospital", "source": "OpenGovernmentData"}}, {"type": "node", "id": 6496590575, "lat": 17.4301078, "lon": 78.4061931, "tags": {"addr:district": "Hyderabad", "addr:full": "Plot No. 1110, Road No. 55, Opposite Peddamma Temple, Jubilee Hills", "addr:postcode": "500033", "addr:state": "Telangana", "amenity": "hospital", "contact:email": "info@stopiles.com", "healthcare": "hospital", "name": "Stopiles", "phone": "040 39565230; 7799790251", "source": "OpenGovernmentData", "website": "https://www.stopiles.com"}}, {"type": "node", "id": 6496870134, "lat": 17.4137962, "lon": 78.4239289}, {"type": "node", "id": 6496870135, "lat": 17.4137642, "lon": 78.4241653}, {"type": "node", "id": 6496875044, "lat": 17.379978, "lon": 78.421019, "tags": {"addr:district": "Hyderabad", "addr:full": "Bapu Nagar, Langar Houz", "addr:postcode": "500008", "addr:state": "Telangana", "amenity": "hospital", "contact:email": "majestic.hospital@yahoo.com", "healthcare:speciality": "General Surgery; Pediatric; Orthopedics; Obstetrics and Gynaecology; ENT; Anesthesiology; Opthamology; Dermatology", "medical_system": "Allopathic", "name": "Majestic Hospital", "operator:type": "private", "phone": "040 23521051", "source": "OpenGovernmentData", "website": "https://majestichospital.com/"}}, {"type": "node", "id": 6497614668, "lat": 17.3910723, "lon": 78.4267851, "tags": {"addr:district": "Hyderabad", "addr:full": "13-6-437/1L/1, Opp Nalanda Public School, Nanal Nagar 'X' Road, Khaderbagh, Mehdipatnam", "addr:postcode": "500008", "addr:state": "Telangana", "amenity": "hospital", "fax": "040 23511855", "name": "Dr. Sreedhar's Kidney & Infertility Hospital", "source": "OpenGovernmentData"}}, {"type": "node", "id": 6503431340, "lat": 17.3763547, "lon": 78.4203096, "tags": {"addr:district": "Hyderabad", "addr:full": "9-1-29/23, Opposite To Alankar Cinema, Langar Houz", "addr:postcode": "500008", "addr:state": "Telangana", "amenity": "hospital", "name": "Ambaa Hospitals", "source": "OpenGovernmentData"}}, {"type": "node", "id": 6505507940, "lat": 17.4299337, "lon": 78.4271117, "tags": {"addr:district": "Hyderabad", "addr:full": "Jubilee Hills Road, Krishna Nagar", "addr:postcode": "500045", "addr:state": "Telangana", "amenity": "hospital", "healthcare": "hospital", "name": "Seethal Nursing Home", "source": "OpenGovernmentData"}}, {"type": "node", "id": 6513396181, "lat": 17.4016591, "lon": 78.3848655, "tags": {"addr:district": "Hyderabad", "addr:full": "Near Bus Stop Manikonda,Puppalaguda Manikonda Main Road", "addr:postcode": "500089", "addr:state": "Telangana", "amenity": "hospital", "name": "Sri Balaji Hospital", "source": "OpenGovernmentData"}}, {"type": "node", "id": 6531378729, "lat": 17.4293887, "lon": 78.4178258, "tags": {"addr:district": "Hyderabad", "addr:full": "Plot No. 99, Road No. 1, Near Chiranjeevi Blood Bank, Jubilee Hills Check Post", "addr:postcode": "500033", "addr:state": "Telangana", "amenity": "hospital", "contact:email": "info@avishospitals.com ; contact@avishospitals.com", "contact:phone": "+91 9949034085 ; +91 9989527715", "healthcare": "hospital", "name": "Avis Hospitals", "old_name": "Beams Hospital", "source": "OpenGovernmentData", "website": "http://www.avishospitals.com"}}, {"type": "node", "id": 6546851783, "lat": 17.3852587, "lon": 78.4026083, "tags": {"addr:district": "Hyderabad", "addr:full": "9-11-178, Fort Road Golconda, Near Golconda Fort", "addr:postcode": "500008", "addr:state": "Telangana", "addr:street": "Golconda", "addr:subdistrict": "Golconda", "amenity": "hospital", "contact:phone": "4023513776", "name": "Area Hospital, Golconda", "source": "OpenGovernmentData"}}, {"type": "node", "id": 6548903087, "lat": 17.3985564, "lon": 78.4143068, "tags": {"addr:city": "Hyderabad", "addr:district": "Rangareddy", "addr:full": "Tolichowki \u2018X\u2019 Road, Seven Tombs Road, Tolichowki", "addr:postcode": "500008", "addr:state": "Telangana", "amenity": "hospital", "contact:phone": "040-23564200 ; 040- 23564300", "email": "info@applehospitals.org", "healthcare": "hospital", "name": "Apple Multi Speciality Hospital", "operator:type": "private", "source": "OpenGovernmentData"}}, {"type": "node", "id": 6549197557, "lat": 17.3529175, "lon": 78.4180733, "tags": {"addr:city": "Hyderabad", "addr:full": "Opp. PILLAR NO. 190, FORT VIEW COLONY, PVNR EXPRESS FLYOVER, UPPARPALLY, RAJENDERA NAGAR", "addr:postcode": "500048", "addr:state": "Telangana", "amenity": "hospital", "contact:phone": "65645555", "healthcare": "hospital", "name": "Human Touch Hospital", "operator:type": "private", "source": "OpenGovernmentData"}}, {"type": "node", "id": 6549366073, "lat": 17.4137266, "lon": 78.4244857, "tags": {"addr:city": "Hyderabad", "addr:full": "H.No: 8-2-293/82/1/4A, 5A & 6A, MLA COLONY, ROAD NO 12, BANJARA HILLS", "addr:postcode": "500034", "addr:state": "Telangana", "amenity": "hospital", "contact:phone": "040 46289999", "name": "CITI NEURO CENTER", "operator:type": "private", "source": "OpenGovernmentData", "website": "https://www.citineurocentre.com/"}}, {"type": "node", "id": 6549400717, "lat": 17.4194759, "lon": 78.3715081, "tags": {"addr:city": "Hyderabad", "addr:full": "Plot No. 1276, Road No. 63A, Jubilee Hills", "addr:postcode": "500033", "addr:state": "Telangana", "amenity": "hospital", "contact:phone": "040 6534448 ;040 23558855 ;040 23552999", "healthcare": "hospital", "name": "PACIFIC CLINICS (A Unit of Pacific Hospitals Pvt Ltd.)", "operator:type": "private", "source": "OpenGovernmentData"}}, {"type": "node", "id": 6560368876, "lat": 17.3528306, "lon": 78.3345068}, {"type": "node", "id": 6560368877, "lat": 17.3514532, "lon": 78.3345256}, {"type": "node", "id": 6560368878, "lat": 17.3514474, "lon": 78.3340564}, {"type": "node", "id": 6560368879, "lat": 17.3528247, "lon": 78.3340377}, {"type": "node", "id": 6562677269, "lat": 17.4300284, "lon": 78.3742265, "tags": {"addr:district": "Hyderabad", "addr:full": "3rd Floor, Millennium Square, Near Commissionerate of Police, Gachibowli", "addr:postcode": "500032", "addr:state": "Telangana", "amenity": "hospital", "contact:mobile": "040-69000370", "healthcare": "hospital", "healthcare:speciality": "Maternity;Gynaecology;Pediatrics;Fertility;Intensive Care;Fetal Care;Cosmetology", "medical_system": "Allopathic", "name": "Motherhood Clinic", "operator:type": "private", "source": "OpenGovernmentData"}}, {"type": "node", "id": 6811749025, "lat": 17.360911, "lon": 78.389319, "tags": {"addr:district": "Ranga Reddy", "addr:full": "Near Telephone Exchange, Chevella Road, Bandlaguda, Himagiri Nagar, Hyderabad", "addr:postcode": "500031", "addr:state": "Telangana", "amenity": "hospital", "name": "Cocoon Hospital", "source": "OpenGovernmentData"}}, {"type": "node", "id": 6811749040, "lat": 17.4003659, "lon": 78.3894309, "tags": {"addr:district": "Hyderabad", "addr:full": "Near Lalamama Gardens, Puppalguda, Manikonda", "addr:postcode": "500089", "addr:state": "Telangana", "amenity": "hospital", "healthcare": "hospital", "name": "Prolife Hospital", "source": "OpenGovernmentData"}}, {"type": "node", "id": 6811749045, "lat": 17.4012253, "lon": 78.4124091, "tags": {"addr:district": "Hyderabad", "addr:full": "Opp. Majestic Garden, Daulat Gulshan Colony, Toli Chowki", "addr:postcode": "500008", "addr:state": "Telangana", "amenity": "hospital", "name": "Hayatt Hospital", "opening_hours": "24/7", "source": "OpenGovernmentData"}}, {"type": "node", "id": 6811749093, "lat": 17.4092386, "lon": 78.4007023, "tags": {"addr:district": "Hyderabad", "addr:full": "8-1-299/A/104, Lane Beside Ice Cream Parlour, Madura Hills Colony, Near Bharat Gas, Shaikpet", "addr:postcode": "500008", "addr:state": "Telangana", "amenity": "hospital", "contact:mobile": "9666611110", "name": "JBI Hospital", "source": "OpenGovernmentData"}}, {"type": "node", "id": 6811749134, "lat": 17.3921804, "lon": 78.4264492, "tags": {"addr:district": "Hyderabad", "addr:full": "13-6-148, Near Quba Masjid, Rock Hill Colony, Toli Chowki, Mehdipatnam", "addr:postcode": "500028", "addr:state": "Telangana", "amenity": "hospital", "name": "Salamah Hospital", "source": "OpenGovernmentData"}}, {"type": "node", "id": 6811749143, "lat": 17.3957352, "lon": 78.4175241, "tags": {"addr:district": "Hyderabad", "addr:full": "9-4-87/8/10, MD Lines, Moti Darwaza Road, Minar Colony, Tolichowki", "addr:postcode": "500008", "addr:state": "Telangana", "amenity": "hospital", "contact:mobile": "8106000511", "healthcare": "hospital", "name": "IBM Hospital", "source": "OpenGovernmentData"}}, {"type": "node", "id": 6811749150, "lat": 17.4003589, "lon": 78.382573, "tags": {"addr:district": "Hyderabad", "addr:full": "Opp. Indian Bank, Puppalaguda, Manikonda", "addr:postcode": "500089", "addr:state": "Telangana", "amenity": "hospital", "name": "Shobha Hospital", "source": "OpenGovernmentData"}}, {"type": "node", "id": 8018447766, "lat": 17.4136331, "lon": 78.4158316}, {"type": "node", "id": 8018447767, "lat": 17.4136984, "lon": 78.4159175}, {"type": "node", "id": 8018447768, "lat": 17.4161207, "lon": 78.4158209}, {"type": "node", "id": 8018447769, "lat": 17.4160772, "lon": 78.4156144}, {"type": "node", "id": 8018447775, "lat": 17.4158187, "lon": 78.4122147}, {"type": "node", "id": 8018447776, "lat": 17.4162538, "lon": 78.4119987}, {"type": "node", "id": 8018447777, "lat": 17.416671, "lon": 78.4118673}, {"type": "node", "id": 8018447778, "lat": 17.4155871, "lon": 78.4126653}, {"type": "node", "id": 8018447779, "lat": 17.4155974, "lon": 78.4128571, "tags": {"access": "private"}}, {"type": "node", "id": 8018447780, "lat": 17.4157676, "lon": 78.4128879}, {"type": "node", "id": 8018447781, "lat": 17.4159058, "lon": 78.412955}, {"type": "node", "id": 8018447782, "lat": 17.4159736, "lon": 78.4130341}, {"type": "node", "id": 8018447783, "lat": 17.4162058, "lon": 78.4132386}, {"type": "node", "id": 8018447784, "lat": 17.4164336, "lon": 78.4134284}, {"type": "node", "id": 8018472585, "lat": 17.4165078, "lon": 78.4135786}, {"type": "node", "id": 8018472586, "lat": 17.4165097, "lon": 78.4137496}, {"type": "node", "id": 8018472587, "lat": 17.4164957, "lon": 78.4140553}, {"type": "node", "id": 8018472588, "lat": 17.4164074, "lon": 78.414349}, {"type": "node", "id": 8018472589, "lat": 17.41625, "lon": 78.4146213}, {"type": "node", "id": 8018472590, "lat": 17.4160779, "lon": 78.4150136}, {"type": "node", "id": 8018472591, "lat": 17.4160465, "lon": 78.4160891}, {"type": "node", "id": 8018472592, "lat": 17.4155065, "lon": 78.416014}, {"type": "node", "id": 8018472593, "lat": 17.41544, "lon": 78.4156412}, {"type": "node", "id": 8018472594, "lat": 17.4150893, "lon": 78.4150189}, {"type": "node", "id": 8018472595, "lat": 17.4142678, "lon": 78.4156787}, {"type": "node", "id": 8018472596, "lat": 17.4137176, "lon": 78.4145817}, {"type": "node", "id": 8018472597, "lat": 17.4136638, "lon": 78.4153984}, {"type": "node", "id": 8018472598, "lat": 17.4138686, "lon": 78.4137475}, {"type": "node", "id": 8018472599, "lat": 17.4135922, "lon": 78.4128544}, {"type": "node", "id": 8018472600, "lat": 17.4134796, "lon": 78.4124038}, {"type": "node", "id": 8018472601, "lat": 17.413367, "lon": 78.4122321}, {"type": "node", "id": 8018472602, "lat": 17.4138942, "lon": 78.4157941}, {"type": "node", "id": 8018472603, "lat": 17.4137867, "lon": 78.4134203}, {"type": "node", "id": 8018472604, "lat": 17.4133081, "lon": 78.4117681}, {"type": "node", "id": 8018472605, "lat": 17.4144726, "lon": 78.411524}, {"type": "node", "id": 8018472606, "lat": 17.4143574, "lon": 78.4116608}, {"type": "node", "id": 8018472607, "lat": 17.4140938, "lon": 78.4117895}, {"type": "node", "id": 8018472608, "lat": 17.4141731, "lon": 78.4117708}, {"type": "node", "id": 8018472609, "lat": 17.4147822, "lon": 78.4112129}, {"type": "node", "id": 8018472610, "lat": 17.4145826, "lon": 78.4113657}, {"type": "node", "id": 8018472619, "lat": 17.4159441, "lon": 78.4113738}, {"type": "node", "id": 8018472620, "lat": 17.4157266, "lon": 78.4112155}, {"type": "node", "id": 8018472623, "lat": 17.4153383, "lon": 78.4112191}, {"type": "node", "id": 8020057909, "lat": 17.4153933, "lon": 78.4159939}, {"type": "node", "id": 8739430485, "lat": 17.3988443, "lon": 78.3652937, "tags": {"addr:city": "Hyderabad", "addr:housenumber": "Hallmark Empyrean Commercial Complex", "addr:postcode": "500089", "addr:street": "Puppalaguda - Narsingi Road", "amenity": "hospital", "description": "Gynecologist, Fertility specialist, Laparoscopy surgeon, Cosmetic Gynecologist", "healthcare": "hospital", "healthcare:speciality": "gynaecology;maternity;cosmetic;fertility;surgery", "name": "AMVI Hospital", "phone": "+91 9100009669", "website": "https://www.amvihospitals.com/"}}, {"type": "node", "id": 8739449727, "lat": 17.3987165, "lon": 78.3653, "tags": {"addr:city": "Hyderabad", "addr:housenumber": "AMVI Hospital", "addr:postcode": "500089", "addr:street": "Puppalaguda - Narsingi Road", "amenity": "hospital", "description": "Gynecologist, Fertility Specialist, Laparoscopy surgeon, Cosmetic Gynecologist", "email": "amvihospitals@gmail.com", "healthcare": "hospital", "healthcare:speciality": "gynaecology;fertility;surgery;cosmetic", "name": "Dr Shaivalini - Gynecologist", "operator": "Dr Shaivalini", "operator:type": "private", "phone": "9100009669", "website": "https://www.amvihospitals.com/", "wheelchair": "yes"}}, {"type": "node", "id": 8748452003, "lat": 17.3641376, "lon": 78.3947106, "tags": {"addr:city": "Hyderabad", "addr:country": "IN", "addr:district": "Rangareddy", "addr:full": "Hydershakote", "addr:housenumber": "4", "addr:postcode": "500091", "addr:state": "Telangana", "addr:street": "Near MS Function Hall, Hydershahkote", "amenity": "hospital", "email": "info@divaclinics.co.in", "emergency": "no", "healthcare": "hospital", "healthcare:speciality": "general;surgery;oncology;endocrinology;dermatology;gynaecology;gastroenterology", "name": "DIVA Multispeciality Clinics", "operator": "Dr G Uday Kiran", "operator:type": "private", "source": "Local Knowledge;streetlevel imagery", "website": "https://divaclinics.co.in/"}}, {"type": "node", "id": 8751713608, "lat": 17.4121129, "lon": 78.4229918, "tags": {"addr:district": "Rangareddy", "addr:full": "8-2-293/82/L, 350-A, Road Number 12, Banjara Hills", "addr:postcode": "500034", "addr:state": "Telangana", "amenity": "hospital", "name": "Uchvaas Hospital", "source": "Local Knowledge"}}, {"type": "node", "id": 8759319675, "lat": 17.4263881, "lon": 78.4204343, "tags": {"addr:district": "Hyderabad", "addr:full": "No. 8-2-269/3/1/4, Road No. 2, near NATCO Pharma, Park View Enclave, Banjara Hills, Hyderabad", "addr:postcode": "500034", "addr:state": "Telangana", "amenity": "hospital", "healthcare": "hospital", "healthcare:speciality": "fertility", "name": "Oasis Fertility Centre", "source": "Local Knowledge"}}, {"type": "node", "id": 8760246825, "lat": 17.4272659, "lon": 78.4143269, "tags": {"addr:district": "Hyderabad", "addr:full": "Rd Number 45, Jubilee Hills, Hyderabad", "addr:postcode": "500033", "addr:state": "Telangana", "amenity": "hospital", "healthcare": "hospital", "name": "MAA E.N.T. Hospitals", "source": "Local Knowledge"}}, {"type": "node", "id": 9366828721, "lat": 17.3521805, "lon": 78.3340464}, {"type": "node", "id": 10139228459, "lat": 17.3932979, "lon": 78.4261156, "tags": {"addr:city": "Hyderabad", "addr:housenumber": "House No 9-4-84/16", "addr:postcode": "500028", "addr:street": "1st Floor, Janaa Heights Nanal Nagar Cross Roads , Toli Chowki, Mehdipatnam,", "amenity": "hospital", "email": "vinayakanethralayaeyehospital@gmail.com", "healthcare": "hospital", "healthcare:speciality": "ophthalmology", "name": "Vinayaka Nethralaya Eye Hospital", "phone": "+919677920539", "website": "https://vinayakanethralayaeyehospital.com/"}}, {"type": "node", "id": 10250377758, "lat": 17.4168548, "lon": 78.3391502}, {"type": "node", "id": 10790318146, "lat": 17.4310175, "lon": 78.3716983, "tags": {"amenity": "hospital", "brand": "Dr Agarwals", "healthcare": "hospital", "name": "Dr Agarwals Eye Hospital", "operator": "Dr. Agarwal's Eye Hospital", "operator:type": "private", "operator:wikidata": "Q17052044"}}, {"type": "node", "id": 12047779405, "lat": 17.4018633, "lon": 78.349914}, {"type": "node", "id": 12047779406, "lat": 17.4019457, "lon": 78.3495358}, {"type": "node", "id": 12047779407, "lat": 17.4015068, "lon": 78.3495054}, {"type": "node", "id": 12047779408, "lat": 17.4015113, "lon": 78.3492836}, {"type": "node", "id": 12047779409, "lat": 17.4013664, "lon": 78.3492929}, {"type": "node", "id": 12047779413, "lat": 17.4011316, "lon": 78.3506388}, {"type": "node", "id": 12047779414, "lat": 17.401321, "lon": 78.3506645}, {"type": "node", "id": 12047779415, "lat": 17.4014748, "lon": 78.3504684}, {"type": "node", "id": 12047779416, "lat": 17.401795, "lon": 78.3502865}, {"type": "node", "id": 12945249862, "lat": 17.4012321, "lon": 78.3501071}, {"type": "node", "id": 12945249863, "lat": 17.4013291, "lon": 78.3495778}, {"type": "node", "id": 13227662859, "lat": 17.3733681, "lon": 78.414395, "tags": {"amenity": "hospital", "check_date": "2025-10-12", "healthcare": "hospital", "name": "Renova Hospitals"}}, {"type": "node", "id": 13334012866, "lat": 17.4090636, "lon": 78.3999909, "tags": {"addr:city": "Hyderabad", "addr:district": "Hyderabad", "addr:housenumber": "A/1, Survey No:335, Toli Chowki 8-1, 296,", "addr:postcode": "500008", "addr:street": "Old Bombay Highway", "amenity": "hospital", "contact:facebook": "https://www.facebook.com/profile.php?id=61573383270142", "healthcare": "hospital", "healthcare:speciality": "dentist;dermatology;physiotherapy;paediatrics;gynaecology", "mobile": "+919100162144", "name": "Oneders Clinics", "operator": "Healedge", "operator:type": "private", "website": "https://www.onedersclinics.com/"}}, {"type": "node", "id": 13423743515, "lat": 17.4276743, "lon": 78.3749073, "tags": {"amenity": "hospital", "emergency": "yes", "healthcare": "hospital", "name": "Arete Hospitals"}}, {"type": "way", "id": 182703660, "nodes": [1930607012, 1930607014, 1930607015, 1930607016, 1930607012], "tags": {"addr:district": "Hyderabad", "addr:full": "12-2-718/3,4,5, Nanalnagar 'X' Road, Mehdipatnam", "addr:state": "Telangana", "amenity": "hospital", "check_date": "2025-03-25", "emergency": "yes", "health_facility:type": "Onsite Pharmacy;Dietitian Designed Catering;Modern Delivery Room and Birthing Suites;Physiotherapy;Blood Transfusion Services;Patient Escort Services", "healthcare:speciality": "multi specialty", "medical_system": "Allopathic", "name": "Olive Hospital", "operator:type": "private", "phone": "040 30499500", "source": "OpenGovernmentData", "website": "http://www.olivehospital.com"}}, {"type": "way", "id": 254295845, "nodes": [2600832597, 4132325566, 2600832598, 2600832599, 10250377758, 2600832600, 2600832597], "tags": {"addr:district": "Hyderabad", "addr:full": "Plot Number 3, Road Number 2, I.T and Financial District, Nanakramguda, Gachibowli", "addr:postcode": "500032", "addr:state": "Telangana", "amenity": "hospital", "contact:tollfree": "1800 108 1007", "emergency": "yes", "emergency_telephone_code": "040 67000111", "health_facility:type": "Surgical Specialities and Operation Theatres; ICU; ATM; WIFI; Business Centre", "healthcare": "hospital", "healthcare:speciality": "multi specialty", "medical_system": "Allopathic", "name": "Continental Hospitals", "operator:type": "private", "phone": "040-67000000; 040-67000071", "source": "OpenGovernmentData", "website": "https://www.continentalhospitals.com/"}}, {"type": "way", "id": 356234454, "nodes": [3617125872, 3617125855, 3617125834, 3617125854, 3617125872], "tags": {"amenity": "hospital", "healthcare": "hospital", "name": "DR SHARATH CHANDRA"}}, {"type": "way", "id": 356234494, "nodes": [3617123384, 3617123350, 3617123325, 3617123367, 3617123384], "tags": {"amenity": "hospital", "building": "yes", "healthcare": "hospital", "name": "Appolo Cradle Hospital"}}, {"type": "way", "id": 356261664, "nodes": [3617313422, 3617313413, 3617313401, 3617313409, 3617313422], "tags": {"addr:city": "Hyderabad", "addr:housenumber": "49", "addr:postcode": "500045", "addr:street": "Road no 2, Jubilee Hills", "amenity": "hospital", "healthcare": "hospital", "name": "Lakshmi Narayana Speciality Clinics", "website": "https://www.facebook.com/lnsclinics"}}, {"type": "way", "id": 356271386, "nodes": [6496870134, 6496870135, 3617362236, 3617362252, 6496870134], "tags": {"addr:district": "Hyderabad", "addr:full": "Plot No: 8-2-293/82/L/276A, MLA Colony Main Raod, Road No 12, Banjara Hills", "addr:postcode": "500034", "addr:state": "Telangana", "amenity": "hospital", "building": "yes", "contact:mobile": "+91 9160900045; 040-23551034", "email": "info@omegahospitals.com", "fax": "040 23550327", "healthcare:speciality": "Cancer Subspecialities;General Health Institute;Womens Wellcare Institute;ENT Institute;Orthopaedic Outreach Institute;Omega Cosmetic Surgery Center", "medical_system": "Allopathic", "name": "Omega Hospital", "operator:type": "private", "source": "OpenGovernmentData", "website": "https://www.omegahospitals.com/"}}, {"type": "way", "id": 356550425, "nodes": [3619560216, 3619560211, 3619560208, 3619560263, 3619560264, 3619560251, 3619560252, 3619560255, 3619560256, 3619560265, 3619560266, 3619560257, 3619560258, 3619560245, 3619560244, 3619560226, 3619560227, 3619560229, 3619560228, 3619560224, 3619560223, 3619560220, 3619560219, 3619560218, 3619560217, 3619560214, 3619560215, 3619560216]}, {"type": "way", "id": 356550429, "nodes": [3619560243, 3619560246, 3619560237, 3619560238, 3619560231, 3619560225, 3619560243]}, {"type": "way", "id": 630869585, "nodes": [5956425355, 5956425356, 5956425357, 4452950392, 5956425355], "tags": {"addr:street": "Hi Tech City Main Road", "amenity": "hospital", "check_date": "2024-03-29", "healthcare": "hospital", "internet_access": "wlan", "name": "Care Hospitals", "name:en": "Care Hospitals", "opening_hours": "24/7", "phone": "040-33623500", "website": "https://www.carehospitals.com/hitechcity/"}}, {"type": "way", "id": 660771331, "nodes": [6186448328, 6186448329, 6186448330, 6186448331, 6186448328], "tags": {"addr:district": "Hyderabad", "addr:full": "Kallam Anji Reddy Campus, L V Prasad Marg, Opp. PVR Cinemas, Banjara Hills", "addr:postcode": "500034", "addr:state": "Telangana", "amenity": "hospital", "email": "communications@lvpei.org", "emergency_telephone_code": "040 30612100;09347573377", "healthcare": "hospital", "healthcare:speciality": "ophthalmology", "medical_system": "Allopathic", "name": "L V Prasad Eye Institute", "name:etymology:wikidata": "Q6456668", "operator:type": "private", "phone": "040 30612345;040 39892020", "source": "OpenGovernmentData", "website": "https://www.lvpei.org/", "wikidata": "Q6456669", "wikimedia_commons": "Category:L. V. Prasad Eye Institute", "wikipedia": "en:L. V. Prasad Eye Institute"}}, {"type": "way", "id": 698602581, "nodes": [6560368879, 6560368876, 6560368877, 6560368878, 9366828721, 6560368879], "tags": {"amenity": "hospital", "building": "yes", "name": "Dr VRK Hospital"}}, {"type": "way", "id": 860344899, "nodes": [2570465566, 2570465562, 8018447775, 8018447776, 8018447777, 8018472619, 8018472620, 8018472623, 8018472609, 8018472610, 8018472605, 8018472606, 8018472608, 8018472607, 8018472604, 8018472601, 8018472600, 8018472599, 8018472603, 8018472598, 8018472596, 8018472597, 8018447766, 8018447767, 8018472602, 8018472595, 8018472594, 8018472593, 8020057909, 8018472592, 8018472591, 8018447768, 8018447769, 5513214876, 5513214877, 8018472590, 8018472589, 8018472588, 8018472587, 8018472586, 8018472585, 8018447784, 8018447783, 8018447782, 8018447781, 8018447780, 8018447779, 8018447778, 2570465566], "tags": {"addr:district": "Hyderabad", "addr:full": "Apollo Hospitals, Jubilee Hills", "addr:postcode": "500033", "addr:state": "Telangana", "amenity": "hospital", "barrier": "wall", "contact:email": "apollohealthcityhyd@apollohospitals.com", "contact:tollfree": "18605001066", "email": "apollohealthcity@apollohospitals.com", "emergency": "yes", "fax": "040 23608050", "health_facility:type": "Inpatient;Accommodation;Food and Beverage Services;International Patient Services;24 hours pharmacy services;Blood Bank;Ambulance Service;Cafeteria", "healthcare": "hospital", "healthcare:speciality": "multi speciality", "landuse": "hospital", "medical_system": "Allopathic", "name": "Apollo Hospitals", "operator": "Apollo Hospitals", "operator:type": "private", "operator:wikidata": "Q4780321", "phone": "040 23607777;040 23605555;040 23602000", "source": "OpenGovernmentData", "website": "https://www.apollohospitals.com", "wheelchair": "yes"}}, {"type": "way", "id": 1300732264, "nodes": [12047779409, 12945249863, 12945249862, 12047779413, 12047779414, 12047779415, 12047779416, 12047779405, 12047779406, 12047779407, 12047779408, 12047779409], "tags": {"amenity": "hospital", "healthcare": "hospital", "name": "Sankaraya Eye Hospital"}}, {"type": "relation", "id": 5321005, "members": [{"type": "way", "ref": 356550429, "role": "inner"}, {"type": "way", "ref": 356550425, "role": "outer"}], "tags": {"amenity": "hospital", "building": "yes", "name": "Shadan Hospital", "type": "multipolygon"}}]}