{"version": 0.6, "generator": "Overpass API 0.7.62.8 e802775f", "osm3s": {"timestamp_osm_base": "2026-01-13T03:47:26Z", "copyright": "The data included in this document is from www.openstreetmap.org. The data is made available under ODbL."}, "elements": [{"type": "node", "id": 349267517, "lat": 17.4406857, "lon": 78.3916647, "tags": {"addr:district": "Hyderabad", "addr:full": "1-98/90/26, Near IOC Petrol Bunk, Hi-Tech City Main Road, Madhapur", "addr:postcode": "500033", "addr:state": "Telangana", "amenity": "hospital", "healthcare": "hospital", "name": "Vikram Hospitals", "source": "OpenGovernmentData"}}, {"type": "node", "id": 349270023, "lat": 17.4444337, "lon": 78.3860746, "tags": {"addr:district": "Hyderabad", "addr:full": "Plot No 8 & 9, Arunodaya Cooperative Housing Society, Vittal Rao nagar, Madhapur", "addr:postcode": "500081", "addr:state": "Telangana", "amenity": "hospital", "healthcare": "hospital", "name": "Image Hospitals", "name:te": "\u0c07\u0c2e\u0c47\u0c1c\u0c4d \u0c39\u0c3e\u0c38\u0c4d\u0c2a\u0c3f\u0c1f\u0c32\u0c4d\u0c38\u0c4d", "source": "OpenGovernmentData"}}, {"type": "node", "id": 827576106, "lat": 17.4301742, "lon": 78.3937323, "tags": {"amenity": "hospital", "healthcare": "hospital", "name": "Arogyasree Health care trust"}}, {"type": "node", "id": 1215214084, "lat": 17.4629614, "lon": 78.3673949, "tags": {"addr:city": "Hyderabad", "addr:full": "Plot No: 3 & 4, Jayalaxmi Apartments, Beside Bajaj Electronics, Near Kondapur X Roads", "addr:postcode": "500084", "addr:state": "Telangana", "amenity": "hospital", "contact:phone": "04023119469; 40188229", "healthcare": "hospital", "name": "LEAF HOSPITAL", "operator:type": "private", "source": "OpenGovernmentData"}}, {"type": "node", "id": 1224523179, "lat": 17.4535178, "lon": 78.364084, "tags": {"amenity": "hospital", "emergency": "no", "healthcare": "hospital", "name": "Ambicare Hospital"}}, {"type": "node", "id": 1702266641, "lat": 17.4696017, "lon": 78.3660584, "tags": {"amenity": "hospital", "healthcare": "hospital", "name": "haritha hospitals"}}, {"type": "node", "id": 1985544651, "lat": 17.4856038, "lon": 78.3903262, "tags": {"addr:district": "Hyderabad", "addr:full": "JNTU Road, Near Malaysian Town Ship Circle, KPHB Colony, Kukatpally", "addr:postcode": "500072", "addr:state": "Telangana", "amenity": "hospital", "contact:mobile": "9160016230", "designation": "Multi Specialty Hospital", "emergency": "yes", "health_facility:type": "ICU Facilities; 24 7 Pharmacy; Ambulance; Radiology and Imaging; Laboratories Services", "healthcare:speciality": "Dermatology; ENT; General Medice; Gynaecology and Obstetrics; Nephrology; Neuro Surgery; Plastic Surgery; Pediatric; Physiotherapy", "medical_system": "Allopathic", "name": "Anupama Hospital", "operator:type": "private", "source": "OpenGovernmentData", "website": "https://anupamahospitals.com/"}}, {"type": "node", "id": 2101693334, "lat": 17.4627567, "lon": 78.3524066, "tags": {"emergency": "yes"}}, {"type": "node", "id": 2101693335, "lat": 17.4626319, "lon": 78.3535372}, {"type": "node", "id": 2101693336, "lat": 17.4636422, "lon": 78.3524786}, {"type": "node", "id": 2101693337, "lat": 17.4635118, "lon": 78.3536231}, {"type": "node", "id": 2428125212, "lat": 17.4979039, "lon": 78.3911608, "tags": {"amenity": "hospital", "check_date": "2024-03-16", "healthcare": "clinic", "name": "Lucid Clinic"}}, {"type": "node", "id": 2466596561, "lat": 17.4893332, "lon": 78.4066679}, {"type": "node", "id": 2466596562, "lat": 17.4901023, "lon": 78.4063964}, {"type": "node", "id": 2466596566, "lat": 17.4902983, "lon": 78.4074958}, {"type": "node", "id": 2466596569, "lat": 17.4907949, "lon": 78.4070839}, {"type": "node", "id": 2466596572, "lat": 17.4911831, "lon": 78.4066065}, {"type": "node", "id": 2579750830, "lat": 17.4911656, "lon": 78.3930858}, {"type": "node", "id": 2579750832, "lat": 17.4909695, "lon": 78.3929905}, {"type": "node", "id": 2579750834, "lat": 17.4908902, "lon": 78.3931629}, {"type": "node", "id": 2579750835, "lat": 17.4910877, "lon": 78.3932581}, {"type": "node", "id": 2632328586, "lat": 17.4888555, "lon": 78.3959947, "tags": {"addr:district": "Hyderabad", "addr:full": "MIG - 1/496, Road No 4 , Beside Venkateswara Swamy Temple , Kphb Colony", "addr:postcode": "500072", "addr:state": "Telangana", "amenity": "hospital", "check_date": "2024-03-16", "name": "Mamata Nursing Home", "source": "OpenGovernmentData"}}, {"type": "node", "id": 2835226156, "lat": 17.4511937, "lon": 78.4208721, "tags": {"addr:district": "Hyderabad", "addr:full": "Plot No: 170, Kalyan Nagar(Venture III), Mothi Nagar 'X' Roads", "addr:postcode": "500018", "addr:state": "Telangana", "amenity": "hospital", "healthcare": "hospital", "name": "Sri Bhargavi Hospital", "source": "OpenGovernmentData"}}, {"type": "node", "id": 2835658220, "lat": 17.4510973, "lon": 78.4224934, "tags": {"addr:city": "hyderabad", "addr:district": "Hyderabad", "addr:full": "Plot No. 128A, Phase III , Kalyan Nagar, Moti Nagar", "addr:postcode": "500018", "addr:state": "Telangana", "addr:street": "sriram nagar road", "amenity": "hospital", "healthcare": "hospital", "name": "Jaiswal Multi Speciality Hospitals", "source": "OpenGovernmentData"}}, {"type": "node", "id": 2835659213, "lat": 17.4480669, "lon": 78.4337319, "tags": {"amenity": "hospital", "name": "Government Ayurvedic Hospital", "opening_hours": "Mo-Su 09:00-12:00", "phone": "040-24512927"}}, {"type": "node", "id": 3207060834, "lat": 17.4976626, "lon": 78.3901045, "tags": {"addr:city": "Hyderabad", "addr:full": "Plot No 34 & 35, Sardar Patel Nagar, Nizampet X Road", "addr:postcode": "500072", "addr:state": "Telangana", "amenity": "hospital", "check_date": "2024-03-16", "contact:phone": "040-42466666,040-40203020", "healthcare": "hospital", "name": "Cygnus Institute of Gastroenterology Centre", "operator:type": "private", "source": "OpenGovernmentData", "website": "https://cygnusgastro.com/"}}, {"type": "node", "id": 3387338154, "lat": 17.4940872, "lon": 78.4029813}, {"type": "node", "id": 3387338155, "lat": 17.4943507, "lon": 78.4031154}, {"type": "node", "id": 3387338156, "lat": 17.4942023, "lon": 78.4033595}, {"type": "node", "id": 3387338157, "lat": 17.4939593, "lon": 78.4032307}, {"type": "node", "id": 3483976672, "lat": 17.4953877, "lon": 78.3966033}, {"type": "node", "id": 3483976673, "lat": 17.4953609, "lon": 78.3967219}, {"type": "node", "id": 3483976674, "lat": 17.4955043, "lon": 78.3967575}, {"type": "node", "id": 3484033409, "lat": 17.4947917, "lon": 78.3985051}, {"type": "node", "id": 3484033410, "lat": 17.4947285, "lon": 78.3986434}, {"type": "node", "id": 3484033411, "lat": 17.4945753, "lon": 78.3985664}, {"type": "node", "id": 3484033412, "lat": 17.4946385, "lon": 78.3984281}, {"type": "node", "id": 3504308696, "lat": 17.5034348, "lon": 78.3883633}, {"type": "node", "id": 3504308697, "lat": 17.5034573, "lon": 78.3884828}, {"type": "node", "id": 3504308698, "lat": 17.5033316, "lon": 78.3885087}, {"type": "node", "id": 3504308699, "lat": 17.5033091, "lon": 78.3883892}, {"type": "node", "id": 3504313626, "lat": 17.4941839, "lon": 78.4033499}, {"type": "node", "id": 3523097906, "lat": 17.4897533, "lon": 78.4079352}, {"type": "node", "id": 3612481217, "lat": 17.4965175, "lon": 78.397603}, {"type": "node", "id": 3612481224, "lat": 17.4965753, "lon": 78.3975006}, {"type": "node", "id": 3612481256, "lat": 17.4968063, "lon": 78.3974878}, {"type": "node", "id": 3612482968, "lat": 17.5018184, "lon": 78.3890359}, {"type": "node", "id": 3612482977, "lat": 17.5018505, "lon": 78.3891531}, {"type": "node", "id": 3612483049, "lat": 17.5021179, "lon": 78.3889456}, {"type": "node", "id": 3612483056, "lat": 17.5021501, "lon": 78.3890628}, {"type": "node", "id": 3616700283, "lat": 17.4465602, "lon": 78.3839619}, {"type": "node", "id": 3616700284, "lat": 17.4467102, "lon": 78.3838326}, {"type": "node", "id": 3616700286, "lat": 17.4468102, "lon": 78.3842808}, {"type": "node", "id": 3616700287, "lat": 17.4469603, "lon": 78.3841515}, {"type": "node", "id": 3617125834, "lat": 17.4307005, "lon": 78.4172041}, {"type": "node", "id": 3617125854, "lat": 17.4307943, "lon": 78.4171111}, {"type": "node", "id": 3617125855, "lat": 17.4307945, "lon": 78.4173082}, {"type": "node", "id": 3617125872, "lat": 17.4308883, "lon": 78.4172153}, {"type": "node", "id": 3617313401, "lat": 17.4306351, "lon": 78.424363}, {"type": "node", "id": 3617313409, "lat": 17.4307088, "lon": 78.4241574}, {"type": "node", "id": 3617313413, "lat": 17.4307341, "lon": 78.4244019}, {"type": "node", "id": 3617313422, "lat": 17.4308078, "lon": 78.4241963}, {"type": "node", "id": 3619348034, "lat": 17.4599321, "lon": 78.3660837, "tags": {"amenity": "hospital", "healthcare": "hospital", "name": "Apoolo Clinic"}}, {"type": "node", "id": 4178240735, "lat": 17.4450041, "lon": 78.4346568}, {"type": "node", "id": 4178240736, "lat": 17.4450234, "lon": 78.4349593}, {"type": "node", "id": 4178240737, "lat": 17.4450475, "lon": 78.43485}, {"type": "node", "id": 4178240738, "lat": 17.4450607, "lon": 78.4351253}, {"type": "node", "id": 4178240739, "lat": 17.445061, "lon": 78.4349223}, {"type": "node", "id": 4178240740, "lat": 17.4450669, "lon": 78.4349486}, {"type": "node", "id": 4178240741, "lat": 17.4450751, "lon": 78.4345552}, {"type": "node", "id": 4178240742, "lat": 17.445093, "lon": 78.4346348}, {"type": "node", "id": 4178240743, "lat": 17.445094, "lon": 78.4349142}, {"type": "node", "id": 4178240744, "lat": 17.4451017, "lon": 78.4349482}, {"type": "node", "id": 4178240745, "lat": 17.4451037, "lon": 78.4351146}, {"type": "node", "id": 4178240746, "lat": 17.4451117, "lon": 78.4351501}, {"type": "node", "id": 4178240747, "lat": 17.4451225, "lon": 78.4349072}, {"type": "node", "id": 4178240749, "lat": 17.4451553, "lon": 78.4348233}, {"type": "node", "id": 4178240750, "lat": 17.4451584, "lon": 78.4348373}, {"type": "node", "id": 4178240752, "lat": 17.4452344, "lon": 78.4348516}, {"type": "node", "id": 4178240753, "lat": 17.4452404, "lon": 78.434878}, {"type": "node", "id": 4178240754, "lat": 17.4452617, "lon": 78.4348118}, {"type": "node", "id": 4178240755, "lat": 17.4452687, "lon": 78.4348431}, {"type": "node", "id": 4178240756, "lat": 17.445295, "lon": 78.4348032}, {"type": "node", "id": 4178240757, "lat": 17.4453004, "lon": 78.4348274}, {"type": "node", "id": 4178240759, "lat": 17.4453113, "lon": 78.4351008}, {"type": "node", "id": 4178240760, "lat": 17.4453264, "lon": 78.434821}, {"type": "node", "id": 4178240762, "lat": 17.4453297, "lon": 78.4351824}, {"type": "node", "id": 4178240763, "lat": 17.445332, "lon": 78.4348457}, {"type": "node", "id": 4178240764, "lat": 17.4453443, "lon": 78.4344887}, {"type": "node", "id": 4178240765, "lat": 17.4453622, "lon": 78.4345684}, {"type": "node", "id": 4178240766, "lat": 17.4453902, "lon": 78.4350813}, {"type": "node", "id": 4178240767, "lat": 17.4453916, "lon": 78.434757}, {"type": "node", "id": 4178240768, "lat": 17.4453964, "lon": 78.4347781}, {"type": "node", "id": 4178240769, "lat": 17.4454085, "lon": 78.4351629}, {"type": "node", "id": 4178240772, "lat": 17.4454565, "lon": 78.4345451}, {"type": "node", "id": 4178240775, "lat": 17.4454982, "lon": 78.4347307}, {"type": "node", "id": 4178240779, "lat": 17.4455643, "lon": 78.4350096}, {"type": "node", "id": 4178240781, "lat": 17.4455704, "lon": 78.4350368}, {"type": "node", "id": 4178240782, "lat": 17.4455707, "lon": 78.4347868}, {"type": "node", "id": 4178240783, "lat": 17.4456178, "lon": 78.4349963}, {"type": "node", "id": 4452950392, "lat": 17.4309578, "lon": 78.3720084}, {"type": "node", "id": 4622047587, "lat": 17.4911604, "lon": 78.4066502}, {"type": "node", "id": 4679716389, "lat": 17.466147, "lon": 78.3677443, "tags": {"addr:full": "# 1-112 / 86, Survey No 5 / EE, Beside Andhra Bank, Near RTA Office,Kondapur, Serilingampally Mandal", "addr:postcode": "500084", "addr:state": "Telangana", "amenity": "hospital", "contact:phone": "040-67505050", "healthcare": "hospital", "name": "KIMS HOSPITAL", "name:en": "KIMS Hospitals", "operator:type": "private", "source": "OpenGovernmentData", "website": "www.kimshospitals.in"}}, {"type": "node", "id": 5324874933, "lat": 17.4297764, "lon": 78.4340161, "tags": {"addr:district": "Hyderabad", "addr:full": "# 8-3-833, Plot No:100, Phase 1, Kamalapuri Colony, Sri Nagar Colony", "addr:postcode": "500073", "addr:state": "Telangana", "amenity": "hospital", "contact:email": "hospitaltanvir@gmail.com", "healthcare": "hospital", "name": "Tanvir Hospital", "phone": "+91 9951911155", "source": "OpenGovernmentData", "website": "https://tanvirhospital.com/", "wikidata": "Q52843710"}}, {"type": "node", "id": 5405055776, "lat": 17.4422328, "lon": 78.3587144, "tags": {"addr:district": "Hyderabad", "addr:full": "Plot Number 4, 5, 23 and 24, Gachibowli Stadium Main Road", "addr:postcode": "500032", "addr:state": "Telangana", "amenity": "hospital", "email": "info@himagirihospitals.com", "emergency_telephone_code": "040 23001111", "fax": "040 2300 4204", "healthcare": "hospital", "healthcare:speciality": "multi specialty", "medical_system": "Allopathic", "name": "Himagiri Hospital", "opening_hours": "Su 09:00-21:00", "operator:type": "private", "phone": "040 23004206;040 23004207;040 23004208;040 23004209", "source": "OpenGovernmentData", "website": "https://www.himagirihospitals.com/"}}, {"type": "node", "id": 5482634949, "lat": 17.4260213, "lon": 78.4316931}, {"type": "node", "id": 5563162636, "lat": 17.498762, "lon": 78.384027, "tags": {"addr:district": "Hyderabad", "addr:full": "Plot No. 33, Dharma Reddy Colony, KPHB Phase 2, Hydernagar, Kukatpally", "addr:postcode": "500072", "addr:state": "Telangana", "amenity": "hospital", "name": "S.V. Pooja Hospital", "source": "OpenGovernmentData"}}, {"type": "node", "id": 5783995954, "lat": 17.4943337, "lon": 78.3448275, "tags": {"addr:city": "Hyderabad", "addr:housename": "Plot No 204, Mythri Nagar", "addr:housenumber": "Madina Nagar", "addr:postcode": "500049", "addr:street": "Main Road, Miyapur", "amenity": "hospital", "name": "Raja Hospital"}}, {"type": "node", "id": 5956425355, "lat": 17.4305631, "lon": 78.3717128}, {"type": "node", "id": 5956425356, "lat": 17.4301131, "lon": 78.3723728}, {"type": "node", "id": 5956425357, "lat": 17.4305078, "lon": 78.3726684}, {"type": "node", "id": 6046241877, "lat": 17.4469413, "lon": 78.3796635}, {"type": "node", "id": 6046241878, "lat": 17.4466598, "lon": 78.3795938}, {"type": "node", "id": 6046241879, "lat": 17.4466419, "lon": 78.3796581}, {"type": "node", "id": 6046241880, "lat": 17.4469276, "lon": 78.3797438}, {"type": "node", "id": 6078236947, "lat": 17.456281, "lon": 78.4369269, "tags": {"addr:district": "Hyderabad", "addr:full": "7-2-1799/4A/2, Street Number 2, Czech Colony, Sanath Nagar", "addr:postcode": "500018", "addr:state": "Telangana", "addr:street": "Strret No. 2, Czech colony", "amenity": "hospital", "emergency": "no", "fax": "040 23718583", "healthcare": "hospital", "name": "Poojitha Hospital", "source": "OpenGovernmentData"}}, {"type": "node", "id": 6151537449, "lat": 17.4503845, "lon": 78.3825608, "tags": {"amenity": "hospital", "healthcare": "hospital", "healthcare:speciality": "dental_oral_maxillo_facial_surgery;orthodontics", "level": "3", "name": "Apollo Dental Clinic, Hitech City", "operator": "Apollo Hospitals", "operator:type": "private", "operator:wikidata": "Q4780321"}}, {"type": "node", "id": 6186448328, "lat": 17.4254893, "lon": 78.4270947}, {"type": "node", "id": 6186448329, "lat": 17.4255039, "lon": 78.4279038}, {"type": "node", "id": 6186448330, "lat": 17.4240177, "lon": 78.4280445}, {"type": "node", "id": 6186448331, "lat": 17.4238469, "lon": 78.427289}, {"type": "node", "id": 6217853185, "lat": 17.4257981, "lon": 78.4207625, "tags": {"amenity": "hospital", "healthcare": "hospital", "name": "Red Cross Nature Cure Centre", "name:en": "Red Cross Instuite of Nature Cure and Yoga", "opening_hours": "Mo-Sa 00:00-24:00"}}, {"type": "node", "id": 6235740285, "lat": 17.4858906, "lon": 78.3875314, "tags": {"addr:district": "Hyderabad", "addr:full": "16-31-H/9, HIG - 9, Near IJM Circle, Beside SBI, KPHB Phase 6", "addr:postcode": "500072", "addr:state": "Telangana", "amenity": "hospital", "name": "Sriven Hospital", "source": "OpenGovernmentData"}}, {"type": "node", "id": 6237524890, "lat": 17.494517, "lon": 78.39876, "tags": {"addr:street": "Road No. 1", "amenity": "hospital", "check_date": "2024-03-16", "healthcare": "hospital", "name": "Vijaya Diagnostic Centre"}}, {"type": "node", "id": 6237898985, "lat": 17.4967099, "lon": 78.3976994}, {"type": "node", "id": 6248864185, "lat": 17.4949239, "lon": 78.3969527, "tags": {"amenity": "hospital", "check_date": "2024-03-16", "name": "Medical Store"}}, {"type": "node", "id": 6248961986, "lat": 17.4729982, "lon": 78.3872074, "tags": {"addr:district": "Hyderabad", "addr:full": "JNTU Hitech City Road, 7th Phase, KPHB Colony, Near Hitech City Railway Station", "addr:postcode": "500072", "addr:state": "Telangana", "amenity": "hospital", "contact:mobile": "091609 20006", "email": "kukatpally@ankurahospital.com", "health_facility:type": "Pediatric Facilities;Obstetrics and Gynaecology Services;24 Hour Laboratory Service;Pharmacy;Emergency Ambulance Service with Transport Ventilator and Incubator;In House Canteen Services", "healthcare": "hospital", "healthcare:speciality": "Neonatology;Pediatric Critical Care;Paediatric Emergency;Paediatric Surgery;Pediatric Dentistry;Paediatric Neurology;Paediatric Cardiology;Microbiology;Endocrinology;Physiotherapy;Psychiatry;Dermatology;Dental Health;Diet and Nutrition", "medical_system": "Allopathic", "name": "Ankura Hospital for Women & Children", "operator:type": "private", "phone": "040 49599999", "source": "OpenGovernmentData", "website": "https://www.ankurahospital.com/"}}, {"type": "node", "id": 6261444586, "lat": 17.4731914, "lon": 78.3872633, "tags": {"amenity": "hospital", "healthcare": "hospital", "name": "Ankura Multispeciality clinic"}}, {"type": "node", "id": 6269697486, "lat": 17.491694, "lon": 78.3958249, "tags": {"amenity": "hospital", "check_date": "2024-03-16", "name": "Aurobindo Nethralaya"}}, {"type": "node", "id": 6479941227, "lat": 17.4911264, "lon": 78.4010815, "tags": {"addr:district": "Hyderabad", "addr:full": "MIG-196, Road Number1, K.P.H.B.", "addr:postcode": "500072", "addr:state": "Telangana", "amenity": "hospital", "check_date": "2024-03-16", "health_facility:type": "Emergency;Operation Theatre", "healthcare:speciality": "Neonatical Intensive Care Unit;Pediatric Intensive Care Unit;Obstetrics and Gynecology", "medical_system": "Allopathic", "name": "Udbhava Children's Hospital", "operator:type": "private", "phone": "040 23155733;040 65555733", "source": "OpenGovernmentData", "website": "www.udbhavachildrenshospital.com"}}, {"type": "node", "id": 6480117503, "lat": 17.4912927, "lon": 78.3969096, "tags": {"addr:district": "Hyderabad", "addr:full": "Road No.4, KPHB Colony, Kukatpally", "addr:postcode": "500072", "addr:state": "Telangana", "amenity": "hospital", "contact:mobile": "9392159169", "email": "preetihospital@gmail.com", "medical_system": "Allopathic", "name": "Preeti Urology and Kidney Hospital", "operator:type": "private", "phone": "040 23152444; 93921 59169", "source": "OpenGovernmentData", "website": "https://www.preetihospital.com"}}, {"type": "node", "id": 6481950561, "lat": 17.5007182, "lon": 78.3825836, "tags": {"addr:district": "Hyderabad", "addr:full": "Nizampet Road, Kukatpally", "addr:postcode": "500072", "addr:state": "Telangana", "amenity": "hospital", "fixme": "Please verify the accurate position of the hospital as I have mapped the facility based on the address provided in Open Government Data", "name": "Abhaya Multi Speciality Hospital", "source": "OpenGovernmentData"}}, {"type": "node", "id": 6482049740, "lat": 17.4311263, "lon": 78.4266108, "tags": {"addr:district": "Hyderabad", "addr:full": "8-3-231/A/516,517,A-Block, Sri Krishna Nagar, Yousufguda", "addr:postcode": "500045", "addr:state": "Telangana", "amenity": "hospital", "healthcare": "hospital", "name": "Anvitha Hospital", "source": "OpenGovernmentData"}}, {"type": "node", "id": 6482139577, "lat": 17.4925267, "lon": 78.39749, "tags": {"addr:district": "Hyderabad", "addr:full": "MIG - 318 & 260, Remedy Hospital Lane, KPHB Colony, Kukatpally", "addr:postcode": "500072", "addr:state": "Telangana", "amenity": "hospital", "name": "Vignesh Nursing Home", "source": "OpenGovernmentData"}}, {"type": "node", "id": 6484727717, "lat": 17.4920608, "lon": 78.4015616, "tags": {"addr:district": "Hyderabad", "addr:full": "MIG 303, Road Number 1, Opposite Hotel Grand Sitara, KPHB Colony, Kukatpally", "addr:postcode": "500072", "addr:state": "Telangana", "amenity": "hospital", "check_date": "2024-03-16", "email": "info@prasadhospitals.in", "health_facility:type": "ENT; General Surgery; General Medicine; Plastic Surgery; Dermatology; Obstetrics and Gynaecology; Infertility and IVF; Paediatrics; Orthopedics and Trauma; Anesthesia and Critical Care", "healthcare:speciality": "Ultrasound Workup; Human Embryo Biopsy; Intraterine Insemination IUI ; In Vitro Fertilization IVF ; Sperm Retrieval Assisted Hatching; Blastocyst Culture; Egg Donation; Embryo Donation", "medical_system": "Allopathic", "name": "Prasad Hospital", "operator:type": "private", "phone": "040 64519124; 040 64514074;040 40111596", "source": "OpenGovernmentData", "website": "https://prasadhospitals.in/"}}, {"type": "node", "id": 6484730153, "lat": 17.4372474, "lon": 78.3942747, "tags": {"addr:district": "Hyderabad", "addr:full": "1-66/4/194, Block-B, Kavurihills, Durgam Cheruvu Road, Madhava Nagar, Beside Shivaramalayam, Madhapur", "addr:postcode": "500033", "addr:state": "Telangana", "amenity": "hospital", "healthcare": "hospital", "name": "Praanadah Hospital", "source": "OpenGovernmentData"}}, {"type": "node", "id": 6484770861, "lat": 17.4876454, "lon": 78.4000755, "tags": {"addr:district": "Hyderabad", "addr:full": "Plot No: C-15, 1st Road, KPHB Colony, Opp. Axis Bank, Kukatpally", "addr:postcode": "500072", "addr:state": "Telangana", "amenity": "hospital", "check_date": "2024-03-16", "email": "bharat@sankhyahospitals.com", "emergency": "yes", "emergency_telephone_code": "9908537777", "fax": "23153939; 67044439", "health_facility:type": "ICCU Units; AMCU Units; NICU Units; Ventilation Services; Continuous Positive Airway Pressure; Surfactant Therapy; Parental Nutrition; Cardio Respiratory Monitoring; Invasive Blood; Pressure Monitoring; Exchange Transfusion; Cardio Echo", "healthcare:speciality": "Paediatrics and Neonatology; Fetal Surgery; Separation of Conjoined Twins; Tumors; Malformations; Pediatric cardiothoracic Surgery; Pediatric nephrology; Pediatric NeuroSurgery; Pediatric Urological Surgery", "medical_system": "Allopathic", "name": "Sankhya Hospital", "opening_hours": "24/7", "operator:type": "private", "phone": "040 67044444; 040 23153535", "source": "OpenGovernmentData", "website": "https://www.sankhyahospitals.com/"}}, {"type": "node", "id": 6484873593, "lat": 17.4918932, "lon": 78.3972265, "tags": {"addr:district": "Hyderabad", "addr:full": "MIG 313, Remedy Hospital Lane, KPHB Colony", "addr:postcode": "500072", "addr:state": "Telangana", "amenity": "hospital", "check_date": "2024-03-16", "name": "V.M.R Hospital", "source": "OpenGovernmentData"}}, {"type": "node", "id": 6484944575, "lat": 17.4905626, "lon": 78.4072572}, {"type": "node", "id": 6484947125, "lat": 17.494399, "lon": 78.4020397, "tags": {"addr:district": "Hyderabad", "addr:full": "Plot No. 140/1, Bhagyanagar Colony, Behind Margadarsi Building, Kukatpally", "addr:postcode": "500072", "addr:state": "Telangana", "amenity": "hospital", "check_date": "2024-03-16", "fax": "23065310", "healthcare": "hospital", "name": "Sushma Nursing Home", "source": "OpenGovernmentData"}}, {"type": "node", "id": 6485134606, "lat": 17.4406252, "lon": 78.4242403, "tags": {"addr:district": "Hyderabad", "addr:full": "Rahamath Nagar, Yousufguda", "addr:postcode": "500045", "addr:state": "Telangana", "amenity": "hospital", "name": "Sadanand Nursing Home", "source": "OpenGovernmentData"}}, {"type": "node", "id": 6485848266, "lat": 17.4391256, "lon": 78.3958378, "tags": {"addr:district": "Hyderabad", "addr:full": "1-88/5/A, Plot No. 274, Opp. Madhapur Police Station, Kavuri Hills", "addr:postcode": "500081", "addr:state": "Telangana", "amenity": "hospital", "healthcare": "hospital", "name": "L.V. Prasad Eye Institute", "source": "OpenGovernmentData"}}, {"type": "node", "id": 6486930279, "lat": 17.4940242, "lon": 78.3985448, "tags": {"addr:district": "Hyderabad", "addr:full": "MIG 244 & 245, Road No 4, KPHB, Kukatpally", "addr:postcode": "500072", "addr:state": "Telangana", "amenity": "hospital", "check_date": "2024-03-16", "contact:email": "info@microenthospital.com", "contact:phone": "+91 9100771482; 040 42431234", "name": "Micro Care Ent Hospital and Research Institute", "source": "OpenGovernmentData", "website": "https://www.microenthospital.com"}}, {"type": "node", "id": 6487116810, "lat": 17.4343967, "lon": 78.4173229, "tags": {"addr:district": "Hyderabad", "addr:full": "Plot No. 225/A, Road No 17, Jubilee Hills Check Post", "addr:postcode": "500033", "addr:state": "Telangana", "amenity": "hospital", "healthcare": "hospital", "name": "Srivision Super Speciality Eye Hospital", "source": "OpenGovernmentData"}}, {"type": "node", "id": 6487127620, "lat": 17.4352974, "lon": 78.4365799, "tags": {"addr:district": "Hyderabad", "addr:full": "8-3-667/1, Near K.K. Towers, Lane Opposite Allahabad Bank, Engineer's Colony, Yousufguda Road", "addr:postcode": "500073", "addr:state": "Telangana", "amenity": "hospital", "healthcare": "hospital", "name": "Susheela Hospital", "phone": "040 23730020", "source": "OpenGovernmentData"}}, {"type": "node", "id": 6487866891, "lat": 17.437122, "lon": 78.4272954, "tags": {"addr:district": "Hyderabad", "addr:full": "8-3-229/37, Tahir Villa, Near Dena Bank, Opposite St Mary\u2019s Junior College, Yousufguda Check Post", "addr:postcode": "500045", "addr:state": "Telangana", "amenity": "hospital", "contact:email": "drsmguro@gmail.com", "contact:phone": "040-23608179", "healthcare": "hospital", "name": "Fehmi Care Hospital", "source": "OpenGovernmentData", "website": "https://fehmicarehospital.com"}}, {"type": "node", "id": 6487886439, "lat": 17.5044701, "lon": 78.3564663, "tags": {"addr:district": "Hyderabad", "addr:full": "Plot No's. 33,34,35, Alluri Sita Ram Raju Colony, Near DK enclave", "addr:postcode": "500050", "addr:state": "Telangana", "amenity": "hospital", "healthcare": "hospital", "name": "Mirra Multi Specialty Hospital", "source": "OpenGovernmentData"}}, {"type": "node", "id": 6489591500, "lat": 17.4281872, "lon": 78.432519, "tags": {"addr:district": "Hyderabad", "addr:full": "Lane Beside Harley Davidson Showroom, Sagar Soceity Main Road, Road Number 2, Banjara Hills", "addr:postcode": "500034", "addr:state": "Telangana", "amenity": "hospital", "contact:mobile": "9849204178; 040-40137750", "email": "challaeyecare@gmail.com", "healthcare": "hospital", "name": "Challa Eye Care Centre", "operator:type": "private", "phone": "040-40137750; 040-40171180", "source": "OpenGovernmentData", "website": "https://challaeyecare.com"}}, {"type": "node", "id": 6489843355, "lat": 17.4554163, "lon": 78.4238099, "tags": {"addr:district": "Hyderabad", "addr:full": "Plot No: 112/C, 112/D, Moti Nagar, Erragadda", "addr:postcode": "500018", "addr:state": "Telangana", "amenity": "hospital", "name": "Leela Hospital", "source": "OpenGovernmentData"}}, {"type": "node", "id": 6490630817, "lat": 17.4968803, "lon": 78.397838}, {"type": "node", "id": 6490630818, "lat": 17.4968262, "lon": 78.3979612}, {"type": "node", "id": 6490630819, "lat": 17.4965128, "lon": 78.3978096}, {"type": "node", "id": 6490630820, "lat": 17.496567, "lon": 78.3976865}, {"type": "node", "id": 6490913751, "lat": 17.4912076, "lon": 78.4011693, "tags": {"addr:district": "Hyderabad", "addr:full": "Plot Number 197, Road Number 1, KPHB Colony, Kukatpally", "addr:postcode": "500072", "addr:state": "Telangana", "amenity": "hospital", "check_date": "2024-03-16", "contact:mobile": "8008228811", "email": "globaleyehospital@gmail.com", "healthcare:speciality": "Primary Eye Care;Lasik Services;Cataract Services;Cornea and Refractive Surgery Services;Glaucoma Services;Retina and Diabetic Retinopathy;Retina and Hypertensive Retinopathy;Contact Lens Services;Pediatric Service", "medical_system": "Allopathic", "name": "Global Eye Hospital", "operator:type": "private", "phone": "040 64510330", "source": "OpenGovernmentData", "website": "https://globaleyehospital.com/"}}, {"type": "node", "id": 6491365368, "lat": 17.4932836, "lon": 78.4017017, "tags": {"addr:district": "Hyderabad", "addr:full": "MIG 218, KPHB Main Road, Kukatpally", "addr:postcode": "500072", "addr:state": "Telangana", "amenity": "hospital", "check_date": "2024-03-16", "contact:mobile": "09652533288; 09652533211", "health_facility:type": "24 Hours Ambulance;General Medicine;Computerized ECG Facility;Day Care Facility;Emergency Diagnostics", "healthcare:speciality": "Cardiology;Nephrology;Neurology;Diabetes", "medical_system": "Allopathic", "name": "Surakshaka Multi Speciality Hospital", "operator:type": "private", "phone": "9652533255", "source": "OpenGovernmentData", "website": "http://surakshaka.com"}}, {"type": "node", "id": 6494242172, "lat": 17.4936289, "lon": 78.4000562, "tags": {"addr:district": "Hyderabad", "addr:full": "LIG No. 564 & 565, Road No. 3, Behind RS Brothers, KPHB Colony, Kukatpally", "addr:postcode": "500072", "addr:state": "Telangana", "amenity": "hospital", "check_date": "2024-03-16", "contact:email": "ravihospital2011@gmail.com", "contact:mobile": "+91 9248005150 ; +91 9247842041", "email": "ravihospital2011@gmail.com", "healthcare": "hospital", "name": "Ravi Hospital", "phone": "040-40173131", "source": "OpenGovernmentData", "website": "https://www.ravihospitals.com/"}}, {"type": "node", "id": 6494412250, "lat": 17.493721, "lon": 78.3983745, "tags": {"addr:district": "Hyderabad", "addr:full": "Plot No. 247, G.R.G. Plaza, Road No.4, K.P.H.B Phase-1", "addr:postcode": "500072", "addr:state": "Telangana", "amenity": "hospital", "check_date": "2024-03-16", "name": "Merit Care Hospital", "source": "OpenGovernmentData"}}, {"type": "node", "id": 6494465425, "lat": 17.4953109, "lon": 78.415377, "tags": {"addr:district": "Hyderabad", "addr:full": "Plot No. 141 & 144/1, Sapthagiri Colony, Ayyappa Swamy Temple Road, Near New Era School, Kukatpally", "addr:postcode": "500072", "addr:state": "Telangana", "amenity": "hospital", "contact:email": "info@harsha-hospitals.co.in", "contact:mobile": "7799565793; 9000855548", "name": "Harsha Hospitals", "phone": "040 23066393", "source": "OpenGovernmentData", "website": "https://www.harsha-hospitals.com/"}}, {"type": "node", "id": 6494956566, "lat": 17.484821, "lon": 78.3881754, "tags": {"addr:district": "Hyderabad", "addr:full": "HIG - 57, Near Daffodils Public School, Behind Forum Sujana Mall, KPHB, Kukatpally", "addr:postcode": "500072", "addr:state": "Telangana", "amenity": "hospital", "name": "Sandeep Nursing Home", "source": "OpenGovernmentData"}}, {"type": "node", "id": 6496590575, "lat": 17.4301078, "lon": 78.4061931, "tags": {"addr:district": "Hyderabad", "addr:full": "Plot No. 1110, Road No. 55, Opposite Peddamma Temple, Jubilee Hills", "addr:postcode": "500033", "addr:state": "Telangana", "amenity": "hospital", "contact:email": "info@stopiles.com", "healthcare": "hospital", "name": "Stopiles", "phone": "040 39565230; 7799790251", "source": "OpenGovernmentData", "website": "https://www.stopiles.com"}}, {"type": "node", "id": 6496885010, "lat": 17.4917263, "lon": 78.3970112, "tags": {"addr:district": "Hyderabad", "addr:full": "MIG 311, KPHB Phase I, Kukatpally", "addr:postcode": "500072", "addr:state": "Telangana", "amenity": "hospital", "name": "Eswar Eye Hospital", "source": "OpenGovernmentData"}}, {"type": "node", "id": 6498013229, "lat": 17.48489, "lon": 78.4096652, "tags": {"addr:district": "Hyderabad", "addr:full": "Plot No. 61, KPHB Main Road, Balaji Nagar, Near Kukatpally Bus Stop", "addr:postcode": "500072", "addr:state": "Telangana", "amenity": "hospital", "name": "Prerana Hospital", "source": "OpenGovernmentData"}}, {"type": "node", "id": 6503288232, "lat": 17.4490629, "lon": 78.4317237, "tags": {"addr:district": "Hyderabad", "addr:full": "8-3-167/A/7 & 8, Vikaspuri Colony, Near A.G.Colony, Road Opposite ESI Hospital, Erragadda", "addr:postcode": "500038", "addr:state": "Telangana", "alt_name": "Dr. Sudha's Test Tube Baby Centre", "amenity": "hospital", "contact:email": "sunrichhospitals2009@gmail.com", "contact:phone": "040 23705588; 9393542950", "name": "Sunrich Hospital", "source": "OpenGovernmentData", "website": "www.drsudhaivf.com"}}, {"type": "node", "id": 6503370083, "lat": 17.4448064, "lon": 78.4324291, "tags": {"addr:district": "Hyderabad", "addr:full": "Plot Number 57, Kalyan Nagar Phase 1, Behind TB Hospital", "addr:postcode": "500038", "addr:state": "Telangana", "amenity": "hospital", "medical_system": "Allopathic", "name": "J.J. Hospital", "operator:type": "private", "phone": "040 2370 4778; 040 23712106", "source": "OpenGovernmentData"}}, {"type": "node", "id": 6504097065, "lat": 17.4514829, "lon": 78.424402, "tags": {"addr:district": "Hyderabad", "addr:full": "Rajeev Nagar`X` Roads, Mothinagar", "addr:postcode": "500018", "addr:state": "Telangana", "amenity": "hospital", "contact:email": "manaseyehosp@gmail.com", "contact:mobile": "+91 9849726209", "name": "Manas Eye Hospital", "source": "OpenGovernmentData", "website": "https://manaseyehospital.com/"}}, {"type": "node", "id": 6504110557, "lat": 17.4997851, "lon": 78.3841534, "tags": {"addr:district": "Hyderabad", "addr:full": "Opposite Chermas, Hydernagar, Kukatpally", "addr:postcode": "500072", "addr:state": "Telangana", "amenity": "hospital", "contact:tollfree": "1802 2122", "email": "info@rainbowhospitals.in", "emergency": "yes", "healthcare:speciality": "General Pediatrics;Neonatology;Pediatric Neurology;Anasthesia and Pain Management;Pediatric Gastroenterology;Pediatric Nephrology;Hematology & Oncology;ENT;Psychiatry;Pediatric Cardiology;Speech & Language Therapy;Physiotherapy and Rehabilitation Unit etc", "medical_system": "Allopathic", "name": "Rainbow Childrens Hospital", "opening_hours": "24/7", "operator:type": "private", "phone": "040 42462300;040 23892300", "source": "OpenGovernmentData", "website": "https://www.rainbowhospitals.in/"}}, {"type": "node", "id": 6504154905, "lat": 17.4920026, "lon": 78.4093373, "tags": {"addr:district": "Hyderabad", "addr:full": "Plot No. 688, Sumana Hospital Lane, Road Number 2, Vivekananda Nagar, Kukatpally", "addr:postcode": "500072", "addr:state": "Telangana", "amenity": "hospital", "contact:email": "sumanahospital@gmail.com", "contact:phone": "040 2306 8066", "healthcare": "hospital", "name": "Sumana Hospital", "source": "OpenGovernmentData", "website": "http://sumanahospital.com", "wikidata": "Q52843701"}}, {"type": "node", "id": 6504261883, "lat": 17.4853224, "lon": 78.3899282, "tags": {"addr:district": "Hyderabad", "addr:full": "540/1 and 2, JNTU Hitech City Road, VI - Phase, KPHB Colony", "addr:postcode": "500072", "addr:state": "Telangana", "amenity": "hospital", "check_date": "2024-03-16", "health_facility:type": "Personalised Patient Care;Hospital Information System", "healthcare:speciality": "Plastic Surgery;Reconstructive Surgery;Aesthetic Surgeries;Gynecology and Obsteric;Orthopedic;Pediatric;Pulmonology;General Medicine;Urology;Laproscopic Surgeries", "medical_system": "Allopathic", "name": "Icon Hospital", "operator:type": "private", "phone": "040 64602345;040 23159666", "source": "OpenGovernmentData"}}, {"type": "node", "id": 6504284028, "lat": 17.494147, "lon": 78.4053522, "tags": {"addr:district": "Hyderabad", "addr:full": "2-22-254, Street No.3, A.S. Raju Nagar, Behind South India Shopping Mall, Kukatpally", "addr:postcode": "500072", "addr:state": "Telangana", "amenity": "hospital", "name": "Kavya Nursing Home", "source": "OpenGovernmentData"}}, {"type": "node", "id": 6505170700, "lat": 17.4947648, "lon": 78.3600202, "tags": {"addr:district": "Hyderabad", "addr:full": "Plot No. 12 & 13, Madhava Nagar, Behind Sai Ranga Theatre, Miyapur", "addr:postcode": "500049", "addr:state": "Telangana", "amenity": "hospital", "contact:phone": "040 23040450; 040 23048625", "fax": "040 23042800", "name": "Shilpa Nursing Home", "source": "OpenGovernmentData"}}, {"type": "node", "id": 6505444434, "lat": 17.4948223, "lon": 78.4016588, "tags": {"addr:district": "Hyderabad", "addr:full": "Bhagyanagar Colony, Opposite K.P.H.B", "addr:postcode": "500072", "addr:state": "Telangana", "amenity": "hospital", "check_date": "2024-03-16", "healthcare": "hospital", "name": "Varsha Hospital", "source": "OpenGovernmentData"}}, {"type": "node", "id": 6505485733, "lat": 17.4858827, "lon": 78.3890216, "tags": {"addr:district": "Hyderabad", "addr:full": "HIG - 547, 6th Phase, KPHB Colony, Opposite Malaysian Township", "addr:postcode": "500072", "addr:state": "Telangana", "amenity": "hospital", "fax": "040 23156976", "name": "Sagar Hospital", "source": "OpenGovernmentData"}}, {"type": "node", "id": 6505507940, "lat": 17.4299337, "lon": 78.4271117, "tags": {"addr:district": "Hyderabad", "addr:full": "Jubilee Hills Road, Krishna Nagar", "addr:postcode": "500045", "addr:state": "Telangana", "amenity": "hospital", "healthcare": "hospital", "name": "Seethal Nursing Home", "source": "OpenGovernmentData"}}, {"type": "node", "id": 6507652189, "lat": 17.4915108, "lon": 78.4013115, "tags": {"addr:district": "Hyderabad", "addr:full": "MIG -200, Road Number1, KPHB Colony, Kukatpally", "addr:postcode": "500072", "addr:state": "Telangana", "amenity": "hospital", "check_date": "2024-03-16", "name": "Padmaavathi Netralaya", "source": "OpenGovernmentData"}}, {"type": "node", "id": 6513113356, "lat": 17.4961817, "lon": 78.4055095, "tags": {"addr:district": "Hyderabad", "addr:full": "22-163/2, Adjacent to Global Enclave, Bhagyanagar Colony, Kukatpally", "addr:postcode": "500072", "addr:state": "Telangana", "amenity": "hospital", "check_date": "2024-03-16", "healthcare": "hospital", "name": "Tadla Eye Hospital", "source": "OpenGovernmentData"}}, {"type": "node", "id": 6530722593, "lat": 17.4951345, "lon": 78.4024782, "tags": {"addr:district": "Hyderabad", "addr:full": "Plot No.95, G-13, Pragathi Encalve, Bhagyangar Colony, Opposite KPHB Colony", "addr:postcode": "500072", "addr:state": "Telangana", "amenity": "hospital", "check_date": "2024-03-16", "fixme": "Please verify the accurate position of the hospital/health care centre as I have mapped the facility based on the address provided in Open Government data", "healthcare": "hospital", "name": "Sujatha Nursing Home", "source": "OpenGovernmentData"}}, {"type": "node", "id": 6530792770, "lat": 17.4383029, "lon": 78.3994983, "tags": {"addr:district": "Hyderabad", "addr:full": "Plot No. 729, Road 36, Jubilee Hills", "addr:postcode": "500033", "addr:state": "Telangana", "amenity": "hospital", "email": "life@livlifehospitals.com", "health_facility:type": "24 Hour Patient Care; Day Care Unit; Diagnostic and Pathology Services; Pharmacy", "healthcare": "hospital", "healthcare:speciality": "Dermatology; Advanced Laparoscopy", "medical_system": "Allopathic", "name": "Live Life Hospital", "operator:type": "private", "phone": "040 30888888", "source": "OpenGovernmentData", "website": "https://www.livlifehospitals.com/"}}, {"type": "node", "id": 6531378729, "lat": 17.4293887, "lon": 78.4178258, "tags": {"addr:district": "Hyderabad", "addr:full": "Plot No. 99, Road No. 1, Near Chiranjeevi Blood Bank, Jubilee Hills Check Post", "addr:postcode": "500033", "addr:state": "Telangana", "amenity": "hospital", "contact:email": "info@avishospitals.com ; contact@avishospitals.com", "contact:phone": "+91 9949034085 ; +91 9989527715", "healthcare": "hospital", "name": "Avis Hospitals", "old_name": "Beams Hospital", "source": "OpenGovernmentData", "website": "http://www.avishospitals.com"}}, {"type": "node", "id": 6537360032, "lat": 17.4506967, "lon": 78.3640308, "tags": {"addr:district": "Hyderabad", "addr:full": "Opp. Jayabheri Enclave, Anjaiah Nagar, Near Botanical Garden, Gachibowli", "addr:postcode": "500032", "addr:state": "Telangana", "amenity": "hospital", "healthcare": "hospital", "name": "Rajitha Hospital", "source": "OpenGovernmentData"}}, {"type": "node", "id": 6538865408, "lat": 17.4451301, "lon": 78.4349412}, {"type": "node", "id": 6548781242, "lat": 17.4926185, "lon": 78.3964245, "tags": {"addr:city": "Hyderabad", "addr:full": "HIG - 210, Phase I , Near Maharastra Bank, Kphb Colony, Kukatpally", "addr:postcode": "500072", "addr:state": "Telangana", "amenity": "hospital", "check_date": "2024-03-16", "contact:phone": "040-23051000;040-23052225", "name": "Sri Aurobindo Nethralaya", "operator:type": "private", "source": "OpenGovernmentData"}}, {"type": "node", "id": 6548782136, "lat": 17.4464363, "lon": 78.3786482, "tags": {"addr:city": "Hyderabad", "addr:district": "Rangareddy", "addr:full": "Plot No:. 7, Sy. No. 64, Behind Cyber Towers, Patrika Nagar, Hitech City, Near IBIS Hotel Lane, Madhapur", "addr:postcode": "500081", "addr:state": "Telangana", "amenity": "hospital", "contact:phone": "4067076700", "email": "info@maxcuresuyosha.com", "healthcare": "hospital", "name": "MAXCURE SUYOSHA WOMAN & CHILD HOSPITAL", "operator:type": "private", "source": "OpenGovernmentData", "website": "https://www.maxcuresuyosha.com/"}}, {"type": "node", "id": 6548786015, "lat": 17.5066316, "lon": 78.3842419, "tags": {"addr:city": "Hyderabad", "addr:full": "Plot No:9, Opp Akshara School, Nizampet", "addr:postcode": "500072", "addr:state": "Telangana", "amenity": "hospital", "contact:phone": "4023890662", "name": "CALCIUM HOSPITAL", "operator:type": "private", "source": "OpenGovernmentData"}}, {"type": "node", "id": 6548854401, "lat": 17.4497269, "lon": 78.3672388, "tags": {"addr:district": "Hyderabad", "addr:full": "ANJAIAH NAGAR COMMUNITY HALL ROAD, GACHIBOWLI", "addr:postcode": "500032", "addr:state": "Telangana", "amenity": "hospital", "contact:phone": "4031000697", "healthcare": "hospital", "name": "Kakatiya Hospital", "operator:type": "private", "source": "OpenGovernmentData"}}, {"type": "node", "id": 6549141042, "lat": 17.4951101, "lon": 78.3706122, "tags": {"addr:city": "Hyderabad", "addr:full": "Plot No: 336, MATRUSRI NAGAR, CALVARY TEMPLE ROAD, MIYAPUR", "addr:postcode": "500049", "addr:state": "Telangana", "amenity": "hospital", "contact:phone": "8008033447", "name": "ENT CARE HOSPITAL", "operator:type": "private", "source": "OpenGovernmentData"}}, {"type": "node", "id": 6549150740, "lat": 17.494321, "lon": 78.3461505, "tags": {"addr:city": "Hyderabad", "addr:district": "Rangareddy", "addr:full": "Plot No:. 204, Mythri Nagar, Near Madinaguda, Miyapur", "addr:postcode": "500049", "addr:state": "Telangana", "amenity": "hospital", "contact:phone": "04023044155; 42007070", "fax": "23044133", "name": "HEALIX HOSPITAL", "operator:type": "private", "source": "OpenGovernmentData"}}, {"type": "node", "id": 6549184413, "lat": 17.4448396, "lon": 78.3855052, "tags": {"addr:district": "Hyderabad", "addr:full": "#1-120/3, Plot No.3, Behind Karachi Bakery, Survey No.64, Madhapur", "addr:postcode": "500081", "addr:state": "Telangana", "amenity": "hospital", "contact:phone": "040 67108108", "healthcare": "hospital", "name": "Oakridge Hospitals", "operator:type": "private", "source": "OpenGovernmentData", "website": "http://oakridgehospitals.com/"}}, {"type": "node", "id": 6549190771, "lat": 17.4921363, "lon": 78.348083, "tags": {"addr:full": "#222&223, MYTHRINAGAR, PHASE-II, Opp FORTURE HEIGHTS, MIYAPUR", "addr:postcode": "500049", "addr:state": "Telangana", "amenity": "hospital", "contact:phone": "04047470000", "name": "SRIKARA HOSPITALS", "operator:type": "private", "source": "OpenGovernmentData", "website": "https://www.srikarahospitals.com/"}}, {"type": "node", "id": 6549196760, "lat": 17.4885611, "lon": 78.3915214, "tags": {"addr:district": "Hyderabad", "addr:full": "HIG 450, Opp Manjeera Trinity Corporate, JNTU-HITEC city road KPHB Phase 6, Kukatpally", "addr:postcode": "500072", "addr:state": "Telangana", "amenity": "hospital", "check_date": "2024-03-16", "contact:phone": "040-40064008; 040-40117931", "name": "Amrita ENT Head & Neck Hospital", "operator:type": "private", "source": "OpenGovernmentData", "website": "https://amritaent.com/"}}, {"type": "node", "id": 6549198596, "lat": 17.4620023, "lon": 78.3669068, "tags": {"addr:city": "Hyderabad", "addr:full": "H.No: 2-41/11/3 & 4, QZ PLAZA, KOTHAGUDA CROSS ROADS, KONDAPUR, KOTHAGUDA (K.V.Rangareddy), SERILINGAMPALLY", "addr:postcode": "500084", "addr:state": "Telangana", "amenity": "hospital", "contact:phone": "23005789", "healthcare": "hospital", "name": "REFRACTO EYE HOSPITAL (A GROUP OF CREDIBLE HEALTH CARE PVT LTD )", "operator:type": "private", "source": "OpenGovernmentData"}}, {"type": "node", "id": 6549292128, "lat": 17.4887428, "lon": 78.4005457, "tags": {"addr:city": "Hyderabad", "addr:full": "MIG 113 & 114, Road No. 1, KPHB Colony, Kukatpally", "addr:postcode": "500072", "addr:state": "Telangana", "amenity": "hospital", "check_date": "2024-03-16", "contact:phone": "4044568888", "name": "Sri Sri Holistic Hospitals", "operator:type": "private", "source": "OpenGovernmentData"}}, {"type": "node", "id": 6549314900, "lat": 17.4893785, "lon": 78.4008153, "tags": {"addr:city": "Hyderabad", "addr:full": "MIG: 88, Road No: 1, KPHB COLONY, KUKATPALLY", "addr:postcode": "500072", "addr:state": "Telangana", "amenity": "hospital", "check_date": "2024-03-16", "contact:phone": "4049542277", "name": "Smart Vision Eye Hospitals Pvt Ltd", "operator:type": "private", "source": "OpenGovernmentData"}}, {"type": "node", "id": 6549335308, "lat": 17.4915939, "lon": 78.4096941, "tags": {"addr:city": "Hyderabad", "addr:full": "Plot No:. 692, VIVEKANAND NAGAR COLONY, KUKATPALLY", "addr:postcode": "500072", "addr:state": "Telangana", "amenity": "hospital", "contact:phone": "4023060030", "healthcare": "hospital", "name": "Green Leaf Health Centre", "operator:type": "private", "source": "OpenGovernmentData"}}, {"type": "node", "id": 6549348757, "lat": 17.4925596, "lon": 78.3977428, "tags": {"addr:city": "Hyderabad", "addr:full": "S.R. Enclave, MIG - 259, Road No. 4, KPHB Colony", "addr:postcode": "500072", "addr:state": "Telangana", "amenity": "hospital", "check_date": "2024-03-16", "contact:email": "info@mcsneurohospital.com", "contact:phone": "4040266544", "name": "MCS NEURO HOSPITAL", "operator:type": "private", "source": "OpenGovernmentData", "website": "http://www.mcsneurohospital.com"}}, {"type": "node", "id": 6549349841, "lat": 17.4947571, "lon": 78.3432363, "tags": {"addr:city": "Hyderabad", "addr:full": "Plot No: 83 & 103, Miyapur Main Road", "addr:postcode": "500049", "addr:state": "Telangana", "amenity": "hospital", "contact:phone": "4023031113", "name": "HAPPY HOSPITAL", "operator:type": "private", "source": "OpenGovernmentData"}}, {"type": "node", "id": 6549350559, "lat": 17.4992274, "lon": 78.3880024, "tags": {"addr:city": "Hyderabad", "addr:full": "MCK BLOCK 2, NEAR JNTU METRO STATION, Opp. VASANTH NAGAR ARCH, HYDERNAGAR MAIN ROAD, KUKATPALLY", "addr:postcode": "500085", "addr:state": "Telangana", "amenity": "hospital", "check_date": "2024-03-16", "contact:email": "info@landmarkhospitals.net", "contact:phone": "040 45459999 ;+91 7036665051", "healthcare": "hospital", "name": "Landmark Hospital", "operator:type": "private", "source": "OpenGovernmentData", "website": "https://www.landmarkhospitals.net/"}}, {"type": "node", "id": 6549425557, "lat": 17.4438231, "lon": 78.3666245}, {"type": "node", "id": 6549431958, "lat": 17.4910196, "lon": 78.3967075, "tags": {"addr:city": "Hyderabad", "addr:full": "MIG: 304, Beside Global Edge School, Road No. 4, KPHB Colony", "addr:postcode": "500072", "addr:state": "Telangana", "amenity": "hospital", "contact:phone": "040 69992025", "name": "Baabaji Nethralaya Eye Hospital", "operator:type": "private", "source": "OpenGovernmentData"}}, {"type": "node", "id": 6549437828, "lat": 17.496072, "lon": 78.3452386, "tags": {"addr:city": "Hyderabad", "addr:full": "Plot No:38/225, Near St. Ann's School, Madinaguda, Miyapur", "addr:postcode": "500049", "addr:state": "Telangana", "amenity": "hospital", "contact:phone": "4023048399", "name": "MOTHERHOOD FERTILITY CENTRE", "operator:type": "private", "source": "OpenGovernmentData"}}, {"type": "node", "id": 6549439330, "lat": 17.490815, "lon": 78.396851, "tags": {"addr:city": "Hyderabad", "addr:full": "MIG: 288, Road No: 4, KPHB Colony", "addr:postcode": "500085", "addr:state": "Telangana", "amenity": "hospital", "contact:phone": "4048503737", "name": "MedWise Hospital (A unit of Chirayu Avigna Healthcare)", "operator:type": "private", "source": "OpenGovernmentData"}}, {"type": "node", "id": 6559338844, "lat": 17.4401185, "lon": 78.4236932, "tags": {"addr:district": "Hyderabad", "addr:full": "Near PJR Statue, Rahamath Nagar 'X' Road, Yousufguda", "addr:postcode": "500045", "addr:state": "Telangana", "amenity": "hospital", "name": "Pavithra Nursing Home", "source": "OpenGovernmentData"}}, {"type": "node", "id": 6560815058, "lat": 17.4562216, "lon": 78.4256515, "tags": {"addr:district": "Hyderabad", "addr:full": "Beside Pandu Ranga Nagar Bus Stop, Moti Nagar", "addr:postcode": "500018", "addr:state": "Telangana", "amenity": "hospital", "health_facility:type": "Ambulance Service;Home Visit;Availability of Specialist Doctors;24 hours On Call", "healthcare:speciality": "Gynaecologist and Obstetrician;Anethesia's and Critical Care;Neurology;Paediatric;Orthopaedics;Gastroenterology;Cardiology;ENT;Urology;Plastic Surgery;Physiotheraphy", "medical_system": "Allopathic", "name": "Neelima Hospital", "operator:type": "private", "phone": "040 65264448;040 23710069", "source": "OpenGovernmentData", "website": "http://www.neelimahospital.com"}}, {"type": "node", "id": 6561161964, "lat": 17.43034, "lon": 78.4370834, "tags": {"addr:district": "Hyderabad", "addr:full": "8-3-982, Srinagar Colony Main Road, Near Satya Sai Kalyana Mandapam", "addr:postcode": "500073", "addr:state": "Telangana", "amenity": "hospital", "name": "Nikhil Hospital", "source": "OpenGovernmentData"}}, {"type": "node", "id": 6562261140, "lat": 17.4953327, "lon": 78.3461183, "tags": {"addr:district": "Hyderabad", "addr:full": "1-58/7/3, 3rd Floor, Near St Ann's School & Bajaj Electronics, Madinaguda", "addr:postcode": "500049", "addr:state": "Telangana", "amenity": "hospital", "name": "Vijaya Hospital", "source": "OpenGovernmentData"}}, {"type": "node", "id": 6562677269, "lat": 17.4300284, "lon": 78.3742265, "tags": {"addr:district": "Hyderabad", "addr:full": "3rd Floor, Millennium Square, Near Commissionerate of Police, Gachibowli", "addr:postcode": "500032", "addr:state": "Telangana", "amenity": "hospital", "contact:mobile": "040-69000370", "healthcare": "hospital", "healthcare:speciality": "Maternity;Gynaecology;Pediatrics;Fertility;Intensive Care;Fetal Care;Cosmetology", "medical_system": "Allopathic", "name": "Motherhood Clinic", "operator:type": "private", "source": "OpenGovernmentData"}}, {"type": "node", "id": 6811749001, "lat": 17.488394, "lon": 78.39696, "tags": {"addr:district": "Medchal Malkajgiri", "addr:full": "MIG: 487, Road No. 3, Near MeeSeva, KPHB Colony, Hyderabad", "addr:postcode": "500072", "addr:state": "Telangana", "amenity": "hospital", "check_date": "2024-03-16", "name": "Madhusudhan Hospital", "source": "OpenGovernmentData"}}, {"type": "node", "id": 6811749053, "lat": 17.493087, "lon": 78.4096964, "tags": {"addr:district": "Medchal Malkajgiri", "addr:full": "266, Near Geethanjali Talent, School, Vivekananda Nagar, Kukatpally", "addr:postcode": "500072", "addr:state": "Telangana", "amenity": "hospital", "name": "Apple Diagnostic & Medical Centre, Kukatpally", "source": "OpenGovernmentData"}}, {"type": "node", "id": 6811749066, "lat": 17.4694418, "lon": 78.4256774, "tags": {"addr:city": "Hyderabad", "addr:district": "Medchal Malkajgiri", "addr:full": "Near Panchaseela School, Patel Nagar, Moosapet", "addr:postcode": "500018", "addr:state": "Telangana", "amenity": "hospital", "name": "Chaitanya Hospital", "operator:type": "Private", "source": "OpenGovernmentData"}}, {"type": "node", "id": 6811749082, "lat": 17.4889369, "lon": 78.4006671, "tags": {"addr:district": "Hyderabad", "addr:full": "ROAD NO.1, Near Vasan Dental Care, KPHB", "addr:state": "Telangana", "amenity": "hospital", "check_date": "2024-03-16", "contact:mobile": "9100962721", "name": "Trichos Skin Care", "operator:type": "Private", "source": "OpenGovernmentData"}}, {"type": "node", "id": 6811749096, "lat": 17.4933988, "lon": 78.3979717, "tags": {"addr:district": "Medchal Malkajgiri", "addr:full": "Mig-327, Road No 4, Opp. ENT Clinic, Kphb Colony", "addr:postcode": "500072", "addr:state": "Telangana", "amenity": "hospital", "check_date": "2024-03-16", "name": "J.K. Hospital", "source": "OpenGovernmentData"}}, {"type": "node", "id": 6811749133, "lat": 17.473479, "lon": 78.421673, "tags": {"addr:district": "Medchal Malkajgiri", "addr:full": "Lane Beside Cake Walk Bakery, Pragathi Nagar, Moosapet, Hyderabad", "addr:postcode": "500072", "addr:state": "Telangana", "amenity": "hospital", "name": "Vasundhara Hospital", "opening_hours": "24/7", "source": "OpenGovernmentData"}}, {"type": "node", "id": 6811749139, "lat": 17.4691677, "lon": 78.4275318, "tags": {"addr:city": "Hyderabad", "addr:district": "Medchal Malkajgiri", "addr:full": "Opp. Andhra Bank, Beside Sangeetha Mobiles, Moosapet 'X' Road", "addr:postcode": "500018", "addr:state": "Telangana", "amenity": "hospital", "contact:mobile": "9390113366", "name": "Aradhya Multi Speciality Hospital", "operator:type": "Private", "source": "OpenGovernmentData"}}, {"type": "node", "id": 6811749142, "lat": 17.443615, "lon": 78.434617, "tags": {"addr:district": "Hyderabad", "addr:full": "231A, Ground Floor, Simhapuri Mansion, Beside ICICI Bank, Vengalrao nagar, Kalyan Nagar Phase I", "addr:postcode": "500038", "addr:state": "Telangana", "amenity": "hospital", "name": "Skorts Multi Speciality Clinics", "source": "OpenGovernmentData"}}, {"type": "node", "id": 6822125026, "lat": 17.4942384, "lon": 78.3995332, "tags": {"addr:district": "Medchal Malkajgiri", "addr:full": "Mig-233, 3rd Road, Beside, Near Sri Sri VOC Jr. College, Kphb Main Road", "addr:postcode": "500072", "addr:state": "Telangana", "amenity": "hospital", "check_date": "2024-03-16", "healthcare": "hospital", "name": "SRU Facture & Plastic Surgery", "source": "OpenGovernmentData"}}, {"type": "node", "id": 6846152948, "lat": 17.4509475, "lon": 78.4235564, "tags": {"addr:district": "Hyderabad", "addr:full": "8-3-168 / M/ 12 KALYAN NAGAR, RAJEEV NAGAR X ROAD", "addr:state": "Telangana", "amenity": "hospital", "name": "SHREYA HOSPITAL", "operator:type": "Private", "source": "OpenGovernmentData"}}, {"type": "node", "id": 6846423887, "lat": 17.4546149, "lon": 78.4200095, "tags": {"addr:district": "Hyderabad", "addr:full": "Plot No: 3-1-171 SNEHAPURI COLONY, MOTI NAGAR", "addr:state": "Telangana", "amenity": "hospital", "name": "DR NAVEEN REDDYS GENERAL HOSPITAL", "operator:type": "Private", "source": "OpenGovernmentData"}}, {"type": "node", "id": 6855228385, "lat": 17.4659669, "lon": 78.3678073, "tags": {"addr:street": "Gachibowli - Miyapur Highway", "amenity": "hospital", "healthcare": "hospital", "name": "KIMS Cruddle", "opening_hours": "24/7"}}, {"type": "node", "id": 6866161636, "lat": 17.5028997, "lon": 78.3887517, "tags": {"addr:city": "hyderabad", "addr:postcode": "500085", "addr:street": "Nizampet Road", "amenity": "hospital", "healthcare": "hospital", "healthcare:speciality": "general", "name": "srisri holistic"}}, {"type": "node", "id": 6866161637, "lat": 17.5029831, "lon": 78.3887796, "tags": {"addr:city": "hyderabad", "addr:postcode": "500085", "addr:street": "Nizampet Road", "amenity": "hospital", "healthcare": "hospital"}}, {"type": "node", "id": 6937779552, "lat": 17.4594547, "lon": 78.3659801, "tags": {"amenity": "hospital", "healthcare": "hospital", "name": "Apollo"}}, {"type": "node", "id": 7008089080, "lat": 17.5035172, "lon": 78.4156543, "tags": {"amenity": "hospital", "healthcare": "hospital", "name": "Mythri Clinic"}}, {"type": "node", "id": 7025820758, "lat": 17.4406949, "lon": 78.3943588, "tags": {"amenity": "hospital", "healthcare": "hospital", "name": "Srinivasa Hospital"}}, {"type": "node", "id": 7025820786, "lat": 17.44582, "lon": 78.3924173, "tags": {"addr:city": "hyderabad", "addr:district": "rangareddy", "addr:housenumber": "APIIC Colony Beside State Bank of India , Shapur Nagar Jeedimetla Hyderabad", "addr:postcode": "500055", "addr:street": "Near SBI Bank", "amenity": "hospital", "emergency": "yes", "healthcare": "hospital", "healthcare:speciality": "gynaecology", "name": "lifespan hospitals"}}, {"type": "node", "id": 7025820915, "lat": 17.4413783, "lon": 78.3880897, "tags": {"amenity": "hospital", "healthcare": "hospital", "name": "Samanta Homeopathy"}}, {"type": "node", "id": 7244398147, "lat": 17.493937, "lon": 78.351628, "tags": {"amenity": "hospital", "healthcare": "hospital", "name": "Dr.agarwals"}}, {"type": "node", "id": 7246482631, "lat": 17.4955311, "lon": 78.3966389}, {"type": "node", "id": 7246517948, "lat": 17.4866535, "lon": 78.3912724, "tags": {"amenity": "hospital", "healthcare": "hospital", "name": "saidatha homeo stores and clinic"}}, {"type": "node", "id": 7924536679, "lat": 17.4891879, "lon": 78.4083992}, {"type": "node", "id": 7924536680, "lat": 17.4891767, "lon": 78.4072166}, {"type": "node", "id": 7924536681, "lat": 17.48862, "lon": 78.4076831}, {"type": "node", "id": 7963108861, "lat": 17.5054839, "lon": 78.3953535}, {"type": "node", "id": 7963108862, "lat": 17.5054391, "lon": 78.3958484}, {"type": "node", "id": 7963108863, "lat": 17.5057708, "lon": 78.3958814}, {"type": "node", "id": 7963108864, "lat": 17.5058156, "lon": 78.3953865}, {"type": "node", "id": 8007022925, "lat": 17.4998816, "lon": 78.3574735, "tags": {"addr:city": "Hyderabad", "addr:postcode": "500049", "addr:street": "Pragathi Enclave Colony, Miyapur", "amenity": "hospital", "emergency": "no", "healthcare": "hospital", "healthcare:speciality": "general;gynaecology", "name": "Tirumala Nursing home", "operator": "Individual", "operator:type": "private"}}, {"type": "node", "id": 8013052988, "lat": 17.4423249, "lon": 78.3665192}, {"type": "node", "id": 8013052989, "lat": 17.442449, "lon": 78.3663992}, {"type": "node", "id": 8013052990, "lat": 17.4425453, "lon": 78.3663408}, {"type": "node", "id": 8013052991, "lat": 17.4426444, "lon": 78.3660974}, {"type": "node", "id": 8013052992, "lat": 17.4427228, "lon": 78.3659137}, {"type": "node", "id": 8013052993, "lat": 17.4428834, "lon": 78.3655456}, {"type": "node", "id": 8013052994, "lat": 17.4430817, "lon": 78.3652975}, {"type": "node", "id": 8013052995, "lat": 17.4423601, "lon": 78.3664213}, {"type": "node", "id": 8013052996, "lat": 17.4423857, "lon": 78.3665554}, {"type": "node", "id": 8013052997, "lat": 17.4430535, "lon": 78.3667338}, {"type": "node", "id": 8013052998, "lat": 17.4430446, "lon": 78.3668183}, {"type": "node", "id": 8013052999, "lat": 17.4437124, "lon": 78.3668666}, {"type": "node", "id": 8013053000, "lat": 17.4437758, "lon": 78.3672729}, {"type": "node", "id": 8013053001, "lat": 17.4438186, "lon": 78.3674151}, {"type": "node", "id": 8013053002, "lat": 17.4440918, "lon": 78.3670744}, {"type": "node", "id": 8013053003, "lat": 17.4440214, "lon": 78.3669195}, {"type": "node", "id": 8013053004, "lat": 17.4440016, "lon": 78.3668961}, {"type": "node", "id": 8013053005, "lat": 17.4439798, "lon": 78.3668867}, {"type": "node", "id": 8013053006, "lat": 17.4439517, "lon": 78.3668907}, {"type": "node", "id": 8013053007, "lat": 17.4439191, "lon": 78.3668961}, {"type": "node", "id": 8013053008, "lat": 17.4438756, "lon": 78.3668947}, {"type": "node", "id": 8013053009, "lat": 17.4438583, "lon": 78.3668813}, {"type": "node", "id": 8013053010, "lat": 17.4437137, "lon": 78.3658011}, {"type": "node", "id": 8013053011, "lat": 17.4436043, "lon": 78.3651473}, {"type": "node", "id": 8013053012, "lat": 17.4434911, "lon": 78.3651553}, {"type": "node", "id": 8013053013, "lat": 17.4434322, "lon": 78.3649756}, {"type": "node", "id": 8013053014, "lat": 17.443344, "lon": 78.3649857}, {"type": "node", "id": 8013053015, "lat": 17.4432762, "lon": 78.3650775}, {"type": "node", "id": 8013184453, "lat": 17.4478347, "lon": 78.4368011}, {"type": "node", "id": 8013184454, "lat": 17.4484898, "lon": 78.4350121}, {"type": "node", "id": 8013184455, "lat": 17.4481162, "lon": 78.4367958}, {"type": "node", "id": 8013184456, "lat": 17.4473089, "lon": 78.4372075}, {"type": "node", "id": 8013184457, "lat": 17.4466679, "lon": 78.437925}, {"type": "node", "id": 8013184458, "lat": 17.4468598, "lon": 78.4383514}, {"type": "node", "id": 8013184459, "lat": 17.4456495, "lon": 78.4390783}, {"type": "node", "id": 8013184460, "lat": 17.4453987, "lon": 78.4391025}, {"type": "node", "id": 8013184461, "lat": 17.445171, "lon": 78.4385365}, {"type": "node", "id": 8013184462, "lat": 17.4442805, "lon": 78.4385151}, {"type": "node", "id": 8013184463, "lat": 17.4443266, "lon": 78.4382629}, {"type": "node", "id": 8013184464, "lat": 17.4442063, "lon": 78.4382173}, {"type": "node", "id": 8013184465, "lat": 17.4445057, "lon": 78.4371176}, {"type": "node", "id": 8013184466, "lat": 17.4445082, "lon": 78.4366026}, {"type": "node", "id": 8013184467, "lat": 17.4435947, "lon": 78.4362942}, {"type": "node", "id": 8013184468, "lat": 17.4438557, "lon": 78.4353206}, {"type": "node", "id": 8013184469, "lat": 17.444205, "lon": 78.4338628}, {"type": "node", "id": 8013184470, "lat": 17.4444814, "lon": 78.4327295}, {"type": "node", "id": 8013184471, "lat": 17.4445863, "lon": 78.432637}, {"type": "node", "id": 8013184472, "lat": 17.4467587, "lon": 78.4328127}, {"type": "node", "id": 8013184473, "lat": 17.448129, "lon": 78.4329548}, {"type": "node", "id": 8013184474, "lat": 17.4488838, "lon": 78.4330729}, {"type": "node", "id": 8020647753, "lat": 17.4248765, "lon": 78.4321541}, {"type": "node", "id": 8020647754, "lat": 17.4260648, "lon": 78.4320209}, {"type": "node", "id": 8020647755, "lat": 17.4248417, "lon": 78.4318347}, {"type": "node", "id": 8386162815, "lat": 17.5149211, "lon": 78.3975763, "tags": {"amenity": "hospital", "healthcare": "hospital", "name": "Holistic Hospital"}}, {"type": "node", "id": 8386643937, "lat": 17.5070065, "lon": 78.395168, "tags": {"amenity": "hospital", "healthcare": "hospital", "name": "VITAL'S Hospital"}}, {"type": "node", "id": 8747950688, "lat": 17.4446234, "lon": 78.384659, "tags": {"addr:district": "Rangareddy", "addr:full": "Vittal Rao Nagar, HITEC City, Madhapur", "addr:postcode": "500081", "addr:state": "Telangana", "amenity": "hospital", "healthcare": "hospital", "name": "Hegde Hospital", "source": "Local Knowledge"}}, {"type": "node", "id": 8748429666, "lat": 17.4554623, "lon": 78.3720097, "tags": {"addr:district": "Rangareddy", "addr:full": "Survey No.9, White Field Road, HITEC City", "addr:postcode": "500081", "addr:state": "Telangana", "amenity": "hospital", "healthcare": "hospital", "name": "Rainbow Children Hospital", "source": "Local Knowledge"}}, {"type": "node", "id": 8748479530, "lat": 17.4940229, "lon": 78.3470745, "tags": {"addr:district": "Rangareddy", "addr:full": "Mythri Nagar, Madinaguda Beside South India Shopping Mall, Hafeezpet", "addr:postcode": "500050", "addr:state": "Telangana", "amenity": "hospital", "name": "Pace Hospitals ,Madinaguda", "source": "Local Knowledge"}}, {"type": "node", "id": 8751771666, "lat": 17.4644176, "lon": 78.3682452, "tags": {"addr:district": "Rangareddy", "addr:full": "Door no 1-111/4/46 & 48/E beside NISUM, Khanamet Road, Kondapur, HITEC City", "addr:postcode": "500084", "addr:state": "Telangana", "amenity": "hospital", "healthcare": "hospital", "name": "Health Valley Hospital", "source": "Local Knowledge"}}, {"type": "node", "id": 8759319675, "lat": 17.4263881, "lon": 78.4204343, "tags": {"addr:district": "Hyderabad", "addr:full": "No. 8-2-269/3/1/4, Road No. 2, near NATCO Pharma, Park View Enclave, Banjara Hills, Hyderabad", "addr:postcode": "500034", "addr:state": "Telangana", "amenity": "hospital", "healthcare": "hospital", "healthcare:speciality": "fertility", "name": "Oasis Fertility Centre", "source": "Local Knowledge"}}, {"type": "node", "id": 8759381105, "lat": 17.4507108, "lon": 78.3631503, "tags": {"addr:district": "Hyderabad", "addr:full": "Plot NO.21, Level, 2, Jayabheri Enclave, Gachibowli, Hyderabad", "addr:postcode": "500032", "addr:state": "Telangana", "amenity": "hospital", "healthcare": "hospital", "name": "Praba's VCare Health Clinic (P) Ltd, Gachibowli", "source": "Local Knowledge"}}, {"type": "node", "id": 8759630720, "lat": 17.4535446, "lon": 78.4206489, "tags": {"addr:district": "Hyderabad", "addr:full": "Door no 8-3-167/K/28, Moti Nagar", "addr:postcode": "500018", "addr:state": "Telangana", "amenity": "hospital", "name": "Dr Naveen Reddy Hospital", "source": "Local Knowledge"}}, {"type": "node", "id": 8760246825, "lat": 17.4272659, "lon": 78.4143269, "tags": {"addr:district": "Hyderabad", "addr:full": "Rd Number 45, Jubilee Hills, Hyderabad", "addr:postcode": "500033", "addr:state": "Telangana", "amenity": "hospital", "healthcare": "hospital", "name": "MAA E.N.T. Hospitals", "source": "Local Knowledge"}}, {"type": "node", "id": 8760672940, "lat": 17.4853838, "lon": 78.4109567, "tags": {"addr:district": "Medchal", "addr:full": "Balaji Nagar, Kukatpally, Hyderabad", "addr:postcode": "500072", "addr:state": "Telangana", "amenity": "hospital", "name": "OMNI Hospitals", "source": "Local Knowledge"}}, {"type": "node", "id": 8760794581, "lat": 17.4855041, "lon": 78.3908053, "tags": {"addr:district": "Medchal", "addr:full": "Kukatpally Housing Board Colony, Kukatpally, Hyderabad", "addr:postcode": "500085", "addr:state": "Telangana", "amenity": "hospital", "check_date": "2024-03-16", "name": "Remedy Hospitals", "source": "Local Knowledge"}}, {"type": "node", "id": 8760895243, "lat": 17.48884, "lon": 78.4083858, "tags": {"addr:district": "Medchal", "addr:full": "1-6, Kukatpally, Hyderabad", "addr:postcode": "500072", "addr:state": "Telangana", "amenity": "hospital", "name": "Sivananda Rehabilitation Home", "source": "Local Knowledge"}}, {"type": "node", "id": 8760905236, "lat": 17.4908668, "lon": 78.3970173, "tags": {"addr:district": "Medchal", "addr:full": "Rd Number 4, opposite global Edge School, Kukatpally Housing Board Colony, Hyderabad", "addr:postcode": "500072", "addr:state": "Telangana", "amenity": "hospital", "name": "Cosmo Derma", "source": "Local Knowledge"}}, {"type": "node", "id": 8760926820, "lat": 17.4869463, "lon": 78.3994145, "tags": {"addr:district": "Medchal", "addr:full": "Road Number 1, KPHB Phase 2, Kukatpally, Hyderabad", "addr:postcode": "500072", "addr:state": "Telangana", "amenity": "hospital", "check_date": "2024-03-16", "name": "Padmaja Hospital", "source": "Local Knowledge"}}, {"type": "node", "id": 8763119685, "lat": 17.4919994, "lon": 78.3972386, "tags": {"addr:district": "Medchal", "addr:full": "Kukatpally Housing Board Colony, Kukatpally, Hyderabad", "addr:postcode": "500072", "addr:state": "Telangana", "amenity": "hospital", "check_date": "2024-03-16", "name": "K K Reddy Hospital", "source": "Local Knowledge"}}, {"type": "node", "id": 8763123207, "lat": 17.4928129, "lon": 78.397999, "tags": {"addr:district": "Medchal", "addr:full": "H.No.261, Rd Number 4, Kukatpally Housing Board Colony, Kukatpally", "addr:postcode": "500072", "addr:state": "Telangana", "amenity": "hospital", "check_date": "2024-03-16", "name": "Goutam Neuro Care", "source": "Local Knowledge"}}, {"type": "node", "id": 8763135141, "lat": 17.4881237, "lon": 78.3949721, "tags": {"addr:district": "Medchal", "addr:full": "Road No 4, 3rd Phase, KPHB Behind Temple Bus Stop", "addr:postcode": "500072", "addr:state": "Telangana", "amenity": "hospital", "check_date": "2024-03-16", "name": "Dr. Rao's ENT Super Speciality International Hospital", "source": "Local Knowledge"}}, {"type": "node", "id": 8763316074, "lat": 17.4951229, "lon": 78.3574077, "tags": {"addr:district": "Medchal", "addr:full": "Jagdish Complex,Miyapur Main Road, Ambedkar Nagar, Miyapur", "addr:postcode": "500049", "addr:state": "Telangana", "amenity": "hospital", "name": "Udbhava Hospital ,Miyapur", "source": "Local Knowledge"}}, {"type": "node", "id": 8763496906, "lat": 17.4847174, "lon": 78.4129804, "tags": {"addr:district": "Medchal", "addr:full": "H.No:5-1-97/B/NR, near Old Shivalayam Temple Complex, Hyderabad", "addr:postcode": "500072", "addr:state": "Telangana", "amenity": "hospital", "name": "Ananya Hospital", "source": "Local Knowledge"}}, {"type": "node", "id": 8763519730, "lat": 17.4829023, "lon": 78.4134217, "tags": {"addr:district": "Medchal", "addr:full": "6-2/200, M J Colony, Vivek Nagar, Kukatpally, Hyderabad", "addr:postcode": "500072", "addr:state": "Telangana", "amenity": "hospital", "name": "People's Hospital", "source": "Local Knowledge"}}, {"type": "node", "id": 8891813172, "lat": 17.4274056, "lon": 78.4321671, "tags": {"amenity": "hospital", "healthcare": "hospital", "name": "Ferticare IVF Asist"}}, {"type": "node", "id": 8909248529, "lat": 17.4452155, "lon": 78.4324096, "tags": {"amenity": "hospital", "healthcare": "hospital", "name": "DTC TB Unit Erragadda"}}, {"type": "node", "id": 8909248538, "lat": 17.4472339, "lon": 78.4326449, "tags": {"amenity": "hospital", "healthcare": "hospital", "name": "Dr.Vivek's Multispeciality Dental care"}}, {"type": "node", "id": 9728614166, "lat": 17.5026194, "lon": 78.4207649, "tags": {"amenity": "hospital", "healthcare": "hospital", "healthcare:speciality": "general", "name": "balaji hospital"}}, {"type": "node", "id": 9903987801, "lat": 17.5020291, "lon": 78.3889724}, {"type": "node", "id": 9903987802, "lat": 17.5020423, "lon": 78.3889444, "tags": {"addr:city": "hyderabad", "addr:postcode": "500072", "addr:street": "Nizampet Road", "amenity": "hospital", "healthcare": "hospital", "name": "sri sri holistic hospitals"}}, {"type": "node", "id": 10150942414, "lat": 17.4605484, "lon": 78.3547514, "tags": {"amenity": "hospital", "healthcare": "hospital"}}, {"type": "node", "id": 10262032093, "lat": 17.4545551, "lon": 78.421903}, {"type": "node", "id": 10262032094, "lat": 17.4545733, "lon": 78.4220719}, {"type": "node", "id": 10262032095, "lat": 17.4543666, "lon": 78.4221133}, {"type": "node", "id": 10262032096, "lat": 17.4543651, "lon": 78.4219428}, {"type": "node", "id": 10262032097, "lat": 17.4545577, "lon": 78.4219275}, {"type": "node", "id": 10277933502, "lat": 17.4938811, "lon": 78.4104042}, {"type": "node", "id": 10277933503, "lat": 17.4938479, "lon": 78.4104381}, {"type": "node", "id": 10277933504, "lat": 17.4937713, "lon": 78.4105209}, {"type": "node", "id": 10277933505, "lat": 17.49384, "lon": 78.4105971}, {"type": "node", "id": 10277933506, "lat": 17.4939537, "lon": 78.4104803}, {"type": "node", "id": 10790318146, "lat": 17.4310175, "lon": 78.3716983, "tags": {"amenity": "hospital", "brand": "Dr Agarwals", "healthcare": "hospital", "name": "Dr Agarwals Eye Hospital", "operator": "Dr. Agarwal's Eye Hospital", "operator:type": "private", "operator:wikidata": "Q17052044"}}, {"type": "node", "id": 11005951281, "lat": 17.4448127, "lon": 78.4219109, "tags": {"addr:district": "Hyderabad", "addr:place": "Taj Enclave", "addr:state": "Telangana", "addr:street": "6-1-968", "addr:subdistrict": "Khairatabad", "amenity": "hospital", "healthcare": "hospital", "name": "CHC KHAIRATABAD", "operational_status": "operational", "operator:type": "government", "source": "OpenDataTelangana"}}, {"type": "node", "id": 11005968513, "lat": 17.4485486, "lon": 78.4248854, "tags": {"addr:district": "Hyderabad", "addr:place": "Opp. Old Police Station", "addr:state": "Telangana", "addr:street": "BALKAMPET ROAD", "addr:subdistrict": "Ameerpet", "amenity": "hospital", "healthcare": "hospital", "name": "Community Health Centre, AMEERPET", "operational_status": "operational", "operator:type": "government"}}, {"type": "node", "id": 11082456129, "lat": 17.4566753, "lon": 78.4115501, "tags": {"amenity": "hospital", "healthcare": "hospital", "name": "Maholla Clinic"}}, {"type": "node", "id": 11082456132, "lat": 17.4564341, "lon": 78.4103806, "tags": {"amenity": "hospital", "healthcare": "hospital", "healthcare:speciality": "general;diabetology", "name": "Mohammadi Clinic"}}, {"type": "node", "id": 11736376192, "lat": 17.4915484, "lon": 78.3910656, "tags": {"amenity": "hospital", "check_date": "2024-03-16", "healthcare": "hospital", "name": "JNTU Hospital"}}, {"type": "node", "id": 11770988839, "lat": 17.4364246, "lon": 78.3675806, "tags": {"amenity": "hospital", "check_date": "2024-03-29", "healthcare": "hospital", "name": "Omega Hospitals"}}, {"type": "node", "id": 11770993373, "lat": 17.4771569, "lon": 78.4204028, "tags": {"amenity": "hospital", "check_date": "2024-03-29", "healthcare": "hospital", "name": "Amar Hospitals"}}, {"type": "node", "id": 11770993380, "lat": 17.4622687, "lon": 78.384176, "tags": {"amenity": "hospital", "check_date": "2024-03-29", "healthcare": "hospital", "name": "Yashoda Hospitals"}}, {"type": "node", "id": 11821271825, "lat": 17.4538625, "lon": 78.421752, "tags": {"addr:city": "HYDERABAD", "addr:district": "Hyderabad", "addr:housenumber": "K/21, 8-3-167, Kalyan Nagar Phase 3 Rd, phase-3, Pramila Enclave", "addr:postcode": "500018", "addr:street": "Kalyan Nagar", "amenity": "hospital", "emergency": "yes", "healthcare": "hospital", "healthcare:speciality": "general;orthopaedics;urology;paediatrics;radiology;emergency;cardiology;blood_check", "name": "Sunridge Multi-Speciality Hospital", "operator": "http://sunridgehospital.com/", "operator:type": "private"}}, {"type": "node", "id": 11934311883, "lat": 17.4487092, "lon": 78.4338427, "tags": {"addr:district": "Hyderabad", "addr:place": "Ag Colony Rd, Vikaspuri, Erragadda,Hyderabad", "addr:state": "Telangana", "addr:street": "AG COLONY ROAD", "addr:subdistrict": "Ameerpet", "amenity": "hospital", "healthcare": "hospital", "name": "Government Ayurvedic Hospital, Erragadda, Hyderabad", "operational_status": "operational", "operator:type": "government", "source": "OpenDataTelangana"}}, {"type": "node", "id": 11936671649, "lat": 17.4454284, "lon": 78.434959, "tags": {"addr:district": "Hyderabad", "addr:place": "Erragadda, Hyderabad", "addr:state": "Telangana", "addr:street": "Erragadda", "addr:subdistrict": "Khairatabad", "amenity": "hospital", "healthcare": "hospital", "name": "Government Chest Hospital", "operational_status": "operational", "operator:type": "government", "source": "OpenDataTelangana"}}, {"type": "node", "id": 11940092750, "lat": 17.4506724, "lon": 78.4361121, "tags": {"addr:district": "Hyderabad", "addr:place": "Main Road, Erragadda, Hyderabad", "addr:state": "Telangana", "addr:street": "Main Road, Erragadda,", "addr:subdistrict": "Khairatabad", "amenity": "hospital", "healthcare": "hospital", "name": "Institute of Mental Health", "operational_status": "operational", "operator:type": "government", "source": "OpenDataTelangana"}}, {"type": "node", "id": 12951255501, "lat": 17.4635854, "lon": 78.3530355}, {"type": "node", "id": 12952102468, "lat": 17.4910021, "lon": 78.4066058}, {"type": "node", "id": 12952102469, "lat": 17.4910369, "lon": 78.4068468}, {"type": "node", "id": 12952102470, "lat": 17.4906757, "lon": 78.4065998}, {"type": "node", "id": 12952102471, "lat": 17.4904643, "lon": 78.4065485}, {"type": "node", "id": 12952102472, "lat": 17.4902813, "lon": 78.4064649}, {"type": "node", "id": 12952102473, "lat": 17.489913, "lon": 78.4063071}, {"type": "node", "id": 12952102474, "lat": 17.4896896, "lon": 78.406173}, {"type": "node", "id": 12952102477, "lat": 17.4895615, "lon": 78.4068929}, {"type": "node", "id": 12952102478, "lat": 17.4894234, "lon": 78.4067965}, {"type": "node", "id": 12952102479, "lat": 17.4899688, "lon": 78.4071671}, {"type": "node", "id": 13020731415, "lat": 17.4731157, "lon": 78.3872398, "tags": {"addr:city": "Hyderabad", "addr:district": "Hyderabad", "addr:housenumber": "4th Floor", "addr:postcode": "500072", "addr:street": "MMTS Station Rd, beside Jehovah House of Worship, near Hitech City, K P H B Phase 7, Kukatpally, Hyderabad,", "amenity": "hospital", "healthcare": "hospital", "healthcare:speciality": "skin_care;hair_care;aesthetic_clinic;dermatologist_clinic", "name": "Reborn Skin and Hair Clinic", "operator": "https://rebornclinics.in/", "operator:type": "private"}}, {"type": "node", "id": 13169104952, "lat": 17.473193, "lon": 78.3871998, "tags": {"addr:city": "Hyderabad", "addr:district": "Hyderabad", "addr:housenumber": "Plot No 59", "addr:postcode": "500085", "addr:street": "Hitech - Kukatpally Main Road", "amenity": "hospital", "contact:facebook": "https://www.facebook.com/saiayushayurveda", "email": "info@saiayushayurveda.com", "healthcare": "hospital", "healthcare:speciality": "ayurveda;naturopathy;physiotherapy", "internet_access:ssid": "saiayush", "mobile": "+918142328080", "name": "Sai Ayush Ayurveda Hospital - wellness Hyderabad", "opening_hours": "Mo-Su 07:00-22:00", "payment:app": "yes", "payment:cards": "yes", "payment:cash": "yes", "payment:contactless": "yes", "payment:credit_cards": "yes", "payment:debit_cards": "yes", "payment:mastercard": "yes", "payment:visa": "yes", "start_date": "2025-02-02", "website": "https://saiayushayurveda.com/", "wheelchair": "yes"}}, {"type": "node", "id": 13285248846, "lat": 17.4482414, "lon": 78.3605759, "tags": {"amenity": "hospital", "check_date": "2025-11-06", "healthcare": "hospital", "name": "Pi Health Hospital"}}, {"type": "node", "id": 13423743515, "lat": 17.4276743, "lon": 78.3749073, "tags": {"amenity": "hospital", "emergency": "yes", "healthcare": "hospital", "name": "Arete Hospitals"}}, {"type": "way", "id": 200173462, "nodes": [2101693336, 12951255501, 2101693337, 2101693335, 2101693334, 2101693336], "tags": {"addr:district": "Hyderabad", "addr:full": "1-55/3, Near Chirec International School, Kondapur", "addr:postcode": "500084", "addr:state": "Telangana", "addr:street": "Sri Ram Nagar", "addr:subdistrict": "Serilingampally", "amenity": "hospital", "emergency": "yes", "healthcare": "hospital", "landuse": "hospital Grounds", "name": "Government Area Hospital, Kondapur", "source": "OpenGovernmentData"}}, {"type": "way", "id": 238860802, "nodes": [2466596569, 6484944575, 2466596566, 12952102479, 12952102477, 12952102478, 2466596561, 12952102474, 12952102473, 2466596562, 12952102472, 12952102471, 12952102470, 12952102468, 2466596572, 4622047587, 12952102469, 2466596569], "tags": {"addr:district": "Hyderabad", "addr:full": "1- 6, Opposite Vivekananda Nagar Colony, Kukatpally", "addr:postcode": "500072", "addr:state": "Telangana", "amenity": "hospital", "healthcare": "hospital", "landuse": "Hospital Grounds", "name": "Ramdev Rao Hospital", "source": "OpenGovernmentData", "website": "http://www.sivanandarehab.org/ramdev.html"}}, {"type": "way", "id": 251804751, "nodes": [2579750830, 2579750832, 2579750834, 2579750835, 2579750830], "tags": {"addr:district": "Hyderabad", "addr:full": "HIG No.15, JNTU, Hi tech City Road, KPHB, Kukatpally", "addr:postcode": "500071", "addr:state": "Telangana", "amenity": "hospital", "building": "yes", "check_date": "2024-03-16", "email": "frontoffice.kp@lotushospitals.in", "emergency": "yes", "health_facility:type": "X Ray; CT Scan and Ultrasound; Radiology and Imaging Services", "healthcare:speciality": "Pediatrics", "medical_system": "Allopathic", "name": "Lotus Hospitals, Kukatpally", "operator:type": "private", "phone": "040-40406666", "source": "OpenGovernmentData", "website": "https://www.lotushospitals.in/"}}, {"type": "way", "id": 331631567, "nodes": [3387338154, 3387338155, 3387338156, 3504313626, 3387338157, 3387338154], "tags": {"amenity": "hospital", "check_date": "2024-03-16", "healthcare": "hospital", "name": "Apollo Hospital"}}, {"type": "way", "id": 341185823, "nodes": [7246482631, 3483976672, 3483976673, 3483976674, 7246482631], "tags": {"amenity": "hospital", "building": "hospital", "check_date": "2024-03-16", "healthcare": "hospital", "name": "Remedy Hospital"}}, {"type": "way", "id": 341192059, "nodes": [3484033409, 3484033410, 3484033411, 3484033412, 3484033409], "tags": {"addr:district": "Hyderabad", "addr:full": "Road Number 4, K P H B Colony, Kukatpally", "addr:postcode": "500072", "addr:state": "Telangana", "amenity": "hospital", "building": "yes", "building:levels": "4", "check_date": "2024-03-16", "contact:mobile": "9666363699", "health_facility:type": "24 Hours Emergency Rooms;24 Hour Pharmacy;24 Hour Laboratory;24 Hour Ambulance", "healthcare": "hospital", "healthcare:speciality": "Emergency Services and Trauma Care Unit;Internal Medicine;General Surgery;Orthopaedics;Cardiology;ENT;Neurology;Surgeries;Gynecology and Obstretrics;Urology;Plastic Surgery", "medical_system": "Allopathic", "name": "Remedy Hosptials", "operator:type": "private", "phone": "040 41418787;040 23158787", "source": "OpenGovernmentData", "website": "https://www.remedyhospitals.in/"}}, {"type": "way", "id": 343606383, "nodes": [3504308696, 3504308697, 3504308698, 3504308699, 3504308696], "tags": {"addr:city": "Hyderabad", "addr:postcode": "500085", "addr:street": "Nizampet Road", "amenity": "hospital", "healthcare": "hospital", "healthcare:speciality": "general;stomatology", "name": "lahari dental hospital"}}, {"type": "way", "id": 355678228, "nodes": [3612481256, 6237898985, 3612481217, 3612481224, 3612481256], "tags": {"amenity": "hospital", "building": "yes", "check_date": "2024-03-16", "healthcare": "hospital", "name": "Kiran Skin Care Hospital"}}, {"type": "way", "id": 355678288, "nodes": [3612482968, 9903987801, 3612483049, 3612483056, 3612482977, 3612482968], "tags": {"addr:district": "Hyderabad", "addr:full": "#1-2-49/13B, Nizampet Road, Hydernagar, Nagarjuna Homes, Kukatpally", "addr:postcode": "500072", "addr:state": "Telangana", "amenity": "hospital", "building": "yes", "email": "admn.srisriholistic@gmail.com", "health_facility:type": "State Of The Theatres;Joint Replacement Computerized Navigation;Advanced Lab Equipment;Advanced Energy Equipment;OCT", "healthcare:speciality": "Joint Replacement Sugery;Cardiology;Gastroenterology;Respiratory Medicine;Neurology;Urology;Nephrology;Laparoscopic Surgery;Infertility Cente;Retinal;Cataract and Glaucoma Services", "medical_system": "Allopathic", "name": "Sri Sri Holistic Hospitals", "operator:type": "private", "phone": "040-44108108", "source": "OpenGovernmentData", "website": "http://www.srisriholistic.com"}}, {"type": "way", "id": 356159628, "nodes": [3616700284, 3616700287, 3616700286, 3616700283, 3616700284], "tags": {"addr:district": "Hyderabad", "addr:full": "Plot No:23, Huda Techno Enclave, Patrika Nagar, Beside Avasa Hotel, Pillar No. 18, MADHAPUR", "addr:postcode": "500081", "addr:state": "Telangana", "amenity": "hospital", "building": "yes", "building:levels": "5", "contact:phone": "040 48486868", "healthcare": "hospital", "name": "Pace Hospitals", "operator:type": "private", "source": "OpenGovernmentData"}}, {"type": "way", "id": 356234454, "nodes": [3617125872, 3617125855, 3617125834, 3617125854, 3617125872], "tags": {"amenity": "hospital", "healthcare": "hospital", "name": "DR SHARATH CHANDRA"}}, {"type": "way", "id": 356261664, "nodes": [3617313422, 3617313413, 3617313401, 3617313409, 3617313422], "tags": {"addr:city": "Hyderabad", "addr:housenumber": "49", "addr:postcode": "500045", "addr:street": "Road no 2, Jubilee Hills", "amenity": "hospital", "healthcare": "hospital", "name": "Lakshmi Narayana Speciality Clinics", "website": "https://www.facebook.com/lnsclinics"}}, {"type": "way", "id": 417241491, "nodes": [4178240772, 4178240775, 4178240767, 4178240768, 4178240756, 4178240757, 4178240760, 4178240763, 4178240782, 4178240783, 4178240779, 4178240781, 4178240766, 4178240769, 4178240762, 4178240759, 4178240746, 4178240745, 4178240738, 4178240736, 4178240740, 4178240739, 4178240743, 4178240744, 6538865408, 4178240747, 4178240753, 4178240752, 4178240755, 4178240754, 4178240750, 4178240749, 4178240737, 4178240735, 4178240742, 4178240741, 4178240764, 4178240765, 4178240772], "tags": {"addr:district": "Hyderabad", "addr:full": "Opposite ESI Hospital", "addr:postcode": "500038", "addr:state": "Telangana", "addr:street": "Erragadda", "addr:subdistrict": "Khairatabad", "amenity": "hospital", "building": "yes", "contact:phone": "040 23814421; 040 23814422", "name": "Government General and Chest Hospital", "source": "OpenGovernmentData"}}, {"type": "way", "id": 630869585, "nodes": [5956425355, 5956425356, 5956425357, 4452950392, 5956425355], "tags": {"addr:street": "Hi Tech City Main Road", "amenity": "hospital", "check_date": "2024-03-29", "healthcare": "hospital", "internet_access": "wlan", "name": "Care Hospitals", "name:en": "Care Hospitals", "opening_hours": "24/7", "phone": "040-33623500", "website": "https://www.carehospitals.com/hitechcity/"}}, {"type": "way", "id": 642171981, "nodes": [6046241877, 6046241878, 6046241879, 6046241880, 6046241877], "tags": {"amenity": "hospital", "building": "yes", "healthcare": "hospital"}}, {"type": "way", "id": 660771331, "nodes": [6186448328, 6186448329, 6186448330, 6186448331, 6186448328], "tags": {"addr:district": "Hyderabad", "addr:full": "Kallam Anji Reddy Campus, L V Prasad Marg, Opp. PVR Cinemas, Banjara Hills", "addr:postcode": "500034", "addr:state": "Telangana", "amenity": "hospital", "email": "communications@lvpei.org", "emergency_telephone_code": "040 30612100;09347573377", "healthcare": "hospital", "healthcare:speciality": "ophthalmology", "medical_system": "Allopathic", "name": "L V Prasad Eye Institute", "name:etymology:wikidata": "Q6456668", "operator:type": "private", "phone": "040 30612345;040 39892020", "source": "OpenGovernmentData", "website": "https://www.lvpei.org/", "wikidata": "Q6456669", "wikimedia_commons": "Category:L. V. Prasad Eye Institute", "wikipedia": "en:L. V. Prasad Eye Institute"}}, {"type": "way", "id": 691648389, "nodes": [6490630817, 6490630818, 6490630819, 6490630820, 6490630817], "tags": {"addr:district": "Hyderabad", "addr:full": "Plot No.-27, Kphb Main Road, Opposite Arjun Theatre, Kukatpally", "addr:postcode": "500072", "addr:state": "Telangana", "amenity": "hospital", "building": "yes", "check_date": "2024-03-16", "healthcare": "hospital", "name": "Mamtha Hospital", "source": "OpenGovernmentData"}}, {"type": "way", "id": 849386241, "nodes": [7924536681, 7924536680, 3523097906, 7924536679, 7924536681], "tags": {"addr:city": "Hyderabad", "addr:full": "Opp. METRO PILLAR NO. KPH 28, KUKATPALLY MAIN ROAD", "addr:postcode": "500072", "addr:state": "Telangana", "addr:street": "Opp. Metro Pillar No:A-782, Kukatpally Main Road, NH65, Kukatpally, Hyderabad, Telangana 500072", "amenity": "hospital", "contact:phone": "040 23050960;040 23050961", "name": "Aakar Asha Hospital", "operator:type": "private", "source": "OpenGovernmentData", "website": "https://www.aakarasha.org"}}, {"type": "way", "id": 853755273, "nodes": [7963108864, 7963108863, 7963108862, 7963108861, 7963108864], "tags": {"addr:city": "Pragathi Nagar", "addr:district": "Hyderabad", "addr:postcode": "500090", "addr:street": "High Tension Line Road", "amenity": "hospital", "healthcare": "hospital", "healthcare:speciality": "general", "name": "Prasad Hospital"}}, {"type": "way", "id": 859663303, "nodes": [8013052999, 8013052998, 8013052997, 8013052996, 8013052988, 8013052995, 8013052989, 8013052990, 8013052991, 8013052992, 8013052993, 8013052994, 8013053015, 8013053014, 8013053013, 8013053012, 8013053011, 8013053010, 6549425557, 8013053009], "tags": {"barrier": "wall", "source": "OpenGovernmentData"}}, {"type": "way", "id": 859679417, "nodes": [8013184474, 8013184473, 8013184472, 8013184471, 8013184470, 8013184469, 8013184468, 8013184467, 8013184466, 8013184465, 8013184464, 8013184463, 8013184462, 8013184461, 8013184460, 8013184459, 8013184458, 8013184457, 8013184456, 8013184453, 8013184455, 8013184454, 8013184474], "tags": {"amenity": "hospital", "operator": "Telangana Goverment"}}, {"type": "way", "id": 860550549, "nodes": [8020647755, 5482634949, 8020647754, 8020647753, 8020647755], "tags": {"addr:district": "Hyderabad", "addr:full": "Road No. 2, Banjara Hills, Near LV Prasad Eye Hospital, Next to Hotel Park Hyatt", "addr:postcode": "500034", "addr:state": "Telangana", "amenity": "hospital", "contact:email": "info@rainbowhospitals.in", "emergency_telephone_code": "040 22334455;040 23319191", "healthcare": "hospital", "healthcare:speciality": "General Pediatrics;Neonatology;Pediatric Neurology;Pediatric Intensive Care Unit;Anasthesia and Pain Management;Pediatric Gastroenterology;Pediatric Nephrology;Hematology and Oncology;ENT;Psychiatry;Pediatric Cardiology;Speech and Language Therapy", "medical_system": "Allopathic", "name": "Rainbow Children\u2019s Hospital", "name:te": "\u0c30\u0c46\u0c2f\u0c3f\u0c28\u0c4d\u0c2c\u0c4b \u0c2a\u0c3f\u0c32\u0c4d\u0c32\u0c32 \u0c39\u0c3e\u0c38\u0c4d\u0c2a\u0c3f\u0c1f\u0c32\u0c4d", "operator:type": "private", "phone": "04023319191;04044665555", "source": "OpenGovernmentData", "website": "https://www.rainbowhospitals.in/"}}, {"type": "way", "id": 872949694, "nodes": [8013053009, 8013053008, 8013053007, 8013053006, 8013053005, 8013053004, 8013053003, 8013053002, 8013053001, 8013053000, 8013052999], "tags": {"source": "OpenGovernmentData"}}, {"type": "way", "id": 1122005587, "nodes": [10262032093, 10262032097, 10262032094, 10262032095, 10262032096, 10262032093], "tags": {"addr:city": "HYDERABAD", "addr:street": "Moti nagar", "amenity": "hospital", "healthcare": "hospital", "name": "Maxwell Hospital"}}, {"type": "way", "id": 1123874129, "nodes": [10277933502, 10277933503, 10277933504, 10277933505, 10277933506, 10277933502], "tags": {"amenity": "hospital", "healthcare": "hospital", "name": "Ragi hospital"}}, {"type": "relation", "id": 11902466, "members": [{"type": "way", "ref": 872949694, "role": "outer"}, {"type": "way", "ref": 859663303, "role": "outer"}], "tags": {"addr:city": "Hyderabad", "addr:district": "Rangareddy", "addr:full": "Plot No 2/3/4/5, Survey No. 136/1, Mindspace Road, Gachibowli", "addr:postcode": "500032", "addr:state": "Telangana", "amenity": "hospital", "contact:email": "info@aighospitals.com", "contact:phone": "040 42444222", "description": "A UNIT OF ASIAN INSTITUTE OF GASTROENTEROLOGY PVT LTD", "healthcare": "hospital", "name": "AIG HOSPITALS", "operator:type": "private", "type": "multipolygon", "website": "https://aighospitals.com"}}]}