{"version": 0.6, "generator": "Overpass API 0.7.62.8 e802775f", "osm3s": {"timestamp_osm_base": "2026-01-11T23:51:15Z", "copyright": "The data included in this document is from www.openstreetmap.org. The data is made available under ODbL."}, "elements": [{"type": "node", "id": 31234700, "lat": -36.8332438, "lon": 174.7953326, "tags": {"ferry": "yes", "local_ref": "1", "name": "Devonport Pier 1", "network": "AT", "network:wikidata": "Q4819567", "official_name": "Devonport Ferry Terminal", "public_transport": "stop_position", "ref": "9670"}}, {"type": "node", "id": 342769903, "lat": -36.8091362, "lon": 174.8625308, "tags": {"amenity": "ferry_terminal", "fare_gates": "no", "ferry": "yes", "loc_ref": "1", "name": "Rangitoto Wharf", "name:en": "Rangitoto Wharf", "name:mk": "\u041f\u0440\u0438\u0441\u0442\u0430\u043d \u201e\u0420\u0430\u043d\u0433\u0438\u0442\u043e\u0442\u043e\u201c", "network": "AT", "network:wikidata": "Q4819567", "official_name": "Rangitoto Ferry Terminal", "public_transport": "stop_position", "ref": "9760", "wikidata": "Q131225835"}}, {"type": "node", "id": 1724361660, "lat": -36.8308767, "lon": 174.8028909}, {"type": "node", "id": 2085588282, "lat": -36.8161718, "lon": 174.8039516, "tags": {"bus": "yes", "highway": "bus_stop", "name": "Morrison Avenue", "name:en": "Morrison Avenue", "name:mi": "Te Arah\u0101ngai o Morrison", "network": "AT", "network:wikidata": "Q4819567", "operator": "Auckland Transport", "public_transport": "platform", "ref": "3461"}}, {"type": "node", "id": 2085588283, "lat": -36.8164954, "lon": 174.8043455, "tags": {"bus": "yes", "description": "glass", "highway": "bus_stop", "name": "Morrison Avenue", "name:en": "Morrison Avenue", "name:mi": "Te Arah\u0101ngai o Morrison", "network": "AT", "network:wikidata": "Q4819567", "operator": "Auckland Transport", "public_transport": "platform", "ref": "3496", "shelter": "yes"}}, {"type": "node", "id": 2085588284, "lat": -36.8178445, "lon": 174.8051591, "tags": {"bus": "yes", "description": "glass", "highway": "bus_stop", "name": "Ascot Avenue", "name:en": "Ascot Avenue", "name:mi": "Te Arah\u0101ngai o Ascot", "network": "AT", "network:wikidata": "Q4819567", "operator": "Auckland Transport", "public_transport": "platform", "ref": "3459", "shelter": "yes"}}, {"type": "node", "id": 2085588285, "lat": -36.8179532, "lon": 174.8054282, "tags": {"bus": "yes", "description": "glass", "highway": "bus_stop", "name": "Ascot Avenue", "name:en": "Ascot Avenue", "name:mi": "Te Arah\u0101ngai o Ascot", "network": "AT", "network:wikidata": "Q4819567", "operator": "Auckland Transport", "public_transport": "platform", "ref": "3494", "shelter": "yes"}}, {"type": "node", "id": 2085588287, "lat": -36.820665, "lon": 174.8050314, "tags": {"bus": "yes", "highway": "bus_stop", "name": "Vauxhall Road Shops", "name:en": "Vauxhall Road Shops", "name:mi": "Ng\u0101 Toa o te Huarahi o Vauxhall", "network": "AT", "network:wikidata": "Q4819567", "operator": "Auckland Transport", "public_transport": "platform", "ref": "3457"}}, {"type": "node", "id": 2085588289, "lat": -36.8215894, "lon": 174.8048403, "tags": {"bus": "yes", "highway": "bus_stop", "name": "Vauxhall Road Shops", "name:en": "Vauxhall Road Shops", "name:mi": "Ng\u0101 Toa o te Huarahi o Vauxhall", "network": "AT", "network:wikidata": "Q4819567", "operator": "Auckland Transport", "public_transport": "platform", "ref": "3478"}}, {"type": "node", "id": 2085588297, "lat": -36.822842, "lon": 174.8042486, "tags": {"bench": "yes", "bin": "no", "bus": "yes", "description": "wooden", "highway": "bus_stop", "name": "Albert Road", "network": "AT", "network:wikidata": "Q4819567", "operator": "Auckland Transport", "public_transport": "platform", "ref": "3439", "shelter": "yes", "tactile_paving": "no"}}, {"type": "node", "id": 2085588300, "lat": -36.8231107, "lon": 174.8042961, "tags": {"access": "no", "bus": "yes", "highway": "bus_stop", "name": "Albert Road", "network": "AT", "network:wikidata": "Q4819567", "public_transport": "platform", "ref": "3480", "school_bus": "designated"}}, {"type": "node", "id": 2085588313, "lat": -36.8253945, "lon": 174.8033857, "tags": {"access": "no", "bus": "yes", "highway": "bus_stop", "name": "Devonport Museum", "network": "AT", "network:wikidata": "Q4819567", "public_transport": "platform", "ref": "4234", "school_bus": "designated", "shelter": "yes"}}, {"type": "node", "id": 2085588436, "lat": -36.8261796, "lon": 174.7965014, "tags": {"bench": "yes", "bin": "no", "bus": "yes", "description": "shelter under shop awning", "highway": "bus_stop", "lit": "no", "name": "Saint Pauls Devonport", "network": "AT", "network:wikidata": "Q4819567", "official_name": "St Pauls Devonport", "operator": "Auckland Transport", "public_transport": "platform", "ref": "3405", "shelter": "no", "tactile_paving": "no"}}, {"type": "node", "id": 2085588445, "lat": -36.8263302, "lon": 174.7966512, "tags": {"bench": "yes", "bus": "yes", "description": "glass", "highway": "bus_stop", "name": "Saint Pauls Devonport", "network": "AT", "network:wikidata": "Q4819567", "official_name": "St Pauls Devonport", "operator": "Auckland Transport", "public_transport": "platform", "ref": "3434", "shelter": "yes"}}, {"type": "node", "id": 2085588457, "lat": -36.8270863, "lon": 174.8081617, "tags": {"bus": "yes", "highway": "bus_stop", "name": "Devonport Domain", "name:en": "Devonport Domain", "name:mi": "Te Papa Raurarahi o Devonport", "network": "AT", "network:wikidata": "Q4819567", "official_name": "12 Cheltenham Rd", "operator": "Auckland Transport", "public_transport": "platform", "ref": "3468"}}, {"type": "node", "id": 2085588469, "lat": -36.8275262, "lon": 174.7966703, "tags": {"bench": "no", "bin": "no", "bus": "yes", "highway": "bus_stop", "lit": "no", "name": "Hastings Parade", "network": "AT", "network:wikidata": "Q4819567", "operator": "Auckland Transport", "public_transport": "platform", "ref": "3407", "shelter": "no", "tactile_paving": "no"}}, {"type": "node", "id": 2085588473, "lat": -36.8275761, "lon": 174.7968049, "tags": {"bench": "no", "bin": "no", "bus": "yes", "highway": "bus_stop", "lit": "no", "name": "Hastings Parade", "network": "AT", "network:wikidata": "Q4819567", "operator": "Auckland Transport", "public_transport": "platform", "ref": "3436", "shelter": "no", "tactile_paving": "no"}}, {"type": "node", "id": 2085588479, "lat": -36.8284436, "lon": 174.7964093, "tags": {"bench": "no", "bin": "yes", "bus": "yes", "highway": "bus_stop", "lit": "no", "name": "Victoria Road", "name:en": "Victoria Road", "name:mi": "Te Huarahi o Wikit\u014dria", "network": "AT", "network:wikidata": "Q4819567", "operator": "Auckland Transport", "public_transport": "platform", "ref": "3188", "shelter": "no", "tactile_paving": "no"}}, {"type": "node", "id": 2085588480, "lat": -36.8286009, "lon": 174.7960284, "tags": {"bench": "no", "bin": "no", "bus": "yes", "highway": "bus_stop", "lit": "no", "name": "Victoria Road", "name:en": "Victoria Road", "name:mi": "Te Huarahi o Wikit\u014dria", "network": "AT", "network:wikidata": "Q4819567", "operator": "Auckland Transport", "public_transport": "platform", "ref": "3409", "shelter": "no", "tactile_paving": "no"}}, {"type": "node", "id": 2085588652, "lat": -36.8315287, "lon": 174.7988969, "tags": {"bench": "yes", "bin": "no", "bus": "yes", "highway": "bus_stop", "lit": "no", "name": "Devonport Beach", "network": "AT", "network:wikidata": "Q4819567", "operator": "Auckland Transport", "public_transport": "platform", "ref": "3460", "shelter": "no", "tactile_paving": "no"}}, {"type": "node", "id": 2085588654, "lat": -36.8315437, "lon": 174.8006209, "tags": {"bench": "yes", "bin": "no", "bus": "yes", "highway": "bus_stop", "lit": "no", "name": "Mays Street", "name:en": "Mays Street", "name:mi": "Te Tiriti o Mays", "network": "AT", "network:wikidata": "Q4819567", "operator": "Auckland Transport", "public_transport": "platform", "ref": "3458", "shelter": "no", "tactile_paving": "no"}}, {"type": "node", "id": 2978465200, "lat": -36.8446724, "lon": 174.8252896, "tags": {"bus": "yes", "highway": "bus_stop", "name": "Tamaki Yacht Club", "name:en": "Tamaki Yacht Club", "network": "AT", "network:wikidata": "Q4819567", "public_transport": "platform", "ref": "7324", "shelter": "no"}}, {"type": "node", "id": 3263007320, "lat": -36.807104, "lon": 174.795591, "tags": {"access": "no", "bus": "yes", "highway": "bus_stop", "name": "Williamson Avenue", "name:en": "Williamson Avenue", "name:mi": "Te Arah\u0101ngai o Williamson", "network": "AT", "network:wikidata": "Q4819567", "public_transport": "platform", "ref": "3497", "school_bus": "designated"}}, {"type": "node", "id": 3263007348, "lat": -36.8121704, "lon": 174.7985064, "tags": {"bus": "yes", "description": "wooden", "highway": "bus_stop", "name": "Handley Avenue", "name:en": "Handley Avenue", "name:mi": "Te Arah\u0101ngai o Handley", "network": "AT", "network:wikidata": "Q4819567", "operator": "Auckland Transport", "public_transport": "platform", "ref": "3518", "shelter": "yes"}}, {"type": "node", "id": 3263007351, "lat": -36.8123115, "lon": 174.7977012, "tags": {"bus": "yes", "description": "glass", "highway": "bus_stop", "name": "Merani Street", "name:en": "Merani Street", "name:mi": "Te Tiriti o Merani", "network": "AT", "network:wikidata": "Q4819567", "operator": "Auckland Transport", "public_transport": "platform", "ref": "3487", "shelter": "yes"}}, {"type": "node", "id": 3263007352, "lat": -36.8124277, "lon": 174.7951582, "tags": {"bus": "yes", "highway": "bus_stop", "name": "Wicklow Road", "name:en": "Wicklow Road", "name:mi": "Te Huarahi o Wicklow", "network": "AT", "network:wikidata": "Q4819567", "operator": "Auckland Transport", "public_transport": "platform", "ref": "3514", "shelter": "no"}}, {"type": "node", "id": 3263007353, "lat": -36.8125087, "lon": 174.7952192, "tags": {"bus": "yes", "highway": "bus_stop", "name": "Wicklow Road", "name:en": "Wicklow Road", "name:mi": "Te Huarahi o Wicklow", "network": "AT", "network:wikidata": "Q4819567", "operator": "Auckland Transport", "public_transport": "platform", "ref": "3483", "shelter": "no"}}, {"type": "node", "id": 3263007355, "lat": -36.8125501, "lon": 174.8009473, "tags": {"back_door_boarding": "no", "bus": "yes", "highway": "bus_stop", "name": "Narrow Neck Beach", "network": "AT", "network:wikidata": "Q4819567", "operator": "Auckland Transport", "public_transport": "platform", "ref": "3520", "shelter": "yes"}}, {"type": "node", "id": 3263007364, "lat": -36.8135067, "lon": 174.8012905, "tags": {"bus": "yes", "highway": "bus_stop", "name": "Narrow Neck Beach", "network": "AT", "network:wikidata": "Q4819567", "operator": "Auckland Transport", "public_transport": "platform", "ref": "3489", "shelter": "yes"}}, {"type": "node", "id": 3263007384, "lat": -36.8212768, "lon": 174.8053816, "tags": {"bus": "yes", "highway": "bus_stop", "name": "Vauxhall Road", "name:en": "Vauxhall Road", "name:mi": "Te Huarahi o Vauxhall", "network": "AT", "network:wikidata": "Q4819567", "operator": "Auckland Transport", "public_transport": "platform", "ref": "3476"}}, {"type": "node", "id": 3263007386, "lat": -36.8223465, "lon": 174.7972123, "tags": {"bus": "yes", "description": "glass", "highway": "bus_stop", "name": "Mozeley Avenue", "name:en": "Mozeley Avenue", "name:mi": "Te Arah\u0101ngai o Mozeley", "network": "AT", "network:wikidata": "Q4819567", "operator": "Auckland Transport", "public_transport": "platform", "ref": "3403", "shelter": "yes"}}, {"type": "node", "id": 3263007387, "lat": -36.8226116, "lon": 174.8039662, "tags": {"bus": "yes", "highway": "bus_stop", "name": "Cambria Road", "name:en": "Cambria Road", "name:mi": "Te Huarahi o Cambria", "network": "AT", "network:wikidata": "Q4819567", "operator": "Auckland Transport", "public_transport": "platform", "ref": "3465"}}, {"type": "node", "id": 3263007388, "lat": -36.8228944, "lon": 174.7976266, "tags": {"bus": "yes", "description": "wooden", "highway": "bus_stop", "name": "Mozeley Avenue", "name:en": "Mozeley Avenue", "name:mi": "Te Arah\u0101ngai o Mozeley", "network": "AT", "network:wikidata": "Q4819567", "operator": "Auckland Transport", "public_transport": "platform", "ref": "3432", "shelter": "yes"}}, {"type": "node", "id": 3263007389, "lat": -36.8228719, "lon": 174.8031228, "tags": {"bus": "yes", "highway": "bus_stop", "name": "Cambria Road", "name:en": "Cambria Road", "name:mi": "Te Huarahi o Cambria", "network": "AT", "network:wikidata": "Q4819567", "operator": "Auckland Transport", "public_transport": "platform", "ref": "3500"}}, {"type": "node", "id": 3263007390, "lat": -36.8229486, "lon": 174.8060146, "tags": {"access": "no", "bus": "yes", "highway": "bus_stop", "name": "Mata\u012b Road", "name:en": "Mata\u012b Road", "name:mi": "Te Huarahi o Mata\u012b", "network": "AT", "network:wikidata": "Q4819567", "public_transport": "platform", "ref": "3437", "school_bus": "designated"}}, {"type": "node", "id": 3263007392, "lat": -36.8235404, "lon": 174.8063279, "tags": {"bus": "yes", "highway": "bus_stop", "name": "Mata\u012b Road", "name:en": "Mata\u012b Road", "name:mi": "Te Huarahi o Mata\u012b", "network": "AT", "network:wikidata": "Q4819567", "operator": "Auckland Transport", "public_transport": "platform", "ref": "3474"}}, {"type": "node", "id": 3263007394, "lat": -36.8236755, "lon": 174.8012125, "tags": {"bus": "yes", "highway": "bus_stop", "name": "Church Street", "name:en": "Church Street", "name:mi": "Te Tiriti o Church", "network": "AT", "network:wikidata": "Q4819567", "note": "AT has a typo in this station's name", "official_name": "Church Sreet", "operator": "Auckland Transport", "public_transport": "platform", "ref": "3467", "wheelchair": "no"}}, {"type": "node", "id": 3263007395, "lat": -36.8241285, "lon": 174.8004907, "tags": {"bus": "yes", "highway": "bus_stop", "name": "Church Street", "name:en": "Church Street", "name:mi": "Te Tiriti o Church", "network": "AT", "network:wikidata": "Q4819567", "note": "AT has a typo in this station's name", "official_name": "Church Sreet", "operator": "Auckland Transport", "public_transport": "platform", "ref": "3502", "shelter": "yes"}}, {"type": "node", "id": 3263007396, "lat": -36.824494, "lon": 174.7992865, "tags": {"bus": "yes", "highway": "bus_stop", "name": "Albert Road / Lake Road", "name:en": "Albert Road / Lake Road", "name:mi": "Te Huarahi o Albert m\u0101 Te Huarahi o Lake", "network": "AT", "network:wikidata": "Q4819567", "operator": "Auckland Transport", "public_transport": "platform", "ref": "3469"}}, {"type": "node", "id": 3263007397, "lat": -36.8247937, "lon": 174.8070771, "tags": {"access": "no", "bus": "yes", "highway": "bus_stop", "name": "Eton Avenue", "name:en": "Eton Avenue", "name:mi": "Te Arah\u0101ngai o Eton", "network": "AT", "network:wikidata": "Q4819567", "public_transport": "platform", "ref": "3435", "school_bus": "designated"}}, {"type": "node", "id": 3263007398, "lat": -36.8250284, "lon": 174.8075049, "tags": {"bus": "yes", "highway": "bus_stop", "name": "Eton Avenue", "name:en": "Eton Avenue", "name:mi": "Te Arah\u0101ngai o Eton", "network": "AT", "network:wikidata": "Q4819567", "operator": "Auckland Transport", "public_transport": "platform", "ref": "3472"}}, {"type": "node", "id": 3263007405, "lat": -36.8258287, "lon": 174.8086874, "tags": {"bus": "yes", "highway": "bus_stop", "name": "Tainui Road", "name:en": "Tainui Road", "name:mi": "Te Huarahi o Tainui", "network": "AT", "network:wikidata": "Q4819567", "operator": "Auckland Transport", "public_transport": "platform", "ref": "3470"}}, {"type": "node", "id": 3263007407, "lat": -36.8258784, "lon": 174.8085112, "tags": {"access": "no", "bus": "yes", "highway": "bus_stop", "name": "Tainui Road", "name:en": "Tainui Road", "name:mi": "Te Huarahi o Tainui", "network": "AT", "network:wikidata": "Q4819567", "public_transport": "platform", "ref": "3433", "school_bus": "designated"}}, {"type": "node", "id": 3263007409, "lat": -36.8260563, "lon": 174.802989, "tags": {"bus": "yes", "highway": "bus_stop", "name": "Devonport Museum", "network": "AT", "network:wikidata": "Q4819567", "operator": "Auckland Transport", "public_transport": "platform", "ref": "3455"}}, {"type": "node", "id": 3263007415, "lat": -36.8271797, "lon": 174.8028363, "tags": {"access": "no", "bus": "yes", "highway": "bus_stop", "name": "Fuji Reserve", "name:en": "Fuji Reserve", "name:mi": "Te Papa R\u0101hui o Fuji", "network": "AT", "network:wikidata": "Q4819567", "public_transport": "platform", "ref": "3492", "school_bus": "designated"}}, {"type": "node", "id": 3263007416, "lat": -36.8273904, "lon": 174.8079944, "tags": {"access": "no", "bus": "yes", "highway": "bus_stop", "name": "Devonport Domain", "name:en": "Devonport Domain", "name:mi": "Te Papa Raurarahi o Devonport", "network": "AT", "network:wikidata": "Q4819567", "public_transport": "platform", "ref": "3431", "school_bus": "designated"}}, {"type": "node", "id": 3263007432, "lat": -36.8281924, "lon": 174.8065673, "tags": {"access": "no", "bench": "no", "bin": "no", "bus": "yes", "highway": "bus_stop", "lit": "no", "name": "Cambridge Terrace", "name:signed": "no", "network": "AT", "network:wikidata": "Q4819567", "official_name": "52 King Edward Pde", "public_transport": "platform", "ref": "3466", "school_bus": "designated", "shelter": "no", "tactile_paving": "no"}}, {"type": "node", "id": 3263007436, "lat": -36.8284396, "lon": 174.8064707, "tags": {"bench": "no", "bin": "no", "bus": "yes", "highway": "bus_stop", "lit": "no", "name": "Cambridge Terrace", "network": "AT", "network:wikidata": "Q4819567", "official_name": "King Edward Pde Opp Cambridge Tce", "operator": "Auckland Transport", "public_transport": "platform", "ref": "3429", "shelter": "no", "tactile_paving": "no"}}, {"type": "node", "id": 3263007463, "lat": -36.829401, "lon": 174.8035869, "tags": {"access": "no", "bus": "yes", "highway": "bus_stop", "name": "Tudor Street", "name:en": "Tudor Street", "name:mi": "Te Tiriti o Tudor", "network": "AT", "network:wikidata": "Q4819567", "public_transport": "platform", "ref": "4238", "school_bus": "designated"}}, {"type": "node", "id": 3263007466, "lat": -36.8296421, "lon": 174.8042634, "tags": {"access": "no", "bench": "no", "bin": "no", "bus": "yes", "highway": "bus_stop", "lit": "no", "name": "Duders Beach", "network": "AT", "network:wikidata": "Q4819567", "public_transport": "platform", "ref": "3427", "school_bus": "designated", "shelter": "no", "tactile_paving": "no"}}, {"type": "node", "id": 3263007467, "lat": -36.8297455, "lon": 174.8042983, "tags": {"bench": "yes", "bin": "no", "bus": "yes", "highway": "bus_stop", "lit": "no", "name": "Duders Beach", "network": "AT", "network:wikidata": "Q4819567", "operator": "Auckland Transport", "public_transport": "platform", "ref": "3464", "shelter": "no", "tactile_paving": "no"}}, {"type": "node", "id": 3470499161, "lat": -36.8324795, "lon": 174.7962604}, {"type": "node", "id": 3470499164, "lat": -36.8324631, "lon": 174.7961016}, {"type": "node", "id": 3470499165, "lat": -36.832466, "lon": 174.7961223}, {"type": "node", "id": 3470499167, "lat": -36.8324905, "lon": 174.7962402}, {"type": "node", "id": 3470499168, "lat": -36.8324892, "lon": 174.7962568}, {"type": "node", "id": 3470499173, "lat": -36.8329278, "lon": 174.7964206}, {"type": "node", "id": 3470499174, "lat": -36.8329315, "lon": 174.7962639}, {"type": "node", "id": 3470499175, "lat": -36.8329416, "lon": 174.79647}, {"type": "node", "id": 3470499176, "lat": -36.8329425, "lon": 174.7964213}, {"type": "node", "id": 3470499177, "lat": -36.8329694, "lon": 174.7964718}, {"type": "node", "id": 3470499178, "lat": -36.8331319, "lon": 174.7961569}, {"type": "node", "id": 3470499179, "lat": -36.8331602, "lon": 174.7963417}, {"type": "node", "id": 3470499180, "lat": -36.8331598, "lon": 174.7963584}, {"type": "node", "id": 3470499181, "lat": -36.8332603, "lon": 174.7960823}, {"type": "node", "id": 3470499182, "lat": -36.8332804, "lon": 174.7955022}, {"type": "node", "id": 3470499184, "lat": -36.833381, "lon": 174.7953643}, {"type": "node", "id": 4413336283, "lat": -36.8307816, "lon": 174.8030578}, {"type": "node", "id": 4413336284, "lat": -36.8310328, "lon": 174.8036935, "tags": {"leisure": "slipway"}}, {"type": "node", "id": 4413336490, "lat": -36.8314611, "lon": 174.8030833, "tags": {"leisure": "slipway"}}, {"type": "node", "id": 5623450642, "lat": -36.8315343, "lon": 174.7982683, "tags": {"bench": "yes", "bin": "yes", "bus": "yes", "highway": "bus_stop", "lit": "no", "name": "Devonport Library", "network": "AT", "network:wikidata": "Q4819567", "operator": "Auckland Transport", "public_transport": "platform", "ref": "3425", "shelter": "yes", "tactile_paving": "no"}}, {"type": "node", "id": 5623468235, "lat": -36.8297682, "lon": 174.797777, "tags": {"bench": "yes", "bin": "yes", "bus": "yes", "highway": "bus_stop", "lit": "no", "name": "Devonport Shops", "name:en": "Devonport Shops", "name:mi": "Ng\u0101 Toa o Devonport", "network": "AT", "network:wikidata": "Q4819567", "operator": "Auckland Transport", "public_transport": "platform", "ref": "3449", "shelter": "no", "tactile_paving": "no"}}, {"type": "node", "id": 6437236282, "lat": -36.8334275, "lon": 174.7957253, "tags": {"ferry": "yes", "local_ref": "2", "name": "Devonport Pier 2", "network": "AT", "network:wikidata": "Q4819567", "official_name": "Devonport Ferry Terminal 2", "public_transport": "stop_position", "ref": "9672", "wheelchair": "no", "wheelchair:conditional": "yes @ \"high tide\""}}, {"type": "node", "id": 7727809793, "lat": -36.8331842, "lon": 174.7963279, "tags": {"automatic_door": "yes", "door": "hinged", "entrance": "yes", "level": "0"}}, {"type": "node", "id": 7727809827, "lat": -36.8324546, "lon": 174.7961037}, {"type": "node", "id": 7727809830, "lat": -36.8329007, "lon": 174.7962626}, {"type": "node", "id": 7727809850, "lat": -36.8328887, "lon": 174.7961467}, {"type": "node", "id": 7727809877, "lat": -36.8332866, "lon": 174.7953612}, {"type": "node", "id": 7727809878, "lat": -36.8334225, "lon": 174.7955723}, {"type": "node", "id": 8169572407, "lat": -36.8295316, "lon": 174.809691}, {"type": "node", "id": 8169572408, "lat": -36.8297732, "lon": 174.8098066, "tags": {"leisure": "slipway"}}, {"type": "node", "id": 8322641191, "lat": -36.8322988, "lon": 174.7956474, "tags": {"bench": "yes", "bin": "yes", "bus": "yes", "highway": "bus_stop", "lit": "yes", "name": "Devonport Terminal", "network": "AT", "network:wikidata": "Q4819567", "network:wikipedia": "en:Auckland Transport", "operator": "Auckland Transport", "public_transport": "platform", "ref": "3462", "shelter": "yes", "tactile_paving": "yes"}}, {"type": "node", "id": 8322641192, "lat": -36.8305075, "lon": 174.7978221, "tags": {"bench": "no", "bin": "no", "bus": "yes", "highway": "bus_stop", "lit": "no", "name": "Devonport Shops", "name:en": "Devonport Shops", "name:mi": "Ng\u0101 Toa o Devonport", "network": "AT", "network:wikidata": "Q4819567", "operator": "Auckland Transport", "public_transport": "platform", "ref": "3490", "shelter": "no", "tactile_paving": "no"}}, {"type": "node", "id": 8322641193, "lat": -36.8286574, "lon": 174.80289, "tags": {"bus": "yes", "highway": "bus_stop", "name": "Tudor Street", "name:en": "Tudor Street", "name:mi": "Te Tiriti o Tudor", "network": "AT", "network:wikidata": "Q4819567", "operator": "Auckland Transport", "public_transport": "platform", "ref": "3451"}}, {"type": "node", "id": 8474037901, "lat": -36.832851, "lon": 174.7962585, "tags": {"entrance": "yes", "level": "0"}}, {"type": "node", "id": 8666222869, "lat": -36.8274538, "lon": 174.8026281, "tags": {"bus": "yes", "highway": "bus_stop", "name": "Fuji Reserve", "name:en": "Fuji Reserve", "name:mi": "Te Papa R\u0101hui o Fuji", "network": "AT", "network:wikidata": "Q4819567", "operator": "Auckland Transport", "public_transport": "platform", "ref": "3453"}}, {"type": "node", "id": 8699932688, "lat": -36.8332788, "lon": 174.7955468, "tags": {"entrance": "yes", "level": "0"}}, {"type": "node", "id": 10559094501, "lat": -36.8122578, "lon": 174.7972382, "tags": {"bus": "yes", "highway": "bus_stop", "name": "Merani Street", "name:en": "Merani Street", "name:mi": "Te Tiriti o Merani", "network": "AT", "network:wikidata": "Q4819567", "operator": "Auckland Transport", "public_transport": "platform", "ref": "3516"}}, {"type": "node", "id": 10751990146, "lat": -36.7856391, "lon": 174.8932114, "tags": {"ferry": "yes", "name": "Yankee Wharf", "public_transport": "stop_position"}}, {"type": "node", "id": 10821337645, "lat": -36.8329178, "lon": 174.796148}, {"type": "node", "id": 10821337647, "lat": -36.8331577, "lon": 174.7961412, "tags": {"entrance": "yes", "level": "0"}}, {"type": "node", "id": 10821337649, "lat": -36.833417, "lon": 174.7957938}, {"type": "node", "id": 10821337650, "lat": -36.8333993, "lon": 174.795793}, {"type": "node", "id": 10821337651, "lat": -36.833398, "lon": 174.7958452}, {"type": "node", "id": 10821337652, "lat": -36.8334095, "lon": 174.7958457}, {"type": "node", "id": 10821337653, "lat": -36.8333987, "lon": 174.7962008}, {"type": "node", "id": 10821337657, "lat": -36.8334115, "lon": 174.7957935, "tags": {"entrance": "emergency", "level": "0"}}, {"type": "node", "id": 10821337659, "lat": -36.8324608, "lon": 174.7961428, "tags": {"entrance": "main", "level": "0"}}, {"type": "node", "id": 10821337661, "lat": -36.8330922, "lon": 174.7963987, "tags": {"entrance": "emergency", "level": "1"}}, {"type": "node", "id": 10821337666, "lat": -36.8330302, "lon": 174.7964356}, {"type": "node", "id": 10821337668, "lat": -36.8333987, "lon": 174.7958179}, {"type": "node", "id": 10821337669, "lat": -36.8333028, "lon": 174.7953617}, {"type": "node", "id": 10821337670, "lat": -36.8333608, "lon": 174.7953637}, {"type": "node", "id": 10821337671, "lat": -36.8333349, "lon": 174.7953386}, {"type": "node", "id": 10821337672, "lat": -36.8333095, "lon": 174.7953522}, {"type": "node", "id": 10821337673, "lat": -36.8333161, "lon": 174.7953448}, {"type": "node", "id": 10821337674, "lat": -36.8333251, "lon": 174.7953395}, {"type": "node", "id": 10821337675, "lat": -36.8333449, "lon": 174.7953421}, {"type": "node", "id": 10821337676, "lat": -36.8333529, "lon": 174.79535}, {"type": "node", "id": 10821337688, "lat": -36.8331044, "lon": 174.7963914}, {"type": "node", "id": 10821337689, "lat": -36.8334007, "lon": 174.795461}, {"type": "node", "id": 10821337690, "lat": -36.8332825, "lon": 174.7954556}, {"type": "node", "id": 10821337691, "lat": -36.8332951, "lon": 174.7953615, "tags": {"entrance": "yes", "level": "0"}}, {"type": "node", "id": 10821337692, "lat": -36.8333709, "lon": 174.795364, "tags": {"entrance": "yes", "level": "0"}}, {"type": "node", "id": 10821337696, "lat": -36.8333441, "lon": 174.7962331}, {"type": "node", "id": 10821337697, "lat": -36.8331693, "lon": 174.7963365}, {"type": "node", "id": 10821350005, "lat": -36.8333721, "lon": 174.7962165}, {"type": "node", "id": 10821350006, "lat": -36.833419, "lon": 174.7957251}, {"type": "node", "id": 10821350008, "lat": -36.8334041, "lon": 174.7957932, "tags": {"entrance": "emergency", "level": "1"}}, {"type": "node", "id": 10821350017, "lat": -36.8329297, "lon": 174.7963398}, {"type": "node", "id": 10821350018, "lat": -36.8332704, "lon": 174.7957871}, {"type": "node", "id": 10821350019, "lat": -36.8332781, "lon": 174.7955662}, {"type": "node", "id": 10821360317, "lat": -36.7785464, "lon": 174.895035, "tags": {"ferry": "yes", "name": "Islington Bay Wharf", "public_transport": "stop_position"}}, {"type": "node", "id": 10857165474, "lat": -36.80612, "lon": 174.7948, "tags": {"access": "no", "bus": "yes", "highway": "bus_stop", "name": "Williamson Avenue", "name:en": "Williamson Avenue", "name:mi": "Te Arah\u0101ngai o Williamson", "network": "AT", "network:wikidata": "Q4819567", "public_transport": "platform", "ref": "3528", "school_bus": "designated"}}, {"type": "node", "id": 12543755656, "lat": -36.8284299, "lon": 174.8057509, "tags": {"motorcar": "designated", "railway": "turntable"}}, {"type": "node", "id": 12543755658, "lat": -36.8284158, "lon": 174.8058339, "tags": {"motorcar": "designated", "railway": "turntable"}}, {"type": "node", "id": 12543755761, "lat": -36.8259067, "lon": 174.8021133, "tags": {"motorcar": "designated", "railway": "turntable"}}, {"type": "way", "id": 160389122, "nodes": [1724361660, 4413336490], "tags": {"railway": "narrow_gauge"}}, {"type": "way", "id": 339843079, "nodes": [3470499182, 8699932688, 10821350019, 10821350018, 3470499181, 10821337647, 3470499178, 10821337645, 7727809850, 3470499165, 3470499164, 7727809827, 10821337659, 3470499161, 3470499168, 3470499167, 8474037901, 7727809830, 3470499174, 10821350017, 3470499173, 3470499176, 3470499175, 3470499177, 10821337666, 10821337661, 10821337688, 3470499180, 3470499179, 10821337697, 7727809793, 10821337696, 10821350005, 10821337653, 10821337652, 10821337651, 10821337668, 10821337650, 10821350008, 10821337657, 10821337649, 10821350006, 7727809878, 10821337689, 3470499184, 10821337692, 10821337670, 10821337676, 10821337675, 10821337671, 10821337674, 10821337673, 10821337672, 10821337669, 10821337691, 7727809877, 10821337690, 3470499182], "tags": {"addr:housenumber": "1", "addr:street": "Queens Parade", "addr:suburb": "Devonport", "amenity": "ferry_terminal", "building": "yes", "building:levels": "1", "fare_gates": "no", "ferry": "yes", "name": "Devonport Ferry Terminal", "name:mk": "\u0422\u0440\u0430\u0435\u043a\u0442\u0435\u043d \u0442\u0435\u0440\u043c\u0438\u043d\u0430\u043b - \u0414\u0435\u0432\u043e\u043d\u043f\u043e\u0440\u0442", "public_transport": "station", "ref": "9670", "ref:linz:address_id": "1156851", "roof:shape": "hipped"}}, {"type": "way", "id": 443788923, "nodes": [4413336283, 4413336284], "tags": {"railway": "narrow_gauge"}}, {"type": "way", "id": 878082760, "nodes": [8169572407, 8169572408], "tags": {"railway": "narrow_gauge"}}, {"type": "relation", "id": 12188996, "members": [{"type": "node", "ref": 2085588480, "role": "platform"}, {"type": "node", "ref": 2085588479, "role": "platform"}], "tags": {"name": "Victoria Road", "name:en": "Victoria Road", "name:mi": "Te Huarahi o Wikit\u014dria", "network": "AT", "network:wikidata": "Q4819567", "public_transport": "stop_area", "ref": "41011", "type": "public_transport"}}, {"type": "relation", "id": 12188997, "members": [{"type": "node", "ref": 2085588473, "role": "platform"}, {"type": "node", "ref": 2085588469, "role": "platform"}], "tags": {"name": "Hastings Parade", "network": "AT", "network:wikidata": "Q4819567", "public_transport": "stop_area", "ref": "41640", "type": "public_transport"}}, {"type": "relation", "id": 12188998, "members": [{"type": "way", "ref": 339843079, "role": ""}, {"type": "node", "ref": 8322641191, "role": "platform"}, {"type": "node", "ref": 31234700, "role": "stop"}, {"type": "node", "ref": 6437236282, "role": "stop"}], "tags": {"name": "Devonport Ferry Terminal", "official_name": "/Devonport", "public_transport": "stop_area", "ref": "96701", "type": "public_transport"}}, {"type": "relation", "id": 12188999, "members": [{"type": "node", "ref": 8322641192, "role": "platform"}, {"type": "node", "ref": 5623468235, "role": "platform"}], "tags": {"name": "Devonport Shops", "name:en": "Devonport Shops", "name:mi": "Ng\u0101 Toa o Devonport", "network": "AT", "network:wikidata": "Q4819567", "public_transport": "stop_area", "ref": "41012", "type": "public_transport"}}, {"type": "relation", "id": 12189000, "members": [{"type": "node", "ref": 3263007466, "role": "platform"}, {"type": "node", "ref": 3263007467, "role": "platform"}], "tags": {"name": "Duders Beach", "network": "AT", "network:wikidata": "Q4819567", "official_name": "King Edward Parade / Church St", "public_transport": "stop_area", "ref": "41017", "type": "public_transport"}}, {"type": "relation", "id": 12189001, "members": [{"type": "node", "ref": 8322641193, "role": "platform"}, {"type": "node", "ref": 3263007463, "role": "platform"}], "tags": {"name": "Tudor Street", "name:en": "Tudor Street", "name:mi": "Te Tiriti o Tudor", "network": "AT", "network:wikidata": "Q4819567", "public_transport": "stop_area", "ref": "41053", "type": "public_transport"}}, {"type": "relation", "id": 12189002, "members": [{"type": "node", "ref": 2085588652, "role": "platform"}, {"type": "node", "ref": 5623450642, "role": "platform"}], "tags": {"name": "Devonport Beach", "official_name": "King Edward Parade / Devonport Library", "public_transport": "stop_area", "ref": "41014", "type": "public_transport"}}, {"type": "relation", "id": 12189003, "members": [{"type": "node", "ref": 2085588654, "role": "platform"}], "tags": {"name": "Mays Street", "name:en": "Mays Street", "name:mi": "Te Tiriti o Mays", "network": "AT", "network:wikidata": "Q4819567", "official_name": "King Edward Parade / Mays St", "public_transport": "stop_area", "ref": "41016", "type": "public_transport"}}, {"type": "relation", "id": 13905758, "members": [{"type": "node", "ref": 2978465200, "role": "platform"}], "tags": {"name": "Tamaki Yacht Club", "name:en": "Tamaki Yacht Club", "network": "AT", "network:wikidata": "Q4819567", "official_name": "T\u0101maki Drive / T\u0101maki Yacht Club", "public_transport": "stop_area", "ref": "31010", "type": "public_transport"}}, {"type": "relation", "id": 15036832, "members": [{"type": "node", "ref": 3263007436, "role": "platform"}, {"type": "node", "ref": 3263007432, "role": "platform"}], "tags": {"name": "Cambridge Terrace", "official_name": "King Edward Parade / Cambridge Terrace", "public_transport": "stop_area", "ref": "41018", "type": "public_transport"}}, {"type": "relation", "id": 15036833, "members": [{"type": "node", "ref": 2085588457, "role": "platform"}, {"type": "node", "ref": 3263007416, "role": "platform"}], "tags": {"name": "Devonport Domain", "name:en": "Devonport Domain", "name:mi": "Te Papa Raurarahi o Devonport", "network": "AT", "network:wikidata": "Q4819567", "official_name": "Cheltenham Rd / Devonport Domain", "public_transport": "stop_area", "ref": "41019", "type": "public_transport"}}, {"type": "relation", "id": 15036834, "members": [{"type": "node", "ref": 3263007407, "role": "platform"}, {"type": "node", "ref": 3263007405, "role": "platform"}], "tags": {"name": "Tainui Road", "name:en": "Tainui Road", "name:mi": "Te Huarahi o Tainui", "network": "AT", "network:wikidata": "Q4819567", "public_transport": "stop_area", "ref": "41020", "type": "public_transport"}}, {"type": "relation", "id": 15036835, "members": [{"type": "node", "ref": 3263007398, "role": "platform"}, {"type": "node", "ref": 3263007397, "role": "platform"}], "tags": {"name": "Eton Avenue", "name:en": "Eton Avenue", "name:mi": "Te Arah\u0101ngai o Eton", "network": "AT", "network:wikidata": "Q4819567", "official_name": "Tainui Rd / Eton Ave", "public_transport": "stop_area", "ref": "41021", "type": "public_transport"}}, {"type": "relation", "id": 15036836, "members": [{"type": "node", "ref": 3263007390, "role": "platform"}, {"type": "node", "ref": 3263007392, "role": "platform"}], "tags": {"name": "Mata\u012b Road", "name:en": "Mata\u012b Road", "name:mi": "Te Huarahi o Mata\u012b", "network": "AT", "network:wikidata": "Q4819567", "public_transport": "stop_area", "ref": "41022", "type": "public_transport"}}, {"type": "relation", "id": 15036837, "members": [{"type": "node", "ref": 2085588287, "role": "platform"}, {"type": "node", "ref": 2085588289, "role": "platform"}, {"type": "node", "ref": 3263007384, "role": "platform"}], "tags": {"name": "Vauxhall Road Shops", "name:en": "Vauxhall Road Shops", "name:mi": "Ng\u0101 Toa o te Huarahi o Vauxhall", "network": "AT", "network:wikidata": "Q4819567", "public_transport": "stop_area", "ref": "21978", "type": "public_transport"}}, {"type": "relation", "id": 15036838, "members": [{"type": "node", "ref": 2085588300, "role": "platform"}, {"type": "node", "ref": 2085588297, "role": "platform"}], "tags": {"name": "Albert Road", "official_name": "Vauxhall Rd / Albert Rd", "public_transport": "stop_area", "ref": "41024", "type": "public_transport"}}, {"type": "relation", "id": 15036839, "members": [{"type": "node", "ref": 3263007389, "role": "platform"}, {"type": "node", "ref": 3263007387, "role": "platform"}], "tags": {"name": "Cambria Road", "name:en": "Cambria Road", "name:mi": "Te Huarahi o Cambria", "network": "AT", "network:wikidata": "Q4819567", "public_transport": "stop_area", "ref": "41023", "type": "public_transport"}}, {"type": "relation", "id": 15036841, "members": [{"type": "node", "ref": 3263007409, "role": "platform"}, {"type": "node", "ref": 2085588313, "role": "platform"}], "tags": {"name": "Devonport Museum", "official_name": "Vauxhall Rd / Devonport Museum", "public_transport": "stop_area", "ref": "41054", "type": "public_transport"}}, {"type": "relation", "id": 15036842, "members": [{"type": "node", "ref": 3263007415, "role": "platform"}, {"type": "node", "ref": 8666222869, "role": "platform"}], "tags": {"name": "Fuji Reserve", "name:en": "Fuji Reserve", "name:mi": "Te Papa R\u0101hui o Fuji", "network": "AT", "network:wikidata": "Q4819567", "official_name": "Vauxhall Rd / Fuji Reserve", "public_transport": "stop_area", "ref": "41055", "type": "public_transport"}}, {"type": "relation", "id": 15036843, "members": [{"type": "node", "ref": 3263007394, "role": "platform"}, {"type": "node", "ref": 3263007395, "role": "platform"}], "tags": {"name": "Church Street", "name:en": "Church Street", "name:mi": "Te Tiriti o Church", "network": "AT", "network:wikidata": "Q4819567", "note": "AT has a typo in this station's name", "official_name": "Church Sreet", "public_transport": "stop_area", "ref": "41059", "type": "public_transport"}}, {"type": "relation", "id": 15036844, "members": [{"type": "node", "ref": 3263007396, "role": "platform"}], "tags": {"name": "Albert Road / Lake Road", "name:en": "Albert Road / Lake Road", "name:mi": "Te Huarahi o Albert / Te Huarahi o Lake", "network": "AT", "network:wikidata": "Q4819567", "public_transport": "stop_area", "ref": "41058", "type": "public_transport"}}, {"type": "relation", "id": 15036845, "members": [{"type": "node", "ref": 2085588445, "role": "platform"}, {"type": "node", "ref": 2085588436, "role": "platform"}], "tags": {"name": "Saint Pauls Devonport", "network": "AT", "network:wikidata": "Q4819567", "official_name": "St Pauls Devonport", "public_transport": "stop_area", "ref": "41641", "type": "public_transport"}}, {"type": "relation", "id": 15908300, "members": [{"type": "node", "ref": 2085588282, "role": "platform"}, {"type": "node", "ref": 2085588283, "role": "platform"}], "tags": {"name": "Morrison Avenue", "name:en": "Morrison Avenue", "name:mi": "Te Arah\u0101ngai o Morrison", "network": "AT", "network:wikidata": "Q4819567", "public_transport": "stop_area", "ref": "41025", "type": "public_transport"}}, {"type": "relation", "id": 15908301, "members": [{"type": "node", "ref": 2085588284, "role": "platform"}, {"type": "node", "ref": 2085588285, "role": "platform"}], "tags": {"name": "Ascot Avenue", "name:en": "Ascot Avenue", "name:mi": "Te Arah\u0101ngai o Ascot", "network": "AT", "network:wikidata": "Q4819567", "public_transport": "stop_area", "ref": "41027", "type": "public_transport"}}, {"type": "relation", "id": 15908302, "members": [{"type": "node", "ref": 3263007364, "role": "platform"}, {"type": "node", "ref": 3263007355, "role": "platform"}], "tags": {"name": "Narrow Neck Beach", "network": "AT", "network:wikidata": "Q4819567", "public_transport": "stop_area", "ref": "41029", "type": "public_transport"}}, {"type": "relation", "id": 15908303, "members": [{"type": "node", "ref": 3263007351, "role": "platform"}, {"type": "node", "ref": 10559094501, "role": "platform"}], "tags": {"name": "Merani Street", "name:en": "Merani Street", "name:mi": "Te Tiriti o Merani", "network": "AT", "network:wikidata": "Q4819567", "public_transport": "stop_area", "ref": "41031", "type": "public_transport"}}, {"type": "relation", "id": 15908304, "members": [{"type": "node", "ref": 3263007353, "role": "platform"}, {"type": "node", "ref": 3263007352, "role": "platform"}], "tags": {"name": "Wicklow Road", "name:en": "Wicklow Road", "name:mi": "Te Huarahi o Wicklow", "network": "AT", "network:wikidata": "Q4819567", "public_transport": "stop_area", "ref": "41033", "type": "public_transport"}}, {"type": "relation", "id": 15908311, "members": [{"type": "node", "ref": 3263007320, "role": "platform"}, {"type": "node", "ref": 10857165474, "role": "platform"}], "tags": {"name": "Williamson Avenue", "name:en": "Williamson Avenue", "name:mi": "Te Arah\u0101ngai o Williamson", "network": "AT", "network:wikidata": "Q4819567", "public_transport": "stop_area", "ref": "41064", "type": "public_transport"}}, {"type": "relation", "id": 15908404, "members": [{"type": "node", "ref": 3263007386, "role": "platform"}, {"type": "node", "ref": 3263007388, "role": "platform"}], "tags": {"name": "Mozeley Avenue", "name:en": "Mozeley Avenue", "name:mi": "Te Arah\u0101ngai o Mozeley", "network": "AT", "network:wikidata": "Q4819567", "public_transport": "stop_area", "ref": "41829", "type": "public_transport"}}]}