{"version": 0.6, "generator": "Overpass API 0.7.62.8 e802775f", "osm3s": {"timestamp_osm_base": "2026-01-12T04:56:45Z", "copyright": "The data included in this document is from www.openstreetmap.org. The data is made available under ODbL."}, "elements": [{"type": "node", "id": 103101264, "lat": 40.831016, "lon": -73.997805}, {"type": "node", "id": 103112587, "lat": 40.8178405, "lon": -73.9897372}, {"type": "node", "id": 103133899, "lat": 40.8170409, "lon": -73.9913673}, {"type": "node", "id": 103133900, "lat": 40.8176741, "lon": -73.9910202}, {"type": "node", "id": 103133902, "lat": 40.8183184, "lon": -73.9906577}, {"type": "node", "id": 103150109, "lat": 40.8259633, "lon": -73.9914238}, {"type": "node", "id": 103150110, "lat": 40.8264359, "lon": -73.9922482}, {"type": "node", "id": 103168720, "lat": 40.8291734, "lon": -73.983301}, {"type": "node", "id": 103174033, "lat": 40.8391051, "lon": -73.981756, "tags": {"highway": "traffic_signals"}}, {"type": "node", "id": 103174034, "lat": 40.839352, "lon": -73.9821984, "tags": {"highway": "traffic_signals"}}, {"type": "node", "id": 103202147, "lat": 40.8114948, "lon": -73.9936685}, {"type": "node", "id": 103202148, "lat": 40.8118812, "lon": -73.9943349}, {"type": "node", "id": 103222970, "lat": 40.8381673, "lon": -73.9821617}, {"type": "node", "id": 103230851, "lat": 40.810761, "lon": -73.9942035}, {"type": "node", "id": 103230852, "lat": 40.8108748, "lon": -73.9941295}, {"type": "node", "id": 103234276, "lat": 40.8220277, "lon": -73.9865689}, {"type": "node", "id": 103235638, "lat": 40.817223, "lon": -73.990008}, {"type": "node", "id": 103235689, "lat": 40.821552, "lon": -73.987687}, {"type": "node", "id": 103235690, "lat": 40.8218603, "lon": -73.9873295}, {"type": "node", "id": 103235692, "lat": 40.8219173, "lon": -73.9872275}, {"type": "node", "id": 103235694, "lat": 40.8219552, "lon": -73.9871376}, {"type": "node", "id": 103235696, "lat": 40.8220055, "lon": -73.9870176}, {"type": "node", "id": 103235697, "lat": 40.8220277, "lon": -73.9868318}, {"type": "node", "id": 103237099, "lat": 40.8284058, "lon": -73.9836164}, {"type": "node", "id": 103259849, "lat": 40.8258379, "lon": -73.9937559}, {"type": "node", "id": 103271514, "lat": 40.8254323, "lon": -73.9930312}, {"type": "node", "id": 103314334, "lat": 40.838458, "lon": -73.9941195}, {"type": "node", "id": 103314336, "lat": 40.838485, "lon": -73.9941}, {"type": "node", "id": 103314337, "lat": 40.838561, "lon": -73.994048}, {"type": "node", "id": 103865127, "lat": 40.7821764, "lon": -74.0125086, "tags": {"highway": "traffic_signals"}}, {"type": "node", "id": 103867950, "lat": 40.800942, "lon": -74.013673, "tags": {"highway": "traffic_signals"}}, {"type": "node", "id": 103872907, "lat": 40.801673, "lon": -74.01321, "tags": {"highway": "traffic_signals"}}, {"type": "node", "id": 103872909, "lat": 40.8022557, "lon": -74.012727, "tags": {"highway": "traffic_signals"}}, {"type": "node", "id": 302164651, "lat": 40.7612114, "lon": -74.085835}, {"type": "node", "id": 302164666, "lat": 40.7586191, "lon": -74.084115, "tags": {"created_by": "Merkaartor 0.12"}}, {"type": "node", "id": 302164667, "lat": 40.7599845, "lon": -74.0850933}, {"type": "node", "id": 357576745, "lat": 40.7753791, "lon": -73.9812499, "tags": {"amenity": "school", "ele": "24", "gnis:feature_id": "960269", "name": "Pharmacy College"}}, {"type": "node", "id": 357579218, "lat": 40.7567683, "lon": -73.9723609, "tags": {"amenity": "school", "ele": "15", "gnis:feature_id": "961446", "name": "Public School 18"}}, {"type": "node", "id": 357580780, "lat": 40.7634348, "lon": -73.9795833, "tags": {"amenity": "school", "ele": "20", "gnis:feature_id": "961811", "name": "Public School 69"}}, {"type": "node", "id": 357581102, "lat": 40.785132, "lon": -73.9736454, "tags": {"addr:city": "New York", "addr:housenumber": "100", "addr:postcode": "10024", "addr:state": "NY", "addr:street": "West 84th Street", "amenity": "school", "education": "school", "ele": "27", "fax": "+1-212-873-4681", "gnis:feature_id": "961903", "grades": "K-5", "isced:level": "0-1", "name": "P.S. 9 Sarah Anderson School", "operator": "New York City Department of Education", "operator:short": "NYC Public Schools", "operator:type": "public", "operator:wikidata": "Q408230", "phone": "+1-212-678-2812", "preschool": "yes", "ref": "M009", "religion": "none", "short_name": "PS9", "website": "https://www.ps9.org/", "wheelchair": "limited", "wikidata": "Q7117080"}}, {"type": "node", "id": 357620571, "lat": 40.7894444, "lon": -73.9777778, "tags": {"amenity": "school", "ele": "22", "gnis:feature_id": "2083364", "name": "Cathedral Preparatory Seminary"}}, {"type": "node", "id": 357620637, "lat": 40.7708333, "lon": -73.9801592, "tags": {"amenity": "school", "ele": "23", "gnis:feature_id": "2083444", "name": "Ethical Culture School"}}, {"type": "node", "id": 357621474, "lat": 40.7747746, "lon": -73.9853025, "tags": {"addr:city": "New York", "addr:housenumber": "122", "addr:postcode": "10023", "addr:state": "NY", "addr:street": "Amsterdam Avenue", "amenity": "school", "fax": "+1-917-441-3693", "grades": "9-12", "name": "High School of Arts and Technology", "phone": "+1-212-501-1198", "ref": "M494", "religion": "none", "website": "https://www.hsartstech.org/", "wikidata": "Q5756646", "wikipedia": "en:High School of the Arts and Technology"}}, {"type": "node", "id": 357621553, "lat": 40.7655631, "lon": -73.9935861, "tags": {"addr:city": "New York", "addr:housenumber": "525", "addr:postcode": "10019", "addr:state": "NY", "addr:street": "West 50th Street", "amenity": "school", "ele": "8", "gnis:feature_id": "2083934", "name": "Park West Educational Campus"}}, {"type": "node", "id": 357621676, "lat": 40.7611111, "lon": -73.9883333, "tags": {"amenity": "school", "ele": "15", "gnis:feature_id": "2083997", "name": "Public School 212"}}, {"type": "node", "id": 357621788, "lat": 40.7913948, "lon": -73.9785759, "tags": {"addr:housenumber": "346", "addr:postcode": "10024", "addr:street": "West 89th Street", "amenity": "school", "ele": "22", "gnis:feature_id": "2084024", "name": "Yeshiva Ketana School"}}, {"type": "node", "id": 357622032, "lat": 40.7747751, "lon": -73.9853689, "tags": {"addr:city": "New York", "addr:housenumber": "122", "addr:postcode": "10023", "addr:state": "NY", "addr:street": "Amsterdam Avenue", "amenity": "school", "ele": "18", "fax": "+1-212-501-1171", "fee": "no", "gnis:feature_id": "2091989", "grades": "9-12", "name": "Manhattan Hunter Science High School", "phone": "+1-212-501-1235", "ref": "M541", "religion": "none", "website": "https://www.mhshs.org/", "wheelchair": "limited", "wikidata": "Q6749217", "wikipedia": "en:Manhattan/Hunter College High School for Sciences"}}, {"type": "node", "id": 357648462, "lat": 40.7916365, "lon": -73.9711891, "tags": {"amenity": "school", "ele": "33", "gnis:feature_id": "2493030", "name": "Middle School M256 Academic and Athletic Excellence"}}, {"type": "node", "id": 357648477, "lat": 40.7849411, "lon": -73.9737421, "tags": {"addr:city": "New York", "addr:housenumber": "100", "addr:postcode": "10024", "addr:state": "NY", "addr:street": "West 84th Street", "amenity": "school", "education": "school", "ele": "20", "fax": "+1-212-579-9728", "gnis:feature_id": "2493035", "grades": "5-8", "isced:level": "1-2", "name": "M.S. 243 Center School", "operator": "New York City Department of Education", "operator:short": "NYC Public Schools", "operator:type": "public", "operator:wikidata": "Q408230", "phone": "+1-212-799-1477", "ref": "M243", "religion": "none", "website": "https://thecenterschool.org/", "wheelchair": "limited", "wikidata": "Q102123850"}}, {"type": "node", "id": 357648589, "lat": 40.7917156, "lon": -73.9711954, "tags": {"amenity": "school", "ele": "33", "gnis:feature_id": "2493088", "name": "Middle School M258 Community Action School"}}, {"type": "node", "id": 357648621, "lat": 40.7615114, "lon": -73.9886384, "tags": {"amenity": "school", "ele": "15", "gnis:feature_id": "2493099", "name": "M408 Professional Performing Arts High School"}}, {"type": "node", "id": 357650837, "lat": 40.7598662, "lon": -73.9750298, "tags": {"amenity": "school", "ele": "19", "gnis:feature_id": "2501238", "name": "Laboratory Institute of Merchandising"}}, {"type": "node", "id": 357720338, "lat": 40.844488, "lon": -74.0482317, "tags": {"addr:city": "Moonachie", "addr:housenumber": "20", "addr:postcode": "07074", "addr:state": "NJ", "addr:street": "W Park St", "amenity": "school", "ele": "2", "gnis:feature_id": "875691", "name": "Mister Robert L Craig Elementary School"}}, {"type": "node", "id": 357721375, "lat": 40.8287962, "lon": -73.9837699, "tags": {"amenity": "school", "ele": "80", "gnis:feature_id": "876205", "name": "Epithany School"}}, {"type": "node", "id": 357723522, "lat": 40.7745903, "lon": -74.0300043}, {"type": "node", "id": 357723735, "lat": 40.7983923, "lon": -74.0575405, "tags": {"amenity": "school", "ele": "12", "gnis:feature_id": "877275"}}, {"type": "node", "id": 357724293, "lat": 40.7623136, "lon": -74.0445223}, {"type": "node", "id": 357725559, "lat": 40.7756114, "lon": -74.0390106}, {"type": "node", "id": 357728740, "lat": 40.8164895, "lon": -73.9956946, "tags": {"amenity": "school", "ele": "80", "gnis:feature_id": "880034", "name": "Saint Johns School"}}, {"type": "node", "id": 357729095, "lat": 40.834267, "lon": -74.0062504, "tags": {"amenity": "school", "ele": "34", "gnis:feature_id": "880135", "name": "Saint Matthews School"}}, {"type": "node", "id": 357729637, "lat": 40.8364891, "lon": -74.0029169, "tags": {"amenity": "school", "ele": "28", "gnis:feature_id": "880335", "name": "Slocum-Skewes Elementary School"}}, {"type": "node", "id": 357729719, "lat": 40.8174994, "lon": -73.9904246, "tags": {"amenity": "school", "education": "school", "ele": "78", "gnis:feature_id": "880359", "name": "Number 3 Elementary School"}}, {"type": "node", "id": 357729722, "lat": 40.8189894, "lon": -73.9959724, "tags": {"amenity": "school", "ele": "88", "gnis:feature_id": "880360", "name": "Number 3 Elementary School"}}, {"type": "node", "id": 357729729, "lat": 40.8420444, "lon": -74.0481961, "tags": {"amenity": "school", "ele": "1", "gnis:feature_id": "880362", "name": "School Number 3"}}, {"type": "node", "id": 357729799, "lat": 40.8267671, "lon": -73.9859721, "tags": {"amenity": "school", "ele": "86", "gnis:feature_id": "880377", "name": "Number 4 Elementary School"}}, {"type": "node", "id": 357729802, "lat": 40.8384323, "lon": -73.9825355}, {"type": "node", "id": 357729842, "lat": 40.7764048, "lon": -74.0153378}, {"type": "node", "id": 357729852, "lat": 40.8111173, "lon": -73.99432, "tags": {"amenity": "school", "education": "school", "ele": "69", "gnis:feature_id": "880393", "name": "Number 5 Elementary School"}}, {"type": "node", "id": 357729873, "lat": 40.8259337, "lon": -73.9923611, "tags": {"amenity": "school", "ele": "83", "gnis:feature_id": "880399", "grades": "1-8", "name": "Number 6 Elementary School"}}, {"type": "node", "id": 357730051, "lat": 40.8301003, "lon": -74.0048615, "tags": {"amenity": "school", "ele": "8", "gnis:feature_id": "880496", "name": "Shaler Academy"}}, {"type": "node", "id": 357731287, "lat": 40.8220449, "lon": -73.9784719, "tags": {"amenity": "school", "ele": "15", "gnis:feature_id": "881419", "name": "Eleanor Van Gelder Elementary School"}}, {"type": "node", "id": 357731572, "lat": 40.7757059, "lon": -74.0260381}, {"type": "node", "id": 357731663, "lat": 40.7711432, "lon": -74.0330925}, {"type": "node", "id": 357732096, "lat": 40.7678791, "lon": -74.0312514, "tags": {"amenity": "school", "ele": "58", "gnis:feature_id": "881984", "name": "Yeshiva School"}}, {"type": "node", "id": 357743123, "lat": 40.8312114, "lon": -73.9993057, "tags": {"amenity": "school", "ele": "9", "gnis:feature_id": "2054696", "name": "Ridgefield Memorial High School", "wikidata": "Q7332742"}}, {"type": "node", "id": 357744909, "lat": 40.7833304, "lon": -74.0134391}, {"type": "node", "id": 357744924, "lat": 40.7638219, "lon": -74.0338381}, {"type": "node", "id": 357745005, "lat": 40.7615601, "lon": -74.0357251}, {"type": "node", "id": 357745007, "lat": 40.7641921, "lon": -74.0387602}, {"type": "node", "id": 357745405, "lat": 40.775625, "lon": -74.0249054}, {"type": "node", "id": 440243693, "lat": 40.7684892, "lon": -74.0286853, "tags": {"highway": "traffic_signals"}}, {"type": "node", "id": 475221843, "lat": 40.8216145, "lon": -73.9858441}, {"type": "node", "id": 475221850, "lat": 40.8205615, "lon": -73.9867625}, {"type": "node", "id": 475223315, "lat": 40.8314087, "lon": -73.9983238}, {"type": "node", "id": 475223316, "lat": 40.8318598, "lon": -73.9979421}, {"type": "node", "id": 475223332, "lat": 40.8319118, "lon": -73.9987863}, {"type": "node", "id": 475223334, "lat": 40.8321858, "lon": -73.99851}, {"type": "node", "id": 475223352, "lat": 40.8316265, "lon": -73.9997296}, {"type": "node", "id": 475223353, "lat": 40.8319861, "lon": -73.9993872}, {"type": "node", "id": 475223727, "lat": 40.8265598, "lon": -73.9924556}, {"type": "node", "id": 475225272, "lat": 40.8389284, "lon": -73.9935968}, {"type": "node", "id": 475225275, "lat": 40.8387589, "lon": -73.9924631}, {"type": "node", "id": 475225373, "lat": 40.8375595, "lon": -73.9920795}, {"type": "node", "id": 475225374, "lat": 40.8377837, "lon": -73.9937073}, {"type": "node", "id": 475225375, "lat": 40.8378763, "lon": -73.9928226}, {"type": "node", "id": 475225376, "lat": 40.8377679, "lon": -73.9920274}, {"type": "node", "id": 1240900780, "lat": 40.768013, "lon": -73.9709581, "tags": {"amenity": "school", "name": "Zoo School"}}, {"type": "node", "id": 1595140630, "lat": 40.7611783, "lon": -73.9890815}, {"type": "node", "id": 1728793881, "lat": 40.7664323, "lon": -73.9903252}, {"type": "node", "id": 1728793882, "lat": 40.7656514, "lon": -73.9892254}, {"type": "node", "id": 1728793885, "lat": 40.7658664, "lon": -73.9889704}, {"type": "node", "id": 1728793886, "lat": 40.7656199, "lon": -73.9891499}, {"type": "node", "id": 1728793887, "lat": 40.7654099, "lon": -73.9894012}, {"type": "node", "id": 1728793890, "lat": 40.7609763, "lon": -73.9886109}, {"type": "node", "id": 1728793893, "lat": 40.7614649, "lon": -73.9882524}, {"type": "node", "id": 2438940208, "lat": 40.787589, "lon": -73.9716277, "tags": {"addr:country": "US", "addr:housenumber": "566", "addr:state": "NY", "addr:street": "Columbus Avenue", "amenity": "school", "name": "Dwight School Performing Arts Center", "training": "music"}}, {"type": "node", "id": 2631941176, "lat": 40.7709824, "lon": -74.0362764}, {"type": "node", "id": 2631941177, "lat": 40.7704908, "lon": -74.0352652}, {"type": "node", "id": 2631941178, "lat": 40.7699484, "lon": -74.0357239}, {"type": "node", "id": 2631941183, "lat": 40.7708219, "lon": -74.03644}, {"type": "node", "id": 2709860771, "lat": 40.7615988, "lon": -73.9956193, "tags": {"amenity": "school", "ele": "6", "gnis:feature_id": "961742", "name": "Public School 51"}}, {"type": "node", "id": 2709879101, "lat": 40.7601043, "lon": -73.9932888}, {"type": "node", "id": 2709879123, "lat": 40.7601394, "lon": -73.9932631}, {"type": "node", "id": 2709879145, "lat": 40.7601581, "lon": -73.9934161}, {"type": "node", "id": 2709879188, "lat": 40.7602459, "lon": -73.9931853}, {"type": "node", "id": 2709879225, "lat": 40.7602997, "lon": -73.9933126}, {"type": "node", "id": 2709936742, "lat": 40.7631712, "lon": -73.9899191}, {"type": "node", "id": 2709936788, "lat": 40.7633562, "lon": -73.9897847}, {"type": "node", "id": 2709936830, "lat": 40.7634067, "lon": -73.9897272}, {"type": "node", "id": 2709936832, "lat": 40.7634082, "lon": -73.9897468}, {"type": "node", "id": 2709936850, "lat": 40.7634558, "lon": -73.9896915}, {"type": "node", "id": 2709936916, "lat": 40.7636498, "lon": -73.9895504}, {"type": "node", "id": 2709936920, "lat": 40.7636604, "lon": -73.9910858}, {"type": "node", "id": 2709936927, "lat": 40.7636979, "lon": -73.9910586}, {"type": "node", "id": 2709936962, "lat": 40.7637949, "lon": -73.9909881}, {"type": "node", "id": 2709936974, "lat": 40.7638148, "lon": -73.9909736}, {"type": "node", "id": 2709937005, "lat": 40.7638665, "lon": -73.9909371}, {"type": "node", "id": 2709937019, "lat": 40.7639028, "lon": -73.9909107}, {"type": "node", "id": 2709937063, "lat": 40.7640065, "lon": -73.990995}, {"type": "node", "id": 2709937088, "lat": 40.7640392, "lon": -73.9909713}, {"type": "node", "id": 2709937311, "lat": 40.7641959, "lon": -73.9908572}, {"type": "node", "id": 2709937313, "lat": 40.7641985, "lon": -73.9908553}, {"type": "node", "id": 2709956033, "lat": 40.7658599, "lon": -73.9904671}, {"type": "node", "id": 2709956055, "lat": 40.7659797, "lon": -73.9903798}, {"type": "node", "id": 2709956078, "lat": 40.7660625, "lon": -73.9905763}, {"type": "node", "id": 2709967883, "lat": 40.7638814, "lon": -73.985773}, {"type": "node", "id": 2709967911, "lat": 40.763958, "lon": -73.9857167}, {"type": "node", "id": 2709967930, "lat": 40.7640193, "lon": -73.9856717}, {"type": "node", "id": 2709967942, "lat": 40.76408, "lon": -73.9862411}, {"type": "node", "id": 2709967945, "lat": 40.7640831, "lon": -73.9856249}, {"type": "node", "id": 2709967963, "lat": 40.7641248, "lon": -73.9862082}, {"type": "node", "id": 2709967981, "lat": 40.7641567, "lon": -73.9861848}, {"type": "node", "id": 2709967999, "lat": 40.7641765, "lon": -73.9855564}, {"type": "node", "id": 2709968000, "lat": 40.7641773, "lon": -73.9861697}, {"type": "node", "id": 2709968018, "lat": 40.7641963, "lon": -73.9856031}, {"type": "node", "id": 2709968071, "lat": 40.7642427, "lon": -73.9861216}, {"type": "node", "id": 2709968120, "lat": 40.7642867, "lon": -73.9858161}, {"type": "node", "id": 2709968122, "lat": 40.7642898, "lon": -73.9860871}, {"type": "node", "id": 2709968141, "lat": 40.7643188, "lon": -73.9860658}, {"type": "node", "id": 2709968170, "lat": 40.7643415, "lon": -73.9859452}, {"type": "node", "id": 2709968183, "lat": 40.7643534, "lon": -73.9861473}, {"type": "node", "id": 2709968210, "lat": 40.7643815, "lon": -73.9859159}, {"type": "node", "id": 2709968212, "lat": 40.7643886, "lon": -73.9861214}, {"type": "node", "id": 2709968228, "lat": 40.7644355, "lon": -73.9858763}, {"type": "node", "id": 2709968230, "lat": 40.7644397, "lon": -73.9860839}, {"type": "node", "id": 2709968251, "lat": 40.7644879, "lon": -73.9860486}, {"type": "node", "id": 2709968258, "lat": 40.7645037, "lon": -73.986037}, {"type": "node", "id": 2710082448, "lat": 40.7695287, "lon": -73.9828091}, {"type": "node", "id": 2710082471, "lat": 40.7693495, "lon": -73.9829155}, {"type": "node", "id": 2710082476, "lat": 40.7694457, "lon": -73.9831451}, {"type": "node", "id": 2710082482, "lat": 40.7694946, "lon": -73.9828103}, {"type": "node", "id": 2710082483, "lat": 40.7695006, "lon": -73.9830527}, {"type": "node", "id": 2710082484, "lat": 40.7695021, "lon": -73.9828283}, {"type": "node", "id": 2710082485, "lat": 40.7695107, "lon": -73.9830011}, {"type": "node", "id": 2710082486, "lat": 40.7695175, "lon": -73.9830931}, {"type": "node", "id": 2710082489, "lat": 40.7695212, "lon": -73.982791}, {"type": "node", "id": 2710082490, "lat": 40.7695249, "lon": -73.9830351}, {"type": "node", "id": 2710082493, "lat": 40.7695498, "lon": -73.9827703}, {"type": "node", "id": 2710082494, "lat": 40.7695562, "lon": -73.9829681}, {"type": "node", "id": 2710082495, "lat": 40.7695874, "lon": -73.9830425}, {"type": "node", "id": 2710082498, "lat": 40.769646, "lon": -73.983}, {"type": "node", "id": 2710195161, "lat": 40.7679539, "lon": -73.9881627, "tags": {"addr:city": "New York", "addr:housenumber": "444", "addr:postcode": "10019", "addr:state": "NY", "addr:street": "West 56th Street", "amenity": "school", "ele": "15", "gnis:feature_id": "2083889", "name": "High School for Environmental Studies", "website": "https://www.envirostudies.org/", "wikidata": "Q16975684", "wikipedia": "en:High School for Environmental Studies"}}, {"type": "node", "id": 2710195173, "lat": 40.7680257, "lon": -73.9891224, "tags": {"addr:city": "New York", "addr:housenumber": "850", "addr:postcode": "10019", "addr:state": "NY", "addr:street": "10th Avenue", "amenity": "school", "fax": "+1-212-262-8110", "name": "Independence High School", "phone": "+1-212-262-8067", "website": "https://www.ihsnyc.com/"}}, {"type": "node", "id": 2710212275, "lat": 40.7702439, "lon": -73.985978}, {"type": "node", "id": 2710212276, "lat": 40.7703693, "lon": -73.9862747}, {"type": "node", "id": 2710212278, "lat": 40.7703991, "lon": -73.9858646}, {"type": "node", "id": 2710212280, "lat": 40.7705245, "lon": -73.9861613}, {"type": "node", "id": 2716231720, "lat": 40.7582745, "lon": -73.9908869}, {"type": "node", "id": 2716231800, "lat": 40.7583736, "lon": -73.9911241}, {"type": "node", "id": 2716231807, "lat": 40.7583855, "lon": -73.9908067}, {"type": "node", "id": 2716231813, "lat": 40.7584064, "lon": -73.9911002}, {"type": "node", "id": 2716231826, "lat": 40.758433, "lon": -73.9907724}, {"type": "node", "id": 2716231861, "lat": 40.7585321, "lon": -73.9910088}, {"type": "node", "id": 2716714107, "lat": 40.7632927, "lon": -73.9898307}, {"type": "node", "id": 2716714108, "lat": 40.7634014, "lon": -73.9897308}, {"type": "node", "id": 2716714109, "lat": 40.7639537, "lon": -73.9908693}, {"type": "node", "id": 2744840804, "lat": 40.7714477, "lon": -73.9878916}, {"type": "node", "id": 2744840811, "lat": 40.7714872, "lon": -73.9879871}, {"type": "node", "id": 2744840842, "lat": 40.7715455, "lon": -73.9881278}, {"type": "node", "id": 2744840845, "lat": 40.7715631, "lon": -73.9881151}, {"type": "node", "id": 2744840867, "lat": 40.771753, "lon": -73.9878737}, {"type": "node", "id": 2744840871, "lat": 40.7717862, "lon": -73.9879542}, {"type": "node", "id": 2744840903, "lat": 40.7719918, "lon": -73.9877109}, {"type": "node", "id": 2744840930, "lat": 40.7721144, "lon": -73.9894694}, {"type": "node", "id": 2744840948, "lat": 40.7722457, "lon": -73.9897851}, {"type": "node", "id": 2744840950, "lat": 40.7722522, "lon": -73.9890606}, {"type": "node", "id": 2744840954, "lat": 40.7722797, "lon": -73.9890406}, {"type": "node", "id": 2744840965, "lat": 40.7723228, "lon": -73.9890093}, {"type": "node", "id": 2744840974, "lat": 40.7723478, "lon": -73.9892997}, {"type": "node", "id": 2744840975, "lat": 40.7723515, "lon": -73.9892971}, {"type": "node", "id": 2744840984, "lat": 40.7723879, "lon": -73.9889619}, {"type": "node", "id": 2744840988, "lat": 40.7724113, "lon": -73.9889449}, {"type": "node", "id": 2744840994, "lat": 40.7724456, "lon": -73.98892}, {"type": "node", "id": 2744840996, "lat": 40.7724838, "lon": -73.989612}, {"type": "node", "id": 2744840997, "lat": 40.7724898, "lon": -73.9888879}, {"type": "node", "id": 2744840999, "lat": 40.7727214, "lon": -73.9894392}, {"type": "node", "id": 2744978884, "lat": 40.7739437, "lon": -73.9793963}, {"type": "node", "id": 2744978893, "lat": 40.7739503, "lon": -73.9794886}, {"type": "node", "id": 2744978899, "lat": 40.773975, "lon": -73.9794706}, {"type": "node", "id": 2744978903, "lat": 40.7739775, "lon": -73.9793716}, {"type": "node", "id": 2744978907, "lat": 40.7739892, "lon": -73.9795808}, {"type": "node", "id": 2744978908, "lat": 40.7739936, "lon": -73.9794099}, {"type": "node", "id": 2744978913, "lat": 40.7740137, "lon": -73.9795629}, {"type": "node", "id": 2744978922, "lat": 40.7740263, "lon": -73.9795928}, {"type": "node", "id": 2744978933, "lat": 40.774067, "lon": -73.9793403}, {"type": "node", "id": 2744978935, "lat": 40.7740744, "lon": -73.9793009}, {"type": "node", "id": 2744978940, "lat": 40.7740854, "lon": -73.979327}, {"type": "node", "id": 2744978958, "lat": 40.7741536, "lon": -73.979243}, {"type": "node", "id": 2744978959, "lat": 40.7741572, "lon": -73.9794972}, {"type": "node", "id": 2744978961, "lat": 40.7741589, "lon": -73.9792391}, {"type": "node", "id": 2744978963, "lat": 40.7741649, "lon": -73.9795155}, {"type": "node", "id": 2744978965, "lat": 40.7741688, "lon": -73.9795127}, {"type": "node", "id": 2744978971, "lat": 40.7741821, "lon": -73.9795442}, {"type": "node", "id": 2744978986, "lat": 40.7742575, "lon": -73.9794892}, {"type": "node", "id": 2744978988, "lat": 40.7742628, "lon": -73.9794853}, {"type": "node", "id": 2745038545, "lat": 40.7774084, "lon": -73.9844695}, {"type": "node", "id": 2745038548, "lat": 40.7774588, "lon": -73.9844328}, {"type": "node", "id": 2745038589, "lat": 40.7777503, "lon": -73.9852684}, {"type": "node", "id": 2745038592, "lat": 40.7777816, "lon": -73.9841978}, {"type": "node", "id": 2745038626, "lat": 40.778119, "lon": -73.985}, {"type": "node", "id": 2745087404, "lat": 40.7787849, "lon": -73.9839515}, {"type": "node", "id": 2745087410, "lat": 40.7788086, "lon": -73.9840069}, {"type": "node", "id": 2745087413, "lat": 40.778815, "lon": -73.9840145}, {"type": "node", "id": 2745087415, "lat": 40.7788188, "lon": -73.9840175}, {"type": "node", "id": 2745087420, "lat": 40.7788269, "lon": -73.9840213}, {"type": "node", "id": 2745087423, "lat": 40.7788356, "lon": -73.9840222}, {"type": "node", "id": 2745087451, "lat": 40.7788683, "lon": -73.9838897}, {"type": "node", "id": 2745087496, "lat": 40.7789283, "lon": -73.9838452}, {"type": "node", "id": 2745087505, "lat": 40.7789637, "lon": -73.9839885}, {"type": "node", "id": 2745087513, "lat": 40.7789781, "lon": -73.9840223}, {"type": "node", "id": 2745087514, "lat": 40.7789788, "lon": -73.9838078}, {"type": "node", "id": 2745087535, "lat": 40.779028, "lon": -73.9839853}, {"type": "node", "id": 2745087545, "lat": 40.7790484, "lon": -73.9839702}, {"type": "node", "id": 2745451462, "lat": 40.780552, "lon": -73.9770196}, {"type": "node", "id": 2745451503, "lat": 40.7806357, "lon": -73.9781831}, {"type": "node", "id": 2745451519, "lat": 40.7807195, "lon": -73.9768995}, {"type": "node", "id": 2745451527, "lat": 40.7807565, "lon": -73.9780443}, {"type": "node", "id": 2745451528, "lat": 40.7807728, "lon": -73.978083}, {"type": "node", "id": 2745451531, "lat": 40.7807919, "lon": -73.9785537}, {"type": "node", "id": 2745451532, "lat": 40.7808045, "lon": -73.9785445}, {"type": "node", "id": 2745451541, "lat": 40.7808347, "lon": -73.977926}, {"type": "node", "id": 2745451544, "lat": 40.7808545, "lon": -73.9779728}, {"type": "node", "id": 2745451550, "lat": 40.780908, "lon": -73.9778725}, {"type": "node", "id": 2745451554, "lat": 40.7809552, "lon": -73.9784346}, {"type": "node", "id": 2745451562, "lat": 40.7809973, "lon": -73.9782991}, {"type": "node", "id": 2745451569, "lat": 40.7810311, "lon": -73.9783792}, {"type": "node", "id": 2745451575, "lat": 40.7810566, "lon": -73.9782559}, {"type": "node", "id": 2745451637, "lat": 40.7812265, "lon": -73.9781319}, {"type": "node", "id": 2745451638, "lat": 40.7812289, "lon": -73.9781302}, {"type": "node", "id": 2745528103, "lat": 40.7813947, "lon": -73.9780099}, {"type": "node", "id": 2745528123, "lat": 40.7814294, "lon": -73.9777625}, {"type": "node", "id": 2745528145, "lat": 40.7814711, "lon": -73.9781919}, {"type": "node", "id": 2745528148, "lat": 40.7814784, "lon": -73.977906}, {"type": "node", "id": 2745528151, "lat": 40.7814871, "lon": -73.9778997}, {"type": "node", "id": 2745528152, "lat": 40.7814923, "lon": -73.977939}, {"type": "node", "id": 2745528161, "lat": 40.7815026, "lon": -73.9777093}, {"type": "node", "id": 2745528301, "lat": 40.7817856, "lon": -73.9779633}, {"type": "node", "id": 2745528303, "lat": 40.7817906, "lon": -73.9774999}, {"type": "node", "id": 2745528336, "lat": 40.7820212, "lon": -73.9785244}, {"type": "node", "id": 2745528374, "lat": 40.7821741, "lon": -73.9784132}, {"type": "node", "id": 2745535124, "lat": 40.782308, "lon": -73.9781817}, {"type": "node", "id": 2745535132, "lat": 40.7823327, "lon": -73.97824}, {"type": "node", "id": 2745535192, "lat": 40.7824689, "lon": -73.9780636}, {"type": "node", "id": 2745535237, "lat": 40.7825176, "lon": -73.9779588}, {"type": "node", "id": 2745535257, "lat": 40.7825399, "lon": -73.9780115}, {"type": "node", "id": 2745535271, "lat": 40.7825662, "lon": -73.9779232}, {"type": "node", "id": 2745535277, "lat": 40.7825739, "lon": -73.978063}, {"type": "node", "id": 2745535289, "lat": 40.7825936, "lon": -73.9781095}, {"type": "node", "id": 2745535312, "lat": 40.7826182, "lon": -73.977885}, {"type": "node", "id": 2745535330, "lat": 40.7826976, "lon": -73.9778268}, {"type": "node", "id": 2745535346, "lat": 40.7827612, "lon": -73.9777801}, {"type": "node", "id": 2745535352, "lat": 40.7827714, "lon": -73.9778455}, {"type": "node", "id": 2745535355, "lat": 40.7827848, "lon": -73.9778357}, {"type": "node", "id": 2745535358, "lat": 40.7827935, "lon": -73.9778974}, {"type": "node", "id": 2745535361, "lat": 40.7828068, "lon": -73.9778876}, {"type": "node", "id": 2745535364, "lat": 40.782828, "lon": -73.9779376}, {"type": "node", "id": 2757318857, "lat": 40.7840331, "lon": -73.9711107}, {"type": "node", "id": 2757318864, "lat": 40.7840613, "lon": -73.9711777}, {"type": "node", "id": 2757318911, "lat": 40.7841628, "lon": -73.9710163}, {"type": "node", "id": 2757318923, "lat": 40.784191, "lon": -73.9710833}, {"type": "node", "id": 2757387684, "lat": 40.7862677, "lon": -73.9747175}, {"type": "node", "id": 2757387685, "lat": 40.7862829, "lon": -73.9747535}, {"type": "node", "id": 2757387686, "lat": 40.7862837, "lon": -73.9746976}, {"type": "node", "id": 2757387687, "lat": 40.7862863, "lon": -73.9747038}, {"type": "node", "id": 2757387688, "lat": 40.7862875, "lon": -73.9746948}, {"type": "node", "id": 2757387689, "lat": 40.7863016, "lon": -73.9747399}, {"type": "node", "id": 2757387690, "lat": 40.7863259, "lon": -73.9745593}, {"type": "node", "id": 2757387691, "lat": 40.7863496, "lon": -73.9748536}, {"type": "node", "id": 2757387692, "lat": 40.7863592, "lon": -73.9746398}, {"type": "node", "id": 2757387699, "lat": 40.7864565, "lon": -73.9744663}, {"type": "node", "id": 2757387701, "lat": 40.7864655, "lon": -73.9744597}, {"type": "node", "id": 2757387703, "lat": 40.7864769, "lon": -73.9747606}, {"type": "node", "id": 2757387724, "lat": 40.7865653, "lon": -73.9746959}, {"type": "node", "id": 2758302807, "lat": 40.7887142, "lon": -73.9724312}, {"type": "node", "id": 2758302814, "lat": 40.7887334, "lon": -73.9724768}, {"type": "node", "id": 2758302820, "lat": 40.7887421, "lon": -73.9722588}, {"type": "node", "id": 2758302839, "lat": 40.7887874, "lon": -73.9726051}, {"type": "node", "id": 2758302842, "lat": 40.7887911, "lon": -73.9723752}, {"type": "node", "id": 2758302865, "lat": 40.7888643, "lon": -73.9725491}, {"type": "node", "id": 2758302878, "lat": 40.7889042, "lon": -73.9721406}, {"type": "node", "id": 2758302887, "lat": 40.7889357, "lon": -73.9722445}, {"type": "node", "id": 2758302889, "lat": 40.7889451, "lon": -73.9722377}, {"type": "node", "id": 2758302901, "lat": 40.789023, "lon": -73.9729261}, {"type": "node", "id": 2758302934, "lat": 40.789135, "lon": -73.972718}, {"type": "node", "id": 2758302938, "lat": 40.7891444, "lon": -73.9727112}, {"type": "node", "id": 2758302956, "lat": 40.7891851, "lon": -73.972808}, {"type": "node", "id": 2758510550, "lat": 40.7900222, "lon": -73.9704498}, {"type": "node", "id": 2758510554, "lat": 40.7901685, "lon": -73.9707986}, {"type": "node", "id": 2758510556, "lat": 40.7901754, "lon": -73.9707937}, {"type": "node", "id": 2758510559, "lat": 40.7902074, "lon": -73.9708531}, {"type": "node", "id": 2758510561, "lat": 40.7901953, "lon": -73.9703241}, {"type": "node", "id": 2758510563, "lat": 40.7902016, "lon": -73.9708561}, {"type": "node", "id": 2758510567, "lat": 40.7903349, "lon": -73.9711571}, {"type": "node", "id": 2758510570, "lat": 40.7903526, "lon": -73.9708402}, {"type": "node", "id": 2758510572, "lat": 40.7903453, "lon": -73.9712119}, {"type": "node", "id": 2758510574, "lat": 40.7903549, "lon": -73.971205}, {"type": "node", "id": 2758510576, "lat": 40.790355, "lon": -73.9707431}, {"type": "node", "id": 2758510577, "lat": 40.7903708, "lon": -73.9707752}, {"type": "node", "id": 2758510578, "lat": 40.7903673, "lon": -73.9707342}, {"type": "node", "id": 2758510579, "lat": 40.7903813, "lon": -73.9707676}, {"type": "node", "id": 2758510580, "lat": 40.7903875, "lon": -73.9708148}, {"type": "node", "id": 2758510583, "lat": 40.7903845, "lon": -73.9713054}, {"type": "node", "id": 2758510585, "lat": 40.7904052, "lon": -73.9712904}, {"type": "node", "id": 2758510590, "lat": 40.7904376, "lon": -73.9713677}, {"type": "node", "id": 2758510594, "lat": 40.7904762, "lon": -73.9715239}, {"type": "node", "id": 2758510611, "lat": 40.7904968, "lon": -73.971509}, {"type": "node", "id": 2758510615, "lat": 40.7905127, "lon": -73.9716109}, {"type": "node", "id": 2758510624, "lat": 40.7905831, "lon": -73.9710393}, {"type": "node", "id": 2758510630, "lat": 40.7906101, "lon": -73.9714968}, {"type": "node", "id": 2758510636, "lat": 40.7906228, "lon": -73.9714225}, {"type": "node", "id": 2758510638, "lat": 40.790624, "lon": -73.97153}, {"type": "node", "id": 2758510646, "lat": 40.7906437, "lon": -73.9714724}, {"type": "node", "id": 2758510649, "lat": 40.7906537, "lon": -73.9714}, {"type": "node", "id": 2758510658, "lat": 40.7906882, "lon": -73.9714824}, {"type": "node", "id": 2758510689, "lat": 40.7907501, "lon": -73.9714375}, {"type": "node", "id": 2758520658, "lat": 40.7893239, "lon": -73.9726821}, {"type": "node", "id": 2758520673, "lat": 40.7893578, "lon": -73.9727624}, {"type": "node", "id": 2758520735, "lat": 40.7894675, "lon": -73.9722723}, {"type": "node", "id": 2758520740, "lat": 40.789501, "lon": -73.9722478}, {"type": "node", "id": 2758520746, "lat": 40.7895223, "lon": -73.9722983}, {"type": "node", "id": 2758520749, "lat": 40.789548, "lon": -73.9725183}, {"type": "node", "id": 2758520752, "lat": 40.7895819, "lon": -73.9725986}, {"type": "node", "id": 2758520757, "lat": 40.7896002, "lon": -73.9725866}, {"type": "node", "id": 2758520760, "lat": 40.7896072, "lon": -73.9721721}, {"type": "node", "id": 2758520763, "lat": 40.78961, "lon": -73.9725054}, {"type": "node", "id": 2758520767, "lat": 40.7896117, "lon": -73.9722176}, {"type": "node", "id": 2758520772, "lat": 40.7896166, "lon": -73.9722293}, {"type": "node", "id": 2758520774, "lat": 40.7896229, "lon": -73.9722093}, {"type": "node", "id": 2758520778, "lat": 40.7896339, "lon": -73.972562}, {"type": "node", "id": 2758520781, "lat": 40.789687, "lon": -73.9724491}, {"type": "node", "id": 2758520785, "lat": 40.7897067, "lon": -73.9720994}, {"type": "node", "id": 2758520787, "lat": 40.7897152, "lon": -73.9724285}, {"type": "node", "id": 2758520788, "lat": 40.7897391, "lon": -73.9724851}, {"type": "node", "id": 2758520794, "lat": 40.7898388, "lon": -73.9724122}, {"type": "node", "id": 2759182870, "lat": 40.7913408, "lon": -73.9785219}, {"type": "node", "id": 2759182872, "lat": 40.7913412, "lon": -73.9785858}, {"type": "node", "id": 2759182874, "lat": 40.7913415, "lon": -73.9785986}, {"type": "node", "id": 2759182875, "lat": 40.7913418, "lon": -73.9785794}, {"type": "node", "id": 2759182877, "lat": 40.7913426, "lon": -73.9786049}, {"type": "node", "id": 2759182881, "lat": 40.7913449, "lon": -73.9785671}, {"type": "node", "id": 2759182882, "lat": 40.7913463, "lon": -73.9786168}, {"type": "node", "id": 2759182884, "lat": 40.7913472, "lon": -73.9785615}, {"type": "node", "id": 2759182887, "lat": 40.791352, "lon": -73.9786272}, {"type": "node", "id": 2759182889, "lat": 40.7913532, "lon": -73.9785513}, {"type": "node", "id": 2759182891, "lat": 40.7913555, "lon": -73.9786317}, {"type": "node", "id": 2759182893, "lat": 40.7913637, "lon": -73.9786389}, {"type": "node", "id": 2759182898, "lat": 40.7913728, "lon": -73.9786434}, {"type": "node", "id": 2759182901, "lat": 40.7913776, "lon": -73.9786446}, {"type": "node", "id": 2759182905, "lat": 40.7913825, "lon": -73.978645}, {"type": "node", "id": 2759182908, "lat": 40.7913922, "lon": -73.9786435}, {"type": "node", "id": 2759182914, "lat": 40.7914034, "lon": -73.9786699}, {"type": "node", "id": 2759182921, "lat": 40.791441, "lon": -73.9784486}, {"type": "node", "id": 2759182932, "lat": 40.7915127, "lon": -73.978396}, {"type": "node", "id": 2759182933, "lat": 40.7915753, "lon": -73.978544}, {"type": "node", "id": 2840169692, "lat": 40.7616682, "lon": -73.9887242}, {"type": "node", "id": 3240137996, "lat": 40.7766065, "lon": -74.0158016}, {"type": "node", "id": 3240137997, "lat": 40.7768644, "lon": -74.0149739}, {"type": "node", "id": 3240137998, "lat": 40.7770708, "lon": -74.0154405}, {"type": "node", "id": 3536987987, "lat": 40.7615477, "lon": -74.0853125}, {"type": "node", "id": 3536987988, "lat": 40.761665, "lon": -74.0845694}, {"type": "node", "id": 3536987992, "lat": 40.760947, "lon": -74.0857974}, {"type": "node", "id": 3601449878, "lat": 40.7694618, "lon": -74.0362622}, {"type": "node", "id": 3601449879, "lat": 40.76996, "lon": -74.0373856}, {"type": "node", "id": 3601449886, "lat": 40.7707634, "lon": -74.0365166}, {"type": "node", "id": 3601449888, "lat": 40.7694827, "lon": -74.0363087}, {"type": "node", "id": 3601449891, "lat": 40.7706517, "lon": -74.0366856}, {"type": "node", "id": 3601449892, "lat": 40.7705379, "lon": -74.0369028}, {"type": "node", "id": 3601450195, "lat": 40.7695065, "lon": -74.0360838}, {"type": "node", "id": 3601450197, "lat": 40.7694569, "lon": -74.0363365}, {"type": "node", "id": 3601450199, "lat": 40.7705836, "lon": -74.0368076}, {"type": "node", "id": 3601450200, "lat": 40.7695538, "lon": -74.0361853}, {"type": "node", "id": 3601451599, "lat": 40.7698938, "lon": -74.037245}, {"type": "node", "id": 3602709133, "lat": 40.7909507, "lon": -74.0651099}, {"type": "node", "id": 3603573688, "lat": 40.7875637, "lon": -74.0290788}, {"type": "node", "id": 3603574696, "lat": 40.7877201, "lon": -74.0294581}, {"type": "node", "id": 3603574715, "lat": 40.7882679, "lon": -74.0285588}, {"type": "node", "id": 3603574720, "lat": 40.7884191, "lon": -74.028921}, {"type": "node", "id": 3639420606, "lat": 40.7620785, "lon": -74.0821652}, {"type": "node", "id": 3743181456, "lat": 40.7756724, "lon": -74.0385494}, {"type": "node", "id": 3743181457, "lat": 40.775962, "lon": -74.0384683}, {"type": "node", "id": 3743181458, "lat": 40.775573, "lon": -74.0387684}, {"type": "node", "id": 3743181459, "lat": 40.7756013, "lon": -74.0388458}, {"type": "node", "id": 3743181460, "lat": 40.7761517, "lon": -74.0383475}, {"type": "node", "id": 3743181461, "lat": 40.7755607, "lon": -74.0388717}, {"type": "node", "id": 3743181462, "lat": 40.7759313, "lon": -74.0383845}, {"type": "node", "id": 3743181463, "lat": 40.7762462, "lon": -74.0386062}, {"type": "node", "id": 3743181464, "lat": 40.7757186, "lon": -74.0386757}, {"type": "node", "id": 3743185946, "lat": 40.775581, "lon": -74.0389272}, {"type": "node", "id": 4048714845, "lat": 40.8218732, "lon": -73.9863044, "tags": {"direction": "forward", "highway": "stop"}}, {"type": "node", "id": 4205620794, "lat": 40.8386513, "lon": -73.9819613}, {"type": "node", "id": 4205620795, "lat": 40.8387767, "lon": -73.9819174}, {"type": "node", "id": 4205620796, "lat": 40.8390316, "lon": -73.9828135}, {"type": "node", "id": 4472625911, "lat": 40.7694145, "lon": -74.0219033}, {"type": "node", "id": 4472625913, "lat": 40.7697299, "lon": -74.0225669}, {"type": "node", "id": 4472625914, "lat": 40.7697698, "lon": -74.0216378}, {"type": "node", "id": 4472625952, "lat": 40.7700594, "lon": -74.022315}, {"type": "node", "id": 4473009453, "lat": 40.7733897, "lon": -74.0180106}, {"type": "node", "id": 4473009454, "lat": 40.773782, "lon": -74.0189111}, {"type": "node", "id": 4473009455, "lat": 40.773964, "lon": -74.017574}, {"type": "node", "id": 4473009456, "lat": 40.7744813, "lon": -74.0187168}, {"type": "node", "id": 4473551176, "lat": 40.7682121, "lon": -74.0279157}, {"type": "node", "id": 4473551181, "lat": 40.7684924, "lon": -74.0277293}, {"type": "node", "id": 4473554390, "lat": 40.7686568, "lon": -74.0274155}, {"type": "node", "id": 4473554394, "lat": 40.7688701, "lon": -74.0278701}, {"type": "node", "id": 4473554396, "lat": 40.7690455, "lon": -74.0277553}, {"type": "node", "id": 4473554397, "lat": 40.7690473, "lon": -74.0283333}, {"type": "node", "id": 4498656530, "lat": 40.7641399, "lon": -74.0402675}, {"type": "node", "id": 4498656549, "lat": 40.7646477, "lon": -74.0398947}, {"type": "node", "id": 4498656556, "lat": 40.7649723, "lon": -74.040734}, {"type": "node", "id": 4498677028, "lat": 40.7977164, "lon": -74.0576422}, {"type": "node", "id": 4498677050, "lat": 40.798045, "lon": -74.0583435}, {"type": "node", "id": 4498677073, "lat": 40.7983433, "lon": -74.0569904}, {"type": "node", "id": 4498677079, "lat": 40.7984589, "lon": -74.0572324}, {"type": "node", "id": 4498677081, "lat": 40.7984161, "lon": -74.0581978}, {"type": "node", "id": 4498941745, "lat": 40.7811049, "lon": -74.0141877}, {"type": "node", "id": 4498946189, "lat": 40.7806914, "lon": -74.0138686}, {"type": "node", "id": 4498946190, "lat": 40.7807635, "lon": -74.0140274}, {"type": "node", "id": 4498946191, "lat": 40.7808594, "lon": -74.0141347}, {"type": "node", "id": 4498946192, "lat": 40.7812901, "lon": -74.0144234}, {"type": "node", "id": 4498946193, "lat": 40.7814147, "lon": -74.0145136}, {"type": "node", "id": 4498946194, "lat": 40.7815059, "lon": -74.0145907}, {"type": "node", "id": 4498946195, "lat": 40.7815797, "lon": -74.0146998}, {"type": "node", "id": 4498946196, "lat": 40.7816039, "lon": -74.012995}, {"type": "node", "id": 4498946197, "lat": 40.7816688, "lon": -74.0148838}, {"type": "node", "id": 4498946198, "lat": 40.7822548, "lon": -74.0144044}, {"type": "node", "id": 4498996629, "lat": 40.7828426, "lon": -74.0139316}, {"type": "node", "id": 4499303038, "lat": 40.7832827, "lon": -74.0115951}, {"type": "node", "id": 4499303040, "lat": 40.7840511, "lon": -74.0122677}, {"type": "node", "id": 4499303041, "lat": 40.784143, "lon": -74.0124672}, {"type": "node", "id": 4499682346, "lat": 40.7821503, "lon": -74.0124672}, {"type": "node", "id": 4499682348, "lat": 40.7825061, "lon": -74.0141929}, {"type": "node", "id": 4499682349, "lat": 40.7828306, "lon": -74.013935}, {"type": "node", "id": 4502743407, "lat": 40.7883971, "lon": -74.008492}, {"type": "node", "id": 4502743439, "lat": 40.7887129, "lon": -74.0091724}, {"type": "node", "id": 4502743463, "lat": 40.7889777, "lon": -74.0080505}, {"type": "node", "id": 4502743476, "lat": 40.7892805, "lon": -74.0087184}, {"type": "node", "id": 4508457942, "lat": 40.7932413, "lon": -74.0083429}, {"type": "node", "id": 4508457943, "lat": 40.7934491, "lon": -74.0088023}, {"type": "node", "id": 4508457947, "lat": 40.7936972, "lon": -74.0086008}, {"type": "node", "id": 4508457953, "lat": 40.7939515, "lon": -74.0091454}, {"type": "node", "id": 4508457957, "lat": 40.7938433, "lon": -74.0078379}, {"type": "node", "id": 4508457965, "lat": 40.7941181, "lon": -74.0090094}, {"type": "node", "id": 4508457966, "lat": 40.794162, "lon": -74.0089725}, {"type": "node", "id": 4508457967, "lat": 40.7940873, "lon": -74.0090302}, {"type": "node", "id": 4508457973, "lat": 40.7942336, "lon": -74.0086429}, {"type": "node", "id": 4508457974, "lat": 40.7943231, "lon": -74.0088382}, {"type": "node", "id": 4508457975, "lat": 40.7942053, "lon": -74.0089366}, {"type": "node", "id": 4508457979, "lat": 40.7941804, "lon": -74.008521}, {"type": "node", "id": 4509819489, "lat": 40.7916729, "lon": -74.0094659}, {"type": "node", "id": 4509819503, "lat": 40.7919247, "lon": -74.0092567}, {"type": "node", "id": 4509819516, "lat": 40.7920306, "lon": -74.0102401}, {"type": "node", "id": 4509819527, "lat": 40.792285, "lon": -74.0100243}, {"type": "node", "id": 4509847520, "lat": 40.789926, "lon": -74.010891}, {"type": "node", "id": 4509847521, "lat": 40.7900639, "lon": -74.0102561}, {"type": "node", "id": 4509847522, "lat": 40.790089, "lon": -74.011259}, {"type": "node", "id": 4509847523, "lat": 40.7902368, "lon": -74.0106442}, {"type": "node", "id": 4509847524, "lat": 40.7903077, "lon": -74.010074}, {"type": "node", "id": 4509847525, "lat": 40.7903158, "lon": -74.0110779}, {"type": "node", "id": 4509847527, "lat": 40.7904321, "lon": -74.0114652}, {"type": "node", "id": 4509847528, "lat": 40.7904666, "lon": -74.0114382}, {"type": "node", "id": 4509847529, "lat": 40.7906255, "lon": -74.0118843}, {"type": "node", "id": 4509847530, "lat": 40.7910113, "lon": -74.0115398}, {"type": "node", "id": 4509868675, "lat": 40.7913117, "lon": -74.0105957}, {"type": "node", "id": 4509868676, "lat": 40.7914817, "lon": -74.0104664}, {"type": "node", "id": 4509868678, "lat": 40.7915506, "lon": -74.0110978}, {"type": "node", "id": 4509868679, "lat": 40.7915566, "lon": -74.0106325}, {"type": "node", "id": 4509868680, "lat": 40.7915834, "lon": -74.010612}, {"type": "node", "id": 4509868684, "lat": 40.7917371, "lon": -74.0109392}, {"type": "node", "id": 4509870249, "lat": 40.7904178, "lon": -74.0113214}, {"type": "node", "id": 4509870255, "lat": 40.7904903, "lon": -74.0115912}, {"type": "node", "id": 4512909372, "lat": 40.7835508, "lon": -74.0154465}, {"type": "node", "id": 4512909384, "lat": 40.7838116, "lon": -74.0160101}, {"type": "node", "id": 4512910100, "lat": 40.7841075, "lon": -74.0157738}, {"type": "node", "id": 4512910101, "lat": 40.7841125, "lon": -74.0149911}, {"type": "node", "id": 4512910114, "lat": 40.7843174, "lon": -74.0162345}, {"type": "node", "id": 4512910115, "lat": 40.7845872, "lon": -74.016026}, {"type": "node", "id": 4515741204, "lat": 40.7873657, "lon": -74.0211661}, {"type": "node", "id": 4515741205, "lat": 40.7876082, "lon": -74.0217141}, {"type": "node", "id": 4515741206, "lat": 40.7879006, "lon": -74.0223296}, {"type": "node", "id": 4515741207, "lat": 40.7876346, "lon": -74.0225201}, {"type": "node", "id": 4515741208, "lat": 40.7876772, "lon": -74.0226106}, {"type": "node", "id": 4517038481, "lat": 40.7917203, "lon": -74.0157627}, {"type": "node", "id": 4517038482, "lat": 40.7920497, "lon": -74.0164925}, {"type": "node", "id": 4517038483, "lat": 40.7917232, "lon": -74.0167493}, {"type": "node", "id": 4517038484, "lat": 40.791572, "lon": -74.0164033}, {"type": "node", "id": 4517038485, "lat": 40.7913867, "lon": -74.0160298}, {"type": "node", "id": 4520675985, "lat": 40.7898009, "lon": -74.0228213}, {"type": "node", "id": 4520675986, "lat": 40.7896435, "lon": -74.022471}, {"type": "node", "id": 4520675987, "lat": 40.7900811, "lon": -74.02215}, {"type": "node", "id": 4520675988, "lat": 40.7904142, "lon": -74.0229447}, {"type": "node", "id": 4520675989, "lat": 40.7899963, "lon": -74.0232686}, {"type": "node", "id": 4520675990, "lat": 40.7898557, "lon": -74.023292}, {"type": "node", "id": 4520675991, "lat": 40.7896795, "lon": -74.0229085}, {"type": "node", "id": 4522503325, "lat": 40.7920552, "lon": -74.0165061}, {"type": "node", "id": 4522503326, "lat": 40.7922223, "lon": -74.0168555}, {"type": "node", "id": 4522503327, "lat": 40.7916704, "lon": -74.0173363}, {"type": "node", "id": 4522503328, "lat": 40.7914948, "lon": -74.0169547}, {"type": "node", "id": 4522503331, "lat": 40.7916534, "lon": -74.0165724}, {"type": "node", "id": 4524283667, "lat": 40.793738, "lon": -74.0152515}, {"type": "node", "id": 4524283668, "lat": 40.7938928, "lon": -74.0151241}, {"type": "node", "id": 4524283669, "lat": 40.7937725, "lon": -74.0148479}, {"type": "node", "id": 4524283670, "lat": 40.7941268, "lon": -74.0145709}, {"type": "node", "id": 4524283671, "lat": 40.7943593, "lon": -74.0150946}, {"type": "node", "id": 4524283672, "lat": 40.7938522, "lon": -74.0155057}, {"type": "node", "id": 4526776991, "lat": 40.7916036, "lon": -74.0171912}, {"type": "node", "id": 4528269720, "lat": 40.7940421, "lon": -74.0196597}, {"type": "node", "id": 4528269724, "lat": 40.7943383, "lon": -74.0202659}, {"type": "node", "id": 4528269766, "lat": 40.7952015, "lon": -74.0195711}, {"type": "node", "id": 4530469736, "lat": 40.7968976, "lon": -74.0054047}, {"type": "node", "id": 4530469756, "lat": 40.7972912, "lon": -74.0062207}, {"type": "node", "id": 4530469764, "lat": 40.7973621, "lon": -74.0050256}, {"type": "node", "id": 4530469785, "lat": 40.7977457, "lon": -74.0058439}, {"type": "node", "id": 4530569518, "lat": 40.7978872, "lon": -74.0117793}, {"type": "node", "id": 4530569519, "lat": 40.797869, "lon": -74.0120694}, {"type": "node", "id": 4530569523, "lat": 40.7979638, "lon": -74.0119796}, {"type": "node", "id": 4530569528, "lat": 40.7980863, "lon": -74.0116278}, {"type": "node", "id": 4530569529, "lat": 40.7980546, "lon": -74.0124722}, {"type": "node", "id": 4530569541, "lat": 40.798375, "lon": -74.0122134}, {"type": "node", "id": 4531503850, "lat": 40.8002857, "lon": -74.0140869}, {"type": "node", "id": 4531503851, "lat": 40.8002983, "lon": -74.0141159}, {"type": "node", "id": 4531503860, "lat": 40.8013839, "lon": -74.0164942}, {"type": "node", "id": 4558200278, "lat": 40.8061442, "lon": -74.0109885}, {"type": "node", "id": 4558200279, "lat": 40.8066067, "lon": -74.0106501}, {"type": "node", "id": 4558200280, "lat": 40.806908, "lon": -74.0113047}, {"type": "node", "id": 4558200281, "lat": 40.8064546, "lon": -74.0116741}, {"type": "node", "id": 4630822414, "lat": 40.7872071, "lon": -74.021863}, {"type": "node", "id": 4630822415, "lat": 40.7870957, "lon": -74.0219564}, {"type": "node", "id": 4630822416, "lat": 40.7868977, "lon": -74.0215116}, {"type": "node", "id": 4630822417, "lat": 40.7870214, "lon": -74.0214263}, {"type": "node", "id": 4636409324, "lat": 40.767242, "lon": -74.0376191}, {"type": "node", "id": 4636409325, "lat": 40.7661624, "lon": -74.0371479}, {"type": "node", "id": 4636409326, "lat": 40.7650723, "lon": -74.0378776}, {"type": "node", "id": 4636409327, "lat": 40.7652208, "lon": -74.0382839}, {"type": "node", "id": 4636409328, "lat": 40.765403, "lon": -74.0387548}, {"type": "node", "id": 4636409329, "lat": 40.7655763, "lon": -74.0386506}, {"type": "node", "id": 4636662881, "lat": 40.7827521, "lon": -74.0139156}, {"type": "node", "id": 4636662882, "lat": 40.7823298, "lon": -74.0130159}, {"type": "node", "id": 4636662883, "lat": 40.7818469, "lon": -74.0133702}, {"type": "node", "id": 4636662884, "lat": 40.7817163, "lon": -74.013133}, {"type": "node", "id": 4636662885, "lat": 40.7809044, "lon": -74.0138632}, {"type": "node", "id": 4636662886, "lat": 40.7815949, "lon": -74.014541}, {"type": "node", "id": 4636662887, "lat": 40.7817233, "lon": -74.0147228}, {"type": "node", "id": 4636663689, "lat": 40.7827275, "lon": -74.0121525}, {"type": "node", "id": 4636663690, "lat": 40.7822784, "lon": -74.0125565}, {"type": "node", "id": 4636663691, "lat": 40.7828671, "lon": -74.0138337}, {"type": "node", "id": 4636663693, "lat": 40.7827453, "lon": -74.0121906}, {"type": "node", "id": 4636663694, "lat": 40.782296, "lon": -74.0125947}, {"type": "node", "id": 4927479122, "lat": 40.7892085, "lon": -74.0159107, "tags": {"addr:housenumber": "6014", "addr:street": "Bergenline Avenue", "amenity": "school", "name": "Uceda School English", "name:en": "Uceda School English", "name:es": "Uceda School English", "opening_hours": "Mo-Fr 20:00-22:00; Sa-Su 10:00-14:00"}}, {"type": "node", "id": 4927479222, "lat": 40.786905, "lon": -74.0180579, "tags": {"addr:street": "Bergenline Avenue", "amenity": "school", "name": "Zoni English", "name:en": "Zoni English", "name:es": "Zoni English"}}, {"type": "node", "id": 4999661722, "lat": 40.7697122, "lon": -74.0216839}, {"type": "node", "id": 5331585457, "lat": 40.7566687, "lon": -74.0420252}, {"type": "node", "id": 5339670061, "lat": 40.756767, "lon": -74.041585}, {"type": "node", "id": 5340742201, "lat": 40.8391783, "lon": -73.9825974}, {"type": "node", "id": 5340742202, "lat": 40.8392713, "lon": -73.9823373}, {"type": "node", "id": 5341032744, "lat": 40.8217973, "lon": -73.9874275}, {"type": "node", "id": 5368491812, "lat": 40.7620122, "lon": -74.0308524}, {"type": "node", "id": 5368491921, "lat": 40.7620152, "lon": -74.0308631}, {"type": "node", "id": 5368491922, "lat": 40.7620376, "lon": -74.0309127}, {"type": "node", "id": 5368491923, "lat": 40.7622844, "lon": -74.0307424}, {"type": "node", "id": 5368491924, "lat": 40.7621422, "lon": -74.0304192}, {"type": "node", "id": 5368491925, "lat": 40.7620819, "lon": -74.0304615}, {"type": "node", "id": 5368491926, "lat": 40.7621077, "lon": -74.0305211}, {"type": "node", "id": 5368491927, "lat": 40.7619213, "lon": -74.0306494}, {"type": "node", "id": 5368491928, "lat": 40.7620457, "lon": -74.0309262}, {"type": "node", "id": 5481884094, "lat": 40.8114172, "lon": -73.9946662}, {"type": "node", "id": 5544056399, "lat": 40.76251, "lon": -74.0392632}, {"type": "node", "id": 5544056400, "lat": 40.7626487, "lon": -74.0396759}, {"type": "node", "id": 5544056401, "lat": 40.7623821, "lon": -74.0398474}, {"type": "node", "id": 5544056402, "lat": 40.7622264, "lon": -74.0394585}, {"type": "node", "id": 5544056689, "lat": 40.762466, "lon": -74.0392935}, {"type": "node", "id": 5544056690, "lat": 40.7618328, "lon": -74.0369542}, {"type": "node", "id": 5544056691, "lat": 40.7616467, "lon": -74.0364823}, {"type": "node", "id": 5544056692, "lat": 40.7613797, "lon": -74.036658}, {"type": "node", "id": 5544056693, "lat": 40.7615536, "lon": -74.0371299}, {"type": "node", "id": 5544057527, "lat": 40.7617, "lon": -74.0345728}, {"type": "node", "id": 5544057528, "lat": 40.7615426, "lon": -74.0341649}, {"type": "node", "id": 5544057529, "lat": 40.7613161, "lon": -74.0343042}, {"type": "node", "id": 5544057530, "lat": 40.7609668, "lon": -74.0336023}, {"type": "node", "id": 5544057531, "lat": 40.7607365, "lon": -74.0337493}, {"type": "node", "id": 5544057532, "lat": 40.7611971, "lon": -74.0348795}, {"type": "node", "id": 5546646027, "lat": 40.7633038, "lon": -74.0328935}, {"type": "node", "id": 5546646028, "lat": 40.7632494, "lon": -74.0328704}, {"type": "node", "id": 5546646029, "lat": 40.7631099, "lon": -74.0329554}, {"type": "node", "id": 5546646030, "lat": 40.7630753, "lon": -74.032875}, {"type": "node", "id": 5546646031, "lat": 40.762903, "lon": -74.032987}, {"type": "node", "id": 5546646032, "lat": 40.7633258, "lon": -74.0341499}, {"type": "node", "id": 5546700380, "lat": 40.7618214, "lon": -74.0355673}, {"type": "node", "id": 5546700381, "lat": 40.7618071, "lon": -74.0355049}, {"type": "node", "id": 5546700382, "lat": 40.7618561, "lon": -74.0354567}, {"type": "node", "id": 5546700383, "lat": 40.7617474, "lon": -74.0352436}, {"type": "node", "id": 5546700384, "lat": 40.7617545, "lon": -74.0352095}, {"type": "node", "id": 5546700385, "lat": 40.761849, "lon": -74.0351459}, {"type": "node", "id": 5546700386, "lat": 40.7617286, "lon": -74.0348469}, {"type": "node", "id": 5546700387, "lat": 40.7613024, "lon": -74.0351106}, {"type": "node", "id": 5560675180, "lat": 40.8029657, "lon": -74.0143732}, {"type": "node", "id": 5560675431, "lat": 40.8013963, "lon": -74.0156038}, {"type": "node", "id": 5560675432, "lat": 40.8016917, "lon": -74.0162402}, {"type": "node", "id": 5560675494, "lat": 40.8003167, "lon": -74.0140674}, {"type": "node", "id": 5563231560, "lat": 40.7640199, "lon": -74.0383139}, {"type": "node", "id": 5563231561, "lat": 40.7635124, "lon": -74.0386314}, {"type": "node", "id": 5563231562, "lat": 40.76372, "lon": -74.0391795}, {"type": "node", "id": 5563231563, "lat": 40.763899, "lon": -74.0390699}, {"type": "node", "id": 5563231564, "lat": 40.763867, "lon": -74.0389728}, {"type": "node", "id": 5565465913, "lat": 40.7651111, "lon": -74.0378404}, {"type": "node", "id": 5565465927, "lat": 40.7659084, "lon": -74.0363047}, {"type": "node", "id": 5565465928, "lat": 40.7664651, "lon": -74.0359019}, {"type": "node", "id": 5567795374, "lat": 40.7637163, "lon": -74.0335635}, {"type": "node", "id": 5567795375, "lat": 40.7636179, "lon": -74.03363}, {"type": "node", "id": 5567795376, "lat": 40.7636032, "lon": -74.033582}, {"type": "node", "id": 5567795612, "lat": 40.7635618, "lon": -74.0336028}, {"type": "node", "id": 5578387602, "lat": 40.7567577, "lon": -74.0419664}, {"type": "node", "id": 5578387603, "lat": 40.756648, "lon": -74.041667}, {"type": "node", "id": 5578387604, "lat": 40.756913, "lon": -74.0414931}, {"type": "node", "id": 5578387605, "lat": 40.7567954, "lon": -74.0411778}, {"type": "node", "id": 5578387606, "lat": 40.7553481, "lon": -74.0420932}, {"type": "node", "id": 5578387607, "lat": 40.7555765, "lon": -74.0427469}, {"type": "node", "id": 5579312721, "lat": 40.7620896, "lon": -74.0446841}, {"type": "node", "id": 5579312722, "lat": 40.7621009, "lon": -74.0447139}, {"type": "node", "id": 5579312723, "lat": 40.7618797, "lon": -74.0448683}, {"type": "node", "id": 5579312724, "lat": 40.7615331, "lon": -74.0440163}, {"type": "node", "id": 5579312725, "lat": 40.7619783, "lon": -74.0436647}, {"type": "node", "id": 5579312742, "lat": 40.7617227, "lon": -74.044506}, {"type": "node", "id": 5613711774, "lat": 40.7701864, "lon": -74.0378318}, {"type": "node", "id": 5620930560, "lat": 40.7713112, "lon": -74.0329623}, {"type": "node", "id": 5620930561, "lat": 40.7713568, "lon": -74.0330515}, {"type": "node", "id": 5620930562, "lat": 40.7716544, "lon": -74.0328297}, {"type": "node", "id": 5620930563, "lat": 40.772067, "lon": -74.0336686}, {"type": "node", "id": 5620930564, "lat": 40.7716179, "lon": -74.0340447}, {"type": "node", "id": 5620930565, "lat": 40.7720682, "lon": -74.0337001}, {"type": "node", "id": 5645967231, "lat": 40.7737988, "lon": -74.0221568}, {"type": "node", "id": 5645967232, "lat": 40.7742197, "lon": -74.0230755}, {"type": "node", "id": 5645967233, "lat": 40.7737625, "lon": -74.0234382}, {"type": "node", "id": 5645967234, "lat": 40.773333, "lon": -74.022521}, {"type": "node", "id": 5650680236, "lat": 40.774201, "lon": -74.0307481}, {"type": "node", "id": 5650680239, "lat": 40.7743434, "lon": -74.0301914}, {"type": "node", "id": 5650680240, "lat": 40.7744237, "lon": -74.0303445}, {"type": "node", "id": 5650680241, "lat": 40.7739278, "lon": -74.0304819}, {"type": "node", "id": 5650680242, "lat": 40.7737253, "lon": -74.0303233}, {"type": "node", "id": 5650680243, "lat": 40.7736876, "lon": -74.0302877}, {"type": "node", "id": 5650680244, "lat": 40.7736889, "lon": -74.0302698}, {"type": "node", "id": 5650680245, "lat": 40.7744432, "lon": -74.0296747}, {"type": "node", "id": 5652160568, "lat": 40.7716624, "lon": -74.0256814}, {"type": "node", "id": 5652160569, "lat": 40.7721509, "lon": -74.0252973}, {"type": "node", "id": 5652160570, "lat": 40.7723559, "lon": -74.0257665}, {"type": "node", "id": 5652160571, "lat": 40.7718771, "lon": -74.0261322}, {"type": "node", "id": 5652308543, "lat": 40.7759616, "lon": -74.025837}, {"type": "node", "id": 5652308544, "lat": 40.7759712, "lon": -74.0258606}, {"type": "node", "id": 5652308545, "lat": 40.7761978, "lon": -74.0256905}, {"type": "node", "id": 5652308546, "lat": 40.7758447, "lon": -74.0249329}, {"type": "node", "id": 5652308547, "lat": 40.7753747, "lon": -74.0253005}, {"type": "node", "id": 5654244340, "lat": 40.7982009, "lon": -74.0583453}, {"type": "node", "id": 5654244341, "lat": 40.7988519, "lon": -74.0574186}, {"type": "node", "id": 5654244342, "lat": 40.7988959, "lon": -74.0575204}, {"type": "node", "id": 5654244343, "lat": 40.7987755, "lon": -74.0579304}, {"type": "node", "id": 5654244344, "lat": 40.7986725, "lon": -74.0576939}, {"type": "node", "id": 5676231767, "lat": 40.7864129, "lon": -73.9746091}, {"type": "node", "id": 5676231768, "lat": 40.7863782, "lon": -73.9747262}, {"type": "node", "id": 5676231769, "lat": 40.7863488, "lon": -73.9746556}, {"type": "node", "id": 5676231770, "lat": 40.7864423, "lon": -73.9746797}, {"type": "node", "id": 5693373420, "lat": 40.7757876, "lon": -74.0247774}, {"type": "node", "id": 5693380021, "lat": 40.7752788, "lon": -74.0236825}, {"type": "node", "id": 5693380022, "lat": 40.775103, "lon": -74.0238156}, {"type": "node", "id": 5748061890, "lat": 40.8382889, "lon": -73.9821045}, {"type": "node", "id": 5748061896, "lat": 40.8387641, "lon": -73.9830701}, {"type": "node", "id": 5813807475, "lat": 40.7613447, "lon": -74.0857256}, {"type": "node", "id": 5813807476, "lat": 40.7619458, "lon": -74.0821546}, {"type": "node", "id": 5813807477, "lat": 40.7605361, "lon": -74.0854658}, {"type": "node", "id": 5813807478, "lat": 40.76028, "lon": -74.085213}, {"type": "node", "id": 5813807482, "lat": 40.7595916, "lon": -74.0847281}, {"type": "node", "id": 5813809409, "lat": 40.7619483, "lon": -74.0818403}, {"type": "node", "id": 5813809410, "lat": 40.7617648, "lon": -74.081868}, {"type": "node", "id": 5813809411, "lat": 40.7607654, "lon": -74.0823056}, {"type": "node", "id": 5813809412, "lat": 40.7607045, "lon": -74.0823793}, {"type": "node", "id": 5813809413, "lat": 40.7606182, "lon": -74.0823526}, {"type": "node", "id": 5813809414, "lat": 40.7604253, "lon": -74.0822127}, {"type": "node", "id": 5813809415, "lat": 40.760305, "lon": -74.0821293}, {"type": "node", "id": 5813809418, "lat": 40.7600635, "lon": -74.0819565}, {"type": "node", "id": 5813809419, "lat": 40.7598234, "lon": -74.0819084}, {"type": "node", "id": 5813809420, "lat": 40.7593711, "lon": -74.0824684}, {"type": "node", "id": 5813869896, "lat": 40.7987486, "lon": -74.0571666}, {"type": "node", "id": 5813869897, "lat": 40.7987026, "lon": -74.0570466}, {"type": "node", "id": 5910239409, "lat": 40.7829707, "lon": -74.0139968}, {"type": "node", "id": 5910239410, "lat": 40.7845929, "lon": -74.0126447}, {"type": "node", "id": 5910239411, "lat": 40.7850577, "lon": -74.0136571}, {"type": "node", "id": 5910239412, "lat": 40.7843233, "lon": -74.0142711}, {"type": "node", "id": 5910239413, "lat": 40.7842838, "lon": -74.0143299}, {"type": "node", "id": 5910239414, "lat": 40.7834084, "lon": -74.0149928}, {"type": "node", "id": 5941554202, "lat": 40.8308992, "lon": -74.0003771}, {"type": "node", "id": 5941554203, "lat": 40.8303892, "lon": -73.9995202}, {"type": "node", "id": 5941554204, "lat": 40.8309981, "lon": -73.9988729}, {"type": "node", "id": 5941554205, "lat": 40.8306124, "lon": -73.9982233}, {"type": "node", "id": 5959905100, "lat": 40.8385463, "lon": -73.9940581}, {"type": "node", "id": 5959905101, "lat": 40.8383804, "lon": -73.9931989, "tags": {"amenity": "school", "name": "Palisades Park Junior/Senior High School", "website": "https://www.palpkschools.org/Page/24", "wikidata": "Q7127606"}}, {"type": "node", "id": 5959905152, "lat": 40.838517, "lon": -73.9940781}, {"type": "node", "id": 5959905160, "lat": 40.8388523, "lon": -73.9937518}, {"type": "node", "id": 5959905161, "lat": 40.8389347, "lon": -73.993668}, {"type": "node", "id": 5959905162, "lat": 40.8379748, "lon": -73.9941325}, {"type": "node", "id": 5959905163, "lat": 40.8379293, "lon": -73.9940599}, {"type": "node", "id": 5959905164, "lat": 40.8377663, "lon": -73.9940874}, {"type": "node", "id": 5959905165, "lat": 40.8377311, "lon": -73.9939146}, {"type": "node", "id": 5964454318, "lat": 40.8378533, "lon": -73.9926175}, {"type": "node", "id": 5964454319, "lat": 40.8375808, "lon": -73.9920747}, {"type": "node", "id": 6126172910, "lat": 40.7845608, "lon": -74.0323961}, {"type": "node", "id": 6126172911, "lat": 40.7842815, "lon": -74.0325893}, {"type": "node", "id": 6126172912, "lat": 40.784247, "lon": -74.0325068}, {"type": "node", "id": 6126172913, "lat": 40.7841246, "lon": -74.032594}, {"type": "node", "id": 6126172914, "lat": 40.7839459, "lon": -74.0321085}, {"type": "node", "id": 6126172915, "lat": 40.7843486, "lon": -74.0318329}, {"type": "node", "id": 6128671724, "lat": 40.7840638, "lon": -74.0324289}, {"type": "node", "id": 6179775642, "lat": 40.7808505, "lon": -74.0139481}, {"type": "node", "id": 6179775643, "lat": 40.7809616, "lon": -74.0141073}, {"type": "node", "id": 6709043885, "lat": 40.7983364, "lon": -74.0582483}, {"type": "node", "id": 6709043886, "lat": 40.7982143, "lon": -74.058337}, {"type": "node", "id": 6786986039, "lat": 40.7719154, "lon": -73.9877629}, {"type": "node", "id": 6896058843, "lat": 40.7899284, "lon": -74.022262}, {"type": "node", "id": 6940484712, "lat": 40.7567991, "lon": -74.041188}, {"type": "node", "id": 6946524968, "lat": 40.7644575, "lon": -74.0410858}, {"type": "node", "id": 6977104136, "lat": 40.782841, "lon": -74.0120233}, {"type": "node", "id": 7304780619, "lat": 40.8182523, "lon": -73.9905338}, {"type": "node", "id": 7304780629, "lat": 40.8181395, "lon": -73.9903251}, {"type": "node", "id": 7341379174, "lat": 40.7716864, "lon": -73.9869594}, {"type": "node", "id": 7341379175, "lat": 40.7717085, "lon": -73.9870119}, {"type": "node", "id": 7387632560, "lat": 40.7786543, "lon": -74.0203258}, {"type": "node", "id": 7387632561, "lat": 40.7783839, "lon": -74.0197454}, {"type": "node", "id": 7387632562, "lat": 40.7788537, "lon": -74.0193704}, {"type": "node", "id": 7387632566, "lat": 40.7791287, "lon": -74.0199737}, {"type": "node", "id": 7403285555, "lat": 40.7794391, "lon": -73.9831324, "tags": {"addr:city": "New York", "addr:floor": "2", "addr:housenumber": "243", "addr:postcode": "10023", "addr:state": "NY", "addr:street": "West 72nd Street", "amenity": "school", "name": "The Paint Place", "phone": "+1-212-799-0112", "school": "art", "website": "https://www.thepaintplaceny.com"}}, {"type": "node", "id": 7428336480, "lat": 40.8390982, "lon": -73.9827372}, {"type": "node", "id": 7428344392, "lat": 40.8385744, "lon": -73.981989}, {"type": "node", "id": 7428344394, "lat": 40.8384268, "lon": -73.9820396}, {"type": "node", "id": 7442359434, "lat": 40.8015011, "lon": -74.0475098}, {"type": "node", "id": 7442359435, "lat": 40.8012906, "lon": -74.0473972}, {"type": "node", "id": 7442359436, "lat": 40.8012093, "lon": -74.0473038}, {"type": "node", "id": 7442359437, "lat": 40.8011492, "lon": -74.0472197}, {"type": "node", "id": 7442359438, "lat": 40.8010891, "lon": -74.0470843}, {"type": "node", "id": 7442359439, "lat": 40.8010679, "lon": -74.0468321}, {"type": "node", "id": 7442359440, "lat": 40.8010502, "lon": -74.046608}, {"type": "node", "id": 7442359441, "lat": 40.801227, "lon": -74.0463465}, {"type": "node", "id": 7442359442, "lat": 40.8013578, "lon": -74.046197}, {"type": "node", "id": 7442359443, "lat": 40.8014851, "lon": -74.0463371}, {"type": "node", "id": 7442359444, "lat": 40.8016052, "lon": -74.0465473}, {"type": "node", "id": 7442359445, "lat": 40.8015664, "lon": -74.0467107}, {"type": "node", "id": 7442359446, "lat": 40.8016711, "lon": -74.0470866}, {"type": "node", "id": 7442359447, "lat": 40.8016173, "lon": -74.0471984}, {"type": "node", "id": 7442359448, "lat": 40.8015818, "lon": -74.0472795}, {"type": "node", "id": 7468537436, "lat": 40.7822439, "lon": -74.0124421, "tags": {"crossing": "marked", "highway": "crossing"}}, {"type": "node", "id": 7469386089, "lat": 40.8386727, "lon": -73.9819538}, {"type": "node", "id": 7469386098, "lat": 40.838889, "lon": -73.9818622}, {"type": "node", "id": 7469386198, "lat": 40.8386054, "lon": -73.9819779}, {"type": "node", "id": 7472526290, "lat": 40.78745, "lon": -74.0227749}, {"type": "node", "id": 7473610391, "lat": 40.7949198, "lon": -74.0189924}, {"type": "node", "id": 7474498824, "lat": 40.8008801, "lon": -74.013712, "tags": {"crossing": "marked", "highway": "crossing"}}, {"type": "node", "id": 7474498906, "lat": 40.8016083, "lon": -74.013251, "tags": {"crossing": "marked", "highway": "crossing"}}, {"type": "node", "id": 7474498909, "lat": 40.8010065, "lon": -74.0136321, "tags": {"crossing": "marked", "highway": "crossing"}}, {"type": "node", "id": 7529710579, "lat": 40.8259087, "lon": -73.9936889}, {"type": "node", "id": 7534353910, "lat": 40.8263931, "lon": -73.9921735}, {"type": "node", "id": 7534353913, "lat": 40.8263706, "lon": -73.9921343}, {"type": "node", "id": 7534353916, "lat": 40.8259987, "lon": -73.9936059}, {"type": "node", "id": 7534353917, "lat": 40.8257951, "lon": -73.9932565}, {"type": "node", "id": 7534353918, "lat": 40.8258065, "lon": -73.9931927}, {"type": "node", "id": 7534353926, "lat": 40.8256312, "lon": -73.991818}, {"type": "node", "id": 7534353938, "lat": 40.8265379, "lon": -73.992419}, {"type": "node", "id": 7534353941, "lat": 40.825235, "lon": -73.9926383}, {"type": "node", "id": 7534353942, "lat": 40.825782, "lon": -73.9921107}, {"type": "node", "id": 7534353943, "lat": 40.8256012, "lon": -73.9917595}, {"type": "node", "id": 7538748015, "lat": 40.8294019, "lon": -73.9837105}, {"type": "node", "id": 7538748016, "lat": 40.8290742, "lon": -73.9840299}, {"type": "node", "id": 7538748017, "lat": 40.8289711, "lon": -73.9838489}, {"type": "node", "id": 7538748018, "lat": 40.8286891, "lon": -73.9841095}, {"type": "node", "id": 7538748019, "lat": 40.8283413, "lon": -73.9835009}, {"type": "node", "id": 7538748020, "lat": 40.8291363, "lon": -73.9832361}, {"type": "node", "id": 7542525684, "lat": 40.8286126, "lon": -73.9839764}, {"type": "node", "id": 7542527379, "lat": 40.8272428, "lon": -73.9860925}, {"type": "node", "id": 7542527380, "lat": 40.8269564, "lon": -73.9863721}, {"type": "node", "id": 7542527381, "lat": 40.8269173, "lon": -73.9862965}, {"type": "node", "id": 7542527382, "lat": 40.8266438, "lon": -73.9865696}, {"type": "node", "id": 7542527383, "lat": 40.8263147, "lon": -73.9859931}, {"type": "node", "id": 7542527384, "lat": 40.8266484, "lon": -73.9856813}, {"type": "node", "id": 7542550785, "lat": 40.8266805, "lon": -73.9857383}, {"type": "node", "id": 7542550786, "lat": 40.8269091, "lon": -73.9855101}, {"type": "node", "id": 7542575470, "lat": 40.8210078, "lon": -73.9874029}, {"type": "node", "id": 7542575471, "lat": 40.8209245, "lon": -73.9874026}, {"type": "node", "id": 7542575473, "lat": 40.8215125, "lon": -73.9877321, "tags": {"crossing": "uncontrolled", "crossing:markings": "yes", "highway": "crossing"}}, {"type": "node", "id": 7542575536, "lat": 40.8207266, "lon": -73.9865917}, {"type": "node", "id": 7542575537, "lat": 40.8207734, "lon": -73.9866759}, {"type": "node", "id": 7542575538, "lat": 40.8219772, "lon": -73.9864825}, {"type": "node", "id": 7542575539, "lat": 40.8217843, "lon": -73.9861462}, {"type": "node", "id": 7542575540, "lat": 40.8216504, "lon": -73.985908}, {"type": "node", "id": 7552766736, "lat": 40.8263665, "lon": -73.9860839}, {"type": "node", "id": 7552766737, "lat": 40.8269336, "lon": -73.9855529}, {"type": "node", "id": 7554631956, "lat": 40.8264801, "lon": -73.9862829}, {"type": "node", "id": 7581460874, "lat": 40.8169502, "lon": -73.9911195}, {"type": "node", "id": 7581460875, "lat": 40.8172767, "lon": -73.9909413}, {"type": "node", "id": 7581460876, "lat": 40.8169039, "lon": -73.9901798}, {"type": "node", "id": 7581460879, "lat": 40.8173141, "lon": -73.9899681}, {"type": "node", "id": 7581464888, "lat": 40.8170685, "lon": -73.9900912}, {"type": "node", "id": 7604336430, "lat": 40.810609, "lon": -73.9943002}, {"type": "node", "id": 7604336431, "lat": 40.8107671, "lon": -73.994625}, {"type": "node", "id": 7604336432, "lat": 40.8108748, "lon": -73.9945557}, {"type": "node", "id": 7604336433, "lat": 40.8109051, "lon": -73.9945296}, {"type": "node", "id": 7604336434, "lat": 40.811108, "lon": -73.9948945}, {"type": "node", "id": 7604336444, "lat": 40.811185, "lon": -73.9938989}, {"type": "node", "id": 7613378198, "lat": 40.8173191, "lon": -73.9899659}, {"type": "node", "id": 7658684718, "lat": 40.7827305, "lon": -74.0119628}, {"type": "node", "id": 7658684719, "lat": 40.7828914, "lon": -74.0123204}, {"type": "node", "id": 7658684720, "lat": 40.783426, "lon": -74.0134967}, {"type": "node", "id": 7658684721, "lat": 40.7834703, "lon": -74.0133379}, {"type": "node", "id": 7658684722, "lat": 40.783914, "lon": -74.0129926}, {"type": "node", "id": 7658684723, "lat": 40.7845166, "lon": -74.0124995}, {"type": "node", "id": 7658684724, "lat": 40.7844033, "lon": -74.0122564}, {"type": "node", "id": 7658684725, "lat": 40.7837179, "lon": -74.0125215}, {"type": "node", "id": 7661904665, "lat": 40.7723643, "lon": -73.9878182, "tags": {"addr:city": "New York", "addr:housenumber": "211", "addr:postcode": "10023", "addr:state": "NY", "addr:street": "West 61st Street", "amenity": "school", "name": "The Gateway School", "phone": "+1-212-777-5966", "website": "https://www.gatewayschool.org/", "wikidata": "Q28451528", "wikipedia": "en:Gateway School"}}, {"type": "node", "id": 7795608059, "lat": 40.7695924, "lon": -74.0360139, "tags": {"amenity": "parking_entrance"}}, {"type": "node", "id": 7880404026, "lat": 40.8017924, "lon": -74.0468896}, {"type": "node", "id": 8318955062, "lat": 40.8011582, "lon": -74.013536}, {"type": "node", "id": 8318955077, "lat": 40.8010379, "lon": -74.0136122}, {"type": "node", "id": 8530324570, "lat": 40.831038, "lon": -73.9978341}, {"type": "node", "id": 8530324574, "lat": 40.8311021, "lon": -73.9979187}, {"type": "node", "id": 8539569256, "lat": 40.7729377, "lon": -73.990154, "tags": {"addr:city": "New York", "addr:housenumber": "300", "addr:postcode": "10023", "addr:state": "NY", "addr:street": "West 61st Street", "amenity": "school", "fax": "+1-347-478-5526", "grades": "PK,0K,1-8,SE", "name": "The Riverside School for Makers and Artists", "phone": "+1-347-478-5228", "website": "https://www.schools.nyc.gov/schools/M191"}}, {"type": "node", "id": 9441403841, "lat": 40.7704043, "lon": -73.9858765, "tags": {"camera:mount": "wall", "camera:type": "dome", "man_made": "surveillance", "surveillance": "outdoor", "surveillance:type": "camera", "surveillance:zone": "street"}}, {"type": "node", "id": 9441403842, "lat": 40.7704066, "lon": -73.985882, "tags": {"man_made": "flagpole"}}, {"type": "node", "id": 9441403843, "lat": 40.7704359, "lon": -73.9859513, "tags": {"man_made": "flagpole"}}, {"type": "node", "id": 9441403844, "lat": 40.7704693, "lon": -73.9860306, "tags": {"man_made": "flagpole"}}, {"type": "node", "id": 9441403845, "lat": 40.770501, "lon": -73.9861057, "tags": {"man_made": "flagpole"}}, {"type": "node", "id": 9441403846, "lat": 40.7704727, "lon": -73.9860385, "tags": {"covered": "yes", "entrance": "main", "level": "0"}}, {"type": "node", "id": 9756216135, "lat": 40.7604428, "lon": -74.0853737}, {"type": "node", "id": 9833555786, "lat": 40.7807861, "lon": -73.9785399, "tags": {"entrance": "yes"}}, {"type": "node", "id": 9833555787, "lat": 40.7808821, "lon": -73.9778914, "tags": {"entrance": "yes"}}, {"type": "node", "id": 10046543177, "lat": 40.7711864, "lon": -73.9872606}, {"type": "node", "id": 10046543180, "lat": 40.7716669, "lon": -73.986913}, {"type": "node", "id": 10046543181, "lat": 40.7719996, "lon": -73.9877054}, {"type": "node", "id": 10074104769, "lat": 40.7807291, "lon": -73.9769227}, {"type": "node", "id": 10074104780, "lat": 40.780846, "lon": -73.9779178}, {"type": "node", "id": 10181367411, "lat": 40.7617208, "lon": -74.0819745}, {"type": "node", "id": 10181367412, "lat": 40.7616537, "lon": -74.0825068}, {"type": "node", "id": 10181367413, "lat": 40.7615372, "lon": -74.0826101}, {"type": "node", "id": 10181367414, "lat": 40.7614069, "lon": -74.0825959}, {"type": "node", "id": 10181367415, "lat": 40.7612432, "lon": -74.0824477}, {"type": "node", "id": 10181367416, "lat": 40.7610958, "lon": -74.0823241}, {"type": "node", "id": 10181408117, "lat": 40.7609498, "lon": -74.082226}, {"type": "node", "id": 10181408118, "lat": 40.7608347, "lon": -74.0822465}, {"type": "node", "id": 10181408119, "lat": 40.8054667, "lon": -74.0500055}, {"type": "node", "id": 10181408120, "lat": 40.8050525, "lon": -74.050035}, {"type": "node", "id": 10181408121, "lat": 40.8047033, "lon": -74.050043}, {"type": "node", "id": 10181408122, "lat": 40.8044668, "lon": -74.0500649}, {"type": "node", "id": 10181408123, "lat": 40.8036402, "lon": -74.05023}, {"type": "node", "id": 10181408124, "lat": 40.8024954, "lon": -74.0504658}, {"type": "node", "id": 10181408125, "lat": 40.8024054, "lon": -74.0503677}, {"type": "node", "id": 10181408126, "lat": 40.802311, "lon": -74.0503138}, {"type": "node", "id": 10181408127, "lat": 40.8022808, "lon": -74.0503598}, {"type": "node", "id": 10181408128, "lat": 40.8022735, "lon": -74.0504261}, {"type": "node", "id": 10181408129, "lat": 40.8021757, "lon": -74.0505005}, {"type": "node", "id": 10181408130, "lat": 40.8022386, "lon": -74.0506412}, {"type": "node", "id": 10181408131, "lat": 40.8023224, "lon": -74.0505951}, {"type": "node", "id": 10181408132, "lat": 40.8023826, "lon": -74.0506447}, {"type": "node", "id": 10181408133, "lat": 40.8024568, "lon": -74.0507054}, {"type": "node", "id": 10181408134, "lat": 40.8026352, "lon": -74.0510243}, {"type": "node", "id": 10181408135, "lat": 40.8029011, "lon": -74.0515019}, {"type": "node", "id": 10181408136, "lat": 40.8030561, "lon": -74.05181}, {"type": "node", "id": 10181408137, "lat": 40.8031075, "lon": -74.0520472}, {"type": "node", "id": 10181408138, "lat": 40.8031063, "lon": -74.0523507}, {"type": "node", "id": 10181408139, "lat": 40.8029734, "lon": -74.0527189}, {"type": "node", "id": 10181408140, "lat": 40.8027751, "lon": -74.0529993}, {"type": "node", "id": 10181408141, "lat": 40.8024358, "lon": -74.053466}, {"type": "node", "id": 10181408142, "lat": 40.8023775, "lon": -74.0534999}, {"type": "node", "id": 10181408143, "lat": 40.8022807, "lon": -74.0534984}, {"type": "node", "id": 10181408144, "lat": 40.802269, "lon": -74.0536463}, {"type": "node", "id": 10181408145, "lat": 40.802255, "lon": -74.0538296}, {"type": "node", "id": 10181408146, "lat": 40.8024311, "lon": -74.0538342}, {"type": "node", "id": 10181408147, "lat": 40.802427, "lon": -74.0540811}, {"type": "node", "id": 10181408148, "lat": 40.8025305, "lon": -74.0540904}, {"type": "node", "id": 10181408149, "lat": 40.8025821, "lon": -74.0541189}, {"type": "node", "id": 10181408150, "lat": 40.8026059, "lon": -74.0541504}, {"type": "node", "id": 10181408151, "lat": 40.8026302, "lon": -74.0542004}, {"type": "node", "id": 10181408152, "lat": 40.8026865, "lon": -74.0542588}, {"type": "node", "id": 10181408153, "lat": 40.8032919, "lon": -74.0542571}, {"type": "node", "id": 10181408154, "lat": 40.8039912, "lon": -74.0543101}, {"type": "node", "id": 10181408155, "lat": 40.8041117, "lon": -74.0543101}, {"type": "node", "id": 10181408156, "lat": 40.8042765, "lon": -74.0542199}, {"type": "node", "id": 10181408157, "lat": 40.8044774, "lon": -74.0540854}, {"type": "node", "id": 10181408158, "lat": 40.8045013, "lon": -74.0540349}, {"type": "node", "id": 10181408159, "lat": 40.8046889, "lon": -74.0538296}, {"type": "node", "id": 10181408160, "lat": 40.8047806, "lon": -74.0537243}, {"type": "node", "id": 10181408161, "lat": 40.8049387, "lon": -74.0535996}, {"type": "node", "id": 10181408162, "lat": 40.8050894, "lon": -74.0534828}, {"type": "node", "id": 10181408163, "lat": 40.8051718, "lon": -74.053435}, {"type": "node", "id": 10181408164, "lat": 40.8052032, "lon": -74.0533943}, {"type": "node", "id": 10181408165, "lat": 40.8052374, "lon": -74.0533306}, {"type": "node", "id": 10181408166, "lat": 40.8052608, "lon": -74.0530528}, {"type": "node", "id": 10181408167, "lat": 40.8052923, "lon": -74.0526148}, {"type": "node", "id": 10181408168, "lat": 40.8053371, "lon": -74.0520996}, {"type": "node", "id": 10735919943, "lat": 40.7747748, "lon": -73.9853361, "tags": {"addr:city": "New York", "addr:housenumber": "122", "addr:postcode": "10023", "addr:state": "NY", "addr:street": "Amsterdam Avenue", "amenity": "school", "fax": "+1-212-501-1251", "grades": "9-12", "name": "High School for Law, Advocacy and Community Justice", "phone": "+1-212-501-1201", "ref": "M492", "religion": "none", "website": "https://lacjhs.org/", "wheelchair": "limited", "wikidata": "Q5756586", "wikipedia": "en:High School for Law, Advocacy, and Community Justice"}}, {"type": "node", "id": 10735919944, "lat": 40.7747743, "lon": -73.9852672, "tags": {"addr:city": "New York", "addr:housenumber": "122", "addr:postcode": "10023", "addr:state": "NY", "addr:street": "Amsterdam Avenue", "amenity": "school", "fax": "+1-212-799-4171", "grades": "9-12", "name": "The Maxine Greene High School for Imaginative Inquiry", "phone": "+1-212-799-4064", "ref": "M299", "religion": "none", "website": "https://www.mghs.nyc/", "wheelchair": "limited", "wikidata": "Q105285995"}}, {"type": "node", "id": 10735919945, "lat": 40.7747738, "lon": -73.9852069, "tags": {"addr:city": "New York", "addr:housenumber": "122", "addr:postcode": "10023", "addr:state": "NY", "addr:street": "Amsterdam Avenue", "amenity": "school", "grades": "9-12", "name": "Special Music School High School", "operator": "Kaufman Music Center", "ref": "M859", "religion": "none", "website": "https://www.kaufmanmusiccenter.org/sms/high-school/", "wheelchair": "limited"}}, {"type": "node", "id": 10735919946, "lat": 40.774774, "lon": -73.9852361, "tags": {"addr:city": "New York", "addr:housenumber": "122", "addr:postcode": "10023", "addr:state": "NY", "addr:street": "Amsterdam Avenue", "amenity": "school", "fax": "+1-212-580-0156", "grades": "9-12", "name": "The Urban Assembly School for Media Studies", "phone": "+1-212-501-1110", "ref": "M307", "religion": "none", "website": "https://www.uamhighschool.org/", "wheelchair": "limited", "wikidata": "Q105286382"}}, {"type": "node", "id": 10771673945, "lat": 40.772608, "lon": -73.9883345, "tags": {"addr:city": "New York", "addr:housenumber": "227", "addr:postcode": "10023", "addr:state": "NY", "addr:street": "West 61st Street", "amenity": "school", "gnis:feature_id": "2083865", "name": "West End Secondary School", "phone": "+1-212-245-1506", "website": "https://www.westendsecondary.com/", "wheelchair": "yes"}}, {"type": "node", "id": 10863921029, "lat": 40.7693903, "lon": -73.9828859}, {"type": "node", "id": 11441798956, "lat": 40.7718073, "lon": -73.9872471}, {"type": "node", "id": 11441798957, "lat": 40.771786, "lon": -73.9871965}, {"type": "node", "id": 11441798960, "lat": 40.7719727, "lon": -73.9876414}, {"type": "node", "id": 11442007471, "lat": 40.7724956, "lon": -73.9889017}, {"type": "node", "id": 11486213769, "lat": 40.7903355, "lon": -74.0227569}, {"type": "node", "id": 11608958682, "lat": 40.7741175, "lon": -73.9907642}, {"type": "node", "id": 11608958683, "lat": 40.7736338, "lon": -73.9911172}, {"type": "node", "id": 11608958684, "lat": 40.7734167, "lon": -73.9906054}, {"type": "node", "id": 11608958685, "lat": 40.7735992, "lon": -73.9904766}, {"type": "node", "id": 11608958686, "lat": 40.773963, "lon": -73.9903958}, {"type": "node", "id": 11628123693, "lat": 40.7920556, "lon": -73.9720797, "tags": {"addr:city": "New York", "addr:housenumber": "672", "addr:postcode": "10025", "addr:state": "NY", "addr:street": "Amsterdam Avenue", "amenity": "school", "name": "Chabad Annex", "religion": "jewish", "website": "https://www.chabadwestside.org"}}, {"type": "node", "id": 12181494026, "lat": 40.7902143, "lon": -73.9708481}, {"type": "node", "id": 12181494027, "lat": 40.7903472, "lon": -73.9711483}, {"type": "node", "id": 12181494028, "lat": 40.7904504, "lon": -73.9710733}, {"type": "node", "id": 12181494029, "lat": 40.7903677, "lon": -73.9707351}, {"type": "node", "id": 12181494030, "lat": 40.7901893, "lon": -73.9708269, "tags": {"addr:housenumber": "115", "addr:postcode": "10024", "addr:street": "West 91st Street", "entrance": "yes"}}, {"type": "node", "id": 12181494031, "lat": 40.790454, "lon": -73.9714068, "tags": {"addr:housenumber": "139", "addr:postcode": "10024", "addr:street": "West 91st Street", "entrance": "yes", "wheelchair": "no"}}, {"type": "node", "id": 12184676519, "lat": 40.7906258, "lon": -74.0683313}, {"type": "node", "id": 12184676520, "lat": 40.7896141, "lon": -74.0659816}, {"type": "node", "id": 12184676521, "lat": 40.7919738, "lon": -74.0672698}, {"type": "node", "id": 12184676522, "lat": 40.7916249, "lon": -74.0676048}, {"type": "node", "id": 12184676523, "lat": 40.791616, "lon": -74.0675606}, {"type": "node", "id": 12184676524, "lat": 40.7918354, "lon": -74.0673526}, {"type": "node", "id": 12184676525, "lat": 40.7918592, "lon": -74.0673737}, {"type": "node", "id": 12185208326, "lat": 40.7902722, "lon": -73.9710076, "tags": {"entrance": "yes"}}, {"type": "node", "id": 12185208332, "lat": 40.7904952, "lon": -73.9715692, "tags": {"entrance": "yes", "wheelchair": "no"}}, {"type": "node", "id": 12535377658, "lat": 40.8137803, "lon": -73.9975568}, {"type": "node", "id": 12535377659, "lat": 40.813461, "lon": -73.9969848}, {"type": "node", "id": 12535377660, "lat": 40.8137944, "lon": -73.9966721}, {"type": "node", "id": 12535377661, "lat": 40.8139305, "lon": -73.9969179}, {"type": "node", "id": 12535377662, "lat": 40.8139063, "lon": -73.9969509}, {"type": "node", "id": 12535377663, "lat": 40.8140911, "lon": -73.9972178}, {"type": "node", "id": 12535377664, "lat": 40.8138051, "lon": -73.9975649}, {"type": "node", "id": 12537534791, "lat": 40.8296634, "lon": -73.9953737}, {"type": "node", "id": 12537534792, "lat": 40.8290553, "lon": -73.9942052}, {"type": "node", "id": 12537534793, "lat": 40.8297286, "lon": -73.9936783}, {"type": "node", "id": 12537534794, "lat": 40.8303093, "lon": -73.9947196}, {"type": "node", "id": 12537534795, "lat": 40.8300591, "lon": -73.994986}, {"type": "node", "id": 12605018215, "lat": 40.7613254, "lon": -73.9960622, "tags": {"addr:housenumber": "522", "addr:postcode": "10036", "addr:street": "West 44th Street", "amenity": "school", "grades": "9-12", "mascot": "Blue Demons", "name": "The Beacon School"}}, {"type": "node", "id": 12605079805, "lat": 40.7855888, "lon": -73.9805925, "tags": {"amenity": "school", "ele": "17", "gnis:feature_id": "2083870", "mascot": "Cougars", "name": "Calhoun School", "phone": "+1-212-497-6500", "website": "https://www.calhoun.org/", "wikidata": "Q5019786", "wikipedia": "en:Calhoun School"}}, {"type": "node", "id": 12605177453, "lat": 40.7833011, "lon": -73.9812601, "tags": {"amenity": "school", "ele": "24", "grades": "K-12", "mascot": "Dutchmen", "name": "Collegiate School"}}, {"type": "node", "id": 12691113899, "lat": 40.7654624, "lon": -73.9895255}, {"type": "node", "id": 12839186763, "lat": 40.7745196, "lon": -73.988042, "tags": {"addr:city": "New York", "addr:housenumber": "80", "addr:postcode": "10023", "addr:state": "NY", "addr:street": "West End Avenue", "amenity": "school", "grades": "PK", "isced:level": "0", "name": "Manhattan Children\u2019s Program", "operator": "ADAPT Community Network", "operator:type": "ngo", "phone": "+1-646-740-2525", "preschool": "yes", "religion": "none", "social_facility:for": "child", "website": "https://adaptcommunitynetwork.org/"}}, {"type": "node", "id": 13189363443, "lat": 40.7819952, "lon": -73.9760262, "tags": {"amenity": "school", "name": "Chess Max Academy", "website": "https://chessmaxacademy.com/"}}, {"type": "node", "id": 13190222586, "lat": 40.7560591, "lon": -73.9845398, "tags": {"addr:city": "New York", "addr:housenumber": "123", "addr:state": "NY", "addr:street": "West 43rd Street", "amenity": "school", "name": "Repertory Company High School for Theatre Arts", "phone": "+1-212-382-1875", "website": "https://www.repertorycompanyhs.org"}}, {"type": "node", "id": 13278422922, "lat": 40.7861473, "lon": -73.9743729, "tags": {"addr:city": "New York", "addr:housenumber": "145", "addr:postcode": "10024", "addr:state": "NY", "addr:street": "West 84th Street", "amenity": "school", "education": "school", "fax": "+1-212-362-5926", "grades": "9-12", "isced:level": "2-3", "name": "Frank McCourt High School", "operator": "New York City Department of Education", "operator:short": "NYC Public Schools", "operator:type": "public", "operator:wikidata": "Q408230", "phone": "+1-212-362-2015", "ref": "M417", "religion": "none", "website": "https://www.schools.nyc.gov/schools/M417", "wheelchair": "yes", "wikidata": "Q105286392"}}, {"type": "node", "id": 13278422923, "lat": 40.7860963, "lon": -73.9742272, "tags": {"addr:city": "New York", "addr:housenumber": "145", "addr:postcode": "10024", "addr:state": "NY", "addr:street": "West 84th Street", "amenity": "school", "education": "school", "fax": "+1-212-724-2765", "grades": "10-12", "isced:level": "3", "name": "Innovation Diploma Plus", "operator": "New York City Department of Education", "operator:short": "NYC Public Schools", "operator:type": "public", "operator:wikidata": "Q408230", "phone": "+1-212-724-2039", "ref": "M404", "religion": "none", "website": "https://www.innovationdp.org/", "wheelchair": "yes", "wikidata": "Q16892674"}}, {"type": "node", "id": 13278422924, "lat": 40.7860356, "lon": -73.9740794, "tags": {"addr:city": "New York", "addr:housenumber": "145", "addr:postcode": "10024", "addr:state": "NY", "addr:street": "West 84th Street", "addr:unit": "2nd Floor", "amenity": "school", "branch": "Upper West Elementary School", "brand": "Success Academy", "brand:wikidata": "Q14707388", "education": "school", "email": "SAUW.MainOffice@saschools.org", "fax": "+1-646-478-9383", "grades": "K-4", "isced:level": "0-1", "kindergarten": "yes", "name": "Success Academy", "operator": "Success Academy Charter Schools", "operator:type": "ngo", "operator:wikidata": "Q408230", "phone": "+1-646-274-1580", "ref": "M523", "religion": "none", "website": "https://www.successacademies.org/school/upper-west/", "wheelchair": "yes"}}, {"type": "node", "id": 13278422925, "lat": 40.785973, "lon": -73.9739081, "tags": {"addr:city": "New York", "addr:housenumber": "145", "addr:postcode": "10024", "addr:state": "NY", "addr:street": "West 84th Street", "amenity": "school", "education": "school", "fax": "+1-212-877-1138", "grades": "9-12", "isced:level": "2-3", "name": "The Global Learning Collaborative", "operator": "New York City Department of Education", "operator:short": "NYC Public Schools", "operator:type": "public", "operator:wikidata": "Q408230", "phone": "+1-212-877-1103", "ref": "M403", "religion": "none", "website": "https://www.theglcnyc.org/", "wheelchair": "yes", "wikidata": "Q105286387"}}, {"type": "node", "id": 13278422926, "lat": 40.7859073, "lon": -73.9737345, "tags": {"addr:city": "New York", "addr:housenumber": "145", "addr:postcode": "10024", "addr:state": "NY", "addr:street": "West 84th Street", "amenity": "school", "education": "school", "fax": "+1-212-787-1455", "grades": "9-12", "isced:level": "2-3", "name": "The Urban Assembly School for Green Careers", "operator": "New York City Department of Education", "operator:short": "NYC Public Schools", "operator:type": "public", "operator:wikidata": "Q408230", "phone": "+1-212-787-1189", "ref": "M402", "religion": "none", "website": "https://www.schools.nyc.gov/schools/M402", "wheelchair": "yes", "wikidata": "Q105286385"}}, {"type": "node", "id": 13348494501, "lat": 40.7778595, "lon": -73.9763474, "tags": {"addr:city": "New York City", "addr:housenumber": "24", "addr:postcode": "10023", "addr:street": "West 74th Street", "amenity": "school", "education": "school", "ele": "30", "email": "admissions@stevenson-school.org", "internet_access": "no", "name": "Robert Louis Stevenson School", "opening_hours": "09:00+", "phone": "+1-212-787-6400", "religion": "multifaith", "website": "https://www.stevenson-school.org/"}}, {"type": "node", "id": 13373221495, "lat": 40.7938696, "lon": -74.0078445}, {"type": "node", "id": 13409268401, "lat": 40.7778579, "lon": -73.976354, "tags": {"addr:housenumber": "24", "addr:street": "West 74th Street", "amenity": "school", "internet_access": "wlan", "name": "Robert Louis Stevenson", "opening_hours": "Mo-Fr 09:00-16:00"}}, {"type": "way", "id": 160905765, "nodes": [2840169692, 1595140630, 1728793890, 1728793893, 2840169692], "tags": {"amenity": "school", "check_date": "2025-11-04", "name": "Midtown West School PS 212"}}, {"type": "way", "id": 160905767, "nodes": [1728793885, 1728793881, 2709956078, 2709956055, 2709956033, 12691113899, 1728793887, 1728793882, 1728793886, 1728793885], "tags": {"amenity": "school", "ele": "12", "gnis:feature_id": "961259", "name": "Public School 111 Adolph S. Ochs"}}, {"type": "way", "id": 265319542, "nodes": [2709879101, 2709879145, 2709879225, 2709879188, 2709879123, 2709879101], "tags": {"addr:city": "New York", "addr:country": "US", "addr:housenumber": "432", "addr:postcode": "10036", "addr:state": "NY", "addr:street": "West 44th Street", "amenity": "school", "building": "yes", "ele": "9", "fax": "+1 212 757 7638", "gnis:feature_id": "2083192", "height": "12.9", "name": "The Actors Studio", "nycdoitt:bin": "1026377", "phone": "+1 212 757 0870", "roof:shape": "gabled", "website": "https://theactorsstudio.org/", "wikidata": "Q216458"}}, {"type": "way", "id": 265329549, "nodes": [2709968170, 2709968120, 2709968018, 2709967999, 2709967945, 2709967930, 2709967911, 2709967883, 2709967942, 2709967963, 2709967981, 2709968000, 2709968071, 2709968122, 2709968141, 2709968183, 2709968212, 2709968230, 2709968251, 2709968258, 2709968228, 2709968210, 2709968170], "tags": {"addr:housenumber": "317", "addr:street": "West 52nd Street", "amenity": "school", "building": "school", "ele": "19", "gnis:feature_id": "961765", "height": "14.8", "name": "Public School 58", "nycdoitt:bin": "1025241", "wheelchair": "yes"}}, {"type": "way", "id": 265344257, "nodes": [2710082489, 2710082448, 2710082484, 2710082482, 10863921029, 2710082471, 2710082476, 2710082486, 2710082483, 2710082490, 2710082485, 2710082494, 2710082495, 2710082498, 2710082493, 2710082489], "tags": {"addr:city": "New York", "addr:housenumber": "17", "addr:postcode": "10023", "addr:state": "NY", "addr:street": "West 60th Street", "amenity": "school", "building": "school", "building:levels": "11", "building:levels:underground": "1", "height": "40.5", "name": "The Shefa School", "nycdoitt:bin": "1027188", "opening_date": "2024-08", "roof:levels": "4", "roof:shape": "flat", "website": "https://campaign.shefaschool.org/our-new-home/", "wheelchair": "yes"}}, {"type": "way", "id": 265355140, "nodes": [2710212275, 2710212276, 2710212280, 9441403845, 9441403846, 9441403844, 9441403843, 9441403842, 9441403841, 2710212278, 2710212275], "tags": {"addr:city": "New York", "addr:housenumber": "132", "addr:postcode": "10023", "addr:state": "NY", "addr:street": "West 60th Street", "amenity": "school", "building": "school", "capacity": "150", "grades": "4-12", "height": "38.1", "isced:level": "1-3", "name": "Professional Children\u2019s School", "nycdoitt:bin": "1028828", "religion": "none", "website": "https://pcs-nyc.org/", "wikidata": "Q7247941", "wikipedia": "en:Professional Children's School"}}, {"type": "way", "id": 266033995, "nodes": [2716231720, 2716231800, 2716231813, 2716231861, 2716231826, 2716231807, 2716231720], "tags": {"addr:city": "New York", "addr:housenumber": "332", "addr:postcode": "10036", "addr:street": "West 43rd Street", "amenity": "school", "building": "school", "ele": "11", "gnis:feature_id": "2083202", "height": "22.9", "name": "Holy Cross School", "nycdoitt:bin": "1083730", "start_date": "1887"}}, {"type": "way", "id": 266077860, "nodes": [2709937313, 2709937311, 2709937088, 2709937063, 2716714109, 2709937019, 2709937005, 2709936974, 2709936962, 2709936927, 2709936920, 2709936742, 2716714107, 2709936788, 2709936832, 2716714108, 2709936830, 2709936850, 2709936916, 2709937313], "tags": {"addr:city": "New York", "addr:housenumber": "439", "addr:postcode": "10019", "addr:street": "West 49th Street", "amenity": "school", "ele": "14", "gnis:feature_id": "958480", "name": "High School of Graphic Communication Arts", "website": "https://www.schools.nyc.gov/SchoolPortals/02/M625/default.htm", "wikidata": "Q5756630", "wikipedia": "en:High School of Graphic Communication Arts"}}, {"type": "way", "id": 269227119, "nodes": [2744978935, 2744978940, 2744978933, 2744978908, 2744978903, 2744978884, 2744978899, 2744978893, 2744978907, 2744978913, 2744978922, 2744978959, 2744978963, 2744978965, 2744978971, 2744978986, 2744978988, 2744978961, 2744978958, 2744978935], "tags": {"addr:city": "New York", "addr:housenumber": "40", "addr:state": "NY", "addr:street": "West 68th Street", "amenity": "school", "building": "school", "gnis:feature_id": "2084026", "height": "19.3", "mascot": "Panthers", "name": "York Preparatory School", "nycdoitt:bin": "1028250", "website": "https://www.yorkprep.org/", "wikidata": "Q8055513", "wikipedia": "en:York Preparatory School"}}, {"type": "way", "id": 269235421, "nodes": [2745038545, 2745038589, 2745038626, 2745038592, 2745038548, 2745038545], "tags": {"addr:housenumber": "270", "addr:postcode": "10023", "addr:street": "West 70th Street", "amenity": "school", "building": "school", "ele": "20", "gnis:feature_id": "961491", "height": "11.2", "name": "Public School M199 Jesse Isador Straus", "nycdoitt:bin": "1030351"}}, {"type": "way", "id": 269243498, "nodes": [2745087404, 2745087410, 2745087413, 2745087415, 2745087420, 2745087423, 2745087505, 2745087513, 2745087535, 2745087545, 2745087514, 2745087496, 2745087451, 2745087404], "tags": {"addr:housenumber": "255", "addr:postcode": "10023", "addr:street": "West 71st Street", "amenity": "school", "building": "school", "gnis:feature_id": "2084022", "height": "15.5", "name": "West End Day School", "nycdoitt:bin": "1030408", "website": "https://www.westenddayschool.org/"}}, {"type": "way", "id": 269297229, "nodes": [2745451462, 2745451550, 9833555787, 10074104780, 2745451541, 2745451544, 2745451527, 2745451528, 2745451503, 9833555786, 2745451531, 2745451532, 2745451554, 2745451569, 2745451562, 2745451575, 2745451637, 2745451638, 10074104769, 2745451519, 2745451462], "tags": {"addr:housenumber": "100", "addr:postcode": "10024", "addr:street": "West 77th Street", "amenity": "school", "building": "school", "ele": "27", "gnis:feature_id": "954320", "height": "18.4", "name": "Middle School 44", "nycdoitt:bin": "1030178"}}, {"type": "way", "id": 269305358, "nodes": [2745528123, 2745528151, 2745528148, 2745528152, 2745528103, 2745528145, 2745528301, 2745528336, 2745528374, 2745528303, 2745528161, 2745528123], "tags": {"addr:housenumber": "160", "addr:postcode": "10024", "addr:street": "West 78th Street", "amenity": "school", "building": "school", "elevation": "26", "gnis:feature_id": "961893", "height": "14.1", "name": "Public School 87", "nycdoitt:bin": "1030196", "wheelchair": "limited"}}, {"type": "way", "id": 269306022, "nodes": [2745535237, 2745535257, 2745535192, 2745535124, 2745535132, 2745535277, 2745535289, 2745535364, 2745535361, 2745535358, 2745535352, 2745535355, 2745535346, 2745535330, 2745535312, 2745535271, 2745535237], "tags": {"addr:city": "New York", "addr:housenumber": "168", "addr:postcode": "10024", "addr:state": "NY", "addr:street": "West 79th Street", "amenity": "school", "building": "school", "height": "20.1", "name": "Rodeph Sholom School", "nycdoitt:bin": "1030266", "type": "school"}}, {"type": "way", "id": 270730781, "nodes": [2757318923, 2757318911, 2757318857, 2757318864, 2757318923], "tags": {"addr:city": "New York", "addr:housenumber": "10", "addr:postcode": "10024", "addr:street": "West 84th Street", "amenity": "school", "building": "yes", "ele": "30", "gnis:feature_id": "2084005", "height": "18.1", "name": "Rodeph Sholom Day School", "nycdoitt:bin": "1081036", "website": "https://www.rodephsholomschool.org/"}}, {"type": "way", "id": 270738822, "nodes": [2757387690, 2757387692, 2757387688, 2757387686, 2757387687, 2757387684, 2757387685, 2757387689, 2757387691, 2757387703, 2757387724, 2757387701, 2757387699, 2757387690]}, {"type": "way", "id": 270860557, "nodes": [2758302887, 2758302889, 2758302878, 2758302820, 2758302842, 2758302807, 2758302814, 2758302839, 2758302865, 2758302901, 2758302956, 2758302938, 2758302934, 2758302887], "tags": {"addr:housenumber": "132", "addr:postcode": "10024", "addr:street": "West 89th Street", "alt_name": "PS 166 The Richard Rodgers School of the Arts and Technology", "amenity": "school", "building": "yes", "ele": "32", "gnis:feature_id": "961411", "height": "28.4", "name": "Public School 166", "name:etymology:wikidata": "Q269094", "nycdoitt:bin": "1032308", "website": "https://www.ps166.org/", "wikidata": "Q7120784"}}, {"type": "way", "id": 270888990, "nodes": [2758510572, 2758510583, 2758510585, 2758510590, 12181494031, 2758510611, 2758510594, 12185208332, 2758510615, 2758510638, 2758510630, 2758510646, 2758510636, 2758510649, 2758510658, 2758510689, 2758510624, 2758510574, 2758510572], "tags": {"addr:housenumber": "139", "addr:postcode": "10025", "addr:street": "West 91st Street", "amenity": "school", "building": "yes", "ele": "34", "gnis:feature_id": "2084020", "height": "20.5", "mascot": "Tigers", "name": "Trinity School", "nycdoitt:bin": "1032497", "phone": "+1-212-873-1650", "website": "https://www.trinityschoolnyc.org", "wikidata": "Q7842961"}}, {"type": "way", "id": 270889034, "nodes": [2758510576, 2758510563, 12181494030, 2758510556, 2758510554, 2758510550, 2758510561, 2758510578, 2758510576], "tags": {"addr:city": "New York", "addr:housenumber": "115", "addr:postcode": "10024", "addr:state": "NY", "addr:street": "West 91st Street", "amenity": "school", "building": "yes", "height": "19.5", "name": "Trinity School Henry C. Moses Building", "nycdoitt:bin": "1032498", "phone": "+1-212-873-1650", "website": "https://www.trinityschoolnyc.org"}}, {"type": "way", "id": 270890638, "nodes": [2758520658, 2758520673, 2758520752, 2758520749, 2758520658], "tags": {"addr:housenumber": "167", "addr:postcode": "10024", "addr:street": "West 89th Street", "amenity": "school", "building": "yes", "ele": "31", "gnis:feature_id": "2083431", "height": "8.5", "name": "Ballet Hispanico", "nycdoitt:bin": "1081050"}}, {"type": "way", "id": 270890645, "nodes": [2758520778, 2758520763, 2758520781, 2758520787, 2758520788, 2758520794, 2758520785, 2758520760, 2758520774, 2758520767, 2758520772, 2758520746, 2758520740, 2758520735, 2758520757, 2758520778], "tags": {"addr:city": "New York", "addr:housenumber": "138", "addr:postcode": "10024", "addr:state": "NY", "addr:street": "West 90th Street", "amenity": "school", "building": "yes", "grades": "PK-12", "height": "23.4", "name": "Geneva School of Manhattan", "nycdoitt:bin": "1032440", "preschool": "yes", "website": "https://www.genevaschool.net"}}, {"type": "way", "id": 270962475, "nodes": [2759182870, 2759182889, 2759182884, 2759182881, 2759182875, 2759182872, 2759182874, 2759182877, 2759182882, 2759182887, 2759182891, 2759182893, 2759182898, 2759182901, 2759182905, 2759182908, 2759182914, 2759182933, 2759182932, 2759182921, 2759182870], "tags": {"addr:street": "West 89th Street", "amenity": "school", "building": "school", "height": "20.0", "name": "Yeshiva Ketana of Manhattan", "nycdoitt:bin": "1071378"}}, {"type": "way", "id": 317719020, "nodes": [357729842, 3240137997, 3240137998, 3240137996, 357729842], "tags": {"addr:city": "Weehawken", "addr:housenumber": "1", "addr:postcode": "07086", "addr:street": "Louisa Place", "amenity": "school", "gnis:feature_id": "880390", "name": "Theodore Roosevelt Number 5 Elementary School", "phone": "+1-201-442-6140", "website": "https://www.weehawken.k12.nj.us/weehawken/schools/Roosevelt/roosevelt.html"}}, {"type": "way", "id": 354414773, "nodes": [2631941183, 3601449886, 3601449891, 3601450199, 3601449892, 5613711774, 3601449879, 3601451599, 3601450197, 3601449888, 3601449878, 3601450200, 3601450195, 7795608059, 2631941178, 2631941177, 2631941176, 2631941183], "tags": {"addr:city": "Union City", "addr:housenumber": "2500", "addr:postcode": "07087", "addr:state": "NJ", "addr:street": "John F. Kennedy Boulevard", "amenity": "school", "name": "Union City High School", "operator": "Union City", "operator:wikidata": "Q588834", "phone": "+1-201-330-8678", "website": "https://uchs.ucboe.us/", "wikidata": "Q7885547"}}, {"type": "way", "id": 354673992, "nodes": [3603574720, 3603574715, 3603573688, 3603574696, 3603574720], "tags": {"addr:city": "North Bergen", "addr:country": "US", "addr:housenumber": "5211", "addr:postcode": "07047", "addr:state": "NJ", "addr:street": "Columbia Avenue", "amenity": "school", "education": "school", "fax": "+1 201 866 3697", "name": "Franklin School", "operator": "North Bergen School District", "phone": "+1 201 974 7007", "website": "https://www.northbergen.k12.nj.us/"}}, {"type": "way", "id": 370618643, "nodes": [357725559, 3743185946, 3743181461, 3743181459, 3743181458, 3743181464, 3743181456, 3743181462, 3743181457, 3743181460, 3743181463, 357725559], "tags": {"amenity": "school", "building": "school", "education": "school", "ele": "35", "gnis:feature_id": "878227", "name": "McKinley Number 10 Elementary School"}}, {"type": "way", "id": 450344771, "nodes": [4472625952, 4472625914, 4999661722, 4472625911, 4472625913, 4472625952], "tags": {"amenity": "school"}}, {"type": "way", "id": 450380328, "nodes": [4473009453, 4473009455, 4473009456, 4473009454, 4473009453], "tags": {"amenity": "school"}}, {"type": "way", "id": 450431063, "nodes": [440243693, 4473551176, 4473551181, 4473554390, 4473554396, 4473554394, 4473554397, 440243693], "tags": {"amenity": "school", "name": "Daniel Webster Number 2 Elementary School"}}, {"type": "way", "id": 453063151, "nodes": [4498656530, 4498656549, 4498656556, 6946524968, 4498656530], "tags": {"amenity": "school", "name": "Sara M Glimore Elementary School", "wheelchair": "yes"}}, {"type": "way", "id": 453065502, "nodes": [4498677073, 4498677028, 4498677050, 5654244340, 6709043886, 6709043885, 4498677081, 5654244343, 5654244344, 5654244342, 5654244341, 5813869896, 5813869897, 4498677079, 4498677073], "tags": {"amenity": "school", "name": "Huber Street Number 3 Elementary School"}}, {"type": "way", "id": 453094188, "nodes": [4498946193, 4498946194, 4498946195, 4498946197, 4498946198, 4499682348, 4499682349, 4499682346, 4498946196, 4498946189, 4498946190, 4498946191, 4498946192, 4498946193], "tags": {"amenity": "school", "name": "Number 2 Elementary School"}}, {"type": "way", "id": 453101112, "nodes": [4498996629, 103865127, 7468537436, 7658684718, 7658684719, 7658684720, 4498996629], "tags": {"amenity": "school", "name": "Harry Bain Elementary School"}}, {"type": "way", "id": 453130840, "nodes": [4499303038, 6977104136, 7658684721, 7658684722, 7658684723, 7658684724, 4499303041, 4499303040, 7658684725, 4499303038], "tags": {"amenity": "school", "name": "Memorial High School", "wikidata": "Q6815458"}}, {"type": "way", "id": 453554858, "nodes": [4502743476, 4502743463, 4502743407, 4502743439, 4502743476], "tags": {"amenity": "school", "name": "Harry L Bain Elementary School"}}, {"type": "way", "id": 454271008, "nodes": [4508457979, 4508457973, 4508457974, 4508457975, 4508457966, 4508457965, 4508457967, 4508457953, 4508457947, 4508457943, 4508457942, 4508457957, 13373221495, 4508457979], "tags": {"amenity": "school", "education": "school", "name": "Anna L Klein Elementary School"}}, {"type": "way", "id": 454421294, "nodes": [4509819503, 4509819489, 4509819516, 4509819527, 4509819503], "tags": {"amenity": "school", "name": "Number 4 Elementary School"}}, {"type": "way", "id": 454424186, "nodes": [4509847530, 4509847524, 4509847521, 4509847523, 4509847520, 4509847522, 4509847525, 4509870249, 4509847528, 4509847527, 4509870255, 4509847529, 4509847530], "tags": {"amenity": "school", "name": "Albio Sires Elementary School"}}, {"type": "way", "id": 454426049, "nodes": [4509868684, 4509868680, 4509868679, 4509868676, 4509868675, 4509868678, 4509868684], "tags": {"amenity": "school", "name": "Saint Josephs School"}}, {"type": "way", "id": 454766525, "nodes": [4512909384, 4512910100, 4512910114, 4512910115, 4512910101, 4512909372, 4512909384], "tags": {"amenity": "school", "name": "Number 5 Elementary School"}}, {"type": "way", "id": 454991956, "nodes": [7387632560, 7387632566, 7387632562, 7387632561, 7387632560], "tags": {"amenity": "school", "name": "Roosevelt Elementary School"}}, {"type": "way", "id": 455132330, "nodes": [7472526290, 4515741208, 4515741207, 4515741206, 4515741205, 4515741204, 4630822416, 7472526290], "tags": {"amenity": "school"}}, {"type": "way", "id": 455288600, "nodes": [4517038485, 4517038484, 4522503331, 4517038483, 4517038482, 4517038481, 4517038485], "tags": {"amenity": "school", "name": "Number 1 Elementary School"}}, {"type": "way", "id": 455709522, "nodes": [4520675991, 4520675990, 4520675989, 4520675988, 11486213769, 4520675987, 6896058843, 4520675986, 4520675985, 4520675991], "tags": {"amenity": "school", "name": "Our Lady of Liberia School"}}, {"type": "way", "id": 455882985, "nodes": [4522503328, 4526776991, 4522503327, 4522503326, 4522503325, 4522503328], "tags": {"amenity": "school"}}, {"type": "way", "id": 456148708, "nodes": [4524283672, 4524283671, 4524283670, 4524283669, 4524283668, 4524283667, 4524283672], "tags": {"amenity": "school"}}, {"type": "way", "id": 456579716, "nodes": [4528269724, 4528269766, 7473610391, 4528269720, 4528269724], "tags": {"amenity": "school", "name": "Lincoln Number 5 Elementary School"}}, {"type": "way", "id": 456812549, "nodes": [4530469756, 4530469785, 4530469764, 4530469736, 4530469756], "tags": {"amenity": "school", "name": "Robert Fulton Number 2 Elementary School"}}, {"type": "way", "id": 456823132, "nodes": [4530569529, 4530569519, 4530569523, 4530569518, 4530569528, 4530569541, 4530569529], "tags": {"amenity": "school", "name": "Robert Fulton Annex School"}}, {"type": "way", "id": 456921344, "nodes": [4531503851, 4531503860, 5560675432, 5560675431, 5560675180, 103872909, 103872907, 7474498906, 8318955062, 8318955077, 7474498909, 103867950, 7474498824, 5560675494, 4531503850, 4531503851], "tags": {"amenity": "school", "name": "North Bergen High School", "ref:nces": "341146002882", "school": "secondary", "school:US": "High School", "start_date": "1961-09", "wikidata": "Q7054165", "wikipedia": "en:North Bergen High School"}}, {"type": "way", "id": 460142719, "nodes": [4558200281, 4558200280, 4558200279, 4558200278, 4558200281], "tags": {"amenity": "school", "name": "Horace Mann Number 9 Elementary School"}}, {"type": "way", "id": 468557005, "nodes": [4630822414, 4630822415, 4630822416, 4630822417, 4630822414], "tags": {"amenity": "school", "name": "School Playground"}}, {"type": "way", "id": 469268751, "nodes": [4636409324, 5565465928, 5565465927, 4636409325, 5565465913, 4636409326, 4636409327, 4636409328, 4636409329, 4636409324], "tags": {"addr:city": "Union City", "addr:housenumber": "1800", "addr:postcode": "07087", "addr:state": "NJ", "addr:street": "Summit Avenue", "amenity": "school", "name": "Jose Marti Freshman Academy", "phone": "+1-201-348-5400", "religion": "none", "website": "https://jmfa.ucboe.us/"}}, {"type": "way", "id": 469310005, "nodes": [4636662881, 4636662882, 4636662883, 4636662884, 4636662885, 6179775642, 6179775643, 4498941745, 4636662886, 4636662887, 4636662881], "tags": {"amenity": "school", "name": "Number 2 Elementary School"}}, {"type": "way", "id": 469310007, "nodes": [357744909, 4636663693, 4636663689, 4636663690, 4636663694, 4636663691, 357744909], "tags": {"amenity": "school", "ele": "47", "gnis:feature_id": "2057624", "name": "Saint Joseph's High School"}}, {"type": "way", "id": 556522242, "nodes": [5368491923, 5368491924, 5368491925, 5368491926, 5368491927, 5368491812, 5368491921, 5368491922, 5368491928, 5368491923], "tags": {"amenity": "school", "building": "school", "ele": "58", "gnis:feature_id": "2057633", "name": "Hudson Elementary School"}}, {"type": "way", "id": 578676703, "nodes": [5544056399, 5544056400, 5544056401, 5544056402, 5544056689, 5544056399], "tags": {"addr:city": "Union City", "addr:housenumber": "1401", "addr:postcode": "07087", "addr:state": "NJ", "addr:street": "Central Avenue", "amenity": "school", "ele": "72", "gnis:feature_id": "2057643", "name": "Veterans' Memorial School", "operator": "Union City", "phone": "+1-201-348-2737", "website": "https://veterans.ucboe.us/"}}, {"type": "way", "id": 578676728, "nodes": [5544056690, 5544056691, 5544056692, 5544056693, 5544056690], "tags": {"addr:city": "Union City", "addr:housenumber": "501", "addr:postcode": "07087", "addr:state": "NJ", "addr:street": "15th Street", "amenity": "school", "name": "Miftaahul Uloom Academy", "phone": "+1-201-223-9920", "religion": "muslim", "website": "https://www.muanj.org/", "wikidata": "Q6844026", "wikipedia": "en:Miftaahul Uloom Academy"}}, {"type": "way", "id": 578676892, "nodes": [5544057527, 5544057528, 5544057529, 5544057530, 5544057531, 5544057532, 5544057527], "tags": {"addr:city": "Union City", "addr:housenumber": "1500", "addr:postcode": "07087", "addr:state": "NJ", "addr:street": "New York Avenue", "amenity": "school", "ele": "68", "gnis:feature_id": "2057626", "name": "Colin Powell Elementary School", "phone": "+1-201-351-5165", "website": "https://cpowell.ucboe.us/"}}, {"type": "way", "id": 579063584, "nodes": [357744924, 5567795374, 5567795375, 5567795376, 5567795612, 5546646027, 5546646028, 5546646029, 5546646030, 5546646031, 5546646032, 357744924], "tags": {"amenity": "school", "ele": "60", "gnis:feature_id": "2057630", "name": "Emerson High School", "wheelchair": "limited", "wikidata": "Q5370906", "wikipedia": "en:Emerson High School (Union City, New Jersey)"}}, {"type": "way", "id": 579066791, "nodes": [357745005, 5546700380, 5546700381, 5546700382, 5546700383, 5546700384, 5546700385, 5546700386, 5546700387, 357745005], "tags": {"addr:city": "Union City", "addr:housenumber": "1501", "addr:postcode": "07087", "addr:state": "NJ", "addr:street": "15th Street", "amenity": "school", "denomination": "catholic", "ele": "71", "gnis:feature_id": "2057673", "name": "Mother Seton School", "phone": "+1-201-863-8433", "religion": "christian", "website": "http://www.mothersetonschool.com/about-mother-seton-school.html"}}, {"type": "way", "id": 581426168, "nodes": [357745007, 5563231560, 5563231561, 5563231562, 5563231563, 5563231564, 357745007], "tags": {"amenity": "school", "ele": "76", "gnis:feature_id": "2057674", "name": "Saint Francis Academy"}}, {"type": "way", "id": 583487984, "nodes": [5578387602, 5578387603, 5339670061, 5578387604, 6940484712, 5578387605, 5578387606, 5578387607, 5331585457, 5578387602], "tags": {"amenity": "school", "name": "Thomas A Edision Elementary School", "phone": "+1-201-348-5965", "url": "https://edison.ucboe.us/"}}, {"type": "way", "id": 583586351, "nodes": [357724293, 5579312721, 5579312722, 5579312723, 5579312742, 5579312724, 5579312725, 357724293], "tags": {"addr:city": "North Bergen", "addr:housenumber": "1210", "addr:postcode": "07047", "addr:state": "NJ", "addr:street": "11th Street", "amenity": "school", "ele": "54", "gnis:feature_id": "877541", "name": "John F Kennedy Number 7 Elementary School", "url": "https://www.northbergen.k12.nj.us/kennedy"}}, {"type": "way", "id": 588513339, "nodes": [357731663, 5620930560, 5620930561, 5620930562, 5620930563, 5620930565, 5620930564, 357731663], "tags": {"amenity": "school", "ele": "56", "gnis:feature_id": "881620", "name": "Robert Waters Elementary School"}}, {"type": "way", "id": 591380732, "nodes": [5645967231, 5645967232, 5645967233, 5645967234, 5645967231], "tags": {"amenity": "school", "name": "Union Hill High School", "wikidata": "Q14705895"}}, {"type": "way", "id": 591931189, "nodes": [357723522, 5650680239, 5650680240, 5650680236, 5650680241, 5650680242, 5650680243, 5650680244, 5650680245, 357723522], "tags": {"amenity": "school", "ele": "54", "gnis:feature_id": "877199", "name": "Holy Family School"}}, {"type": "way", "id": 592149507, "nodes": [5652160568, 5652160569, 5652160570, 5652160571, 5652160568], "tags": {"amenity": "school", "name": "Jefferson Elementary School"}}, {"type": "way", "id": 592169986, "nodes": [357731572, 5652308543, 5652308544, 5652308545, 5652308546, 5652308547, 357731572], "tags": {"amenity": "school", "ele": "52", "gnis:feature_id": "881587", "name": "Washington School"}}, {"type": "way", "id": 595612555, "nodes": [5676231770, 5676231768, 5676231769, 5676231767, 5676231770]}, {"type": "way", "id": 598146095, "nodes": [357745405, 5693373420, 5693380021, 5693380022, 357745405], "tags": {"amenity": "school", "ele": "52", "gnis:feature_id": "2058645", "name": "Saint Augustine's School"}}, {"type": "way", "id": 606179070, "nodes": [357729802, 103222970, 5748061890, 7428344394, 7428344392, 7469386198, 4205620794, 7469386089, 4205620795, 7469386098, 103174033, 103174034, 5340742202, 5340742201, 7428336480, 4205620796, 5748061896, 357729802], "tags": {"amenity": "school", "education": "school", "ele": "80", "gnis:feature_id": "880378", "name": "Number 4 Elementary School"}}, {"type": "way", "id": 614638915, "nodes": [5813809409, 5813809410, 10181367411, 10181367412, 10181367413, 10181367414, 10181367415, 10181367416, 10181408117, 10181408118, 5813809411, 5813809412, 5813809413, 5813809414, 5813809415, 5813809418, 5813809419, 5813809420, 302164666, 5813807482, 302164667, 5813807478, 9756216135, 5813807477, 3536987992, 302164651, 5813807475, 3536987987, 3536987988, 5813807476, 3639420606, 5813809409], "tags": {"addr:city": "Secaucus", "addr:housenumber": "1", "addr:state": "NJ", "addr:street": "High Tech Way", "amenity": "school", "name": "Hudson County Schools of Technology"}}, {"type": "way", "id": 626013373, "nodes": [5910239409, 5910239410, 5910239411, 5910239412, 5910239413, 5910239414, 5910239409], "tags": {"amenity": "school", "name": "West New York Middle School", "wikidata": "Q7986060"}}, {"type": "way", "id": 629312852, "nodes": [475223334, 475223332, 475223353, 475223352, 5941554202, 5941554203, 5941554204, 5941554205, 103101264, 8530324570, 8530324574, 475223315, 475223316, 475223334], "tags": {"amenity": "school"}}, {"type": "way", "id": 631124001, "nodes": [475225272, 5959905161, 5959905160, 103314337, 5959905100, 5959905152, 103314336, 103314334, 5959905162, 5959905163, 5959905164, 5959905165, 475225374, 475225373, 5964454319, 475225376, 5964454318, 475225375, 475225275, 475225272], "tags": {"amenity": "school"}}, {"type": "way", "id": 653708244, "nodes": [6126172910, 6126172911, 6126172912, 6126172913, 6128671724, 6126172914, 6126172915, 6126172910], "tags": {"amenity": "school", "education": "school", "name": "North Hudson Academy"}}, {"type": "way", "id": 785382451, "nodes": [11608958682, 11608958683, 11608958684, 11608958685, 11608958686, 11608958682], "tags": {"amenity": "school"}}, {"type": "way", "id": 795677027, "nodes": [7442359434, 7442359435, 7442359436, 7442359437, 7442359438, 7442359439, 7442359440, 7442359441, 7442359442, 7442359443, 7442359444, 7442359445, 7880404026, 7442359446, 7442359447, 7442359448, 7442359434], "tags": {"amenity": "school", "name": "Millridge School", "website": "https://huber.sboe.org/"}}, {"type": "way", "id": 805626710, "nodes": [103259849, 103271514, 7534353941, 7534353942, 7534353926, 7534353943, 103150109, 7534353913, 7534353910, 103150110, 7534353938, 475223727, 7534353918, 7534353917, 7534353916, 7529710579, 103259849], "tags": {"amenity": "school"}}, {"type": "way", "id": 806168814, "nodes": [7538748015, 7538748016, 7538748017, 7538748018, 7542525684, 103237099, 7538748019, 7538748020, 103168720, 7538748015], "tags": {"amenity": "school"}}, {"type": "way", "id": 806569952, "nodes": [7542527379, 7542527380, 7542527381, 7542527382, 7554631956, 7552766736, 7542527383, 7542527384, 7542550785, 7542550786, 7552766737, 7542527379], "tags": {"amenity": "school"}}, {"type": "way", "id": 806572276, "nodes": [103234276, 103235697, 103235696, 103235694, 103235692, 103235690, 5341032744, 103235689, 7542575473, 7542575470, 7542575471, 475221850, 7542575536, 7542575537, 475221843, 7542575540, 7542575539, 4048714845, 7542575538, 103234276], "tags": {"amenity": "school", "education": "school"}}, {"type": "way", "id": 810894255, "nodes": [103133902, 103133900, 103133899, 7581460874, 7581460875, 7581460876, 7581464888, 103235638, 7581460879, 7613378198, 103112587, 7304780629, 7304780619, 103133902], "tags": {"amenity": "school", "education": "school"}}, {"type": "way", "id": 812930839, "nodes": [2744840903, 6786986039, 2744840867, 2744840871, 2744840845, 2744840842, 2744840811, 2744840804, 10046543177, 10046543180, 7341379174, 7341379175, 11441798957, 11441798956, 11441798960, 10046543181, 2744840903], "tags": {"addr:city": "New York", "addr:housenumber": "210", "addr:postcode": "10023", "addr:state": "NY", "addr:street": "West 61st Street", "amenity": "school", "grades": "PK-5", "isced:level": "0-1", "name": "P.S. 452", "operator": "New York City Department of Education", "operator:short": "NYC Public Schools", "operator:type": "public", "operator:wikidata": "Q408230", "operator:wikipedia": "en:New York City Department of Education", "ref": "M452", "religion": "none", "website": "https://www.ps452.org/"}}, {"type": "way", "id": 814050942, "nodes": [7604336430, 7604336431, 7604336432, 7604336433, 7604336434, 5481884094, 103202148, 103202147, 7604336444, 103230852, 103230851, 7604336430], "tags": {"amenity": "school", "education": "school"}}, {"type": "way", "id": 1112779065, "nodes": [10181408119, 10181408120, 10181408121, 10181408122, 10181408123, 10181408124, 10181408125, 10181408126, 10181408127, 10181408128, 10181408129, 10181408130, 10181408131, 10181408132, 10181408133, 10181408134, 10181408135, 10181408136, 10181408137, 10181408138, 10181408139, 10181408140, 10181408141, 10181408142, 10181408143, 10181408144, 10181408145, 10181408146, 10181408147, 10181408148, 10181408149, 10181408150, 10181408151, 10181408152, 10181408153, 10181408154, 10181408155, 10181408156, 10181408157, 10181408158, 10181408159, 10181408160, 10181408161, 10181408162, 10181408163, 10181408164, 10181408165, 10181408166, 10181408167, 10181408168, 10181408119], "tags": {"amenity": "school", "name": "Secaucus High School", "website": "https://shs.sboe.org/"}}, {"type": "way", "id": 1233183533, "nodes": [2744840999, 2744840996, 2744840948, 2744840930, 2744840974, 2744840975, 2744840950, 2744840954, 2744840965, 2744840984, 2744840988, 2744840994, 2744840997, 11442007471, 2744840999], "tags": {"amenity": "school", "grades": "PK-12", "isced:level": "0;1;2;3", "name": "Ronald P. Stanton Campus", "nursery": "yes", "operator": "Abraham Joshua Heschel School", "operator:type": "private", "preschool": "yes", "religion": "jewish", "website": "https://www.heschel.org/", "wikidata": "Q4668947", "wikipedia": "en:Abraham Joshua Heschel School"}}, {"type": "way", "id": 1316074740, "nodes": [12181494029, 12181494026, 2758510559, 12185208326, 2758510567, 12181494027, 12181494028, 2758510570, 2758510580, 2758510577, 2758510579, 12181494029], "tags": {"addr:city": "New York", "addr:housenumber": "121", "addr:postcode": "10024", "addr:state": "NY", "addr:street": "West 91st Street", "amenity": "school", "building": "yes", "layer": "1"}}, {"type": "way", "id": 1316484025, "nodes": [12184676519, 12184676520, 3602709133, 12184676521, 12184676525, 12184676524, 12184676523, 12184676522, 12184676519], "tags": {"amenity": "school"}}, {"type": "way", "id": 1354540890, "nodes": [12535377658, 12535377659, 12535377660, 12535377661, 12535377662, 12535377663, 12535377664, 12535377658], "tags": {"amenity": "school", "area": "yes", "ele": "72", "gnis:feature_id": "877786", "name": "Lincoln School"}}, {"type": "way", "id": 1354777121, "nodes": [12537534791, 12537534792, 12537534793, 12537534794, 12537534795, 12537534791], "tags": {"amenity": "school", "area": "yes", "ele": "79", "gnis:feature_id": "880361", "name": "Bergen Boulevard School"}}, {"type": "relation", "id": 8366517, "members": [{"type": "way", "ref": 270738822, "role": "outer"}, {"type": "way", "ref": 595612555, "role": "inner"}], "tags": {"addr:housenumber": "150", "addr:postcode": "10024", "addr:street": "West 85th Street", "amenity": "school", "building": "school", "capacity": "190", "ele": "27", "email": "mcs@manhattancountryshool.org", "fax": "+1 212-348-1621", "fee": "yes", "gnis:feature_id": "2083424", "height": "21.9", "isced:level": "0;1;2", "min_age": "4", "name": "Manhattan Country School", "nycdoitt:bin": "1032132", "phone": "+1 212-348-0952", "type": "multipolygon", "website": "https://www.manhattancountryschool.org/", "wikidata": "Q17019949", "wikipedia": "en:Manhattan Country School"}}]}