{"version": 0.6, "generator": "Overpass API 0.7.62.8 e802775f", "osm3s": {"timestamp_osm_base": "2026-01-12T14:12:06Z", "copyright": "The data included in this document is from www.openstreetmap.org. The data is made available under ODbL."}, "elements": [{"type": "node", "id": 2002686385, "lat": 12.8807554, "lon": 77.5841671, "tags": {"addr:district": "Bengaluru Urban", "addr:full": "Kothanur Dinne Main Road,Sapthagiri Layout,OppositeFabricana Factory,J.P.Ngar,8Th Phase", "addr:postcode": "560078", "addr:state": "Karnataka", "amenity": "hospital", "name": "T.R.Hospital", "source": "OpenGovernmentData"}}, {"type": "node", "id": 2122595759, "lat": 12.8845448, "lon": 77.5701276, "tags": {"addr:district": "Bengaluru Rural", "addr:full": "#3, 6 th Cross, Old Bank Colony, Konanakunte", "addr:postcode": "560062", "addr:state": "Karnataka", "amenity": "hospital", "healthcare": "hospital", "name": "Rajnandani Hospital, Bangalore", "source": "OpenGovernmentData"}}, {"type": "node", "id": 3037310855, "lat": 12.8827229, "lon": 77.5466715, "tags": {"addr:city": "Bangalore", "addr:housenumber": "28", "addr:postcode": "560062", "addr:street": "Kanakapura Road", "amenity": "hospital", "healthcare": "hospital", "name": "Aikya Healthcare"}}, {"type": "node", "id": 3100475907, "lat": 12.8840897, "lon": 77.5664029, "tags": {"addr:district": "Bangalore", "addr:full": "PARK, NEAR PARK", "addr:postcode": "560062", "addr:state": "Karnataka", "addr:subdistrict": "Bangalore South", "amenity": "hospital", "contact:phone": "8026323311", "healthcare": "hospital", "name": "Konanakunte Government Hospital", "source": "OpenGovernmentData"}}, {"type": "node", "id": 4440769883, "lat": 12.8615976, "lon": 77.5999324, "tags": {"amenity": "hospital", "name": "Myo Medex - Ace Speciality Clinic"}}, {"type": "node", "id": 4440987271, "lat": 12.8750879, "lon": 77.5950098, "tags": {"amenity": "hospital", "description": "Eye Hospital", "healthcare": "hospital", "name": "Narayana Nethralaya", "name:kn": "\u0ca8\u0cbe\u0cb0\u0cbe\u0caf\u0ca3 \u0ca8\u0cc7\u0ca4\u0ccd\u0cb0\u0cbe\u0cb2\u0caf"}}, {"type": "node", "id": 6255876709, "lat": 12.8225802, "lon": 77.5216981}, {"type": "node", "id": 6255876710, "lat": 12.8224847, "lon": 77.5216717}, {"type": "node", "id": 6255876711, "lat": 12.8225031, "lon": 77.5215436}, {"type": "node", "id": 6255876712, "lat": 12.8223415, "lon": 77.5215135}, {"type": "node", "id": 6255876713, "lat": 12.8223231, "lon": 77.5215813}, {"type": "node", "id": 6255876714, "lat": 12.8222606, "lon": 77.52157}, {"type": "node", "id": 6255876715, "lat": 12.8223121, "lon": 77.5213326}, {"type": "node", "id": 6255876716, "lat": 12.8220439, "lon": 77.5212535}, {"type": "node", "id": 6255876717, "lat": 12.8218198, "lon": 77.5222933}, {"type": "node", "id": 6255876718, "lat": 12.8220623, "lon": 77.5221238}, {"type": "node", "id": 6255876719, "lat": 12.8221174, "lon": 77.5222029}, {"type": "node", "id": 6255876720, "lat": 12.8221504, "lon": 77.5221878}, {"type": "node", "id": 6255876721, "lat": 12.8222092, "lon": 77.5222707}, {"type": "node", "id": 6255876722, "lat": 12.8222753, "lon": 77.5222368}, {"type": "node", "id": 6255876723, "lat": 12.8222423, "lon": 77.5221501}, {"type": "node", "id": 6255876724, "lat": 12.8222166, "lon": 77.5220823}, {"type": "node", "id": 6255876725, "lat": 12.82229, "lon": 77.5219995}, {"type": "node", "id": 6255876726, "lat": 12.8223268, "lon": 77.5219316}, {"type": "node", "id": 6255876727, "lat": 12.8224002, "lon": 77.5218864}, {"type": "node", "id": 6255876728, "lat": 12.8223782, "lon": 77.521796}, {"type": "node", "id": 6255876729, "lat": 12.8225361, "lon": 77.5218186}, {"type": "node", "id": 6938762135, "lat": 12.8130672, "lon": 77.5825109, "tags": {"addr:district": "Bengaluru Urban", "addr:full": "Bannerghatta 20 Milestone, Near Bannerghatta Police Stn", "addr:postcode": "560083", "addr:state": "Karnataka", "amenity": "hospital", "name": "Fosa Humanitarian Hospital", "source": "OpenGovernmentData"}}, {"type": "node", "id": 6938787285, "lat": 12.8822813, "lon": 77.5957945, "tags": {"addr:district": "Bengaluru Urban", "addr:full": "Dsp Tower, No 40, 1st Floor Above Icici Bank Ltd", "addr:postcode": "560076", "addr:state": "Karnataka", "addr:subdistrict": "Arkere", "amenity": "hospital", "healthcare": "hospital", "name": "Vasan Eye Care Hospital, Bannergatta Road", "operator:type": "private", "source": "OpenGovernmentData", "website": "http://www.vasaneye.in/"}}, {"type": "node", "id": 6944283814, "lat": 12.8579673, "lon": 77.5892687, "tags": {"addr:district": "Bengaluru Urban", "addr:full": "#3, Gottigere, Bannerghatta Main Road,Near Gottigere Bus Stand", "addr:postcode": "560083", "addr:state": "Karnataka", "amenity": "hospital", "healthcare": "hospital", "name": "Vijayashree Hospitals", "name:kn": "\u0cb5\u0cbf\u0c9c\u0caf\u0cb6\u0ccd\u0cb0\u0cc0 \u0c86\u0cb8\u0ccd\u0caa\u0ca4\u0ccd\u0cb0\u0cc6\u0c97\u0cb3\u0cc1", "source": "OpenGovernmentData", "wheelchair": "yes"}}, {"type": "node", "id": 6944507682, "lat": 12.8443653, "lon": 77.583809, "tags": {"addr:district": "Bengaluru Urban", "addr:full": "Weavers Colony Main Road, Bannerghatta Road", "addr:postcode": "560083", "addr:state": "Karnataka", "amenity": "hospital", "name": "Banashankari Hospital", "source": "OpenGovernmentData"}}, {"type": "node", "id": 9884952776, "lat": 12.8832909, "lon": 77.5500857, "tags": {"addr:city": "Bengaluru", "addr:housenumber": "766", "addr:postcode": "560062", "addr:street": "Narayana Nagar, 1st Block, Doddakallasandra Village, Kanakapura Road", "amenity": "hospital", "check_date": "2024-10-19", "description": "Maternity & Kids Hospital", "emergency": "yes", "healthcare": "hospital", "healthcare:speciality": "gynaecology;pulmonology;paediatrics;dermatology;dentistry;physiotherapy;fertility", "name": "Cloudnine Hospital", "operator:type": "private", "phone": "9972999729", "website": "https://www.cloudninecare.com"}}, {"type": "node", "id": 11299121541, "lat": 12.8784742, "lon": 77.5450234, "tags": {"amenity": "hospital", "healthcare": "hospital", "name": "Zymus Hospitals"}}, {"type": "node", "id": 11869384815, "lat": 12.8835095, "lon": 77.550214, "tags": {"addr:street": "Kanakapura Road", "amenity": "hospital", "description": "Multi speciality hospital", "name": "Dhee Hospital", "website": "https://dheehospitals.com/"}}, {"type": "node", "id": 12650436309, "lat": 12.7973794, "lon": 77.527881}, {"type": "node", "id": 12650436310, "lat": 12.7973977, "lon": 77.527433}, {"type": "node", "id": 12650436311, "lat": 12.7969975, "lon": 77.5273231}, {"type": "node", "id": 12650436312, "lat": 12.7969845, "lon": 77.5268912}, {"type": "node", "id": 12650436313, "lat": 12.7961265, "lon": 77.5265747}, {"type": "node", "id": 12650436314, "lat": 12.7959801, "lon": 77.5265613}, {"type": "node", "id": 12650436315, "lat": 12.7958258, "lon": 77.5261241}, {"type": "node", "id": 12650436316, "lat": 12.7953366, "lon": 77.5260061}, {"type": "node", "id": 12650436317, "lat": 12.7952242, "lon": 77.5265694}, {"type": "node", "id": 12650436318, "lat": 12.7955067, "lon": 77.5269315}, {"type": "node", "id": 12650436319, "lat": 12.7955694, "lon": 77.5282779}, {"type": "node", "id": 12650436320, "lat": 12.7977665, "lon": 77.5288412}, {"type": "node", "id": 12650436321, "lat": 12.7977665, "lon": 77.5278407}, {"type": "way", "id": 668074515, "nodes": [6255876709, 6255876710, 6255876711, 6255876712, 6255876713, 6255876714, 6255876715, 6255876716, 6255876717, 6255876718, 6255876719, 6255876720, 6255876721, 6255876722, 6255876723, 6255876724, 6255876725, 6255876726, 6255876727, 6255876728, 6255876729, 6255876709], "tags": {"addr:district": "Bengaluru Rural", "addr:full": "Ved Vignan Maha Vidya Peeth, 21st Km, Kanakpura Road, Udayapura P.O", "addr:postcode": "560082", "addr:state": "Karnataka", "amenity": "hospital", "building": "hospital", "healthcare": "hospital", "name": "Sri Sri Ayurveda hospital", "name:kn": "\u0c86\u0caf\u0cc1\u0cb0\u0ccd\u0cb5\u0cc7\u0ca6 \u0c86\u0cb8\u0ccd\u0caa\u0ca4\u0ccd\u0cb0\u0cc6", "source": "OpenGovernmentData"}}, {"type": "way", "id": 1366035450, "nodes": [12650436321, 12650436320, 12650436319, 12650436318, 12650436317, 12650436316, 12650436315, 12650436314, 12650436313, 12650436312, 12650436311, 12650436310, 12650436309, 12650436321], "tags": {"amenity": "hospital", "name": "Cadambam's Psychiatric Hospital"}}]}