{"version": 0.6, "generator": "Overpass API 0.7.62.8 e802775f", "osm3s": {"timestamp_osm_base": "2026-01-15T13:07:38Z", "copyright": "The data included in this document is from www.openstreetmap.org. The data is made available under ODbL."}, "elements": [{"type": "node", "id": 240755740, "lat": 52.0669353, "lon": 5.0952373}, {"type": "node", "id": 240755745, "lat": 52.0670854, "lon": 5.0944892}, {"type": "node", "id": 240755747, "lat": 52.0673013, "lon": 5.0942712}, {"type": "node", "id": 240755749, "lat": 52.0672948, "lon": 5.0941902}, {"type": "node", "id": 240755752, "lat": 52.0671277, "lon": 5.093725}, {"type": "node", "id": 240755754, "lat": 52.0665824, "lon": 5.0942172}, {"type": "node", "id": 245962830, "lat": 52.0697061, "lon": 5.096614}, {"type": "node", "id": 245962831, "lat": 52.0693102, "lon": 5.0954557}, {"type": "node", "id": 245962833, "lat": 52.0697804, "lon": 5.0949986}, {"type": "node", "id": 245962834, "lat": 52.0701886, "lon": 5.0961688}, {"type": "node", "id": 246659750, "lat": 52.0703576, "lon": 5.0935774}, {"type": "node", "id": 246659751, "lat": 52.0707576, "lon": 5.0932059}, {"type": "node", "id": 246659752, "lat": 52.0710845, "lon": 5.0941357}, {"type": "node", "id": 246659753, "lat": 52.0706886, "lon": 5.0945143}, {"type": "node", "id": 364766973, "lat": 52.05834, "lon": 5.0744844}, {"type": "node", "id": 364766974, "lat": 52.0581366, "lon": 5.0744625}, {"type": "node", "id": 364766975, "lat": 52.0579765, "lon": 5.0744333}, {"type": "node", "id": 364766985, "lat": 52.0578561, "lon": 5.0753397}, {"type": "node", "id": 364766998, "lat": 52.0578314, "lon": 5.0758574}, {"type": "node", "id": 855014104, "lat": 52.0452807, "lon": 5.0739804}, {"type": "node", "id": 855069400, "lat": 52.0456676, "lon": 5.0741242}, {"type": "node", "id": 2050559741, "lat": 52.0578698, "lon": 5.0748236}, {"type": "node", "id": 2050559744, "lat": 52.0578917, "lon": 5.0744114}, {"type": "node", "id": 2050559751, "lat": 52.0580798, "lon": 5.0758869, "tags": {"barrier": "gate"}}, {"type": "node", "id": 2050559762, "lat": 52.0582855, "lon": 5.07591}, {"type": "node", "id": 2229364085, "lat": 52.0439388, "lon": 5.0875687, "tags": {"addr:city": "Nieuwegein", "addr:housenumber": "11-13", "addr:street": "Lohengrinhof", "amenity": "school", "check_date": "2025-09-11", "name": "OBS De Toonladder"}}, {"type": "node", "id": 2229364087, "lat": 52.0441692, "lon": 5.0866785, "tags": {"addr:city": "Nieuwegein", "addr:housenumber": "10", "addr:postcode": "3438RA", "addr:street": "Lohengrinhof", "amenity": "school", "check_date": "2025-09-11", "name": "OBS De Beatrixschool", "source": "BAG", "source:date": "2014-08-07"}}, {"type": "node", "id": 2232501998, "lat": 52.0406351, "lon": 5.074131, "tags": {"amenity": "school", "email": "info@veldrakker.nl", "name": "De Veldrakker", "phone": "+31 30 603 5935", "website": "https://veldrakker.nl/"}}, {"type": "node", "id": 2232502101, "lat": 52.0408627, "lon": 5.0728489, "tags": {"amenity": "school", "name": "Lucas Batau"}}, {"type": "node", "id": 3003086889, "lat": 52.0580908, "lon": 5.0747739}, {"type": "node", "id": 3003086891, "lat": 52.0580938, "lon": 5.0747593}, {"type": "node", "id": 3003086892, "lat": 52.0580968, "lon": 5.0747597}, {"type": "node", "id": 3003086894, "lat": 52.058139, "lon": 5.0756457}, {"type": "node", "id": 3003086895, "lat": 52.058142, "lon": 5.0756459}, {"type": "node", "id": 3003086896, "lat": 52.0581421, "lon": 5.0756422}, {"type": "node", "id": 3003086897, "lat": 52.0581522, "lon": 5.0753849}, {"type": "node", "id": 3003086899, "lat": 52.058176, "lon": 5.0749106}, {"type": "node", "id": 3003086901, "lat": 52.0581923, "lon": 5.0745847}, {"type": "node", "id": 3003086902, "lat": 52.0581951, "lon": 5.0745889}, {"type": "node", "id": 3003086903, "lat": 52.0581952, "lon": 5.0745852}, {"type": "node", "id": 3003086906, "lat": 52.0582399, "lon": 5.075655}, {"type": "node", "id": 3003086907, "lat": 52.0582414, "lon": 5.0756691}, {"type": "node", "id": 3003086908, "lat": 52.0582434, "lon": 5.0756439}, {"type": "node", "id": 3003086909, "lat": 52.0582445, "lon": 5.0756695}, {"type": "node", "id": 3003086910, "lat": 52.0582458, "lon": 5.0756442}, {"type": "node", "id": 3003086911, "lat": 52.0582929, "lon": 5.074603}, {"type": "node", "id": 3003086912, "lat": 52.058295, "lon": 5.0746182}, {"type": "node", "id": 3003086913, "lat": 52.0582958, "lon": 5.074589}, {"type": "node", "id": 3003086914, "lat": 52.0582974, "lon": 5.0746185}, {"type": "node", "id": 3003086915, "lat": 52.0582989, "lon": 5.0745894}, {"type": "node", "id": 3003087162, "lat": 52.0579568, "lon": 5.0754238}, {"type": "node", "id": 3003087163, "lat": 52.0579597, "lon": 5.0754243}, {"type": "node", "id": 3003087164, "lat": 52.0579599, "lon": 5.0754205}, {"type": "node", "id": 3003087166, "lat": 52.0579903, "lon": 5.0747555}, {"type": "node", "id": 3003087167, "lat": 52.0579931, "lon": 5.0747597}, {"type": "node", "id": 3003087168, "lat": 52.0579933, "lon": 5.0747559}, {"type": "node", "id": 3003087178, "lat": 52.0580575, "lon": 5.0754371}, {"type": "node", "id": 3003087179, "lat": 52.0580592, "lon": 5.075447}, {"type": "node", "id": 3003087180, "lat": 52.0580622, "lon": 5.0754474}, {"type": "node", "id": 3003087181, "lat": 52.0580659, "lon": 5.0753736}, {"type": "node", "id": 3003087183, "lat": 52.0580899, "lon": 5.0748992}, {"type": "node", "id": 3003095835, "lat": 52.0503663, "lon": 5.0817219, "tags": {"addr:city": "Nieuwegein", "addr:housenumber": "1", "addr:postcode": "3437KB", "addr:street": "Aert de Gelderhage", "amenity": "school", "name": "Lucas Galekop", "source": "BAG", "source:date": "2014-08-07"}}, {"type": "node", "id": 3003096739, "lat": 52.0499503, "lon": 5.0821343, "tags": {"addr:city": "Nieuwegein", "addr:housenumber": "3", "addr:postcode": "3437KB", "addr:street": "Aert de Gelderhage", "amenity": "school", "name": "Lucas Galekop", "source": "BAG", "source:date": "2014-08-07"}}, {"type": "node", "id": 3003097002, "lat": 52.0496085, "lon": 5.0813825, "tags": {"addr:city": "Nieuwegein", "addr:housenumber": "5", "addr:postcode": "3437KB", "addr:street": "Aert de Gelderhage", "amenity": "school", "name": "Koningin Julianaschool", "source": "BAG", "source:date": "2014-08-07"}}, {"type": "node", "id": 3003275818, "lat": 52.0443107, "lon": 5.0876872, "tags": {"addr:city": "Nieuwegein", "addr:housenumber": "15", "addr:postcode": "3438RA", "addr:street": "Lohengrinhof", "amenity": "school", "name": "KBS Vroonestein", "source": "BAG", "source:date": "2014-08-07"}}, {"type": "node", "id": 3023162693, "lat": 52.0673479, "lon": 5.095666, "tags": {"addr:city": "Utrecht", "addr:housenumber": "1", "addr:postcode": "3526RA", "addr:street": "Bontekoelaan", "amenity": "school", "check_date": "2025-04-03", "fax": "+31 30 511 2020", "min_age": "11", "name": "Globecollege", "phone": "+31 30 511 2000", "source": "BAG", "source:date": "2014-08-17", "website": "https://www.globecollege.nl"}}, {"type": "node", "id": 4621987654, "lat": 52.0453763, "lon": 5.0751471, "tags": {"entrance": "main"}}, {"type": "node", "id": 4621987655, "lat": 52.045492, "lon": 5.0753071}, {"type": "node", "id": 4621987656, "lat": 52.0451274, "lon": 5.0750204}, {"type": "node", "id": 10154442523, "lat": 52.0705731, "lon": 5.0941907, "tags": {"barrier": "gate"}}, {"type": "node", "id": 10154442524, "lat": 52.0704896, "lon": 5.0939508, "tags": {"barrier": "gate"}}, {"type": "node", "id": 10154442626, "lat": 52.0704993, "lon": 5.0939783}, {"type": "node", "id": 10154442645, "lat": 52.0704795, "lon": 5.0939225}, {"type": "node", "id": 10154442646, "lat": 52.0707203, "lon": 5.0932406}, {"type": "node", "id": 10158164620, "lat": 52.0697717, "lon": 5.0965528}, {"type": "node", "id": 10158164732, "lat": 52.0698302, "lon": 5.0964984}, {"type": "node", "id": 10158164753, "lat": 52.0694858, "lon": 5.0952672}, {"type": "node", "id": 10158164754, "lat": 52.0694936, "lon": 5.0952888}, {"type": "node", "id": 10804105261, "lat": 52.069978, "lon": 5.0960829, "tags": {"amenity": "school", "capacity": "160", "isced": "1", "max_age": "12", "min_age": "10", "name": "Al Hambra basisschool", "operator": "stichting Noor", "website": "https://ibsalhambra.nl/"}}, {"type": "node", "id": 11183652418, "lat": 52.0696235, "lon": 5.0963792}, {"type": "node", "id": 12253983939, "lat": 52.0712814, "lon": 5.0743479}, {"type": "node", "id": 12253983940, "lat": 52.0719689, "lon": 5.0750077}, {"type": "node", "id": 12253983941, "lat": 52.0721568, "lon": 5.0745007}, {"type": "node", "id": 12253983942, "lat": 52.0725921, "lon": 5.0749513}, {"type": "node", "id": 12253983943, "lat": 52.0724338, "lon": 5.0753859}, {"type": "node", "id": 12253983944, "lat": 52.0722632, "lon": 5.0752343}, {"type": "node", "id": 12253983945, "lat": 52.0719491, "lon": 5.0760537}, {"type": "node", "id": 12253983946, "lat": 52.0716227, "lon": 5.0762066}, {"type": "node", "id": 12253983947, "lat": 52.0715979, "lon": 5.0761798}, {"type": "node", "id": 12253983948, "lat": 52.0715534, "lon": 5.0763246}, {"type": "node", "id": 12253983949, "lat": 52.0714017, "lon": 5.0764185}, {"type": "node", "id": 12253983950, "lat": 52.0707109, "lon": 5.0758043}, {"type": "node", "id": 12253983951, "lat": 52.0710819, "lon": 5.0742754}, {"type": "node", "id": 12739136947, "lat": 52.0672496, "lon": 5.0949574}, {"type": "node", "id": 13116786300, "lat": 52.0451534, "lon": 5.0748491}, {"type": "node", "id": 13116786301, "lat": 52.0451451, "lon": 5.0748353}, {"type": "node", "id": 13116786302, "lat": 52.0451334, "lon": 5.0748032}, {"type": "node", "id": 13116786303, "lat": 52.0451193, "lon": 5.0747304}, {"type": "node", "id": 13116786304, "lat": 52.0451148, "lon": 5.0746593}, {"type": "node", "id": 13116786305, "lat": 52.0451179, "lon": 5.0745866}, {"type": "node", "id": 13116786306, "lat": 52.0451286, "lon": 5.0745105}, {"type": "node", "id": 13116786307, "lat": 52.045148, "lon": 5.0744364}, {"type": "node", "id": 13116786308, "lat": 52.0451666, "lon": 5.0743908}, {"type": "node", "id": 13116786309, "lat": 52.0451905, "lon": 5.0743371}, {"type": "node", "id": 13116786310, "lat": 52.0452226, "lon": 5.0742925}, {"type": "node", "id": 13116786311, "lat": 52.045241, "lon": 5.0741584}, {"type": "node", "id": 13116786312, "lat": 52.0452525, "lon": 5.0741621}, {"type": "node", "id": 13116786313, "lat": 52.0453872, "lon": 5.0752471}, {"type": "node", "id": 13116786314, "lat": 52.0454041, "lon": 5.0751606}, {"type": "way", "id": 22392749, "nodes": [12739136947, 240755745, 240755747, 240755749, 240755752, 240755754, 240755740, 12739136947], "tags": {"amenity": "school", "name": "Gymzaal van het Globecollege", "source": "survey"}}, {"type": "way", "id": 22878409, "nodes": [245962830, 11183652418, 245962831, 10158164754, 10158164753, 245962833, 245962834, 10158164732, 10158164620, 245962830], "tags": {"addr:city": "Utrecht", "addr:housenumber": "28a", "addr:postcode": "3526VN", "addr:street": "Afrikalaan", "amenity": "school", "capacity": "180", "denomination": "protestant", "isced": "1", "max_age": "12", "min_age": "4", "name": "Basisschool De Olijfboom", "operator": "Stichting PCOU Willibrord Utrecht", "religion": "christian", "toilets:wheelchair": "yes", "website": "https://bsdeolijfboom.nl/", "wheelchair": "yes", "wheelchair:description": "Plateaulift 1,1 x 2,1 m."}}, {"type": "way", "id": 22910632, "nodes": [246659750, 10154442646, 246659751, 246659752, 246659753, 10154442523, 10154442626, 10154442524, 10154442645, 246659750], "tags": {"amenity": "school", "name": "de Kaleidoscoop", "source": "survey"}}, {"type": "way", "id": 32442977, "nodes": [2050559744, 2050559741, 364766985, 364766998, 2050559751, 2050559762, 364766973, 364766974, 364766975, 2050559744], "tags": {"amenity": "school", "check_date": "2025-12-09", "name": "O.B.S. De Toonladder", "website": "https://www.toonladdergalecop.nl"}}, {"type": "way", "id": 296518539, "nodes": [3003086912, 3003086908, 3003086910, 3003086909, 3003086907, 3003086906, 3003086896, 3003086895, 3003086894, 3003086897, 3003087181, 3003087180, 3003087179, 3003087178, 3003087164, 3003087163, 3003087162, 3003087166, 3003087168, 3003087167, 3003086889, 3003086891, 3003086892, 3003087183, 3003086899, 3003086901, 3003086903, 3003086902, 3003086911, 3003086913, 3003086915, 3003086914, 3003086912], "tags": {"amenity": "school", "building": "yes", "check_date": "2025-12-09", "ref:bag": "356100000082919", "source": "BAG", "source:date": "2014-08-07", "start_date": "2008"}}, {"type": "way", "id": 467596948, "nodes": [4621987656, 13116786300, 13116786301, 13116786302, 13116786303, 13116786304, 13116786305, 13116786306, 13116786307, 13116786308, 13116786309, 13116786310, 13116786311, 13116786312, 855014104, 855069400, 4621987655, 13116786313, 13116786314, 4621987654, 4621987656], "tags": {"addr:city": "Nieuwegein", "addr:housenumber": "1", "addr:postcode": "3437WN", "addr:street": "Dasseweide", "amenity": "school", "barrier": "fence", "contact:phone": "+31 30 604 8400", "name": "SBO De Evenaar", "website": "https://www.sbo-evenaar.nl"}}, {"type": "way", "id": 1324236567, "nodes": [12253983951, 12253983950, 12253983949, 12253983948, 12253983947, 12253983946, 12253983945, 12253983944, 12253983943, 12253983942, 12253983941, 12253983940, 12253983939, 12253983951], "tags": {"addr:city": "Utrecht", "addr:housenumber": "1", "addr:postcode": "3528AG", "addr:street": "Van Deventerlaan", "amenity": "school", "name": "International School Utrecht", "short_name": "ISUtrecht", "website": "https://www.isutrecht.nl/"}}]}