{"version": 0.6, "generator": "Overpass API 0.7.62.8 e802775f", "osm3s": {"timestamp_osm_base": "2026-01-15T07:45:15Z", "copyright": "The data included in this document is from www.openstreetmap.org. The data is made available under ODbL."}, "elements": [{"type": "node", "id": 676315011, "lat": 38.1390212, "lon": 13.3552307}, {"type": "node", "id": 676315014, "lat": 38.1386603, "lon": 13.3554186}, {"type": "node", "id": 676315021, "lat": 38.1380396, "lon": 13.3559714, "tags": {"railway": "switch"}}, {"type": "node", "id": 676315037, "lat": 38.1385172, "lon": 13.3556107}, {"type": "node", "id": 676315043, "lat": 38.1383085, "lon": 13.3557141}, {"type": "node", "id": 676315044, "lat": 38.1384928, "lon": 13.3555544}, {"type": "node", "id": 676315103, "lat": 38.1395378, "lon": 13.3548389}, {"type": "node", "id": 676315104, "lat": 38.1393212, "lon": 13.3550048}, {"type": "node", "id": 676315109, "lat": 38.139211, "lon": 13.3549952}, {"type": "node", "id": 676315112, "lat": 38.1402032, "lon": 13.3543282}, {"type": "node", "id": 676315121, "lat": 38.140265, "lon": 13.3541667}, {"type": "node", "id": 676315124, "lat": 38.140438, "lon": 13.3541466}, {"type": "node", "id": 3212817126, "lat": 38.1357797, "lon": 13.3576856}, {"type": "node", "id": 4470034693, "lat": 38.1463282, "lon": 13.3700818, "tags": {"bench": "yes", "bin": "no", "bus": "yes", "highway": "bus_stop", "lit": "yes", "name": "Papa Sergio - Ospedale Albanese", "network": "AMAT", "network:wikidata": "Q3601014", "operator": "AMAT", "public_transport": "platform", "ref": "1368", "shelter": "yes", "tactile_paving": "no"}}, {"type": "node", "id": 4470034694, "lat": 38.1443969, "lon": 13.3673928, "tags": {"bus": "yes", "highway": "bus_stop", "name": "Ammiraglio Rizzo - Piazza Acquasanta", "network": "AMAT", "network:wikidata": "Q3601014", "operator": "AMAT", "public_transport": "platform", "ref": "94"}}, {"type": "node", "id": 4470034796, "lat": 38.1654075, "lon": 13.3683139, "tags": {"bench": "yes", "bin": "yes", "bus": "yes", "highway": "bus_stop", "lit": "yes", "name": "Piazza Bordonaro", "network": "AMAT", "network:wikidata": "Q3601014", "operator": "AMAT", "public_transport": "platform", "ref": "1466", "shelter": "yes", "tactile_paving": "no"}}, {"type": "node", "id": 4470051392, "lat": 38.1435612, "lon": 13.3604946, "tags": {"bus": "yes", "highway": "bus_stop", "name": "Ammiraglio Rizzo - Don Orione", "name:it": "Ammiraglio Rizzo - Don Orione", "network": "AMAT", "network:wikidata": "Q3601014", "operator": "AMAT", "public_transport": "platform", "ref": "87"}}, {"type": "node", "id": 4470094690, "lat": 38.1515056, "lon": 13.3706186, "tags": {"bench": "no", "bin": "no", "bus": "yes", "departures_board": "no", "highway": "bus_stop", "lit": "no", "name": "Papa Sergio - Tonnara", "network": "AMAT", "network:wikidata": "Q3601014", "operator": "AMAT", "public_transport": "platform", "ref": "1370", "shelter": "yes", "tactile_paving": "no"}}, {"type": "node", "id": 4470097390, "lat": 38.1436912, "lon": 13.3604722, "tags": {"bus": "yes", "highway": "bus_stop", "name": "Ammiraglio Rizzo - Don Orione", "name:it": "Ammiraglio Rizzo - Don Orione", "network": "AMAT", "network:wikidata": "Q3601014", "operator": "AMAT", "public_transport": "platform", "ref": "88"}}, {"type": "node", "id": 6261266974, "lat": 38.1634287, "lon": 13.3698218, "tags": {"bench": "yes", "bin": "no", "bus": "yes", "highway": "bus_stop", "lit": "no", "name": "Rotoli 3", "network": "AMAT", "network:wikidata": "Q3601014", "operator": "AMAT", "public_transport": "platform", "ref": "1777", "shelter": "yes", "tactile_paving": "no"}}, {"type": "node", "id": 6261266975, "lat": 38.1615939, "lon": 13.3706823, "tags": {"bus": "yes", "highway": "bus_stop", "name": "Rotoli 2", "network": "AMAT", "network:wikidata": "Q3601014", "operator": "AMAT", "public_transport": "platform", "ref": "1778"}}, {"type": "node", "id": 6261266976, "lat": 38.1591373, "lon": 13.3713404, "tags": {"bench": "no", "bin": "no", "bus": "yes", "check_date:shelter": "2024-02-16", "highway": "bus_stop", "lit": "yes", "name": "Rotoli 1", "network": "AMAT", "network:wikidata": "Q3601014", "operator": "AMAT", "public_transport": "platform", "ref": "1779", "shelter": "yes", "tactile_paving": "no"}}, {"type": "node", "id": 6261266977, "lat": 38.1587929, "lon": 13.3712623, "tags": {"bench": "yes", "bin": "no", "bus": "yes", "check_date:shelter": "2024-02-16", "highway": "bus_stop", "name": "Rotoli 1", "network": "AMAT", "network:wikidata": "Q3601014", "operator": "AMAT", "public_transport": "platform", "ref": "1774", "shelter": "yes", "tactile_paving": "no"}}, {"type": "node", "id": 6448376696, "lat": 38.1655788, "lon": 13.3675531, "tags": {"bench": "yes", "bin": "no", "bus": "yes", "highway": "bus_stop", "name": "Piazza Bordonaro", "network": "AMAT", "network:wikidata": "Q3601014", "operator": "AMAT", "public_transport": "platform", "ref": "1465", "shelter": "no", "tactile_paving": "no"}}, {"type": "node", "id": 6448376697, "lat": 38.1645887, "lon": 13.3693414, "tags": {"bench": "no", "bin": "no", "bus": "yes", "highway": "bus_stop", "lit": "no", "name": "Vergine Maria", "network": "AMAT", "network:wikidata": "Q3601014", "operator": "AMAT", "public_transport": "platform", "ref": "2113", "shelter": "no", "tactile_paving": "no"}}, {"type": "node", "id": 6448376698, "lat": 38.163859, "lon": 13.3697377, "tags": {"bench": "no", "bin": "no", "bus": "yes", "highway": "bus_stop", "lit": "no", "name": "Rotoli 3", "network": "AMAT", "network:wikidata": "Q3601014", "operator": "AMAT", "public_transport": "platform", "ref": "1776", "shelter": "no", "tactile_paving": "no"}}, {"type": "node", "id": 6448376699, "lat": 38.1621344, "lon": 13.3705746, "tags": {"bus": "yes", "highway": "bus_stop", "name": "Rotoli 2", "network": "AMAT", "network:wikidata": "Q3601014", "operator": "AMAT", "public_transport": "platform", "ref": "1775"}}, {"type": "node", "id": 6448376700, "lat": 38.1571588, "lon": 13.3709005, "tags": {"bench": "yes", "bin": "no", "bus": "yes", "highway": "bus_stop", "name": "Papa Sergio - Chimica Arenella", "network": "AMAT", "network:wikidata": "Q3601014", "operator": "AMAT", "public_transport": "platform", "ref": "1361", "shelter": "yes", "tactile_paving": "no"}}, {"type": "node", "id": 6448376701, "lat": 38.1563447, "lon": 13.370655, "tags": {"bench": "yes", "bin": "no", "bus": "yes", "highway": "bus_stop", "lit": "yes", "name": "Papa Sergio - Chimica Arenella", "network": "AMAT", "network:wikidata": "Q3601014", "operator": "AMAT", "public_transport": "platform", "ref": "1362", "shelter": "yes", "tactile_paving": "no"}}, {"type": "node", "id": 6448376702, "lat": 38.1544997, "lon": 13.3706175, "tags": {"bench": "no", "bin": "no", "bus": "yes", "highway": "bus_stop", "lit": "no", "name": "Papa Sergio - Lavitrano", "network": "AMAT", "network:wikidata": "Q3601014", "operator": "AMAT", "public_transport": "platform", "ref": "1365", "shelter": "no", "tactile_paving": "no"}}, {"type": "node", "id": 6448376703, "lat": 38.1542672, "lon": 13.3705001, "tags": {"bench": "yes", "bin": "no", "bus": "yes", "highway": "bus_stop", "lit": "yes", "name": "Papa Sergio - Lavitrano", "network": "AMAT", "network:wikidata": "Q3601014", "operator": "AMAT", "public_transport": "platform", "ref": "1366", "shelter": "yes", "tactile_paving": "no"}}, {"type": "node", "id": 6448376704, "lat": 38.1517221, "lon": 13.3707576, "tags": {"bench": "yes", "bin": "no", "bus": "yes", "highway": "bus_stop", "lit": "no", "name": "Papa Sergio - Tonnara", "network": "AMAT", "network:wikidata": "Q3601014", "operator": "AMAT", "public_transport": "platform", "ref": "1369", "shelter": "yes", "tactile_paving": "no"}}, {"type": "node", "id": 6448376705, "lat": 38.1504005, "lon": 13.3708448, "tags": {"bench": "yes", "bin": "no", "bus": "yes", "highway": "bus_stop", "name": "Papa Sergio - Di Leo", "network": "AMAT", "network:wikidata": "Q3601014", "operator": "AMAT", "public_transport": "platform", "ref": "1363", "shelter": "yes", "tactile_paving": "no"}}, {"type": "node", "id": 6448376706, "lat": 38.1497556, "lon": 13.3707288, "tags": {"bench": "yes", "bin": "no", "bus": "yes", "highway": "bus_stop", "lit": "yes", "name": "Papa Sergio - Di Leo", "network": "AMAT", "network:wikidata": "Q3601014", "operator": "AMAT", "public_transport": "platform", "ref": "1364", "shelter": "yes", "tactile_paving": "no"}}, {"type": "node", "id": 6448376707, "lat": 38.1487948, "lon": 13.3708944, "tags": {"bench": "yes", "bin": "yes", "bus": "yes", "highway": "bus_stop", "name": "Papa Sergio - Bosco", "network": "AMAT", "network:wikidata": "Q3601014", "operator": "AMAT", "public_transport": "platform", "ref": "1359", "shelter": "yes", "tactile_paving": "no"}}, {"type": "node", "id": 6448376708, "lat": 38.1478545, "lon": 13.3705739, "tags": {"bench": "yes", "bin": "yes", "bus": "yes", "highway": "bus_stop", "lit": "yes", "name": "Papa Sergio - Bosco", "network": "AMAT", "network:wikidata": "Q3601014", "operator": "AMAT", "public_transport": "platform", "ref": "1360", "shelter": "yes", "tactile_paving": "no"}}, {"type": "node", "id": 6448376709, "lat": 38.1468468, "lon": 13.3704076, "tags": {"bench": "yes", "bin": "no", "bus": "yes", "highway": "bus_stop", "lit": "no", "name": "Papa Sergio - Ospedale Albanese", "network": "AMAT", "network:wikidata": "Q3601014", "operator": "AMAT", "public_transport": "platform", "ref": "1367", "shelter": "yes", "tactile_paving": "no"}}, {"type": "node", "id": 6448376710, "lat": 38.1456318, "lon": 13.3700039, "tags": {"bench": "yes", "bin": "no", "bus": "yes", "highway": "bus_stop", "name": "Papa Sergio - Villa Igiea", "operator": "AMAT", "public_transport": "platform", "ref": "1371", "shelter": "yes", "tactile_paving": "no"}}, {"type": "node", "id": 6448376711, "lat": 38.1443002, "lon": 13.3676094, "tags": {"bus": "yes", "highway": "bus_stop", "name": "Ammiraglio Rizzo - Piazza Acquasanta", "network": "AMAT", "network:wikidata": "Q3601014", "operator": "AMAT", "public_transport": "platform", "ref": "93"}}, {"type": "node", "id": 6448376712, "lat": 38.144383, "lon": 13.3656809, "tags": {"bus": "yes", "highway": "bus_stop", "name": "Ammiraglio Rizzo - Calcedonio", "network": "AMAT", "network:wikidata": "Q3601014", "operator": "AMAT", "public_transport": "platform", "ref": "86"}}, {"type": "node", "id": 6448376713, "lat": 38.1441879, "lon": 13.3657828, "tags": {"bus": "yes", "highway": "bus_stop", "name": "Ammiraglio Rizzo - Calcedonio", "network": "AMAT", "network:wikidata": "Q3601014", "operator": "AMAT", "public_transport": "platform", "ref": "85"}}, {"type": "node", "id": 6448376714, "lat": 38.1440671, "lon": 13.3632313, "tags": {"bus": "yes", "highway": "bus_stop", "name": "Ammiraglio Rizzo - Jung", "network": "AMAT", "network:wikidata": "Q3601014", "operator": "AMAT", "public_transport": "platform", "ref": "92"}}, {"type": "node", "id": 6448376715, "lat": 38.1438377, "lon": 13.3626889, "tags": {"bus": "yes", "highway": "bus_stop", "name": "Ammiraglio Rizzo - Jung", "network": "AMAT", "network:wikidata": "Q3601014", "operator": "AMAT", "public_transport": "platform", "ref": "91"}}, {"type": "node", "id": 6448376716, "lat": 38.1435287, "lon": 13.3592235, "tags": {"bench": "no", "bin": "no", "bus": "yes", "highway": "bus_stop", "lit": "no", "name": "Ammiraglio Rizzo - Generale Cascino", "network": "AMAT", "network:wikidata": "Q3601014", "network:wikipedia": "it:AMAT (Palermo)", "operator": "AMAT", "public_transport": "platform", "ref": "90", "shelter": "yes", "tactile_paving": "no"}}, {"type": "node", "id": 6448376717, "lat": 38.1433346, "lon": 13.3587883, "tags": {"bench": "yes", "bin": "no", "bus": "yes", "highway": "bus_stop", "lit": "no", "name": "Ammiraglio Rizzo - Generale Cascino", "network": "AMAT", "network:wikidata": "Q3601014", "network:wikipedia": "it:AMAT (Palermo)", "operator": "AMAT", "public_transport": "platform", "ref": "89", "shelter": "yes", "tactile_paving": "no"}}, {"type": "node", "id": 6448376718, "lat": 38.1450006, "lon": 13.3552518, "tags": {"bus": "yes", "highway": "bus_stop", "name": "Sadat - Autonomia Siciliana", "network": "AMAT", "network:wikidata": "Q3601014", "network:wikipedia": "it:AMAT (Palermo)", "operator": "AMAT", "public_transport": "platform", "ref": "1865"}}, {"type": "node", "id": 6449132294, "lat": 38.1480412, "lon": 13.3566378, "tags": {"bench": "no", "bin": "no", "bus": "yes", "highway": "bus_stop", "lit": "yes", "name": "King - Scala Vecchia", "network": "AMAT", "network:wikidata": "Q3601014", "network:wikipedia": "it:AMAT (Palermo)", "operator": "AMAT", "public_transport": "platform", "ref": "918", "shelter": "no", "tactile_paving": "no"}}, {"type": "node", "id": 6449132295, "lat": 38.1467846, "lon": 13.3570529, "tags": {"bus": "yes", "highway": "bus_stop", "name": "Rabin - Scala Vecchia", "network": "AMAT", "network:wikidata": "Q3601014", "network:wikipedia": "it:AMAT (Palermo)", "operator": "AMAT", "public_transport": "platform", "ref": "1615"}}, {"type": "node", "id": 6449132296, "lat": 38.1437718, "lon": 13.3575296, "tags": {"bench": "no", "bin": "no", "bus": "yes", "highway": "bus_stop", "lit": "yes", "name": "Rabin - Ammiraglio Rizzo", "network": "AMAT", "network:wikidata": "Q3601014", "network:wikipedia": "it:AMAT (Palermo)", "operator": "AMAT", "public_transport": "platform", "ref": "1613", "shelter": "no", "tactile_paving": "no"}}, {"type": "node", "id": 6449132325, "lat": 38.1729656, "lon": 13.3659665, "tags": {"bus": "yes", "highway": "bus_stop", "name": "Cristoforo Colombo 4", "operator": "AMAT", "public_transport": "platform", "ref": "549"}}, {"type": "node", "id": 6449132326, "lat": 38.1729572, "lon": 13.3660671, "tags": {"bus": "yes", "highway": "bus_stop", "name": "Cristoforo Colombo 4", "operator": "AMAT", "public_transport": "platform", "ref": "554"}}, {"type": "node", "id": 6449132327, "lat": 38.1714616, "lon": 13.3662797, "tags": {"bus": "yes", "highway": "bus_stop", "name": "Cristoforo Colombo 5", "operator": "AMAT", "public_transport": "platform", "ref": "550"}}, {"type": "node", "id": 6449132328, "lat": 38.1714869, "lon": 13.3663769, "tags": {"bus": "yes", "highway": "bus_stop", "name": "Cristoforo Colombo 5", "operator": "AMAT", "public_transport": "platform", "ref": "555"}}, {"type": "node", "id": 6449132329, "lat": 38.1692343, "lon": 13.3667877, "tags": {"bench": "no", "bin": "no", "bus": "yes", "departures_board": "timetable", "highway": "bus_stop", "lit": "no", "name": "Cristoforo Colombo - Belvedere Mare", "network": "AMAT", "network:wikidata": "Q3601014", "operator": "AMAT", "public_transport": "platform", "ref": "525", "shelter": "no", "tactile_paving": "no"}}, {"type": "node", "id": 6449132330, "lat": 38.1684931, "lon": 13.3663662, "tags": {"bench": "no", "bin": "no", "bus": "yes", "highway": "bus_stop", "lit": "no", "name": "Cristoforo Colombo - Belvedere", "network": "AMAT", "network:wikidata": "Q3601014", "operator": "AMAT", "public_transport": "platform", "ref": "527", "shelter": "no", "tactile_paving": "no"}}, {"type": "node", "id": 6449132331, "lat": 38.1682601, "lon": 13.366452, "tags": {"bench": "no", "bin": "no", "bus": "yes", "highway": "bus_stop", "lit": "no", "name": "Cristoforo Colombo - Belvedere", "network": "AMAT", "network:wikidata": "Q3601014", "operator": "AMAT", "public_transport": "platform", "ref": "527", "shelter": "no", "tactile_paving": "no"}}, {"type": "node", "id": 6449132332, "lat": 38.1669975, "lon": 13.3661503, "tags": {"bus": "yes", "highway": "bus_stop", "name": "Cristoforo Colombo - Vergine Maria", "network": "AMAT", "network:wikidata": "Q3601014", "operator": "AMAT", "public_transport": "platform", "ref": "547"}}, {"type": "node", "id": 6449132333, "lat": 38.1665354, "lon": 13.3659686, "tags": {"bus": "yes", "highway": "bus_stop", "name": "Cristoforo Colombo - Vergine Maria", "network": "AMAT", "network:wikidata": "Q3601014", "operator": "AMAT", "public_transport": "platform", "ref": "545"}}, {"type": "node", "id": 8903874235, "lat": 38.144374, "lon": 13.3670026, "tags": {"bench": "no", "bin": "no", "bus": "yes", "highway": "bus_stop", "network": "AMAT", "network:wikidata": "Q3601014", "operator": "AMAT", "public_transport": "platform", "shelter": "no"}}, {"type": "node", "id": 9063116704, "lat": 38.1406057, "lon": 13.35402}, {"type": "node", "id": 9063116712, "lat": 38.1405675, "lon": 13.3539302}, {"type": "node", "id": 11976050264, "lat": 38.1437477, "lon": 13.3674557, "tags": {"bus": "yes", "departures_board": "timetable", "highway": "bus_stop", "name": "Piazza Acquasanta Monte", "network": "AMAT", "network:wikidata": "Q3601014", "operator": "AMAT", "public_transport": "platform", "shelter": "yes"}}, {"type": "node", "id": 11976050265, "lat": 38.1436813, "lon": 13.3675764, "tags": {"bus": "yes", "departures_board": "no", "highway": "bus_stop", "name": "Piazza Acquasanta Valle", "network": "AMAT", "network:wikidata": "Q3601014", "operator": "AMAT", "public_transport": "platform", "shelter": "no"}}, {"type": "node", "id": 12241296005, "lat": 38.1426192, "lon": 13.3560372, "tags": {"bus": "yes", "departures_board": "timetable", "highway": "bus_stop", "name": "Autonomia Siciliana D'Amelio", "network": "AMAT", "network:wikidata": "Q3601014", "operator": "AMAT", "public_transport": "platform", "shelter": "yes"}}, {"type": "way", "id": 53536419, "nodes": [676315021, 676315043, 676315044, 676315014, 676315109, 676315121, 9063116712], "tags": {"electrified": "contact_line", "frequency": "0", "gauge": "1435", "railway": "rail", "service": "siding", "voltage": "3000"}}, {"type": "way", "id": 979703518, "nodes": [9063116704, 676315124, 676315112, 676315103, 676315104, 676315011, 676315037, 676315021, 3212817126], "tags": {"electrified": "contact_line", "frequency": "0", "gauge": "1435", "maxspeed": "85", "name": "Anello ferroviario", "operator": "RFI", "passenger_lines": "1", "railway": "rail", "railway:scmt": "yes", "ref": "158", "tracks": "1", "usage": "branch", "voltage": "3000"}}]}