{"version": 0.6, "generator": "Overpass API 0.7.62.8 e802775f", "osm3s": {"timestamp_osm_base": "2026-01-13T03:26:59Z", "copyright": "The data included in this document is from www.openstreetmap.org. The data is made available under ODbL."}, "elements": [{"type": "node", "id": 1595794961, "lat": 17.3505362, "lon": 78.5563819}, {"type": "node", "id": 1595794963, "lat": 17.3525433, "lon": 78.5562478}, {"type": "node", "id": 1595794965, "lat": 17.3523795, "lon": 78.5560708}, {"type": "node", "id": 1595794967, "lat": 17.3524921, "lon": 78.5557114}, {"type": "node", "id": 1595794973, "lat": 17.3518316, "lon": 78.5572832}, {"type": "node", "id": 1595794974, "lat": 17.3514425, "lon": 78.5550623}, {"type": "node", "id": 3200948738, "lat": 17.345698, "lon": 78.549763, "tags": {"amenity": "hospital", "healthcare": "hospital", "name": "Healthcare Hospitals"}}, {"type": "node", "id": 3200948976, "lat": 17.3348812, "lon": 78.5372101, "tags": {"amenity": "hospital", "healthcare": "hospital"}}, {"type": "node", "id": 3384203436, "lat": 17.3526774, "lon": 78.5542584, "tags": {"amenity": "hospital", "name": "hospital"}}, {"type": "node", "id": 3512164352, "lat": 17.3424972, "lon": 78.5082561}, {"type": "node", "id": 3512164353, "lat": 17.3417993, "lon": 78.5079716}, {"type": "node", "id": 3512164354, "lat": 17.341866, "lon": 78.5075736}, {"type": "node", "id": 3512164355, "lat": 17.3418343, "lon": 78.5073185}, {"type": "node", "id": 3512164357, "lat": 17.3417357, "lon": 78.5065391}, {"type": "node", "id": 3512164358, "lat": 17.3429869, "lon": 78.5066809}, {"type": "node", "id": 3689001544, "lat": 17.3405991, "lon": 78.5065084}, {"type": "node", "id": 3689001545, "lat": 17.3406815, "lon": 78.5071887}, {"type": "node", "id": 3689001547, "lat": 17.3406119, "lon": 78.5067831}, {"type": "node", "id": 3689001548, "lat": 17.340636, "lon": 78.5062474}, {"type": "node", "id": 3689001549, "lat": 17.3406481, "lon": 78.5065059}, {"type": "node", "id": 3689001550, "lat": 17.3406625, "lon": 78.5067805}, {"type": "node", "id": 3689001562, "lat": 17.3410145, "lon": 78.5062244}, {"type": "node", "id": 3689001563, "lat": 17.341017, "lon": 78.5064011}, {"type": "node", "id": 3689001564, "lat": 17.3410176, "lon": 78.5062903}, {"type": "node", "id": 3689001565, "lat": 17.3410232, "lon": 78.5065358}, {"type": "node", "id": 3689001566, "lat": 17.3410446, "lon": 78.5062889}, {"type": "node", "id": 3689001567, "lat": 17.3410636, "lon": 78.5068864}, {"type": "node", "id": 3689001568, "lat": 17.3410497, "lon": 78.5063994}, {"type": "node", "id": 3689001569, "lat": 17.341077, "lon": 78.5071741}, {"type": "node", "id": 3689001570, "lat": 17.3410781, "lon": 78.5068856}, {"type": "node", "id": 3689001571, "lat": 17.3410796, "lon": 78.5072818}, {"type": "node", "id": 3689001572, "lat": 17.3410803, "lon": 78.5069318}, {"type": "node", "id": 3689001573, "lat": 17.3410826, "lon": 78.5073469}, {"type": "node", "id": 3689001574, "lat": 17.3411012, "lon": 78.5071729}, {"type": "node", "id": 3689001575, "lat": 17.3411062, "lon": 78.5072805}, {"type": "node", "id": 3689001576, "lat": 17.3412267, "lon": 78.5065254}, {"type": "node", "id": 3689001577, "lat": 17.3412453, "lon": 78.5069234}, {"type": "node", "id": 3689001595, "lat": 17.3429703, "lon": 78.5067351}, {"type": "node", "id": 4517094891, "lat": 17.3451071, "lon": 78.5537805, "tags": {"addr:district": "Hyderabad", "addr:full": "3-8-264&264/1&3, Opp VIJAYA LAXMI THEATRE, CHANDRAPURI COLONY, L.B NAGAR", "addr:postcode": "500074", "addr:state": "Telangana", "addr:street": "LB Nagar Junction", "amenity": "hospital", "emergency_telephone_code": "9966108108", "fax": "040 24114111", "health_facility:type": "ICU;Operation Theatres;Nuclear Medicine;Radiology;Pathology;Ambulance Service;Emergency Service", "healthcare": "hospital", "healthcare:speciality": "Cardiology;Neurology;Orthopedics;Gastroenterology;Hematology;Hematology;Joint Replacement;NeuroSurgery;ENT;Nephrology;Endocrinology;Cancer;Urology", "medical_system": "Allopathic", "name": "Shresta Orange Hospitals", "name:en": "Shresta Orange Hospitals", "name:te": "\u0c36\u0c4d\u0c30\u0c47\u0c37\u0c4d\u0c1f \u0c06\u0c30\u0c46\u0c02\u0c1c\u0c4d \u0c39\u0c3e\u0c38\u0c4d\u0c2a\u0c3f\u0c1f\u0c32\u0c4d\u0c38\u0c4d", "operator:type": "private", "phone": "040 24113111", "source": "OpenGovernmentData", "website": "http://orangehospitals.net"}}, {"type": "node", "id": 5636923030, "lat": 17.3136981, "lon": 78.5087313, "tags": {"amenity": "hospital", "name": "OM Sai Hospital"}}, {"type": "node", "id": 5637353960, "lat": 17.3506727, "lon": 78.5078608, "tags": {"addr:district": "Hyderabad", "addr:full": "Door No. 17-1-380/E/28 & 32, C. E. Colony, Saidabad, Santosh Nagar", "addr:postcode": "500059", "addr:state": "Telangana", "amenity": "hospital", "medical_system": "Allopathic", "name": "Sri Srinivasa Hospital", "operator:type": "private", "phone": "040 24530557", "source": "OpenGovernmentData", "website": "http://www.srisrinivasahospital.com"}}, {"type": "node", "id": 5679345122, "lat": 17.3497123, "lon": 78.4707124, "tags": {"amenity": "hospital", "name": "Sitara medical center"}}, {"type": "node", "id": 6477199878, "lat": 17.3455423, "lon": 78.5226305, "tags": {"addr:district": "Hyderabad", "addr:full": "Plot Number 15, 17-1-382/R/15, A.P.S.R.T.C. Officers Colony, Santosh Nagar, Saidabad", "addr:postcode": "500059", "addr:state": "Telangana", "amenity": "hospital", "health_facility:type": "Separate Divisions for Each Speciality; State Of The Art Operation Theatres; Post Op Lounge with Beds; Advanced Eye Care Equipment; Complete Range of Optical Frames and Lenses; Exclusive Childrens Eye Care; 24 7 Pharmacy; Ambulance Services", "healthcare:speciality": "Cataract Services; Refractive Surgery; Cornea Services; Glaucoma Services; Retina Services; Paediatric Ophthalmology and Squint Services; Oculoplasty Services; UVEITIS; Neuro Ophthalmology; Vision Rehabilitation Services; Computer Vision Syndrome Clinic", "medical_system": "Allopathic", "name": "Vasan Eye Care Hospital", "operator:type": "private", "phone": "040 33782700", "source": "OpenGovernmentData", "website": "https://vasaneye.com/"}}, {"type": "node", "id": 6480023416, "lat": 17.3503945, "lon": 78.5105337, "tags": {"addr:district": "Hyderabad", "addr:full": "Beside Bharath Gardens, Sagar Road, Champapet", "addr:postcode": "500059", "addr:state": "Telangana", "amenity": "hospital", "fax": "040-24530960", "healthcare": "hospital", "name": "Ankith Multi Speciality Hospital", "source": "OpenGovernmentData"}}, {"type": "node", "id": 6482035085, "lat": 17.3525175, "lon": 78.5551161, "tags": {"addr:district": "Hyderabad", "addr:full": "3-11-142/N, DVN Complex, Opposite to Kamineni Hospital, RTC Colony, LB Nagar", "addr:postcode": "500074", "addr:state": "Telangana", "amenity": "hospital", "medical_system": "Allopathic", "name": "Disha Children's Hospital", "operator:type": "private", "phone": "040 24038488", "source": "OpenGovernmentData", "website": "http://dishachildrenshospital.blogspot.in/"}}, {"type": "node", "id": 6482139683, "lat": 17.344919, "lon": 78.5087555, "tags": {"addr:district": "Hyderabad", "addr:full": "7-99, Near Yadagiri Theatre, New Santosh Nagar", "addr:postcode": "500059", "addr:state": "Telangana", "amenity": "hospital", "healthcare": "hospital", "name": "Sridhar Multi Speciality Hospital", "source": "OpenGovernmentData"}}, {"type": "node", "id": 6484775841, "lat": 17.3452764, "lon": 78.5282483, "tags": {"addr:district": "Hyderabad", "addr:full": "8-8-112/1, Sriram Nagar Colony, Nagarjuna Sagar Road, Near Karmanghat 'X' Roads", "addr:postcode": "500035", "addr:state": "Telangana", "amenity": "hospital", "healthcare": "hospital", "name": "Kiran Hospital", "source": "OpenGovernmentData"}}, {"type": "node", "id": 6484947325, "lat": 17.3534936, "lon": 78.5068591, "tags": {"addr:district": "Hyderabad", "addr:full": "17-1-388/C/19&20, Vinay Nagar Colony, Saidabad", "addr:postcode": "500059", "addr:state": "Telangana", "amenity": "hospital", "healthcare": "hospital", "name": "Ratna Maternity and Nursing Home", "source": "OpenGovernmentData"}}, {"type": "node", "id": 6485500890, "lat": 17.3403283, "lon": 78.5495599, "tags": {"addr:district": "Hyderabad", "addr:full": "L.B. Nagar Road, Near sri nilayam function hall", "addr:postcode": "500074", "addr:state": "Telangana", "amenity": "hospital", "name": "Medicare Hospital", "source": "OpenGovernmentData"}}, {"type": "node", "id": 6485594351, "lat": 17.3313005, "lon": 78.4879965, "tags": {"addr:district": "Hyderabad", "addr:full": "Fatima Nagar, DLRL Road, Chandrayangutta", "addr:postcode": "500005", "addr:state": "Telangana", "amenity": "hospital", "name": "Niyar Nursing Home", "source": "OpenGovernmentData"}}, {"type": "node", "id": 6486039380, "lat": 17.3503388, "lon": 78.4916899, "tags": {"addr:district": "Hyderabad", "addr:full": "H. No. 18-8- 589/54, Kumarwadi Colony, Edi Bazar", "addr:postcode": "500023", "addr:state": "Telangana", "amenity": "hospital", "name": "Sravani Hospital", "source": "OpenGovernmentData"}}, {"type": "node", "id": 6487288564, "lat": 17.345958, "lon": 78.5399126, "tags": {"addr:district": "Hyderabad", "addr:full": "Bairamlguda, Nagarjune Sagar Road;Ground Floor(North Block), Room No. 702 to 710, D.No: 08-16-01, Sowbhagya Nagar, Sagar Road, Saroor Nagar", "addr:postcode": "500035", "addr:state": "Telangana", "amenity": "hospital", "fax": "24031184; 24030077", "healthcare": "blood_bank", "healthcare:speciality": "multi specialty", "medical_system": "Allopathic", "name": "Aware gleneagles Global Hospital;Aware Gleneagles Global Hospital's Blood Bank", "operator:type": "private", "phone": "040 24111111;04024111111, Extn: 787", "source": "OpenGovernmentData", "website": "http://www.globalhospitalsindia.com/"}}, {"type": "node", "id": 6487365747, "lat": 17.3292521, "lon": 78.4787576, "tags": {"addr:district": "Hyderabad", "addr:full": "Ghazi Maillat Colony, Chandrayan Gutta", "addr:postcode": "500053", "addr:state": "Telangana", "amenity": "hospital", "name": "Marvel Maternity and Nursing Home", "source": "OpenGovernmentData"}}, {"type": "node", "id": 6494269592, "lat": 17.3512003, "lon": 78.5094488, "tags": {"addr:district": "Hyderabad", "addr:full": "H. No. 17-1-383/N S/3&4, Shantosh Nagar 'X' Roads, Opp. Amber Biscuit Factory, Nagarjuna Sagar Road", "addr:postcode": "500059", "addr:state": "Telangana", "amenity": "hospital", "healthcare": "hospital", "name": "Nightingale Hospital", "phone": "040 24530085; +91 9989030085", "source": "OpenGovernmentData", "website": "www.nightingalehospitals.in"}}, {"type": "node", "id": 6496877818, "lat": 17.3446309, "lon": 78.5546158, "tags": {"addr:district": "Hyderabad", "addr:full": "Road No.4, Chandrapuri Colony, Opp. Vijaya Laxmi Theatre, L.B Nagar", "addr:postcode": "500074", "addr:state": "Telangana", "amenity": "hospital", "healthcare": "hospital", "healthcare:speciality": "Maternity;Medical;Surgical", "name": "Aruna Hospital", "name:te": "\u0c05\u0c30\u0c41\u0c23 \u0c39\u0c3e\u0c38\u0c4d\u0c2a\u0c3f\u0c1f\u0c32\u0c4d", "source": "OpenGovernmentData"}}, {"type": "node", "id": 6497577133, "lat": 17.3446513, "lon": 78.5167946, "tags": {"addr:district": "Hyderabad", "addr:full": "Near Karmanghat 'X' Road, Sagar Road", "addr:postcode": "500079", "addr:state": "Telangana", "amenity": "hospital", "fax": "040-24072910", "fixme": "Please verify the accurate position of the hospital as I have mapped the facility based on the address provided in Open Government data", "healthcare": "hospital", "name": "Sri Venkateswara Multi Speciality Hospital", "source": "OpenGovernmentData"}}, {"type": "node", "id": 6503195186, "lat": 17.3502416, "lon": 78.5121296, "tags": {"addr:district": "Hyderabad", "addr:full": "Opposite Rose Garden, Sagar Road, Santosh Nagar", "addr:postcode": "500059", "addr:state": "Telangana", "amenity": "hospital", "healthcare": "hospital", "name": "Sunita Children's Hospital", "source": "OpenGovernmentData"}}, {"type": "node", "id": 6503794648, "lat": 17.3453352, "lon": 78.5492826, "tags": {"addr:district": "Hyderabad", "addr:full": "3-2-394, Near LB Nagar Circle, Towards Sagar Ring Road, L B Nagar", "addr:postcode": "500074", "addr:state": "Telangana", "amenity": "hospital", "healthcare": "hospital", "name": "Health Care Hospitals", "source": "OpenGovernmentData"}}, {"type": "node", "id": 6507837294, "lat": 17.3403386, "lon": 78.5072333, "tags": {"addr:district": "Hyderabad", "addr:full": "P.O. Kanchanbagh, DMRL \u2018X\u2019 Road , Santhosh Nagar", "addr:postcode": "500058", "addr:state": "Telangana", "amenity": "hospital", "contact:email": "principal@deccancollegeofmedicalsciences.com", "contact:phone": "040-24340225; 040-24340547", "healthcare": "hospital", "name": "Deccan College Of Medical Sciences", "source": "OpenGovernmentData", "website": "https://www.deccancollegeofmedicalsciences.com/"}}, {"type": "node", "id": 6511165512, "lat": 17.345084, "lon": 78.5288881, "tags": {"addr:district": "Hyderabad", "addr:full": "Plot No. 63, Opp. Andhra Bank, Near Megha Function Hall, Karmanghat", "addr:postcode": "500079", "addr:state": "Telangana", "amenity": "hospital", "healthcare": "hospital", "name": "Krishna Sai Multispeciality Hospital", "source": "OpenGovernmentData"}}, {"type": "node", "id": 6512969319, "lat": 17.3497321, "lon": 78.5151807, "tags": {"addr:district": "Hyderabad", "addr:full": "9-9-100, Reddy Colony, Champapet", "addr:postcode": "500059", "addr:state": "Telangana", "amenity": "hospital", "healthcare": "hospital", "name": "Maruthi Hospital", "source": "OpenGovernmentData"}}, {"type": "node", "id": 6513085407, "lat": 17.3512682, "lon": 78.5092865, "tags": {"addr:district": "Hyderabad", "addr:full": "17-1-383/S/1, Vinay Nagar, Sagar Road, Santoshnagar", "addr:postcode": "500059", "addr:state": "Telangana", "amenity": "hospital", "healthcare": "hospital", "name": "Himabindu Multi Speciality Hospital", "source": "OpenGovernmentData"}}, {"type": "node", "id": 6528257924, "lat": 17.3473217, "lon": 78.5195889, "tags": {"addr:district": "Hyderabad", "addr:full": "17-1-382/B/3&4, Bhanu Nagar, Opposite Indo American School, Champapet Road", "addr:postcode": "500079", "addr:state": "Telangana", "amenity": "hospital", "fax": "24079966", "healthcare": "hospital", "name": "Focus Hospital", "source": "OpenGovernmentData"}}, {"type": "node", "id": 6528554861, "lat": 17.3210258, "lon": 78.5201099, "tags": {"addr:district": "Ranga Reddy", "addr:full": "H No: 6-156 ,Slns Colony, Balapur Cross Roads, Near Sairaghavendra Bakers", "addr:postcode": "500079", "addr:state": "Telangana", "amenity": "hospital", "fax": "0841 5240393", "name": "SV Multispeciality Hospital", "source": "OpenGovernmentData"}}, {"type": "node", "id": 6532116388, "lat": 17.3495087, "lon": 78.5128967, "tags": {"addr:district": "Hyderabad", "addr:full": "No: 9-6-1/2, Champapet, Sagar Road", "addr:postcode": "500079", "addr:state": "Telangana", "amenity": "hospital", "healthcare": "hospital", "name": "Sri Rohini Hospital", "source": "OpenGovernmentData"}}, {"type": "node", "id": 6532261279, "lat": 17.3295126, "lon": 78.5261227, "tags": {"addr:district": "Hyderabad", "addr:full": "H No:2-165/1, Jillelguda Main Road, Saroornagar (M), R.R", "addr:postcode": "500097", "addr:state": "Telangana", "amenity": "hospital", "healthcare:speciality": "Maternity; Medical; Surgical", "name": "Aruna Hospital", "source": "OpenGovernmentData"}}, {"type": "node", "id": 6532267718, "lat": 17.3444401, "lon": 78.529845, "tags": {"addr:district": "Ranga Reddy", "addr:full": "D.No. 10-1-80/1/2, Nagarjuna Sagar Main Road, Karmanghat", "addr:postcode": "500079", "addr:state": "Telangana", "amenity": "hospital", "fax": "040 30486761", "healthcare": "hospital", "name": "Sai Venkateshwara Hospital", "source": "OpenGovernmentData"}}, {"type": "node", "id": 6532327920, "lat": 17.347104, "lon": 78.5213564, "tags": {"addr:district": "Hyderabad", "addr:full": "17-1- 386/1/18, Kesava Nagar Colony, Champapet", "addr:postcode": "500079", "addr:state": "Telangana", "amenity": "hospital", "contact:phone": "040-24077655", "healthcare": "hospital", "name": "Padmaja Hospital", "source": "OpenGovernmentData"}}, {"type": "node", "id": 6532342640, "lat": 17.3334758, "lon": 78.531298, "tags": {"addr:district": "Ranga Reddy", "addr:full": "Gayatrinagar X Roads ,Kamanghat", "addr:postcode": "500079", "addr:state": "Telangana", "amenity": "hospital", "healthcare": "hospital", "name": "Krishna Hospital", "source": "OpenGovernmentData"}}, {"type": "node", "id": 6537106287, "lat": 17.3389598, "lon": 78.5226278, "tags": {"addr:district": "Hyderabad", "addr:full": "9-2-11/1, Champapet 'X' Roads, Sagar Road", "addr:postcode": "500079", "addr:state": "Telangana", "amenity": "hospital", "healthcare": "hospital", "name": "Sri Sai Orthopaedic and Multi Speciality Hospital", "source": "OpenGovernmentData"}}, {"type": "node", "id": 6537176722, "lat": 17.2738453, "lon": 78.5391707, "tags": {"addr:district": "Ranga Reddy", "addr:full": "Near Nadergul Bus Stop", "addr:postcode": "501510", "addr:state": "Telangana", "amenity": "hospital", "name": "Sri Raghavendra Hospital", "source": "OpenGovernmentData"}}, {"type": "node", "id": 6537210759, "lat": 17.344506, "lon": 78.5296565, "tags": {"addr:district": "Hyderabad", "addr:full": "H No:10-1-80, V R R Complex, Kharmanghat", "addr:postcode": "500079", "addr:state": "Telangana", "amenity": "hospital", "healthcare": "hospital", "name": "Padmavathi Hospital", "source": "OpenGovernmentData"}}, {"type": "node", "id": 6543812599, "lat": 17.3342065, "lon": 78.4698338, "tags": {"addr:district": "Hyderabad", "addr:place": "Jangammet", "addr:state": "Telangana", "addr:street": "Near Govt. Jr.College", "addr:subdistrict": "Charminar", "amenity": "hospital", "healthcare": "hospital", "name": "Community Health Centre, Jangammet", "operational_status": "operational", "operator:type": "government", "source": "OpenDataTelangana"}}, {"type": "node", "id": 6548789473, "lat": 17.3452377, "lon": 78.5276489, "tags": {"addr:city": "Hyderabad", "addr:full": "Plot No: A/529, Opp. Mega Function Hall, Karmanghat", "addr:postcode": "500079", "addr:state": "Telangana", "amenity": "hospital", "contact:phone": "040 2407 8717 / 9717", "email": "info@maaxlifehospitals.com", "healthcare": "hospital", "name": "MAAX LIFE HOSPITALS", "operator:type": "private", "source": "OpenGovernmentData", "website": "https://www.maaxlifehospitals.com/"}}, {"type": "node", "id": 6549145505, "lat": 17.344755, "lon": 78.5269153, "tags": {"addr:city": "Hyderabad", "addr:full": "H.No: 8-4-21/5, Beside Mega Function Hall, Sagar Road, Karman Ghat, Saroor Nagar", "addr:postcode": "500079", "addr:state": "Telangana", "amenity": "hospital", "contact:phone": "040-24079991/92/93/94", "healthcare": "hospital", "name": "JEEVAN HOSPITAL", "operator:type": "private", "source": "OpenGovernmentData"}}, {"type": "node", "id": 6549158450, "lat": 17.3203965, "lon": 78.5173801, "tags": {"addr:district": "Hyderabad", "addr:full": "6-208/3/1, Triveninagar, Balapur 'X' Road, Meerpet, Saroornagar", "addr:postcode": "500005", "addr:state": "Telangana", "amenity": "hospital", "contact:phone": "04029805557", "name": "SRI RADHIKA MULTI SPECIALITY HOSPITAL", "operator:type": "Private", "source": "OpenGovernmentData"}}, {"type": "node", "id": 6549210041, "lat": 17.344508, "lon": 78.5484628, "tags": {"addr:city": "Hyderabad", "addr:full": "Plot No: 50, Sri Durga Enclave, SBH Colony, LB Nagar Road", "addr:postcode": "500074", "addr:state": "Telangana", "amenity": "hospital", "contact:phone": "040 6600 0108", "name": "SRI KARA HOSPITAL", "operator:type": "private", "source": "OpenGovernmentData"}}, {"type": "node", "id": 6549292101, "lat": 17.3482504, "lon": 78.5520463, "tags": {"addr:district": "Hyderabad", "addr:full": "3-3-273, LB Nagar - Uppal Rd, Kamala Nagar, Suvidha Arcade, RTC Colony, LB Nagar", "addr:postcode": "500074", "addr:state": "Telangana", "amenity": "hospital", "contact:phone": "040 24031111;040 24031122", "name": "SHINE CHILDREN'S HOSPITAL", "operator:type": "private", "source": "OpenGovernmentData", "wheelchair": "yes"}}, {"type": "node", "id": 6549298910, "lat": 17.3542853, "lon": 78.5470426, "tags": {"addr:district": "Hyderabad", "addr:full": "Plot No: 1, CHITRA LAYOUT, BESIDE Rangareddy Court, L.B NAGAR", "addr:postcode": "500074", "addr:state": "Telangana", "amenity": "hospital", "contact:mobile": "8121033233", "contact:phone": "4024033233", "name": "DR RAJASHEKAR REDDY LAPAROSCOPY HOSPITAL", "operator:type": "private", "source": "OpenGovernmentData"}}, {"type": "node", "id": 6549328982, "lat": 17.346624, "lon": 78.5211218, "tags": {"addr:city": "Hyderabad", "addr:full": "Sagar Road, Malla Reddy Nagar, Saroor Nagar East, Champapet", "addr:postcode": "500079", "addr:state": "Telangana", "amenity": "hospital", "contact:phone": "078420 91999", "healthcare": "hospital", "name": "SRI SIDDESHWARA HOSPITAL", "operator:type": "private", "source": "OpenGovernmentData"}}, {"type": "node", "id": 6549356692, "lat": 17.3198217, "lon": 78.519841, "tags": {"addr:district": "Hyderabad", "addr:full": "BALAPUR X ROAD, BALAPUR CENTRAL", "addr:postcode": "500097", "addr:state": "Telangana", "amenity": "hospital", "contact:phone": "09502455566", "name": "HIRANYAA MULTI SPECIALITY & CHILDREN'S HOSPITAL", "operator:type": "Private", "source": "OpenGovernmentData"}}, {"type": "node", "id": 6549378688, "lat": 17.3458905, "lon": 78.5292422, "tags": {"addr:city": "Hyderabad", "addr:full": "Plot No. 56, Sriram Nagar Colony, Karmanghat 'X' Roads", "addr:postcode": "500035", "addr:state": "Telangana", "amenity": "hospital", "contact:phone": "040 29803762", "healthcare": "hospital", "name": "SREE SREYAS HOSPITAL", "operator:type": "private", "source": "OpenGovernmentData"}}, {"type": "node", "id": 6561211170, "lat": 17.3455135, "lon": 78.5081814, "tags": {"addr:district": "Hyderabad", "addr:full": "Hanuman Towers, Number 9-7-214/1, 215, 217, Maruthi Nagar, Santhosh Nagar Main Road", "addr:postcode": "500059", "addr:state": "Telangana", "amenity": "hospital", "contact:mobile": "7702355512", "email": "santhoshnagar@dragarwal.com", "healthcare": "hospital", "healthcare:speciality": "Cataract Surgery;Cornea and Refractive;Retina;Oculoplastic;Glaucoma;Uvea;Neuro Ophthamology;Squint and Pediatric Opthalmology;Lasik", "medical_system": "Allopathic", "name": "Dr.Agarwal's Eye Hospital - Santhosh Nagar", "operator": "Dr. Agarwal's Eye Hospital", "operator:type": "private", "operator:wikidata": "Q17052044", "phone": "040 24535514;040 24535513", "source": "OpenGovernmentData", "website": "https://www.dragarwal.com/"}}, {"type": "node", "id": 6561351099, "lat": 17.3316717, "lon": 78.5336658, "tags": {"addr:district": "Ranga Reddy", "addr:full": "Plot No. 128, Street Number17, New Gayatri Nagar, Ranga Reddy", "addr:postcode": "500079", "addr:state": "Telangana", "amenity": "hospital", "healthcare": "hospital", "name": "Vijaya Hospital - Ranga Reddy", "source": "OpenGovernmentData"}}, {"type": "node", "id": 6566862238, "lat": 17.3369525, "lon": 78.5507843, "tags": {"addr:district": "Hyderabad", "addr:full": "7-4-25/S/N, Beside IOC Petrol Pump, Sagar Road", "addr:postcode": "500074", "addr:state": "Telangana", "amenity": "hospital", "fixme": "Please verify the accurate position of the hospital as I have mapped the facility based on the address provided in Open Data Government", "name": "S.S Multi Speciality Hospital", "source": "OpenGovernmentData"}}, {"type": "node", "id": 6811748985, "lat": 17.3429186, "lon": 78.541484, "tags": {"addr:district": "Ranga Reddy", "addr:full": "Sagar Ring Road, Near Bairamalguda Bus stop, Karmanghat, Hyderabad", "addr:postcode": "500079", "addr:state": "Telangana", "amenity": "hospital", "name": "Apex Hospital", "source": "OpenGovernmentData"}}, {"type": "node", "id": 6811749029, "lat": 17.354892, "lon": 78.532407, "tags": {"addr:district": "Ranga Reddy", "addr:full": "Near Gandhi Statue, Saroornagar Cross Roads, Hyderabad", "addr:postcode": "500035", "addr:state": "Telangana", "amenity": "hospital", "name": "Saroornagar Hospital", "source": "OpenGovernmentData"}}, {"type": "node", "id": 6811749113, "lat": 17.322434, "lon": 78.4801, "tags": {"addr:district": "Hyderabad", "addr:full": "CRPF Colony, Chandrayangutta", "addr:postcode": "500005", "addr:state": "Telangana", "amenity": "hospital", "contact:mobile": "9849251570", "name": "Bakoban Hospital", "source": "OpenGovernmentData", "website": "http://www.bakobanhospital.com"}}, {"type": "node", "id": 6811749144, "lat": 17.3058624, "lon": 78.4683878, "tags": {"addr:district": "Ranga Reddy", "addr:full": "Ismail Nagar, Chandrayangutta, Hyderabad", "addr:postcode": "500005", "addr:state": "Telangana", "amenity": "hospital", "name": "Al Madina General Hospital", "source": "OpenGovernmentData"}}, {"type": "node", "id": 6811749160, "lat": 17.324086, "lon": 78.556886, "tags": {"addr:district": "Ranga Reddy", "addr:full": "Plot No. 91, Panchayat Raj Teachers Colony, Hastinapuram, Hyderabad", "addr:postcode": "500079", "addr:state": "Telangana", "amenity": "hospital", "contact:mobile": "7075747574", "name": "Sri Nitya Hospital", "source": "OpenGovernmentData"}}, {"type": "node", "id": 8233804190, "lat": 17.3088672, "lon": 78.4942526, "tags": {"amenity": "hospital", "healthcare": "hospital"}}, {"type": "node", "id": 8747916250, "lat": 17.3347442, "lon": 78.5530454, "tags": {"addr:district": "Rangareddy", "addr:full": "Nagarjuna Sagar Road, Brindavan Colony, Lingojiguda", "addr:postcode": "500035", "addr:state": "Telangana", "amenity": "hospital", "name": "Aware Global Hospitals", "source": "Local Knowledge"}}, {"type": "node", "id": 8751762404, "lat": 17.3138528, "lon": 78.5084604, "tags": {"addr:district": "Rangareddy", "addr:full": "8-7/20, RCI Road,Sai Nagar Colony Balapur", "addr:postcode": "500005", "addr:state": "Telangana", "amenity": "hospital", "name": "Chavan Hospitals", "source": "Local Knowledge"}}, {"type": "node", "id": 8751844086, "lat": 17.3401158, "lon": 78.52185, "tags": {"addr:district": "Rangareddy", "addr:full": "New Maruthi Nagar, Virat Nagar, Kanchan Bagh", "addr:postcode": "500079", "addr:state": "Telangana", "amenity": "hospital", "healthcare": "hospital", "name": "Viswas Hospital", "source": "Local Knowledge"}}, {"type": "node", "id": 8759435760, "lat": 17.3535608, "lon": 78.4745425, "tags": {"addr:district": "Hyderabad", "addr:full": "23-6-983, Rajpal Nagar, Shalibanda", "addr:postcode": "500065", "addr:state": "Telangana", "amenity": "hospital", "name": "Government Hospital, Suraj Bhan", "source": "Local Knowledge"}}, {"type": "node", "id": 11041643045, "lat": 17.3429785, "lon": 78.5067084, "tags": {"access": "military", "entrance": "yes"}}, {"type": "node", "id": 11365536200, "lat": 17.3377414, "lon": 78.4732451}, {"type": "node", "id": 11365536201, "lat": 17.3377358, "lon": 78.4734357}, {"type": "node", "id": 11365536202, "lat": 17.3376099, "lon": 78.4734317}, {"type": "node", "id": 11365536203, "lat": 17.3376154, "lon": 78.4732411}, {"type": "node", "id": 11365536218, "lat": 17.337349, "lon": 78.4680874, "tags": {"amenity": "hospital", "healthcare": "hospital"}}, {"type": "node", "id": 11936156147, "lat": 17.3144808, "lon": 78.4831721, "tags": {"addr:district": "Hyderabad", "addr:place": "Barkas", "addr:state": "Telangana", "addr:street": "OPP:CRPF play ground", "addr:subdistrict": "Bandlaguda", "amenity": "hospital", "healthcare": "hospital", "name": "Community Health Centre, BARKAS", "operational_status": "operational", "operator:type": "government", "source": "OpenDataTelangana"}}, {"type": "node", "id": 12565848764, "lat": 17.3535776, "lon": 78.4745244, "tags": {"amenity": "hospital", "healthcare": "hospital"}}, {"type": "node", "id": 13337356007, "lat": 17.349695, "lon": 78.5483858, "tags": {"amenity": "hospital", "healthcare": "hospital", "name": "Medicare Hospitals"}}, {"type": "node", "id": 13348420174, "lat": 17.3409127, "lon": 78.5076423}, {"type": "node", "id": 13348420175, "lat": 17.3411537, "lon": 78.5076663}, {"type": "node", "id": 13348420176, "lat": 17.3427379, "lon": 78.5075379}, {"type": "node", "id": 13348420241, "lat": 17.3427056, "lon": 78.5061526}, {"type": "node", "id": 13348420243, "lat": 17.3417466, "lon": 78.505093}, {"type": "node", "id": 13348420244, "lat": 17.3419557, "lon": 78.5049907}, {"type": "node", "id": 13348420245, "lat": 17.3428057, "lon": 78.5063703}, {"type": "node", "id": 13348420253, "lat": 17.3428089, "lon": 78.5064241}, {"type": "node", "id": 13348420256, "lat": 17.3418678, "lon": 78.5076236}, {"type": "node", "id": 13348420258, "lat": 17.3414732, "lon": 78.5078174}, {"type": "node", "id": 13348420261, "lat": 17.3427647, "lon": 78.5074158}, {"type": "node", "id": 13348450110, "lat": 17.3409042, "lon": 78.5054467}, {"type": "node", "id": 13348450138, "lat": 17.3429781, "lon": 78.5068033}, {"type": "node", "id": 13348450143, "lat": 17.3430493, "lon": 78.5066024}, {"type": "node", "id": 13348450144, "lat": 17.3430303, "lon": 78.5066482}, {"type": "node", "id": 13348450145, "lat": 17.3430378, "lon": 78.5064634}, {"type": "node", "id": 13348450146, "lat": 17.3430072, "lon": 78.5064286}, {"type": "node", "id": 13348450147, "lat": 17.3406132, "lon": 78.5055997}, {"type": "node", "id": 13348450148, "lat": 17.3406102, "lon": 78.5056823}, {"type": "node", "id": 13348450149, "lat": 17.339296, "lon": 78.5058323}, {"type": "node", "id": 13348450150, "lat": 17.339269, "lon": 78.505896}, {"type": "node", "id": 13348450151, "lat": 17.3393202, "lon": 78.5064971}, {"type": "node", "id": 13348450152, "lat": 17.339353, "lon": 78.5065295}, {"type": "node", "id": 13348450153, "lat": 17.339901, "lon": 78.5065198}, {"type": "node", "id": 13348450154, "lat": 17.3399179, "lon": 78.5067525}, {"type": "node", "id": 13348450155, "lat": 17.3400468, "lon": 78.5067379}, {"type": "node", "id": 13348450156, "lat": 17.3400269, "lon": 78.5075108}, {"type": "node", "id": 13348450157, "lat": 17.3414356, "lon": 78.5077996}, {"type": "node", "id": 13348450167, "lat": 17.3398404, "lon": 78.505666}, {"type": "way", "id": 146312947, "nodes": [1595794974, 1595794961, 1595794973, 1595794963, 1595794965, 1595794967, 1595794974], "tags": {"addr:district": "Hyderabad", "addr:full": "Kamineni, L.B Nagar", "addr:housenumber": "10", "addr:postcode": "500068", "addr:state": "Telangana", "amenity": "hospital", "email": "ms.khl@kaminenihospitals.com", "emergency": "yes", "emergency_telephone_code": "040 66002200;040 24022222", "fax": "040 2402 2277", "healthcare:speciality": "multi specialty", "medical_system": "Allopathic", "name": "Kamineni Hospital", "opening_hours": "24/7", "operator:type": "private", "phone": "040 39879999", "source": "OpenGovernmentData", "website": "https://www.kaminenihospitals.com/"}}, {"type": "way", "id": 344478708, "nodes": [3512164352, 3512164353, 13348420256, 3512164354, 3512164355, 3512164357, 13348420253, 13348450146, 13348450145, 13348450143, 13348450144, 3512164358, 11041643045, 3689001595, 13348450138, 13348420261, 13348420176, 3512164352], "tags": {"addr:district": "Hyderabad", "addr:full": "DMRL X Roads,Santosh Nagar, Kanchanbagh", "addr:postcode": "500058", "addr:state": "Telangana", "amenity": "hospital", "email": "apollohospitalsdrdo@gmail.com", "fax": "040 24342255", "healthcare": "hospital", "medical_system": "Allopathic", "name": "Apollo DRDO Hospital", "operator:type": "private", "phone": "040 24342222", "source": "OpenGovernmentData", "website": "https://www.apollohospitals.com"}}, {"type": "way", "id": 364871053, "nodes": [3689001548, 3689001562, 3689001564, 3689001566, 3689001568, 3689001563, 3689001565, 3689001576, 3689001577, 3689001572, 3689001570, 3689001567, 3689001569, 3689001574, 3689001575, 3689001571, 3689001573, 3689001545, 3689001550, 3689001547, 3689001544, 3689001549, 3689001548], "tags": {"addr:district": "Hyderabad", "addr:full": "D.M.R.L.X Road, Santosh Nagar, Kanchanbagh", "addr:postcode": "500058", "addr:state": "Telangana", "amenity": "hospital", "emergency": "yes", "healthcare": "hospital", "name": "Owaisi Hospital and Research Centre", "source": "OpenGovernmentData"}}, {"type": "way", "id": 1225570310, "nodes": [11365536200, 11365536201, 11365536202, 11365536203, 11365536200], "tags": {"amenity": "hospital", "building": "yes", "healthcare": "hospital", "name": "Gemini Health Care"}}, {"type": "way", "id": 1455535745, "nodes": [13348420253, 13348420245, 13348420241, 13348420244, 13348420243, 13348450110, 13348450147, 13348450148, 13348450167, 13348450149, 13348450150, 13348450151, 13348450152, 13348450153, 13348450154, 13348450155, 13348450156, 13348420174, 13348420175, 13348450157, 13348420258, 3512164353, 3512164354, 3512164355, 3512164357, 13348420253], "tags": {"amenity": "hospital", "healthcare": "hospital"}}]}