{"version": 0.6, "generator": "Overpass API 0.7.62.8 e802775f", "osm3s": {"timestamp_osm_base": "2026-01-13T09:30:39Z", "copyright": "The data included in this document is from www.openstreetmap.org. The data is made available under ODbL."}, "elements": [{"type": "node", "id": 3958000626, "lat": 19.0391617, "lon": 72.9488101, "tags": {"amenity": "hospital", "name": "Aryan Hospital"}}, {"type": "node", "id": 7045155680, "lat": 19.0431439, "lon": 72.8936943, "tags": {"addr:district": "Mumbai", "addr:full": "5, Safal Ganga, Opposite Collector's Colony, Chembur Camp", "addr:postcode": "400074", "addr:state": "Maharashtra", "amenity": "hospital", "name": "Universal Eye Clinic and Surgical Centre", "source": "OpenGovernmentData"}}, {"type": "node", "id": 7070054648, "lat": 19.0353486, "lon": 72.8960936, "tags": {"addr:district": "Mumbai", "addr:full": "Sita Estate, Near Ashish Cinema, Aziz Baug, Mahul Road, Chembur", "addr:postcode": "400074", "addr:state": "Maharashtra", "amenity": "hospital", "name": "Sai Baba Hospital, Mumbai", "source": "OpenGovernmentData"}}, {"type": "node", "id": 7663961403, "lat": 19.042245, "lon": 72.894166, "tags": {"addr:district": "Mumbai Suburban", "addr:full": "Door No. 10, 1, Mahul Road, Laxmi Colony, Tolaram Colony, Chembur, Mumbai", "addr:postcode": "400071", "addr:state": "Maharastra", "amenity": "hospital", "name": "Chandra Maternity Hospital", "source": "Local Knowledge"}}, {"type": "node", "id": 7663961444, "lat": 19.0411897, "lon": 72.8940869, "tags": {"addr:district": "Mumbai Suburban", "addr:full": "Plot No.16, Prem Nivas, Mahul Road, Laxmi Colony, Chembur, Near Ashish Theatre, Mumbai", "addr:postcode": "400074", "addr:state": "Maharastra", "amenity": "hospital", "name": "Shiv Hospital", "source": "Local Knowledge"}}, {"type": "node", "id": 7663961446, "lat": 19.040567, "lon": 72.897252, "tags": {"addr:district": "Mumbai Suburban", "addr:full": "Behind Ashish Theater, Tolaram Colony, RCF Colony, Chembur, Mumbai", "addr:postcode": "400074", "addr:state": "Maharastra", "amenity": "hospital", "name": "RCF Hospital", "source": "Local Knowledge"}}, {"type": "node", "id": 7663961476, "lat": 19.0413817, "lon": 72.8947434, "tags": {"addr:district": "Mumbai Suburban", "addr:full": "9-1, Laxmi Colony, Tolaram Colony, RCF Colony, Chembur, Mumbai", "addr:postcode": "400074", "addr:state": "Maharastra", "amenity": "hospital", "name": "Chandra Hospital", "source": "Local Knowledge"}}, {"type": "node", "id": 10172914444, "lat": 19.0422679, "lon": 72.8941536, "tags": {"amenity": "hospital", "healthcare": "hospital", "name": "Chandra maternity Hospital"}}, {"type": "node", "id": 10172914445, "lat": 19.0414049, "lon": 72.8947448, "tags": {"amenity": "hospital", "healthcare": "hospital", "name": "Chandra Hospital"}}, {"type": "node", "id": 10172914446, "lat": 19.0412186, "lon": 72.8940795, "tags": {"amenity": "hospital", "healthcare": "hospital", "name": "Shiv Hospital"}}, {"type": "node", "id": 10172914447, "lat": 19.0406126, "lon": 72.8972639, "tags": {"amenity": "hospital", "healthcare": "hospital", "name": "RCF Hospital"}}]}