{"version": 0.6, "generator": "Overpass API 0.7.62.8 e802775f", "osm3s": {"timestamp_osm_base": "2026-01-12T06:18:25Z", "copyright": "The data included in this document is from www.openstreetmap.org. The data is made available under ODbL."}, "elements": [{"type": "node", "id": 295552092, "lat": 13.0887983, "lon": 80.1994692, "tags": {"addr:district": "Chennai", "addr:full": "New No.4, Old No.1620-A, 16Th Main Road, Anna Nagar", "addr:postcode": "600040", "addr:state": "Tamil Nadu", "amenity": "hospital", "healthcare": "hospital", "name": "Sri Devi Speciality Hospial", "source": "OpenGovernmentData"}}, {"type": "node", "id": 540658116, "lat": 13.1181104, "lon": 80.1499411, "tags": {"addr:district": "Tiruvallur", "addr:full": "# 3/157, M.T.H.Road, ,Ambattur", "addr:postcode": "600053", "addr:state": "Tamil Nadu", "amenity": "hospital", "name": "B.M.Orthopaedic Hospital", "source": "OpenGovernmentData"}}, {"type": "node", "id": 1516388617, "lat": 13.1241718, "lon": 80.1444714}, {"type": "node", "id": 1516388619, "lat": 13.1242658, "lon": 80.1463945}, {"type": "node", "id": 1516388625, "lat": 13.1245333, "lon": 80.1463648}, {"type": "node", "id": 1516388627, "lat": 13.1245478, "lon": 80.1460084}, {"type": "node", "id": 1516388638, "lat": 13.1254589, "lon": 80.146001}, {"type": "node", "id": 1516388640, "lat": 13.1254806, "lon": 80.1465727}, {"type": "node", "id": 1516388642, "lat": 13.1256903, "lon": 80.1419023}, {"type": "node", "id": 1516388644, "lat": 13.1257192, "lon": 80.1465875}, {"type": "node", "id": 1516388646, "lat": 13.1257554, "lon": 80.1463574}, {"type": "node", "id": 1516388649, "lat": 13.1260679, "lon": 80.1444769}, {"type": "node", "id": 1516388651, "lat": 13.1262109, "lon": 80.1453847}, {"type": "node", "id": 1516388652, "lat": 13.1262366, "lon": 80.1423295}, {"type": "node", "id": 1516388662, "lat": 13.1262673, "lon": 80.1433795}, {"type": "node", "id": 1516388664, "lat": 13.1262724, "lon": 80.1444506}, {"type": "node", "id": 1516388665, "lat": 13.1262905, "lon": 80.1412489}, {"type": "node", "id": 1516388666, "lat": 13.1263236, "lon": 80.1417204}, {"type": "node", "id": 1516388669, "lat": 13.1264423, "lon": 80.1412118}, {"type": "node", "id": 1516388675, "lat": 13.1265869, "lon": 80.1464465}, {"type": "node", "id": 1516388683, "lat": 13.1266014, "lon": 80.1454218}, {"type": "node", "id": 1621246558, "lat": 13.1187083, "lon": 80.1572422, "tags": {"addr:district": "Tiruvallur", "addr:full": "No.G4, Srivatsa Apartments, Plot No:196, Old Mth Road,Ambattur, Chennai", "addr:postcode": "600053", "addr:state": "Tamil Nadu", "amenity": "hospital", "emergency": "no", "name": "Ashwini Eye Care", "source": "OpenGovernmentData"}}, {"type": "node", "id": 1948616260, "lat": 13.0677233, "lon": 80.2050055, "tags": {"amenity": "hospital", "name": "Apollo Free Emergency Clinic"}}, {"type": "node", "id": 1957903721, "lat": 13.0849671, "lon": 80.2004752, "tags": {"amenity": "hospital", "healthcare": "hospital", "name": "Senthil Nursing Home"}}, {"type": "node", "id": 1957904106, "lat": 13.0868667, "lon": 80.1991661, "tags": {"addr:district": "Chennai", "addr:full": "2/1911, J-Block, 15 Th Main Road, Anna Nagar", "addr:postcode": "600040", "addr:state": "Tamil Nadu", "amenity": "hospital", "healthcare": "hospital", "name": "I K Hospital", "source": "OpenGovernmentData"}}, {"type": "node", "id": 2966142809, "lat": 13.0705042, "lon": 80.150612, "tags": {"addr:full": "Plot No 64, Vanagaram-Ambattur Rd, Ayanambakkam", "addr:postcode": "600095", "addr:state": "Tamil Nadu", "addr:subdistrict": "Ambattur", "amenity": "hospital", "name": "Appolo Speciality Hospital Vanagram", "source": "OpenGovernmentData"}}, {"type": "node", "id": 3600223690, "lat": 13.0873604, "lon": 80.1858751}, {"type": "node", "id": 3600223694, "lat": 13.0873683, "lon": 80.1855803}, {"type": "node", "id": 3600223741, "lat": 13.0876803, "lon": 80.185884}, {"type": "node", "id": 3600223742, "lat": 13.0876882, "lon": 80.1855893}, {"type": "node", "id": 3612355990, "lat": 13.0792123, "lon": 80.198347}, {"type": "node", "id": 3612356095, "lat": 13.0792333, "lon": 80.1981856}, {"type": "node", "id": 3612356110, "lat": 13.0792588, "lon": 80.1984289}, {"type": "node", "id": 3612356115, "lat": 13.0792148, "lon": 80.1984182}, {"type": "node", "id": 3612356137, "lat": 13.0794812, "lon": 80.198435}, {"type": "node", "id": 3612356138, "lat": 13.0794936, "lon": 80.1983708}, {"type": "node", "id": 3612356139, "lat": 13.079538, "lon": 80.1983765}, {"type": "node", "id": 3612356140, "lat": 13.0796839, "lon": 80.1982423}, {"type": "node", "id": 3702797921, "lat": 13.0859961, "lon": 80.1870589, "tags": {"addr:city": "Chennai", "addr:district": "Chennai", "addr:full": "4 - A, Dr.J.Jayalalitha Nagar, Mogappair", "addr:housenumber": "4-A", "addr:postcode": "600037", "addr:state": "Tamil Nadu", "addr:suburb": "Mogappair East", "amenity": "hospital", "email": "icvddoctors@mmm.org.in", "emergency": "yes", "healthcare": "hospital", "name": "Madras Medical Mission Hospital - Institute of Cardio Vascular Diseases", "operator:type": "private", "phone": "044 2656 5991", "source": "OpenGovernmentData", "website": "http://www.madrasmedicalmission.org/", "wheelchair": "yes", "wikidata": "Q14956788", "wikipedia": "en:Madras Medical Mission"}}, {"type": "node", "id": 5226880850, "lat": 13.0796727, "lon": 80.1983356}, {"type": "node", "id": 5226880851, "lat": 13.0796698, "lon": 80.198436}, {"type": "node", "id": 5226880852, "lat": 13.0795999, "lon": 80.1984711}, {"type": "node", "id": 5226880853, "lat": 13.0795179, "lon": 80.1984596}, {"type": "node", "id": 5226880854, "lat": 13.0792268, "lon": 80.1982698}, {"type": "node", "id": 5492573024, "lat": 13.0799682, "lon": 80.1805593, "tags": {"addr:housenumber": "plat no pc 5, black 10", "addr:street": "Church road", "amenity": "hospital", "description": "VSR HOSPITAL is a Cardiology clinic in Mogappair East, Chennai. The clinic is visited by doctors like Dr. Jyotirmaya Dash.", "name": "VSR Hospital"}}, {"type": "node", "id": 5492577281, "lat": 13.0800478, "lon": 80.1804976, "tags": {"addr:housenumber": "4", "addr:street": "Church road", "amenity": "hospital", "description": "New Life Hospitals is one of the distinguished multi super-specialty hospitals in Chennai, providing health care facilities in areas of cardiology, neurology, orthopedics, gynecology,urology, pediatrics, diabetics, Dermatology and so on.", "name": "New Life Family Hospitals", "phone": "044 26566823", "website": "http://newlifehospitals.com/"}}, {"type": "node", "id": 6307353799, "lat": 13.1257306, "lon": 80.1465136}, {"type": "node", "id": 6914768085, "lat": 13.0829726, "lon": 80.1796965, "tags": {"addr:district": "Tiruvallur", "addr:full": "335, Thirucalluvar Salai Panneer Nagar, Mugapair Chennai", "addr:postcode": "600037", "addr:state": "Tamil Nadu", "amenity": "hospital", "healthcare": "hospital", "name": "Srinivas Eye Hospital", "source": "OpenGovernmentData"}}, {"type": "node", "id": 6928330859, "lat": 13.0840124, "lon": 80.1691809, "tags": {"addr:district": "Tiruvallur", "addr:full": "Old No.61New No.3,Reddy Palayam Road,Mugappair West", "addr:postcode": "600037", "addr:state": "Tamil Nadu", "amenity": "hospital", "healthcare": "hospital", "name": "Dr. Arvind Vision Care", "source": "OpenGovernmentData"}}, {"type": "node", "id": 6928444701, "lat": 13.0896987, "lon": 80.1877418, "tags": {"addr:district": "Chennai", "addr:full": "959, Tvs Colony Annanagar West Extension", "addr:postcode": "600101", "addr:state": "Tamil Nadu", "amenity": "hospital", "name": "SKS Hospital, Chennai", "source": "OpenGovernmentData"}}, {"type": "node", "id": 6928800365, "lat": 13.1175413, "lon": 80.1539406, "tags": {"addr:district": "Tiruvallur", "addr:full": "Vijoya Complex,No.1.M.J.H.Road,Ambattur,Chennai", "addr:postcode": "600053", "addr:state": "Tamil Nadu", "amenity": "hospital", "name": "Dr.Bhats Eye Hospital", "source": "OpenGovernmentData"}}, {"type": "node", "id": 6929250392, "lat": 13.0973284, "lon": 80.1942193, "tags": {"addr:district": "Chennai", "addr:full": "W-27, Old No.18, North Main Road,Anna Nagar West Extn", "addr:postcode": "600101", "addr:state": "Tamil Nadu", "amenity": "hospital", "healthcare": "hospital", "name": "Dhanvantari Eye Care", "name:etymology:wikidata": "Q202011", "source": "OpenGovernmentData"}}, {"type": "node", "id": 6929599461, "lat": 13.1190773, "lon": 80.1504859, "tags": {"addr:district": "Chennai", "addr:full": "212 Mth Road, Ambattur", "addr:postcode": "600010", "addr:state": "Tamil Nadu", "amenity": "hospital", "name": "Dr Rabindran's Health Care Center", "source": "OpenGovernmentData"}}, {"type": "node", "id": 6930489015, "lat": 13.0844527, "lon": 80.1798642, "tags": {"addr:district": "Tiruvallur", "addr:full": "50, Block 1 1st Flr Amm Towers", "addr:postcode": "600037", "addr:state": "Tamil Nadu", "amenity": "hospital", "healthcare": "hospital", "name": "Cholayil Sanjeevanam Ayurveda", "source": "OpenGovernmentData"}}, {"type": "node", "id": 6931772941, "lat": 13.0807741, "lon": 80.1989025, "tags": {"addr:district": "Chennai", "addr:full": "162/16 Mangalam Colony 7Th Avennue Anna Nagar", "addr:postcode": "600040", "addr:state": "Tamil Nadu", "amenity": "hospital", "healthcare": "hospital", "name": "Robin and Robin Health Care", "source": "OpenGovernmentData"}}, {"type": "node", "id": 6933038567, "lat": 13.0766658, "lon": 80.2057502, "tags": {"addr:district": "Chennai", "addr:full": "No. 1051, P.H.Road, Arumbakkam", "addr:postcode": "600006", "addr:state": "Tamil Nadu", "amenity": "hospital", "name": "Indian Hospitals", "source": "OpenGovernmentData"}}, {"type": "node", "id": 6933748976, "lat": 13.1232006, "lon": 80.1461421, "tags": {"addr:district": "Tiruvallur", "addr:full": "No.506,M.T.H.Road,Ambathur-Chennai", "addr:postcode": "600053", "addr:state": "Tamil Nadu", "amenity": "hospital", "name": "Essvee Hospital", "source": "OpenGovernmentData"}}, {"type": "node", "id": 6934340638, "lat": 13.083452, "lon": 80.2030747, "tags": {"addr:district": "Chennai", "addr:full": "2181 L Block 12Th Main Road, Anna Nagar", "addr:postcode": "600040", "addr:state": "Tamil Nadu", "amenity": "hospital", "healthcare": "hospital", "name": "Neomed Hospital - Chennai", "source": "OpenGovernmentData"}}, {"type": "node", "id": 6934340710, "lat": 13.1184222, "lon": 80.1507749, "tags": {"addr:district": "Tiruvallur", "addr:full": "No. 11, Old B.O.B. St. Secretariate Colony", "addr:postcode": "600053", "addr:state": "Tamil Nadu", "amenity": "hospital", "name": "Om Shakthi Hospital", "source": "OpenGovernmentData"}}, {"type": "node", "id": 6934884999, "lat": 13.1220029, "lon": 80.1469266, "tags": {"addr:district": "Tiruvallur", "addr:full": "471, Mth Road, , Ambattur", "addr:postcode": "600053", "addr:state": "Tamil Nadu", "amenity": "hospital", "name": "Teja Hospital", "source": "OpenGovernmentData"}}, {"type": "node", "id": 6936315219, "lat": 13.0834455, "lon": 80.1749497, "tags": {"addr:district": "Tiruvallur", "addr:full": "Swarnapuri-Ground Floor, 6/13, J.J.Nagar West", "addr:postcode": "600037", "addr:state": "Tamil Nadu", "amenity": "hospital", "healthcare": "hospital", "name": "Spandana Surgical Centre", "source": "OpenGovernmentData"}}, {"type": "node", "id": 6936369001, "lat": 13.1217887, "lon": 80.1996361, "tags": {"addr:district": "Tiruvallur", "addr:full": "No: 9, 100 Feet Road, Nehru National Highway, Kolathur", "addr:postcode": "600099", "addr:state": "Tamil Nadu", "amenity": "hospital", "check_date": "2024-09-28", "name": "D R J Hospital P. Ltd.", "source": "OpenGovernmentData"}}, {"type": "node", "id": 6936994823, "lat": 13.1184203, "lon": 80.204346, "tags": {"addr:district": "Tiruvallur", "addr:full": "No.52, Dayalunagar, Kolathur, Near Villirakham Railway Station", "addr:postcode": "600049", "addr:state": "Tamil Nadu", "amenity": "hospital", "name": "B B Hospital", "source": "OpenGovernmentData"}}, {"type": "node", "id": 7252333346, "lat": 13.0692631, "lon": 80.1799109, "tags": {"addr:block": "Chennai Zone Xi", "addr:district": "Chennai", "addr:full": "No: 36, Near Dayasadan Agarwal Vidyalaya, Maduravoyal, V.G.P Amudha Nagar", "addr:postcode": "600095", "addr:state": "Tamil Nadu", "amenity": "hospital", "name": "Srisaihospital With Matrinity Facility", "source": "OpenGovernmentData"}}, {"type": "node", "id": 7252333369, "lat": 13.09041, "lon": 80.175293, "tags": {"addr:district": "Thiruvallur", "addr:full": "Next To Kamarajar Illam, T. Nagar ,Chennai, Tamil Nadu, Ellora Apartments, Flat , 4D, 4Th Floor, 20 Tirumurthy Street", "addr:postcode": "600017", "addr:state": "Tamil Nadu", "addr:subdistrict": "Ambattur", "amenity": "hospital", "healthcare": "hospital", "name": "Tanker Dialysis Foundation Unit", "source": "OpenGovernmentData"}}, {"type": "node", "id": 7252333392, "lat": 13.1126809, "lon": 80.153358, "tags": {"addr:block": "Chennai Zone Vii", "addr:district": "Chennai", "addr:full": "Canara Bank, Varadharajapuram, Railway Station Road", "addr:postcode": "600050", "addr:state": "Tamil Nadu", "amenity": "hospital", "name": "Varadarajapuram Government Hospitals", "source": "OpenGovernmentData"}}, {"type": "node", "id": 7818702358, "lat": 13.1345397, "lon": 80.2058879, "tags": {"addr:district": "Tiruvallur", "addr:full": "Bharathi Nagar, Lakshmipuram", "addr:postcode": "600099", "addr:state": "Tamil Nadu", "amenity": "hospital", "healthcare": "hospital", "name": "Uma Hospital", "source": "Local Knowledge"}}, {"type": "node", "id": 7843239851, "lat": 13.1247933, "lon": 80.1435476, "tags": {"amenity": "hospital", "healthcare": "hospital", "name": "Sir Ivan Stedford Hospital", "name:etymology:wikidata": "Q15971168"}}, {"type": "node", "id": 9980280804, "lat": 13.1266701, "lon": 80.2014392, "tags": {"amenity": "hospital", "healthcare": "hospital", "name": "Shreyas hospital"}}, {"type": "node", "id": 10271805421, "lat": 13.0972767, "lon": 80.1982422, "tags": {"addr:housenumber": "R/7a", "addr:street": "N Main Rd, Kailash Colony, Sector A, Anna Nagar West Extension, Chennai, Tamil Nadu 600101", "amenity": "hospital", "description": "A mental health centre and nonprofit organization based at Chennai, Tamil Nadu, offering a multidisciplinary, comprehensive range of psychiatric care and rehabilitation services", "email": "info@scarfindia.org; communications@scarfindia.org", "name": "Frame of Mind - SCARF Psychiatric Hospital", "opening_hours": "Mo, We-Sa 09:30-13:30", "phone": "+919150587361;04426151073; 04426153971", "speciality": "schizophrenia, psychiatry", "website": "https://www.scarfindia.org/"}}, {"type": "node", "id": 11162390408, "lat": 13.0856699, "lon": 80.1797716, "tags": {"amenity": "hospital", "check_date": "2025-07-22", "healthcare": "hospital", "name": "Dr. Vijay's Hospital"}}, {"type": "node", "id": 11461791503, "lat": 13.1298328, "lon": 80.1310999}, {"type": "node", "id": 11461791504, "lat": 13.129845, "lon": 80.1308852}, {"type": "node", "id": 11461791505, "lat": 13.1295805, "lon": 80.1308694}, {"type": "node", "id": 11461791506, "lat": 13.1295683, "lon": 80.131084}, {"type": "node", "id": 11468740371, "lat": 13.0868727, "lon": 80.1697458, "tags": {"addr:street": "1st Avenue", "amenity": "hospital", "name": "SMF", "name:en": "Sundaram Medical Foundation Dr. Rangarajan Memorial Hospital"}}, {"type": "way", "id": 138307630, "nodes": [1516388669, 1516388665, 1516388642, 1516388617, 1516388619, 1516388625, 1516388627, 1516388638, 1516388640, 1516388644, 6307353799, 1516388646, 1516388675, 1516388683, 1516388651, 1516388649, 1516388664, 1516388662, 1516388652, 1516388666, 1516388669], "tags": {"amenity": "hospital", "healthcare": "hospital", "name": "Sir Ivan Stedford Hospital", "name:etymology:wikidata": "Q15971168", "website": "https://stedefordhospital.org/", "wikidata": "Q7527346", "wikipedia": "en:Sir Ivan Stedeford Hospital"}}, {"type": "way", "id": 354278944, "nodes": [3600223742, 3600223741, 3600223690, 3600223694, 3600223742], "tags": {"addr:city": "Chennai", "addr:district": "Chennai", "addr:full": "R 30 C, Ambattur Industrial Estate Road, Mogappair", "addr:housenumber": "R 30 C", "addr:postcode": "600101", "addr:state": "Tamil Nadu", "addr:street": "Ambattur Industrial Estate Road", "addr:subdistrict": "Mogappair", "alt_name": "International Centre For Cardio Thoracic and Vascular Diseases", "amenity": "hospital", "building": "yes", "building:levels": "3", "contact:mobile": "9790840976", "contact:phone": "04442017575;04426564224", "email": "translab@frontierlifeline.com", "fax": "044 26565150", "healthcare": "hospital", "name": "Frontier Lifeline Hospital", "operator:type": "private", "phone": "044 4201 7575", "source": "OpenGovernmentData", "website": "https://www.frontierlifeline.com/", "wheelchair": "yes", "wikipedia": "en:K. M. Cherian"}}, {"type": "way", "id": 355658593, "nodes": [3612356095, 3612356140, 5226880850, 5226880851, 5226880852, 5226880853, 3612356139, 3612356138, 3612356137, 3612356110, 3612356115, 3612355990, 5226880854, 3612356095], "tags": {"addr:district": "Chennai", "addr:full": "No. 106, Jawaharlal Nehru Salai, Thirumangalam, Anna Nagar West, Near VR Mall , Koyambedu Junction, Chennai", "addr:postcode": "600040", "addr:state": "Tamil Nadu", "amenity": "hospital", "building": "hospital", "contact:email": "ask@bewellhospitals.com", "healthcare": "hospital", "name": "Be Well Hospitals", "source": "OpenGovernmentData", "website": "https://www.bewellhospitals.in/"}}, {"type": "way", "id": 1234813078, "nodes": [11461791503, 11461791504, 11461791505, 11461791506, 11461791503], "tags": {"amenity": "hospital", "healthcare": "hospital", "name": "Cherish Hospital"}}]}