{"version": 0.6, "generator": "Overpass API 0.7.62.8 e802775f", "osm3s": {"timestamp_osm_base": "2026-01-12T01:41:32Z", "copyright": "The data included in this document is from www.openstreetmap.org. The data is made available under ODbL."}, "elements": [{"type": "node", "id": 902311398, "lat": 17.4556983, "lon": 78.4984034, "tags": {"addr:street": "Vikrampuri", "amenity": "hospital", "emergency": "yes", "name": "Oxygen Hospital"}}, {"type": "node", "id": 1050786520, "lat": 17.4693193, "lon": 78.4778376, "tags": {"amenity": "hospital"}}, {"type": "node", "id": 1435322433, "lat": 17.4512881, "lon": 78.5354859, "tags": {"amenity": "hospital", "emergency": "yes", "name": "L.K. Diagnostic"}}, {"type": "node", "id": 1435322445, "lat": 17.4513853, "lon": 78.5352525, "tags": {"addr:district": "Hyderabad", "addr:full": "4-159 & 4-172, Near Raghavendra Theatre, Maruthi Nagar, Malkajgiri", "addr:postcode": "500047", "addr:state": "Telangana", "amenity": "hospital", "emergency": "yes", "name": "L.K. Hospitals", "source": "OpenGovernmentData"}}, {"type": "node", "id": 1438252866, "lat": 17.451435, "lon": 78.5311968, "tags": {"amenity": "hospital", "emergency": "yes", "name": "Dental Hospital"}}, {"type": "node", "id": 3387296810, "lat": 17.4824476, "lon": 78.5527351}, {"type": "node", "id": 3387296811, "lat": 17.48284, "lon": 78.5528812}, {"type": "node", "id": 3387296812, "lat": 17.4827799, "lon": 78.5530589}, {"type": "node", "id": 3387296813, "lat": 17.4823875, "lon": 78.5529129}, {"type": "node", "id": 3598267888, "lat": 17.4631717, "lon": 78.4904751, "tags": {"amenity": "hospital", "emergency": "no", "name": "Janapareddy Hospital"}}, {"type": "node", "id": 3614774687, "lat": 17.4685801, "lon": 78.4895471}, {"type": "node", "id": 3614774696, "lat": 17.468604, "lon": 78.4894077}, {"type": "node", "id": 3614774839, "lat": 17.4688871, "lon": 78.4896576}, {"type": "node", "id": 3614774844, "lat": 17.4688958, "lon": 78.4896067}, {"type": "node", "id": 3614774894, "lat": 17.4690011, "lon": 78.4896791}, {"type": "node", "id": 3614774908, "lat": 17.4690338, "lon": 78.4894888}, {"type": "node", "id": 3617223289, "lat": 17.4502067, "lon": 78.5350026}, {"type": "node", "id": 3617223292, "lat": 17.4502139, "lon": 78.5349168}, {"type": "node", "id": 3617223522, "lat": 17.450312, "lon": 78.5350123}, {"type": "node", "id": 3617223525, "lat": 17.4503191, "lon": 78.5349265}, {"type": "node", "id": 3617224045, "lat": 17.4507987, "lon": 78.5340616}, {"type": "node", "id": 3617224055, "lat": 17.4509845, "lon": 78.533685}, {"type": "node", "id": 3617224234, "lat": 17.4512422, "lon": 78.5338443}, {"type": "node", "id": 3658594189, "lat": 17.4476651, "lon": 78.5091106}, {"type": "node", "id": 3658594191, "lat": 17.4477135, "lon": 78.5087658}, {"type": "node", "id": 3658594202, "lat": 17.4478774, "lon": 78.5091563}, {"type": "node", "id": 3658594206, "lat": 17.4479283, "lon": 78.5089814}, {"type": "node", "id": 3658594220, "lat": 17.448006, "lon": 78.5088077}, {"type": "node", "id": 5773420134, "lat": 17.446158, "lon": 78.5383502, "tags": {"addr:district": "Hyderabad", "addr:full": "10-191/2, Vasanthpuri Colony, Malkajgiri", "addr:postcode": "500047", "addr:state": "Telangana", "amenity": "hospital", "name": "Anukrushna Hospitals", "source": "OpenGovernmentData"}}, {"type": "node", "id": 6177956183, "lat": 17.4571109, "lon": 78.5465732, "tags": {"addr:city": "hyderabad", "addr:housenumber": "25-40/63", "addr:postcode": "500047", "addr:street": "Rajus Dental Clinic, H no 25-40/63, Opposite Andhra Bank,   East anandbagh Main Road, Malkajgiri, Hyderabad", "amenity": "hospital", "emergency": "yes", "healthcare": "hospital", "healthcare:speciality": "dentist", "name": "RAJUS DENTAL", "operator": "Mohan Raju", "phone": "+916303771301", "source": "Dental Clinic", "website": "https://rajusdental.com/"}}, {"type": "node", "id": 6479951769, "lat": 17.4553191, "lon": 78.5008281, "tags": {"addr:district": "Hyderabad", "addr:full": "Plot C 17, Vikrampuri Colony, Secunderabad", "addr:state": "Telangana", "amenity": "hospital", "contact:tollfree": "1801 2122", "fax": "040 27899090", "healthcare:speciality": "General Pediatrics;Neonatology;Pediatric Neurology;Anasthesia and Pain Management;Pediatric Gastroenterology;Pediatric Nephrology;Hematology & Oncology;ENT;Psychiatry;Pediatric Cardiology;Speech & Language Therapy;Physiotherapy and Rehabilitation Unit etc", "medical_system": "Allopathic", "name": "Rainbow Hospital for Women and Children, Secunderabad", "operator:type": "private", "phone": "040 27895050;040 27896060", "source": "OpenGovernmentData", "website": "https://www.rainbowhospitals.in/"}}, {"type": "node", "id": 6481937416, "lat": 17.458369, "lon": 78.5378788, "tags": {"addr:district": "Hyderabad", "addr:full": "24-112/1, Anandbagh 'X' Roads, Malkajgiri", "addr:postcode": "500047", "addr:state": "Telangana", "amenity": "hospital", "name": "ADR Hospital", "source": "OpenGovernmentData"}}, {"type": "node", "id": 6482123599, "lat": 17.5123618, "lon": 78.4754596, "tags": {"addr:district": "Hyderabad", "addr:full": "Plot Number 13 and 14, Pipeline Road, Behind Deevan Dhaba, Petbasheerabad, Jeedimetla", "addr:postcode": "500055", "addr:state": "Telangana", "amenity": "hospital", "contact:mobile": "9963545454", "email": "info@konarkhospitals.com", "health_facility:type": "Cashless Billing and Reimbursement Facility;Emergency Ambulance Services;Diagnostic Services;Surgical Services;ICU Facility;Operation Theater;Pharmacy Services", "healthcare:speciality": "multi specialty", "medical_system": "Allopathic", "name": "Konark Hospitals", "operator:type": "private", "phone": "040 44661515", "source": "OpenGovernmentData", "website": "https://www.konarkhospitals.com/"}}, {"type": "node", "id": 6484699042, "lat": 17.447062, "lon": 78.5082445, "tags": {"addr:district": "Hyderabad", "addr:full": "Road No.4, West Marredpally, Secunderabad", "addr:postcode": "500026", "addr:state": "Telangana", "amenity": "hospital", "email": "geethahospitals@gmail.com", "fax": "040 27716287", "name": "Geetha Multi Speciality Hospital", "phone": "040-27800703; 040-27801272; 040-27802138", "source": "OpenGovernmentData", "website": "https://www.geethahospitals.com/"}}, {"type": "node", "id": 6484735190, "lat": 17.4691656, "lon": 78.4773293, "tags": {"addr:district": "Hyderabad", "addr:full": "1-10-314/P, Opposite Mallareddy Gardens, Thokatta Village, Bowenpally", "addr:postcode": "500011", "addr:state": "Telangana", "amenity": "hospital", "email": "doctor@dristenetralaya.com", "name": "Dristi Netralaya Hospital", "phone": "040-27950101", "source": "OpenGovernmentData", "website": "www.dristenetralaya.com"}}, {"type": "node", "id": 6484867650, "lat": 17.4593374, "lon": 78.5004204, "tags": {"addr:district": "Hyderabad", "addr:full": "Plot No A-7, Vikrampuri Colony, Karkhana", "addr:postcode": "500009", "addr:state": "Telangana", "amenity": "hospital", "name": "Nest Children's Hospital", "source": "OpenGovernmentData"}}, {"type": "node", "id": 6485236733, "lat": 17.4500557, "lon": 78.5115261, "tags": {"addr:district": "Hyderabad", "addr:full": "Plot No 23 & 24, Sanjeev Hosping Colony East Marredpally", "addr:postcode": "500026", "addr:state": "Telangana", "amenity": "hospital", "name": "Tanvi Eye Center", "source": "OpenGovernmentData"}}, {"type": "node", "id": 6485435755, "lat": 17.4837017, "lon": 78.5373142, "tags": {"addr:district": "Hyderabad", "addr:full": "Plot No: 610, Defence Colony, Neredmet 'X' Roads, Secunderabad", "addr:postcode": "500094", "addr:state": "Telangana", "amenity": "hospital", "name": "Meda Hospital Pvt. Ltd", "source": "OpenGovernmentData"}}, {"type": "node", "id": 6485763799, "lat": 17.4767414, "lon": 78.4798486, "tags": {"addr:district": "Hyderabad", "addr:full": "8-4-123, Near Old Bowenpally Bus Stop", "addr:postcode": "500011", "addr:state": "Telangana", "amenity": "hospital", "name": "Vinciti Hospital", "source": "OpenGovernmentData"}}, {"type": "node", "id": 6486037407, "lat": 17.4595888, "lon": 78.4780213, "tags": {"addr:district": "Hyderabad", "addr:full": "Plot No. 3,Ganesh Nagar Colony,Opposite Smt. Sarojini Pulla Reddy House, Hasmathpet Road, New Bowenpally", "addr:postcode": "500011", "addr:state": "Telangana", "amenity": "hospital", "fax": "040 27957958", "name": "Cure Hospitals", "source": "OpenGovernmentData"}}, {"type": "node", "id": 6486059355, "lat": 17.4810002, "lon": 78.5334009, "tags": {"addr:district": "Hyderabad", "addr:full": "35-601/1, G K Colony, Sainikpuri", "addr:postcode": "500094", "addr:state": "Telangana", "amenity": "hospital", "name": "Rishab Eye Centre", "source": "OpenGovernmentData"}}, {"type": "node", "id": 6486149790, "lat": 17.4570199, "lon": 78.4784049, "tags": {"addr:district": "Hyderabad", "addr:full": "53, Bhima Shankar Complex Malani Housing Colony Thokatta", "addr:postcode": "500009", "addr:state": "Telangana", "amenity": "hospital", "name": "Raghavendra Orthopaedic and Diagnostic Centre", "source": "OpenGovernmentData"}}, {"type": "node", "id": 6486941192, "lat": 17.4775643, "lon": 78.5529341, "tags": {"addr:district": "Hyderabad", "addr:full": "Plot No.7, Pragathinagar, Officers Colony, Sainatupuram, Saibaba Temple Road, Besides Karur Vysya Bank", "addr:postcode": "500062", "addr:state": "Telangana", "amenity": "hospital", "name": "Vanaja Hospitals", "source": "OpenGovernmentData"}}, {"type": "node", "id": 6487033522, "lat": 17.4812995, "lon": 78.5563056, "tags": {"addr:district": "Hyderabad", "addr:full": "Plot No.4, Thyagaraya Nagar, Dr. A.S. Rao Nagar, Secunderabad", "addr:postcode": "500062", "addr:state": "Telangana", "amenity": "hospital", "contact:email": "geetanjali_ivf@yahoo.com", "name": "Geetanjali Test Tube Baby Centre", "phone": "040-27127676", "source": "OpenGovernmentData", "website": "https://www.geetanjaliivf.com"}}, {"type": "node", "id": 6487281382, "lat": 17.4502892, "lon": 78.5099416, "tags": {"addr:district": "Secunderabad", "addr:full": "1st & 2nd Floor, Gude\u2019s Plaza, Above ICICI Bank, #77, Seshachala Colony, East Marredpally main Road", "addr:postcode": "500026", "addr:state": "Telangana", "amenity": "hospital", "name": "NephroPlus Dialysis Centre", "phone": "040-40063765", "source": "OpenGovernmentData", "website": "https://www.nephroplus.com/"}}, {"type": "node", "id": 6487647064, "lat": 17.4825166, "lon": 78.5510686, "tags": {"addr:district": "Hyderabad", "addr:full": "Sainikpuri, Secunderabad", "addr:postcode": "500094", "addr:state": "Telangana", "amenity": "hospital", "name": "Bhavan's Sarada Devi Hospital", "source": "OpenGovernmentData"}}, {"type": "node", "id": 6487654694, "lat": 17.4549634, "lon": 78.5087728, "tags": {"addr:district": "Hyderabad", "addr:full": "Plot No. 18, Indrapuri Railway Colony, West Marredpally", "addr:postcode": "500026", "addr:state": "Telangana", "amenity": "hospital", "fax": "040 27712131", "name": "Sree Maruthi Nursing Home", "source": "OpenGovernmentData"}}, {"type": "node", "id": 6487670042, "lat": 17.4565491, "lon": 78.5014417, "tags": {"addr:district": "Hyderabad", "addr:full": "E-30,31 Vikrampuri Colony", "addr:postcode": "500003", "addr:state": "Telangana", "amenity": "hospital", "fax": "27814173", "name": "Parvathi Multispeciality Hospital", "source": "OpenGovernmentData"}}, {"type": "node", "id": 6487685466, "lat": 17.5028854, "lon": 78.5132843, "tags": {"addr:district": "Hyderabad", "addr:full": "8-84, Temple Road, Alwal", "addr:postcode": "500010", "addr:state": "Telangana", "amenity": "hospital", "name": "Sundari Maternity and General Hospital", "source": "OpenGovernmentData"}}, {"type": "node", "id": 6487879316, "lat": 17.4751261, "lon": 78.5394748, "tags": {"addr:district": "Hyderabad", "addr:full": "29-75/6E, Kakatiya Nagar, Near Old Police Station, Neredmet, Secunderabad", "addr:postcode": "500056", "addr:state": "Telangana", "amenity": "hospital", "name": "Sriya Hospital", "source": "OpenGovernmentData", "website": "http://www.sriyahospital.com"}}, {"type": "node", "id": 6487901010, "lat": 17.4951472, "lon": 78.5130295, "tags": {"addr:district": "Hyderabad", "addr:full": "Next To Hanuman Temple Main Road Lothkunta (Alwal) ad", "addr:postcode": "500015", "addr:state": "Telangana", "amenity": "hospital", "name": "Jayaprada Hospital", "source": "OpenGovernmentData"}}, {"type": "node", "id": 6489790935, "lat": 17.5185239, "lon": 78.4822022, "tags": {"addr:district": "Hyderabad", "addr:full": "Plot No. 34, 34/A, NCL South, Petbasheerabad, Medchal Road, Secunderabad", "addr:postcode": "500055", "addr:state": "Telangana", "amenity": "hospital", "email": "balaji.hospital@yahoo.com", "name": "Sree Balaji Hospital", "phone": "040-27164000", "source": "OpenGovernmentData", "website": "www.sreebalajihospital.com"}}, {"type": "node", "id": 6490089435, "lat": 17.520925, "lon": 78.484531, "tags": {"addr:district": "Hyderabad", "addr:full": "Plot No: 1-76/1/b/4, Ganga Enclave, Pet Basheerabad, Medchal Road, Secunderabad", "addr:postcode": "500055", "addr:state": "Telangana", "amenity": "hospital", "contact:email": "drprsunk@yahoo.com", "contact:mobile": "9949073049", "fax": "040 27165116", "healthcare:speciality": "multi specialty", "medical_system": "Allopathic", "name": "Harsha Hospitals", "operator:type": "private", "phone": "040 27165110", "source": "OpenGovernmentData", "website": "http://www.harshahospitals.com"}}, {"type": "node", "id": 6491359724, "lat": 17.49926, "lon": 78.5129283, "tags": {"addr:district": "Hyderabad", "addr:full": "Behind Satya Petrol Pump, Alwal", "addr:postcode": "500010", "addr:state": "Telangana", "amenity": "hospital", "name": "G.N.R. Multispeciality Hospital", "source": "OpenGovernmentData"}}, {"type": "node", "id": 6493547008, "lat": 17.4593055, "lon": 78.4785913, "tags": {"addr:district": "Hyderabad", "addr:full": "13A & B, Anand Nagar Colony, Near Chinna Thokatta Bridge, New Bowenpally", "addr:postcode": "500011", "addr:state": "Telangana", "amenity": "hospital", "email": "drsguduru@hotmail.com", "name": "Chandana Hospitals", "phone": "9848027177", "source": "OpenGovernmentData", "website": "www.drsureshchandrahari.com"}}, {"type": "node", "id": 6494135269, "lat": 17.4711657, "lon": 78.5050875, "tags": {"addr:district": "Hyderabad", "addr:full": "Plot No-136, S. P. Colony , Trimulgherry", "addr:postcode": "500015", "addr:state": "Telangana", "amenity": "hospital", "name": "Pratibha Maternity Home", "source": "OpenGovernmentData"}}, {"type": "node", "id": 6494422626, "lat": 17.4458107, "lon": 78.504999, "tags": {"addr:city": "Hyderabad", "addr:district": "Rangareddy", "addr:full": "10-2-256, West Maredpally", "addr:postcode": "500026", "addr:state": "Telangana", "amenity": "hospital", "contact:phone": "04066329777; 27800716", "email": "secunderabadnursinghome@gmail.com", "fax": "27800717", "name": "SECUNDERABAD NURSING HOME", "operator:type": "private", "phone": "04040061181", "source": "OpenGovernmentData"}}, {"type": "node", "id": 6494829945, "lat": 17.4936174, "lon": 78.5127834, "tags": {"addr:district": "Hyderabad", "addr:full": "5-Saraswathi Nagar,Lothkunta", "addr:postcode": "500015", "addr:state": "Telangana", "amenity": "hospital", "name": "Devi Maternity Home", "source": "OpenGovernmentData"}}, {"type": "node", "id": 6495079282, "lat": 17.4466174, "lon": 78.5360288, "tags": {"addr:district": "Hyderabad", "addr:full": "9-120, North Venkateswara Nagar, Sairam Theatre, Malkagiri", "addr:postcode": "500047", "addr:state": "Telangana", "amenity": "hospital", "name": "Santoshi Maternity Hospital", "source": "OpenGovernmentData"}}, {"type": "node", "id": 6496852838, "lat": 17.4825173, "lon": 78.5374282, "tags": {"addr:district": "Hyderabad", "addr:full": "Sajini plaza, 1st floor, 37-90/2, defence colony, Neredmet 'X' Roads, secunderabad", "addr:postcode": "500094", "addr:state": "Telangana", "amenity": "hospital", "email": "universaldentalhyd@yahoo.com", "health_facility:type": "Implantology;Correction of Irregular Teeth Braces ;Gum Surgery;Advance Root Canal Therapy;Fixed Partial Dentures;Veneering;Dental Lasers", "healthcare:speciality": "Cosmetic Dentistry; Dentistry; Orthodontics", "medical_system": "Allopathic", "name": "Universal Superspeciality Dental Hospital", "operator:type": "private", "phone": "040 27111100;040 27111101", "source": "OpenGovernmentData", "website": "https://universaldentalhospital.com/"}}, {"type": "node", "id": 6496903933, "lat": 17.4782302, "lon": 78.5558448, "tags": {"addr:district": "Hyderabad", "addr:full": "MIG, B-10, Dr. A.S. Rao Nagar Road, ECIL Main Road", "addr:postcode": "500062", "addr:state": "Telangana", "amenity": "hospital", "phone": "040 27122230", "source": "OpenGovernmentData"}}, {"type": "node", "id": 6496953497, "lat": 17.4465502, "lon": 78.5133715, "tags": {"addr:district": "Hyderabad", "addr:full": "10-3-32/9/32, Near Tagore's Home Junior College, East Marredpally", "addr:postcode": "500026", "addr:state": "Telangana", "amenity": "hospital", "name": "Taraporewalla Nursing Home", "source": "OpenGovernmentData"}}, {"type": "node", "id": 6496960846, "lat": 17.4478066, "lon": 78.508915, "tags": {"addr:district": "Hyderabad", "addr:full": "10-3-4, Entrenchment Road, East Marredpally, Opp Playground, Secunderabad,", "addr:postcode": "500026", "addr:state": "Telangana", "amenity": "hospital", "email": "info@shenoyhospitals.com", "name": "Shenoy Nursing Home", "phone": "040 4151 9999", "source": "OpenGovernmentData", "website": "https://www.shenoyhospitals.com/"}}, {"type": "node", "id": 6497360893, "lat": 17.4938323, "lon": 78.5398865, "tags": {"addr:district": "Hyderabad", "addr:full": "250, Opp Kandiguda Church, Hastinapuri Colony, Sainikpuri", "addr:postcode": "500094", "addr:state": "Telangana", "amenity": "hospital", "name": "Srinivasa Hospital", "source": "OpenGovernmentData"}}, {"type": "node", "id": 6498040562, "lat": 17.4620995, "lon": 78.5006364, "tags": {"addr:district": "Hyderabad", "addr:full": "59-1-2A, 1st Floor , Beside Police Station, Karkhana", "addr:postcode": "500009", "addr:state": "Telangana", "amenity": "hospital", "name": "Shekars Ent Hospital", "source": "OpenGovernmentData"}}, {"type": "node", "id": 6503106727, "lat": 17.4606974, "lon": 78.4904668, "tags": {"addr:district": "Hyderabad", "addr:full": "26/A, Sikh Road, Sikh Village, Near Diamond Point, Secunderabad", "addr:postcode": "500009", "addr:state": "Telangana", "amenity": "hospital", "contact:mobile": "9246276141", "email": "admin@janapareddy.co.in", "fax": "040 40147476", "health_facility:type": "Operation Theatre;Neonatal Intensive Care Unite;Neonatal Transport Team;Pediatric Intensive Care Unite;Emergency Care;In Patient Rooms;Lab;Pharmacy;Equipment and Facilities", "healthcare:speciality": "multi specialty", "medical_system": "Allopathic", "name": "Bloom Hospitals - Unit of Janapareddy Hospitals.", "operator:type": "private", "phone": "040 40147474;040 401474745;040 401474746", "source": "OpenGovernmentData", "website": "http://www.janapareddy.co.in"}}, {"type": "node", "id": 6503384572, "lat": 17.4660729, "lon": 78.4832785, "tags": {"addr:district": "Hyderabad", "addr:full": "Plot No-2, H No-2-12-149, Breg Syed Road,Bapuji Nagar Bowenpally, Cantonment", "addr:postcode": "500009", "addr:state": "Telangana", "amenity": "hospital", "name": "Lifespring Hospital", "source": "OpenGovernmentData"}}, {"type": "node", "id": 6503394122, "lat": 17.4820222, "lon": 78.5525036, "tags": {"addr:district": "Hyderabad", "addr:full": "Beside ICICI Bank, Sainikpuri, A.S. Rao Nagar", "addr:state": "Telangana", "amenity": "hospital", "contact:mobile": "097018 88488", "email": "asraonagar@ankurahospital.com", "healthcare:speciality": "Neonatology;Pediatric Critical Care;Paediatric Emergency;Paediatric Surgery;Pediatric Dentistry;Paediatric Neurology;Paediatric Cardiology;Paediatric Endocrinology", "medical_system": "Allopathic", "name": "Ankura Children's Hospital", "operator:type": "private", "phone": "040 49699999", "source": "OpenGovernmentData", "website": "https://ankurahospital.com"}}, {"type": "node", "id": 6503410509, "lat": 17.4713934, "lon": 78.4849957, "tags": {"addr:district": "Hyderabad", "addr:full": "7-A, Panchasheela Enclave, near ICRISAT Colony Phase 2, Hashmathpet", "addr:postcode": "500009", "addr:state": "Telangana", "amenity": "hospital", "name": "SKM Multi Speciality Hospital", "source": "OpenGovernmentData"}}, {"type": "node", "id": 6504107685, "lat": 17.467585, "lon": 78.4819903, "tags": {"addr:district": "Hyderabad", "addr:full": "Plot No. 129/1, Viceroy Residency, Besides Ashok Gardens, Bapuji Nagar, Main Road, Bowenpalli", "addr:postcode": "500011", "addr:state": "Telangana", "amenity": "hospital", "name": "Pavithra Hospital", "source": "OpenGovernmentData"}}, {"type": "node", "id": 6505307085, "lat": 17.4759595, "lon": 78.4837787, "tags": {"addr:district": "Hyderabad", "addr:full": "Plot No 8, Main Road, Old Bowenpally", "addr:postcode": "500011", "addr:state": "Telangana", "amenity": "hospital", "name": "Ramya Nursing Home", "source": "OpenGovernmentData"}}, {"type": "node", "id": 6505503898, "lat": 17.45035, "lon": 78.5034782, "tags": {"addr:district": "Hyderabad", "addr:full": "Street No:4, Road No:7, New Muncipal Park, West Maredpally", "addr:postcode": "500026", "addr:state": "Telangana", "amenity": "hospital", "name": "Lions Patny Hospital", "source": "OpenGovernmentData"}}, {"type": "node", "id": 6505550308, "lat": 17.503255, "lon": 78.5095681, "tags": {"addr:district": "Hyderabad", "addr:full": "1-10-11/6, New Police Station Bus Stop, Temple Alwal, Alwal", "addr:postcode": "500010", "addr:state": "Telangana", "amenity": "hospital", "email": "prashamsahospital@gmail.com", "name": "Prashamsha Hospital", "phone": "040 27970458; 040 27961858", "source": "OpenGovernmentData", "website": "www.prashamsahospital.com"}}, {"type": "node", "id": 6505570504, "lat": 17.4591328, "lon": 78.5007772, "tags": {"addr:district": "Hyderabad", "addr:full": "H.No.3-7-218 & 219, Behind Satyam Computer, ( Dc Greens )Kharkhana, Rangapaddy", "addr:postcode": "500015", "addr:state": "Telangana", "amenity": "hospital", "fax": "040 66318453", "name": "Soumya Multispeciality Hospital", "source": "OpenGovernmentData"}}, {"type": "node", "id": 6505671806, "lat": 17.4811326, "lon": 78.5541297, "tags": {"addr:district": "Hyderabad", "addr:full": "205, Bhanu Enclave, Near City Union Bank, Dr. A. S. Rao Nagar", "addr:postcode": "500062", "addr:state": "Telangana", "amenity": "hospital", "fax": "27127919", "name": "Prema Eye Care Centre", "source": "OpenGovernmentData"}}, {"type": "node", "id": 6506106769, "lat": 17.4486471, "lon": 78.4849052, "tags": {"addr:district": "Hyderabad", "addr:full": "1-14-158/1, Opp Pearl Palace, Beside Idgah, Balamrai, Near Paradise", "addr:postcode": "500003", "addr:state": "Telangana", "amenity": "hospital", "name": "J S Mahaveer Hospital", "source": "OpenGovernmentData"}}, {"type": "node", "id": 6510472444, "lat": 17.4466871, "lon": 78.5027158, "tags": {"addr:district": "Hyderabad", "addr:full": "Plot No 185, Road No 1, Near Kennedy School, West Marredpally", "addr:postcode": "500026", "addr:state": "Telangana", "amenity": "hospital", "email": "saibaba_goud@hotmail.com", "name": "Sai Jyothi Eye Institute", "phone": "040 2771 9170 ; 040 27701686", "source": "OpenGovernmentData", "website": "http://www.saijyothieyeinstitute.com"}}, {"type": "node", "id": 6510820223, "lat": 17.4505451, "lon": 78.5032415, "tags": {"addr:district": "Hyderabad", "addr:full": "Beside Lions Club Hospital, West Marredpally,Secunderabad", "addr:postcode": "500026", "addr:state": "Telangana", "amenity": "hospital", "name": "Basant Sahney Hospitals", "source": "OpenGovernmentData"}}, {"type": "node", "id": 6511011214, "lat": 17.5218368, "lon": 78.4831209, "tags": {"addr:district": "Hyderabad", "addr:full": "C - 4,5, Ganga Enclave, Opp Excellancy Garden, Petbasheerabad, Medchal Road, Rangareddy", "addr:postcode": "500055", "addr:state": "Telangana", "amenity": "hospital", "name": "RR Hospital", "source": "OpenGovernmentData"}}, {"type": "node", "id": 6513267731, "lat": 17.4504779, "lon": 78.5062201, "tags": {"addr:district": "Hyderabad", "addr:full": "10-1-254, Near Check Post, West Marredpally", "addr:postcode": "500026", "addr:state": "Telangana", "amenity": "hospital", "fax": "040 27716646", "name": "Lions Dundoo Eye Institute", "source": "OpenGovernmentData"}}, {"type": "node", "id": 6528301302, "lat": 17.5130968, "lon": 78.5541491, "tags": {"addr:district": "Hyderabad", "addr:full": "Main Road, Balaji Nagar", "addr:postcode": "500087", "addr:state": "Telangana", "amenity": "hospital", "emergency": "yes", "healthcare:speciality": "gynaecology;surgery;general;dermatology", "name": "Meenakshi Mother and Child Hospital"}}, {"type": "node", "id": 6531328860, "lat": 17.5019044, "lon": 78.5405564, "tags": {"addr:district": "Hyderabad", "addr:full": "Near Sai Baba Temple, Bapuji Nagar Colony, Yapral", "addr:postcode": "500087", "addr:state": "Telangana", "amenity": "hospital", "fixme": "Please verify the accurate position of the hospital as I have mapped the facility based on the address provided in Open Government Data", "name": "Jain Multi Speciality Hospital", "source": "OpenGovernmentData"}}, {"type": "node", "id": 6531332945, "lat": 17.4458529, "lon": 78.4663644, "tags": {"addr:district": "Hyderabad", "addr:full": "1-11-252/1A-1D, Alladin Mansion, Near Shoppers Stop, Street Number 3, Begumpet", "addr:postcode": "500016", "addr:state": "Telangana", "amenity": "hospital", "contact:email": "info@maxivisioneyehospital.com", "contact:tollfree": "1800 425 6294", "healthcare:speciality": "Cataract;Refractive;Laser;Cornea;Retina;Glaucoma;Pediatric", "medical_system": "Allopathic", "name": "Maxivision Eye Hospital", "operator:type": "private", "phone": "040 27763677", "source": "OpenGovernmentData", "website": "https://www.maxivisioneyehospital.com"}}, {"type": "node", "id": 6548796448, "lat": 17.469289, "lon": 78.4862155, "tags": {"addr:city": "Hyderabad", "addr:full": "Plot No:. 27 & 28, Hasmathpet Road, Bowenpally Beside Reliance Fresh Super Market", "addr:postcode": "500011", "addr:state": "Telangana", "amenity": "hospital", "contact:phone": "04042306565;64595609", "name": "KRUTI HOSPITAL ADVANCED EYE & DENTAL CARE", "operator": "Private", "source": "OpenGovernmentData"}}, {"type": "node", "id": 6548823374, "lat": 17.4832707, "lon": 78.5523789, "tags": {"addr:city": "Hyderabad", "addr:full": "Plot No:. 42, 43, 45 &46, VIJAYAPURI COLONY, Opp CANARA BANK SAINIKPURI, NEAR PETROL PUMP, DR A S RAO NAGAR", "addr:postcode": "500062", "addr:state": "Telangana", "amenity": "hospital", "contact:phone": "040 27140022", "name": "MAYFLOWER HOSPITAL FOR WOMEN & CHILDREN", "operator:type": "private", "source": "OpenGovernmentData"}}, {"type": "node", "id": 6548910436, "lat": 17.4657813, "lon": 78.5389222, "tags": {"addr:city": "Hyderabad", "addr:full": "H.No: 30-1587/1, Plot No: 25, CHANDRAGIRI COLONY, KRUPA COMPLEX, BESIDE BOI, OLD SAFILGUDA, MEDCHAL- MALKAJGIRI", "addr:postcode": "500047", "addr:state": "Telangana", "amenity": "hospital", "contact:phone": "7794942714", "name": "SUDHA HOSPITAL", "operator:type": "private", "source": "OpenGovernmentData"}}, {"type": "node", "id": 6549122919, "lat": 17.5072656, "lon": 78.4788038, "tags": {"addr:city": "Hyderabad", "addr:full": "H.No: 120, Green Park Avenue, Suchitra Circle, Jeedimetla Village", "addr:postcode": "500067", "addr:state": "Telangana", "amenity": "hospital", "contact:phone": "4027235867", "name": "Refracto Eye Hospital", "operator:type": "private", "source": "OpenGovernmentData"}}, {"type": "node", "id": 6549138754, "lat": 17.5246107, "lon": 78.482795, "tags": {"addr:district": "Hyderabad", "addr:full": "6A, 7A, Petbasheerabad, NH7, Near DPS, Opp St Anns, Kompally", "addr:postcode": "500055", "addr:state": "Telangana", "alt_name": "Bloom Hospitals", "amenity": "hospital", "contact:email": "admin@janapareddy.co.in", "contact:phone": "+91 9963233911 ; +91 9963233922", "name": "JANAPAREDDY HOSPITAL PVT LTD", "operator:type": "private", "source": "OpenGovernmentData"}}, {"type": "node", "id": 6549206566, "lat": 17.470118, "lon": 78.5086575, "tags": {"addr:city": "Secunderabad", "addr:full": "MOTI VALLEY, BESIDE ACER MOTORS, TIRUMALAGIRI `X` ROAD", "addr:postcode": "500015", "addr:state": "Telangana", "amenity": "hospital", "contact:phone": "4060608899", "name": "STERLING HOSPITALS PVT LTD", "operator": "Private", "source": "OpenGovernmentData"}}, {"type": "node", "id": 6549215300, "lat": 17.45558, "lon": 78.4981728, "tags": {"addr:city": "Secunderabad", "addr:full": "Plot No: 90 P&T COLONY VIKRAMPURI KARKHANA", "addr:postcode": "500009", "addr:state": "Telangana", "amenity": "hospital", "contact:phone": "4027720777", "name": "NAVJEEVAN HOSPITAL", "operator": "Private", "source": "OpenGovernmentData"}}, {"type": "node", "id": 6549219227, "lat": 17.4691425, "lon": 78.4777518, "tags": {"addr:city": "Hyderabad", "addr:full": "Plot No:.3, BAPUJI NAGAR, Opp: SAROJINI PULLA REDDY HOUSE, BOWENPALLY", "addr:postcode": "500011", "addr:state": "Telangana", "amenity": "hospital", "name": "KS MULTISPECIALTY HOSPITAL", "operator": "Private", "source": "OpenGovernmentData"}}, {"type": "node", "id": 6549322814, "lat": 17.5064398, "lon": 78.5160054, "tags": {"addr:district": "Secunderabad", "addr:full": "BUNGALOW NO-56, SURVEY NO- 606, GV REDDY COLONY, Opp: RYTHU BAZAAR, ALWAL", "addr:postcode": "500010", "addr:state": "Telangana", "amenity": "hospital", "contact:phone": "27862699", "name": "jubilee hospitals", "operator": "Private", "source": "OpenGovernmentData"}}, {"type": "node", "id": 6549338256, "lat": 17.4997723, "lon": 78.477497, "tags": {"addr:district": "Hyderabad", "addr:full": "H.No. 2-181/2/C , Near Suchitra Circle, Alwal Road, Ramraj Nagar, Jeedimetla", "addr:postcode": "500067", "addr:state": "Telangana", "amenity": "hospital", "contact:phone": "040 44441111; +91 8886611108", "name": "RUSSH SUPER SPECIALITY HOSPITAL", "operator:type": "private", "source": "OpenGovernmentData", "website": "https://russhhospital.com/"}}, {"type": "node", "id": 6549381430, "lat": 17.4566496, "lon": 78.4786342, "tags": {"addr:city": "Secunderabad", "addr:full": "H.No: 53, MALANI HOUSING COLONY, NEW NEW BOWENPALLY", "addr:postcode": "500009", "addr:state": "Telangana", "amenity": "hospital", "contact:phone": "27952288;27952244", "name": "SAI GURU RAGHAVENDRA ORTHOPEADIC & MULTISPECIALITY", "operator": "Private", "source": "OpenGovernmentData"}}, {"type": "node", "id": 6560362897, "lat": 17.4722792, "lon": 78.5170314, "tags": {"addr:district": "Hyderabad", "addr:full": "Military Hospital premises Trimulgherry", "addr:place": "Secunderabad", "addr:state": "Telangana", "amenity": "hospital", "name": "Military Hospital"}}, {"type": "node", "id": 6561171891, "lat": 17.4711388, "lon": 78.5078877, "tags": {"addr:district": "Hyderabad", "addr:full": "Rtc Colony, Trimulgherry", "addr:postcode": "500015", "addr:state": "Telangana", "amenity": "hospital", "name": "Vamshi Hospital - Trimulgherry", "source": "OpenGovernmentData"}}, {"type": "node", "id": 6562751438, "lat": 17.5051697, "lon": 78.5071749, "tags": {"addr:district": "Hyderabad", "addr:full": "House No. 1-7-39/B, Plot No. 9, Main Road, Temple Alwal, Secunderabad", "addr:postcode": "5000010", "addr:state": "Telangana", "amenity": "hospital", "contact:phone": "+91 9652100844", "name": "Life Spring Maternity Hospital", "source": "OpenGovernmentData", "website": "https://www.lifespring.in/"}}, {"type": "node", "id": 6811749088, "lat": 17.5314158, "lon": 78.4875009, "tags": {"addr:district": "Hyderabad", "addr:full": "H.No: 3-63/4a, Main Road, NH 7, Near Cine Planet, Beside Croma, Komapally", "addr:state": "Telangana", "amenity": "hospital", "contact:mobile": "8096104104", "contact:phone": "040 68180000", "name": "Srikara Hospital", "operator:type": "Private", "source": "OpenGovernmentData"}}, {"type": "node", "id": 6811749127, "lat": 17.517046, "lon": 78.480475, "tags": {"addr:district": "Medchal Malkajgiri", "addr:full": "National Highway 44, Opp.Canton Residential Township, NCL Enclave South, Jeedimetla", "addr:postcode": "500015", "addr:state": "Telangana", "amenity": "hospital", "contact:mobile": "8886668026", "name": "Suraksha Women And Children Hospital", "source": "OpenGovernmentData"}}, {"type": "node", "id": 6811749169, "lat": 17.513357, "lon": 78.556607, "tags": {"addr:district": "Medchal Malkajgiri", "addr:full": "Sai Kamman Road, Near Shivalayam, Vishwa Karma Colony, Balaji Nagar, Secunderabad", "addr:postcode": "500094", "addr:state": "Telangana", "amenity": "hospital", "name": "Aditya Hospital", "source": "OpenGovernmentData"}}, {"type": "node", "id": 6935540196, "lat": 17.4787553, "lon": 78.4816433, "tags": {"addr:city": "SECUNDERABAD", "addr:street": "MALLIKARJUNA COLONY", "amenity": "hospital", "healthcare": "hospital", "name": "SHEKAR HOSPITAL"}}, {"type": "node", "id": 8151182017, "lat": 17.493969, "lon": 78.513036, "tags": {"addr:street": "Lothkunta", "amenity": "hospital", "name": "Sri sanjeevini", "name:en": "Sri sanjeevini multi speciality, sharadha dental clinic,sks eye care hospitals"}}, {"type": "node", "id": 8233048690, "lat": 17.4591866, "lon": 78.5007832, "tags": {"amenity": "hospital", "healthcare": "hospital"}}, {"type": "node", "id": 8759169871, "lat": 17.4753103, "lon": 78.4857756, "tags": {"addr:district": "Hyderabad", "addr:full": "Hasmathpet, Bowenpally, Secunderabad", "addr:postcode": "500009", "addr:state": "Telangana", "amenity": "hospital", "name": "SKS Hospital", "source": "Local Knowledge"}}, {"type": "node", "id": 8760787195, "lat": 17.4557195, "lon": 78.4992805, "tags": {"addr:district": "Medchal", "addr:full": "Vikrampuri Colony, Karkhana, Secunderabad", "addr:postcode": "500009", "addr:state": "Telangana", "amenity": "hospital", "name": "Rainbow Children's Medicare Pvt Ltd", "source": "Local Knowledge"}}, {"type": "node", "id": 8760982633, "lat": 17.5057005, "lon": 78.4670243, "tags": {"addr:district": "Medchal", "addr:full": "Suchitra, Sri Krishna Nagar, Quthbullapur, Hyderabad", "addr:postcode": "500055", "addr:state": "Telangana", "amenity": "hospital", "name": "Srujana Hospitals", "source": "Local Knowledge"}}, {"type": "node", "id": 8763276400, "lat": 17.4867461, "lon": 78.5540117, "tags": {"addr:district": "Medchal", "addr:full": "Nethaji Nagar, Rukminipuri Colony, Kapra, Secunderabad", "addr:postcode": "500094", "addr:state": "Telangana", "amenity": "hospital", "name": "Nandini Hospital", "source": "Local Knowledge"}}, {"type": "node", "id": 8763411325, "lat": 17.5079988, "lon": 78.5022081, "tags": {"addr:district": "Medchal", "addr:full": "1-5-56/29,Plot No.29,Old Alwal,Near IG Statue, Secunderabad", "addr:postcode": "500010", "addr:state": "Telangana", "amenity": "hospital", "name": "Excel Hospitals", "source": "Local Knowledge"}}, {"type": "node", "id": 8941817855, "lat": 17.4475965, "lon": 78.5089418, "tags": {"addr:city": "East Marredpally", "addr:housenumber": "5A Ground Floor", "addr:postcode": "500026", "addr:street": "Main Rd", "amenity": "hospital", "description": "Senior Ayurvedic Doctor specializing in Gastric, Piles, Joint, Skin Complaints and other conditions.", "email": "office@ayurdoctor.in", "emergency": "no", "healthcare": "hospital", "healthcare:speciality": "ayurveda;Piles;general", "name": "Shakti Ayurvedic Clinic", "operator": "Dr Prashant Kumar", "operator:type": "private", "phone": "+91-9848574437", "website": "www.ayurdoctor.in"}}, {"type": "node", "id": 9355590863, "lat": 17.4801489, "lon": 78.5121788, "tags": {"amenity": "hospital", "healthcare": "hospital"}}, {"type": "node", "id": 10836251320, "lat": 17.4510364, "lon": 78.5341953}, {"type": "node", "id": 11001544010, "lat": 17.4504805, "lon": 78.5321201, "tags": {"addr:district": "Medchal Malkajgiri", "addr:place": "Geetha Nagar Malkajgiri", "addr:state": "Telangana", "addr:street": "Geetha Nagar Malkajgiri", "addr:subdistrict": "Malkajgiri", "amenity": "hospital", "healthcare": "hospital", "name": "AREA HOSPITAL MALKAJGIRI", "operational_status": "operational", "operator:type": "government", "source": "OpenDataTelangana"}}, {"type": "node", "id": 13152123729, "lat": 17.4504161, "lon": 78.503069}, {"type": "node", "id": 13152123730, "lat": 17.4503955, "lon": 78.5030634}, {"type": "node", "id": 13152123731, "lat": 17.4503922, "lon": 78.5031109}, {"type": "node", "id": 13152123732, "lat": 17.4504153, "lon": 78.5031148}, {"type": "node", "id": 13152123733, "lat": 17.450419, "lon": 78.5030919}, {"type": "way", "id": 331629144, "nodes": [3387296810, 3387296811, 3387296812, 3387296813, 3387296810], "tags": {"addr:district": "Hyderabad", "addr:full": "Plot No. A-2 & B-17, Rukminipuri Colony, Dr. A S Rao Nagar Main Road", "addr:postcode": "500062", "addr:state": "Telangana", "amenity": "hospital", "fax": "+91 9032920000; 040-27141079", "name": "Poulomi Hospital", "source": "OpenGovernmentData", "website": "https://poulomihospital.com"}}, {"type": "way", "id": 355979902, "nodes": [3614774696, 3614774908, 3614774894, 3614774839, 3614774844, 3614774687, 3614774696], "tags": {"addr:district": "Hyderabad", "addr:full": "Manovikas Nagar, Secunderabad, Near Delhi Public School", "addr:postcode": "500009", "addr:state": "Telangana", "addr:subdistrict": "Secunderabad", "amenity": "hospital", "building": "yes", "contact:phone": "04027753385", "health_facility:type": "Others", "healthcare": "centre", "name": "Southern Regional Centre of Ali Yavar Jung National Institute for the Hearing Handicapped (AYJNIHH)", "source": "OpenGovernmentData"}}, {"type": "way", "id": 356248376, "nodes": [3617224234, 10836251320, 3617224045, 3617224055, 3617224234], "tags": {"amenity": "hospital", "healthcare": "hospital", "name": "Govt hospital"}}, {"type": "way", "id": 356249092, "nodes": [3617223525, 3617223522, 3617223289, 3617223292, 3617223525], "tags": {"addr:city": "Hyderabad", "addr:housenumber": "5-12", "addr:postcode": "500047", "addr:street": "Geetha nagar Malkajgiri", "amenity": "hospital", "building:levels": "1", "description": "Premium dental & orofacial clinic", "emergency": "yes", "healthcare": "hospital", "healthcare:speciality": "dentistry;emergency", "image": "https://www.ctomatodont.com/wp-content/uploads/2017/03/cropped-logo-transparent-192x192.png", "name": "Ctomatodont Dental Care", "operator": "Ctomatodont", "operator:type": "private", "website": "https://www.ctomatodont.com/"}}, {"type": "way", "id": 361374554, "nodes": [3658594220, 3658594206, 3658594202, 3658594189, 3658594191, 3658594220], "tags": {"amenity": "hospital", "emergency": "yes", "healthcare": "hospital", "name": "Shenoy Hospital", "operator": "Shenoy Multi-Speciality Hospitals", "operator:type": "private"}}, {"type": "way", "id": 1430785676, "nodes": [13152123729, 13152123730, 13152123731, 13152123732, 13152123733, 13152123729], "tags": {"addr:city": "Hyderabad", "addr:district": "Hyderabad", "addr:housenumber": "plot no 28", "addr:postcode": "500026", "addr:street": "shriraghava garden rd near punjab nation bank west marredpally secunderabad", "amenity": "hospital", "healthcare": "hospital", "healthcare:speciality": "paediatrics;diabetology;diagnostics;general;vaccination;blood_check;pathology;vascular_surgery", "name": "Pulse Clinics and Diagnostics", "operator": "owner", "operator:type": "business"}}]}