{"version": 0.6, "generator": "Overpass API 0.7.62.8 e802775f", "osm3s": {"timestamp_osm_base": "2026-01-13T02:29:33Z", "copyright": "The data included in this document is from www.openstreetmap.org. The data is made available under ODbL."}, "elements": [{"type": "node", "id": 2593895374, "lat": 17.4011535, "lon": 78.5707964}, {"type": "node", "id": 2593895376, "lat": 17.4010382, "lon": 78.5707944}, {"type": "node", "id": 2593895378, "lat": 17.4010369, "lon": 78.5708786}, {"type": "node", "id": 2593895380, "lat": 17.4011522, "lon": 78.5708806}, {"type": "node", "id": 2593908683, "lat": 17.4058981, "lon": 78.5913809}, {"type": "node", "id": 2593908685, "lat": 17.40581, "lon": 78.5914073}, {"type": "node", "id": 2593908687, "lat": 17.4058377, "lon": 78.5915092}, {"type": "node", "id": 2593908689, "lat": 17.4059258, "lon": 78.5914829}, {"type": "node", "id": 3616927598, "lat": 17.4692052, "lon": 78.5649072}, {"type": "node", "id": 3616927631, "lat": 17.4692827, "lon": 78.5647678}, {"type": "node", "id": 3616927643, "lat": 17.4693068, "lon": 78.5649694}, {"type": "node", "id": 3616927674, "lat": 17.4693843, "lon": 78.5648299}, {"type": "node", "id": 5538998266, "lat": 17.4027495, "lon": 78.5826543, "tags": {"addr:district": "Hyderabad", "addr:full": "Plot No 2&3,Beside Axis Bank, Peerzadiguda,Near Uppal.", "addr:postcode": "500039", "addr:state": "Telangana", "amenity": "hospital", "email": "info@sparkhospitals.com", "fax": "040 27206622", "name": "Spark Hospitals", "phone": "040-27206777/621", "source": "OpenGovernmentData", "website": "www.sparkhospitals.com"}}, {"type": "node", "id": 5539039096, "lat": 17.405751, "lon": 78.5871698, "tags": {"addr:district": "Hyderabad", "addr:full": "P. No. 6, H. No. 3-13/2, Mallikarjuna Nagar, Opposite Uppal Bus Depot, Peerzadiguda, Ghatkesar Mdl", "addr:postcode": "500092", "addr:state": "Telangana", "amenity": "hospital", "name": "Surya Hospital, Hyderabad", "source": "OpenGovernmentData"}}, {"type": "node", "id": 5608402071, "lat": 17.4080743, "lon": 78.5988119, "tags": {"addr:city": "Hyderabad", "addr:full": "Plot No: 50 & 51, MEDIPALLY, WARANGAL HIGHWAY, UPPAL", "addr:postcode": "500098", "addr:state": "Telangana", "amenity": "hospital", "contact:phone": "9100926436; 04027215252; 27209901", "name": "APEX HOSPITAL", "operator": "Private", "source": "OpenGovernmentData"}}, {"type": "node", "id": 5763499578, "lat": 17.4124431, "lon": 78.5839032}, {"type": "node", "id": 5763499579, "lat": 17.4123356, "lon": 78.5839002}, {"type": "node", "id": 5763499580, "lat": 17.4123381, "lon": 78.5838019}, {"type": "node", "id": 5763499581, "lat": 17.4124456, "lon": 78.583805}, {"type": "node", "id": 6484905715, "lat": 17.4738034, "lon": 78.5692647, "tags": {"addr:district": "Hyderabad", "addr:full": "D.No. 1-7-226, Kamala Nagar, Opposite Water Tank, ECIL Post", "addr:postcode": "500062", "addr:state": "Telangana", "amenity": "hospital", "name": "Soorya Orthopaedic Hospital", "source": "OpenGovernmentData"}}, {"type": "node", "id": 6485458540, "lat": 17.4017218, "lon": 78.5756557, "tags": {"addr:district": "Hyderabad", "addr:full": "Survey Number 93/2 and 125, Opposite Bharath Petrol Pump, Warangal Highway Mainroad, Shanthi Nagar, Uppal", "addr:postcode": "500039", "addr:state": "Telangana", "amenity": "hospital", "email": "uppal@adityahospital.com", "fax": "040 33855644", "health_facility:type": "Clinical Services;Diagnostic Services;Laboratory Services and Transfusion Services;Pharmacy;Ambulance Services;Dietetics;Physiotherapy;Laboratory Service", "healthcare:speciality": "Cardiology;Nephrology;Orthopaedics;Internal Medicine;Critical Care;Radiology;General Medicine;Gastroenterology;Endocrinalogy;Dermatology;Pulmonology;Pediatrics", "medical_system": "Allopathic", "name": "Aditya Hospital, Uppal", "operator:type": "private", "phone": "040 33855555", "source": "OpenGovernmentData", "website": "https://www.adityahospital.com/"}}, {"type": "node", "id": 6486957243, "lat": 17.4028902, "lon": 78.5828997, "tags": {"addr:district": "Hyderabad", "addr:full": "Beside ICICI Bank, Main Road, Peerzadiguda, Boduppal", "addr:state": "Telangana", "amenity": "hospital", "contact:mobile": "9849554545", "email": "boduppal@ankurahospital.com", "medical_system": "Allopathic", "name": "Ankura Hospital, Boduppal", "operator:type": "private", "phone": "040 49799999", "source": "OpenGovernmentData", "website": "https://www.ankurahospital.com/"}}, {"type": "node", "id": 6488677506, "lat": 17.4747705, "lon": 78.5678552, "tags": {"addr:district": "Hyderabad", "addr:full": "1-7-100, Kamala Nagar, ECIL 'X' Road", "addr:postcode": "500062", "addr:state": "Telangana", "amenity": "hospital", "name": "Raghavendra Hospital", "source": "OpenGovernmentData"}}, {"type": "node", "id": 6489613991, "lat": 17.4571396, "lon": 78.5631077, "tags": {"addr:district": "Hyderabad", "addr:full": "APHB Colony, Meerpet, Moula-Ali", "addr:postcode": "500040", "addr:state": "Telangana", "amenity": "hospital", "name": "M S Reddy Lions Eye Hospital", "source": "OpenGovernmentData"}}, {"type": "node", "id": 6489835094, "lat": 17.401288, "lon": 78.5648384, "tags": {"addr:district": "Hyderabad", "addr:full": "Near Gandhi Statue, Uppal Main Road", "addr:postcode": "500039", "addr:state": "Telangana", "amenity": "hospital", "name": "Sathya Hospital", "source": "OpenGovernmentData"}}, {"type": "node", "id": 6503446084, "lat": 17.4727007, "lon": 78.5713568, "tags": {"addr:district": "Hyderabad", "addr:full": "Plot Number 43, EC Extension, ECIL 'X' Roads", "addr:postcode": "500062", "addr:state": "Telangana", "amenity": "hospital", "contact:email": "info@xeniahospitals.com", "contact:mobile": "9000681166", "fax": "040 27134666", "healthcare:speciality": "Internal Medicine;Neurology;Gastroenterology;Anesthesiology;Cardiology;Trauma Care;Neurophysiology;Plastic Surgery", "medical_system": "Allopathic", "name": "Xenia Multi Speciality Hospital", "operator:type": "private", "phone": "040 27144000;040 27144777", "source": "OpenGovernmentData", "website": "www.xeniahospitals.in"}}, {"type": "node", "id": 6503660417, "lat": 17.4002489, "lon": 78.5665409, "tags": {"addr:district": "Hyderabad", "addr:full": "Vijayapuri Colony, Uppal", "addr:postcode": "500039", "addr:state": "Telangana", "amenity": "hospital", "healthcare": "hospital", "healthcare:speciality": "paediatrics", "name": "Ammaji Childrens Hospital", "source": "OpenGovernmentData"}}, {"type": "node", "id": 6503669088, "lat": 17.4748831, "lon": 78.5709384, "tags": {"addr:district": "Hyderabad", "addr:full": "A-12, Electronic Complex, Beside SBI, Kushaiguda, ECIL 'X' Roads", "addr:postcode": "500062", "addr:state": "Telangana", "amenity": "hospital", "contact:email": "info@tulasihospials.com", "contact:mobile": "+91 9505108108", "name": "Tulasi Hospitals", "source": "OpenGovernmentData", "website": "http://thulasihospitals.com"}}, {"type": "node", "id": 6505167632, "lat": 17.4004716, "lon": 78.5666549, "tags": {"addr:city": "Hyderabad", "addr:district": "Hyderabad", "addr:full": "Uppal Main Road", "addr:postcode": "500039", "addr:state": "Telangana", "amenity": "hospital", "healthcare": "hospital", "name": "Shiva Sai Hospital", "source": "OpenGovernmentData"}}, {"type": "node", "id": 6518192361, "lat": 17.4183783, "lon": 78.5835349, "tags": {"addr:city": "Hyderabad", "addr:postcode": "500092", "addr:street": "West Hanuman Nagar", "amenity": "hospital", "emergency": "yes", "healthcare": "hospital", "healthcare:speciality": "general", "name": "RBM Multi-Speciality Hospital"}}, {"type": "node", "id": 6518297217, "lat": 17.4090144, "lon": 78.5864131, "tags": {"addr:city": "Hyderabad", "addr:postcode": "500092", "addr:street": "Mallikarjuna Nagar, Boduppal", "amenity": "hospital", "healthcare": "hospital", "healthcare:speciality": "paediatrics", "name": "AVI Clinic", "operator": "Dr Suman"}}, {"type": "node", "id": 6518592570, "lat": 17.4124176, "lon": 78.5838042}, {"type": "node", "id": 6518592571, "lat": 17.4124076, "lon": 78.5838039}, {"type": "node", "id": 6530772004, "lat": 17.4524815, "lon": 78.5685701, "tags": {"addr:district": "Hyderabad", "addr:full": "3-5-85, Road No. 4, Krishna Nagar Colony, NFC Main Road, H B Colony, Moula Ali", "addr:postcode": "500040", "addr:state": "Telangana", "amenity": "hospital", "fixme": "Please verify the accurate position of the hospital as I have mapped the facility based on the address provided in Open Government Data", "name": "Dhanunjaya Nursing Home", "source": "OpenGovernmentData"}}, {"type": "node", "id": 6536327470, "lat": 17.4455011, "lon": 78.5678539, "tags": {"addr:district": "Hyderabad", "addr:full": "M.V. Rama Rao Complex, Opposite Sai Towers, Mallapur Main Road", "addr:postcode": "500076", "addr:state": "Telangana", "amenity": "hospital", "name": "Aashritha Hospital", "source": "OpenGovernmentData"}}, {"type": "node", "id": 6548874152, "lat": 17.473687, "lon": 78.571436, "tags": {"addr:city": "Hyderabad", "addr:full": "Plot No: 13, SVK Towers, Kushaiguda Main Road, Near A.S Rao Nagar, ECIL Cross Road, Secunderabad", "addr:postcode": "500062", "addr:state": "Telangana", "amenity": "hospital", "email": "info@soliseyecare.com", "name": "SOLIS EYE CARE HOSPITALS PVT LTD", "operator:type": "private", "phone": "040-40068855; 040-40028855", "source": "OpenGovernmentData", "website": "http://www.soliseyecare.com"}}, {"type": "node", "id": 6549320016, "lat": 17.4714919, "lon": 78.5676406, "tags": {"addr:district": "Hyderabad", "addr:full": "1-7-181, KAMALA NAGAR, Opp. DAE Colony ('D' Sector Gate), KAPRA, ECIL", "addr:postcode": "500062", "addr:state": "Telangana", "amenity": "hospital", "contact:phone": "4027135842", "name": "ARC HOSPITAL", "operator:type": "private", "source": "OpenGovernmentData"}}, {"type": "node", "id": 6632844432, "lat": 17.4189151, "lon": 78.5654264, "tags": {"amenity": "hospital", "healthcare": "hospital", "healthcare:speciality": "laparascopic_surgery", "name": "Satya Multi Speciality Hospital", "phone": "+91 7093088502;+91 9030911252"}}, {"type": "node", "id": 6811749054, "lat": 17.417667, "lon": 78.632292, "tags": {"addr:district": "Medchal Malkajgiri", "addr:full": "Korremula Cross Road, Narepally, Hyderabad", "addr:postcode": "501301", "addr:state": "Telangana", "amenity": "hospital", "name": "Vajra Hospitals", "source": "OpenGovernmentData"}}, {"type": "node", "id": 6811749148, "lat": 17.4028303, "lon": 78.5741446, "tags": {"addr:district": "Hyderabad", "addr:full": "Opp. Aditya Hospital, Beside Petrol Bunk Lane , Uppal", "addr:state": "Telangana", "amenity": "hospital", "contact:mobile": "9246542348", "contact:phone": "040 64552348", "name": "Lakshmi Priya Nursing", "source": "OpenGovernmentData"}}, {"type": "node", "id": 6811749151, "lat": 17.4023438, "lon": 78.5670163, "tags": {"addr:district": "Medchal Malkajgiri", "addr:full": "2-6-71/A, Bharath Nagar Colony, Near Masjid, Uppal", "addr:postcode": "500039", "addr:state": "Telangana", "amenity": "hospital", "name": "SKIMS Hospital", "source": "OpenGovernmentData"}}, {"type": "node", "id": 8759230773, "lat": 17.4012471, "lon": 78.5636616, "tags": {"addr:district": "Hyderabad", "addr:full": "Vijayapuri Colony, Uppal, Hyderabad", "addr:postcode": "500039", "addr:state": "Telangana", "amenity": "hospital", "name": "Tapadia Diagnostics Centre", "source": "Local Knowledge"}}, {"type": "node", "id": 8760959031, "lat": 17.4058368, "lon": 78.5875386, "tags": {"addr:district": "Medchal", "addr:full": "H-NO, 3-13/3, Mallikarjuna Nagar Colony,Boduppal, Hyderabad", "addr:postcode": "500092", "addr:state": "Telangana", "amenity": "hospital", "name": "Save Hospitals", "source": "Local Knowledge"}}, {"type": "node", "id": 8763598296, "lat": 17.4009873, "lon": 78.5794678, "tags": {"addr:district": "Medchal", "addr:full": "H.No.: 2-3-214/156/NR, beside kattamaisamma Temple, Hyderabad", "addr:postcode": "500039", "addr:state": "Telangana", "amenity": "hospital", "name": "Shree Healthcare Multi Specialty Hospital", "source": "Local Knowledge"}}, {"type": "node", "id": 9369549952, "lat": 17.4527375, "lon": 78.5648775, "tags": {"amenity": "hospital", "healthcare": "hospital", "name": "Rahul Meidials"}}, {"type": "node", "id": 9369555762, "lat": 17.4527443, "lon": 78.5647251, "tags": {"amenity": "hospital", "healthcare": "hospital", "name": "Nandini"}}, {"type": "node", "id": 9679093983, "lat": 17.4366107, "lon": 78.6038388, "tags": {"amenity": "hospital", "healthcare": "hospital", "name": "Rikshith medical"}}, {"type": "node", "id": 9870554869, "lat": 17.4113015, "lon": 78.5859926, "tags": {"amenity": "hospital", "healthcare": "hospital", "name": "Vijaya Diagnostics Center"}}, {"type": "node", "id": 10959100965, "lat": 17.4410992, "lon": 78.5720791, "tags": {"addr:city": "Hyderabad", "addr:postcode": "500076", "addr:street": "sv nagar", "amenity": "hospital", "healthcare": "hospital", "name": "Sri rama clinic"}}, {"type": "way", "id": 253465843, "nodes": [2593895374, 2593895376, 2593895378, 2593895380, 2593895374], "tags": {"addr:district": "Hyderabad", "addr:full": "Opposite Vegetable Market, Uppal Main Road", "addr:postcode": "500039", "addr:state": "Telangana", "amenity": "hospital", "building": "yes", "name": "Shreeda Children's Hospital", "source": "OpenGovernmentData"}}, {"type": "way", "id": 253467402, "nodes": [2593908683, 2593908685, 2593908687, 2593908689, 2593908683], "tags": {"addr:district": "Hyderabad", "addr:full": "H.No-9-1/3, Sri Ram Nagar Colony,Peerjadiguda (Village),Gatkeswar(Mandal)", "addr:postcode": "500039", "addr:state": "Telangana", "amenity": "hospital", "building": "yes", "emergency": "yes", "name": "Anitha Nursing Home", "source": "OpenGovernmentData"}}, {"type": "way", "id": 356200125, "nodes": [3616927674, 3616927643, 3616927598, 3616927631, 3616927674], "tags": {"addr:district": "Hyderabad", "addr:full": "Plot No. 25, Green Hills Colony, S.P Nagar", "addr:postcode": "500040", "addr:state": "Telangana", "amenity": "hospital", "contact:phone": "040 27131591; 9059098664; 9160900966", "healthcare": "hospital", "name": "Bhaskara Orthopaedic Centre", "source": "OpenGovernmentData"}}, {"type": "way", "id": 608308376, "nodes": [5763499581, 5763499578, 5763499579, 5763499580, 6518592571, 6518592570, 5763499581], "tags": {"addr:city": "Hyderabad", "addr:postcode": "500092", "addr:street": "Boduppal", "amenity": "hospital", "building:levels": "1", "emergency": "no", "healthcare": "hospital", "name": "Primary Healthcare Center", "operator": "Government"}}]}